     0.02500000      -1577.754       1494.100      -12345.00      -12345.00
      -30.01001       227.1900      -28.16000      -12345.00      -12345.00
       0.000000       20.34000      -12345.00      -12345.00      -12345.00
      -12345.00      -12345.00      -12345.00      -12345.00      -12345.00
      -12345.00      -12345.00      -12345.00      -12345.00      -12345.00
      -12345.00      -12345.00      -12345.00      -12345.00      -12345.00
      -12345.00      -31.49900      -66.23830       530.0000       0.000000
      -31.37200      -68.11800       0.000000       97800.00       0.000000
      -12345.00      -12345.00      -12345.00      -12345.00      -12345.00
      -12345.00      -12345.00      -12345.00      -12345.00      -12345.00
       179.2507       94.99299       274.0174       1.611691      -12345.00
      -12345.00      0.1774233       0.000000       90.00000      -12345.00
      -12345.00      -12345.00      -12345.00      -12345.00      -12345.00
      -12345.00      -12345.00      -12345.00      -12345.00      -12345.00
      2008       244         6        45        33
       560         6    -12345    -12345     10289
    -12345    -12345    -12345    -12345    -12345
         1         7        13    -12345    -12345
    -12345    -12345    -12345    -12345    -12345
    -12345    -12345    -12345    -12345    -12345
    -12345    -12345    -12345    -12345    -12345
         1         1         1         1         1
ABRA    -12345          
        -12345  -12345  
-12345  -12345  -12345  
-12345  -12345  -12345  
-12345  -12345  -12345  
-12345  -12345  -12345  
-12345  -12345  BHN     
ZL      -12345  -12345  
[...]
       134.2560       45.68997       139.1126       106.5108       65.54333
       147.6455       173.4510       192.3970       84.07431      -34.34267
       15.22937       118.2708       179.7413       55.12688       10.15130
       7.800301      -21.07355       104.0716       76.08347       9.817184
      -18.41852      -83.27293       74.22704       47.91714      -43.73856
      -25.74697      -48.43176       58.93180      -1.096130      -104.0090
      -90.48103      -34.52914       22.72867      -34.06744      -58.45966
      -112.8624      -79.93706      -55.41862      -7.660599      -34.16461
      -136.2022      -60.45532      -126.5679      -133.7935      -87.70602
      -124.9695      -119.1887      -160.4265      -139.8121      -78.66479
      -134.4282      -166.4899      -103.6301      -182.0379      -243.7638
      -83.43207      -112.6740      -196.0927      -158.8446      -143.3932
      -213.0223      -291.5688      -153.5270      -84.80347      -198.8915
      -263.5222      -206.9517      -122.6194      -160.7384      -274.3951
      -247.3409      -103.0862      -138.5039      -251.8387      -293.0286
      -212.9969      -140.8577      -194.3633      -278.8129      -267.4661
      -174.8110      -237.2587      -221.9973      -122.9399      -238.1828
      -242.8548      -145.4700      -217.2435      -245.0266      -205.5327
      -209.6265      -204.5730      -179.4158      -156.3380      -206.4437
      -117.7339      -65.27924      -268.0570      -234.6668      -91.67578
      -161.6770      -208.3643      -202.1954      -160.3565      -88.83746
      -88.83569      -181.0239      -185.7448      -85.06531      -102.0210
      -243.2460      -231.7733      -98.65974      -79.74969      -86.28021
      -86.02048      -113.9274      -172.2835      -115.3611      -19.24698
      -87.23480      -161.2733      -128.7097      -27.48482      -24.03644
      -155.0257      -164.0716      -71.45058      -38.55621      -60.39670
      -74.15961      -56.68004      -76.31018      -103.3190      -59.09311
      -52.62927      -108.8165      -41.89249       28.12791      -66.28537
      -56.53435      -6.414429      -118.3137      -95.28255       58.77472
       10.45242      -84.25572       36.55634       80.72618      -15.22004
      -13.95564      -15.67822      -1.494568       64.74518       63.02798
       27.89120      -43.46677       20.70087       106.1358       81.90479
       9.877464      -38.23993       94.02960       220.1334       116.3531
       46.58207       11.96991       17.19449       155.7400       73.86047
       8.354675       152.1502       158.3584       84.24860       34.66699
       125.5204       167.6313       71.92723       71.61493       111.5996
       84.81586       164.2122       182.7431       119.6530       96.75516
       81.44812       137.7967       106.3177       127.1511       229.3222
       161.0081       141.9359       119.5134       45.89972       119.2635
       183.6643       120.3431       147.2030       170.3859       125.9492
       122.1395       171.6156       156.0529       111.1267       136.0717
       116.9479       68.64169       144.8597       181.0169       153.3202
       117.3989       90.11237       159.1146       158.0390       77.68158
       96.94598       178.6984       182.0360       59.38307       17.24561
       104.6746       192.8013       194.1924       74.65997      -20.06860
       103.6165       94.88052       72.24057       185.1057       55.65399
       4.494995       137.0259       120.8221       106.4853       89.99182
       43.18529       47.54639       83.45398       161.5508       172.4550
       75.46558       98.97646       69.77269      -6.251160       53.69180
       116.7351       210.7825       157.4325      -36.29755       93.36255
       184.8922       32.96185       65.19617       184.1175       142.3665
       16.79956       66.77612       221.6762       104.6449       9.396545
       155.3148       169.2562       126.0671       49.84819      -55.02936
       30.00897       188.2269       249.0196       70.47681       83.82962
       224.6536       61.55441      -40.39236       57.19885       136.9833
       121.9789       111.2067       111.2870       73.88116       68.23474
       13.28419       58.45754       78.20961      -81.01556       75.63190
       284.9825       36.37204      -148.8924      -39.48108       40.54313
       32.42376       26.81626       16.89761      -19.42542      -72.20789
      -120.8630      -46.86887       163.4296      -28.02533      -280.7817
      -73.82431       8.145111      -86.30470      -41.62540      -94.18289
      -163.5538      -86.99164      -141.8450      -250.9207      -112.2504
      -11.27954      -129.1111      -293.4987      -227.7290      -108.7510
      -222.1340      -237.6940      -209.9197      -177.5391      -208.0428
      -226.2384      -137.8745      -262.0307      -294.6604      -149.6183
      -269.5372      -408.5808      -264.3999      -120.5894      -191.1052
      -310.3573      -252.9819      -219.7628      -313.3553      -298.8325
      -239.1519      -201.4122      -168.8527      -197.0632      -270.5243
      -300.4468      -295.1918      -199.5259      -197.9982      -235.6210
      -244.4259      -211.2859      -173.1790      -258.5354      -162.9194
      -121.1701      -264.6635      -271.7956      -184.9682      -106.8054
      -91.22272      -113.0034      -168.7563      -155.2535      -123.1376
      -189.9679      -155.1421      -68.13275      -122.4202      -36.89503
      -16.76660      -111.0271      -83.54115      -45.31989      -103.1694
      -99.82531       35.89624      -65.10446      -139.3963      -20.46982
      -56.98521      -64.50276      -5.930328       35.04739       92.48352
       28.82169      -43.53471       29.98865       40.31592      -16.06966
      -8.868042       52.43393       77.20019       45.47647       19.26115
       28.42953      -14.22839       57.25641       200.3803       132.3109
       28.41521       39.30109       78.11105       73.79611       44.83795
       133.0847       88.49542       55.30818       114.8551       8.160660
       24.17023       145.0695       199.9302       154.4452       44.05186
       27.34950       29.24719       155.6226       194.9419       63.51071
       79.93793       86.25540       35.59894       106.7572       176.1090
       155.7688       111.6978       35.32199       33.70795       138.7091
       113.2876       105.6885       114.5585       122.0309       105.9333
       90.57175       132.8987       89.90034       60.75107       28.83286
       103.0313       133.5398       53.45325       191.7145       124.2502
       17.77911       141.3990       131.4132       44.17804       141.8157
       135.6313       8.328583       52.70528       59.65985       81.28229
       212.1890       122.1396       41.81488       99.35738       88.77887
       14.24817       113.8143       216.3913       91.88858       109.8581
       109.6776       25.04602       100.9976       119.6498       134.4977
       139.0850       77.81705       69.21515       139.1025       174.0796
       163.6261       74.01413       92.22552       126.1941       82.50375
       80.92572       149.8984       215.5530       151.2733       101.1077
       118.1780       145.7036       160.1741       90.47864       183.8151
       263.1930       147.9727       122.5807       132.4075       123.0672
       166.9130       173.1375       183.2901       166.6592       144.0746
       134.1838       114.8432       125.3153       158.1987       184.3839
       190.3630       122.0106       70.38068       95.22867       145.5866
       137.9748       146.2722       128.4473       112.0178       107.1868
       96.48029       145.4377       117.2664       50.11066       63.24329
       137.2261       125.9092       81.80576       106.5615       59.75079
       79.44986       68.90362      -12.63684       114.3993       95.02253
      -9.815369       47.63086       112.1604       113.6895       12.10872
       17.67259       112.2449       28.72786      -32.05099       23.46049
       2.540379      -3.405075       58.19612       51.05418      -8.127228
      -49.67820      -53.90259       46.11497       61.27888      -72.55292
       6.857094       38.95197      -120.7068      -51.63764       28.35397
      -111.1960      -133.4181      -92.57126      -65.64519       6.382111
      -90.54553      -135.8037      -73.61157      -106.6412      -186.1158
      -161.3681      -109.4616      -127.5745      -124.9104      -131.1351
      -127.1953      -128.9954      -203.5406      -228.1162      -215.0440
      -169.3958      -178.4855      -336.0093      -281.5480      -164.0363
      -265.5663      -218.7858      -202.9623      -269.7042      -197.5758
      -235.5746      -292.0848      -226.4338      -309.4922      -280.7749
      -142.3518      -288.0994      -344.8530      -277.6512      -240.1957
      -269.8652      -347.8712      -330.6104      -289.4357      -207.3824
      -224.2628      -292.9315      -247.4902      -257.2926      -363.5559
      -370.1137      -254.2374      -253.3710      -195.2217      -172.4685
      -311.2958      -272.2714      -213.0367      -218.7365      -196.9797
      -162.3068      -143.4661      -185.5243      -240.6446      -184.0615
      -137.6085      -242.2593      -170.3485      -59.68042      -233.6114
      -206.3861      -55.32947      -110.9272      -61.90132      -40.48798
      -82.25000      -37.69968      -96.91760      -111.3394      -34.51407
      -71.91364      -46.82715       53.39838       28.49831      -21.66516
      -14.36717       23.36598       65.46103       74.14697       11.61679
      -13.79602       119.3700       70.24736      -78.04930       14.46954
       146.7336       122.4696       86.84906       119.4068       81.35110
       3.500397       83.09045       126.8785       67.92435       140.8477
       154.4797       50.90576       102.7166       197.0181       109.4267
      -1.146271       112.8918       246.0623       246.1039       118.8987
       119.4489       162.3976       89.65869       44.13196       79.63342
       192.2213       162.5587       153.7209       229.3746       185.8660
       225.1400       189.8534       66.58517       132.9937       244.2015
       207.9308       160.4880       179.3325       186.8481       182.0605
       144.1704       147.2202       148.7061       146.8265       228.3846
       212.4302       139.5983       154.5407       132.2573       59.74496
       138.5303       210.6063       121.9405       110.5687       170.3855
       122.1398       64.69940       83.96725       131.5690       125.4770
       106.3853       113.2240       86.40383      -13.08513       18.00159
       172.9190       65.62000      -8.720703       196.3769       130.3443
       6.932465       81.64122       37.39049       17.46146      -28.24306
      -28.56975       81.05411     -0.9482117       11.41562       112.7013
       2.752991      -133.7539      -22.05305       102.0738       14.77663
      -14.58932      -53.58072      -72.36043       50.08254       53.38300
      -9.439812      -62.16060      -1.879318       100.3021      -5.123146
      -20.08151       69.42178       29.94062      -13.01954      -13.10668
      -15.68210       45.61814       29.57741       12.42403       74.09238
      -1.823982      -22.10458       67.39139       38.43578     -0.8947906
       32.30713       42.29123       54.11254       3.565029      -17.26814
       83.32720       32.02881       20.30157       91.57315       19.77443
      -35.65235      -14.66984       52.87027      -9.439835      -65.04729
       38.04929      -15.79726      -36.53469       23.02417      -42.91156
      -76.02824      -21.55418       4.079071      -88.09988      -145.7300
      -85.53988       27.44931      -26.81778      -137.2581      -48.11036
      -14.85076       31.78082      -51.03223      -222.8069      -255.3458
      -318.7919      -366.9321      -228.1808      -26.18549       83.21591
       123.0642      -79.68445      -224.8325      -218.1654      -357.7858
      -280.3025      -8.401550      -80.30020      -120.1052       635.7083
       1154.347       217.1697      -675.8062      -466.6567       71.09143
       579.8113       535.8947      -81.64575      -331.5608      -652.6416
      -1050.109      -276.3734       449.8110       179.8332       161.0467
      -44.60809      -100.4048       861.5710       1070.528      -39.02905
      -916.8093      -1024.518      -505.6308       65.53845       546.1392
       907.2300       159.5972      -626.9854      -801.6042      -1189.949
      -165.2070       1494.100       1321.590       4.501953      -1129.880
      -1577.754      -1071.856       362.2593       655.9000      -143.5031
       274.0884       104.7093      -368.9047       15.81799      -315.1681
      -76.79089       484.3800       57.32477      -178.0458      -266.4221
      -317.3419       164.5139       101.9408      -251.5862       3.628113
      -116.1392      -536.9115      -546.8782      -87.84119       135.2505
       200.3164       686.3267       346.2502      -429.3842      -250.9031
      -31.41412       161.7736       434.8689      -118.9248      -535.4319
      -21.57486       226.9100      -162.8711      -446.5309      -53.86293
       171.6743      -147.4780      -257.6078      -181.5308       116.7233
       97.33176       28.39380       171.7493      -51.10434       71.98315
       248.0843      -118.2975      -324.0792      -155.2141       438.5905
       524.8384      -160.5398      -303.0538      -107.0162       275.2200
       371.8280      -326.0721      -177.3737       531.2977      -131.3285
      -621.8202      -10.88324       352.6469       46.96524      -93.68381
       168.8911       175.2010       55.87659      -239.7035      -171.0325
       250.9337       181.0137       208.4659       93.27951      -188.1419
      0.6044159       45.66385       24.09338      -278.6248      -332.4934
       387.4184       493.2908       16.21741       133.3259       345.9068
      -63.29778      -133.6284       157.6539       272.7158       36.31552
       82.95322       195.7882      -132.0673       77.01938       131.2343
      -261.3016      -81.42813       64.37537      -58.49976       68.99670
       111.1257       35.11034      -12.05728       153.5862       135.0285
      -255.2023      -352.9072       29.17126       480.8237       269.9054
      -95.73206       62.59927       212.0983       61.65321      -16.15070
       64.55710       144.7776      -23.38824      -426.9411      -129.1406
       477.3831       266.7930      -95.70044      -266.7087      -209.7022
      -16.33573      -24.48367       56.61060       178.2464       150.4348
      -136.6716      -127.1945       207.0147       219.0689      -68.26645
       4.629272       305.2837       67.21594      -188.3033       27.90558
       138.5953      -43.59236      -97.15102      -47.05708       66.30887
       7.219604      -397.9695      -300.3134       73.29083       179.3676
       338.0590       97.74533      -289.3842       78.13556       385.5223
       51.55293       47.43549       41.18390      -349.3732       10.52075
       270.2402       143.5139      -14.56879      -406.5160      -49.82800
       208.5502       128.8115       393.1943       329.5761       120.6655
      -236.9856      -125.9886       348.3069      -218.0338      -192.0232
       619.0953       351.9523      -117.3179      -198.1718      -100.9199
       165.4537       293.8842       11.43767      -86.72211       222.3427
       47.44037      -192.4083       80.90399       191.1142      -29.27954
       123.2989       255.7750      -265.0651      -119.2102       503.5453
       405.7216       187.5897       54.56674      -188.9749      -13.49078
      -15.44922      -434.6579      -199.0980       268.4695       52.44662
      -115.9725       72.76795       25.80988      -98.32288      -168.0329
      -108.2214       33.60583      -206.2726      -260.0896      -35.42908
       16.78552      -319.9301      -214.8088       281.6899       135.8927
      -108.4435      -268.9259      -119.1647      -9.116394      -230.6626
      -39.79887       95.27087      -225.5599      -201.2167       23.25439
      -152.7797      -17.08290       102.1755       15.72902       62.83369
      -42.29443      -108.3185       13.46272       67.68027      -9.149902
       104.7373       72.55243      -201.5902      -78.45391      -29.65347
       16.99170       242.6316       47.86015      -24.98125       126.2100
      -81.53430      -135.7585       17.65483       47.96154      -5.512390
       54.80753       181.9480       121.1263       38.52477       81.78876
       23.25641       30.89471       219.0826       282.3268       49.29489
      -102.5270      -147.7582       16.27771       273.9756       88.86017
       43.37723       213.2995      -35.71466      -75.47369       206.8911
       106.4166      -146.6578       17.31659       232.1891       124.4606
       44.47186       228.3067       354.2142       78.90514       27.77359
       188.3048       1.856354       49.40646       126.5404       110.3298
       20.30038      -110.5436       7.444275       263.6016       318.7859
      -119.6929      -116.5665       275.1206       123.5379      -6.870728
       73.59122       72.95593      -63.73399      -70.91052       326.8806
       267.4613      -13.16913       219.1183       87.14874      -143.0561
       152.0830       94.50058      -93.89957       31.62372       62.47176
       65.26990      -118.8219      -186.1538       79.19988       57.37460
      -119.0907      -16.30855     -0.5765381      -164.1143      -51.60167
       32.33685      -69.15816      -33.05420       3.717590      -111.1552
      -196.8498       73.01205       3.694641      -308.9040       21.39261
       161.8823      -163.3320      -279.8409      -106.9084       107.5549
      -31.00610      -216.4885      -240.4070      -274.5371      -146.0444
      -16.21918      -102.4363      -171.6529      -209.7821      -155.7759
       1.982513      -37.62006      -94.43964      -205.1102      -374.5912
      -108.5461      -6.911987      -367.1275      -334.2841      -30.27435
