     0.02500000      -1216.235       1045.592      -12345.00      -12345.00
      -30.01001       227.1900      -28.16000      -12345.00      -12345.00
       0.000000       20.34000      -12345.00      -12345.00      -12345.00
      -12345.00      -12345.00      -12345.00      -12345.00      -12345.00
      -12345.00      -12345.00      -12345.00      -12345.00      -12345.00
      -12345.00      -12345.00      -12345.00      -12345.00      -12345.00
      -12345.00      -31.49900      -66.23830       530.0000       0.000000
      -31.37200      -68.11800       0.000000       97800.00       0.000000
      -12345.00      -12345.00      -12345.00      -12345.00      -12345.00
      -12345.00      -12345.00      -12345.00      -12345.00      -12345.00
       179.2507       94.99299       274.0174       1.611691      -12345.00
      -12345.00    -0.01893106       0.000000       0.000000      -12345.00
      -12345.00      -12345.00      -12345.00      -12345.00      -12345.00
      -12345.00      -12345.00      -12345.00      -12345.00      -12345.00
      2008       244         6        45        33
       560         6    -12345    -12345     10289
    -12345    -12345    -12345    -12345    -12345
         1         7        13    -12345    -12345
    -12345    -12345    -12345    -12345    -12345
    -12345    -12345    -12345    -12345    -12345
    -12345    -12345    -12345    -12345    -12345
         1         1         1         1         1
ABRA    -12345          
        -12345  -12345  
-12345  -12345  -12345  
-12345  -12345  -12345  
-12345  -12345  -12345  
-12345  -12345  -12345  
-12345  -12345  BHZ     
ZL      -12345  -12345  
[...]
       31.51416      -2.880493      -272.2625       84.45911       193.5686
      -109.0751       143.7452      -67.87341      -352.3952      -32.67072
      -138.9601      -165.0283       26.90546      -45.65576      -223.6621
      -329.1519       225.9644       418.4114      -283.2131      -71.66168
       338.9496      -264.4362      -295.1697       157.5313       60.49169
      -59.28497       98.29222       164.5934      -130.1357      -222.7023
      -6.141006       89.36513       29.16510      -104.3399      -47.21585
       78.85141       66.71680       119.9485       38.92017      -52.17087
      -50.49179      -144.1128      -93.18555       68.99554       66.68941
       94.37135      -16.88018      -9.998505       41.51929      -89.13694
      -21.74910      -41.38919      -87.75507      -43.39207      -23.21055
       29.33770       4.433868      -57.23099      -57.72018      -4.409225
      -34.70901      -54.85230      -20.84396       44.74910      -4.964127
      -95.60693      -57.10268      -34.89098      -46.44833      -43.55925
      -50.14769      -44.96947       4.358490      -20.45969      -96.83327
      -38.32674      -12.99362      -147.6256      -157.9246      -29.13011
       30.38077       96.12981       39.54404      -39.79272      -68.81736
      0.1716995       88.61603      -96.28220      -170.2677       29.36586
       35.21243      -67.95584       2.584839       50.43200      -12.90245
      -8.121643       42.48064      0.9298172      -54.77953       2.110260
       120.9576       82.91713      -71.09924       31.09299       180.7803
       125.8214      -16.20757      -9.140381       69.78612       59.42764
       50.57596       102.4069       176.5302       86.69582      -38.38028
       77.32397       206.8999       140.4747       2.456909       36.45770
       228.0833       198.2572       63.51289       41.70911       121.9730
       192.0055       212.6877       137.3564       100.7121       158.0780
       109.3506       145.3539       156.6395       66.33850       156.1732
       131.9668       53.16895       230.5316       302.1269       137.8684
       57.47702       113.2687       143.8260       171.8831       181.5907
       161.0644       159.9031       148.6027       149.4048       147.2603
       147.4787       98.16492       101.3453       165.5564       131.8208
       88.73080       111.6413       99.85056       147.6985       155.2034
       58.36707       65.59424       176.8680       136.4763       78.55051
       110.0613       61.85864       68.93903       160.4189       69.94592
       55.20007       137.1372       104.7703       70.26331       72.30981
       98.91177       120.2383      -13.44918      -28.46826       115.5854
       106.0260       74.06258       58.78091       24.44112      -20.03314
      -27.86819       122.5850       119.1844       7.175453       27.93269
       38.99597       15.99264       59.96939      -57.90380      -32.56374
       96.28813      -72.99557      -42.30316       133.2952      -16.61475
      -127.6517       22.54890       74.70301      -16.35107      -91.07785
      -60.07602       46.05042      -17.23418      -35.16071       15.81683
       2.414886      -71.91245      -79.98642       15.32465      -29.74271
      -135.3627      -20.36047       28.54382      -76.11496      -29.54901
      -47.01678      -118.2079      -29.32194      -3.577637      -47.75603
      -69.23627      -31.74588       1.650513      -40.78133      -129.6571
       4.317886       21.45587      -219.3083      -113.5539       27.99261
      -143.1478      -138.1988      -25.22886       1.632492      -67.91864
      -106.1098      -57.98755      -7.218018      -93.30475      -137.1800
      -52.59991      -26.02148      -22.38761      -12.28479      -95.23969
      -164.2307      -164.3791      -49.17391       37.87665      -93.09772
      -142.6549      -56.53989      -80.84764      -28.27264      -40.54877
      -158.1483      -162.3900      -50.23241      -6.273651      -84.17920
      -224.0201      -138.9105       16.05548      -97.83783      -151.3483
      -25.70634      -45.25723      -88.11551      -75.19495      -96.85965
      -71.95753       55.20915      -8.313385      -89.69446      -46.47255
      -31.20721      -101.6356      -115.3386      -58.87357      -17.47345
      -16.79065      -98.08868      -75.69376      -104.8772      -254.1042
      -109.9458       8.870430       37.77901       29.57788      -101.4384
      -153.3175      -84.05484      -87.10872      -74.88660       51.34745
       63.58740      -91.38782      -123.3611      -130.8719      -124.6601
       16.45192       42.77753      -202.0370      -166.0875       76.50665
      -35.38409      -170.4074      -84.27684       64.61533       27.41901
      -139.9189      -78.37375      -13.41176      -35.49478      -33.30792
      -125.5334      -123.3910      -63.33698      -86.10806      -115.0819
      -84.18919      -16.19264      -28.86327      -97.51990      -54.16614
       55.13904      -102.5421      -165.0247      -4.586395      -31.71091
      -72.00581      -82.65112      -80.52438      -54.29353      -51.05286
      -23.38446      -103.7934      -98.14297      -13.12908      0.1721497
      -50.93263      -103.0486      -43.79382       14.59648      -66.84055
      -98.48352       1.383377       48.50000       53.97719      -9.945793
      -37.60429     0.05130005      -105.6755      -23.18143       137.0881
       33.95241      -89.61999      -23.55234       50.19635       56.50902
       74.88234       94.31641       49.00636       4.541992       76.86041
       156.4467       100.0006       81.03409       111.9453       109.4770
       93.95265       47.78351       113.2205       176.7220       50.85522
       84.00189       184.6629       159.6999       104.0374       177.3536
       189.6368       54.59711       44.70587       168.9694       231.4398
       146.2939       46.49994       146.8746       183.2191       156.1876
       191.2394       121.4217       66.23175       172.6929       204.5127
       120.5939       167.6917       218.0533       153.4388       137.8776
       189.3674       178.3094       125.1049       159.6967       196.8488
       182.3881       124.8307       140.0884       223.6076       147.6039
       76.90875       110.2128       174.0233       187.3121       202.7127
       171.8381       97.36029       145.1105       138.3949       53.21584
       32.01428       86.42752       124.7918       146.0837       154.1451
       113.6468       22.83222      -38.33850       101.0743       188.8584
       90.63348       32.92822       119.2470       93.90958      -70.46972
      -18.01581       83.96584       44.59947      -1.654480      -81.16333
      -148.8154      -56.95388     -0.2356796      -49.18477      -23.71358
      -80.41156      -85.40985      -89.05188      -126.8398      -69.10231
      -17.34692      -143.2611      -166.0583       25.36029      -153.6854
      -274.0599      -116.1087      -112.6176      -61.14563      -164.8913
      -229.6903      -86.24146      -76.23096      -153.0056      -272.0864
      -233.2814      -92.67517      -94.90918      -197.1198      -256.5286
      -133.1675      -133.9879      -264.1317      -262.7390      -48.03692
       63.76691      -143.2008      -151.2799      -75.06335      -175.8165
      -176.2582      -159.3779      -105.4217      -46.86292      -87.05165
      -84.42896      -43.64575      -180.6287      -218.9901      -119.3431
      -38.31767      -4.690918      -73.90767      -47.19669      -24.79980
      -87.11795      -39.48961      -20.12059      -91.01417      -43.04399
     -0.8055420      -154.1125      -92.04553       68.94006      -9.239548
      -103.5547      -26.63257       91.39784       3.619049      -145.1560
      0.7170868       72.93915       4.067902       30.31718       25.47707
      -7.936005      -40.24446      -94.09851       78.34555       89.68483
       10.95752       129.6702       103.0542       26.97702      -11.60257
      -142.0372      -64.64105       169.5538       178.5311       96.18694
       36.30348      -46.46804      -50.43668       58.01288       98.91246
      -43.27300      -26.34174       67.08302       61.03590       41.43622
       11.42267      -65.29605       34.32415       42.71680      -47.47408
       6.418903      -21.79254       35.93906       143.2301      -11.36841
      -192.5998      -163.6152       69.43718       61.52431      -110.1566
      -9.351151      -24.60867      -126.8257       16.20976       39.93393
      -108.7178      -55.06851      -6.069336      -145.4208      -48.93633
       38.39905      -72.73950      -124.6132      -43.23509      -28.27209
      -128.8135      -127.7657       6.410446      -41.45111      -147.1148
      -34.80724       18.68642      -48.54318       9.035339      -80.75778
      -171.5882      -13.98981       5.971283      -132.3556      -142.5428
      0.6229439       31.55426      -116.8957      -99.82480      -38.26970
      -108.7646      -11.14059       51.82823      -70.51424       12.52225
      -39.34821      -213.8473      -141.9748      0.7378082       58.39711
       56.53506      -29.93542      -78.03136      -22.70657       33.93696
       51.91454      -17.33072      -132.2207      -22.95523       52.68161
       45.02226      -35.77197      -119.9247      -40.03236       81.29349
       50.58557      -64.19046      -52.15622       18.82758       128.3735
       133.5378      -10.97442       17.00125       40.27955      -1.604919
       37.84634       108.7062       201.5704       145.7028      -46.51886
       8.443207       147.7653       137.1681       14.57774      -89.16571
       116.7607       254.7167       132.3505       233.6985       267.4720
       176.7673       67.50927      -11.15829       73.89804       124.1982
       47.23248       52.81024       175.5805       191.2220       228.0798
       169.3712       77.62262       163.3074       148.1545       118.9123
       122.6897       124.9180       208.9085       155.6452       17.76474
       125.3098       158.2538       153.2011       126.6203       36.30331
       97.91455       120.3862       108.5406       123.7711       94.25022
       13.51849      -17.68817       115.4301       203.7928       146.7263
       102.8292      -8.289185      -122.1719      -54.84857       133.4377
       179.0690       128.9503       152.7547       64.25551      -9.952393
       152.1668       213.7258       22.18921      -24.27430       15.33685
       33.42456       52.44821       40.15796       74.43671       135.9187
       102.5780       37.03574       27.60486       126.0995       138.7140
       11.12006       57.37140       108.7334       76.03882       231.5424
       253.1174      -9.016430      -50.61771       53.91165       89.18774
       100.1152       48.20239       91.33081       194.5604       211.6087
       142.4626       70.85699       109.5602       78.14780       79.58289
       200.2270       189.9860       76.79237      -10.36240       37.60706
       137.6416       108.2719       151.4718       145.6889       13.80621
       87.36783       190.7134       34.37955       82.94958       231.4960
       140.8313       22.55637      -4.512817       50.65277       64.27188
       77.62206       69.70311      -92.15274      -21.68869       76.48084
      -22.95461       2.684036       77.37323       47.83096       68.45918
       54.54773      -58.94812      -135.1085      -43.06735       46.44334
      -4.927429      -35.92466      -13.16638      -61.75269      -106.1734
      -137.5543      -108.7750      -51.39044      -1.296143      -65.53027
      -239.8497      -146.9464       16.44408      -69.30974      -13.41019
       31.07776      -61.23303      -102.3829      -145.6529      -182.5451
      -146.6332      -147.9998      -164.5508      -247.2360      -321.4619
      -357.9377      -331.3250      -266.1896      -343.1522      -329.8391
      -178.6446      -224.8976      -230.3273      -118.7716      -90.56848
      -183.7435      -352.7359      -375.3505      -228.0995      -174.6429
      -102.0761       5.132080      -117.1516      -313.3903      -272.6195
      -288.9178      -297.0654      -181.3582      -144.2586      -249.1554
      -329.2275      -413.5032      -815.8069      -954.0348      -439.8322
      -204.7994      -344.6814      -454.1908      -521.7757      -372.3218
      -207.7882      -369.2540      -590.8062      -700.5502      -560.6279
      -36.27267       228.1550      -186.7665      -513.5720      -303.3037
      -89.68282      -86.20384       29.93896      -264.5433      -718.2988
      -438.2633      -78.39362       20.67017       317.6764       212.8296
      -564.9414      -1216.235      -899.1599      -7.972900       405.7917
       425.5496       307.0730      -129.7414      -154.6568      -144.9150
      -271.8286       537.5154       1045.592       156.4175      -841.5352
      -1035.854      -482.9904       94.39124      -175.9834      -573.0036
      -216.3960       119.6318       118.5396       150.6788       138.5155
       176.4611       299.9883       196.3587       202.8716       213.1100
       236.9907       217.7328      0.8377686      -36.23553      -117.6115
      -205.4487      -184.3968      -22.99396       127.4275       309.5266
       634.8898       466.6493       254.7608       229.1579       44.25739
      -140.9253      -121.7131       283.2295       612.7145       595.9844
       381.5083       206.0062       425.3661       558.1411       371.1506
       8.567200      -289.4006      -117.3193       345.6577       706.6949
       586.4711       191.8268       449.0200       588.4934       341.2935
       396.1096       454.3386       422.6473       135.2031      -17.68921
       300.3435       527.7163       656.1440       530.4310       263.8323
       186.7784       213.5414       315.3624       226.5930       325.7067
       493.4878       76.61206       108.8335       441.1311       345.9624
       350.0303       563.8293       575.3167       359.4526       224.1935
       193.2819       313.1355       393.0852       148.6947       7.319702
       144.4358       407.0175       463.3523       187.8684       101.3021
       312.9067       284.7304       182.3921       402.9497       553.6299
       445.1362       116.5742       103.5862       459.2755       210.3338
      -69.94394       71.46848       31.24231       162.5069       385.3339
       220.2649       117.2556       301.7822       474.0952       267.5958
      -9.027130      -8.484924       134.3480       190.7548       89.16898
       102.9878       225.7067       143.8697      -25.25620      -46.79266
       158.5755       167.4677      -48.60949      -51.26291       28.92004
       84.16467       67.11304       184.2519       255.4566      -67.44977
      -193.1699       9.189514       145.8535       8.292786      -171.9210
      -193.2712      -37.14427       86.28210       9.494537      -74.83746
      -98.49200      -19.00363      -14.06732      -192.6503      -228.1332
      -89.08905      -128.3835      -206.2898      -194.0569      -282.6971
      -224.5605      -118.7143      -155.5384      -229.8730      -337.9495
      -382.6041      -380.3336      -204.3381      -105.1395      -334.1386
      -190.8340      -28.27222      -352.3732      -469.8474      -346.3502
      -236.5798      -172.9530      -354.5217      -528.7908      -403.3699
      -342.7430      -423.7215      -159.3181      -43.88391      -397.9387
      -412.4279      -272.2208      -475.6162      -514.7313      -331.3826
      -369.6348      -253.2004      -202.4700      -508.9325      -500.9229
      -403.6707      -594.5186      -481.4676      -149.1158      -186.5432
      -306.8331      -393.7946      -429.5835      -299.3693      -265.5115
      -540.5939      -487.2440      -184.8019      -274.3901      -315.5952
      -329.1956      -382.7690      -464.5411      -471.8184      -256.5570
      -256.3778      -142.6303      -55.14294      -265.4397      -283.1129
      -267.2220      -320.6944      -284.4826      -258.2831      -305.3567
      -316.8679      -273.3628      -307.2126      -299.6608      -128.6805
      -206.9883      -315.6685      -3.914124      -40.41302      -286.7001
      -156.3171      -231.9887      -345.8591      -141.0663      -9.628998
      -92.79681      -137.2940      -129.6841      -212.6721      -246.0653
      -140.2392      -24.68057      -24.01541      -41.09453      -19.57104
      -81.20978      -157.8724      -148.9624      -54.34509      -41.41608
      -125.2649      -98.03558      -46.43639      -29.65210       21.70968
       4.743042       93.99076       82.34920      -98.50726      -8.819763
       160.3907       95.32866      -15.20229      -47.13211      -36.91780
      -54.97838      -3.813522       37.75063       23.14115       39.83713
       17.78918       128.6280       189.1808       119.0446       161.1810
       151.2590       94.91907       119.6655       253.9559       275.3947
       302.3789       274.9275       129.9420       96.19965       243.4283
       277.7477       82.92102       160.6534       324.0051       275.2201
       261.7227       197.1122       147.5562       160.5104       237.4692
       302.1839       243.9916       253.2913       383.3231       396.5490
       324.8404       284.7906       256.8870       230.3048       229.9803
       391.1522       414.0123       227.5770       237.1763       233.8805
       303.3237       414.2686       345.7111       215.1111       295.2141
       526.9337       410.3048       246.9982       276.6139       102.1332
       107.5266       353.2246       469.4554       315.3367       206.6060
       448.0118       485.6606       334.6415       365.9074       302.6995
       310.8513       414.7758       403.4459       366.1158       293.5128
       216.5415       288.8448       290.8998       305.1676       333.9890
       225.3707       250.1079       344.7668       386.7369       264.2120
       152.3348       299.2751       255.2559       209.2180       315.2562
       282.6329       236.2451       221.0072       172.6199       98.11215
       58.66895       179.7292       206.0632       177.9138       184.3431
