     0.02500000      -1077.545       1028.158      -12345.00      -12345.00
      -30.01001       227.1900      -28.16000      -12345.00      -12345.00
       0.000000       20.34000      -12345.00      -12345.00      -12345.00
      -12345.00      -12345.00      -12345.00      -12345.00      -12345.00
      -12345.00      -12345.00      -12345.00      -12345.00      -12345.00
      -12345.00      -12345.00      -12345.00      -12345.00      -12345.00
      -12345.00      -31.49900      -66.23830       530.0000       0.000000
      -31.37200      -68.11800       0.000000       97800.00       0.000000
      -12345.00      -12345.00      -12345.00      -12345.00      -12345.00
      -12345.00      -12345.00      -12345.00      -12345.00      -12345.00
       179.2507       94.99299       274.0174       1.611691      -12345.00
      -12345.00     -0.2443278       90.00000       90.00000      -12345.00
      -12345.00      -12345.00      -12345.00      -12345.00      -12345.00
      -12345.00      -12345.00      -12345.00      -12345.00      -12345.00
      2008       244         6        45        33
       560         6    -12345    -12345     10289
    -12345    -12345    -12345    -12345    -12345
         1         7        13    -12345    -12345
    -12345    -12345    -12345    -12345    -12345
    -12345    -12345    -12345    -12345    -12345
    -12345    -12345    -12345    -12345    -12345
         1         1         1         1         1
ABRA    -12345          
        -12345  -12345  
-12345  -12345  -12345  
-12345  -12345  -12345  
-12345  -12345  -12345  
-12345  -12345  -12345  
-12345  -12345  BHE     
ZL      -12345  -12345  
[...]
       33.88293      -192.9629       46.13348      -200.5454      -220.4997
      -26.97958      -150.3128       31.00317       133.6861      -28.78006
      -33.36279      -247.3264      -362.6335      -45.03028       51.27649
      -199.6175      -168.7295      -11.90540      -224.8852      -288.1984
      -183.2628      -234.3491      -78.05243      -5.665833      -266.5375
      -198.7786      -39.57788      -102.5107      -169.1482      -287.0897
      -301.5493      -311.5559      -210.8515      -99.43372      -220.6312
      -152.0182      -133.1499      -207.6567      -121.0652      -241.4588
      -160.3590      -173.0057      -341.4572      -113.3076      -52.49710
      -178.9536      -111.1778      -168.3038      -264.6790      -63.77859
      -81.58185      -218.1541      -166.6512      -97.83228      -42.29498
      -74.92122      -104.1747      -14.81619      -59.17319      -137.3823
      -81.83365      -75.93152      -9.706940      -11.16678      -61.60670
      -40.58630      -36.69697       38.68194      -7.118073      -70.44304
       14.97359       42.37056      -52.92268      -54.58858       41.38691
       20.51183      -39.40569      -8.607750       25.43433       44.47910
       7.356171      -53.39050       65.99492       109.9045      -27.14602
      -22.97404       73.25172       64.92200      -47.22787       15.89645
       162.3828       48.69833       51.73044       151.7325       37.54060
       28.13190       75.22701       40.09589       38.79456       62.38258
       79.72481       29.25040       16.22314       167.1000       144.9372
      -43.44170       37.73648       137.8655       15.84586      -3.586578
       118.6858       145.2403       55.07359      -38.60022       86.58435
       128.9466       47.76508       68.95856       32.92653       62.30704
       43.82031       137.8026       185.8968      -33.07401      -69.17519
       27.48039       58.74646       62.07092       124.2608       68.70861
      -19.17400       10.19926       20.24213       97.83987       154.3321
       73.62396       67.16824       71.82312      -39.42207      -10.88830
       31.89967      -10.90579      -19.72670      -7.138885       57.44393
       64.40506      -4.894424       39.59763       79.96714       53.73955
       7.365730      -58.56615       4.562561       66.35799      -18.51326
       13.43649      -25.94427      -40.56032       77.56879       45.50763
      -69.62404      -35.01878       70.21149      -73.87558      -129.6041
      -7.128639      -32.94272       64.35870       20.32733      -175.5297
      -22.35567       13.26056      -147.2321      -30.38391      -21.81841
      -103.3085      -4.264053       12.42175      -107.5107      -144.7593
      -66.58389      -34.86880      -14.96313      -140.8505      -256.5710
      -122.1423      -7.284523      -16.86728      -78.56287      -200.4609
      -126.1268       23.09882      -113.8207      -150.7928      -122.3918
      -165.4745      -82.35199      -101.0980      -152.5580      -70.01294
      -156.4208      -191.3008      -59.01065      -93.21808      -139.2114
      -192.5850      -120.3409      -32.65930      -158.9598      -166.6462
      -110.3991      -100.4182      -132.8759      -214.1314      -135.9897
      -104.1880      -221.8122      -175.2236      -52.31750      -123.9453
      -248.4671      -171.6849      -112.7510      -223.4904      -221.3773
      -126.2669      -162.5581      -147.4846      -91.07458      -200.7130
      -249.4333      -174.5688      -111.0758      -111.1377      -161.7112
      -92.02719      -111.2809      -116.0359      -4.527191      -80.70648
      -151.8179      -119.0642      -190.2188      -79.11998      -53.50096
      -117.4234       35.42520      -83.11398      -128.2073       13.81001
      -80.62880      -36.66694       34.99094      -48.40353       2.816711
       173.2393       81.75070      -104.3147       46.18060       140.4182
       158.9320       177.8946       45.60475       46.34317       22.89502
       39.44104       214.2335       243.4726       156.5838       130.3010
       129.1425       157.3088       167.4753       305.6687       258.2940
       113.9007       262.0726       337.4138       198.5700       120.1158
       250.1108       334.5669       278.6764       300.5545       284.1343
       279.6326       383.6824       266.8215       176.5989       299.3615
       410.6138       525.4033       316.4627       105.2689       388.2750
       450.5371       242.9225       279.8740       211.3050       247.0232
       430.3436       413.3273       285.7953       173.8239       270.3019
       421.2377       402.0912       266.1292       181.5834       339.0375
       395.9744       279.7747       198.4634       215.0226       347.8340
       303.4956       120.7820       94.22784       278.9387       267.4789
       228.0127       267.8797       73.48938       150.4068       321.6454
       241.5132       40.15280       41.78986       253.0302       178.7259
       26.85254       48.28293       88.90506       137.9513       117.6502
       81.06468       68.70348       18.54504       2.225662       63.58302
       28.39061      -73.20889      -33.10728       57.38239       48.67929
      -81.31590      -95.82272       33.63049      -45.65466      -150.1093
      -125.1318      -30.00671      -116.0065      -154.0992      -30.65500
      -81.95819      -97.94821      -88.10669      -126.4291      -112.3015
      -110.1049      -126.8611      -142.7552      -177.2476      -187.0225
      -120.2761      -48.06775      -125.1344      -256.2377      -240.2496
      -182.0010      -135.9985      -159.1927      -144.0176      -199.5238
      -265.4957      -103.5784      -132.3283      -235.5737      -103.3381
      -175.0355      -283.6167      -115.5251      -94.48975      -194.4423
      -202.7215      -329.8530      -218.8255      -104.9877      -234.4100
      -173.8628      -111.0112      -153.4651      -220.3865      -205.9877
      -177.9053      -182.1146      -118.4191      -159.3859      -205.1325
      -203.8676      -222.1351      -141.2900      -111.4104      -131.2624
      -136.7045      -221.8708      -214.7895      -121.1844      -126.3276
      -195.0847      -217.0328      -176.8871      -173.9976      -191.4734
      -162.5120      -173.6154      -159.3266      -110.1152      -146.7631
      -159.3119      -148.6782      -273.5395      -135.1045      -59.91058
      -216.2219      -111.2225      -24.92560      -118.7651      -261.9476
      -263.7823      -134.0289      -78.90662      -212.1891      -334.7945
      -213.9986      -118.1925      -170.7274      -170.1686      -143.5882
      -140.2846      -111.7657      -104.3251      -199.2336      -183.3286
      -97.64172      -158.1108      -227.2792      -147.6140      -143.4333
      -164.7105      -142.6432      -256.1053      -146.1818      -48.98871
      -159.8397      -151.0654      -136.3326      -97.01544      -160.5365
      -246.6231      -152.1165      -95.75897      -101.0885      -88.52875
      -167.4985      -189.4936      -134.4535      -189.6718      -193.3641
      -46.54178      -37.86542      -71.76001      -60.80554      -190.1865
      -139.9838       11.11426      -77.11172      -170.1270      -121.7971
      -99.97653      -60.06744      -97.70532      -148.9342      -96.68341
       21.59097       93.21899      -52.61810      -116.8882      0.2808666
       13.36208      -20.75886      -51.96728      -14.34262       76.22047
       36.51959      -42.54853       12.90943       32.38831       46.12555
       114.4217       112.7248       94.00540       85.74057       56.16318
       58.33142       147.5324       139.8960       83.75763       170.6014
       155.1500       29.74223      -43.08905       144.3405       302.3023
       201.8564       249.6629       302.6083       247.1666       156.4827
       65.08362       181.5199       255.2267       292.8628       323.6661
       207.0066       189.1029       270.1423       398.0876       354.4040
       184.4265       303.8998       399.9354       376.9480       409.9935
       313.1848       237.9738       390.7847       442.4512       378.3499
       432.0206       477.3064       432.9106       447.3127       341.0316
       283.5305       428.9807       443.4198       466.5640       457.1403
       362.9088       410.8003       540.3378       557.6761       419.6836
       413.6583       425.3256       370.7985       475.8552       466.4456
       427.3234       448.0471       404.6659       298.7190       314.3198
       434.9442       361.9008       355.2161       407.6737       277.7814
       167.9524       299.7576       388.2555       320.6539       265.7010
       204.2930       266.6584       318.9316       222.0450       94.62524
       216.1151       273.8091       112.8880       65.76883       60.69684
       106.5528       138.6388       77.70306       42.50671       137.5280
       199.4258      -22.60309      -217.1117      -87.79208       51.01287
       53.69099       8.639435      -87.14461      -53.57854       7.012329
      -65.96851      -193.4013      -227.1140      -104.8489      -89.17252
      -125.6848      -210.3207      -262.2039      -202.3234      -202.0502
      -211.0081      -241.5778      -265.5430      -192.5414      -129.0410
      -195.8810      -397.0956      -386.9098      -156.1948      -245.9875
      -419.1409      -332.0609      -232.8517      -281.4788      -384.1165
      -372.4583      -317.5075      -311.4742      -401.4790      -363.9480
      -327.7290      -378.3040      -349.2059      -308.7955      -366.3684
      -356.4490      -273.1146      -385.4252      -408.6144      -450.7906
      -502.4575      -431.2445      -359.6697      -220.6594      -319.1573
      -391.1498      -319.7302      -333.4119      -303.3011      -244.9474
      -368.0388      -462.4072      -260.4493      -241.4148      -401.4092
      -384.5977      -402.2322      -322.8511      -237.7188      -369.5686
      -339.7768      -292.3477      -331.7679      -293.9639      -316.0112
      -325.0029      -315.0837      -316.2096      -276.6867      -208.4965
      -168.7529      -196.4471      -349.0328      -304.4453      -240.1300
      -261.5254      -157.0700      -159.6864      -186.3748      -119.9345
      -150.2366      -179.2133      -116.8652      -88.53275      -146.6476
      -198.2559      -168.2332      -115.6085      -10.96382       40.04224
      -107.8248      -150.1679      -20.15960       60.75114      -7.772991
      -45.87627       31.27413       8.280609       39.87062       81.53710
       27.63345       67.49126       3.266991     -0.7621155       112.7987
       161.2267       27.13406      -11.51196       173.0102       148.9210
       135.8033       140.9270       45.05777       99.02155       122.5552
       115.9345       171.7359       218.2947       123.3430       4.399597
       153.1043       272.3007       127.1938       110.3851       65.81140
       171.1584       328.8759       33.40808       37.66736       242.7653
       176.1348       104.9079       27.93848       77.08008       142.7897
       167.5753       193.0740       82.03345       80.02625       177.1978
       68.78275       32.00555       104.8793       143.1679       150.2685
       98.28329       107.2050       197.4085       131.7409       60.98590
       122.8064       131.3647       49.88571       91.32886       181.2908
       69.84909      -1.699005       40.57907       104.2585       165.8450
       124.0760       147.7822       257.9766       217.4677       166.9134
       178.5679       27.77911       104.5528       177.6864       102.3431
       154.0539       134.9552      -13.75935       28.35989       118.8373
       12.56828       33.82663      -54.85760      -185.0431      -111.3095
      -88.63145      -24.71109       125.6660       227.2751       163.0023
       166.3649       218.9019       130.1087      -22.46958      -31.15364
       36.75959      -12.10638       79.64362       45.29529      -143.4967
      -291.0077      -457.4210      -174.6744      -22.92430      -27.94794
       150.3009       39.36951       314.4286       741.0565       419.4548
      -177.5616      -477.3573       87.93140       885.8948       740.7680
       82.79260      -431.1708      -603.4266      -318.3193       285.7490
       449.0023       175.8222       119.4063       143.2045      -20.56947
      -130.4233       241.7540       304.8626      -2.754395       132.6289
       150.9258      -169.1331      -561.2473      -732.8548      -413.1265
       20.73157       536.0420       870.2804       429.8048       5.114136
      -221.2427      -437.2789       225.2097       1028.158       1022.267
       725.9172      -57.78198      -1077.545      -458.7362       617.6858
       716.8575       555.0043      -296.5969      -289.4073       554.9500
       203.8415      -142.8992       238.7039       412.5022       557.6490
       404.5784      -316.9493      -441.4359       14.20197       412.4265
       153.3022      -97.03253      -92.01767      -273.1282       49.78535
       68.55682      -25.87769       440.6319       387.3259      -306.8895
      -176.6638       325.9403      -73.75079      -246.4077       157.4514
       465.6391       373.1857      -100.8376      -196.9529      -140.6437
      0.3430786       296.3006       142.5823      -465.9536      -581.2029
       262.5262       713.2178       244.3098      -166.1847      -403.0436
      -370.4629       58.38829     -0.7294922       167.2221       297.9188
      -268.6177      -370.3728      -245.6543       162.4416       495.0979
      -160.1088      -648.6208      -365.6411      -128.0823       80.80115
       242.8037      -126.0667      -155.5080       149.4771      -221.3287
      -236.0880       186.3376      -12.15125      -283.0968       33.24506
       170.9142      -107.0776      -131.7620      -172.9644      -165.2594
       91.18570      -14.03760      -430.3010      -343.9146      -7.273682
      -185.8982      -269.7675       55.92911       192.5818       105.4963
      -101.5416      -107.0074       164.6946      -67.22632      -408.1951
      -482.0915      -221.2302       108.8222      -9.009201       74.29604
       79.64001      -229.8329      -289.4957      -299.9166      -229.8071
      -42.55188       108.2845       283.0984      -116.9979      -516.2419
      -189.7939      -75.14948      -242.4170      -212.0949      -199.7753
      -83.02707       220.6091       20.18835      -232.0480      -157.2752
      -383.0857      -181.1758       193.1440      -182.3588      -504.5871
      -291.6486       145.1286       11.14410      -293.0117       160.4307
       317.6836       54.39401      -66.17038      -106.4910      -158.3414
      -315.5388      -109.5645      -55.47108      -169.0180       200.1984
       227.6223      -152.8196      -178.6116      -100.0638      -99.01062
      -25.01685       115.0155       340.5823       239.8910      -15.58289
      -211.5640      -330.6177      -201.2479       61.70270       181.4016
       145.3090       240.0874       236.7054      -72.19620       19.07562
       342.9019       77.02106      -206.3983      -215.4597       99.72913
       212.5843       40.33411       213.3914       375.3152       207.4422
       37.94347       116.1877       8.287354      -19.09784       130.4457
       284.2305       248.0620       150.4898       183.4342       118.3054
       241.3188       340.3175       168.4616      -39.41739      -43.74951
       214.0818       297.3995       33.81476       84.21051       354.4218
      -4.778015       2.814087       341.3802       226.8054       128.3759
       172.9748       151.6235      -33.75973      -46.33722       165.9134
       288.7968       60.69785      -149.5485      -79.87303       28.83002
       112.7268      -53.00188      -96.85864       46.89200       104.8117
       124.9773       75.10815      -138.3602      -289.6265       19.15332
       218.9406       55.45856      -55.97131      -234.0680      -229.5576
       92.95532      -100.8796      -373.6069      -42.11408       4.478851
      -123.0818       25.75012      -47.23157      -234.9750      -315.9752
      -81.64714       146.4683      -104.8619      -270.6836      -201.1002
      -112.3829      -113.0623      -96.46890      -38.01953      -175.9089
      -236.3379      -138.6867      -1.220154      -45.65057      -253.4684
      -98.81143       24.44067      -135.5953      -267.1393      -241.1700
       87.11392      -25.33878      -231.9770       15.74081       51.78650
      -148.6964      -140.2942      -115.2266      -271.5419      -195.8633
      -215.5248      -141.7802       128.5145       26.56447      -37.34332
      -101.0598      -354.9487      -93.60062      -14.72009      -368.7348
      -179.0337       298.1381       153.2362      -417.4001      -429.7117
      -60.47203       65.56348      -152.4099      -216.5320      -122.2349
      -142.3899      -4.161423       125.4343      -177.3235      -264.5962
      -3.905334       71.48260       69.41257      -56.47955      -150.8998
      -235.4757      -92.90283       153.0100      -4.642853      -148.9095
      -22.35905       110.1162      -74.40051      -302.4465      -308.3757
      -167.7441       185.9309       147.3555      -210.2661      -194.5427
      -145.0020      -57.57580      -16.17548       70.27881       269.4472
       88.34863      -105.6015      -123.7108      -19.03050       72.57732
       2.138458      -96.59769      -94.89081       49.66305       47.32932
      -92.28778      -131.9086      -73.29570       32.29602       187.1982
       169.4852       30.25142       88.01001      -54.89694      -66.12360
       120.2363       122.6461       156.1391      -11.84454       8.056610
       221.9839       68.05389       16.39832       203.4105       237.5918
     -0.8038635       25.20282       227.4841       190.6326       159.4655
       247.6082       278.3904       154.6874       174.1024       291.6532
       226.9928       60.02777       63.59912       234.1406       254.8687
       179.0420       160.0720       210.1038       270.7038       256.9583
       167.6106       166.1514       298.4645       289.5720       207.3591
