     0.02500000      -2180.713       2142.395      -12345.00      -12345.00
      -30.00001       224.1000      -26.05000      -12345.00      -12345.00
       0.000000       19.56000      -12345.00      -12345.00      -12345.00
      -12345.00      -12345.00      -12345.00      -12345.00      -12345.00
      -12345.00      -12345.00      -12345.00      -12345.00      -12345.00
      -12345.00      -12345.00      -12345.00      -12345.00      -12345.00
      -12345.00      -30.40760      -69.24540       1968.000       0.000000
      -31.37200      -68.11800       0.000000       97800.00       0.000000
      -12345.00      -12345.00      -12345.00      -12345.00      -12345.00
      -12345.00      -12345.00      -12345.00      -12345.00      -12345.00
       151.8268       314.4772       135.0532       1.365074      -12345.00
      -12345.00     -0.7339181       90.00000       90.00000      -12345.00
      -12345.00      -12345.00      -12345.00      -12345.00      -12345.00
      -12345.00      -12345.00      -12345.00      -12345.00      -12345.00
      2008       244         6        45        31
       450         6    -12345    -12345     10165
    -12345    -12345    -12345    -12345    -12345
         1         7        13    -12345    -12345
    -12345    -12345    -12345    -12345    -12345
    -12345    -12345    -12345    -12345    -12345
    -12345    -12345    -12345    -12345    -12345
         1         1         1         1         1
ARRO    -12345          
        -12345  -12345  
-12345  -12345  -12345  
-12345  -12345  -12345  
-12345  -12345  -12345  
-12345  -12345  -12345  
-12345  -12345  BHE     
ZL      -12345  -12345  
[...]
      -666.3853      -748.1899      -776.8848      -753.1934      -773.3984
      -800.1802      -771.9376      -672.5916      -648.7776      -676.8164
      -748.0466      -777.0962      -734.3838      -692.4849      -679.3971
      -600.6322      -542.6825      -577.7285      -609.4928      -511.8075
      -398.8466      -378.5062      -397.1034      -344.2346      -237.3264
      -203.8148      -233.6785      -172.7184      -104.0235      -83.10773
      -86.57578      -61.13725      -49.62515      -48.12827      -39.90186
      -20.62927       27.96971       77.59546       70.21027       79.56665
       108.1714       148.7475       165.9799       170.0696       173.0891
       210.7395       203.4937       157.0352       191.8531       340.6694
       426.5022       416.1832       387.4893       419.9574       448.3873
       421.8719       438.1072       547.4677       582.9177       573.4370
       604.1660       684.8071       735.8857       757.5015       756.1523
       801.9138       824.0620       824.9734       829.3948       781.6567
       696.3247       685.6870       684.0811       722.8840       758.7100
       722.1907       707.2598       764.5703       754.8876       667.3660
       589.6870       595.5791       595.2478       543.0693       484.7849
       475.5043       464.4395       431.6875       380.4659       368.3210
       345.0265       286.2178       198.8583       151.8245       123.8467
       110.3878       45.16460      -18.38933       9.165421      -29.30453
      -149.4573      -166.3762      -188.8474      -306.9835      -420.6582
      -408.8981      -359.3237      -389.9509      -446.7900      -428.5144
      -446.7852      -554.6074      -640.3823      -643.0361      -665.2405
      -727.8223      -788.0566      -851.0273      -895.2051      -876.7056
      -897.8486      -983.1775      -1040.415      -1028.590      -1061.918
      -1121.130      -1111.572      -1082.014      -1082.060      -1149.734
      -1256.573      -1265.503      -1226.698      -1254.013      -1350.699
      -1337.913      -1226.675      -1156.478      -1187.647      -1242.245
      -1232.804      -1129.703      -1089.575      -1118.859      -1153.783
      -1158.145      -1134.822      -1129.370      -1135.881      -1089.923
      -1065.632      -1062.212      -971.1428      -830.7534      -863.6533
      -967.2830      -951.2490      -876.9058      -847.1799      -862.6797
      -879.9856      -820.2510      -762.7151      -772.5354      -788.7483
      -726.5251      -629.1865      -612.0283      -633.6887      -569.5984
      -481.7173      -453.7808      -476.4728      -462.3000      -424.7332
      -385.7082      -307.0622      -230.2330      -200.0083      -213.7390
      -223.6333      -182.9858      -124.9754      -50.63496      -5.785439
      -12.04115      -15.65788       52.15796       136.8429       135.9000
       95.44183       176.9512       238.3675       188.5829       243.2891
       401.7949       405.1245       354.7842       421.5891       521.9291
       528.6846       528.3992       601.1746       705.9238       738.9009
       662.1725       600.3911       698.1458       764.1426       724.6079
       697.5264       692.6509       739.5310       871.8491       922.8528
       931.0271       994.8325       968.7781       898.6504       965.5640
       995.8379       986.3271       1016.090       1056.658       1071.761
       1102.413       1154.946       1194.818       1164.684       1157.384
       1139.392       1121.956       1138.041       1141.104       1110.464
       1157.758       1150.631       1091.921       1167.691       1284.628
       1248.087       1290.015       1413.188       1419.271       1343.000
       1286.876       1250.043       1276.535       1313.312       1347.879
       1339.417       1308.425       1272.864       1229.594       1177.686
       1204.205       1246.446       1260.126       1246.156       1238.980
       1224.788       1179.986       1146.442       1214.847       1199.727
       1089.550       1087.217       1159.439       1128.061       1070.784
       1049.605       1018.549       938.8318       935.6675       928.1899
       857.1992       834.0493       908.0103       850.9517       739.0479
       708.7202       713.4238       659.2085       632.5056       617.5605
       543.9438       436.8015       379.7893       288.5576       207.6749
       128.0347       61.83752       59.63463       75.17465      -9.065605
      -39.47319      -3.330902      -33.33063      -173.8583      -284.4531
      -323.4196      -332.4452      -409.1995      -463.6472      -486.6360
      -495.8745      -489.2915      -507.8787      -592.1167      -610.8914
      -652.8894      -719.2061      -754.1965      -758.8735      -794.5913
      -831.9797      -880.0376      -901.8767      -930.3726      -924.5371
      -932.9304      -931.6404      -944.6582      -985.5845      -1037.370
      -1041.598      -1091.720      -1164.475      -1201.620      -1170.574
      -1221.715      -1252.751      -1229.956      -1264.075      -1312.822
      -1326.484      -1385.977      -1360.620      -1319.002      -1348.312
      -1446.440      -1439.931      -1367.112      -1372.295      -1443.541
      -1421.377      -1404.468      -1388.474      -1383.956      -1375.461
      -1364.091      -1338.951      -1363.013      -1352.104      -1299.994
      -1293.762      -1371.229      -1357.100      -1347.622      -1386.986
      -1359.099      -1340.205      -1459.970      -1467.353      -1409.586
      -1358.832      -1350.044      -1380.876      -1343.031      -1220.878
      -1172.037      -1190.609      -1224.203      -1164.307      -1093.505
      -1019.649      -933.9395      -934.7258      -1045.584      -1023.369
      -912.1565      -865.7773      -873.2915      -797.3035      -751.9683
      -742.2012      -715.0730      -641.7585      -558.8673      -473.6332
      -420.4585      -331.3405      -279.7573      -270.2552      -252.8112
      -198.3837      -164.9984      -134.4252      -146.3168      -127.1404
      -105.4597      -58.57993      -21.68349       7.240936       51.48901
       121.3759       147.4057       134.5913       180.7321       294.4000
       306.5931       289.4152       302.6525       300.8577       250.2300
       274.4065       349.3199       414.0730       446.6230       523.6814
       553.2927       506.4696       491.0742       529.5439       546.3947
       646.9622       745.0291       764.1440       754.2646       848.9902
       877.8394       848.8057       912.9146       988.7769       958.8892
       982.7144       1024.035       1071.122       1118.209       1180.808
       1233.255       1292.994       1315.064       1324.966       1288.312
       1267.931       1293.529       1403.078       1465.931       1476.146
       1471.676       1488.991       1456.667       1470.017       1477.068
       1481.985       1449.254       1410.776       1381.896       1403.592
       1405.117       1434.068       1448.462       1442.366       1405.963
       1403.271       1369.857       1381.109       1410.419       1423.865
       1428.979       1488.137       1481.467       1430.340       1337.357
       1299.077       1332.333       1393.015       1350.106       1340.240
       1328.008       1281.586       1213.177       1211.473       1186.048
       1122.328       1063.023       1052.478       943.5977       832.3118
       796.6030       827.5815       806.5811       796.3096       759.9915
       724.8325       654.2009       635.0815       651.7887       662.0876
       598.9106       518.3928       381.6632       231.7311       103.0249
       90.62428       73.99289      -15.15814      -97.84787      -63.65344
      -86.60114      -166.2366      -208.1047      -212.0534      -233.7998
      -240.3309      -291.5961      -327.5845      -378.2814      -396.6306
      -414.2144      -438.3420      -431.2399      -426.0621      -516.9713
      -565.3752      -562.5247      -575.5154      -658.0598      -692.7419
      -704.3425      -742.2356      -837.0537      -902.5205      -917.5022
      -941.2625      -1018.710      -998.0557      -991.5017      -1041.338
      -1084.520      -1062.491      -1116.683      -1171.939      -1201.649
      -1193.954      -1267.435      -1390.351      -1444.328      -1401.063
      -1471.499      -1562.853      -1578.917      -1511.975      -1502.031
      -1502.429      -1503.461      -1498.520      -1536.083      -1542.875
      -1578.487      -1622.549      -1646.143      -1632.277      -1648.108
      -1654.713      -1621.709      -1613.306      -1683.319      -1667.222
      -1619.466      -1635.989      -1680.683      -1678.786      -1728.930
      -1740.126      -1681.249      -1639.606      -1642.018      -1598.628
      -1550.826      -1487.287      -1442.364      -1446.227      -1438.612
      -1375.630      -1335.096      -1322.986      -1304.150      -1255.603
      -1245.652      -1194.181      -1150.839      -1089.496      -990.8105
      -893.5339      -817.4414      -711.6648      -617.4575      -561.1340
      -550.3247      -500.9598      -430.9888      -367.9022      -314.0276
      -236.3256      -151.6022      -67.94258      -26.37991       49.94250
       179.4097       354.7396       481.8175       563.9148       646.2126
       758.5449       807.8010       857.0938       938.3728       1002.639
       996.2764       1051.518       1140.911       1183.861       1205.646
       1283.775       1323.222       1343.411       1366.155       1405.572
       1427.720       1485.856       1506.547       1507.201       1528.226
       1554.704       1552.022       1604.563       1633.286       1606.884
       1600.647       1630.454       1595.420       1565.926       1578.342
       1620.511       1641.700       1657.597       1659.026       1641.596
       1603.981       1580.597       1540.336       1583.360       1627.194
       1599.189       1548.645       1560.405       1529.666       1450.702
       1417.821       1434.918       1400.467       1330.954       1276.239
       1290.333       1279.827       1236.974       1195.748       1162.826
       1100.478       1070.065       1055.260       1047.680       1019.107
       985.2373       956.9121       916.6868       836.9939       753.4756
       713.2056       705.7350       648.8610       631.6853       615.0470
       576.1899       558.0176       528.2837       512.9023       549.0605
       512.0452       417.6226       391.3755       396.1675       307.4231
       244.9471       276.8281       282.8788       206.6932       146.2660
       151.1761       165.6518       125.1525       83.35872       61.83226
       31.92047      -51.27609      -109.9920      -125.3205      -152.7590
      -195.8831      -231.5499      -298.7654      -323.5046      -314.7634
      -330.6678      -358.5239      -386.2560      -432.0239      -439.8097
      -464.5254      -524.0994      -572.7448      -602.8428      -688.6340
      -730.4329      -717.2207      -762.9951      -809.4180      -791.1765
      -827.5232      -868.7651      -913.9233      -1000.689      -1104.164
      -1140.765      -1162.782      -1228.805      -1309.315      -1332.690
      -1348.418      -1393.979      -1475.603      -1509.219      -1521.332
      -1586.834      -1649.167      -1694.101      -1759.463      -1738.733
      -1735.525      -1776.590      -1762.520      -1768.034      -1831.871
      -1854.028      -1855.341      -1869.670      -1898.101      -1873.356
      -1829.056      -1846.581      -1885.722      -1863.176      -1827.871
      -1821.604      -1833.476      -1781.594      -1736.838      -1750.591
      -1752.602      -1665.546      -1609.465      -1625.731      -1594.205
      -1478.479      -1390.624      -1344.625      -1303.272      -1245.932
      -1179.324      -1128.399      -1074.240      -966.2629      -910.1819
      -877.5093      -792.9943      -687.8501      -615.2632      -531.6362
      -460.4343      -392.3504      -301.6895      -229.4746      -206.8920
      -142.7082      -73.23970      -7.852295       59.81360       127.1655
       184.0231       274.0067       335.3629       401.3015       475.8817
       510.0120       562.4771       698.7449       775.1577       848.0518
       930.1440       969.3467       1041.437       1151.112       1149.290
       1146.739       1179.696       1204.265       1228.883       1288.682
       1315.177       1350.497       1411.768       1463.664       1492.760
       1517.300       1536.356       1576.520       1617.739       1689.520
       1755.032       1778.904       1820.039       1914.779       1946.679
       1917.538       1948.186       2016.421       2039.399       2046.680
       2061.546       2105.019       2142.395       2129.033       2076.123
       2063.055       2062.565       2048.390       2025.101       2051.525
       2068.110       2036.199       2006.761       2005.623       1970.716
       1951.593       1932.879       1924.668       1912.954       1882.334
       1854.492       1848.604       1772.398       1694.534       1653.037
       1636.798       1626.344       1573.330       1492.478       1441.814
       1366.018       1273.959       1178.227       1113.167       1046.756
       1011.053       987.9490       950.1050       893.6865       871.9219
       786.2302       668.2563       588.9646       543.9663       481.8425
       396.9434       267.5411       191.2890       153.6308       72.33887
      -67.98328      -149.5027      -209.9282      -284.0259      -357.9592
      -429.4320      -559.8101      -679.5408      -796.4341      -866.9995
      -909.5769      -985.0659      -1125.323      -1214.947      -1294.370
      -1357.070      -1416.005      -1436.039      -1491.333      -1585.543
      -1663.015      -1656.050      -1664.144      -1745.806      -1858.255
      -1874.818      -1871.398      -1908.773      -1991.949      -2032.621
      -2043.921      -2067.919      -2087.756      -2049.222      -2045.394
      -2050.176      -2082.112      -2128.944      -2143.867      -2117.673
      -2153.847      -2180.713      -2139.696      -2088.838      -2079.746
      -2017.319      -1985.614      -1979.857      -1947.630      -1916.040
      -1946.073      -1950.614      -1926.606      -1913.545      -1919.359
      -1866.981      -1823.456      -1816.829      -1778.075      -1718.554
      -1685.049      -1601.772      -1540.380      -1486.827      -1449.104
      -1435.023      -1407.929      -1346.104      -1319.647      -1282.897
      -1262.845      -1226.888      -1207.538      -1204.082      -1181.048
      -1097.051      -1030.464      -963.0671      -926.3643      -866.3706
      -792.5164      -747.1228      -743.1914      -703.8066      -697.7117
      -664.9705      -593.0023      -500.1395      -463.2695      -421.4019
      -367.7772      -320.3434      -291.7168      -219.6196      -200.2457
      -192.3397      -138.6988      -100.2916      -116.3852      -42.97040
       58.14328       86.57211       89.21429       174.0985       243.6669
       290.6322       346.1726       401.9492       435.0116       478.1829
       495.9860       562.6487       667.2822       749.4878       785.0662
       844.4084       933.5684       1026.269       1086.667       1178.095
       1237.779       1264.201       1290.780       1376.526       1435.312
       1474.678       1488.274       1519.141       1560.654       1609.452
       1603.921       1596.076       1595.186       1626.286       1641.270
       1660.689       1658.150       1648.946       1627.880       1633.586
       1633.713       1668.675       1671.106       1646.217       1595.169
       1610.448       1617.084       1574.070       1516.142       1504.500
       1469.675       1427.385       1402.680       1403.904       1337.205
       1280.569       1291.024       1299.653       1245.706       1222.936
       1219.408       1185.892       1130.242       1157.266       1144.719
       1052.903       1023.840       1046.146       974.7222       902.5747
       894.1145       894.5811       832.6372       788.5557       734.2759
       697.4338       690.5288       680.4167       624.2914       596.7515
       569.5950       547.5747       551.2891       571.9785       533.4392
       494.6510       453.1473       402.1433       354.7096       352.2332
       327.3412       307.1231       315.2795       323.4038       293.7255
       328.2688       356.1899       325.4369       232.9146       219.5536
       270.8844       277.8544       226.9642       216.2286       214.2642
       219.3752       205.4670       230.8070       272.5814       268.7793
       215.8901       230.8920       247.3530       233.6872       184.3047
       157.3344       118.4823       99.81824       89.89999       65.59825
       60.54265       90.09689       28.88200       9.335861       76.06096
       94.19987       8.657906      -26.73994      -40.84268      -88.33978
      -160.6526      -187.2620      -192.8943      -198.3494      -228.7781
      -258.1545      -274.9584      -271.7481      -322.9021      -359.4180
      -386.6593      -416.1143      -441.9514      -476.8105      -540.5173
      -594.9858      -655.4565      -715.7795      -790.1079      -808.1304
      -837.8604      -922.1772      -993.7849      -1008.785      -1034.804
      -1053.827      -1091.262      -1132.989      -1168.389      -1217.211
      -1266.472      -1264.618      -1256.066      -1286.360      -1338.371
      -1343.807      -1331.175      -1344.883      -1366.758      -1379.255
      -1404.332      -1377.229      -1364.449      -1361.658      -1340.358
      -1349.083      -1338.157      -1297.458      -1334.128      -1337.129
      -1283.342      -1273.423      -1294.317      -1256.846      -1212.174
      -1194.114      -1175.297      -1137.785      -1123.303      -1106.305
      -1092.734      -1099.481      -1096.800      -1081.543      -1052.802
      -1020.657      -1048.452      -1071.800      -1064.771      -1040.523
      -1012.071      -979.7737      -931.2500      -888.0554      -845.8066
      -814.3201      -800.9587      -759.2703      -715.8320      -713.9294
      -694.1099      -637.4847      -609.6299      -598.9861      -573.4846
