     0.02500000      -1214.943       987.8970      -12345.00      -12345.00
      -30.00001       224.1000      -26.05000      -12345.00      -12345.00
       0.000000       19.56000      -12345.00      -12345.00      -12345.00
      -12345.00      -12345.00      -12345.00      -12345.00      -12345.00
      -12345.00      -12345.00      -12345.00      -12345.00      -12345.00
      -12345.00      -12345.00      -12345.00      -12345.00      -12345.00
      -12345.00      -30.40760      -69.24540       1968.000       0.000000
      -31.37200      -68.11800       0.000000       97800.00       0.000000
      -12345.00      -12345.00      -12345.00      -12345.00      -12345.00
      -12345.00      -12345.00      -12345.00      -12345.00      -12345.00
       151.8268       314.4772       135.0532       1.365074      -12345.00
      -12345.00   -0.008756593       0.000000       0.000000      -12345.00
      -12345.00      -12345.00      -12345.00      -12345.00      -12345.00
      -12345.00      -12345.00      -12345.00      -12345.00      -12345.00
      2008       244         6        45        31
       450         6    -12345    -12345     10165
    -12345    -12345    -12345    -12345    -12345
         1         7        13    -12345    -12345
    -12345    -12345    -12345    -12345    -12345
    -12345    -12345    -12345    -12345    -12345
    -12345    -12345    -12345    -12345    -12345
         1         1         1         1         1
ARRO    -12345          
        -12345  -12345  
-12345  -12345  -12345  
-12345  -12345  -12345  
-12345  -12345  -12345  
-12345  -12345  -12345  
-12345  -12345  BHZ     
ZL      -12345  -12345  
[...]
      -158.4134      -156.9325      -148.8199      -149.8246      -156.9763
      -146.2277      -148.5063      -154.6352      -136.6939      -129.2989
      -137.2182      -117.2848      -98.55875      -94.20935      -69.22101
      -58.98399      -58.27106      -42.91472      -25.05654      -30.09694
      -19.98463     -0.5196381       8.630417       26.56198       40.56424
       55.45900       78.74567       98.41580       118.1561       135.6720
       178.6063       321.3840       604.1018       823.4393       721.6755
       361.0691       13.76758      -152.8708      -328.2704      -278.5683
       79.21765       259.7936       209.2395       230.6190       419.1010
       290.3948       48.27582       251.3997       314.6752       459.9329
       714.0699       589.5864       323.7506       308.7374       435.5922
       281.1398       226.7130       542.3103       673.2870       340.8633
       212.1121       388.5767       320.4857       150.4357       210.6243
       606.5242       615.7664       67.69456      -170.1025       187.5068
       594.0759       539.5350       395.2615       402.4637       471.1366
       350.0620      -68.99591       85.75952       368.5182       59.00256
       85.69501       409.8856       168.0535      -193.0567       39.05460
       167.3975      -161.4785      -49.86591       386.8919       203.1954
      -143.0375       226.0594       210.3872      -321.7086       205.1348
       412.7261      -598.9518      -514.5078       403.8643       194.4183
      -328.8498      -69.41475       41.59067      -41.21069      -152.6531
      -531.2055      -381.3610       191.7815       107.2217      -432.5345
      -321.7203      -340.5934      -428.4003      -59.11548      -396.9170
      -671.2602      -341.3434      -148.9238      -301.3770      -544.4558
      -719.7112      -537.8557      -345.3472      -591.8993      -508.6562
      -303.6938      -551.0005      -520.7611      -536.7556      -953.6244
      -607.2130      -188.7893      -492.3660      -728.8335      -760.6581
      -761.7719      -484.6576      -327.5237      -718.2375      -693.1379
      -394.1558      -472.7982      -458.1802      -631.4847      -749.1331
      -416.9309      -549.7146      -894.9282      -668.2707      -266.0012
      -210.8555      -512.9856      -729.0004      -533.8901      -335.4861
      -402.5664      -404.4748      -280.7697      -310.3833      -366.5551
      -226.5916      -268.2275      -413.1846      -256.0233      -275.5541
      -432.6265      -149.6861       80.83008      -246.1658      -314.6750
      -167.5405      -344.9523      -231.1159       138.4227      -206.6260
      -523.7174      -72.13989       119.0549       66.81128      -100.3134
      -296.2910       13.45006       136.8225      -172.7105      -257.8841
       8.544556       279.2188       246.0720      -2.265106      -202.6748
      -90.68512       97.75281       342.7845       335.3160      -247.2073
      -220.3507       391.2981       514.2076       371.9575       323.8517
       268.2804       221.2352       429.2990       442.5441       262.6929
       370.7424       529.5278       526.5566       379.5916       381.3687
       447.8817       288.8850       383.7180       620.0437       688.7329
       502.6282       469.3325       729.0636       675.5560       292.1588
       382.1045       747.3251       514.0950       377.7975       597.9982
       559.1792       512.2585       667.7554       728.0175       434.5308
       359.0693       647.3580       380.7856       161.6982       544.4414
       686.1653       614.3857       639.6622       680.2775       466.4771
       476.5576       610.0549       599.5234       572.8157       357.0814
       464.6888       575.1462       496.5496       484.4777       342.7823
       413.3832       553.9666       332.7841       200.3862       465.9042
       567.5122       516.3936       536.0095       519.2797       447.8484
       166.1986       168.7234       515.4529       393.4259       223.0178
       425.1340       365.4672       196.6044       346.5901       445.8467
       437.8331       303.7310       273.5074       262.2488       129.7057
       282.2488       393.9288       265.4813       193.3178       114.5492
       161.4503       268.3547       47.83920       42.85870       357.8391
       108.4011      -196.0512      -15.95651       188.7579       57.51414
      -94.39687       7.758751       13.64453      -153.1905      -211.1283
      -89.72210       11.27075      -143.9578      -179.5273      -87.22589
      -146.5580      -174.9770      -137.5896      -349.9797      -513.8654
      -268.5621      -191.1675      -420.6067      -442.0869      -303.8197
      -322.9795      -351.8163      -333.7583      -569.3770      -655.3333
      -433.8921      -211.2317      -255.7072      -475.7595      -536.4818
      -501.4912      -545.7202      -557.7303      -561.1880      -480.7916
      -495.4163      -514.9192      -459.0378      -575.9547      -545.1812
      -535.0510      -697.9739      -651.3262      -605.7311      -572.1079
      -471.9463      -466.5098      -594.9108      -641.2683      -603.6188
      -444.3580      -343.0562      -543.6124      -682.6112      -464.2922
      -372.7559      -648.5526      -691.3677      -525.7355      -438.8217
      -378.5157      -418.8618      -434.0801      -448.9688      -454.4257
      -539.6438      -546.1730      -456.7892      -355.6812      -247.6621
      -429.6219      -543.0210      -512.3959      -615.8350      -428.1799
      -220.2322      -325.3984      -382.9131      -271.9495      -312.2958
      -395.5109      -421.3749      -339.2983      -276.0077      -525.2002
      -520.5828      -102.3645      -180.9430      -424.9218      -327.5964
      -245.8174      -392.4961      -447.4536      -355.3264      -165.6580
      -26.17160      -72.88745      -164.7423      -283.4937      -277.5688
      -114.8817      -164.6540      -218.6834      -86.63013       33.52393
      -102.6766      -282.2826      -216.9361      -68.77921      -136.4206
      -148.3810      -163.5459      -185.4216      -16.65781      -101.0845
      -263.8874      -73.16891       84.97018       6.262665      -123.6129
       50.97110       228.6570      -11.60466      -148.5093       73.02530
       34.59500      -26.99005       220.5358       233.4966       112.0786
       152.1709       51.70992      -85.07790      -34.85107       90.15900
       261.8855       390.0223       335.6816       398.5359       533.8989
       658.5646       683.8911       489.4966       282.2712       420.0593
       416.9742       264.8715       562.7052       674.6060       548.4550
       554.1143       516.0442       657.2319       822.4907       740.4565
       696.8550       712.4702       623.7329       589.8793       560.5234
       604.5237       675.3750       683.6477       580.1979       438.2531
       585.1707       830.6815       736.5251       506.3804       572.8821
       658.2810       657.8357       649.3086       457.0942       361.4592
       484.7086       501.0146       509.3069       531.5184       481.0068
       332.9084       209.5881       425.5454       420.8638       384.1125
       472.0631       365.8694       418.2369       415.9923       449.3868
       315.0089       81.55792       269.8783       336.6273       122.9242
       268.8552       574.0254       511.6948       373.4834       396.5807
       257.3900       120.5437       343.4221       436.4412       262.9950
       214.2690       279.8820       349.4341       350.7524       308.8562
       200.8058       219.7083       298.9648       276.3758       162.0802
       124.3646       309.8926       264.3607       191.3615       292.1930
       368.9191       383.0435       287.7827       388.2454       448.6331
       259.8551       173.8281       280.2072       414.9681       343.2345
       207.6876       174.9646       217.1724       289.4210       350.5205
       424.2764       351.1985       179.0830      -3.969849       87.58337
       286.4380       186.8700       243.3779       349.3972       381.1799
       253.6381       46.09271       162.0297       279.3070       159.3744
      -6.730164       51.64971       40.65147      -23.17143       60.91791
       110.9432       140.5694       22.94690      -169.7009      -221.3898
      -100.5233      -105.0386      -343.8178      -342.9850      -219.9106
      -360.6266      -376.2852      -263.5292      -300.9060      -250.1353
      -309.9863      -412.6040      -356.5905      -433.1962      -473.6619
      -482.6432      -617.5695      -656.9205      -611.8420      -480.8760
      -527.3760      -752.0732      -721.2626      -566.3849      -639.9414
      -681.2285      -686.5063      -739.4965      -662.7241      -575.3694
      -742.1458      -927.1492      -825.2380      -718.8601      -773.9810
      -781.7205      -783.8286      -839.1909      -801.6628      -847.6968
      -1106.802      -1123.665      -878.7947      -765.8833      -849.7139
      -837.7639      -665.8691      -759.9458      -1003.619      -1001.818
      -893.6733      -855.4463      -932.0215      -879.7751      -656.8716
      -625.9370      -861.8311      -936.9595      -822.7131      -746.4133
      -768.6279      -814.2400      -824.7295      -825.5874      -723.5813
      -623.6246      -617.9016      -537.5039      -524.5642      -669.4307
      -598.2889      -408.8960      -436.2874      -471.9631      -440.8977
      -516.3604      -536.5787      -332.3806      -248.3477      -253.1710
      -97.07594       38.52405      -161.2770      -141.6451       238.1866
       178.8601      -40.41913       8.177612       127.6411       54.75264
      -88.44702       163.3583       433.4447       343.5363       237.3389
       280.4042       277.6386       236.4536       313.9286       362.4587
       412.4160       568.3885       520.5499       423.5574       358.7401
       356.1914       467.9576       518.1661       601.3188       488.7080
       363.9600       616.0059       686.1235       515.0852       400.3209
       371.1659       525.8599       569.9690       367.9175       352.8208
       514.7019       416.2341       292.5587       465.7451       477.8018
       370.9344       529.8705       448.0094       154.6846       203.0198
       366.5657       479.6301       487.0391       489.3657       546.9692
       467.8861       394.2494       333.5485       348.0721       391.0359
       381.2484       421.3370       394.0724       324.6795       125.2193
       37.92969       255.4895       379.0944       330.8433       283.0437
       379.0911       422.0160       342.5372       426.2137       527.1934
       280.0352       67.42218       87.72119       128.5180       237.8439
       276.7739       283.2479       269.5643       157.9413       167.6568
       293.2350       322.6989       134.1271       162.1538       398.6909
       289.1839       137.5781       219.8757       256.9086       250.3887
       203.6534       151.5021       216.1875       322.4156       367.2012
       437.6726       559.3234       545.7810       357.5737       108.6923
       93.64099       308.1169       335.4391       318.5043       361.3191
       259.1780       285.5447       386.7401       412.1232       455.1607
       330.2682       86.68787       70.56592       240.2629       262.8806
       244.9208       457.2958       412.3349       133.9642      -21.74054
      -97.22247      -93.65305       35.80798       154.1012       216.4780
       162.3361      -84.06744      -136.4968       76.08677       46.70269
      -10.33978       133.8406       141.2079       9.248226       2.532898
      -63.53180      -185.3372      -117.3668       18.01115       27.02197
      -12.37782      -51.71381      -122.7981      -184.3226      -79.02158
       111.7064       43.61003      -107.9056      -20.94202       80.43268
      -166.0071      -409.4028      -169.8220       81.80685       171.0212
       41.31335      -212.6541      -128.3062       120.7678       251.2121
       181.2003      -48.47382      -279.7254      -159.6560       2.575867
      -229.2738      -222.0868      -52.59717      -229.1996      -321.3397
      -251.7904      -276.1922      -224.8189      -43.01904       38.11218
      -285.6570      -594.5606      -365.6426      -117.0656      -211.1602
      -467.9792      -643.7927      -521.7225      -341.0057      -351.4415
      -167.8533       166.6863       193.6807      -41.03943      -302.7828
      -361.4730      -265.1191      -183.8453      -374.4266      -669.9852
      -459.2794      -118.1401      -2.357300      -107.1370      -530.9104
      -809.6362      -694.0071      -613.0254      -711.4312      -755.9658
      -906.1238      -1214.943      -1060.039      -590.9676      -236.8718
       204.8708       312.5319      -156.2531      -331.8474       40.61334
       200.8763      -34.48340      -290.8220      -540.1216      -794.3962
      -962.9492      -815.4873      -726.4587      -782.6382      -400.9017
      -169.0216      -383.3183      -360.0027       88.94354       346.6653
      -239.1335      -1052.932      -1140.927      -732.0314      -204.0334
       192.1532       200.9938      -62.62604      -158.6350      -59.17493
      -280.8875      -577.1428      -472.1542      -166.8646      -189.3190
      -248.5284      -102.6346      -291.5754      -403.0485      -354.8943
      -593.2258      -748.6477      -241.5376       442.0847       458.9608
       30.21313      -133.9768       313.5378       400.2124      -40.94791
      -31.65796       232.8820       247.7307      -217.0037      -505.9263
      -263.8954      -88.20441       107.2028       281.8289       353.1287
       501.9944       624.9053       680.8242       742.9703       400.4802
      -305.7784      -395.5641       74.53772       202.1187       282.8026
       595.0474       762.5618       761.4290       718.4430       614.9825
       511.3751       376.3801       70.10474      -211.0526      -91.78589
       205.7670       462.8405       557.9568       632.9504       881.8481
       987.8970       906.5388       832.4390       739.0280       656.3342
       469.0488       356.0242       470.6223       782.4177       915.6317
       594.2686       495.1719       817.0800       702.6680       208.9772
       170.5139       495.2930       751.5498       912.0620       852.7346
       786.5330       830.3519       547.9293       235.1647       193.1002
       190.2307       152.9117      -210.7507      -494.8501      -368.9323
      -254.5637      -77.51758       397.6572       744.5503       660.7560
       513.3124       332.2426      -34.13794      -333.9828      -513.0687
      -331.2712       15.69771       93.25404       59.94153      -196.6816
      -474.3651      -510.9720      -337.1243      -14.10558       84.70606
       73.19519      -47.99197      -146.0383      -103.1608     -0.7559814
       235.3418       158.9450      -84.90753      -135.8147      -263.8413
      -457.8104      -535.1862      -477.7442      -393.5713      -237.2626
      -133.7322      -162.6685      -191.1245      -44.54715       136.3960
       106.1772      -10.14960      -171.4943      -312.5071      -367.1523
      -462.0471      -515.8647      -571.5125      -625.3468      -537.3392
      -353.3393      -148.8111       22.05530      -109.6416      -486.7009
      -555.0636      -443.4220      -310.8462      -309.6567      -616.9055
      -708.2366      -672.7520      -571.4575      -450.1569      -414.7897
      -190.0430      -24.64108       35.97803       20.23865      -176.3677
      -420.7831      -449.2476      -514.5305      -648.8051      -589.2024
      -482.2608      -281.7609      -329.4004      -483.5852      -164.3128
       35.84402      -101.5010      -54.20374       120.0542       288.2280
       294.6404       157.4925       162.9031       116.6858      -271.5836
      -575.7531      -428.1559      -184.5477      -100.4128      -40.14157
      -4.836792       232.0654       392.7339       353.2448       518.3384
       475.8975       154.4669       39.29495       111.4132       170.0784
       175.7480       137.3186       63.17953       42.59872       29.07202
       216.4297       335.4585       274.8368       595.6814       831.3807
       498.2006       203.4420       288.5300       373.7421       384.9858
       366.7112       446.3188       527.8109       400.3187       529.4648
       623.8816       361.3185       378.1802       652.1877       660.9241
       678.6954       625.9843       454.0749       382.5547       243.3105
       240.8765      -23.98215      -167.9646       105.6414       8.382507
      -10.00293       278.3179       557.5579       684.8978       389.6615
       203.8507       521.3857       678.3079       540.6390       521.2416
       348.1505       80.49146       178.9115       298.5853       80.63084
      -62.89307       145.1631       262.3635       140.9454       184.8426
       253.7013       126.1041       184.7043       461.8182       486.0438
       449.2863       350.4111       92.76651       17.43213      -4.716919
      -116.2061      -173.5506      -72.95435       178.3485       285.2516
       175.7603       86.20605       52.50708      -42.48401      -246.5760
      -437.7205      -335.1357       68.27646       161.6771      -48.63470
      -69.99770      -14.53299      -40.93890      -210.2214      -274.3354
      -139.0112      -434.5037      -768.4119      -520.7599      -390.7169
      -397.3116      -217.6069      -238.7722      -374.6131      -291.4326
      -295.7866      -406.6389      -154.9263       9.779510      -156.6520
      -141.3639      -94.96265      -292.3168      -562.6752      -545.0022
      -429.0723      -517.5615      -614.3879      -478.7034      -225.3171
      -315.8636      -214.0306       184.5890       94.01495      -193.5526
      -212.9383      -152.7551      -281.5096      -399.2891      -378.4605
      -272.4360      -255.9615      -349.1696      -237.2278      -113.8744
      -168.7581      -170.8831      -89.62830      -110.9057      -102.9301
      -132.9338      -369.9574      -354.6929      -86.16321      -87.74988
      -273.3021      -362.0209      -498.3887      -618.2274      -604.9229
