     0.02500000      -3561.246       2433.305      -12345.00      -12345.00
      -30.00001       224.1000      -26.05000      -12345.00      -12345.00
       0.000000       19.56000      -12345.00      -12345.00      -12345.00
      -12345.00      -12345.00      -12345.00      -12345.00      -12345.00
      -12345.00      -12345.00      -12345.00      -12345.00      -12345.00
      -12345.00      -12345.00      -12345.00      -12345.00      -12345.00
      -12345.00      -30.40760      -69.24540       1968.000       0.000000
      -31.37200      -68.11800       0.000000       97800.00       0.000000
      -12345.00      -12345.00      -12345.00      -12345.00      -12345.00
      -12345.00      -12345.00      -12345.00      -12345.00      -12345.00
       151.8268       314.4772       135.0532       1.365074      -12345.00
      -12345.00     -0.9713457       0.000000       90.00000      -12345.00
      -12345.00      -12345.00      -12345.00      -12345.00      -12345.00
      -12345.00      -12345.00      -12345.00      -12345.00      -12345.00
      2008       244         6        45        31
       450         6    -12345    -12345     10165
    -12345    -12345    -12345    -12345    -12345
         1         7        13    -12345    -12345
    -12345    -12345    -12345    -12345    -12345
    -12345    -12345    -12345    -12345    -12345
    -12345    -12345    -12345    -12345    -12345
         1         1         1         1         1
ARRO    -12345          
        -12345  -12345  
-12345  -12345  -12345  
-12345  -12345  -12345  
-12345  -12345  -12345  
-12345  -12345  -12345  
-12345  -12345  BHN     
ZL      -12345  -12345  
[...]
       261.4001       240.3142       177.7852       116.1786       82.16700
       44.58144       2.102386      -54.90799      -119.9730      -147.7189
      -192.2545      -247.0927      -264.9274      -288.6418      -361.2355
      -405.3440      -436.5642      -491.3975      -537.6084      -569.3057
      -622.2269      -661.5718      -699.0742      -758.7483      -778.4170
      -761.3740      -828.7966      -879.5791      -887.8645      -921.3040
      -949.9604      -964.4111      -1015.128      -1068.256      -1083.532
      -1113.929      -1175.783      -1184.626      -1185.395      -1205.571
      -1251.497      -1354.239      -1435.087      -1453.421      -1513.696
      -1508.197      -1516.934      -1574.249      -1539.125      -1565.111
      -1647.129      -1676.639      -1741.398      -1681.218      -1589.949
      -1569.054      -1610.750      -1749.882      -1842.211      -1880.830
      -1857.716      -1770.012      -1770.959      -1775.249      -1705.974
      -1659.437      -1568.665      -1664.399      -1839.888      -1724.672
      -1555.795      -1525.715      -1522.812      -1480.118      -1527.466
      -1671.153      -1684.009      -1449.448      -1122.677      -1039.240
      -1117.385      -1124.622      -1268.488      -1489.460      -1466.514
      -1308.096      -1126.071      -1053.958      -915.2388      -718.8262
      -880.5815      -918.4529      -655.5216      -654.7166      -600.9279
      -505.4714      -500.8044      -420.0190      -515.0948      -434.3173
      -159.2732      -299.4426      -148.7192       322.5954       11.45038
      -358.0082      -95.40497       121.5735       114.6616       244.0101
       437.0972       443.6537       483.2905       476.3364       325.9016
       384.5293       614.3259       814.3589       972.0649       894.1641
       759.3462       825.4961       950.5920       972.8413       1000.712
       1174.140       1181.203       1068.571       1242.097       1399.676
       1115.798       1165.773       1535.040       1204.918       1015.592
       1437.055       1727.516       1640.510       1358.487       1349.002
       1588.306       1610.136       1468.359       1383.707       1642.602
       2115.007       1777.432       1352.641       1831.469       1851.852
       1332.029       1442.294       1732.730       1819.428       1655.864
       1428.520       1585.853       1745.893       1471.600       1131.502
       1342.693       1716.206       1456.943       1145.492       1432.378
       1609.083       1435.698       1409.410       1398.344       1119.445
       1002.696       1252.052       1448.244       1268.525       1123.509
       1155.769       1013.967       880.5161       989.0532       1183.296
       1082.552       831.4734       919.7266       927.1543       752.0991
       692.3745       757.0493       816.8474       722.8760       771.7649
       958.4460       690.4126       462.5168       612.3807       553.9391
       307.6376       294.7196       501.9749       531.6633       281.2745
       144.7183       230.6349       157.4183       125.7401       412.7090
       432.4091       152.1757       44.95175       101.8541       118.4866
       292.3323       383.1899       55.46622      -66.44310       129.3208
      -10.19669      -161.9419       58.60095      -15.43945      -298.8124
      -46.71893       193.5977      -167.9878      -220.8667       158.2265
      -168.9216      -575.9877      -363.5301      -135.4381      -215.9012
      -544.3381      -324.5278      -10.64880      -503.0461      -580.9875
      -100.7527      -205.5199      -493.2565      -471.2164      -532.5723
      -697.5176      -565.3430      -257.3224      -489.2075      -806.9731
      -618.6747      -564.0361      -871.5317      -820.9242      -587.9233
      -570.4390      -590.3765      -771.4199      -965.7300      -806.3633
      -644.0767      -831.8481      -902.6814      -710.9949      -746.6680
      -996.6880      -1062.449      -900.5933      -813.6899      -873.6453
      -860.1204      -842.4485      -1009.535      -1119.830      -1077.907
      -1055.573      -1053.717      -940.9604      -979.3184      -1190.198
      -1067.144      -837.2930      -1014.228      -1200.452      -1120.949
      -1156.975      -1213.643      -1119.870      -1025.663      -1041.967
      -1174.447      -1158.267      -963.6714      -1060.961      -1277.324
      -1233.554      -1103.471      -1084.881      -1296.661      -1305.426
      -1114.604      -1266.252      -1259.788      -961.6523      -941.3896
      -1046.548      -1029.615      -862.8608      -887.5896      -1093.825
      -1027.661      -905.6421      -944.4580      -888.5764      -677.0337
      -711.4441      -938.8428      -820.8667      -653.6794      -885.6863
      -903.3300      -532.5123      -416.0243      -564.7236      -517.6234
      -361.9000      -370.9629      -364.6780      -232.2164      -171.4658
      -276.0634      -306.7846      -142.1691       86.56296       40.32520
      -208.1057      -214.1974      -148.7078      -205.3508      -118.3102
       121.0728       236.8507       160.8320       63.70667       107.8457
       128.4667       30.45525      -40.60181       127.7430       325.4529
       149.7054       90.73956       307.4853       292.3727       102.7823
       17.56799       142.2794       294.9375       316.5167       343.5089
       342.0977       197.4618       200.7347       307.8086       216.3553
       119.5602       340.5337       488.4944       235.0715       113.3142
       374.1074       490.7751       426.6466       392.0983       287.5845
       347.2960       490.2671       419.9611       446.3379       490.4070
       442.7292       524.6342       451.5122       326.5348       416.0515
       461.9780       532.0813       538.4905       449.1761       551.5271
       589.8599       376.2654       331.4111       504.6094       527.5186
       400.4933       439.6453       681.9324       640.4822       334.2734
       405.8960       517.7294       342.0148       236.4416       226.4656
       246.9940       355.8506       438.1614       486.1509       482.1292
       412.6714       307.5909       232.3391       368.7859       457.7196
       349.7548       442.4209       553.2861       403.1059       274.9690
       298.8041       230.9314       96.88330       79.61743       205.4748
       200.6230       165.5723       311.7509       357.3492       231.9576
       85.54681       66.99353       258.9176       417.9067       317.5428
       179.8756       330.3118       486.6337       318.0219       111.2964
       84.87637       24.89413      -50.89716       92.14655       207.1968
       127.3546       130.1927       165.4325       79.55795       18.04761
       184.7050       304.9636       109.4836       85.16785       324.1223
       216.6001       80.33289       126.1590       30.58530       15.40759
       159.0628       186.4775       242.6823       408.4017       304.0049
      -41.97980      -71.49707       196.8091       332.5444       302.4092
       196.5327       31.85663       72.57703       320.9791       234.0402
      -164.2475      -121.6925       213.8412       307.0815       130.1951
       65.51819       292.5745       276.2764       117.6766       253.9138
       243.6477      -18.39282       75.35913       502.1956       381.8416
       91.66675       399.8462       489.7570       177.1010       140.1836
       151.6336       108.3821       251.4617       398.3322       263.0925
       174.2714       351.1671       383.1796       213.8298       206.5621
       309.1444       325.6045       351.3024       468.3564       336.5665
       109.6893       213.3037       386.2949       309.1600       252.7584
       471.4420       556.2705       266.2261       217.1632       397.8710
       281.2475       236.4495       439.5377       325.0572       209.1233
       358.1179       397.3662       334.7958       264.9020       310.1924
       374.7927       228.5300       236.4875       388.5137       448.1019
       379.4513       114.8664       107.6995       381.0380       324.6573
       275.6848       446.9741       502.0088       336.6626       29.41528
       52.85864       227.5278       293.0520       411.5710       355.6710
       113.1104      -9.003845       107.6832       198.1842       143.8423
       102.2079       110.6285       111.4719       147.8669       319.0029
       344.0730       127.5899       61.69849       85.36526       98.04800
       120.1635       102.2424       310.9046       377.5732       154.8718
      -12.78363       16.28757       144.3146       146.2146       87.07709
       70.69406       51.78833       176.0420       235.7668       83.26749
       36.36935       72.37936      -93.53687      -100.2463       10.93842
       71.83203       289.9030       321.9600      -35.95435      -269.8517
      -185.6552      -8.381165      -112.5501      -133.5758       35.02521
      -156.2477      -450.2997      -309.6650      -161.7803      -290.5583
      -395.4785      -361.7385      -393.9227      -451.8406      -293.1577
      -261.0758      -551.9731      -606.4966      -547.6218      -553.0131
      -514.7954      -599.8423      -613.9296      -409.7588      -422.1522
      -595.1006      -701.1897      -713.8254      -656.6326      -712.9248
      -828.9468      -799.8862      -751.7461      -775.1948      -864.1089
      -984.3643      -1090.077      -1023.467      -889.8301      -962.1550
      -1102.629      -1056.792      -1098.653      -1207.936      -1252.952
      -1184.780      -1233.373      -1499.882      -1581.390      -1338.074
      -1272.562      -1460.236      -1464.048      -1358.206      -1379.353
      -1376.660      -1389.976      -1319.192      -1337.724      -1406.656
      -1269.233      -1257.523      -1492.478      -1448.113      -1321.129
      -1422.567      -1541.451      -1549.128      -1513.806      -1448.610
      -1428.572      -1337.115      -1269.623      -1313.448      -1321.299
      -1327.398      -1367.593      -1112.662      -863.6880      -1007.229
      -1170.479      -962.9124      -700.6526      -719.0154      -774.5452
      -728.4941      -825.3149      -856.1726      -782.5673      -685.5823
      -485.2174      -408.7466      -511.6530      -315.9565      -42.69284
      -65.04041      -196.2807      -120.3710       32.57269       105.8378
       238.3353       475.7020       504.1168       316.6785       310.8690
       513.2380       571.8318       683.9343       845.8125       916.0876
       1006.445       1045.988       903.4814       986.9990       1103.620
       997.0693       940.2090       1063.392       1229.225       1398.927
       1479.203       1539.606       1557.430       1442.176       1346.554
       1483.421       1633.614       1669.153       1625.996       1703.609
       1737.556       1604.234       1531.384       1727.442       1985.985
       2068.368       1983.743       1882.196       1950.304       2063.178
       1868.879       1856.643       2074.551       2000.077       1706.854
       1869.201       2157.137       2035.396       1870.572       1949.217
       2022.150       1955.686       1837.020       1896.762       1885.515
       1717.481       1665.023       1810.062       1822.576       1705.895
       1564.698       1540.329       1655.508       1709.787       1652.658
       1644.110       1500.425       1351.660       1372.850       1382.058
       1310.929       1321.827       1330.552       1293.865       1081.158
       949.2830       1016.247       992.9302       946.8364       1009.859
       816.6479       593.3005       554.4458       600.8683       597.8788
       519.5826       411.2092       410.2789       440.0026       439.2886
       361.0453       196.3071       72.46350       261.2957       263.8268
      -107.1353      -141.5192       48.09018      -89.07666      -328.7808
      -373.1937      -240.1099      -247.4218      -297.7207      -372.5879
      -514.1978      -590.4690      -592.5674      -604.0293      -631.0720
      -507.4087      -366.8328      -563.7014      -654.2327      -523.9131
      -499.9094      -643.6848      -848.0454      -895.5840      -789.4453
      -862.1260      -927.6946      -923.2729      -891.8892      -822.0742
      -746.9253      -809.5093      -865.8508      -940.7061      -1346.069
      -1575.084      -1316.246      -1268.339      -1444.590      -1599.769
      -1671.200      -1487.059      -1025.823      -700.7576      -750.0865
      -697.1402      -229.7701      -294.6602      -873.1265      -919.7808
      -817.2896      -1199.737      -1449.525      -1410.503      -1806.430
      -2256.058      -1541.069      -690.5527      -984.2354      -1845.699
      -2802.478      -3561.246      -3084.418      -1787.285      -1313.508
      -1600.455      -1569.425      -1508.251      -1594.728      -1443.096
      -1476.977      -1649.593      -1369.846      -1024.297      -967.0229
      -1495.840      -2100.751      -1860.668      -1379.521      -1273.559
      -1418.318      -1852.988      -1924.508      -1409.940      -963.0457
      -820.7690      -714.4570      -637.5962      -1070.548      -1827.807
      -1686.574      -1073.062      -909.8868      -638.8500      -30.98859
       57.45068      -864.3525      -1887.261      -1989.545      -1554.762
      -1263.728      -1328.688      -1132.922      -447.5731      -112.8691
      -426.7527      -623.6548      -310.3802      -23.78033      -165.4669
      -540.6606      -702.6677      -458.8716      -90.91772       274.7474
       297.8641      -8.143250      -212.5375      -243.6904      -199.2488
      -168.3622      -223.3890       56.93079       580.4841       654.6034
       558.6390       467.1472      -31.86618      -162.0786      -54.75391
      -188.8228       86.36768       789.7202       1001.831       712.4556
       715.4839       1022.850       1125.708       922.6870       744.2817
       1124.628       1370.085       819.9349       277.5873       313.0403
       535.0093       760.4858       1110.717       1350.293       1018.244
       632.6467       756.2629       990.9707       887.4016       780.3933
       855.2490       1164.820       1672.637       2036.503       1948.826
       1569.617       998.8641       534.7500       669.7253       1143.807
       1316.195       1451.757       1775.430       1862.101       1606.278
       1507.770       1704.483       1760.685       1635.762       1708.742
       1652.127       1692.435       1886.758       1561.195       1267.669
       1429.982       1562.003       1557.566       1734.256       2321.029
       2433.305       1733.549       1135.344       1106.066       975.0662
       466.7483       420.2275       1283.955       1986.844       1976.954
       1730.242       1466.529       1027.020       858.0337       1082.374
       864.6719       608.7258       970.4307       1151.948       1194.138
       1414.165       1276.967       759.8374       710.6602       1217.040
       1204.860       613.8177       388.6373       206.7747      -247.5857
      -458.6349      -429.7671      -548.8789      -607.4523      -352.9229
      -121.5934      -25.30841       244.7445       376.2211       102.0989
      -135.1237      -118.2189      -254.0881      -781.8027      -1139.164
      -947.5989      -995.1296      -1220.918      -954.0752      -811.5352
      -1234.865      -1491.875      -1491.097      -1649.694      -1539.676
      -1019.408      -1133.627      -1459.980      -1104.703      -1074.009
      -1634.530      -1539.364      -1017.868      -964.1152      -1271.911
      -1652.004      -1555.453      -1162.626      -1439.593      -1850.575
      -1625.060      -1354.667      -1722.066      -1927.610      -1480.003
      -1394.265      -1831.739      -1811.092      -1613.740      -1588.271
      -1311.982      -1151.655      -1303.396      -1447.380      -1604.985
      -1617.968      -1765.951      -1973.023      -2008.431      -2068.335
      -2002.058      -1659.163      -1456.681      -1595.915      -1488.501
      -1078.701      -1230.827      -1635.521      -1454.109      -1128.445
      -1093.318      -1030.263      -1030.277      -1200.454      -1407.642
      -1441.515      -1479.790      -1525.093      -1133.106      -620.6003
      -712.5820      -928.3364      -969.5598      -1200.421      -1339.376
      -975.5862      -622.9146      -574.8620      -270.0302       311.0640
       491.3220       180.8349      -54.73528      -48.24884      -108.4478
       41.75562       306.2891       220.4591       78.43286       329.4668
       590.5348       290.0481      -147.7179       63.94141       504.5374
       585.6287       599.9785       595.1448       560.0498       590.2781
       571.5750       891.4067       1062.103       754.5527       883.1250
       1181.628       1124.531       1046.612       954.3818       943.0154
       988.7817       828.2439       455.9697       506.8579       1260.899
       1584.114       1275.781       1463.649       1867.375       1643.338
       1233.528       1165.416       1325.666       1713.927       1887.369
       1570.657       1281.724       1281.742       1277.635       1361.392
       1651.715       1779.498       1844.363       1995.555       2003.650
       1882.778       1668.563       1485.256       1347.112       1305.283
       1290.415       1037.715       890.4229       1285.506       1687.542
       1704.822       1570.338       1380.227       1163.295       927.3394
       688.2705       754.0647       1147.168       1581.752       1774.442
       1486.247       1115.231       1169.907       1210.699       1189.339
       1491.522       1660.382       1434.232       1280.783       1135.297
       956.1714       1040.069       1198.422       1142.186       968.5920
       760.1266       461.1410       328.5686       704.1606       966.8214
       693.3613       404.8981       395.3658       219.8415      -71.24271
       44.19032       97.51501      -238.8171      -202.0261       89.18250
      -38.94305      -219.1303      -80.15637      -114.4492      -407.1132
      -383.4681      -157.5898      -209.5729      -309.4879      -309.2531
      -146.7737      -341.1138      -895.8655      -723.7886      -124.2274
