     0.02500000      -6913.266       5438.043      -12345.00      -12345.00
      -30.00999       221.3650      -23.61000      -12345.00      -12345.00
       0.000000       18.27000      -12345.00      -12345.00      -12345.00
      -12345.00      -12345.00      -12345.00      -12345.00      -12345.00
      -12345.00      -12345.00      -12345.00      -12345.00      -12345.00
      -12345.00      -12345.00      -12345.00      -12345.00      -12345.00
      -12345.00      -31.64950      -69.41590       1962.000       0.000000
      -31.37200      -68.11800       0.000000       97800.00       0.000000
      -12345.00      -12345.00      -12345.00      -12345.00      -12345.00
      -12345.00      -12345.00      -12345.00      -12345.00      -12345.00
       127.0708       255.6504       76.32545       1.142532      -12345.00
      -12345.00    -0.07706742       0.000000       0.000000      -12345.00
      -12345.00      -12345.00      -12345.00      -12345.00      -12345.00
      -12345.00      -12345.00      -12345.00      -12345.00      -12345.00
      2008       244         6        45        29
        10         6    -12345    -12345     10056
    -12345    -12345    -12345    -12345    -12345
         1         7        13    -12345    -12345
    -12345    -12345    -12345    -12345    -12345
    -12345    -12345    -12345    -12345    -12345
    -12345    -12345    -12345    -12345    -12345
         1         1         1         1         1
BARR    -12345          
        -12345  -12345  
-12345  -12345  -12345  
-12345  -12345  -12345  
-12345  -12345  -12345  
-12345  -12345  -12345  
-12345  -12345  BHZ     
ZL      -12345  -12345  
[...]
       821.6475       830.3125       860.9634       832.0283       833.2415
       864.0898       849.8105       865.2524       875.1982       860.5249
       857.2095       865.2568       856.0278       843.6589       825.0918
       829.0449       814.4404       792.1655       786.1833       764.4048
       724.2056       729.0613       746.4143       730.7325       655.1111
       640.3949       668.5424       635.1711       585.8076       600.3792
       583.2249       550.7007       543.2131       513.4404       477.0393
       477.8040       452.3660       434.8879       391.0378       330.2683
       326.8228       344.6382       301.7513       241.0735       211.3587
       181.0891       163.7049       161.0246       100.0381       50.76231
       27.79788      -23.01994      -49.01759      -33.21454      -89.40485
      -159.1102      -159.6034      -151.4677      -194.5543      -209.9285
      -256.1000      -277.2146      -255.9658      -270.2817      -309.7734
      -337.5754      -373.7942      -344.1521      -349.0754      -390.2937
      -406.2832      -419.9336      -418.8478      -398.6589      -428.7878
      -473.5179      -494.7804      -405.4258      -358.8887      -425.8021
      -421.8082      -514.2952      -682.4419      -800.0408      -706.6925
      -326.3196      -453.7422      -427.9691      -311.1226      -724.1460
      -883.4746      -553.7554      -647.3875      -918.6581      -431.2241
      -703.5563      -891.6628       40.66345      -318.0519      -381.6272
      -34.68237      -981.1394      -829.3064      -777.4412      -997.3030
       489.0444      -592.1401      -2274.722      -653.1743      -722.4149
      -149.0726       623.9753      -1771.734      -494.6065       631.7600
      -1218.085      -1121.429      -1034.865      -926.0713      -67.86731
       89.40625      -751.4862      -776.8931      -299.0864      -961.6929
      -675.0693      -1351.694      -1680.501       727.7226       462.8618
      -1308.025      -583.7991      -677.4707      -554.2446       46.46948
      -1212.995      -745.7473       164.6179      -336.2784      -73.48364
      -316.7310      -950.9927      -457.2557      -186.7441      -1085.757
      -774.9913       419.0966       343.5249      -103.6144      -438.0811
      -345.0957      -230.1729      -587.1855      -586.3895      -673.0224
      -31.40955      -93.13672      -1458.748      -137.6846       1238.126
       416.2882      -289.7451      -456.1007      -533.9039      -667.0848
       149.7053       387.4264      -460.5739      -569.0095       35.76099
      -16.92261       151.8188       889.0321       145.5587       1.914978
       451.5701      -282.9208      -688.5131      -136.6531       653.0145
       636.1896       281.7092       141.5528      -152.1538      -310.3750
       668.6992       1327.779       586.8679      -50.94907      -49.53845
       437.9209       1112.417       1089.480      -583.9860      -622.5059
       744.9663       491.6567       896.2610       800.7334       530.6011
       1025.654       110.3137      -255.7021       905.1340       1082.393
       592.9821       298.3461       142.9843       378.6191       851.4387
       1010.745       195.5090       10.43408       548.6454       592.8678
       597.0256       757.8926       683.8143       641.4724       223.8472
      -126.2300       847.4016       1080.790       930.7281       660.7604
      -39.17401       65.84546       503.9224       1095.545       981.9857
       172.7959       610.1777       649.6827       114.0034       898.0100
       591.7872      -387.1854       116.8667       1044.644       1309.154
       1136.447       213.7546      -457.7568       97.47363       364.1162
       792.8567       1065.415       486.6027      -4.793259      -38.22681
       249.4487       751.2788       1088.423       1019.280       43.30911
      -383.6398       364.0671       353.0828       232.5807       480.2734
       19.70346      -370.4839       258.5269       1006.487       615.8958
      -49.36395      -155.3158       30.21460       325.3271       416.5944
       117.5995      -641.4440      -242.9753       1045.505       424.6229
      -206.5826       457.9109       164.2408      -339.5563      -109.0226
      -113.9550      -141.5894      -7.086426       2.307007      -182.9730
      -557.4485      -308.6843       280.6962       276.3405      -416.4622
      -838.2955      -417.7195       134.5104       466.8030      -304.2888
      -1036.841      -771.7612      -454.5515       77.21500       183.4004
      -427.8115      -1038.886      -667.5374       208.0887      -148.1084
      -580.7540      -185.3355      -17.12305      -739.9170      -2018.507
      -2121.657      -866.7129       268.1345       445.8223      -226.9170
      -969.3911      -1390.450      -891.7975       209.1645       376.0747
      -474.4094      -1231.971      -1152.312      -363.7103      -368.1377
      -1147.876      -1509.337      -724.2565       773.4836       82.58496
      -1588.136      -1172.011      -401.3824      -73.49866       183.8928
      -1004.647      -1602.474      -544.8277       2.803284       196.7114
      -475.2927      -1545.771      -927.2927       211.2244      -1.320801
      -600.2089      -516.1995      -16.13733       530.4469       441.5381
      -506.1467      -1063.513      -254.1671       422.1736       782.5328
       509.4934      -969.2706      -950.8647      -41.40106       134.9398
       139.4577       99.16089       589.8699       392.8608      -790.4792
      -671.0010       842.5763       672.6340      -472.4440       34.37799
       38.10718      -682.7808      -7.708496       467.7986       631.5327
       809.6107       86.55194       37.53589       530.3600      -177.0844
      -518.1478       822.1367       273.3030      -595.6194       1003.826
       414.9441      -653.5788      -51.80884      -553.5325       391.8394
       2001.772       458.7584      -91.69434       894.6797       287.2201
       4.853149      -405.4486      -431.3271       1251.762       2082.299
       675.1096      -1388.303      -959.4626       551.5347       1179.377
       1338.240      -756.5939      -1050.704       1296.367       877.8109
       268.4708      -3.933899      -820.5210       779.3904       1426.855
       160.7819      -23.57089      -143.8248      -41.67580       30.96484
      -184.1154       349.4812       1258.868       857.8806      -363.3880
      -272.8740       387.8240       892.9319       1149.000       310.0422
      -308.0381      -476.9624      -1252.793      -897.4968       436.1157
       1445.416       1474.986       25.76685      -1043.926      -26.10840
       1187.614       152.5090       24.39807       543.7153      -75.31555
       483.6243       492.5015      -734.3160      -598.7177       46.24951
       941.3845       1397.352      -88.72363      -866.0899      -275.0962
       890.4310       652.4085      -140.1282       685.6686       218.6045
      -518.3933      -413.9791      -540.5338       83.87030       412.4024
       107.2899       661.0591       161.8210      -520.4089       626.4542
       952.7081       13.71960      -149.4449      -224.4409      -1439.290
      -1081.430       587.9006       764.6904       225.8439      -360.8979
      -44.28064       923.6510       148.4766      -1570.673      -1599.646
      -795.0400       328.5103       1319.772       368.2158      -1070.221
      -710.5983       46.27665      -29.50592      -20.79346      -802.1818
      -936.8657       309.7733       399.2192      -409.3911      -703.0612
      -235.6011      -367.1965      -297.6039      -149.3196      -815.1931
      -294.6025      -134.4496      -286.6329       284.5816      -301.9265
      -473.2511      -113.9324      -645.3264      -914.9600      -166.2823
       558.5752      -25.59973      -777.9711      -413.3270      -131.8561
      -260.8735      -232.3361       112.6562       546.4514       397.7836
      -292.5471      -1188.400      -1222.586       290.3118       939.3622
       52.76599      -214.3398      -301.9639      -11.13550       871.6015
       155.3701      -1083.936      -1240.684      -781.6997       678.6326
       1167.416       21.30768      -349.1610      -236.5217       31.11249
       17.24164      -414.5430       493.9415       877.2783      -403.4060
      -801.7234       383.0496       1312.019       247.6194      -826.8295
      -384.3239       365.9058       1139.378       809.2592      -361.2272
      -529.4723       209.2351       318.7632      -115.7211       407.4749
       540.3932       253.6015       127.3182      -476.1360      -465.3583
      -327.1294       479.8318       1364.209       614.2720      -213.4788
      -844.9510      -312.8270       754.9889       336.7960      -367.7231
      -486.2936       431.6321       1249.846       318.4406      -273.3839
       34.69016      -7.765686       209.0612       299.0715      -381.7630
      -519.5505       663.9644       1294.111      -205.0371      -1225.595
      -102.3430       791.0062       715.5005      -8.281860      -687.3397
      -16.59644       939.1991       777.9469      -447.4766      -959.7271
      -488.0483      -12.90234       581.1577       73.57507      -565.7149
       50.73022       366.4075       172.3491      -310.0897      -215.1647
       689.7917       124.5496      -1257.669      -1430.389      -359.2268
       1138.398       1073.053      -157.3124      -592.5961      -693.7096
      -42.84277       567.7750       127.1626      -240.3184      -848.7301
      -776.9009      -256.7750      -286.4613      -34.73853       76.51538
       251.7657       289.8669      -458.6543      -826.1223      -795.2324
      -285.1492       461.1541       73.72479      -376.0220       60.93835
       477.3822      -28.02930      -1042.076      -711.6953       471.7898
       938.9198       507.1490      -212.4873      -648.2881      -1251.378
      -1117.672      -157.9512       118.1641       436.4170       358.0925
      -597.2229      -523.9127      -386.3162      -426.2373       682.7891
       1301.120       923.7725       404.1113      -226.4109      -758.4164
      -83.59369       530.0576      -39.96326       406.4592       680.4771
      -453.6033      -1143.483      -1575.205      -1000.283       528.5046
       267.3356      -145.5144       573.8237       988.7402       1117.964
       274.7502      -597.9438      -704.2626      -697.9370       389.7017
       1596.058       1428.359       927.5031       342.6221      -147.3948
      -494.9904      -625.3223       12.13428       575.7771       312.1976
      -441.7781      -460.0356       390.7422       1424.170       1299.975
       64.16650      -267.6493      -2.423950       401.6567      -53.06714
      -487.2388       543.7295       1462.401       2169.934       1096.016
      -691.1191       433.2280       923.8195      -165.4003      -577.1292
      -880.8345       703.6125       1981.728      -32.67017      -1424.386
      -517.1733       961.8271       2236.286       1659.266      -162.3210
      -857.0349       421.2705       1534.111       821.5806      -425.8535
      -1098.875      -266.0773       241.9357      -193.2188       618.3799
       1488.613       1229.225       450.8306      -1158.537      -640.0200
       1624.409       497.6238      -1082.602      -635.5045      -282.7975
       148.5654       572.9454       509.4435       292.9002       193.5160
      -454.1459      -598.7981       426.8322       84.76184      -481.3135
      -1006.867      -1553.536      -581.9812       260.3652       828.4672
       558.2169      -470.5245      -235.6511       432.5158       211.7769
      -709.4546      -1003.145      -397.4734      -103.0258      -220.2265
       6.097961      -13.96484      -604.3929      -454.6745       130.0519
      -160.1198      -312.2824     -0.5852051       747.3708       520.7046
      -1120.536      -772.0074       431.6089       456.2004      -252.4896
      -768.0054       701.9976       2400.357       1979.265      -179.1719
      -2953.243      -3849.516      -1569.774       789.0742       2260.590
       2677.642       1889.745       1982.241       1752.047      -750.2637
      -2456.665      -1840.620      -3015.330      -4439.230      -2841.266
       953.8838       4957.406       4273.008       430.7542      -817.0144
       893.9351       1464.977      -562.9404      -2266.807      -1992.168
      -1187.933      -2141.958      -3874.009      -3074.046       1034.539
       5263.529       5438.043       2513.814      -896.2666      -3255.378
      -2923.246      -3329.225      -5105.852      -4430.574      -2655.328
       350.6924       4403.782       4705.302       1634.605       652.7515
       2308.736       2226.962      -2644.971      -6913.266      -5285.708
      -892.5020       3066.566       3756.962       1817.389       345.9857
      -123.9038      -1091.227      -3643.416      -3688.976      -190.0859
       1480.927       766.0220       1244.167       1617.691       507.2607
       322.0098       2544.667       2724.986      -1232.918      -4693.292
      -5352.767      -2526.360       1783.111       3923.212       2408.394
      -1374.911      -4097.615      -3679.031      -1084.325       1588.589
       4049.496       3922.920      -428.8906      -4289.709      -3710.687
      -955.8469       1044.416       886.3594      -589.9648      -2175.966
      -3830.617      -2577.215       2631.416       5357.364       2703.997
      -1915.384      -3905.080      -1542.305       1585.162       3026.521
       2533.876       1087.942      -2399.157      -5599.816      -3738.778
       85.82031       2256.257       1848.673       416.1058      -135.3119
      -580.8821       271.5688       2662.458       2734.512      -672.2773
      -3222.175      -2471.862      -57.52246       2441.033       3160.398
       1174.953      -1337.135      -2172.241      -1290.152       427.1172
       1572.075       2571.288       2579.416       548.6232      -277.1616
      -440.9324      -1268.896      -1390.408      -1435.233      -307.2800
       1121.314       376.9973      -35.17627       909.6785       1027.030
      -873.7463      -1953.543       14.56445       2202.703       3074.909
       2091.015       354.2892      -545.6789      -516.1416       591.9432
       956.0373       54.62329       88.78027       1812.859       2803.598
       2540.628       966.2573      -1665.549      -2119.833      -1126.415
      -603.7532      -821.0966      -623.8931       733.9922       1175.775
       1881.165       2303.017       50.05481      -798.2509       461.8344
       508.6979       219.9362       135.8462       987.8262       1779.627
       806.9102       1036.348       2085.304       1456.514       1627.110
       1510.634      -1032.427      -1530.961      -92.32349       521.7058
       847.0203       769.4382       807.1564       293.3366      -102.8824
      -34.15088      -417.2765       84.39056       86.97070      -825.1545
       189.5825       1462.052       1549.077       103.8364      -739.7720
       510.6433       825.4033       1041.015       1543.218       491.8374
      -986.6415      -935.0751      -140.9891       309.8901       990.6621
       1009.287      -192.9067      -1521.982      -1372.632       228.7051
       1225.791       1207.706       909.8236       142.3271       529.4731
       1448.522       1820.572       2276.315       1440.201       640.2361
       146.2871      -324.3768       535.3663       286.5156      -1333.607
      -1689.711      -692.5007      -399.2974      -1035.364      -1382.187
      -1439.615      -951.9464       348.0251       1114.491       785.4904
       438.4091       63.02844      -313.5825      -428.6989      -601.3300
      -544.4866      -75.45959      -144.2428      -594.4967      -457.9597
      -142.7437      -72.50119      -283.9707       290.3628       972.3739
       564.5996       556.3408       330.5796      -640.0601      -1477.002
      -2004.998      -1817.772      -1291.146      -424.6777      -428.2920
      -1232.981      -497.2878       562.2500     -0.9631348      -1182.715
      -1687.479      -1315.019      -251.4465       209.3787      -569.7012
      -1125.101      -1129.472      -850.8848      -204.9167       78.46362
      -1004.153      -2120.984      -1657.277      -150.2120       861.5610
      -143.9883      -1616.946      -1603.854      -999.9091      -464.2009
      -306.2864      -626.9639      -905.4304      -490.1252       66.12463
      -506.9894      -719.8077      -204.1427       202.0357       545.7544
      -641.0576      -1291.687      -383.0110      -3.039795       457.2448
       351.4515      -404.0416      -178.0093      -195.0292      -322.4501
      -91.05493      -727.9485      -409.5435       861.1047       422.8794
      -728.1201      -1309.256      -1685.000      -1405.437      -642.0760
      -39.06769      -152.2200      -433.0795      -263.2258      -449.7778
      -581.8499      -787.6018      -726.1123       612.4758       1363.125
       271.3177      -647.3657      -293.6938       336.1375       590.5388
       524.2474       317.3911       151.8152       213.5453       359.5757
       89.01025      -375.2164      -312.3521      -335.3107      -460.4781
      -209.4216      -275.8705      -228.2872      -208.6264      -273.8352
       261.9766       892.5684       714.2955       213.5819       580.1519
       451.1729       140.6208       896.6386       519.1288      -33.04102
       266.9651       321.2751       829.6860       709.2188       299.2676
       745.4541       528.4768       318.7733       200.6898      -33.52533
       342.8588       206.6411       87.59491       37.18909      -527.0802
      -670.0127      -684.3991      -436.9873       78.17859       436.2147
       369.1586      -272.8770      -308.1046       344.4466       464.4705
       92.33643       366.8398       1785.776       1991.323      -39.03979
      -1163.883      -3.723145       1502.540       1810.450       1174.697
       428.7980      -61.76147       148.7258       648.4419       636.0453
       159.8396      -308.7605      -347.0803      -18.88013       167.0869
       169.3365       126.4238       184.1569       158.7856       31.35400
