     0.02500000      -15115.50       14887.02      -12345.00      -12345.00
      -30.00999       221.3650      -23.61000      -12345.00      -12345.00
       0.000000       18.27000      -12345.00      -12345.00      -12345.00
      -12345.00      -12345.00      -12345.00      -12345.00      -12345.00
      -12345.00      -12345.00      -12345.00      -12345.00      -12345.00
      -12345.00      -12345.00      -12345.00      -12345.00      -12345.00
      -12345.00      -31.64950      -69.41590       1962.000       0.000000
      -31.37200      -68.11800       0.000000       97800.00       0.000000
      -12345.00      -12345.00      -12345.00      -12345.00      -12345.00
      -12345.00      -12345.00      -12345.00      -12345.00      -12345.00
       127.0708       255.6504       76.32545       1.142532      -12345.00
      -12345.00     0.04595073       90.00000       90.00000      -12345.00
      -12345.00      -12345.00      -12345.00      -12345.00      -12345.00
      -12345.00      -12345.00      -12345.00      -12345.00      -12345.00
      2008       244         6        45        29
        10         6    -12345    -12345     10056
    -12345    -12345    -12345    -12345    -12345
         1         7        13    -12345    -12345
    -12345    -12345    -12345    -12345    -12345
    -12345    -12345    -12345    -12345    -12345
    -12345    -12345    -12345    -12345    -12345
         1         1         1         1         1
BARR    -12345          
        -12345  -12345  
-12345  -12345  -12345  
-12345  -12345  -12345  
-12345  -12345  -12345  
-12345  -12345  -12345  
-12345  -12345  BHE     
ZL      -12345  -12345  
[...]
      -703.8137      -666.8181      -713.7241      -721.9260      -721.7429
      -774.0054      -814.3120      -834.0601      -795.2009      -800.9446
      -884.9019      -889.1904      -860.3835      -850.8501      -850.5081
      -875.0186      -900.6035      -865.4246      -795.0068      -831.9612
      -894.7573      -831.0676      -788.1523      -844.1392      -813.8115
      -756.5757      -785.7214      -762.4407      -707.1577      -704.3164
      -738.2822      -730.6648      -685.7876      -646.1646      -630.5222
      -655.5391      -672.2529      -612.9194      -557.7671      -543.6849
      -550.2494      -558.9343      -516.7662      -436.2845      -433.9611
      -457.4519      -456.9032      -417.7815      -362.5931      -360.0217
      -373.6858      -358.6791      -329.7683      -288.2871      -274.7155
      -318.1923      -344.1757      -216.6213      -136.7507      -254.8445
      -274.0976      -203.2466      -181.6854      -109.0616      -142.4517
      -254.9525      -139.1296      -18.18982      -125.4226      -178.3221
      -154.3039      -150.7240      -23.43293       42.97842      -100.7067
      -232.1235      -96.04086       44.54010       46.79185       62.26659
      -17.13940      -107.8539      -376.3726       83.53088       460.7007
      -293.6424       14.43433       377.5660      -514.3641       149.3533
       913.0766       78.21219       93.03455      -300.6875      -811.0657
       381.6544       658.0598       633.2000       965.0015      -721.6791
      -730.3960       943.4460       590.6277       560.9967       409.5679
      -1013.828      -77.15039       1572.184       1139.086       616.0193
      -618.8340       386.0703       2301.017      -810.3210      -1428.317
       2184.181       1877.101       281.1382      -140.2220      -652.1587
       935.4878       2763.878       1708.144      -38.59265      -586.4181
       2.019043       1952.959       2746.100      -154.3652      -1982.800
       1735.438       3603.258       871.8588      -28.24561       624.7183
       1046.586       1265.341      -208.7292       158.4321       2366.621
       612.4751      -5.192383       3298.772       1856.151      -1747.898
      -78.90161       1171.347       1379.695       3397.405       214.2878
      -2797.108       1908.098       4034.448       159.3286      -1397.605
      -231.2905       981.2812       2268.929       2201.255       78.17078
      -749.5103       1415.479       1732.009      -194.0809      -91.92456
       404.3567       864.1460       2055.882       629.8823      -1574.668
       646.5767       3179.138       959.9507      -974.6538       356.9825
       553.6450      -955.0321      -825.4575       1240.550       2386.410
       1118.132      -913.7974      -644.2773       745.5815       1252.688
       677.2241      -868.5171      -1502.552      -374.2676       1615.374
       1905.446      -645.4337      -939.7793       601.1807      -1003.222
      -1773.939       927.9607       1806.413       326.4814      -273.0049
      -1226.870      -2116.679      -255.8760       1637.583      -36.41919
      -1739.634      -414.3923       907.0244       233.6436      -1106.293
      -1450.951      -581.5298       237.5126      -180.0079       208.1899
       274.1475      -1711.105      -2300.998      -820.5681       476.6154
       537.0261      -591.5391      -1506.357      -1032.379       123.9150
      -493.5847      -1319.840       103.0259      -548.4321      -2651.393
      -1953.208      -425.7080       1267.120       718.9951      -2729.418
      -2961.755       153.2262       239.0503      -1574.875      -942.8772
      -416.8708      -1095.835      -1271.291      -1584.417      -1183.201
       166.1782      -808.3677      -2254.045      -350.1503       108.0356
      -1696.967      -844.5259      -514.2061      -1953.547      -601.7098
       820.9695      -357.9341      -1313.779      -1517.351      -1108.439
      -1.441071       214.6148       45.22278      -69.92480      -1257.399
      -1730.074       143.9114       1343.186      -249.3330      -2028.532
      -1551.216       424.9937       1869.132       626.3066      -1301.744
      -477.6306       435.7812      -711.4798      -689.6182       767.2990
       981.9508      -76.16309      -385.9641      -111.3000      -614.1125
      -23.71924       2201.158       1284.479      -1713.810      -684.9941
       1589.935       1077.354       751.5735       714.0798      -658.4923
      -789.2847       1362.439       2059.337       210.3340      -714.3870
      -9.366211       802.8074       1408.521       979.5544       530.9097
       1188.372       1213.849      -75.30566      -682.4314       85.34277
       1799.591       2576.503       883.0952      -1230.451      -568.5649
       1990.166       2957.456       1948.667      -88.96631      -1912.646
      -736.7476       2356.052       3132.545       1040.183      -1297.486
      -624.1353       2692.680       2088.747      -1402.837      -556.5234
       2363.220       2722.338       1396.828      -1081.453      -1711.351
       1211.944       2697.233       871.7477      -667.3621      -512.2639
       838.8311       2286.121       822.2573      -1718.359      -411.7910
       1776.079       1215.479       279.8176       650.2540       600.2216
      -106.2407      -421.3474       193.7202       1315.229      -58.85938
      -2284.403      -471.3218       2414.379       2006.909      -740.7571
      -2029.843       301.1008       1475.380      -1283.098      -1970.233
       747.6809       1301.997      -44.85645      -373.0264      -682.7764
       260.4551       1337.439      -52.89600      -644.1592      -1222.407
      -2616.592       485.2695       2483.145      -1603.215      -1706.438
       1051.133      -984.6990      -859.3032       987.4873      -1713.735
      -1974.080       951.4386       35.05444      -732.9860       109.6816
      -1441.843      -1069.564       844.5527      -795.7300      -1263.559
       73.08948      -638.0425      -102.5771       4.764648      -3287.000
      -2171.112       1989.631       793.9170       64.60229       1631.925
      -1348.102      -3518.346      -1051.079       345.2310       1144.791
       1082.027      -1360.923      -1513.807      -271.2144      -109.7595
       774.6113      -363.1035      -2465.952      -221.6150       1990.453
      -73.76636      -1473.956      -494.0298      -1280.387      -1471.408
       347.1484       256.2917       105.3167       550.3086      -867.7954
      -1889.614      -756.0256       1165.281       1373.558      -669.4824
      -2758.039      -2606.724       1125.134       4052.122       1576.591
      -2229.625      -2526.462      -894.5911      -213.1757      -41.72058
      -501.7688      -855.8296       439.7944       1052.717       306.9678
      -351.2197      -1892.668      -2126.752       936.0974       1843.740
      -538.5020      -1175.983      -1585.088      -1570.046       1943.928
       3044.562      -25.05273      -1404.047      -1590.347      -1240.508
       686.9391       505.3347      -1285.436      -48.93945       1880.053
       2146.759       1344.246      -1082.049      -2979.879      -1113.834
       1683.592       527.8984      -1067.896       515.7754       2748.219
       2692.160      -574.7705      -2624.723      -310.4492       1167.030
       677.4261       994.6990      -382.3499      -1218.252       2053.416
       3567.914       682.5559      -831.4733      -400.2229       140.5337
       1486.161       1130.611      -270.1018       1067.154       1677.890
       299.0474       540.5988       796.8811       405.1620       325.5233
      -621.3547      -213.0508       2502.485       2657.463       58.13477
      -228.8934       661.7898       505.1033       1174.234       1175.483
      -457.8430      -537.2634       644.6133       1256.031       1646.780
       1399.279       457.9352       172.1742       151.6984      -67.70026
      -370.7424      -69.91113       1052.555       1217.049       239.0083
      -604.1039      -412.5352       1439.881       2616.879       1007.673
      -1317.769      -2153.647      -378.9805       2330.677       1589.958
      -1030.871      -805.2185       413.1624       662.9312       880.9784
       516.6372      -252.8975      -1306.679      -1260.802       722.8062
       1581.850       246.6670      -957.4153      -426.9913       48.82434
      -197.6707       794.5470       872.3936      -1054.073      -1652.299
      -625.2759       746.9680       1529.921       365.6096      -766.7349
      -862.6526      -1171.055      -328.8256       911.1270      -444.6133
      -1269.423       600.2483      -155.4663      -2391.795       165.9819
       2793.823      -524.6807      -3596.323      -1463.428       329.9031
      -70.86670       534.4646       202.9567      -805.0460      -18.25635
      -441.2534      -1698.623      -1692.886      -974.5181       799.5322
       1505.671      -423.3706      -1953.216      -1105.266      -50.21338
      -234.5596      -871.2241      -2147.602      -2044.338       474.5820
       1686.159       962.3259      -248.4868      -2109.833      -1871.966
       394.4565      -24.21558      -1666.489      -707.1418       434.6427
      -72.60535      -571.9607      -556.3152      -31.68750       949.9280
       256.0190      -2606.531      -2758.165       414.5176       1579.926
       340.1492      -864.9326      -1642.401      -1065.883       1047.333
       1813.993      -435.5425      -2775.780      -2193.586       501.7598
       1956.941       254.8442      -1381.352      -1026.247      -450.6660
      -90.94531       309.2378       594.2156       398.6414      -383.2966
      -1006.724      -1162.222      -435.4127       413.2534       502.7822
       871.9701       670.9033      -171.9482      -647.2798      -1179.409
      -445.9011       581.2445       243.2266       566.9907       1610.283
       803.6602      -1226.547      -1242.934      -672.9501      -674.2627
       793.6343       1004.049       517.7402       1604.604       711.3696
      -1248.468      -702.4715      -360.6067      -71.72314       1779.390
       1454.191       268.7021       796.2310      -857.2041      -2991.413
      -121.2363       3617.828       3138.085       599.7173      -2225.964
      -3421.847      -510.8335       2450.400       1676.504       918.4070
       1015.273      -830.7095      -1356.825       758.3228       1266.792
       172.0229      -1164.963      -974.9336       2438.407       4615.288
       2051.373      -1354.662      -2681.122      -2353.481      -663.8179
       1470.657       3122.162       3239.119       957.5464      -1552.819
      -1744.325      -490.7822       895.0273       2374.841       2250.681
      -29.62128      -336.1762       469.7986      -819.3948      -80.57812
       1835.857       1126.714       1011.223       653.8645      -730.9672
       626.0628       486.3872      -1612.051       687.6558       2882.464
       1396.093       744.0408       59.05273      -1469.895      -1676.204
      -383.0220       1655.834       3110.105       2734.775       426.8301
      -1256.788      -1059.798      -982.8861      -945.6267       120.5195
       1239.263       1135.037       577.9226       1063.728       1249.449
      -537.2852      -1685.861      -1065.136      -72.54858       1239.709
       1349.907      -425.8149      -1548.555      -699.3008       575.3540
       1207.303       1359.066      -104.6133      -1530.896      -862.6558
      -1146.625      -1066.432       1312.536       224.2114      -2672.941
      -1378.750       612.5286       385.8193      -904.9932      -3299.933
      -3070.340       890.3770       1859.469      -1152.037      -2424.481
      -1516.418      -692.3296       354.1938       1308.064       917.8135
       625.0408       47.21680      -3900.451      -7988.337      -6662.951
      -1895.011       599.0801      -1810.165      -3566.717       2883.824
       10679.43       8854.604       1299.082      -4470.736      -7300.262
      -7883.617      -7362.302      -4824.297       1358.363       5767.571
       3329.739      -261.1318       945.3916       3565.852       1837.369
      -5959.555      -10022.44      -1086.092       7551.403       3657.207
      -4491.785      -9252.076      -5267.148       7506.229       12962.09
       4229.497      -4281.150      -4184.331      -487.0664       3191.983
       2523.672      -5662.941      -11495.32      -5124.518       8238.969
       14887.02       7549.793      -6283.434      -12566.69      -6356.582
       2295.999       4005.084       2165.499      -1059.754      -5044.351
      -3661.086       3382.902       10224.07       9817.561      -1521.273
      -14625.18      -15115.50      -1027.319       7995.353      -163.7178
      -7650.664      -644.5117       11654.32       13599.31       1854.848
      -10777.94      -13808.32      -3868.766       8075.987       6605.588
       354.9263       1181.869       4700.717       2626.367      -6547.535
      -13425.42      -7159.078       6947.434       13743.11       9087.926
      -3124.727      -10428.28      -1881.520       8683.268       5528.084
      -4704.861      -10773.20      -8010.635       834.8145       5991.164
       4525.027       5082.561       9284.699       6748.695      -3796.336
      -10423.29      -7132.663       235.0898       2414.408      -304.4141
       1505.529       7484.459       10052.60       6552.042      -1940.771
      -7749.704      -5622.510      -2328.495      -2060.382       916.0664
       6448.752       5331.249      -1737.435      -5740.915      -4691.606
      -377.2031       3580.000       4864.473       2890.663      -2727.982
      -4063.621       2726.596       8100.350       7034.644       324.9678
      -5622.899      -3279.742       2973.526       4854.262       50.12500
      -3894.885      -3062.447      -2396.045      -1321.829       1402.151
       4181.607       6196.521       4559.546      -1256.514      -4897.387
      -4423.919      -3021.584       985.1777       5118.951       5938.906
       6677.711       6696.621       4569.027      -111.2637      -6326.375
      -7587.013      -3678.812      -396.8462       1514.899       3737.623
       5117.541       3833.834       1265.077      -982.3252      -2029.638
      -1950.822      -2745.949      -3150.758      -451.9316       3487.562
       3632.053       286.3828      -1944.602      -1029.875       2568.864
       4134.217       369.3027      -4179.449      -5508.555      -3992.168
       294.4062       4434.393       3727.631       1488.880       2584.701
       3646.696       1828.466      -1175.324      -2631.453      -915.9895
       1001.486       261.0645      -2404.792      -4397.444      -1652.895
       4055.209       6006.335       2691.162      -1552.494      -3742.918
      -3957.883      -860.7949       3815.944       4336.677       101.8867
      -3652.933      -1852.543       2431.709       1296.921      -4086.863
      -3894.325       2552.291       4302.963      -1142.104      -5082.443
      -4580.330      -2573.270       855.3643       3941.090       2749.511
      -562.6226      -2038.819      -2630.578      -3418.743      -2553.452
       25.18262       2259.304       2485.928       1195.272       1574.845
       2158.901      -161.9307      -3183.642      -3688.296      -1594.577
       618.4861       1127.099      -827.8740      -4029.516      -4948.351
      -2696.981      -653.0110      -573.0754      -671.4587       99.26367
      -641.1299      -3523.792      -3998.723      -91.69531       4011.739
       4084.217       289.9609      -3681.882      -4871.020      -2967.294
      -1137.651      -749.4775       1413.893       3145.753       1861.049
       448.2861      -782.9204      -2026.714      -1650.527      -1062.888
      -334.3652       2400.285       3467.290       1111.471      -457.0420
      -578.0439      -1222.838      -1748.475      -2547.823      -3190.545
      -1264.708       1632.016       2504.148       1474.027       248.6407
      -34.83691      -447.3408      -1500.428      -1710.804      -765.4246
       688.6873      -48.40918      -2198.858      -305.2896       2869.229
       2450.656       1249.891      -31.84277      -2588.185      -3461.584
      -1805.345      -413.8328       541.6145       1303.287       486.4104
      -342.3145       421.8936       499.1035      -756.0393      -1253.769
      -862.7937       226.3655       1172.241       101.3843      -1249.270
      -909.4042       374.8394       799.2185       26.91258      -85.67480
       333.2637       984.8391       1259.784       31.53320      -1432.606
      -1833.927      -90.20557       2442.221       3005.268       2736.927
       1477.212      -941.0101      -940.2529       359.1089       466.3853
       688.9111       789.4453       615.9800       1186.552       640.7903
      -638.6816       70.79688       1258.387       1768.008       2071.309
       1325.505       152.9968       453.8018       1430.016       1206.537
       365.4409      -996.9922      -1594.784       296.9739       1781.604
       107.3184      -2604.972      -2152.672       1201.688       3469.941
       3473.364       2020.307       866.9751       976.3335       106.6290
      -920.6265       48.08179       207.9070      -1049.216      -664.6670
       1226.456       3315.628       3747.689       50.25684      -3595.569
      -2087.454       2003.545       4778.080       4293.195       1607.008
      -57.00598       278.6838       709.0443       68.49036       82.81201
       915.8188       1356.481       1082.649       639.9134       242.4495
      -218.1829       126.8228       261.1697      -580.2267      -456.9302
       386.1034       569.8304       57.35547      -874.6362      -608.0811
       1252.081       1933.114       914.8477       207.8999       241.7224
       604.8474       300.0542      -718.8406      -692.0024      -315.6859
      -408.2088       120.1505       313.4733      -366.8251      -105.8735
       416.5267      -700.1729      -346.1250       2355.503       2592.719
       559.3488      -759.4948      -517.4128       936.1772       500.0273
      -2387.047      -3585.442      -1901.054       198.5425       586.5967
