     0.02500000      -18753.03       18236.46      -12345.00      -12345.00
      -30.00999       221.3650      -23.61000      -12345.00      -12345.00
       0.000000       18.27000      -12345.00      -12345.00      -12345.00
      -12345.00      -12345.00      -12345.00      -12345.00      -12345.00
      -12345.00      -12345.00      -12345.00      -12345.00      -12345.00
      -12345.00      -12345.00      -12345.00      -12345.00      -12345.00
      -12345.00      -31.64950      -69.41590       1962.000       0.000000
      -31.37200      -68.11800       0.000000       97800.00       0.000000
      -12345.00      -12345.00      -12345.00      -12345.00      -12345.00
      -12345.00      -12345.00      -12345.00      -12345.00      -12345.00
       127.0708       255.6504       76.32545       1.142532      -12345.00
      -12345.00     -0.5576438       0.000000       90.00000      -12345.00
      -12345.00      -12345.00      -12345.00      -12345.00      -12345.00
      -12345.00      -12345.00      -12345.00      -12345.00      -12345.00
      2008       244         6        45        29
        10         6    -12345    -12345     10056
    -12345    -12345    -12345    -12345    -12345
         1         7        13    -12345    -12345
    -12345    -12345    -12345    -12345    -12345
    -12345    -12345    -12345    -12345    -12345
    -12345    -12345    -12345    -12345    -12345
         1         1         1         1         1
BARR    -12345          
        -12345  -12345  
-12345  -12345  -12345  
-12345  -12345  -12345  
-12345  -12345  -12345  
-12345  -12345  -12345  
-12345  -12345  BHN     
ZL      -12345  -12345  
[...]
      -9.621292       30.57101       12.86304       23.58200       115.2974
       136.2282       121.7284       178.3528       223.2967       198.7109
       226.8826       293.7599       280.7633       254.5115       362.4594
       418.1885       359.5356       372.1624       456.4677       428.7734
       396.8557       432.9403       472.0161       452.2892       477.7268
       546.3589       502.3849       449.8743       520.2689       522.2078
       499.4612       502.2623       504.2955       483.9218       481.9659
       513.1837       513.8629       477.8484       496.8716       460.1361
       453.2974       497.3572       478.5206       439.0273       471.0396
       466.8137       466.3666       450.9133       431.5645       419.5288
       443.6245       422.1248       387.7161       425.4921       431.5188
       341.3400       399.6212       450.7109       377.5419       358.6111
       378.8231       369.0024       397.7974       339.5953       331.6670
       396.9398       369.4222       315.0116       349.8923       323.3088
       259.8800       330.8439       334.2227       285.8580       299.3036
       310.1229       222.8445       159.2491       310.0299       241.3840
       342.3224       413.3347       373.9098       24.43018       17.01062
       523.3790       70.66675      -70.27051       674.8488       515.9395
       56.56909       525.7646       242.2854      -63.14111       505.1854
       364.7978      -79.97009       129.3047       490.0499       684.5432
       130.9324       492.8782       363.5212      -819.1836       570.6284
       1312.138       193.1490      -380.0941       413.7913       401.4445
       529.1328       306.3922      -782.1094       672.7666       1283.442
      -324.9608      -363.3186       1387.661       746.5269      -1509.909
      -730.7139       1358.440       1972.172      -396.7936      -1485.854
       1446.193       1204.747      -1560.075      -900.8418       1272.321
       700.8233      -406.4175       229.4078       627.5721      -114.3309
      -797.2144       982.6328       1641.111      -777.9141      -1634.675
       1155.065       2418.324      -906.8489      -2083.850       527.8728
       1359.203      -210.1529      -284.5934       572.6287       305.5111
       117.1254      -565.8960      -262.0447       1524.389       345.8347
      -1578.377       9.349854       1232.558      -133.1987      -1151.485
      -445.1323       471.4326       968.9462       300.5123      -453.6875
      -734.3625      -679.3127       76.29932       226.1003       413.1107
      -265.4495      -1178.775       244.5227       983.6934      -1146.755
      -1159.205       859.7556       38.05981      -123.7896       778.2830
      -900.2078      -1286.680       994.1693       353.6556      -1299.672
       745.4587       1490.324      -1320.045      -1308.360       1088.065
       904.8889      -768.0830      -328.5295       979.1968       888.1062
      -434.3577      -1700.463      -388.9331       2397.025       1922.528
      -1659.332      -2121.784       1318.743       1594.024      -631.4858
       39.20630       1194.874      -333.7632      -1343.052       408.1719
       1304.917       1308.460       773.7439      -796.2634      -1199.125
      -782.5906       477.4507       1574.578       1418.343       231.6140
      -1127.640      -874.8040       748.3383       981.1569      -110.1097
       167.5237       777.5574      -71.44373      -537.8557      -113.2251
       368.3731       415.7443       23.28467      -363.0678      -54.80823
       576.1323      -539.0918      -1059.169       348.6757       339.3422
      -211.9784       217.5228       347.4927      -566.7246      -855.9155
      -267.9768      -137.0768      -734.7813      -287.1011       719.7169
       333.5298      -896.6987      -1554.895      -612.2557       272.0483
       227.2474      -265.6147      -759.3247      -1036.765      -898.5457
      -84.51428      -202.2139      -594.1357      -881.7002      -1069.493
      -77.05286       490.4014      -795.5088      -1653.729       175.3718
       639.0366      -1472.611      -1722.179      -342.0642      -617.8506
      -1156.780       649.8121       722.8640      -1470.389      -1753.341
      -267.8498       326.0566      -905.5906      -1529.745      -545.9285
       171.9630      -115.2771      -761.4125      -574.9375      -424.9944
      -859.4277      -1197.925      -341.5432       419.1943      -47.25488
      -626.1616      -1246.299      -755.8757      -78.06543      -391.4010
      -439.7981      -169.8213      -283.5239      -767.5212      -1071.174
      -842.5657       98.78094       560.6377      -446.8247      -1201.512
      -491.6992      -206.2891      -908.8258      -728.9365       342.3737
       494.5645      -572.5752      -1460.589      -451.8954       545.4148
      -300.2419      -912.4184      -88.39807       652.3604      -30.36621
      -835.9275      -1146.091      -360.8896       332.7134      -903.0328
      -790.4561       1414.666       1228.862      -1495.202      -1776.736
       263.0691       1225.056      -307.5027      -1496.693       455.7244
       1723.479      -379.4512      -1458.337       621.6224       1172.155
      -792.2080      -1268.835       269.4753       1008.483      -259.7147
      -564.5094       611.2974       24.05420      -1257.488      -119.3608
       1627.897       1134.388      -145.9382      -1055.309      -395.0436
       592.2169      -202.9285       125.2739       1037.869       171.1862
      -291.3665       981.5108       311.9980      -967.6914       856.9717
       1232.516       474.6025       1137.561       182.2115      -814.0415
       351.3921       854.0404       192.6641       775.6530       632.2485
       36.67688       898.9354       160.3289      -1070.837       302.8076
       2047.525       1780.063       1027.188       261.2455      -669.1391
      -69.46484       1010.244       1286.404       1372.094       875.7410
       226.7192       628.7170       921.2178       405.4471       371.2207
       424.8921       812.4922       1603.082       908.9226      -81.86700
       167.3926       399.5515       517.8032       1367.711       1215.000
       229.0498       569.9199       1286.285       719.2545      -384.1761
       25.39502       1332.042       2042.397       732.2727      -498.8589
       509.2200       1212.817       681.4182       301.7426       696.1200
       378.4496      -242.4973       334.5750       1358.924       985.8386
       53.53650       167.5535       1169.775       1361.844      -414.9573
      -909.5232       376.7015       598.0513       202.5898       1477.674
       1802.309      -323.0520      -1169.292       146.8621       706.1340
      -403.1802       573.4531       2077.927       1104.223      -91.20898
      -1035.704      -1232.455       209.7639       1073.036       163.9634
      -264.3152      -312.8892      -18.65320       822.6974       72.64001
      -808.2104       132.8452       1200.333      -7.606445      -1202.306
       304.8491       960.9211      -879.0925      -1864.325       638.6199
       1935.927      -358.1656      -920.5558       229.3971      -125.0840
      -1308.830      -177.9231       1054.184       368.2623      -406.6587
      -441.7248       179.1196      -422.8101      -1039.762      -155.6436
       1009.755       137.5234      -1438.012      -231.3843       1027.783
      -63.28979      -1331.448      -277.9691       1167.413      -313.7622
      -1539.138      -533.4258       354.0345      -90.82089      -331.7346
       196.6870      -423.9028      -1074.941      -397.5282       287.1490
      -189.4098      -540.2217      -130.3591      -269.2929      -290.5708
      -414.9839      -758.4958      -442.5518      -567.1284      -1076.679
      -499.8957       353.4725       34.86206      -539.1619      -710.2129
      -513.1467      -297.7942      -797.5864      -1086.112      -607.8203
       107.5728      -52.85492      -303.0311       615.7886      -171.9302
      -2198.130      -2041.300      -369.9451       820.0127       1038.163
       316.1729      -1105.817      -1559.690      -442.9423       11.62402
      -579.4911       61.90002       566.6912      -589.1923      -765.8679
      -473.6837      -551.6565       246.6540       284.4473      -1208.264
      -1291.672       772.8479       987.7070      -617.3799      -356.5049
      -76.63574      -1812.439      -1550.661       1072.135       1457.613
      -96.29247      -79.40820       133.7393      -1024.590      -942.8475
      -93.75696       304.9429       432.5570       205.7382      -91.58398
      -163.4991      -159.9561      -993.8615      -784.5503       699.4459
       832.6880       166.3271      -687.6652      -883.1093       226.7354
       1179.861       379.5776      -1368.896      -579.9634       1417.974
       1712.621      -261.8066      -1899.775      -1021.144      -173.6605
       127.9307       712.1941       1359.750      -95.24365      -1225.113
      -5.850586      -262.4248      -1092.405      -286.7887       454.6001
       428.3848       573.2068      -473.5120      -1128.475       136.5679
      -114.2913      -1515.785      -732.8323       1223.751       750.8643
      -919.3213      -997.3701      -80.25916      -258.0511      -826.6379
      -213.8015      -189.2263      -912.9404      -328.2380       602.3016
      -117.2510      -1232.326      -933.0408       107.9813       212.0469
      -120.0247      -212.3909      -329.4734      -786.8317      -631.5928
       417.7574       489.8909      -580.6487      -1181.912      -238.2892
       385.7762      -295.3047      -141.5938       677.6782       128.0190
      -689.9617      -920.7690      -834.2837      -562.8118       5.027832
       837.5573       556.2307      -601.5510      -1180.999      -429.5155
       215.5417       170.7042       735.6886       5.850586      -1093.565
      -259.3266       397.8928      -597.3407      -674.6882       993.7417
       863.2998      -129.3607      -370.3079      -141.4175       163.4683
      -133.8115      -205.2656       171.4357       609.6582       396.0427
       387.9981       40.62988      -1052.322      -961.2446       669.0876
       1624.279       757.1925       328.3585       399.4073      -394.6780
      -515.1460      -35.88599      -833.1434      -471.6885       2217.559
       2725.157       996.7479       255.8997      -473.6719      -1488.440
      -1639.582       195.6304       2167.088       2020.188       1114.151
      -28.00610      -975.9841      -1175.182      -323.8663       376.0161
       735.6914       1367.154       1780.086       935.0781      -1319.318
      -2352.577      -131.8828       2965.351       2362.841      -131.2683
      -105.5427      -161.1498      -705.1188       57.48444       100.6748
       417.8896       2020.175       1474.527       115.3579       225.7705
      -527.8127      -1319.830      -307.1406       1034.999       946.0811
       547.5317       481.8497       33.24670      -672.5565      -421.5991
       785.0879       1045.607       1248.351       2152.812       1679.557
      -258.1470      -1767.140      -2030.189      -617.4351       1622.083
       2257.515       1965.292       1424.023      -969.2029      -1541.774
       440.0037       830.3611       175.5452       700.1653       993.2090
       68.91199       78.97290       1344.432       911.4142       105.2385
       863.6727       974.3325      -49.45587      -459.7598       713.2871
       1667.156       1612.193      -150.6293      -707.6196       1518.386
       2040.332       954.4032       321.7459       449.2032      -18.93555
      -720.1968      -1043.451      -823.3105       773.4102       1994.245
       2787.583       2555.149      -166.3853      -2549.785      -1089.542
       2040.177       2882.690       2207.791       1321.907      -15.71143
      -1841.742      -2169.723      -224.4629       2584.988       4269.653
       2220.912      -2065.361      -4760.784      -4688.907      -2503.714
      -680.8842       292.6483       187.0957      -1384.101      -334.1968
       2753.532       2648.242       494.0604       299.4141      -508.6426
      -3291.161      -5364.948      -5342.167      -742.6523       7094.918
       12951.05       10759.42       112.4023      -9408.969      -7677.342
       1944.254       6771.815       3121.764      -1213.959      -1637.796
      -1786.379      -3208.104      -5334.588      -6671.496      -6256.335
      -3510.896       3020.570       9528.332       10408.93       6282.741
       1562.328      -2821.570      -6548.896      -8247.520      -6018.229
       1156.664       11113.32       18236.46       10940.32      -7794.535
      -18753.03      -15839.58      -8622.799      -3123.473       4010.375
       10422.65       8980.797       1587.355      -4965.559      -9567.604
      -8724.479       1550.777       12189.20       10594.69      -564.8086
      -7084.261      -4009.366       1642.600       2545.742      -1463.305
      -3656.716      -1160.764       3373.973       7334.022       4498.900
      -4504.707      -7399.096      -1308.635       2533.444       385.2979
      -4246.570      -7786.389      -5213.889       3060.145       9235.166
       6499.393       1150.828       1572.905       2347.595      -2068.021
      -4072.044      -1796.383      -1557.108      -2567.343      -3226.961
      -3085.655      -1415.249       2389.798       4435.844      -564.5176
      -6224.012      -4477.297       505.1096       1129.632       272.4028
       2436.290       224.4961      -6244.905      -4971.479       658.3252
       159.9463      -2603.901      -1768.169       685.2612       1950.501
       1874.515       1306.840      -630.2939      -3176.390      -3339.836
      -1019.499       735.3081      -126.5273      -1916.152      -1812.424
      -845.6489      -230.5984       245.6387      -1048.470      -3119.479
      -2921.875      -371.7235       679.5811       536.5718       2127.795
       2043.537      -2725.273      -8954.570      -10940.50      -4590.766
       5237.893       9264.215       5769.779      -284.7031      -3552.188
      -4442.611      -3686.279      -1091.850       427.5201       151.7162
      -573.6436      -533.0909      -522.3047       83.67004       885.7194
       259.7439      -756.2939      -556.7285       3295.883       5436.543
       2356.347      -2158.591      -4985.898      -2869.495       1214.037
       1961.534       421.4941       1194.866       1273.516      -1290.710
      -1213.497       1440.350       1345.961      -1328.460      -766.0127
       3648.328       6419.729       4500.445       1263.000      -368.8418
      -1443.808      -1610.443      -975.5259      -1440.430      -1020.491
       181.0393      -531.3721      -459.5391       2808.067       4488.728
       430.2695      -3494.317      -3700.289      -2577.694       89.16211
       3801.101       4333.791       1423.399      -1414.012      -2707.503
      -1936.775       160.5581       2071.530       2514.093       1979.660
       841.7605       562.4688       2572.784       2721.537       649.7716
       602.5071       707.0908      -1665.831      -2593.221      -159.6113
       3392.280       5385.234       3490.924      -255.6157      -2438.016
      -2339.259      -1224.832       232.9907       2188.458       3141.443
       1915.488      -212.2231      -1434.552      -1551.284      -428.2529
       1436.804       3686.571       4867.871       4033.456       2446.788
       112.6387      -2050.379      -1586.478       664.6091       1584.114
       676.1542      -577.7230      -419.3374       1350.192       2239.136
       522.0143      -875.4980       784.8184       2944.352       2324.575
      -296.8811      -1261.587      -953.5737      -764.9019       466.4932
       2240.600       1995.658       986.8027       1826.987       1952.752
      -222.1113      -1255.405       120.6030       516.2601      -482.1206
       247.0801       1658.186       2093.111       2497.905       2337.209
       1190.938      -291.3853      -636.7013       31.40320      -7.880615
      -704.0449      -1143.933      -219.9341       759.3447       732.9265
       599.0233       6.866211      -1074.298      -258.5293       1805.523
       1067.779      -699.0137      -806.2091      -230.5510       678.7188
       1540.366       2172.570       1567.596      -580.3262      -2453.643
      -1981.567       598.2632       2199.345       1040.489      -1113.539
      -1273.119       582.0215       1142.074      -213.2096      -759.4037
       345.4249       169.8213      -1241.783      -545.1162       1084.084
       1108.187       200.1875      -1481.972      -2682.033      -1468.096
       59.07678       168.1561       415.3140       663.6484      -852.0693
      -2685.208      -1759.832       768.5222       592.4482      -1638.280
      -1791.993      -286.2881       834.5325       790.9198       469.1604
      -481.1218      -1474.010       135.1052       1468.666      -62.29126
      -1250.454      -779.1304      -1019.405      -2310.277      -1971.454
      -592.5503      -904.0259      -1837.070      -521.3740       1144.030
       271.0220      -1335.366      -1537.466      -1600.986      -2287.060
      -1562.975      -250.0192      -311.7410      -504.5381      -211.3358
       304.6603       18.71680      -1447.528      -3123.845      -3225.974
      -1669.261      -267.4287       933.1206       715.5107      -1352.685
      -2909.584      -2161.323      -18.79449       486.0752      -308.9175
      -1002.032      -1319.244      -1364.839      -979.5499       29.73892
       305.8336      -140.6592      -1115.629      -2527.250      -2516.978
      -799.6921       1136.872       744.8252      -1846.820      -2457.605
      -49.67578       1538.270       582.1743      -1221.161      -1762.091
      -651.1115       383.4509      -170.0029      -1912.206      -2130.242
       530.2544       2656.685       1308.186      -1279.254      -1351.472
      -489.8633      -878.2786      -403.0449       1087.883       1130.029
      -121.5110      -245.8878      -102.7085      -599.6018      -1190.029
      -1371.277      -534.2280       194.5869       278.0649       254.3855
