     0.02500000      -1296.128       2415.301      -12345.00      -12345.00
      -30.00997       214.7650      -15.76000      -12345.00      -12345.00
       0.000000       11.72000      -12345.00      -12345.00      -12345.00
      -12345.00      -12345.00      -12345.00      -12345.00      -12345.00
      -12345.00      -12345.00      -12345.00      -12345.00      -12345.00
      -12345.00      -12345.00      -12345.00      -12345.00      -12345.00
      -12345.00      -31.75110      -68.43510       640.0000       0.000000
      -31.37200      -68.11800       0.000000       97800.00       0.000000
      -12345.00      -12345.00      -12345.00      -12345.00      -12345.00
      -12345.00      -12345.00      -12345.00      -12345.00      -12345.00
       51.70342       215.5284       35.69352      0.4648811      -12345.00
      -12345.00   -0.009209326       0.000000       0.000000      -12345.00
      -12345.00      -12345.00      -12345.00      -12345.00      -12345.00
      -12345.00      -12345.00      -12345.00      -12345.00      -12345.00
      2008       244         6        45        21
       160         6    -12345    -12345      9792
    -12345    -12345    -12345    -12345    -12345
         1         7        13    -12345    -12345
    -12345    -12345    -12345    -12345    -12345
    -12345    -12345    -12345    -12345    -12345
    -12345    -12345    -12345    -12345    -12345
         1         1         1         1         1
BOZA    -12345          
        -12345  -12345  
-12345  -12345  -12345  
-12345  -12345  -12345  
-12345  -12345  -12345  
-12345  -12345  -12345  
-12345  -12345  BHZ     
ZL      -12345  -12345  
[...]
      -293.2712      -228.7720      -231.9150      -245.1581      -202.2555
      -182.2837      -191.6087      -180.6464      -139.4073      -134.8557
      -136.7057      -89.97403      -69.93091      -89.99889      -79.83517
      -8.939793       23.05447      -33.07313      -12.05273       54.72998
       77.19983       61.12492       57.51733       110.4151       136.9398
       131.4579       140.5990       150.8413       182.6304       205.4761
       200.9119       201.4937       221.2579       253.0099       252.0439
       227.2802       264.8146       294.0077       254.3673       270.0573
       322.1588       301.0942       288.6066       330.3797       308.7682
       293.8994       355.3757       375.1330       291.6157       282.5601
       389.9824       384.8671       291.8519       336.4537       396.8440
       327.1615       309.1094       403.3531       394.2937       299.5879
       318.8596       391.6080       370.9976       325.9380       336.9330
       345.5903       336.1367       345.1396       353.3972       321.2343
       300.3010       338.2572       357.4969       298.5333       282.2290
       339.9014       307.3768       249.2770       314.5521       343.3230
       245.7455       232.9031       314.8434       299.3842       230.7627
       244.0999       276.3300       232.8198       210.6629       256.7720
       253.2727       179.3226       176.9451       254.1864       219.0463
       144.5428       196.5503       214.9510       144.4688       160.0059
       200.7978       152.6292       116.5131       163.9417       169.1198
       122.9663       127.1199       164.2372       129.0078       81.27185
       140.1656       167.1512       77.88324       81.30756       138.2436
       127.1359       77.83096       72.52679       115.0792       98.72171
       57.50259       82.87144       81.91193       59.02388       65.85155
       69.27611       34.12065       37.98264       66.40417       17.57754
      -15.38293       63.18620       47.95974      -47.22256      -8.563110
       56.35053      -23.64656      -57.86791       21.01960       1.491653
      -71.19122      -46.07226      -4.766785      -28.21045      -100.2158
      -58.85432       8.669495      -79.01663      -119.0424      -36.89368
      -48.30002      -99.62062      -78.60437      -55.19138      -125.1019
      -124.9430      -33.70844      -83.46216      -173.2589      -105.4562
      -59.23407      -129.1383      -145.9841      -97.65448      -115.2656
      -163.0097      -141.9771      -91.54416      -145.0952      -205.0354
      -128.5502      -104.3372      -195.9466      -195.4365      -127.7404
      -154.2948      -220.5858      -171.8569      -136.2410      -208.4081
      -226.2898      -149.0594      -180.6124      -246.0345      -193.6489
      -178.0940      -228.2924      -202.2365      -186.0490      -214.9527
      -240.8284      -208.5880      -169.0549      -209.9733      -259.6865
      -221.4519      -180.8544      -199.5444      -232.4146      -216.4193
      -204.7324      -208.8322      -208.7122      -203.6709      -199.7799
      -190.4184      -201.7236      -210.9050      -175.7716      -157.2779
      -193.0394      -199.6314      -169.6227      -146.4417      -155.6157
      -161.0524      -148.3374      -134.5465      -116.2160      -105.1663
      -121.5712      -108.1209      -68.85776      -66.84261      -72.54814
      -53.34017      -38.15202      -44.93210      -34.66230       9.346336
       18.18713      -17.22852      -14.66092       35.84805       57.22584
       36.33826       30.87405       65.06723       76.01328       41.59193
       67.95096       111.0578       75.33278       67.14383       97.67279
       87.38794       88.61432       106.0214       103.0559       90.51144
       90.45023       108.3015       97.71298       85.49094       104.1432
       101.4370       66.38652       77.73215       92.45016       84.12431
       59.59216       56.68839       77.43452       42.12530       26.99184
       65.90297       28.50919      -15.64364       10.77640       48.47853
      -16.42659      -72.25396      -5.200279       4.002472      -75.48691
      -84.30661      -46.21167      -52.22363      -100.3434      -103.8035
      -81.28052      -89.65198      -133.5710      -131.0925      -95.29636
      -136.8748      -173.9820      -123.0513      -131.9511      -161.2349
      -144.8146      -156.9820      -181.9916      -154.4706      -147.6975
      -178.6566      -187.9916      -137.5795      -141.1859      -200.7308
      -172.1293      -125.1088      -156.4822      -172.1931      -131.7354
      -138.5690      -169.9947      -133.8253      -96.33545      -125.5063
      -138.9793      -97.84967      -93.55988      -120.7730      -59.10416
      -47.02853      -101.5752      -70.06480      -18.15062      -35.45928
      -47.22717      -17.60936       16.51004      -14.25962      -12.18661
       46.49396       49.86281       21.69397       52.74040       73.41164
       61.92734       76.04382       117.3170       103.7080       59.87109
       120.1801       181.7309       105.9736       80.58051       170.9734
       188.1710       105.2737       138.0358       222.0344       178.9632
       129.9563       181.4180       211.5173       159.6180       156.4247
       212.4271       204.3365       150.3172       177.3579       227.0667
       185.3564       146.2435       204.0211       205.7397       137.0033
       170.4681       211.3145       154.6096       152.8214       190.3444
       156.8167       134.3005       158.7409       169.2216       138.5563
       122.0295       173.8610       148.2847       87.09625       124.6568
       159.5794       122.9500       82.43719       102.3895       115.6793
       93.93494       100.3491       96.66052       73.45248       72.22748
       84.38644       81.94376       48.76666       66.75748       77.99397
       36.14462       47.44814       79.77273       39.14467       13.36314
       60.36911       85.26467       7.740906       2.732620       79.50435
       44.78165      -12.27998       57.75235       59.25219      -6.177475
       9.442780       72.39433       32.38684      -14.72025       47.30870
       85.11269      -13.69949      -26.23965       95.29781       76.94518
      -41.42830       18.47812       109.1956       48.40652      -21.37402
       42.78242       88.22309       32.19724       26.37207       91.15317
       65.16202       16.42883       73.94196       110.6496       45.55698
       44.59497       100.9900       77.82919       44.14716       82.73599
       123.9194       80.13159       45.02896       98.05728       104.9763
       62.73215       67.13702       103.4581       74.03174       52.67590
       101.7692       82.10679       2.375488       64.62350       123.6028
       35.81478       1.009186       66.79205       52.49574       14.55446
       40.29749       44.97765      -15.62857       3.396355       47.77224
      -3.673271      -28.50137       18.51810     -0.7871094      -44.32951
      -26.45932       15.66603      -35.02548      -80.07860      -28.48760
      -4.503784      -75.36716      -81.76726      -40.09033      -71.21359
      -90.41492      -65.07144      -72.00366      -103.2055      -115.1069
      -75.14111      -83.52008      -128.5947      -110.0262      -104.5883
      -147.3532      -141.7999      -97.53287      -137.6819      -204.6684
      -148.5654      -82.59033      -175.8356      -229.8399      -138.5753
      -132.0906      -211.6971      -190.1440      -127.4697      -197.0000
      -258.0942      -148.8356      -128.3562      -264.5556      -251.0662
      -123.2570      -177.1151      -270.9209      -184.9464      -137.4097
      -235.2355      -251.3895      -165.1755      -159.6752      -236.8735
      -223.8100      -156.1083      -194.9974      -190.9586      -160.3242
      -210.6610      -215.9656      -147.0027      -136.9156      -205.5347
      -204.1097      -119.1699      -133.4503      -197.0601      -157.5657
      -120.7424      -152.6640      -147.0578      -122.7888      -132.2220
      -130.7494      -121.1130      -118.4016      -119.0917      -112.7288
      -105.7198      -103.3919      -99.57703      -86.18698      -84.57727
      -96.01700      -84.86237      -62.21790      -64.62524      -76.02040
      -66.22781      -39.97545      -53.76981      -58.80348      -16.07083
      -28.56119      -59.19692      -23.71605      -4.665195      -16.06149
      -13.43309      -8.944834      -9.338646       1.087448       34.24074
       24.37642      -20.22954       1.072021       61.41110       64.75964
       3.370728       13.14737       82.58759       59.41827       33.85413
       83.31662       69.35468       35.94440       91.31192       121.5381
       73.53989       74.28143       113.4150       120.1879       101.9734
       117.8698       137.0475       122.0844       103.6100       151.9452
       177.7602       142.4600       127.5901       161.1725       168.4790
       178.4764       198.7914       166.0347       149.3352       188.0723
       223.9803       198.6816       155.1663       194.8615       230.5945
       215.1246       194.1769       193.1435       230.7455       216.9390
       179.7119       224.2000       232.7905       187.6520       206.8527
       252.2706       222.2844       186.2023       217.9564       228.0605
       209.5942       221.7144       218.6343       187.3424       213.3640
       230.7614       196.4471       205.8697       214.5284       178.1896
       183.0420       227.2440       215.4056       156.7904       174.1355
       209.0460       184.8079       179.2815       172.2421       148.5590
       160.9846       182.3225       165.7858       130.6538       128.3176
       151.0140       151.1329       128.1971       126.5749       118.6404
       83.78290       116.6864       138.1220       94.26874       76.38507
       78.70078       101.6385       103.5516       43.97510       59.71577
       108.1033       31.54318       24.06339       113.0938       51.04235
      -45.05164       34.49016       103.4673      -5.726223      -48.42276
       40.78191       29.43753      -47.39350      -23.43011       15.06046
      -43.13443      -78.34099      -29.51294      -25.28712      -73.15616
      -101.7641      -62.11212      -48.08801      -128.9163      -131.0919
      -67.13666      -108.5131      -141.4780      -96.95865      -115.4784
      -169.8824      -131.1744      -112.1205      -168.4329      -171.7420
      -108.8272      -161.2194      -217.9190      -124.1424      -105.7224
      -215.8821      -218.9477      -139.2639      -130.8250      -208.7207
      -207.0474      -146.8107      -152.5165      -211.1001      -185.5755
      -149.3469      -186.8118      -214.7411      -173.2450      -168.1630
      -194.1654      -185.4769      -190.1580      -205.0450      -172.7963
      -174.6089      -222.6224      -209.3854      -178.6464      -222.6016
      -217.3193      -178.1910      -211.5302      -249.2886      -214.9420
      -192.1184      -215.8378      -259.9907      -224.4563      -195.4716
      -244.8065      -231.1487      -225.4272      -256.3599      -239.7258
      -228.5471      -237.1184      -269.5012      -247.3601      -222.2773
      -253.1447      -280.2145      -244.7051      -222.2427      -265.3802
      -289.1346      -223.0757      -221.3480      -285.4797      -267.0620
      -200.6145      -247.1271      -292.2057      -222.6476      -197.0235
      -273.8824      -220.1851      -148.9377      -239.1915      -281.8048
      -161.4293      -129.6395      -234.8835      -218.6661      -101.2548
      -156.2231      -207.6919      -105.1087      -85.03650      -179.9438
      -141.6724      -36.94617      -64.77899      -134.4738      -75.64626
       3.676727      -36.09802      -69.90320       10.95217       12.51415
      -29.63945       23.21089       78.11292       32.48358       20.13303
       84.40492       92.90515       61.30023       111.5305       122.7299
       103.0999       95.61908       142.3322       191.9571       148.0911
       107.1280       179.0685       197.1108       180.6352       190.3839
       204.1451       164.3788       193.6783       264.1395       241.6653
       175.5482       220.3392       246.5792       244.1879       256.2693
       237.2767       155.4155       8.713989      -356.7485      -824.1174
      -992.0475      -689.5774       120.2461       984.5586       884.0259
       1042.919       1435.109       538.4067      -197.8469       470.9858
       989.3392       514.0175       495.6727      -207.5728      -792.0544
       796.4238       924.9529      -414.0718      -107.5693       1543.115
       1196.498      -1296.128       172.2749       2415.301       651.8368
      -435.7610       44.04565       491.2827      -225.8671      -763.4180
       518.4551       452.3228      -406.2675       141.0911       683.2240
       845.1814      -172.1182      -102.4785       1309.196      -136.4873
      -78.01221       1545.067      -192.8101      -1007.894       415.3380
       566.6599      -238.7675      -182.5181       421.1236       137.4659
      -428.5724       185.5254       651.7512       338.2313      -295.2662
       224.7426       694.0723      -478.9171       254.2249       852.7296
      -540.6663      -412.9843       208.5060       179.0137      -107.1460
      -213.6908       235.8628       165.8311       488.8875       320.2714
      -218.5135       293.8934      -208.3411      -394.1569       325.0612
       136.4529      -152.6855      -217.5045      -153.1261      -163.4031
      -94.02798       158.4698      -23.15091      -116.6102      -111.1886
      -224.6669       90.25827       193.5433      -86.41579       73.77194
      -32.03235      -347.5045      -245.8744       26.38815       158.3112
       8.240112      -53.64954       262.5833       144.7285      -452.7068
      -336.1919       102.3712      -66.16022      -215.1562      -295.6869
      -532.3468      -198.2056       310.8456       29.44940      -144.2156
       31.13135      -358.5671      -410.8673      -39.24475       235.0129
       187.6445      -320.2031      -274.1126      -12.45251      -211.1793
      -332.2310      -13.45404      -5.771149      -246.2908       38.28741
      -100.6855      -329.3729      -20.32407      -4.206810      -16.56470
       77.86096      -44.89352       53.39740       105.4625      -138.2184
      -416.1169      -462.0664      -45.93054       149.6768       12.66202
      -98.97552      -251.4836      -283.4424      -206.5898      -175.4371
      -208.0148       136.8165       124.7466      -384.5133      -34.88940
       271.3635      -364.2813      -405.4582       77.05212      -84.96790
      -259.9665      -305.5284      -233.8723      -96.10315      -153.0339
      -72.17572      -202.5258      -272.0729      -15.92908       14.46265
      -183.5903      -234.9316      -194.5458      -300.9913      -251.0482
      -126.2761      -200.4035      -62.74615      -90.24866      -465.4550
      -380.3058      -206.6519      -210.7769      -115.0198      -194.8690
      -228.5238      -72.84945       33.83063      -98.73712      -336.0419
      -266.5762      -132.4872      -252.1022      -314.7437      -296.5449
      -164.6973       4.501099      -225.2934      -380.8364      -257.9816
      -267.1387      -212.0101      -129.5237      -47.95804      -64.67676
      -243.0530      -354.0576      -228.2174      -197.9610      -287.4749
      -190.6494      -179.5378      -178.8687      -435.3784      -684.1179
      -186.7627       24.63397      -335.8661      -213.0441      -24.12610
      -428.7623      -287.4729       2.220581      -297.0981      -303.7761
      -100.2440      -171.7256      -394.7242      -274.8572      -91.61243
      -353.3757      -349.4512       16.94452      -139.2767      -154.6065
       95.01770      -278.3487      -213.3142       95.46519       90.32483
      -264.1849      -313.4892       251.5983      -58.65555      -147.5882
       113.8040      -26.63208       218.4711       18.47070      -293.7062
       123.0519       70.54654      -26.49371       274.9832       154.7773
       117.8894       335.5394       161.5983       29.00421       315.9810
       333.3186       531.7880       458.4313      -9.179642       31.98822
       82.11401       516.0780       630.3445       31.32788       394.5073
       783.5979       422.0798       595.7556       609.5028       286.7664
       411.6395       334.9385       452.0844       619.3123       546.9341
       887.0272       764.7755       308.3553       316.5198       513.5994
       829.2080       889.8501       786.1121       600.3705       129.0010
       334.7285       833.4385       662.5642       635.5896       542.3411
       583.9001       688.4971       603.3330       850.9307       578.0730
       257.2673       815.9414       752.0042       293.1433       642.6228
       757.5179       513.2327       487.8213       511.5043       507.7306
       499.2782       459.5338       474.3734       688.9668       532.9897
       397.0569       482.3718       211.0579       387.3174       532.1447
      -6.550964       105.7056       711.5122       678.3855       236.8198
       327.2585       458.9343       290.9650       318.1791       213.8954
       76.99872       44.28308       112.2717       394.0433       493.7191
       41.49255      -244.4328      -54.63873       173.0455       81.08154
       324.1848       505.6027      -440.2855      -427.3635       397.8164
       54.73056      -143.8638      -61.77502      -167.6143     -0.2958069
      -212.7787      -24.97688       117.5240      -400.4220      -349.0248
      -347.2227      -331.2272      -60.35696      -111.4554       30.87378
      -366.3071      -863.1632      -330.3193      -121.8766      -421.9216
      -586.3947      -406.6919      -420.9961      -726.1786      -302.7827
      -423.7762      -362.1759      -115.8459      -659.5945      -498.1832
      -382.1362      -694.1251      -545.4006      -422.6597      -632.8184
      -325.6978      -315.7454      -928.8506      -895.1423      -571.7996
      -718.3591      -754.2407      -398.3647      -476.5251      -768.4204
