     0.02500000      -1970.777       1925.057      -12345.00      -12345.00
      -30.00997       214.7650      -15.76000      -12345.00      -12345.00
       0.000000       11.72000      -12345.00      -12345.00      -12345.00
      -12345.00      -12345.00      -12345.00      -12345.00      -12345.00
      -12345.00      -12345.00      -12345.00      -12345.00      -12345.00
      -12345.00      -12345.00      -12345.00      -12345.00      -12345.00
      -12345.00      -31.75110      -68.43510       640.0000       0.000000
      -31.37200      -68.11800       0.000000       97800.00       0.000000
      -12345.00      -12345.00      -12345.00      -12345.00      -12345.00
      -12345.00      -12345.00      -12345.00      -12345.00      -12345.00
       51.70342       215.5284       35.69352      0.4648811      -12345.00
      -12345.00      0.1692154       0.000000       90.00000      -12345.00
      -12345.00      -12345.00      -12345.00      -12345.00      -12345.00
      -12345.00      -12345.00      -12345.00      -12345.00      -12345.00
      2008       244         6        45        21
       160         6    -12345    -12345      9792
    -12345    -12345    -12345    -12345    -12345
         1         7        13    -12345    -12345
    -12345    -12345    -12345    -12345    -12345
    -12345    -12345    -12345    -12345    -12345
    -12345    -12345    -12345    -12345    -12345
         1         1         1         1         1
BOZA    -12345          
        -12345  -12345  
-12345  -12345  -12345  
-12345  -12345  -12345  
-12345  -12345  -12345  
-12345  -12345  -12345  
-12345  -12345  BHN     
ZL      -12345  -12345  
[...]
       100.9595       56.26892       274.8956       287.5514       72.50513
       66.43243       236.8327       209.0811       35.85010       136.2595
       278.7842       104.9577      -29.66431       184.1647       273.8097
       74.26926       13.44501       169.7351       178.7052       97.78922
       120.8372       147.9168       65.67889       118.3191       189.1386
       87.11017       81.54749       201.1169       144.4068       52.39700
       115.4252       227.7617       119.9681       15.30530       167.3447
       234.1609       82.82379       69.63242       145.6381       176.8366
       139.7445       106.2550       125.4555       133.9130       133.6937
       167.2899       106.6887       107.1481       180.1214       144.5735
       84.06839       136.3903       170.4018       138.2234       101.9900
       138.1921       149.9955       111.4671       109.0887       158.0107
       137.3551       95.84241       111.0687       144.6051       118.9128
       88.61627       101.5740       131.5640       90.95987       74.00433
       97.84705       101.9081       92.84579       60.65990       26.09573
       83.07346       109.9752       53.41869      -28.45983       1.450958
       88.67848       64.79330      -33.38974      0.7224846       29.24744
      -40.40197      -39.84901       54.70055       5.659088      -113.3601
      -81.94455       41.38343      0.3103333      -90.10905      -79.33643
      -54.11870      -72.42879      -48.95770      -56.99716      -100.0991
      -107.6384      -30.78726      -60.02591      -133.0791      -76.41557
      -30.35739      -113.6934      -117.3063      -25.91591      -42.61423
      -136.9160      -92.27873      -22.13464      -32.66650      -119.8465
      -105.8319       24.52252      -17.16339      -116.9516      -41.01741
      -4.073044      -44.41306      -44.35527       3.416466      -9.720535
      -58.54091       2.875267       65.44638      -8.993431      -21.86733
       33.70865       34.56252       43.31151       73.46989       35.90569
       44.58832       98.85007       102.0866       59.23944       85.13382
       117.7304       76.97864       83.43359       162.5851       151.9223
       80.73999       64.69513       163.4940       184.8932       115.3773
       113.0173       119.8403       115.0582       166.5294       158.8507
       112.9929       116.4929       124.9626       120.3645       164.5415
       142.3641       73.84552       69.37085       125.5226       171.9619
       109.5652      -4.673767       92.28818       173.1873       20.02357
      -16.87860       143.9172       94.31018      -82.03983      -15.07956
       159.9958       12.73340      -157.1124       8.821083       100.5264
      -103.1792      -143.8597       15.80455       15.50839      -150.6906
      -170.6927      -44.84195      -66.10712      -196.2512      -131.7037
      -67.99658      -158.7122      -202.1818      -180.3584      -175.2280
      -167.2234      -167.9854      -235.0571      -287.1799      -171.8936
      -130.1538      -307.7048      -349.6372      -170.1833      -193.6152
      -371.7377      -309.0555      -168.7902      -280.1935      -415.2407
      -294.1352      -164.9406      -332.6752      -447.4296      -292.7660
      -217.4214      -326.6969      -383.6967      -318.8806      -295.6331
      -346.9213      -334.0682      -307.7230      -336.6122      -326.6378
      -325.6736      -342.8615      -288.0680      -271.9254      -355.5638
      -360.7398      -267.7856      -259.3069      -338.9561      -332.4501
      -268.6071      -283.5557      -314.5703      -267.7803      -249.3676
      -295.6124      -286.2842      -253.0950      -238.9367      -211.2244
      -254.0385      -298.7220      -228.4296      -148.1453      -175.1898
      -272.8717      -260.2825      -125.3025      -119.8799      -220.7845
      -195.6275      -118.0085      -122.4353      -174.8381      -150.7563
      -73.31262      -125.1116      -134.6391      -45.44095      -90.41183
      -111.3143      -27.17752      -29.14038      -103.0401      -63.28320
       51.60764      -10.85880      -85.24475       62.52052       111.7675
      -74.65476      -61.89294       174.3896       132.6682      -65.37427
       40.92538       211.1800       83.22266      -10.87048       172.6316
       215.4472       30.35883       50.85577       229.7253       193.9297
       64.50250       149.0554       214.7500       118.9199       138.8253
       221.8813       159.1006       98.94891       191.0473       232.2441
       144.9506       132.0189       185.3809       166.8558       126.0057
       191.9039       272.0440       118.9533       31.37207       227.6255
       286.0428       113.5334       92.63544       215.0152       207.1901
       107.1636       172.3633       246.8260       142.4778       113.3920
       191.8380       196.3701       191.9578       153.5196       114.6105
       183.5701       282.8328       256.3412       228.7188       384.6973
       506.1107       411.7482       223.4102       128.8306       88.17619
      -95.15955       139.8662       380.8784      -10.37265      -179.8867
       150.0096       423.8971       340.6029       328.4516       174.3541
       113.5776       541.4439       490.7441      -43.65356      -612.6756
      -34.42725       721.3328      -401.2419      -535.5718       736.7556
       891.3363       333.7493       42.99805       455.0956       423.7527
       66.49557       247.2828      -94.69458      -10.32959       552.4266
      -227.2185       23.41040       553.1476      -277.5864       415.5449
       646.3317      -326.9100       135.3357       605.0310       190.7057
      -181.8851      -25.11786       332.3392       112.6224       221.0905
       317.0615      -425.0891       169.0613       942.0345       81.33975
      -405.1238       342.4626       370.3903      -419.8307      -222.2703
       341.0333       289.1499       258.1599      -4.022705      -27.05029
       720.6626       454.2704      -246.8659      -100.4206       391.8013
       66.57703      -729.6168      -100.3921       670.7724       370.1397
       23.62331      -14.54553       256.7556       324.3480      -5.936218
      -7.733948       95.79797       166.0984      -20.23566      -316.3172
      -142.3779       42.73505       216.5558       212.3578       60.89014
       117.0672       118.0555      -33.21918      -221.8074      -89.88031
       168.5850       41.76178      -275.5378      -182.0029       46.19653
      -167.9911      -181.0270       87.93703       140.4185      -26.71362
      -397.7761      -236.6596       106.8455      -154.3740      -339.9387
      -175.3385      -208.5970      -267.1210      -46.83606      -188.8813
      -154.8198       51.25543      -172.8079      -227.6395      -154.5320
      -110.4594      -171.9784      -161.4480      -158.6729      -220.0953
      -189.3784      -192.9987      -133.5387      -192.3412      -351.2423
      -160.0033      -163.9423      -440.1464      -152.8879      -40.31967
      -215.9200      -54.83496      -130.4011      -158.4218      -21.25049
      -344.2806      -502.3696      -145.5787       44.29907      -178.6587
      -414.7026      -431.1127      -326.9867      -156.4610      -62.93038
      -59.20787       73.26660      -74.03833      -440.9425      -345.4161
      -94.54709      -63.79535      -279.7379      -130.7621       165.7491
      -37.03699      -221.2244      -201.5464      -58.18744      -124.7665
      -302.9263      -163.2172      -44.22620      -220.8692      -160.6522
       179.1978       155.8828      -58.76004      -168.0129       59.19470
       151.0510      -319.9903      -428.5922       9.509155       242.9378
       33.40137      -186.1621      -2.273834       175.9905       1.797424
     -0.6506653       152.6514       61.55931       27.29791       168.1650
      -50.27963      -203.8996       85.68939       154.6932       229.6621
       221.1954      -221.2335      -212.7237      -2.346069       55.91943
       279.8044       283.2900       92.51874       177.0674       266.5134
      -194.9028      -337.4324       318.6576       499.7122      -69.38072
      -206.3067       171.2788       90.75946      -80.91315       200.9256
       138.1147      -168.4151      -116.0054      -144.0360      -8.149841
       163.0659       12.71538      -38.50218       24.28128       18.58447
       177.0060       157.1635      -212.2355      -98.70434       34.66605
      -184.6576       39.36224       291.6370       60.46570      -446.2880
      -299.6434       128.8119      -33.39014      -238.6061      -288.0974
      -164.8735      -37.04602      -143.8885      -129.4593      -46.50256
      -112.5927      -161.7531      -373.8877      -248.9432       40.14453
      -346.6216      -387.0714       121.0488       99.56616      -293.4194
      -287.0847      -150.8035      -188.4065      -367.8392      -420.2119
      -192.9785      -70.13713      -28.70282      -52.31512      -274.8789
      -320.7524      -407.6027      -328.9854       16.78815      -84.23157
      -186.2712      -315.1012      -462.2779       21.93344       34.12427
      -452.2618      -265.6343       12.93896      -116.2305      -603.9844
      -800.3328      -139.8364       133.1420       62.53780       127.0684
      -158.1628      -48.35532       20.20386      -466.2140      -243.9776
       1.397316      -110.5376       127.2945       42.30176      -346.2847
      -446.6953      -290.7441       142.5600       201.9235       4.600192
       2.590309      -2.728470       116.7086      -12.01013      -262.1313
      -7.364380       232.2441       24.42908      -285.5758      -184.6154
       278.2650       425.3086       131.4041       184.0850       383.1052
       124.7594      -66.88559       107.9372       92.14393       5.060730
       52.64600       368.4164       463.8008       26.69348      -146.5056
      -6.706665       202.1200       370.5995       265.9464       215.0536
       181.8589       166.9959       203.6417       209.2340       385.1738
       107.5522      -66.70154       463.6603       466.2802       158.7207
      -17.44446      -44.98535       247.4236       292.7657       131.8778
       455.4113       298.2366      -113.7095       225.8821       623.5133
       525.8906       112.9203       122.9237       385.9176       73.35669
       117.8990       497.3070       270.9259       41.33838       142.3580
       341.1194       226.0872       200.3700       521.5211       285.4238
       103.7734       199.5857       309.9068       290.5682       173.8582
       364.0783       364.2745       134.7288       295.7786       357.3816
       94.21948       232.5446       458.6794       403.6572       245.9624
       267.0106       264.1776       165.3955       383.9441       395.9520
       261.7386       134.5696       150.6190       187.5606       133.9596
       288.8738       495.4492       63.58051      -161.7020       389.5802
       590.7135       178.2078       25.58887       451.8398       391.9492
       18.54401      -54.56543       135.6400       275.5026      -56.93686
      -55.24707       357.6313       469.6052       252.1574       96.31520
      -36.80453       98.13950       206.5846      -103.8269      -47.83942
       277.6207       124.2300      -123.9664      -42.74747       163.0207
       107.6765      -33.37680       143.8582       139.8267      -38.57715
       83.31067       64.52505       27.77992       68.59680      -62.39679
      -159.2151      -90.22434      -30.94146      -29.99323      -35.90179
       150.4882       167.9835      -106.8695      -186.7167      -51.46390
      -7.279724      -194.1581      -202.3211       6.076889       113.3690
      -25.51508      -182.3083      -75.22632      -120.2960      -94.71514
       68.78180      -85.75098      -356.6206      -307.5466       133.0904
       254.0584      -219.6362      -93.75140       370.3740      -48.46704
      -575.7920      -48.64282       281.9274      -265.8188      -463.1313
      -235.3580      -31.43030       250.9249       238.7697      -222.2380
      -621.8379      -1106.293      -1669.892      -1389.921      -1009.321
      -671.1846       529.5005       828.2299       399.4946       816.8948
      -56.99121      -1475.411      -694.5759       547.4668       1158.832
       1925.057       948.0569      -1013.385      -654.5913      -812.4771
      -1277.736       661.3679       1135.578      -5.747681      -494.4226
      -444.8020      -205.4556      -898.7078      -836.1964       291.7449
      -251.0115      -1024.131      -418.7886      -360.4648      -1190.492
      -849.2676       286.1738       558.9071       457.9833       450.1282
       171.3414       206.0438       138.7200      -1066.355      -1970.777
      -1241.119      -359.3588      -296.2130      -82.46558       153.8131
      -507.7323      -752.8201      -30.21191       327.2659       374.7877
       597.6245      -49.28809      -1447.153      -1398.924      -529.7609
      -132.5483       47.52783      -608.8702      -704.0536       35.29272
      -527.4629      -828.7966      -174.8210      -564.1249      -300.3516
       1146.326       385.5483      -1318.312      -1021.899      -489.7543
      -234.7540      -129.3911      -719.2828      -836.8201      -114.8036
       140.9813      -675.3479      -501.8862       213.0515      -541.0634
      -386.6675       472.9130      -144.4496      -608.9023      -43.10141
       162.5293      -436.5908      -1042.876      -304.0347       1000.314
       644.5287      -54.07501      -81.86450      -595.8613      -637.1085
       186.8539       38.42892      -379.1208       415.0370       863.0054
       63.43799      -713.3348      -443.4329      -490.7068      -845.6486
       227.1392       911.6318       837.5396       996.9667      -73.80493
      -840.3655      -201.2404      -172.6086       123.5416       731.0726
       325.1061       186.0802       295.7045      -215.7900      -450.1349
       165.3545       1037.811       690.7727      -482.9364      -424.0959
       454.4868       767.9138       593.5918       655.9647       762.3838
       300.9780      -321.4375      -359.6772       210.8677       736.4082
       571.3301       197.5125       127.0056      -22.45093       553.4036
       1397.014       695.0079      -302.4905       297.6477       661.0258
       85.80261       320.9875       839.2386       464.5801       160.1206
       398.0289       412.7355       351.0636       64.66418      -142.2764
       651.2146       1255.594       734.6655       661.0374       757.8242
      -73.82336      -311.6265       409.9763       1101.760       937.5830
       575.7546       181.8706      -320.6647       30.82025       185.2319
       179.2217       838.9799       811.1129       147.8386       342.0214
       418.4442      -172.1766       113.0596       707.7764       1125.506
       1091.953       261.8404      -319.6251       127.9141       600.3237
       421.1110       309.5845      -37.19897      -457.4424      -174.1305
       257.4424       357.0291       332.0598       359.5380       309.6051
       301.5451       72.46355      -165.6189       230.6831       814.0856
       762.3919       296.8662       10.26453      -119.2149       3.611130
       17.73022      -2.270874       303.9847       355.8021       259.8465
       168.9298      -288.6464      -428.6403       535.9987       833.8855
       336.5813       400.9886      -5.064453      -221.1030       364.9583
       13.02679      -324.0656       141.9333       157.9375       122.7712
       344.4408       31.31985      -14.77271       298.6066       175.4985
       207.5086       165.0645       291.3065       587.3970      -134.6346
      -477.7621       274.8313       441.5120      -28.86942       28.26407
       65.98166      -137.7438       276.2625       690.7798       55.00891
      -357.7726       24.12708      -109.0793      -194.2658       43.01593
       74.35547       244.2631       312.6470       228.3396      -65.71765
      -230.5638      -252.0186      -313.5386      -80.58621       73.44011
      -69.85767      -86.07526       235.7307       171.7562      -540.4401
      -538.4650       16.11279       396.0432       566.7285      -26.26074
      -438.9106      -169.9844      -748.0745      -1229.956      -730.6078
      -378.7870       258.7137       521.2024      -210.5959      -647.9697
      -885.5548      -680.8784      -92.29016      -211.0652      -435.8590
      -165.3409      -494.5006      -706.8220      -415.1201      -1004.939
      -1146.958      -240.9641      -268.2781      -872.2533      -765.3842
      -241.9423      -110.5022      -369.5717      -292.6631      -147.2605
      -506.1150      -727.1521      -612.8397      -376.1552      -416.6709
      -896.0577      -731.3951      -268.8645      -675.0142      -999.0610
      -854.6134      -678.6466      -515.0522      -467.2805      -685.0583
      -608.9355      -92.67371      -190.8877      -450.2717      -408.8145
      -578.6523      -734.7451      -959.4073      -856.2139      -312.3335
      -201.3643      -235.5677       126.0001      -265.2419      -1178.241
      -916.5486      -315.6606      -431.3621      -632.5353      -554.4109
      -479.3451      -232.3433      -27.41504      -861.6943      -1191.300
      -353.1020       172.8245       126.7864      -85.67639      -187.6165
      -420.2903      -384.0920      -307.4055      -954.1638      -911.4999
      -373.3627      -189.0499       85.82312       151.2040       53.13477
      -269.6321      -402.7808       128.1978       148.1707      -131.3339
      -33.03423      -51.36572       77.27814       317.7395       218.5830
       209.5113       65.38293      -171.0755      -28.15742      -72.06032
       12.85632      -31.70300      -482.1740      -88.25952       317.5800
     -0.1125488       280.9785       1081.695       702.9858      -100.1953
       114.2812       325.7480       66.99048       182.3335       375.7964
       86.31622       113.0515       724.7472       591.8494      -269.8277
      -345.9282       157.0579       456.3052       637.8748       320.3487
      -21.06934       338.6360       754.7871       809.1206       661.4012
