     0.02500000      -1818.224       2779.456      -12345.00      -12345.00
      -30.00997       214.7650      -15.76000      -12345.00      -12345.00
       0.000000       11.72000      -12345.00      -12345.00      -12345.00
      -12345.00      -12345.00      -12345.00      -12345.00      -12345.00
      -12345.00      -12345.00      -12345.00      -12345.00      -12345.00
      -12345.00      -12345.00      -12345.00      -12345.00      -12345.00
      -12345.00      -31.75110      -68.43510       640.0000       0.000000
      -31.37200      -68.11800       0.000000       97800.00       0.000000
      -12345.00      -12345.00      -12345.00      -12345.00      -12345.00
      -12345.00      -12345.00      -12345.00      -12345.00      -12345.00
       51.70342       215.5284       35.69352      0.4648811      -12345.00
      -12345.00     -0.2941104       90.00000       90.00000      -12345.00
      -12345.00      -12345.00      -12345.00      -12345.00      -12345.00
      -12345.00      -12345.00      -12345.00      -12345.00      -12345.00
      2008       244         6        45        21
       160         6    -12345    -12345      9792
    -12345    -12345    -12345    -12345    -12345
         1         7        13    -12345    -12345
    -12345    -12345    -12345    -12345    -12345
    -12345    -12345    -12345    -12345    -12345
    -12345    -12345    -12345    -12345    -12345
         1         1         1         1         1
BOZA    -12345          
        -12345  -12345  
-12345  -12345  -12345  
-12345  -12345  -12345  
-12345  -12345  -12345  
-12345  -12345  -12345  
-12345  -12345  BHE     
ZL      -12345  -12345  
[...]
      -27.30067       7.773674      -22.43074      -18.96288       53.41331
       56.03951      -12.80734       28.89520       106.5090       68.55237
       47.58136       83.74078       91.61145       87.82410       101.5815
       120.3380       94.72745       92.11307       139.0633       117.1526
       68.11588       127.6244       158.8526       74.11600       53.18884
       120.1474       133.4551       70.28549       48.65860       102.3825
       70.25078       34.80043       70.85796       55.84565       20.88026
       9.858444       2.891479       12.07042       22.01718      -10.70427
      -63.38637      -43.60420       37.60512      -10.31592      -140.2172
      -93.74694       54.44801      -19.34949      -186.2986      -138.4469
       27.44814      -22.54395      -181.9500      -137.6536      -12.74387
      -62.69006      -134.9131      -98.43071      -81.04755      -90.54489
      -65.05112      -82.39850      -112.4658      -80.78194      -22.29559
      -72.59430      -140.6045      -31.23114       22.82556      -79.98694
      -78.52805       18.14914       27.74662      -43.51026      -31.42188
       57.45183       41.56604      0.6439819       59.49312       76.85391
       48.13116       90.39175       128.2338       101.1613       87.31635
       123.2109       165.2994       151.4465       138.1546       157.7277
       171.2657       192.3090       217.3899       185.2260       179.0537
       229.1512       253.6220       229.9888       198.2911       230.2273
       286.9328       260.8531       236.2939       253.6490       263.5038
       276.9984       292.3932       274.3701       250.1137       263.1074
       308.0061       304.0938       251.1159       254.1664       287.7689
       294.6841       266.9701       224.8308       251.3861       291.3194
       267.4295       203.0093       183.7053       261.4149       297.0645
       181.8056       109.2738       206.5780       259.4985       159.9526
       98.30402       136.4352       154.1572       124.0433       101.4197
       89.78400       67.90211       61.81128       60.93862       24.35078
       19.52706       36.66227       2.033081      -50.21963      -35.77087
      -2.768372      -40.67963      -91.79544      -80.00392      -61.75519
      -96.57162      -104.0631      -82.78333      -135.0780      -152.6801
      -118.0959      -117.9168      -153.0542      -201.3204      -159.0137
      -104.0819      -194.3408      -220.5623      -155.4214      -158.3002
      -206.1196      -202.6711      -177.0566      -190.3080      -219.0317
      -185.4106      -186.3219      -212.6035      -210.0475      -196.3547
      -206.2618      -194.4216      -191.8181      -199.4713      -199.8682
      -186.2424      -185.9094      -193.0427      -183.4787      -165.2818
      -178.9081      -164.2861      -149.2781      -162.0750      -168.1924
      -141.5986      -108.5237      -120.8155      -162.1467      -130.3056
      -73.13068      -84.82629      -106.6953      -101.4299      -92.94493
      -47.31714      -45.77663      -76.29010      -59.90106      -40.42254
      -37.13496      -28.23069      -20.00322      -23.21188      -37.88269
      -14.62838       29.69576      -3.523903      -66.44106       12.43343
       86.22905      -8.054672      -69.58275       55.57834       115.7929
      -14.67828      -63.11572       77.75154       117.0352      -15.49397
      -33.03781       90.21959       95.68815      -3.507969      -17.59911
       68.21439       84.03725       21.02115       21.45107       28.49911
       37.62080       60.42607       26.71796      -13.96413       20.38683
       55.75418       7.035194      -32.52684       39.10534       41.70056
      -59.16366      -38.45242       54.10007      -2.456573      -93.62527
      -45.05191       29.70428      -28.28191      -101.4403      -49.09234
      -9.946869      -87.24335      -101.0819      -31.46356      -44.35214
      -119.4738      -109.5592      -44.98807      -57.16168      -117.2576
      -120.5530      -99.62674      -73.82384      -66.17639      -120.6638
      -155.9977      -83.39864      -42.50903      -119.8243      -163.9001
      -103.0884      -40.73895      -78.79480      -150.9684      -124.6599
      -41.59583      -47.38544      -108.7294      -131.6094      -68.38072
      -1.357788      -56.00793      -113.0564      -73.02338      -15.43369
      -11.32355      -59.48186      -56.13778      -14.41592      -9.279743
      -3.536365       10.92466      -12.11618      -15.36670       41.82269
       64.81169       22.02251       4.503418       55.82518       92.41658
       56.78891       69.26459       95.83435       82.75586       112.6844
       143.6037       102.7669       85.81799       161.4291       195.9654
       112.4323       97.06165       200.4592       211.9812       111.5991
       136.3211       224.6234       180.9880       117.0575       181.8680
       224.8770       140.3969       136.8790       225.9500       175.8960
       94.95142       169.1810       235.5234       137.4665       68.49283
       150.7949       201.2427       136.3430       95.01559       114.8753
       117.7280       136.6397       171.3956       102.4795       53.53302
       115.7922       153.0818       90.33899       43.05502       137.7214
       163.6585       11.76810       13.98981       185.7168       179.2754
       10.79733      -6.593689       127.6730       171.8170       81.74019
       23.83789       55.54999       114.2746       129.9016       81.62433
       40.88611       100.0236       183.6301       247.2871       326.8865
       370.4988       329.5024       304.5398       366.2621       333.5077
       85.58720      -55.67726       79.90771      -199.4424      -623.9114
      -499.0248      -653.5248      -350.9706       337.1046       131.5197
      -63.91113       378.7514       392.7177      -66.95654       290.4964
       204.0950      -191.1209       166.2148       122.6048      -236.9684
      -257.5968       243.1028       134.0178      -237.5083       270.6029
       97.47037      -279.5966       434.1514       394.5763      -592.3577
      -460.6179       213.6884       45.90417      -202.1525       56.07373
      -102.9471      -342.2248       338.6266       226.7671      -330.2815
       142.0955       417.9708      -46.02740      -356.2253      -31.72617
       32.36597      -436.7057      -468.6750       16.45459      -93.17029
      -406.5678      -290.1335      -239.2350       64.05386      -53.59857
      -204.9597      -108.0856      -361.3745      -306.9669      -54.21862
       37.79907      -93.03241      -198.6023      -71.32599      -249.1235
      -452.1370      -190.5668      -185.0498      -394.3660      -404.7899
      -190.7781      -154.0151      -369.3767      -137.6173       8.880798
      -97.25000      -351.1418      -530.3207      -181.0586      -178.4371
      -430.3949      -359.9139      -455.7203      -457.7581      -271.5338
      -212.0485      -125.6785      -292.0192      -438.0804      -306.4014
      -292.3370      -317.9733      -387.9760      -341.9802      -134.6774
      -366.0364      -488.4604      -291.9833      -426.3066      -462.5682
      -221.5464      -108.6539      -243.1832      -282.9072      -130.4608
      -282.1700      -370.6384      -292.1545      -309.4902      -216.2704
      -127.9495       91.10136       81.84583      -272.3409      -199.7162
      -147.5323      -374.5392      -158.2800       191.4704       144.0385
       148.9211       57.97705      -199.5980      -93.26112       62.14116
      -30.67007       4.468689       219.2795       128.6118      -87.10910
      -161.5872      -57.89600       429.0483       532.6831       215.4970
       211.2731       207.7361       180.8051       264.1566       117.2944
       208.6838       502.7791       377.2000       138.9524       151.8202
       367.0616       296.4783       17.32343       161.9099       539.3307
       441.2639       182.0261       207.6653       119.9066       100.5396
       235.9780       373.9414       420.3187       338.9819       355.4641
       448.4526       384.0148       166.3568       173.1837       320.3862
       329.6755       306.5227       73.16290      -30.26794       390.0988
       492.0555       182.7054       208.3033       357.9847       374.3945
       425.2039       278.6624       47.20306       89.01758       204.0935
       91.18207       78.77380       335.7000       178.5206      -65.88599
       300.9604       445.0872       317.6481       295.6390       200.2571
       200.5533       160.7061       74.70575       203.6144       286.8951
       210.9053       73.21573      -115.5398      -95.43182       220.8874
       267.9786       28.03592       59.10989       176.9010       117.2745
       38.28625       225.9099       91.05511      -289.4366      -3.404236
       182.6444      -104.9990       51.94958       408.3136       143.3294
       4.273071      -12.36969      -263.9409      -182.1982      -71.45679
       21.59897       92.96687       21.94211      -26.81143      -49.51315
      -47.09470      -69.18531     -0.6268158      -37.25972      -122.5249
      -5.064453       138.9245      -95.25531      -172.4869       57.48819
      -34.30204      -23.89855       48.86871       28.19806       210.7294
       93.21181      -165.2943       163.2023       311.3983       167.8106
       115.2035      -3.452057       83.79083       23.68890       26.90381
       510.8853       513.5956       36.52887       64.13556       186.8788
       70.36942       137.5300       170.0757       196.7356       470.3595
       636.1965       123.0949      -104.8047       386.5906       297.0549
       106.0271       350.1409       415.5850       507.9348       599.7841
       246.4744       100.3275       504.9158       499.0171       371.0570
       352.2961       124.2366       221.3320       272.8679       247.7579
       450.8699       453.2446       206.5170       219.0745       429.5894
       342.1052       278.0118       431.2573       365.0126       227.8819
       168.6702       85.17773       298.0930       318.7566       188.8578
       420.4346       449.8234       165.0531       89.52726       2.749847
      -110.7853       88.29053       305.8506       161.0222      -73.66882
       228.7412       36.50247      -269.0371       262.5327       66.62543
      -370.7663      -156.4457       57.44082       53.23260      -178.6835
      -134.0301       90.02991      -124.9667      -353.7772      -221.2595
      -294.5938      -487.5508      -387.2197      -359.1815      -318.8243
      -177.4564      -175.2698      -513.5005      -635.4331      -377.8525
      -375.1561      -337.1934      -350.2725      -548.0964      -627.4465
      -518.0054      -577.1670      -573.5200      -360.5344      -613.2163
      -769.5356      -690.0181      -780.1709      -694.7925      -663.4260
      -650.1432      -611.8135      -798.2327      -658.7620      -588.3499
      -899.1497      -791.2161      -681.2527      -916.7148      -789.0193
      -599.8379      -676.7607      -675.2556      -880.0312      -915.2458
      -643.5134      -580.8096      -802.2822      -1010.284      -935.6294
      -797.5906      -724.2432      -732.8760      -698.3162      -673.7488
      -762.5239      -685.0388      -719.8757      -1118.038      -944.1567
      -526.9340      -643.9009      -755.4774      -711.7537      -612.0995
      -600.2261      -532.7800      -445.5190      -629.1489      -823.3940
      -747.9978      -631.0930      -789.5519      -681.8191      -405.3567
      -394.2349      -446.7798      -481.3103      -447.9852      -440.6863
      -507.9823      -418.6882      -284.0107      -317.0876      -411.4847
      -404.7705      -104.9016      -57.47131      -492.9188      -584.7253
      -236.8253      -84.00757      -275.3770      -302.7230      -161.9854
       134.0577       254.0027       12.14630       39.71046       54.24030
      -92.51668      -7.524414       68.62537       243.7651       361.6620
       236.2421       61.98032       86.64612       284.6278       364.7660
       508.7827       479.5496       355.9624       502.4869       448.0774
       223.4734       373.7266       610.3206       585.7170       643.0693
       662.2449       620.2764       525.8379       703.7961       853.5181
       513.6356       514.5588       674.6826       682.2559       660.7695
       772.7634       880.8767       741.9851       754.8755       729.9163
       762.7935       745.3184       787.2788       1045.143       944.4258
       1052.776       1075.621       708.7148       718.8442       1016.307
       1093.404       637.7910       417.7983       193.1211      -441.8164
      -729.8143      -755.7397      -138.7866       1476.275       2779.456
       2546.825       1782.691       1428.283       1021.829       1065.914
       1382.557       1106.464       325.2053      -239.1620       103.6296
       390.8907      -220.4866       530.9092       2426.449       1333.031
      -669.1487      -541.1158       55.98486       881.4233       1752.647
       1885.846       1627.899       1361.226      -159.1859      -828.1106
       961.2949       1633.374       1205.253       897.9398      -319.4542
      -908.5596      -118.4519       447.1226       973.2263       1032.490
       239.8550      -466.8374      -1176.169      -851.3547       509.0527
       1214.958       1668.634       927.7720      -979.3914      -999.0100
      -267.3193      -94.76074       1028.398       1237.374      -105.3970
      -311.2052      -27.11902      -236.2380      -13.46127       183.3324
       142.5342      -268.0415      -875.8291      -869.6417       149.3630
       804.1284      -355.4309      -794.1848       504.7528       621.3423
      -508.5112      -818.8237      -859.6683      -784.1211       258.7180
       885.5054      -283.3684      -1486.492      -850.7096       559.6592
       815.5614      -189.6967      -232.6072      -40.40405      -747.0425
      -691.2395      -199.1112      -33.97192      -285.7779      -231.0018
       65.99805      -674.0728      -1367.317      -633.1021       253.3271
      -454.4019      -829.5031       20.38150      -41.81812      -386.8803
       41.55164      -184.1870      -850.9905      -744.4263      -958.8311
      -1075.499      -228.0492       500.7227       716.8033       394.8628
      -294.5928      -1008.452      -1818.224      -1734.756      -830.8047
      -414.5611      -74.02515       469.4044       692.7836       288.2568
      -623.8579      -1416.801      -1398.375      -657.3135      -351.2942
      -723.7251      -677.0345      -23.69238       305.3245      -267.9226
      -854.7827      -718.3218      -789.3083      -1048.670      -893.3386
      -518.7799      -278.5743      -253.8538      -194.2139      -518.2920
      -859.4723      -415.8652      -497.7163      -1121.536      -888.7071
      -313.6079      -127.4174      -11.55008       12.57129      -337.0249
      -805.4482      -1038.769      -973.8633      -905.7904      -593.0146
       23.49591       389.2032       86.76709      -743.2333      -777.5043
      -330.1750      -339.9733      -396.3921      -671.2750      -778.5912
      -290.7194      -124.1946      -373.9055      -198.1962      -124.8066
      -498.8575      -556.6516      -393.3516      -182.9217       215.2531
       135.0171      -543.9916      -637.7763      -290.1542      -50.48901
       60.74390      -206.8517      -129.1944       20.25659      -281.8894
      -472.0148      -365.1097      -113.7206      -90.54120      -322.2998
      -376.6864       71.40417       443.0448       264.8712      -84.16919
       81.13391       421.5262       166.5344      -91.24759      -66.57101
       121.4626       34.47302      -282.9607      -71.94409       418.0117
       707.6172       398.5198       81.43420       112.2867       101.7067
       143.3346       312.1554       465.2253       176.0229      -83.65137
       444.9360       840.2861       804.6592       998.6410       797.8867
       200.1087       118.0587       114.6282       138.3892       398.9401
       439.0566       723.7314       922.9104       672.7634       292.4670
       328.2544       968.5446       550.9234      -263.3732       386.2742
       1192.295       980.2090       628.0596       600.8264       642.0382
       464.0767       320.3337       841.3057       1125.566       600.6914
       224.3011       319.4021       785.5984       902.2379       338.5863
       269.1619       697.7881       832.0566       692.8446       535.0280
       380.7654       335.0591       606.3003       1004.164       866.9773
       223.0187       364.1533       997.5308       814.4937       395.2053
       436.2307       263.6536      -342.3629      -433.3523       586.8335
       1395.790       704.2741      -120.1101       166.3925       460.3802
       306.1359       159.1697      -86.30093      -106.6801       357.1836
       671.9327       490.8751       158.1444       13.98184      -21.94165
      -107.1485      -33.97729       257.2911       319.9337       268.8416
      -116.4714      -668.3687      -276.1490       478.4987       360.4689
       9.070801       349.0758       536.0956       134.3864      -434.9656
      -743.4826      -227.4100       266.4445      -70.52380      -391.8248
      -119.2775       27.07123      -137.1076      -86.88831      -95.19836
      -25.82764       148.6372      -289.0702      -725.1044      -463.0428
      -91.23779       152.8431       384.0942      -62.13281      -776.8989
      -676.7271       52.92661       142.2698      -479.1707      -618.3427
      -426.2391      -285.5436      -263.0101      -260.4988       155.7916
       190.8130      -363.7307      -749.9215      -801.4454      -337.5872
       81.52344      -114.4092      -88.43466       134.6339      -358.4492
      -868.3472      -700.3647      -270.8580      -112.3362      -285.0150
      -368.7478      -474.4475      -312.0643      -113.7866      -511.8696
      -781.9684      -304.4482       196.8359       122.0457      -286.2073
      -387.0666      -164.6449      -138.7752      -89.35840      -200.6834
      -402.6960      -91.95010       126.8095      -10.10168      -183.3318
