     0.02500000      -1738.163       3482.970      -12345.00      -12345.00
      -29.99999       221.0500      -22.60000      -12345.00      -12345.00
       0.000000       16.83000      -12345.00      -12345.00      -12345.00
      -12345.00      -12345.00      -12345.00      -12345.00      -12345.00
      -12345.00      -12345.00      -12345.00      -12345.00      -12345.00
      -12345.00      -12345.00      -12345.00      -12345.00      -12345.00
      -12345.00      -31.28310      -69.41950       1383.000       0.000000
      -31.37200      -68.11800       0.000000       97800.00       0.000000
      -12345.00      -12345.00      -12345.00      -12345.00      -12345.00
      -12345.00      -12345.00      -12345.00      -12345.00      -12345.00
       124.2637       274.2126       94.88602       1.117283      -12345.00
      -12345.00      0.3057392       0.000000       90.00000      -12345.00
      -12345.00      -12345.00      -12345.00      -12345.00      -12345.00
      -12345.00      -12345.00      -12345.00      -12345.00      -12345.00
      2008       244         6        45        28
         0         6    -12345    -12345     10043
    -12345    -12345    -12345    -12345    -12345
         1         7        13    -12345    -12345
    -12345    -12345    -12345    -12345    -12345
    -12345    -12345    -12345    -12345    -12345
    -12345    -12345    -12345    -12345    -12345
         1         1         1         1         1
CALI    -12345          
        -12345  -12345  
-12345  -12345  -12345  
-12345  -12345  -12345  
-12345  -12345  -12345  
-12345  -12345  -12345  
-12345  -12345  BHN     
ZL      -12345  -12345  
[...]
      -67.63802      -71.19789      -75.58984      -87.84341      -87.30341
      -96.14539      -102.1969      -110.5433      -115.6055      -127.4648
      -138.4011      -150.1006      -155.4524      -167.4077      -180.1694
      -197.3186      -204.9000      -214.9812      -227.1116      -240.3475
      -248.0227      -263.4963      -276.0333      -289.0936      -299.1426
      -309.6738      -315.7052      -326.0223      -332.0907      -337.7656
      -343.8140      -351.9967      -352.9963      -353.2936      -352.7417
      -354.0994      -348.5625      -351.1979      -344.1219      -335.3464
      -325.9598      -321.7131      -313.9784      -307.0328      -291.6918
      -281.5306      -269.0698      -262.6663      -248.4173      -238.3713
      -220.8080      -208.8481      -196.0446      -179.9223      -161.0428
      -148.1267      -127.1699      -108.7605      -89.22491      -72.38909
      -47.07180      -27.23942      -2.884377       15.74661       38.11760
       60.01752       84.89441       104.1812       124.9758       140.1416
       164.4717       187.0394       207.3388       223.4185       242.7245
       259.5125       278.3059       290.4465       304.2871       321.0442
       342.6365       357.3079       375.2133       390.1271       408.5061
       420.5631       431.6176       440.4282       454.7041       463.4797
       476.3149       487.0515       498.1716       508.5532       514.4749
       516.3313       524.6926       530.9288       535.4292       538.9298
       544.2207       549.5437       553.1791       556.3347       560.6245
       564.1763       565.6519       567.6812       564.5040       564.5513
       563.9023       557.5408       548.3354       546.2067       540.3104
       533.5710       526.8788       518.4774       506.6884       498.7307
       488.2722       480.2006       466.8595       454.8582       440.2164
       428.9476       412.5251       396.3217       378.3215       362.2742
       341.8335       323.2272       290.7031       258.5431       229.2617
       222.1171       221.3600       219.4250       208.8910       195.8041
       142.9967       71.48066       19.34053      -1.661226      -14.37315
       27.95857       14.43439      -174.5334      -283.6880      -143.1877
      -84.04276      -141.9973      -123.9504      -138.5503      -324.0850
      -286.9556      -26.13644      -82.78644      -323.5818      -292.3983
      -221.1378      -369.1486      -446.6841      -343.7751      -321.8949
      -356.0039      -346.6206      -302.8958      -315.9170      -338.8854
      -400.2736      -439.5393      -402.4835      -347.7900      -340.6432
      -495.8700      -499.8826      -333.0308      -329.6597      -322.8403
      -282.7307      -397.1467      -542.6152      -363.4696      -259.8279
      -330.0034      -320.7942      -491.7422      -760.7943      -660.5311
      -262.6354      -151.9119      -356.9662      -388.0474      -375.6615
      -525.8507      -547.2582      -324.1769      -260.8013      -417.8696
      -509.8308      -517.9541      -470.0854      -382.4042      -390.9944
      -469.0378      -488.8568      -481.4963      -405.0964      -265.0115
      -317.7634      -474.6240      -466.8116      -410.1370      -457.5471
      -375.1302      -281.2528      -355.3503      -392.5555      -318.9706
      -308.2827      -431.4835      -397.1957      -268.8120      -332.2999
      -306.2443      -171.1544      -207.7916      -280.1359      -223.2536
      -217.8702      -215.1873      -190.2255      -181.8781      -178.8475
      -103.8698      -83.76367      -204.5186      -199.6697      -96.66328
      -65.07227      -60.88548      -66.91398      -34.48878      -3.184509
      -22.90531      -3.534668       59.91145       69.80853      -37.74402
      -118.7193       18.50525       113.5486       112.5962       124.1230
       117.5321       85.05042       97.09235       182.2602       182.9245
       129.4625       201.2498       216.0446       121.0642       98.05402
       157.5923       246.4169       323.2781       227.4949       153.3324
       164.8271       202.1906       235.4962       214.7553       241.9637
       224.9227       169.4063       242.8523       238.6934       172.0280
       170.2175       224.3704       267.2404       242.2667       220.6660
       259.0400       262.1870       261.7113       241.1255       152.5413
       241.1254       389.3432       272.6398       212.0638       297.8200
       291.4811       199.4604       243.4484       316.1606       275.8193
       299.6259       299.1042       164.0458       186.0355       317.0771
       321.5955       286.9233       384.2280       369.4974       287.2156
       353.8579       426.8630       326.7401       247.6908       374.1565
       457.0228       374.1946       390.2249       361.6724       255.8619
       272.2319       331.0598       347.7145       419.9167       437.1721
       405.6865       329.8970       292.7905       386.5695       397.2922
       353.4259       331.0836       256.1377       266.1003       320.6595
       294.4735       251.5155       212.3951       225.1815       307.5831
       325.2505       298.5232       270.0527       271.3394       288.9594
       246.9206       189.8643       216.2156       166.0609       104.7917
       143.4601       153.4437       146.7004       128.5883       32.79202
       16.36859       85.70609       85.89249       14.90866       29.48919
       25.70070     -0.6362457      -14.82849      -48.56630      -55.55365
      -50.99860      -25.81837     -0.4604034      -54.17892      -43.71948
      -31.82574      -66.62338      -53.98029      -113.4874      -176.9807
      -171.6088      -250.8253      -242.3620      -173.8548      -147.6633
      -133.7086      -158.0309      -148.5971      -153.6571      -199.4346
      -203.7266      -176.3353      -122.6181      -122.1185      -145.0229
      -131.6065      -188.5731      -238.1719      -163.0295      -126.6636
      -184.1183      -172.8387      -141.5602      -153.7300      -139.4371
      -129.7464      -88.88159      -59.09911      -80.30870      -79.89835
      -78.36026      -93.63269      -88.72435      -89.18050      -70.56824
      -38.97427      -56.75977      -85.59857      -102.7757      -94.48637
       1.035995      0.6193695      -78.89023      -83.10542      -48.30534
      -22.28839      -55.21558      -117.8035      -156.6401      -120.5863
      -16.30981       13.64546      -49.29044      -85.90474      -58.00092
      -38.00949      -51.82941      -80.30066      -120.5833      -138.8729
      -45.25273      -2.750122      -119.7289      -120.3014      -76.01968
      -128.4766      -115.2747      -43.31262      -64.91864      -127.3699
      -138.8845      -157.8351      -155.5050      -73.36725      -84.41858
      -229.8819      -236.5571      -126.9759      -161.4170      -243.8248
      -237.6128      -202.2960      -206.4438      -213.7041      -178.1016
      -212.2559      -293.0000      -290.1447      -281.4587      -261.6227
      -295.8914      -343.3839      -283.0123      -279.4547      -331.9591
      -331.1474      -323.0781      -335.4327      -354.8296      -302.1184
      -354.2432      -416.4175      -372.0217      -321.3933      -300.5720
      -345.7416      -405.7112      -422.9337      -397.9644      -358.2489
      -391.0881      -365.3401      -373.5291      -475.3616      -441.6829
      -401.5984      -421.3812      -323.4490      -343.9310      -383.3168
      -354.3768      -365.0955      -349.1279      -267.7634      -221.3159
      -282.0092      -353.6727      -309.7916      -209.7367      -181.2161
      -256.7120      -296.5145      -268.7316      -171.0414      -71.29645
      -73.11444      -207.7850      -242.8055      -129.1082      -59.63861
      -59.79870      -14.13659       12.11874      -24.28260      -15.44020
       25.85721      -19.02585       52.35352       138.3325       34.78234
      -41.89816       35.48553       144.1920       190.9399       151.8713
       233.8869       271.9913       161.2420       117.9826       146.8927
       90.55530       168.3312       260.7018       160.9075       97.72522
       180.6971       315.2654       328.8875       207.7596       190.5507
       206.8477       244.7095       315.9249       285.5986       239.8113
       322.8004       351.2589       332.6255       308.3895       247.0555
       169.2279       186.0342       276.7289       333.5428       327.5601
       324.7233       299.7345       297.9095       295.6439       328.6036
       393.6234       332.9495       254.7177       379.4478       425.1285
       240.1754       244.0525       370.5115       347.4373       337.4590
       402.6223       424.6836       353.2442       323.5681       348.5461
       294.8500       263.2916       307.5330       350.6499       372.4172
       390.7948       398.1835       333.8544       298.5176       335.9023
       338.7433       355.6354       384.2766       375.9838       356.1240
       288.9813       343.2363       395.3856       284.1611       244.8366
       311.1829       343.1428       305.7261       304.2700       335.2000
       297.2241       310.8932       334.3563       257.7800       228.9969
       258.4791       277.1249       305.6324       295.1274       219.7051
       180.4233       257.1816       297.5011       268.7997       261.3445
       250.0876       196.6719       158.8434       192.4194       250.2496
       154.4384       68.07739       183.8538       246.6191       119.5105
       70.63574       166.6421       186.1772       152.2406       169.5558
       127.8793       161.8027       163.1997       97.49515       131.3602
       180.8380       168.2670       127.7989       7.782288      -35.92551
       23.19189       99.78683       107.8109       46.04337      -28.36190
       12.09219       87.90678       60.31696       10.46730       44.20181
      -3.469574      -75.60315      -104.8649      -159.1081      -165.1754
      -120.8195      -117.1373      -145.2193      -178.2623      -175.9725
      -141.2221      -86.91669      -121.1375      -207.3210      -213.7068
      -190.5233      -247.0327      -331.2695      -339.5763      -287.7698
      -309.4888      -387.4783      -399.8862      -346.9497      -347.5559
      -357.6842      -356.8661      -344.2197      -300.4071      -276.4353
      -341.9897      -453.6956      -535.2361      -597.5293      -537.3618
      -405.1428      -382.8313      -415.7284      -422.4926      -439.6189
      -454.9862      -451.0109      -442.8472      -462.7322      -457.5496
      -382.0372      -313.1819      -352.3656      -389.1182      -296.7035
      -317.1145      -457.1213      -450.0662      -446.8993      -498.1501
      -458.0151      -302.5262      -215.6281      -195.9965      -240.6277
      -327.3621      -400.0730      -418.5713      -322.9166      -277.3945
      -375.3634      -331.5962      -193.3853      -147.6404      -172.6275
      -214.9361      -259.1315      -323.4871      -308.3483      -207.3145
      -173.1121      -182.7861      -237.8937      -301.6606      -240.1665
      -132.9064      -161.3032      -254.3757      -307.1748      -327.0939
      -315.9312      -234.0836      -121.8104      -99.49771      -141.0673
      -173.5904      -223.8239      -223.7606      -238.8477      -260.1979
      -285.4810      -307.8414      -252.7878      -162.5882      -126.1190
      -189.9084      -233.6633      -226.1703      -176.0547      -58.49802
      -36.65286      -66.75970      -79.54681      -68.28621      -35.46872
      -57.81042      -175.5380      -334.3299      -281.9914      -1.817062
       81.48729      -3.280289       1.723068       11.86572       14.53021
       132.3629       207.7123       141.2516      -8.960693      -86.50529
      -57.41867      -12.75931       23.38994       62.64874       99.67963
       159.2171       184.1453       117.4880       80.41345       201.4376
       320.6407       341.6286       237.3726       149.3060       184.6515
       275.2947       284.6148       198.6445       159.4411       135.0870
       127.4879       221.4643       178.9005       86.30640       130.8878
       383.8318       808.7336       1066.880       1010.309       831.6460
       540.9473       389.5959       694.2046       1272.453       1556.573
       1253.789       550.3987       43.47559       95.06348       603.6919
       1008.282       647.7485      -338.1619      -1127.354      -1189.983
      -471.5581       615.5928       1400.766       1779.912       1708.372
       833.0217      -8.723511      -166.6973      -374.7375      -1059.373
      -1552.517      -1338.771      -689.2015      -19.55273       936.1846
       2387.517       3482.970       2812.117       326.3853      -1738.163
      -1423.486      -30.91125       282.4824      -675.8501      -1205.956
      -7.201172       1510.254       1647.050       891.7333       440.5762
       426.4268       300.2808      -155.7681      -775.6688      -707.7949
      -154.5173       646.9751       1637.682       1393.293       508.5070
      -90.64160      -676.9171      -555.6562       81.77881       713.1858
       1202.454       498.0057      -702.4821      -327.0168       712.4895
       558.2083      -358.0198      -467.7422      -290.2971      -221.5225
       415.8519       526.6055       93.17773      -48.15649      -181.5834
       37.80652       609.6376       440.9897      -552.8523      -961.7285
      -504.0696       166.8639       644.3787       194.8357      -894.3149
      -985.6718      -149.8318       261.4102       95.59340       24.17413
      -116.4806      -399.1234      -570.3134      -653.4559      -164.3730
       264.6327       272.7515       442.5395       354.4412       45.70349
      -230.8259      -432.5430      -395.8139      -357.5074      -49.91931
       504.6010       380.9919      -296.3386      -705.9446      -657.9275
      -503.4955      -349.5000      -106.4869      -172.6987      -863.2646
      -1456.320      -1163.661      -361.9702       210.9170       232.5890
      -234.8921      -538.7789      -411.4863       65.98169       538.4911
       309.8101      -207.3380      -268.2952      -305.6300      -428.9968
      -490.9075      -458.6531      -530.5371      -861.0256      -845.4750
      -583.9459      -359.0249      -321.8330      -590.0231      -452.3991
       26.12253       199.9381      -61.61548      -417.2008      -415.6881
      -219.8815      -25.18042       346.9639       407.4995      -198.0679
      -874.7549      -1041.028      -577.6019      -228.3943      -312.2393
      -454.9733      -528.1565      -241.0339      -6.143921      -154.5218
      -50.74472       211.7256      -3.270874      -200.0857      -192.9384
      -245.2159      -138.9908      -63.24133      -299.8082      -557.6013
      -668.1108      -548.2327      -358.8016      -255.3783      -150.0470
      -114.3823      -320.4783      -251.4718      -62.34363      -260.8970
      -278.0891      -282.0430      -401.3530      -182.1166      -41.33514
       92.82861       243.1322       80.50757      -208.3398      -299.1271
      -188.2527      -234.0586      -286.7806      -84.76421       15.74945
      -94.31781      -152.0428      -284.0795      -516.7583      -233.0762
       314.0177       369.4382       163.0915       42.23401      -48.80304
      -111.6418      -270.6327      -270.8403       103.7014       220.3749
       96.67700       164.0464       199.1504       183.0069       46.80688
       13.27814       148.1378       165.9544       143.9044       215.7853
       303.8849       256.4678       129.0297       221.0267       265.4130
       253.9479       276.3907       86.09708       26.19189       181.8878
       274.9603       364.1184       437.0610       544.4800       571.3467
       334.1768       291.8394       722.0139       838.8325       476.5490
       294.3506       358.5870       316.4060       260.7684       390.3284
       465.9146       469.1770       590.9282       704.6111       646.5427
       320.7075       155.1493       284.9812       310.0602       395.8379
       690.7917       825.4066       556.8053       201.4810       107.6005
       218.1903       261.6112       82.82428       106.2698       262.6620
       394.1658       553.3470       597.9514       784.7502       825.0099
       491.9155       308.6864       287.2667       243.4821       220.4510
       295.1936       364.0063       441.5930       340.6674       211.4659
       370.5214       400.7390       289.5430       407.2849       597.2799
       612.7590       269.2028      -180.0208      -222.1495      -90.70073
      -77.95364       22.64677       62.24013       9.626312      -131.8939
      -240.6743      -104.7140       148.4867       347.6142       357.7537
       259.7567       10.83606      -214.4995      -103.0410      -9.825897
      -35.56375      -55.85850      -78.16637       34.38055       166.9967
       108.2345      -65.40390      -158.0882      -81.93005       83.05099
       123.5892       41.61884      -72.46106      -188.2277      -224.0992
      -130.0460      -51.89490      -141.0359      -293.5254      -280.2702
      -146.4018      -75.28581      -22.18423      -31.77362      -119.0573
      -79.01038      -108.5027      -345.6639      -393.1414      -258.7206
      -154.0693      -307.0085      -524.0199      -394.8374      -218.9139
      -281.1271      -382.9622      -355.7318      -330.9097      -296.9880
      -78.94867       43.78424      -111.9363      -188.2848      -183.2773
      -339.9429      -399.0525      -176.1063      -162.7662      -445.3348
      -488.7570      -264.3623      -186.7252      -217.0067      -331.7452
      -418.3423      -295.5459      -115.0727      -39.05841      -47.02588
      -83.09955      -138.0629      -210.3484      -182.7674      -157.5068
      -89.83225       50.99542       7.352905      -317.5403      -405.6444
      -262.3992      -255.6147      -345.0486      -376.5198      -325.1578
      -388.0431      -437.7935      -193.5829      -137.6285      -236.2425
      -190.6442      -160.1927      -195.0039      -176.2028      -267.9641
      -283.4461      -17.42834       193.6151       222.6936       159.0552
