     0.02500000      -1383.833       1704.000      -12345.00      -12345.00
      -29.99999       221.0500      -22.60000      -12345.00      -12345.00
       0.000000       16.83000      -12345.00      -12345.00      -12345.00
      -12345.00      -12345.00      -12345.00      -12345.00      -12345.00
      -12345.00      -12345.00      -12345.00      -12345.00      -12345.00
      -12345.00      -12345.00      -12345.00      -12345.00      -12345.00
      -12345.00      -31.28310      -69.41950       1383.000       0.000000
      -31.37200      -68.11800       0.000000       97800.00       0.000000
      -12345.00      -12345.00      -12345.00      -12345.00      -12345.00
      -12345.00      -12345.00      -12345.00      -12345.00      -12345.00
       124.2637       274.2126       94.88602       1.117283      -12345.00
      -12345.00     -0.2628748       0.000000       0.000000      -12345.00
      -12345.00      -12345.00      -12345.00      -12345.00      -12345.00
      -12345.00      -12345.00      -12345.00      -12345.00      -12345.00
      2008       244         6        45        28
         0         6    -12345    -12345     10043
    -12345    -12345    -12345    -12345    -12345
         1         7        13    -12345    -12345
    -12345    -12345    -12345    -12345    -12345
    -12345    -12345    -12345    -12345    -12345
    -12345    -12345    -12345    -12345    -12345
         1         1         1         1         1
CALI    -12345          
        -12345  -12345  
-12345  -12345  -12345  
-12345  -12345  -12345  
-12345  -12345  -12345  
-12345  -12345  -12345  
-12345  -12345  BHZ     
ZL      -12345  -12345  
[...]
       547.4617       559.7261       570.5328       576.8296       584.9216
       590.7537       600.1443       605.3146       611.4882       612.4792
       618.9177       622.3203       619.8088       621.1277       628.1499
       628.6394       627.7832       623.2036       622.5972       623.7565
       621.9829       617.9535       616.8784       614.5002       610.0266
       601.7212       597.9719       593.6785       588.5322       578.9189
       570.1252       561.2668       553.9512       543.8475       530.9365
       518.2391       506.0999       491.7001       478.5159       465.2856
       452.5073       437.8278       417.6337       398.7366       381.1816
       363.9354       342.3075       325.8672       309.9107       293.5923
       274.0542       254.8835       236.7995       220.0529       200.8501
       178.8477       160.3049       145.6482       130.5353       109.8687
       94.73445       79.67191       65.01309       48.49429       35.95019
       20.46813       5.328979      -12.37305      -25.12125      -40.13612
      -53.98874      -70.14078      -80.96463      -94.03888      -109.1600
      -123.8558      -137.2879      -150.6493      -164.4050      -175.3851
      -186.7456      -197.8636      -209.7949      -219.6000      -228.9853
      -242.5073      -254.1236      -262.1525      -273.4484      -285.1600
      -293.3032      -302.6332      -315.2648      -322.9414      -334.2499
      -342.3015      -352.4778      -361.8687      -375.9004      -382.2709
      -395.0850      -404.3534      -416.2299      -420.2761      -432.8279
      -441.9421      -453.1660      -454.8348      -469.6375      -479.8186
      -493.5100      -497.6619      -511.9409      -518.1929      -531.0903
      -537.4529      -549.8142      -555.7625      -568.6934      -573.3110
      -582.3035      -579.7302      -585.3550      -590.1602      -599.7451
      -599.3093      -602.4620      -603.1367      -605.2761      -603.9872
      -609.1323      -606.4890      -609.5901      -610.6470      -602.8821
      -575.2853      -510.9326      -412.8809      -342.3909      -366.6195
      -485.7842      -633.9905      -783.2231      -924.4534      -947.2651
      -822.1805      -623.8496      -481.7290      -482.3723      -700.9155
      -924.6379      -620.3938      -136.9856      -236.7986      -434.2805
      -435.7644      -563.0432      -595.6941      -272.4218      -220.3657
      -723.1440      -966.3534      -724.4164      -338.4054      -238.9351
      -430.3403      -547.8999      -625.2021      -510.5042      -343.4296
      -384.2268      -434.5804      -353.9884      -372.9956      -404.8575
      -173.1647      -93.15955      -453.9810      -603.5419      -231.4501
      -80.94806      -183.1693      -190.0767      -264.1426      -299.1148
      -189.6856       12.16254      -102.1306      -345.8325      -351.4329
      -300.0185      -203.0434       8.345215       170.5511       126.5938
       63.46472       35.35703       97.55414       236.1818       168.9601
       64.29709      -85.86269      -59.24634       180.0765       281.0394
       302.9322       310.7268       343.3934       165.5050       109.0215
       359.9246       558.4792       551.7615       340.7457       272.9639
       408.5640       585.3442       595.1505       572.6074       411.4604
       300.9121       463.9913       547.2360       518.9559       550.3350
       732.6207       673.8372       546.8044       536.4739       563.5442
       720.1494       753.3939       646.8079       559.6914       574.0649
       706.9335       703.5891       584.6760       700.0098       755.5271
       564.0608       583.3575       648.8667       632.3638       621.8789
       498.8896       596.4277       752.8784       672.0029       669.2765
       600.0945       528.5548       601.4520       635.5066       659.3517
       564.9359       536.7305       551.7407       483.8514       520.6311
       598.5758       611.5597       428.3257       277.8608       438.5881
       586.6333       485.2843       470.1226       403.0950       297.9564
       476.4794       539.8907       569.8823       472.3800       314.5750
       369.9174       356.8496       366.2120       431.0121       393.6761
       336.5026       363.7296       352.8502       309.9448       315.0212
       344.7908       418.3713       313.5104       251.4039       335.1654
       294.0112       275.1145       289.3964       279.5822       326.0818
       237.6190       145.3648       252.2689       193.8558       108.6702
       179.7219       133.3210       125.8601       153.0681       114.3220
       97.66827       159.8889       209.0845       120.5110       140.0002
       282.2632       243.8032       149.6149       98.83583       74.87726
       3.927277      -48.71707       10.88148       37.74741      -47.78027
      -161.1205      -153.6570      -64.49107      -81.51852      -86.19638
      -79.00125      -76.92505      -94.20728      -132.9047      -109.4280
      -48.67810      -174.7305      -299.7364      -303.7416      -317.9226
      -267.4738      -213.5675      -219.3807      -312.3101      -427.6677
      -377.0470      -282.5138      -141.2009      -170.9425      -346.3002
      -366.2534      -379.1823      -393.5972      -343.3851      -372.6832
      -447.7852      -388.1917      -350.6317      -468.8777      -403.7875
      -294.1647      -364.5977      -410.6335      -461.7992      -499.5256
      -427.7441      -420.4510      -399.0128      -323.8809      -348.3756
      -414.4524      -376.4902      -417.5527      -512.2522      -353.8377
      -257.5334      -407.6898      -459.0166      -450.9640      -478.7244
      -462.8287      -352.4648      -423.3711      -461.0273      -378.9617
      -424.6887      -413.6696      -355.4021      -427.4910      -404.9100
      -329.7073      -374.6329      -382.5526      -309.6184      -300.7656
      -327.2847      -352.5735      -301.0666      -299.0754      -346.2314
      -371.1675      -386.1742      -366.8871      -346.2092      -280.2313
      -221.5260      -295.1804      -326.5641      -255.8027      -226.5825
      -263.2638      -292.3708      -261.5428      -155.6134      -101.4748
      -112.8474      -157.3402      -210.4857      -230.1043      -210.8046
      -203.7138      -194.0401      -163.5994      -177.3708      -206.5768
      -161.0022      -166.4540      -154.4890      -108.8530      -129.7917
      -188.2863      -203.9407      -169.3305      -101.4315      -79.55792
      -148.5808      -151.8095      -139.5531      -242.4906      -228.2406
      -101.1004      -40.09891      -21.39377      -42.18262      -170.3590
      -153.1448      -126.5139      -160.6091      -104.9774      -110.8724
      -198.1815      -169.1577      -121.3199      -129.4784      -98.06268
      -129.5835      -174.8540      -26.45239      -24.52960      -123.1332
      -76.64267      -74.47662      -112.4381      -131.2286      -160.9263
      -186.2690      -133.5645      -6.224274      -20.68021      -88.70697
      -73.24060      -82.34686      -118.1273      -83.82001      -102.9578
      -146.6639      -167.9390      -168.3216      -103.2952      -75.85358
      -164.6577      -126.8695      -28.90067      -66.21033      -116.6482
      -111.4044      -54.03044       3.108643      -112.0063      -133.7518
      -105.7998      -138.0155      -112.4500       3.462662       70.62215
       58.99303       2.186401      -107.1191      -132.8861      -62.71489
      -10.23160       50.87788       64.55656       81.69469       48.27855
      -54.32388       54.97644       171.0652       65.80255       106.5284
       197.4436       214.4934       202.2583       169.8324       164.5286
       166.6427       130.1128       132.8824       260.6459       295.8826
       257.9955       316.9318       302.6265       312.6851       373.2224
       351.4771       340.6367       375.3565       347.4784       223.1439
       240.2412       381.8802       318.0962       309.2031       543.7297
       653.6995       616.9595       568.8840       502.4224       488.0070
       426.9489       379.7368       459.1736       591.8418       636.1638
       584.1927       572.7183       542.6444       517.7150       541.6221
       533.6517       624.8029       681.2236       625.2035       592.3059
       589.5197       516.8303       500.4957       532.6021       496.4167
       536.7321       582.6157       510.1686       591.4185       586.9949
       434.7739       463.0670       481.0137       455.2294       517.0906
       512.4611       453.4321       419.5670       366.2061       281.8077
       222.4587       315.8960       354.2056       311.3274       369.1514
       417.7213       293.0998       268.4493       368.7100       267.0560
       121.7545       90.89322       68.12906       120.9750       167.6268
       174.0374       200.8481       256.1107       272.4591       198.3930
       113.6323      -11.59017      -29.78090       65.50934       55.47040
       73.86230       138.3263       95.55767      -26.58139      -49.35329
      -65.28264      -78.39641       47.72858       33.10721      -43.16738
      -32.76212       27.25369       75.20406      -14.77948      -145.5707
      -166.0136      -56.42598       38.42458       2.288635      -112.3932
      -217.0177      -244.6932      -151.2047      -93.97546      -170.9874
      -192.4059      -116.9748      -98.98352      -114.2603      -110.9632
      -174.7411      -221.6843      -190.9577      -213.7023      -179.0497
      -101.6997      -134.7735      -139.8425      -127.9625      -116.2452
      -140.5670      -187.8365      -123.6788      -133.1638      -234.9573
      -276.7136      -255.2946      -147.3334      -92.18036      -143.7907
      -154.1097      -217.6790      -235.2399      -208.1266      -192.9685
      -159.4581      -177.8236      -187.6456      -143.7150      -159.4675
      -223.8147      -273.7949      -244.7943      -232.4003      -197.9868
      -249.6248      -314.1803      -126.5416      -102.3640      -213.8569
      -200.9264      -246.3917      -263.1042      -215.8295      -186.4881
      -132.9368      -171.6218      -332.7837      -466.2581      -561.0240
      -573.7670      -450.4722      -250.6821      -137.4174      -61.33618
       74.03564       154.9462       180.8525       64.96533      -193.3303
      -430.0492      -649.9609      -700.3518      -573.7894      -387.7150
      -251.3828      -213.7941      -174.0095      -139.9931      -251.2936
      -361.7073      -331.0582      -244.7834      -265.9055      -258.5611
      -157.5756      -158.3158      -259.5206      -254.8892      -302.2312
      -517.4968      -476.6882      -271.6163      -312.1853      -233.5818
      -130.2020      -225.1654      -313.0714      -326.5157      -298.5344
      -311.1350      -303.4441      -230.7640      -272.7102      -209.0297
      -85.25946      -153.8290      -243.9094      -277.3320      -354.6277
      -363.8521      -251.3660      -147.3571      -136.1714      -102.4548
      -88.99744      -98.57257      -91.60016      -79.49464      -56.52954
      -106.3403      -203.8140      -233.6398      -182.3057      -144.3580
      -138.8031      -75.50287       5.304443       89.32251       95.88824
       177.7744       184.3786      -103.6840      -230.3833      -164.1543
      -77.37180      -7.908081      -63.03131      -101.0518      -178.4996
      -147.6327       13.03088       73.76587       200.1650       349.5387
       255.3297       273.4128       412.5382       181.7124      -73.64154
      -142.7872      -217.1086      -259.8568      -373.0417      -304.5320
      -6.270264       362.3799       547.3627       403.7773       345.5265
       258.5793       81.33371       27.15573      -139.0906      -166.7518
      -25.85297      -2.397568       43.20386       168.4686       189.0145
       116.5584       52.72095       114.6862       265.0974       348.6737
       338.1440       270.2083       82.47879       37.13805       67.63380
      -1.916199      -47.39548      -89.38171      -97.41388      -143.4752
      -203.6431       65.20825       277.9174       282.0424       412.1882
       289.4065       23.19641       132.9736       348.1680       422.0895
       468.9874       377.1801      -34.83008      -573.5242      -1010.531
      -1004.220      -598.3650      -305.9296      -152.6994      -24.10614
       55.47717       276.9395       665.4331       1025.760       1264.159
       1384.757       1282.500       899.0033       563.0557       785.1350
       1147.812       910.8796       453.5650       85.51074      -328.4918
      -553.5640      -647.9921      -563.3331      -89.72046       604.6084
       1300.528       1704.000       1509.737       867.4584       388.2924
       107.0435      -540.4456      -1293.861      -1383.833      -420.5186
       900.7197       1302.638       962.4783       541.9277       288.9514
       320.0748      -18.18921      -392.1434      -361.9310      -129.8465
       29.37842       270.4067       1018.486       1590.170       1430.199
       708.5805       52.05670      -143.2177      -123.0357      -128.8787
      -129.3364       90.56580       361.1293       403.6154       225.7381
       97.21979      -86.86621      -386.4667      -523.0323      -393.3345
       4.244751       388.7084       320.5922       44.44510      -8.610901
      -70.24284      -79.96191       254.8667       573.2383       717.8938
       545.7217      -131.0580      -550.7166      -437.9476      -304.1865
      -265.7538      -287.7681      -490.1978      -591.1823      -27.24695
       382.0500       120.3734      -158.7887      -319.5048      -91.81641
       378.7148       469.2257       228.8521      -2.736938      -184.3795
      -240.3271      -134.9685      -236.8802      -297.4980       74.44794
      -7.954956      -569.3223      -848.6576      -752.3282      -264.8003
       91.74316       305.7346       611.6871       482.4873      -5.741882
      -294.2009      -154.4482      -105.6667      -239.2201      -197.6989
      -7.994202       156.2047       67.80267      -126.9128      -346.0549
      -643.3453      -493.8542      -69.84277      -168.9092      -450.9324
      -436.0613      -239.4759      -267.2538      -364.0968      -340.7073
      -499.2076      -400.5231      -282.4828      -299.0620      -98.31995
      -86.94855      -153.1205      -191.2228      -350.8295      -430.4004
      -436.2834      -325.0964      -451.9055      -783.1567      -914.7296
      -751.8934      -282.0441      -128.3369      -387.7528      -462.8358
      -257.2304      -135.6379      -281.4596      -307.3104      -337.3171
      -468.1956      -332.2500      -245.4500      -203.5943       27.06995
      -84.40698      -447.7397      -466.6453      -335.8521      -356.9825
      -295.3251      -236.4991      -271.3424      -300.2564      -197.7097
       30.10957       47.46741      -131.0580      -278.5486      -409.8913
      -322.1937      -185.7487      -161.3347     -0.9921112       99.59102
      -46.30087      -139.3438      -22.86284       27.13452      -138.6570
      -138.0484      -67.96259      -104.3580      -161.9431      -231.8565
      -120.3378       144.9998       159.9626       127.3925       298.3635
       428.8676       265.7962       1.657471      -80.62714      -35.73277
       49.45267       142.4854       223.2031       149.6680       61.46167
       126.6492       168.1805       221.5826       205.7369       144.3806
       115.1705       130.2194       291.5538       389.2159       267.0989
       145.7697       118.5881       203.8120       309.7347       289.7848
       265.4274       369.9935       375.5840       250.0362       138.0724
       71.45480       81.04602       188.0045       179.8836      -1.685486
       29.64850       218.5854       304.4307       287.2529       109.6945
       150.4526       295.3889       183.0703       13.66699       20.63411
       89.40521       74.47003       140.4731       247.1635       187.5506
       156.7513       282.0956       429.5364       376.9371       203.5403
       207.4184       266.1832       180.9900       94.26361       131.3498
       153.2585      -63.98627      -238.5836      -157.1021      -34.13129
       47.91449       29.67628      -38.36134      -73.68149      -102.1498
       40.17166       147.9080      -38.86572      -269.8716      -286.4702
      -150.9448      -54.15784      -104.5240      -225.5378      -85.76425
       83.78717       60.05679       71.84676      -16.80804      -105.6061
      -166.0004      -181.0901      -107.0867      -73.71362      -73.27795
      -167.8618      -302.3990      -292.8631      -240.2780      -144.0576
      -67.79581      -115.3597      -216.5112      -246.5639      -174.3470
      -162.3790      -125.2612       13.50208       47.21579      -53.18277
      -85.93616       65.77084       185.3269       81.36377      -120.4375
      -285.0171      -365.4213      -264.0519      -206.9979      -376.1544
      -494.3535      -466.6953      -312.8177      -149.8076      -84.04198
       50.54236       121.7634       17.78681      -18.60787       16.73400
       14.16402       16.03723       20.19566       7.510193       100.6903
       231.7173       135.4397       62.48407       132.0535       101.7166
      -34.88351      -164.2268      -99.11292       40.61688       124.6188
       178.9199       231.4066       301.8861       342.4293       408.7572
       401.0294       334.7190       328.2138       216.2460       189.5347
       230.5739       185.1086       60.62607       33.21899       181.0256
       242.7546       344.9102       437.3456       356.2850       355.8231
       345.3992       334.1052       462.4896       430.3462       246.7769
       244.9844       331.6232       349.6340       299.2736       200.7221
       151.5555       187.1038       240.3923       341.2998       454.0540
       435.7495       270.5427       145.6767       138.2141       192.5287
       255.9584       297.6116       297.6036       228.7678       223.7076
       331.7974       365.5592       240.4731       181.7058       228.2265
       220.0764       246.9247       249.5701       180.3984       156.4200
