     0.02500000      -3316.244       1749.189      -12345.00      -12345.00
      -29.99999       221.0500      -22.60000      -12345.00      -12345.00
       0.000000       16.83000      -12345.00      -12345.00      -12345.00
      -12345.00      -12345.00      -12345.00      -12345.00      -12345.00
      -12345.00      -12345.00      -12345.00      -12345.00      -12345.00
      -12345.00      -12345.00      -12345.00      -12345.00      -12345.00
      -12345.00      -31.28310      -69.41950       1383.000       0.000000
      -31.37200      -68.11800       0.000000       97800.00       0.000000
      -12345.00      -12345.00      -12345.00      -12345.00      -12345.00
      -12345.00      -12345.00      -12345.00      -12345.00      -12345.00
       124.2637       274.2126       94.88602       1.117283      -12345.00
      -12345.00     -0.1919496       90.00000       90.00000      -12345.00
      -12345.00      -12345.00      -12345.00      -12345.00      -12345.00
      -12345.00      -12345.00      -12345.00      -12345.00      -12345.00
      2008       244         6        45        28
         0         6    -12345    -12345     10043
    -12345    -12345    -12345    -12345    -12345
         1         7        13    -12345    -12345
    -12345    -12345    -12345    -12345    -12345
    -12345    -12345    -12345    -12345    -12345
    -12345    -12345    -12345    -12345    -12345
         1         1         1         1         1
CALI    -12345          
        -12345  -12345  
-12345  -12345  -12345  
-12345  -12345  -12345  
-12345  -12345  -12345  
-12345  -12345  -12345  
-12345  -12345  BHE     
ZL      -12345  -12345  
[...]
       32.27341       25.32887       9.685995       3.321228      -10.50159
      -19.50267      -29.81572      -38.21545      -48.24622      -55.60883
      -71.87837      -78.48050      -90.43939      -103.1786      -114.5926
      -124.1683      -136.9529      -148.5975      -160.5178      -170.6747
      -181.0156      -192.8604      -207.5025      -219.5172      -233.9380
      -246.4272      -257.2322      -268.3588      -281.9464      -290.1316
      -297.1512      -302.2451      -312.0066      -318.9224      -329.5345
      -336.8684      -345.9838      -355.0616      -367.5288      -371.9327
      -379.2130      -382.8643      -392.2510      -394.6123      -400.3525
      -398.7513      -403.2178      -399.4723      -404.1460      -399.7588
      -400.0830      -398.8347      -404.3212      -399.0610      -403.2695
      -400.0590      -400.5901      -395.1969      -395.4896      -388.0280
      -385.7612      -378.5051      -373.4615      -367.2454      -367.6654
      -361.3209      -354.8757      -346.6217      -344.0280      -337.2727
      -327.8969      -326.5131      -327.8374      -323.2653      -320.4497
      -316.5459      -313.9818      -306.9435      -303.0883      -299.3751
      -293.5549      -285.6573      -281.9905      -279.4122      -271.6833
      -264.7646      -258.8160      -253.9944      -248.6603      -243.7345
      -239.2798      -234.2673      -227.7663      -222.2225      -213.6990
      -208.8751      -202.7246      -195.4806      -189.9091      -182.6741
      -180.7378      -178.2759      -171.5291      -168.4249      -167.3446
      -159.4584      -154.1772      -146.8940      -138.7673      -130.4398
      -123.8697      -115.0644      -106.6836      -98.99686      -93.45880
      -84.52341      -75.76573      -66.61377      -58.55125      -45.02347
      -36.51908      -26.48824      -14.93509      -1.832792       6.261940
       16.24329       21.33895       30.97656       39.66663       50.72568
       55.61218       65.63779       73.48627       81.13089       86.13922
       93.05743       99.46030       102.6646       103.2274       99.47813
       82.24951       36.30998      -35.40192      -83.58738      -62.65591
       19.53973       114.0045       190.1278       259.4279       272.7585
       197.7317       92.59064      -4.992870      -53.89862       47.22180
       216.1147       109.5732      -151.0412      -81.91241      -8.703461
      -113.6877      -4.940948       13.36942      -181.0749      -116.7551
       144.3013       173.3997      -26.06781      -165.5381      -213.2450
      -40.07367       221.0064       205.8159       11.82904       2.158417
       93.92163      -9.026917      -204.4023      -158.5939      -93.04578
      -210.3718      -158.0993       99.76227       148.0216      -80.28461
      -123.6118       72.44559       71.63837       116.3617       154.6308
      -59.29791      -174.6408      -43.72168       32.61633       70.66339
       284.7707       281.7815       23.95924      -15.23715       68.05676
       131.9828       147.8064       141.7224       83.70132       35.33539
       138.8045       252.2067       219.5199       191.8290       209.4983
       163.2836       142.4851       239.8027       320.0256       366.0295
       258.3106       56.37915       142.4684       293.8608       318.3102
       311.0475       199.4547       79.44543       147.7975       406.8104
       402.9244       195.7647       224.0464       420.7019       393.7363
       148.5763       165.3420       339.1257       373.7615       355.6295
       111.6452      -21.76605       272.2701       464.7900       387.7898
       323.5372       280.4058       240.4390       288.3203       383.1075
       302.0637       143.8430       206.0518       393.2766       393.9703
       378.9479       280.0994       146.5754       166.4562       180.4222
       328.2658       359.2121       221.7974       274.0662       324.6819
       305.1862       332.9393       339.3579       309.9833       234.4258
       142.7655       193.1723       262.3246       310.9577       257.5558
       172.7761       262.6426       315.2548       262.9677       271.9016
       257.6276       264.6816       220.4313       119.9642       218.6256
       288.6458       219.3056       241.1796       228.2312       170.1184
       213.0098       211.6008       183.6396       251.7142       265.3432
       245.9901       151.3639       81.94101       147.0840       165.1321
       130.5364       153.7482       181.9874       86.57324       81.63696
       175.5722       153.9493       101.6628       136.7031       177.5255
       175.5254       141.8341       96.08215       67.67365       131.4583
       234.5782       164.2231       43.12564       65.91005       60.71826
      -17.62389      -54.86811      -15.16719       44.39654       46.23453
       24.86008       68.59354       66.41066       56.30420       124.6382
       106.0138      -29.61214      -16.63454       66.98019       28.66633
      0.4865417       82.31538       48.23386      -24.13110      -34.09357
      -132.7082      -105.7634      -29.89268      -82.23325      -48.99005
      -59.84827      -192.4079      -185.7605      -85.80782      -62.80475
      -68.46521      -137.2949      -242.5971      -221.9652      -137.0878
      -171.7174      -251.5717      -266.1970      -331.3781      -389.5783
      -333.7089      -296.3404      -289.1809      -310.6344      -363.8416
      -377.4116      -304.5214      -286.8599      -325.9574      -351.3862
      -435.3870      -452.1825      -400.5955      -465.0933      -557.1052
      -528.9025      -489.3114      -482.1848      -486.6423      -649.4187
      -651.2100      -462.8240      -466.7031      -595.3618      -613.6721
      -582.3939      -580.0264      -597.2692      -595.8425      -685.9331
      -674.0754      -605.0803      -633.6821      -652.9714      -699.8101
      -771.9927      -770.5447      -741.0410      -711.5769      -760.6887
      -774.5061      -770.6370      -789.2874      -762.9683      -698.5190
      -747.9233      -722.8533      -659.7202      -707.6196      -797.3372
      -843.1299      -756.1451      -646.2473      -669.9377      -733.5947
      -747.1304      -716.2544      -683.1917      -719.7068      -740.6637
      -643.4827      -599.5098      -553.3284      -549.0725      -552.7639
      -552.2634      -554.2336      -500.9104      -433.8823      -423.8076
      -459.4106      -452.7892      -399.2272      -406.8198      -373.9828
      -304.0005      -280.4802      -261.3442      -186.3010      -174.9174
      -195.5711      -210.4848      -141.0018      -58.42975      -65.82707
      -85.64037      -30.38880      -29.68197      -34.50757       83.98102
       112.4391       83.59576       165.1685       135.2898       129.7703
       280.3897       331.8893       213.8162       243.9108       384.3750
       416.6968       394.6030       323.9342       302.7517       440.6315
       474.3059       488.3484       546.4465       513.6091       578.2975
       703.1907       625.0353       561.4365       660.4152       689.1025
       667.0576       701.0806       665.5989       600.4861       673.7480
       788.4482       822.0046       826.5427       751.5044       754.5178
       847.9749       824.9216       798.0708       874.5671       826.6785
       792.1501       873.7454       854.3623       804.3574       832.5002
       860.6631       915.7366       907.7102       808.2800       763.5837
       806.7070       807.5469       867.2715       969.3518       977.0017
       900.2036       823.4736       883.8066       914.8777       864.9719
       875.0503       803.2512       740.3530       820.5093       819.5493
       701.3188       757.9282       895.9143       896.4238       859.7083
       849.2939       811.9028       757.4697       662.9751       557.5562
       646.0347       764.9651       656.9583       635.0203       623.1685
       572.7937       616.6259       615.9539       545.5017       477.7869
       418.7034       474.6934       516.2632       364.0905       210.8204
       278.5076       324.7022       314.7740       322.1431       268.4137
       306.3481       405.4692       284.2835       183.8405       97.91487
      -60.36200      -59.80881       56.66566       84.01421       40.74971
      -50.42830      -97.92471      -20.21330       24.43773      -51.50616
      -104.5457      -189.5087      -243.2030      -242.8029      -186.7609
      -256.2290      -358.7827      -247.2948      -211.9279      -355.9723
      -336.0205      -327.1868      -402.6829      -456.1365      -517.2998
      -526.8496      -524.6353      -571.9771      -543.0808      -525.3337
      -509.3726      -518.0717      -565.4025      -575.6111      -590.9565
      -591.3879      -527.9502      -650.2954      -818.1299      -716.6603
      -654.1057      -707.8501      -614.9412      -646.6223      -732.0161
      -715.3052      -769.6355      -834.8135      -772.6851      -712.0192
      -671.6238      -695.2488      -707.8870      -622.5483      -658.0728
      -790.6978      -796.5259      -691.7086      -611.2274      -610.4497
      -627.1843      -653.6824      -631.9998      -608.9500      -582.7798
      -548.9700      -542.1317      -572.5143      -562.3048      -493.3580
      -466.9482      -525.6284      -586.5930      -513.2483      -402.8948
      -366.4808      -345.9982      -363.7739      -343.5250      -328.1771
      -354.5258      -404.3748      -434.8677      -354.9738      -304.9104
      -353.3951      -335.1843      -273.3129      -284.4926      -295.1990
      -236.3635      -246.8518      -343.8542      -296.0038      -194.4116
      -255.5653      -277.6031      -231.8971      -196.7635      -159.4877
      -147.0541      -139.2733      -183.1582      -267.5724      -241.2777
      -153.0193      -126.9152      -123.1271      -164.6883      -188.7377
      -137.5421      -143.9825      -155.7661      -136.5163      -110.2195
      -36.60923       43.86707      -4.103333      -72.85022      -68.68860
      -94.36636      -104.3501      -88.18304      -83.67267      -35.74954
      -42.25555      -50.01662      -20.28615      -45.44341      -26.13811
      -29.80976      -22.08032       84.06012       149.9235       219.4703
       184.3397       79.03970       81.61696       27.20209      -84.97168
      -196.3280      -259.8765      -234.7143      -207.3849      -96.63959
       123.1979       263.2782       290.0745       200.8751       71.03010
       38.57977       19.05757       24.36261       57.21539       66.91803
       148.4596       73.03748       33.82416       204.0818       205.9666
       139.0811       150.5076       92.84167       68.32712       74.13977
       145.3342       207.2686       157.8610       122.8154       108.1956
       158.3297       303.3975       348.9266       299.8293       280.9089
       267.0430       227.0666       189.8431       144.2216       81.51273
       47.94080       132.9092       260.5220       330.1675       391.9690
       379.3417       266.6483       306.3882       360.2618       266.7987
       224.2147       301.7732       288.5382       276.8521       334.3773
       315.2346       448.2466       628.8223       545.4283       435.3461
       352.2516       244.3932       193.4188       178.0472       184.1863
       236.3525       297.8125       442.5378       506.4485       382.4762
       371.7068       401.7605       420.9612       442.6509       397.7725
       428.9519       388.8010       291.9142       292.8665       330.0193
       404.4119       421.8223       320.9777       367.3831       437.9704
       313.0039       254.2847       365.3441       470.7155       420.2377
       224.2031       198.4006       318.7065       473.3937       466.5034
       390.8557       497.0105       506.8491       515.8362       629.3472
       519.8011       303.3102       161.0813       136.1703       267.8097
       391.5652       363.7458       364.7094       379.4498       431.5645
       441.0801       412.5471       494.3708       412.2499       220.6853
       261.4688       305.0096       304.5663       375.5129       478.9415
       504.3120       292.9141       117.5540       139.9353       62.38855
       170.9796       476.6780       576.2913       607.8013       665.6965
       603.2737       511.8877       349.4639      -39.01270      -727.5820
      -1488.195      -1831.213      -1693.242      -1378.972      -1013.314
      -649.3726      -187.0969       434.9502       1030.358       1299.007
       1391.132       1404.329       1261.216       1033.514       786.0786
       595.6003       305.3997      -273.9092      -1203.465      -2482.502
      -3316.244      -2912.590      -1262.984       359.5447       802.7698
       850.0220       1304.389       1749.189       1100.144      -883.1060
      -2159.572      -1294.752       190.6074       741.9351       952.7009
       1339.115       1168.361      -162.2539      -1392.108      -1404.880
      -1138.150      -1485.242      -1549.823      -963.9321      -780.0410
      -788.2679      -347.5153       311.1189       1149.272       1184.182
       204.5415      -414.9290      -669.4540      -594.1389      -295.8860
      -798.0039      -1625.021      -1519.195      -791.6963      -121.9136
       669.1162       1073.812       558.6592      -530.6418      -1133.414
      -796.6274      -621.2944      -1104.278      -1115.645      -546.3527
      -443.5211      -306.0819       138.0480      -351.6587      -1274.585
      -1329.676      -681.9186       171.5101       607.7219       221.2286
      -218.9047      -246.9025      -197.7892      -418.1860      -978.5598
      -1252.388      -1149.304      -921.0552      -679.5076      -826.5125
      -746.5281      -117.1156       336.9429       291.5499       109.9594
       208.3623       316.1510      -62.82397      -604.3271      -894.1528
      -1157.661      -1121.986      -565.4656      -121.0779      -215.8749
      -575.7306      -491.7314      -103.5995      -50.24023      -504.0518
      -889.5063      -646.9957      -368.5562      -471.6363      -225.9988
       280.7137       238.9098      -3.005402       47.06458       182.5535
       141.0871       26.30853       288.3719       199.9142      -349.9392
      -263.0709      -140.7070      -287.8864      -273.9147      -286.0601
      -262.2501      -443.3053      -476.4033      -348.4358      -495.7975
      -475.3708      -166.4314       413.9073       691.5557       514.4937
       411.7949       467.9082       701.6855       567.4902       188.0405
       236.0881       549.7095       562.1539       197.9133       23.40540
       87.73279      -157.6495      -322.7932      -79.29333       120.9301
       280.9380       369.7463       551.3274       826.6071       562.4821
       214.2260       366.6111       794.8855       1040.260       829.2153
       722.2056       632.6570       521.2166       756.8140       759.0669
       688.6665       880.0413       902.7017       798.1770       657.3674
       540.9163       606.4452       653.3813       495.6709       609.7629
       717.5422       533.7244       561.9847       464.9392       367.3138
       309.1354       120.4251       144.7964       212.7393       270.3673
       358.3032       509.0984       792.5811       979.1943       1121.829
       1304.741       1173.061       907.2761       792.1483       557.1382
       47.59866      -148.4773      -29.07684       38.85852       224.1416
       478.9510       599.0365       370.8819       40.76465       284.1672
       597.4761       439.4496       247.3054       122.4709      -30.30005
       98.08533       243.9587       380.8828       370.3168       47.96613
       7.865967       138.9187       68.00201       76.56274       222.7910
       160.2393       16.32060      -2.833557      -148.6628      -224.4380
      -240.0734      -217.4095      -63.64728      -117.5654      -363.4050
      -477.7485      -469.1654      -380.5796      -270.7455      -172.5742
      -134.5375      -173.0314      -172.3501      -81.62195      -45.90466
      -292.3420      -484.6852      -494.2017      -608.7770      -554.2373
      -472.6671      -513.1105      -346.8494      -182.2014      -242.4222
      -341.1812      -535.0691      -674.1843      -564.1603      -422.2073
      -268.0464      -191.2482      -120.5821       50.87207      -68.95166
      -252.4296      -454.5315      -735.8811      -921.7729      -821.8306
      -349.3098      -271.1436      -553.9518      -317.5508      -197.2157
      -466.0170      -470.4619      -369.1206      -262.9948      -164.1693
      -178.3065      -210.7266      -266.5706      -138.5489       18.74078
      -93.53729      -177.4055      -243.7034      -376.9709      -380.8187
      -404.1062      -478.9351      -545.2556      -494.3749      -282.9308
      -168.4159      -119.1836      -31.54268      -58.45578      -133.3194
      -132.6060      -138.9874      -216.1137      -142.1933       9.557892
       60.86459      -33.71802      -42.88892      -99.54004      -246.5341
      -156.0854      -112.0872      -223.2778      -126.0449      -74.77323
      -26.89191       113.1389       75.50177      -14.76709      -89.14865
      -111.8592      -79.26529      -130.2391      -39.00516      -8.356699
      -16.55384       5.727898      -74.42328       27.72044       91.43420
       36.13751       69.46504       48.49609       151.0548       74.31445
      -170.2271      -180.6873      -154.0985      -175.1101      -94.81158
       58.12866       138.7470       221.5085       425.2964       467.8033
       311.4747       246.3853       277.0359       156.7088       78.11993
       118.1418       136.8994       43.51524       1.503418       137.9367
       138.9121       115.2102       377.9485       434.5687       247.2739
       330.3230       389.8857       275.8542       400.1584       419.6929
       232.6580       233.6345       264.0630       244.3488       299.3756
       265.0972       170.7300       214.5419       393.0745       378.1093
       288.4400       283.9553       316.8097       342.0612       251.9470
       297.1730       420.4501       399.3579       527.6273       561.5298
