     0.02500000      -1731.577       1519.342      -12345.00      -12345.00
      -30.01006       223.2899      -24.76000      -12345.00      -12345.00
       0.000000       18.75000      -12345.00      -12345.00      -12345.00
      -12345.00      -12345.00      -12345.00      -12345.00      -12345.00
      -12345.00      -12345.00      -12345.00      -12345.00      -12345.00
      -12345.00      -12345.00      -12345.00      -12345.00      -12345.00
      -12345.00      -31.20700      -69.62850       2369.000       0.000000
      -31.37200      -68.11800       0.000000       97800.00       0.000000
      -12345.00      -12345.00      -12345.00      -12345.00      -12345.00
      -12345.00      -12345.00      -12345.00      -12345.00      -12345.00
       144.9802       276.8583       97.63899       1.303547      -12345.00
      -12345.00     0.02389611       0.000000       0.000000      -12345.00
      -12345.00      -12345.00      -12345.00      -12345.00      -12345.00
      -12345.00      -12345.00      -12345.00      -12345.00      -12345.00
      2008       244         6        45        30
       160         6    -12345    -12345     10133
    -12345    -12345    -12345    -12345    -12345
         1         7        13    -12345    -12345
    -12345    -12345    -12345    -12345    -12345
    -12345    -12345    -12345    -12345    -12345
    -12345    -12345    -12345    -12345    -12345
         1         1         1         1         1
CASP    -12345          
        -12345  -12345  
-12345  -12345  -12345  
-12345  -12345  -12345  
-12345  -12345  -12345  
-12345  -12345  -12345  
-12345  -12345  BHZ     
ZL      -12345  -12345  
[...]
      -373.1659      -365.9799      -351.3022      -335.3092      -316.1169
      -306.0072      -289.6077      -277.7040      -262.9937      -244.8986
      -226.4589      -215.9628      -197.2161      -179.3768      -149.3039
      -90.24544       1.270966       113.3914       239.3441       371.2888
       247.6782      -315.5405      -809.7976      -696.4985       182.7959
       277.3425      -198.4742      -249.5683      -203.8840       100.2502
       200.2314       611.6017       528.2067       169.9320       27.67450
       141.9961       408.4684      -119.4026      -123.0108       228.2446
       247.9847       197.7271       413.6033       530.1939       184.0416
       102.7539       464.7522       575.4810       189.1092      -324.3879
       162.1134       735.5254       512.4945       579.6294       313.6030
       267.4082       666.4327       499.3300       307.3799       330.4044
       462.6892       767.4131       748.4531       193.9045       306.0391
       851.9609       412.9600       89.92365       277.5042       237.1250
       716.9026       935.4062       477.3102       427.2451       712.3694
       1076.508       651.9950       22.90625       423.3279       873.3679
       581.8219       144.7629       491.8623       1009.476       892.7560
       529.2761       576.2051       746.4385       592.6968       280.9941
       539.1865       1038.777       388.0371       207.6497       868.2007
       941.5630       865.4216       726.6445       490.3962       423.8483
       536.6594       663.3999       1025.000       708.8353       303.0903
       871.0837       922.5864       631.6340       503.5491       715.1260
       842.9517       620.7019       514.5698       530.9482       800.1377
       547.2485       386.3582       501.8335       625.1650       871.5244
       649.8157       680.5461       701.9607       609.4138       506.6124
       287.9275       401.6808       488.6797       490.6790       368.0388
       403.7002       515.4097       249.1591       219.4280       329.4006
       191.5356       174.2139       299.8527       431.3692       175.6188
      -84.58469       26.34637       232.9954       182.3480      -99.01959
      -147.9037       61.58423       85.61914      -167.7048      -71.87718
       70.83484      -176.7360      -259.1111      -311.1918      -358.6197
      -229.8263      -116.1766      -129.1373      -414.6605      -331.5182
      -208.8547      -292.6172      -427.3894      -481.2546      -415.6674
      -567.3865      -523.8219      -531.0093      -565.7190      -464.6426
      -505.9590      -575.6385      -580.0100      -506.3749      -496.2692
      -481.2067      -633.8401      -721.8494      -715.4812      -658.6969
      -582.9468      -614.2192      -704.1118      -743.4525      -422.5447
      -493.7109      -783.5869      -847.8464      -723.3804      -604.3215
      -751.7920      -779.7842      -579.8986      -470.2729      -587.9083
      -696.1390      -647.7922      -550.6432      -465.9263      -607.8687
      -785.0887      -583.4985      -458.5378      -528.2131      -439.2156
      -446.4163      -614.6410      -540.7670      -443.4971      -463.5992
      -482.3083      -456.8931      -500.5850      -492.0374      -362.9269
      -406.0527      -445.3479      -555.3723      -419.0137      -231.0933
      -542.3892      -567.3818      -243.2296      -284.9896      -330.7056
      -357.3132      -425.9510      -487.5353      -462.3347      -245.7535
      -154.7712      -335.3047      -377.1542      -208.2998      -296.0447
      -364.5128      -272.8584      -327.3077      -360.6932      -284.9596
      -124.5598      -197.2114      -330.0562      -254.9568      -251.4127
      -203.2807      -113.2742      -145.3957      -315.1331      -239.7913
      -2.598923       51.36874      -78.32791      -156.8401      -21.63066
      -59.38736      -104.8364      -30.62958      -65.57397      -146.8658
      -34.54096      0.1487427      -81.50015      -151.9543      -21.33615
       95.03159       71.47855       86.22648       70.42908      -39.34984
      -51.35571       172.6001       320.8168       165.5893      -48.35815
       89.84875       191.0298       164.0237       145.3415       140.9753
       190.9283       143.7795       290.8608       180.7749       8.182434
       281.6261       440.9615       282.8569       279.7807       349.0361
       168.8622       204.7468       319.3828       319.4829       439.9924
       376.5488       423.7346       427.4464       215.3582       272.3512
       381.5740       402.5287       436.8340       448.0414       520.7462
       485.7239       339.8958       247.6064       306.0222       507.6138
       585.1997       550.9713       499.8308       423.7527       312.2534
       247.9589       283.8412       418.3514       539.3126       498.6635
       459.6514       393.5121       331.3386       290.8397       278.6110
       371.1240       340.4001       436.3220       475.7798       372.9606
       315.3877       314.8329       402.5110       174.0472       214.5051
       378.3418       459.5297       432.7853       173.1682       180.2089
       162.3451       230.3353       425.1721       372.4844       295.6033
       255.0760       195.4782       93.55106       55.07733       26.90805
       68.66101       227.3087       300.6353       160.2927      -3.324844
      -101.2528       101.0905       138.7361      -85.57417      -15.71751
      -39.18419       11.34885       127.8911       31.58542       42.50836
       93.77545       7.511932      -64.73274      -18.54974      -160.0312
      -90.42581       59.56656       81.73664       102.8352      -108.4368
      -217.9413      -284.0299      -299.5330      -174.6524       23.19516
       131.5975      -107.2304      -188.2083      -41.55771      -20.24231
      -105.8183      -90.23172      -72.29120      -200.7030      -227.6564
      -268.2328      -187.3075      -6.009827      -133.9438      -232.8048
       7.784233       62.95605      -112.6194      -92.77380      -284.7890
      -172.7085       55.41730      -154.0016      -110.3566     -0.2409058
      -211.2669      -253.0238       31.35585       56.21445      -118.3799
      -73.38594      -71.35593       49.58332       45.87140      -113.6651
      -183.0099      -301.4827      -214.5364      -119.6966      -125.7343
      -52.76857      -61.29274      -40.13788      -130.3922      -140.9813
      -37.66382      -188.7145      -265.3777      -70.59404       68.35400
      -170.4224      -270.4427      -115.6904      -103.2487      -172.3739
      -181.2215       21.40646       43.64020      -160.7790      -215.5059
      -77.41162      -82.50607      -188.2917      -70.34167      -76.60431
      -184.2619      -101.9326      -48.81232      -7.736755      -204.2289
      -374.6309      -142.6299      -31.83856      -85.45557      -149.5851
      -121.3176      -123.3227      -77.15312      -68.46230      -32.62515
      -7.041138      -264.6426      -323.3140      -161.3055      -92.16888
      -206.2159      -149.2232      -7.245239      -108.8714      -127.5648
      -41.07465      -84.46198      -250.6733      -209.7979      -62.91654
       16.80182      -40.07532      -270.5390      -107.7286       34.62132
      -15.53680      -27.48154      -145.6236      -91.67391       12.74088
       95.71117       65.75432       12.70850       184.2473       148.2230
       61.91922       79.56078      -20.75389       24.72458       122.6304
       87.54953       60.00858       199.5859       107.3510      -166.0168
       75.08752       386.9924       424.1168       333.3967       303.6539
       283.7135       106.3802       69.25989       269.1188       251.1164
       7.397034       118.4698       313.6283       355.2350       361.9113
       259.6937       202.5128       255.7336       201.5697       145.7368
       256.4720       295.5447       235.6246       172.6935       217.9362
       381.4932       298.7843       106.4546       90.72119       153.3322
       62.47760       105.9196       288.2234       290.6898       256.4799
       287.8832       137.9243      -115.2811       25.36032       193.8199
       48.02566      -13.45251       72.46838       207.2222       179.1198
       30.22461      -15.47932       80.70628       86.36964      -29.65988
       5.530487      -34.93848      -134.2427      -153.3663      -41.75975
       50.62720      -12.02618      -38.03052      -147.2037      -213.3978
      -167.3090      -188.2302      -245.4217      -204.0649      -13.38985
      -47.15317      -99.95204       7.480347      -164.8134      -383.2102
      -454.7294      -280.6278      -179.5836      -274.5360      -121.2070
       27.92059      -178.3259      -406.5305      -477.7947      -388.5015
      -252.7672      -211.5948      -243.8058      -282.9402      -335.6205
      -262.5924      -272.7557      -315.8866      -379.9385      -552.5341
      -561.5552      -511.0547      -349.7892      -350.6699      -354.7410
      -160.3950      -161.3126      -126.7586       52.20618       8.996460
      -233.5414      -301.0137      -480.1741      -562.9406      -364.8917
      -425.0815      -443.6765      -292.9009      -267.8295      -278.7743
      -374.4587      -326.5945      -40.03125      -95.77393      -366.2879
      -294.5454      -173.6413      -203.8350      -310.0284      -206.2599
      -229.3244      -271.1736      -197.4395      -211.6984      -84.46613
       68.41203       99.31006      -108.9211      -61.26029      -2.422779
      -2.880234      -33.25354      -172.3396      -205.1914      -161.9127
      -97.40143      -163.9427      -87.04659      -54.79932       198.1172
       268.3081       152.0248       320.5615       320.1772       312.5734
       312.6708       116.9012      -55.89580       12.49292       134.8175
       148.5944       24.57611       150.3503       277.4226       309.6593
       274.4097       29.46338       249.9658       577.3221       527.8979
       221.0211       53.80737       275.5476       537.5909       534.4028
       292.0580       179.6549       229.0811       123.2997       169.7034
       353.2416       646.6493       539.0229       288.8329       338.2313
       277.6924       209.8843       166.2970       394.5630       574.4294
       639.7065       616.5729       285.4793       219.3652       77.31171
       113.7504       340.1427       307.4429       381.9503       381.8584
       285.3850       211.3625       207.2357       243.3633       280.6824
       271.9238       129.1964       127.8541       278.0961       307.3506
       158.9922       69.91974       198.4357       171.8453       129.5222
       215.2076       201.6554       164.8336      -72.20015      -53.11414
       159.2604       135.3188       35.76340       65.05127       149.4984
       124.2479       39.33295       23.33832       121.7578       194.1080
       16.46429       58.80371       216.9632       112.8506       196.6423
       144.0992      -17.50656      -86.33539      -169.7870      -160.2234
      -87.32292      -120.9368      -3.452515       328.3373       314.7455
       78.13062       7.891205      -149.9459      -158.8431      -63.39917
       194.4607       365.9445      -31.01270      -143.7902      -81.14919
       22.23103       32.66368       17.12997       175.5696       63.71497
       137.2659       346.8024       360.2207       191.3492      -48.14796
       45.27426       127.4087       79.13626       111.8217       107.4049
       183.6754       194.3229       83.74124      -77.29034      -288.8315
      -217.5153      0.3374023      -161.0845      -686.7085      -1050.757
      -1015.577      -392.5482       472.4539       451.4449       200.1685
      -46.53040      -665.2366      -295.9799       77.41064       302.4053
       1344.555       1519.342       529.9861      -407.7119      -1070.747
      -716.0156       431.0054       726.4668       954.2827       1084.205
       854.8593       274.1936      -955.8782      -1001.591      -595.3066
      -619.3088      -358.7798       558.2092       938.9097       373.9417
      -677.1985      -1377.311       325.4515       884.1235      -31.77942
      -181.2566      -844.9404      -573.4910      -337.5813      -794.4257
       305.9952       663.5796      -841.6572      -1460.724      -1217.440
      -683.9792      -154.2774      -103.3293       265.0208       559.0851
       388.1383       239.3027      -727.1079      -1375.061      -971.2102
      -1177.474      -888.7114       263.4124       866.6342      -108.8853
      -1206.212      -580.9607      -249.9357      -384.7852       53.71375
      -178.2286      -432.9426      -251.8469      -655.9835      -716.8264
      -144.1054       179.6016      -712.8521      -1731.577      -678.1748
       538.2626       676.9294       420.1729      -371.6765      -976.1880
      -1441.855      -1487.607      -106.4258       1290.324       1048.897
      -148.6689      -1017.084      -1352.046      -1039.967      -184.6935
       175.6538       310.7651       766.3120       549.8166       119.6531
      -410.0972      -1294.183      -1212.186      -319.4661       258.9731
       105.4912      -636.4475      -700.3989       469.4824       1193.978
       812.3062       468.1469       214.0487      -25.68405       166.7772
      -41.59094      -556.7224      -48.43680       189.3813      -612.7637
      -471.1421       634.4419       898.9411       380.4612       106.4923
      -79.19067      -366.1482      -490.1328      -18.84619       814.9453
       1205.249       1341.332       741.9573      -373.5674      -859.2839
      -735.5857      -44.01147       737.4468       626.0302       438.2338
       264.8813      -68.13940       499.4043       1065.103       860.2654
       474.3616       417.7163       322.3683      -122.1647      -23.59949
       470.6649       523.8667       249.8331       129.1082       261.3866
       411.2385       674.8671       566.0824       447.5950       502.5979
       574.8142       619.5460       279.4782       42.89771      -298.9131
      -453.5417      -163.7088       35.74316       458.6638       818.7271
       724.4248       726.2550       612.2494       357.6355       430.2057
       481.9058       133.8685      -234.6005      -75.46933       113.3489
       106.5048       449.1079       641.0530       515.4067       543.8617
       32.11404      -221.1426       265.4288       556.7871       490.7693
       2.306015      -23.41324       198.0383      -173.2022      -201.3685
      -89.88788       95.34937       427.3844       175.1824       200.1460
       131.2133      -108.9413      -43.85010       66.92310       449.5481
       421.1562       215.4272       250.9768      -266.8892      -602.5613
      -345.0767      -342.8918      -403.6816      -516.2094      -588.3862
      -186.6502       42.85531      -41.93848      -4.697632      -280.2501
      -354.2261       228.7567       281.5852       163.3212      -3.469971
      -439.3368      -138.8647       107.3279      -447.3076      -663.4708
      -583.1161      -647.4907      -438.7805      -304.8698      -495.9330
      -345.0451      -53.45605      -242.1052      -366.5339      -326.8604
      -550.1400      -677.0942      -500.8572      -213.0263      -169.0654
      -261.1509      -155.6015      -159.2113      -341.0308      -357.7095
      -386.9944      -284.5697      -186.7747      -413.5061      -649.6223
      -602.9502      -354.3256      -273.2392      -112.8015       178.7926
       89.34473      -122.3210      -223.8510      -352.7306      -425.6428
      -463.5165      -534.3547      -183.1689      -151.1824      -786.2261
      -612.2437      -342.6412      -524.5217      -270.3895      -65.70744
      -57.59424       33.83862      -280.9673      -906.1937      -770.9899
      -176.3853       32.88513       86.85876       125.6150      -82.51825
      -346.7391      -25.55435       88.82410      -172.4983      -278.4418
      -472.8593      -515.1953      -379.6110      -208.9265      -253.3453
      -267.0992      -184.4221      -164.3611       31.93767       26.20709
      -276.8969      -204.5343       90.77182       152.6437       126.7549
       66.01102       129.9279       107.9715      -125.8796       170.0679
       286.5660      -210.9664      -157.2010      -9.104218      -65.71954
       144.7449       238.4817       273.7949       420.7942       524.2538
       498.1163       291.4522       111.7876       81.28448       32.95525
      -5.848755       126.8547       313.2925       327.4027       208.6110
       241.4030       393.0380       172.8205       12.37781       127.6619
       152.5093       154.8612       163.8801       287.2296       546.4570
       743.0057       430.2899       207.3167       446.8712       450.1703
       249.3621       149.7642       200.3035       385.7708       486.5706
       282.9675       365.8074       657.1584       677.6064       970.2451
       1016.970       619.0054       379.4578       207.2211       298.9795
       340.4121       360.1511       420.5315       281.9250       188.2512
       258.2732       618.9849       782.0912       546.4907       584.2319
       783.1033       731.7212       539.7425       252.6379       195.6450
       443.1704       652.8223       776.0964       726.4381       574.6504
       701.3423       662.3896       369.1163       295.8317       364.8649
       390.4023       446.6133       396.7741       274.4102       357.0101
       314.0491       107.4797       95.23962       302.1699       434.6725
       451.2849       533.1241       436.0079       161.8129       213.3723
       446.7551       294.2628       328.7369       505.5576       334.0048
       258.4519       297.1441       185.6406      -24.18729      -173.6168
       56.79279       218.8382       120.8168       223.7148       137.4182
      -199.2379      -315.4152      -213.1482      -36.51263      -42.49706
      -98.97375       80.57458       146.3694      -78.01721      -291.7939
      -322.5634      -214.0028      -480.6680      -613.1183      -368.6146
      -274.2434      -322.7900      -404.9587      -408.5188      -327.0197
      -307.0542      -456.6726      -592.5494      -478.3068      -235.4951
