     0.02500000      -5157.884       2977.429      -12345.00      -12345.00
      -30.01006       223.2899      -24.76000      -12345.00      -12345.00
       0.000000       18.75000      -12345.00      -12345.00      -12345.00
      -12345.00      -12345.00      -12345.00      -12345.00      -12345.00
      -12345.00      -12345.00      -12345.00      -12345.00      -12345.00
      -12345.00      -12345.00      -12345.00      -12345.00      -12345.00
      -12345.00      -31.20700      -69.62850       2369.000       0.000000
      -31.37200      -68.11800       0.000000       97800.00       0.000000
      -12345.00      -12345.00      -12345.00      -12345.00      -12345.00
      -12345.00      -12345.00      -12345.00      -12345.00      -12345.00
       144.9802       276.8583       97.63899       1.303547      -12345.00
      -12345.00      0.2115067       0.000000       90.00000      -12345.00
      -12345.00      -12345.00      -12345.00      -12345.00      -12345.00
      -12345.00      -12345.00      -12345.00      -12345.00      -12345.00
      2008       244         6        45        30
       160         6    -12345    -12345     10133
    -12345    -12345    -12345    -12345    -12345
         1         7        13    -12345    -12345
    -12345    -12345    -12345    -12345    -12345
    -12345    -12345    -12345    -12345    -12345
    -12345    -12345    -12345    -12345    -12345
         1         1         1         1         1
CASP    -12345          
        -12345  -12345  
-12345  -12345  -12345  
-12345  -12345  -12345  
-12345  -12345  -12345  
-12345  -12345  -12345  
-12345  -12345  BHN     
ZL      -12345  -12345  
[...]
      -133.9279      -134.3042      -148.6592      -152.4224      -156.1703
      -168.9299      -171.2964      -178.8159      -189.6414      -194.7230
      -201.5402      -217.9717      -226.0835      -231.7917      -242.9138
      -252.8398      -257.3480      -271.5283      -277.1261      -279.2814
      -294.6798      -307.2080      -309.8421      -317.8167      -323.0745
      -330.1039      -339.6156      -345.5195      -347.9076      -353.3494
      -361.6604      -360.3015      -365.4017      -373.5691      -368.5488
      -372.9572      -377.3131      -373.7578      -377.7815      -379.6472
      -371.3352      -373.8679      -373.6846      -372.1060      -368.7828
      -373.2875      -370.9377      -370.3104      -375.8376      -373.3657
      -370.9900      -374.8230      -367.8577      -366.1411      -366.0646
      -360.7849      -355.7218      -355.5579      -346.3269      -336.5460
      -331.9906      -325.8689      -311.6870      -308.3267      -298.6641
      -287.6960      -282.5214      -270.2079      -253.8599      -247.5635
      -238.1169      -228.0428      -216.9669      -205.7728      -188.5961
      -179.7184      -166.3360      -151.1182      -139.9358      -126.7094
      -102.7661      -90.91194      -70.83813      -49.03092      -35.90103
      -52.56221      -50.36876       17.84399       96.21262       125.8278
       20.16858      -4.745213       25.71465      -11.40033       201.2418
       288.4912       185.2337       115.9070       112.7267       249.5044
       278.9768       314.3936       210.4319       76.31055       273.4532
       413.7797       303.8890       182.4837       182.0778       353.5193
       482.7600       455.5099       342.2487       340.2063       376.1624
       325.8096       338.2634       496.3484       567.8516       357.8815
       424.5226       487.4955       274.6990       430.6832       468.5345
       304.4143       293.7220       477.9766       700.3546       418.5267
       237.7926       401.1451       443.0300       457.7102       336.4587
       235.8682       425.6501       551.8513       362.0175       238.4594
       350.4686       218.5389       192.5193       405.8896       255.1294
       297.1715       523.7351       318.5111       117.6509       85.22034
       221.8104       318.1592       169.8853       324.2786       411.0827
       147.3692       55.44489       129.3677       302.8042       190.4986
       3.322571       173.2059       118.7050       103.0536       304.4827
       387.1361       256.6230      -19.91983       49.89825       226.7800
       154.3787       113.6050       145.3810      -52.44690      -9.036652
       96.07915       55.52512       122.3179      -92.55878      -124.8445
       221.9939       376.4142       191.9689       69.09079      -49.61927
      -103.7207       82.98076       60.55438      -149.4330      -115.8407
       159.7589       139.9910       4.059769      -13.10162      -53.34801
       30.87103       53.21893      -101.4936      -138.5156      -104.2790
      -36.42635       138.7348      -79.54713      -91.23738       72.48685
      -76.36847      -174.9513      -181.7693      -167.6308      -119.4110
      -94.38791      -122.3714      -106.4274      -92.98499      -129.7789
      -304.1774      -111.1824       140.1210      -109.5203      -251.8705
      -231.3364      -324.8782      -446.3340      -205.9533      -100.5273
      -280.0370      -147.3180      -233.2617      -275.2622      -42.44812
      -235.6870      -313.2217      -252.3966      -253.0544      -92.28052
      -342.8331      -462.2605      -248.8226      -334.7794      -320.9681
      -198.8737      -266.0055      -314.0538      -238.2714      -268.5420
      -293.1709      -302.9730      -453.0789      -369.3468      -211.5861
      -328.6281      -553.2415      -394.0612      -213.3000      -201.6084
      -189.0448      -183.9785      -296.7952      -439.1615      -323.7998
      -146.4526       40.07983      -205.6346      -430.6036      -408.5027
      -406.0002      -266.3091      -219.0334       1.449585      -46.47583
      -203.5725      -156.3850      -192.2290      -168.2130      -167.7998
      -157.4616      -174.8852      -81.15312       30.21939      -88.38388
      -121.6221      -83.57146      -33.14087       50.96533       92.66674
       54.57748     -0.8856583      -82.80170       67.61670       232.2248
       31.36057      -124.4138      -104.1921       66.39908       166.8917
       124.3811       170.3336       225.9447       151.9071       133.9304
       268.5593       176.3282       201.2934       287.2252       89.53552
       86.06750       167.8685       229.4413       184.2759       150.8588
       322.9380       291.7112       215.5776       128.1315       257.7314
       393.4541       305.0791       256.9165       315.6854       275.5917
       111.1750       180.7905       243.0078       271.7484       390.6819
       321.5347       215.8292       210.3330       256.8206       323.9004
       152.4462       113.4920       294.7126       234.7253       140.1027
       237.4396       225.6138       213.8467       289.1475       171.3007
       77.58972       140.8461       319.9893       316.0775       184.4456
       162.7462       67.92928      -30.29047       123.8300       195.8819
       165.9508       132.3639       77.48282       73.72327       147.9635
       168.7556       10.46031       8.102219       67.58201       22.69974
      -11.43608      -1.594879       65.38692       32.32907      -36.21936
       20.96572      -1.357330      -55.47440      -15.08606      -34.06534
      -16.53745       19.38281       3.877380      -100.7465      -158.7521
      -85.20784       61.83911      -134.8557      -287.0660      -108.8796
      -1.893677      -107.2412      -148.1575      -134.3628      -253.3265
      -151.0858      -150.0779      -322.2231      -202.6554      -141.5106
      -226.6032      -238.7433      -201.1317      -282.8230      -319.3656
      -193.7330      -247.0836      -241.4066      -141.9677      -228.9488
      -250.8334      -310.6433      -392.8918      -276.5829      -161.8337
      -148.1909      -123.3728      -240.8506      -415.1390      -386.2657
      -95.03662      -106.9563      -278.6327      -161.2034      -190.7771
      -279.0168      -293.8140      -276.6023      -171.3323      -204.2034
      -119.1553      -98.41196      -132.9495      -210.0273      -150.2155
      -140.7146      -289.5101      -120.1547      -177.4684      -124.3786
      0.8066406      -199.5598      -141.3075      -105.5666      -81.60410
      -2.223267      -141.7378      -176.4279      -95.45871      -43.13481
       31.35913       19.96973      -13.03233      -8.167725       67.52518
      -11.78142      -160.8916       112.1251       253.6621      -107.7395
      -101.8231       186.1513       160.6894       161.3168       275.7598
       187.1752       32.62122       38.02356       188.7450       317.3515
       244.2697       98.10217       178.1434       268.5950       83.78540
       207.6308       283.3347       230.9907       408.8669       150.8042
       153.8403       438.6775       280.3541       230.6898       306.5836
       226.9095       235.3494       316.7915       434.5636       231.3056
       84.17725       422.0649       316.0568       138.1218       286.4985
       304.1027       186.6421       204.5310       417.7977       283.3775
       204.8007       225.2076       187.0226       308.3026       238.6185
       144.2892       204.5471       206.2473       125.5696       211.1877
       121.7169       123.9356       279.1892       120.7651       64.55450
       66.73224       104.3903       249.9070       215.8329      -65.72305
      -141.2408       119.2059       75.71179       160.6839       220.6981
      -217.7292      -82.79208       153.2205       10.91426       103.4642
      -16.98145      -135.3629      -85.13237       37.46194      -3.799316
      -197.5427      -15.83301       162.8712      -18.56982      -296.5797
      -215.2679      -45.85192      -37.69733      -51.15170      -135.6777
      -238.5301       44.31403       48.08899      -179.8289      -76.82513
      -249.4141      -260.5836      -137.6285      -252.7112      -208.4329
      -121.5710      -165.2897      -227.5494      -155.7643      -63.43335
      -196.3307      -228.7341      -201.4888      -59.30853      -70.77924
      -270.1493      -219.0663      -176.0313      -78.37720      -94.42633
      -166.7947      -239.0704      -200.6974      -142.2870      -258.8061
      -40.36179      -28.86121      -200.3407      -147.1458      -151.0507
      -184.5681      -177.1504      -51.10880      -138.3387      -52.62886
      -4.835022      -229.4297      -188.4306      -183.0600       15.34299
       112.4905      -125.2177      -123.5224      -71.54240      -108.9768
       92.08171       64.30524      -258.0728      -57.96242       82.25274
       16.24390       91.13621       18.48946       59.11722       120.8607
       41.20004       23.71263       18.22852      -97.72060      -68.04102
       72.68997     -0.8661499      -20.12546       168.5299       68.60165
       50.64514       203.9651       121.7387       139.9522       38.09776
      -75.43321       16.42322      -31.02216       123.9549       201.5150
       68.23615       91.60535       133.8297       47.22005      -5.804016
       97.44913       155.3766       102.9644       100.9465       6.147804
      -9.439407       113.4251      -53.48404       58.12329       197.4407
       6.953358      -6.939764      0.3337612       4.271187       5.707367
      -88.05475      -37.08157       66.60466       23.47424      -28.86583
       18.37219       109.6420      -32.74454      -108.3424       99.98181
       129.5906      -89.83917      -214.3332      -178.7608      -66.64905
      -49.33257      -66.82943       53.73143      -63.49791      -46.40115
       33.26952      -20.58200      -18.25256      -178.7373      -97.44559
       85.45419      -6.062119      -12.82602      -132.3741      -165.8560
      -38.46173      -58.61111      -72.10368      -126.9745       41.18488
      -36.48285      -310.2615      -61.09822      -15.54865      -137.4519
      -153.0514      -229.6946      -235.3565       17.38292       160.3538
      -134.4520      -287.6569      -42.05861      -7.945129      -116.0674
      -161.5269      -243.4492      -270.4674      -263.6194      -92.58081
      -167.9808      -257.7639      -164.7663      -199.2347      -119.0972
      -70.74890      -261.9692      -212.6765      -149.8159      -196.6113
      -82.74841      -205.7812      -235.5549      -352.4987      -308.7599
      -27.34723      -183.6182      -282.2938      -138.6872      -241.0521
      -338.6748      -148.3870      -2.523254      -107.5301      -154.6994
      -13.87744      -163.2858      -307.5264      -141.2393      -89.61371
      -97.55457      -11.97773      -26.05730       25.31863       163.6906
      -59.39327      -46.38470       74.50970      -90.81461      -75.57594
      -5.542290      -56.52136       100.5563       198.0892       161.2488
       239.2228       115.1978      -34.07629       11.01089       46.54559
       115.1539       300.0037       344.4850       152.2394      -4.328644
       48.95251       148.7341       15.43835       180.3513       437.8575
       263.4471       259.8801       237.5535       62.74524       164.6015
       158.2772       235.4741       450.1278       241.9504       106.9863
       174.3400       209.2988       186.6864       42.84033       306.4370
       479.9096       364.6326       235.3064       43.05450       200.8973
       251.2699       177.1935       230.4420       256.9939       242.7192
       172.7418       206.7910       159.6210       146.1249       291.8569
       369.3452       408.0914       254.3179       127.6574       159.3673
       66.31216       91.76514       303.6483       238.1976       84.22852
       150.0707       248.0179       193.0878      -45.84978      -26.90103
       95.56027       98.20471       141.1815       299.0829       241.9763
       113.1919       426.0887       169.8628      -257.1577       5.547806
       124.1030      -25.49107      -91.78412       76.22589       65.12216
       30.60626       295.4778       230.9492       195.8361       283.9379
       195.2219       129.1324       58.72827       215.0584       282.7215
       165.8260       48.80676      -52.44115       71.56247      -72.14624
       296.0596       874.7988       218.0951      -410.0635      -812.1302
      -546.4319       564.6431       1657.041       2043.286       977.6469
      -52.39331      -77.11279       1102.409       2977.429       2312.482
      -17.27832      -896.5039      -2832.056      -5157.884      -3279.366
      -107.1470       988.1143       2121.532       421.0564      -654.9994
      -209.6948      -812.3555      -455.6030      -455.8054       349.7734
       1998.756       2188.418       1217.796      -758.2876      -2359.887
      -791.7757      -77.22632       197.7484       503.9252       336.3804
       1137.572      -75.15063      -673.4253       1098.315       1303.690
      -1167.989      -3091.323      -1597.885      -457.1719      -803.1165
       391.3027       1789.028       1455.981       600.8943       360.9834
       632.5884      -56.64331      -969.9692      -1719.784      -1991.826
      -333.6716       478.3533       274.3220      -357.1831      -1417.485
      -1590.696       612.5854       1818.296      -375.5514      -698.8702
       90.05017      -307.6257      -232.4255      -252.9396      -302.6875
      -169.9175      -228.6479      -1662.605      -2405.936      -333.7721
       971.4180       254.8733      -644.5371      -1089.420      -1434.520
      -1133.965      -356.5415       310.0400       862.5900       139.9961
      -478.6494      -375.2637      -1298.553      -1685.956      -284.6484
       1665.341       1248.291       395.4573       339.5859      -894.2998
      -1082.980      -910.3857      -1750.638      -1299.762       496.5939
       351.7476      -559.2012      -400.3644      -149.8672      -150.5459
      -818.9592      -540.0535      -561.4896      -743.1313       481.0807
       531.1829      -1037.509      -1637.942      -538.6132      -325.6943
      -645.4196      -204.2300       369.1736       907.7769       754.9681
       535.4065      -142.8606      -1215.884      -476.3262       361.9304
       605.5148       897.2709      -28.37744      -820.1438      -710.7434
      -390.8928       384.4508       332.1437       268.7840       160.7334
      -204.5708       1165.359       584.8278      -823.3939       57.46045
      -184.5691      -151.1670       534.7373       558.3643       1286.820
       1242.256       856.4773       119.5620      -870.1772      -541.2799
       215.3475       199.1228       139.2261       798.9084       948.5089
       675.3987       59.53882      -483.1377       349.7275       1495.578
       1582.447       1024.684       455.9912       732.2009       1210.903
       149.9650      -386.9329       317.5022       512.3669       352.2745
       382.9803       324.0110       1087.355       1921.897       794.2554
       93.43164       332.1230       378.5043      -137.8877      -289.3628
       978.2932       837.5724       540.4978       523.3806       292.4156
       273.1687      -209.6443       662.0852       713.9585       72.95062
       167.6318       60.23389       139.2935       573.9482       845.3848
       751.9106       829.2368       789.6621       1152.040       1230.044
      -46.85400      -609.2148      -336.3712      -228.0215      -81.17603
      -169.7251      -273.9651      -80.91711       440.6505       604.8256
       758.1802       463.2726      -138.6132      -109.5589       145.8947
      -111.8188      -635.7956      -67.49939      -171.9507      -908.1918
      -261.8489       397.8535       443.1277      -16.47440      -200.1996
       307.2400       216.0420       137.8273       82.37952       343.1356
       318.5906      -549.1543      -204.9772      -226.6312      -256.1644
       249.3811      -52.15634      -192.8942      -46.40771       48.17554
      -539.5121      -346.5103      -84.12476      -869.6322      -346.8933
       172.9038      -648.2684      -552.6741      -357.7427      -865.9943
      -673.3936      -609.5879      -241.0033       382.5873      -66.67065
      -440.0011      -343.3912      -455.7047      -265.0428      -137.1398
      -135.6003      -58.33936      -523.2743      -607.4595      -287.9370
      -403.5417      -561.3155      -295.8093      -239.5869      -235.2427
      -227.7437      -855.5583      -860.2606      -303.0285      -124.3078
      -73.98560      -603.2134      -739.9243      -234.7407      -345.6650
      -314.3989      -103.3552      -238.7643      -326.4603      -638.1996
      -45.02631       237.5725      -540.1182      -272.2466      -239.2892
      -551.8705      -357.5705      -50.00146      -65.13153      -239.9305
      -137.6798      -122.3938      -407.6720      -629.8547      -337.6131
      -96.00113      -93.29791      -55.44775      -244.8971      -422.6067
      -366.7491      -445.4299      -465.0892      -112.0669      -248.9155
      -467.4625       114.3901      -161.6909      -758.3652      -215.5228
       339.0634       117.4977      -286.6328       22.17245       113.5349
       85.20142       376.8511       302.4278       38.28564      -353.5515
      -461.0370      -417.1989      -440.4431      -107.9628       136.0966
       395.8962       268.4187       32.67114      -89.58997      -340.8584
      -141.8159      -31.19327       98.89276       222.8994       120.0923
      -222.6055       127.8043       479.7545      -328.2323       90.55933
       887.6037       126.3525      -390.4000      -143.0961      -162.7361
       47.10779       380.8374       124.0511      -32.13379       443.3577
       536.5334       71.88733       148.6027       117.2291       64.40546
       291.0580       415.0222       290.3820       95.73804       80.99036
       358.7877       690.1780       399.4846       271.2926       336.0225
       424.8220       568.7764       497.5581       560.5764       94.43390
