     0.02500000      -2542.836       3474.169      -12345.00      -12345.00
      -30.01006       223.2899      -24.76000      -12345.00      -12345.00
       0.000000       18.75000      -12345.00      -12345.00      -12345.00
      -12345.00      -12345.00      -12345.00      -12345.00      -12345.00
      -12345.00      -12345.00      -12345.00      -12345.00      -12345.00
      -12345.00      -12345.00      -12345.00      -12345.00      -12345.00
      -12345.00      -31.20700      -69.62850       2369.000       0.000000
      -31.37200      -68.11800       0.000000       97800.00       0.000000
      -12345.00      -12345.00      -12345.00      -12345.00      -12345.00
      -12345.00      -12345.00      -12345.00      -12345.00      -12345.00
       144.9802       276.8583       97.63899       1.303547      -12345.00
      -12345.00     0.02304459       90.00000       90.00000      -12345.00
      -12345.00      -12345.00      -12345.00      -12345.00      -12345.00
      -12345.00      -12345.00      -12345.00      -12345.00      -12345.00
      2008       244         6        45        30
       160         6    -12345    -12345     10133
    -12345    -12345    -12345    -12345    -12345
         1         7        13    -12345    -12345
    -12345    -12345    -12345    -12345    -12345
    -12345    -12345    -12345    -12345    -12345
    -12345    -12345    -12345    -12345    -12345
         1         1         1         1         1
CASP    -12345          
        -12345  -12345  
-12345  -12345  -12345  
-12345  -12345  -12345  
-12345  -12345  -12345  
-12345  -12345  -12345  
-12345  -12345  BHE     
ZL      -12345  -12345  
[...]
       70.48225       75.39420       79.73587       86.39709       91.91284
       94.05875       102.5555       98.90680       103.2896       106.5660
       101.5561       98.10602       102.7686       100.3522       99.79407
       98.20129       100.0022       96.71838       102.3395       99.17432
       95.75021       99.02390       103.8127       98.13464       106.7387
       105.4730       110.1642       115.7649       121.3315       121.8986
       132.5134       139.7235       147.8531       146.4413       160.8781
       161.3796       171.6713       179.2418       187.1558       194.6819
       209.6941       205.7001       218.4694       224.4186       232.2439
       229.1749       238.5267       241.2078       246.1469       250.3754
       252.4786       249.1372       262.6780       258.0410       261.4016
       264.6493       265.6097       265.8950       270.9414       264.3593
       261.7499       257.5939       260.5080       252.9042       256.1819
       248.6484       241.4668       240.4721       238.7214       226.5845
       227.9087       216.8528       208.8840       196.5374       193.6356
       181.6699       174.9739       170.6195       163.0791       152.8935
       152.2209       137.6000       133.4874       123.6024       111.8529
       78.33124       31.44856      -28.81244      -101.0890      -193.2086
      -156.1299       133.3455       396.1657       369.3587       4.361359
       30.50696       341.6538       153.1392       126.5068       48.49551
       20.60596      -466.1581      -198.6898       308.5921      -233.1294
      -63.03223       233.1390       322.8431      -54.42027      -75.34662
       248.7939      -24.14099      -257.9694      -163.8400       58.27942
      -50.22662      -113.4051      -79.52856       285.9070       349.0981
       65.15607      -62.05050      -20.87765       9.027252      -13.69524
       69.53091      -104.6254      -248.4397       22.12341       280.0287
      -139.5072      -139.0487       297.9222      -26.48181      -135.8012
       76.50176      -26.73759      -34.16412       215.9501       129.4365
     -0.2255859       54.28465       95.47922       14.95618      -132.9298
      -354.0779      -122.5792       330.2236       44.71957      -208.4909
       18.80170       355.7643       106.7642      -193.7889      -107.3763
      -268.9050      -66.70129       29.12817      -27.74727       175.1902
      -130.1917      -257.1879       367.6586       280.0392      -242.1783
      -218.0084       124.2705      -63.95312      -386.5757       137.7748
       223.7717      -143.4568       81.59121       102.7886      -120.4282
      -182.7556      -18.35094      -16.27177       65.73608       74.63049
      -342.0710       25.28180       323.3834      -147.9788      -202.7103
       57.46025       15.67676      -233.9984      -84.98126      -84.00772
      -96.53371      -38.84979      -170.0609      -64.99152      -71.52679
      -80.14963      -160.5986      -127.8099      -27.90221      -46.59094
      -52.07117      -272.3577      -277.2252      -208.7194      -222.2181
      -147.9258      -172.6809      -272.9857      -176.8462      -151.1976
      -294.9169      -308.7867      -183.4867      -306.7480      -206.2019
      -123.6337      -447.4049      -350.4377      -96.15088      -125.3028
      -140.5956      -279.7822      -287.3495      -251.0304      -336.8483
      -383.1489      -197.4116      -102.2202      -338.3690      -286.4304
      -90.61194      -251.6389      -263.5526      -167.6129      -263.9927
      -324.5817      -310.5282      -266.7108      -179.2254      -63.93195
      -105.3479      -234.9674      -263.4557      -229.3384      -175.3468
      -204.2406      -166.9301      -274.2537      -244.1578      -174.4249
      -320.9865      -137.7237      -65.85492      -325.7007      -306.2854
      -166.2954      -284.5503      -16.98956      -38.51727      -362.6320
      -128.1374      -100.0108      -185.0328      -118.6579      -149.9127
      -320.9250      -192.3746      -181.5959      -260.6868      -167.5950
      -102.9705      -60.50650      -180.7531      -46.79773       6.389526
      -112.8505      -105.3879      -159.0233      -31.15034      -17.49680
      -76.64072      -116.0520      -144.5676      -1.705856      -7.678734
      -89.59563       82.82866       25.39089      -86.58856       84.48108
       129.8083       54.79514       34.56957       22.49294      -35.80688
       118.6774       200.6731       158.8531       177.8255       61.38110
       242.5768       324.8315       145.8502       142.7446       188.8585
       218.4715       188.6213       225.6866       203.8762       156.4478
       265.6280       195.7770       235.8284       335.1350       526.3950
       553.1814       200.7436       136.0955       125.0573       308.1487
       263.7493       138.9053       406.2434       312.9330       286.5461
       297.6302       303.9032       369.5902       376.7311       313.5823
       341.6670       181.3330       199.3628       476.2172       275.3691
       168.8645       324.4830       398.3228       280.8406       363.7692
       475.4586       219.5960       252.7073       470.4668       262.1089
       124.8423       406.7863       435.9105       222.8093       362.5810
       304.5342       20.65723       391.4760       583.2972       148.1208
      -2.424683       307.5133       456.1124       242.4844       251.6859
       402.0356       252.0385       251.0291       297.4265       126.5566
       45.06641       277.7043       405.6413       144.7913       179.0922
       336.0453       139.8284       129.6792       246.5918       111.4060
       56.06824       243.0807       240.6615      -63.86330       21.91988
       128.6534      -26.94528       122.4828       110.0565      -55.16098
       23.09814       234.0050       134.4274      -162.3955      -181.1287
      -246.0625      -107.9176       5.912231      -68.37114       149.0814
      -106.0181      -303.4767     -0.1653442      -196.4814      -313.4913
      -170.7354      -78.38361      -147.5275      -219.6417      -145.7763
      -235.9203      -203.4110      -139.7098      -130.4127      -191.9092
      -285.3051      -235.5302      -293.1335      -247.5277      -222.0146
      -478.7190      -469.4034      -340.4451      -100.2406       20.97070
      -312.8750      -485.3264      -352.5065      -104.0610      -298.2327
      -397.1146      -310.1831      -342.1625      -173.8426      -230.5712
      -357.3956      -297.5050      -293.9128      -237.3510      -276.3870
      -329.6909      -283.3170      -407.4008      -438.0654      -332.0571
      -299.1653      -194.2441      -86.27527      -100.7131      -254.2045
      -343.7214      -153.4043      -244.0909      -335.6174      -129.1127
      -188.5599      -241.6395      -261.0750      -245.2865      -297.2237
      -163.9319      -14.12549      -230.7468      -250.7255      -33.15224
       10.25253      -126.9019      -127.2699      -174.8574      -146.3993
      -106.5142      -210.1038      -117.7369       2.637268       50.28477
      -3.952255       53.72299      -79.56166      -105.6544      -37.96124
      -240.6812      -151.0832       57.36158      -7.773438       116.2703
       159.6110      -4.136902      -109.3409      -211.6187       94.81735
       167.6190       59.35394       115.0225       90.29523       169.6849
      -30.10565      -215.7312       14.92490       190.3035     -0.9944153
       29.54443       167.4807       58.86366      -60.19019       152.3824
       263.9235       148.4089       152.1675       141.4082       214.6158
      -48.50343      -187.8939       172.3238       197.8903       198.4944
       154.4159       37.53522       90.11816       107.7662       188.4026
       167.2765       83.24565       70.50378       86.47791       225.0932
       127.8006       214.4586       29.36740      -130.5585       315.2578
       175.4613       84.20062       194.1711       175.2065       124.9996
      -82.23547       71.20898       270.4296       140.9364       94.62659
       268.6724       138.3433      -28.34142       20.67200       107.9696
       76.78028      -11.74576       138.7750       98.57469       17.18781
       123.2514       182.3889       26.51747      -144.3846       62.88690
       151.1526       234.7233       327.2429       48.45123       52.61932
       70.52293      -14.15305       7.255432       241.7172       91.62451
      -166.9833       152.5134       183.2505      -3.648270      -92.04230
       185.9412       236.7753       29.49832       13.60425       155.5272
       305.4374      -15.88625       7.755600       129.0257      -193.4294
      -26.18698       191.5358     -0.1712646      -212.5482       101.6863
       354.9031      -21.14395      -163.3218      -41.71587       46.63147
      -92.33398      -313.0005      -91.06194      0.5260162      -47.18663
       93.01562      -167.1200      -305.4857       146.6032       175.6085
      -141.7553       117.1165      -96.29987      -347.0814       16.74860
       63.59933       157.4174       2.161987      -216.8407      -260.0863
      -263.7197      -41.59371       49.20187      -163.2047      -44.81039
       197.1433       18.51027     -0.9085083      -58.83850      -143.8063
      -50.11902      -247.9069      -169.8579       27.93509      -176.9199
       73.95459       337.4221       40.79852      -107.6182       74.90411
      -22.47491      -146.8711      -46.29657      -81.54797       60.40939
       68.62799       78.84267       34.42659      -21.72797      -116.9421
      -8.080170       159.9020      -254.4633      -158.7809      -99.93645
      -91.82373       257.0621       127.8941       4.477997      -52.76921
      -67.75555      -72.54593      -248.9213       7.961132       41.86909
      -22.59352       82.00232      -60.74541       13.30125       82.48591
       50.31149       17.42255      -139.8522      -150.2879       103.3932
       179.0396       100.8835       55.96060      -24.27716       85.91559
       52.49924      -181.7603      -106.7675      -133.1663      -194.1884
      -71.29706       123.4614       311.6824       119.4387       32.10788
       99.76010       122.7969       149.3873      -124.2517      -8.639099
       304.5439      -75.94757      -325.3224       46.94519       266.2774
       32.84912       191.3550       276.1938      -50.85028      -266.4790
      -157.7645       85.24457       9.354919       26.97784       140.2722
      -124.8118      -206.9391       85.85995       111.4779       43.99202
       13.35855      -199.6035      -109.5687       194.9077       174.0227
       59.81494       57.82166       166.5633       96.89911      -120.2519
      -108.1908      -69.55975      -48.47131      -136.8112      -190.7477
      -106.8868      -62.25427       29.60810      -5.134285      -30.43307
       30.52094       218.2056       163.4732      -88.51465       41.67537
       60.75194       57.61282       49.87793      -26.02603      -114.5138
       1.506714       229.8428       56.31728       3.439957       44.39314
       11.03085      -9.541077       184.6758       272.8150       38.44632
       137.8734      -33.56917      -134.5320       30.86268      -46.37811
       118.0526       42.11127       108.3560       303.0702       57.74719
      -88.38785      -192.4646      -71.28473       51.50900       32.06380
       74.44787       37.43481      -77.63290      -118.8278       123.4129
       43.54791      -77.68665       199.4227       88.67709      -96.12003
      -99.54010       76.22174       332.8346      -59.73535      -72.67412
       160.5868      -94.37549      -159.6653      -9.995880       186.1261
       84.91811       28.31979       199.7943       74.97455      -108.6225
     -0.4929199       190.2007       142.5638      -61.60559      -10.49835
      -188.5597      -56.71181       94.84766      -92.15958       76.02655
       76.63271      -27.43626      -80.19432       76.74978       30.34035
       10.58276       189.5421      -130.5266      -96.03662       164.4355
       130.9715       180.7966       164.9709      -13.72569      -61.01057
       6.902328       58.88345      -11.57050       95.87347       254.0466
      -108.5002      -207.6704       111.5679       207.2237       90.85272
       71.38269       285.2293       200.5456      -34.50522      -129.6689
      -71.29553       167.8492       252.0598       189.3793       339.1552
       350.9436       406.3265       656.1962       55.99756      -977.7832
      -1673.496      -2087.237      -1353.071      -74.81942       237.4236
      -495.6729      -1102.636      -1029.691      -1494.177      -650.9302
       1114.906       2587.627       3474.169       2155.189       515.1030
      -948.1550      -1414.146       486.0525       1156.751       134.5123
      -268.5240      -371.7241      -460.4453      -970.6108       721.6719
       2337.638       496.2666      -1394.016      -1749.218      -1596.590
       30.65088      -799.3379      -2454.395      -1036.735       2139.997
       2656.933      -1215.108       145.8176       582.5398      -1340.571
      -958.6074      -1534.495       1217.039       814.6716      -265.6789
       1252.192      -1747.123      -1791.006       589.5925      -331.9004
      -1143.143       773.2393       1875.761       436.0294      -639.6890
      -359.3086      -1573.704      -1689.665      -352.8733       229.5767
       1493.769       1916.728       1283.462      -566.5352      -2121.354
      -1613.122       261.2346      -467.9792      -756.4224       635.3530
       854.2077       447.9561      -773.5547      -2039.534      -2066.435
      -403.1621       1700.365       1781.938      -270.6853       125.2295
       1191.125       59.80884      -1238.132      -688.9908       643.8223
      -1301.520      -2542.836      -831.2188       1248.360       1752.167
       377.7413      -99.95331      -569.5159       201.8093       1037.374
      -252.4104      -1126.734      -696.4632      -160.4778       162.0303
       1116.517       686.1748      -1026.578      -679.8899       528.0474
       851.8198       832.8530      -102.3857      -190.6226      -894.6505
      -949.8330       890.9883       754.0344       968.1099       926.3944
      -288.0214      -108.9689       787.7488       221.4231      -1032.927
      -154.9395       669.7493      -126.2271      -442.6594       253.7197
       1362.034       1423.932       1189.131       987.7616      -172.8895
      -917.4431      -138.0438       342.6307       80.04047       277.1934
       266.9864       558.2543      -216.8440       562.3630       1192.046
      -232.2937       476.0305       630.9587       385.3925       345.5768
      -430.6904      -62.09863       538.3868       332.0771       288.7854
       28.30664       704.7998       1456.006       1039.911       176.5302
       124.4691       171.9301      -436.5149       394.9713       730.1199
       421.8919       456.9339      -9.144165      -303.2543      -235.1606
       262.8408       504.0425       607.5771       964.6613       677.6231
       343.3820      -175.4697      -941.2720      -1325.037      -423.2996
       290.7625      -239.7625       608.5731       883.5994      -102.9736
      -430.9070      -136.5948       199.7050       143.6748       372.3948
       334.4155      -435.2792      -389.1995      -321.3377      -485.5763
       225.9180       439.2647       71.50891      -474.5131      -268.3561
       27.48730       456.2173       946.4050      -640.7268      -1448.825
      -809.2515      -648.2156      -626.5564       159.7892       716.7508
      -39.90613       268.4965      -311.8083      -1319.643      -1126.447
      -904.9562      -504.8809      -671.0359      -297.8425      -478.9485
      -454.9100     -0.4216309      -113.2280      -284.8334      -476.5019
       115.8117       117.6798      -73.66589      -240.2122      -858.3958
      -524.3036      -186.3445      -280.1899      -708.4839      -985.5856
      -588.1018      -379.5344       267.1354      -272.4004      -681.1600
      -111.8423      -698.9607      -531.5835      -379.5911      -716.4409
      -961.2124      -661.3890      -64.69702      -669.3743      -1025.510
      -404.9341      -8.216702       45.35406      -63.86725      -92.11487
      -330.4073      -507.3611      -61.69116      -239.7771      -668.2369
      -752.6880      -251.0838      -42.63904      -289.4290      -378.1127
      -776.6530       72.18909       147.2451      -1037.972      -757.4869
      -434.7230      -384.7130     -0.5976562       502.6685       973.9016
       735.2468       271.9442      -142.1509      -425.5090      -480.4192
      -258.5263       59.51928       7.077438      -54.41879      -127.6486
       48.71347       102.9681      -34.82306       204.9993       379.0472
       140.5716      -105.5124      -41.34985       311.9769       314.6763
       327.9972       667.9478       190.7153       622.4911       356.4111
      -1.279053       653.2263       101.3005       300.0061       641.6207
       529.6317       459.4687       73.44946       325.3433       851.0366
       853.8833       409.4138       485.2203       464.0919       228.4141
       719.1643       699.6240       458.4895       578.2717       390.6130
       457.8082       394.0938       56.23743       252.5875       449.4818
       272.9307       438.3484       792.3401       767.6752       288.9619
       23.30469       283.3333       858.8701       759.6130       326.6741
       655.2146       735.3577       576.0801       580.4078       505.3057
       399.2419       527.9548       794.0325       598.2103       276.8907
       447.2908       425.6256       250.2327       562.3551       622.1133
       743.1313       862.8456       637.2391       287.3560       308.0725
       357.5836       265.7125       591.7256       367.9165       537.5436
       199.7326      -394.7787       509.1221       551.9966       617.7477
       572.3813       39.50696       184.0027       214.2832       527.7543
       547.6825       229.4435       269.5299       156.6272      -54.67596
       21.02936      -209.7422       44.77328       312.0387      -274.3657
