     0.02500000      -4985.460       4454.924      -12345.00      -12345.00
      -29.99004       222.0349      -23.39000      -12345.00      -12345.00
       0.000000       16.59000      -12345.00      -12345.00      -12345.00
      -12345.00      -12345.00      -12345.00      -12345.00      -12345.00
      -12345.00      -12345.00      -12345.00      -12345.00      -12345.00
      -12345.00      -12345.00      -12345.00      -12345.00      -12345.00
      -12345.00      -32.27420      -67.18850       649.0000       0.000000
      -31.37200      -68.11800       0.000000       97800.00       0.000000
      -12345.00      -12345.00      -12345.00      -12345.00      -12345.00
      -12345.00      -12345.00      -12345.00      -12345.00      -12345.00
       133.2347       138.9065       318.4187       1.197970      -12345.00
      -12345.00      0.5620139       0.000000       90.00000      -12345.00
      -12345.00      -12345.00      -12345.00      -12345.00      -12345.00
      -12345.00      -12345.00      -12345.00      -12345.00      -12345.00
      2008       244         6        45        28
       790         6    -12345    -12345     10082
    -12345    -12345    -12345    -12345    -12345
         1         7        13    -12345    -12345
    -12345    -12345    -12345    -12345    -12345
    -12345    -12345    -12345    -12345    -12345
    -12345    -12345    -12345    -12345    -12345
         1         1         1         1         1
CATA    -12345          
        -12345  -12345  
-12345  -12345  -12345  
-12345  -12345  -12345  
-12345  -12345  -12345  
-12345  -12345  -12345  
-12345  -12345  BHN     
ZL      -12345  -12345  
[...]
      -66.63956      -57.09613      -92.78641      -108.0757      -101.9997
      -104.8775      -107.5038      -119.9493      -129.0874      -81.68445
      -90.63815      -113.4935      -102.9772      -78.22800      -60.57483
      -63.94830      -92.87885      -91.25183      -93.87900      -77.91711
      -94.64166      -124.6063      -116.6874      -97.07587      -82.02109
      -68.95898      -97.19119      -104.0954      -87.04590      -101.6976
      -122.7259      -116.8981      -159.6132      -154.7001      -109.8158
      -145.9353      -188.0350      -178.8204      -201.2982      -174.5389
      -192.1028      -249.4777      -213.9988      -203.5701      -248.1307
      -221.6106      -249.0322      -261.8997      -228.1278      -250.5337
      -252.4215      -254.5598      -285.2110      -249.8624      -261.9520
      -303.6851      -296.8982      -306.8074      -310.7394      -272.0393
      -318.7904      -327.4625      -295.0656      -296.0763      -302.0056
      -300.8728      -316.6793      -292.8712      -303.6030      -316.5474
      -289.9783      -311.6049      -330.6549      -285.2377      -316.4800
      -322.6921      -327.4606      -321.7283      -311.1173      -301.8578
      -328.6382      -354.3916      -358.7307      -343.3843      -314.7061
      -325.9384      -344.5217      -315.9492      -322.3861      -320.6571
      -321.8602      -318.5323      -331.7382      -318.7175      -349.5205
      -367.4241      -327.5021      -333.9978      -332.6740      -329.6846
      -324.6103      -280.9252      -341.0266      -322.0500      -303.7390
      -329.5469      -293.2548      -319.7722      -316.1624      -259.9882
      -301.5641      -281.6611      -278.5314      -309.4266      -245.3612
      -262.3194      -312.2756      -262.7893      -301.4148      -283.6874
      -204.6737      -243.0683      -244.6627      -209.0197      -201.8489
      -173.2923      -200.3923      -198.0590      -154.7354      -147.7849
      -130.4469      -79.38690      -95.71286      -77.55318      -55.53552
      -54.76205      -34.95056      -42.23253      -35.43071       4.163380
       14.79564       8.903915       28.38354       55.98378       65.02716
       81.31989       69.80650       71.11249       42.13290       45.63403
       64.77075       102.3951       173.9708       304.0610       383.6240
       329.6893       214.0431       263.9936       352.3508       216.6740
       3.620037      -44.73245       62.55658       132.4817       95.28906
       333.5664       666.8462       766.6208       654.4905       454.5444
       343.6654       372.9451       350.0647       183.8609       87.41052
       196.1873       245.8563       214.0199       258.4585       341.5081
       400.7031       545.7148       705.4133       679.4512       476.8505
       424.4912       561.7556       437.7068       205.7675       195.5354
       118.6061       102.6029       162.6271       83.14673       168.6670
       514.7292       666.1663       527.7642       416.1191       327.6135
       165.4639       103.3957       173.3940       280.9454       176.5833
       53.85730       218.0784       325.3909       184.8384       103.9270
       253.4865       526.4857       482.7962       111.3190      -26.89539
       131.0823       149.3233      -22.31146      -198.9541      -191.9089
      -8.382324      -11.04681      -197.8268      -125.6959       146.4787
       190.3961       15.08115       3.005798       129.5856       70.60095
      -167.3872      -201.0160      -62.36920      -116.1725      -142.7271
      -33.19723      -22.29235       15.63367      -37.71082      -189.8826
      -50.41138       92.20532       63.16620       62.18323       38.57892
       9.067659       12.09714      -38.75226      -57.59272       19.03966
       1.147163      -43.18044       11.95903     -0.9312134       67.00705
       156.2138       45.46582      -20.13928       171.1009       310.6656
       210.9245      -15.37981      -34.88092       123.9574       75.40763
      -20.90060       63.74722       106.7639       104.5439       58.83218
      -61.63320      -44.13229       134.8237       88.36963      -42.23265
       21.95868       3.645432      -106.0023      -11.64227       180.3560
       206.4407       113.8336       102.2859       89.87006       26.34082
       114.2029       201.1795       127.9948       171.7950       256.4500
       168.3280       110.0692       249.7151       369.0356       351.1497
       382.5983       415.6421       373.3188       391.9337       448.9907
       448.0668       483.7917       536.4968       466.3088       425.8535
       458.8721       506.5380       517.9978       414.2072       469.4453
       678.2861       636.2948       448.6243       389.7504       404.0305
       467.5825       624.8190       662.1455       568.1143       546.9104
       543.2930       493.7554       455.4980       502.6208       533.9440
       415.5419       412.1951       461.8370       411.1489       439.2395
       462.8710       460.4541       489.7988       500.2825       428.2588
       329.6128       360.2976       379.1983       268.2304       193.9195
       247.1393       323.9814       273.3411       204.4134       240.0194
       323.2750       272.1182       181.9343       157.7288       93.85349
       108.2323       122.7462       41.91302       97.92303       184.7715
       145.7385       75.10292       61.73376       129.2098       143.0346
       60.17365       105.1012       115.1415       34.68314       51.12775
      -1.842514       14.27692       119.6496       48.13715       35.07918
       83.23506       14.56644      -69.96991      -141.4506      -122.1356
      -70.15242      -47.81973      -36.94223      -106.5321      -62.07239
       85.54556       88.39195       73.86768       33.95105      -107.8433
      -272.2847      -345.6293      -209.7041      -93.63919      -142.8948
      -146.7314      -135.5313      -228.3079      -247.4591      -219.4326
      -303.3087      -291.8400      -113.4252      -122.9483      -234.2961
      -240.5278      -320.9248      -500.8180      -524.1774      -336.5776
      -199.9110      -279.8079      -271.9131      -158.8457      -333.2560
      -535.7776      -381.4192      -177.8813      -127.3657      -163.2262
      -230.1763      -387.1038      -549.3767      -530.0720      -431.5181
      -385.8894      -359.4741      -456.1194      -593.4636      -478.7897
      -339.0419      -440.9078      -393.6762      -243.8760      -315.7964
      -429.5559      -412.0500      -353.4009      -386.3481      -369.4434
      -224.8825      -168.2345      -303.3646      -582.3849      -614.9463
      -406.7023      -420.8510      -512.0546      -340.7010      -47.99902
      -45.27063      -255.4370      -339.9109      -400.8279      -442.6176
      -294.2744      -179.7695      -229.2572      -173.5704      -39.49564
       56.60478       57.31995      -85.54681      -193.4047      -297.5032
      -443.2277      -345.4979      -55.06207       190.8426       209.7373
      -32.96375      -152.6653      -25.49344      -48.31032      -123.1188
       47.42047       219.0208       249.9602       199.0590       77.05559
      -77.63139      -53.55511       147.6807       231.2584       238.1733
       200.1526       9.424072      -85.36632       35.40424       134.8004
       125.2328       286.9790       449.6263       211.1234      -16.10876
       41.84105      -15.73486      -45.77917       228.7919       413.1687
       330.2838       153.4643      -40.19409      -26.88782       219.8630
       314.1439       227.2588       158.5185       103.9543      -10.82867
      -183.1708      -204.6193       60.31134       297.6359       252.2777
       90.18768       198.5405       241.0539      -124.4640      -235.8445
       118.7837       263.7613       83.86417       9.607712       32.83546
      -18.33319       37.00806       83.37415       68.36340       182.4740
       242.9232       131.4462       103.5770       168.5766       126.2410
      -17.26874      -67.35804      -33.21901       7.631958       21.55927
       37.15610       129.4221       195.3174       161.1027       218.2432
       316.6153       213.7608      -37.83640      -95.21307       50.11400
       69.75552       42.15363       187.4476       167.4325       11.22333
       41.08112       123.3872       64.75954      -61.95854      -88.69534
       59.24899       157.8934       92.90852       18.11362      -84.61951
      -202.8644      -115.4802       22.79420      -4.542519      -23.46909
      -12.44379      -180.0432      -208.2787      -43.75171      -133.2771
      -280.1615      -60.91479       91.42310      -160.8590      -325.6823
      -266.9483      -211.9897      -67.45013      -47.20032      -240.0984
      -439.3083      -510.5845      -434.1700      -212.7607       48.02475
      -8.013550      -260.5526      -257.7090      -267.9719      -455.1016
      -510.8842      -440.5986      -488.5812      -598.6000      -441.7509
      -81.72520       10.38336      -210.8937      -562.6588      -651.3263
      -465.1425      -383.4904      -408.9883      -408.7427      -515.4775
      -633.2766      -590.9097      -424.7496      -202.1061      -62.26404
      -64.13867      -208.1299      -521.9244      -569.8369      -305.6982
      -274.5580      -432.3040      -386.5311      -360.4182      -431.3132
      -448.8683      -336.7913      -103.8213      -67.20471      -254.8828
      -202.7240      -38.49585      -159.4480      -377.2229      -347.9750
      -204.6918      -101.9918      -82.88611      -216.1538      -406.6043
      -298.8593      -19.95349       19.11932      -128.6319      -89.22180
      -92.24573      -368.5603      -322.4639      -1.982407       15.94971
      -193.4961      -413.2109      -346.5062      -201.4637      -202.8326
      -134.6586       14.86267      -25.43134      -131.4117      -142.0558
      -182.5547      -243.4098      -214.1910      -163.3832      -214.1177
      -314.0811      -145.3046       12.63739      -120.0510      -175.4117
      -94.99982      -230.6110      -338.2677      -150.9758      0.2116089
      -60.71265      -194.7418      -247.8410      -120.8447      -84.68677
      -199.4964      -302.9924      -254.4597      -69.95505       19.45367
      -59.63513      -163.1183      -194.1996      -162.7953      -152.4288
      -123.3305      -60.65874       35.01878      -16.46167      -215.0753
      -266.9380      -131.0704      -136.2512      -190.1041      -127.6028
      -38.18695      -82.05951      -134.4860      -20.72339      -49.86169
      -223.9330      -149.9975      -105.2655      -259.8975      -227.1410
      -21.04044      -45.17712      -120.0649      -137.1029      -123.9277
      -32.08801       95.33386       192.8771       230.7969       16.00302
      -189.9712      -38.76318       133.4908       7.914398      -149.1705
      -98.08740       95.66226       122.5245      -2.303875      -26.68439
       75.47809       87.28223      -55.33252      -276.3288      -187.3038
       140.1038       89.83350      -238.8470      -225.7720       15.15886
       1.392944      -223.4478      -229.0204       37.51105       173.5673
      -44.54468      -243.4928      -117.4699       33.44659      -139.7939
      -250.2554      -65.30215      -26.53955      -177.7775      -166.1490
      -24.88501      -86.27832      -337.4000      -431.4089      -371.0547
      -167.5165       91.39389       115.2381       45.68266       78.17764
      -50.62585      -223.0789      -326.1489      -374.1110      -225.3912
      -4.836975       68.66425       84.18221      -16.17114      -164.1909
      -247.4062      -263.1649      -221.2588      -98.66351       81.49280
       221.2824       202.8130       6.703369      -217.6163      -194.2395
      -104.4703      -83.02380       42.75253       173.9556       31.76502
      -56.63974       49.68556       97.49225      -38.15015      -158.4534
       74.86890       408.6956       341.8267       203.3494       162.6375
       24.79037      -110.2041      -33.52563       167.7577       333.5968
       308.8181       257.2917       314.6320       399.7268       463.0532
       643.1089       876.2600       1099.585       1024.064       318.0630
      -445.6016      -700.4683      -504.8246       280.2856       987.7266
       1057.321       1119.433       1376.881       1615.910       1518.765
       858.1398       110.2999      -110.7132      -26.49420      -234.6570
      -181.9253       633.9170       1601.426       2292.123       2506.573
       1897.156       689.2930      -299.1256      -615.6630      -134.5000
       839.0105       1349.950       740.4893      -932.0547      -3014.199
      -4626.289      -4985.460      -3774.187      -1726.677       42.68945
       997.3008       1306.464       1750.985       2427.818       2616.349
       2432.097       2657.174       3454.078       4240.579       4454.924
       3832.283       2538.275       1266.678       243.5560      -305.9353
       384.6592       1324.782       547.2158      -1108.547      -1628.268
      -885.1121       526.5791       2340.250       3909.994       4052.817
       2611.973       786.9946      -528.0144      -868.4607      -393.8741
       99.98877       517.0684       1018.585       1017.572      -49.39746
      -1122.033      -722.9897       593.3259       1374.850       1293.024
       663.7421       160.6016       463.9868       1293.352       1842.285
       1098.859      -905.6582      -2422.470      -2591.513      -2133.762
      -1594.306      -827.7998       421.0405       1634.224       1720.791
       573.7432      -785.1392      -1294.546      -651.5532       637.1562
       1963.810       2793.657       2727.341       1823.752       830.1934
       373.8696       67.75488      -768.0576      -1602.161      -1189.114
      -254.6069       96.29834       647.0520       1299.515       1022.864
       268.4487      -264.2952      -426.9331     -0.9628906       689.8872
       919.8645       359.0151      -532.7490      -1143.949      -1402.902
      -1324.751      -998.0317      -605.7513      -218.5441      -46.22937
      -360.9941      -688.8069      -282.4906       530.2047       686.6451
       6.978394      -516.0737      -582.6500      -660.1678      -387.5415
       355.6417       610.8221      -176.4941      -1142.282      -1507.751
      -1658.244      -1362.651      -344.9030       329.9678       297.6625
       69.61621      -300.7131      -588.7770      -470.6062       55.41748
       732.6025       828.0635       249.1099      -341.1001      -996.0483
      -1575.824      -1488.272      -654.6204       365.7209       885.3647
       905.8066       673.7593       489.5762       692.5476       956.2467
       771.9202       96.29102      -574.3057      -813.4658      -719.3016
      -527.7312      -463.4622      -398.7826      -154.1075       207.5389
       460.0121       185.6141      -244.4535      -314.9583      -368.2637
      -592.7896      -682.3590      -561.4788      -767.5923      -1340.140
      -1244.957      -383.8289       362.8616       525.3945      -29.72217
      -841.4443      -1291.175      -1221.526      -827.1797      -315.7501
       174.9762       318.0417       114.3841      -19.13708      -101.7690
      -400.7349      -828.8501      -970.9133      -508.5050       79.05011
       150.1710      -77.55432      -403.4216      -614.5857      -281.5120
       425.1620       736.4803       298.6963      -423.5740      -704.3385
      -551.1224      -162.7482       306.0905       365.4883       54.76929
      -294.5068      -654.1353      -795.3813      -461.6592      -28.16382
      -151.2100      -297.8904       67.06799       257.4257       3.336182
      -286.8094      -407.4522      -279.0653       74.03564       416.5893
       310.5480      -261.9048      -618.3601      -541.0558      -586.9647
      -520.0966      -153.6868      -261.2537      -491.4255      -245.6916
      -8.359558       120.8623       371.9211       659.7988       652.2947
       98.47681      -458.4448      -297.2742       272.6858       506.3137
       191.4216      -380.3350      -683.6411      -700.1116      -665.6518
      -146.7305       507.7090       386.8423       115.0887       296.6198
       349.1661       96.16907      -123.5379      -37.54834       104.1758
       14.27921      -5.808716       166.7711       372.6965       347.4645
       104.1914       60.28784      -53.46399      -231.1508       21.78709
       154.3637      -131.1255      -188.3712      -71.93102      -17.59575
      -28.15958      -137.9387       16.60486       538.0654       952.2939
       1136.218       1128.793       950.4305       465.9868      -425.3496
      -1005.297      -906.0671      -794.2400      -726.3069      -396.6395
       14.18335       395.5955       697.8257       760.3864       592.4971
       450.6046       286.8799      -65.99988      -386.2725      -559.6024
      -628.8883      -512.9363      -119.9548       302.8974       257.5715
      -115.2953      -247.8561      -191.2935      -472.9331      -935.6650
      -956.9275      -720.4644      -576.4663      -361.0433      -87.74261
      -21.27356      -208.9913      -419.5625      -385.3917      -198.5097
      -24.89633       185.6724       114.4780      -321.6067      -597.9775
      -604.6450      -568.2296      -519.2918      -334.0931      -177.2078
      -312.5555      -494.3395      -452.9033      -242.1447      -19.07831
       88.87567       145.7642       250.7221       173.1551      -2.785645
      -177.1161      -405.8066      -608.4971      -885.3223      -1119.691
      -1230.020      -1323.559      -1227.021      -853.7855      -387.3249
      -127.2508      -71.15137       32.29028       441.9280       672.9207
       213.8126      -320.6970      -456.4417      -456.6851      -343.3621
      -210.4763      -210.5547      -321.1299      -552.4570      -478.9336
      -15.25414       55.96411      -259.6923      -416.7443      -378.7709
      -354.9611      -168.7067       228.7787       392.1197       233.2664
      -111.3219      -367.5736      -112.7523       398.8311       667.0344
       581.9117       270.0627      -31.22498      -133.7591      -113.0978
