     0.02500000      -1968.083       3212.033      -12345.00      -12345.00
      -29.99004       222.0349      -23.39000      -12345.00      -12345.00
       0.000000       16.59000      -12345.00      -12345.00      -12345.00
      -12345.00      -12345.00      -12345.00      -12345.00      -12345.00
      -12345.00      -12345.00      -12345.00      -12345.00      -12345.00
      -12345.00      -12345.00      -12345.00      -12345.00      -12345.00
      -12345.00      -32.27420      -67.18850       649.0000       0.000000
      -31.37200      -68.11800       0.000000       97800.00       0.000000
      -12345.00      -12345.00      -12345.00      -12345.00      -12345.00
      -12345.00      -12345.00      -12345.00      -12345.00      -12345.00
       133.2347       138.9065       318.4187       1.197970      -12345.00
      -12345.00     -0.1053453       0.000000       0.000000      -12345.00
      -12345.00      -12345.00      -12345.00      -12345.00      -12345.00
      -12345.00      -12345.00      -12345.00      -12345.00      -12345.00
      2008       244         6        45        28
       790         6    -12345    -12345     10082
    -12345    -12345    -12345    -12345    -12345
         1         7        13    -12345    -12345
    -12345    -12345    -12345    -12345    -12345
    -12345    -12345    -12345    -12345    -12345
    -12345    -12345    -12345    -12345    -12345
         1         1         1         1         1
CATA    -12345          
        -12345  -12345  
-12345  -12345  -12345  
-12345  -12345  -12345  
-12345  -12345  -12345  
-12345  -12345  -12345  
-12345  -12345  BHZ     
ZL      -12345  -12345  
[...]
      -187.1634      -159.7491      -182.4487      -210.8419      -189.5880
      -182.0826      -192.1948      -182.1198      -188.2761      -184.2084
      -182.9382      -179.9879      -166.0721      -167.7430      -177.7394
      -176.6096      -171.5101      -143.8974      -146.2422      -157.9222
      -138.9105      -135.0611      -148.8277      -130.1909      -112.1482
      -109.1237      -119.5130      -116.9260      -109.9810      -81.56506
      -80.26645      -96.94034      -87.30029      -46.38589      -23.69467
      -39.10707      -60.06138      -41.49635      -25.06573      -6.134575
      -15.81764      -50.01574      -29.59663       9.425842       14.77998
       22.74705       2.568905       2.165985       30.32417       46.09770
       47.60177       33.05672       25.55537       50.65312       61.46057
       51.99207       52.47937       71.51324       58.20728       84.28815
       106.5932       75.27753       82.44290       107.2745       94.27173
       94.06561       85.49719       99.95483       111.7442       105.0865
       119.5182       130.0788       101.0693       124.5566       155.9616
       122.0854       125.9458       155.5248       150.6175       136.0686
       116.3804       141.2318       141.8620       126.0556       148.5519
       156.7692       143.1649       168.9716       161.5959       140.8065
       159.5735       180.0377       158.1762       156.2060       172.9592
       173.0330       152.9922       157.8231       171.3114       147.1354
       126.7609       144.7140       138.8853       137.5757       145.5549
       134.2710       135.4795       144.8826       134.0310       110.2003
       102.0350       110.7559       103.4322       75.23627       83.13806
       112.0629       83.30266       61.62854       106.7444       101.4650
       53.47473       60.02065       66.89941       47.92271       66.95694
       85.95889       70.16792       45.53987       54.80798       108.6183
       77.81541       42.00365       92.53419       60.94244       56.63577
       107.3014       57.72734       63.33424       79.75447       50.03619
       75.83600       57.28925       77.61832       84.70364       30.71936
       89.99475       103.9561       44.39636       92.83267       87.94792
       54.81738       73.95676       52.05939       45.61301       54.71454
       42.94035       49.13367       20.30524       10.47893       42.33045
       17.88934      -18.21844       2.528372      -4.991928      -4.869991
      0.3104782      -23.30297      -11.66045      -22.38502      -45.25589
      -30.96979      -42.71254      -52.27414      -41.37994      -72.27600
      -64.35102     0.08062744       117.9518       264.7043       365.1819
       417.6699       313.5129      -210.0327      -893.3135      -822.8309
      -321.4307      -609.2261      -941.3946      -483.8235       119.4246
       456.7725       440.8373       339.3027       328.9679       124.2690
      -287.3955      -537.6766      -622.2463      -592.9976      -362.5073
      -371.7328      -387.5567      -57.36922       64.09430       12.37045
       89.48401      -155.6041      -520.5795      -33.55603       199.5005
      -407.9175      -500.1624      -442.9178      -533.0580      -163.6186
       13.22809      -236.8089      -268.5889      -158.2347      -144.9095
      -120.4521      -346.9033      -512.1561      -364.8215      -363.4691
      -527.0638      -492.8102      -320.0871      -256.3074      -61.87444
       234.7555      -236.3623      -900.8779      -250.0672       345.7363
      -420.1006      -714.3893      -174.0151       18.42319      -13.15088
      -186.1984      -434.7833      -381.6282      -247.5234      -375.3038
      -575.3267      -499.8779      -88.55817       272.1688      -113.6082
      -390.0886       259.8523       202.8256      -550.5068      -199.0172
       191.2291      -173.0264      -316.9663      -507.4648      -323.1283
       222.6990      -116.0087      -248.0751       179.7768       37.65033
      -161.5576      -156.2399      -54.21751       105.0624      -125.2997
      -246.5353      -16.42580       53.40417       77.63220       138.1720
       1.146698      -131.2116      -32.26608      -10.67377      -124.9123
      -60.17136       99.90125       201.0148       79.15125      -143.7289
       117.1923       373.7346       42.25830      -200.7966      -71.38037
       222.7969       345.2894       199.7776       33.00073       26.82025
       233.3317       264.7811      -12.97983       35.83655       271.8668
       49.22861      -26.10449       336.0546       318.0975       80.23987
       262.4613       412.9131       242.7841       222.3716       225.3707
       91.10956      -62.00525       40.95990       290.8942       171.6802
       98.72791       261.2789       149.8971       104.6035       300.7988
       324.3413       167.7868       241.3644       336.3707       246.6231
       156.4790       103.7488       38.49939       172.5479       469.8721
       292.1868      -14.32922       248.7899       414.1968       291.1992
       160.2008       80.53546       240.3491       308.6513       158.7998
       281.9162       218.6667       72.10742       363.2382       343.8594
       41.43652       200.0773       309.6157       89.28064       185.6866
       360.7009       223.0666       34.01662      -50.86780       121.9396
       198.3989       253.7610       351.7281       150.2466       127.0696
       373.5463       120.5392      -166.1454       130.3657       314.6698
       143.1382       6.225891       72.76306       179.1826       83.68936
       53.11621       223.2996       330.9774       264.9137       44.57541
      -31.90857       156.6584       143.0253       235.5558       232.7941
      -149.5134       51.66931       189.0749      -165.1673       70.17923
       224.6921       46.05499       168.3645       119.2131       62.20123
       273.3083       77.85809      -68.02505       127.7840       89.55121
       69.74350       176.3756       91.32373      -109.8216      -207.5755
      -89.61603       130.7792       383.1719       298.6132       123.4354
       42.05371      -156.4485       4.846863       271.2574      -12.86285
     -0.7204590       254.5141       63.58575       126.0724       252.2239
      -97.64365      -170.4728       28.74835       113.3755       213.6776
       245.0460       114.1395      -237.7552      -302.1292       281.6419
       287.9592      -282.6750      -50.92642       281.7212      -234.3349
      -285.0791       229.9635       118.2255      -22.77914       143.2072
       169.7361       27.99280      -291.3689      -86.09497       439.9301
       348.3081       149.6306       111.9512      -372.9415      -449.9888
       156.1807       240.8001       70.87018       199.1359      -136.4637
      -471.3330       48.41522       333.2859      -72.21277      -19.13414
       112.0237      -57.39624       219.6237       347.9079       43.88266
      -62.22437      -163.3517      -299.2771       162.6830       362.7295
      -763.2122      -812.8132       587.7516       463.1145      -197.5230
       188.5603       54.83893      -320.8353      -231.9082      -418.3697
      -335.5840      -68.32440       63.56848       632.4749       269.6874
      -691.0068      -221.2939       314.1483       87.29457       97.67883
      -268.3019      -620.9348      -307.7380      -371.2251      -248.9111
       529.4214       332.7966      -400.7293      -263.8123       19.14001
      -216.8593      -333.6654      -285.0311      -243.4703       82.06953
       193.9646      -192.1248      -530.6398      -510.6654      -157.1282
       103.6065       53.38953      -225.6372      -539.8538      -491.4122
      -288.5023      -340.9032      -229.5385       105.1385       147.4529
      -287.5563      -692.0577      -325.8517       103.7436      -209.2087
      -258.3508       48.46283      -113.9723      -505.5707      -492.9988
      -279.8564      -285.5042      -243.0260      -79.55029      -88.57440
      -163.1088      -125.7314      -413.9484      -615.5965      -87.00179
       155.7655      -178.0358      -294.2706      -71.67651       1.612183
      -391.6218      -420.6231       57.86365      -56.36340      -349.3747
       55.44537       185.0249      -283.1277      -329.0183      -320.7317
      -342.3259       193.1661       309.7676      -230.6743      -284.1551
       107.2444       121.7346      -281.0168      -500.9440      -294.1562
      -50.23291       199.5225       309.3159       118.3411      -154.5579
      -427.3648      -203.8784       337.4125       356.7461       48.93028
      -19.20007      -31.61499      -191.3090      -149.6602       91.69640
       75.96655      -156.9392      -58.51672       231.9440       221.0243
       7.501373      -117.6814      -82.51898      -43.95801       103.8967
       129.2136      -198.3522      -282.9254       102.6552       302.8816
       184.2896       326.3295       261.4622      -262.2878      -90.30194
       331.2540      -75.79083      -420.2393       33.71729       490.6628
       95.59042      -258.7186       34.07091      -15.07117      -38.84369
       172.1889       36.10324       131.0364       196.9919      -118.1790
       89.59351       420.7186      -22.83319      -375.2570      -54.43445
       49.36302      -71.78127      -23.98552      -82.20793      -37.00494
       86.12183       213.1045       665.6654       675.7782      -116.3396
      -597.5491      -345.4800       125.5685       264.7267       195.4907
       349.2848       239.2340      -176.5505       28.10217       522.1140
       415.4989       265.1161       437.7999       180.1770      -466.3071
      -444.8269       322.9175       709.9163       76.16016      -94.25049
       571.9436       247.1507      -265.2335       186.6880       529.2712
       608.8759       213.9268      -229.9975       94.84635       33.60486
      -73.77319       602.2794       562.6420       160.2654       332.8201
       60.59140      -246.6272       330.9640       631.0855       333.1259
       171.8705       73.95295      -12.37560      -70.79541       81.59619
       557.4445       622.8093       177.0728      -57.16248       91.58130
       369.5047       371.8287       173.2195       25.22876      -332.9822
      -355.3954       321.0789       547.8120       146.8181       172.4691
       210.2776       13.49500       141.4756       335.1595       206.0721
      -95.94980       20.83899       388.2008       7.191772      -450.4620
       106.5183       644.4346       362.7016      -73.17633      -211.1225
      0.6201172       292.3320       272.3358      -131.0112      -482.0126
      -182.8431       331.1224       237.5043       69.15210       298.8317
       197.6646      -104.5447       121.6656       237.7615      -162.0683
      -340.2103      -284.4811      -224.9780       165.7511       170.1227
      -101.3035       281.4044       138.4634      -440.3348       152.5341
       546.8138      -189.1481      -407.2157      -96.16785      -333.3110
      -421.2322      -174.5298       82.31790       265.4325      -79.13831
      -341.7668      -209.3326      -341.8792      -300.6485      -26.14502
      -263.3950      -662.1216      -674.3461      -205.0859       203.7499
      -93.28839      -333.8265      -104.9994      -11.48038      -108.8002
      -89.92041      -343.2830      -511.2407       171.3765       124.0588
      -998.6125      -932.6125      -34.89368      -100.6185      -506.2574
      -258.2290       174.1854       245.9301      -286.6613      -660.6694
      -251.4410      -159.1760      -641.2098      -745.8435      -293.4953
       227.6263       124.4763      -260.1036      -211.5554      -333.5782
      -484.1071      -389.8007      -412.5421      -74.66217      -114.9808
      -521.7623      -62.19348      -29.25269      -558.5178      -239.4434
      -360.4072      -624.9833       234.8928       419.8226      -77.05713
      -40.65527      -280.2795      -691.2883      -459.8036       3.796219
       69.07872      -16.26915       21.31204       76.07979       53.19336
      -215.4837      -358.7112      -32.15938       104.1331      -158.2772
      -125.4984       139.5831      -27.55267      -336.5637      -95.92029
       252.0451       155.4633      -232.2387      -161.8525       554.7238
       534.9067      -346.9911      -279.7567       389.4782      -39.74353
      -450.7559      -24.91858      -254.1544      -631.9121      -50.17894
       134.5927      -140.4978       277.9103       428.8027       548.3452
       1174.557       322.8016      -755.7938      -6.024841       21.19116
      -999.1523      -1395.345      -1968.083      -1467.770       924.2070
       2873.174       3212.033       1588.080      -453.7401      -747.9871
      -158.8598      -24.65088      -792.6580      -1245.018       123.0386
       1940.845       2283.363       1196.024       227.2833      -48.39026
      -356.7036      -1095.935      -1693.995      -1239.073       231.5911
       1247.995       839.5431      -270.7881      -1195.771      -572.9131
       1394.176       2194.360       1824.647       1203.482      -24.64294
      -652.9978      -458.0232      -510.1277       191.1519       585.0309
      -87.97998       614.3184       1391.509       520.4443      -262.9033
      -263.6322      -171.0131      -147.3896       256.3622       512.7153
      -393.4470      -1117.403      -125.4058       1361.696       1255.575
       366.3741       533.1356       684.9622       380.0364       475.8926
       778.1489       573.7686      -432.3362      -1134.345      -822.3638
      -87.56445       441.4294       213.9130      -231.9233      -119.8621
      -154.1354      -350.6805      -397.3221      -349.3411       233.2087
       147.8677      -548.8125      -1.857422       889.5033       584.8976
      -246.0139      -329.5056       2.326782      -81.64746      -587.6406
      -1227.936      -1513.023      -967.9835       153.3882       1140.749
       1580.209       1225.791       894.6294       1073.487       489.3848
      -343.6244      -633.1959      -634.8762      -180.5724      -125.3889
      -622.7690      -612.1873      -350.5520      -747.4075      -1044.102
      -886.9243      -709.4802       482.2588       1301.151       517.3652
       376.8225       711.4290       357.9921      -54.40332      -753.3640
      -1312.135      -1055.777      -883.6689      -956.7179      -665.0602
      -345.1802      -268.5992      -183.3868      -324.4366      -452.9341
      -11.35071       312.2196       436.1030       628.6913       198.7425
      -227.2404       191.3254       600.8215       778.7668       685.1250
      -243.7896      -1220.923      -797.9152       61.87598      -98.64442
      -95.66968       303.6764       188.9336       54.49500      -111.3334
      -181.5119      -184.9850      -507.9977      -289.5409       268.1074
       350.8745       604.4930       888.7312       56.93530      -977.7252
      -400.8524       241.2654      -351.1472      -337.1948       107.1764
      -54.35852       210.2052       482.6216       48.09665      -86.39941
       298.4030       593.0081       666.7417       456.5781       324.1379
       154.6349      -461.5251      -797.7455      -709.0773      -398.3378
       297.6501       476.6973       380.0710       799.6428       1070.024
       734.4219       120.2422      -112.9741       317.5718       687.1055
       532.4518      -143.7129      -596.5492      -179.3682       235.2440
      -19.00940      -282.1974      -114.8337       304.7927       596.6566
       410.0036      -84.21686       45.89795       631.4197       422.2631
      -167.6814      -34.19189       444.7954       705.1995       333.6754
      -358.8342      -132.8953       516.5793       273.5263       37.90918
       505.6118       164.5396      -533.1183      -78.83891       94.09314
      -306.2816       147.3239       656.7493       409.3105       151.2576
      -118.7057      -376.4381      -217.5305      -107.8824      -109.1937
       154.4642       201.0824      -214.1351      -475.8656      -275.8481
      -168.8745       76.81519       769.8745       757.8751      -129.1430
      -406.9814      -99.11023      -299.3949      -257.5208       429.2686
       446.9102      -108.8823      -498.1133      -334.0741       46.81766
      -64.79193      -188.1802      -160.3507      -417.2238      -48.96338
       699.2287       209.6581      -639.8010      -519.8030      -382.5939
      -206.0740       98.27649      -162.9798      -118.8320       276.3109
       67.29626      -274.7654      -359.8769      -87.04436       90.10510
      -335.6704      -296.4720       484.7455       475.7695      -381.8475
      -653.8566      -224.7917      -144.1951      -346.8479      -454.7441
      -749.6760      -956.5404      -508.6172       28.69908       51.19778
      -114.2926       106.0526       247.7353      -212.4629      -540.7192
      -239.9060       40.79382      -62.59326      -300.3855      -425.4094
      -322.4563      -337.4899      -489.6912      -151.4180      -71.36353
      -474.5186      -655.1375      -725.9220      -509.5490      -262.1696
      -406.2690      -373.8135      -196.9107      -35.82544      -65.64282
      -310.2962      -186.0246       66.15369      -209.3158      -322.8456
      -37.61890      -301.0352      -605.4451      -56.56357       232.7488
      -438.3105      -1026.990      -820.8955      -291.8004      -61.60706
      -270.1172      -579.8595      -526.0488      -252.5061      -324.7791
      -465.9182      -238.2708       109.5606      -58.44812      -515.6588
      -458.3520      -167.8540      -127.5723       59.79785       342.2692
       195.2520      -190.4914      -214.8901      -214.6439      -439.7469
      -408.6116       71.52521       393.2897       148.6138      -37.24870
      -18.35577      -124.6908      -63.88576      -41.14700      -42.84311
       151.4311       44.92552      -68.72797       250.3184       360.3837
       311.6289       441.4231       390.1906       326.2462       329.9505
       81.79132       185.6153       388.1006       194.6960       342.6572
       809.5139       797.1384       336.6151      -251.8349      -356.2438
