     0.02500000      -5439.021       3531.251      -12345.00      -12345.00
      -29.99004       222.0349      -23.39000      -12345.00      -12345.00
       0.000000       16.59000      -12345.00      -12345.00      -12345.00
      -12345.00      -12345.00      -12345.00      -12345.00      -12345.00
      -12345.00      -12345.00      -12345.00      -12345.00      -12345.00
      -12345.00      -12345.00      -12345.00      -12345.00      -12345.00
      -12345.00      -32.27420      -67.18850       649.0000       0.000000
      -31.37200      -68.11800       0.000000       97800.00       0.000000
      -12345.00      -12345.00      -12345.00      -12345.00      -12345.00
      -12345.00      -12345.00      -12345.00      -12345.00      -12345.00
       133.2347       138.9065       318.4187       1.197970      -12345.00
      -12345.00     -0.5150432       90.00000       90.00000      -12345.00
      -12345.00      -12345.00      -12345.00      -12345.00      -12345.00
      -12345.00      -12345.00      -12345.00      -12345.00      -12345.00
      2008       244         6        45        28
       790         6    -12345    -12345     10082
    -12345    -12345    -12345    -12345    -12345
         1         7        13    -12345    -12345
    -12345    -12345    -12345    -12345    -12345
    -12345    -12345    -12345    -12345    -12345
    -12345    -12345    -12345    -12345    -12345
         1         1         1         1         1
CATA    -12345          
        -12345  -12345  
-12345  -12345  -12345  
-12345  -12345  -12345  
-12345  -12345  -12345  
-12345  -12345  -12345  
-12345  -12345  BHE     
ZL      -12345  -12345  
[...]
       17.21786      -20.24502      -12.78064      -37.42130      -65.82068
      -83.00565      -109.0492      -106.6269      -123.5245      -170.6066
      -177.6707      -199.8030      -205.6257      -236.0077      -265.1404
      -269.4964      -276.3679      -295.1479      -319.5603      -347.0435
      -370.1162      -377.8738      -356.1909      -408.6185      -436.0685
      -424.7841      -417.9363      -413.8533      -413.2441      -462.7732
      -452.9276      -427.9476      -452.8428      -506.7257      -511.5338
      -488.7815      -462.5410      -510.8048      -525.0291      -485.0861
      -490.3326      -503.6782      -479.1299      -499.2274      -497.4209
      -502.1871      -479.4952      -484.0493      -513.5227      -508.7107
      -490.6201      -504.0371      -504.9114      -514.3469      -511.6873
      -515.8650      -513.3004      -520.2896      -508.9065      -503.6283
      -482.9637      -480.6262      -510.4445      -503.2241      -499.6445
      -521.1310      -523.3562      -523.8900      -505.4810      -506.2021
      -509.3064      -534.5066      -532.2109      -522.2516      -531.4218
      -520.3154      -496.1384      -504.6479      -515.4194      -530.2850
      -511.6221      -518.2897      -554.3506      -544.6515      -535.5415
      -581.6206      -559.1565      -549.9353      -555.9280      -561.9780
      -541.7603      -532.0962      -556.4189      -525.2673      -467.3352
      -512.6111      -507.7808      -448.1349      -438.9440      -452.9230
      -419.9290      -453.5883      -411.2896      -376.5237      -408.9879
      -383.6703      -388.6261      -364.8094      -297.9154      -352.5861
      -320.8734      -322.5135      -335.6059      -267.7551      -286.2053
      -316.9820      -258.6917      -266.1764      -254.5399      -239.2501
      -277.3997      -240.3193      -218.4250      -223.8594      -174.3705
      -213.0583      -204.1721      -158.8573      -165.2406      -163.1333
      -158.7819      -164.6707      -112.9084      -121.7281      -184.0572
      -143.4393      -120.2744      -122.8185      -104.3333      -155.2716
      -137.4882      -124.3708      -132.9696      -89.59723      -66.95013
      -106.4232      -92.74197      -83.04013      -118.5436      -55.35367
       17.56311      -46.71247      -53.10733      -15.23203      -9.563011
       40.68262      -77.76117      -284.2333      -247.9015      -254.9729
      -306.9149      -232.7272      -74.35736       136.6105       279.8636
       290.6254       238.8235       201.3517       147.8373      -73.74866
      -259.2194      -335.1924      -347.2772      -181.5723      -61.47862
      -56.91150       244.9442       415.6143       382.0389       535.9581
       405.5449       112.3803       93.94525       1.647156      -115.7030
      -77.90816       30.08752       117.8809       166.7535       241.4561
       297.6243       372.7629       491.8845       465.7061       372.7679
       295.0503       97.26938       32.55704       188.5897       116.3119
       64.91370       332.3602       309.6106       265.9707       642.2220
       551.3280       275.2029       469.8407       472.1602       180.6388
       103.7465       258.8650       430.7224       534.2816       471.5181
       336.7844       439.3944       533.0201       406.0193       325.2692
       296.4642       341.5667       485.3982       456.2272       537.8545
       825.8621       714.8956       508.9215       474.8429       371.9169
       473.4291       459.0190       319.2295       516.9937       655.8877
       651.2268       762.3125       829.5732       748.2537       621.1763
       582.3500       583.3618       589.9149       554.9352       463.7344
       584.2739       688.3889       612.9591       671.9357       678.1561
       626.7234       706.1516       589.9301       418.7472       437.2108
       467.1692       492.9144       496.9789       448.9526       506.4468
       617.5635       643.0112       602.1516       583.6010       562.6279
       464.3903       294.5583       218.1832       262.4417       274.9048
       191.1982       194.9534       236.9727       194.5127       206.8602
       284.2809       274.7038       182.4380       91.39993       22.10701
       2.294727       10.41460      -30.26935       44.86751       75.77283
      -3.308411      -55.98807      -119.8170      -184.8414      -211.0290
      -214.0894      -161.4028      -122.4772      -82.12781      -80.78064
      -191.5615      -298.8671      -190.2097      -220.5062      -305.7239
      -174.2986      -227.9303      -289.4202      -188.3465      -253.7568
      -246.3951      -229.3816      -244.4296      -238.2048      -393.6805
      -449.2673      -296.6797      -293.6614      -394.9166      -393.2192
      -294.5210      -226.6140      -240.6458      -297.3160      -234.3177
      -225.7314      -338.2136      -381.4019      -397.2006      -315.3517
      -231.9843      -312.7420      -256.9680      -210.5313      -274.0316
      -236.8119      -157.1758      -153.2359      -108.0677      -70.19305
      -155.1321      -327.7686      -367.3755      -260.9737      -230.2619
      -194.6004      -35.63733      -38.84924      -99.94211      -95.30640
      -101.4914       8.474380       49.95912      -67.95541       18.54364
      -8.755798      -70.44427      -27.25525      -158.4430      -118.8917
       90.16812       33.49126       17.17895       55.15256       12.51006
      -23.84810      -37.17343      -31.78334       23.20442       33.24228
       108.6688       144.1553       74.42120       48.36720       41.37320
       2.854542      -14.26477       78.11298       182.5378       103.5759
       140.6299       248.7220       216.0836       234.0612       267.8516
       247.3533       184.3923       39.13025       35.89099       146.1194
       268.3137       383.9216       420.0481       430.2961       430.9957
       369.4542       351.9200       366.3130       332.8479       331.8195
       420.1808       417.5112       403.4449       497.1569       470.3029
       335.5482       422.4600       538.1785       582.4506       676.9338
       626.3922       476.0347       439.4160       435.9473       524.4119
       607.7261       576.8271       597.9053       626.3052       535.0635
       543.2869       642.1697       598.0134       497.1260       611.2026
       633.6747       499.5844       550.9219       552.1184       512.5424
       646.3490       613.1349       547.8577       684.1639       733.2963
       477.0979       368.6483       578.7394       513.3252       375.0774
       457.3558       391.8965       470.1284       530.5024       264.1444
       314.1632       634.9336       620.7440       555.9755       482.5356
       378.7520       407.1066       324.5278       313.6416       318.3420
       107.3740       327.2012       561.4646       312.5963       261.7860
       428.4974       298.6640       112.7977       92.80957       190.0361
       336.0068       266.9450       76.61145       85.69339       93.02786
      -11.48909      -59.98346       83.63379       232.3821       267.5831
       128.0681      -75.88013      -144.3840      -158.3861      -120.7314
      -32.00043      -109.8901      -73.94788       2.116516      -18.09709
      -11.93913      -88.94994      -56.81030      -3.839783      -197.5314
      -285.6274      -357.6260      -426.7547      -286.6564      -173.8972
      -147.2266      -79.37323      -55.03003      -124.6894      -250.2918
      -310.0042      -335.5603      -378.7828      -353.4860      -262.7434
      -283.4980      -341.4635      -330.8293      -391.5116      -349.0530
      -306.0950      -463.8177      -422.2103      -340.4540      -283.7623
      -209.2520      -363.6294      -440.8496      -402.4296      -564.6857
      -642.9473      -500.2861      -461.2690      -516.8678      -428.6869
      -364.0811      -374.3041      -343.7095      -389.2384      -566.7188
      -625.5905      -497.9761      -375.3026      -350.3669      -274.4906
      -314.3164      -443.9426      -453.3047      -514.5516      -599.3517
      -511.7545      -410.3997      -376.0120      -445.2823      -468.1211
      -460.8982      -531.6582      -517.0984      -420.9808      -357.3945
      -323.7661      -446.6628      -494.4617      -424.3441      -545.0361
      -607.7460      -466.0128      -447.9689      -450.6809      -388.7532
      -414.5623      -486.3158      -449.1406      -412.4417      -425.1830
      -470.9469      -451.6971      -309.4437      -200.0162      -230.1558
      -286.6763      -343.2858      -402.6177      -406.1365      -264.8674
      -230.4393      -450.6454      -421.9241      -241.7664      -320.2766
      -287.3175      -161.8186      -174.3322      -252.7810      -270.4421
      -287.8690      -386.4673      -383.5467      -307.5081      -268.1819
      -269.9318      -348.2579      -311.6135      -230.7129      -250.0012
      -312.7291      -277.5289      -91.38770      -59.95105      -248.5264
      -318.3931      -255.1879      -190.1997      -188.3513      -369.5298
      -449.5425      -255.3418      -209.5186      -322.8562      -301.3664
      -129.2205       41.83298       30.41248      -206.3044      -409.6208
      -315.3045      -227.6711      -190.4780      -237.0599      -351.3664
      -221.2235      -281.9974      -511.1381      -261.2773      -45.13376
      -111.3798      -120.5018      -233.1361      -191.5376      -58.03992
      -247.7672      -298.8174      -252.1274      -412.2018      -425.6762
      -325.4171      -240.2316       59.69232       141.5555      -139.0261
      -194.6174      -140.6765      -211.8860      -317.8493      -321.1826
      -45.07839       28.33374      -182.9944      -197.2093      -158.5955
      -153.6968      -61.87056      -46.75605      -47.46088       7.044922
      -115.4040      -278.0183      -224.5168      -187.8588      -158.8648
      -75.77179      -90.16656      -119.0408      -121.8763      -1.686249
       188.4777       81.40425      -42.42303      -50.34674      -241.3542
      -193.7262       87.35718      -52.44922      -334.8824      -364.7092
      -116.7638       165.2089       138.6256       41.81335      0.9538269
      -112.3173      -169.5037      -130.0088      -114.9116      -66.26378
       45.30402      -72.63431      -189.8277       21.87656       72.98633
      -82.54079      -7.423561       24.11989       14.73006       101.4913
       4.947678      -91.48517       47.78638       166.4594       139.3850
       134.5259       127.0562       51.97089       124.6352       166.8304
       3.902393      -29.94507       101.9190       129.8848      -22.66263
      -187.9279      -97.16000       19.44818       89.81873       226.7581
       159.7822      -3.682159       43.88611       137.1575       92.08090
      -27.85165      -76.75121      -43.79636       28.69066      -35.76163
      -51.06763       301.4037       477.4250       204.3998      -3.939896
      -103.7972      -4.553497       166.3223       2.703918      -259.3295
      -80.17810       233.6343       49.19879      -252.5352      -62.20148
       312.3624       313.3224       33.22470      -46.77582      -104.8314
      -133.8864      -98.47202      -169.8304       33.53412       285.3585
       178.7198       281.6736       334.5755       224.6058       230.7796
      -40.87959      -146.0742       157.6432       110.4521       60.34253
       266.0239       208.0117       125.3845       153.4067       57.88763
       79.41736       248.9563       428.1393       476.7036       488.0677
       424.3030       93.59802      -57.78760      -9.669693       6.657288
       137.5153       350.3616       533.1929       493.1727       333.8113
       247.2513       117.8310       39.19067       96.84424       168.8992
       174.7445       184.5424       397.5559       496.3522       284.3340
       119.0463       67.67943       35.93054       153.1934       230.0832
       79.05652       110.9034       329.7188       121.1053      -49.40674
       233.0608       127.9318      -148.3151      -25.92416      -56.85393
      -110.3136      -14.72527      -82.37280       115.9449       438.4282
       308.2491       36.98242      -361.1183      -636.4873      -511.2729
      -648.3589      -799.3463      -704.2015      -449.3287       211.5142
       732.5474       779.5732       628.1113       701.4485       1066.531
       1177.831       1010.238       950.8843       1225.212       1528.100
       1207.922       683.6421       495.3403      -154.2202      -1605.139
      -2791.480      -3111.998      -2585.463      -1291.700       346.0723
       1750.235       2307.115       2127.234       1787.711       803.3865
      -781.7979      -1949.756      -3272.960      -4861.865      -5439.021
      -4657.728      -2114.312       1489.080       3531.251       2794.722
       773.5701      -159.3689       372.1826       862.7877       631.0570
       173.9138       2.466949      -42.59879      -106.5926      -131.8391
      -604.6731      -1324.867      -1411.030      -489.1484       1138.336
       2563.237       3039.692       2052.918       280.6292      -661.1050
      -779.2329      -1138.896      -1798.981      -1952.088      -1510.552
      -1210.858      -692.1738       512.7344       1207.223       550.3816
      -778.8584      -1589.430      -1203.769      -281.8811       631.2969
       1293.881       1269.887       672.5369      -77.07678      -228.5664
       783.7441       1888.606       1891.946       1072.309      -106.2161
      -998.3882      -960.8613      -599.5341      -182.0583       390.8003
       906.9395       1174.564       1187.447       1202.160       949.6592
       121.2491      -560.3637      -448.1301       185.1006       855.9824
       1529.539       1529.957       857.5564       592.4658       508.3333
       411.2181       570.3043       445.2045      -157.7871      -568.8239
      -317.5600       18.13469       7.573677       27.34851       66.97937
       282.3525       1009.974       1662.138       1491.708       845.2017
       345.9844       236.6411       631.4409       1210.989       1145.372
       559.1523       385.2708       629.4399       632.6931       688.9863
       1242.494       1681.094       1691.297       1775.269       1592.861
       1076.078       779.5666       425.1035      -201.1625      -554.5518
      -133.0762       830.5264       1514.742       1561.645       1208.223
       835.1780       381.6649      -129.0519      -333.1003      -466.2960
      -400.2191       131.0859       235.8613      -37.64355       270.0055
       671.2915       679.8376       750.3723       869.5217       894.9004
       819.6421       506.8386       362.7927       594.5630       939.1890
       1193.235       1140.852       1024.383       902.8299       372.4763
      -158.5676      -283.3490      -187.5846       148.4668       589.6348
       997.0522       1068.485       720.3765       460.4679       277.3354
      -26.02682      -130.1330       6.770813       230.5371       447.0573
       435.9012       146.9403      -179.4539      -500.2299      -635.5677
      -304.8076       144.5378       256.3396       414.1021       754.9556
       915.7849       852.2977       521.7142      -45.75122      -385.8301
      -343.5555      -184.3558      -93.10804       37.65308      -77.27380
      -353.0170      -296.7642      -95.19321      -23.94501      -6.849854
      -270.8870      -666.1558      -692.6169      -593.8179      -543.5536
      -175.5514       125.3856       128.2424       174.2412       245.7039
      -51.77368      -509.9412      -563.5508      -463.8745      -525.8594
      -369.6837      -176.4118      -235.8523      -399.8755      -475.5918
      -338.4582       39.27283       123.5800      -133.9235      -214.4856
      -369.6116      -560.4884      -574.2375      -670.0511      -541.8819
      -163.3989      -56.66180      -135.8748      -85.88013      -221.6550
      -513.3943      -693.5720      -818.3501      -643.1736      -424.7908
      -533.4768      -385.1581      -78.37988      -79.84570      -363.9419
      -771.7001      -654.7635      -109.8387       103.5004       57.27692
      -130.7358      -228.7501      -189.4808      -327.4865      -435.1876
      -311.5227      -298.1091      -515.9751      -752.4548      -755.5393
      -431.5424      -13.57356       124.6873     -0.2212524      -109.0891
      -174.1995      -412.1458      -791.9536      -982.7928      -753.7863
      -367.3984      -127.2307      -72.20703       228.5979       660.5541
       609.9944       56.89185      -613.7163      -676.6428      -123.7928
       257.3260       454.1804       495.8260       247.7423      -232.0261
      -633.3398      -546.4933      -134.2362       119.9238       113.9554
      -143.1926      -624.4678      -967.8486      -951.0991      -868.1002
      -524.8929       18.99451       283.8032       383.7000       618.5371
       841.1324       723.0607       400.0173       246.2872       13.88782
      -291.1301      -284.4198      -2.671875       336.6183       578.3090
       601.2040       456.2190       170.2650      -94.56830      -231.3156
      -247.8817      -86.98615       181.4401       340.4592       354.1089
       410.4111       425.8691       231.6483       89.66870       79.87714
       45.68732       118.8425       337.8543       207.7659       73.11621
       267.5128       282.2495       231.1100       295.1152       224.1579
       137.8965       30.98041      -122.0509      -108.3984       18.43442
      -18.21973       70.31616       246.0829       241.2399       311.7596
       319.0507       179.0877       170.6123       58.65746      -18.21213
       119.0787       178.1667       280.9661       487.5750       529.4819
       512.3537       378.4920       181.9833       145.4324       6.843750
      -162.4028      -86.54926      -55.38690      -4.456024       123.7737
       95.25082       32.88928       133.2178       224.7599       198.9873
       161.7296       41.49860      -197.5462      -200.0515      -12.62405
       33.58691      -131.5955      -304.5237      -225.0336      -31.05433
       14.12437      -9.383759       3.195496       80.74391       88.71829
