     0.02500000      -1392.101       2344.057      -12345.00      -12345.00
      -30.00498       217.3700      -18.78000      -12345.00      -12345.00
       0.000000       14.03000      -12345.00      -12345.00      -12345.00
      -12345.00      -12345.00      -12345.00      -12345.00      -12345.00
      -12345.00      -12345.00      -12345.00      -12345.00      -12345.00
      -12345.00      -12345.00      -12345.00      -12345.00      -12345.00
      -12345.00      -31.90580      -68.77510       1333.000       0.000000
      -31.37200      -68.11800       0.000000       97800.00       0.000000
      -12345.00      -12345.00      -12345.00      -12345.00      -12345.00
      -12345.00      -12345.00      -12345.00      -12345.00      -12345.00
       85.95772       226.3120       46.65499      0.7728756      -12345.00
      -12345.00    0.009903593       0.000000       0.000000      -12345.00
      -12345.00      -12345.00      -12345.00      -12345.00      -12345.00
      -12345.00      -12345.00      -12345.00      -12345.00      -12345.00
      2008       244         6        45        24
       180         6    -12345    -12345      9896
    -12345    -12345    -12345    -12345    -12345
         1         7        13    -12345    -12345
    -12345    -12345    -12345    -12345    -12345
    -12345    -12345    -12345    -12345    -12345
    -12345    -12345    -12345    -12345    -12345
         1         1         1         1         1
CHIL    -12345          
        -12345  -12345  
-12345  -12345  -12345  
-12345  -12345  -12345  
-12345  -12345  -12345  
-12345  -12345  -12345  
-12345  -12345  BHZ     
ZL      -12345  -12345  
[...]
       84.60883       88.76324       101.8636       105.1497       106.7976
       105.1807       119.5615       122.3846       127.5912       129.3240
       134.1823       148.3413       157.9580       160.0159       173.8315
       169.5631       175.9721       201.5522       210.6444       204.7367
       217.8572       228.3173       231.1219       226.8745       234.9020
       239.2267       246.2198       246.7747       246.0263       250.3947
       251.2782       255.4213       265.7917       264.1068       266.4993
       268.6483       270.1465       262.3628       262.8439       258.9043
       252.6587       255.1127       262.5444       264.3719       257.1161
       251.5688       254.7228       244.9401       242.9992       224.1169
       222.4590       226.8643       228.4597       214.7436       193.3369
       195.3835       185.8628       169.5973       164.4521       147.9608
       142.9638       128.6001       113.5361       100.1837       88.64981
       71.04999       61.88759       52.09319       33.93720       24.44190
       6.052574      -8.930378      -14.76637      -27.30923      -43.99960
      -57.22328      -66.66690      -82.62964      -96.35834      -109.3301
      -110.9835      -129.6172      -146.7297      -148.3355      -158.8610
      -170.2677      -172.9227      -194.6517      -200.8816      -196.9015
      -205.3057      -225.1874      -228.1867      -239.4110      -247.1332
      -259.4337      -269.0658      -270.8124      -277.4731      -293.6873
      -292.8852      -294.3503      -305.2667      -301.6835      -296.9123
      -306.7954      -311.5062      -307.0352      -312.8479      -322.5823
      -320.3083      -322.2068      -311.6340      -302.7725      -309.6410
      -300.6224      -303.8689      -316.9161      -309.0892      -303.0229
      -309.2686      -284.9550      -267.1927      -277.3586      -270.7875
      -268.9639      -270.0951      -260.8002      -269.3292      -249.7161
      -241.3575      -237.5142      -235.3021      -229.3972      -226.5314
      -221.4589      -223.7105      -210.4980      -199.1588      -195.0185
      -190.3374      -180.9348      -183.1209      -174.7643      -169.3844
      -158.1440      -149.0159      -137.4799      -126.5406      -110.3776
      -102.2776      -98.55756      -89.90070      -80.13010      -81.11223
      -69.58530      -49.86331      -46.79350      -49.80140      -31.69742
      -9.022430      -15.03253      -13.44527       10.87751       15.67935
       28.72845       29.85683       32.26141       44.61861       50.39793
       53.76837       50.54156       63.26260       80.53859       86.31290
       76.25909       76.32123       85.51978       87.13293       85.35800
       92.87579       97.36774       100.1107       97.99899       100.1817
       107.8676       98.60834       98.70255       110.9479       94.32300
       97.80786       96.02850       87.29651       98.62061       94.28131
       81.86850       76.21342       78.43033       85.03067       80.50581
       75.29514       71.61499       78.77023       70.19633       66.34821
       67.22301       61.28734       50.55490       51.35828       47.43782
       38.37033       39.27612       37.17798       25.44402       24.67401
       21.90453       27.05536       23.46423       25.48719       26.98891
       29.55830       41.14290       41.60625       24.32405       23.12932
       37.33723       36.03149       33.10687       38.13806       36.72270
       47.31689       48.24330       43.16806       57.11804       63.64468
       61.76329       70.80045       81.50363       86.77390       87.06537
       97.57596       96.23181       100.2434       101.4770       95.95795
       103.9254       108.7479       103.1904       114.7482       130.2156
       115.0864       109.6193       122.9993       118.1953       121.0931
       131.0549       108.3083       109.6979       132.6070       129.0156
       111.6026       112.8119       118.6553       118.1801       115.6180
       109.9469       106.6110       111.6346       114.5037       119.4571
       100.9797       99.08237       112.1324       116.6604       108.7830
       104.5299       96.41614       110.2539       108.7211       103.9603
       106.1869       105.4284       99.25330       119.6339       102.4086
       102.2078       129.0324       121.2846       104.5049       113.8880
       111.5891       103.6683       100.2911       102.0255       95.16956
       101.1738       92.32111       95.55383       91.21524       84.17212
       95.84668       99.08049       80.73047       80.93018       73.47549
       74.33594       67.51193       57.61136       53.99565       52.94420
       44.29533       41.86923       33.90170       32.83040       36.12374
       19.04596       5.154327       18.27090       18.83527       3.097744
      -5.543701      -10.32000      -29.19353      -35.77621      -38.99915
      -50.91095      -67.96301      -66.07701      -74.04407      -94.91058
      -94.19522      -86.71320      -103.1789      -109.7254      -110.8701
      -114.9130      -118.5015      -124.8490      -122.3962      -122.5585
      -123.1033      -120.3132      -117.0366      -113.1393      -124.4459
      -112.4375      -74.82068      -95.57404      -110.5750      -67.33780
      -53.76291      -66.32362      -66.58847      -54.53493      -45.98784
      -31.04330      -27.98415      -32.18896      -2.794800       36.01643
       2.501080      -19.87044       45.50838       60.51284       26.90717
       34.78307       59.65961       77.04305       50.46481       32.00693
       63.95599       59.56320       56.91937       85.39488       66.99147
       72.69855       108.8535       92.64438       68.17407       86.70892
       88.42703       85.32013       93.94263       88.10953       86.85437
       88.47470       113.2826       117.2775       86.77704       98.88931
       112.8389       101.3375       104.6364       94.45416       99.76932
       103.3035       88.96829       94.04001       102.1827       87.22581
       83.88327       74.95349       72.39572       82.46379       70.37959
       40.38432       46.66858       59.42397       35.67720       13.84374
       33.60292       26.36940       2.065937       16.20108       18.19215
      -9.579918      -19.69824      -14.06485      -20.88568      -34.24744
      -34.15562      -25.19247      -24.89076      -48.17236      -46.91323
      -29.09558      -44.53973      -47.08667      -37.07585      -52.96797
      -52.22775      -39.74063      -50.76724      -54.70253      -35.83043
      -46.56100      -53.06882      -39.77269      -43.32300      -60.57489
      -68.23756      -68.78471      -50.16777      -60.68597      -67.37108
      -49.17932      -56.06171      -70.44095      -68.17850      -83.70242
      -81.80812      -78.93692      -91.27536      -92.16870      -88.26532
      -108.4877      -125.8815      -136.8801      -137.9670      -144.5233
      -153.9605      -166.1349      -171.7814      -177.0844      -188.4411
      -205.8878      -215.2858      -222.3593      -249.6348      -248.7672
      -212.3016      -247.7394      -281.2850      -253.6544      -243.2207
      -287.3180      -293.6277      -281.3593      -283.2847      -293.0854
      -291.1069      -299.4827      -299.2787      -301.3897      -294.5455
      -304.1284      -284.4490      -264.0781      -275.0065      -295.3045
      -283.5099      -264.0552      -263.6519      -287.7573      -267.3452
      -244.4052      -254.9083      -248.4259      -224.6357      -237.5596
      -213.9545      -205.5650      -208.1422      -183.4451      -172.1529
      -182.3394      -163.6461      -150.4530      -151.6068      -138.9609
      -107.5630      -122.6252      -118.1031      -85.39330      -71.75339
      -73.43687      -54.14119      -39.92849      -26.03292      -19.77127
      -14.46911      -4.856308       11.13350       11.70827       29.09363
       38.86398       53.18744       61.83484       66.93808       76.20984
       116.6603       140.1789       106.8445       111.8246       189.0718
       184.3663       157.7265       188.2286       212.2253       211.7413
       229.3864       245.0048       238.3266       238.7849       283.4262
       288.3955       261.3776       277.2683       323.9890       311.2986
       299.4805       311.8517       328.4214       319.3867       322.9104
       347.7167       328.4985       310.4351       343.2296       336.0522
       317.3132       315.7948       321.7247       325.3654       320.9258
       307.2997       301.1155       289.5057       284.0020       281.2397
       263.9187       259.6978       250.8793       242.8993       255.2304
       228.5627       212.8983       225.2478       214.4321       190.8056
       186.2672       181.5168       171.2865       166.1115       155.1988
       135.4488       142.5593       143.2736       126.7869       125.2926
       114.1316       115.4330       111.2064       88.91217       107.5652
       119.6366       97.04370       84.74445       94.41354       82.20517
       73.85513       68.54233       68.97354       94.58533       68.72284
       18.94000       73.52747       87.92136       28.68378       49.59720
       69.29070       28.37511       18.11829       37.70345       18.39236
       9.833920       19.38485      -4.062102      -4.288765       21.23855
       15.40130      -27.32959      -3.598427       32.71040     0.04312134
      -18.11170      -3.566182       6.752312      -5.884151      -14.66956
      -7.544262      -14.93990     -0.3194065       5.857460      -32.06128
      -17.56140       4.517326      -22.41476      -25.19302      -24.76691
      -31.83374      -41.41859      -45.28748      -43.21812      -50.38063
      -65.34047      -71.41008      -77.93933      -95.06339      -97.90643
      -84.47086      -114.5060      -131.2402      -112.6111      -119.8266
      -144.3237      -151.8848      -175.1038      -179.0546      -175.5966
      -182.4642      -209.1434      -190.0356      -205.0768      -217.1534
      -210.5717      -238.2799      -237.0581      -212.6802      -237.5938
      -235.2755      -226.4288      -238.1296      -251.2125      -230.2867
      -230.8967      -240.2170      -235.3024      -223.0332      -219.0958
      -226.4491      -224.1337      -204.0059      -229.0068      -200.3265
      -170.7537      -207.0198      -203.7553      -159.0520      -180.4817
      -192.1727      -172.3854      -154.2604      -172.8003      -157.1419
      -140.1361      -155.6377      -146.5873      -137.6372      -139.3142
      -124.3312      -126.4707      -119.8271      -111.2505      -122.6576
      -117.3312      -100.0984      -99.11395      -107.5159      -98.49942
      -94.11990      -104.8954      -93.90695      -92.18866      -95.07797
      -65.96313      -65.27173      -88.25391      -56.61412      -33.93469
      -55.95970      -58.89882      -38.81601      -50.05786      -47.41041
      -27.14902      -34.70229      -39.58558      -29.70734      -17.55965
      -14.01981      -29.78258      -20.95177      -3.144497      -7.339424
      -12.79361      -12.15154      -8.223137      -16.66672      -12.73962
      -8.962868      -16.26618      -14.54918      -16.52339      -13.33338
      -20.57906      -13.34808      -6.189640      -20.17132       11.00958
       23.08301      -2.531998       11.11915       12.86518       2.279362
       8.635071       20.18443       20.00615       29.65329       28.22911
       27.17509       52.68344       46.49850       49.13586       69.90004
       75.47183       76.95465       90.57327       97.48895       80.13275
       86.06036       124.1028       122.1902       109.6157       130.6990
       134.8420       151.2480       189.0135       141.5526       134.7684
       193.7007       174.7441       159.1831       189.8611       185.9313
       175.3580       200.8177       206.6874       185.7307       198.2407
       214.3630       221.0505       211.6351       205.6280       223.3542
       230.6139       215.3990       216.7156       221.1792       220.8605
       215.8391       215.0031       227.0319       227.9974       214.5029
       218.3756       238.7151       232.7131       210.3482       213.0352
       222.2132       231.7405       211.9927       225.8315       251.6259
       212.8150       208.4156       228.2903       219.2060       209.3757
       220.7598       222.3993       213.5503       220.1383       226.0594
       208.6721       210.8203       220.3601       211.7728       204.4043
       197.5997       47.59375      -381.1404      -685.6858      -653.5289
      -452.1966      -16.70834       127.2235      -199.9727       243.9092
       968.8579       877.2290       1310.549       2344.057       1102.977
      -1392.101      -486.6260       694.8865      -396.3015       195.5303
       1069.098       41.33887      -609.2903      -343.1919      -494.4534
      -572.6041       126.6530       227.3654      -517.1467      -659.1871
      -171.1711      -392.8545      -580.9712       168.0676       448.9839
       357.3307       432.7134      -99.92480      -705.9807      -668.4521
      -511.1825      -92.82800      -116.3588      -528.4150      -156.0479
      -21.46683      -207.5993      -19.65869      -294.8826      -631.2598
      -79.18060       144.6024      -489.9456      -982.9109      -1020.326
      -492.3159      -416.4204      -774.1010      -628.2186      -281.3747
      -102.5311      -206.0480      -482.6606      -313.2130       166.7722
       76.14746      -462.5837      -351.2478      -452.9094      -843.7766
      -417.9425      -110.7838      -21.21008      -245.0339      -608.7290
      -138.8263       123.6440      -327.5287      -233.4767      -100.6057
      -468.2722      -457.7719      -59.61801       10.13293       167.9698
       380.1558      -150.1835      -290.7232       94.21106      -84.87183
      -426.6394      -453.3802      -315.7737      -215.8472       22.43637
       48.23596      -259.1405      -113.1400       155.9161       209.7829
       94.07303       29.72400      -107.4141      -256.6386      -75.05765
      -130.5315      -244.9160      -83.54221      -79.08441      -278.8264
      -39.78259       234.3047       209.3323       313.0469       381.4878
       300.5790       27.68500      -114.6962      -116.9122      -212.9600
      -229.3760      -135.4033       15.53711      -80.46643      -185.0771
      -194.8813      -288.1562      -92.28253       183.5970       182.8423
       58.55902       136.3468       415.6755       461.1135       338.5468
       484.0635       527.5452       328.7744       252.3831       80.22676
      -41.57202      -134.5914      -307.4543      -190.5592      -17.24969
       46.28918       199.1836       275.7585       344.3607       617.3381
       662.7327       524.6752       578.7507       496.0327       447.0269
       303.2775       134.9548       153.9157       82.07751       122.6453
       133.1174       68.77966       125.1983       224.2338       378.2787
       356.4086       278.6075       348.8344       242.3085       270.4062
       495.3115       516.4590       632.8098       678.1299       532.9250
       517.4995       393.8937       286.4816       347.0961       194.2524
      -126.8543      -53.81470       345.4988       511.3401       576.1877
       510.0225       396.6460       379.4149       320.0825       259.8064
       277.4403       276.7576       164.8561       178.2045       250.2113
       190.1399       316.6107       296.4884      -20.50388       44.05627
       234.4270       116.5097       42.73804       198.1538       255.4196
       370.7068       256.0817      -44.90210       174.2986       240.4330
       146.7314       295.7873       287.3593       55.22987      -37.46659
       14.60571      -57.62533      -72.91122       45.37953       63.11707
      -184.6924      -221.6956      -70.03973      -157.7485      -149.9668
      -17.17383       10.35126      -72.10214      -99.49402      -192.8314
      -326.7144      -141.7621      -13.91010      -85.41064      -99.89569
      -159.2523      -214.7542      -143.9139      -238.0035      -507.2725
      -355.8484      -292.5708      -448.6803      -311.5894      -287.6361
      -538.7429      -418.3707      -271.3690      -234.3192      -74.13306
      -305.8324      -362.0181      -146.7776      -244.7355      -409.3644
      -413.9569      -390.0900      -364.2208      -230.8636      -248.2842
      -301.6866      -376.6003      -487.7429      -432.4238      -171.9177
      -166.5984      -381.2048      -436.3181      -390.3570      -333.4818
      -320.8951      -321.5161      -263.8273      -148.4540      -197.4087
      -306.9736      -302.9006      -143.1266      -262.7850      -398.7151
      -61.04712      -225.8842      -498.1902      -218.6216      -191.7662
      -452.5927      -285.8854      -245.4324      -442.9005      -269.1025
      -233.3630      -372.9937      -322.5813      -84.10120      -69.11462
      -352.4803      -422.3007      -450.5857      -487.2537      -276.4945
      -55.58459      -219.0140      -366.2029      -270.9803      -383.2996
      -341.2574      -193.3998      -188.0371      -229.2886      -414.9642
      -294.2121      -145.3765      -242.8243      -402.9719      -405.5857
      -506.3657      -344.0393       97.14984      -94.30072      -281.9750
      -56.57092       259.0805       322.7686       51.56950      -40.30255
       40.83980       112.8987      -43.71759      -344.7162      -229.2427
      -106.1028      -61.21844       139.4420       7.916031      -190.1792
       148.8887       427.2378       15.66629      -57.78616       15.76459
      -227.9830       83.36768       405.4946       82.46841      -147.1675
       55.07593       222.7055       75.88075      -94.70892       78.28223
       184.3177       175.0127       379.1773       289.8067       67.73834
       164.4600       242.8446       255.7161       180.9600       122.7268
       489.0372       448.7966       114.9282       385.4771       420.7244
      -43.43884       51.90234       529.5752       708.7677       619.6716
       351.2972       194.6264       192.7595       271.7637       448.3210
