     0.02500000      -1965.620       3139.002      -12345.00      -12345.00
      -30.00498       217.3700      -18.78000      -12345.00      -12345.00
       0.000000       14.03000      -12345.00      -12345.00      -12345.00
      -12345.00      -12345.00      -12345.00      -12345.00      -12345.00
      -12345.00      -12345.00      -12345.00      -12345.00      -12345.00
      -12345.00      -12345.00      -12345.00      -12345.00      -12345.00
      -12345.00      -31.90580      -68.77510       1333.000       0.000000
      -31.37200      -68.11800       0.000000       97800.00       0.000000
      -12345.00      -12345.00      -12345.00      -12345.00      -12345.00
      -12345.00      -12345.00      -12345.00      -12345.00      -12345.00
       85.95772       226.3120       46.65499      0.7728756      -12345.00
      -12345.00      0.5318851       90.00000       90.00000      -12345.00
      -12345.00      -12345.00      -12345.00      -12345.00      -12345.00
      -12345.00      -12345.00      -12345.00      -12345.00      -12345.00
      2008       244         6        45        24
       180         6    -12345    -12345      9896
    -12345    -12345    -12345    -12345    -12345
         1         7        13    -12345    -12345
    -12345    -12345    -12345    -12345    -12345
    -12345    -12345    -12345    -12345    -12345
    -12345    -12345    -12345    -12345    -12345
         1         1         1         1         1
CHIL    -12345          
        -12345  -12345  
-12345  -12345  -12345  
-12345  -12345  -12345  
-12345  -12345  -12345  
-12345  -12345  -12345  
-12345  -12345  BHE     
ZL      -12345  -12345  
[...]
       195.9966       176.5344       164.6151       168.7958       182.8753
       150.5962       98.56885       83.06619       100.4597       89.36549
       82.12679       73.64114       84.05200       119.4267       71.95410
       46.65347       78.41008       49.60848       11.39752       41.12762
       35.96529      -2.178955      -49.90285      -68.38560      -53.64459
      -69.13818      -132.2527      -221.8752      -264.3440      -233.7677
      -295.9139      -322.2904      -252.8485      -258.7732      -280.0461
      -255.7386      -332.5845      -446.3760      -464.6858      -443.0972
      -481.1666      -514.1543      -532.1538      -532.1882      -567.4899
      -553.6625      -507.2610      -509.6406      -484.4375      -501.7085
      -582.8640      -581.8679      -613.2859      -643.9866      -578.0515
      -530.6824      -555.1223      -550.6068      -555.2039      -554.3792
      -603.6608      -644.3916      -623.1807      -553.9547      -475.4634
      -458.1816      -482.2880      -494.9695      -512.3842      -475.6052
      -402.6324      -354.7209      -340.2032      -368.4773      -401.2960
      -392.0544      -399.8293      -368.1291      -319.9067      -281.3643
      -273.1257      -309.4503      -322.0143      -266.0159      -215.2485
      -284.1711      -343.0410      -258.6486      -233.8279      -257.6576
      -227.5165      -247.0984      -312.1892      -276.5993      -207.1534
      -234.2721      -291.9255      -270.8463      -255.7660      -260.8597
      -255.2275      -262.7474      -263.1969      -231.1455      -204.2040
      -216.6177      -271.0800      -256.4177      -216.5261      -257.6351
      -284.4706      -239.5406      -217.5410      -220.6752      -239.6404
      -233.3802      -246.2004      -264.4708      -202.6890      -206.2920
      -281.9648      -271.8351      -256.7881      -186.9416      -162.8840
      -245.1550      -242.4110      -179.6177      -149.0643      -98.84747
      -35.87753      -32.26298      -38.32851       32.72005       37.91742
       17.51993       34.54913       91.67737       113.3585       81.07166
       141.4166       282.2334       246.6187       177.3738       287.0699
       372.2042       319.3490       358.1498       331.5305       297.8756
       393.8721       494.0970       480.7542       488.9971       554.8110
       603.2048       640.7136       584.7332       515.6138       578.7568
       665.9438       703.2252       628.6497       637.0845       718.1582
       664.2339       652.5117       721.1670       727.7778       726.6268
       677.9392       635.9764       655.2361       652.6099       638.5903
       624.5415       562.4966       556.0872       567.9144       543.6945
       490.0144       467.7052       482.7056       529.0806       544.1559
       487.1602       462.2892       428.5718       393.3418       379.5753
       260.7146       251.4608       327.4463       256.1080       228.3065
       240.0645       127.0057       74.49069       119.8987       158.4153
       133.5744       78.89966       84.82358       125.4730       40.90041
      -45.41176      -26.03796      -11.14748      -26.88669       1.650406
      -17.38941      -51.43826      -22.07222       4.665009      -20.97498
      -23.55509      -19.23225      -21.40291      -50.94901      -57.15898
      -67.24994      -90.44870      -110.6289      -54.00516      -11.19434
      -20.23828      -10.73138       12.27190       31.56857       63.24471
       25.32971      -26.13100       7.963562       45.28790       63.21463
       7.711178      -33.81809       42.33829       18.80905       41.10792
       53.91855      -54.54828      -101.9064      -106.8967      -148.3018
      -132.2329      -113.2899      -117.1620      -111.1456      -134.8694
      -158.4798      -124.3642      -106.5531      -125.2112      -115.6720
      -122.5005      -111.0275       28.50754       155.9220       140.4178
       61.24710      -61.53769      -156.5558      -109.1444      -159.2772
      -289.8315      -344.2612      -552.1714      -939.4288      -695.2994
       107.6491       118.9561      -231.6472      -287.2725      -464.5820
      -625.2452      -460.5600       9.951874       191.3373      -136.7108
      -530.7742      -750.4198      -653.2958      -276.0446       10.75769
      -191.9556      -451.9515      -467.9888      -523.8635      -466.3116
      -421.3143      -347.2511      -167.4042      -222.2911      -202.8204
       28.98009       50.65308      -221.0908      -462.7371      -489.9171
      -428.9457      -344.3672      -277.0880      -412.0419      -451.8933
      -115.2204       92.50818      -133.6298      -291.3967      -168.9506
      -53.23694      -154.1493      -468.8621      -513.7272      -113.8159
       167.5682       147.0233       76.77930       70.36032       72.55697
       47.87296      -99.40131      -131.7914       87.50378      -84.19958
      -501.6238      -342.4503       128.0830       284.7114       258.2726
       210.8350       211.1451       426.4182       334.4335      -55.70114
      -88.13074       23.11578      -191.4391      -334.6316      -203.4330
      -203.8433      -281.7167      -89.49115       206.7074       295.3384
       281.1318       281.7583       392.9794       425.7590       13.08194
      -156.4692       154.0679       258.2719       179.0988       155.5725
       67.73175      -38.04797       214.2164       415.1215       88.59991
      -143.9611       101.0970       341.7478       261.1505       301.8853
       483.7666       521.5176       403.6594       186.2661       17.46872
      -28.36642       32.66519       139.5268       111.3413      -123.5694
      -174.8523       34.69949       101.0524       161.4276       318.5175
       415.5880       254.3642       31.33801       74.01187       154.0487
       52.60295       8.062027       35.51257       24.39842       33.13336
      -65.51868      -225.2201      -122.5701       3.912155      -22.94992
       52.18661       163.8507       38.36353      -103.5008      -65.71570
       129.0989       204.3893       140.8761       188.6708       292.5127
       213.3810      -21.26128      -97.52423       23.76691      -9.632141
      -135.2220      -162.6345      -95.12153       4.258575       108.4158
       132.9729       54.72705      -31.44342      -107.1727      -95.18738
       132.8264       186.8147       190.8583       347.3376       223.5720
       22.77874      -1.524384      -37.43222      -83.19130      -76.59521
       84.53101       276.7845       311.1356       268.6399       245.2244
       194.7181       175.4600       177.0891       165.4531       124.6751
       17.41650      -105.3194      -122.5790      -71.85883      -36.24188
       45.26514       209.5297       220.9832       125.3029       262.1886
       430.8661       334.2173       215.2405       194.3230       125.3157
       3.906776      -28.99588       53.62895       80.01797      -16.59125
      -113.3792      -41.94559       53.50098       91.32440       107.0699
       21.78741      -68.45276      -172.8646      -212.7504      -129.6841
       5.820831       80.81693       9.643616      -140.2982      -132.4464
       12.67654      -68.27777      -148.2770      -155.8839      -215.8364
      -210.7689      -259.8132      -355.9835      -366.7084      -323.7931
      -278.9485      -301.8600      -297.2790      -230.1121      -216.6652
      -254.3826      -308.4927      -353.9760      -397.5281      -447.7214
      -547.7694      -582.6160      -506.7047      -433.2008      -382.3418
      -365.9393      -327.5626      -304.1243      -419.7184      -398.6177
      -282.0148      -395.9886      -408.9142      -310.0771      -317.3315
      -350.1646      -308.6077      -130.3185      -101.4996      -257.9489
      -455.4226      -514.1819      -395.4526      -342.4175      -306.0309
      -209.0844      -165.9187      -20.97565       165.4919       143.1288
       1.100433      -67.37134      -115.8616      -231.4357      -305.5582
      -225.9010      -94.98236      -91.31891      -82.74188      -51.56720
      -120.7090      -43.43405       130.1643       145.2418       142.1228
       78.43335      -59.86325      -51.86867      -4.849060       45.65573
       62.04905      -5.464699      -34.09955       22.19366       93.31262
       161.3940       317.0616       419.3128       242.4640      -33.35686
      -33.81415       44.58856       75.67511       206.0105       231.0573
       152.7171       150.9935       167.7982       159.9766       91.69030
       6.262848      -87.57956       23.33881       181.7522       109.2182
       92.67303       105.0744       158.2618       252.2109       298.8151
       335.7095       131.4869      -28.53997       35.11394       31.54735
      -38.92819      -42.63544       211.7241       438.8425       258.2047
       55.47617       38.51300       172.9467       229.3126       200.3380
       185.8411       136.1738       176.2062       173.7354       22.95200
      -49.16501       1.586700       65.38785       117.7172       133.0634
       164.0035       300.9233       341.3164       136.2529      -162.3036
      -192.3917       89.98706       186.0189       20.64034      -29.39084
       74.87317       304.4358       387.4130       241.6302       124.1112
       69.08873       58.50461       71.79028       137.1140       301.9402
       405.6259       243.0069       14.78102      -9.419556       128.1205
       259.6295       244.8403       367.3463       455.4068       218.7576
       42.64206       93.02417       171.2970       290.1812       393.6035
       197.1503       44.07275       116.8900       265.9121       486.4384
       440.3611       319.4561       400.4153       407.5793       355.9385
       387.3851       452.1743       419.4563       460.5581       526.0094
       413.5789       309.0530       469.1238       659.3596       567.0662
       404.5790       469.7461       551.2227       466.7189       437.9213
       474.9817       439.7419       419.9624       413.6777       348.5679
       338.7710       544.4054       594.6462       344.0945       317.9083
       423.9309       378.4310       297.4988       167.5369       45.43948
       40.52081       111.6240       169.9812       253.6104       240.6255
       82.66197      -31.83713      -59.16165      -100.5056      -164.3646
      -124.7363      -55.55286      -96.14465      -114.3854      -154.6066
      -296.7293      -325.4338      -239.6468      -298.9590      -398.8879
      -405.8600      -402.1624      -469.9119      -473.0641      -394.6143
      -435.4224      -553.5525      -636.7986      -671.7435      -604.9783
      -490.7090      -546.9106      -638.5117      -653.3188      -650.2784
      -564.7346      -502.7534      -507.3677      -642.1836      -798.6255
      -777.0859      -722.4642      -657.8723      -694.6938      -760.7285
      -684.4116      -586.0834      -608.7944      -723.1707      -809.3811
      -821.6814      -773.3508      -650.2133      -501.4973      -489.2004
      -689.3970      -883.7517      -845.3470      -634.2825      -498.1250
      -552.8650      -646.0632      -671.5687      -659.7625      -494.7556
      -420.2581      -537.7595      -604.2310      -632.7886      -534.8605
      -438.5294      -408.3191      -349.9918      -335.3600      -401.3889
      -489.9893      -345.3103      -239.6565      -183.7528      -82.40662
      -310.0128      -549.0267      -493.9615      -259.3557      -164.2664
      -360.9740      -435.3206      -210.4251      -44.06323      -57.82190
      -23.15668      -57.92398      -180.6635      -99.32262      -1.640381
      -80.86227      -138.2821      -63.51813      -53.96370      -30.34973
       165.5980       204.1475       25.94618      -60.27991       148.9446
       338.3304       229.4430       81.28613       100.2767       288.1456
       442.7383       375.2847       292.6876       328.9744       368.9769
       397.3638       397.9685       448.4773       564.4077       558.6487
       458.0590       407.1736       497.7563       573.9500       537.7092
       541.5105       504.9128       344.3213       253.8801       406.9846
       638.1079       651.8752       551.2410       443.5817       496.0444
       701.5640       822.7134       736.2341       606.3174       684.1467
       718.3752       629.7304       367.7606      -209.6304      -880.7480
      -1233.251      -1226.774      -1155.695      -1338.920      -1675.635
      -1197.962      -22.67969       562.5024       593.5498       879.4219
       1586.973       2261.888       2511.684       2090.063       1314.053
       1164.120       1789.276       2016.226       1169.080       669.9980
       1817.457       3139.002       3018.574       1527.268      -611.3955
      -1965.620      -1915.938      -1581.478      -1410.587      -896.6914
       148.8418       943.4489       494.0357      -287.0972       111.4536
       1096.241       1510.512       1486.394       1224.444       531.8949
      -191.9209      -782.5220      -1291.154      -1279.312      -762.8916
      -413.0781      -82.11084       753.4678       1303.356       380.0996
      -1017.235      -1357.157      -978.6505      -659.5924      -669.8510
      -357.8418       887.5923       1800.661       1396.669       885.3086
       861.8296       569.9471       211.2092      -107.9211      -685.8745
      -1005.066      -715.5375      -353.6313      -434.6824      -547.6624
      -447.0428      -211.1096      -18.95015      -68.03912      -110.4069
      -157.8094      -199.6100      -187.1562      -258.9175      -499.6687
      -704.1215      -603.5026      -372.9926      -9.162415       303.3957
       50.79468      -481.3645      -656.6646      -736.9216      -891.7439
      -696.0104      -172.6949       422.1565       886.8453       750.7194
      -134.3760      -963.8035      -1252.208      -1066.330      -695.5591
      -526.6072      -465.9113      -331.9918      -357.9321      -699.8569
      -634.6820      -28.33011       209.8474      -407.9355      -1364.541
      -1543.325      -747.7496      -3.626587       149.9463       277.4711
       260.5140       106.8151       451.1997       856.8899       874.2225
       582.9239       9.126587      -533.3093      -671.4397      -484.2281
      -329.2247      -270.9904      -158.6696      -22.41223      -279.3707
      -470.3968       12.05652       392.0897       227.0701      -126.8950
      -326.6395      -325.5830      -406.4367      -206.9265       477.7097
       962.9302       742.7454       172.6918      -43.52422       34.20013
       118.2000       353.3787       384.5889       295.3220       793.6655
       1480.108       1313.250       542.0504       322.7667       506.3857
       75.06763      -713.7726      -817.4225      -219.7074       203.4348
       249.7446       142.8415       108.3170       305.3862       459.3951
       594.7305       799.5879       774.5717       557.2342       343.0468
       16.04956      -342.0104      -337.0374      -256.7654      -390.9472
      -291.6533       79.44958       203.9143       346.5872       706.4188
       638.6956      -49.08911      -439.8994      -343.4075      -409.7122
      -445.1190      -138.5255       242.2231       431.0270       347.6357
       65.18384      -164.7214      -89.50455       15.16327      -69.53714
      -129.4372      -65.85779       141.9954       411.1364       409.6534
       260.0542       365.3344       451.1049       20.85107      -424.4982
      -279.5709      -23.59369       118.0525       533.8116       657.6091
       202.5307      -19.98096       193.1135       360.3455       330.9026
       185.4852       73.41675       245.5198       404.0929       234.9913
      -6.455566      -223.1714      -405.5927      -522.4352      -376.0325
      -92.72040      -103.2168      -472.7223      -649.9370      -654.5576
      -791.3358      -761.5737      -437.0538       52.40918       456.7981
       461.4096       130.6797      -92.94934       190.5837       540.3204
       345.8987      -224.4280      -625.6709      -529.5649      -274.4973
      -499.4985      -928.9844      -926.3514      -426.6507      -73.96484
       135.8214       208.4050      -138.8596      -666.4038      -908.6392
      -716.5317      -452.6766      -273.0558       100.4393       532.0143
       688.4341       631.3525       545.6086       587.2496       528.4415
      -106.1749      -585.3949      -428.8052      -266.4949      -330.1903
      -419.7411      -205.3398       114.9986      -92.64703      -393.6148
      -228.3322      -8.790894      -382.8787      -701.2366      -275.3627
       7.989853      -87.35548      -23.10995       76.72900       153.2924
       284.9824       275.9613       14.77002      -187.6346      -147.3139
      -2.501007       41.20099      -15.67798      -337.4497      -652.7433
      -433.3345      -176.5458      -403.8285      -502.7712      -260.1134
      -92.24283      -24.93015      -11.47461      -235.0078      -487.5936
      -526.2216      -575.9172      -668.7496      -572.0814      -257.9554
      -121.2520      -318.3090      -467.6664      -394.5563      -216.1705
      -192.2360      -246.3908      -182.2976      -108.1902      -190.9018
      -170.3699       6.688354      -106.7087      -484.6234      -437.4482
      -94.08606      -133.0186      -516.9502      -711.1962      -414.1273
       45.87677       278.7776       102.0258      -207.0140      -197.6104
       31.19530       91.26025       35.19386       55.24506      -177.9927
      -425.9713      -399.8789      -292.2150      -253.0062      -319.7905
      -608.4824      -975.9175      -961.0148      -423.8556       20.92836
      -19.24228      -110.6562       85.03882       269.4106       225.0892
      -67.52637      -411.6439      -431.3876      -183.7670       190.4796
       437.2288       229.3431      -58.84232      -197.3621      -48.10632
       335.2622       442.7710       68.05603      -403.4055      -552.8335
      -439.4019      -397.7116      -238.6450       151.8511       493.0190
       489.8040       372.6156       533.6233       762.0071       575.5002
       146.7275      -16.87347       94.34741       346.6365       627.5708
