     0.02500000      -2342.345       1467.917      -12345.00      -12345.00
      -30.00498       217.3700      -18.78000      -12345.00      -12345.00
       0.000000       14.03000      -12345.00      -12345.00      -12345.00
      -12345.00      -12345.00      -12345.00      -12345.00      -12345.00
      -12345.00      -12345.00      -12345.00      -12345.00      -12345.00
      -12345.00      -12345.00      -12345.00      -12345.00      -12345.00
      -12345.00      -31.90580      -68.77510       1333.000       0.000000
      -31.37200      -68.11800       0.000000       97800.00       0.000000
      -12345.00      -12345.00      -12345.00      -12345.00      -12345.00
      -12345.00      -12345.00      -12345.00      -12345.00      -12345.00
       85.95772       226.3120       46.65499      0.7728756      -12345.00
      -12345.00      0.2951628       0.000000       90.00000      -12345.00
      -12345.00      -12345.00      -12345.00      -12345.00      -12345.00
      -12345.00      -12345.00      -12345.00      -12345.00      -12345.00
      2008       244         6        45        24
       180         6    -12345    -12345      9896
    -12345    -12345    -12345    -12345    -12345
         1         7        13    -12345    -12345
    -12345    -12345    -12345    -12345    -12345
    -12345    -12345    -12345    -12345    -12345
    -12345    -12345    -12345    -12345    -12345
         1         1         1         1         1
CHIL    -12345          
        -12345  -12345  
-12345  -12345  -12345  
-12345  -12345  -12345  
-12345  -12345  -12345  
-12345  -12345  -12345  
-12345  -12345  BHN     
ZL      -12345  -12345  
[...]
       57.93779      -18.35036       1.416943       34.83051      -25.01035
      -17.33689       8.419968      -43.51880      -51.66809      -32.62967
      -74.72946      -78.74109      -83.17966      -118.7036      -128.3442
      -136.4617      -148.5353      -183.4302      -197.3959      -179.7346
      -215.4543      -241.3940      -248.5079      -268.6264      -294.2696
      -291.1802      -314.9985      -353.5284      -335.9631      -353.3552
      -402.5364      -391.7008      -391.0618      -426.8202      -418.4907
      -413.0143      -443.2826      -444.2422      -444.0710      -462.1986
      -451.2806      -459.2598      -468.9521      -440.7986      -463.7931
      -484.2853      -450.8556      -457.9434      -481.7545      -437.9406
      -423.7042      -438.3822      -412.5847      -400.7228      -411.9414
      -382.7443      -389.4064      -383.6138      -343.3271      -359.5979
      -349.0541      -318.2050      -343.4042      -324.4952      -288.0297
      -300.7676      -294.7680      -253.8014      -268.7565      -270.4178
      -231.4802      -234.8605      -241.7294      -208.2726      -198.4221
      -200.4575      -202.2542      -191.1865      -182.9458      -199.5856
      -187.2701      -152.8231      -174.9618      -180.5145      -141.3958
      -150.4914      -171.2867      -143.2690      -144.0278      -145.7147
      -124.0143      -139.5775      -139.7911      -112.9756      -138.1322
      -132.7661      -100.9624      -123.9963      -121.2598      -89.51895
      -100.9811      -107.9821      -92.20547      -92.36865      -97.60994
      -83.05051      -74.46838      -68.18411      -52.05301      -65.24718
      -68.49467      -25.89461      -21.46475      -44.18259      -4.287201
       32.62229       16.73456       33.91283       70.39056       58.42169
       68.86554       97.80109       107.3046       126.6487       134.4987
       141.0805       160.2098       154.3611       173.9358       200.8676
       190.6750       214.5273       228.3805       215.1734       234.0594
       256.5656       244.3887       253.7555       267.9017       280.1334
       264.3337       252.1006       280.9048       277.6484       243.0795
       286.6678       292.1751       264.6157       268.7217       276.0320
       271.4579       261.9180       251.4866       264.2231       264.9274
       249.6914       255.0427       265.7016       247.9867       260.3064
       264.3738       263.4500       276.7759       275.5752       295.7329
       301.3937       279.1456       304.7460       306.9702       319.3000
       358.1490       313.1675       320.0591       403.0768       354.6478
       329.0527       409.7765       381.9270       367.7894       426.3585
       400.0085       391.9270       426.9244       414.1486       417.2483
       423.8588       416.0072       445.2781       449.1351       440.0187
       458.4606       466.4712       473.6399       480.0452       478.7272
       504.4651       500.8960       493.4822       513.3829       514.1195
       509.4412       516.0179       525.7639       549.9988       540.5820
       511.9902       525.9153       552.7654       525.4044       519.4548
       546.2051       530.9434       528.9458       537.7341       522.6445
       518.4404       527.8322       516.7910       516.6875       521.2649
       506.3048       492.5369       493.1980       489.5491       468.5872
       458.0059       467.0360       475.7021       463.4700       409.8978
       379.5662       418.8079       478.2195       498.8397       384.5921
       197.9072       218.3823       311.6459       174.9202       90.18475
       298.2385       166.1417      -266.7075      -58.63116       233.7780
       39.13611      -219.2792      -71.71446       89.10992      -219.1516
      -259.6010      -38.46790       35.83765       188.0391       79.28113
      -419.8577      -735.2540      -573.7537      -503.8276      -801.2258
      -840.4526      -414.6565      -301.5178      -652.1777      -807.6047
      -597.4756      -371.3352      -422.0957      -585.5430      -773.4729
      -762.9067      -465.9524      -482.7983      -967.3889      -1187.969
      -917.5330      -708.9871      -625.9668      -699.6431      -966.8320
      -1093.378      -1015.972      -869.8169      -847.1592      -863.0249
      -841.2800      -779.4399      -741.6072      -884.0369      -913.0820
      -859.0520      -936.8127      -926.5356      -826.3271      -852.3931
      -1137.706      -1159.213      -845.8237      -605.3807      -495.1035
      -784.8228      -1094.909      -813.0820      -562.7979      -834.3638
      -923.0422      -633.1182      -614.7063      -860.6055      -761.5181
      -705.8938      -799.2297      -655.7089      -613.3403      -648.0232
      -556.2845      -509.5427      -630.2625      -700.5249      -542.6436
      -410.1222      -409.2571      -400.2888      -265.8665      -175.5903
      -86.62338       27.74829      -182.2701      -529.9952      -683.7855
      -535.4688      -330.3381      -448.6445      -540.7411      -302.5684
      -130.1776      -125.8420       19.10272       209.7411       298.0825
       188.9788      -55.03815      -208.8431      -149.7411      -72.24414
      -118.0135      -104.3383      -147.4813      -79.39594       156.9626
       183.4889       164.8703       155.1867       194.0774       330.2997
       325.5450       273.1234       200.5777       65.86485       69.44420
       51.16284      -26.24442       58.42700       196.5709       308.4615
       370.9052       373.6915       331.2987       169.7068       105.7074
       167.3301       244.1965       342.6069       252.9492       52.95593
       84.41602       226.4686       234.7964       206.8674       182.7350
       137.8303       188.6249       206.9416       193.6650       126.7942
      -8.359131       58.58130       225.3515       196.5012       134.5394
       279.7498       376.6687       282.1354       214.4611       174.1589
       159.3286       212.0985       311.0201       432.1622       385.9924
       201.2785       50.91624       45.37714       159.0039       312.2350
       430.3292       445.7637       500.6371       589.2800       486.8270
       354.7265       264.2470       227.8801       379.6562       495.0718
       483.5256       496.9597       523.5526       515.3494       447.2749
       405.4236       398.3978       472.7673       649.2930       754.4761
       702.6807       539.4216       415.0442       446.4631       528.1656
       596.1088       636.9036       648.4390       629.7822       685.3748
       747.6836       721.6008       722.3479       796.7485       843.3757
       702.1787       652.5696       825.5269       796.7861       706.3828
       738.4268       739.3457       721.7664       680.3564       598.8486
       563.8269       552.1313       650.6553       812.1992       821.0662
       740.0988       623.1438       456.7877       466.5906       586.8271
       573.7917       544.3701       561.6196       524.9274       532.1841
       540.8584       463.3896       477.8881       567.1138       533.5872
       395.1428       376.7675       400.2507       298.1897       346.6299
       407.5808       317.7177       360.3716       425.6460       389.6767
       326.4126       202.4260       166.0656       218.6990       239.1725
       173.0301       131.1218       159.9765       114.4239       43.85725
       15.54553       117.3587       162.4583       45.26451      -54.89011
      -49.05911      -39.72955      -128.5281      -225.9606      -197.3913
      -146.2492      -173.4512      -354.3080      -461.2894      -318.6283
      -324.7881      -380.1360      -327.0802      -461.7443      -499.9537
      -396.7253      -398.7141      -451.1697      -464.2881      -401.6906
      -328.3850      -455.7893      -615.0548      -637.1768      -666.9780
      -717.0671      -755.1128      -803.5620      -812.5422      -665.2552
      -479.2146      -479.8303      -513.9178      -523.6096      -558.3434
      -650.3894      -737.9124      -651.8679      -575.4138      -608.8511
      -663.6277      -762.9355      -808.9568      -708.8306      -630.7542
      -724.2329      -733.3926      -696.9441      -709.1951      -630.9379
      -548.3002      -591.3286      -581.1273      -439.2412      -457.6445
      -542.1013      -601.7517      -538.8588      -385.3669      -397.3198
      -503.0740      -576.2336      -559.6760      -443.2802      -352.5485
      -251.4639      -289.6339      -328.3724      -269.7891      -401.0909
      -558.5267      -511.6741      -371.3416      -329.8251      -368.0618
      -433.6960      -486.6390      -422.4525      -374.1914      -457.8875
      -457.1200      -347.4808      -265.3358      -241.9218      -212.4799
      -219.1511      -324.8495      -352.5609      -281.2393      -262.3961
      -275.5105      -231.3787      -194.9740      -358.0087      -377.8137
      -184.4670      -160.4104      -249.8723      -222.0865      -63.57225
       55.26141      -79.71271      -226.6890      -175.7304      -50.63167
       78.24156       76.52301      -53.49998      -30.26004       110.2009
       130.9324       92.64124       69.86179       34.50421       76.06554
       91.41273       23.56940       69.30557       113.0140       51.60666
       28.89478       106.7998       73.62048      -48.72235      -15.18140
       43.23868       85.38156       67.59601       34.50175       48.75121
       37.76620       42.02975     -0.5217133      -45.86293      -74.89349
      -98.58542      -81.11292      -92.64758      -92.64670      -77.41341
      -85.93951      -67.53534      -47.85953      -132.6634      -230.2583
      -173.7139      -126.8983      -200.3483      -229.8790      -178.9286
      -106.0804      -8.400772       103.5091       4.042114      -256.9376
      -257.3318      -35.40788       18.22858      -64.14714      -92.00024
      -71.40033      -171.6027      -218.7329      -28.93497       85.84187
      -28.76675      -120.2559      -81.01199       33.27025       36.23550
       51.72467       168.4220       209.0491       101.2155      -16.19037
       46.42865       233.3314       319.4877       305.7697       244.4315
       198.7363       188.8191       196.9176       190.4395       144.4067
       168.4862       269.1669       252.1838       161.5656       127.4076
       211.6724       245.5594       268.1981       363.4517       421.7041
       459.9423       425.7487       307.0131       275.8311       309.5532
       225.0991       157.5318       307.9934       378.9631       282.4412
       276.5485       318.5562       303.6410       344.1492       407.7493
       460.5160       506.0983       544.5786       494.9174       431.0740
       367.2874       339.2405       495.8723       593.8450       516.3792
       498.5942       528.6891       558.6724       504.5394       439.4651
       457.3286       598.0974       667.9441       560.1334       597.2073
       663.9124       633.2379       652.8359       644.7858       671.3574
       660.2946       649.7214       567.2792       458.1121       472.5649
       586.7803       666.3884       624.7134       590.0366       634.3235
       645.7344       601.4662       487.3181       474.9530       549.5958
       632.1562       702.9133       762.9838       702.3479       561.3005
       444.2084       415.1962       442.3502       496.5950       509.1373
       533.9121       494.5280       482.0116       525.9766       474.4043
       479.1082       571.0605       575.5989       599.2180       539.0072
       419.3547       406.6233       541.2010       522.5156       411.7107
       408.8678       334.1572       202.7222       182.5272       201.3050
       174.9850       139.2845       148.0054       169.0692       181.3409
       126.3756       95.25360       175.8366       199.8577       113.9086
      -7.926025      -116.6755      -139.7986      -211.0374      -337.4785
      -319.9468      -224.1938      -365.1082      -607.4795      -708.4509
      -772.0435      -883.1318      -950.5480      -741.7334      -493.6060
      -572.6849      -588.7742       22.28564       750.5128       614.8816
      -161.3157      -757.6206      -790.5447      -308.7157       240.7158
       430.6677       40.83569      -508.8006      -497.8796       42.33618
       652.4866       731.1158      -116.4822      -1129.372      -1376.661
      -1169.756      -1432.038      -2137.629      -2077.264      -1048.356
      -381.6216      -640.1069      -923.5842      -635.6280      -153.6850
       83.18985      -18.86157      -334.2244      -594.7458      -670.6379
      -638.4229      -824.1421      -1176.590      -1463.330      -1909.695
      -2342.345      -2187.042      -1475.382      -686.7167      -161.0319
      -28.34302      -246.1528      -426.0088      -448.2852      -483.1172
      -564.0759      -754.5986      -1115.137      -1399.812      -1445.152
      -1457.379      -1482.129      -1278.637      -960.2666      -856.4526
      -796.3152      -809.2004      -884.3656      -681.8006      -343.3925
       18.11859      -78.11230      -778.2979      -1227.266      -982.5651
      -492.7097      -268.6567      -250.2900      -292.3756      -340.5515
      -458.8192      -618.5466      -517.0518      -80.72394       233.2736
       220.5745       255.0421       322.2845       163.6613      -107.4359
       95.02979       739.0632       1033.149       589.4878      -325.1738
      -819.5676      -702.4120      -465.6434      -108.9362       250.3629
       512.6448       567.4633       239.1661      -150.2795      -323.3314
      -431.0100      -387.6548      -166.8585       9.027313       72.26996
       66.68719      -146.6729      -596.4799      -514.8982       228.9502
       894.5315       1170.167       937.5881       429.5657       318.2103
       560.6982       683.9624       613.7017       511.7527       592.9565
       897.9414       978.0956       617.2742       236.2646       241.7346
       393.3572       288.8884       260.3646       545.2350       595.6155
       384.2149       301.1860       371.0670       367.7615       160.7197
      -390.8362      -993.0862      -938.6348      -168.4368       721.7207
       1183.001       1020.703       722.6099       659.5413       579.7758
       197.3188      -276.7308      -361.3788      -111.3275       1.351654
      -55.75021      -58.72217       253.2249       699.9004       795.5616
       577.5510       408.8877       438.9147       581.0621       505.7330
       300.3911       177.4954       190.9059       253.0708       253.0673
       307.2333       322.0570       89.72858      -141.8398      -77.75513
       324.9490       797.0117       907.3220       593.5597       419.9933
       455.2842       612.2922       845.7924       733.8051       241.8972
       35.73962       382.9429       617.4849       203.2377      -399.4537
      -509.6320      -52.29553       434.0061       595.3912       511.0828
       361.5009       286.0385       208.6264       97.24847       175.7344
       325.3599       406.2411       497.8875       690.0518       1015.975
       1352.901       1467.917       1213.950       752.8346       503.4153
       487.9512       485.6671       366.5330       248.4758       145.6719
       88.23553       151.7186       94.12403      -46.16339      -1.521484
       330.3252       670.8984       652.1119       452.8802       183.5962
       56.45752       161.9774       393.9980       737.3843       864.6748
       615.9379       431.1416       581.0061       760.3834       680.6119
       492.4187       125.6712      -145.8624       17.75610       345.8218
       504.0170       309.7928       46.30902       73.00537       188.6496
       20.65009      -328.8506      -268.7086       254.0842       736.9126
       724.6246       262.3132      -38.73930       8.581787      -111.4685
      -381.9539      -567.0977      -602.9342      -612.2052      -569.9656
      -408.1722      -299.4838      -117.1385       27.21472      -158.5034
      -485.9783      -747.2517      -659.2563      -274.7095      -204.5541
      -544.8507      -614.4884      -370.3992      -133.6552      -10.15464
      -9.910072      -10.13998       136.5995       203.8969       55.37033
      -136.2938      -172.4120      -119.7664      -240.6410      -492.6671
      -553.5579      -523.7584      -480.7830      -357.6790      -340.6298
      -408.6635      -360.7349      -303.9402      -214.4070       85.50916
       483.7456       423.3717      -77.25842      -440.8761      -509.7452
      -449.0205      -505.9333      -879.1846      -1195.824      -1198.771
      -847.5040      -386.1198      -3.021774       95.57312      -162.6634
      -314.1480      -226.8141      -197.2501      -283.3376      -346.9418
      -294.7240      -260.4708      -194.7598      -356.2329      -612.2209
      -524.7999      -275.2920      -375.0625      -772.4244      -790.4351
      -461.8455      -354.7338      -407.9817      -590.3291      -777.6621
      -807.8745      -840.6117      -671.7937      -223.5285      -90.15161
      -404.6982      -654.3266      -443.0481      -34.60211       137.4771
       79.55455       32.22523       81.44948       24.79425      -260.7422
      -406.5519      -394.3451      -208.2121      -40.01501      -217.6041
      -407.9338      -298.5718       10.16476       16.69910      -472.7468
      -772.4783      -534.1514      -200.9460      -209.7761      -480.0422
      -660.9059      -547.3091      -305.1273      -180.5946      -287.9127
      -444.2101      -287.3781       50.64087       232.6224       241.5279
       73.40686      -233.6809      -514.7751      -607.2756      -552.2581
      -366.3581      -163.0040      -173.9251      -209.9167       102.6484
       524.5882       454.5471       6.823669      -250.9977      -236.8441
      -79.46568       11.47275      -110.9419      -200.9521      -47.29175
       123.6337       80.14252      -106.4832      -290.8043      -381.7916
      -372.0088      -297.1857      -100.6446       116.2895       161.9072
       182.4432       275.4615       208.8818      -33.00784      -83.80035
       159.2822       325.5320       228.0381       78.24278       27.41156
