     0.02500000      -11773.40       13826.20      -12345.00      -12345.00
      -30.00003       217.3749      -18.75000      -12345.00      -12345.00
       0.000000       13.55000      -12345.00      -12345.00      -12345.00
      -12345.00      -12345.00      -12345.00      -12345.00      -12345.00
      -12345.00      -12345.00      -12345.00      -12345.00      -12345.00
      -12345.00      -12345.00      -12345.00      -12345.00      -12345.00
      -12345.00      -31.06740      -67.28460       921.0000       0.000000
      -31.37200      -68.11800       0.000000       97800.00       0.000000
      -12345.00      -12345.00      -12345.00      -12345.00      -12345.00
      -12345.00      -12345.00      -12345.00      -12345.00      -12345.00
       86.29293       67.17601       246.7462      0.7758739      -12345.00
      -12345.00      0.4898692       90.00000       90.00000      -12345.00
      -12345.00      -12345.00      -12345.00      -12345.00      -12345.00
      -12345.00      -12345.00      -12345.00      -12345.00      -12345.00
      2008       244         6        45        24
       150         6    -12345    -12345      9896
    -12345    -12345    -12345    -12345    -12345
         1         7        13    -12345    -12345
    -12345    -12345    -12345    -12345    -12345
    -12345    -12345    -12345    -12345    -12345
    -12345    -12345    -12345    -12345    -12345
         1         1         1         1         1
CHUC    -12345          
        -12345  -12345  
-12345  -12345  -12345  
-12345  -12345  -12345  
-12345  -12345  -12345  
-12345  -12345  -12345  
-12345  -12345  BHE     
ZL      -12345  -12345  
[...]
       160.0210       161.3625       157.3943       164.0257       163.7412
       160.8228       155.3680       163.9859       153.9048       150.5327
       147.9902       156.1579       140.9247       130.5643       141.7923
       138.7918       120.4532       130.6541       120.7411       114.0378
       113.2586       113.9252       103.9105       105.4861       93.69684
       96.81625       81.54144       82.90198       87.46704       67.79881
       63.73181       82.55632       61.81351       59.98239       61.21088
       56.42137       46.76909       51.91942       36.65776       45.48080
       42.04365       21.13664       30.61439       34.02908       5.612370
       12.42446       8.761297       3.822849     -0.2834435      -5.144745
      -16.50449      -4.875099      -21.03724      -28.60159      -22.03534
      -26.32442      -41.81027      -36.04646      -42.89017      -47.60066
      -58.15172      -51.36469      -56.87323      -61.92575      -70.69307
      -66.39722      -74.33664      -71.45485      -84.15021      -87.25842
      -93.38611      -92.96387      -107.6086      -107.4317      -106.5616
      -108.5406      -122.6555      -112.4923      -118.8080      -124.8758
      -126.6395      -120.5131      -131.7211      -130.2684      -129.5865
      -129.3535      -141.8681      -130.7360      -139.9556      -138.4052
      -134.1916      -142.3501      -148.0764      -134.4095      -143.7535
      -155.5565      -144.7589      -140.1441      -146.6906      -145.4049
      -148.0949      -142.3461      -136.2894      -147.0373      -146.0448
      -134.8002      -141.8201      -133.0836      -142.2792      -145.6649
      -122.1297      -135.6146      -143.5378      -115.9123      -125.9382
      -138.8724      -126.6121      -122.3537      -132.6577      -125.3222
      -118.8329      -125.5403      -130.5286      -119.8680      -118.1476
      -117.0854      -117.5588      -113.1990      -113.8839      -112.4300
      -109.4237      -101.4621      -100.8834      -100.2910      -102.6541
      -91.92780      -89.43817      -84.60097      -87.89409      -77.91399
      -68.40884      -79.66354      -66.19537      -52.34564      -60.13191
      -49.29970      -38.13702      -38.13181      -37.27116      -26.34731
      -8.764990      -11.85242      -6.028313       17.48081       15.78230
       15.84122       41.91121       43.50400       41.94041       56.63345
       79.46518       81.57118       79.93994       95.04858       111.5846
       110.8421       117.6397       131.7431       142.2973       143.5954
       156.0559       173.7367       166.6839       178.4096       207.5367
       194.4534       197.9768       216.1530       218.9921       219.4801
       238.1625       239.6743       232.8398       250.9153       254.9696
       242.2505       264.1581       268.7512       261.9234       265.7066
       264.8553       275.8490       274.1291       264.5693       269.2755
       282.8176       276.0469       274.9473       282.7344       266.0730
       268.7115       288.0609       274.5345       261.4547       269.0104
       266.0988       254.6136       265.4438       258.9238       241.4860
       254.2675       251.3104       225.6002       232.9949       247.5203
       224.9127       212.9201       226.0298       216.7341       199.2299
       198.9217       199.2905       182.0798       183.3184       180.3242
       161.0446       161.6101       154.9050       142.7478       140.3344
       127.7456       116.8506       115.0892       103.2899       97.64417
       91.02750       76.85611       67.31119       62.52698       48.74076
       39.91267       23.43600       17.18666       6.577965      -7.395729
      -14.12430      -19.87614      -37.50661      -59.29761      -36.87830
      -128.9226      -365.5109      -132.5806       89.78595      -234.6865
      -355.9812      -461.2444       115.8641       548.8965      -469.9072
      -521.7058       273.4984       549.0824      -150.9668      -1058.693
       101.7283       695.2598      -1082.027      -1055.772       1178.836
      -195.0820      -1960.934       54.69824       858.3699       21.76587
      -1330.747      -1264.508       1132.440       897.3887      -1361.118
      -1252.573      -10.11487       626.7499       83.74170      -1922.874
      -661.6653       1484.964      -1306.863      -890.8899       1192.634
      -920.5112      -1396.118       189.2573       334.2756      -1221.527
      -199.5353       781.5540      -1471.017      -1325.196       1145.678
       718.7456      -2335.772      -1045.045       1201.742      -147.1997
      -1378.505      -1091.547       1715.020      -410.6792      -2597.467
       1014.941       936.5955      -772.2603      -1309.046      -347.9581
       1157.649      -505.3777      -1661.412       200.3320       1182.439
      -1307.110      -1184.305       846.8220       28.55371      -437.4084
      -579.5453      -154.7276      -30.46829       193.9094       37.73059
      -1123.546       295.2777       989.6570      -904.6132      -1209.666
       1224.710       954.3865      -1729.259      -619.8071       1364.014
       385.7241      -1101.238      -500.4006       990.1265       146.2266
      -700.0577       671.6730       431.4942      -536.7007       233.7278
       459.9558      -315.4087       101.5876       863.5842      -522.9922
      -366.3804       1321.913       284.8793      -884.2124       355.6752
       912.6412      -136.8901      -162.2048       843.8505       768.3894
      -526.2761      -535.7529       1289.172       1007.161      -839.8285
      -48.46143       1202.144       438.3923      -450.3325       523.6565
       938.7130      -189.9369       135.3835       750.9587       354.0268
      -393.7717       359.2319       996.0903      -124.1783      -79.85132
       477.9880       774.1859       220.5853      -451.8734       624.8429
       724.4210       42.21507      -172.6863       200.7898       996.1256
       303.4646      -891.8833       945.7611       1305.547      -990.9302
      -266.9097       867.6260       617.8175      -20.28119      -449.0355
       241.7571       745.7831       380.2875      -369.6133       105.8523
       590.4166      -74.75371      -10.18005       78.64429       268.5034
       361.4441      -280.4059       119.0359       545.8389       43.51660
       80.68341       543.5954      -124.6692      -211.8246       639.6400
       370.9993      -251.2358      -368.0187       198.4115       789.0861
      -163.2930      -660.7878       262.6484       775.1053       205.2542
      -319.3795      -233.4266       41.71350       631.8370       69.06567
      -837.0872       218.9709       684.7910      -402.2400      -508.4441
       287.8899       539.6948      -82.47626      -416.2037       37.73871
       277.9501      -40.15405      -489.0825      -173.0547      -163.3326
      -48.30823       568.8641      -634.9402      -556.7896       954.0777
      -62.92468      -643.0190       263.1275       493.5715      -646.1589
      -650.4573       250.2869      -268.5770      -573.3416      -292.9556
       73.88068      -63.34433      -133.0848      -74.56775      -626.8688
      -148.7825       43.60907      -417.4724      -161.3256      -306.1186
      -174.7000      -159.8247      -565.3939      -218.4384      -425.4723
      -70.38794       225.8687      -1043.328      -804.5680       652.8203
      -129.5796      -1237.999      -600.7391       478.6176       242.7708
      -1531.767      -970.3243       753.7451       6.252930      -922.5220
      -1161.319       139.2351       626.0112      -1306.009      -807.2028
       409.9375      -879.9609      -378.7106       393.5947      -1433.851
      -106.5853       704.8281      -1774.235      -479.7470       644.8301
      -730.5144      -966.0443      -338.8189       257.1006      -953.8369
      -1407.375       291.2979       100.7351      -1413.636      -274.0518
       1097.981      -1346.301      -1169.656       1370.973      -605.1602
      -1939.272       706.1281       284.4553      -1662.509       78.18903
       134.0906      -851.1398       500.4202      -248.0928      -1551.920
      -18.59052       579.3085      -610.1104      -428.4632      -204.5768
      -241.8733       634.1748      -147.6816      -1179.832      -190.1991
       583.9023      -39.58472      -610.4023      -122.0597       84.19290
       325.1106      -287.8992      -599.0441       348.1336       135.7900
       72.74677       41.56366      -481.4264       126.0859       626.3030
      -171.5676      -121.8431       178.9424       28.77173       489.0974
      -77.28333      -569.1313       658.8555       951.1868      -605.1494
      -115.1846       1524.815      -493.7424      -1226.463       1885.971
       1303.199      -1318.751      -77.30200       1609.298       289.5509
      -447.1467       444.2114       615.6155       331.4274      -170.9888
       578.6436       1225.350      -236.3571       140.7031       1277.713
       56.02112      -93.58496       969.2769       353.4441      -151.4146
       570.2922       1079.698      -158.2753      -246.6689       1256.661
       626.3059      -160.1057       619.9021       984.3501      -68.28015
      -244.7971       1021.718       1066.014      -25.01379      -328.4753
       1173.440       889.5266      -975.6343       502.3870       1310.664
      -105.5652      -69.23401       523.6401       755.7239       266.0131
      -529.3560       260.7756       1295.078      -1.267761      -505.8818
       1138.407       760.4546      -1007.938      -84.63696       1279.655
       245.6270      -486.4211       102.9373       760.9740       454.9431
      -470.2972      -132.1579       241.3104       256.8234       435.8653
      -112.8784      -89.99286       154.5637      -25.20258       270.3058
       63.72992      -329.9229       121.3727       138.9646      -42.31631
       131.4517      -343.1791       33.90259       311.7735      -288.1841
      -132.9392      -157.7825       334.2772       145.3185      -599.9720
       53.64966      -70.72534      -582.6327       300.7262       600.5559
      -537.1346      -433.0174       179.3103      -150.4282      -58.06062
      -118.1373       81.19946       299.5919      -726.9936      -270.2782
       596.6169      -195.1159      -225.7506       282.1027      -438.8801
      -340.7847       408.1083      -775.2196      -302.6863       1221.251
      -193.1846      -1153.872       225.3500       663.6646      -198.0072
      -895.0684      -44.78992       909.2764      -615.4763      -811.7029
       679.8874       427.6558      -562.8857      -980.6040       823.3232
       562.5591      -1441.004       328.3619       709.0681      -601.4299
      -304.5898       196.2193       169.8057      -655.7578      -179.7947
       1161.505      -260.2839      -1673.388       476.7488       1016.035
      -412.0792      -202.9872      -233.8754      -82.97272      -209.9460
      -415.5831       330.6247      -102.8939       107.2914       359.3879
      -458.6101       35.09344      -261.0997      -267.8351       527.8654
      -131.8081      -346.1737      -209.1878       85.02429      -154.5996
      -452.8223       354.0073       672.0562      -142.1704      -1137.555
       230.5602       755.4993      -1159.960      -98.53088       1029.283
      -185.8438      -837.3937      -143.6222       698.0188      -186.9399
      -1209.716       135.0537       1309.067      -1087.817      -1377.334
       1213.812       238.6240      -826.0302       181.3085       435.9148
      -719.5647      -781.5552       1052.021       413.9897      -1306.844
      -580.8978       411.1794      -91.71649      -305.3136       156.2937
      -311.7661      -419.1056      -326.1411       370.8163       199.0608
      -790.9344       80.22818      -38.02051      -169.5820       676.8303
      -498.5768      -124.9102       1790.219       826.2051      -792.2227
      -1196.962      -1202.482      -716.7310       978.2974       2542.118
       2232.842       2637.983       3235.736      -436.0913      -2280.473
       2793.441       1708.066      -5122.920      -997.7627       5172.163
      -1762.799      -5809.481       1857.579       5338.202      -3142.125
      -9939.224      -2126.589       2317.277      -2851.592      -1271.853
       1746.094       2020.415      -59.81201      -2743.668      -1570.942
      -821.5566       6493.229       8968.156      -10079.03      -8982.162
       12712.51       74.89746      -10564.59       9542.578       9670.022
      -5957.320      -6724.633       4956.244       6960.618      -3583.055
      -871.1855      -4254.668      -9913.932       11798.38       10715.82
      -11773.40       1557.941       13826.20      -6058.257      -10688.21
       5714.915       5426.527      -4237.334      -4993.762      -1623.822
       1407.195       1681.493      -123.6729       2260.764       4548.132
      -755.5825      -3780.191       1211.906       4529.145       2735.293
      -1907.293      -4037.394       1493.821       2923.587      -4689.886
      -4597.197       4392.434       2720.566      -3767.044       801.0259
       1913.587      -1421.505       2320.676       2525.868      -3306.595
      -2602.303       4699.953       1360.138      -3207.888       840.0356
       219.4403      -694.9005      -371.8497      -150.4802       1253.385
      -696.5994       421.0820       2987.236      -961.4482      -2904.582
       1009.531       2080.534      -1044.236      -581.1614       872.5908
      -575.5428       66.68726       587.0400       979.8408       1240.870
      -1134.163      -1423.277       1875.482       1836.326      -3519.950
      -753.0742       5043.076      -1151.323      -4708.068       1172.899
       2606.883      -3048.061      -2406.753       2763.858       774.9250
      -2084.244       266.3638       1493.563      -3447.997      -1869.831
       4768.812      -687.7808      -4145.915       1091.625       973.0337
      -2075.705      -1248.236       2067.936       1594.729       100.6503
      -265.2690      -1134.070      -86.66391       173.0452       120.2021
      -868.0156      -737.5105       1711.618       30.60547      -3167.044
      -1256.991       444.1130      -1756.346       660.6643       1910.686
      -2444.203      -577.1807       2169.423      -822.8030      -1389.673
       321.1890      -526.2299      -1013.996       1869.391       295.3271
      -4477.113       451.5708       4554.579      -2272.783      -3503.244
       3716.695       2460.804      -4537.701      -476.9221       2851.937
      -3066.736      -91.75537       2511.478      -2845.337       429.1650
       4103.188      -2026.687      -1955.547       3602.071       543.7310
      -2643.035      -211.9932       459.2169      -455.3384       531.8729
       658.4946      -1624.687      -868.2805       1856.024       173.2175
      -1588.450       780.9973       1336.289      -1134.545      -522.4548
       1449.215      -183.5607      -1258.623       868.8555       1382.938
      -1186.097      -578.1494       3540.298       538.7705      -4278.858
      -199.1055       3691.461      -248.1304      -2898.333       1771.833
       2630.811      -1258.365      -674.4497       2313.665       1452.431
      -1813.115       99.13306       2157.163      -1586.792      -575.2632
       3353.052      -1298.312      -2710.789       3537.623       1977.118
      -2611.674       987.7812       2477.769      -2088.703      -491.9648
       3219.040       41.05176      -2856.952       233.2744       3061.472
      -267.0621      -1273.662       1628.958       588.4850      -986.8983
       167.7227       1614.993      -309.7456      -1071.953       994.4661
      -1016.731      -1665.756       2478.335       1928.375      -2876.016
      -1120.307       2851.505      -231.2493      -769.7041       2800.833
       287.9531      -2839.187       318.6870       1827.756      -1435.389
       720.7881       2959.697      -2563.308      -3101.829       2153.990
       1305.055      -2108.330      -234.1716       1313.848      -649.7605
      -563.2517       1516.917       283.0415      -2528.515       98.38477
       1915.749      -548.9897      -768.9705      -534.4473       420.7802
       1348.426      -1749.655      -1837.361       2470.116      -107.0786
      -3662.411       983.6558       1881.865      -1840.197      -407.9320
       745.6696      -991.9448       148.8107       1101.991      -1072.753
      -1947.191      -758.3524       477.5876      -69.72827      -1272.180
       309.7394       1561.513      -1107.196      -2203.021       619.5364
       688.5986      -2347.673      -925.5254       2198.623      -829.6450
      -3016.951       869.8384       2607.185      -1816.268      -2689.562
       2418.648       1084.305      -3409.609      -969.3374       2259.234
       371.4146      -2477.319      -814.7832       2711.686       937.3887
      -3553.917      -2157.880       2567.383       1061.605      -3539.853
      -536.0303       3045.577      -1321.767      -2683.797       1547.079
       1253.448      -2014.703      -370.7834       1290.080      -1541.074
      -1407.106       967.1469       261.7379      -868.2611       339.2859
       1192.762      -87.66235      -820.0319      -544.0564       23.77371
       115.3459       125.5769      -454.1609      -1793.908       461.6235
       2021.814      -903.7552      -677.7046       1505.854      -130.5256
      -1580.335       321.2024       1423.916      -960.1155      -1514.533
       1237.092       707.0703      -750.3716       870.3332       715.2002
      -542.7729       513.8700       157.4607      -925.8955       722.0652
       713.7336      -880.5847       145.7135       948.3647      -1327.977
      -566.7666       2797.005       77.32715      -2151.697       1500.250
       2565.775      -1059.326      -1544.322       1932.920       722.5203
      -2012.048       1306.113       2458.060      -1607.400      -1256.900
       2502.655       885.0562      -1978.477       1097.447       2844.437
      -604.8962      -1398.661       935.3662       672.1371      -494.4033
       714.4497       1667.083      -78.36029      -672.7012       1014.978
