     0.02500000      -6871.495       10454.93      -12345.00      -12345.00
      -30.00003       217.3749      -18.75000      -12345.00      -12345.00
       0.000000       13.55000      -12345.00      -12345.00      -12345.00
      -12345.00      -12345.00      -12345.00      -12345.00      -12345.00
      -12345.00      -12345.00      -12345.00      -12345.00      -12345.00
      -12345.00      -12345.00      -12345.00      -12345.00      -12345.00
      -12345.00      -31.06740      -67.28460       921.0000       0.000000
      -31.37200      -68.11800       0.000000       97800.00       0.000000
      -12345.00      -12345.00      -12345.00      -12345.00      -12345.00
      -12345.00      -12345.00      -12345.00      -12345.00      -12345.00
       86.29293       67.17601       246.7462      0.7758739      -12345.00
      -12345.00     -0.2369964       0.000000       90.00000      -12345.00
      -12345.00      -12345.00      -12345.00      -12345.00      -12345.00
      -12345.00      -12345.00      -12345.00      -12345.00      -12345.00
      2008       244         6        45        24
       150         6    -12345    -12345      9896
    -12345    -12345    -12345    -12345    -12345
         1         7        13    -12345    -12345
    -12345    -12345    -12345    -12345    -12345
    -12345    -12345    -12345    -12345    -12345
    -12345    -12345    -12345    -12345    -12345
         1         1         1         1         1
CHUC    -12345          
        -12345  -12345  
-12345  -12345  -12345  
-12345  -12345  -12345  
-12345  -12345  -12345  
-12345  -12345  -12345  
-12345  -12345  BHN     
ZL      -12345  -12345  
[...]
      -157.6477      -148.6935      -139.3102      -149.2021      -150.7439
      -137.8655      -141.6370      -137.9310      -131.5537      -130.7321
      -138.4171      -115.5515      -120.3432      -130.7200      -116.1668
      -108.4835      -116.9732      -110.4596      -109.2177      -105.1202
      -105.6263      -95.12653      -103.2964      -97.01459      -90.82654
      -92.77420      -95.02368      -87.75809      -83.31711      -74.18115
      -92.13223      -87.18770      -70.88783      -75.62070      -80.28287
      -69.42255      -68.64842      -69.14653      -68.06093      -60.99896
      -58.26260      -57.37711      -59.55080      -48.02812      -44.26169
      -45.65164      -46.95897      -41.06168      -33.21365      -32.42110
      -39.22958      -22.13709      -15.69386      -21.89621      -19.96667
      -4.998729      0.6864796      -6.617985       4.185978       23.58778
       8.565224       14.46281       24.97215       23.97509       22.92609
       37.07474       25.02152       36.59801       50.71437       36.99962
       34.01285       57.37640       52.33916       48.86476       58.31049
       66.92480       54.05943       67.52768       70.16098       68.18880
       67.51514       78.89937       80.23846       76.94724       77.16043
       86.37143       82.08746       89.83575       84.11267       81.81171
       93.35318       90.00537       77.21112       100.7682       90.83160
       91.55334       94.47827       98.12888       90.41528       102.6456
       96.70871       98.22043       105.2725       94.66812       87.77048
       111.2729       91.32651       88.04099       95.01700       100.8637
       85.84906       90.19641       85.22284       90.79004       83.37946
       75.09082       74.31250       87.57065       67.63612       66.67380
       68.39700       74.62665       60.46465       64.96431       58.87163
       61.35056       48.69710       55.29315       52.15712       46.71475
       37.88481       54.39088       35.78466       33.71449       35.77033
       36.90556       21.36882       33.37909       24.94475       11.21154
       7.774155       15.41335       5.387713     -0.1168385      -11.67846
      -7.297581      -14.57153      -15.34437      -25.50761      -26.12461
      -41.99318      -36.41966      -47.29698      -49.30215      -65.51517
      -63.18137      -73.34052      -62.96945      -80.96487      -88.08176
      -75.84238      -84.04581      -98.00900      -78.78192      -103.1931
      -101.6714      -98.92975      -103.9466      -117.7990      -103.2938
      -123.2610      -118.4428      -115.3898      -115.9037      -130.1686
      -114.8629      -121.5266      -125.2483      -132.7684      -115.1104
      -126.0116      -125.3111      -134.5561      -122.7566      -128.7931
      -121.6964      -139.6393      -122.6659      -129.6039      -117.4077
      -135.9417      -124.8381      -127.2970      -126.5629      -136.1594
      -114.0613      -130.9608      -126.5094      -130.0799      -117.5381
      -135.2831      -117.2599      -135.9416      -115.9277      -121.7556
      -130.3705      -129.1884      -111.6661      -122.4660      -115.1642
      -133.2844      -107.0069      -108.0697      -107.0822      -119.1702
      -106.1401      -100.4348      -102.1471      -117.3117      -87.82349
      -93.03067      -89.47061      -91.65591      -80.51865      -93.73889
      -80.88599      -71.75017      -67.39906      -77.21483      -57.67578
      -58.22578      -51.12436      -55.09232      -45.28976      -40.62812
      -30.74596      -43.96086      -23.62796      -23.53523      -18.80327
      -18.10198      -5.303833      -8.256435       7.991697       9.097992
       9.940773       14.58083       40.54373       27.16284       30.81630
       39.16531       59.66505       50.79074       62.21007       66.49048
       73.51480       81.19028       94.56061       89.83362       103.7290
       101.4411       105.8082       109.6346       119.8184       119.3676
       125.4377       125.2350       142.9600       125.9893       140.6206
       125.9546       3.541199       76.23431       290.2843       33.23434
      -11.99011       313.6271       287.2030       147.8082       32.47559
       379.6008       471.8489       141.6331       214.5348      -303.4546
       268.2623       795.7006      -661.5901       284.3020       1209.792
      -1146.115       41.17773       2091.615      -731.3801      -1108.195
       1575.310      -133.6313      -865.2825       1919.194      -358.0308
      -1580.354       2005.040       887.4275      -1849.639       343.9270
       1688.191      -381.1310       16.46313       405.8246      -251.1339
       555.3945      -168.4685       188.9888       1072.057      -922.7197
      -604.8921       1297.260       308.3947      -792.8384       205.1416
       125.9168      -207.5803       732.2784      -55.37537      -642.7792
       86.87683       719.1616       50.17548      -899.5352       992.9128
       436.4160      -1621.530       364.4891       1331.498      -806.7014
      -1147.995       861.0981       433.0425      -834.9339       283.5815
       237.0680      -889.6437      -36.35138       554.7833      -658.7462
      -552.0343       152.0073       52.76746      -72.44531      -185.4978
      -391.9468      -346.4075       95.21991       40.50073      -452.4031
      -405.7493       314.7226       171.9712      -695.4554      -433.1053
      -334.8016       304.2669       676.3015      -1402.679      -732.2546
       866.3848      -333.5477      -640.8915       50.07690      -92.44409
      -915.2308      -371.3873       371.6763      -546.8059      -553.4211
       192.9421      -29.69849      -376.9188      -428.1508      -96.37549
      -544.1202      -247.6258       385.1145      -837.3792      -358.0629
       485.1821      -875.1209      -685.8710       596.7366      -6.089722
      -1019.223       202.1572       398.9580      -1370.312      -180.6902
       846.2607      -749.4058      -720.5971       127.2278      -64.91180
      -272.0510      -223.9265      -398.1772       51.43884       61.48438
      -984.7341       269.0043       817.4655      -1000.099      -42.64548
       230.8890      -834.0210       497.6738       155.5682      -856.8917
       341.1223       227.9617      -432.8304       264.6127       175.8924
      -48.02441      -248.6627      -737.1178       236.8212       840.5621
      -15.15808      -268.6977       74.40759       215.0049       22.79010
       223.9212       92.04187      -274.8334       669.3401       65.70758
      -314.0845       1013.484       254.9401      -513.0925       487.6562
       369.7511      -238.9973       292.9893       478.0398       250.8833
       210.8168       352.2046       168.8105      -172.0192       571.1637
       632.9679      -236.9059       186.2100       999.8513       473.4574
      -276.1255       270.0594       663.4761       75.51984      -45.54492
       577.0500       745.8593      -72.83337      -113.9451       890.7133
       312.0645      -313.6855       947.3786       707.7983      -597.7281
       218.6768       886.8463      -415.3224       253.0840       1316.925
      -650.6484      -529.3000       1520.108       879.9227      -586.1942
      -101.2416       795.5567       155.5512      -193.0972       644.4109
       79.62238      -232.5891       768.2413       101.2514      -224.7166
       321.6839       272.5540       92.34808       305.1460       247.9264
      -489.2308       173.6152       420.5415       226.5223      -119.5294
      -598.6787       789.3962       605.8079      -244.8321      -83.37787
       135.6238       497.5382      -658.4437      -240.3350       1140.187
      -504.3754      -896.8748       965.2339       452.0157      -842.0834
      -212.1355       379.2661       274.5131      -93.54834      -768.8120
       139.1919       938.2325      -389.1077      -791.4315       268.0943
       358.6866      -443.0706      -71.77432       35.44046      -250.5994
       761.1722      -278.1467      -1331.373       601.8544       466.3516
      -1266.379       457.1713       882.7395      -1336.589      -267.0870
       819.3743      -290.0518      -989.8303      -108.4070       912.0669
      -582.2205      -853.9625       609.3140       14.69873      -730.8518
       249.7520       56.92651      -1177.318      0.3061523       1163.924
      -695.4484      -916.4952       1095.796      -374.5027      -1306.428
       1138.053       124.9980      -1480.188       63.03137       867.2665
      -236.6003      -1122.552       330.7665       784.0355      -605.7202
      -305.4070       65.81348       10.82715       443.7021      -623.9969
      -579.8450       878.9043       135.1851      -431.6959      -97.24219
      -118.2240       644.6849      -215.8805      -1088.434       1046.361
       184.7299      -1133.144       925.2377       768.9253      -944.3248
      -217.8430       1239.573      -388.0504      -956.1235       1563.969
       809.0930      -1766.879       192.2273       1653.006      -893.6044
      -326.1846       1475.507      -25.09253      -873.4622       556.2590
       1403.598      -247.7391      -809.4250       822.8557       684.7848
      -465.5947       279.0747       783.8627      -277.5725       404.6256
       558.5455       64.89777       530.3309      -611.4996       162.8242
       1647.332      -349.7896      -816.5208       1196.886       752.6870
      -810.5417       250.6943       1334.560      -21.97583      -519.3794
       865.5298       1140.565      -1210.992      -580.6304       2937.627
      -41.05420      -2185.299       1619.185       1535.312      -869.4041
      -662.9873       933.9496       705.3386      -678.5610       476.1011
       871.9963      -728.3432      -388.9509       816.8693       379.8650
      -233.9410       761.4891       422.5867      -940.3086       249.3298
       807.9821      -351.8583      -476.4272       433.0800       291.8462
      -346.5357       148.1747       285.1654      -47.58569      -526.6705
      -428.4723       496.2402       515.0712      -616.1176      -720.2976
       687.7043       634.2285      -1199.889      -1101.479       1133.169
       577.7261      -1685.926      -390.9019       1088.176      -176.1042
      -1002.882      -390.1494       389.8350      -85.38306      -1183.589
       91.60809       422.0225      -1392.058      -95.97809       523.1678
      -624.4880       6.519043      -68.56787      -756.4695      -976.4081
       156.6442       506.1743      -556.5154      -380.0512      -364.6464
      -148.7095      -460.9827      -759.3140       473.3550      -288.0686
      -1253.931       177.2200       48.12231      -1062.126      -9.323242
       534.6498      -122.3335      -530.3076      -656.6820      -13.89404
      -316.4081      -653.5440       81.52234      -225.0202      -82.92560
       498.0237      -752.5834      -968.4450       753.3060       295.4551
      -1590.399      -864.7261       1835.298       443.7034      -2097.773
      -20.30975       276.3042      -778.6450       1088.256       498.2153
      -1121.063      -269.7269       164.9003      -3.580574      -51.23257
      -16.20654      -338.9484      -498.1185       598.2596       520.1460
      -835.8524      -568.2987       476.8628      -93.51318       130.5397
       767.2866      -751.4672      -772.1721       436.7416       357.4282
       73.04480       265.3501      -273.3848      -762.5699       659.1332
       610.9386      -184.8611      -309.7175      -810.0825       504.8003
       1092.986      -1093.733      -1001.572       1121.348       714.7291
      -166.1448       65.95776      -827.5226      -769.6819       1158.612
       663.1007      -839.3746       65.53091       84.82062      -276.6964
       683.5448      -406.5613      -595.4358       1319.056      -553.5338
      -973.9375       1215.919      -80.28619      -421.1528      -176.6340
      -220.9929       752.0259       10.77777      -358.3688       402.9921
       93.56995      -701.4789      -340.0498       1049.553       436.6890
      -1153.895       111.7533       308.1720      -321.8427       398.3579
      -893.0900      -901.4453       1822.446       1015.010      -1473.021
      -1145.206      -576.9189      -210.9673      -154.8501      -1948.328
      -220.7344       3116.347      -861.4612      -1996.009       2450.602
      -897.1562      -2913.823       418.3245      -419.5732       2071.072
       7820.739       5702.482      -556.7798      -559.3330       3892.752
       919.7861      -4142.314      -1878.450      -1490.566      -932.4497
       1091.810      -1682.307      -5700.857      -6771.460       1336.695
       10454.93       6244.548      -1776.039      -6871.495      -6435.646
       2814.241       2775.170      -659.2109       4969.698       5295.676
      -2521.031      -5049.488      -270.5898       1275.908       2230.959
      -733.4482      -4057.213      -712.5115      -1249.508       3190.549
       5386.328      -3540.581      -1428.165       3100.324      -3596.170
       231.7871       9380.195      -724.8516      -5952.903       2665.628
      -582.1343      -3126.611      -250.0210      -321.0615       3125.738
       1588.824      -4401.327      -588.7627       6003.277       117.4121
      -4629.748      -4.417725      -906.4658      -312.8809       2840.294
      -762.2793      -2232.311       5.299561       974.7640       283.6841
      -439.7896       280.3899       864.2515      -1741.830      -3186.253
      -336.9688       2449.466       3971.730      -620.9209      -6621.436
      -567.7715       5947.812       833.6162      -3157.890      -643.8008
       2819.348       85.66504      -4875.008       494.3396       3437.748
      -3071.702      -92.91406       5493.819      -2161.428      -4959.789
       2456.717       1132.891      -1889.372       118.1246      -816.1299
       1308.367       2774.812      -1909.942      -1315.129       1429.016
      -361.5415      -1487.397      -2040.578      -580.1123       2790.281
      -637.4106      -2895.592       759.9485      -1133.237      -829.0474
       2796.754       2164.214       1124.011      -1341.657      -2361.345
      -480.3118      -926.1602      -1363.658       55.39526      -1086.331
      -859.5598       1660.344       414.8628      -1257.725      -355.8985
       304.2228      -166.8492       477.0532       381.3369      -610.9492
       461.7192      -258.4320      -986.0259       1074.917      -157.8428
      -3297.688       147.2329       3760.956      -952.9292      -3488.324
       823.6394       2004.680      -375.4669      -1273.243       903.2290
       1838.240      -661.7736       26.50244       1341.467       436.3383
       215.2869      -1137.384      -1666.259       76.88110      -352.9011
       587.5046       2802.137      -2053.402      -3365.961       3077.300
       1433.806      -1977.489       1310.850       221.6934      -2191.154
      -66.12939       1774.318      -172.3101      -2290.989       2610.197
       3028.246      -4263.539      -1323.229       3062.737      -1762.968
      -2574.184       501.3621       689.4304      -613.3875      -1258.879
       998.2803       2502.250      -1127.540      -1738.664       2815.661
       1423.073      -2169.646      -297.4995       967.7255      -162.2803
      -164.6482      -147.7629      -841.1324      -589.8940       1190.854
       708.3125      -767.6556       597.1609       620.0298      -896.8788
      -889.3018      -168.7393       1195.937       1248.843      -1267.182
      -1467.234       39.91302      -148.1243      -241.0332      -155.8433
      -25.84058       1077.994       376.9023      -1548.401      -198.1575
       1231.584       441.9292       1023.752       1040.596      -2148.273
      -1913.414       1340.662      -851.4698      -1661.934       2042.232
       1493.766      -1577.804      -1794.656       425.5024       1600.688
       141.9462      -564.5593       818.9475      -113.7876      -1383.898
       472.1790       80.02466      -924.6178       734.1331       557.2866
      -1167.011      -479.0090       458.5431      -1094.696       268.6304
       1572.961      -1018.959      -549.1956       650.6721       178.7789
       167.3834       53.26233       916.6772       177.8630      -1593.150
       554.1067       1657.455      -1198.874       168.8374       2487.148
      -615.7266      -1937.307       330.1682       1057.029       549.9401
       619.2587       627.5197      -163.4628      -78.82410       630.0035
       347.0240       256.7336       451.4371       686.8453       302.6173
      -627.3711      -214.9453       1697.009       945.1221      -800.8330
       1445.314       943.8191      -1530.397       188.5964       1166.583
       402.0428       39.57150       132.1375      -196.5637       222.8564
       2051.656       1051.847      -1494.830      -1289.314       1910.997
       2316.065      -1414.242      -825.3008       2705.000       1168.653
      -1599.136      -214.0767       2177.805       2010.713      -683.1250
      -511.0366       2457.501       498.0222      -2012.283       744.7754
       1942.920       212.2790      -326.7976       510.4905       1058.174
       793.1228      -254.3497      -193.3193       2256.870       774.7026
      -2437.216       808.9795       2856.458      -711.9888      -1437.491
       2065.841       1119.001      -1644.781       1194.198       1827.258
      -1515.055      -1210.052       1033.378       1024.477       317.8902
      -117.5646      -91.56287       700.6118       221.7022      -138.0661
       28.07178      -781.6016       332.2134       1601.809       121.0492
      -696.4072       178.6297       700.3408      -820.7524      -1789.079
       900.7294       1311.771      -894.2993      -195.8461       215.5206
      -646.9061      -318.1129       166.0771       189.1216       200.5166
      -457.0347      -1117.881       937.4658       1737.554      -1892.961
      -2162.844       1662.066       667.0334      -1944.379      -66.95630
       823.4200       11.22144      -640.3232      -1087.605      -77.22314
       1106.425       21.71851      -1631.762      -178.1274       1280.395
