     0.02500000      -6176.894       5842.014      -12345.00      -12345.00
      -30.00003       217.3749      -18.75000      -12345.00      -12345.00
       0.000000       13.55000      -12345.00      -12345.00      -12345.00
      -12345.00      -12345.00      -12345.00      -12345.00      -12345.00
      -12345.00      -12345.00      -12345.00      -12345.00      -12345.00
      -12345.00      -12345.00      -12345.00      -12345.00      -12345.00
      -12345.00      -31.06740      -67.28460       921.0000       0.000000
      -31.37200      -68.11800       0.000000       97800.00       0.000000
      -12345.00      -12345.00      -12345.00      -12345.00      -12345.00
      -12345.00      -12345.00      -12345.00      -12345.00      -12345.00
       86.29293       67.17601       246.7462      0.7758739      -12345.00
      -12345.00     0.02034649       0.000000       0.000000      -12345.00
      -12345.00      -12345.00      -12345.00      -12345.00      -12345.00
      -12345.00      -12345.00      -12345.00      -12345.00      -12345.00
      2008       244         6        45        24
       150         6    -12345    -12345      9896
    -12345    -12345    -12345    -12345    -12345
         1         7        13    -12345    -12345
    -12345    -12345    -12345    -12345    -12345
    -12345    -12345    -12345    -12345    -12345
    -12345    -12345    -12345    -12345    -12345
         1         1         1         1         1
CHUC    -12345          
        -12345  -12345  
-12345  -12345  -12345  
-12345  -12345  -12345  
-12345  -12345  -12345  
-12345  -12345  -12345  
-12345  -12345  BHZ     
ZL      -12345  -12345  
[...]
      -171.1603      -171.8901      -175.8004      -179.0010      -192.8678
      -192.5422      -192.2917      -194.4647      -209.5873      -203.1582
      -195.7482      -205.6393      -220.0089      -205.6365      -205.9037
      -215.3347      -222.3358      -215.2521      -219.8325      -220.8634
      -221.1939      -217.9067      -224.9520      -217.4011      -218.3687
      -219.5551      -219.1212      -209.2870      -219.9219      -215.0246
      -201.0502      -201.9689      -211.2358      -201.0851      -198.4063
      -189.9445      -196.8588      -197.2015      -186.5322      -175.3143
      -179.1224      -182.4211      -176.6724      -164.5680      -156.1810
      -154.3202      -159.6493      -152.3158      -139.3806      -140.3986
      -146.5427      -126.9866      -128.2369      -132.3489      -121.7116
      -120.9138      -114.8623      -102.8181      -112.2883      -105.2605
      -91.69540      -99.90039      -95.95364      -75.99374      -79.38739
      -84.85916      -69.67841      -63.73737      -66.72031      -62.46425
      -53.07985      -50.58685      -47.97662      -41.13730      -39.88805
      -36.85212      -19.03171      -27.07755      -28.80729      -6.620609
      -5.616871      -14.80055     -0.8214836       12.12178       5.519711
       10.11558       23.61549       28.35786       26.74557       30.24693
       36.53430       40.32729       51.23877       56.46259       49.45868
       56.78656       65.73465       59.66251       66.22827       81.70546
       79.88412       75.07333       83.61102       92.25662       88.31052
       87.39459       94.09067       94.79608       95.41763       96.71002
       100.9151       106.2460       112.2215       117.3841       110.0552
       114.3109       115.9301       118.2889       123.1414       119.7567
       115.5502       124.8382       125.5523       125.1358       131.3736
       129.9926       120.6659       124.1179       129.2368       132.9510
       130.4875       134.4052       124.0522       126.2851       132.2454
       121.3976       120.7737       131.8799       130.0304       119.0821
       110.4128       120.4337       123.3749       113.9515       109.3392
       108.4103       114.8499       104.7803       100.8943       116.9993
       104.3449       89.17691       102.5524       100.9535       90.17624
       96.18405       93.12184       83.87524       83.46808       81.07167
       83.31796       77.27890       68.16739       74.18317       79.57133
       70.30121       59.70328       67.80606       71.85330       62.36316
       53.90749       65.22766       60.03023       49.49313       54.70462
       61.82178       54.55672       57.42714       55.36827       51.70496
       52.08041       56.56256       47.18079       44.95537       47.98711
       50.19059       41.62505       43.59503       44.45048       38.06118
       34.12822       38.81481       27.75163       20.00893       22.02036
       18.26885       8.435413       13.84339       8.852823      -3.957672
      -7.329094      -10.30050      -13.15894      -18.61096      -26.97986
      -30.23000      -43.83646      -45.14224      -48.36362      -60.24480
      -62.03999      -62.26373      -74.07108      -75.51816      -82.83719
      -85.52130      -84.64935      -92.20312      -112.5773      -106.8694
      -106.0397      -110.6967      -118.4180      -116.7332      -123.1135
      -123.4684      -123.7990      -130.6945      -144.6829      -135.2251
      -147.7616      -146.3167      -147.0156      -151.7291      -154.1712
      -139.2311      -151.5675      -163.1389      -156.7360      -149.4885
      -159.4698      -150.6509      -151.2127      -154.8602      -150.0281
      -144.6678      -152.9017      -148.6551      -143.5494      -145.8334
      -142.6652      -141.3009      -143.0871      -135.4484      -137.8056
      -133.6578      -127.6395      -128.2516      -123.8164      -122.7893
      -119.4667      -114.0007      -102.7646      -102.2870      -99.91385
      -86.68137      -95.11636      -94.64598      -64.19592      -74.36105
      -73.66554      -46.81845      -51.17314      -60.27271      -28.75256
      -224.0997      -515.4071       17.27921       366.5179      -382.9821
      -420.1250       23.36011       586.0591       775.2898      -494.9999
      -217.2122       1148.311       569.7386      -805.1709      -78.58472
       1373.297      -725.8656      -1138.906       1388.571       1266.458
      -864.0725      -1034.556       926.2781       1154.981       545.8342
      -1205.049      -1571.078       2427.241       2028.779      -2199.115
      -890.0393       1818.346       559.2061      -1306.115      -129.5820
       2216.651       959.7854      -2019.445      -57.64160       2491.860
      -103.0996      -1094.574       305.7039       1226.965       717.4207
      -764.8152       169.5579       800.0703       193.4771      -411.6917
       517.5358       1071.428      -106.5225      -59.68652      -306.6528
       312.0598       1411.840       168.7649      -861.7100       478.6821
       522.4071       209.0099       618.8788      -218.4988      -495.7422
       962.4756       722.0447      -1304.472       87.48584       1827.091
      -194.6316      -1133.152       561.3654       556.9570       206.2058
      -415.2309      -587.6208       820.2999       626.4004      -376.7886
      -712.3729       410.5151       560.4072      -1154.125      -155.9707
       1786.079      -250.0874      -1718.133       421.8044       656.0116
      -720.7617       222.4150       491.3401      -767.9280      -302.5658
       265.0311       286.7572      -127.8850      -565.6943      -293.5593
      -646.1069       98.25378       103.8691      -846.9907      -317.4725
       197.1759       140.5513      -355.7427      -255.5721      -233.5530
      -548.7043      -275.6226      -484.7460       451.0215       131.7944
      -2039.666      -270.5991       1319.901      -520.0164      -1130.693
      -119.1002       23.10498      -307.6292      -315.0001      -205.3713
      -433.6913      -648.7648       90.72888      -11.62561      -645.7458
      -679.2188      -7.532898      -22.23560      -944.8061      -458.3245
       237.1423       229.4556      -993.7302      -584.7168       1053.399
      -953.9797      -1514.817       721.4360       344.7200      -1006.918
      -218.2648      -222.3784      -276.7785       433.1605      -403.1527
      -712.6708      -159.4771       109.4777      -363.0519      -365.6385
       351.0151      -182.9446      -309.2563      -54.46906      -304.0090
       161.5009      -440.6237      -498.9391       434.7109      -319.1134
      -36.62543       464.1543      -608.9141      -36.07617       441.0900
      -235.1621       126.6729      -161.1094       23.61182       423.7452
      -183.7433      -55.63269       230.3960       126.7790       105.8378
       120.8317      -51.82031       72.20972       680.6577       246.2545
      -420.2760       303.0591       464.8278      -379.6003       17.49805
       783.3291       53.49417      -235.5325       343.5738       164.4728
       141.4763       836.1755       549.7725      -291.2675      -350.5380
       452.9716       714.6663      -582.2123       43.26880       922.4224
       261.7800       72.36731       11.01343       1065.342       936.2627
      -569.2321      -149.6226       981.1313       1099.448      -633.6089
      -709.4460       1231.028       911.1806      -659.2679      -253.4883
       1430.484       717.8008      -705.3214      -121.6367       848.4629
       751.1287      -377.0258      -155.1921       1174.353       11.97668
      -556.3647       781.8318       518.0057      -309.1814       80.84033
       922.4586       71.95264      -482.3375       51.11133       1105.416
       339.6626      -1630.977       707.0291       1741.497      -1141.648
      -1173.951       1235.055       1141.099      -845.5421      -485.8164
       1201.018       599.1777      -835.7241      -314.5621       800.4866
       191.9845      -759.9835       85.33057       1010.558       56.43802
      -100.0369      -159.5634      -698.3452       1242.430       511.8250
      -1523.644       585.9955       690.6328      -738.9208      -327.3195
       291.4873       159.1167      -633.8944       680.2855       448.9727
      -1114.981       345.5798       657.6627      -397.6078      -267.1545
      -321.6090      -220.8914       496.1226       328.1628      -867.3053
      -568.8308       1266.075       264.3489      -1555.428       159.9353
       1114.148      -390.6428      -1257.418       74.77771       1165.244
      -964.1591      -509.6503       1210.169      -1177.450      -810.4039
       897.3867      -325.4210       218.6431       317.7949      -1074.688
       136.9001       77.54095      -625.8878       570.2058      -292.1794
      -919.4307       356.7865      -48.31998      -277.4759       401.9390
      -857.9319      -500.5876       1180.695      -155.4036      -1670.554
      -105.8512       1121.814      -793.3536      -729.2791       1324.969
      -490.7148      -1373.306       537.1282       461.8569      -380.1164
      -226.2145      -377.4568      -667.1002       548.4130       529.6743
      -570.7109      -152.5560      -221.9205      -300.2367       247.2254
      -49.19556      -133.0517      -144.1125       42.27594       168.4399
      -525.0230       211.6161       379.8773      -1029.506      -85.68097
       841.2041      -795.2683      -770.3995       1131.028      -79.24500
      -1240.260       822.8288       752.9869      -777.6802      -877.9688
       533.4772       984.0518      -1342.722      -464.7739       1558.271
      -299.1879      -1137.885       456.1931       1244.048      -720.0687
      -1160.594       964.2700       567.8293      -863.0687      -244.3577
       681.4064      -149.7893      -646.1653       197.6587       523.7845
       111.1577      -288.1048      -225.0671       143.3041       54.57333
       4.124512       213.4882      -299.0728      -502.3511       199.2476
       696.3744      -180.0487      -842.6130       318.0485       752.4744
      -537.0760      -462.8729       711.7384      -71.61890      -921.8744
       336.0604       824.3330      -592.7839      -826.3560       625.4748
       717.1624      -924.2692      -876.1462       1061.798       355.5554
      -1468.724      -116.4393       1140.552      -448.9519      -1102.734
       380.0989       610.8871      -466.3770      -327.0549       253.4385
       47.12500       69.82056      -515.9899      -761.2339       515.8426
       446.0919      -634.8494       238.0189       396.6432      -656.7002
       155.7943      -108.9382      -766.5850       355.9255       176.9112
      -4.084473      -170.8020      -1165.257       671.0984       1609.982
      -960.7837      -973.4653       1051.843       146.7234      -1086.012
      -171.3896       1054.768       304.5403      -1712.535       214.2107
       2193.292      -589.6616      -1344.670       617.2561       817.2964
      -770.5110      -476.4231       1817.680      -180.6252      -1938.371
       560.7996       1032.058      -159.6840       106.1671       147.6042
       281.9432       662.4656      -506.9213      -363.0724       107.9233
      -81.91772       739.7271       145.7590      -175.7148       356.1385
      -247.9699       236.0332       186.1984      -109.3018       1403.617
       193.7544      -1198.875      -115.5034       581.7108       932.2172
      -309.4620      -821.2009       823.6250       1044.885      -756.2986
      -139.1030       1447.426      -441.5028      -493.2991       864.6362
      -105.6430      -231.4199       625.3107       756.1100      -118.3676
      -435.1913       308.5371       200.8356      -427.3875       339.6686
       100.3007      -277.7209       927.6973       108.0328      -149.2158
       331.8408      -813.8472       361.5876       1353.689      -445.3940
      -565.8639       826.0573       354.3230      -658.4379       59.68372
       840.2727       39.07593      -819.8303       227.2820       1131.115
      -484.7598      -832.1352       316.5437       109.5269       282.3548
       174.9733      -445.4630       49.27628      -148.6651      -23.56189
       219.8770      -1029.943      -442.3298       200.9227      -100.1394
       801.9386       182.7882      -364.0601      -40.26245      -1287.014
      -689.9880       480.8254      -613.4790      -622.1082       599.5215
       1560.436       1568.818       391.1812      -899.6382      -1852.779
      -2349.309      -893.3130       2071.436       3106.126      -269.7422
       190.9766       5842.014      -180.4922      -4648.810       3115.888
      -938.7573      -3963.492       5419.623       1782.253      -6176.894
      -2199.244       2274.374       2779.232      -1618.261      -1829.949
       2447.040      -2532.035       330.9082       5788.699      -1337.502
      -3036.201      -616.7236      -479.5637      -615.2207       3738.409
       4769.617      -5809.388      -5251.722       3359.945       1459.511
       695.1953       2623.049      -748.3467      -2432.765      -1068.428
      -1931.117      -291.5444       2856.510      -1006.750      -3233.840
       434.7935       2792.085       2177.100      -1719.382      -5331.943
      -1490.450       3940.787      -129.4797      -2438.411       2433.927
       1324.616      -3653.722      -1557.639       3282.456       2896.593
      -2181.870      -2071.243       2724.838      -649.5938      -2954.247
       2454.608       1784.383      -2862.764      -1325.902       448.6143
      -1210.553       218.7358       2521.773       448.5488      -1134.620
      -1020.066       194.6411       1219.103      -2004.731      -969.9907
       2507.465      -1042.954      -2388.787       157.3457      -683.2632
      -755.6504       356.4458       511.4700       1014.356      -622.0250
      -1092.061       1632.224       127.4082      -2853.304      -633.2585
       1507.527      -144.6249      -599.9392      -234.7332      -1107.128
       150.5806       1268.633       845.9084      -622.8152      -364.2964
       2108.854      -279.1538      -2776.678       489.9241       1165.596
      -1797.189      -1008.648       906.7407      -532.8257      -1372.350
       633.9404       2143.023       673.5220      -1906.442      -454.5317
       1976.741      -1036.007      -2143.489       1914.853       1718.979
      -2338.710      -1737.421       1750.445       481.8569      -1028.695
       1521.724       1206.404      -499.9919      -68.55304       56.42395
       539.8850      -433.6257      -1856.472       413.4286       681.5668
      -1173.964       408.7992       884.4733       24.37842      -558.3159
      -578.1587       858.8107      -240.8713      -775.7227       979.8145
       617.3069       163.6624       296.9628       195.6141       140.4860
      -274.0157      -71.82300       527.1083       603.6855      -1321.833
      -1468.846       1808.427       1674.645      -854.9268      -699.1532
       184.8509       50.55222      -27.54279       218.6302       168.6135
      -626.6083      -506.1274       541.1666       214.2090       32.25641
       5.619507      -611.5723       105.8103       946.0607       396.1139
       149.2729       1005.312       424.3579      -1176.997       239.3699
       1626.093      -254.0829      -851.9468       1135.588       770.0366
      -1349.145       27.89209       1751.815      -148.6230      -221.8267
       1892.418       270.1750      -1161.009      -186.4150       247.1026
       600.8945      -225.7743      -160.9360       1119.587       167.8000
       100.2749       973.9133       458.5439       438.8286      -1150.868
      -133.6382       2947.089       494.1925      -1185.272       870.8040
       958.0817      -68.16650       1015.584       1523.428      -634.8641
      -656.0986       1871.334       414.6598      -1095.101       1158.904
       632.0554      -1384.161       245.4106       2052.589       128.5391
      -1549.754       503.6472       1292.535      -1154.407       33.96729
       2429.308      -134.5953      -967.4570       1203.827       44.42676
      -930.1934       816.6754       614.1465      -716.6350       300.8677
       856.2664      -386.3252      -170.7083       836.6150       433.8878
      -503.7444       285.6276       865.8337      -1086.652      -518.5222
       946.0984      -302.3021      -404.4303       73.05469       135.5254
      -991.5338      -728.4285       1578.505       111.1869      -490.4883
       659.8282      -152.4828      -441.0385       61.01172       477.4041
      -420.9010      -852.6289       664.0886       645.1353      -1338.312
      -1113.622       820.4019      -110.8635      -1002.334       266.3204
      -396.8196      -750.1771      -10.13748      -189.0120       600.7137
       448.1636      -756.9015      -256.9519      -79.37341      -897.7454
      -31.44299       293.0459      -1441.695      -1036.282       333.0245
      -13.04346      -378.7061      -986.3247      -892.5771       81.38013
      -451.3746      -1025.076       188.9673       291.8320      -733.3872
      -657.3007      -664.2742       205.7874       503.4008      -822.7560
       36.51813       241.8677      -1370.535      -1319.144       238.1646
       860.8340      -1464.055      -1457.800       1059.420      -198.1165
      -1218.883       516.1321       410.8386      -981.7744      -691.1824
       37.09644      -783.4101      -530.5941       695.4450       48.30322
      -818.7349      -870.3413       164.6028       569.9695      -813.8401
      -558.3716       645.0920      -857.6566      -1108.356       1320.309
       142.9089      -1286.007       284.4560       337.8889      -602.3237
      -754.8382       350.0788       303.8251      -814.4144       251.7681
       109.0537      -1134.151      -96.62793       518.6853      -361.5182
      -617.8444       432.0692       392.1040      -1030.888      -362.2975
       808.5117       309.3761      -206.6136       94.08112       284.8293
      -698.2462      -324.5656       638.4054       74.74939      -277.0784
       190.9421       593.6017      -122.0505      -982.3547       143.0981
