     0.02500000      -1085.480       1153.207      -12345.00      -12345.00
      -29.99502       223.1299      -24.57000      -12345.00      -12345.00
       0.000000       18.73000      -12345.00      -12345.00      -12345.00
      -12345.00      -12345.00      -12345.00      -12345.00      -12345.00
      -12345.00      -12345.00      -12345.00      -12345.00      -12345.00
      -12345.00      -12345.00      -12345.00      -12345.00      -12345.00
      -12345.00      -30.14410      -68.57390       1095.000       0.000000
      -31.37200      -68.11800       0.000000       97800.00       0.000000
      -12345.00      -12345.00      -12345.00      -12345.00      -12345.00
      -12345.00      -12345.00      -12345.00      -12345.00      -12345.00
       142.9584       342.1052       162.3372       1.285328      -12345.00
      -12345.00    0.005495814       0.000000       0.000000      -12345.00
      -12345.00      -12345.00      -12345.00      -12345.00      -12345.00
      -12345.00      -12345.00      -12345.00      -12345.00      -12345.00
      2008       244         6        45        29
       970         6    -12345    -12345     10126
    -12345    -12345    -12345    -12345    -12345
         1         7        13    -12345    -12345
    -12345    -12345    -12345    -12345    -12345
    -12345    -12345    -12345    -12345    -12345
    -12345    -12345    -12345    -12345    -12345
         1         1         1         1         1
CIGA    -12345          
        -12345  -12345  
-12345  -12345  -12345  
-12345  -12345  -12345  
-12345  -12345  -12345  
-12345  -12345  -12345  
-12345  -12345  BHZ     
ZL      -12345  -12345  
[...]
      -197.6071      -217.8424      -135.6944      -301.7657      -330.3396
      -52.78665      -61.98730      -161.0691      -192.7247      -138.2196
       69.81000      -117.7903      -416.1046      -249.9049      -73.49249
      -130.7052      -80.96991      -65.19104      -211.3610      -240.8438
      -210.3744      -311.8192      -356.6435      -152.2057       70.75888
       11.27850      -214.9913      -308.6992      -291.5179      -182.1588
      -83.38055      -140.9998      -224.2698      -236.7790      -197.9114
      -238.7965      -315.9671      -311.6921      -288.9398      -302.4249
      -338.3613      -332.0331      -346.6350      -364.3085      -267.2854
      -339.9456      -478.4817      -266.6306      -42.38947      -113.7600
      -238.9070      -333.8735      -353.9355      -302.2291      -408.6536
      -465.3009      -288.9478      -93.83612      -82.34741      -347.1743
      -414.3140      -234.0068      -216.1860      -292.3782      -398.3340
      -404.8888      -321.0847      -356.9119      -291.0146      -291.8507
      -393.8485      -308.3893      -291.0967      -413.0598      -459.8953
      -261.2646      -56.56592      -167.7991      -376.8645      -257.0801
      -77.61414      -238.7397      -301.4122      -191.2318      -203.5953
      -179.2346      -150.2876      -195.1862      -335.5450      -382.2115
      -256.5701      -166.4689      -177.4405      -106.7712      -29.98993
      -161.2898      -218.2616      -91.73846      -25.64689      -31.73180
      -7.601257      -74.24045      -127.4911      -11.74771      -65.04668
      -90.91980       16.71977      -63.21112       24.28870       289.7492
       195.5089       135.8600       219.5008       96.05179       70.57031
       112.4242       72.11853       200.8275       293.9387       164.1512
       74.06519       102.7429       136.4375       253.9281       390.8436
       356.8971       182.0465       153.5124       177.6782       244.5568
       369.5065       326.8091       337.7382       400.5254       349.4447
       334.0616       293.5237       287.9543       387.3306       292.6046
       254.5333       448.2680       376.4827       242.7825       347.6548
       398.1774       322.1822       285.5410       397.6476       533.2994
       486.7832       370.0327       308.7896       318.7368       418.5492
       417.3755       310.9783       341.1945       437.2357       462.9502
       375.5851       332.3676       346.7964       297.9602       344.8970
       415.3979       331.7657       328.6289       365.1064       297.7123
       288.3151       344.0720       417.3932       454.3229       294.4727
       164.2185       324.5320       366.2482       115.4569       77.34937
       295.9442       340.3046       283.1816       325.1451       349.6951
       465.5486       495.8072       339.3784       280.5620       258.8373
       186.6863       230.5136       263.7335       233.2517       258.0237
       191.5144       65.06476       107.1014       161.2646       165.6965
       221.5963       335.7857       334.4009       167.8243       67.77253
      -20.11778      -47.23813       151.8150       201.9425       62.89044
       81.62735       41.99664       20.35123       153.9899       22.83818
      -33.41367       102.1257      -45.06671      -136.7480       9.218079
       67.18178       64.71494      -56.71916      -67.88208       132.9197
       144.5602      -20.52591      -13.23911       116.2833       15.20050
      -226.7506      -128.2994       31.54517      -133.8100      -205.9907
      -21.07448      -16.68866      -169.8585      -118.5401      -12.39035
      -124.0964      -204.2381      -137.7532      -151.1655      -101.6235
      -45.15588      -125.3482      -241.9412      -323.2070      -220.0093
      -227.0945      -399.6132      -388.2159      -160.8092      -35.41266
      -154.5021      -317.4772      -355.4070      -419.9299      -468.3815
      -344.6006      -318.7944      -376.9228      -352.5341      -241.1390
      -284.4669      -374.9556      -241.0296      -184.6544      -327.4845
      -408.3816      -399.0950      -413.1875      -439.7491      -417.4727
      -314.2520      -438.3533      -596.6386      -377.8123      -267.3981
      -406.4082      -450.4163      -386.6316      -336.3436      -437.2972
      -460.1492      -299.5248      -366.9528      -537.6431      -513.1953
      -466.3103      -482.8816      -537.6140      -487.2474      -362.1907
      -517.3103      -604.3066      -407.9263      -416.9263      -405.2560
      -299.3728      -405.0195      -517.6731      -474.8506      -437.2318
      -418.8932      -370.6447      -384.1627      -463.4802      -459.0308
      -445.0078      -398.7482      -322.9619      -340.1906      -372.6343
      -446.3142      -510.0223      -317.6589      -240.7911      -334.5522
      -246.5906      -258.2815      -422.8606      -362.0511      -318.6108
      -378.3029      -333.4921      -256.8782      -339.6611      -354.0027
      -251.7740      -132.3760      -80.02759      -225.0863      -240.3253
      -143.4896      -163.9230      -145.5228      -133.6966      -152.3393
      -132.9914      -98.80331       51.13538       123.9935      -26.12741
       55.52618       214.2557       145.7409       47.67904       11.33783
       61.19543       201.5879       308.0089       324.4160       273.2089
       253.6160       287.9107       217.1915       241.1605       355.6597
       273.2347       258.2324       416.5031       454.5022       467.6238
       469.6069       386.3165       511.0302       622.5198       455.9312
       479.4478       612.7782       583.6707       682.8208       665.9724
       418.2639       480.7905       735.3613       750.0818       586.8545
       477.3523       553.0002       585.8757       625.9795       808.7203
       647.5151       442.8027       585.4623       575.0273       517.1213
       590.2856       638.2314       598.7413       515.3186       616.2822
       688.3530       480.7981       461.7966       664.7515       623.9270
       604.4314       670.7651       516.9957       439.0200       475.5668
       446.1592       487.5266       549.6782       568.6327       536.8541
       412.5121       406.7300       533.3616       555.3527       481.0070
       498.0332       535.9016       381.8369       299.3827       315.6285
       308.1163       365.5043       331.2061       336.0577       504.5085
       405.7663       214.4766       307.6580       270.3135       275.7675
       371.8929       180.6351       127.0416       224.3631       162.6789
       279.8710       281.6334       64.47174       124.1263       120.4067
      -15.31059       51.95736       6.777199      -81.39993       63.36864
       82.06487      -26.39931      -2.333992      -10.48158      -41.92902
      -73.61261      -160.3445      -168.9033      -48.74982     -0.4781494
      -178.0458      -250.9869      -193.8251      -268.9706      -242.8431
      -200.3394      -321.6050      -345.1891      -237.4489      -244.2123
      -384.4417      -422.4475      -344.4833      -370.7029      -439.4780
      -433.9443      -453.5939      -430.3436      -487.6858      -593.0869
      -435.3574      -323.7651      -448.9585      -471.1248      -494.4398
      -515.1030      -472.5603      -554.1150      -621.7329      -656.4266
      -681.7722      -608.1262      -553.2821      -517.7722      -489.2482
      -573.0674      -663.6292      -633.6754      -547.8289      -539.2566
      -602.7570      -603.2551      -506.1749      -359.8496      -420.7705
      -627.6222      -603.7080      -566.3392      -591.4644      -470.6602
      -428.9268      -478.3141      -442.2467      -426.5029      -488.1372
      -452.1646      -322.2593      -406.0715      -512.4557      -441.4564
      -400.6920      -292.3884      -217.4669      -314.1647      -205.1905
      -121.0314      -233.9950      -256.1285      -239.4821      -257.6243
      -166.5680      -186.6763      -241.5517      -119.6840      -86.53967
      -66.78680       11.80136       26.08691      -24.37445      -148.9949
      -249.9684      -181.2193      -7.523392       82.92805       17.75821
      -39.72098      -88.15775      -179.5738      -120.4260       35.97564
       10.43355       17.26492       115.4507       38.81641       38.42569
       109.5151      -14.90788      -3.103119       134.1875       88.34039
       79.40927       105.3064       7.314373      -18.91997      -19.34322
      -51.92055       33.17868       119.2395       109.5606       121.1796
       176.2239       164.4680       86.66022       131.6023       202.3947
       123.2480       159.6522       259.9553       112.0984       65.17255
       241.1046       316.7574       263.1620       232.4653       159.1624
       93.63458       95.24908       99.65320       237.4238       301.3859
       266.7274       303.3956       270.7695       242.0486       242.8578
       190.9333       161.2001       206.4661       280.6053       302.1813
       274.6023       259.4990       306.1917       343.5782       352.2126
       238.9650       145.7412       318.2926       492.2957       446.2090
       367.9204       316.4327       310.5544       391.8300       291.9389
       184.2673       300.4495       324.4796       340.1052       384.0729
       296.5410       325.9680       458.7432       451.5309       387.3497
       275.5502       262.6728       276.3593       139.1502       214.6097
       369.6140       266.4862       249.2061       268.9119       208.7991
       293.4318       289.5633       270.2791       362.8406       358.7311
       416.4247       417.8918       250.5840       281.0081       381.2226
       293.5800       236.1498       250.5083       345.3643       353.2147
       208.2292       169.3909       154.0952       104.2441       88.30499
       76.99833       1.610008      -48.11487       107.1384       196.7741
       55.09682      -63.22748      -66.18513      -37.86617      -4.384796
      -18.47348       15.86125       22.90441      -40.30248      -11.72185
      -15.55167      -82.21021      -109.7780      -64.13464       32.90779
       52.77063       23.71028      -19.37975       10.66257       130.8810
       120.6252      -127.6456      -289.2048      -180.5533      -29.24440
      -56.29967      -42.82265     0.03370667      -87.35139      -5.727905
       265.7151       285.1157       3.788086      -223.5261      -325.6291
      -364.3162      -213.4945      -23.47406      -147.0968      -433.6882
      -356.5804       68.11942       270.6226      -62.05811      -445.7892
      -454.2422      -318.8201      -502.6667      -619.5148      -363.1782
      -245.3704      -288.0586      -241.9412      -261.4143      -267.3604
      -283.7141      -370.2739      -438.4990      -331.7230      -213.8605
      -219.8259      -270.5347      -312.1128      -242.2244      -253.8062
      -567.9604      -583.5667      -244.1600      -181.8126      -293.1464
      -442.8179      -580.0366      -471.8977      -427.2131      -427.2115
      -391.6610      -563.1787      -877.4961      -702.9257      -116.8990
       1.468872      -372.7400      -456.3013      -195.0457      -165.2000
      -305.1957      -65.06470       419.8799       513.5989       222.4832
       8.708069      -95.66895      -320.9463      -769.1362      -1085.480
      -817.4970      -130.7655       307.0504       356.2083       365.9800
       321.6375       126.0955       52.31300       100.3011       38.53735
      -168.2115      -271.3381       6.762695       437.8026       401.2461
      -81.36853      -522.5499      -507.8235      -36.25848       272.4744
       344.4464       263.3369      -238.0110      -576.7173      -527.5117
      -605.9409      -634.9336      -401.8807      -312.4704      -266.4590
       154.1931       475.4667       283.7022       66.02618       21.95178
       148.5117       240.1988       132.3391       88.84840       68.50439
      -133.3477      -79.38884       25.18097      -144.5730      -145.9125
      -31.94409       22.38422       240.3612       401.0659       304.3439
       93.11108      -248.7279      -607.1105      -561.2932      -470.5496
      -513.2125      -311.1508      -35.66779       95.09021       145.3702
       74.22620       95.11182       355.8459       528.6556       506.3600
       430.0864       213.8585      -14.71184       11.45805       78.69577
      -2.511375      -49.90504      -5.044983       122.3213       307.4209
       576.1156       602.1948       191.3915      -135.6674      -248.5468
      -310.9846      -44.54663       213.9820       193.6191       107.0110
      -18.28900       35.36841       384.8083       802.0962       1070.373
       1153.207       1046.031       688.7759       284.8701       14.64246
      -22.36432      -42.50818      -182.7071      -207.4572       64.52173
       358.3810       302.0644       113.8773       257.1283       447.7235
       350.0939       233.3460       256.0045       386.8682       497.4993
       503.4292       620.4473       723.0854       689.8118       531.3174
       407.4426       411.5847       412.4075       411.8541       347.6575
       194.4874       296.4083       349.7387       260.1243       447.9292
       542.8319       413.1405       358.9564       369.8081       586.3230
       812.7925       758.3262       709.3411       690.0461       598.0249
       532.3346       357.4099       273.8289       199.6944      -202.2186
      -396.0407      -234.7365      -188.9750      -251.7087      -289.6227
      -230.6543      -67.77029       88.19922       196.0652       211.1422
       194.8199       145.1004       36.90771       77.85638       142.5597
       183.9985       351.5979       419.7084       206.2992      -87.00531
      -229.8459      -121.1706       109.8963       167.5634       166.1673
       119.5693      -246.1041      -645.7831      -660.8711      -383.5430
      -71.35873       7.481323      -214.9553      -424.2327      -423.7690
      -378.0448      -441.2262      -424.4293      -364.3159      -497.3242
      -667.7324      -663.6796      -519.6372      -438.6123      -487.4449
      -351.6148      -153.0538      -162.1672      -161.3762      -85.65732
      -153.3431      -152.1371      -74.99359      -169.4526      -315.3223
      -434.3022      -591.4188      -659.0010      -644.0765      -552.3337
      -430.5426      -480.7869      -506.7142      -470.3585      -515.8323
      -525.8662      -500.8232      -556.3148      -513.9781      -221.3922
      -152.3542      -352.2316      -350.8075      -178.3685       7.552826
       121.6085      -36.53662      -200.8054      -158.5530      -173.4753
      -341.3745      -564.9634      -694.9769      -669.3069      -376.4483
      -14.12794      -40.76257      -127.4254      -39.42731      -16.49060
       127.6565       276.5822       170.1261       31.46429      -115.7002
      -160.9502      -76.35828      -197.7932      -350.8904      -262.7173
      -252.4914      -240.3796      -152.3190      -362.3566      -467.1566
      -371.0071      -370.7646      -286.2971      -351.0284      -523.1066
      -427.0532      -246.2576      -77.02368       132.5791       324.8049
       419.4812       408.9065       410.1887       249.1950      -58.87016
      -69.09338       7.928284      -152.1147      -154.9585     -0.2153320
      -240.7449      -455.8578      -415.4825      -456.4146      -216.9265
       45.59061      -3.131577      -71.07187      -20.02214       22.31219
      -11.40259       70.78619       180.3807       180.6713       229.8304
       199.5871       29.98759      0.2774963      -56.90204      -168.1494
      -46.06512       66.55376       41.65427      -9.658112      -130.7294
      -41.72314       298.5470       418.0000       326.4246       423.5269
       465.0870       300.9995       350.1793       407.7833       283.3426
       194.1880      -15.40881      -224.4103      -127.1957       118.8063
       153.0099       4.386353      -72.32819       87.46899       342.4119
       354.7142       250.9807       310.7806       256.2325       90.94608
       135.3157       193.1378       168.1656       229.7532       239.0047
       214.8681       259.4055       231.9858       243.4597       228.0825
       35.25897       54.32489       271.7089       434.5544       502.1340
       454.6406       320.7105       234.4554       197.1255       23.27921
      -141.4236      -63.97235       93.09906       229.1185       406.7380
       584.8237       537.8192       358.6323       440.1925       524.3729
       256.8412       14.45383      -1.256035      -26.13837      -10.93071
       74.08125       32.31461      -54.47775      -57.64961      -51.87122
      -111.2337      -100.1170      -32.53812       29.27649       256.6172
       343.8025       256.6433       373.5763       495.7476       422.9709
       248.1268       109.5679       177.9529       214.1829       101.9977
       79.72269       82.18268       25.60646       73.65294       77.06772
      -7.005981       134.2144       229.8879       85.98657       73.88676
       88.64777      -7.050018       28.81711       112.7863       107.3796
       106.0539       123.2850       182.2170       278.1923       246.5345
       130.9429       32.64116      -58.37000      -62.50659       110.0090
       174.3268       90.25333       92.86169       117.2596       119.7655
       193.9031       263.9552       166.6326       84.56677       168.0856
       202.0659       131.4060       58.41882       56.07478      -17.41516
      -197.5591      -257.4521      -211.0947      -150.0700      -33.94355
       42.34469       28.36942      -73.37015      -63.06778      -13.44867
      -110.9326      -114.1867      -82.80838      -144.6990      -146.0489
      -145.9926      -152.0716      -84.09412      -159.3778      -271.2054
      -231.8000      -144.8613      -185.5186      -350.0354      -335.7843
      -168.8510      -208.4066      -269.5284      -117.4402      -107.7843
      -271.4795      -370.3994      -350.3090      -269.2733      -334.0131
      -487.4939      -501.0922      -453.8201      -385.4465      -337.9130
      -393.6154      -360.8250      -252.6205      -227.4086      -275.1229
