     0.02500000      -1347.490       1415.928      -12345.00      -12345.00
      -29.99502       223.1299      -24.57000      -12345.00      -12345.00
       0.000000       18.73000      -12345.00      -12345.00      -12345.00
      -12345.00      -12345.00      -12345.00      -12345.00      -12345.00
      -12345.00      -12345.00      -12345.00      -12345.00      -12345.00
      -12345.00      -12345.00      -12345.00      -12345.00      -12345.00
      -12345.00      -30.14410      -68.57390       1095.000       0.000000
      -31.37200      -68.11800       0.000000       97800.00       0.000000
      -12345.00      -12345.00      -12345.00      -12345.00      -12345.00
      -12345.00      -12345.00      -12345.00      -12345.00      -12345.00
       142.9584       342.1052       162.3372       1.285328      -12345.00
      -12345.00    -0.09897539       90.00000       90.00000      -12345.00
      -12345.00      -12345.00      -12345.00      -12345.00      -12345.00
      -12345.00      -12345.00      -12345.00      -12345.00      -12345.00
      2008       244         6        45        29
       970         6    -12345    -12345     10126
    -12345    -12345    -12345    -12345    -12345
         1         7        13    -12345    -12345
    -12345    -12345    -12345    -12345    -12345
    -12345    -12345    -12345    -12345    -12345
    -12345    -12345    -12345    -12345    -12345
         1         1         1         1         1
CIGA    -12345          
        -12345  -12345  
-12345  -12345  -12345  
-12345  -12345  -12345  
-12345  -12345  -12345  
-12345  -12345  -12345  
-12345  -12345  BHE     
ZL      -12345  -12345  
[...]
       361.9475       396.7109       466.1956       446.5430       400.8978
       424.6787       393.2487       458.7889       562.0743       463.7709
       322.1643       449.9138       714.7887       592.4720       323.0565
       435.6257       705.9741       636.6958       409.4487       523.2056
       731.1478       615.2510       401.4941       497.7314       521.4053
       438.4767       392.8246       205.2043       319.5198       557.1738
       217.3975       67.05469       451.0411       598.6786       445.5129
       386.3909       444.5201       436.5518       311.1063       205.4653
       304.2860       446.1329       219.4549       131.0344       252.5573
       116.5035      -56.78940       54.03589       146.0360      -107.6310
      -50.90967       375.2008       337.5419       3.942535      -57.02417
       266.3257       428.8104       279.9902       120.8798      -10.66827
      -210.8573      -174.8373      -31.85486      -229.6173      -334.6444
      -40.72374       61.18042      -215.5845      -267.7744      -9.044800
      -142.0760      -302.9940      -157.8997      -43.86609      -50.35425
      -209.7890      -223.8644       5.720764      -118.4391      -244.7062
       15.71729      -84.42557      -226.3248       12.02853      -20.26886
      -132.6059      -116.8424      -226.9924      -259.1245      -138.3726
      -347.1290      -421.5655      -126.3773      -68.12481      -63.44894
       70.33252      -26.33154      -280.9039      -356.2054      -153.5252
       4.460892      -29.05873      -52.56351      -82.67712      -184.9158
      -271.7238      -94.31665      -54.67761      -259.1785      -144.8021
       5.817505      -73.70056      -210.1858      -380.5789      -373.9697
      -194.0144      -315.0543      -560.8701      -425.8890      -54.62466
       39.85535      -290.8531      -425.5041      -112.3151      -85.82056
      -439.8307      -410.8141      -224.4709      -232.6385      -120.0800
      -133.6839      -322.8606      -326.1656      -208.2373      -170.0957
      -219.0795      -345.1951      -488.5859      -482.8385      -245.2611
      -35.25049      -71.67102      -237.7161      -271.2374      -169.4161
      -265.2239      -367.5766      -106.7919      -51.24615      -230.6169
      -179.5220      -126.6754      -307.4896      -443.6279      -308.2173
      -151.3954      -84.80475      -130.9322      -216.4104      -114.8622
      -99.47614      -209.8080      -193.2625      -104.2742      -69.30188
      -34.48947      -101.1946      -162.8655      -176.5391      -388.8304
      -385.9630      -12.86937       135.8061      -19.19356      -63.68665
      -2.394379      -43.59149      -142.2251      -152.1715   -0.008239746
       169.3938       110.9967       39.34378       132.1998       40.76413
      -67.82987       4.461761       62.16003       89.07861       162.9781
       270.3820       166.7857       25.49503       98.37439       219.3787
       269.8396       199.2870       194.2109       275.3707       195.7011
       15.10034       128.4019       297.1500       29.78558      -152.6280
       97.23523       311.5096       373.3869       353.8745       249.6721
       326.1052       425.6099       357.8083       338.9307       304.1931
       218.1680       161.1434       178.2507       255.1970       252.1782
       208.6630       223.6461       244.9874       201.3136       231.5396
       286.5861       198.4579       192.4327       384.8856       402.8636
       243.5420       216.6071       295.3605       358.9384       379.0154
       378.6554       401.1037       306.3046       52.69305       42.48376
       257.8987       326.8770       205.6232       37.00574       140.4805
       304.4724       270.4569       228.0630       143.5424       129.8679
       358.8782       419.8733       201.9455       247.1093       420.1038
       280.2007       116.6362       218.1157       354.1393       328.6550
       336.8821       427.5496       341.9802       86.17450       4.921448
       88.32910       166.5167       186.3032       148.0653       227.3325
       343.4756       187.7511       23.83331       154.1550       206.3593
       84.15279       65.59369       124.5040       179.4809       160.8414
       37.05099       84.92987       217.8618       113.9007       66.03851
       117.7760      -1.481659      -113.8404      -69.86456      -38.92377
      -101.9464      -72.83496       150.1527       244.8997       131.6478
       48.65582       44.80966       33.59091       16.10579      -40.89775
      -58.02489      -43.36999      -37.24236      -1.258942      -53.45892
      -233.8711      -284.0528      -130.9967      -55.23230      -123.8686
      -145.3758      -15.06213       100.6583       6.143311      -133.7895
      -111.8607      -88.92690      -15.80615      -152.4192      -471.1537
      -251.8625      -13.45544      -231.8322      -271.2844      -56.65186
      -169.3523      -509.2263      -490.4497      -288.0552      -195.5751
      -233.1600      -405.5360      -364.8302      -237.4058      -334.3032
      -464.3477      -416.9490      -302.7725      -399.7053      -559.7496
      -475.6288      -318.2440      -352.7495      -410.5682      -431.1095
      -452.9553      -428.8177      -433.4625      -446.4495      -470.7178
      -480.4009      -465.0566      -470.5498      -645.7271      -613.9510
      -382.5095      -429.5837      -619.3005      -544.4578      -337.0280
      -410.4048      -554.3959      -478.7490      -372.1559      -404.1681
      -497.4174      -420.1084      -312.5846      -316.4901      -329.9387
      -452.0192      -346.3168      -87.23767      -174.1945      -180.6094
      -35.11285      -194.1283      -331.1968      -220.0377      -130.4435
      -109.2274      -118.8510      -60.67526      -50.61342      -105.9092
       15.76005       60.87103      -13.09393      -116.4493      -164.5273
      -68.83910       61.30256       49.38507      -30.76862       21.29456
       59.45662      -7.067490      -9.024551       69.64581       114.3152
       39.48047       41.81706       121.2802      -32.66321      -65.93890
       184.4018       207.3886       9.769287      -14.87558       114.9653
       191.8679       225.4702       130.8561       201.3531       336.2993
       88.59906      -201.9097      -3.537842       324.2863       403.4253
       322.3156       147.0882       61.98364       137.4956       264.3407
       210.2893       181.1671       482.9916       410.5709       54.83585
       60.48145       110.3627       123.3372       325.6193       349.8264
       283.1466       136.0748     -0.9226074       335.9771       681.9054
       429.0848       203.7538       348.2446       355.2561       190.7737
       183.5139       355.8430       576.0747       555.7087       364.8820
       305.4377       396.9976       571.0100       541.2766       292.6592
       398.4592       670.1266       602.6453       463.5182       468.8594
       461.4268       461.4214       424.2155       355.6702       449.2134
       507.8661       468.0830       591.4359       525.7726       398.2045
       427.3190       363.4216       317.9114       433.7488       485.8634
       281.7606       193.1157       326.2895       296.2357       211.7241
       266.1688       379.8154       342.6177       290.8840       227.2028
       145.6570       256.4538       286.5511       101.9968       56.63617
       188.0928       184.8241      -22.23613      -15.85101       150.7452
      -3.465912      -163.5808      -42.75620      -28.28473      -29.60786
       48.61407       39.28308      -6.812565       20.84952      -85.40167
      -291.8685      -235.9918      -105.5977      -170.7528      -218.0457
      -239.5924      -350.2162      -321.4172      -182.7927      -182.8214
      -141.1154      -134.1994      -188.5917      -212.1602      -324.2979
      -428.3311      -353.8926      -249.1248      -215.2965      -348.1270
      -433.7462      -355.4252      -350.0979      -348.8425      -306.4868
      -302.1913      -256.7065      -282.7687      -364.4180      -343.6276
      -310.5542      -474.9265      -558.0444      -418.0475      -278.0298
      -335.7437      -549.1089      -535.9348      -370.1399      -420.3845
      -505.9165      -376.5836      -262.4136      -387.3417      -438.9137
      -325.9709      -256.5275      -329.7892      -387.0288      -427.0176
      -413.3340      -326.0411      -276.1382      -302.4307      -288.7002
      -366.6881      -521.7861      -495.8599      -348.4859      -265.4322
      -273.5928      -297.7403      -292.0002      -230.1505      -143.9438
      -334.5837      -384.3417      -176.1173      -177.9065      -311.8375
      -235.4491      -113.4481      -196.2656      -405.3491      -300.3173
      -118.3853      -206.7731      -235.5114      -288.7519      -369.6598
      -229.0165      -235.5608      -219.7880      -43.84479      -88.12579
      -292.9323      -226.2890       7.071472      -80.25555      -284.3676
      -193.2265      -92.76672      -132.7279      -133.0639      -134.3671
      -109.5185       7.904289       70.48410      -79.81342      -268.2316
      -201.9345      -35.01831       190.6155       285.1749       143.4852
      -13.65912      -114.2076      -67.39783       164.8461       217.3374
       180.8507       235.0070       194.0810       143.5759       156.5104
       218.1302       302.4380       241.6088       190.3198       254.9177
       309.8732       355.1023       471.5930       476.7765       315.9226
       364.8721       375.7957       322.5815       461.9333       548.6826
       453.0323       398.8679       498.6294       535.2739       393.1207
       325.6335       453.5906       593.4711       557.8462       334.6038
       334.0886       640.8865       637.0417       354.9840       371.2982
       530.2709       621.0386       605.6377       428.0768       412.5081
       550.1443       426.5957       296.9355       469.4474       616.3218
       454.1675       304.2949       416.0963       461.3569       465.6497
       475.0906       364.1383       310.5807       239.3165       129.2850
       242.1936       448.9902       438.2869       292.1502       288.9319
       407.3567       348.2943       298.6753       373.6624       380.4233
       321.6972       111.8363       126.9496       376.9501       280.3886
       66.55444       66.58002       205.2534       232.1074       139.9253
       290.8145       386.9288       213.4228       25.04636       43.00604
       214.6945       177.9115      -6.723923       20.83899       102.7265
       51.66568      -51.15386      -46.49663      0.8094826       11.82053
      -22.61461      -89.01848       10.63702       70.97910      -32.59706
      -66.14160      -98.85013      -86.63159      -125.1630      -291.6104
      -320.5048      -149.2876      -61.37866      -138.0391      -265.3789
      -332.0449      -240.8334      -268.6389      -304.4709      -111.9260
      -133.5001      -286.3909      -203.1869      -127.1837      -251.4361
      -362.3979      -273.5519      -189.0920      -384.8854      -631.3379
      -491.7390      -272.7198      -422.0989      -740.4075      -851.4517
      -728.8760      -659.2019      -767.6423      -765.8528      -565.0275
      -456.5408      -507.4659      -489.2769      -319.5425      -175.1926
      -165.8684      -361.6379      -660.2617      -650.2281      -307.4459
      -22.81635      -50.08423      -248.2889      -483.1362      -817.4042
      -749.9678      -30.44629       729.0094       805.1648      -110.6826
      -1183.342      -1347.490      -848.4495      -154.1310       457.3840
       470.5148      -23.04797      -453.8472      -255.3918       542.7925
       916.6973       261.0958      -615.1216      -819.3396      -493.7382
      -156.3167      -126.8343      -161.0585      -91.56757      -7.569580
       299.9762       445.3184      -195.5234      -951.3721      -1246.418
      -1321.837      -1013.474      -551.1737      -325.1951       187.1511
       988.4946       1375.539       1012.323       18.76758      -836.5043
      -742.6700       15.91150       190.5725      -487.8279      -956.4915
      -989.8746      -812.3767      -248.5745       605.3894       1036.561
       294.7610      -867.6587      -1013.250      -276.3953       523.8860
       749.8110       188.3833      -598.6982      -1082.236      -820.5122
       304.0483       1156.890       930.6816       519.8154       670.9590
       837.9117       438.7760      -136.7590      -314.8722      -124.6857
       111.1688       18.20377      -194.0333       16.27087       427.0580
       514.6468       24.43115      -742.1971      -696.9899      -23.56012
       154.7639       20.55859       496.5947       1310.384       1415.928
       908.8979       376.1312      -96.01343      -277.9445      -26.83142
       354.9431       464.4561      -88.61035      -554.3132      -23.19165
       868.8579       987.7791      -105.4849      -994.8577      -451.9885
       451.2484       492.4844       233.3059       703.0186       1139.513
       326.5796      -547.9689      -34.72461       945.7180       980.3176
       145.9077      -331.1619       45.29034       348.0499       111.2179
      -65.27917       389.7400       762.2017       367.3125      -110.5471
      -293.6164      -171.3952       181.3405       138.8509      -89.43462
      -93.91544       35.51025       221.2607       329.2598       201.9750
       35.46381       160.2091       243.9374       265.6897       537.7468
       693.0146       575.1218       213.4778      -234.4565      -501.4387
      -687.4368      -756.7534      -297.2471       447.1040       802.4700
       516.7385      -138.1364      -636.0007      -514.0569      -57.98486
       373.8038       530.0564       479.6782       569.3588       317.7302
      -259.4822      -519.9693      -440.4113      -66.27420       227.7763
       33.94812      -298.1708       26.91016       783.8071       957.8555
       498.8966      -21.87512      -323.2788      -165.5270       234.6401
       528.0412       348.2123      -124.7979      -291.9696      -385.9633
      -371.7143      -237.8488      -418.2573      -510.7678      -259.7241
      -117.9899      -253.0844      -159.0924       77.27632       46.79955
      -32.75549       46.31952       161.1643       222.8762       128.8447
      -98.08447      -310.0618      -338.5529      -330.9494      -407.0939
      -80.51453       302.2778       102.1280      -64.66174      -47.99942
      -135.7364      -66.83063      -51.17798      -236.6873      -226.4284
      -93.12393       27.79749       185.4103       256.9746      -29.30713
      -380.0581      -380.7866      -302.4485      -300.2073      -348.7369
      -264.0682       22.83701       12.89349      -212.8291      -198.8714
       42.80890       275.4407       183.2947       84.03894       470.9468
       495.8207       109.5568       21.24994      -241.2054      -429.8547
      -182.4835      -131.5952      -186.3344      -36.66029       52.89040
       84.31128       75.40942      -186.5697      -525.7974      -478.4921
      -211.5444      -129.8681      -16.80670       97.90283       325.8708
       746.4624       748.8750       309.1612       101.3229       139.2351
      -17.73369      -72.88058       153.1416       93.15125      -263.8922
      -597.7957      -802.0306      -644.8112      -386.4179      -266.6198
       128.5830       522.4690       520.9931       345.4835       258.2512
       46.23474      -297.8662      -188.2214       269.5640       568.3342
       568.9393       307.3849       180.0793       305.8550       161.8297
      -186.6594      -89.02893       359.6852       400.0525       24.06458
       23.07568       206.6664       195.0950       96.11951      -11.82092
       118.6254       492.4664       605.2843       384.3269       323.6733
       559.1687       596.7839       201.2659      -99.44684      -104.9915
      -127.9497      -34.08197       144.6656       33.48340      -323.3818
      -456.5508      -253.7563       7.183044       158.4701       241.5436
       277.0845       327.0012       288.8144       107.9693       67.10938
       198.9839       418.2457       441.9597       152.4272      -164.7616
      -450.1821      -521.4653      -443.6079      -512.8601      -478.7967
      -320.6082      -336.8624      -465.1979      -444.4556      -89.39032
       178.1549      -79.62122      -354.8552      -304.7537      -197.5881
      -205.2595      -249.5298      -158.5100      -16.30603      -252.1361
      -436.7778      -161.8650      -266.6873      -779.0389      -730.4686
      -411.7781      -320.3190      -80.54077       109.2610       31.75735
      -121.2551      -90.73926       82.52498      -29.53751      -164.2028
      -124.5912      -116.2975      -158.1292      -355.6478      -563.6906
      -373.7738      -42.51050      -68.58643      -215.7553      -201.0482
      -163.5435      -84.44934      -20.44269      -134.7588      -376.5775
      -515.5092      -477.5860      -343.8408      -44.60834       76.44264
       16.82858       111.9875      -1.574097      -249.8357      -416.0614
      -435.8441      -131.8709       192.7346       183.3389      -3.736145
      -68.37744      -149.7107      -362.1903      -344.3386       44.14001
       425.1917       332.3740       83.87909       105.7840       162.7260
       92.27307       231.7896       513.6726       306.2512      -179.0281
      -259.2119      -34.74569       45.83783      -70.28980      -30.36952
       67.14612      -178.8430      -510.6272      -335.4484       22.22153
      -40.45081      -84.69550       159.5782       285.2039       223.1388
       73.69995       81.55414       305.2909       357.1161       137.4897
       142.3458       298.8351       260.8943       163.5918       65.02368
       113.4756       316.7036       264.4095      -37.73550      -206.7029
      -68.92383       292.7892       521.5271       470.4171       488.2185
       522.0807       360.9708       277.1104       374.2266       468.2456
       393.3934       258.5895       262.7662       287.3361       169.5637
       98.58768       128.2878     -0.6973267      -183.2244      -161.5313
