     0.02500000      -1349.362       2259.649      -12345.00      -12345.00
      -29.99502       223.1299      -24.57000      -12345.00      -12345.00
       0.000000       18.73000      -12345.00      -12345.00      -12345.00
      -12345.00      -12345.00      -12345.00      -12345.00      -12345.00
      -12345.00      -12345.00      -12345.00      -12345.00      -12345.00
      -12345.00      -12345.00      -12345.00      -12345.00      -12345.00
      -12345.00      -30.14410      -68.57390       1095.000       0.000000
      -31.37200      -68.11800       0.000000       97800.00       0.000000
      -12345.00      -12345.00      -12345.00      -12345.00      -12345.00
      -12345.00      -12345.00      -12345.00      -12345.00      -12345.00
       142.9584       342.1052       162.3372       1.285328      -12345.00
      -12345.00     -0.3726156       0.000000       90.00000      -12345.00
      -12345.00      -12345.00      -12345.00      -12345.00      -12345.00
      -12345.00      -12345.00      -12345.00      -12345.00      -12345.00
      2008       244         6        45        29
       970         6    -12345    -12345     10126
    -12345    -12345    -12345    -12345    -12345
         1         7        13    -12345    -12345
    -12345    -12345    -12345    -12345    -12345
    -12345    -12345    -12345    -12345    -12345
    -12345    -12345    -12345    -12345    -12345
         1         1         1         1         1
CIGA    -12345          
        -12345  -12345  
-12345  -12345  -12345  
-12345  -12345  -12345  
-12345  -12345  -12345  
-12345  -12345  -12345  
-12345  -12345  BHN     
ZL      -12345  -12345  
[...]
       76.63824       60.90289       122.0797       97.06543       75.01703
       113.2805       106.7505       124.1705       110.3049       89.63055
       115.5304       143.2794       101.4149       97.01367       160.5429
       142.7009       99.54211       140.9572       134.9402       132.7115
       158.0616       179.0179       149.2340       132.7408       132.7136
       204.1721       211.9279       99.31427       165.3607       219.1571
       165.9761       193.2720       164.5262       163.2270       243.4175
       208.9083       150.9910       217.6276       204.4818       241.4097
       261.4471       183.7877       188.0470       253.1636       232.2361
       125.3053       174.1330       303.6849       256.4763       255.7092
       276.6544       218.7238       279.9476       306.0183       147.9067
       161.7421       177.6040       148.8796       255.8760       249.3326
       175.4661       223.0500       250.2665       300.6054       107.5073
       48.26056       296.1498       268.8529       186.8097       418.5271
       492.9180       355.2795       377.9471       298.3990       170.2684
       302.6993       371.6244       327.8088       395.2179       454.9474
       237.7264       96.29321       189.0575       118.4054      -93.37158
       203.4810       664.6827       530.9570       187.4774       135.6307
       285.6095       414.8710       157.1260       3.440491       145.5950
       8.543320      -81.65329       146.1806       145.1683       27.29559
       157.7771       138.7603      -122.1790      -107.1417      -145.2559
      -205.3182       60.92639       8.630127      -314.8712      -246.6255
      -106.5192       1.098389      -95.96033      -371.0729      -298.3549
      -86.81689      -125.8232      -251.6332      -268.2795      -265.4885
      -318.3193      -126.3815      -25.88672      -364.0555      -528.0168
      -118.6011      -26.59473      -358.4604      -441.0764      -384.1081
      -318.8810      -225.6487      -402.0676      -490.0297      -222.2633
      -125.4102      -264.1397      -243.2722      -421.4631      -671.3444
      -453.8322      -223.0347      -227.3901      -236.8066      -332.6959
      -410.4077      -421.7692      -472.4417      -593.1619      -566.5304
      -394.1011      -381.4017      -506.0875      -407.9160      -163.4405
      -219.2714      -525.9225      -587.8303      -384.1835      -406.5801
      -623.9800      -478.2729      -367.7123      -537.5496      -572.3164
      -538.1803      -406.0135      -366.6085      -497.8877      -333.1484
      -322.1171      -550.9930      -424.0646      -242.4368      -398.9207
      -443.9309      -283.9507      -325.6309      -365.6223      -409.2505
      -578.0660      -403.3074      -117.8838      -114.4700      -358.7220
      -502.5680      -297.4722      -195.5132      -250.3569      -377.9876
      -437.8247      -128.3530      -111.2521      -338.9109      -237.1064
      -189.8411      -211.1223      -70.69269      -115.4128      -223.1567
      -183.2198      -123.5178      -160.2980      -182.3642      -162.0270
      -143.4873      -71.36574      -34.11455      -21.66852      -70.86749
      -200.7865      -255.0807      -183.5312       34.95032       132.1973
       12.54382      -10.87377       47.08994      -7.464554       25.03070
       159.2852       140.5851      -9.477226      -59.50247       23.73380
       71.80014      -34.06436      -43.67419       201.1308       262.4170
     -0.2080154      -30.90564       190.1684       232.6152       87.87077
      -30.14618       33.00793       194.9553       258.1141       150.6074
       132.7037       191.7914       218.3953       275.7476       160.3941
       12.55981       197.1470       443.4706       327.0685       178.5288
       200.6082       121.6407       138.7249       196.7456       173.1614
       284.3580       313.4658       103.7018       73.11407       245.2665
       292.9860       258.4720       330.9001       353.1901       201.5494
       275.8983       428.9302       311.0868       313.6514       403.3342
       171.4912       90.01221       356.0687       406.1409       323.9652
       382.6381       411.4355       408.7954       534.6078       565.9512
       428.6772       433.2124       452.4062       343.4943       404.9417
       512.7510       358.9084       343.6113       515.3911       540.8344
       526.1537       457.0433       468.2003       501.7543       443.2183
       513.7399       615.4858       598.4727       565.4003       573.9749
       608.3630       555.5044       505.6226       553.0619       601.1301
       609.3905       521.5249       466.8303       539.4729       495.0386
       432.7207       542.2574       572.9731       510.4637       517.5769
       376.3090       375.6089       486.8728       411.7458       451.2593
       545.6147       494.6884       404.7263       298.9310       306.0215
       302.8230       390.4797       529.3068       441.9775       350.6424
       349.0598       298.4323       268.6500       146.4247       83.55438
       232.0770       300.0182       163.0774       168.4917       213.2298
       205.9989       177.6193       67.60266       120.4825       294.5028
       266.5609       207.3827       266.1877       246.7843       80.54474
      -40.00607       15.54874       78.39972      -49.65527      -157.9489
      -122.9373      -90.64360      -118.6637      -8.601273       69.17075
      -37.77795      -125.2437      -142.2564      -122.5074      -160.6868
      -233.7825      -126.2338      -97.07727      -243.4310      -281.9005
      -296.3276      -440.5262      -410.6509      -265.6804      -333.8871
      -470.4128      -499.1655      -359.2929      -284.7063      -422.5564
      -436.9744      -495.6409      -581.0693      -542.0107      -501.7231
      -515.9846      -471.2078      -420.8569      -521.2302      -534.9153
      -478.0979      -610.2893      -654.0781      -491.5391      -384.6055
      -415.3296      -617.8505      -693.0270      -480.3552      -449.4875
      -562.0317      -587.3055      -641.1619      -633.3854      -585.5889
      -622.8153      -625.8979      -554.2205      -553.4343      -540.1167
      -478.8124      -541.5983      -574.9747      -546.8390      -462.0264
      -526.3853      -677.6982      -640.1788      -560.6396      -421.8723
      -528.7460      -734.3195      -571.4412      -418.6727      -335.8636
      -303.8967      -428.1385      -528.8544      -502.4983      -437.3209
      -489.2970      -440.5435      -380.9517      -540.2422      -561.6404
      -564.2656      -570.0280      -412.8082      -344.6461      -452.6707
      -538.1398      -504.1702      -415.0804      -352.7239      -403.2755
      -342.0859      -316.6917      -503.1738      -496.6121      -386.2994
      -447.1279      -399.9600      -296.9617      -450.5225      -524.6104
      -327.2393      -194.1029      -283.3888      -362.0106      -321.8584
      -357.1284      -368.2423      -266.0194      -278.1917      -307.7614
      -173.0981      -100.3902      -153.7059      -231.8785      -266.8113
      -142.1382      -120.3376      -339.1438      -229.2577       46.49592
      -10.46946      -26.68426     -0.5457153      -89.83005      -88.39699
      -22.24771       46.59183       103.3073       55.34749       41.94788
       84.38480       111.8555       191.3419       199.6179       152.9370
       89.45328       13.81537       94.28015       212.1848       207.6028
       223.5239       235.0817       198.9230       312.0933       442.7787
       261.9716       203.6129       356.6263       322.9451       377.5422
       430.3760       282.9034       255.1902       373.3710       401.2008
       328.9073       402.2689       470.6331       392.3545       472.0632
       626.4528       506.7749       332.0691       461.1136       519.9766
       412.1816       497.6482       587.5420       554.1589       529.7974
       538.3362       597.6919       526.9480       516.6653       582.3931
       472.9335       482.5167       584.5063       528.1162       510.4587
       585.5197       607.3510       596.1211       640.6282       627.8813
       603.4221       639.1704       627.4272       680.0353       700.7549
       572.7886       523.5315       629.8640       697.3535       674.8524
       618.1201       546.8920       561.3210       533.6992       471.5857
       566.5560       538.9282       510.2122       611.5411       511.4233
       487.1890       633.9343       655.4374       605.8096       515.1045
       453.7738       440.5999       398.7439       360.4657       439.6704
       600.7927       550.9418       358.8531       338.9753       443.8099
       382.1067       287.5752       363.7626       319.4318       375.0323
       442.5581       286.9203       335.9663       452.4921       281.9962
       78.00900       101.5886       306.6184       314.0840       157.2094
       139.3337       219.1705       349.1411       345.9459       149.4040
       37.62853      -17.97116       32.48080       143.6413       66.02841
       45.62965       41.38651      -83.92822       88.95696       112.7124
      -104.4317       31.60364       205.1843       93.22528      -45.13587
      -43.79347       62.26061       21.39774      -130.8029      -143.4467
      -108.4444      -57.77939       23.78732      -50.18030      -88.01495
      -19.60590      -47.98486      -137.7285      -94.10165      -53.86066
      -105.4162      -87.62849      -46.76740      -99.31891      -189.1892
      -241.4421      -125.6672      -74.71100      -197.9984      -247.1221
      -194.7186      -148.0325      -275.1230      -364.5764      -174.6436
      -205.9432      -412.7483      -396.0150      -336.8823      -382.9955
      -379.5334      -427.8689      -505.1885      -413.2067      -403.2582
      -447.0652      -450.0060      -509.2867      -442.8832      -348.6057
      -371.7229      -453.9973      -511.4298      -546.7156      -602.3972
      -566.6010      -561.7513      -574.4746      -560.5344      -576.3894
      -470.5679      -404.9731      -510.0142      -537.0547      -426.0652
      -505.8710      -658.8762      -552.5702      -431.7737      -480.1162
      -479.8947      -465.4459      -407.0289      -347.0800      -503.8843
      -626.7310      -455.2961      -366.1521      -427.7229      -448.2283
      -460.1079      -450.0076      -396.0004      -415.5376      -435.8555
      -416.2407      -329.6407      -305.3085      -344.9591      -327.0670
      -367.0115      -382.1500      -263.1715      -285.2576      -398.4768
      -350.1689      -304.1013      -396.8506      -365.4287      -310.0342
      -282.6006      -257.4578      -380.0317      -428.5502      -240.3646
      -237.7556      -367.5063      -361.5708      -284.8127      -210.0359
      -229.8228      -369.2256      -402.8909      -334.6570      -314.6450
      -290.3173      -243.9437      -170.2682      -207.1966      -317.0228
      -254.9087      -337.5302      -519.7494      -423.7679      -293.2729
      -251.4967      -252.4922      -297.1951      -272.7785      -251.6791
      -279.5994      -200.7184      -147.5247      -267.3180      -276.7413
      -250.8740      -230.0538      -113.0682      -73.64420      -49.88446
      -70.43188      -196.2085      -179.8864      -127.8801      -100.2573
      -18.77098       29.03596       57.42632       44.27745      -31.23236
      -49.07686      -34.25796      -17.54576       32.57660       51.50748
       118.5578       180.4902       137.3680       166.0638       172.4822
       32.49603       74.40207       168.4626       54.84775      -7.849884
       83.05438       169.1012       96.56852       16.09644       82.33649
       153.3319       225.5750       183.7286       133.4345       167.7014
       136.3138       200.9653       316.6510       316.2204       198.4752
      -133.4780      -365.2112      -182.7319       195.5593       397.1248
       286.6703       184.3695       472.2876       939.1401       1150.122
       898.6166       352.5673       42.31433       259.2114       963.0742
       1635.639       1597.464       946.1948       162.7831      -233.0571
       18.89331       489.3542       656.7805       568.9745       468.5108
       189.3025       19.57703       393.1060       680.5029       719.9902
       829.5684       731.4541       221.9026      -506.0835      -947.4038
      -802.0541      -360.8429       160.9829       752.7808       1238.582
       1339.389       1175.688       1042.021       936.8340       960.0671
       814.2984       173.3710      -203.0553       8.579102       605.8501
       1243.324       913.3448      -277.8727      -439.3608       961.3379
       2259.649       2237.436       1105.167      -183.3445      -456.5952
       347.2422       1400.359       1829.640       1142.076       123.1800
      -151.6848       122.6519       513.7261       950.6578       774.1285
      -38.58154      -498.7889      -568.2827      -337.5503       71.46655
       328.5621       401.0994       200.9972       265.4581       651.4209
       594.8261       336.3934       318.6892       533.1475       783.3257
       916.5918       871.9902       736.3890       607.0066       302.8383
      -127.3535      -253.6854      -29.15100       252.1337       272.4675
      -176.7358      -704.5979      -691.0378      -553.4003      -652.3027
      -405.8720       102.4357       445.7384       528.0991       201.9231
      -236.3806      -687.7280      -1055.445      -997.7861      -604.6815
      -174.6819       29.31883       4.697632      -233.3652      -459.4017
      -349.3840      -135.9647       106.5715       154.5555      -13.11966
      -91.73340      -227.0801      -240.5798       86.03720       120.0992
      -358.9434      -634.4329      -789.0610      -1075.532      -828.4068
      -289.8416      -66.49451      -112.3423      -456.9402      -794.0984
      -840.3706      -776.2375      -507.3497      -282.7766      -475.3481
      -645.2297      -454.4639      -282.2390      -219.6465      -249.9431
      -548.2368      -854.6631      -923.0603      -733.2604      -424.2900
      -398.9719      -558.4517      -738.3145      -873.0371      -777.4037
      -635.8999      -529.0477      -334.3573      -189.6432      -161.0923
      -333.7476      -878.0898      -1349.362      -1157.295      -633.5927
      -196.0290       103.0853      -23.62292      -142.2383      -121.6306
      -522.7114      -908.6313      -927.4180      -684.8416      -310.7867
      -284.6584      -520.2126      -574.2837      -616.1860      -747.7332
      -731.0720      -712.5282      -627.6802      -246.5748       206.8038
       498.9706       426.4583       113.5444      -10.29642       32.21741
      -164.8607      -531.6423      -580.1628      -322.2235      -27.69827
      -2.371460      -271.5247      -448.9595      -532.1848      -625.9064
      -519.8057      -250.4723      -144.4791      -180.7274      -287.8390
      -328.8243      -168.3372      -221.8477      -278.3947       104.8049
       320.6433       283.0969       142.6909      -163.8561      -128.7413
       62.67433      -17.05698       107.0677       215.5641       148.1010
       384.7007       370.4768       147.6807       161.2178      -34.36728
      -178.9239      -154.7899      -226.6983      -91.37669      -24.47614
      -124.1684      -100.3911      -170.2953      -31.51392       377.8544
       485.4434       441.0612       472.5349       246.8814       32.78308
       236.5050       415.1140       284.7812       196.8375       155.9555
       27.27905       369.3687       891.3403       834.9651       627.5354
       492.4819       382.4287       310.3984       272.8879       387.1205
       370.9543       117.6030      -75.25592      -181.4722      -205.3041
       58.68610       321.1268       244.2411       195.1174       386.0559
       613.3778       629.8594       409.4255       247.2850       358.7804
       622.5310       748.9012       595.7676       594.3093       655.2976
       421.5456       275.4518       395.4755       435.4858       467.9238
       685.0029       752.9698       532.1356       293.9379       201.2104
       341.6090       425.7269       348.0770       154.8176       65.63867
       302.6069       483.3195       385.1508       241.7959       74.14648
      -227.1201      -363.9700       153.6604       802.2615       856.8272
       385.8594      0.9668427       21.17831       115.0049       151.1902
       229.5880       208.0299       147.7992       38.07392       13.77071
       68.61374      -31.57523      -26.79272       352.1526       742.7385
       854.6090       619.8981       428.9238       579.6399       507.1455
       401.6149       577.8715       403.2651       2.364929      -285.6835
      -361.8289      -155.0233       136.5029       336.6863       361.3696
       196.9340       132.6401       254.4492       178.3358      -64.93230
       21.66101       196.1832       292.1386       279.2102       159.4809
       12.36755      -195.4498      -183.7904      -267.0385      -452.8060
      -163.5926       104.5932      -129.3411      -547.3809      -605.8235
      -394.7139      -141.9226      -43.68448      -141.9831      -77.20180
      -20.83908      -39.09460      -129.5544      -368.5924      -359.3327
      -209.6875      -217.2962      -290.3994      -224.9386      -151.0522
      -172.8495      -166.4261      -355.7969      -569.1407      -351.9897
      -110.1246      -267.0265      -452.7014      -363.2281      -228.0122
      -162.6696      -220.1729      -194.2441      -78.90845      -129.6776
      -261.9138      -248.0647      -174.7310      -317.6277      -403.3181
      -364.6704      -512.5719      -586.3816      -564.8263      -580.0732
      -483.0913      -433.9287      -516.0919      -488.1381      -376.9243
      -388.7948      -404.3948      -234.2343      -61.56482      -105.9436
      -406.4493      -552.8042      -346.7648      -299.5886      -424.6533
      -365.0107      -257.0807      -343.2930      -406.6204      -319.4687
      -299.7302      -211.8407      -141.7085      -247.5576      -414.7874
      -451.0690      -227.2030      -90.17603      -188.2425      -292.1265
