     0.02500000      -2431.260       2011.092      -12345.00      -12345.00
      -29.99001       220.3100      -22.29000      -12345.00      -12345.00
       0.000000       16.68000      -12345.00      -12345.00      -12345.00
      -12345.00      -12345.00      -12345.00      -12345.00      -12345.00
      -12345.00      -12345.00      -12345.00      -12345.00      -12345.00
      -12345.00      -12345.00      -12345.00      -12345.00      -12345.00
      -12345.00      -32.11960      -68.98490       1817.000       0.000000
      -31.37200      -68.11800       0.000000       97800.00       0.000000
      -12345.00      -12345.00      -12345.00      -12345.00      -12345.00
      -12345.00      -12345.00      -12345.00      -12345.00      -12345.00
       116.6996       224.5123       44.96617       1.049292      -12345.00
      -12345.00      0.7448271       90.00000       90.00000      -12345.00
      -12345.00      -12345.00      -12345.00      -12345.00      -12345.00
      -12345.00      -12345.00      -12345.00      -12345.00      -12345.00
      2008       244         6        45        27
       690         6    -12345    -12345     10013
    -12345    -12345    -12345    -12345    -12345
         1         7        13    -12345    -12345
    -12345    -12345    -12345    -12345    -12345
    -12345    -12345    -12345    -12345    -12345
    -12345    -12345    -12345    -12345    -12345
         1         1         1         1         1
CLAR    -12345          
        -12345  -12345  
-12345  -12345  -12345  
-12345  -12345  -12345  
-12345  -12345  -12345  
-12345  -12345  -12345  
-12345  -12345  BHE     
ZL      -12345  -12345  
[...]
       225.7211       206.4838       181.1560       160.7502       152.0885
       131.5299       108.0640       87.32465       74.38838       42.39150
       10.58380      0.1811066      -5.890289      -37.19141      -60.50816
      -74.09656      -103.9555      -116.2480      -125.7637      -160.8758
      -183.3674      -199.2486      -218.5517      -230.5790      -246.1216
      -266.8192      -276.0110      -298.2886      -298.2605      -317.1112
      -339.4615      -348.8910      -355.8837      -364.7805      -380.9536
      -402.8424      -419.5367      -411.1721      -406.1233      -432.4852
      -451.1829      -453.9235      -438.6498      -443.3564      -447.6100
      -462.8306      -454.7053      -435.3911      -445.5636      -468.3755
      -450.4048      -430.8835      -448.2317      -448.2795      -421.5621
      -431.7021      -439.1378      -432.2620      -424.3223      -441.3956
      -450.2343      -413.1769      -406.8247      -413.4338      -398.3351
      -403.5560      -402.8960      -384.9889      -379.0243      -375.9673
      -363.0911      -356.4288      -357.1298      -352.1433      -351.3390
      -348.0236      -337.6769      -332.9623      -332.1206      -326.4882
      -317.9178      -314.9474      -319.0880      -328.8272      -321.7061
      -301.0192      -301.7374      -296.1887      -274.4224      -265.2519
      -248.4774      -250.3646      -264.3716      -254.3923      -221.6949
      -227.5438      -220.6242      -209.6447      -221.7355      -202.0857
      -162.5761      -155.9708      -144.6429      -144.4565      -114.6093
      -93.33414      -71.13290      -54.52609      -58.38836      -46.35830
      -6.327137       8.961594       17.20441       30.40236       50.84358
       55.47261       75.76547       88.04752       100.5730       109.4230
       130.4736       127.7769       141.8912       152.8499       154.9380
       168.0287       163.4362       152.3700       179.0072       231.3188
       343.5959       611.4257       597.5812       260.4839       178.4521
       244.8820       212.8099       87.40771       565.5033       660.6560
      -231.8092      -368.9784       267.5571       797.7400       447.2848
      -250.9288       305.6841       905.9858       283.3948       162.7937
       1110.189       1087.476       223.7314       79.75696       426.5713
       330.2091      -150.7754       137.8522       582.9561       79.46396
      -137.2571       530.5845       998.6821       843.9167       681.4629
       563.6393       174.1429       43.51733       359.4277       400.0718
       385.0305       484.0638       476.2988       605.7894       588.3763
       222.6153      -48.80872      -258.0826      -198.5648       287.2334
       893.1248       1064.022       629.9665       147.1825      -68.98254
       220.4665       393.5345       114.0497       95.32666       119.1669
       198.9551       205.5468       143.4633       312.7437       412.9697
       309.1313       6.840424       1.031006       330.8092       283.8690
       23.83928      -86.66708      -2.490265       59.72754       62.47736
       142.0649       210.3401       125.0769      -68.76994      -61.23425
       83.62936       96.18430       73.33533      -91.13684      -75.91315
       132.0416       168.3080       124.3118       44.62860       34.76472
       80.22409       8.315352      -5.745766       15.76771       30.12855
      -2.955750      -118.9865      -148.9320      -138.5885      -140.1052
      -187.5005      -246.6583      -257.3217      -153.3656      -124.3911
      -204.2601      -129.5018      -196.9913      -254.5629      -84.08173
      -70.56970      -245.8679      -338.8544      -330.1265      -384.0216
      -390.2900      -284.7922      -156.1120      -71.14862      -169.0908
      -242.2107      -305.8618      -458.2328      -426.2407      -274.3493
      -251.4503      -369.7853      -332.1028      -245.0878      -292.1403
      -320.0371      -287.3251      -163.5247      -175.8325      -364.8694
      -497.3618      -558.9877      -535.6907      -478.4744      -420.4767
      -359.3429      -291.2788      -258.9618      -359.2717      -400.8354
      -242.5459      -145.3027      -228.5457      -385.1533      -449.8190
      -331.8672      -312.1833      -363.5645      -324.7913      -282.4583
      -224.0134      -265.3564      -151.3580      -23.29735      -64.54309
      -56.68179      -110.9611      -71.10254      -63.77267      -101.5266
      -1.497326       22.53143      -48.11325      -184.9404      -32.55762
       213.6409       198.2797       183.7423       159.6199       246.7751
       306.0683       165.9099       125.5458       83.27973      -25.47859
      -60.63466      -37.95298      -22.77020       54.85095       79.27353
       70.66168       92.88013       86.48822       245.6276       421.2117
       397.1175       355.6553       259.6999       119.0163       71.50110
       177.4044       229.1455       174.0850       133.1784       156.0474
       146.1947      -6.758926     -0.6326294       247.3438       360.2686
       296.9214       211.6832       185.1723       116.4023       43.17487
       133.5915       237.6950       162.3622       92.37183       173.0364
       218.1823       184.0854       189.0264       155.1718       142.2468
       141.7716       97.06439       73.42990       148.1003       165.2624
       65.93994      -28.09882       12.04361       77.21658       129.9872
       160.7119       119.6661       94.59471       51.24314      -24.68995
       15.84544       15.95209       36.98782       98.74792       127.6938
       108.7365       64.03287       14.58981       64.45459       111.7873
       104.0615       169.4863       148.9336      -12.05804      -57.76404
      -140.2398      -168.9751      -92.79463      -16.25678       40.59744
      -8.155029      -123.3026      -132.3485      -40.43744      -48.91653
      -109.8249      -75.75544      -45.96146      -13.40051       17.87993
       25.80978      -25.07837      -118.3431      -181.0148      -167.0911
      -150.6656      -86.37869      -60.10913      -198.4714      -275.2193
      -171.6733      -170.3646      -290.6734      -335.7742      -127.6896
       8.088165      -93.63724      -109.9699      -84.91199      -161.7461
      -229.6807      -270.9821      -170.0861      -88.10629      -99.85452
      -106.0226      -126.8896      -141.7833      -120.1499      -148.3223
      -196.2587      -237.4153      -292.6846      -286.5928      -205.2069
      -255.4176      -266.2645      -235.4058      -290.2080      -186.9010
      -36.08838      -62.74393      -89.18646      -165.6418      -198.3830
      -168.9962      -190.1914      -159.0369      -111.2137      -126.0370
      -146.7658      -179.9654      -174.3844      -128.6895      -178.2055
      -247.6977      -175.4384      -163.2560      -151.8498      -25.18771
       66.62550       26.56534      -38.27441      -31.40015       57.87500
      -25.07202      -213.5975      -209.9238      -192.1611      -144.5417
      -75.00143      -111.9505      -67.71416      -47.02905      -84.52020
      -56.79044      -74.90080      -84.13170      -5.809540      -24.40320
      -94.69901      -107.2765      -112.2418      -71.59619      -54.68588
      -131.2223      -121.8865      -18.55157       62.97678       48.35046
       1.907520      -2.382690      -31.85758       15.75717       34.97369
       76.11649       176.8048       92.50989       5.916946      -32.12577
      -51.89726       25.75261       56.04419       24.62045       68.61993
       61.88229       25.72595       138.1427       239.2722       205.9299
       217.8760       227.8387       220.1574       179.2045       141.9232
       148.7831       126.3962       258.1426       324.0200       188.0081
       151.2316       191.1934       324.6721       322.6743       181.0043
       196.2689       240.0290       232.0927       197.4979       195.7039
       376.0159       447.4207       313.2367       279.6496       225.8014
       93.74304       177.7872       303.3354       336.0973       316.0627
       272.6708       232.5308       171.9683       205.7968       366.4463
       411.5113       320.8256       289.0312       289.5260       266.9608
       337.0153       357.7665       196.4492       123.6449       170.8877
       160.3197       115.6774       161.5245       252.1328       262.9227
       282.5328       319.1967       299.7081       174.8971       135.8097
       277.2669       182.3231      -39.59758       48.40045       131.3274
       145.5306       140.6227       57.45166       42.22684       107.5513
       193.5963       136.7853       63.65258       31.03077      0.4034119
      -37.36952      -112.3268      -25.05304       170.0072       131.0140
      -14.92697      -31.32637      -77.11353      -72.38783       6.135498
       71.35901       70.40514      -3.022675      -47.94107      -51.30576
      -67.95819      -58.16108      -35.43047       16.35336       70.31282
       53.76061       45.80912       19.67432      -50.37753      -91.66303
      -39.49310       83.65994      -2.788513      -90.46547      -82.96109
      -43.63469       23.02220      -49.71161      -123.0842      -134.2645
      -121.2281      -68.28283      0.5034790      -23.23825      -116.1389
      -39.14703       14.04279      -150.4510      -262.9564      -126.7349
       6.982239      -67.88550      -220.2848      -291.5472      -267.7441
      -169.6193      -82.58832      -127.3086      -274.3661      -268.9719
      -171.6179      -205.8583      -239.7846      -168.2786      -99.49280
      -191.1241      -324.7200      -280.2170      -234.8829      -240.7673
      -208.6628      -180.5414      -159.5671      -196.7871      -291.6736
      -306.4979      -289.7136      -328.8960      -217.7789      -81.87842
      -143.4422      -247.0969      -312.5544      -357.8518      -360.6144
      -350.5155      -326.5823      -333.2260      -278.8088      -148.0836
      -133.3477      -167.3873      -213.4921      -307.2813      -297.6366
      -336.7960      -395.2775      -333.6897      -290.6356      -297.5450
      -314.8818      -320.3376      -263.2384      -257.5460      -330.6648
      -303.1866      -242.2748      -309.3835      -409.6637      -412.9581
      -305.0232      -218.6760      -290.8381      -365.7719      -348.4368
      -346.4963      -266.6648      -114.5217      -135.5422      -239.5574
      -279.2396      -356.5507      -354.0963      -251.8338      -126.4815
      -25.47205      -36.17111      -72.55951      -115.3052      -153.6429
      -101.5610      -77.42983       33.85474       59.02280      -48.95303
      -53.13926       1.133457       1.136742      -31.96503       60.90640
       189.3581       124.7804       84.59247       93.83710       61.54517
       71.95569       149.7682       154.1996       121.5088       109.2408
       142.5187       160.8708       165.8431       183.2773       226.8792
       264.6216       316.1433       315.6637       157.9083       49.68414
       104.9470       154.8801       280.5863       325.2015       336.6070
       324.2582       194.2099       144.1036       186.9507       228.7753
       209.5664       28.27773      -31.71870      0.1472168       126.2397
       377.8951       388.1548       235.8448       176.7757       113.7391
       18.53592       26.91846       295.7410       405.7699       414.3821
       491.0870       429.3948       327.9104       137.1785       2.212646
       170.1320       249.1136       303.3972       404.0691       453.2460
       355.8168       248.4382       207.7883       231.8005       301.4189
       338.0497       383.7502       276.3179       88.95096       111.3660
       234.8258       295.3017       174.0591       150.7516       265.9342
       340.0547       400.1367       411.6116       372.0205       476.6525
       542.4479       475.1569       410.0940       325.5174       176.7171
       12.47412      -197.8176      -357.2202      -415.5908      -394.2184
      -325.6982      -205.5098      -122.6065       36.79321       308.3931
       658.0869       957.5723       884.2030       523.0393       151.8159
      -260.2761      -531.3279      -486.0861      -320.2196      -98.04504
       222.0565       480.5791       754.0244       1231.220       1784.146
       2011.092       1749.295       1027.813       268.9583      -199.7512
      -386.0035      -155.9030       271.5230       283.8694      -106.9006
      -390.1180      -430.2749      -446.2189      -494.0896      -323.3979
       233.1074       711.1230       880.5518       947.7378       964.3401
       983.6945       792.3342       55.71777      -1052.341      -2046.720
      -2431.260      -2014.314      -1036.554      -22.34961       717.7864
       1212.541       1257.487       917.9299       649.7375       480.3049
       335.8098       240.9529       71.46387      -283.1560      -788.5903
      -1251.944      -1251.955      -760.6003      -222.4607       220.8093
       518.7357       354.7968      -34.08850      -347.4697      -515.4227
      -381.0535      -40.20166       433.5693       697.2865       528.6699
       164.8378      -314.3447      -751.3899      -1000.333      -767.9309
      -129.7526       361.9366       341.4929      -138.8323      -650.0581
      -885.9966      -818.6123      -583.4651      -308.7406       41.13110
       333.5742       339.5813      -19.96985      -383.8686      -357.5078
      -53.15247       285.4350       363.1461       164.8066      -43.42871
      -211.9325      -334.4924      -486.0110      -620.9299      -781.7834
      -1015.333      -1103.709      -1088.079      -986.2678      -802.2500
      -649.8805      -497.2252      -333.1629      -135.8298       66.89807
       242.8330       280.5614       119.8142      -53.00995      -188.2380
      -198.3864      -201.2087      -300.6257      -322.1187      -384.9524
      -589.4780      -836.2271      -1155.202      -1382.108      -1178.051
      -752.7383      -292.0805      -27.13684      -209.2195      -483.2283
      -667.2412      -573.1766      -259.3392      -79.91599       50.07275
       164.8916       206.2865       51.54669      -259.9231      -490.7417
      -657.9940      -665.3138      -557.6780      -455.5627      -445.4180
      -592.8337      -736.6243      -666.9225      -367.0776      -209.8626
      -186.8198      -74.23515      -43.13611      -113.4818      -98.28778
       142.5369       419.1978       495.0598       378.1734       278.2643
       191.4098       82.02539       100.8724       71.89874      -62.81134
      -146.8800      -146.5450       36.84900       343.1652       522.6470
       471.8715       469.1311       490.5156       488.4591       475.6268
       413.4019       450.7466       469.5524       460.8735       448.4167
       325.3920       319.2638       369.0818       391.9430       441.8625
       425.4646       297.4312       132.4674       99.15808       232.8546
       418.4680       522.7671       351.7443       207.0569       388.4648
       748.3440       968.5254       962.3306       786.7246       601.5757
       480.9955       305.9915       249.8326       323.9919       257.9572
       152.8354       103.7208       144.1489       160.4719       123.4375
       154.6230       336.2468       581.7083       778.3752       771.8765
       659.7476       559.7175       447.0312       386.3696       371.2335
       361.0206       370.4357       436.2484       518.4161       487.2744
       437.7609       438.4806       400.1389       281.8419       171.7954
       211.9983       245.7322       156.5944       110.4431       165.2933
       210.0153       90.53194      -16.32288      -29.42505      -74.63058
      -124.4279      -97.01883       22.32117       186.4111       141.5378
      -38.37695      -247.0408      -352.6705      -125.2560       105.8250
       65.84190      -21.54633      -108.7068      -159.5422      -206.8960
      -315.2948      -395.1932      -378.4758      -291.3344      -209.7713
      -193.6266      -77.98965       22.62498       38.93378      -133.7320
      -233.4796      -78.93350      -79.22913      -100.4142      -242.1346
      -340.1324      -237.6967      -264.6384      -206.1560      -196.5070
      -248.2787      -220.8690      -37.39819      -68.77417      -380.3787
      -496.5811      -545.2559      -537.3907      -394.7575      -242.0162
      -35.19708       137.7147       187.5901       16.15747      -252.2415
      -382.2228      -270.5606      -154.7197      -162.5389      -133.7603
      -163.3894      -339.2690      -370.8784      -319.4420      -342.2205
      -437.6338      -478.8450      -500.0645      -538.3384      -635.5042
      -732.5065      -577.0320      -190.4549       193.9431       349.9823
       163.2259      -31.37331      -33.59534      -35.17984      -123.1376
      -38.63408       69.99023      -13.37012      -265.5515      -498.0524
      -386.5001      -43.21265       170.5428       239.6128       107.8503
      -232.5712      -574.3958      -599.8032      -340.8257      -115.6611
      -161.0870      -299.7282      -278.0084      -225.2433      -162.6041
      -5.214005      -16.76503      -82.29108      -45.21588      -14.19162
      -118.5071      -269.6771      -354.8054      -375.3190      -382.9924
      -389.4414      -260.9304      -158.1747      -121.1061      -31.52045
      -9.426758       64.89798       110.6671       84.95612       132.4905
       145.2882       63.77960       45.00122       111.9875       109.5695
       80.68586       66.52560      -48.40216      -162.3566      -177.0640
      -107.7406       15.65504      -12.64667      -118.8189      -57.25146
       88.10248       196.2653       184.6372       165.8876       215.0385
       208.4839       140.7475      -7.765900      -88.23802      -19.09079
       67.14378       49.48123       12.53748       91.40131       256.6306
       447.9032       545.4436       493.7224       401.0966       341.8204
       259.7950       205.4570       222.8677       220.9850       301.8616
       378.9771       331.1700       247.1907       154.8177       123.2908
       184.2134       191.3326       128.3892       91.24408       84.04935
