     0.02500000      -1715.934       2062.149      -12345.00      -12345.00
      -29.99001       220.3100      -22.29000      -12345.00      -12345.00
       0.000000       16.68000      -12345.00      -12345.00      -12345.00
      -12345.00      -12345.00      -12345.00      -12345.00      -12345.00
      -12345.00      -12345.00      -12345.00      -12345.00      -12345.00
      -12345.00      -12345.00      -12345.00      -12345.00      -12345.00
      -12345.00      -32.11960      -68.98490       1817.000       0.000000
      -31.37200      -68.11800       0.000000       97800.00       0.000000
      -12345.00      -12345.00      -12345.00      -12345.00      -12345.00
      -12345.00      -12345.00      -12345.00      -12345.00      -12345.00
       116.6996       224.5123       44.96617       1.049292      -12345.00
      -12345.00    0.006846591       0.000000       0.000000      -12345.00
      -12345.00      -12345.00      -12345.00      -12345.00      -12345.00
      -12345.00      -12345.00      -12345.00      -12345.00      -12345.00
      2008       244         6        45        27
       690         6    -12345    -12345     10013
    -12345    -12345    -12345    -12345    -12345
         1         7        13    -12345    -12345
    -12345    -12345    -12345    -12345    -12345
    -12345    -12345    -12345    -12345    -12345
    -12345    -12345    -12345    -12345    -12345
         1         1         1         1         1
CLAR    -12345          
        -12345  -12345  
-12345  -12345  -12345  
-12345  -12345  -12345  
-12345  -12345  -12345  
-12345  -12345  -12345  
-12345  -12345  BHZ     
ZL      -12345  -12345  
[...]
       389.4769       375.0042       363.0608       330.7529       319.2632
       307.2206       294.7518       268.8511       257.1255       244.2734
       213.7220       204.7224       197.9030       159.5354       147.3143
       137.2117       111.8164       90.37460       69.58569       46.98733
       33.66177       13.27053       6.001488      -26.12086      -38.03952
      -48.85278      -81.22183      -98.36481      -103.8065      -128.4258
      -145.6833      -165.2613      -187.0302      -202.7223      -207.6721
      -229.7055      -240.0953      -255.6308      -286.4490      -298.2601
      -314.6357      -343.4152      -347.9015      -347.4070      -365.1825
      -387.5117      -396.5515      -408.4065      -421.6042      -435.3499
      -439.6899      -453.4807      -470.0455      -480.2262      -493.5557
      -504.5092      -516.9890      -521.2299      -534.3577      -571.8712
      -569.3688      -567.4017      -599.6799      -605.1023      -605.4963
      -636.9229      -654.7483      -664.5049      -671.0729      -672.5789
      -676.0405      -697.9309      -725.8542      -742.2046      -741.9045
      -751.3545      -755.6775      -757.3157      -773.5356      -800.1401
      -823.2595      -838.7920      -826.9985      -830.3394      -851.2903
      -879.1169      -875.2471      -874.0012      -891.2615      -895.8875
      -899.4485      -923.3228      -928.5037      -935.5645      -932.2905
      -938.2668      -941.8755      -958.1899      -964.4163      -959.5103
      -963.6055      -971.1672      -967.7046      -972.4897      -977.7158
      -971.0759      -964.8777      -981.5107      -965.9734      -963.4407
      -962.5376      -961.2607      -970.8352      -963.4460      -945.7844
      -933.3823      -939.8074      -940.9360      -918.3789      -908.6538
      -894.4785      -888.4646      -880.6040      -869.7771      -839.4849
      -821.2241      -825.3325      -813.3694      -777.7603      -751.1284
      -730.3325      -710.8223      -693.9316      -679.4839      -636.5409
      -616.8494      -604.3477      -568.9741      -534.5049      -524.3986
      -485.9083      -433.9830      -409.4459      -396.0542      -359.6992
      -308.4532      -273.0803      -250.1375      -205.3246      -164.5512
      -130.7258      -82.05154      -36.06044      -15.14011       27.84619
       77.69897       117.3917       158.9672       196.2662       246.2911
       293.3252       320.7606       372.8284       415.8535       455.4594
       510.4812       543.8928       582.2009       625.2528       651.7456
       697.0491       739.6104       762.1543       801.1055       840.9500
       859.4087       888.6050       933.2646       955.4036       976.5996
       999.7676       1041.040       1065.479       1076.125       1110.453
       1130.688       1151.890       1164.592       1156.918       1188.583
       1216.260       1216.924       1220.227       1242.273       1243.848
       1250.637       1267.302       1270.802       1281.781       1273.677
       1275.816       1293.355       1286.358       1292.128       1294.958
       1278.203       1274.937       1281.209       1287.914       1281.346
       1275.001       1263.989       1254.937       1264.256       1271.939
       1263.583       1238.124       1227.141       1226.756       1221.353
       1220.439       1221.998       1210.358       1188.723       1166.460
       1157.011       1142.638       1124.705       1117.375       1111.833
       1094.595       1071.986       1042.407       1035.667       1024.103
       995.2122       965.6028       937.2708       911.2305       888.5017
       856.9751       838.3225       820.5798       792.2876       757.0085
       729.9751       696.9045       667.4370       631.0720       595.6002
       562.6323       525.4067       479.1307       444.1492       408.7625
       371.5492       332.3987       302.0317       232.9169       189.0376
       160.4823       120.2650       63.23857       25.45253      -16.20270
      -58.87411      -91.86102      -131.0109      -183.4429      -208.5210
      -254.5686      -296.9799      -340.8285      -377.2183      -415.7917
      -457.2841      -493.1611      -526.9918      -570.3804      -602.1545
      -634.5129      -652.0496      -689.5273      -717.0674      -739.3416
      -759.9712      -796.4001      -810.6924      -827.3704      -856.1665
      -876.7424      -885.9314      -914.4268      -932.5149      -946.8945
      -949.4399      -964.4734      -972.5962      -984.8020      -990.0723
      -1000.524      -1010.398      -1014.939      -1019.007      -1042.477
      -1043.122      -1037.797      -1041.347      -1061.279      -1059.933
      -1064.532      -1067.362      -1060.680      -1064.534      -1067.006
      -1063.104      -1056.410      -1054.128      -1051.397      -1067.264
      -1073.403      -1050.023      -1053.285      -1062.067      -1045.354
      -1036.379      -1025.319      -1025.843      -1019.946      -994.1357
      -992.8252      -983.6587      -968.7678      -962.2908      -951.7446
      -939.3020      -928.3081      -902.9670      -876.2146      -862.8037
      -836.2561      -817.9543      -798.0984      -761.3074      -737.0840
      -726.1848      -706.1833      -667.5171      -644.6256      -623.6194
      -592.0859      -551.1796      -524.5095      -489.4049      -467.2549
      -455.9729      -406.3502      -373.6193      -359.6543      -333.9228
      -291.1130      -260.8929      -232.6805      -207.0952      -189.0627
      -167.0971      -147.8633      -112.6935      -87.80371      -50.62784
      -17.79135      -16.40814       2.947495       30.48505       52.28720
       76.25458       112.1874       117.3956       121.4874       143.6051
       168.0104       176.0277       174.0781       203.1598       235.9104
       221.5214       253.9996       286.8325       300.4952       324.8376
       332.6576       331.0645       371.2378       374.8495       368.8835
       409.0332       443.3022       442.3087       455.5388       450.3925
       469.2368       478.5183       478.7244       513.0254       538.8173
       530.4438       539.3535       548.9340       565.5487       578.6882
       590.8678       595.2806       596.2578       606.8303       611.6453
       606.3125       611.5320       611.6659       610.2119       617.4381
       606.5464       630.7534       642.7678       611.0981       617.2671
       633.9227       624.6672       614.1929       616.6080       603.9968
       598.2441       584.1145       581.1389       602.4752       584.9788
       555.2798       552.1344       567.8939       546.6261       531.0530
       529.5271       531.1240       532.7141       505.5070       487.8662
       488.0543       489.6625       480.9978       464.3091       439.6033
       425.3749       436.7764       413.9989       389.8591       381.2910
       366.0762       365.6565       356.9519       343.7534       329.3110
       318.4322       310.7542       307.2104       273.3440       268.1245
       260.1143       257.6872       251.3582       216.2745       205.6677
       202.9420       184.5739       171.0488       153.3746       128.9209
       102.4506       113.5855       93.40230       79.41756       69.19345
       58.44254       46.06824       35.91062       25.21548       3.720844
      -4.687309      -6.807281      -28.68577      -32.78062      -33.59581
      -56.39996      -69.57886      -56.58545      -63.26959      -83.26697
      -112.1712      -103.2279      -108.9822      -133.9670      -149.0194
      -141.6670      -143.9335      -151.1926      -129.1464      -142.3271
      -162.7617      -154.3502      -158.2234      -176.7875      -187.1082
      -171.9296      -178.5623      -202.5976      -212.2852      -195.1970
      -189.3262      -202.3173      -189.8227      -191.8333      -197.4811
      -204.4438      -219.1267      -214.4230      -211.7355      -220.6162
      -207.4626      -209.5798      -222.9609      -200.8824      -201.2966
      -225.4636      -214.8917      -209.9221      -227.6694      -202.4832
      -192.2509      -213.4589      -219.9012      -219.5693      -224.7051
      -206.9966      -195.7163      -214.4469      -230.1221      -215.6487
      -189.6545      -201.8574      -212.0527      -199.5439      -202.1804
      -175.2231      -178.7545      -204.0497      -190.3306      -178.5983
      -191.5549      -186.9297      -162.6223      -163.1708      -157.2023
      -143.9153      -162.3614      -152.9244      -140.5535      -149.4490
      -142.7500      -128.6875      -136.2467      -133.4921      -115.5110
      -97.99573      -110.7701      -106.0062      -95.56952      -93.47159
      -89.35721      -81.70569      -81.23383      -83.70816      -63.41458
      -58.31926      -68.24864      -49.70073      -53.09004      -56.79224
      -42.05444      -31.50648      -35.92644      -28.74196      -13.10845
      -25.97915      -26.33393       8.131800       6.856953      -10.67952
       6.641235       22.15483       8.034103       17.77022       23.94385
       17.67100       18.74013       22.73167       31.66859       32.70101
       33.83321       39.79305       48.69539       53.73863       45.42857
       47.60068       53.51208       52.62769       57.18616       51.70901
       55.32404       72.15726       81.36806       78.46381       84.67288
       107.4007       116.9495       118.3384       126.9029       128.4756
       137.9069       135.9293       134.9271       142.7888       148.8682
       151.6471       162.2762       162.4487       159.3155       165.4246
       165.7438       162.9452       169.9520       171.1516       169.5687
       179.1207       180.0632       199.8426       195.2320       183.2330
       180.5774       178.7766       185.5978       184.0429       184.2268
       179.9876       168.8165       175.5779       181.3485       168.7165
       159.9800       154.5977       142.6354       142.0319       134.1816
       139.5223       138.6760       139.7357       119.2305       116.0970
       117.6193       106.4351       97.48067       78.41142       71.20349
       62.11205       50.88243       57.52232       46.20177       31.08240
       22.43704      -6.497154      -27.71278      -9.530975      -17.54202
      -45.98611      -54.25977      -54.18375      -70.08652      -87.38782
      -78.99817      -85.59204      -122.5951      -128.3711      -125.4826
      -140.8332      -155.0614      -155.7596      -182.4291      -201.6000
      -188.4421      -192.8301      -223.8616      -237.0271      -235.9432
      -241.5052      -255.8911      -264.3800      -279.1992      -285.2546
      -286.4197      -302.3213      -311.7169      -310.5664      -324.3298
      -336.4753      -338.7694      -351.9340      -360.6295      -354.9808
      -367.8048      -376.8774      -378.7417      -376.6475      -381.3646
      -387.8079      -385.8480      -379.2821      -382.7129      -375.6611
      -379.3857      -381.0630      -375.1748      -390.1538      -381.5322
      -367.3925      -369.9376      -358.6522      -356.0526      -353.6820
      -343.1270      -333.1457      -327.9318      -323.6356      -313.8522
      -300.8425      -300.7479      -298.9314      -288.7121      -270.3551
      -261.8021      -258.5845      -248.4128      -236.1450      -238.5777
      -224.0604      -205.9878      -206.8425      -200.3240      -172.3792
      -155.9869      -147.1372      -150.8879      -144.4510      -126.2859
      -106.3978      -101.9894      -93.60249      -73.48140      -60.54007
      -56.68653      -29.28537      -6.767200       2.026718       30.89511
       51.30220       53.10788       61.55664       89.93872       118.1006
       140.5591       157.8906       178.7686       206.3488       227.7434
       239.9598       264.2264       285.2017       308.5389       312.7503
       323.0695       357.1433       372.8070       382.4518       396.3931
       410.2256       439.1221       447.5149       461.9437       474.8506
       472.8634       481.0308       502.8816       501.9102       519.3762
       519.5750       515.0261       522.5713       541.8904       522.0542
       523.8547       543.2921       536.3979       519.7151       532.3439
       552.1364       541.1622       526.6219       536.4076       526.7021
       515.8938       502.0269       491.2505       496.4857       494.8934
       478.2097       454.5133       441.3855       451.8218       431.9795
       397.5059       397.7362       388.7100       359.0919       348.2496
       327.4087       303.5356       274.5105       228.2487       193.1278
       149.4656       47.15381      -153.0898      -517.8838      -958.5298
      -1181.855      -268.7881       1811.080       2062.149       720.0625
       865.9312       1212.936      -365.4036      -1715.934       122.1868
       1470.213      -477.0786      -1445.727       260.7018       728.7360
      -467.6163      -267.8859      -240.8956      -748.5991       304.5826
       1067.365      -132.3945      -1146.602      -865.3330      -926.1174
      -963.1300      -141.5489       381.8966       82.90045      -189.8020
      -229.3377      -296.2778      -75.78430      -166.1675      -645.1992
      -790.8844      -430.1788      -107.5085      -344.6126      -346.4152
       13.94446      -49.80225      -654.6667      -646.0743      -363.5598
      -700.3069      -712.2242      -392.4525      -431.3713      -494.9634
      -644.2505      -675.0129      -109.2482       365.9174       105.1885
      -471.6275      -465.3310      -81.13403      -146.9474      -425.2871
      -717.6740      -734.7368      -451.1443      -263.4019      -573.4235
      -637.2948       49.54950       369.2905      -17.53699      -351.3941
      -252.5891      -122.9092      -241.0578      -284.8964      -103.9262
       138.4835       245.4148       215.7211       102.9292      -153.8019
      -411.0016      -332.0328       5.837891       398.7189       403.6013
       145.8604      -18.99213       57.51770       314.0052       144.0403
      -215.9931       47.88898       338.6430       128.8661      -1.065186
       132.9550       129.4755       91.19470       196.4425       410.6748
       603.6537       628.0242       583.1204       519.2166       296.3182
       106.7652       208.7162       164.2459     0.06005859       213.4144
       475.5231       546.1752       463.8740       392.7562       489.2233
       535.0156       570.9734       634.6396       380.4964       103.9805
       256.5026       599.3967       527.4358       426.4073       534.8488
       379.6413       148.3282       77.38989       168.2476       299.4277
       318.2776       316.9034       290.4900       259.6157       337.4313
       329.1378       95.31288      -60.91760       70.36792       374.1439
       435.8565       278.5524       288.5853       404.7086       189.0002
      -50.46533       132.6431       356.9871       328.3893       75.17412
      -37.35242       153.9192       123.4921      -36.03839      -140.3230
      -177.0854      0.4286346       78.04144      -110.5273      -260.3117
      -157.3220      -158.7420      -172.8644      -19.54614      -133.7689
      -183.6194      -116.1388      -226.4496      -365.5767      -520.0543
      -463.7528      -316.4796      -389.1226      -366.8185      -285.6732
      -364.9468      -374.7408      -210.1925      -305.4138      -483.8097
      -399.9078      -410.9480      -516.3561      -555.3413      -561.1327
      -488.8015      -445.8818      -596.0154      -689.4631      -588.1685
      -558.2498      -542.0273      -484.6826      -426.6647      -455.6313
      -586.5496      -601.9661      -618.2334      -717.0510      -641.6888
      -460.7681      -523.6475      -694.0923      -623.7367      -593.6758
      -627.1689      -589.6165      -713.1296      -774.4114      -677.8362
      -691.0586      -780.7804      -673.8047      -519.0491      -597.1494
      -646.1432      -552.3298      -492.9287      -598.3494      -679.8359
      -622.4556      -572.2086      -469.5225      -352.9318      -381.3169
      -446.3064      -352.4722      -347.6069      -458.3535      -377.5000
      -214.1824      -99.70557      -138.4876      -228.3122      -152.0415
      -76.67810      -217.9485      -387.0577      -381.0067      -208.4036
       35.01407       92.04848       8.990585       15.04001       81.49042
       127.8164       138.0343       35.25040      -140.7901      -91.56665
       236.0410       421.9427       257.4770       72.08228       148.1139
       313.8180       360.0826       412.0364       435.6106       403.3818
       450.7700       491.4817       373.1328       285.9802       349.8948
       506.6899       590.0885       565.2247       592.5530       603.8468
       530.4050       521.6216       686.0422       828.6714       719.6078
       611.6250       722.6235       849.9644       755.8064       605.0208
       588.2639       734.1787       821.9849       728.0769       631.9860
       613.2880       642.0879       750.6877       810.3140       764.1934
       799.3418       806.7102       724.6864       681.4149       581.1364
       534.9229       512.6836       617.6387       835.0562       862.6548
       930.0542       957.2405       730.1718       537.0354       438.9415
       403.7336       476.6140       487.1899       460.2902       544.0260
       607.1318       611.6265       706.5127       736.9568       631.3083
       495.8135       405.4707       421.3101       437.5162       311.7518
       204.9763       317.9951       442.8837       590.9220       586.4944
       349.6982       330.8203       328.1929       218.1320       192.8441
       271.7493       265.4178       155.6242       101.1682       84.44482
       129.5508       145.3755       131.8260       125.3979      -37.96576
      -201.7196      -101.5878       75.67526      -2.307770      -128.7560
     -0.5945435       137.5059      -50.99036      -187.3605      -125.9587
      -193.4252      -397.1646      -424.2599      -399.9279      -242.8026
      -95.13824      -265.5288      -354.5941      -218.3309      -186.1394
      -493.2620      -599.8690      -316.8417      -150.3804      -227.0227
