     0.02500000      -1928.362       3055.240      -12345.00      -12345.00
      -29.99001       220.3100      -22.29000      -12345.00      -12345.00
       0.000000       16.68000      -12345.00      -12345.00      -12345.00
      -12345.00      -12345.00      -12345.00      -12345.00      -12345.00
      -12345.00      -12345.00      -12345.00      -12345.00      -12345.00
      -12345.00      -12345.00      -12345.00      -12345.00      -12345.00
      -12345.00      -32.11960      -68.98490       1817.000       0.000000
      -31.37200      -68.11800       0.000000       97800.00       0.000000
      -12345.00      -12345.00      -12345.00      -12345.00      -12345.00
      -12345.00      -12345.00      -12345.00      -12345.00      -12345.00
       116.6996       224.5123       44.96617       1.049292      -12345.00
      -12345.00      -1.046059       0.000000       90.00000      -12345.00
      -12345.00      -12345.00      -12345.00      -12345.00      -12345.00
      -12345.00      -12345.00      -12345.00      -12345.00      -12345.00
      2008       244         6        45        27
       690         6    -12345    -12345     10013
    -12345    -12345    -12345    -12345    -12345
         1         7        13    -12345    -12345
    -12345    -12345    -12345    -12345    -12345
    -12345    -12345    -12345    -12345    -12345
    -12345    -12345    -12345    -12345    -12345
         1         1         1         1         1
CLAR    -12345          
        -12345  -12345  
-12345  -12345  -12345  
-12345  -12345  -12345  
-12345  -12345  -12345  
-12345  -12345  -12345  
-12345  -12345  BHN     
ZL      -12345  -12345  
[...]
      -292.8167      -279.2970      -279.1000      -310.0854      -292.4976
      -280.9066      -302.6844      -302.2745      -289.2290      -280.8428
      -295.8315      -301.0363      -274.0605      -272.5219      -280.0092
      -271.8267      -263.2025      -266.5351      -252.7774      -234.3326
      -225.7105      -226.5938      -206.7811      -188.3273      -197.3885
      -171.9636      -154.7026      -144.0882      -129.1260      -130.6836
      -119.6663      -91.52982      -73.51628      -70.07266      -56.69420
      -42.15660      -21.23401      -8.544733      -2.356575       10.50610
       15.63010       48.87282       48.96455       35.06671       66.52170
       87.28302       83.08295       88.37433       105.4804       115.6233
       108.0945       126.8708       146.4885       149.1371       157.5777
       166.5946       161.5262       168.5383       183.4801       178.1270
       181.6636       196.2430       204.1802       220.4920       226.2898
       223.2111       213.5156       232.2615       235.8503       217.7343
       235.1860       232.8442       218.5660       230.9343       232.1392
       239.9730       225.8771       222.9609       229.8101       237.2567
       216.9975       208.5300       220.0707       212.1605       210.9115
       202.0798       192.2709       209.6068       194.7556       193.0544
       196.6787       179.4210       177.5800       167.1391       156.8369
       164.8311       160.4870       156.3430       144.1128       145.4913
       139.9239       129.7008       110.6780       93.52252       90.62776
       85.39485       68.59834       53.18440       38.32355       28.72127
       33.73724       12.14040      -23.07117      -17.77273      -34.04628
      -56.65643      -62.52249      -83.12708      -102.0179      -122.2323
      -126.8578      -134.4689      -160.5352      -173.0563      -186.7489
      -201.2538      -222.1217      -237.8298      -252.4119      -259.7791
      -270.0056      -280.1088      -304.8757      -326.5382      -322.6696
      -344.2488      -364.5763      -359.3551      -385.7334      -407.3096
      -397.0449      -380.6587      -395.6643      -424.4109      -415.0762
      -416.3981      -436.2780      -436.7078      -434.9155      -443.7841
      -439.2189      -432.2461      -437.2472      -434.8562      -432.8333
      -422.0935      -425.6426      -422.8322      -413.1323      -383.7761
      -362.8218      -370.8754      -312.1401      -249.1064      -224.7162
      -123.0830      -143.5745      -332.6230      -417.2283      -673.3984
      -732.4862      -458.7902      -655.1666      -592.2059       78.52789
       380.8781      -113.9354      -265.2686       59.30872      -253.8950
      -387.7910       185.7067       324.4481      -474.6233      -896.8176
      -392.0450      -170.7907       127.3831       659.3556       286.8564
      -322.6597      -109.8341       139.9735      -41.82431      -133.5520
      -141.4314      -334.4333      -268.5087       165.9614       356.5144
       528.5598       581.8546       165.9209      -111.3288       31.49335
       204.0149       171.9105       222.5988       302.7097       380.6641
       309.9762       171.5023       233.0710       99.23718       154.7651
       611.5571       670.2996       590.5754       640.0803       518.6860
       459.7612       443.4432       423.7160       278.0775       226.1416
       702.9495       890.9592       683.9452       647.0874       617.9597
       683.9688       707.6166       536.3438       470.3547       555.1115
       505.1600       346.1951       468.8042       744.0461       808.8726
       760.6331       783.5005       806.0474       655.7627       585.7896
       767.3740       906.3835       767.8848       385.2980       149.6740
       150.5585       351.8392       555.3411       540.1919       660.3591
       834.6230       698.5037       403.5063       202.0364       334.0061
       570.4561       536.6176       461.3232       617.8586       662.1626
       421.2915       212.8960       130.1964       172.0562       235.5898
       341.1450       381.5571       350.3685       287.7708       179.2840
       157.7007       99.94452       35.53363       135.6915       183.4538
       178.6303       154.5014       157.4745       171.2487       96.41749
       48.09708      -70.81799      -227.1333      -243.5808      -141.5835
      -33.82336      -119.9146      -196.9182      -174.9795      -99.14807
      -26.19330      -73.66885      -109.7585      -154.2317      -259.2579
      -196.0020      -156.7020      -185.3865      -162.4494      -163.7012
      -170.0612      -176.4487      -179.0762      -206.6931      -262.5522
      -268.3078      -189.4112      -133.7462      -210.3948      -254.1821
      -330.4181      -367.5912      -277.9781      -244.2262      -170.1595
      -114.5713      -215.9215      -215.6024      -247.1058      -240.8252
      -166.9201      -184.3510      -185.7516      -148.4427      -145.7705
      -267.2213      -355.9587      -304.3381      -321.0804      -236.1165
      -153.2432      -160.3100      -171.6049      -198.3848      -147.1389
      -144.9302      -202.5902      -218.7300      -286.8716      -289.0597
      -233.6348      -257.3402      -401.4941      -423.1198      -307.8544
      -266.4781      -203.9938      -131.1094      -174.5065      -173.7310
      -164.7922      -241.6655      -278.4402      -324.4221      -351.5916
      -251.6174      -175.6023      -141.2084      -155.2300      -171.3620
      -127.5528      -217.9823      -327.5173      -274.0804      -220.2065
      -203.9580      -159.8387      -131.4734      -208.2720      -290.4270
      -297.7797      -272.3562      -190.2332      -145.4866      -234.3771
      -269.1456      -270.7156      -284.3012      -198.4314      -124.8463
      -147.6367      -206.3288      -232.1705      -213.4003      -224.6754
      -267.4691      -333.8562      -364.5953      -364.0690      -298.4310
      -205.5894      -210.9014      -270.9167      -344.6218      -392.4432
      -363.7632      -346.9111      -340.0587      -314.6587      -284.8287
      -297.3834      -297.0409      -319.2032      -329.1246      -292.7979
      -292.5605      -336.3770      -359.3549      -381.8982      -443.9265
      -506.1143      -530.3184      -546.5664      -458.2432      -390.8896
      -437.1201      -454.1101      -432.8835      -422.8987      -413.2922
      -421.4211      -455.1705      -453.5618      -362.3567      -316.7719
      -323.6868      -349.4349      -332.6632      -303.5794      -328.6006
      -361.4818      -348.5686      -292.3604      -202.8340      -168.1958
      -257.6299      -378.1844      -430.7527      -366.8413      -174.7797
      -92.08801      -171.1903      -278.7458      -306.2248      -211.5323
      -146.2558      -109.0440      -47.67316      -133.2435      -248.0468
      -278.7958      -209.3315      -119.4475      -67.29532      -3.338554
       2.669697      -22.74260      -11.24399       16.88361       95.60358
       125.8324       90.52290      -2.678154      -48.51025       72.81586
       254.4208       337.1787       319.9551       218.1431       154.4209
       158.0969       196.9498       225.7602       238.5791       219.9187
       245.3229       298.1948       323.1161       420.4003       516.1226
       542.7095       562.7297       455.6429       298.8008       380.6118
       543.5100       600.0115       595.0254       446.9979       445.5625
       561.0981       591.8591       607.3516       594.6394       630.0039
       670.3865       633.7795       595.5756       620.6167       706.5405
       759.2686       751.0981       695.7583       682.2307       762.3647
       841.2837       809.0791       750.3777       713.3074       714.6301
       699.3923       673.7542       699.0559       714.5427       676.3794
       663.7600       635.5792       563.4376       512.2280       620.4985
       840.3169       875.9009       772.0850       657.7339       557.5518
       605.7078       653.8032       612.7581       553.4368       525.3906
       580.9209       663.7607       735.9651       723.3131       643.7236
       598.1448       540.8672       466.5122       423.5679       399.2257
       369.7766       390.0332       483.0475       492.4028       434.4277
       374.9634       342.6558       486.0179       603.0476       491.3802
       312.6874       200.9725       187.2234       313.7086       377.0768
       287.4982       180.9844       177.2239       216.8939       230.9077
       233.7238       136.8089       30.49504       13.35156      -49.22787
      -75.55051      -45.33802      -9.777039      -23.03113      -89.95694
      -115.6824      -94.63574      -89.48621      -177.7955      -316.4335
      -302.9025      -212.2825      -226.3354      -270.9180      -266.5823
      -327.4795      -414.9901      -352.8524      -303.1484      -359.4827
      -338.8326      -326.6917      -371.9384      -374.4823      -396.2886
      -443.3826      -447.8895      -428.0537      -471.5486      -531.6285
      -441.4119      -418.2549      -511.5884      -563.1567      -568.6978
      -536.0334      -508.4412      -532.9451      -638.3162      -692.4917
      -606.9777      -513.6222      -459.6858      -398.6138      -467.0317
      -541.3868      -551.0217      -496.5012      -415.6498      -465.0454
      -565.6899      -640.4513      -595.7688      -504.5659      -492.6492
      -436.6620      -373.1030      -368.0302      -435.7908      -503.4854
      -501.8092      -426.1838      -417.2563      -478.4504      -485.5212
      -432.5731      -308.5436      -223.3568      -226.1632      -267.7633
      -362.0221      -373.7710      -218.7917      -81.84552      -170.1731
      -300.1791      -331.4409      -248.3560      -228.4248      -274.9490
      -174.7436      -57.02677      -30.14112       26.67976      -15.51508
      -73.99301      -114.2859      -203.1689      -209.5474      -91.08457
      -20.63968      -30.56674      -87.72009      -143.6109      -123.1841
       23.08621       71.09717     -0.1705399       22.00053       55.76010
      -43.53987      -65.94600       8.214600       77.85315       129.6072
       97.85065       29.51295      -21.69855      -64.15964      -72.25655
      -38.39516      -12.34734       3.200012       33.77028       12.05933
      -67.82687      -66.94865      -4.505508      -76.12459      -47.44638
       32.40234      -78.90118      -206.4789      -109.8981       76.51309
       103.1613       17.44662      -71.40524      -110.8030      -61.24440
      -2.040161       60.40891       58.31656       17.48050       12.54779
      -37.11697      -115.2976      -80.19054      -13.33473      -30.02448
      -49.95461     -0.2294312      -4.428146      -57.30020      -86.83949
      -34.80420       29.91019       58.28244       64.48926       65.89929
       53.61138      -10.35889      -94.72256      -100.4552      -92.92183
      -35.98804       45.77873       60.80988       38.89059       19.28172
       60.20703       70.36145      -49.67548      -113.3826      -110.3271
      -57.34589      -40.29645      -94.92094      -86.70563      -15.18987
       7.647446       37.48281       29.25719      -43.20158      -75.11007
      -16.59225      -45.74451      -154.7166      -216.7762      -215.9249
      -167.3905      -104.9685      -95.34500      -48.81808      -75.34949
      -121.9572      -15.61154       19.74696      -20.67212       81.92905
       183.7227       144.1405       97.18816       15.04303      -140.0583
      -192.5664      -189.6964      -131.2976      -36.14114      -5.441093
      -54.26690      -4.470852       56.63907      -59.11902      -120.5605
       56.56020       46.98056       8.469559       76.31824       7.353424
      -78.80048      -151.8214      -97.96265       48.31348       153.9846
       223.6873       178.4808       240.6639       241.3681       238.7672
       263.8652       268.7203       291.5969       118.1128      -94.86815
      -38.45355       99.78983       165.4426       178.0043       207.9705
       278.8253       327.8075       261.0090       236.4536       364.5339
       456.3768       276.2350       240.6479       333.7124       331.2810
       414.7222       474.8948       347.8492       289.8645       328.4011
       368.3451       430.2610       463.0430       477.0264       516.1980
       530.8820       631.3506       667.1492       585.1637       404.3170
       152.9867      -125.4333      -294.1516      -426.0691      -585.8572
      -732.0308      -890.0303      -947.2426      -738.4965      -263.5334
       397.5908       922.8452       1338.944       1725.219       2013.522
       2206.239       2405.107       2690.973       3055.240       3027.157
       2458.212       1449.747       124.1094      -1164.135      -1928.362
      -1769.134      -808.9082       245.0093       820.3291       608.4084
      -26.35617      -181.8503       572.6772       1490.265       1676.901
       1037.784       99.38281      -635.3608      -917.7964      -934.2751
      -627.7173      -81.57385       400.4059       463.7007      -67.98364
      -586.9165      -564.1768       118.8218       1086.679       1562.276
       1658.163       1681.792       1595.392       1214.086       419.1176
      -501.2964      -896.9922      -609.3992      -105.2428      -6.015976
      -131.5575       35.71619       495.4614       889.6143       1080.674
       1093.316       892.2933       606.5754       392.1037       181.8149
      -121.2646      -470.7477      -364.7719       19.16394       154.0240
      -163.7986      -616.2346      -704.4281      -612.4341      -672.9575
      -797.3115      -853.9214      -860.7933      -804.2095      -410.6069
       172.0553       475.6041       321.6221      0.5547485      -92.83499
      -37.58325      -182.1549      -489.8948      -620.0977      -454.9526
      -207.3237       15.73566       10.00513      -214.7572      -385.6805
      -307.6067      -20.03285       60.13232      -201.3009      -465.1655
      -708.4773      -945.0093      -1100.222      -1184.776      -1187.968
      -1046.007      -971.3723      -989.2900      -896.1193      -622.3937
      -271.9875      -280.7395      -621.8901      -921.8225      -1174.274
      -1196.152      -1053.253      -895.3530      -748.3308      -716.5771
      -699.1370      -848.2014      -1122.527      -1283.511      -1203.762
      -938.7678      -758.2937      -751.1626      -881.3879      -947.9539
      -682.9015      -341.4310      -362.6057      -611.0276      -829.0833
      -877.7954      -816.0923      -884.2424      -926.6846      -809.4609
      -722.8754      -595.2192      -419.2642      -350.8092      -467.8657
      -707.5171      -808.7458      -812.3883      -693.1608      -573.8091
      -602.0323      -531.3379      -285.0574      -179.4763      -356.1520
      -532.1228      -583.1678      -346.5851      -106.2800      -214.4722
      -392.0690      -533.8945      -591.7882      -533.3379      -459.6493
      -391.1387      -312.6294      -347.8063      -400.1490      -357.1537
      -244.1971      -29.00211       53.35779      -77.47464      -175.1133
      -117.1461       183.0649       546.7605       651.4268       537.5715
       391.6399       469.7866       738.7080       701.2846       355.4783
       97.21613       29.01019       28.77478       53.78113       123.6382
       200.4406       272.0928       271.3087       362.1417       481.7841
       459.1901       396.1006       400.4532       503.0339       611.1190
       643.9174       420.5035       210.6517       209.4225       274.6840
       421.4443       556.5183       644.1345       627.2521       530.6050
       484.0500       331.8913       27.75928      -106.3700       35.25098
       333.2466       590.8860       626.8125       474.0930       280.2413
       293.1609       304.3156       219.0301       198.3891       234.9519
       235.6320       170.1913       179.7872       333.2419       596.3445
       761.3518       734.1921       641.0117       580.6270       569.2332
       448.3638       299.9378       158.1528       76.99170       160.3482
       268.3201       314.8501       309.8430       241.2749       178.1372
       146.5148       182.7568       358.1631       515.7373       486.0959
       386.7784       322.4510       346.1409       383.7073       390.0850
       365.2150       328.3519       260.6030       230.9375       246.8495
       194.9089       30.28113      -56.54233       63.72949       274.8562
       374.1696       310.7778       109.6772      -41.63795      -26.30536
      -23.04578       214.5005       643.5328       658.1705       504.1807
       402.6520       455.5043       437.1794       241.5649       120.6150
       36.63574       144.1052       190.9896       57.82458      -48.80785
      -107.2844       8.259369       138.6152       62.42921      -15.51324
       83.77161       231.3933       389.8285       471.0098       382.0333
       251.2147       167.8285       92.90002      -36.56464      -226.9877
      -220.5073      -57.26801       84.23267       221.4348       264.0533
       164.6763       53.28662      -55.07298      -63.28847       3.562614
      -14.88911      -9.589752       41.21884       85.09634       86.01619
       49.53972       66.26940       47.56793      -115.7668      -318.6117
      -420.9800      -399.7590      -260.8431      -224.6890      -347.9487
      -466.4580      -509.7251      -367.8559      -184.6270      -88.21161
      -76.08044      -116.0497      -127.9279      -157.6284      -232.1572
      -378.3308      -553.3125      -529.7496      -321.2632      -126.1590
      -119.0398      -221.2723      -285.6732      -349.0994      -394.6411
      -386.9845      -301.5066      -218.5947      -187.9196      -248.7916
      -347.4177      -301.7471      -201.1393      -163.4513      -257.3562
      -432.1259      -484.6394      -452.3481      -350.9323      -236.7909
      -268.2736      -334.3160      -306.7086      -294.5297      -289.4246
      -318.8485      -405.0479      -453.0905      -445.6288      -374.5239
      -339.9249      -396.6257      -451.0427      -438.0579      -448.4497
