     0.02500000      -2707.718       3024.507      -12345.00      -12345.00
      -29.98999       213.5600      -14.59000      -12345.00      -12345.00
       0.000000       10.78000      -12345.00      -12345.00      -12345.00
      -12345.00      -12345.00      -12345.00      -12345.00      -12345.00
      -12345.00      -12345.00      -12345.00      -12345.00      -12345.00
      -12345.00      -12345.00      -12345.00      -12345.00      -12345.00
      -12345.00      -31.12380      -68.07400       912.0000       0.000000
      -31.37200      -68.11800       0.000000       97800.00       0.000000
      -12345.00      -12345.00      -12345.00      -12345.00      -12345.00
      -12345.00      -12345.00      -12345.00      -12345.00      -12345.00
       27.83623       8.671090       188.6484      0.2502795      -12345.00
      -12345.00    -0.07624597       0.000000       0.000000      -12345.00
      -12345.00      -12345.00      -12345.00      -12345.00      -12345.00
      -12345.00      -12345.00      -12345.00      -12345.00      -12345.00
      2008       244         6        45        19
       990         6    -12345    -12345      9743
    -12345    -12345    -12345    -12345    -12345
         1         7        13    -12345    -12345
    -12345    -12345    -12345    -12345    -12345
    -12345    -12345    -12345    -12345    -12345
    -12345    -12345    -12345    -12345    -12345
         1         1         1         1         1
CONE    -12345          
        -12345  -12345  
-12345  -12345  -12345  
-12345  -12345  -12345  
-12345  -12345  -12345  
-12345  -12345  -12345  
-12345  -12345  BHZ     
ZL      -12345  -12345  
[...]
       125.8380       127.7663       125.4049       128.6612       121.8403
       124.2790       120.9168       123.5017       117.1642       117.1259
       116.4432       116.4221       109.6743       110.5891       107.2116
       107.6845       103.0273       105.2278       99.70190       99.89966
       95.31180       95.34198       89.97754       92.42706       87.05243
       86.43933       79.66669       80.76761       77.10442       77.58434
       70.92407       70.66844       68.04649       67.62898       63.88052
       62.80930       58.22874       56.54350       52.70605       51.80833
       48.41412       49.36957       46.18627       41.85886       37.30502
       33.87711       30.32611       29.09019       25.75996       21.04903
       16.70945       15.69437       12.60201       8.508518       8.612228
       5.725587    -0.06260300      -1.840271      -5.145267      -7.474136
      -10.12055      -10.32254      -13.38218      -15.28331      -19.38119
      -19.81992      -24.53628      -23.62704      -24.92853      -25.77422
      -32.44377      -32.21222      -36.78789      -35.45073      -42.17535
      -40.91603      -45.88094      -47.68320      -52.79984      -49.66165
      -54.93008      -55.64053      -60.09705      -62.05075      -66.03410
      -65.65346      -69.15625      -70.90298      -73.52386      -70.82225
      -72.73514      -74.19594      -75.42981      -73.02621      -73.98547
      -71.35193      -71.49677      -71.53259      -72.90024      -71.93449
      -72.79881      -70.16653      -70.36685      -68.31041      -65.30301
      -61.37956      -62.02463      -58.13145      -57.72021      -54.69348
      -53.09351      -48.41919      -48.81046      -46.82408      -45.15570
      -41.00005      -42.18694      -39.01335      -37.60126      -34.41381
      -34.25948      -31.62642      -32.62513      -29.57808      -30.10169
      -29.40032      -29.72660      -28.47635      -30.85600      -28.42885
      -29.40270      -28.49268      -29.34897      -26.53488      -28.79245
      -28.92303      -26.88168      -25.17841      -27.97468      -27.11447
      -29.30296      -26.88416      -28.09151      -24.88718      -27.34267
      -26.00524      -27.27789      -26.66055      -31.79337      -29.41039
      -32.16080      -31.14393      -33.16846      -28.45465      -33.90307
      -32.40508      -36.01762      -33.92384      -35.38568      -31.73425
      -39.16090      -36.87997      -39.90086      -40.75893      -46.71182
      -43.13406      -50.13983      -47.09987      -51.32578      -49.96730
      -56.45795      -54.92764      -59.01526      -54.19257      -60.80923
      -59.44115      -67.30684      -63.65482      -71.80725      -71.16502
      -76.44769      -73.74890      -82.73941      -80.41612      -85.85361
      -82.55243      -91.58270      -89.95361      -97.13956      -96.75040
      -102.8440      -99.79791      -107.4891      -102.9291      -108.9267
      -107.4900      -112.4318      -110.0546      -115.3618      -112.5324
      -119.1716      -117.2240      -119.5066      -116.6185      -121.4312
      -118.6684      -121.9335      -120.9280      -125.4468      -122.8275
      -124.2616      -122.0362      -126.6727      -125.3531      -126.9190
      -126.7152      -133.5502      -131.3132      -132.5964      -130.7575
      -134.4146      -133.2596      -138.2587      -134.1045      -133.3987
      -133.7133      -136.0710      -133.4063      -136.4965      -133.3380
      -132.7208      -131.0554      -131.0122      -125.4489      -125.6852
      -122.3969      -119.6857      -115.5700      -113.0754      -104.9944
      -99.68646      -94.21436      -89.31830      -83.20486      -77.11076
      -72.92853      -67.07578      -59.48117      -50.91769      -42.71663
      -37.71819      -30.52239      -20.97423      -15.28270      -7.533358
       1.545914       8.117977       14.36142       22.44949       30.25960
       36.37195       43.63078       51.96002       59.80052       66.22029
       72.20610       78.47720       87.80692       91.02802       98.23456
       101.8143       108.5662       111.5676       118.2100       122.0714
       129.2665       129.8499       135.6177       139.0576       142.3299
       145.2080       151.4540       152.4692       158.2633       159.0677
       161.9167       161.3917       167.8560       169.1547       171.6901
       173.3322       178.2930       178.7504       180.1266       179.7885
       182.3107       181.8594       181.2665       177.5219       176.0376
       177.2064       177.5254       174.4775       174.2183       174.5619
       173.2524       172.5753       171.1737       167.7566       168.7322
       166.0775       165.4701       164.5963       164.6298       163.8469
       162.9327       160.2996       158.3472       156.4955       156.1846
       154.5824       151.1077       152.0734       149.6302       148.4128
       144.7096       145.3597       144.7991       142.0573       138.3965
       139.0474       135.9472       134.7449       131.7497       132.5816
       130.0991       128.6020       125.8932       124.1842       122.3701
       122.6031       121.6332       121.3668       118.5535       116.0620
       115.8289       115.2392       114.4553       110.6288       111.2105
       112.3894       111.2136       108.2768       107.1122       107.4186
       107.7182       107.2731       103.4793       101.8517       100.6641
       101.1934       98.71225       93.79468       92.07416       90.43671
       86.28156       81.68832       78.87076       75.59122       73.89288
       72.58282       70.71629       65.49277       62.13890       60.92606
       58.14423       56.46347       53.72778       49.77362       36.77375
       21.22888      -59.34387      -257.1616      -489.5071      -628.1836
      -835.6819      -953.6010      -299.0415       775.7512       750.8124
       36.78894       460.9408       673.1699       33.65405       446.4034
       464.3669      -399.7017      -338.6863       799.2656      -281.7789
      -398.9565       2329.104       135.6787      -1608.218      -749.5744
      -41.19971       798.8529      -298.7618      -677.6086      -543.6926
      -90.47217       450.1909       779.3224      -126.0862      -770.9001
       195.5082       554.7998      -1323.318      -816.4395       929.9613
       495.0658       572.6479      -780.6643      -1210.246      -376.5106
      -96.59024      -84.11609       237.5285       455.1529      -71.13141
      -318.1443      -147.3839      -251.2905      -268.3541       29.30139
      -416.0099      -392.6398      -68.81097      -254.2048       63.49390
      -402.9835      -544.2593       160.0103      -408.8516      -417.4928
      -629.9172      -265.2139       716.8496      -9.591370      -198.0378
      -198.7986      -473.6134      -498.8031       303.6869      -29.47144
      -1157.576      -492.4694       223.3721       55.17377      -127.8810
      -324.2271      -506.3013      -112.6813      -400.2902      -429.3966
      -12.40007       17.08382       34.94672       54.90234      -326.9185
      -789.0036      -383.0417       75.11166      -74.83252      -239.2300
      -408.4189      -196.5094      -182.6488      -548.0189      -177.4504
       258.6751       265.8386      -162.0186      -516.6995      -635.5539
      -285.8322       34.84869      -132.4428       19.18698       33.30209
       185.0918      -682.0220      -1212.836      -349.5867       39.58038
       100.7644      -631.8394      -258.3603       261.4805      -176.3613
       129.1438      -290.6479      -482.6050       130.6669       269.6875
      -205.8191      -959.3149      -76.71973       203.1655      -302.7568
      -430.9585      -393.4291      -9.382935      -311.7004      -199.6207
      -32.27762       45.08405       308.6014      -67.16840      -101.7601
      -153.8610      -251.4409      -127.5495      -194.7988       243.3283
       50.87814       10.51923       104.1619      -498.3659      -172.6552
       459.8107       420.7018      -15.07300      -559.7235      -177.1402
       149.4075       94.87927       777.1660       392.6885      -118.7521
       87.20052      -49.64929       219.6081       124.7852       152.5258
       180.7192      -61.94958       447.6707       243.1053      -254.8542
       293.4037       454.6136      -122.8579       285.6478       729.0581
       530.0897       652.3290       436.9916       138.9918       91.85620
       177.7325       297.3518       343.7202       368.0367       435.8894
       774.5801       191.3306      -56.00684       524.6014       232.7049
       272.5629       365.4392       196.9314       391.1165       426.1327
       489.3911       349.5579       246.6473       55.64258       78.69922
       575.4856       348.0737       618.8767       561.8225       271.3374
       305.6571       127.1853       528.5991       463.4650       508.8523
       505.7759       290.1670       371.5991       117.8274       495.1810
       791.3457       138.6468       198.8029      -191.8647       140.6890
       1063.338       238.7241       282.6083       307.4232       106.6729
       514.4091       222.0164       385.8926       116.0660      -326.2781
       227.5647       17.70972       355.1923       685.8159       322.1259
       433.7192       274.4009       18.89014       441.1677       314.8589
      -88.98618       194.8673      -238.5327      -429.9271       25.44604
       324.0557       453.6424       125.6950      -116.8149       560.3586
       278.1520      -409.1783      -441.8347      -197.2338       442.4009
       262.5638      -354.7462       51.75092      -10.98499      -240.6802
       535.0787       48.74121      -355.8142      -89.50378       424.4406
       228.8038      -573.9757       72.08032      -190.0050      -309.1501
      -157.6400      -615.0300       204.8987       550.5709       229.5476
      -118.4080      -692.7937      -223.7366       316.9211      -82.05701
      -636.6752      -483.0283      -51.68994       109.6699       343.0569
      -70.60663      -148.9234       118.8307      -624.9779      -694.0934
       8.475098      -203.9212      -142.1870       611.3282       223.1319
      -232.3663      -121.6777      -699.3394      -1170.593      -156.8040
       856.7850       82.17871      -361.9844      -552.0148      -710.4429
       258.8264       159.7762       126.9828      -30.89185      -877.4899
      -345.9171       265.5993      -46.95288      -747.0601      -410.4062
      -74.61218      -210.5838       159.7158      -424.9941      -646.3259
       478.1649       246.3445      -522.3175      -465.9408      -336.5289
      -9.210693      -295.4556      -453.0392      -354.7215      -40.87061
       565.3267       21.93069      -155.0288       8.116333      -547.4401
      -670.8243      -335.6548       277.7088      -190.3183      -317.8029
       380.6341      -214.1821       48.01404      -325.7375      -502.9873
       508.5703      -663.4225      -656.2035       582.1677     -0.8997650
      -160.2903       240.1304      -622.3153      -700.4351       197.8962
      -76.83691      -327.3632       86.17533       32.51489      -175.0118
      -371.9320      -242.8165      -20.51968      -6.393524       57.31561
      -269.4128      -98.40627       24.44626      -193.3702       42.82819
      -163.5519      -520.9022      -447.5381      -73.71259      -55.43121
      -333.7277      -7.468323     -0.9460449      -162.4265      -208.2393
      -449.3849      -87.91724       348.2274      -58.15408      -126.4103
       145.8951      -8.467529      -390.0005      -588.8222      -200.7266
      -246.5624      -584.4040      -230.0078       79.59833      -193.3004
      -318.4458      -119.8592       335.0198      -224.7379      -529.2941
       41.46475      -12.10101       266.0787      -188.3099      -542.1895
      -131.3257      -26.13138       250.0223      -235.7718      -73.83948
       336.8397      -223.3441      -167.2272      -196.2259      -270.7274
      -166.0662       404.4565       221.9343      -510.3773       184.4663
       244.6085      -4.232269       51.22067       26.02075      -152.7172
      -494.4584      -449.7911       58.37988       1117.439       517.1086
      -397.0807      -532.4250      -469.7207      -281.6499      -414.2057
       359.1978       180.1416      -924.1444      -900.8428       545.4502
       1435.225      -190.6272      -1502.518      -678.7520       1398.212
       2703.675       1212.707      -729.6321      -1219.180       49.62811
       537.4509      -720.8315       231.6404       1766.177       413.6545
      -193.2062      -39.25903      -1588.210      -532.5000       2758.789
       3024.507      -681.5063      -2010.517      -225.1851       725.4707
       77.74402      -1149.015       1182.363       1081.901      -2707.718
      -1223.604       2766.638       1658.620       157.6643       1296.397
       148.9746      -1997.888      -1210.733       323.3419      -173.2827
       1110.310       2650.431       661.0977      -1513.414      -790.5243
       313.6562      -798.3777      -1507.410       557.0183       1500.538
      -84.26587       500.9585       2042.742       293.3970      -1156.731
      -276.9408      -179.1542       245.1463      -347.3015      -177.1577
       2029.219       1450.471       169.4891       794.8967       446.3672
      -764.2090      -193.5718       815.5074      -281.3159      -987.2529
      -197.5413      -498.7158      -1193.938      -413.2786       943.9755
       287.7405       44.18066       2023.481       1756.077       102.9937
      -492.3940      -85.97461       1132.998       92.85352      -1699.628
      -940.4027       365.1836       568.1895       1762.723       1701.764
      -857.1412      -414.4307       818.6593       187.9001      -16.92261
      -673.1260       48.85901      -167.2142      -760.7882       939.9594
      -98.94312      -300.6660       2325.969       1296.182      -1124.491
      -157.1371       843.6030      -29.31050       129.6045      -35.42212
      -979.8304      -265.3120       575.5334       1272.317       551.0172
      -410.4608       86.97760      -214.4946      -176.8848       1235.511
       627.6985      -1051.896       409.1184       1462.549      -152.6234
      -628.8816       860.8346       700.2148      -609.1099      -360.3979
       487.0630       1009.146       357.5588      -738.1648      -888.7740
      -700.0733      -253.9983       193.1077       690.2397       900.4677
       203.8848       166.6064       764.2977      -224.9573      -1448.001
      -180.7676       1051.420       422.2800      -85.20764      -78.67773
      -1013.730      -1317.678      -20.13220       680.5280       195.3995
      -532.1089      -489.6987      -4.448242       546.5667       450.9962
      -283.5552      -54.58911       414.5381      -422.4739      -931.9108
      -365.8271      -81.43921      -330.7196      -667.7189      -234.8954
       429.4127       209.5947      -427.6926      -1303.095      -920.8301
       982.0392       826.9329      -244.2740      -222.9768      -122.0266
       183.0405      -1205.210      -1996.072      -585.6917      -80.27637
      -250.0608      -950.9424      -306.0852       311.0027      -359.2384
      -417.4862      -260.5603      -680.4259      -255.0591       352.4248
      -1634.929      -1833.204      -27.05396       568.3071       391.2576
      -172.1309      -1137.844      -1126.556      -708.7272      -635.1146
       209.0311      -267.7148      -1397.216      -1176.199      -18.82211
       172.8234      -363.3989      -240.7920      -333.6619      -919.7988
      -1002.863      -720.7788      -839.0777      -386.9254       397.3053
      -82.35547      -760.3198      -518.8877      -688.7769      -360.5462
       124.3011      -158.4730      -119.5891      -375.7965      -221.5930
      -561.8822      -959.7194       247.8160       510.8960       320.2550
      -404.8594      -977.1202      -373.6156      -418.3978      -12.65536
       86.37134      -114.9277       223.9324       118.3286      -306.6978
      -825.7625      -126.7742       552.6149       509.2401      -241.2704
      -722.2773       163.6889       166.1331      -454.7911      -738.4159
      -492.0815       470.1079       790.5748       384.5209       669.0547
       428.4739      -332.4731      -782.4507      -651.2784       404.2981
       1108.908       593.3486      -174.1431      -106.2974       162.6823
       464.4969       313.2568      -378.2311      -54.95508       491.0925
       509.7537       637.4838       708.1348       336.3689      -22.62665
      -262.2811       159.2217       593.6958       510.8840       1002.350
       205.5862       232.2544       1233.001       879.2948       124.0552
      -305.7225       72.17505       715.9612       951.0017       494.8929
       667.5393       515.6425       3.443115       531.9800       1017.307
       1080.403       1176.728       744.0483       25.80911      -36.60254
       60.19153       369.5078       955.3020       1052.366       278.6580
      -37.20801       711.6292       1055.680       610.1711       488.6697
       20.13641      -127.3406       1243.797       898.4764      -303.7080
       317.2466       794.7427       864.4053       964.4980       535.2987
       225.7266       300.3357       303.8458       424.4629       817.2830
       753.3860       496.7357       356.8362       44.50391       137.0044
       992.5598       1172.651       340.8534       15.17484      -196.4334
       21.16602       946.4073       684.7289       58.09976       209.0412
       44.00085       280.7146       452.5863       131.3765       440.7525
      -29.48166      -377.8173       352.4989       521.1568       287.1523
       348.6943       380.3225       108.5236      -92.47137      -402.5821
       7.932373       446.5031       218.5798       393.3613       26.81860
      -491.4621      -318.5790      -244.4263       217.6228       198.4691
       35.92743       276.7385       119.3651      -438.6868      -1117.796
      -414.0026       104.4344      -10.71936       293.2136      -76.51270
      -691.7350      -784.3394      -39.54202       311.1440      -469.4933
