     0.02500000      -6048.969       6219.299      -12345.00      -12345.00
      -29.98999       213.5600      -14.59000      -12345.00      -12345.00
       0.000000       10.78000      -12345.00      -12345.00      -12345.00
      -12345.00      -12345.00      -12345.00      -12345.00      -12345.00
      -12345.00      -12345.00      -12345.00      -12345.00      -12345.00
      -12345.00      -12345.00      -12345.00      -12345.00      -12345.00
      -12345.00      -31.12380      -68.07400       912.0000       0.000000
      -31.37200      -68.11800       0.000000       97800.00       0.000000
      -12345.00      -12345.00      -12345.00      -12345.00      -12345.00
      -12345.00      -12345.00      -12345.00      -12345.00      -12345.00
       27.83623       8.671090       188.6484      0.2502795      -12345.00
      -12345.00     -0.4710876       0.000000       90.00000      -12345.00
      -12345.00      -12345.00      -12345.00      -12345.00      -12345.00
      -12345.00      -12345.00      -12345.00      -12345.00      -12345.00
      2008       244         6        45        19
       990         6    -12345    -12345      9743
    -12345    -12345    -12345    -12345    -12345
         1         7        13    -12345    -12345
    -12345    -12345    -12345    -12345    -12345
    -12345    -12345    -12345    -12345    -12345
    -12345    -12345    -12345    -12345    -12345
         1         1         1         1         1
CONE    -12345          
        -12345  -12345  
-12345  -12345  -12345  
-12345  -12345  -12345  
-12345  -12345  -12345  
-12345  -12345  -12345  
-12345  -12345  BHN     
ZL      -12345  -12345  
[...]
      -138.0577      -139.0357      -143.4877      -139.5986      -142.7651
      -143.2664      -145.6104      -144.6791      -145.9467      -143.4678
      -145.2040      -140.9884      -140.7390      -136.7945      -135.7326
      -131.8817      -131.5735      -123.2692      -122.0399      -116.5226
      -116.3211      -108.2416      -109.5564      -100.6295      -100.1006
      -93.58228      -94.48816      -86.65057      -87.46791      -81.15149
      -82.09802      -75.39409      -74.96768      -68.58270      -69.23938
      -63.29997      -65.12871      -59.29309      -59.29469      -52.27521
      -53.98468      -47.89676      -46.72757      -40.96851      -42.78352
      -36.41598      -33.87419      -30.14722      -34.08545      -30.79845
      -31.10135      -26.69351      -29.27740      -26.58551      -25.02885
      -23.09789      -25.44737      -21.59836      -21.73055      -22.76730
      -24.26256      -19.07053      -21.97956      -21.12315      -24.34958
      -22.85924      -26.88940      -26.31062      -27.13698      -25.79251
      -29.37739      -29.36667      -31.49590      -33.58755      -36.06266
      -34.32420      -37.05595      -39.59668      -40.32566      -38.68565
      -39.57533      -40.92196      -39.80992      -38.28177      -37.66165
      -38.69392      -36.35117      -34.68222      -31.74504      -29.42104
      -25.39014      -20.44818      -18.96302      -16.77040      -11.47211
      -8.338910      -4.801743      0.5369587       3.771072       7.366756
       12.40625       14.80441       19.16544       23.32628       25.42245
       27.91998       31.52858       36.02534       38.43886       39.27097
       41.70955       43.47046       45.20917       47.96727       49.52173
       51.35986       52.27040       50.79071       49.67235       50.80334
       48.90358       48.30560       50.49088       48.72343       44.55609
       44.24409       44.29835       42.46838       41.00691       39.26443
       37.52866       36.63840       38.78896       37.70126       35.50612
       32.65086       31.37829       32.23353       31.46335       31.91610
       29.35450       31.37469       31.34871       29.95841       30.10072
       32.71414       33.64236       33.21130       32.69495       36.88396
       35.97272       34.46735       38.20734       41.44020       39.79243
       39.97267       41.57837       43.10732       42.95027       43.23273
       42.95462       43.36143       44.95673       46.01608       45.04207
       44.72430       44.92322       45.12778       46.46011       44.83907
       43.60364       43.59911       47.26476       47.79146       47.19965
       48.66562       53.55405       54.58984       55.42357       56.35260
       58.82346       61.68491       64.78831       64.91840       67.03448
       69.71329       72.04861       72.98912       73.69038       75.39056
       76.64835       75.53520       75.93658       76.96999       76.34087
       75.79129       74.67513       75.23790       76.27466       73.18417
       71.02901       72.08533       70.64651       66.14639       65.00488
       64.88716       63.45226       60.28729       59.26067       59.17340
       57.50717       54.58890       53.70615       52.63524       49.28517
       48.78284       47.01331       43.12424       41.00751       38.50092
       36.84484       37.33011       38.73744       38.48334       37.92659
       40.37682       39.11321       39.72444       40.79634       41.38206
       39.44193       42.41965       45.96428       48.53758       49.90758
       55.08054       56.42503       60.39047       63.26923       68.46812
       68.17896       70.66731       71.98151       75.98517       76.97159
       79.75111       82.46423       84.45865       84.90341       86.58618
       88.63043       90.47495       92.05627       90.73639       91.76666
       92.59683       93.97610       95.12125       97.20911       95.73376
       96.55466       96.07965       97.50351       98.26605       97.48502
       94.45123       95.39532       96.52939       95.71063       94.12119
       95.04266       98.24939       99.91196       98.36188       96.09601
       96.21652       94.75800       94.09528       93.85904       92.54150
       90.32639       91.78680       90.30469       89.73517       89.28304
       86.41225       80.84026       79.63518       77.94389       75.51569
       72.04140       67.87454       61.76309       57.26663       53.34464
       49.30066       42.55669       37.83074       30.83051       21.29022
       16.04299       9.774825      0.7993546      -9.278965      -17.34595
      -22.95848      -30.50732      -40.17514      -49.22971      -57.34825
      -64.90280      -73.24274      -82.58301      -92.00757      -97.93298
      -105.3506      -113.8284      -121.1024      -126.6558      -136.0361
      -143.9931      -149.9971      -154.2885      -164.9177      -171.5967
      -179.4436      -182.8790      -191.2405      -196.1009      -205.9303
      -210.7112      -218.8281      -222.5264      -230.5370      -233.7298
      -241.4141      -246.5060      -251.0818      -254.4497      -260.3937
      -261.8546      -267.6485      -270.0356      -273.2973      -273.8129
      -277.5042      -279.2030      -281.2460      -279.8855      -280.6119
      -281.0087      -284.4384      -283.2139      -283.2559      -281.4176
      -285.9733      -282.5463      -281.0500      -276.9095      -277.0752
      -273.5312      -275.7531      -271.1459      -271.7263      -265.1553
      -265.2131      -259.1334      -258.0502      -252.3519      -251.8856
      -243.5408      -241.7816      -234.3074      -231.6781      -223.7671
      -220.9491      -213.9872      -213.0851      -205.0098      -204.6631
      -197.1521      -192.6804      -184.3163      -183.9949      -176.1481
      -172.4686      -165.3070      -164.7757      -157.6114      -154.3650
      -150.4349      -161.8326      -185.3654      -233.3145      -273.3711
      -311.4551      -336.2017      -273.1033      -51.48814       89.54517
       56.96713      -5.347290      -166.8536      -278.1750       130.5955
       367.7115      -66.15363      -262.1410      -178.3729      -289.9513
       10.60785       505.0111      0.4630127      -293.2543       392.3987
       6.524170      -327.4473       386.7192       71.73889      -451.1008
      -209.6602       273.0007       375.6094       166.3775       151.6591
      -130.1135      -18.63699       161.5359      -63.25708       266.7338
       297.5015      -9.984787       152.2730      -95.08850       151.8005
       633.1688       324.4412       337.0246      -43.44934      -24.61621
       1221.160       444.8911      -514.1602       203.0969       223.6253
       130.3439       109.4270      -167.8337       557.7097       1135.855
       536.8784      -130.0191      -303.5677       283.7527       513.3202
       360.9459       597.1385       153.6230      -137.6073       456.2495
       504.7938       180.6025       260.5844       456.4539       471.8598
       242.0770       105.5728      -3.296692       86.43201       499.5933
       357.1993       26.21674       67.06604       209.5435       606.1460
       795.5824       252.0533      -371.1230       3.131958       610.7798
       416.8444       320.1664       284.1584      -343.8333      -73.90112
       891.0169       598.5435      -333.1918      -280.6151       322.7103
       340.7145       497.9061       471.9932      -341.9285      -489.9893
       127.5901       354.6003       403.2108       179.0383      -123.0016
       188.4746       208.7292      -210.4483      -151.6559       282.9694
       246.6227       170.5779       230.1979       62.41599      -111.3796
      -71.71112      -228.2786      -333.1120       196.8315       29.67725
      -176.1739       142.4170       175.1834       90.21912      -292.9756
      -336.6509       111.8282       291.2400      -74.32825      -407.3419
      -134.1255      -107.6128      -41.27100       165.1876      -157.1930
      -275.3935       48.99704       90.44424       36.27586       113.3146
      -313.1694      -396.5870      -155.7358      -1.455994       155.4044
      -315.5813      -346.1984      -7.190319      -7.800323       37.90063
      -206.3523      -306.3517      -291.2280      -370.5635       68.30426
       316.2409       26.33936      -164.0912       90.42510       125.6673
      -124.9148       4.935974      -7.815063      -324.1326      -411.2402
      -201.8846       66.19926      -46.97070      -106.8150       125.0825
      -151.1886      -282.5109       69.31201      -51.05423      -193.6883
      -14.08679      -139.9395      -251.4883       130.2575       254.6051
      -257.2320      -332.3503      -17.47081      -65.38888       53.09290
       9.426636      -543.1699      -408.3826       243.1838       115.1984
      -128.9615      -54.86163      -186.4037      -217.5267      -109.4153
      -72.04083      -183.9305      -325.8086      -265.1600      -214.4275
      -197.8230      -92.02542      -96.90262       26.41962       6.868652
      -592.4349      -656.8697      -135.5960       42.90795      -51.11714
      -20.16650      -182.1190      -429.5241      -279.7893      -172.8610
      -160.6122      -133.4404      -235.9664       6.464478      -287.2645
      -441.9928      -143.4984      -471.0925      -147.3305       90.18140
      -415.5305      -442.7375      -139.8803       75.21655      -236.9540
      -240.7061       40.01929      -197.2607      -318.6133      -243.2725
      -182.6664      -91.11530      -281.5200      -362.6006      -11.23012
       66.92929      -54.36533      -79.66531      -84.87286      -104.3896
      -116.6470      -32.11308     -0.8729248      -200.0260      -365.3292
      -214.6261      -260.4032      -153.0847       227.5106       163.3060
      -36.34801      -55.13298       26.46631       161.4912       343.7972
       359.9233      -111.9105      -158.7169      -26.33304      -169.4168
       344.8445       316.7101      -304.8508       10.93970       500.7158
       518.5680      -197.8822      -463.2650       466.8433       419.4409
      -248.7371      -57.06042       374.5317       484.5989       97.13123
       99.15009       226.6820      -4.382080       203.0524       483.8299
       159.9378      -6.138260       66.12976       59.56934       461.4554
       579.0206       135.5032       216.8999       687.8761       472.4240
      -85.79692      -84.44580       419.0858       560.9542       68.98169
       209.7899       302.6848       1.590576       205.2035       342.9980
       354.9486       412.1467       368.5116       21.13324      -85.14404
       469.6503       553.2438       492.6449       200.8177      -64.77869
       210.3596       180.9675       291.1012       476.9007       72.47649
      -22.45734       294.7800       339.0336       287.7273       149.0664
       188.4298       308.5547       359.5064       393.4474      -1.646301
       100.7652       331.5898       34.68588       57.30417       91.09790
       213.2191       152.7526      -170.3138       477.1672       463.0666
      -132.0539       15.75369       42.16168       315.0823       187.5754
      -93.60692      -44.30054       18.62665       327.5093       236.8229
      0.5822754      -77.07825      -46.99646       128.8591       277.3964
       100.5888      -113.3705      -109.3979      -154.9535      -60.63080
       170.5285      -76.22183      -216.1618       116.3984      -6.300056
      -19.46088       90.66248      -138.8012      -301.4367      -58.47452
       235.5991       6.415680      -69.88196      -84.15399      -270.9752
      -22.63294       81.59250      -94.38580      -160.3249      -332.1909
       187.0039       555.4730       53.94849      -319.1168      -149.6239
      -194.0879      -554.7488      -97.78638       39.78802      -202.5141
      -38.74469      -189.8956       11.84456       120.2641      -27.00848
      -16.18195      -257.1052      -373.0262      -102.6064       61.21155
      -156.4363      -178.4368      -103.5361      -141.7133      -100.7692
       15.65329      -119.8431      -259.5374      -154.5762      -452.9653
      -398.8275       116.0807       115.3194      -93.10846      -223.9463
      -23.62955       58.16626      -347.9082      -357.1554      -27.31296
       99.92651      -104.6989      -221.9142      -110.3792      -227.0934
      -361.4845      -128.3341       18.79266       133.8181       509.9419
       1319.559       3142.935       3656.334       1019.738      -1403.600
      -460.1865       2534.387       2708.082      -713.2490      -4225.811
      -6048.969      -4044.976       967.1396       4204.695       1146.598
      -3903.194      -4348.727      -3405.524       491.4082       6219.299
       3188.618      -1863.710      -275.3931      -552.9072      -3030.694
      -2392.643       891.0571       3008.555      -1488.136      -4236.003
       391.8120       2511.715       988.7397      -1845.984      -1664.460
       2392.608       1151.757      -1493.578      -57.66394       623.4651
       39.07910       442.3516       1848.977       1301.224      -2162.758
      -2152.189       409.0652       1203.267      -194.9312      -2141.051
       568.3408       3343.125       2545.874      -626.8213      -2837.140
      -1210.422      -857.5212      -19.45312       1609.963       966.9993
       5.158447      -1132.323      -1094.733       415.2368      -1.091431
      -700.5291      -326.9644       66.94177       635.2305      -105.7869
       680.6333       2120.368      -112.9277      -1404.395      -271.6030
       114.6103      0.6787109       528.4774       508.0742      -366.8092
      -346.2579      -385.1011       1361.819       2563.151      -1375.482
      -3040.607      -986.0911       74.59717       997.2017       918.2969
       542.9524       1028.837       239.7664      -866.3953      -1189.734
      -1024.616      -186.1409       747.0520       955.7545       130.3640
      -488.4785      -655.2119      -310.6826       304.5612       819.4648
       277.9709      -560.2965       139.2587       663.0408       691.8461
      -11.91528      -337.9741       1022.383       1254.020      -59.75195
      -957.1655      -901.9196      -359.4183      -155.7373       418.5994
       1225.105       415.0646       159.2424       343.7949      -774.1986
      -120.0194       680.8152       557.7957       915.4015       412.3728
      -398.7369      -520.6718       405.8064       1173.486       249.9282
      -678.9153      -1050.928      -820.4053       154.2476       694.4048
       887.4579       355.0149      -418.2203      -163.0718       782.3427
       652.9916       104.7275       650.1445       973.0874       342.6787
      -1107.167      -1112.323      -481.1877      -1613.921      -292.3545
       2273.221       636.1226      -1302.382      -605.3634       62.25269
       180.7254      -109.5662      -289.8181       119.7102       512.7273
       1306.628       245.2373      -1400.415      -169.4045       425.6921
      -283.4978       249.1230       859.4183       612.6853      -461.2554
      -1205.712      -560.0865       137.0145       350.2878       769.7581
      -202.1827      -722.3491      -36.15381      -1097.532      -1545.051
      -220.8318       1064.221       1297.459       531.5457      -189.7624
      -11.17249      -46.09619      -1095.540      -818.1965      -358.7373
       118.6066       68.35132      -1144.594      -257.7805       994.4514
       931.2036       251.3022      -432.9094      -819.5054      -976.5105
      -974.5278      -261.5763       510.2479       126.0790       383.4012
       472.2719      -361.1748      -673.1718       68.16162       910.8567
       194.3226      -818.8925      -374.4363       206.8409      -145.8776
       161.7708       471.9970      -296.3290      -49.79333       437.3422
       30.16846      -224.1257      -343.9713      -284.9634      -175.6321
      -628.0795      -616.9910       348.2229       929.7126       364.5991
      -420.9326      -1062.296      -713.8896       965.5791       1129.895
       60.48218      -454.9436      -891.4904      -634.5292       241.2410
       1119.201       934.4705      -131.0962      -586.9425      -285.7985
       691.3164       585.4606      -69.22668       145.4690       245.6067
       204.8635       10.17804      -306.8398      -330.1169      -18.72253
       439.8750       919.9807       360.2313      -326.3801      -695.6155
      -733.4753      -195.2743       23.58270       110.2368      -292.6230
       33.77368       1012.138       1048.184       171.2341      -664.5613
      -306.4374       90.56335       209.1171       37.47925      -292.9739
      -142.4497      -513.3148      -356.2919       352.2361       512.7430
       530.3964      -133.0363      -102.2443      -179.8013      -595.3661
       146.8962       56.00635       162.5853       664.8986       34.09125
      -295.5022      -86.14661      -176.9354      -159.6440       1.602722
      -188.8668      -174.5839       320.6440       510.3192      -105.2207
      -919.8791      -273.1564       567.9744      -128.7344       79.16235
       710.9343       272.4889      -668.6816      -629.9248       664.9976
       869.7990       492.7084       62.15625      -703.0094      -408.3686
       5.429138       10.43773       50.88687      -103.4103       183.7857
       315.9597       197.0944       331.0777       113.9267      -195.6816
      -106.3069       317.8751       549.6888       72.93802      -46.89743
       277.8054      -192.7279      -567.4936       123.8464       744.1492
       241.0710      -229.7760       248.0789       374.3126      -589.9232
      -765.8058       427.8198       869.6050       405.3402       10.90479
      -140.8657      -495.4968      -491.5652       205.3308       142.1939
       133.2582       138.1724      -342.1605      -181.1357       623.2253
       951.3507       222.4781      -154.6382       124.8752       19.04541
      -437.0210      -237.5325      -209.5001      -470.1758       425.9919
       1127.690       323.1127      -461.2387      -178.2083       35.00391
      -114.0290      -154.4797       123.4034       167.6765      -405.6394
