     0.02500000      -10962.47       6103.942      -12345.00      -12345.00
      -29.98999       213.5600      -14.59000      -12345.00      -12345.00
       0.000000       10.78000      -12345.00      -12345.00      -12345.00
      -12345.00      -12345.00      -12345.00      -12345.00      -12345.00
      -12345.00      -12345.00      -12345.00      -12345.00      -12345.00
      -12345.00      -12345.00      -12345.00      -12345.00      -12345.00
      -12345.00      -31.12380      -68.07400       912.0000       0.000000
      -31.37200      -68.11800       0.000000       97800.00       0.000000
      -12345.00      -12345.00      -12345.00      -12345.00      -12345.00
      -12345.00      -12345.00      -12345.00      -12345.00      -12345.00
       27.83623       8.671090       188.6484      0.2502795      -12345.00
      -12345.00     0.08783414       90.00000       90.00000      -12345.00
      -12345.00      -12345.00      -12345.00      -12345.00      -12345.00
      -12345.00      -12345.00      -12345.00      -12345.00      -12345.00
      2008       244         6        45        19
       990         6    -12345    -12345      9743
    -12345    -12345    -12345    -12345    -12345
         1         7        13    -12345    -12345
    -12345    -12345    -12345    -12345    -12345
    -12345    -12345    -12345    -12345    -12345
    -12345    -12345    -12345    -12345    -12345
         1         1         1         1         1
CONE    -12345          
        -12345  -12345  
-12345  -12345  -12345  
-12345  -12345  -12345  
-12345  -12345  -12345  
-12345  -12345  -12345  
-12345  -12345  BHE     
ZL      -12345  -12345  
[...]
      -104.4243      -106.1302      -113.9377      -120.9801      -129.9134
      -137.0158      -143.7910      -151.0892      -158.5592      -165.5660
      -171.4811      -174.9310      -182.9698      -189.8078      -195.2536
      -200.9763      -209.0215      -214.9765      -221.5067      -227.0233
      -230.9727      -232.8348      -234.1470      -240.0967      -246.0632
      -247.2941      -249.7955      -253.4547      -253.8724      -252.2747
      -255.8657      -256.3676      -255.9832      -252.9218      -253.1135
      -251.5511      -252.8813      -249.8228      -251.6241      -249.6038
      -251.6229      -247.7950      -248.3087      -243.3373      -244.9971
      -242.0615      -244.9807      -239.3736      -239.8189      -237.3457
      -236.0833      -233.9615      -238.4060      -233.5125      -232.2454
      -228.9478      -230.8093      -225.0917      -224.9586      -222.1930
      -222.5250      -218.2668      -220.5333      -214.4095      -213.4277
      -210.9680      -210.0635      -204.4887      -204.0189      -203.1862
      -201.2626      -195.8255      -196.6990      -193.6680      -191.9452
      -187.3841      -184.8756      -180.2278      -179.9277      -172.5401
      -168.5904      -167.4516      -162.6333      -155.4844      -150.7849
      -146.4413      -142.5865      -135.9138      -130.5771      -127.5954
      -121.7705      -115.1472      -110.0725      -105.7544      -101.7164
      -95.15399      -89.49921      -84.93144      -79.50919      -75.57990
      -72.05592      -65.56271      -60.90013      -55.13750      -51.28772
      -46.82150      -42.02216      -34.06964      -32.50031      -28.08389
      -24.10039      -17.71939      -12.20384      -4.760014     -0.5434685
       3.713558       6.599373       12.75709       18.47896       22.18021
       24.66360       31.09759       36.14867       42.01527       47.43753
       50.57938       55.55908       60.22406       64.84366       72.85892
       78.87840       80.09125       83.76767       88.68195       93.15927
       99.25266       105.0743       109.8038       115.9952       121.8455
       128.0373       133.0057       139.6979       142.3762       151.1517
       155.2792       162.8040       169.0242       176.2982       178.6340
       185.4679       189.9483       197.8379       200.6288       207.5861
       213.2590       221.7175       223.6803       226.2919       229.4146
       235.2290       235.5676       238.9755       241.5955       245.5903
       248.0918       247.5253       244.4304       246.2444       247.4763
       248.1804       246.6749       242.0790       240.8459       238.9957
       237.6633       234.0375       235.5150       234.6266       230.6503
       227.2040       225.6385       222.8306       220.4262       216.5446
       212.3862       204.9842       202.3995       201.5862       198.1838
       190.8719       186.6057       181.8267       180.4647       173.9061
       168.5706       164.2346       155.9080       148.2820       145.7820
       139.3470       131.9915       127.4467       120.6460       116.3645
       108.3380       102.1303       95.50568       91.99767       83.59303
       79.40308       73.25826       69.23964       63.81717       59.74695
       50.84158       48.89812       44.68526       40.55466       36.28169
       35.00954       32.78739       32.32809       30.71577       29.79666
       26.73468       28.28705       30.67466       31.63608       30.40884
       32.27581       33.24511       34.55455       33.72558       34.79842
       37.29480       37.29013       40.35296       40.51085       41.97874
       44.72443       49.08264       48.40562       48.51503       50.11000
       53.86719       54.19254       56.56592       56.27621       56.27927
       55.72533       57.40469       58.37614       59.69704       57.64517
       57.62317       57.52730       59.79028       56.71820       56.03183
       52.91779       52.55948       46.71788       42.93753       40.24196
       38.29158       33.88708       32.50173       28.06827       24.33985
       18.59331       12.86749       8.871466       3.039351      -2.088029
      -2.268501      -7.710533      -17.01100      -22.29743      -24.46525
      -29.50862      -35.78101      -44.69391      -48.74954      -56.11786
      -64.08685      -72.80255      -78.00403      -86.81076      -93.40863
      -102.6092      -108.7377      -116.4952      -123.4921      -135.2219
      -142.0223      -153.0206      -162.4968      -173.1415      -178.4974
      -187.4431      -194.8976      -206.7150      -215.4647      -224.0605
      -231.8415      -242.0347      -250.8531      -256.2988      -264.7483
      -272.2316      -281.2535      -288.7905      -298.7864      -301.7111
      -307.6880      -311.8477      -321.7389      -326.0132      -329.8939
      -332.5336      -339.6168      -339.4115      -342.3492      -343.2527
      -346.5657      -347.2036      -348.6168      -346.5288      -344.5003
      -341.3375      -340.8458      -338.8427      -334.8971      -330.6873
      -329.4625      -326.4965      -322.2124      -316.0757      -310.2294
      -306.6515      -302.3338      -294.2474      -288.2341      -285.0676
      -275.5049      -269.2911      -263.2595      -258.5209      -250.0286
      -246.0536      -236.0471      -231.6417      -222.9680      -218.6068
      -212.5762      -208.4045      -199.9235      -197.1653      -187.1550
      -184.6926      -178.4835      -170.3832      -160.7708      -157.8741
      -149.8419      -143.8228      -136.0447      -131.2143      -123.9246
      -122.1910      -115.2332      -108.1268      -98.15619      -92.46701
      -84.71252      -81.00439      -72.35808      -68.20062      -58.89430
      -54.46246      -47.25888      -42.33617      -33.95207      -25.82166
      -17.17184      -18.82378      -24.56615      -38.15347      -42.22713
      -34.61114       7.472229       71.88495       135.9580       144.8452
       68.77185       21.76234       75.43636       27.45236      -152.9743
      -185.9766       141.7148       595.6019       325.2826      -100.9419
      -23.27063       172.1450       291.5533       137.6452       83.00696
       125.0201       256.5061       218.6266       30.48669       276.3929
       639.0646       506.6297      -79.71243      -342.3088       277.7477
       723.2148       373.0775      -257.1130      -299.8391       757.3899
       1096.394       309.6696      -170.6158       116.6063       681.1793
       107.3757      -419.0367       285.7539       999.5630       630.5330
      -33.75055      -37.94678       508.5518       1235.087       594.2631
      -398.3998      -259.9753       367.5537       1014.494       626.7617
      -17.78052       548.5321       536.3591      -146.8890       399.4418
       551.6138       135.2612       581.8898       690.2910       472.6340
       350.6479       71.95831       123.2151       81.46655       485.8828
       754.8054       454.4506       344.5283       172.5703       390.3613
       302.4140      -206.5591       367.8645       697.4259       276.9244
       223.9823       240.3076       202.3577       169.0116       276.1038
       429.0153       274.7528      -37.38513       196.3883       565.3183
       283.7045      -145.2295      -40.16776       131.4682       123.3980
       302.7346       188.0127       135.8607       233.2226      -5.528320
      -128.8307      -318.2918      -119.5055       569.6186       252.4116
      -186.6119       155.8475       307.6961       132.4154      -247.9571
      -301.9764      -254.5063      -73.77362       249.3571      -221.9052
      -233.9952       259.9625      -10.53650       17.84647       189.9791
      -192.6008      -129.3007      -157.1812      -329.7975      -101.1376
      -106.8996       79.08444       205.0210      -300.5551      -392.8487
      -127.8296      -140.6004      -196.0510       7.763672      -153.0615
      -119.2545       124.5425      -384.1998      -391.6226      -33.87695
      -161.0596      -177.5803       44.64307      -350.9440      -509.3995
     -0.1557007      -111.3064      -92.07117      -247.3662      -646.4767
      -289.7661      -29.72436      -9.658203      -56.80225      -390.7111
      -287.5752      -140.8867      -264.1321      -145.5105      -61.09155
      -343.7380      -352.8380      -24.05750      -186.0647      -395.7329
      -377.0214      -295.4483      -48.68884      -244.9900      -306.6085
      -55.55457      -79.76501       5.972107      -161.3712      -476.5161
      -268.3510      -56.07483      -151.0234      -386.3686      -271.9304
      -87.04626      -414.9308      -261.3031       232.6292      -246.5562
      -591.3204       19.08838       234.6505      -31.12761       7.146732
       39.00256      -61.06433      -359.9172      -485.6626      -530.8981
      -208.1686       475.6065       64.76245      -413.8157      -373.9418
       37.21075       420.6127       54.01593       15.88330       194.0897
      -89.32886      -286.5708      -124.0850      -366.5745      -12.21179
       647.9860       236.6895      -371.0128      -561.1766      -111.1544
       408.8944      -75.58157      -246.7304       330.6463       199.6722
      -167.8442      -86.88245      -71.99358       9.949402       128.6223
       1.217651      -283.8807      -312.4865       144.7614       268.0221
      -5.447304       26.85547       44.62375       112.4412       28.03558
      -378.7331      -169.0786       203.4452      -48.11742      -107.4846
       100.5051       70.54742      -18.68340       158.8956      -64.93860
      -594.7766      -165.4904       663.1272       219.4745      -267.1215
       324.2061       202.7027      -296.5040       34.29118       107.0197
      -12.20929      -111.8752      -255.3239       348.6321       186.7468
      -461.0809       57.38220       401.9652       49.77585      -297.6481
       212.5891       351.1583      -99.81131      -21.71039      -447.2838
      -8.301636       732.5400      -202.2615      -408.8726       254.7528
       76.04440      -183.3036      -36.29266       67.13452       308.1313
       361.4503      -92.23120      -404.1399      -154.0240       122.8742
       306.7946       117.7404      -217.9668       212.9012       396.9136
       26.91772       92.90190       43.33954      -255.7727      -58.19739
       226.7774       217.0264       88.45224      -31.53552      -299.5872
       46.50940       442.9725      -149.9637      -161.8858       204.3541
       165.1361       118.6667       246.3256       78.99274      -424.8561
       66.17407       525.7347       158.6116       97.50261       32.71802
       54.40405       214.0697       155.9886       183.7088      -52.62897
      -417.8319       16.01221       351.9882      -115.1366      -51.83911
       566.9037       578.5037       72.88989      -81.92932      -204.5554
      -126.2231       408.9010       375.7110       102.6954      -59.11169
      -300.8015       84.77667       411.0490      -1.396729       217.1311
       592.3745       113.7675      -23.67896       173.8928       217.3782
      -69.74329      -137.1016       396.7855       383.2778       167.7336
       96.26855      -286.8677      -394.2092       372.9335       696.8869
      -32.81281      -377.9189       94.34018       199.6210      -30.05215
       186.0403       105.5137       2.771729       174.3477       241.8771
       30.80893       10.80145       167.3643      -297.5602      -523.5715
      -62.41321      -197.3707      0.6925049       421.2720       355.8300
       230.7550      -467.2543      -53.74854       654.3727      -203.2092
      -468.5391      -8.341751      -37.14850      -162.0049      -197.8082
      -115.9780      -187.7584      -86.89339       92.29889      -181.1986
       22.08209       186.6658      -54.07727      -363.4224      -478.0622
      -53.97998      -133.0953      -277.0682       296.5434       270.1847
      -63.10687      -106.7323      -277.8264      -381.5459      -344.2317
      -201.5403      -121.5129      0.2199249       16.45734      -159.8002
      -69.56839      -10.61023      -251.6937      -360.4736      -121.7929
      -330.7829      -333.9737       87.60056       3.505920      -147.4088
      -235.7460      -148.0305       50.57466      -65.34497       171.2834
       429.2224       768.0479       2005.603       2381.007       1259.689
       287.3472      -2014.687      -4205.867      -3873.646      -3244.633
      -830.7812       3613.776       3662.349       445.3904      -1324.750
      -1855.782      -1304.070      -1599.971      -1309.231      -242.4668
      -323.3457       2462.471       3795.169       3440.383       4227.683
      -3889.541      -10962.47      -1791.989       6103.942       3492.091
       1715.780      -437.7910      -2999.522      -2677.120      -1117.847
       2033.358       2897.719       289.3000      -499.0909       187.0647
       223.1853      -774.8655      -1163.466       858.0921       784.1752
      -1007.536       282.2407       1376.058      -787.5249      -2813.819
      -2405.446       1754.991       4081.985       1232.840      -1347.165
      -1747.098      -1294.551       117.6113       1799.667       814.3680
      -723.7261      -242.6072       1227.318       911.0089      -835.1191
      -151.4286       168.9871      -1317.917      -1153.357       904.3036
       1058.902      -277.7134       1245.082       2061.361      -1750.333
      -3309.298      -73.89600       1232.218       1356.739       1665.661
      -268.4639      -1702.542      -1133.079       1158.798       858.1724
      -2627.838      -1395.455       1532.678       1144.983       1058.931
       1102.778      -930.6892      -1661.701       747.0732       1457.590
       29.87976      -686.5498       69.00171       1340.329       104.8748
      -1679.104      -272.0925       358.4098      -214.0988      -143.1282
      -1162.336      -1205.396       971.8145       2406.306       489.6235
      -1741.692      -1618.698      -159.8789       1239.704       1256.137
       1112.072       576.7023      -520.6750      -177.3090      -314.8837
      -602.4612       334.4938       205.9155       50.58350       260.0643
      -69.38007      -213.4272       587.3298       819.1790      -779.6781
      -520.1970       1046.368      -62.41162      -380.7253       966.7827
       498.5143      -70.90430      -722.7502      -1662.504      -456.9404
       1062.958       1323.823       363.7892      -25.93726       125.3311
      -996.4230      -413.3404       28.18701      -890.4894       424.2705
       1376.084       845.6866       271.5547      -1182.708      -896.8682
       838.6459       17.09253      -868.2246       225.7556       656.8074
       392.0353       747.6482      -296.6807      -1329.342       11.74568
       110.9786      -260.0567       174.0562      -592.5850       790.9641
       1962.100      -70.60742      -1150.027      -513.7612       782.2208
       900.8792      -468.1592      -1099.230       83.75000       846.1177
       422.6243      -31.45239      -503.6810      -513.4448      -937.9725
      -778.3532      -182.9441       664.8596       1448.203       73.53436
      -365.7880      -132.5767      -1337.191      -225.0969       1554.571
       895.5957      -484.4897      -1266.333      -772.2921      -115.0975
      -336.8273      -161.5942       363.0311      -79.17657      -53.62720
       962.3021       1033.029      -296.7744      -1090.185      -668.7805
      -619.2249      -876.8518      -17.85034       868.1092       251.6079
      -361.6180      -852.2015      -159.8528       1271.502       390.4160
      -965.2209      -1031.436      -517.5378       104.9005       291.9496
       101.5493       264.3894      -10.65271      -774.4456      -94.06775
       778.3171      -517.0991      -1166.640       135.3091       226.1117
       361.2076       189.3447      -1271.953      -480.3625       393.4482
      -326.3415      -245.3064       200.4135       45.11230       595.1755
       833.8491      -540.6011      -930.4082      -552.5326      -50.24255
       564.8096       588.7990       170.1998      -319.1024       131.9442
       391.8524       24.76685      -503.3589      -1357.430      -615.1758
       1005.073       1172.414       448.0459      -375.3112      -447.9656
       288.4136       480.2827      -3.039062       114.0713       1022.485
       538.4641      -1031.030      -903.6343      -130.7990       464.3900
       503.3822       166.4285       552.5719       329.9803      -222.2242
      -142.8177      -96.11573      -38.35242       81.72742      -513.2913
      -251.3237       1174.624       858.7825       101.3836       16.09616
      -23.01782       308.7731       345.9690       62.13379      -346.9893
      -565.6071      -380.6522      -22.92413       256.3145       140.5731
       215.7651       980.6069       930.3737       69.32324      -65.27649
       595.4424       814.9840      -645.5844      -807.1698       972.3934
       550.5325      -525.7351       549.0002       1341.030       308.8501
      -737.5490      -750.1709       82.85498       704.2788       805.0272
       352.0902      -705.8080      -156.6506       444.4380       604.2283
       1007.104      -287.8976      -379.2904       520.2111      -92.72855
      -49.06061       217.7291       310.1425       349.7505      -326.0115
       64.77826       283.9902      -696.9342      -542.3584       721.3687
       1529.574       843.0921      -213.5701       97.29846       428.5167
      -270.7496      -804.1036      -397.4763       110.8801       281.8633
       503.9877       295.7113       94.44849       8.827942      -308.5178
       72.99109       280.0461      -541.4878      -210.1427       924.1562
       197.7145      -670.8944      -293.9058       160.2036       281.0787
      -113.2332      -239.1974       423.8657       372.8472      -142.0181
      -356.9996      -623.9619      -190.1707      -73.79315       69.78621
       129.8159      -221.3461       3.724487      -227.5660      -361.9086
       57.38269       89.93457       94.10400       538.5426       192.5049
      -1017.242      -980.9611      -289.4506       156.9326       356.9059
