     0.02500000      -946.6831       1269.806      -12345.00      -12345.00
      -29.99501       231.3800      -33.42000      -12345.00      -12345.00
       0.000000       24.80000      -12345.00      -12345.00      -12345.00
      -12345.00      -12345.00      -12345.00      -12345.00      -12345.00
      -12345.00      -12345.00      -12345.00      -12345.00      -12345.00
      -12345.00      -12345.00      -12345.00      -12345.00      -12345.00
      -12345.00      -29.95960      -69.63990       5051.000       0.000000
      -31.37200      -68.11800       0.000000       97800.00       0.000000
      -12345.00      -12345.00      -12345.00      -12345.00      -12345.00
      -12345.00      -12345.00      -12345.00      -12345.00      -12345.00
       213.9844       316.6434       137.4158       1.923911      -12345.00
      -12345.00     0.06891647       0.000000       90.00000      -12345.00
      -12345.00      -12345.00      -12345.00      -12345.00      -12345.00
      -12345.00      -12345.00      -12345.00      -12345.00      -12345.00
      2008       244         6        45        38
       820         6    -12345    -12345     10456
    -12345    -12345    -12345    -12345    -12345
         1         7        13    -12345    -12345
    -12345    -12345    -12345    -12345    -12345
    -12345    -12345    -12345    -12345    -12345
    -12345    -12345    -12345    -12345    -12345
         1         1         1         1         1
CORT    -12345          
        -12345  -12345  
-12345  -12345  -12345  
-12345  -12345  -12345  
-12345  -12345  -12345  
-12345  -12345  -12345  
-12345  -12345  BHN     
ZL      -12345  -12345  
[...]
       91.74276       64.75394      -6.852219      -41.61575      -113.4869
      -152.8083      -74.01801      -64.30083      -9.888458       78.11038
       70.70068       147.0482       216.5323       198.5407       155.2469
       40.44315      -11.80594      -44.56203      -69.72162       86.14252
       207.4409       59.63587      -41.84064       61.25488       174.7924
       139.7578       56.11349       38.03918       55.34546       87.74426
       153.9506       231.4953       258.6066       166.4351       110.0927
       157.0887       133.6431       131.0791       227.1806       173.9052
       106.6697       166.3217       225.7121       175.9152       159.1698
       210.0294       186.0936       158.5399       225.5734       259.3972
       240.5116       216.9452       302.8446       388.8515       328.6136
       229.7473       226.0210       279.5623       299.2664       238.0370
       265.2396       308.7628       274.2437       231.8407       313.9125
       314.5900       157.0778       198.3340       339.8392       311.3468
       266.8085       221.2448       282.6893       429.7495       406.4321
       241.7471       233.3280       278.4899       200.3903       177.6185
       278.7200       314.9830       351.9771       369.4611       317.4792
       186.5497       81.67566       149.1068       290.9664       300.3466
       304.6491       315.5948       302.9114       291.7713       309.3062
       302.4720       246.1548       196.0767       135.1777       86.79544
       108.9610       174.4714       232.0070       129.3866       77.86554
       147.0186       182.6938       120.1574       63.64728       149.7682
       117.3036      -61.07339      -11.68613       122.6265       142.2655
       87.88083       21.25217      -33.81020       27.23189       90.37480
       22.44724      -76.29832      -57.10652       38.66286       3.101135
      -76.98157      -87.98343      -147.6467      -140.7428      -78.50729
      -112.1390      -180.6180      -202.7951      -144.7662      -74.17047
      -101.9052      -154.5125      -177.5208      -245.4378      -275.0090
      -199.2258      -211.6270      -302.9142      -274.5155      -206.1946
      -208.9121      -323.3778      -379.4617      -306.2749      -260.8005
      -249.0984      -319.7935      -368.8452      -378.2053      -357.4346
      -356.2269      -383.8920      -410.9624      -420.4050      -410.9307
      -435.3571      -390.5995      -336.2412      -382.7300      -385.7739
      -415.3048      -478.7733      -459.0922      -453.6832      -434.4210
      -338.5804      -435.5081      -603.4691      -534.4473      -436.2776
      -528.5403      -622.4883      -535.8253      -400.7156      -371.5607
      -389.2477      -453.4735      -532.2979      -516.4017      -418.1345
      -423.3900      -498.9840      -496.1549      -476.1471      -494.5232
      -425.7490      -368.6295      -382.2058      -423.0942      -451.1656
      -427.6771      -362.0686      -284.0335      -291.0590      -339.1814
      -342.5272      -392.6847      -353.0094      -277.8365      -259.3203
      -282.6019      -243.5227      -152.5733      -201.9071      -251.6813
      -132.4397      -91.98834      -159.6020      -138.0378      -111.1033
      -94.60590      -39.21555      -56.06931      -74.80453      -23.97722
       43.58527       85.93016       78.34708       56.03876       34.51373
       69.07782       162.7448       166.4044       127.8425       211.8113
       252.0888       201.7175       192.3727       198.4338       262.5256
       298.1168       247.5827       240.2513       246.5447       191.4447
       156.5788       220.4967       303.3781       332.8925       320.6810
       262.0052       261.7822       289.1957       347.6825       397.8135
       291.4311       291.3440       368.3285       362.4320       357.1437
       307.9393       260.1697       272.5753       295.4857       282.3825
       215.2644       207.6644       268.6782       362.5659       358.7431
       233.9388       303.8632       361.6312       246.9122       222.9761
       333.0997       368.6490       245.6157       178.3635       160.7661
       144.0516       191.7159       217.5297       209.9456       322.2418
       386.1831       239.6689       97.09003       88.29724       175.4964
       266.1116       293.6141       264.5068       183.5387       123.1569
       141.0511       132.1466       170.5795       311.4892       284.5668
       194.4477       188.3950       44.54897      -25.57477       91.51474
       123.0729       97.67996       75.59128       98.91437       96.06908
      -8.546715      -30.38684       60.83875       103.4977       104.4429
       158.0938       188.4361       98.20837       31.40775       111.9551
       199.2976       158.4772       83.32856       31.95536      -26.64862
       11.51770       193.6688       170.8093      -4.389145       6.183655
       140.6084       170.8815       131.6042       98.88297       130.9847
       161.2165       150.3823       121.0276       110.5964       117.2037
       108.9733       32.32101      -13.08977       32.29990       53.34567
       63.19720       177.1881       161.6951       64.26819       113.9276
       156.4867       87.63794       102.8640       83.80328       91.51236
       131.9340       49.49431       11.34462       83.28995       56.96750
       8.800739       8.492874      -26.13741      -81.07080       6.217163
       180.2560       198.8171       102.0584       112.3459       144.1457
       73.93153      -4.493881       62.79352       87.53992       36.90154
       66.65545       82.08205      -36.19711      -84.29099       21.60699
       106.5725       55.26407       26.03351       41.99110       61.29248
       106.4473       104.5869       10.81525      -57.83405      -78.85788
      -9.746208       42.01605       29.25277      -14.87047      -32.40081
      -20.08360       9.419861      -38.16949      -61.04230      -64.86093
      -76.45901      -78.73149      -27.79118       8.331608      0.3014374
      -43.96140      -131.9559      -210.9822      -112.7890      -4.150156
      -9.518715       11.10818      -22.10352      -206.5257      -195.3844
      -85.96085      -107.3922      -139.2423      -186.6980      -237.0795
      -170.3065      -115.4455      -138.1843      -186.3729      -126.3192
      -134.7161      -221.8007      -218.7861      -178.0628      -189.8188
      -146.3846      -143.3516      -288.1249      -331.2498      -176.9353
      -132.6757      -215.9867      -251.2499      -282.7761      -277.5782
      -263.4082      -312.6039      -322.2167      -282.0217      -248.8478
      -302.3445      -326.4191      -249.0472      -228.0151      -304.3295
      -291.5519      -230.9965      -270.3916      -365.0355      -380.0208
      -407.0091      -260.3419      -97.33405      -259.7835      -353.5464
      -266.9530      -296.1385      -349.1699      -288.4185      -172.8717
      -298.9764      -430.1299      -255.6879      -144.8647      -267.0698
      -271.2056      -177.0922      -168.0265      -297.5305      -342.4994
      -250.6543      -166.8459      -170.5784      -187.5032      -129.8509
      -85.00681      -109.2298      -98.21896      -91.60132      -132.4721
      -183.5757      -233.6641      -219.5643      -128.2216      -136.4650
      -185.1382      -179.5817      -107.1804      -49.57855      -45.91205
      -114.3882      -184.1223      -180.0716      -150.4565      -76.72874
      -11.92903       12.14012       24.92420      -21.38641      -29.71553
       22.19992       63.22541       28.20029      -66.97461      -77.30409
       9.091965       45.19351       60.01938       94.15021      -27.58173
      -186.3568      -211.3831      -208.4163      -128.2664      -93.44763
      -113.8514      -51.59692      -150.2136      -301.3318      -188.0301
      -34.16651       20.96146      0.9183731      -36.32268       29.38452
       120.5723       74.59938       56.64075       139.9076       177.0097
       128.5155       48.41964      -14.32421       11.41563       70.46463
       54.53314       39.22725       44.95758       53.52396       33.76908
       8.114033      -28.59946       70.99673       162.0315       66.70908
       106.1021       242.0960       231.1266       191.1993       174.0433
       138.4501       150.7034       191.4868       207.4191       217.3010
       253.1534       319.8737       284.1923       193.6115       169.1629
       189.0632       232.6344       311.8519       296.9169       254.1130
       371.0825       446.1781       315.0662       258.2502       368.3573
       410.5227       349.0485       445.1814       541.2155       536.5753
       582.0111       536.1373       389.6694       341.0004       420.2135
       425.0023       392.0709       450.5105       515.4052       472.1735
       412.1302       459.5251       457.4900       435.0684       458.6213
       516.4414       513.3094       503.4851       598.9426       619.0270
       515.1628       412.7673       396.5092       468.3789       456.8989
       448.8966       511.4612       589.0022       588.6283       465.8022
       421.1844       450.5200       431.0344       422.4108       380.2092
       337.5408       368.9469       407.9133       442.0930       402.5114
       370.7238       360.1679       284.7888       248.5919       230.1106
       228.5753       255.8698       241.2278       164.0527       158.9979
       164.0091       129.8124       175.3563       172.5031       125.7797
       140.2125       181.5092       130.5057       56.03586       63.78946
      -7.741257      -60.20700      -24.14794      -8.223801      -40.89447
      -120.9055      -165.6409      -86.30887      -32.69971      -115.0128
      -190.3669      -174.6044      -208.4645      -219.3709      -198.6462
      -271.4573      -283.0938      -212.3893      -265.3602      -313.6743
      -293.2186      -328.1566      -407.0840      -381.9277      -308.5801
      -337.3530      -341.3083      -309.3386      -357.4436      -368.9817
      -341.1205      -428.7632      -487.8523      -351.8516      -316.1273
      -432.0374      -435.7317      -402.1198      -368.9440      -324.7358
      -344.8125      -405.6526      -438.1038      -402.8162      -339.9937
      -377.3445      -453.6914      -377.9838      -414.7457      -483.2120
      -395.7535      -377.1163      -415.4580      -431.5463      -430.6262
      -361.3132      -346.1479      -370.7627      -331.0535      -317.9534
      -300.3074      -303.8918      -313.0964      -336.5663      -431.2198
      -372.9318      -256.1302      -287.8613      -356.9010      -342.5883
      -340.0055      -290.1559      -269.9539      -303.0128      -282.0609
      -284.6548      -360.3113      -316.2192      -199.5416      -210.1725
      -287.1998      -230.7372      -220.0888      -248.8411      -226.2059
      -258.7389      -260.8383      -214.9279      -257.3941      -207.0034
      -183.6320      -259.7328      -242.9261      -192.6954      -228.5977
      -219.2719      -219.0777      -148.9230      -76.20374      -152.1597
      -228.2046      -205.5108      -189.4521      -209.4740      -168.2929
      -124.2729      -213.3569      -274.7448      -239.6215      -190.4271
      -213.5117      -198.8308      -149.6789      -136.0342      -151.6609
      -230.3726      -248.1570      -197.2982      -211.2748      -221.6534
      -227.1454      -138.6986      -68.66806      -147.9388      -213.8272
      -183.4570      -130.9478      -54.53886      -24.27138      -53.66187
      -96.38281      -95.11206      -93.93919      -106.4342      -25.31270
       83.70142       78.67555       6.804768      -1.897804       35.49445
      -13.24332      -70.52599      -31.53580       4.113743      -25.83078
       83.78406       159.5422       62.11993       47.74933       113.4522
       96.85254       98.35596       217.9442       280.5151       177.7233
       145.3773       145.6470       115.1101       164.0064       223.5710
       173.9083       169.9041       220.7168       236.4565       253.4899
       301.2168       383.2522       381.6271       309.7147       301.2675
       267.7712       212.4672       147.2475       40.66669      -66.36818
      -29.48953       79.47836       99.34613       129.4556       376.0635
       752.4368       959.4956       973.9604       950.2939       987.9536
       965.7157       734.7484       419.0950       176.9537       45.34308
      -14.71094       145.7054       501.7627       724.8263       593.5494
       256.4612      -6.535889      -157.9902      -326.9910      -372.9269
      -158.4483       67.29999       134.7305       357.0601       819.8906
       1237.435       1269.806       937.4900       665.9985       628.7461
       681.2358       629.5640       512.9702       483.3685       438.4250
       390.2032       488.0190       667.3992       486.5459      -19.60345
      -319.6405      -300.7325      -87.92200       114.2952       286.6696
       345.4736       323.2869       438.4773       518.9305       307.5894
       94.13379       267.1238       527.9468       603.9791       601.6371
       580.3258       422.3625       237.3854       281.8484       349.6194
       165.4963      -301.7075      -675.0513      -677.9661      -478.9706
      -185.1473       165.1502       255.2845       92.29648       3.597931
       66.88184       179.3247       199.1578       129.1435       22.17365
       59.37054       228.7093       132.1243       261.5525       578.2872
       372.7027      -22.38541      -143.2048      -16.50415      -28.91467
      -435.3499      -765.7600      -853.7686      -855.1377      -735.0782
      -577.8013      -603.8386      -741.1942      -419.1099       155.1930
       356.4863       538.3522       467.2716      -117.2667      -415.4149
      -405.3004      -492.0800      -543.7966      -639.0390      -448.4189
      -15.65857      -248.2612      -815.8779      -809.3422      -330.7807
       6.169189      -338.6461      -734.9490      -578.9919      -617.1277
      -850.3334      -441.1103       87.20306      -180.0505      -526.3384
      -186.2682      -37.91583      -269.2361      -357.5682      -481.2709
      -660.2764      -435.6685      -231.3894      -472.8813      -402.1900
       11.18628      -231.6123      -878.8480      -729.1512      -113.0989
      -58.05005      -335.7622      -562.7557      -398.6790      -337.2739
      -652.6193      -578.2417      -325.1829      -525.6040      -536.2568
       33.66287       254.3331      -150.0938      -325.8258      -65.43503
       121.2951       61.33826       210.3128       320.5046      -128.4561
      -683.5181      -623.7607      -42.30719       219.2060       5.906464
      -34.91843      -78.73694      -322.8801      -391.8845      -336.7817
      -232.9950      -81.08241      -7.068489       8.457775       39.98279
      -64.06531      -202.4744       69.62463       413.5806       210.1927
      -173.2099       97.02148       508.1651       333.5655       112.1410
       53.59509       200.7283       533.8755       474.6312       410.9050
       331.4670      -4.452103       40.35858       109.9391       26.02753
       211.6732       254.8927       169.2439       24.60266       97.65222
       416.1710       344.1398       268.7002       423.8405       273.3243
       84.45752       224.8555       284.9849       16.99982      -152.3160
       48.58960       248.8098       59.32739      -173.9984      -197.5934
      -149.8123      -28.67316       149.6801       159.5145       137.8719
       235.1664       196.8864       73.34741      -60.01013      -60.07666
       344.9243       791.3226       682.4839       260.8345       363.7390
       634.9799       379.3837       16.80713      -99.50220      -226.0293
      -177.7372       64.71771       274.8309       118.0813      -166.2913
       16.75357       34.93390       1.441895       297.7441       367.4136
       125.6688      -62.66548       55.42152       18.79301      -98.42993
       111.6912       259.6368       18.30396      -216.8520      -183.7663
      -54.28981       35.82135       151.8674       264.0193       134.2764
      -123.5507       65.04181       272.0370       95.96509      -113.2338
      -251.3384      -233.8721      -97.03125      -95.65259      -41.40350
      -67.32556      -254.6687      -281.6533      -85.62788       112.4741
       13.01575      -183.4135      -198.0102      -96.83527       17.08061
       26.33530       166.6784       173.3996      -187.0165      -367.6143
      -211.9200      -88.30548       5.304565      -99.39258      -396.3597
      -475.2455      -217.6937       19.06995      -98.99808      -218.0600
       33.08487       119.6351      -30.24741      -112.0927      -169.5565
      -73.72498       17.71094      -219.3694      -330.6705      -112.9070
      -87.65765      -267.7836      -206.1552      -16.43106       128.5340
       71.13489      -185.2858      -170.8224      -79.05335      -30.31091
       134.4750       57.81104      -127.5608      -195.4824      -86.60883
       162.1859       143.5605      -20.66321      -248.1860      -502.2405
      -329.8994      -96.01353       25.25539       41.61751      -23.94397
      -38.13316      -1.462173       89.87817      -22.28656      -163.7750
      -83.60931      -106.4490      -164.2766      -99.90254      -53.44795
       5.815552       221.8878       235.1184      -4.774963      -235.0457
      -326.9082      -145.8535       114.9999       15.04224      -331.5916
      -152.7861       273.9999       184.4190       92.22101       222.1381
       178.2692      -25.08565       14.41800       52.07910       65.70374
       330.0795       397.2968       106.2143      -124.2563      -34.99493
       159.1802       154.5578       32.69654      -45.28851       9.778931
       140.5060       285.6381       172.1779       38.45816       106.8842
       283.8220       369.0118       216.2098       211.9874       396.9856
       440.6505       323.4915       98.83499       56.19470       380.1603
       591.7454       394.3669       144.9969       199.4036       375.4896
       363.9797       412.7705       360.9405       107.9465       5.048859
