     0.02500000      -1210.930       1202.468      -12345.00      -12345.00
      -29.99501       231.3800      -33.42000      -12345.00      -12345.00
       0.000000       24.80000      -12345.00      -12345.00      -12345.00
      -12345.00      -12345.00      -12345.00      -12345.00      -12345.00
      -12345.00      -12345.00      -12345.00      -12345.00      -12345.00
      -12345.00      -12345.00      -12345.00      -12345.00      -12345.00
      -12345.00      -29.95960      -69.63990       5051.000       0.000000
      -31.37200      -68.11800       0.000000       97800.00       0.000000
      -12345.00      -12345.00      -12345.00      -12345.00      -12345.00
      -12345.00      -12345.00      -12345.00      -12345.00      -12345.00
       213.9844       316.6434       137.4158       1.923911      -12345.00
      -12345.00      0.1625020       90.00000       90.00000      -12345.00
      -12345.00      -12345.00      -12345.00      -12345.00      -12345.00
      -12345.00      -12345.00      -12345.00      -12345.00      -12345.00
      2008       244         6        45        38
       820         6    -12345    -12345     10456
    -12345    -12345    -12345    -12345    -12345
         1         7        13    -12345    -12345
    -12345    -12345    -12345    -12345    -12345
    -12345    -12345    -12345    -12345    -12345
    -12345    -12345    -12345    -12345    -12345
         1         1         1         1         1
CORT    -12345          
        -12345  -12345  
-12345  -12345  -12345  
-12345  -12345  -12345  
-12345  -12345  -12345  
-12345  -12345  -12345  
-12345  -12345  BHE     
ZL      -12345  -12345  
[...]
       348.2087       357.9177       422.1802       485.4490       429.7373
       385.0647       412.8547       383.7482       348.6718       374.1772
       420.7427       438.8074       426.7349       411.6320       431.8929
       405.0410       315.7687       266.3523       366.0867       439.3115
       432.7377       422.1538       478.2908       513.4216       447.5023
       388.6082       345.0809       317.0339       312.0917       333.2013
       357.1252       387.2109       407.9192       380.8292       309.7017
       263.0040       262.2849       222.4047       204.5487       203.1838
       273.2695       359.2191       260.0604       198.0948       165.0627
       124.1849       191.0555       254.9031       229.7622       154.4855
       168.3375       215.1249       181.0338       128.8445       60.87810
       22.09109       13.22963      0.5070667       6.828278      -21.48146
      -77.95043      -28.96677       50.44222       19.84864      -11.85654
      -30.13228      -82.26524      -57.64328       6.657822       1.997269
      -31.78555      -131.0955      -229.5415      -114.8925       3.301605
      -48.94063      -74.15805      -61.58997      -162.8242      -195.6524
      -125.1390      -193.8361      -296.1443      -247.2847      -226.9991
      -255.6024      -186.2812      -174.8244      -294.5654      -313.5646
      -293.0826      -321.6285      -257.3910      -152.4095      -173.0577
      -210.0055      -266.8851      -281.4370      -299.1145      -357.3926
      -339.5144      -290.1875      -327.6797      -380.3882      -344.0035
      -350.6205      -407.8621      -392.6082      -356.2348      -327.0439
      -345.2476      -346.0447      -350.2354      -399.9250      -344.2318
      -269.0093      -280.0655      -277.5479      -373.1243      -412.5599
      -321.5405      -315.6467      -330.7206      -300.0773      -303.2939
      -338.5201      -351.4528      -331.2283      -317.0344      -270.1542
      -301.3668      -341.9421      -316.4734      -289.7447      -249.3081
      -233.7437      -303.3779      -295.1654      -175.0500      -159.6257
      -228.9628      -196.5986      -62.23901      -49.83423      -165.7506
      -226.5322      -212.9552      -146.8036      -89.63480      -118.1404
      -170.5658      -123.3124      -126.9176      -121.7451      -94.46309
      -83.13459      -11.64612       6.695663      -33.21461      -48.59735
      -42.48758      -50.49197      -38.17422       17.91051       35.10454
       16.04239      -77.46101      -85.67535       26.00970       32.58754
       23.73633       136.9681       111.7850       53.45856       146.2126
       139.9930       41.42719       36.76999       67.55792       91.83795
       82.83704       133.2491       162.8414       151.8711       204.2653
       191.0590       133.6873       194.9919       199.6371       135.7297
       190.9814       303.7954       286.4896       234.4848       219.2596
       266.0063       298.3824       308.2247       298.9705       300.3766
       311.5328       265.4532       241.9939       312.2889       295.5459
       274.6101       342.6223       361.4291       334.7077       323.0159
       234.7996       244.9020       339.8038       320.9321       294.1306
       386.0576       443.8309       407.9412       390.2247       415.4258
       347.0287       242.4318       298.5537       409.2642       397.9178
       404.6385       436.9891       428.7402       341.9205       306.3671
       401.0636       434.8735       362.6735       387.6873       441.4397
       389.5555       348.8673       314.7363       289.9229       375.2280
       381.3761       314.9987       287.7529       285.6227       321.4492
       356.7654       282.9371       234.9321       250.6004       299.8986
       298.7580       231.2060       280.7909       349.9391       308.8757
       216.3539       161.4377       165.3333       167.7814       235.2899
       234.6711       145.9401       120.9940       142.1962       120.9528
       105.4101       109.8081       118.3011       88.89941       32.31602
      -20.36979       7.524963       91.28592       118.4977       118.1999
       86.43613      -59.15692      -51.39594       69.58733       85.69489
      -8.058533      -95.71646      -118.7044      -88.96715      -63.98645
      -49.91949      -45.94272      -129.9001      -167.1868      -96.11673
      -80.04361      -104.7145      -118.6907      -44.03021      -74.99426
      -185.1180      -246.6345      -264.4873      -190.4188      -98.11139
      -153.3922      -274.7672      -308.3792      -352.6115      -335.8020
      -239.3114      -226.5292      -292.9016      -342.5509      -271.1647
      -321.6431      -436.3618      -404.4049      -377.9343      -399.2961
      -338.3463      -355.5649      -402.1971      -411.9469      -465.2980
      -463.8442      -457.2954      -488.0546      -413.0057      -409.8655
      -445.9353      -477.9135      -534.8202      -437.9980      -373.7361
      -515.4083      -503.0247      -412.3159      -523.3025      -560.2858
      -404.1232      -394.9891      -445.9646      -458.4185      -500.8613
      -550.3263      -498.3091      -442.5210      -448.4448      -458.4207
      -436.0895      -409.6121      -400.3745      -357.5453      -381.2775
      -518.9587      -530.1296      -446.5776      -341.1572      -324.7827
      -359.5229      -342.5192      -358.7451      -444.9729      -474.4139
      -403.8628      -398.0760      -403.5729      -371.6135      -447.5671
      -446.3046      -330.9346      -280.1683      -339.7329      -392.6610
      -384.2971      -328.4929      -344.2279      -417.2295      -346.8801
      -282.0800      -319.3206      -297.2853      -290.5279      -320.0266
      -307.6018      -270.3320      -248.5157      -228.5000      -202.2919
      -224.1408      -280.9258      -237.0874      -118.6887      -99.01395
      -142.9536      -144.7489      -101.0112      -87.68991      -128.0783
      -53.63750       51.65991     -0.5927887      -45.64348       27.55377
       74.02176       74.78333       97.04645       104.3639       111.7742
       155.6167       162.3556       167.3467       199.3696       195.5316
       191.3685       202.7842       181.0392       219.7760       301.7762
       387.5918       388.9751       339.7622       380.3616       348.7457
       317.6454       318.8752       340.7175       493.2734       542.3492
       460.8486       479.7585       538.8020       530.8127       562.0886
       526.8076       373.7451       453.2303       616.4027       605.9122
       550.5103       546.5603       624.0872       612.8435       566.7394
       534.2192       493.3785       602.1470       653.4951       623.4644
       593.9924       621.5170       653.4110       557.7540       558.5083
       657.5923       625.2583       583.0161       607.9968       577.0497
       522.9841       504.2693       563.1284       582.1565       558.3524
       565.0171       531.6729       491.0114       537.6774       632.4451
       641.2501       554.8654       447.0959       366.5145       358.0890
       444.3173       526.7910       506.5437       435.7814       462.5349
       537.0564       510.4751       459.8124       399.4283       429.9346
       493.7690       406.6163       322.7244       256.8693       206.4780
       252.2643       364.1299       489.8441       489.2117       389.1228
       312.2363       229.8395       192.7905       212.0894       281.0189
       330.7753       329.5792       256.0336       251.5909       331.6198
       289.3566       206.9028       190.5016       144.6084       90.48270
       112.6283       141.1370       160.4878       178.9692       108.6421
       29.60449      -17.31149      -42.81203      -5.340817       6.504833
      -24.15749      -8.342690       30.74762      -98.35229      -242.3979
      -205.9838      -230.4388      -245.7457      -174.5618      -203.6020
      -295.9166      -293.6255      -199.4886      -177.1924      -259.0747
      -288.1626      -231.5796      -287.6953      -399.0911      -373.9222
      -319.5907      -280.1821      -277.3293      -396.1976      -430.8331
      -342.6521      -311.5719      -379.8276      -464.6584      -440.2582
      -386.8815      -417.4866      -449.5125      -423.4255      -440.7003
      -387.1677      -404.3997      -635.6123      -676.8271      -487.7074
      -412.1169      -444.4952      -487.2188      -468.4276      -480.1604
      -502.0571      -545.4878      -555.8419      -478.1622      -457.5846
      -483.7961      -493.4248      -535.0781      -566.6667      -561.2000
      -529.7231      -469.0380      -440.9475      -462.4915      -482.8286
      -532.4553      -574.7910      -589.3728      -568.3142      -575.0320
      -561.8806      -507.3086      -472.6744      -452.3667      -490.9568
      -532.8744      -510.0426      -530.2693      -485.8051      -374.5593
      -356.0490      -355.4054      -423.8701      -521.7363      -529.1570
      -521.4604      -459.8649      -382.8154      -411.8472      -421.2571
      -354.0643      -287.9424      -300.4969      -314.9573      -312.1174
      -360.0613      -370.7576      -340.5031      -292.4620      -266.7195
      -278.4901      -271.5336      -223.9888      -179.6905      -202.9642
      -209.3185      -190.8441      -243.2243      -239.1135      -161.8833
      -184.6324      -106.9356       59.49875      -36.06802      -178.7079
      -142.6198      -61.34718       29.94171       118.6405       105.8186
       14.30886      -9.676819       83.39902       130.9886       88.18903
       25.69019       80.90363       159.8489       203.0562       262.4625
       236.4300       167.4657       137.2212       180.8715       197.8977
       143.4302       148.0027       256.3458       317.2792       245.9631
       234.1219       257.4428       236.3381       237.6359       271.4735
       260.9666       225.5468       295.5168       396.1826       371.0513
       314.9753       262.7336       231.4453       262.0409       218.0406
       138.9736       175.0104       185.5608       153.2390       209.9359
       274.8199       278.4188       239.6374       201.1527       190.4660
       187.1017       204.7773       176.9896       225.3346       283.7917
       256.6929       306.0115       319.2189       314.0144       254.9027
       215.6049       301.6478       265.2734       227.0051       242.9205
       254.7303       294.6725       236.2883       201.4585       261.5750
       286.6186       279.0245       292.9863       279.3268       216.1992
       163.2697       234.7836       258.3353       195.3004       226.2542
       280.5234       306.0927       355.3990       317.1022       251.5386
       255.0956       249.9878       231.2319       315.6169       374.2691
       308.2460       258.1696       281.0637       256.2639       204.7156
       230.5505       324.5699       314.1443       240.3599       239.8072
       288.1569       266.8906       320.1730       388.3281       318.1821
       243.6583       266.0061       274.3374       269.5796       274.1775
       291.7638       288.0912       309.9889       346.1438       344.2936
       262.2953       206.9939       224.1014       293.1151       342.7853
       371.5846       416.0810       332.5391       217.4373       223.7716
       197.5515       170.3522       238.5682       292.6470       239.5635
       255.8341       271.4120       209.5879       170.5514       185.0473
       222.2477       208.8262       143.6589       138.7488       198.6868
       239.2153       237.8848       229.9122       255.9512       284.5687
       224.8337       166.8155       172.7130       182.8204       170.1499
       198.6050       160.3996       62.57042       50.20450       126.2234
       173.4832       161.3004       127.2762       53.10394      -59.15378
      -52.52643      -49.31909      -77.74670      -113.3391      -152.8311
      -210.7912      -193.0268      -136.5639      -131.1842      -63.53473
       71.47180       165.4733       217.4103       211.7079       193.5322
       63.03796      -158.4940      -433.5786      -704.5386      -872.7351
      -783.1593      -467.7804      -105.9496       98.90491       184.8901
       205.4836       236.7548       305.9689       248.4167      -133.4216
      -562.0149      -806.0164      -786.0896      -642.7400      -602.7170
      -771.6931      -928.7600      -835.3173      -569.6635      -366.7957
      -286.6084      -202.0155      -1.302811       61.04031      -42.52283
      -249.7646      -632.4592      -815.1522      -572.9807      -462.8240
      -549.5789      -700.6133      -798.1406      -716.7788      -660.1643
      -754.3091      -925.4812      -1120.082      -1201.376      -1210.930
      -1017.888      -637.4299      -229.3207      -8.369995      -43.96112
      -197.3711      -283.6149      -291.8517      -409.2073      -635.8413
      -730.1101      -831.5381      -956.5522      -908.0991      -709.4941
      -642.4082      -544.6113      -369.9211      -321.7803      -522.9966
      -793.8330      -916.6027      -590.9575      -154.0137      -248.7609
      -422.7393      -249.2147       36.06201       265.5429       91.78290
      -278.8811      -447.6228      -553.1573      -645.6708      -432.4550
      -89.23277       49.35555      -29.70642      -62.44812      -288.4691
      -612.0051      -568.5135      -312.4754      0.9082642       219.8494
       124.5517      -11.47630      -40.80920       202.3518       430.2949
       283.7341       20.14563      -177.0856      -315.8879      -201.1299
       206.4517       713.0363       744.2751       426.6993       277.8925
       115.4922      -45.44314      -41.37715      -9.618408       196.9224
       459.6104       374.5018       208.2906       214.6118       155.9155
       263.8462       546.6633       924.9094       1202.468       945.2676
       490.1744       264.5740       131.0435      -45.74945      -73.62112
       155.5179       62.75140       76.86841       555.4420       666.7067
       509.7078       475.0707       162.4291      -58.87256       319.3265
       631.9517       468.2393       413.7646       538.0474       599.9603
       419.5386       85.83226      -68.20361      -109.9042      -295.8006
      -165.5657       352.5809       457.9195       307.4065       373.7441
       506.2207       708.2957       858.4291       533.8489      -122.9710
      -273.5851      -158.6310      -77.58780       168.2356       131.1614
      -200.5634      -199.4100       66.63135       281.6876       463.4479
       560.3507       388.9196       171.1369       55.35931       21.56201
       191.7582       381.5705       122.6544      -12.27258       303.6333
       522.9003       493.7185       277.7328       37.44632      -70.69144
      -56.76990       37.41255       29.51286      -47.67221       59.39398
       227.0502       154.8757       276.0564       519.5771       416.8078
       217.9588       84.62860       96.37366       236.1740       163.5046
       57.86255       87.04730       155.8093       297.3248       415.2459
       310.6356       1.031448      -53.06799       235.1095       385.2998
       336.8494       289.4432       137.4404      -1.449188       101.4753
       294.6398       200.5802      -65.92032       66.07416       172.7416
       74.67084       155.1513       153.6807       52.97913       140.3883
       319.6226       424.5914       435.1754       317.5450       55.89001
      -257.5753      -375.9607      -180.9325       153.1843       368.7390
       162.9146      -93.62079       89.82751       135.5194      -12.75830
       85.60278       183.4968       264.9791       287.6707       238.1475
       223.3998       129.8662       106.5923       110.8393       94.86646
       272.1047       420.8293       224.6179      -124.1230      -283.1521
      -106.3174       183.9158       148.5278       35.78387       81.05173
      -29.56018      -272.7097      -297.0726       64.87854       303.3829
       100.8502       41.26431      -4.886597      -270.0633      -271.6491
      -81.06177       45.76779       81.89625     -0.1983337       40.95642
       213.7405       162.2778       1.746063      -89.04831      -64.10521
      -52.53256       27.20226       101.2680      -115.0474      -224.4698
      -67.14178       132.2094       161.3887      -26.04721      -95.39624
      -205.9048      -294.7201      -104.5394       67.28825       47.23043
       24.98175      -39.96973      -169.7458      -20.13611       289.1041
       138.6448      -182.7437      -120.8109      -34.31287      -176.5535
      -245.6479      -173.5497      -205.2061      -159.5370       112.1168
       126.6381      -204.1877      -330.8019      -183.0834      -304.3702
      -391.3299      -190.7419      -66.31856      -64.57082       26.86836
       84.44580      -217.0542      -461.4105      -407.7825      -470.0195
      -465.8046      -103.1041       59.86475      -194.1717      -320.6769
      -243.6008      -202.7878      -265.2615      -420.9930      -395.9990
      -245.1864      -160.6760      -44.07874      -40.45111      -174.9750
      -175.1403      -58.86139      -37.97479      -90.19775      -170.1319
      -275.0037      -407.8638      -405.1570      -234.2498      -232.8931
      -359.1670      -381.4771      -501.9584      -518.5586      -345.1500
      -299.6517      -182.3112      -26.94409      -147.0142      -357.6653
      -446.0568      -409.3401      -388.4496      -414.2739      -417.5137
      -466.6991      -559.6005      -503.3864      -337.4633      -348.5793
      -509.8333      -510.0674      -419.7639      -470.0557      -544.3185
      -553.5225      -557.0918      -529.1365      -425.4811      -414.5144
      -660.6616      -742.9229      -522.4271      -356.2079      -378.4725
      -478.2056      -486.5813      -442.4424      -470.3031      -499.1409
      -490.6226      -450.7749      -392.4305      -371.7827      -417.8362
      -566.9976      -722.1050      -687.3436      -512.2522      -386.2374
      -387.4849      -421.4309      -389.0773      -316.2014      -284.2921
      -261.6841      -198.0242      -213.5742      -303.8705      -223.2404
