     0.02500000      -894.1047       1292.908      -12345.00      -12345.00
      -29.99501       231.3800      -33.42000      -12345.00      -12345.00
       0.000000       24.80000      -12345.00      -12345.00      -12345.00
      -12345.00      -12345.00      -12345.00      -12345.00      -12345.00
      -12345.00      -12345.00      -12345.00      -12345.00      -12345.00
      -12345.00      -12345.00      -12345.00      -12345.00      -12345.00
      -12345.00      -29.95960      -69.63990       5051.000       0.000000
      -31.37200      -68.11800       0.000000       97800.00       0.000000
      -12345.00      -12345.00      -12345.00      -12345.00      -12345.00
      -12345.00      -12345.00      -12345.00      -12345.00      -12345.00
       213.9844       316.6434       137.4158       1.923911      -12345.00
      -12345.00     0.01339897       0.000000       0.000000      -12345.00
      -12345.00      -12345.00      -12345.00      -12345.00      -12345.00
      -12345.00      -12345.00      -12345.00      -12345.00      -12345.00
      2008       244         6        45        38
       820         6    -12345    -12345     10456
    -12345    -12345    -12345    -12345    -12345
         1         7        13    -12345    -12345
    -12345    -12345    -12345    -12345    -12345
    -12345    -12345    -12345    -12345    -12345
    -12345    -12345    -12345    -12345    -12345
         1         1         1         1         1
CORT    -12345          
        -12345  -12345  
-12345  -12345  -12345  
-12345  -12345  -12345  
-12345  -12345  -12345  
-12345  -12345  -12345  
-12345  -12345  BHZ     
ZL      -12345  -12345  
[...]
      -208.4943      -204.4570      -204.7742      -204.7111      -204.9504
      -199.4650      -195.5951      -189.9763      -188.5203      -182.1809
      -182.8892      -173.1725      -164.8609      -157.6284      -152.0143
      -141.1734      -142.3651      -130.5006      -119.2404      -108.3463
      -104.3732      -92.62692      -86.80527      -76.19214      -72.49934
      -65.46111      -57.73053      -44.78130      -46.05420      -42.30594
      -33.31685      -25.27909      -26.34691      -9.933067      -5.799363
      -4.002484     -0.2470551       15.28627       20.15813       32.83626
       46.48917       53.72006       53.11481       65.91884       70.27438
       79.08258       83.55933       92.75720       98.28479       114.4344
       121.6420       129.5272       135.6583       147.6299       152.8477
       168.0661       177.8883       181.3766       191.2494       213.8087
       225.1793       234.1780       244.0601       250.2012       258.0541
       269.0763       276.3452       288.5134       303.8922       313.3549
       319.4532       332.2490       342.4167       346.8042       360.3315
       372.8743       376.1334       385.6798       394.2172       401.7129
       410.2188       420.9438       417.6079       422.6260       426.3719
       428.2700       433.2498       447.3861       451.7506       451.7454
       448.8879       452.8311       447.3770       450.3367       453.1759
       457.4819       454.7089       461.6917       454.5039       450.2468
       447.8112       447.8368       442.9209       445.1019       437.0303
       441.6456       438.0913       431.0842       424.4618       422.1919
       409.3416       404.5236       400.3589       394.0970       383.9546
       378.5325       367.1521       356.1647       348.1503       334.2985
       322.9689       314.9374       304.6460       293.3304       286.9712
       274.3154       258.4484       246.0336       237.7425       227.8136
       217.9402       206.8129       194.0651       183.8793       181.3250
       168.9295       155.5575       145.9311       128.3501       112.0148
       110.0453       99.45505       91.95499       84.25522       68.88091
       47.76257       38.60999       29.21017       21.05290       8.837111
      0.3307190      -16.93338      -29.14049      -43.23373      -53.36349
      -66.41385      -68.08939      -80.23581      -96.56091      -110.5514
      -118.6531      -131.5826      -138.5938      -155.5827      -165.4744
      -177.2003      -189.2009      -199.1349      -198.1183      -211.7051
      -222.3959      -229.6202      -240.8566      -259.1160      -266.7699
      -279.1358      -287.9600      -293.5814      -293.8458      -308.2675
      -321.9835      -330.4657      -340.9065      -351.0928      -348.5261
      -352.3752      -356.7520      -364.6577      -377.3572      -388.2988
      -390.8391      -392.8594      -396.1270      -400.4637      -406.3765
      -419.8516      -428.9172      -433.2197      -433.9238      -436.2483
      -435.6023      -440.8499      -447.7288      -453.5037      -459.1951
      -461.6724      -459.7404      -460.7825      -461.1978      -462.9910
      -464.7134      -463.4340      -457.2773      -454.8994      -450.2269
      -448.3655      -452.5886      -451.3053      -443.4677      -441.4028
      -443.7068      -440.6519      -435.8461      -431.8523      -427.1565
      -421.7598      -421.4580      -411.2334      -399.4323      -396.8660
      -392.8323      -387.0861      -388.4550      -379.5509      -363.7368
      -356.0642      -351.2792      -338.6884      -330.9240      -322.4164
      -311.2738      -300.2621      -292.8707      -278.6024      -262.4794
      -263.2892      -260.5115      -251.0556      -240.1196      -225.8765
      -213.3168      -209.2228      -199.3617      -189.3683      -176.8149
      -167.7351      -153.9855      -147.4080      -133.8754      -122.3477
      -114.8062      -105.1973      -87.45549      -75.91618      -62.62161
      -51.11566      -38.01094      -29.26454      -17.40780      -9.666327
       2.473492       17.32359       29.47592       36.74858       50.26746
       64.03223       76.25055       82.88113       94.89319       106.1066
       119.5204       133.3729       141.5974       147.7673       161.7968
       173.8525       185.4559       199.3416       206.5024       210.6461
       218.1222       225.6656       237.4653       250.9348       261.8293
       272.2283       283.1387       290.2270       294.6185       302.2175
       316.3844       324.1695       332.3185       339.1970       345.7928
       352.5564       366.0781       373.2433       378.5112       382.6990
       387.3350       391.1840       400.2997       405.6499       410.1053
       417.2930       422.9742       425.6064       431.1160       428.6218
       423.9706       427.1300       434.3510       432.6857       434.8921
       437.6545       436.8591       429.8988       434.0208       432.6884
       426.0265       421.5953       421.6511       414.1086       414.6526
       411.3733       412.3215       411.6586       412.3915       402.1221
       400.6674       391.6567       388.5760       386.8650       391.8010
       382.6738       385.9154       380.7102       374.0349       371.4437
       379.9749       366.0222       363.7870       360.1726       350.2888
       336.1206       338.8937       324.0491       315.7634       313.1888
       308.2896       291.7157       286.2828       274.5712       266.0798
       257.2788       246.0895       225.6578       219.0991       209.3491
       195.8071       183.2842       176.6543       159.7321       150.3391
       137.5650       122.8444       109.3765       106.5756       89.00610
       78.13306       67.28218       54.72664       47.94307       43.22968
       25.49019       13.21467       7.268773    -0.02416992      -13.43522
      -21.34293      -31.01704      -40.39055      -45.29205      -45.97745
      -57.89011      -68.56009      -75.14658      -81.61685      -90.57986
      -96.16129      -101.6241      -103.7465      -108.8508      -115.4502
      -120.7010      -120.4034      -126.4598      -129.8537      -130.4644
      -131.4533      -138.8599      -135.7501      -133.2441      -135.9426
      -135.4976      -137.0145      -141.9600      -140.4723      -145.3538
      -150.5295      -154.0640      -155.1413      -157.6520      -161.0312
      -166.8317      -170.0066      -172.4448      -172.5806      -184.4310
      -193.1814      -195.5715      -197.8102      -199.7204      -200.9712
      -209.5038      -213.8658      -209.7662      -215.3362      -225.4899
      -227.6893      -230.0720      -240.2236      -245.6560      -246.8062
      -254.8883      -263.5962      -260.5649      -266.1750      -277.5167
      -278.3748      -280.5789      -287.2828      -288.5024      -291.7648
      -297.2871      -302.8990      -304.5215      -303.7678      -306.6261
      -302.6722      -307.1069      -309.5213      -310.6093      -312.7826
      -313.1783      -310.6047      -316.3551      -319.0504      -320.4520
      -320.6459      -323.0392      -319.6210      -324.7017      -331.1729
      -332.3273      -330.7333      -332.5610      -325.3525      -327.9429
      -332.6549      -334.1252      -329.9138      -334.3608      -331.3014
      -326.8939      -321.6270      -316.4052      -314.0526      -320.7430
      -320.2190      -317.2178      -311.8743      -303.6237      -293.2621
      -294.1410      -295.1418      -291.1326      -290.2551      -292.6467
      -285.9316      -286.1858      -287.6710      -279.7363      -267.8658
      -265.9097      -267.9681      -270.0478      -265.9531      -260.5509
      -260.1226      -257.5525      -244.3369      -230.7369      -223.8881
      -223.0973      -226.5804      -236.5514      -227.5118      -211.4515
      -205.6558      -195.2665      -186.7899      -186.6895      -187.3628
      -185.5822      -185.3765      -178.4286      -161.3549      -152.5901
      -148.5195      -136.5352      -135.1705      -138.4327      -125.5733
      -110.8209      -104.1229      -91.69244      -78.86172      -70.16069
      -61.39754      -48.74638      -39.45134      -26.78517      -14.33976
     -0.2926025       10.35647       25.80949       39.18953       47.35532
       54.39090       64.21846       78.34720       97.60504       107.5531
       114.7025       125.8329       132.4156       140.7333       160.7770
       171.7000       173.8796       189.3830       211.4658       221.2329
       232.9986       247.6987       253.2713       262.1221       278.7087
       289.1399       303.4345       317.3788       329.4214       341.9161
       356.2822       355.7791       363.0444       377.1079       391.0134
       398.1669       415.0416       415.5995       414.6410       424.5143
       439.5308       437.8624       442.2305       447.1516       453.4033
       459.0435       466.7749       464.3230       467.1976       474.1162
       478.3915       476.8992       477.2615       467.3179       466.6918
       469.2089       472.6389       466.5977       466.2408       462.7640
       458.1631       455.3608       456.4280       446.1501       445.0486
       440.9052       442.6161       439.1182       438.9550       429.3384
       427.2981       423.5272       423.5544       421.3270       426.7727
       419.5813       415.1174       416.6598       421.4811       412.9221
       411.8314       405.4563       401.4684       399.3857       402.6517
       393.3079       394.3521       385.1777       381.4290       378.3878
       379.8805       367.0969       368.9894       368.4568       369.0555
       361.5875       360.0608       341.0697       336.6238       335.8373
       331.2214       314.4628       306.5831       291.1586       284.7146
       269.5935       256.9609       236.3484       227.5151       211.1941
       198.5464       180.8483       164.7865       141.5018       128.1086
       106.4257       87.84142       70.16989       57.13320       33.70991
       17.39203      -1.482979      -20.84625      -39.64832      -55.00259
      -80.17587      -101.2733      -117.8425      -136.1687      -158.6552
      -177.6168      -203.2701      -221.8724      -231.3968      -250.0070
      -280.8118      -297.4326      -316.9009      -337.2087      -347.2910
      -355.1401      -379.8486      -389.5044      -394.7717      -409.2616
      -428.7577      -436.5540      -457.0630      -466.5621      -470.2925
      -477.9203      -489.6858      -488.8282      -499.6504      -518.4358
      -533.6160      -536.1427      -543.7432      -542.6436      -548.7490
      -558.7205      -562.3169      -563.5122      -576.4539      -576.3147
      -578.4580      -579.6473      -579.5391      -575.1201      -582.4845
      -580.2206      -578.9102      -584.0796      -591.8538      -583.4949
      -579.2527      -572.7301      -568.8286      -569.1366      -576.0205
      -565.6675      -557.6937      -549.9802      -539.9460      -528.7788
      -529.0819      -522.2312      -516.7305      -504.5784      -493.1156
      -478.6405      -475.6689      -466.3954      -450.9734      -433.1252
      -424.3264      -412.5349      -406.0767      -389.9341      -368.9075
      -349.7152      -341.3355      -323.7745      -315.2475      -301.6440
      -285.5771      -263.7396      -251.0240      -228.7772      -209.9435
      -198.7453      -193.3668      -175.1364      -166.9381      -157.6511
      -144.4285      -119.9968      -102.9273      -85.24884      -76.91626
      -67.12923      -63.88873      -51.05547      -40.08881      -20.55213
      -6.843414       11.20862       24.56111       34.49269       40.43243
       58.74245       63.79730       63.24219       66.01102       82.71771
       93.86627       105.0091       106.2867       107.3729       117.0479
       125.9547       121.5887       128.3073       144.5760       153.4221
       150.4491       153.3222       158.6704       159.9208       161.0220
       163.1566       170.5227       185.3668       200.9574       208.2269
       211.7850       206.0159       199.7071       209.9783       222.5551
       228.8903       243.3871       252.9130       251.7755       251.4598
       257.6382       270.8330       324.7212       426.3746       562.9973
       761.2607       842.4175       536.2277       34.69702      -336.6902
      -642.1482      -606.6906       142.2502       1009.573       1255.334
       639.8823      -90.05371       243.6016       727.7050       255.0404
       165.3433       968.0590       771.0923     -0.7392578       597.9583
       1142.760       362.5466      -445.1454      -360.1215       403.0913
       885.2045       597.1472      -27.60303       192.1934       1292.908
       1169.710       327.5646       335.3165       243.5428       16.63181
      0.5402832       258.8523       704.6931       603.9397       456.6504
       601.5127       371.3735       186.0469       210.7475       71.84985
       280.6409       739.7656       873.2491       617.2040       162.2467
      -172.6059      -25.91919       310.4641       405.6882       530.3005
       498.7762       109.1620       116.2388       749.7002       743.3967
      -166.9110      -563.6257       144.3445       884.6279       591.7585
       96.79919      -127.9469      -178.3245       373.4127       662.5510
       175.3331      -10.41260       90.76990       160.9266       399.8833
       430.9185       203.0614      -87.52041      -70.75291       117.7678
      -13.29991       14.73462       171.6129       161.3134       140.5633
       103.9134       114.1425       104.0358      -2.119568      -127.4142
      -244.5561       119.1409       478.8592       23.42761      -172.4078
       202.3924       131.1252      -55.64240       160.5573       174.2916
      -268.9965      -299.0941       198.8347       33.64575      -433.6760
      -209.2263       210.9984       149.4875      -164.8320      -301.1626
      -104.2371       37.10797      -220.1126      -129.2394       116.8560
      -228.0425      -119.0292      -8.426880      -184.3025      -27.25943
      -116.6740      -168.7083      -263.2477      -123.2882       23.57593
      -327.1946      -515.8082      -394.6724      -312.6027      -279.9104
      -75.04724      -235.8357      -370.4393      -264.5623      -353.7246
      -405.0358      -306.2700      -56.68970      -117.2670      -535.6786
      -517.4016      -179.6527      -154.7292      -295.8002      -259.5361
      -437.0276      -617.0807      -369.2764      -256.0037      -328.9325
      -434.1453      -470.4355      -457.5784      -495.2766      -442.8676
      -278.0728      -378.2338      -632.7957      -379.0607      -118.2451
      -342.8402      -488.4994      -398.6699      -475.2590      -484.9199
      -424.4261      -387.6853      -508.7506      -659.8787      -351.7745
      -280.1610      -534.4391      -502.4194      -422.0135      -433.2577
      -504.6074      -482.2029      -429.7244      -568.7086      -603.7487
      -413.1467      -323.6547      -451.4795      -605.3123      -584.4880
      -312.7252      -425.4044      -680.0690      -434.3489      -402.7794
      -529.1650      -475.5984      -326.4636      -273.4696      -405.8223
      -451.7000      -409.7128      -520.2267      -534.4167      -341.4716
      -266.3613      -286.7766      -315.5073      -396.5444      -410.5563
      -348.8181      -317.1877      -342.9272      -299.9467      -283.4724
      -264.2942      -250.7096      -280.6708      -260.9682      -168.5443
      -46.03809      -124.1384      -346.4436      -271.7981      -35.72308
      -36.04973      -96.47565       28.27582      -69.37079      -204.0063
      -55.21991       62.68637       33.68127      -75.85857      -22.20554
       116.3863       28.70923       100.2997       124.4719      -38.29431
       91.72455       221.7264       127.7343       157.5892       282.1041
       292.3955       283.7635       267.0258       226.5535       304.0657
       244.5111       176.3942       305.9973       317.2031       321.9651
       389.8914       285.7070       233.5516       346.7881       497.3760
       514.2463       348.2140       401.5305       644.8423       682.0066
       576.1418       514.1128       575.1890       618.1289       499.2146
       421.4628       526.0071       588.8333       576.3491       635.9547
       647.6238       610.6987       667.2520       676.7906       574.9374
       610.9194       740.6067       703.9205       646.8557       664.6223
       742.3345       655.6372       584.6128       685.6636       656.7167
       542.1521       597.6041       666.0012       714.2817       685.1692
       550.1597       539.6104       639.9386       665.6580       576.7048
       525.4753       532.1196       521.7157       583.2206       524.7330
       479.3376       539.7668       504.9563       418.1296       437.3680
       543.3700       446.7587       249.9296       357.2244       358.4446
       230.9822       384.0007       471.9294       346.8248       280.9932
       185.4985       257.6187       400.2808       269.0965       97.08411
       158.1392       248.5155       120.3759      -25.82513       10.74226
       71.25011       41.96077      -23.08167       80.67801       140.4134
       74.38754       68.19362       55.20016      -75.35535      -150.9932
       32.49416       46.67191      -143.7990      -76.05121      -32.12711
      -119.9674      -108.6399      -140.0206      -195.3028      -124.9116
      -191.0203      -271.4157      -216.2889      -168.0975      -178.6306
      -253.3466      -305.2408      -225.9697      -232.5201      -306.0239
      -307.3156      -281.9850      -305.4546      -407.4656      -392.3060
      -250.6146      -334.2932      -472.4462      -341.2322      -278.6327
      -434.0469      -483.2297      -460.4443      -510.2053      -566.2697
      -438.7825      -359.7109      -476.0016      -605.9027      -505.3660
      -395.4292      -456.6942      -417.9751      -433.7927      -527.5105
      -491.6322      -482.1283      -517.0010      -558.0039      -532.8070
      -533.5668      -496.6791      -433.8397      -505.9490      -629.9104
