     0.02500000      -2160.374       3690.115      -12345.00      -12345.00
      -30.01004       218.9399      -20.66000      -12345.00      -12345.00
       0.000000       15.63000      -12345.00      -12345.00      -12345.00
      -12345.00      -12345.00      -12345.00      -12345.00      -12345.00
      -12345.00      -12345.00      -12345.00      -12345.00      -12345.00
      -12345.00      -12345.00      -12345.00      -12345.00      -12345.00
      -12345.00      -30.94920      -69.08270       3184.000       0.000000
      -31.37200      -68.11800       0.000000       97800.00       0.000000
      -12345.00      -12345.00      -12345.00      -12345.00      -12345.00
      -12345.00      -12345.00      -12345.00      -12345.00      -12345.00
       103.2351       296.7565       117.2532      0.9282003      -12345.00
      -12345.00     0.03211893       0.000000       90.00000      -12345.00
      -12345.00      -12345.00      -12345.00      -12345.00      -12345.00
      -12345.00      -12345.00      -12345.00      -12345.00      -12345.00
      2008       244         6        45        26
        60         6    -12345    -12345      9959
    -12345    -12345    -12345    -12345    -12345
         1         7        13    -12345    -12345
    -12345    -12345    -12345    -12345    -12345
    -12345    -12345    -12345    -12345    -12345
    -12345    -12345    -12345    -12345    -12345
         1         1         1         1         1
DOCA    -12345          
        -12345  -12345  
-12345  -12345  -12345  
-12345  -12345  -12345  
-12345  -12345  -12345  
-12345  -12345  -12345  
-12345  -12345  BHN     
ZL      -12345  -12345  
[...]
       488.7076       482.1609       478.2035       471.1682       467.1128
       458.6317       452.8610       440.5831       431.2247       420.0181
       408.1615       391.8571       381.2473       365.7659       350.8716
       331.9537       317.2521       298.4939       280.9739       258.5919
       244.6456       223.1318       201.0397       178.6595       161.5811
       137.7397       119.6488       98.01782       76.46616       51.44037
       33.58917       9.943108      -8.833473      -32.07642      -51.65102
      -73.19647      -90.65973      -113.1140      -130.8314      -151.9241
      -167.4165      -186.4136      -203.5200      -223.0845      -238.3622
      -258.7656      -272.0620      -287.2108      -298.3278      -312.4440
      -323.6544      -337.0774      -345.8197      -357.4731      -366.2822
      -380.1357      -389.1019      -397.1084      -400.7118      -407.5865
      -411.1771      -422.0469      -424.2263      -429.2090      -432.1212
      -438.7113      -440.2616      -444.6384      -443.5834      -446.5587
      -444.9949      -448.6414      -448.3074      -449.2599      -444.3983
      -448.0038      -443.5746      -444.0692      -440.0365      -437.1248
      -427.8989      -426.1127      -418.3888      -412.8162      -404.9285
      -403.1371      -392.4836      -384.9628      -378.1251      -369.3943
      -360.2335      -356.0273      -346.4806      -335.3727      -327.4167
      -320.6537      -312.6437      -303.9623      -296.6677      -286.8849
      -275.4178      -266.4799      -260.1713      -249.3525      -239.1968
      -227.6253      -216.0796      -205.3988      -197.2495      -183.2036
      -171.5460      -159.7609      -144.2885      -125.6813      -112.1128
      -98.73788      -83.80611      -68.93860      -53.15517      -36.34071
      -19.46590      -1.458118       14.92116       30.99112       49.96417
       67.83228       86.64935       102.9227       120.7046       136.3688
       153.6176       169.9809       186.1017       202.9342       219.7126
       234.3284       250.6013       267.6202       284.6602       296.3734
       311.0754       327.1979       338.6727       350.0752       363.2749
       373.9818       385.3562       396.0621       405.8147       413.2394
       422.4963       431.7639       438.3928       446.6294       451.8672
       454.9977       458.6925       462.9321       465.2675       468.0385
       469.9829       471.6093       473.4661       474.6830       473.6799
       473.3447       472.5062       473.6864       472.3722       472.4366
       471.1007       470.6208       468.3230       469.7490       465.5546
       462.6967       463.4989       460.8259       451.5695       452.9170
       451.7788       446.7073       441.1990       438.0452       430.7488
       426.9525       419.1123       413.0938       406.3402       402.2094
       394.9200       387.1130       378.0358       371.2716       360.0321
       349.8146       340.5419       332.7084       321.0114       310.6457
       301.6801       295.5757       299.6367       308.4808       290.1025
       265.6583       288.2379       313.0569       206.6125       24.88184
       48.97864       258.3997       309.6701       76.99500      -241.0456
      -282.8371      -47.01831       319.7815       632.0435       383.5381
      -237.5039      -625.3134      -525.8016       28.83392       374.3690
       67.08368      -259.6178      -24.62199       185.1904      -244.5320
      -533.1549      -164.7530       41.90594      -184.0176      -311.7967
      -181.0175       58.70923      -82.83594      -857.9365      -1007.077
      -265.2377       141.5874      -134.3630      -672.3623      -565.7275
      -239.5967      -444.4102      -252.8750      -188.0522      -578.1934
      -533.6899      -449.4244      -489.2380      -512.4536      -494.9561
      -366.7664      -599.2910      -820.3700      -426.5573      -225.6621
      -481.7920      -706.2410      -837.6614      -723.8623      -362.7809
      -332.1862      -424.9473      -577.6382      -843.4574      -583.3276
      -624.6199      -971.3304      -491.9934      -141.9807      -567.0425
      -598.8232      -365.5436      -584.1716      -881.8286      -856.4912
      -595.6074      -464.0341      -416.7166      -324.9092      -370.2368
      -495.5095      -656.0522      -758.7584      -562.9890      -197.2186
      -236.3545      -451.7081      -392.0670      -330.8129      -431.2417
      -428.9542      -373.6423      -415.4087      -580.8120      -572.5483
      -244.2397      -107.3964      -182.3525      -270.7103      -387.3049
      -282.1528      -177.3472      -295.0990      -198.3509       52.63965
      -66.80133      -191.7672      -105.2289      -122.9132      -141.0226
      -72.70062      -85.50372      -147.6359      -51.91263       20.96118
      -36.17488      -93.43253      -17.83362       119.5195      -35.20673
      -157.8258       42.20642       204.1272       181.2977       44.81235
       39.21979       213.2927       279.2521       204.8101       76.18886
      -31.28400       82.43750       286.6745       286.4929       211.0209
       151.0368       70.27191       177.3914       359.2789       365.1087
       270.2957       179.0170       144.3953       186.9032       332.2098
       327.8217       182.0984       221.7307       288.7839       323.4672
       382.6909       407.9047       366.9167       300.7490       306.9061
       262.1849       335.3788       500.3599       440.2172       285.6569
       280.8660       413.0297       425.8669       357.9795       366.2245
       377.0601       347.9729       399.2058       470.6027       360.0468
       260.5452       359.0425       404.3884       370.5850       393.8846
       412.9402       361.2473       335.6825       357.8252       267.5063
       337.2898       475.2288       368.5504       348.3955       383.9443
       375.1478       474.6219       449.8474       285.9825       333.1365
       318.5221       195.0814       279.3862       374.6477       340.1267
       321.2200       282.4756       198.8164       338.6973       506.6516
       395.0110       280.9028       297.0000       378.4016       308.3919
       152.0544       253.2791       401.6959       345.1190       252.7180
       205.7375       304.0842       372.6934       313.6680       316.5620
       299.5005       255.4291       308.2721       321.7503       251.8635
       236.9461       266.8969       317.3020       342.5612       261.2684
       224.1614       185.5325       175.8608       293.9403       349.9598
       258.4122       209.6984       215.6962       258.9537       258.4789
       145.2966       94.27502       215.3108       250.4110       177.4088
       180.7888       159.9275       145.4253       102.6896      -23.47302
       46.83191       206.6966       140.2930      -17.42211       22.33105
       39.08653      -66.51321      -4.770817       17.50974      -28.79304
       51.04703      -30.17398      -103.1520      -106.7165      -207.4862
      -208.2354      -73.92581      -100.1227      -253.1949      -214.8604
      -158.1406      -218.7383      -215.5151      -183.8799      -139.1404
      -176.7084      -313.4991      -309.9490      -216.8357      -248.4359
      -365.7532      -398.0756      -350.4109      -309.1404      -282.0815
      -297.7278      -227.0847      -221.9187      -430.8751      -555.1162
      -423.6609      -304.6587      -317.6389      -360.5380      -426.2739
      -371.2957      -299.4149      -466.0394      -507.2732      -423.7706
      -464.7898      -442.2999      -398.4158      -442.9727      -457.5033
      -443.4176      -466.0054      -402.5442      -413.4406      -568.3224
      -450.0445      -250.6681      -426.2704      -517.8077      -441.4772
      -561.7588      -434.9957      -254.3492      -445.3542      -462.6387
      -388.3673      -453.9557      -448.6318      -410.1893      -274.6477
      -306.3540      -524.2363      -401.7819      -299.3379      -431.9922
      -424.5994      -393.7155      -307.8599      -187.1674      -290.3550
      -369.9564      -335.0032      -437.6371      -391.4081      -188.1320
      -169.8251      -249.8801      -271.3206      -241.7028      -111.7150
      -89.77191      -213.4818      -239.9623      -213.4750      -228.3533
      -162.5223      -135.0686      -126.5640      -10.74658      -69.49377
      -279.1576      -231.3866      -85.64709      -82.03015      -120.2228
      -135.4688      -7.913712       111.7221      -32.72119      -203.3940
      -220.0372      -2.160706       80.10013      -124.7841      -91.75366
       153.2586       133.1942      -108.1052      -82.91479       61.77956
      -64.85229      -81.07433       71.24567       35.28455      -60.79488
      -24.50079       77.26968       152.4948       130.7300       105.5997
       113.6596       47.73093       4.159973       91.18646       75.72070
       142.6107       255.9303       122.5875       78.35059       212.7311
       217.1565       215.3018       237.8627       207.2697       200.0665
       253.7258       326.6943       358.7502       315.3696       282.9704
       245.0510       270.8182       394.4860       452.6783       362.6079
       244.5916       257.9298       415.5084       413.5808       316.4972
       309.7860       380.0964       527.9718       538.6166       387.3224
       354.8940       443.7534       395.7388       325.4274       365.6860
       399.4451       546.0677       532.1569       317.5302       385.8033
       446.0916       387.2438       397.2823       318.1050       348.3224
       427.3699       339.2131       383.0999       578.8489       536.5774
       347.2457       270.5491       270.0775       324.0726       330.7172
       335.9646       402.6254       347.1231       201.2385       222.0249
       339.0507       360.6891       325.9373       223.5445       185.3892
       255.1637       238.9037       222.4998       193.7551       69.13342
      -18.26495       116.7366       308.7775       237.7034       2.886692
      -60.25247       62.18033       143.0886       58.93557      -5.793785
       24.22887       47.80273       12.43219      -94.01099      -152.1141
      -23.03450       87.67319      -22.00607      -102.9452      -31.07632
      -19.69983      -44.18387      -81.91724      -142.3860      -76.13797
       20.68850      -3.437012      -113.5344      -182.8830      -138.1542
      -166.0091      -214.3290      -231.0854      -208.4976      -175.3549
      -187.3327      -210.6122      -178.2277      -108.0282      -209.2345
      -329.6749      -233.6208      -151.0273      -183.4695      -202.0718
      -96.47461      -111.3835      -344.2699      -405.8917      -321.1196
      -287.8147      -258.4670      -167.5483      -122.1936      -269.7644
      -373.8079      -275.1929      -224.0764      -320.4467      -379.2556
      -294.1279      -182.9650      -178.0432      -237.1315      -288.1733
      -285.2531      -297.8411      -238.8821      -122.8118      -151.1648
      -164.7998      -207.3961      -373.0472      -464.6785      -406.8271
      -220.5234      -104.6417      -170.2358      -163.7482      -126.0851
      -195.3401      -258.1844      -201.4693      -164.4945      -247.7885
      -250.5994      -209.4466      -145.6864      -25.58766      -26.27356
      -154.8679      -269.9706      -295.3885      -291.5016      -260.9555
      -132.6537      -57.22717      -164.3077      -234.7434      -189.3857
      -199.3077      -150.7759      -129.1055      -215.5477      -256.1035
      -250.5741      -268.4889      -203.5505      -65.26794      -78.36526
      -154.9622      -161.3159      -165.8430      -127.2535      -9.196331
       30.98566      -100.4470      -221.2531      -237.5513      -180.3701
       2.020111       76.80447       15.74687       16.06161       46.50662
       67.75061      -70.07300      -292.9364      -255.4532      -144.9963
      -95.54276       39.32684       96.58784       47.61102       70.66003
       202.8345       284.6647       142.4324      -38.33667      -45.41206
      -14.96357       5.177979       98.51172       218.4462       252.1560
       210.7572       192.8575       210.1809       280.0029       371.6747
       324.8600       201.8693       33.21431      -107.9099       46.71582
       305.3955       430.5786       479.6817       347.8555      -50.80026
      -232.0888       115.9130       433.6355       464.6222       349.8661
       181.8926       263.9253       655.8970       1214.267       1813.252
       2356.004       2709.473       2578.675       1866.286       899.0341
      -12.75879      -735.1553      -1160.559      -1465.433      -1538.891
      -836.4912       762.7344       2657.462       3690.115       3365.209
       2550.267       1441.865      -135.8628      -1370.784      -1907.074
      -1796.631      -968.8498      -246.3961      -89.24951      -316.5803
      -913.1162      -1216.952      -965.5101      -527.7512       139.5442
       310.8398      -345.7951      -410.3369       1097.844       2783.750
       2496.989       440.0420      -1153.917      -1221.257      -497.8866
      -101.7488      -404.7817      -660.8149      -452.4559      -106.3494
       448.0864       794.2869       325.5566      -333.2224      -523.8647
      -693.7686      -1006.695      -632.3527       260.6731       521.8203
       325.7068       217.4606      -38.91650      -438.4940      -606.1971
      -471.5421      -399.9708      -537.6160      -231.2676       479.8556
       428.6423      -301.0623      -801.4900      -828.5844      -350.8629
       199.5787       70.48975      -890.8335      -1948.170      -2160.374
      -1485.420      -513.7866       136.7405       220.4637       312.0801
       197.6094      -595.8525      -1049.895      -584.1074      -77.18591
      -307.4293      -718.9192      -524.1812      -195.8770      -520.6758
      -1088.635      -1329.770      -1391.127      -1056.577      -572.1226
      -445.0599      -467.7563      -342.7019       125.2457       411.7539
      -75.88428      -700.5389      -761.0086      -378.3461      -226.5085
      -519.8987      -779.8577      -837.7627      -655.0969      -198.0828
       302.3180       508.4364       220.2058      -21.26111      -35.13818
      -202.9888      -249.6832      -113.4480      -245.9590      -687.2520
      -1015.718      -642.6542       172.0625       457.3307       110.5092
      -39.32617       519.3235       1163.490       1275.557       834.2402
       243.9422       78.46104       49.47556       60.90991       241.8285
       128.0313       32.07532       426.5343       664.1027       449.3217
       173.6921       26.31778       48.91394       233.7402       375.4698
       360.0586       324.5742       478.0305       781.9558       1112.918
       1199.753       791.7358       238.1357      -12.36685       61.90662
       159.3593       195.7494       358.6827       545.0007       551.0491
       405.5450       483.1506       764.8767       724.0840       285.9368
      -77.21887       73.50757       290.9885       35.09418      -245.0246
      -162.6520       117.2397       494.4329       732.8958       782.0608
       593.0751       204.6225       179.0857       468.1046       478.4727
       405.2332       563.9089       599.5066       661.8774       897.2314
       843.3218       764.6017       662.1724       37.76196      -423.4059
      -256.7900      -30.01599       185.0076       278.1330       23.45299
      -19.80763       100.6035       16.27570       94.00079       289.7044
       139.0253      -29.60358       251.1560       392.9014       358.3979
       562.7787       484.8622       218.3901       256.1144       318.0266
       140.5865      -114.1617      -173.7210      -58.68960      -2.334656
       119.2701       286.6393       59.94299      -344.5748      -463.3353
      -433.0964      -459.0610      -566.6545      -541.9485      -413.9258
      -343.8312      -146.7449       22.98926      -306.4224      -553.8716
      -185.9571       96.77872       92.00964       199.2849       231.6292
       30.61401      -238.3676      -292.9686      -214.0780      -233.6758
      -230.1263      -153.4712      -194.0886      -407.1731      -538.5264
      -423.8102      -387.6882      -553.8513      -703.7620      -765.6934
      -644.8199      -481.3098      -455.3638      -358.1340      -346.8259
      -418.8816      -411.3822      -476.2690      -687.1539      -751.7838
      -457.1786      -129.7655      -65.06120      -16.78015       67.59494
      -68.24493      -273.1780      -248.4299      -169.5465      -337.9167
      -561.0627      -557.9980      -538.7335      -553.5341      -395.4243
      -284.6583      -219.1882      -117.5758       13.96207       17.75146
      -319.9043      -513.8419      -388.5701      -163.8655       8.229370
      -149.1443      -401.5492      -331.4702      -137.0657      -61.02179
       175.3076       400.0906       236.6764      -10.84180      -127.3484
      -117.1048      -36.87494      -101.9502      -297.6861      -173.0547
       117.7597       22.39685      -197.1165      -163.9943       3.369522
       57.19644       36.60144       143.4665       303.3177       245.0763
      -37.65370      -22.56860       159.5493       78.67372       43.55448
       35.11050      -90.45733      -50.37189       201.6992       351.7306
       324.9309       182.2644       74.10229       206.3187       298.8365
       109.0185      -63.23557       18.35266       99.43228       61.07349
       113.5090       165.4557       134.1329       210.7227       352.8312
       304.4763       74.72531      -62.15891       54.45575       258.4329
       377.1838       356.1289       373.9246       337.8214       164.1992
       129.8076       179.2013       144.9242       166.8158       263.1094
       315.4827       176.4353       12.25519       89.92822       303.5793
       373.2389       349.3992       405.5138       424.5024       358.5952
       466.6456       482.1154       300.2194       186.0212       156.2556
       199.8406       355.3303       379.7968       239.2617       118.1612
       21.98639      -120.0789      -176.7307      -111.9488      -77.09969
