     0.02500000      -3592.748       4542.968      -12345.00      -12345.00
      -30.01004       218.9399      -20.66000      -12345.00      -12345.00
       0.000000       15.63000      -12345.00      -12345.00      -12345.00
      -12345.00      -12345.00      -12345.00      -12345.00      -12345.00
      -12345.00      -12345.00      -12345.00      -12345.00      -12345.00
      -12345.00      -12345.00      -12345.00      -12345.00      -12345.00
      -12345.00      -30.94920      -69.08270       3184.000       0.000000
      -31.37200      -68.11800       0.000000       97800.00       0.000000
      -12345.00      -12345.00      -12345.00      -12345.00      -12345.00
      -12345.00      -12345.00      -12345.00      -12345.00      -12345.00
       103.2351       296.7565       117.2532      0.9282003      -12345.00
      -12345.00    -0.04812118       90.00000       90.00000      -12345.00
      -12345.00      -12345.00      -12345.00      -12345.00      -12345.00
      -12345.00      -12345.00      -12345.00      -12345.00      -12345.00
      2008       244         6        45        26
        60         6    -12345    -12345      9959
    -12345    -12345    -12345    -12345    -12345
         1         7        13    -12345    -12345
    -12345    -12345    -12345    -12345    -12345
    -12345    -12345    -12345    -12345    -12345
    -12345    -12345    -12345    -12345    -12345
         1         1         1         1         1
DOCA    -12345          
        -12345  -12345  
-12345  -12345  -12345  
-12345  -12345  -12345  
-12345  -12345  -12345  
-12345  -12345  -12345  
-12345  -12345  BHE     
ZL      -12345  -12345  
[...]
       97.17902       104.6525       118.8145       124.2888       131.5687
       145.1830       153.4469       154.8074       166.3776       176.7665
       181.1234       185.8909       196.6339       205.6779       210.7786
       216.8978       226.1344       232.7991       239.1753       247.3374
       250.7996       257.7238       264.8916       270.2168       275.7523
       277.8077       279.8344       285.1395       286.3143       285.5103
       287.1178       286.5634       287.1938       285.3882       283.7281
       282.0865       279.4393       270.0592       265.6375       265.6716
       261.6826       252.7906       251.2526       247.3122       236.7549
       231.3622       226.1551       221.7271       213.3082       207.4199
       203.2806       199.6802       193.1776       187.2579       181.6523
       180.7617       176.2856       168.5210       163.8793       160.1693
       151.9178       147.1045       142.4619       134.8718       129.0094
       124.6368       119.1130       111.1989       107.3522       97.40039
       88.56369       85.51640       81.82385       74.97348       70.88535
       67.79570       62.42410       53.71954       51.21138       48.55082
       43.19035       40.09665       41.87679       39.42413       37.85796
       38.15094       37.20029       34.35963       37.61093       37.02705
       38.29560       38.68410       41.49989       40.73233       44.80499
       47.73024       52.51988       50.30260       52.27151       53.40469
       51.82143       50.05309       53.54373       53.13269       52.30084
       51.94882       52.57974       50.43361       49.86441       49.46841
       47.73897       45.76624       48.37413       46.25897       43.08040
       43.67656       42.47649       39.93417       41.11972       43.36975
       44.36397       43.02586       41.86957       43.52121       45.24240
       46.79704       46.73897       47.34308       46.70651       45.98195
       45.63777       44.24095       39.26508       37.29858       38.25529
       36.69530       32.13673       33.10715       33.18398       29.75038
       25.97296       24.88282       19.78841       17.49124       15.14014
       16.45780       14.70553       15.18854       13.15095       13.47055
       10.48132       11.71712       7.526962       8.807570       7.785904
       12.52620       7.761549       7.519428       8.517586       10.83453
       8.587463       15.20309       12.66433       16.68227       18.37750
       23.20969       23.69852       29.05896       30.97093       36.37514
       35.74770       40.79184       42.58717       44.11827       47.03143
       52.45306       53.81496       56.56721       55.61520       55.31607
       53.14043       49.03729       23.96647       7.159111       14.89840
       7.128479      -50.24713      -55.51123       91.64764       220.0201
       88.00061      -81.23483      -103.1163       157.5812       507.7150
       575.9783       308.2996      -501.0200      -944.5880      -334.5515
       548.8975       1013.929       389.4412      -400.0383      -635.5931
      -289.9072       169.8155      -8.882935       138.0366       562.9769
       384.3196      -167.7598      -648.7513      -600.7361       356.8334
       759.5428       100.6065      -34.28210      -181.0945      -215.2290
      -166.4980      -260.6249       145.7853       149.0539       105.0803
       100.3922      -187.8346      -211.4003      -174.3684      -269.6044
      -173.8858       15.50246       5.793274       186.1951      -70.09741
      -346.0084      -167.8165      -320.7057      -492.5346      -317.5247
      -29.65558       302.0394       55.37329      -628.3884      -421.7835
      -128.3279      -209.7672      -223.7411      -461.3861      -127.5941
       287.2869       81.82971      -404.2681      -588.2570      -428.4538
      -280.7577      -248.0547      -338.6191      -224.1112      -317.0215
      -427.7349      -352.2452      -372.9316      -486.3480      -301.0974
       49.27487      -46.62500      -302.4402      -442.0610      -272.3961
      -235.9517      -399.0557      -328.6769      -325.3177      -295.4601
      -151.5782      -337.0767      -341.2943      -319.5588      -479.4802
      -407.5660      -362.8095      -148.7803      -39.93311      -376.5060
      -348.3572      -32.83667      -106.7159      -306.8065      -280.5189
      -317.4150      -366.9795      -199.4505      -38.31125      -95.60046
      -158.4393      -235.8752      -294.0422      -229.9369      -159.4673
      -50.59326      -181.4133      -352.9558      -196.0409      -30.23801
       56.93994      -40.51208      -173.1622      -130.0859      -17.95282
      -2.767792       69.09864       36.96603      -146.9432      -125.9120
      -4.687851      -48.53650      -109.3806      -42.87822      -12.30229
      -3.149918       9.806961       67.90386       58.61748      -27.23716
      -26.88019       40.93469       228.5146       237.6927       184.7606
       136.0054       29.94625       46.46230       14.57574       59.30942
       144.4117       115.4449       150.4186       240.6311       225.7460
       130.0886       131.4564       122.6125       157.8782       176.1368
       226.2650       309.3903       372.1163       252.6658       14.65387
       45.27838       156.9578       179.3977       265.7407       381.3116
       373.3373       215.2238       86.90979       188.7833       204.3923
       150.7961       258.8253       326.6457       248.2832       182.6108
       336.3564       429.5370       278.5539       92.80450       160.7697
       245.3588       297.4747       282.1325       133.5387       189.9690
       263.0117       149.6360       112.8799       201.7817       214.8264
       200.4844       207.7102       157.3003       187.8282       252.8927
       192.2127       146.3154       165.2002       147.9895       206.8036
       185.2923       98.43158       148.9454       202.5516       56.65411
      -40.35588       66.74477       59.03912       32.82074       193.6796
       227.0367       69.06415       94.06763       154.4108       168.8361
       153.1800       45.36130       98.84491       138.5864       81.55835
       148.1912       162.1219       89.96179      -19.22396      -71.94568
       19.74164       96.59021       154.3417       208.8680       174.3746
       108.8812       41.46075       127.8175       235.8900       181.3714
       150.5471       138.1119       122.5094       49.07302      -18.38278
       51.29279       178.5515       266.4248       75.18065      -36.09448
       172.1781       244.0899       251.2887       201.4847       113.6412
       155.5438       132.5482       77.85776       38.96771       146.6336
       205.0623       198.8369       213.1549       219.9217       323.6542
       196.3593       109.6310       275.0076       301.1732       161.3282
       126.1016       229.3215       317.2446       411.6290       313.3403
       221.5446       277.5942       305.6948       233.1394       68.88492
       77.02759       204.0056       240.6491       262.9163       190.1115
       65.34186       113.1383       180.9315       184.2413       130.7808
       120.0378       156.0302       201.7304       251.6833       101.2196
      -24.13127      -27.82065       79.39465       213.0394       211.3981
       54.58246      -124.9270      -84.51179      -12.03659      -11.51067
      -74.73116      -26.09486       25.95752      -155.1575      -193.6618
      -186.4180      -164.2713      -93.77031      -83.72827      -48.86279
      -224.0072      -368.5206      -242.4070      -182.6931      -194.1609
      -264.8022      -292.2426      -266.9868      -214.8590      -182.4553
      -154.8082      -255.5283      -503.5765      -420.6260      -244.0172
      -304.4967      -339.8208      -395.8682      -457.5320      -398.0560
      -356.7815      -412.1421      -450.7961      -471.3599      -368.6793
      -296.4851      -405.1851      -398.1582      -408.3405      -429.9082
      -411.4457      -359.2871      -218.7983      -337.1990      -487.6425
      -316.9819      -258.0031      -371.7081      -400.3536      -378.2034
      -449.4412      -436.6215      -287.6582      -322.7478      -401.9059
      -374.3179      -437.4213      -335.4537      -222.8271      -294.8175
      -266.6021      -320.7235      -361.4154      -323.1038      -372.5410
      -321.8997      -297.7870      -308.4083      -291.9186      -329.1846
      -342.8683      -344.3825      -359.3303      -217.1219      -174.3052
      -302.5391      -338.3013      -444.5798      -363.8171      -182.6365
      -322.6799      -382.0319      -210.9470      -255.6577      -410.1115
      -346.9144      -239.0972      -217.6788      -247.4135      -250.0248
      -258.9995      -329.8048      -262.7617      -224.3560      -319.0494
      -266.4189      -131.8107      -110.8039      -219.7216      -244.7112
      -219.5482      -298.0782      -289.0390      -187.0234      -119.6396
      -101.4089      -175.7566      -139.7979       16.44354      -31.49219
      -210.3243      -211.5907      -137.8124      -155.2319      -101.3389
      -176.7090      -153.0353      -91.35101      -212.2602      -107.9167
      -22.33902      -52.25047       49.55859      -109.7912      -206.7221
      -12.60400       59.30371      -4.731812      -43.48378      -98.19582
      -45.70602       92.77545       89.50014       55.36710       23.68637
      -45.16141       44.47418       111.5874       98.27991       120.3971
       73.04559       80.93094       179.0025       111.4730       96.66293
       135.1781       135.8254       242.3811       272.7422       159.1998
       201.3451       356.9359       209.5668       168.3116       321.2001
       333.8460       319.3557       347.8306       433.6224       320.4515
       207.2670       334.5388       481.2848       492.1619       426.9829
       465.7444       545.6018       494.6000       462.4524       445.9285
       459.1730       587.8164       614.3113       518.0326       422.2891
       546.4153       674.7891       644.6191       665.7933       692.6880
       657.1282       654.1411       707.5247       685.2478       668.9917
       700.0439       712.2393       756.8574       744.8625       699.4185
       727.5283       769.6580       674.9098       633.1226       712.8970
       763.3931       838.4858       918.6001       807.1421       742.5356
       785.9380       782.2810       811.7163       769.4070       705.3149
       679.5967       678.6611       720.1042       717.7339       637.3442
       575.1996       585.9482       707.0011       728.2393       566.8389
       488.1935       502.5850       544.7324       605.4851       576.2635
       462.8999       461.3593       561.2690       489.5604       388.0498
       303.6311       280.1113       347.2272       333.3925       312.9482
       219.3565       135.3598       199.1086       256.0279       138.1663
       74.02835       165.8593       135.9213       136.5688       231.0305
       142.0421       6.460587       43.00430       103.0911      -18.51929
      -199.3600      -214.6097      -97.45081       3.249695      -74.08594
      -267.4274      -336.6783      -281.2502      -196.4371      -136.2662
      -147.5175      -227.0977      -369.2039      -469.1523      -422.4443
      -349.0754      -428.0881      -536.2048      -563.9935      -585.5011
      -565.8707      -534.4288      -446.2994      -312.5090      -392.4220
      -537.0181      -658.8928      -752.0967      -709.9117      -685.3135
      -649.3945      -561.8047      -628.6516      -588.0574      -573.7573
      -712.4607      -642.8298      -539.2532      -588.8142      -751.9929
      -914.2781      -861.4993      -842.9458      -807.5286      -689.6929
      -750.3948      -762.3677      -743.1658      -754.0725      -672.9087
      -731.7544      -812.2952      -810.7322      -788.6033      -772.5466
      -818.5549      -826.7317      -725.5911      -617.9592      -570.5231
      -527.7227      -499.6008      -538.3318      -563.1898      -499.2585
      -538.7222      -746.2078      -820.1157      -799.1777      -880.8062
      -1045.117      -1155.572      -978.0322      -663.7246      -542.5698
      -653.6399      -1065.822      -1618.121      -1985.998      -1826.377
      -1231.566      -470.2390       341.4786       505.4329      -107.5178
      -755.2932      -1005.999      -723.0547      -347.7627      -712.7725
      -2028.551      -3288.513      -3003.167      -653.9385       2266.650
       3800.786       3807.130       2647.004       939.0999      -318.4727
      -1268.905      -2354.560      -3037.730      -2673.410      -1126.005
       1591.885       3933.918       4542.968       4340.327       3718.104
       1737.598      -1267.988      -3502.880      -3592.748      -1377.961
       1433.248       2425.243       1441.284       173.4385      -237.6791
       148.6063       541.4418       264.1436      -109.5928       120.4189
       226.9929      -752.2412      -1527.087      -534.3623       1201.619
       2152.193       2017.218       1088.079      -202.3921      -921.3168
      -609.0399      -166.7228      -120.0631      -185.6685       184.9521
       1031.210       1351.986       1077.943       1136.104       1186.032
       952.6597       605.7098       164.5055      -213.7606      -339.5330
      -204.0204       175.8784       525.3484       377.0184       163.4080
       320.9971       557.6830       567.2744       756.9692       1201.143
       1281.565       1256.543       1641.595       1827.416       1280.997
       590.9527       90.87195      -318.9141      -838.3711      -1269.290
      -1109.146      -513.5652       170.4443       731.8586       1071.493
       1059.517       531.1152      -279.8448      -697.8297      -410.7414
       60.29309       249.3650       474.0830       923.5359       1040.071
       614.0732       134.0359      -282.9329      -326.0632      -190.0186
      -513.6871      -667.5757      -120.2026       572.4929       725.9294
       680.9246       696.0546       478.5685       260.6195       107.8306
       32.59339       53.39404      -174.4001      -353.4310      -176.5357
       46.77631       270.9345       121.7378      -344.8300      -607.6406
      -628.9290      -612.4521      -476.7701      -151.2209      -61.58606
      -207.2595      -177.1504      -36.64093       81.28912       157.5061
       118.4199      -13.69336      -124.0428      -392.1316      -502.5952
      -130.1149       69.65912      -215.9515      -255.1085       172.9880
       396.7034       26.76587      -554.3357      -617.5682      -418.8047
      -429.7089      -468.0794      -118.0425       584.1099       847.5065
       461.6082      -32.61720      -64.49814       87.94446       94.60052
       197.2868       179.0208      -242.7930      -655.8867      -748.2061
      -824.0562      -1070.479      -1147.341      -782.4727      -330.9099
       47.77112       547.8159       887.9727       725.3865       447.4041
       557.3269       907.9072       1025.431       671.7477       205.0539
      -18.83319      -156.8646      -229.8872      -108.3073      -116.1747
      -292.5696      -308.8781      -190.9447      -191.8098      -129.4554
       168.2444       319.9923       257.4291       42.08289      -86.04398
       64.34479      -30.58762      -124.5099      -63.24927      -83.48842
       1.521484       148.7262       181.6796       235.3080       359.2450
       549.0175       685.5909       490.8112       277.2458       323.8378
       391.6476       318.8886       139.6954      -17.74872      -107.5554
      -106.0070      -38.49921       37.99310       25.07581       157.7476
       306.6838       99.62677      -132.2495      -172.0385      -121.8177
      -205.7975      -440.4945      -509.2960      -314.6940      -92.48934
       22.00720       29.79410      -48.07410      -91.28830      -123.1136
      -174.8436      -110.8755       165.5546       294.0806       170.2706
       62.12057       11.97365      -28.21649      -86.28476      -54.77643
      -50.35791      -221.5618      -292.9294      -229.4312      -101.7949
       42.56781      -38.05212      -261.9260      -348.4576      -282.3871
      -224.0454      -203.9371      -54.79633       161.3678       292.4783
       9.598877      -297.2697      -71.14777       230.3400       67.59668
      -269.9503      -265.4303      -218.2490      -426.9537      -557.0231
      -646.2787      -687.7952      -555.4755      -341.7137      -304.5328
      -275.8889      -116.7180      -67.40024       8.501511       113.8190
      -11.09100      -180.9631      -210.4479      -240.4147      -334.6971
      -253.8322      -123.7730      -210.7390      -229.3270       60.25330
       337.8931       220.0170      -236.6257      -376.4438      -192.4835
      -240.2562      -405.7827      -564.0396      -570.3674      -495.4788
      -531.5078      -476.5267      -298.3893      -125.6727      -11.87329
       62.08922       59.68571      -27.57935      -139.3910      -221.6044
      -265.4572      -184.7509      -8.724425       1.400177      -11.72891
      -121.7414      -200.5069       41.94258       22.21997      -274.4172
      -365.0054      -313.8123      -214.2483      -290.9707      -433.0328
      -307.3669      -197.4946      -128.6151       60.87970       125.7797
      -32.22430      -156.8500      -39.40866       70.76202       51.64001
       97.92484       127.7526       130.2654       66.84093      -17.86768
      -34.29785      -44.60724      -159.4661      -234.9618      -107.5550
      -58.69357      -81.00787      -65.16382      -209.2590      -323.5097
      -237.1857      -6.928650       143.2781       135.9361       190.0763
       155.7169       54.80568       70.09454       97.44812       185.0413
       276.6187       296.6829       277.5187       248.2067       199.6363
       131.9826      -48.07465      -199.9097      -128.8721       3.048523
       76.32739       155.3748       194.7352       119.5957       138.6327
       180.9504       12.94504      -82.31595      -97.54959      -151.3721
      -18.87976       234.9905       420.8435       399.2057       372.2726
