     0.02500000      -2825.145       2659.426      -12345.00      -12345.00
      -30.01004       218.9399      -20.66000      -12345.00      -12345.00
       0.000000       15.63000      -12345.00      -12345.00      -12345.00
      -12345.00      -12345.00      -12345.00      -12345.00      -12345.00
      -12345.00      -12345.00      -12345.00      -12345.00      -12345.00
      -12345.00      -12345.00      -12345.00      -12345.00      -12345.00
      -12345.00      -30.94920      -69.08270       3184.000       0.000000
      -31.37200      -68.11800       0.000000       97800.00       0.000000
      -12345.00      -12345.00      -12345.00      -12345.00      -12345.00
      -12345.00      -12345.00      -12345.00      -12345.00      -12345.00
       103.2351       296.7565       117.2532      0.9282003      -12345.00
      -12345.00   -0.009332225       0.000000       0.000000      -12345.00
      -12345.00      -12345.00      -12345.00      -12345.00      -12345.00
      -12345.00      -12345.00      -12345.00      -12345.00      -12345.00
      2008       244         6        45        26
        60         6    -12345    -12345      9959
    -12345    -12345    -12345    -12345    -12345
         1         7        13    -12345    -12345
    -12345    -12345    -12345    -12345    -12345
    -12345    -12345    -12345    -12345    -12345
    -12345    -12345    -12345    -12345    -12345
         1         1         1         1         1
DOCA    -12345          
        -12345  -12345  
-12345  -12345  -12345  
-12345  -12345  -12345  
-12345  -12345  -12345  
-12345  -12345  -12345  
-12345  -12345  BHZ     
ZL      -12345  -12345  
[...]
      -367.7520      -367.4017      -368.6099      -365.4908      -367.3933
      -366.4160      -363.2267      -361.2512      -362.3625      -357.0054
      -353.8640      -353.0619      -346.4451      -341.1317      -335.8926
      -327.9908      -316.5692      -308.8877      -300.5360      -293.9401
      -282.0903      -271.1949      -256.0999      -245.5190      -233.5914
      -223.6829      -205.0576      -192.1879      -178.8184      -165.0358
      -144.6389      -131.0680      -113.2834      -97.85638      -79.25964
      -66.17109      -45.79126      -32.10709      -17.33133      -3.006058
       18.04327       30.69365       43.78345       60.99251       80.73431
       91.46402       108.6445       123.1731       137.5956       147.3096
       162.5646       172.7660       183.6695       193.4163       205.5592
       210.3080       221.1522       228.0341       236.5665       241.4418
       248.4197       252.0549       257.1620       259.3083       262.9526
       265.2204       268.4022       269.5902       272.4150       272.0238
       273.5091       272.8932       272.8997       268.8395       269.6685
       272.0135       272.3686       264.7092       265.4222       264.6760
       261.2195       256.9276       256.7126       249.8319       248.7012
       245.6682       242.6814       233.8730       233.1365       229.6003
       227.3655       218.8779       215.8146       210.5620       209.6230
       203.7916       203.7057       195.8879       196.0313       191.0217
       186.3549       178.7786       180.2380       172.4041       170.5102
       166.3226       164.4381       157.5246       157.0666       151.8344
       147.0046       141.0103       142.6036       135.4322       129.7074
       126.3774       123.4731       119.3111       115.3016       112.2970
       109.1198       106.1689       101.6163       98.32489       94.37534
       92.35074       87.61063       85.75793       84.21948       78.90070
       76.42029       78.80411       77.77814       74.12802       71.66745
       70.09811       68.20831       65.97842       67.17117       65.14450
       65.34991       66.46960       64.72368       63.16487       66.05569
       64.60217       65.17393       64.35822       63.72229       61.70547
       62.19875       60.17087       59.49307       56.75826       53.24792
       51.44502       51.28888       48.35800       45.01884       40.31761
       36.00085       32.39955       26.10213       20.42761       17.39648
       15.25302       8.761864       3.791897      -1.255287      -6.224884
      -11.17744      -13.83751      -20.88789      -29.11961      -32.17465
      -25.40706      -6.090881       47.32651       100.5483       78.40845
       80.30310       246.1379       335.6121      -51.84717      -557.5604
      -334.9761       281.7482       335.6255      -454.2661      -1505.459
      -1747.329      -789.1626       1357.083       2659.426       1071.064
      -1164.392      -1818.287      -932.4458       128.0137       436.3203
       381.0854       8.577759      -85.24933      -105.8638      -636.3209
      -456.1091       94.75415      -425.7429      -791.8821      -485.4072
       226.6758       1196.236       484.3618      -972.1052      -1164.572
      -546.9936       458.1689       270.5304      -492.8811      -117.8933
      -107.8744      -279.1844       23.89139      -70.03331       36.57306
       56.84546      -555.7778      -416.3506      -99.08112      -255.3785
      -8.984299       1.849091      -114.6583       152.9670       10.37500
       100.3317       244.1307      -433.9110      -557.4110      -239.9731
      0.5703735       285.2645      -54.76929       66.32996       360.9923
      -213.1561      -398.9364       220.0126       378.8807      -56.09375
      -73.60840       410.8402       248.1044      -456.0870      -174.4948
       552.8491       240.4065      -678.8232      -393.5393       847.2439
       887.9955       39.04315      -217.4659       44.94350       106.5658
      -50.63220       321.3025       685.3395       294.3729      -137.0824
      -438.8956      -71.77319       741.0383       572.3247       274.7450
       313.5059       194.4946       139.4191      -234.2905      -80.52466
       672.2346       450.8410       69.30865       338.6918       313.0043
       123.9444       274.4662       285.1539      -23.13184       51.88843
       444.0104       463.3365       268.4695       151.7020       77.58353
       78.95306       106.2731       351.8986       502.7137       389.6987
       300.4785       96.76033       5.150055       66.18738       45.90869
       294.3391       377.1396       169.4584       86.88440       151.6304
       266.5204       191.3031       95.02814      -26.91949      -53.30850
       189.5387       77.54684      -121.4744       148.2429       274.6387
      -17.14612      -201.5527      -98.86792       216.1635       311.8026
       20.91943      -225.4765      -292.4312      -156.7607       24.83945
      -64.53903      -127.6977      -58.30823      -186.3718      -285.2062
      -109.0801      -116.0324      -134.8618      -61.44214      -102.1541
      -229.9050      -272.0150      -266.7095      -268.3101      -160.2826
      -186.1127      -470.5974      -565.0591      -375.0970      -202.6912
      -363.3632      -497.6996      -210.1281      -180.0822      -565.0781
      -678.2628      -583.7496      -335.3690      -232.4935      -469.9229
      -590.7295      -455.4858      -479.9277      -569.0588      -611.7681
      -602.8837      -581.4596      -646.4054      -481.8646      -256.7562
      -507.7024      -548.5398      -322.4434      -511.2292      -709.4641
      -563.9165      -586.3992      -678.0897      -444.7611      -330.5781
      -536.1545      -528.6344      -454.9390      -426.6499      -457.9320
      -480.4379      -345.7388      -324.3286      -514.3876      -450.8695
      -188.5817      -207.5142      -397.6741      -449.4419      -564.3625
      -586.9100      -259.5498      -208.2729      -493.8503      -474.6829
      -314.5300      -257.3101      -197.1444      -43.50549      -94.35376
      -288.0598      -478.1860      -488.5592      -128.0154       104.7252
      -138.3252      -400.7277      -320.6398      -105.4240      -14.72400
      -80.50562      -139.5631      -66.86542      -76.68097      -218.5466
      -205.7219       65.96750       192.1642       10.52261      -214.9818
      -70.64148       231.4573       174.2944       57.84216       145.8658
       48.92477       27.35742       103.6151       63.38892       187.4437
       406.3908       401.2458       191.8535       203.2085       302.9395
       292.5928       331.3797       226.4061       284.3439       397.9785
       307.6793       314.3810       159.6171       142.2446       674.3000
       705.9746       385.2908       587.5540       700.2794       386.5062
       338.7137       469.0376       350.1494       366.2607       694.0383
       849.4727       703.0679       600.8313       553.1533       438.3451
       523.4771       608.9546       529.4004       406.8096       576.3823
       991.8198       961.6255       588.1259       445.8691       491.8577
       582.5474       744.2705       746.9392       553.8634       551.8267
       760.3071       999.5205       871.0826       478.3340       503.2346
       863.2334       692.7644       360.7690       799.2446       1053.714
       680.0493       671.3772       936.4172       1000.521       711.3088
       471.0330       643.7820       635.7642       559.2864       819.8538
       944.4663       883.3760       906.9348       725.7709       563.7517
       713.9348       488.1660       370.3206       728.7900       755.0667
       746.7368       807.6354       588.8787       521.6287       720.9752
       742.9241       421.4953       169.3929       443.1119       711.4734
       376.5502       321.5916       500.5727       234.3635       256.2559
       424.6108       273.1871       103.6080       72.06738       239.6493
       158.7975      -97.04919       92.14978       360.6210       101.2488
      -170.0130      -14.26520      -57.44574      -327.3378      -221.2706
      -80.27692      -115.4893      -94.30994      -214.4188      -281.0118
      -105.3345      -134.1660      -321.6708      -398.9532      -414.3948
      -463.3103      -460.9307      -387.6017      -447.8826      -511.3838
      -383.7977      -431.5924      -547.9087      -537.4996      -553.5334
      -418.8239      -449.8694      -720.4991      -640.3760      -507.4607
      -550.5090      -471.1365      -503.7013      -582.6270      -491.0454
      -623.3811      -873.2512      -817.9272      -619.6534      -591.4031
      -636.0786      -508.6855      -485.0200      -768.0664      -698.9493
      -530.6714      -844.9919      -1049.450      -775.3657      -503.0874
      -703.0527      -891.3153      -661.4606      -479.6757      -572.6411
      -839.3015      -1042.630      -789.1051      -500.9800      -796.8921
      -870.5125      -586.3450      -671.7205      -730.0151      -767.1956
      -833.1223      -689.4507      -643.6266      -576.1426      -630.1006
      -924.9175      -884.2625      -762.3840      -637.9458      -363.3032
      -566.3486      -948.9246      -885.2095      -727.7053      -615.2769
      -528.5642      -584.2751      -700.7703      -846.7522      -791.6467
      -496.2600      -433.7961      -620.5881      -581.3336      -494.7795
      -757.0498      -884.8511      -570.3513      -367.0205      -513.8026
      -541.2307      -384.5852      -421.2797      -448.7810      -353.5947
      -486.2109      -735.5654      -492.4543      -53.81793      -157.3738
      -440.7665      -411.9844      -228.9088      -139.9005      -229.9995
      -333.9585      -337.6210      -321.2102      -261.8449      -179.1721
      -100.5245      -92.40088      -28.93976       98.95595      -1.713440
      -178.2500      -192.0872       24.74730       108.2163      -28.95776
       138.8380       293.4023       181.9744       112.4167       133.6049
       178.2075       151.1737       184.5593       320.4846       357.5706
       279.2994       271.3651       329.6548       287.3374       244.5646
       315.2976       382.8335       387.7546       302.1818       386.0026
       619.0870       517.8707       172.1458       80.59033       314.0365
       419.9377       417.9006       576.0496       707.5076       592.2086
       454.8228       567.8263       578.6738       433.5822       434.0491
       375.6915       430.7385       512.1301       433.7836       590.1196
       772.5186       650.3840       448.8389       320.1216       447.4680
       676.2810       638.8054       404.7521       379.3922       491.8004
       525.7039       539.5100       551.4419       725.1255       850.7069
       568.9080       440.0107       669.4910       629.1416       437.5828
       572.2371       645.1179       490.8049       588.5476       743.1475
       601.7325       456.9537       412.7849       393.6920       400.1821
       623.5203       908.3081       731.4547       391.5803       465.2400
       728.2908       714.1194       491.0244       351.5833       398.3658
       564.6455       673.4814       768.7097       816.5872       721.3397
       560.7622       405.5654       411.1963       609.5605       722.0854
       666.8455       613.7637       591.4135       367.4346       332.4053
       753.2251       1024.505       869.4023       557.8418       594.6353
       819.6255       430.2271       136.0238       319.0605       359.2598
       408.6233       591.4524       675.4232       524.6504       453.3232
       748.4380       710.7083       297.4094       164.7000       269.7631
       339.5251       336.3263       350.0510       365.7805       237.9594
       178.1090       253.8486       359.9541       576.1216       591.4152
       271.0067       49.61083      -5.757385      -37.45180      -4.965973
       73.71976       127.1637       92.77832      -132.1624      -408.3568
      -401.0417      -2.672577       166.0910      -120.2276      -192.9815
      -82.11905      -72.54144      -58.58069      -212.5403      -414.4302
      -592.2490      -805.8135      -1141.831      -1268.985      -738.7915
      -138.8722      -27.54072      -39.55347       134.3755       253.2584
      -111.7981      -484.5945      -233.3179      -28.36475      -568.4326
      -1337.229      -2005.987      -2162.593      -1224.762       139.6470
       1159.586       1485.786       816.4843      -123.0668      -548.1758
      -884.0708      -1730.718      -2429.013      -2540.516      -2374.510
      -1474.712      -65.72607       641.6696       483.2883       11.03174
      -282.0789      -812.5303      -2033.354      -2825.145      -2207.734
      -1092.691      -763.2009      -846.5994      -686.1136      -606.4353
      -788.7366      -992.6055      -1076.841      -1270.365      -1122.857
      -438.6812      -245.7595      -496.9984       37.57764       729.4358
       523.7283       149.5382      -304.7954      -1084.376      -1385.290
      -942.0698      -591.6128      -667.3967      -638.5823      -441.9533
      -125.1894       236.8997       144.9682      -155.9516      -74.83203
      -305.6790      -967.5798      -988.9761      -763.0945      -840.8242
      -791.3303      -849.9939      -970.3396      -658.2809      -401.3595
      -350.5441      -112.0231      -314.1650      -849.6150      -744.9520
      -216.1792       270.8003       681.6488       757.2076       416.7354
      -43.29395      -389.7975      -336.7258       118.8433       111.6921
      -580.5356      -921.8680      -681.7307      -327.8135       143.7844
       549.0778       376.6708      -243.4071      -540.8728      -267.6768
      -122.2326       27.19043       365.8192       444.4819       390.9249
       346.5964       250.9357       126.1572       266.0160       431.2938
       226.4291       44.80273       156.0830       433.6906       472.0022
       101.1865      -304.7816      -458.2383      -588.5704      -604.9414
      -192.3870       289.9783       620.1436       896.7700       886.5544
       928.3572       1122.276       890.4955       422.0444       308.2524
       299.6042       169.7404       172.3623       369.8651       482.9333
       311.8567       21.18671       18.63733       224.3877       289.2976
       353.7687       392.4521       167.4608      -79.32489       85.62695
       618.4873       743.2322       625.9194       857.2651       928.5750
       810.4095       512.4702       27.70551       23.46057       195.0067
       228.2456       482.4985       733.7578       832.0315       933.3350
       865.8219       671.4194       697.9878       999.0959       1175.401
       929.2316       500.9993       208.4537       177.5684       255.8724
       141.5925       13.39752       101.5076       162.3782       242.7529
       603.5579       917.8174       883.6187       716.0117       672.0383
       765.8765       720.1052       627.0426       651.6604       577.4198
       548.8209       641.6406       673.6027       507.8755       89.34747
      -61.89890       145.0467       127.2653       43.26904       224.3965
       382.6122       351.8804       354.1649       394.0593       218.3914
       61.72644       198.6098       323.2900       366.8232       365.3060
       280.9449       178.4785       121.0743       177.0812       125.4983
      -17.00705       25.86570       66.73947      -116.0754      -99.30908
       237.8782       275.4633       185.2208       264.5420       102.4473
      -120.3985       30.77313       202.5403       160.0533       146.8526
       24.23010      -217.0631      -251.0591      -294.5298      -392.4987
      -448.1862      -439.6902      -326.2603      -228.2647      -70.17557
       71.99991       89.11564       52.85049      -27.72217      -216.5264
      -517.3706      -550.7422      -360.0660      -302.4064      -300.9746
      -281.3567      -279.7850      -290.8766      -340.4115      -341.1990
      -232.6988      -218.0486      -445.0702      -561.5073      -402.9663
      -297.1355      -428.8503      -745.2461      -851.0886      -605.0566
      -540.0566      -671.8817      -639.8925      -417.7495      -308.9358
      -447.4419      -533.1686      -359.0869      -125.4458      -117.1777
      -303.9231      -404.6326      -306.5050      -140.9226      -149.3194
      -193.9527      -71.14618      -39.10181      -366.8311      -636.4580
      -606.1653      -655.4193      -617.9970      -350.7864      -294.2262
      -472.2935      -509.9725      -405.3188      -486.8304      -533.9850
      -318.7902      -191.9326      -319.0667      -400.2554      -335.5468
      -185.6872      -97.33716      -130.4886      -138.2864      -121.3067
      -114.9641      -188.7502      -386.1791      -401.0084      -270.4233
      -295.4128      -324.1179      -135.1699       30.57600       30.55650
      -12.92295      -6.703064       127.1528       277.6415       275.9489
       162.8113       143.4925       253.3329       299.7249       254.2175
       79.97076       78.39795       145.9571      -48.92509      -86.56720
       102.6293       225.0518       257.0256       192.3302       206.4431
       240.2107       301.3740       475.5344       565.6771       531.9578
       358.7043       250.6954       395.3666       465.1626       368.6626
       342.6351       375.7207       300.3621       316.3361       428.5272
       538.1570       655.7490       525.3657       422.7690       491.7051
       381.9958       375.8506       500.5920       457.1536       366.3613
       334.5271       392.5750       475.7228       469.4167       520.6940
       647.5930       627.1039       458.7715       384.9368       469.5576
       498.1724       444.5367       356.6128       303.2667       383.9247
       239.6750      -96.80139      -191.5333      -210.5088      -261.7013
      -192.4389      -127.1858      -142.0406      -77.95893      -20.87311
      -8.023205      -1.144188      -17.72359      -59.48405      -24.04865
      -33.15485      -219.7538      -373.7911      -346.3051      -215.9032
      -164.8375      -235.7915      -432.3508      -514.5184      -286.1466
