     0.02500000      -4013.191       3948.905      -12345.00      -12345.00
      -30.01003       218.5899      -20.26000      -12345.00      -12345.00
       0.000000       14.83000      -12345.00      -12345.00      -12345.00
      -12345.00      -12345.00      -12345.00      -12345.00      -12345.00
      -12345.00      -12345.00      -12345.00      -12345.00      -12345.00
      -12345.00      -12345.00      -12345.00      -12345.00      -12345.00
      -12345.00      -30.83090      -68.94810       1673.000       0.000000
      -31.37200      -68.11800       0.000000       97800.00       0.000000
      -12345.00      -12345.00      -12345.00      -12345.00      -12345.00
      -12345.00      -12345.00      -12345.00      -12345.00      -12345.00
       99.35159       306.9312       127.3579      0.8932801      -12345.00
      -12345.00      0.6298908       0.000000       90.00000      -12345.00
      -12345.00      -12345.00      -12345.00      -12345.00      -12345.00
      -12345.00      -12345.00      -12345.00      -12345.00      -12345.00
      2008       244         6        45        25
       660         6    -12345    -12345      9945
    -12345    -12345    -12345    -12345    -12345
         1         7        13    -12345    -12345
    -12345    -12345    -12345    -12345    -12345
    -12345    -12345    -12345    -12345    -12345
    -12345    -12345    -12345    -12345    -12345
         1         1         1         1         1
GUAL    -12345          
        -12345  -12345  
-12345  -12345  -12345  
-12345  -12345  -12345  
-12345  -12345  -12345  
-12345  -12345  -12345  
-12345  -12345  BHN     
ZL      -12345  -12345  
[...]
       960.5908       981.3247       1001.432       1016.492       1032.366
       1051.562       1069.744       1083.025       1096.836       1109.851
       1121.102       1131.665       1140.688       1151.083       1155.578
       1162.181       1167.942       1169.703       1169.142       1172.764
       1171.098       1167.854       1161.892       1163.172       1158.914
       1148.599       1137.973       1130.754       1119.427       1110.157
       1096.608       1083.534       1069.582       1058.112       1041.957
       1025.885       1008.863       993.2405       971.6360       953.4846
       932.6538       911.2192       885.9163       866.5774       843.1606
       819.0625       793.6885       772.9282       744.2732       717.8831
       688.5198       662.8558       634.2607       608.5825       580.2329
       553.4347       522.9844       497.3643       465.9362       438.3312
       409.7203       382.2828       350.4131       325.8757       295.4734
       266.3223       238.6042       213.2407       185.0225       159.8159
       132.5452       106.6311       75.72926       48.16815       24.33221
      0.9360428      -24.56184      -49.43317      -73.21655      -98.72607
      -125.2543      -149.0765      -170.8878      -192.3889      -217.3978
      -237.9955      -259.0212      -280.2681      -303.3929      -319.9725
      -339.7157      -356.2628      -372.5872      -389.4250      -407.5459
      -422.6721      -439.9513      -451.5223      -463.8813      -474.7300
      -487.2688      -498.8108      -511.5632      -519.0438      -531.0977
      -540.3525      -548.2097      -555.0447      -565.2859      -572.5896
      -580.8604      -586.6067      -593.9985      -600.6302      -608.4858
      -616.7834      -623.7126      -628.0935      -635.2798      -640.6801
      -644.6541      -649.4602      -659.3833      -662.9949      -665.9282
      -672.3894      -681.3693      -681.1497      -684.5381      -690.8918
      -693.5684      -693.2373      -695.4707      -696.7847      -697.5190
      -698.8264      -699.1606      -697.5493      -696.5454      -694.6846
      -689.9883      -686.4131      -685.6797      -680.8834      -674.0341
      -670.0687      -664.6304      -661.3799      -658.2205      -651.4037
      -642.7014      -638.3171      -634.1539      -625.6144      -620.8003
      -615.3181      -608.5591      -600.9102      -594.0538      -587.3145
      -580.6125      -571.5381      -566.9077      -561.1895      -552.2001
      -542.0956      -534.8413      -527.5920      -518.2694      -506.5326
      -495.8967      -485.8884      -474.2064      -460.1409      -448.7532
      -434.9939      -418.1865      -400.9265      -386.2511      -371.6404
      -354.3627      -334.9106      -320.1689      -303.7444      -288.9556
      -268.3709      -250.2637      -230.5703      -212.0472      -191.8621
      -175.1720      -155.1935      -137.6300      -117.8186      -98.27361
      -81.24861      -63.49271      -44.99468      -27.49772      -9.053402
       7.804008       24.21008       38.85323       53.52713       70.27966
       87.24927       104.9471       126.5238       166.3232       252.8734
       338.9939       332.8333       327.1716       392.3829       302.1982
      -15.96826      -223.6908      -76.13698       31.63635      -57.01782
       270.0597       657.2083       444.6884       275.1904       387.6772
       405.2977       278.3782       78.60254       108.8901       463.9186
       673.1991       508.3992       360.4463       313.6692       187.9417
       211.4906       299.6061       394.8228       470.6391       197.1858
       205.1561       285.9671      -24.16870       484.7052       922.1287
       206.1052       56.41846       689.8914       782.2831       599.8851
       390.7397       85.51898       148.5710       175.9519       303.6228
       533.3615       444.3806       714.9804       507.6988      -28.63159
       319.7529       518.6683       643.1428       652.1154       352.5369
       392.8210       133.3258       238.1309       650.1560       195.4165
       154.4943       474.8898       235.7090       189.2925       373.5376
       691.4194       861.7490       550.5757       556.3894       391.6921
      -45.21655       114.5562       491.2239       664.8093       437.9745
       301.5701       397.8872       5.855103       100.3550       675.4193
       345.8447       265.8459       863.2566       886.8629       379.3320
       62.73407       215.8024       159.9148      -83.82910       292.8706
       644.4111       571.5307       462.6283       1.649597      -396.2373
       68.84570       570.3247       652.9175       832.2488       551.7927
       71.10187       102.7519       139.5893       180.9307       327.1026
       313.1545       38.82823      -96.93048       113.3457       299.7885
       330.3088      -2.809402      -76.13757       314.9818       417.1819
       195.8386      -23.86215       30.56717       160.4829       13.61278
      -13.26404       161.2877       40.50639      -18.02429       177.4476
       64.19907      -173.2046      -125.0299       19.65977       105.7242
      -55.32715      -334.2952      -230.6153      -142.9384      -212.1410
      -32.49712       73.39624       28.83908      -55.14081      -325.3109
      -363.6162      -94.10870      -156.3790      -442.9863      -412.4161
      -380.5278      -403.4070      -165.6289      -187.2706      -301.1622
      -246.2230      -429.9305      -410.9032      -203.5648      -275.5166
      -365.0388      -338.7495      -336.7239      -453.9569      -540.0770
      -556.2324      -544.3677      -359.1556      -250.2408      -334.9786
      -356.7434      -400.6959      -401.4733      -379.0009      -371.4288
      -403.2170      -535.7183      -532.9902      -414.8696      -378.4016
      -413.6250      -390.6061      -325.4938      -386.5437      -439.8820
      -394.6347      -257.0321      -245.5177      -531.7428      -485.5477
      -291.7318      -433.3658      -247.0648      -140.9136      -325.5778
      -241.3920      -270.9604      -209.0427      -32.08142      -289.4061
      -353.1748      -285.5797      -466.3633      -467.9335      -244.7156
      -44.33997      -67.41290      -137.0962      -110.2724      -181.3943
      -122.7978      -71.97052      -152.9838      -157.6905      -145.0103
      -196.4374      -221.5841      -97.42032       66.38234       21.19092
      -104.6457      -130.1370      -7.437378       119.8062       139.3626
      -67.28409      -200.6641      -7.289841      -17.51367      -85.08966
       151.7708       110.7586       39.72070       191.6906       70.10074
       24.59937       232.5201       364.8524       304.2732       116.0157
       146.6261       80.42689       3.647858       83.54187       113.3070
       290.4268       294.0519       272.3923       406.1555       290.5028
       266.8993       274.2039       169.8667       143.7560       245.0525
       367.2495       334.5766       269.5971       208.4266       183.1696
       251.5281       238.2212       284.8671       382.2104       263.3091
       280.8870       382.9795       273.8204       106.9153       189.9725
       411.4384       196.8104       84.46652       200.9660       47.01978
       70.93781       217.5154       125.8982       39.36194       119.5874
       104.8839       115.0425       182.5847       25.17651       86.98611
       132.2022      -201.6594      -16.61282       207.0058      -69.96873
      -29.16200       56.20993      -72.73775      -5.219864       27.78781
      -65.82239      -244.5664      -343.5789      -184.8563      -71.85108
      -9.753510       81.37379      -4.613159      -207.4243      -144.2042
      -14.36987      -196.4938      -216.8589      -174.4047      -263.7388
      -207.9464      -245.8773      -246.1677      -265.4607      -353.5692
      -92.31873      -38.61176      -348.6811      -267.7889      -157.9087
      -258.1784      -153.2045      -197.0536      -317.4545      -329.7631
      -469.2245      -478.8745      -294.4859      -120.6733      -180.2515
      -233.3665      -321.5315      -624.0212      -576.0049      -320.2276
      -100.4819      -5.777954      -123.2855      -355.7509      -460.6711
      -298.1996      -295.2366      -313.6212      -217.7311      -300.8247
      -194.2457      -102.0040      -133.6778      -166.1055      -421.4203
      -315.0885      -172.8140      -289.8948      -75.79702       70.95514
      -114.1857      -236.4756      -89.78027      -45.20502      -153.8419
      -83.18933      -71.48586      -128.7634       45.30548       156.6520
       7.321297      -8.172050       51.42159      -59.67932       5.067642
       39.57776       26.52716       263.5957       138.2379       35.84753
       174.8772       85.38929      -2.368042       55.85339       260.5532
       213.6008       146.7492       340.2562       235.1729       86.78705
       180.2500       246.2975       144.0566       106.4310       243.2771
       281.1910       296.5044       370.3228       332.7974       170.0311
       272.6780       476.3181       314.4384       187.8803       242.4856
       220.1699       186.1381       345.3931       436.5602       248.0513
       221.6849       347.4999       416.4795       469.0980       452.6702
       367.0723       256.0148       187.1541       379.0516       576.4204
       296.0643       146.1993       294.4627       240.7333       264.9061
       367.9543       289.7296       188.9493       149.1188       231.5632
       302.0629       283.8118       425.9445       420.8708       290.5338
       375.8118       274.9581       76.00110       120.1299       79.61816
       106.1490       229.1724       170.9940       135.2091       185.2318
       150.8076       42.89839      -36.07084      -45.42273       80.84113
       111.0557       44.00696       97.04344       80.24649       55.26186
       43.82379      -87.14136      -83.17953       84.63138       145.0486
       80.86414      -191.3822      -352.2298      -147.1477      -100.8856
      -27.08911       165.3600      -107.9397      -342.4672      -146.1143
      -56.07623      -144.5444      -91.44412      -40.19522      -75.91519
      -52.35522      -5.037949      -22.91653      -68.65425      -15.23218
      -4.719543      -275.5807      -347.9330      -85.80367      -2.814411
      -42.98935       40.43991       80.85187      -43.20522      -82.82054
      -10.52069      -110.0922      -118.2343       131.6341       36.03741
      -283.0847      -191.1708      -84.04150       23.35352       236.0092
       180.3502       97.29393       98.61595       7.111954      -26.36098
      -28.25983      -79.93356      -113.4255      -28.77495       11.00191
      -2.169067       83.31509       76.82166       67.20538       133.8922
       82.21517       40.89489       6.792572      -14.33881       74.03168
       148.5341       120.4596       95.67851      -23.49481      -172.5042
      -116.6186      -69.28317      -143.2252      -7.875702       191.1681
       102.7191      -13.73874      -39.32225      -65.76425       73.77812
       86.85645      -90.74915      -147.1378      -241.6338      -226.2224
      -9.296051       14.22626      -102.2431      -106.7930      -19.22490
      -39.09621      -90.55725       56.93039       96.90427      -90.68354
      -53.80882      -19.54733      -155.3854      -81.18198      -10.87020
      -14.68590       38.27176       45.55295       27.07959      -154.5587
      -213.4083      -153.1288      -261.2922      -286.4670      -238.1467
      -195.6164      -183.3332      -92.67670       236.1050       262.1089
       23.75491       40.03472       43.18750      -146.4399      -304.4220
      -344.5848      -392.5198      -492.5710      -383.6437      -273.5448
      -189.9496       41.41626       68.11185      0.5505981      -83.11829
      -334.8784      -396.6797      -353.6705      -252.6986      -179.6584
      -278.9788      -10.55768       268.3032      -5.720184      -82.19263
      -103.4346      -575.2090      -870.3235      -766.8740      -609.6418
      -250.4108       349.8878       581.3002       297.4174       177.8239
      -86.45569      -595.2566      -449.5437      -309.1073      -580.8662
      -612.8418      -532.6443      -511.7002      -539.6292      -430.8033
      -212.2760      -109.1268       268.7068       1023.982       1251.612
       715.1920       85.51477      -347.0704      -296.9106       372.4478
       1309.252       2372.664       2890.779       2055.779       46.95898
      -2095.403      -3159.128      -3231.965      -2305.095      -202.5176
       2022.933       3585.885       3948.905       2683.658       365.4419
      -2040.136      -3671.758      -4013.191      -3247.574      -1743.574
       107.6641       1590.565       2016.629       1692.922       690.0483
      -1091.794      -2044.573      -1761.871      -1656.910      -1131.925
       404.3511       1089.409       1155.569       2348.062       3141.337
       1630.258      -704.2661      -2055.968      -2312.208      -1149.839
       113.6191       434.5474       587.2855       489.8423       373.9736
       659.7383       1453.288       2484.852       2135.390       267.8508
      -995.3442      -1048.929      -803.1223      -850.0398      -926.0363
      -496.5425       265.9731       969.6616       1489.037       1480.432
       621.6176      -100.9088      -195.1154      -172.0567       176.6326
       177.9744      -802.8359      -1281.948      -615.7588       28.44849
       442.0581       1184.801       1794.941       1396.491       327.6135
      -446.8223      -501.8300      -196.7404       239.6969       574.4758
       174.2191      -395.4968       8.695801       1324.605       1854.156
       1128.855       670.7681       57.00537      -648.1113      -143.6830
       367.0239       35.89102      -15.74652       193.9947      0.3004150
      -503.0989      -638.9810      -121.6055       314.9709       545.1253
       437.2124      -18.52371      -11.01135      -81.33655      -419.8849
      -238.4270       313.9583       612.8884       247.0669      -382.2602
      -410.0630      -71.46289      -167.7380      -550.4284      -354.0234
       279.0206       351.8703      -65.88939      -109.0304       178.2982
       362.6609       208.1891       350.6331       455.6044      -230.2676
      -435.0728      -163.8828      -152.4355       296.0907       399.5820
      -272.3322      -503.8725       11.22791       296.3915       247.7626
       367.9323       148.6124      -246.5010       23.64633       229.2002
      -322.4277      -968.8936      -1057.640      -615.2679       139.6958
       465.6921       71.85645      -367.1387      -366.7572      -289.5874
      -502.6505      -453.0059       211.5382       515.4974       5.135620
      -338.0639      -128.6066       57.40285       36.77325      -119.0653
      -128.5184       178.4365       391.3519       187.3459       160.3170
       176.4076      -361.5405      -810.3823      -951.3787      -866.1005
      -373.4218      -225.6400      -499.4409      -692.9927      -529.1049
      -246.1971      -118.4539       36.54456       320.9507       429.1195
       237.5928       446.7102       578.8898       20.50562       181.7028
       606.5938       279.9093       181.9202       89.34729      -398.1499
      -799.8501      -854.7637      -529.8447      -595.6746      -532.4172
      -12.82141      -210.1195      -478.3874      -31.96576       289.1486
       116.2635      -271.1191      -285.7028      -183.6455      -186.0947
       42.59631       111.8210       235.9526       619.2383       382.5079
       79.08557       146.4376       293.8813       713.8922       538.1440
      -296.2931      -376.4357      -213.0240      -446.8096      -458.7543
      -192.3630      -323.2899      -495.2378      -293.7129      -353.7007
      -395.4411      -318.3348      -352.5057       45.53009       201.7175
      -33.50089      -45.62390      -184.8188      -656.5244      -775.0304
      -417.2725      -314.7527      -313.2406      -16.24451       373.3556
       665.2667       465.2473       190.4473       188.4677       175.9094
       182.2366       132.9285      -77.71344      -35.40638       72.05569
      -17.73682       170.2751       259.3284      -20.13580      -93.38983
      -135.9659      -282.4325      -313.5923      -126.4390       253.8403
       354.6372       76.19666      -32.29370       36.65820       273.8330
       674.0409       630.8597       210.1228      -17.04913      -172.3001
      -60.49716       133.6215      -170.5870      -339.4396      -69.27116
      -29.47980      -93.15655      -47.62815      -2.833649       101.3628
       227.5765       126.5386      -32.35114       133.5551       380.0564
       511.0838       262.8962      -64.55444       384.2048       637.4144
       319.3114       297.1098       256.6165       23.22272       114.2372
       498.0894       627.2431       259.0381      -165.4052      -384.8212
      -374.7705      -62.12836       211.2031       98.23044      -67.39908
      -110.9808      -209.7682      -123.8427       158.4156       168.9472
       27.67532      -70.17214      -96.30991       124.3016       150.5659
      -79.77512      -89.73157      -35.22845      -56.70996      -170.8536
      -234.6074      -218.1184      -445.3002      -509.8474      -68.02030
       46.88198       1.602448       67.23413      -261.9163      -432.1902
      -352.3499      -365.0115      -249.0623      -243.7542      -434.1699
      -546.1184      -567.3923      -524.1116      -402.2626      -336.7878
      -249.8788      -124.8560      -237.0143      -209.6863      -82.80127
      -268.5560      -276.0655      -153.4641      -218.1043      -288.5955
      -301.7850      -200.7705      -318.8987      -588.8300      -595.2778
      -361.3265      -145.8000      -118.2083      -276.7861      -517.8264
      -371.5917      -99.21338      -426.9446      -555.7981      -191.6879
      -24.00452       291.5702       588.7802       400.3085       232.3244
       176.7408      -5.175354       36.10388       402.6418       306.7989
      -83.36062      -29.05997      -35.16272      -181.6436      -11.16620
