     0.02500000      -1996.199       1122.963      -12345.00      -12345.00
      -30.01003       218.5899      -20.26000      -12345.00      -12345.00
       0.000000       14.83000      -12345.00      -12345.00      -12345.00
      -12345.00      -12345.00      -12345.00      -12345.00      -12345.00
      -12345.00      -12345.00      -12345.00      -12345.00      -12345.00
      -12345.00      -12345.00      -12345.00      -12345.00      -12345.00
      -12345.00      -30.83090      -68.94810       1673.000       0.000000
      -31.37200      -68.11800       0.000000       97800.00       0.000000
      -12345.00      -12345.00      -12345.00      -12345.00      -12345.00
      -12345.00      -12345.00      -12345.00      -12345.00      -12345.00
       99.35159       306.9312       127.3579      0.8932801      -12345.00
      -12345.00     0.03584147       0.000000       0.000000      -12345.00
      -12345.00      -12345.00      -12345.00      -12345.00      -12345.00
      -12345.00      -12345.00      -12345.00      -12345.00      -12345.00
      2008       244         6        45        25
       660         6    -12345    -12345      9945
    -12345    -12345    -12345    -12345    -12345
         1         7        13    -12345    -12345
    -12345    -12345    -12345    -12345    -12345
    -12345    -12345    -12345    -12345    -12345
    -12345    -12345    -12345    -12345    -12345
         1         1         1         1         1
GUAL    -12345          
        -12345  -12345  
-12345  -12345  -12345  
-12345  -12345  -12345  
-12345  -12345  -12345  
-12345  -12345  -12345  
-12345  -12345  BHZ     
ZL      -12345  -12345  
[...]
       123.0436       128.5833       139.5752       146.6569       157.4471
       163.1552       171.6658       175.5505       182.7949       184.2034
       192.1770       196.8564       200.6359       202.5621       205.6890
       208.6678       210.5916       210.6768       210.2114       211.1713
       207.2316       206.4203       206.0659       205.3368       201.8344
       199.6086       194.4487       188.8419       184.8752       182.6680
       175.2425       169.8414       167.8167       163.4338       157.2935
       151.0313       145.1136       138.9972       134.3677       127.9957
       122.1728       117.4268       112.5997       106.5614       100.2995
       93.66086       86.79814       82.91522       76.86703       72.56631
       68.75540       62.77307       56.41815       53.81726       51.45673
       45.31018       41.08951       40.92933       38.67332       34.81509
       32.41736       29.56559       24.84657       23.37085       19.62383
       19.21043       17.78233       17.14065       13.15313       16.07045
       13.87583       12.78891       9.613762       12.50229       9.524155
       12.76844       10.42958       13.00677       12.27963       15.37647
       12.56310       17.38152       16.43893       19.52361       21.27816
       25.04659       23.21148       26.46063       24.68257       26.53761
       24.85120       27.97471       26.50240       29.52673       25.85720
       25.04369       21.22281       19.94503       15.24994       15.13343
       10.06800       7.130056       2.534885    -0.04122353      -6.771503
      -9.535812      -17.21099      -23.32039      -26.51443      -28.75732
      -35.07106      -41.71729      -47.81995      -53.28857      -58.76918
      -63.74760      -71.96707      -76.13007      -82.61792      -89.28790
      -97.02969      -100.9906      -108.8162      -112.1785      -117.6496
      -120.7773      -127.8367      -131.1035      -139.7017      -144.4628
      -154.7621      -159.2862      -167.9308      -171.5278      -181.4108
      -184.6850      -194.0412      -199.3450      -207.7585      -213.1860
      -222.5987      -227.1147      -234.1104      -236.5287      -244.7844
      -248.4665      -255.6273      -254.8210      -257.5181      -259.7004
      -265.7808      -266.3579      -270.7931      -267.3549      -271.3500
      -269.0851      -267.7783      -264.6063      -266.9746      -262.4369
      -259.8890      -256.1125      -254.3379      -247.2249      -243.3588
      -240.3559      -233.8731      -224.3195      -217.4175      -211.3390
      -203.6481      -194.4775      -185.9485      -177.3951      -165.9308
      -156.4203      -145.3715      -133.5324      -122.3351      -111.5676
      -99.25839      -88.13292      -77.63425      -67.80750      -55.29529
      -42.82399      -32.18834      -20.13076      -7.095907       2.733742
       13.02176       28.15268       39.10425       51.49139       63.88623
       75.51541       86.75470       98.88660       108.1879       121.6444
       133.8130       147.4750       155.8686       167.7086       178.5642
       189.9564       197.0585       208.0693       214.6430       225.2338
       233.3865       241.8431       245.4763       255.6215       261.0438
       267.8344       269.8741       276.0601       279.9227       285.2541
       283.9925       292.2279       311.2349       382.1838       517.0031
       587.1224       497.3268       445.1177       503.2898       399.1147
      -70.01447      -322.3472       86.36792       469.3989       410.7009
       252.4203       310.9208       435.8981       17.28839      -377.7012
       69.66760       641.8160       468.0498      -28.47595       197.7080
       812.9077       865.3530       348.9363      -11.62769       258.3370
       314.4111       139.7069       221.5439       93.40189       106.7552
       287.8226       122.5663       58.86694       152.2690       309.0909
       529.4366       174.5828      -539.3378      -131.2098       405.8109
       48.59668       260.6648       518.8467       370.0118       281.6996
      -40.06235      -70.51276      -22.94397       183.9357       489.4734
      -144.5102      -324.4907       362.3466       430.1798       102.7029
      -160.3874      -193.5777       110.3009       143.4579       57.16214
     -0.6925354      -167.6322      -15.71167      -147.4977      -169.0782
       114.8442       24.98492      -57.44519      -280.0966      -217.5010
       220.1419       239.1106       150.5728       20.25690      -269.2870
      -383.0404      -250.2453      -19.47601       91.84753      -45.88736
      -22.86011      -100.8507      -365.6964      -210.7124      -43.76349
      -51.27356      -21.04074      -32.98816      -83.78345      -90.64807
      -136.7145      -205.4072      -217.9420      -224.7731      -7.084961
      -5.880737      -236.1442      -232.9324      -294.8908      -360.7029
      -253.9343      -78.89790       18.13382      -29.18591      -295.0016
      -382.6813      -42.95020      -72.71173      -243.6490      -211.7161
      -307.6064      -304.2860      -248.5425      -239.5906      -291.9822
      -403.6672      -353.5132      -222.6790      -157.4565      -108.3124
      -141.8037      -212.3145      -168.3599      -278.8733      -408.5696
      -221.7733      -212.7046      -389.0688      -280.2823      -267.4768
      -332.1916      -232.1704      -207.1058      -284.4315      -237.5523
      -87.76743      -56.03210      -231.0187      -295.2467      -187.6639
      -262.6835      -346.4156      -236.1643      -113.8119      -137.1898
      -276.8293      -290.3990      -230.8903      -131.3379      -60.13586
      -215.7058      -313.6986      -231.6378      -251.3914      -164.9677
      -7.356796      -15.55801      -120.8807      -196.7931      -166.8367
      -137.1153      -156.0995      -164.3709      -163.6216      -66.76711
       17.61076       21.72803      -105.0368      -184.6488      -88.38727
      -78.10052      -148.8236      -209.2026      -113.0026       29.21077
      -55.27173      -114.3329       9.073593       106.7618      -28.15808
      -208.7124      -135.9441      -8.472672     -0.9582443       22.53569
       66.52203       116.3117       33.95638      -70.13789       9.491074
      -16.45035      -15.68945       47.55242      -7.780457       20.18506
       98.98631       70.83484      -52.46976      -86.82071       8.473694
       24.64905       65.72070       231.3294       212.2487       41.67937
       26.85501       141.0858       196.9909       62.07647      -20.86798
      -4.590149       40.40991       145.9924       162.5215       121.1292
       90.10535       96.15930       115.7198       132.4636       128.9460
       121.7787       162.6995       173.8403       49.79300       83.62756
       170.4797       145.1781       176.6824       170.2708       206.6973
       212.4222       135.1314       92.05008       122.4481       221.3760
       248.6141       253.9273       194.6564       118.9418       147.2368
       90.44397       159.0088       217.2878       150.1125       246.2273
       265.2272       212.1835       309.6672       292.3859       184.3672
       184.5806       282.4073       356.7005       256.0736       268.5509
       379.9536       295.1369       275.6299       249.9459       280.1207
       345.9799       345.1829       342.8522       394.6411       380.7721
       322.6207       349.5099       268.9026       287.5658       336.3459
       355.4252       408.3663       291.2467       298.6439       268.1208
       240.1479       506.5266       521.5685       376.6799       376.4238
       182.3020       113.1083       300.4197       378.9375       478.5386
       468.9283       297.0803       366.8774       363.8171       263.2798
       180.8665       148.2249       169.4547       239.4480       374.4039
       270.1526       107.5486       175.2910       338.0688       448.7063
       306.4156       92.24774       80.84674       208.1722       337.1519
       235.6678       196.7980       387.7692       307.7863       154.4735
       115.2345       138.6963       177.3813       125.6563       116.4750
       172.9732       88.23273      -78.41385      -81.87573       122.9521
       251.5554       141.5381      -16.67550      -35.89811       9.218506
      -75.41045      -71.15078       42.28048       25.06641      -40.03082
      -56.74634       4.007202      -47.18619      -166.7120      -84.08592
       6.138184       57.07288       63.39157      -102.4182      -116.0540
      -197.5532      -275.1735      -148.1167      -215.0408      -250.7228
      -182.4692      -165.9331      -104.8463      -168.7065      -233.6594
      -99.49182      -130.0696      -297.2585      -310.7469      -265.3500
      -123.4562      -165.5347      -341.6992      -298.9406      -168.2336
      -90.02881      -220.2687      -457.8063      -396.8944      -378.5933
      -299.2892      -76.47095      -180.9978      -337.2961      -431.1794
      -475.3547      -389.8840      -345.7616      -298.8382      -285.4165
      -401.5680      -403.7126      -197.5613      -229.4460      -475.6077
      -468.1978      -424.3392      -547.1912      -618.5085      -536.4979
      -413.4832      -468.6981      -572.1763      -562.1239      -468.5979
      -373.2505      -376.6597      -469.0042      -587.8638      -629.8140
      -526.6637      -464.8492      -494.1185      -527.3389      -495.4993
      -530.4010      -641.6930      -587.3075      -491.7678      -497.6973
      -539.8680      -572.5122      -564.2881      -561.8936      -604.3186
      -594.6005      -460.2566      -404.0002      -483.5433      -510.3384
      -509.6931      -567.2167      -517.1296      -401.0092      -316.2996
      -386.4707      -438.7655      -366.5173      -346.8330      -336.3291
      -382.3214      -374.0125      -272.9832      -351.8566      -402.0761
      -342.4238      -236.7521      -195.7404      -319.0333      -379.8212
      -339.7040      -295.5193      -209.2683      -116.7686      -63.23602
      -126.7634      -121.0928      -169.6207      -246.3017      -132.5466
      -67.64667      -29.25362      -25.68512      -85.16629      -53.28229
      -55.81992      -118.2702       17.45834       71.69791      -55.09491
      -104.9096      -65.54520       46.64813       144.0362       62.58192
      -63.18993       32.06300       83.44963       69.23053       97.25961
       123.0649       238.1775       176.7208       11.81451       7.597076
       41.62231       182.0411       395.2231       335.2130       263.0703
       265.6915       243.5743       296.4406       286.1559       270.7063
       373.7574       331.0808       234.0795       238.2472       369.2424
       530.3767       507.8784       474.3517       433.3788       341.7893
       464.0513       610.1627       679.0848       676.9635       512.1987
       445.2223       421.6951       427.1951       514.4913       626.7451
       750.4419       738.9463       737.0652       671.6171       510.0076
       562.9080       721.3774       798.1226       850.9639       828.8228
       717.8494       600.5969       519.3206       603.6372       742.7246
       692.8379       623.8523       654.1324       672.0369       613.0848
       592.0081       671.6619       758.8586       863.8599       840.1544
       599.2578       511.4232       573.7067       658.8962       638.4292
       650.9709       721.1804       612.7341       556.6587       585.3149
       581.6956       639.7070       642.1880       519.0151       490.3301
       500.2972       520.5398       650.7385       721.8308       777.3694
       795.2097       733.4492       694.6428       553.2163       382.2001
       389.0538       378.2888       323.9639       258.1162       204.1013
       242.9268       382.2487       603.1248       752.8442       772.6616
       725.2861       436.4559       184.8856       97.89398       26.72313
    -0.02841187      -1.451843       72.09390       124.9056       107.1508
       164.1304       260.8756       313.4558       327.8695       273.1263
       89.60583      -141.9113      -353.5716      -262.0239      -8.164490
       140.5804       212.2612       145.5717       3.116577      -171.1122
      -365.8594      -524.4579      -559.7479      -365.8480      -200.0216
      -85.52304       7.003906       27.53725       83.83829      -2.802917
      -186.6371      -275.9753      -483.3328      -706.7046      -883.8276
      -1042.570      -1034.258      -978.4033      -931.3215      -720.5920
      -550.0154      -590.2388      -678.9182      -715.0142      -766.6707
      -828.5244      -984.2642      -1186.048      -1302.654      -1519.868
      -1829.712      -1996.199      -1697.645      -921.2728      -135.6548
       379.2041       539.2762       423.1255      -269.1677      -1243.017
      -1575.530      -1453.748      -1346.427      -1278.917      -1246.826
      -859.8076      -383.3216      -108.0218       104.9762      -45.29150
      -437.7065      -611.4907      -849.5303      -1278.131      -1504.321
      -1551.499      -1788.216      -1949.814      -1440.682      -715.9712
      -455.4259      -540.4009      -838.8755      -1142.402      -1212.603
      -1100.021      -927.6309      -474.1390       57.61047       36.55444
      -498.0688      -1021.742      -1373.942      -1353.460      -1065.348
      -788.6115      -524.6794      -190.3967       110.1422       321.0071
       213.0528      -217.4060      -458.2115      -448.5154      -712.0410
      -1108.980      -1176.804      -1122.949      -977.3846      -452.1699
       225.5352       753.5320       746.2739       255.9799      -301.1060
      -513.9556      -305.1788      -108.4413      -81.87342      -28.22498
       14.05566       217.0806       374.6866       489.8423       723.9768
       976.0010       854.7878       312.7983       38.49405       147.6792
       97.71875      -17.30127      -134.4781      -223.0840       39.33167
       404.7197       570.3416       696.9285       839.6011       811.9050
       549.5100       546.1862       578.0735       372.4275       365.1011
       560.9150       739.9741       903.5122       1035.883       1089.032
       726.9373       280.1243       281.6387       588.8452       912.9554
       779.9232       275.6349       94.27832       279.2626       520.9779
       650.1367       746.5000       833.1514       798.9226       653.1716
       515.5787       508.4336       588.5341       476.1074       393.8307
       548.6929       835.0608       928.8135       862.3525       785.4087
       582.8413       512.3878       591.0768       470.5854       373.2798
       436.8268       480.3625       467.6855       589.2090       730.4987
       711.2932       610.1367       539.9009       452.7067       382.1421
       439.4871       575.7213       599.0427       519.1050       305.2417
       279.3962       753.4038       1122.963       858.3953       438.7757
       222.1509       55.69533      -10.43948       139.5344       153.5057
       87.81238       255.0002       458.6628       365.7781       270.9675
       490.8201       586.1053       284.6356      -47.46558      -245.4031
      -96.32874       288.3749       508.7263       506.8227       337.2462
       199.3016       207.6158       209.1168       129.9838      -25.47249
      -44.77769      -36.43030      -50.02649      -113.9531      -130.2481
       110.7186       237.9196       147.6054       251.4310       307.4658
       379.0324       374.9410       55.18097      -131.7455      -87.30383
      -99.88110      -145.3129      -196.6879      -167.8900      -200.5869
      -269.6885      -139.4454      -5.552283      -1.098236      -12.76801
      -105.3743      -188.1216      -140.6270      -52.44617       60.44864
       128.8615       53.95633      -46.32611      -127.9579      -198.2431
      -271.5119      -205.5973      -35.81610       79.58284       31.92896
      -172.4124      -400.6781      -492.7971      -427.9429      -235.8537
      -138.8643      -82.06628      -14.84677      -91.55450      -178.9614
      -240.5360      -201.0284      -118.7095      -139.6337      -69.10889
       158.2465       356.6500       359.2975       282.0879       216.2632
       45.72198      -184.6958      -347.5652      -433.1547      -525.3445
      -497.4468      -212.4774       6.845978       74.58008       121.0083
       106.3440      -24.65054      -136.5767      -77.63962      -10.17419
      -34.88678      -130.3536      -127.7091      -5.417175       106.4045
       182.6690       139.5415       113.0273       118.2073       38.89857
      -39.59622       9.086182       223.2615       404.7843       379.2896
       274.2097       244.6514       246.7212       216.9424       139.7000
       22.63062      -159.9314      -172.9245      -111.3507      -49.77704
       94.99272       23.62396      -183.0367      -233.0717      -164.0459
       40.42383       291.8275       343.3727       225.0288       117.6084
       25.23121       6.274475       25.03326       30.74066       177.5110
       282.7927       212.6431       130.6726      -2.540466      -113.2261
      -213.0256      -316.1067      -268.9833      -232.0165      -283.2925
      -234.2842      -172.3123      -118.3893      -83.43781      -184.6237
      -302.3303      -295.8665      -269.8508      -240.8896      -236.4750
      -327.8182      -433.2009      -489.1461      -503.4792      -450.3394
      -485.0635      -671.0984      -655.3982      -499.8052      -425.7881
      -378.5127      -475.9702      -570.1597      -498.4071      -510.8246
      -608.5869      -580.5447      -589.3528      -649.1909      -687.6604
      -559.1423      -449.4203      -587.4634      -731.5486      -709.6516
      -550.5208      -470.3120      -565.2126      -725.8750      -794.7676
      -841.7107      -935.3354      -940.9788      -990.6802      -984.5337
      -870.5483      -857.7900      -862.8950      -798.7173      -717.6638
      -675.1191      -748.3254      -816.8982      -780.7498      -650.2839
      -511.5323      -511.8889      -574.0813      -612.5225      -598.8792
      -549.4285      -566.2299      -506.4650      -443.4153      -446.9468
