     0.02500000      -1984.616       2786.413      -12345.00      -12345.00
      -30.01003       218.5899      -20.26000      -12345.00      -12345.00
       0.000000       14.83000      -12345.00      -12345.00      -12345.00
      -12345.00      -12345.00      -12345.00      -12345.00      -12345.00
      -12345.00      -12345.00      -12345.00      -12345.00      -12345.00
      -12345.00      -12345.00      -12345.00      -12345.00      -12345.00
      -12345.00      -30.83090      -68.94810       1673.000       0.000000
      -31.37200      -68.11800       0.000000       97800.00       0.000000
      -12345.00      -12345.00      -12345.00      -12345.00      -12345.00
      -12345.00      -12345.00      -12345.00      -12345.00      -12345.00
       99.35159       306.9312       127.3579      0.8932801      -12345.00
      -12345.00     -0.3345140       90.00000       90.00000      -12345.00
      -12345.00      -12345.00      -12345.00      -12345.00      -12345.00
      -12345.00      -12345.00      -12345.00      -12345.00      -12345.00
      2008       244         6        45        25
       660         6    -12345    -12345      9945
    -12345    -12345    -12345    -12345    -12345
         1         7        13    -12345    -12345
    -12345    -12345    -12345    -12345    -12345
    -12345    -12345    -12345    -12345    -12345
    -12345    -12345    -12345    -12345    -12345
         1         1         1         1         1
GUAL    -12345          
        -12345  -12345  
-12345  -12345  -12345  
-12345  -12345  -12345  
-12345  -12345  -12345  
-12345  -12345  -12345  
-12345  -12345  BHE     
ZL      -12345  -12345  
[...]
      -161.2220      -162.0503      -156.2900      -149.9413      -146.1332
      -141.8374      -131.3319      -129.8108      -123.6537      -119.8635
      -115.1377      -109.3421      -102.1821      -100.7983      -95.52109
      -93.29303      -87.97128      -82.35408      -77.08569      -73.74594
      -69.59593      -68.40578      -62.37805      -57.40425      -50.90881
      -47.75763      -42.94247      -40.63496      -32.81115      -29.73663
      -24.20211      -21.58177      -15.72301      -15.00468      -8.515526
      -4.856564       2.505028       2.227421       9.290321       10.96552
       21.52911       21.09010       28.00142       31.45449       38.47011
       36.16745       45.61183       45.99564       54.68692       57.86121
       67.77925       67.86626       78.84534       84.33231       91.33737
       92.34204       105.4251       109.7913       115.5267       117.7871
       127.1955       126.4736       131.6215       134.1676       144.0063
       143.6031       146.8564       146.9954       153.7252       153.3912
       161.0332       158.5150       164.6670       166.0035       171.2914
       167.5584       176.2979       175.7642       177.2394       174.6398
       185.2219       188.1927       193.5447       191.2939       199.9905
       204.0227       211.4650       209.8248       218.6808       223.2853
       227.2554       226.7642       235.4653       238.8849       242.4763
       242.9452       249.6552       250.9999       259.8212       258.2605
       259.2147       262.6157       268.3997       264.9886       271.9185
       271.7974       274.0990       271.2631       274.3987       273.2223
       276.7943       273.7711       276.1742       272.4751       278.6075
       277.3954       279.1204       275.4713       275.4233       272.0353
       274.2799       269.0911       273.5139       270.8046       270.8512
       265.6917       265.7041       260.1526       259.6807       251.0765
       252.0491       243.4135       239.9613       229.9849       225.6511
       216.0732       213.5364       203.7067       198.0004       182.5504
       178.5201       168.2255       160.8210       149.2563       143.2882
       130.7981       126.4456       113.7357       109.4569       99.34479
       92.79749       81.93613       74.67508       59.76768       57.16382
       50.36692       42.87667       28.37545       22.66303       16.13759
       7.546504      -2.937923      -8.320488      -15.75262      -20.78804
      -29.72206      -36.41470      -43.95700      -55.12660      -59.61670
      -60.52945      -69.22412      -76.61713      -86.78894      -112.7783
      -128.8827      -86.30312      -25.68555      -104.0594      -253.4041
      -225.4509      -119.6952      -280.8494      -479.1889      -132.6082
       308.4106       65.11667      -177.0248       137.7307       125.9375
      -434.9503      -515.3004      -26.91850       78.91496      -41.10629
       6.897583      -222.0782      -426.2019      -293.2148      -311.7351
      -477.9858      -246.9368      -66.23743      -257.7004      -121.8925
       82.55859      -283.2026      -495.7559       59.97430       24.30762
      -675.0726      -342.3115       277.5893      -23.15027      -410.8888
      -536.9918      -480.0052      -282.6261      -114.9632       230.5195
       71.25513      -325.8844      -249.6521      -443.7141      -655.3427
      -121.3864       144.8243      -257.7982      -465.8982      -435.3831
      -169.1857      -276.3386      -535.2263      -230.6567      -114.9171
      -46.21854      -35.62634      -374.7172      -366.1092       52.02887
      -9.281250      -334.3955      -633.3287      -466.4912       219.4778
      -107.9177      -575.8591       70.16663       307.7020      -231.2872
      -321.3561      -180.0604      -306.8089      -167.9650      -8.139191
      -139.7478      -42.19272       154.6702      -25.01843      -366.1344
      -385.0749      -289.1840      -371.6639      -118.7535       326.5210
       364.9844       228.8869       31.52948      -280.9579      -258.6042
       144.7733       336.2690      -43.88757      -177.0289      -99.99683
      -271.1189      -134.9049       93.71924       32.14993      -47.56958
      -68.05896      -31.05408       39.88403       410.5528       346.2914
      -185.8708      -184.7172      -37.92267       4.704407       170.1017
       62.69727      -184.9481      -135.9711       80.33319       119.1753
       232.5941       259.6069      -64.28796      -247.4867      -82.91975
      -12.05578      -30.90576       89.29919       334.2904       110.5324
      -315.5146       27.22076       253.3072      -194.6322      -99.08025
       29.59787     -0.8690491       185.3870      -60.32129      -302.2527
      -32.69495       226.9321      -51.76440      -308.3555      -76.33089
       39.23477      -148.8557      -147.0190       266.2626       282.6199
      -91.01556      -209.5765      -246.8679      -139.0315       111.9772
      -39.79248      -151.0011      -2.410187      -107.5588      -77.64502
       164.5959      -11.89465      -241.2533      -92.01074       116.9024
       99.93152      -93.16351      -153.8882      -123.8312      -237.7928
      -190.2847       4.593910       42.35896      -76.47606      -62.71090
       26.04532       15.62000      -8.327625      -26.65994       42.96815
       30.24065      -57.72729     -0.6311607      -22.11441       89.47414
       43.30518      -145.3127      -69.80765       22.84540       134.7319
       128.4315       60.29321       165.7194       58.53670      -49.44302
       130.9321       133.9201      -79.90839      -123.5850      -42.55292
       83.07874       176.3283       175.2335       77.11340      -1.545776
       60.69061       158.9449       205.2912       172.7664       139.3527
       153.0539       65.20770       127.8414       266.1964       230.1223
       159.0050       144.7124       55.15088       93.44110       269.1246
       470.2867       465.5638       185.2439      -21.51892       124.0182
       250.0216       301.7183       420.4583       321.1410       187.5047
       224.6180       230.5428       312.0383       307.9432       209.9507
       383.1823       393.0497       218.1268       431.8213       524.9587
       293.7784       272.9928       366.6735       323.1418       358.8870
       363.1572       354.9299       459.8657       511.4023       434.3458
       448.9951       399.0864       323.7831       376.1311       575.3691
       521.0320       353.8799       518.7015       490.1310       206.8549
       153.4111       263.4026       368.3735       457.6951       495.4673
       413.3478       324.5768       223.5238       356.8947       339.0411
       244.3752       360.9462       277.6235       108.5756       225.1541
       367.5009       275.0633       196.3844       83.98700       59.00162
       80.14374       23.06891       215.4725       167.1035       127.5110
       296.6435       73.84509      -115.8087       58.70996       27.54910
      -122.8480      -155.2415      -142.0879       22.77417       156.7945
      -5.494473       9.224777       41.72192      -312.5806      -346.5072
      -69.99591      -107.5157      -126.8692      -139.4498      -196.0987
      -137.1514      -170.0265      -334.1795      -376.9149      -245.7987
      -138.7476      -273.8165      -486.8524      -454.3176      -332.3663
      -346.2302      -188.8972      -137.0202      -248.6652      -347.2114
      -439.1044      -416.4243      -293.8160      -197.4603      -308.4805
      -437.7407      -384.7848      -540.1620      -488.5366      -213.8950
      -337.0708      -390.1025      -264.6770      -307.8650      -462.7721
      -597.7472      -467.5370      -278.3383      -374.1390      -579.9741
      -392.8568      -198.7715      -459.9766      -612.9663      -466.5770
      -331.1321      -386.6598      -423.9594      -257.8113      -234.4948
      -353.7517      -435.0699      -431.3663      -338.7617      -341.1702
      -414.3031      -429.4670      -377.0692      -343.4735      -486.1812
      -472.1788      -366.1895      -314.5660      -244.9380      -390.5767
      -497.6838      -413.2728      -374.7542      -421.7817      -484.1866
      -374.3203      -244.6614      -343.1514      -533.0083      -390.5281
      -301.4445      -527.6434      -401.8943      -273.3447      -424.8589
      -386.5525      -407.5990      -309.5717      -183.1456      -353.8308
      -391.6985      -308.7627      -383.3633      -413.3505      -257.6770
      -84.50690      -124.4189      -331.7631      -503.6298      -304.4697
      -135.8330      -305.7620      -307.9658      -319.0780      -496.8380
      -329.2553      -56.90054      -45.38086      -199.9474      -230.6370
      -218.1074      -339.0139      -226.4346       24.71957       145.7318
       49.24573      -170.4886      -192.0738      -162.5132       5.355186
       64.02350      -27.87144       30.62574      -52.39227      -6.049805
       278.5082       292.3529       45.64925       15.66705       143.1254
       122.7046       126.2460       282.2496       342.8958       291.0396
       227.2822       157.4650       272.9460       405.5441       320.6932
       259.9996       307.1436       353.2220       335.5857       472.4908
       568.8450       361.1964       286.9409       402.4248       561.8123
       555.1255       536.3208       612.7312       448.0884       427.5259
       497.4348       514.8663       636.0156       517.8650       541.5532
       780.6968       644.5137       439.4520       559.2186       653.1774
       506.5792       512.8560       683.4548       785.0730       703.7830
       625.4666       657.9650       560.7693       600.1084       714.2183
       689.4771       650.4189       520.0520       543.1541       636.3367
       514.2288       617.8188       805.9155       631.9205       422.0737
       463.5178       492.9436       438.4543       583.1287       617.0248
       517.2186       516.1011       460.5189       446.5386       585.6667
       539.4886       327.3211       351.7173       304.6263       134.3717
       334.3800       412.9064       246.5598       299.7106       387.4983
       347.1873       374.1566       351.8981       269.6858       282.6015
       305.5042       290.3917       182.6783       151.7647       67.18521
       61.12372       281.1064       368.8293       328.9890       123.9047
       43.68762       349.2381       292.6000      -48.77353       88.79340
       231.0673       35.19211      -44.75256      -56.99768       43.44287
       203.9620       229.5935       214.3141       9.113998      -29.83652
       186.3604       59.03075      -11.96887       187.6075       31.49493
      -197.4220      -116.7926       71.12859       59.78624      -63.58693
      -48.13562      -63.23041      -134.9587      -15.39384       70.08850
      -150.9353      -380.9985      -460.8840      -402.4912      -318.1924
      -284.8534      -271.9579      -247.8282      -87.31100       9.928772
      -118.0670      -287.8350      -453.1147      -481.3213      -388.1824
      -345.9116      -387.6510      -436.3831      -473.5205      -499.5562
      -434.7271      -399.8750      -343.0505      -240.0549      -218.0784
      -391.6658      -504.5503      -571.4380      -679.4219      -775.1982
      -757.9875      -503.4520      -401.3340      -417.9141      -354.9407
      -507.4172      -698.8577      -772.0247      -932.9875      -845.4763
      -592.6516      -619.0410      -566.9099      -547.4514      -711.7519
      -423.3444      -135.9044      -475.3167      -795.6050      -954.7117
      -1053.338      -913.9971      -552.9163      -356.7129      -609.7524
      -721.0928      -654.5085      -864.2290      -843.8708      -485.6334
      -398.2471      -744.5005      -1065.571      -1268.264      -1617.365
      -1685.870      -1135.356      -457.2994      -6.602325       24.99878
      -508.7192      -1130.215      -1258.474      -908.9403      -292.1492
       348.6987       1088.097       1449.332       806.2450       227.2105
       239.4803       125.7357       287.2183       651.4753       198.3391
      -577.4258      -1137.562      -1158.337      -412.7783      -181.2278
      -403.7357      -370.9890      -640.4026      -785.6421      -6.631348
       796.5383       655.8177      -72.94348      -633.1497      -290.6123
       801.1426       1095.268      -115.2524      -1114.563      -543.0474
       249.7354      -76.50665      -532.1116       98.56543       960.1633
       1271.486       810.9438      -516.1223      -1426.621      -876.7180
       395.4688       1177.368       1579.591       1284.271      -389.5762
      -1984.616      -1489.103       514.1250       2313.434       2786.413
       1819.080       600.2949      -487.2584      -856.5889      -105.7090
       694.1205       869.8238       142.4048      -1061.516      -1303.965
      -549.3425       567.6074       1739.440       1900.404       840.3112
       18.65137       341.4280       854.9773       944.3022       1131.684
       1378.213       740.9708      -303.1030      -214.7158       341.5493
       233.7732      -30.59897      -137.6559      0.4589844       578.2573
       1199.642       1360.464       674.9207      -264.8105      -497.5054
      -263.3113       152.6025       935.8145       1971.823       2406.447
       1052.358      -469.8037      -499.4722      -148.4692       372.9448
       514.0012       176.3826       224.9707       126.8507       185.1173
       558.5122       444.1029       158.8336       293.6258       127.2752
      -64.88086       336.2466       570.3477       623.0601       536.7554
       682.4922       977.9962       685.1631       402.7294       121.5806
      -156.6874      -63.56342       39.10254       280.6898       229.8619
      -41.92688       351.1851       721.2739       630.3804       647.8677
       444.8503       185.7098       342.9739       230.4390      -109.3284
      -227.3229      -412.3535      -281.6021       264.2448       376.4351
       51.76978      -377.5654      -432.4998      -9.210571       148.3281
       301.5287       542.8618       398.6169       265.9234       283.6202
      -319.2156      -1183.816      -1135.313      -741.7737      -727.4849
      -390.1545       421.1387       1045.930       852.4330       332.3183
       132.1605       52.29420       21.76672      -92.03128      -131.8710
       14.82037       172.5077       351.3982       172.8453      -267.3879
      -341.5208      -457.5088      -701.2534      -469.3463      -507.2847
      -989.4302      -1226.623      -1126.795      -1111.758      -774.4955
       114.3616       767.3882       1170.141       957.1575       635.0374
       839.0778       482.5663       228.7220       272.9818      -204.5627
      -481.1062      -427.4692      -169.5740      -67.88806      -538.7739
      -615.5345      -497.5884      -467.9855       181.2465       688.5123
       438.2333      -233.3311      -697.0461      -438.1797      -260.1022
      -450.7652      -374.3267      -137.0804      -5.093872       127.7761
       425.4141       588.2159       272.8743       150.3470      -12.04004
      -383.1254      -335.9490      -463.5774      -788.2811      -653.7026
      -401.7263      -154.5285      -96.50818       5.469238       240.9246
       99.85754      -144.8225      -388.8527      -417.8654      -293.0262
      -127.4816       33.03070      -144.1431      -67.20819       71.34863
       138.4836       385.7539       512.3993       644.2206       417.6583
      -108.4495      -284.6423      -523.5225      -792.0015      -1065.435
      -1138.442      -805.3182      -350.7740      -133.6665      -256.8894
      -395.8195      -361.7686      -234.3897      -172.5924      -262.5396
      -533.1056      -737.0330      -509.5768      -162.8108       90.92789
       113.7804      -91.71637      -90.64481       22.46289      -141.3580
      -134.2846      -84.71826      -337.0452      -457.1213      -352.1941
      -441.3616      -694.7205      -787.3279      -815.4644      -652.9279
      -288.3605      -173.0498      -218.5427      -541.0918      -969.3213
      -779.8258      -289.8467      -271.4621      -246.9924      -46.10837
       10.12036      -105.5848      -502.8240      -651.4974      -357.3162
      -367.5642      -395.1580      -373.0725      -661.6721      -749.1648
      -587.8604      -863.6106      -1131.064      -952.1077      -699.8555
      -499.3469      -364.4755      -80.90808       197.4222       163.5011
       124.6223      -173.7627      -664.0103      -693.7207      -774.1138
      -908.2195      -628.7251      -430.1356      -166.7076       98.78323
       2.861847      -43.13538      -163.2402      -434.3081      -417.6573
      -420.3348      -357.6559       25.50323       141.4930      -69.12677
       87.93988       235.9322       98.05519      -33.48010      -181.0803
      -438.0999      -578.7742      -285.9261      -25.58972      -196.2720
      -316.1961      -179.8213       59.22302       259.5925       375.3394
       441.0259       742.4351       649.7822       132.5436       160.8761
       315.1979       310.5074       376.5726       234.6473       246.2931
       342.9713       272.2791       270.6505       183.2206       300.6904
       675.8982       789.1995       725.1533       703.5317       768.9597
       856.8887       915.7198       606.8218       234.6732       402.0962
       713.2690       971.9834       1302.881       1126.065       783.2233
       719.7197       529.6287       488.1523       878.1025       1065.779
       799.9114       760.8606       896.3745       755.7021       823.4756
       899.5388       774.9951       871.1968       939.0845       810.6090
       592.9456       380.0609       418.6909       842.0273       1322.787
       1398.219       1292.508       1203.698       971.7971       892.6184
       913.9827       811.1929       867.5332       874.4331       894.1653
       1011.550       848.7764       755.4031       900.6145       935.5522
       848.4314       901.8364       958.6663       901.0054       940.1743
       852.7716       652.3743       489.4711       218.0481       204.0239
