     0.02500000      -2087.586       1614.495      -12345.00      -12345.00
      -29.99998       230.3000      -32.40000      -12345.00      -12345.00
       0.000000       24.45000      -12345.00      -12345.00      -12345.00
      -12345.00      -12345.00      -12345.00      -12345.00      -12345.00
      -12345.00      -12345.00      -12345.00      -12345.00      -12345.00
      -12345.00      -12345.00      -12345.00      -12345.00      -12345.00
      -12345.00      -31.89390      -70.19730       4105.000       0.000000
      -31.37200      -68.11800       0.000000       97800.00       0.000000
      -12345.00      -12345.00      -12345.00      -12345.00      -12345.00
      -12345.00      -12345.00      -12345.00      -12345.00      -12345.00
       205.5686       253.1094       74.19475       1.848341      -12345.00
      -12345.00     -0.3222117       90.00000       90.00000      -12345.00
      -12345.00      -12345.00      -12345.00      -12345.00      -12345.00
      -12345.00      -12345.00      -12345.00      -12345.00      -12345.00
      2008       244         6        45        37
       800         6    -12345    -12345     10413
    -12345    -12345    -12345    -12345    -12345
         1         7        13    -12345    -12345
    -12345    -12345    -12345    -12345    -12345
    -12345    -12345    -12345    -12345    -12345
    -12345    -12345    -12345    -12345    -12345
         1         1         1         1         1
GUAR    -12345          
        -12345  -12345  
-12345  -12345  -12345  
-12345  -12345  -12345  
-12345  -12345  -12345  
-12345  -12345  -12345  
-12345  -12345  BHE     
ZL      -12345  -12345  
[...]
      -67.98584       142.4309       393.7681       412.0293       411.4749
       450.1321       316.0763       247.2255       362.3395       398.2087
       286.7506       260.0100       404.1057       455.5677       347.1565
       333.0150       413.4933       503.7317       517.0515       454.1567
       410.1251       341.0366       320.9984       398.6760       361.4725
       263.1509       278.7969       367.4824       373.9532       344.7985
       384.0658       428.9700       510.9613       597.0492       460.6564
       311.2922       374.1965       463.3748       463.3246       361.9714
       166.4645       134.0547       262.6976       427.7267       523.9490
       438.8690       380.8745       448.7009       380.3531       185.0677
       109.3685       214.5800       309.4749       320.0774       394.6443
       558.0864       495.0739       266.7977       213.6749       254.4797
       230.5448       275.2388       375.8162       320.4805       148.3449
       84.04944       153.6594       231.1635       201.4623       170.5686
       176.0656       197.2576       227.2222       275.3312       353.3737
       351.0379       247.4332       142.1393       98.25372       171.2194
       243.2895       193.4415       147.2048       237.7962       241.0677
       147.0473       68.40186      -48.65887      -124.5628      -53.63074
       99.62537       215.2713       231.6453       245.8577       249.8029
       111.5001      -62.70834      -120.9517      -48.75528       75.10101
       103.8317       57.42184       19.70056       77.65256       169.4371
       159.2523      0.7352295      -206.5908      -293.1920      -150.6970
      -26.99371      -63.69955      -103.4727      -112.5204      -110.8451
      -144.6120      -227.6546      -208.2429      -137.6770      -117.3045
      -134.9884      -237.3782      -362.3571      -297.5885      -212.6660
      -212.4380      -88.18021      -61.34698      -304.3939      -359.6469
      -191.1301      -194.8329      -256.2460      -172.6490      -190.8447
      -278.4321      -188.5228      -104.3293      -218.6199      -357.9705
      -332.0798      -247.7012      -232.9979      -145.0829      -44.68585
      -103.7373      -228.0229      -211.6302      -146.2862      -109.9040
      -4.870056      -8.501587      -169.7278      -198.8468      -59.52985
       15.89413      -82.17065      -192.1196      -176.1947      -34.39993
       63.41259       23.76724      -46.30579      -153.0127      -290.1644
      -310.5136      -154.9540       7.668121      -8.148499      -119.2022
      -78.56070       69.29616       61.60339      -79.96426      -166.4731
      -139.6573      -65.07466      -51.96024      -50.42343      -84.81451
      -229.7986      -212.0501       16.22223       127.9848       43.32764
      -147.6506      -341.3134      -252.3740      -50.52539      -18.06932
      -57.39160      -89.46945      -134.5995      -193.1047      -138.1713
       58.95276       166.4739       48.32047      -89.50970      -66.49261
      -127.6450      -238.7802      -128.2990      -13.78023      -103.1660
      -42.00647       195.6074       259.5536       164.3915       55.32782
      -28.33304      -97.23785      -245.6987      -342.9488      -217.7307
      -21.79572       54.90189       70.52058       50.27925       14.12134
      -20.96703      -43.27536      -52.76898      -104.5049      -139.3363
      -78.51514      -42.30991      -150.5197      -174.3994      -22.97126
       28.59202      -13.96427       7.231522       46.37926       33.74960
       81.75615       86.88324      -89.51294      -201.6212      -252.4919
      -264.7947      -218.3415      -166.0779       28.11703       154.9055
       78.99921       77.62878       79.92411      -31.85704      -49.14161
      -8.899139       34.42987       105.9071       177.2570       286.6434
       264.9406      -7.692993      -281.0677      -283.3915      -63.79672
       101.7139       184.6067       210.7365       195.6558       268.6838
       423.3312       398.0157       198.6122       83.23090       105.1131
       102.4957       55.66788       58.42462       182.4626       265.8355
       150.5597      -27.12656      -35.01294       138.8438       287.4098
       374.1377       407.8871       265.4432       43.86042      -43.16975
       18.42510       29.71484      -4.038605       115.8786       264.5799
       205.9227       105.9402       127.1436       148.4458       58.49164
       19.98235       66.68182       73.67273       83.31259       83.44946
       67.62100       43.76331      -107.3763      -128.4978       48.18860
       142.0083       176.0023       180.2160       150.5304       144.6444
       10.70016      -98.72217      -58.57861      -48.89166      -99.76967
      -86.77979       105.1934       255.9089       102.9184      -27.22589
       34.58585       95.12451       133.1516       119.2259      -30.13293
      -109.3075      -87.11008      -1.427353       80.41928      -18.28221
      -91.17160      -7.437927      -18.48129      -88.25847      -68.73233
      -47.83311      -38.87236      -11.93228      -25.60626      -65.22052
      -55.30409      -20.26690      -9.854420       2.662888       14.45178
      -74.20981      -161.5848      -104.3433      -33.47205      -99.39072
      -139.9041       20.19295       123.0172       8.936035      -94.04510
      -44.67114       143.5532       225.5069       106.1447       25.01471
      -70.75635      -215.5668      -219.7187      -99.74977      -41.04401
      -82.85020      -86.74481       25.85016       107.9367       106.3825
       9.486267      -110.6587      -115.1077      -126.4283      -186.1873
      -109.7097       41.37021       124.8738       67.86609      -110.9029
      -212.1746      -170.9969      -58.30731       13.59344      -31.24123
      -54.45216      -8.363281      -65.10733      -144.6853      -57.12917
       5.495331      -92.42847      -189.7515      -251.0079      -238.2435
      -226.4245      -241.8605      -199.4723      -154.8463      -86.09070
      -56.44191      -70.33209      -101.2864      -232.3568      -308.7243
      -202.6296      -86.09854      -51.67725      -96.86035      -220.9241
      -354.6528      -409.2700      -409.6456      -385.2344      -326.4612
      -290.7905      -249.2766      -172.1771      -136.0314      -125.7731
      -129.9784      -177.2859      -333.7614      -443.6923      -364.1621
      -287.5204      -345.7521      -305.4267      -153.1588      -199.9357
      -419.9318      -509.0923      -549.3291      -619.1272      -586.0414
      -372.5812      -88.22816       15.98230      -76.99719      -164.3633
      -282.9224      -448.1769      -511.4747      -433.3786      -279.3757
      -126.6783      -75.30054      -87.12701      -135.2130      -239.6351
      -256.3668      -260.6007      -406.0753      -475.8268      -316.3589
      -117.5731      -100.0518      -145.8664      -107.1757      -146.6059
      -242.3847      -194.3265      -77.01483       120.4937       255.1868
       233.4027       341.1949       402.0241       135.2719      -209.8696
      -420.0343      -383.6908      -126.0447       144.4836       365.8516
       484.3600       427.6841       322.6426       165.1287       19.14228
      -13.76482      -20.58527       57.90674       335.6213       598.4412
       672.0840       588.3635       509.9651       399.6561       263.9730
       265.0605       339.3181       361.8594       407.7000       502.3008
       512.6958       406.1376       294.4881       185.4751       159.3436
       242.5848       420.4331       639.4868       778.4519       823.7183
       868.1013       855.7899       713.9381       528.8683       450.9852
       532.2858       648.4458       716.2664       787.4404       791.7422
       697.0483       535.2396       343.0046       239.9564       366.4209
       668.1196       888.0605       977.9150       965.8862       751.4449
       532.2563       568.2896       719.6326       840.1624       917.2000
       921.3950       1018.903       1062.435       770.5413       437.5338
       349.6930       312.4158       339.7686       582.7095       833.4138
       897.3398       810.8982       722.7319       677.1458       572.1611
       407.9713       384.2046       572.7334       684.2734       682.0715
       749.6287       722.1138       510.1110       345.6650       227.3493
       209.1205       401.7234       600.7725       602.5170       443.5037
       277.7582       252.9755       219.2457       157.7902       234.3497
       283.7625       242.5419       289.7906       267.7706       74.00299
      -137.6170      -179.1835      -191.8848      -296.3373      -332.2982
      -96.79895       164.4826       169.7088       5.588623      -165.5018
      -243.6343      -280.1661      -427.1816      -489.8596      -504.7639
      -605.4208      -602.7997      -459.9008      -399.7780      -521.0957
      -670.9512      -700.6189      -715.4790      -687.9058      -550.1230
      -416.1458      -410.7249      -612.7700      -900.2188      -961.2554
      -917.5730      -988.9031      -1037.500      -958.4233      -849.1189
      -758.4783      -743.2979      -861.8196      -1038.935      -1087.276
      -1038.054      -1042.645      -1021.041      -852.2889      -596.5752
      -530.2974      -768.4397      -978.0698      -1073.928      -1097.013
      -979.2405      -817.8799      -811.5068      -946.8293      -1039.872
      -955.9355      -810.6528      -721.9106      -685.4666      -688.2854
      -798.8667      -952.1296      -1070.057      -1047.289      -886.6311
      -741.3350      -745.9443      -782.9255      -680.6274      -545.5093
      -587.9858      -661.4009      -741.5688      -796.7299      -701.8434
      -585.5581      -505.9785      -426.1522      -514.9218      -647.9026
      -737.3789      -798.3386      -744.2480      -569.9167      -433.5582
      -306.3817      -213.4904      -225.8644      -307.5890      -366.4037
      -329.6841      -137.3910       61.26465       158.3185       119.2155
       4.519531      -281.6475      -628.5662      -619.5457      -347.0865
      -188.6942      -101.1193      -100.7736      -179.4780      -208.4341
      -248.8818      -384.0079      -364.9025      -263.7324      -245.3272
      -154.6478       106.4358       296.8318       455.8481       815.9478
       1038.821       630.0817       90.86066      -134.3781      -142.8182
       246.3337       635.0571       633.6012       683.9625       506.9696
       44.09100      -105.5914      -216.7919      -337.3649       106.9312
       720.0830       957.9509       730.5043       137.9223      -47.06177
       667.4639       1386.933       1258.955       652.7474       348.2066
       152.5258      -227.3691      -62.96924       840.6196       1484.439
       1414.689       880.7894       106.0372      -103.8964       406.1958
       585.7690       685.0205       994.3219       568.5725       212.9829
       820.4688       1171.626       940.0491       932.4663       1299.223
       1289.680       636.0897       248.9691       391.2341       404.2776
       365.7434       561.3125       794.7153       1098.779       1210.166
       745.3433       397.1221       567.1028       864.7097       1041.739
       574.1263      -265.5679      -368.8757       191.9482       880.1147
       1432.693       1553.358       1105.109       153.2415      -498.8781
      -153.4041       641.1069       1098.781       949.5473       438.2619
     -0.1207123      -91.50085       204.5161       490.3382       297.7821
      -72.85541       16.14502       605.4331       1040.396       1030.731
       933.1821       917.1515       569.4933      -12.06430      -179.2237
      -71.90784      -187.3331      -434.5135      -487.5903      -238.7125
       126.8625       198.1210      -190.1591      -634.3999      -741.2871
      -590.4614      -424.4613       112.5259       1012.438       1223.468
       578.6218      -48.54102      -583.1909      -1087.060      -1119.803
      -605.7657       54.28540       506.6370       610.2684       262.6033
      -503.6357      -1240.640      -1554.726      -1490.199      -1048.093
      -254.2241       511.3911       837.0989       404.8853      -466.7900
      -978.9766      -726.7159       13.57629       599.2161       512.9013
      -86.61816      -786.7979      -1134.681      -909.9329      -369.6034
       48.19565       210.2914      -1.671387      -565.6875      -1050.492
      -1339.006      -1370.453      -949.1458      -440.4909       31.12280
       378.7383       677.5784       1032.274       999.1425       570.6177
       504.9192       832.5842       728.8846      -140.9575      -1045.855
      -1633.308      -2071.788      -2087.586      -1319.641      -91.58643
       872.9207       1241.641       1510.392       1614.495       1013.131
       133.0024      -379.0605      -564.1400      -621.1367      -608.0021
      -338.3031       193.9836       491.6945       427.8109       465.5372
       380.1309      -72.04102      -421.3176      -260.5371       54.08685
       220.9398       427.6323       578.5905       273.2172      -170.9280
      -313.3509      -80.47803       286.7649       522.5355       535.5792
       203.8838      -294.4662      -606.9218      -480.3533       134.7410
       690.2371       588.1034       30.48499      -240.3621      -209.4966
      -34.45264       523.0100       1009.680       700.2886      -118.0127
      -716.5884      -745.6042      -416.7942      -270.7471      -173.6671
       147.6697       365.6134       472.6489       560.5273       534.2565
       376.7573       49.16138      -293.6929      -392.0369      -112.8516
       178.2047       8.107666      -342.3064      -498.2078      -376.0785
      -209.6764      -269.9063      -134.7469       295.2516       318.5956
       69.79196      -37.97778      -282.0598      -526.2878      -514.9849
      -594.5411      -694.0229      -369.4330       193.1526       565.1530
       549.4448       158.0786      -376.8616      -862.7876      -1237.691
      -1278.400      -979.5482      -665.0836      -357.8235      -57.23461
       53.59109       61.55817       219.7438       300.3470      -81.14465
      -604.0342      -735.9304      -532.9329      -354.7527      -371.4265
      -626.9312      -855.6741      -760.4946      -526.2402      -424.1837
      -453.8167      -558.2390      -548.9426      -429.2020      -302.9088
       15.25262       211.4375      -90.83423      -366.0464      -313.2416
      -259.2964      -234.3665      -240.0042      -363.7035      -343.4769
      -202.5371      -436.0146      -1033.899      -1292.503      -1056.393
      -458.1639       291.7291       685.3328       533.8530       176.7132
      -146.5117      -726.7344      -1252.052      -1131.291      -733.7513
      -435.4635      -234.3301      -333.1621      -564.4399      -486.2346
      -357.4353      -329.6642      -176.0933      0.6191864       3.613281
      -159.9237      -485.0063      -984.8203      -1198.581      -1037.461
      -902.1859      -643.8798      -210.7750       102.7569       179.1526
       132.5446       251.4807       461.0594       422.9398       245.6636
       127.3889       83.12985       167.2177       95.70105      -336.3442
      -751.0435      -958.7168      -881.7690      -492.6247      -137.7353
       7.929626       108.5691       311.8344       454.6326       488.2982
       544.9697       692.9644       915.9534       748.3213       227.7187
      -61.81641      -288.3704      -551.1774      -440.4311      -141.8834
      -36.12695       87.18750       280.4386       456.8381       595.3064
       627.6492       732.3262       862.6035       934.2229       1142.287
       1093.984       637.0012       380.7893       362.6869       341.1979
       302.7708       336.6476       371.8671       227.5202       68.56628
       83.89856       291.4824       621.1335       1035.610       1316.338
       1181.146       869.6714       738.0103       741.8926       721.9182
       861.1770       981.5474       788.7593       575.1448       648.2117
       760.1466       569.5211       360.2820       462.6106       580.2988
       688.9851       829.0874       808.6738       726.0684       712.3298
       795.5430       1013.316       1241.371       1347.809       1248.447
       1003.936       864.1528       838.4861       808.3252       796.6730
       606.5475       297.1706       97.40189       26.81946       213.0254
       620.7986       982.7036       1078.588       833.1155       504.8020
       389.2516       403.8613       357.5222       487.5361       830.2686
       851.3450       515.1560       355.5668       383.2626       327.8447
       252.6685       193.8668       111.6361       170.8479       371.6077
       560.7136       617.4901       508.1713       380.7407       310.2140
       237.9637       166.4610       14.28705      -245.2551      -460.9254
      -479.8363      -248.3728       11.68445       68.26294       10.86288
      -69.50628      -49.64502      -16.42261      -143.9237      -234.1384
      -211.9991      -322.8239      -481.5012      -450.7084      -280.4949
      -268.0287      -388.7971      -469.3101      -557.2776      -491.3233
      -208.3663      -98.79175      -271.5063      -538.2969      -752.3367
      -858.3594      -778.5378      -647.2534      -738.6333      -867.5270
      -690.8818      -521.5762      -688.8557      -892.4919      -900.7793
      -829.5323      -640.4884      -379.3795      -113.4805       28.12622
      -132.0927      -453.3958      -660.4404      -833.3154      -978.5327
      -833.9219      -441.4065      -261.8823      -477.0647      -839.1162
      -1033.240      -936.5614      -696.5198      -486.7781      -395.4697
      -441.3829      -560.6064      -809.8167      -1000.735      -913.2134
      -739.9585      -615.9316      -496.6152      -430.9177      -478.0894
      -461.5228      -248.9525      -70.82483      -148.3418      -415.4275
      -654.3252      -674.6970      -553.8269      -602.4673      -823.1025
      -899.6846      -808.1064      -633.8828      -360.7150      -113.2120
      -31.31334      -29.11385       26.68823       125.6555       110.4255
