     0.02500000      -1702.564       2352.456      -12345.00      -12345.00
      -29.99998       230.3000      -32.40000      -12345.00      -12345.00
       0.000000       24.45000      -12345.00      -12345.00      -12345.00
      -12345.00      -12345.00      -12345.00      -12345.00      -12345.00
      -12345.00      -12345.00      -12345.00      -12345.00      -12345.00
      -12345.00      -12345.00      -12345.00      -12345.00      -12345.00
      -12345.00      -31.89390      -70.19730       4105.000       0.000000
      -31.37200      -68.11800       0.000000       97800.00       0.000000
      -12345.00      -12345.00      -12345.00      -12345.00      -12345.00
      -12345.00      -12345.00      -12345.00      -12345.00      -12345.00
       205.5686       253.1094       74.19475       1.848341      -12345.00
      -12345.00     -0.1023559       0.000000       90.00000      -12345.00
      -12345.00      -12345.00      -12345.00      -12345.00      -12345.00
      -12345.00      -12345.00      -12345.00      -12345.00      -12345.00
      2008       244         6        45        37
       800         6    -12345    -12345     10413
    -12345    -12345    -12345    -12345    -12345
         1         7        13    -12345    -12345
    -12345    -12345    -12345    -12345    -12345
    -12345    -12345    -12345    -12345    -12345
    -12345    -12345    -12345    -12345    -12345
         1         1         1         1         1
GUAR    -12345          
        -12345  -12345  
-12345  -12345  -12345  
-12345  -12345  -12345  
-12345  -12345  -12345  
-12345  -12345  -12345  
-12345  -12345  BHN     
ZL      -12345  -12345  
[...]
       10.44809       61.61682      -169.8108      -304.6960      -271.5810
      -248.1858      -328.9366      -325.2918      -216.6471      -121.9132
      -76.93965      -43.96198      -84.58960      -166.3557      -253.3182
      -286.7395      -179.6218       10.75143       9.814575      -137.0084
      -153.3595      -192.6274      -311.3016      -277.4722      -266.8928
      -223.2278       6.186554       143.4348       102.7564       22.58740
      -100.6353      -168.0679      -94.36237      -28.22839      -98.73880
      -155.6805      -153.4326      -112.0942      -43.28073       42.81287
       140.8264       100.3111      -60.41473      -130.7227      -195.2588
      -225.6009      -68.61566       158.0473       205.3778      -6.523560
      -248.0440      -218.4532      -70.44342      -49.89165      -29.72974
       106.5728       152.3367       69.37323      -66.98724      -144.0339
      -128.9895      -144.7387      -187.9947      -47.60345       150.8748
       221.0737       217.6982       113.0006      -57.20051      -25.15089
       69.44995       37.75226      -42.95676      -55.14365       51.03474
       101.6682       9.005569       33.39967       51.51793      -73.70477
      -87.65479       58.45294       148.4962       122.2889       50.25043
       103.2479       214.6797       170.9752       76.95459       222.3357
       386.4043       271.4428       29.54987      -113.7195      -99.78564
      -21.14345       19.63403       90.07471       175.1421       207.1841
       175.4852       171.8875       210.4138       231.8630       222.0161
       200.7101       121.2525       37.59232       6.981888       32.67677
       59.57150       70.13547       82.87961       112.7463       175.3967
       246.2743       225.0785       179.3759       161.9121       161.6359
       164.5762       52.93436      -93.39493      -106.0381      -49.75432
       54.42880       103.8939       122.9453       199.6758       240.7833
       173.6315       75.17802       34.65438       36.34479      -11.67716
      -70.33386       68.48486       213.1583       178.1735       146.8893
       4.755798      -220.2451      -279.2232      -166.4475       30.26434
       171.9561       201.8019       117.9734      -44.98380      -92.09111
      -31.02988       25.63027       37.00903      -15.75952      -109.8949
      -180.6339      -126.6704      -4.788116       49.12219       64.68396
       125.5528       141.5546       131.2659       137.1823       92.45419
      -14.21777      -139.9243      -134.5995      -8.325241       9.266403
      -63.49433      -31.81778       92.81732       108.0536       55.49878
       74.08087       177.7555       250.4086       197.6418       119.1114
       134.5005       170.2633       101.4923      -36.27940       21.20532
       206.4979       212.9107       137.3045       122.6607       88.95680
       49.24582      -47.42155      -94.04230       67.75690       190.4077
       147.0781       156.4724       207.5823       152.1129       58.31876
       74.32166       183.1260       276.9633       167.3333      -14.42470
      -15.09589       80.64917       120.3127       155.7267       231.6056
       255.7014       139.0277       23.48494      -29.91072      -60.92975
      -124.0090      -110.3762       14.74683       94.73309       101.6287
       181.8683       215.0685       74.56686       20.98596       113.0822
       58.33099      -72.15619      -141.3602      -125.5330      -39.66228
       46.90967       106.7424       141.0229       101.8690       76.78332
       61.23010      -73.41541      -277.7276      -300.3110      -176.9953
      -50.94040       34.18484       62.42990       2.142639      -82.00226
      -121.8247      -148.5550      -110.4089       23.67493       6.513794
      -158.9656      -340.2769      -435.0144      -396.9218      -271.4020
      -207.7905      -161.0846      -98.65384      -70.08429      -104.1759
      -234.9404      -420.1831      -467.2778      -366.3236      -167.4518
      -105.2999      -295.5786      -471.6698      -436.9092      -280.4292
      -118.2750      -143.9814      -289.2972      -400.3844      -366.5315
      -261.6562      -235.7306      -256.3094      -288.8914      -358.0212
      -379.6147      -354.6505      -284.3024      -256.8683      -308.7893
      -377.3396      -381.4653      -317.3094      -255.8206      -274.6066
      -323.3844      -427.9962      -528.2675      -454.1649      -302.9770
      -233.4481      -227.2838      -330.1245      -368.0576      -338.0554
      -373.7163      -394.2579      -290.1721      -186.2970      -245.7834
      -302.1759      -229.1690      -241.0994      -325.3779      -330.8187
      -323.3617      -426.7438      -458.3887      -353.7866      -230.8503
      -199.8728      -171.2966      -82.11455      -59.76068      -129.5692
      -174.5138      -169.4101      -61.50549      -28.72528      -140.4581
      -215.5585      -209.3228      -162.7145      -86.13583      -115.3440
      -77.08163       46.92755       82.85470       21.52120       3.450714
       44.61511       161.6983       227.7148       172.5325       181.8178
       281.0565       230.8052       51.12144      -31.29907       81.95154
       172.1071       231.8276       225.5110       156.0811       145.4119
       217.4850       289.5959       357.6624       442.3146       430.7867
       170.6353       76.09766       227.2635       318.2241       276.5497
       215.4976       173.8888       176.5298       185.1665       194.0706
       306.6929       522.5686       566.9105       398.6814       289.6492
       354.0122       332.3778       198.9867       121.0347       182.9481
       321.4364       423.1796       374.4368       270.8499       176.4171
       95.03375       138.1866       387.8364       587.9531       540.6833
       371.6835       239.1127       219.5691       308.7043       320.9332
       410.7336       597.0071       565.1021       302.9260       182.3864
       211.2202       236.2831       268.9847       348.6385       345.6395
       333.1963       387.9814       452.3453       453.0215       379.1631
       283.4935       245.2225       261.7793       365.8920       439.5853
       426.0505       391.8381       378.3282       311.9020       253.6334
       280.4067       321.4572       285.5158       202.3584       129.1035
       213.0378       388.5804       469.4214       401.4767       271.5394
       178.2701       101.9987       65.53668       174.8964       253.6238
       246.2017       244.9574       183.0836       90.38516       121.9766
       190.1701       248.9190       260.3452       183.1803       82.78998
      -39.04930      -93.05084       55.88876       165.9887       145.8759
       46.87506       25.40581       36.06378      -150.8444      -249.2731
      -112.6256      -18.60631       36.15465       47.04015      -12.10233
      -67.54877      -140.5557      -188.3891      -106.9032      -39.35173
      -53.62189      -118.5579      -157.6568      -140.3440      -187.3532
      -288.4030      -279.3404      -263.8093      -278.8818      -214.4902
      -173.6870      -240.2303      -206.8341      -98.25955      -81.06122
      -118.7676      -86.58292      -37.99420      -125.5942      -305.6533
      -398.7604      -317.0321      -181.4567      -271.6376      -390.3121
      -291.3502      -209.6127      -249.3271      -157.8238       44.32022
       135.7483       32.07516      -64.29071      -26.21320      -39.79260
      -232.9902      -454.7234      -487.6691      -314.1293      -164.1221
      -123.0020      -51.62743      -14.85394      -104.4009      -231.9363
      -337.7794      -384.3352      -330.6151      -326.6428      -404.7195
      -328.2425      -77.73642       94.50106       42.51440      -110.0027
      -162.6025      -97.46924      -20.36128       60.71788       6.317200
      -187.4152      -346.6561      -437.8516      -450.3604      -357.0125
      -263.7634      -300.6326      -332.9883      -279.7210      -150.9841
       11.53961       66.14284       69.14223       39.72244      -67.40369
      -157.0050      -153.0278      -63.52872      -41.00757      -182.6420
      -268.0518      -149.8736      -75.93585      -81.65692       74.13101
       197.1880       31.99585      -138.9225      -170.8415      -162.4797
      -153.4575      -165.5892      -181.9227      -48.77972       145.9076
       196.9973       95.13345       9.529121      -2.528320      -83.01874
      -186.4291      -163.6414      -83.47583      -89.51785      -132.3146
      -94.62659      -87.88660      -182.1344      -342.3503      -405.8325
      -268.8638      -87.92134       34.42426       126.3033       148.4041
       106.2650       51.91032       19.14923      -84.86401      -270.0270
      -362.8944      -361.6157      -367.3861      -274.5808      -146.7864
      -179.7080      -240.6177      -224.6409      -190.6670      -65.81192
       134.0519       192.2713      -16.39301      -214.8420      -230.1134
      -218.9587      -257.1531      -312.9670      -411.1458      -396.1758
      -151.2943      -17.84729      -92.05820      -59.69897      -69.53766
      -207.0215      -244.6644      -145.3549      -35.67039       40.09706
       76.96796       11.43237      -190.4021      -361.1136      -366.9247
      -271.8989      -261.0628      -213.2882      -2.758850       170.5735
       111.3649      -13.37058      -17.92345       43.86879       73.69267
       12.38611      -211.2658      -280.5420      -73.88110       52.06694
       5.578451      -3.732155       34.76876       57.00364       2.850677
      -119.5216      -267.2567      -294.4548      -98.27332       236.8441
       418.4142       362.1707       240.4938       219.1608       188.4015
       62.02614       14.98051       54.07431       72.69736       89.37778
       55.50037       103.4573       297.5521       435.3580       421.9243
       343.0210       226.3251       196.8956       296.4094       346.6039
       312.3627       410.2050       471.6904       336.5830       205.8737
       183.9375       257.3362       429.7157       506.2809       486.7269
       445.7299       365.1487       360.9441       537.3960       697.9238
       615.5194       403.8815       344.1842       337.1238       339.0598
       431.2164       481.3956       401.0657       391.4525       488.7123
       602.0845       631.0188       583.3145       503.1682       520.5592
       534.9198       478.6022       530.8237       650.4189       535.2957
       209.1699      -238.1545      -531.6763      -368.5356       136.0612
       476.4102       557.9022       527.4399       335.2837       71.50433
       189.6971       399.7593       498.6055       905.4102       1174.841
       567.0247      -90.73352       7.397949       523.6367       835.3893
       756.0248       315.8274      -459.9558      -1083.850      -1125.639
      -607.4753       257.0122       831.3047       1265.280       1707.563
       1076.176      -307.9082      -570.9224       28.53131       163.7059
       207.8762       344.2633      -305.1362      -699.7043      -296.5000
      -474.2957      -608.8435       220.4475       876.7654       746.8677
       283.6377      -327.9075      -1033.582      -1225.561      -646.6923
       244.7322       688.3975       203.2224      -638.2627      -832.9680
      -604.1260      -595.0632      -326.1021       386.3023       398.2642
      -548.8774      -1421.994      -1588.169      -959.0721       96.50427
       493.9565       432.2935       423.5941      -156.5583      -765.7620
      -698.8123      -581.2114      -693.8745      -735.7368      -772.0200
      -1043.715      -1283.277      -1003.373      -84.12854       449.0270
       173.2980      -93.34546      -190.1006      -500.8169      -1112.712
      -1378.034      -1255.618      -1310.602      -984.2716      -63.96289
       567.6868       247.6674      -367.7664      -183.5614       597.8461
       795.9685       304.6030      -291.8845      -894.2661      -1443.414
      -1482.890      -883.8647      -662.6594      -948.3118      -612.6150
      -194.2805      -272.3270      -310.7147      -29.99927       536.0586
       796.5988       416.5739      0.1279297      -175.6372      -579.4053
      -1009.112      -888.2654      -911.4731      -1086.980      -649.5071
       231.9607       942.9382       1172.781       1062.765       434.5083
      -816.7158      -1683.010      -1418.044      -786.3499      -293.1970
       322.7839       859.7463       1025.940       573.1863      -13.86798
      -86.95935      -154.4424      -553.8965      -951.6191      -1254.013
      -1233.745      -864.3345      -184.3560       901.9653       1982.723
       2352.456       1876.670       853.8096      -379.6157      -1165.810
      -1134.181      -616.3589      -316.7931      -541.3530      -623.0797
      -355.0913      -108.3472       301.3623       870.9326       1341.297
       1713.446       1411.394       382.3362      -420.2887      -428.4127
       117.3621       552.0820       484.3831       245.5564       59.37378
      -181.4515      -415.6223      -283.5242       390.4564       755.0068
       381.2914       233.7542       406.1333       626.3669       1032.490
       1224.685       1035.383       523.4529      -161.6965      -629.4912
      -921.8422      -838.3344      -179.8828       493.4897       727.5798
       673.3291       652.6030       663.3323       671.1085       711.0480
       523.8896       170.7328       243.2747       830.1826       1353.154
       1417.923       897.2708      -185.7900      -1272.970      -1702.564
      -1278.784      -328.3367       601.1431       1094.258       1148.207
       890.1008       210.8019      -290.5294      -102.3546       280.2676
       451.6953       300.3074       188.1932       358.4817       483.4727
       645.0986       882.7454       784.6226       587.6160       402.1814
      -161.9731      -760.3027      -883.3389      -754.2851      -435.1413
       120.7972       347.3118       141.7766       96.84058       344.8959
       609.9990       730.0867       766.6749       542.0554      -70.53711
      -629.8235      -829.4546      -782.9733      -250.4216       480.9272
       576.1355       148.8828      -159.7506      -240.7496      -249.0157
      -135.7280       181.7219       380.3000       358.6387       369.8225
       260.7046      -147.4105      -349.4468      -356.8843      -506.0098
      -607.6696      -547.4531      -318.1116      -95.98346      -204.5837
      -384.3639      -283.2402      -6.667328       172.9082       146.6760
      -33.82138      -38.37826       21.09216      -68.77818      -54.58975
      -16.48181      -158.2352      -120.2487       6.699219      -202.8118
      -501.6626      -587.4961      -526.4062      -291.5836      -75.18603
      -32.41156       26.24805       72.12885       21.57556       260.7374
       455.4744       289.6480       214.5141       100.2483      -300.5410
      -717.2209      -975.9641      -851.4619      -536.6834      -270.4779
      -37.61310       157.7494       427.0664       692.6797       645.2109
       359.4987       89.96722      -135.8839      -321.9700      -355.7605
      -204.5168      -67.37817      -74.15430      -104.2207      -326.8175
      -499.6583      -250.7456      -12.54839       34.83536      -8.781479
      -115.7490       76.33716       410.1113       488.7643       339.1462
       29.09027      -280.5912      -315.8857      -108.3792      -3.185669
      -212.0671      -394.1107      -265.2762      -90.70996      -164.8428
      -172.7217       80.22775       174.1717      -2.248108      -171.0844
      -350.6697      -486.9019      -410.3321      -179.6023       29.59573
       103.4809      -109.6655      -453.2866      -580.5759      -452.3422
      -307.0905      -110.4248       80.19409       167.5825       202.2335
       170.2620       109.2464      -52.72156      -324.9016      -489.6235
      -616.7349      -695.1777      -693.9348      -677.6273      -624.4448
      -405.8051      -146.0609      -63.47664      -69.23488      -60.64696
       13.52295       219.3531       262.0943       37.67432      -165.1179
      -188.7428      -96.68998    -0.06706238      -10.45639      -49.63867
      -139.8223      -430.4175      -818.4355      -977.5774      -740.2399
      -266.7006       82.61877       207.9401       174.6945       108.5195
       158.9520       183.2874       61.25464      -90.71780      -135.5002
      -41.54523      -5.281494      -81.11874      -110.7109      -129.4564
      -263.7445      -437.2625      -566.0787      -556.2245      -278.1729
       191.0123       546.4342       656.9125       583.1544       522.3275
       365.5500      -34.96851      -381.8052      -648.2979      -824.4504
      -663.0925      -339.0439      -8.818970       371.4573       679.6074
       723.3737       557.1450       423.1316       518.3308       595.3435
       359.3009       51.29327      -90.05827      -58.95938       3.907196
       2.532806       125.4273       206.2195       119.8859       115.9453
       314.6023       519.7913       547.7137       448.2949       363.4307
       326.7519       239.3641       195.1625       303.4517       375.6921
       430.9121       553.0049       549.7968       389.1396       293.0183
       273.7372       287.3506       354.9807       507.2871       691.7888
       743.5205       598.8730       329.5706       109.7361       124.8015
       342.5090       596.1892       734.2615       610.8440       365.3616
       321.8735       423.8472       444.3221       468.4312       664.0820
       971.0227       1046.257       797.6249       583.5035       506.0151
       261.3416      -146.5095      -287.6182      -73.52985       226.3158
       480.8054       652.3564       785.4312       839.5234       792.1079
       669.9390       553.4420       574.7877       628.0576       584.0017
       539.7830       533.7556       394.2558       207.0349       143.2212
       116.5141       106.8749       101.8060       206.9941       520.5959
       678.7048       432.7366       116.9707      -55.42120      -148.0893
      -49.43396       157.6809       206.4872       76.26614      -32.82700
