     0.02500000      -1475.945       1265.773      -12345.00      -12345.00
      -29.99998       230.3000      -32.40000      -12345.00      -12345.00
       0.000000       24.45000      -12345.00      -12345.00      -12345.00
      -12345.00      -12345.00      -12345.00      -12345.00      -12345.00
      -12345.00      -12345.00      -12345.00      -12345.00      -12345.00
      -12345.00      -12345.00      -12345.00      -12345.00      -12345.00
      -12345.00      -31.89390      -70.19730       4105.000       0.000000
      -31.37200      -68.11800       0.000000       97800.00       0.000000
      -12345.00      -12345.00      -12345.00      -12345.00      -12345.00
      -12345.00      -12345.00      -12345.00      -12345.00      -12345.00
       205.5686       253.1094       74.19475       1.848341      -12345.00
      -12345.00     0.06925713       0.000000       0.000000      -12345.00
      -12345.00      -12345.00      -12345.00      -12345.00      -12345.00
      -12345.00      -12345.00      -12345.00      -12345.00      -12345.00
      2008       244         6        45        37
       800         6    -12345    -12345     10413
    -12345    -12345    -12345    -12345    -12345
         1         7        13    -12345    -12345
    -12345    -12345    -12345    -12345    -12345
    -12345    -12345    -12345    -12345    -12345
    -12345    -12345    -12345    -12345    -12345
         1         1         1         1         1
GUAR    -12345          
        -12345  -12345  
-12345  -12345  -12345  
-12345  -12345  -12345  
-12345  -12345  -12345  
-12345  -12345  -12345  
-12345  -12345  BHZ     
ZL      -12345  -12345  
[...]
       266.7565       290.9674       396.5948       415.8995       455.4055
       538.7830       564.5731       293.5905       47.56146       119.7657
       301.4698       443.6479       473.9001       462.6595       270.4984
       174.0154       348.3640       382.2261       302.2267       223.3757
       149.3017       142.0022       222.7317       379.8555       377.6206
       207.9723       139.1443       206.4126       224.1537       149.0378
       179.7355       296.1990       328.0043       264.5026       155.0117
       113.4282       61.31438      -22.86334      -83.39176      -44.41904
       61.14539       158.1545       229.1566       162.1316       17.29195
       18.17249       13.55664      -95.07666      -116.4619      -123.7546
      -90.10996      -31.72645      -30.30448       14.39470       38.07733
      -88.47266      -322.2247      -415.0825      -301.7119      -145.0744
      -17.40750      -59.54462      -189.5338      -157.7266      -174.5819
      -373.4795      -417.9958      -227.4158      -134.1115      -262.5189
      -347.4472      -247.1192      -166.7605      -166.0042      -272.6511
      -438.2759      -553.0225      -527.7697      -387.6099      -365.5986
      -437.1901      -387.1573      -327.5028      -318.3579      -376.6184
      -497.5999      -597.6754      -551.6334      -425.5785      -490.2161
      -551.8463      -475.8267      -497.1101      -574.9723      -542.3496
      -520.9473      -518.4293      -456.7048      -429.6261      -400.3594
      -501.4286      -683.0909      -622.1179      -413.7777      -371.9106
      -509.5946      -603.1272      -557.7079      -557.9960      -514.0427
      -400.6367      -557.8076      -708.9133      -613.1750      -452.1321
      -416.0808      -493.2468      -538.3287      -544.4227      -460.6293
      -417.8529      -455.9805      -408.0104      -354.4025      -290.3881
      -285.8640      -394.1697      -457.2582      -419.9373      -397.5264
      -421.1960      -338.2229      -230.6501      -147.1973      -121.8152
      -244.8171      -338.0803      -330.3782      -217.1199      -145.5135
      -171.6259      -161.2817      -174.0425      -183.6174      -105.4397
      -5.326416      -84.34509      -232.9030      -197.7127      -122.4750
      -48.47169      -14.69254      -52.43350      -40.08174      -27.46996
      -17.83038       87.70230       187.1483       91.10480      -119.0598
      -215.3042      -137.3955       7.037415       101.6102       60.16639
       14.17694       57.05533       91.42017       57.88489       101.3498
       156.0720       25.26263      -157.9779      -152.4314      -56.12149
       34.26715       86.76614       142.8035       170.2198       131.5693
       140.7259       179.0544       139.7087       86.40067       45.00970
       66.16785       127.3640       132.7684       107.1502       19.49176
      -9.726501       135.0725       205.7217       183.3444       138.4658
       188.7761       310.5094       298.7487       227.5033       69.84525
      -102.8361      -28.35233       146.8372       172.9586       178.8672
       180.9694       208.9553       245.2453       214.7568       189.8692
       160.0133       204.3460       198.9717       105.8786       52.25201
       97.59766       217.5139       280.6732       336.2592       305.7929
       166.2141       87.78406       107.5977       171.4231       213.2856
       203.7802       185.6825       116.6307       170.3342       262.2968
       327.4656       381.1702       324.0217       290.5544       179.7212
       124.0151       221.7645       327.2848       425.3472       367.1935
       287.4634       151.3584       115.0624       295.0056       401.9414
       425.7100       418.7400       411.2137       432.3595       300.3939
       172.8027       278.8820       401.8562       408.7799       435.5695
       390.8796       264.9841       299.5446       372.7016       276.0376
       220.4958       284.5992       330.6069       362.9192       395.8403
       388.8137       352.3383       271.8066       293.7908       432.9423
       414.7060       245.1537       107.1106       132.0764       243.0115
       362.6604       385.5889       285.6646       243.0739       276.9472
       331.9139       325.0005       270.4423       206.0138       152.3817
       91.30632      -14.08479      -46.19037       78.79034       274.4930
       397.2451       321.8594       105.1062       34.92413       109.5424
       86.37544       75.06928       93.79388      -71.94507      -259.9811
      -112.0446       61.08242      -9.682114       32.82933       119.9369
      -7.854675      -171.4190      -132.7302      -77.91309      -92.76465
      -84.47382      -185.2610      -301.7167      -402.2468      -428.7516
      -297.6353      -167.0400      -149.7285      -213.7814      -298.5906
      -364.9220      -361.5349      -313.0481      -389.8304      -462.1418
      -423.2654      -350.7814      -291.9689      -300.6522      -409.2603
      -482.4543      -449.0845      -516.9526      -556.8030      -422.2694
      -339.0383      -367.1143      -411.5889      -413.7546      -441.0337
      -364.8962      -305.2407      -471.1821      -676.3726      -666.8452
      -467.7985      -301.6204      -323.2002      -462.5376      -522.2826
      -377.4962      -210.1516      -278.1088      -405.2706      -452.6589
      -483.3276      -381.5537      -253.4706      -270.8622      -394.7885
      -480.6202      -416.6105      -312.4846      -238.1321      -169.8198
      -192.7061      -211.1459      -188.0619      -221.6349      -323.1108
      -323.5163      -283.6090      -202.6894      -58.34540      -38.78818
      -89.84760      -119.9059      -110.6456      -167.6075      -248.2316
      -207.0834      -134.0692      -39.11832       55.36061       83.96114
       5.592072       50.06290       153.4364       55.63924      -60.30251
      -21.08467      -25.62058      -64.39211       17.12115       76.49927
       96.25024       163.6580       236.9213       291.6451       237.3593
       229.0568       212.5516       172.7815       226.7076       186.5209
       42.19121       25.90350       176.8315       284.2476       257.8994
       266.3994       294.6129       238.3969       215.0938       294.5953
       262.3635       116.5292       62.94714       155.5997       228.0271
       315.2443       325.2122       191.8667       191.9435       253.9286
       251.9413       250.1761       244.2002       219.2701       181.8601
       220.7580       161.7550       121.3340       264.2253       276.3118
       153.5553       117.2128       224.8472       365.5730       390.2973
       273.1931       127.5047       181.6974       289.3904       287.1763
       247.4790       176.2148       85.11600       100.5054       241.6743
       388.9722       457.1869       342.2000       208.6690       246.9210
       253.2766       106.0090       59.20935       232.0170       169.2845
       1.991943       143.8898       340.9489       386.1960       372.1134
       170.8782      -61.78171       40.78931       204.0945       249.8308
       325.3135       284.1891       104.2197       24.28619       160.1340
       267.1766       208.5942       179.4788       184.0265       201.1906
       251.5005       268.9716       300.0182       197.0248       176.5806
       136.9475      -23.33157       61.81934       160.2938       240.5168
       287.9978       345.6057       400.7867       331.4810       272.3104
       207.1045       141.6166       66.09656       91.67889       149.4027
       114.2116       106.0784       175.9120       259.6709       274.7682
       149.9460       33.65738      -13.04077       105.7142       310.1655
       391.0305       345.0853       133.8517      -12.26029      -12.85316
       43.01102       58.05576      -51.13358      -76.06750      -67.94189
      -63.47070       67.94885       290.7572       409.0616       224.3821
      -22.51947      -122.5977      -238.4352      -204.9699      -53.25280
       37.31392      -27.46359      -129.2531      -140.9562      -194.6061
      -174.5993      -92.20139      -111.5515      -178.0233      -214.7847
      -303.1803      -411.2931      -413.3430      -315.9282      -292.3081
      -442.0962      -549.0583      -518.4700      -331.7912      -103.4696
      -158.4390      -375.5852      -398.7507      -295.0782      -387.7490
      -632.6003      -785.2092      -798.2926      -648.9375      -482.0530
      -386.7704      -320.9998      -437.1565      -689.9448      -825.4043
      -746.9028      -745.6028      -824.1168      -720.4209      -579.1233
      -561.7439      -679.6804      -766.2134      -689.2114      -684.8669
      -688.9664      -657.0127      -698.0215      -768.0364      -700.5099
      -495.8167      -533.8164      -772.0117      -983.5522      -1031.707
      -791.5964      -552.5505      -496.7390      -525.0273      -607.9695
      -713.6895      -660.8477      -503.3989      -485.4714      -505.0532
      -521.5077      -600.5476      -563.2751      -419.0156      -415.0806
      -473.6184      -471.5518      -542.9966      -663.1430      -428.1315
      -129.7587      -136.7840      -132.2071      -160.1533      -344.3706
      -478.7142      -378.2756      -196.7339      -50.23442      -39.51053
      -137.2961      -79.86685       101.6944       190.1248       52.44690
      -166.5836      -190.5533      -90.75049       47.12683       239.1938
       390.6354       376.1921       249.6896       178.5570       131.7405
       103.1077       197.9128       312.3779       367.5995       406.5738
       333.7979       244.9225       312.4182       385.9414       463.7678
       511.2637       532.3477       587.5181       646.3613       681.8599
       709.1704       593.5764       316.1387       191.1757       285.1877
       487.2544       660.5137       691.0801       674.3589       703.8501
       700.2086       644.4631       684.3875       754.0708       725.3303
       617.9268       571.5615       675.3335       873.6809       882.8589
       736.5435       695.6792       737.5295       666.9165       683.3950
       819.1199       786.6948       725.6548       689.1920       637.1477
       675.8621       805.9207       925.3708       842.4468       709.5123
       608.6912       656.4087       848.0266       877.6084       704.2531
       492.6135       443.2449       493.4717       630.7192       851.4060
       910.4536       809.0784       565.1710       403.0547       463.0293
       578.4783       513.5023       339.6626       344.3489       377.0573
       376.7141       470.1335       471.2520       334.1351       299.7217
       454.8982       513.7197       417.7340       342.2109       263.0640
       140.2564       54.39001       36.90799       145.2438       146.8418
       74.55441       89.21167       60.74609       32.06134       139.2684
       247.0412       188.5880       58.03699      -35.24425      -79.41992
      -19.93057      -42.14496      -94.33136      -134.7431      -185.3212
      -138.6005      -47.81129       36.90230       66.75249       18.97804
      -27.22461      -165.6934      -256.3856      -268.2831      -216.3910
      -126.1625      -37.03854      -30.60107      -258.8403      -446.0115
      -342.7713      -209.5199      -129.3473      -98.00330      -80.79730
      -110.9462      -227.0204      -301.2828      -265.3537      -174.0612
      -97.68304      -82.31726      -154.3176      -239.1021      -336.5612
      -320.0934      -203.3008      -248.3174      -264.5278      -168.7073
      -178.4116      -274.2563      -316.4425      -387.3345      -530.0891
      -597.0754      -530.6936      -447.1006      -346.3098      -186.3379
      -129.2243      -185.7888      -348.8768      -514.3408      -414.2510
      -228.5110      -164.0605      -278.9119      -407.5609      -377.4845
      -205.9059      -22.18755      -9.118408      -200.0353      -382.9697
      -488.6459      -480.0186      -266.0966      -201.2439      -449.7646
      -498.0322      -364.9199      -329.8826      -422.8613      -420.0269
      -237.7665      -306.6722      -483.8971      -339.7792      -318.8040
      -572.3495      -601.9653      -296.2220       12.16357      -128.7146
      -557.3768      -657.0499      -437.5847      -347.2653      -373.2544
      -373.5447      -489.9114      -747.4539      -983.4458      -1070.097
      -955.4946      -397.1317       191.2786       287.1186       147.0410
      -83.84912      -648.0273      -1206.555      -1014.604      -471.3866
      -295.4302      -299.6481      -388.6694      -644.9292      -954.7363
      -1023.576      -526.7699       221.8280       556.0052       309.5972
      -272.5034      -787.0247      -1213.328      -1475.945      -947.5656
      -146.8688       156.5143       79.80267      -126.5205      -431.6216
      -774.6746      -786.1638      -622.0649      -306.1007       137.4526
       83.91541      -111.9583      -207.4482      -731.3311      -1100.548
      -729.6924      -412.8137      -552.4941      -357.2928       457.5962
       865.5767       524.6210       63.26123      -271.3832      -404.2425
      -279.7751      -317.1095      -615.7100      -786.0656      -573.3191
       95.23486       806.2786       953.2346       377.9756      -478.8953
      -968.7563      -829.2620      -373.0810      -16.06793       79.22409
      -104.3552      -25.80908       698.6223       1252.576       1173.936
       878.8707       241.2035      -482.4058      -751.0692      -685.6368
      -494.7043      -285.1649       60.33887       642.2969       1125.857
       1163.051       907.2074       742.7162       467.6744      -116.3778
      -528.0482      -508.9070      -164.8806       332.3210       745.6758
       1101.314       1206.577       940.7017       625.9131       458.3816
       414.4480       309.9966       138.3257       60.41473       207.7628
       444.2759       495.6545       442.5276       494.2542       644.2822
       727.0320       692.8210       582.7488       527.8936       592.4053
       693.4141       740.0776       671.7544       666.3633       785.6104
       598.8470       87.27576      -172.7480       38.01746       356.6533
       527.0952       711.7461       971.3823       1048.321       841.3147
       649.8052       681.8051       681.9961       509.9268       250.6461
       134.7563       417.6523       898.7954       1182.136       1126.259
       873.1395       627.1337       473.8899       332.9865     -0.3278809
      -41.89453       398.2178       816.3977       1045.074       1014.647
       842.3466       648.9165       430.5596       384.9009       521.0365
       685.3418       556.4917       228.7642       156.2583       394.9772
       630.0791       712.6049       702.1877       589.8986       356.0626
       183.6428       197.0642       350.0570       348.2957       106.9805
       23.86499       217.9591       499.2998       757.4203       733.8118
       430.4647       248.5361       231.1780       123.5113      -78.34283
      -195.4082      -78.03214       92.03235       201.5646       337.4792
       376.0729       435.3250       511.9178       312.1624       53.52496
      -129.9845      -196.8197      -44.72107       185.2197       318.9424
       230.8411       116.8797       186.6975       23.66345      -342.8831
      -495.6407      -338.5158      -39.08301      -81.95813      -320.4287
      -215.4725       37.09072       66.83453      -68.81223      -130.0248
      -8.759476       122.2632      -76.65015      -510.4614      -630.3475
      -433.6746      -346.4714      -269.3829      -78.19256       25.09442
      -96.34332      -317.2825      -377.0852      -354.2808      -363.7826
      -378.6973      -442.0813      -530.3341      -581.3171      -542.4341
      -432.0424      -337.7874      -416.4053      -632.6033      -630.8599
      -466.7812      -429.2986      -520.3806      -569.4983      -485.0474
      -432.0894      -404.4100      -338.9038      -351.3812      -556.1128
      -714.6748      -734.4673      -733.6509      -745.4858      -781.4253
      -694.3600      -513.9685      -364.1307      -457.9834      -814.2173
      -1035.184      -907.3613      -601.1279      -466.6711      -555.8677
      -762.6580      -753.0712      -595.4358      -668.8333      -778.5728
      -728.4883      -652.6743      -681.5273      -749.2917      -752.7721
      -666.3247      -515.9604      -509.9131      -705.0999      -849.4231
      -864.0137      -788.8601      -670.9868      -699.6045      -882.7761
      -1053.323      -1075.164      -897.7111      -548.7875      -290.7380
      -307.5588      -464.7679      -624.6475      -740.1123      -843.0693
      -905.1570      -884.7551      -851.7617      -745.8494      -566.7239
      -514.6465      -637.1855      -698.3425      -621.2872      -524.6868
      -486.4072      -661.4004      -877.2996      -757.0199      -443.7908
      -310.9423      -299.4615      -293.9448      -363.9937      -455.1417
      -518.1814      -555.0679      -696.4124      -730.3335      -386.2795
      -75.10173      -47.23892      -36.53049       8.570343      -52.69116
      -149.6573      -192.4390      -169.9607      -104.8270      -154.6844
      -262.8738      -163.6170       126.1552       315.9554       301.6935
       239.3276       247.1945       285.1706       297.4659       242.3845
       189.8463       222.1877       270.0804       362.0269       442.6243
       454.0233       476.1351       590.8191       686.4961       619.8315
       593.5618       671.3408       691.7435       670.1361       610.1570
       486.2208       419.8015       497.5426       583.6697       728.2729
       904.4160       978.7725       1088.160       1190.842       1090.441
       832.1854       615.8199       626.6792       679.5696       680.4427
       676.8765       675.8628       761.4556       1002.562       1224.949
       1265.773       1152.591       973.1123       838.7456       815.6665
       772.8403       709.3491       690.3342       716.5798       738.7422
       805.4670       852.0798       839.0889       980.2583       1131.866
       1025.595       832.1208       741.2778       706.9862       651.9346
