     0.02500000      -8760.807       7534.432      -12345.00      -12345.00
      -29.99500       213.8300      -14.87000      -12345.00      -12345.00
       0.000000       10.98000      -12345.00      -12345.00      -12345.00
      -12345.00      -12345.00      -12345.00      -12345.00      -12345.00
      -12345.00      -12345.00      -12345.00      -12345.00      -12345.00
      -12345.00      -12345.00      -12345.00      -12345.00      -12345.00
      -12345.00      -31.32870      -68.47560       746.0000       0.000000
      -31.37200      -68.11800       0.000000       97800.00       0.000000
      -12345.00      -12345.00      -12345.00      -12345.00      -12345.00
      -12345.00      -12345.00      -12345.00      -12345.00      -12345.00
       34.36443       277.9383       98.12347      0.3089785      -12345.00
      -12345.00      0.1798832       0.000000       90.00000      -12345.00
      -12345.00      -12345.00      -12345.00      -12345.00      -12345.00
      -12345.00      -12345.00      -12345.00      -12345.00      -12345.00
      2008       244         6        45        20
       270         6    -12345    -12345      9754
    -12345    -12345    -12345    -12345    -12345
         1         7        13    -12345    -12345
    -12345    -12345    -12345    -12345    -12345
    -12345    -12345    -12345    -12345    -12345
    -12345    -12345    -12345    -12345    -12345
         1         1         1         1         1
LAJA    -12345          
        -12345  -12345  
-12345  -12345  -12345  
-12345  -12345  -12345  
-12345  -12345  -12345  
-12345  -12345  -12345  
-12345  -12345  BHN     
ZL      -12345  -12345  
[...]
       291.0099       291.9965       296.0618       293.3468       293.2143
       294.3493       307.0009       317.1031       313.8849       315.2964
       315.1475       310.0574       299.7589       294.3535       284.7102
       272.0335       267.2927       270.4738       274.4077       281.3431
       279.8060       279.8099       274.3893       275.1785       270.6888
       262.7944       251.8218       244.1385       228.7859       213.5094
       207.5214       208.2167       197.8505       192.0056       186.9302
       178.5901       170.3749       166.0132       152.6721       134.3293
       116.7097       105.2502       98.70532       95.83672       85.96472
       79.07169       75.23967       68.92552       59.90388       46.87708
       33.86903       17.83360       3.227978      -12.33939      -18.78592
      -23.33197      -31.18671      -44.35933      -54.94501      -54.34290
      -52.10947      -58.69299      -70.18481      -75.14581      -72.16940
      -73.21030      -86.67038      -103.3906      -107.3215      -107.1282
      -110.9498      -106.8869      -108.3888      -104.7523      -98.73373
      -90.20697      -95.89185      -102.4310      -112.4865      -117.5834
      -131.8893      -145.0433      -160.9795      -164.2687      -170.8854
      -175.7222      -179.3882      -167.8842      -161.3702      -153.6862
      -152.8933      -150.9677      -156.2887      -164.1290      -175.8412
      -176.3414      -179.7819      -178.2853      -175.1650      -163.3251
      -152.0165      -139.5428      -131.5270      -126.8397      -128.8826
      -128.3352      -133.7092      -138.4579      -144.8629      -143.4749
      -148.0852      -144.3548      -140.8930      -140.2970      -137.5965
      -127.0468      -123.0469      -128.8462      -127.0776      -119.3221
      -113.3745      -115.0450      -118.3789      -111.2539      -103.8937
      -106.5908      -105.9330      -95.39539      -88.79504      -93.13916
      -91.14075      -83.14789      -83.23372      -81.23723      -74.16809
      -77.23956      -87.02975      -90.08612      -91.74200      -83.01660
      -75.53590      -73.57535      -78.18109      -72.24506      -67.64795
      -57.26382      -60.25201      -59.31732      -63.82875      -66.31752
      -64.08615      -50.97023      -42.19957      -35.23085      -23.88169
      -3.692428      -3.810139       3.542389       13.95258       17.23735
       13.50071       23.06009       23.83611       24.23419       27.26081
       30.45081       33.75981       46.34137       51.56883       56.34872
       53.73647       55.46318       56.74280       57.20604       53.07426
       50.87429       41.13998       35.52849       27.94104       27.49980
       23.05627       33.90495       38.17346       32.46538       28.89840
       31.28033       31.69396       23.54022       10.72522       1.622294
      0.9531851       3.843270      0.4649320       1.589510      -2.890516
       5.037949       13.61098       15.75098       19.94781       24.32193
       20.62762       15.26749       20.28299       24.21288       17.06264
       15.65732       9.692060       8.847633       4.860611       11.99012
       20.61946       23.34874       24.78555       26.50117       21.55125
       25.88077       19.92592       17.04346       19.29189       22.28767
       13.97785       10.91847       16.56860       29.50449       24.96165
       14.66948       11.01675       19.53190       7.898027      0.7475471
      -12.57660      -16.61389      -24.53629      -29.65206      -35.72329
      -35.58624      -30.41888      -23.00519      -20.70712      -18.43232
      -27.36740      -31.81065      -48.44016      -54.58299      -53.63840
      -54.51584      -59.11491      -62.35379      -63.44676      -60.15974
      -58.19945      -61.44104      -68.39105      -76.98212      -93.73730
      -97.04095      -100.9366      -106.0115      -119.9896      -132.4057
      -138.7924      -134.3609      -131.1605      -130.9000      -142.0358
      -148.3067      -151.2393      -147.9244      -164.0757      -169.1382
      -169.7309      -166.7123      -171.4734      -169.8295      -171.7828
      -172.0651      -177.5472      -171.5282      -173.0927      -176.0760
      -185.5095      -182.0780      -184.5154      -180.1671      -184.7845
      -181.1185      -186.3729      -179.2651      -178.9312      -165.6527
      -156.8644      -138.3444      -142.9546      -132.3080      -134.0031
      -124.5760      -128.2859      -125.1181      -127.5484      -113.4154
      -104.8375      -83.46329      -74.50641      -61.65695      -57.50562
      -35.13949      -28.89715      -13.69165      -24.76462      -29.62037
      -25.91738      -14.90150      -10.74068       5.839333       15.45381
       28.71310       35.74630       42.82089       38.75859       52.00513
       57.56639       65.29640       58.60431       62.45728       71.52582
       76.24762       78.26282       94.29633       113.8133       125.3799
       126.9377       136.1666       137.2131       143.6689       142.9520
       150.9393       159.6323       162.5426       162.3572       179.7454
       194.0314       205.7404       208.3505       224.3434       226.1526
       232.3614       227.5508       235.2753       242.0411       249.8624
       253.6385       269.9913       280.3743       295.4608       298.1129
       309.6447       321.5017       340.4475       343.6797       354.0198
       356.8126       358.9349       351.1345       356.2699       350.0962
       354.6135       358.8372       374.3989       371.1353       378.4399
       376.2617       389.0189       394.6672       399.0840       394.6289
       398.3488       396.1145       399.1448       388.6748       390.5303
       387.1443       395.6272       393.8589       408.0345       400.0936
       402.2263       426.2383       346.4651       56.87817       14.93604
       710.8257       1215.401       796.0977       885.0728       904.7290
      -508.5386      -1383.339      -313.1450      -403.0569      -1061.096
       511.0515       1230.896       683.3491       532.8223       1204.946
       1936.290       697.9420      -201.5701      -125.7979      -1549.745
      -1932.450       476.8825       652.6466      -649.5127       743.6011
       1120.294      -601.2955      -212.2397       1821.432       1235.415
      -1011.744      -895.8469      -703.8599      -1488.397      -643.1040
       817.6899       1188.867       496.8877      -658.4611      -220.6025
      -183.2097      -1431.552      -1067.936      -158.1427      -150.6169
      -898.7664      -926.8108       421.0449       896.2347       327.4362
       550.4515       486.7305      -1314.354      -2014.940      -596.6090
       148.2032      -353.2546      -424.9833      -218.8252      -786.4216
      -1303.930      -618.9901       332.1644       265.6072       256.4375
       934.1024       33.86328      -1943.413      -1850.617      -330.0600
       108.0602       43.30042      -79.76904      -1064.731      -1984.233
      -1153.700       687.8223       1070.853       200.8184      -486.6445
      -1275.737      -1714.664      -767.7025       344.0834       258.0746
       95.48560      -392.1538      -1330.874      -1025.617      -169.9363
      -79.52634      -227.4653       5.167603       500.3499       317.7104
      -383.2422      -733.0625      -733.6887      -732.9939      -711.3899
      -311.7095       107.2783      -443.1189      -1055.741      -565.8635
       88.40101       40.65448       13.10608       272.9624       209.0385
       55.68146       296.9703       276.6758       76.33862      -91.07129
      -420.4893      -601.5830      -584.2318      -654.6387      -580.7111
      -44.33203       595.5408       763.7477       397.8964       36.67493
       180.6865       319.6935       243.3322       81.11011      -198.2883
      -694.8115      -807.8845      -268.7327       171.9458       534.2905
       844.7697       450.8076      -20.09061       110.5067       157.8199
       138.4702       274.3816      -180.3196      -507.1785      -60.16992
       384.3757       539.8947       622.3606       160.7938      -444.3438
      -469.5155      -148.3191       216.4739       503.2662       499.0577
       342.8259       325.4290       348.5757       303.5583       382.4663
       434.3889       56.64575      -448.3643      -189.8538       369.7930
       487.5305       353.7767       139.5125       51.31812       318.6207
       523.2461       572.4557       537.2937       56.56396      -507.7691
      -411.8517      -155.8940      -215.7908      -312.0106      -379.4177
      -206.5259       422.2993       1030.438       1328.375       1126.194
       779.1790       515.3290       24.32117      -358.9641      -540.3794
      -827.3058      -635.0082       4.320068       379.9697       631.6892
       951.2430       596.0383      -119.9593      -219.0746       225.8323
       256.7487      -118.3214      -181.4518      -127.5104      -337.5363
      -184.2607       317.0123       373.2524       334.4320       590.1146
       466.2548      -102.4690      -252.3019       305.4569       341.3342
       390.7058       964.0316       402.0515      -450.6975       72.44104
       199.8865      -45.12939       306.9835      0.9074097      -263.3391
      -89.32898       163.7061       893.9138       830.2485       350.0458
       241.3774      -216.5808      -464.7112      -127.8618       60.33240
       90.05283       97.34741       80.40540      -89.99243       69.72461
       767.8838       787.7473       271.0884       200.5596       170.8380
       195.6139       88.30139       70.08139       232.0258      -203.8573
      -366.4771       223.5193       486.4917       487.0718       410.6686
       14.40979      -288.7637      -183.7113      -11.93378       65.53107
       197.9929       66.92908      -218.7479      -75.43286      -220.5314
      -654.6465      -411.4904       97.45937       22.84824      -152.7510
       567.7446       1190.284       515.1304      -114.1672      -262.9927
      -530.8301      -888.9119      -510.2886       662.3445       953.7268
       264.4512      -330.8444      -643.9005      -380.6083       301.2026
       303.9223      -286.7898      -250.2140       78.71637      -39.55817
      -235.1962      -109.8841      -32.23003      -26.55481       154.1694
       394.9131       50.64917      -719.8341      -550.4314       44.35303
      -298.8549      -613.2178      -373.6960      -24.60974       321.0636
      -21.59509      -633.5797      -437.8383       9.953674       4.444336
      -532.3105      -881.8298      -549.0677      -71.93042       216.2700
       867.2296       1002.548      -37.81738      -746.3848      -597.8358
      -450.2606      -233.9777       204.8281       368.0979      -246.4224
      -1422.305      -1565.938      -503.5192       103.9231       499.0436
       675.4559      -147.8011      -685.8916      -423.4133      -244.0532
      -294.2080      -238.3129       238.2277       223.8774      -260.3282
      -221.7146      -245.1772      -984.3589      -1694.188      -1160.265
      -177.2431       88.32532       337.1146       363.1240      -37.76556
      -311.2068      -350.7800       180.4041       742.2742       409.0127
      -389.5576      -860.8267      -989.3785      -818.3622      -58.04419
       700.0972       364.6949      -313.8877      -293.6046      -149.6405
      -127.7271       48.37427       456.5435       408.8378      -181.5515
      -219.0259      -53.24683      -302.5037      -293.5921      -30.55396
      -58.73267      -560.2551      -920.3412      -448.7648       302.2664
       573.8773       292.1670      -208.1428      -259.6869       22.39764
       202.2037       150.9337      -154.8771      -506.3608      -647.9938
      -542.3605      -173.7113       338.1498       421.7083       167.9735
       23.32124      -40.80334      -97.53743      -72.98730       259.8209
       350.1099      -181.3005      -349.8884       267.5018       587.2687
       301.4349      -202.1353      -564.7203      -206.4651       218.5366
       460.3706       769.4728       680.9954       102.9751      -891.9387
      -1282.061      -471.2953       195.2743       212.1388       435.6403
       462.4118      -24.75586       243.7021       956.2955       488.0599
      -520.4641      -539.9658      -82.79608      -112.6111      -131.7888
       103.5275      -48.32068       41.57275       1030.315       906.4756
      -772.5581      -1791.406      -1890.238      -1104.433       1430.112
       4041.001       5051.180       5063.830       3958.392       2028.495
       1778.871       3626.733       4124.758       1374.713      -2912.543
      -6933.297      -8760.807      -7117.574      -4050.160      -3545.312
      -5763.626      -5087.357       394.6738       5646.705       5912.112
       3010.488       1510.209       784.3979       1573.454       4796.907
       5447.376       1496.669      -3115.445      -4279.422      -2364.268
      -710.4940      -282.6519       689.8271       3006.833       4760.962
       4925.362       2354.570      -2122.744      -4312.804      -3930.998
      -2857.451      -1664.636      -1378.968      -2542.328      -3369.667
      -1037.450       3116.785       4590.584       3487.562       2888.316
       3005.506       1295.613      -1190.991      -962.2363      -461.7935
      -1801.907      -1924.958      -734.0725       102.8472       1759.246
       3464.792       2386.815       583.9868       987.4008       785.0615
      -2466.482      -5437.521      -5266.321      -2184.524       1159.991
       1979.086       2102.596       2775.979       3775.152       4419.195
       3113.185       1636.562       465.6201      -1007.667      -1325.230
      -1193.971      -746.3350       1007.178       2775.833       2903.817
       16.90039      -5150.268      -8730.105      -8425.277      -5687.129
      -2647.102       465.4424       3009.489       4507.773       6045.266
       6804.765       5415.224       2592.666      -667.2490      -4541.285
      -6937.505      -4600.073      -269.1406       2350.435       3979.309
       6102.441       7534.432       5291.530       163.6191      -4871.811
      -7683.202      -5819.293      -1661.137      -733.9375      -2860.401
      -4851.809      -4866.718      -1932.980       2283.073       4347.323
       3176.031       1502.464       1732.332       1872.487       498.9941
      -833.8564      -1729.080      -1491.854       768.3740       3305.767
       4302.074       3817.735       2085.293      -1431.803      -5924.615
      -8382.881      -7825.447      -5149.711      -1037.178       2089.862
       2547.164       1869.285       1446.411       604.5162      -535.1166
      -446.6499       680.8625       1104.267      -31.29822      -820.6577
       386.7065       1638.829       2292.234       3652.660       3812.978
       540.1445      -3463.663      -4977.553      -4493.426      -3776.940
      -3350.147      -2031.814      -645.1658      -586.1270      -1047.780
      -870.1714       1003.250       2903.727       2663.519       1936.130
       2465.296       2651.280       990.2192      -1113.788      -1619.602
      -914.7550      -186.5161       426.3931       804.1162       814.0031
       177.3032      -813.1304      -1074.332      -1489.675      -2838.355
      -2829.962      -1253.103      -585.2756      -774.5457      -922.7410
      -639.0415       177.6533       975.3501       1433.281       1415.726
       1386.735       1217.727       913.9263       1272.491       704.9360
      -941.4473      -1150.460      -480.4563       61.01489       696.8240
       569.5869      -450.5813      -1207.237      -814.4382       515.5171
       1219.510       499.1584      -175.1754       83.15576       459.8596
       646.9370       1046.155       905.4868      -83.86719      -657.7073
      -750.9670      -808.8750      -416.7488       12.02686      -252.6545
      -755.0684      -766.5538      -179.8831       580.1807       1112.603
       1544.015       1559.987       731.3318     -0.6625977      -410.6938
      -1239.480      -1285.927      -125.2271       723.5381       1467.800
       2180.878       1886.959       1228.788       625.7811       209.5464
       653.4094       837.4670       245.1955      -151.0996      -546.4990
      -1085.311      -1410.937      -1167.712      -816.7266      -971.3641
      -678.6733      -51.05008       28.23853       277.8782       1013.287
       1303.360       1100.617       1486.267       2010.940       1527.408
       952.7800       1090.375       1054.530       203.9626      -1044.429
      -1924.018      -1610.218      -274.5005       1025.275       1452.592
       463.6021      -1128.434      -1891.759      -1300.783       258.3022
       1086.735       529.4623      -39.19708      -284.1478      -154.1306
       847.0674       1211.565       197.3716      -382.7518       64.78934
       165.4734       36.67773       605.3315       1100.250       752.6931
       52.92017      -80.17676       698.6072       1320.773       838.3677
      -218.6362      -1002.415      -1282.247      -897.3998      -483.6582
      -558.3711      -559.5252      -401.0113      -131.2726       216.6880
       258.3044      -296.7964      -665.8322       64.71509       933.1611
       1370.275       1895.665       2013.530       1265.148       32.74170
      -1018.719      -1578.750      -1814.494      -1510.572      -940.3702
      -668.8347      -130.9878       933.7256       1416.593       731.0064
      -52.70868      -118.4984      -6.740692      -23.98816       206.3842
       341.8511      -442.0076      -1473.089      -943.3999       760.6689
       1585.147       1253.898       719.4266       169.5046      -383.6997
      -561.1176      -353.7048      -188.3571      -217.1111       56.38147
       408.8929       217.7993       67.71539       59.08875      -188.3562
      -381.2991      -302.2149       14.94840       56.61047      -224.4417
      -90.40466       348.8503       594.9663       706.8523       1132.132
       1732.695       1523.074       690.3430      -224.1279      -988.6726
      -1121.465      -777.8131      -164.2584       20.84546      -593.6040
