     0.02500000      -9456.381       8277.322      -12345.00      -12345.00
      -29.99500       213.8300      -14.87000      -12345.00      -12345.00
       0.000000       10.98000      -12345.00      -12345.00      -12345.00
      -12345.00      -12345.00      -12345.00      -12345.00      -12345.00
      -12345.00      -12345.00      -12345.00      -12345.00      -12345.00
      -12345.00      -12345.00      -12345.00      -12345.00      -12345.00
      -12345.00      -31.32870      -68.47560       746.0000       0.000000
      -31.37200      -68.11800       0.000000       97800.00       0.000000
      -12345.00      -12345.00      -12345.00      -12345.00      -12345.00
      -12345.00      -12345.00      -12345.00      -12345.00      -12345.00
       34.36443       277.9383       98.12347      0.3089785      -12345.00
      -12345.00     0.05626251       0.000000       0.000000      -12345.00
      -12345.00      -12345.00      -12345.00      -12345.00      -12345.00
      -12345.00      -12345.00      -12345.00      -12345.00      -12345.00
      2008       244         6        45        20
       270         6    -12345    -12345      9754
    -12345    -12345    -12345    -12345    -12345
         1         7        13    -12345    -12345
    -12345    -12345    -12345    -12345    -12345
    -12345    -12345    -12345    -12345    -12345
    -12345    -12345    -12345    -12345    -12345
         1         1         1         1         1
LAJA    -12345          
        -12345  -12345  
-12345  -12345  -12345  
-12345  -12345  -12345  
-12345  -12345  -12345  
-12345  -12345  -12345  
-12345  -12345  BHZ     
ZL      -12345  -12345  
[...]
       357.3292       354.5831       363.4270       359.6382       358.9333
       353.8469       350.9529       353.0408       346.5762       347.0343
       334.1592       334.0241       334.8140       324.5435       320.9558
       309.7905       303.7722       289.5899       281.4084       269.7115
       251.7811       243.1823       235.7110       232.5756       218.0487
       201.3466       189.0502       165.8046       159.1647       145.9744
       131.8718       112.0880       96.75885       87.44688       66.53699
       49.81061       29.08912       10.94070      -6.919785      -24.62421
      -33.63644      -48.25534      -74.79749      -94.11200      -102.5712
      -111.0594      -134.3145      -152.0237      -174.6448      -188.4347
      -198.2955      -217.8046      -232.4534      -241.2106      -250.1288
      -261.7329      -274.7247      -287.4171      -296.4218      -302.0134
      -319.5331      -325.1072      -326.1501      -333.6805      -333.4576
      -341.4882      -342.6621      -339.9458      -342.1602      -341.4566
      -341.7494      -329.4307      -333.2264      -333.6262      -321.0309
      -314.0129      -314.0409      -316.7594      -296.6631      -275.2502
      -267.4915      -264.5617      -255.6432      -232.1872      -230.8041
      -231.6243      -215.9725      -199.6376      -191.7307      -182.1872
      -163.9825      -151.2990      -144.3675      -138.9583      -127.0505
      -108.2762      -94.07159      -87.15680      -86.10445      -76.21919
      -56.70291      -44.37409      -36.17796      -29.06168      -15.32053
      -5.375823      -6.263321       10.88655       26.13856       36.98123
       51.62753       59.28937       63.99783       78.91736       94.57077
       104.9022       103.2556       112.6588       124.1318       136.8096
       150.6487       160.0506       170.4808       175.6915       183.9493
       190.4083       189.5378       196.1312       204.6477       215.1851
       223.7714       233.0879       240.0211       248.1391       259.2375
       267.0889       269.4697       275.3994       286.0041       287.3788
       285.6134       293.1832       298.4821       303.4483       304.9835
       304.6805       313.8228       323.7797       325.7826       330.0646
       334.3446       345.2429       338.6448       332.6450       333.6498
       343.6629       343.3497       335.7399       323.9503       331.4123
       333.0406       340.0839       333.5698       344.9125       347.9215
       340.4070       322.5909       322.0310       321.6077       319.5197
       312.3167       321.0582       312.9048       299.2985       282.9420
       291.6375       286.4099       283.9384       267.0236       259.0376
       251.6258       247.2274       232.0845       227.8414       218.2879
       211.7123       196.6041       191.6073       178.9254       166.6825
       150.3357       136.2582       123.8943       120.7445       121.5712
       112.8671       90.62061       89.21584       81.17415       69.56038
       56.41016       48.55253       37.66248       22.84090       12.12036
       25.28657       18.51357       4.591183      -15.02499      -22.15093
      -37.50037      -50.58807      -69.42139      -81.33627      -77.87350
      -82.94153      -98.29816      -115.4999      -124.0782      -123.9202
      -138.0950      -154.7975      -152.2392      -149.2525      -172.0349
      -193.0682      -195.8606      -194.9080      -195.5159      -205.4178
      -223.0958      -231.8639      -241.1160      -239.4144      -239.0341
      -247.9194      -253.8768      -262.6193      -267.1863      -273.8953
      -283.1263      -291.8431      -290.8503      -287.5511      -290.2891
      -295.0178      -299.2174      -301.3853      -303.4697      -317.5931
      -320.1129      -314.6415      -314.6111      -318.3777      -327.1074
      -321.4714      -320.8407      -319.6195      -327.9392      -329.7927
      -322.6291      -315.9802      -316.8562      -324.6202      -319.0575
      -310.1441      -314.1701      -303.6857      -298.1031      -286.0341
      -289.2764      -285.2727      -278.9765      -274.2590      -274.3131
      -275.7211      -271.8674      -261.9603      -259.5500      -253.5424
      -259.0133      -247.8228      -242.1822      -240.4901      -242.9042
      -235.7122      -223.5635      -220.1259      -214.0070      -208.3307
      -208.9221      -211.7929      -213.9187      -207.2538      -204.2589
      -189.2708      -188.2943      -198.0861      -184.6707      -177.6964
      -178.8031      -186.8444      -184.1923      -171.4418      -176.1133
      -177.0409      -166.1279      -162.8092      -159.1362      -169.7136
      -162.9382      -158.7117      -156.1058      -171.0426      -168.9645
      -154.1095      -143.3175      -145.9575      -151.0583      -140.4565
      -132.8816      -143.7111      -135.0081      -124.0451      -118.8127
      -125.9453      -119.6396      -114.9694      -108.9536      -95.53079
      -90.10899      -83.20096      -70.94185      -65.99986      -61.78828
      -57.37647      -38.28104      -41.26472      -34.54407      -24.32563
      -18.87719      -4.650324      -3.979998      -8.088727      -2.341545
       9.111744       12.45010       14.36267       29.74147       39.32532
       48.07220       44.50375       47.58569       59.49271       64.81857
       62.76152       56.17703       64.29030       62.79636       45.97336
       57.50613       63.78397       67.20804       73.07971       82.71310
       77.57207       69.16975       79.48227       74.80716       70.19881
       70.21207       73.07764       75.49307       69.21513       79.18069
       87.85892       86.30365       89.48090       91.36041       102.3462
       104.9701       108.5396       102.3943       110.2610       111.1396
       107.8309       109.5769       117.9601       132.4849       130.6181
       127.3666       147.0535       144.5436       143.6245       140.4040
       156.0031       173.6197       167.1674       165.1113       173.3225
       187.7739       195.7983       197.3337       203.5569       220.7660
       236.1694       233.9858       235.9362       245.3722       249.1633
       262.6796       265.7067       271.2430       273.9572       286.4938
       291.9021       289.0454       292.9551       290.0917       305.5048
       322.3949       330.5286       340.9375       342.4742       346.1570
       335.6771       335.8044       351.4302       361.7593       371.3376
       378.2828       384.3230       378.3650       385.0100       391.1968
       390.4426       398.4674       403.9817       403.1377       405.1282
       408.9246       419.2979       426.3092       432.0371       430.3698
       434.1526       438.3145       444.3771       439.2618       429.0659
       440.2085       436.3729       423.3232       429.7487       435.9333
       435.6537       423.6274       422.6348       410.7887       403.0300
       402.6511       391.8735       376.4563       369.7600       364.8743
       360.2245       342.6050       333.4513       318.8817       310.5770
       290.1317       274.0335       261.8236       248.6273       241.4324
       227.9586       209.0345       191.9043       174.9196       162.9274
       146.1765       133.2407       107.5598       91.26299       73.52480
       56.77222       47.91788       33.94576       11.90166      -6.926041
      -24.46478      -35.27069      -55.68719      -63.78329      -85.13495
      -109.9812      -125.4367      -136.3105      -155.1075      -174.0968
      -189.7184      -206.5330      -226.7177      -234.7249      -258.5986
      -283.5127      -311.0567      -317.7242      -325.7628      -345.2600
      -357.6025      -353.6791      -370.3494      -385.9280      -395.5388
      -408.1956      -441.6315      -451.7625      -462.7998      -469.1111
      -481.8091      -493.3772      -504.4270      -510.5767      -517.7231
      -529.3329      -543.9355      -545.3290      -551.4221      -558.5908
      -571.5349      -567.3756      -577.5743      -592.7671      -593.9790
      -587.0867      -593.0508      -596.0100      -598.3823      -591.5496
      -597.5220      -600.7512      -598.5150      -592.5542      -587.1938
      -584.3495      -584.0460      -580.5070      -580.2153      -573.0847
      -568.5157      -558.8945      -548.3584      -537.3958      -535.7083
      -516.6821      -500.2556      -490.8313      -484.7401      -468.8457
      -458.6108      -451.5656      -449.6403      -425.7211      -406.6061
      -399.0764      -387.9231      -367.9504      -357.9877      -347.5610
      -330.4321      -311.9940      -295.1585      -275.2000      -267.4425
      -249.1550      -228.2155      -208.4534      -187.7294      -175.2123
      -163.6565      -143.1062      -127.3762      -108.2856      -85.48949
      -65.28589      -59.77396      -44.27645      -27.33388      -5.678864
       8.578903       22.21187       41.11844       66.99356       86.56616
       88.18152       93.64871       111.5535       126.7986       138.7794
       138.6109       156.1151       183.4873       195.0037       200.5935
       214.8320       226.9687       232.3651       234.4730       244.2545
       257.0024       267.9617       271.6051       278.9829       289.3110
       297.8668       304.6101       315.0453       322.0486       330.8167
       338.9375       344.7944       354.7889       374.6368       379.0560
       376.8273       382.8865       396.4169       396.1948       396.8677
       400.1226       408.8115       412.3882       419.6104       431.8420
       448.7859       452.0945       449.7471       454.4742       462.4558
       462.8015       461.7324       460.9011       459.3971       462.9829
       469.4811       476.5507       477.4399       483.9889       480.6271
       465.4851       464.8992       460.9380       457.6416       459.5151
       461.2627       460.8236       448.2971       434.9446       426.7729
       421.2993       408.7800       404.2173       401.3513       381.2778
       373.4265       367.9658       350.3376       335.6320       332.1823
       324.3209       309.2667       291.8826       270.9102       256.9760
       248.5958       230.2010       229.0720       206.9387       199.0577
       182.7931       155.3481       142.0897       135.8955       118.0312
       95.43643       84.41428       82.97028       67.70703       64.87308
       49.91478       44.78089       23.84939       4.626346      -1.405235
      -7.349060      -11.40805      -25.20268      -46.26485      -35.86512
      -37.05420      -49.35510      -62.68344      -61.53659      -77.85254
      -81.53290      -70.23065      -74.88353      -74.76624      -83.00427
      -93.78461      -98.67978      -102.3077      -98.58218      -100.5643
      -101.9722      -107.1171      -109.4861      -115.3674      -121.8458
      -116.6147      -134.0968      -147.8175      -143.7913      -141.8813
      -135.0420      -139.9061      -146.1784      -152.1254      -151.8976
      -151.8683      -164.1255      -164.2584      -161.8226      -160.4154
      -179.2434      -192.1275      -192.7835      -191.9580      -188.0154
      -187.6531      -195.7245      -199.7485      -209.3531      -216.9373
      -226.5932      -225.3849      -236.3555      -245.8616      -249.3657
      -245.1923      -244.7972      -259.2096      -265.3502      -257.0547
      -266.6985      -273.9865      -277.0551      -265.3054      -275.8644
      -278.9927      -287.5181      -289.5372      -282.8458      -287.5317
      -294.3656      -294.2445      -293.3447      -279.7128      -276.3721
      -276.3802      -275.4778      -268.2704      -272.1908      -261.0801
      -252.4587      -255.7136      -249.0007      -246.2803      -247.0891
      -238.4068      -239.0969      -225.5116      -214.0150      -206.5674
      -212.0820      -202.2863      -191.0302      -195.2357      -184.5772
      -183.2593      -175.6958      -172.0575      -168.5458      -157.5227
      -143.3847      -136.3715      -137.5443      -137.2848      -136.7126
      -136.5754      -120.8370      -114.6452      -101.8940      -103.5414
      -96.46838      -87.85803      -84.64966      -76.03409      -77.03551
      -65.93245      -65.18185      -67.44969      -62.89822      -59.63254
      -52.57217      -54.97827      -56.18124      -57.77966      -50.68521
      -39.23561      -40.78062      -39.95282      -38.13779      -38.77975
      -55.38133      -41.68628      -2.231888      -41.26213      -82.83698
      -70.44092      -822.8896      -3032.245      -3859.753       231.9517
       3536.864      -68.57324      -165.3213       5558.651       839.8276
      -5318.330       5396.649       6273.631      -9456.381      -3481.300
       8277.322      -3900.402      -8837.191       5057.709       6108.927
      -3313.480      -778.4106       3065.450      -180.5056      -954.9984
       153.5300       1393.927       429.0537      -3375.105      -2389.110
       2285.575       1449.439      -1140.537       932.9697       2870.942
       880.2949      -2765.054      -295.8921       2846.868      -2423.366
      -3131.031       3244.957       2859.996      -1991.398      -1514.652
       1626.701       561.4277      -1594.595      -42.73389       2009.155
       834.2612      -288.6147       994.7410       1326.938      -716.2150
      -1077.448       756.7532       860.6689      -515.2183      -714.9043
       1252.332       1484.021      -846.0500      -810.9041       1418.165
       1901.107      -457.5862      -1577.929       1131.500       2227.104
      -46.50977      -1369.542      -607.5044       1313.505       905.3643
      -1227.744      -158.7744       2061.336       905.0386      -1270.546
       74.87915       1603.328      -54.58246      -302.3052       1464.727
       491.9622      -1167.902       234.0930       948.7102      -810.4170
      -1447.250       403.2690       1758.968       625.7538      -346.4966
       188.6943       722.0093       335.0523      -202.4524       232.8933
       562.8562      -105.7642      -1239.726      -192.7891       1398.827
      -264.3049      -868.3473       548.1113       35.12177      -301.3235
       1047.359       1140.147      -276.0832      -454.6125       276.8546
       179.9780      -55.52164       14.96326      -409.1331      -463.1047
       276.7682      -336.2244      -706.0115       375.0775      -389.9102
      -1184.127       502.8535       1120.925       20.66956       148.7026
       560.2906       42.05762      -493.3533      -805.6382      -552.1989
      -97.65625      -349.8394      -677.7071      -191.1409       277.7237
      -134.0075       53.98584       787.6674       330.2080      -872.6663
      -711.1997       543.9142       401.9976      -711.2273      -483.9614
       305.5458      -55.73669      -466.9927      -134.8698      -91.27002
      -798.7903      -791.1827       92.31166       124.9338      -87.27008
       26.47339      -415.2736      -621.4968      -15.94299      -72.06689
      -299.3799       51.71826       308.0011      -11.37158      -757.0764
      -716.9962      -75.16272      -356.0181      -619.7895      -114.5734
      -225.1608      -430.3241       239.2393       416.6161       6.513153
      -101.8755      -183.8051       7.003540      -42.71899      -665.0099
      -821.4619      -256.4194       392.7871      -264.1267      -938.9753
      -41.54614      -300.4602      -656.8935       520.1050      -641.9456
      -1481.996       428.3330      -18.45068      -1041.540       678.7523
       102.2275      -1395.347       128.5861       732.0776      -374.6108
      -602.4176      -45.91565       611.3855       10.64600      -868.5856
       431.4585       335.2734      -952.7079       584.4744       635.8145
      -1733.199      -850.2144       1434.025      -332.6155      -1347.700
       883.1653       234.3069      -985.4846       708.9171       826.1829
      -656.3414      -350.3859      -72.98364      -385.6793       2.116455
       360.6598       625.6888       220.9802      -730.6824      -685.9844
       349.9941       901.8513       339.5927      -31.33972       514.6112
       537.2145      -125.7636      -338.1962       154.2354       508.3911
      -6.153687      -751.0956      -40.41553       1005.360       592.6021
       142.9306       93.76497      -210.2393       239.7615       880.2145
       224.4299       315.0765       473.3892      -930.2656      -556.7114
       445.1177       459.2405       748.5236      -483.2313      -959.7173
       1132.882       1614.040       827.5133       412.3049      -665.2686
      -802.6376       435.9051       247.0484      -699.0940       726.6548
       1701.100      -501.2443      -787.7554       1421.527       1828.573
      -287.8514      -1207.864       708.1426       1168.608      -92.58130
      -612.0909      -610.7820       79.41052       635.7817       306.6808
       159.0193       445.3239       417.4944      -134.7104      -37.12122
       520.3213      -174.7589      -569.6384       743.1970       1501.714
       86.63647      -987.9332       296.8939       1117.247      -609.7280
      -2038.813      -248.1138       1487.809       905.4818       477.5366
       132.6853      -639.3517      -533.1460       851.6445       1202.981
      -673.1791      -1384.889       849.0076       1153.756      -850.5277
      -196.4324       757.3486      -961.8625      -972.1641       1763.197
       1504.445      -1293.122      -760.1626       1248.770       37.96423
      -961.3883       267.5190       359.2053      -82.87305      -269.0966
      -534.8756      -99.80920       157.1786       140.3821       345.2060
       123.3762       33.91858       290.1849       46.90784      -484.2699
      -82.19727       834.6005       269.2783      -739.0667      -95.18152
       433.2373      -118.0564      -408.0341       111.0325      -140.9219
      -459.0968       369.2662       265.2850      -405.9180      -580.9810
      -214.9995       326.1403      -101.1213      -137.4250       895.2522
       191.5459      -1113.892       37.76532       505.9355      -807.1575
      -755.0814       332.0598       62.02112      -748.9387      -52.92383
