     0.02500000      -13043.04       13164.33      -12345.00      -12345.00
      -29.99500       213.8300      -14.87000      -12345.00      -12345.00
       0.000000       10.98000      -12345.00      -12345.00      -12345.00
      -12345.00      -12345.00      -12345.00      -12345.00      -12345.00
      -12345.00      -12345.00      -12345.00      -12345.00      -12345.00
      -12345.00      -12345.00      -12345.00      -12345.00      -12345.00
      -12345.00      -31.32870      -68.47560       746.0000       0.000000
      -31.37200      -68.11800       0.000000       97800.00       0.000000
      -12345.00      -12345.00      -12345.00      -12345.00      -12345.00
      -12345.00      -12345.00      -12345.00      -12345.00      -12345.00
       34.36443       277.9383       98.12347      0.3089785      -12345.00
      -12345.00     -0.4656201       90.00000       90.00000      -12345.00
      -12345.00      -12345.00      -12345.00      -12345.00      -12345.00
      -12345.00      -12345.00      -12345.00      -12345.00      -12345.00
      2008       244         6        45        20
       270         6    -12345    -12345      9754
    -12345    -12345    -12345    -12345    -12345
         1         7        13    -12345    -12345
    -12345    -12345    -12345    -12345    -12345
    -12345    -12345    -12345    -12345    -12345
    -12345    -12345    -12345    -12345    -12345
         1         1         1         1         1
LAJA    -12345          
        -12345  -12345  
-12345  -12345  -12345  
-12345  -12345  -12345  
-12345  -12345  -12345  
-12345  -12345  -12345  
-12345  -12345  BHE     
ZL      -12345  -12345  
[...]
      -342.8231      -341.1464      -340.7262      -337.5894      -332.7229
      -332.1482      -326.4977      -317.4969      -306.8889      -300.5399
      -289.8248      -278.0926      -258.6633      -257.5637      -247.1892
      -230.4377      -216.2401      -208.6595      -202.4530      -186.3625
      -166.0958      -155.3094      -147.5443      -139.0932      -127.0781
      -125.1126      -117.1236      -108.5151      -96.31897      -92.78778
      -86.79408      -77.04437      -59.81670      -45.16370      -37.53708
      -31.66786      -17.51590      -5.971964       2.565174       8.770958
       25.64305       50.18031       60.65749       71.06039       90.19702
       111.7188       120.8658       125.4022       130.1312       137.2278
       149.9372       158.0623       166.7863       178.5988       182.6415
       191.9150       198.2749       208.8463       217.6752       218.8638
       218.6508       228.9878       243.2348       245.7463       243.9990
       251.5311       263.5179       278.7072       284.6149       293.1697
       300.1750       306.4606       311.8104       318.5546       317.9138
       317.5460       321.6340       328.0320       337.4301       338.9683
       337.9287       348.1334       355.9293       361.6670       365.9403
       369.2509       376.5258       387.8074       390.2705       393.3079
       389.1179       392.3066       394.1024       397.4924       397.7463
       400.3865       404.6583       411.5778       407.3196       399.4541
       394.3823       390.6323       382.7407       375.4075       368.7355
       354.9904       342.6619       333.8768       323.5814       307.5979
       291.6418       276.6998       261.3583       242.7677       222.7410
       201.2549       182.2184       169.3647       157.0610       136.6833
       112.9603       101.8333       94.53026       76.16943       55.48720
       39.61236       18.83059      -8.360336      -30.93083      -49.84222
      -69.50806      -89.48343      -95.66342      -102.6044      -113.9412
      -122.0804      -134.8597      -138.6454      -153.4855      -169.8934
      -189.1024      -200.0553      -214.7101      -221.4960      -240.0558
      -250.7685      -256.0699      -264.4189      -274.3690      -279.7454
      -295.7168      -297.8887      -308.2260      -318.4773      -329.0110
      -335.3142      -339.1176      -336.2201      -340.3030      -341.3160
      -347.4397      -352.7515      -354.5298      -354.1287      -351.3867
      -345.5570      -346.1002      -342.4147      -336.8820      -337.4758
      -330.4829      -321.8553      -315.9592      -314.0438      -322.2492
      -321.3494      -313.9673      -302.3656      -291.2037      -283.9062
      -273.0797      -264.9468      -265.1891      -264.6956      -256.3414
      -251.9698      -252.3383      -245.9726      -235.9873      -220.6687
      -216.6746      -202.7606      -186.6440      -173.7383      -168.0117
      -162.2612      -152.2312      -140.3532      -136.5771      -136.2268
      -130.9000      -118.3658      -114.9168      -108.1759      -105.8832
      -100.1031      -88.53069      -81.63747      -76.58081      -71.93030
      -70.76624      -65.40370      -56.20471      -51.28268      -45.26569
      -37.75377      -27.18752      -23.50058      -23.26919      -25.51262
      -21.60880      -7.311659       2.376974       3.141090       12.10672
       31.65415       39.38075       42.89709       42.85100       49.45856
       52.48642       51.19537       58.77661       70.73624       82.02777
       94.64227       95.87186       104.9511       107.4129       117.9506
       119.0213       130.8660       143.9859       150.3358       151.6575
       156.3329       170.0242       181.4110       188.1422       195.4322
       196.5214       201.1213       202.5833       211.5143       215.0869
       226.4652       233.2883       234.2223       240.0033       250.3245
       255.1614       260.3496       249.0591       250.8590       251.8253
       256.2014       241.9869       240.8027       243.6008       255.4626
       257.9341       254.2693       251.4373       258.0526       248.0590
       247.5891       238.1627       235.7932       226.9188       225.5256
       222.8551       230.6106       221.1323       220.3853       223.4033
       225.3522       213.1298       211.7715       203.8188       200.5509
       182.3585       169.9200       165.6993       163.0514       157.8607
       154.2327       147.5126       144.9670       144.0006       139.3798
       124.7733       119.7220       103.4905       103.3704       103.4464
       99.49020       94.58020       89.99976       92.60593       93.93564
       85.77133       79.97781       75.42474       74.15520       62.08661
       56.70642       48.22273       47.18625       47.41438       44.37709
       39.23988       31.66318       29.27058       22.20564       15.59962
       18.21170       15.08916       14.95685       12.00598       10.11388
       3.021142       3.701213      -2.262161      -6.747929      -15.14822
      -20.32408      -25.36536      -21.38151      -14.71456      -5.476440
      -19.24112      -23.08688      -30.21130      -42.27682      -52.38545
      -60.48653      -71.27347      -75.54845      -81.22574      -81.33954
      -86.94635      -90.84866      -106.8033      -111.5654      -125.6804
      -136.0906      -152.1675      -166.4071      -174.3616      -177.3238
      -183.6408      -182.5323      -178.9636      -180.8276      -186.5380
      -185.1976      -196.6318      -205.4927      -207.9232      -211.6509
      -213.3490      -219.4052      -226.8698      -224.7461      -228.9549
      -232.2207      -242.8898      -244.4103      -255.3361      -255.7684
      -265.9575      -273.9325      -284.0947      -289.3615      -293.6351
      -296.9797      -268.4410      -188.6585      -141.6868      -67.20967
       23.50671      -234.1296      -996.4464      -923.9207      -5.664642
      -131.9109       291.5562       1478.160       32.20435      -1667.693
       914.8816       993.4307      -2859.515      -1180.868      -508.8672
      -3773.745      -700.6519       2833.252       540.5815       478.1187
       2260.556      -273.1086      -1867.700      -324.7520      -449.7837
      -466.2856      -636.9556      -844.8647       308.5251      -843.7632
      -1398.420       1129.652       1517.707       102.3625       161.7827
      -60.21033      -720.5917       37.72852       1171.347       613.3628
      -878.4197      -1187.007       115.4330       348.8305      -202.5796
       714.4463       796.4001      -520.7966      -855.7789       39.67578
       787.7490       1168.980       736.4084      -564.0562      -668.4071
       340.8022       398.7033      -132.9740      -542.0046      -502.9045
       470.6467       1196.986       204.1039      -785.8966      -134.5259
       766.3542       790.0415       176.8344       362.2969       776.6331
       253.5782      -474.7281      -572.4022       51.76221       1019.199
       995.1344      -160.7395      -543.2036      -122.0343       138.8303
       184.8628       575.3257       818.3978       528.1332       403.9332
       60.59497      -50.04822       446.6010       671.0004       487.4299
       312.0197       99.34924      -238.8740      -274.1442      -143.9500
      -215.4645       57.80042       484.4218       209.0672       185.6073
       629.3901       391.1823       140.3314       27.99463      -576.6860
      -606.3314      -222.0435      -313.6780      -86.00220       501.9498
       442.3132       230.9980       279.1189      -35.04239       21.50418
       239.9793      -96.88452      -290.7563      -107.2608      -173.1576
      -370.6559      -389.3834      -442.4283      -163.8529       145.3897
      -119.5729      -423.7889      -56.04919       555.4556       417.6718
       75.80766       74.66571      -163.8883      -666.0109      -571.8333
       19.88831       233.4722      -13.40625      -496.5635      -590.7743
      -177.5188       89.68908       45.12067       15.86899       85.49373
       108.9227      -236.9203      -448.2414      -171.1157       81.75964
       416.1163       444.1061      -207.1265      -520.4788      -502.1429
      -585.9700      -500.9419      -556.8364      -472.9112      -41.85958
      -1.183960       9.349792       238.2468      -44.11133      -225.1199
       6.249512       249.6398       389.3516       1.191162      -444.7366
      -452.9161      -264.3747       62.91699       272.3533       91.31085
       77.38617       214.6226      -56.76413      -49.56567       518.9103
       575.9969       143.3988      -206.2244      -624.2351      -842.3594
      -677.1826      -183.9268       313.4119       415.6794       355.8960
       158.2469       95.15149       417.0876       159.9755      -236.3347
       71.10370       1.956909       166.7688       935.9294       790.3478
       570.4568       866.8168       529.5303       151.3782       281.1201
       186.5075       110.6799       206.8882       205.3229       463.0609
       83.56464      -276.5725       516.1859       413.6896      -270.6455
       6.816177       12.16440      -190.0342       360.7439       675.7817
       156.2602      -208.9310       267.9642       241.5942      -278.7598
       391.7084       560.8479      -522.2994      -678.5115       45.73462
       497.5430       635.5199       662.6917       554.1006       495.7573
       490.0356       75.34131      -596.1238      -709.3049      -376.1558
      -109.4479       288.2041       397.3434      -122.8729      -582.5229
      -343.9433       342.0477      -19.43323      -557.7357       371.7069
       739.0926       60.44727      -88.06604      -321.4700      -561.1110
       104.6608       382.9644      -41.19507      -397.2493      -835.5004
      -618.6291       4.402863      -120.9431      -210.4035       231.3699
       405.1539       478.6064       783.4656       194.5833      -896.9492
      -1093.139      -813.7749      -310.5137       310.2002       123.4691
       13.78418       515.5349       198.0238      -157.7960      -126.4900
      -494.4479      -643.4944      -431.5845       67.98178       353.2833
      -323.7729      -1176.259      -1009.847      -397.0590       135.8378
       447.4919       177.3649      -462.9631      -413.1966       199.6108
      -216.1957      -589.6804      -220.3639      -531.6946      -695.4651
       40.69385       574.5450       310.1304      -296.8901      -556.4655
      -165.8060       243.5681       242.0881      -25.25305      -111.4176
       143.5762       241.8801      -133.1394      -381.6794      -602.1226
      -807.3156      -272.5574       246.1745       27.30121      -150.5001
      -233.6000      -511.1893      -427.6721      -157.6217      -330.8813
      -50.30603       606.8483       314.3744      -248.2151      -67.35146
       52.20798      -28.90112       528.7527       1046.642       462.9890
      -147.1596      -140.8015      -164.1537      -89.00592      -79.10205
      -382.2316      -408.8434       148.6653       746.3823       622.0924
       308.2682       238.5734       104.5762       229.2449       494.3430
       458.0148       178.4530      -183.6806      -262.5264      -53.04504
       263.4419       417.5999       714.2195       770.5973       136.7582
      -89.18408       161.3396       424.5979       1133.790       1162.703
       271.7090      -205.6785      -291.0136      -147.9539       254.0336
       290.3976       97.43106       70.09705       115.6183       262.4160
       512.4031       586.2749       424.3718       55.66605       7.110962
       353.5479       608.1270       607.1100       440.1729       301.1890
       315.7328       10.22534      -419.7100      -550.5087      -215.6760
       505.0542       734.0954       182.3922      -7.183105       369.7375
       687.2858       530.3020      -83.91425      -294.1749      -66.79055
      -13.10263       144.5936       93.56879      -117.9794      -75.21301
       213.7521       391.0930       288.1406       168.7590      -169.9097
      -945.0168      -879.9491       72.90430       852.0193       1085.275
       879.1213       465.5276       169.2990       128.3232      -178.1912
      -412.3949       80.43207       388.5933      -73.94998      -252.2599
       137.7329       67.06754      -128.1072      -190.8225      -117.0368
       44.32578      -21.47223      -78.26807       641.7524       1941.364
       2121.182       43.42480      -3573.516      -6815.281      -8283.404
      -8163.137      -7021.612      -5372.858      -2871.194       145.4971
       3956.518       6802.633       6211.602       5800.090       8774.426
       12059.61       13164.33       11503.34       6395.806       716.7715
      -3809.324      -7740.297      -11048.30      -13043.04      -10955.40
      -7178.037      -2851.105       3034.865       6183.794       5153.844
       974.0532      -2533.529      -1757.890      -380.6377      -1326.006
      -3393.934      -3078.542      -130.3035       1316.092      -392.4890
      -635.3149       1513.963       2321.880       2123.385       1633.161
       1083.490       1896.581       4354.018       5770.875       4359.413
       1339.856      -2587.484      -4143.204      -3376.387      -5163.719
      -8502.129      -8707.166      -4287.291       1532.393       5937.818
       8680.840       6838.973       1914.580      -1536.308      -3177.765
      -2952.939      -1351.198       66.90161       491.7407      -552.9790
      -1634.042      -465.6968       2018.571       2384.564       923.0762
      -807.4941      -1449.077      -258.3608       753.5092       606.2987
       121.6371      -292.2947      -1082.897      -1908.694      -1580.962
      -1612.460      -3411.356      -4531.837      -2620.522       446.1973
       2620.095       4008.834       3663.989       1835.275       666.0627
       395.5989       856.2524       1392.526       1115.133       410.9421
      -551.1562      -1267.372      -1091.224      -1279.733      -1709.587
      -2026.998      -2857.089      -2647.008      -307.7969       1032.570
      -788.9634      -2132.775      -458.9194       2049.456       3807.015
       3250.768      -84.00537      -2940.925      -2139.486       1295.777
       3494.643       3105.819       1573.347      -318.8774      -1576.383
      -2219.032      -2453.473      -1985.809      -893.5995       70.83667
       668.0010       1258.801       1086.059       25.69678      -798.1680
      -1679.581      -2699.842      -2969.497      -2073.751      -109.4502
       2061.380       3102.183       3164.954       2206.347       809.2472
       425.8506       701.3916       977.7583      -122.6333      -2273.734
      -2772.855      -1995.716      -793.5839       282.0031       332.3568
      -411.0886      -640.7561       51.38162       88.81726      -534.6478
      -288.2573       531.0842       280.2480      -927.2710      -631.0328
      -60.27576      -707.6157      -318.0234       1307.173       2675.717
       2850.849       1121.567      -549.3888      -675.3979      -514.9990
      -1308.548      -2313.019      -1671.958      -27.94934       478.8839
      -185.5061      -539.7786       462.1455       1573.325       1079.762
      -58.08960      -673.3221      -717.9756       633.0469       2125.601
       2092.678       1509.191       674.1091      -134.0924       263.3817
       748.5193       398.7910      -622.9453      -1728.913      -2276.356
      -1841.693      -234.4854       674.5713      -333.9811      -842.4861
       7.760742       1136.582       2232.407       2589.279       2127.886
       1336.746       293.6076      -16.92358       295.0678       218.4339
      -89.28491      -6.245178       343.4097       78.26172      -641.0491
      -977.3780      -569.2717       828.3330       1910.762       1670.534
       1115.545       699.9919      -135.4856      -893.1980      -899.7549
      -681.5773      -73.37451       1199.439       1900.176       1422.471
       537.3285      -152.4286      -672.0808      -618.8438       87.69434
       919.9771       846.5483       205.0835       50.21069      -184.8118
      -780.7861      -974.5092      -412.5348       565.8042       894.0577
       460.6314       44.73792       225.2563       871.1597       1195.369
       880.9724       160.0939      -423.6677      -164.2876       787.7954
       1395.207       1217.201       835.5101      -34.25879      -749.8606
      -58.68140       765.3434       611.6373       185.6628      -216.1270
      -972.1597      -1490.664      -929.7805      -433.8267      -411.8833
      -454.6003      -556.4995      -502.7294      -575.0609      -233.6333
       452.7510       936.4346       1469.949       1398.971       1521.578
       2250.017       1865.235       617.0005      -44.43823      -432.3496
      -1037.992      -1440.138      -1463.937      -1220.101      -856.0635
      -660.2917      -454.7500      -320.6812      -521.1268      -504.4644
      -179.1338      -362.4082      -589.5339      -385.0235      -177.9500
      -178.6691      -353.2029      -419.8508      -185.5531      -11.93026
      -71.17004       117.3679       680.4907       1002.154       695.0449
       239.3490       25.19806       98.65091       142.1787      -519.7212
      -1304.373      -1669.765      -1445.520      -836.9966      -839.1260
      -1485.080      -1982.879      -1587.954      -509.4208       194.9985
       295.0828      -101.2452      -514.6273      -191.2775       356.0544
       236.9208      -520.8911      -938.9729      -559.2792      -486.5520
      -484.1968       332.6409       962.3728       724.9097       92.86841
      -326.3777      -179.5168       370.5735       520.4347      -332.4050
      -1073.526      -1094.185      -1166.093      -1653.354      -2233.071
      -2173.781      -1220.498      -209.2050       90.78125       296.0234
       851.6920       735.1816       104.7224       179.5219       545.0000
       304.5919       159.1960      -20.22546      -534.4874      -500.8031
      -360.2329      -902.5378      -1290.731      -817.2819       7.602783
       796.3848       1075.597       264.0768      -576.7384      -683.8502
