     0.02500000      -1223.159       1315.126      -12345.00      -12345.00
      -30.00498       221.0450      -23.43000      -12345.00      -12345.00
       0.000000       17.14000      -12345.00      -12345.00      -12345.00
      -12345.00      -12345.00      -12345.00      -12345.00      -12345.00
      -12345.00      -12345.00      -12345.00      -12345.00      -12345.00
      -12345.00      -12345.00      -12345.00      -12345.00      -12345.00
      -12345.00      -31.80160      -69.32410       2472.000       0.000000
      -31.37200      -68.11800       0.000000       97800.00       0.000000
      -12345.00      -12345.00      -12345.00      -12345.00      -12345.00
      -12345.00      -12345.00      -12345.00      -12345.00      -12345.00
       123.9906       247.0943       67.72294       1.114841      -12345.00
      -12345.00    -0.01321348       0.000000       0.000000      -12345.00
      -12345.00      -12345.00      -12345.00      -12345.00      -12345.00
      -12345.00      -12345.00      -12345.00      -12345.00      -12345.00
      2008       244         6        45        28
       830         6    -12345    -12345     10043
    -12345    -12345    -12345    -12345    -12345
         1         7        13    -12345    -12345
    -12345    -12345    -12345    -12345    -12345
    -12345    -12345    -12345    -12345    -12345
    -12345    -12345    -12345    -12345    -12345
         1         1         1         1         1
LEON    -12345          
        -12345  -12345  
-12345  -12345  -12345  
-12345  -12345  -12345  
-12345  -12345  -12345  
-12345  -12345  -12345  
-12345  -12345  BHZ     
ZL      -12345  -12345  
[...]
       238.6823       246.4419       245.4337       252.3438       259.0209
       267.2079       270.2396       280.9455       289.6799       306.0859
       315.3719       328.3285       333.3885       338.8413       338.7478
       344.9636       345.2292       353.4932       357.6342       368.0073
       375.5851       389.5662       394.3894       401.9070       398.5391
       399.3907       396.0343       395.7659       390.4320       395.3376
       396.1208       400.5212       406.9138       412.8049       406.8938
       403.8340       393.1550       379.1282       365.4387       355.4260
       341.7990       328.0430       313.9489       306.3185       301.8140
       302.8104       297.1483       283.8273       261.5087       243.5650
       226.5759       207.3576       185.3552       167.4470       147.9778
       134.9058       128.6191       123.4149       113.2060       100.7349
       76.07909       49.25941       23.77793       1.997772      -27.39786
      -50.13776      -68.09515      -82.07211      -96.26199      -106.6445
      -126.2375      -146.7070      -170.9335      -198.9124      -238.4629
      -265.3921      -287.6531      -310.6574      -338.0063      -345.0955
      -354.3813      -368.3896      -395.2094      -417.8809      -448.0315
      -480.1611      -510.6575      -533.8588      -562.3635      -578.9026
      -591.4841      -595.8743      -599.4613      -609.1367      -629.8357
      -654.3623      -669.2300      -685.0708      -707.4526      -723.2449
      -729.1326      -739.4968      -738.5220      -724.9980      -716.5557
      -716.6882      -721.1294      -731.7122      -740.1416      -747.9424
      -754.2622      -751.9377      -743.8037      -727.9163      -710.1821
      -688.8003      -673.7124      -667.9193      -658.2000      -651.5219
      -646.3561      -651.4788      -673.2173      -714.5337      -729.2605
      -736.7344      -765.2365      -695.1497      -557.0087      -442.6571
      -426.9913      -477.2159      -330.6437      -227.2432      -393.4681
      -423.4349      -319.1019      -483.1851      -504.3127      -451.3547
      -580.2849      -247.1935       73.19830      -239.9401      -517.4864
      -285.3015      -200.1697      -437.5632      -650.2088      -416.4908
       2.826660      -397.2312      -482.3517      -276.8018      -443.5705
      -237.7672      -201.2773      -499.6512      -350.1457      -61.69305
      -267.3751      -403.9052      -55.47888      -32.17639      -200.9691
      -94.47656      -297.6323      -471.4218      -41.88000      -211.8309
      -488.6840       18.74988       157.4409       273.8412      -97.15747
      -584.0357       107.6242       385.8700      -207.8121      -536.2618
       19.41095       312.5936      -9.562950      -7.893280       112.9273
       55.39783       115.4285       183.7257       299.5994       466.5034
       177.7972      -16.25037       252.5014       205.5051       9.780762
       270.3193       722.6619       517.8716       257.4094       537.2223
       349.5609       199.1766       371.4391       470.6716       797.0253
       756.6964       410.1527       273.4999       346.1948       653.1362
       793.2336       784.1687       954.8826       800.2034       534.0146
       481.6631       680.5303       1025.877       1075.567       832.3918
       727.6802       727.3274       856.0933       810.4849       625.1089
       959.6226       1176.624       895.4951       762.3064       731.0737
       822.6292       1098.309       1018.946       743.3889       928.8674
       1054.415       872.6174       836.7124       844.7300       706.4402
       723.0525       959.5603       822.2329       777.5376       932.3149
       641.4404       691.9236       893.0632       823.2756       688.8496
       706.5354       858.8384       759.2114       611.8018       488.5706
       235.5630       473.3623       762.6312       650.5505       598.7334
       628.6309       498.0879       321.4719       508.6951       773.5112
       609.5071       479.9653       412.0978       269.3422       339.9099
       372.2739       251.1154       302.1815       307.3240       247.8818
       430.2413       514.9615       189.6992       33.63541       165.0081
       91.80791       19.69164       78.77782       1.877289      -69.59190
      -108.0835       28.60652      -23.56796      -136.3403      -141.7373
      -207.9136       8.811142       107.9225      -210.6960      -349.4395
      -272.7054      -188.9335      -256.9585      -492.5409      -394.0222
      -213.8099      -369.8154      -330.2178      -207.2723      -348.6733
      -557.7704      -536.5952      -425.3672      -342.6196      -400.0701
      -550.1433      -572.0059      -587.2136      -593.1334      -516.4827
      -529.2455      -594.8478      -598.4442      -576.9292      -667.3633
      -768.3501      -729.1121      -589.2872      -584.2351      -675.6606
      -585.1479      -512.9380      -553.5620      -685.9141      -884.5886
      -790.8208      -585.0244      -614.3027      -683.7495      -524.2817
      -519.9832      -683.2881      -661.1450      -678.1984      -699.2750
      -449.9279      -380.2366      -507.3562      -606.9753      -567.9299
      -462.4207      -521.4958      -599.0228      -548.5082      -552.1936
      -616.0457      -578.5117      -457.4003      -416.2666      -419.8807
      -313.7920      -371.5538      -498.2115      -375.7631      -327.7904
      -470.7327      -536.4238      -535.5361      -517.2681      -400.8690
      -390.5275      -307.6118      -314.8915      -535.5510      -475.6884
      -284.1602      -336.6720      -386.6455      -467.0745      -590.5195
      -492.9732      -209.8493      -105.3848      -249.7876      -369.5189
      -333.9210      -230.4100      -319.1567      -457.6808      -429.6461
      -341.6912      -177.1635      -45.51421       12.52985       93.00647
       30.99060      -233.2103      -310.1138      -244.6941      -202.4761
      -151.4149      -33.80548       236.0258       350.3365      -100.3445
      -365.5995      -130.8962       158.3069      -14.37433      -311.3812
      -66.56091       244.2795       273.6401       31.57153      -195.4650
      -82.23578       212.4740       94.10255      -125.0576       272.3455
       463.0453       253.3069       131.3625       185.7037       178.7555
       128.1792       22.87692       86.80673       215.9987       24.15216
       96.80542       387.0848       350.9106       208.9809       312.2224
       177.6411       14.92487       310.7733       337.5840       45.94250
       229.5815       544.2762       358.4052       288.1474       347.0262
       178.7153       139.0524       208.3843       156.3243       217.7703
       347.3926       274.3037       304.0732       531.7520       520.4831
       300.6050       255.3103       290.7256       249.6764       351.2535
       468.5447       391.9879       334.5908       370.1705       351.5081
       329.9629       349.3804       169.3292       212.3729       375.3718
       358.5046       238.9973       94.67053       205.2655       190.0795
       89.74243       207.5748       440.6605       491.1272       260.6688
       302.0109       324.2355       55.40324      -50.36313       79.09558
       296.2355       418.1848       244.9957       128.4980       160.7039
       155.3000       304.9459       365.1322       170.9283       127.4680
       58.82739       117.4302       375.4871       91.84690      -28.63027
       114.6786      -108.9810      -128.1975       182.5308       432.9719
       313.0776       90.72943       63.61761      -56.95496      -183.9774
      -14.62238       131.9933       154.0911       362.4365       348.9146
      -44.53711      -192.3600      -78.91229       144.6473       286.1172
       296.9540       202.5655       52.09579       48.86862       24.26672
       88.82806       171.5516       132.5627       134.7043       59.28357
       60.84341       164.3738       140.0494      -60.62292      -122.2790
       5.006836       204.2438       341.8022       40.43405      -57.99455
       106.2485      -48.55952      -149.9959       46.98203       219.3321
       65.29832      -13.09467       61.55289       140.0596       115.0421
      -114.0870      -128.9526       157.5385       96.73196      -144.1396
      -16.30387       25.34672      -9.809319       1.178528       73.45566
       129.3241      -96.46051      -227.6953      -241.8442      -142.5502
      -49.55084      -109.8580      -93.95197      -31.63935       22.56171
       9.762009      -97.51187      -28.72641      -49.10468      -168.0834
       49.63776      -21.44135      -216.7305      -82.31836       39.20395
       106.9219      -42.97546      -263.6801      -104.0197       52.63275
      -128.6868      -42.01096       159.2104       171.8204      -150.0112
      -284.5881       119.6971       163.2788      -89.32417      -60.95679
       107.5690       124.6356       21.15788       29.88412       118.5519
       245.3804       220.5772       17.22018      -46.50183       152.9581
       154.9010      -24.39426       49.38463       76.26758       101.3285
       117.8555       106.1746       197.0337       154.4891       324.2733
       325.2917       27.86177       31.23807       97.50989       110.9255
       51.22840      -32.66434       21.42700       77.25848       111.4155
       91.62033       94.81796       95.04027      -5.807648      -88.43834
       21.14536       118.3978      -8.381561       5.058823       73.57187
      -148.8679      -202.5385      -213.7308      -273.9176      -99.81955
      -81.78529      -87.23856       7.585083      -146.5452      -260.6711
      -219.2529      -265.3098      -280.8073      -257.1734      -212.0540
      -187.5491      -251.7014      -282.0115      -327.7661      -322.2245
      -260.2931      -339.0695      -442.4742      -426.2491      -300.3113
      -316.9545      -395.7551      -274.8051      -237.9854      -339.0122
      -324.0771      -436.8059      -508.8284      -175.7755      -58.82642
      -259.3126      -347.3086      -185.1863      -217.2909      -427.0334
      -431.2166      -421.0625      -468.8086      -426.8457      -308.4933
      -253.8856      -312.0026      -260.1720      -289.1860      -365.7483
      -160.3429      -203.4634      -473.0811      -326.0793      -160.2046
      -192.5244      -260.9587      -341.2845      -261.9546      -148.3113
      -198.7424      -370.0059      -393.2751      -317.4468      -280.7610
      -184.3584      -40.75311      -128.9808      -183.4174      -39.62219
      -58.41541      -179.8626      -175.3814      -26.43054      -80.68323
      -282.2648      -246.0318      -159.4097      -220.3905      -231.1927
      -187.8725      -102.9758      -22.73373      -50.30751      -11.20464
      -21.19550      -80.48816      -92.00992      -131.5875       144.7696
       248.6418       115.0952       122.1740       18.52339      -6.300568
      -58.47326      -20.15279       105.8925      -49.97574      -113.1855
       54.26547       143.8303       211.7532       207.0591       73.46741
       86.89676      -2.071533      -314.0330      -231.8807       222.9673
       232.8732       205.9296       251.1807       105.5952       255.0631
       312.7568       206.1877       112.6947      -9.453369      -17.89649
       29.84343       22.19841       5.157440       119.8372       147.1178
       193.3850       281.9374       155.7829       82.56100       98.65759
       60.83430       43.29799      -1.686539      -62.38599       65.49667
       95.82318       78.89673       156.7167       119.3726       119.0270
       54.44055       175.3732       284.0157       211.2764       312.0678
       171.3285      -35.40172      -20.20093       112.9150       214.2177
       129.6760       16.43798      -27.26495       136.3866       238.8882
       302.3818       260.0639       84.63940       157.9553       216.3604
       70.08521       128.2815       322.1173       267.2792       209.4644
       308.1109       241.5059       175.1429       288.6783       195.2654
       211.9324       336.0656       242.9680       334.8308       498.1780
       280.3401       43.88853       54.73633       93.90930       357.7349
       556.3629       216.3638      -55.08328      -76.41083      -272.0467
      -198.0085       212.9165       389.2247       358.8808       169.2983
       40.19987       2.956604      -51.44794      -17.19092       163.6088
       391.9781       378.4474       47.66074      -102.0641       66.07426
       110.0511      0.8404999      -26.73730       139.6874       238.2657
       124.4829       182.8920       248.1174       258.7861       748.2395
       1315.126       982.4689       356.9666       570.4946       813.3684
       419.0509       11.71866      -40.82446       274.8212       636.9695
       500.2066      -37.93640      -239.4816      -101.2094       215.6516
       610.8956       675.5132       434.0470       229.1459      -238.4001
      -731.7180      -676.2791      -316.6008       354.9426       960.9595
       922.6207       335.2139      -260.4854      -406.7379      -143.2723
       457.1646       902.7446       856.4482       762.3783       695.8450
       388.0863       38.38138       16.41336       146.9176      -68.76978
      -394.6470      -748.4941      -953.4293      -582.4462      -454.4405
      -400.2857       32.22949       281.2019       632.7700       984.7498
       886.3563       361.2805      -355.4993      -829.6138      -711.8575
      -643.4403      -626.1614      -592.9725      -630.2171      -243.5410
      -49.87799      -274.1108      -317.6335      -277.3177      -299.3755
      -384.8484      -340.2761      -440.5015      -767.7332      -765.7202
      -440.3516      -67.15866       60.73022      -286.0101      -703.1309
      -569.7574      -267.4272      -377.7711      -511.8351      -495.1965
      -273.7031      -216.7014      -416.6200      -607.7852      -672.3843
      -753.7383      -792.6188      -352.2786      -170.5610      -610.2842
      -951.4883      -950.8842      -310.5568       189.4433       185.1316
       22.25232      -168.1758      -229.7448      -193.9033      -218.9536
      -424.5088      -755.8333      -1136.198      -1223.159      -593.3346
       74.15341       22.23108      -540.0791      -706.8292      -435.6061
      -203.0233      -202.2958      -223.3671      -169.9346      -308.6942
      -563.6060      -433.0910      -170.9342      -505.2349      -916.7631
      -571.8186       88.55504       89.49814      -170.1794      -13.66074
      -48.90309      -37.13214       200.1749       357.1243       243.3486
      -101.1589      -384.7908      -421.0684      -71.37561       330.3335
       416.8826       399.2539       149.3724      -8.100555       92.14062
       182.7294       250.3632       218.8147       130.7495       186.4378
       254.9611       234.5592       84.96030      -12.12787       173.6698
       386.3628       295.2311       121.0226       78.49170       97.71387
       217.5334       647.2258       1062.506       1057.369       687.0925
       315.7630       23.04472      -108.8462       267.7152       579.6483
       344.5104       227.0114       328.7175       451.4197       627.9436
       789.7307       654.2913       479.0027       629.3818       751.0740
       683.6143       592.1448       652.2896       724.0044       675.8069
       606.0957       534.6067       662.7861       801.9385       779.1110
       559.0973       364.3965       276.4502       274.2949       585.9839
       722.1722       428.7617       387.8438       359.2226       36.47391
      -41.48560       252.7422       426.6758       484.4657       424.3519
       200.8777       330.5406       505.2745       148.5367      -155.9786
      -55.88733       132.2145       154.2066       69.07239       12.61987
       177.1108       367.5577       257.3943      -147.1199      -405.6101
      -42.16940       259.0226      -56.79688      -491.5101      -376.4318
       43.44873      -30.11639      -211.1613      -131.1139      -102.7949
      -117.7051      -157.3657      -266.1799      -219.2640      -196.9363
      -217.5513      -129.0657      -28.14824       17.14270      -53.31421
      -193.8694      -423.1555      -577.1157      -463.0507      -397.1754
      -237.6736      -6.454865      -59.21436      -206.7153      -471.3105
      -599.3856      -419.9409      -419.2690      -459.3944      -430.8835
      -190.6427      -196.7061      -549.3235      -501.4149      -379.0773
      -467.9539      -270.9781       167.4298       237.2977      -12.34486
      -89.34555       64.07922       234.2975       94.23877      -130.3414
      -245.6626      -426.6912      -384.7817      -428.8229      -522.7847
      -146.4819       1.579132      -75.76953      -136.1666      -222.7798
      -252.6813      -261.8137      -307.6893      -451.6863      -431.3497
      -347.4069      -402.3323      -412.2438      -294.2789      -208.5734
      -1.739746       306.9731       353.0826      -12.55530      -230.7329
      -143.9584      -311.7002      -468.6294      -427.1644      -416.0831
      -320.1476      -72.13904      -253.8159      -697.4175      -618.8635
      -360.5517      -266.0881      -303.6679      -268.4800      -322.6209
      -359.2109       7.696083       58.75845      -119.1985      -57.69067
      -146.0791      -332.1163      -166.1770      -24.69934      -200.7770
      -259.0054      -123.6500      -144.0234      -302.7623      -379.0770
      -207.2956       1.248291      -140.8987      -207.6782      -179.0712
      -232.9950      -322.1830      -343.2557      -278.9140      -188.9505
       40.59952       93.48000      -31.47137      -115.4337      -129.5804
       2.834412       150.2733       46.34738      -143.2155      -215.0175
      -269.5881      -259.9274      -76.41718       84.27261       94.88350
       111.5138       32.50452       119.2412       156.2277       72.68196
       72.62846       21.62152       18.65738      -174.0663      -75.06165
       334.6957       411.8483       284.5018       206.2977       209.4029
       155.7247       160.1221       194.9531       231.7497       145.8708
