     0.02500000      -2538.664       2836.114      -12345.00      -12345.00
      -30.00498       221.0450      -23.43000      -12345.00      -12345.00
       0.000000       17.14000      -12345.00      -12345.00      -12345.00
      -12345.00      -12345.00      -12345.00      -12345.00      -12345.00
      -12345.00      -12345.00      -12345.00      -12345.00      -12345.00
      -12345.00      -12345.00      -12345.00      -12345.00      -12345.00
      -12345.00      -31.80160      -69.32410       2472.000       0.000000
      -31.37200      -68.11800       0.000000       97800.00       0.000000
      -12345.00      -12345.00      -12345.00      -12345.00      -12345.00
      -12345.00      -12345.00      -12345.00      -12345.00      -12345.00
       123.9906       247.0943       67.72294       1.114841      -12345.00
      -12345.00     -0.2821194       0.000000       90.00000      -12345.00
      -12345.00      -12345.00      -12345.00      -12345.00      -12345.00
      -12345.00      -12345.00      -12345.00      -12345.00      -12345.00
      2008       244         6        45        28
       830         6    -12345    -12345     10043
    -12345    -12345    -12345    -12345    -12345
         1         7        13    -12345    -12345
    -12345    -12345    -12345    -12345    -12345
    -12345    -12345    -12345    -12345    -12345
    -12345    -12345    -12345    -12345    -12345
         1         1         1         1         1
LEON    -12345          
        -12345  -12345  
-12345  -12345  -12345  
-12345  -12345  -12345  
-12345  -12345  -12345  
-12345  -12345  -12345  
-12345  -12345  BHN     
ZL      -12345  -12345  
[...]
      -42.18507      -38.67670      -41.37476      -40.10786      -47.37357
      -47.39288      -42.29797      -33.66599      -23.51337      -7.637843
      0.9640293       8.510681       13.10755       14.75930       13.70539
       13.08727       11.11111       12.13485       12.89097       15.67825
       21.80358       33.30354       38.35910       39.13799       37.63389
       37.59261       32.92686       30.98996       27.53291       25.67612
       31.03072       36.82635       41.81311       53.62782       58.42700
       56.37590       57.44954       57.56677       57.76642       60.07797
       57.98830       59.99304       62.58362       71.31335       83.63437
       98.06183       105.6955       109.8332       104.7847       98.97369
       90.13107       93.58289       94.16690       92.27765       92.91479
       106.0707       118.8456       129.0263       129.4638       130.0994
       126.7713       122.4261       111.8579       99.91721       85.06369
       83.46207       85.43958       94.45142       106.2304       117.6781
       118.4579       115.8477       110.6816       106.0647       91.90529
       84.18716       72.87245       62.88792       59.74403       75.80640
       90.80685       103.9259       111.1605       115.9810       111.7364
       102.9984       83.49196       72.42255       71.95285       78.73312
       83.78961       99.10901       111.2372       116.3327       116.5682
       114.7195       108.3234       100.7703       91.82968       84.74487
       78.10878       79.06845       92.98749       110.2807       123.1370
       135.9096       143.4136       141.9978       132.7863       122.4474
       110.5124       101.8907       105.4348       123.4610       141.9978
       155.9227       172.8864       183.1620       187.6302       186.9946
       173.4352       159.6661       143.4718       132.9221       137.4308
       157.9301       182.9807       202.2068       201.1384       197.1848
       196.5612       188.2391       172.3154       162.0584       146.5523
       139.8254       142.8331       156.7980       172.8352       184.6569
       184.6738       171.3892       159.3112       158.1273       149.4312
       131.8609       101.5668       96.55850       110.1538       76.57965
       52.26166       122.2408       161.4386       48.19312       10.68774
       125.6801       105.0624      -4.718998      -22.90567       59.96581
       77.18414      -63.12128      -239.4847      -200.9695       25.60057
       98.46979      -193.6928      -296.8206       111.8499       41.61658
      -412.2841      -406.9666     -0.8896179       98.38574      -236.4771
      -328.6068      -314.3923      -101.0399      -53.32703      -296.1304
      -242.0762      -334.1250      -310.6711      -172.5226      -318.0221
      -286.1585      -133.0375      -213.5016      -349.0520      -302.7118
      -317.9224      -460.7810      -462.2169      -444.7652      -196.2065
      -3.156372      -348.0988      -653.4012      -291.6002      -10.25562
      -303.9060      -744.7848      -790.2356      -98.15222      -21.92944
      -563.0714      -682.1614      -307.2942      -110.0273      -461.3741
      -327.6656      -236.0743      -354.6873      -240.4128      -261.3352
      -266.9170      -456.2881      -610.6492      -320.3429      -88.22668
      -270.8568      -366.0682      -219.0940      -83.79297      -241.5590
      -347.1109      -108.5150      -179.5241      -205.1633      -196.7040
      -441.8148      -287.0885      -132.4229      -369.6921      -86.93517
       108.0120      -352.2063      -512.6848      -330.4998       34.19981
       57.71619      -158.9958      -199.6157      -302.3157      -133.9338
      -112.5586      -525.3996      -282.4866       322.9777       146.9387
      -294.1211      -448.8268      -227.8828       60.14673       119.9786
       128.4502      -42.79651      -203.5281      -184.3264      -25.38428
       131.8585       92.46024       44.40695       162.2957       72.84558
      -311.2224      -228.7809       164.0297       243.8983       101.7796
       79.19609       55.19441      -75.43640       164.3676       325.9449
       199.9276       99.27640      -101.1850      -11.91809       279.2313
       208.3006       18.34036       42.24701       275.0403       282.7838
       85.60689       64.85272       57.00189       172.0320       321.5544
       190.3944       161.7363       211.1808       186.5121       260.9456
       159.3740       84.47046       178.8575       233.4276       192.6514
       106.3190       118.7018       328.8676       313.8991       40.44769
       114.5483       264.1471       173.4056       277.3279       348.9505
       126.8148       32.95554       95.33154       167.7681       316.0084
       220.7108       69.10278       254.8967       424.9534       283.5270
      -114.1981      -125.6351       313.0601       333.6795       158.8640
       179.0751       254.0936       239.2828       177.0299       195.9471
       151.6162       149.6293       227.8535       175.3753       234.0379
       295.9550       214.8764       224.9878       177.7920       89.60608
       233.1045       396.0938       321.5118       81.61414       57.46667
       226.4867       258.9670       124.9926       108.5400       300.3149
       350.1558       227.1101       343.7010       412.3999       180.8535
       88.32190       161.5336       236.0894       435.9193       415.4269
       238.2550       174.1171       191.7473       327.1561       315.2374
       187.8169       202.0364       410.1868       446.1293       166.0300
       206.7959       437.8308       324.6241       269.1953       309.1581
       218.6204       237.7034       396.3108       531.3428       362.2685
       204.8486       219.0347       263.9568       344.7832       333.5665
       321.5966       360.1798       330.4955       336.1369       319.3929
       220.1826       245.1279       342.4466       292.1293       193.3528
       289.1262       386.4588       243.9207       184.8101       254.4277
       119.9748      -18.46558       112.2555       341.8998       318.5157
      -24.15170      -214.3214      -18.15308       247.1349       54.51202
      -293.1824      -74.85504       213.0428       126.7468      -8.024109
      -140.2494      -138.4531      -114.8523      -274.7725      -255.8990
       49.96921      -26.50647      -366.4976      -291.0533       35.08423
      -51.29688      -650.6361      -661.6710      -13.55849       106.7102
      -318.9788      -572.2327      -468.5088      -138.5158       25.42139
      -498.1440      -947.3391      -642.9507      -112.8223      -102.8914
      -587.5347      -707.5027      -474.0693      -361.5881      -380.5446
      -563.3599      -800.4363      -739.2733      -421.4705      -366.9221
      -506.3076      -555.3521      -489.3677      -549.3702      -567.1317
      -475.3149      -752.8118      -862.3621      -475.1561      -299.4514
      -543.8921      -785.6740      -616.2134      -397.0006      -552.8994
      -713.7069      -600.7424      -434.3875      -474.6267      -568.2747
      -499.4058      -400.5269      -399.0774      -548.9426      -500.3950
      -392.7357      -475.0703      -496.2080      -461.9459      -311.1338
      -201.6208      -318.0940      -470.2009      -507.2480      -497.0250
      -462.6345      -331.2068      -232.7432      -236.4052      -374.2499
      -438.6686      -306.9556      -122.8716      -114.6734      -343.9292
      -294.9944      -174.6234      -268.3614      -70.89351       32.67029
      -159.8938      -276.2387      -133.6688      -92.05267      -248.2748
      -323.5457      -112.4489       182.9286       164.4503      -5.849609
      -73.43787       32.90457      -1.275635      -149.4659      -43.46527
      -60.65147      -96.40192       119.9021       123.3577       9.549255
      -71.77322      -15.46674       271.2761       132.6248       190.2522
       326.8229      -80.87392      -63.78937       160.3456       76.39987
       64.02155       177.5541       257.6357       217.1448       44.70715
       45.90088       259.3132       238.7076       163.5081       207.3455
       263.2198       210.1969       76.32471       293.2816       396.2692
       344.8619       256.0403       28.10620       155.4904       334.0665
       394.7963       319.4155       190.0706       315.7554       525.9701
       411.3972       58.37317       254.0491       519.1704       404.7047
       219.6328       235.4271       453.7079       368.6732       254.5710
       294.7753       281.8577       304.0723       328.9551       432.0353
       475.2599       214.3408       98.76514       367.8397       384.8630
       286.3251       380.4319       466.4841       343.8096       170.4371
       241.6600       289.5914       198.1696       201.6102       273.5999
       321.3389       256.0732       157.4072       163.1495       295.2731
       406.4357       350.0629       182.5605       86.06818       104.7667
       214.1169       296.5048       414.6208       345.1720       132.1757
       247.2406       389.2698       205.8843       105.5922       290.3500
       531.0822       433.5464       35.64178      -9.042847       333.3339
       413.2534       268.1243       191.1392       250.4438       292.7186
       206.2668       165.8275       243.8842       332.8075       419.9840
       236.7576       119.8384       377.8186       426.4830       278.8405
       325.8332       290.5967       190.6969       225.3739       291.8085
       299.8240       358.1816       413.4482       226.5923       84.25293
       150.6080       224.2035       303.8948       167.6749       127.7368
       230.9772       134.7206       67.08466       55.73569       112.5431
       220.0974       140.4715       183.3318       296.0259       220.5301
       81.29506       27.29234       64.72879       121.2090       5.290405
      -209.8729      -166.8203       51.23486       226.6874       228.3032
      -7.728302      -121.1792      -32.17834      -45.03757      -105.4993
      -83.95258      -35.56125       15.29556      -105.4219      -176.8658
      -150.2029      -124.7462      -60.32184      -93.98914      -158.9703
      -133.1458      -101.4340      -212.3470      -371.5626      -327.2588
      -168.6467      -128.9278      -230.2557      -305.7258      -265.8972
      -237.3000      -221.2834      -237.7882      -281.5070      -181.0684
      -125.5559      -309.4244      -403.3882      -411.4271      -391.8482
      -263.9262      -307.6086      -351.3508      -323.4440      -326.3756
      -302.2161      -366.3580      -370.7928      -278.4493      -343.1505
      -453.8384      -515.4172      -445.2188      -412.0330      -505.6516
      -370.7301      -278.9309      -343.0648      -322.5239      -443.5569
      -504.8265      -461.5468      -543.5895      -366.6256      -249.2174
      -430.2885      -424.2435      -456.8004      -587.6807      -663.1488
      -401.4219      -224.8477      -621.2463      -589.3941      -291.7264
      -305.7729      -369.0923      -594.4518      -659.8885      -426.2142
      -249.9512      -275.8179      -297.6303      -282.5547      -331.1273
      -413.9287      -439.1858      -442.7899      -523.6925      -458.6281
      -332.1722      -250.4314      -305.4377      -506.2315      -395.5556
      -189.5942      -165.8528      -161.1461      -158.1379      -58.83609
       29.24765      -113.1719      -179.3554      -103.0083      -219.8392
      -284.6625      -199.7070      -125.8911      -95.28696      -79.28531
      -109.2906      -11.44839       139.9015       87.43548      -9.936279
      -3.580627       207.0524       232.3669      -1.701180      -37.94664
       29.16266       134.6371       133.8200       45.28130       16.66812
       68.20071       102.3409       69.73956       195.8835       253.3563
       108.7077       157.7214       251.2068       120.1037       154.2346
       185.3882       50.81262       65.76791       117.3386       107.6231
       5.624451       204.2009       347.5753       121.1817       10.98168
      -42.53729       133.6929       223.2644      -13.86620       20.24234
       155.2926       188.8616       190.9232       162.8157       121.8959
       224.9213       338.5219       98.74246      -125.2787       67.41071
       268.3857       269.3613       238.9396       324.9410       406.5059
       361.9451       318.9619       263.5084       260.6327       188.9350
       29.16010       44.26627       55.63996       23.03448       44.51520
       156.3513       341.3126       437.7957       394.0849       131.7272
      -203.6948      -279.1897      -22.49023       633.5679       1696.169
       2591.681       2812.571       2836.114       2668.451       1929.949
       1114.487       382.7227      -500.2705      -1339.229      -1945.296
      -2140.710      -2128.151      -2378.017      -2538.664      -1966.730
      -651.5674       945.0361       1784.139       1922.208       2333.554
       2669.703       2425.477       1686.572       840.1689       395.5579
       393.2249       592.3240       291.7903      -511.4897      -1056.518
      -1125.011      -1120.697      -1428.829      -1618.015      -825.8154
       755.9307       1985.805       1913.776       956.8301       771.9429
       1455.985       1238.396      -37.06470      -809.0091      -139.5449
       909.8269       1143.811       939.0698       865.3567       725.1973
       353.0902      -133.9194      -1061.814      -1876.091      -1464.576
      -251.4844       729.2544       1133.027       1043.085       438.1111
      -288.3569      -1076.433      -1474.974      -1119.038      -673.3614
      -290.3831       22.83984       294.6862       250.7951      -74.24060
       161.8853       531.7932       571.0555       514.9689       189.8435
      -240.5210      -265.6713      -180.5513      -62.06445       303.7378
       494.3320       674.3004       758.4590       108.8477      -939.9629
      -1756.618      -1854.415      -1233.022      -661.2446      -474.5787
      -450.2352      -109.0493       254.5157       47.56079      -270.4795
      -390.2888      -286.6672      -453.6987      -913.4060      -1058.114
      -556.1372       272.2046       677.8074       481.2042      -76.57031
      -1013.975      -1893.231      -2004.960      -1752.028      -931.2832
       384.4795       779.1315       152.2559      -973.8940      -1482.436
      -701.6792       403.8294       608.5308      -246.9798      -310.5805
       364.4877      -65.43750      -1205.676      -1870.970      -1344.253
      -415.1054      -23.88660       535.3862       967.8242       294.0581
      -907.7229      -1265.778       102.6030       1400.090       872.6155
      -293.9136      -1225.133      -1356.455      -818.6052      -681.3319
      -447.7644       9.444870      -7.817871       140.1074       804.4187
       666.7718       52.67298      -36.43384       169.2004       614.4352
       619.4205      -171.2689      -467.5547       53.72290       596.2583
       523.1671      -33.09201      -287.0505       141.8624       330.7856
      -145.3809      -251.9922      -341.0698      -822.5359      -787.8689
      -255.9368       313.3496       523.9851       553.4797       525.4686
       198.5359      -17.05408      -87.59827      -99.72705     -0.9074707
      -521.4189      -1040.942      -614.1233       135.5540       758.3660
       1104.587       902.7467       295.6098      -124.0623      -51.81458
      -196.2571      -505.3848      -558.9810      -408.3466      -38.46924
      -69.86292      -362.0646      -178.9948       47.90815      -21.08157
       80.64240       217.3049       128.6296       427.1581       706.4634
       496.7268       470.6885       489.9949       347.0161       217.5053
       12.74268       139.7491       393.6254       430.7642       443.1034
       341.3151       384.1392       455.1047       236.8041       160.4712
       454.9578       736.8136       672.2455       247.6643      -5.005371
       274.3613       360.0393       243.6855       37.85188      -105.1114
       36.08791       15.97635      -43.25940       218.4941       670.4137
       735.4072       335.3331       260.5195       726.6212       648.0314
       13.84068      -74.99640       161.5958       254.5346       238.0262
       450.9766       508.0994       242.6930       59.18689      -352.6808
      -421.9919       412.1909       1058.290       1074.014       1006.810
       693.5654       139.2855      -19.63097       47.85706      -139.0093
      -439.9600      -285.1790       231.9912       619.9531       532.7961
       119.2243       18.60815       195.8998       305.3421       246.1751
       149.6408       169.4781      -6.697266      -288.6602      -104.1917
       91.38330      -284.4819      -330.1173      -20.61121       132.5195
       258.1990       189.5447       67.16306       45.53214       27.60974
       93.82104       241.7874       394.5739       341.6721       105.9993
       191.8784       381.0942       298.8536       338.0703       224.5588
      -191.7976      -362.5118      -31.82425       162.3432       98.96783
       242.1984       185.6337       228.4946       293.2705      -242.5520
      -602.8279      -300.3465       13.55438       186.4972       225.8792
      -88.10962      -372.2775      -440.5924      -379.6502      -287.8237
      -189.6376     -0.9853516      -4.485718      -260.1774      -306.2686
      -302.1157      -543.1298      -368.8627       31.34692      -46.14935
      -239.7871      -406.1176      -276.7134      -136.6738      -457.9985
      -428.7310      -155.4042      -314.3761      -505.7151      -375.5603
      -142.2096      -201.2799      -279.3426      -47.28778      -35.72485
      -298.9855      -443.5995      -331.3758      -63.00250      -121.5957
      -297.4431      -320.2443      -339.3668      -252.0181      -462.1150
      -714.3934      -473.3603      -242.5715      -224.8768      -216.0948
      -48.32568       96.07098      -108.3672      -339.0833      -460.5442
      -435.9297      -184.7588      -267.1324      -453.9547      -339.4861
      -252.6580      -312.7034      -575.7001      -760.5568      -478.8758
