     0.02500000      -2782.764       2908.411      -12345.00      -12345.00
      -30.00498       221.0450      -23.43000      -12345.00      -12345.00
       0.000000       17.14000      -12345.00      -12345.00      -12345.00
      -12345.00      -12345.00      -12345.00      -12345.00      -12345.00
      -12345.00      -12345.00      -12345.00      -12345.00      -12345.00
      -12345.00      -12345.00      -12345.00      -12345.00      -12345.00
      -12345.00      -31.80160      -69.32410       2472.000       0.000000
      -31.37200      -68.11800       0.000000       97800.00       0.000000
      -12345.00      -12345.00      -12345.00      -12345.00      -12345.00
      -12345.00      -12345.00      -12345.00      -12345.00      -12345.00
       123.9906       247.0943       67.72294       1.114841      -12345.00
      -12345.00    -0.02079447       90.00000       90.00000      -12345.00
      -12345.00      -12345.00      -12345.00      -12345.00      -12345.00
      -12345.00      -12345.00      -12345.00      -12345.00      -12345.00
      2008       244         6        45        28
       830         6    -12345    -12345     10043
    -12345    -12345    -12345    -12345    -12345
         1         7        13    -12345    -12345
    -12345    -12345    -12345    -12345    -12345
    -12345    -12345    -12345    -12345    -12345
    -12345    -12345    -12345    -12345    -12345
         1         1         1         1         1
LEON    -12345          
        -12345  -12345  
-12345  -12345  -12345  
-12345  -12345  -12345  
-12345  -12345  -12345  
-12345  -12345  -12345  
-12345  -12345  BHE     
ZL      -12345  -12345  
[...]
       346.1035       374.2264       385.7876       415.6625       455.1698
       488.6246       496.8599       511.3442       524.9717       542.9961
       559.9211       600.3223       629.5625       672.9106       727.9666
       787.7144       822.8286       816.0869       783.6196       745.4858
       702.9087       748.8901       824.5483       852.7195       726.7795
       659.0361       903.6667       1046.953       872.1238       853.5054
       1012.619       965.7617       694.9731       669.4370       1103.327
       1304.271       994.8438       730.2578       803.0996       1193.103
       1336.854       928.6841       627.7029       1107.433       1537.073
       938.8169       802.5742       1234.592       1240.245       1105.185
       939.5623       1162.833       1176.332       953.3813       1019.691
       1178.469       1288.531       1076.199       961.8149       998.2168
       964.8782       1093.273       1220.307       825.2803       592.7300
       1256.609       1486.228       902.8264       508.8369       959.3809
       1418.310       1315.699       588.0028       95.86816       1079.158
       1529.424       886.0286       464.7012       613.5935       881.7358
       825.2549       860.3405       710.0624       504.8502       469.6641
       564.4446       840.9349       664.1507       88.61865       563.6587
       1223.909       504.6048      -3.203857       209.2594       302.3714
       69.70972       135.4288       696.0457       595.4194       26.59137
      -243.6295      -115.7572       82.95483       309.9003       116.9511
      -124.1433       64.23193      -131.9777      -403.6729      -307.6059
       43.32910       153.1500      -381.7522      -625.9731      -309.9528
      -346.5010      -328.2358      -323.5576      -394.3239      -164.4070
      -444.5648      -709.7314      -583.7537      -320.9548      -359.5674
      -595.2251      -590.0122      -746.2024      -661.1790      -465.0214
      -644.4673      -662.8145      -629.8545      -790.6727      -577.6108
      -376.9709      -783.0754      -988.0205      -630.5569      -553.9993
      -939.6221      -910.7030      -545.3733      -760.6294      -841.2893
      -558.8281      -750.1343      -937.9456      -925.2080      -773.0465
      -587.3621      -599.3691      -890.3569      -1210.785      -994.1094
      -723.2817      -844.6560      -855.7871      -748.7283      -633.1887
      -698.3757      -929.7180      -768.5278      -713.1763      -907.7688
      -851.2764      -872.4653      -882.8457      -773.3079      -770.1305
      -699.9055      -611.6819      -886.6782      -839.7500      -632.5752
      -850.0181      -796.0222      -685.6189      -836.9851      -710.9731
      -385.8779      -663.9031      -1117.905      -736.7156      -485.0071
      -597.8079      -614.7363      -770.3286      -694.5664      -475.3838
      -521.6738      -596.0187      -652.9702      -666.7399      -461.0210
      -557.0426      -662.6270      -276.5009      -388.4004      -800.6177
      -669.5367      -404.1093      -361.3585      -361.3353      -490.2324
      -457.9762      -341.5121      -548.0980      -394.4506       25.51501
      -241.3611      -481.7405      -195.7159      -210.2859      -435.9488
      -215.2281       91.60483      -30.98926      -362.6029      -300.1522
       81.78555       225.5109      -142.5117      -344.3794       71.91357
       292.2366       93.59143       60.74286       96.82886       174.4718
       204.0045      -12.98924      -109.9683       37.93164       342.5515
       426.6054       112.0027      -85.19702       108.2900       403.6359
       269.2720       65.71338       321.7406       337.0591       38.89554
      -28.66028       132.5737       367.3055       312.7831       195.2106
       131.7868       61.58899       175.2804       309.0941       273.3528
       191.8538       81.74072       274.7958       376.8224       169.4559
       259.4348       323.3640       59.98801       6.191772       386.8142
       418.1345       2.750763      -9.769653       79.16541       166.3928
       480.0399       435.2162       132.4826       23.66602       341.6660
       557.9125       254.0921      -38.24390      -18.28967       270.2017
       280.8041       220.6323       483.2784       431.1750       150.9991
       166.5070       265.8006       173.4250       89.35742       262.4385
       533.1558       500.2990       109.2776       31.29749       268.2338
       648.6583       577.6553      -26.23680      -127.7942       421.9253
       897.1226       528.3198       64.76843       128.6963       353.7648
       551.3256       294.3612       17.93591       445.0100       821.1294
       472.4026       149.4094       185.6140       282.0542       523.4367
       404.6990       155.7729       359.0511       272.3264       195.3923
       558.6287       643.8183       249.1287       274.9951       830.0066
       697.0950       179.7064       117.4086       285.8269       473.8973
       640.0138       555.0190       335.4766       337.0186       534.2170
       575.9685       417.4690       381.3577       382.1306       222.4916
       213.9033       548.7297       713.9335       412.1949       229.5549
       247.3346       66.63757       279.0857       509.0734       324.0326
       110.3789       255.4458       468.3569       264.0107       53.92661
       65.98572       270.8987       442.0767       464.5530       252.9035
       103.5565       296.3379       228.2946       42.88275       116.7699
       132.0587       129.4021       178.2595       214.2128       274.7715
       310.6816       186.9800      -48.42517       257.3135       364.0957
      -69.02193      -40.93707       220.1379       317.5304       205.9597
      -40.52853      -79.74152       142.1179       242.1881       37.47516
       156.0005       463.7499       191.9361      -18.12384       250.0775
       306.2027      -80.10031      -4.705078       515.1459       278.4017
      -181.4097      -52.33032       230.4576       158.7664       19.60907
       109.1034       206.9910       216.4077       85.80434      -36.31413
      -5.747284       17.44806       175.1359       187.9500      -115.3641
      -111.2695       16.15839      -37.19026      -119.3057       46.47311
       169.3248      -3.003586      -54.22957      -44.97333       14.84662
       36.63635       70.51160      -143.7192      -365.8785      -145.5772
       82.81549       240.9197      -139.0349      -478.7343      -166.8804
      -99.23743      -317.9477      -273.3079      -41.12567      -74.36926
      -191.4062      -140.5426       65.17493      -142.3080      -463.3614
      -248.3101      -92.78101      -148.9341      -395.8087      -546.5280
      -208.1635       36.83063      -130.3644      -230.0745      -346.7428
      -537.6287      -319.3656      -153.4506      -204.1273      -306.7523
      -447.3804      -347.2498      -247.2480      -348.6006      -412.0763
      -408.2776      -398.0402      -312.0485      -242.2570      -475.5574
      -672.4230      -598.1564      -326.3639      -199.6958      -399.5950
      -540.3147      -523.3301      -483.5742      -562.1379      -717.3596
      -559.9814      -211.9006      -272.5725      -637.7297      -801.2155
      -521.2102      -274.1812      -499.0441      -562.7024      -413.2308
      -473.9265      -579.2511      -572.1425      -409.3003      -457.1938
      -649.2217      -542.4510      -588.9650      -631.8174      -269.3835
      -262.1146      -548.9795      -623.3456      -528.7870      -403.5913
      -564.5322      -735.6624      -491.9366      -225.1726      -365.0326
      -604.7571      -573.8115      -448.3608      -403.0759      -302.5547
      -459.3947      -701.4528      -527.4307      -332.4741      -308.7791
      -266.5303      -284.5922      -411.6416      -534.5473      -297.2538
      -107.0393      -316.9630      -389.9042      -295.0230      -284.3270
      -311.1665      -287.3368      -214.8190      -222.5432      -153.6306
      -137.3361      -225.6440      -238.3539      -202.0540      -110.1309
      -165.2130      -292.6259      -83.45792       81.80231      -106.4641
      -119.0162      -24.58411      -182.3059      -146.6250       92.80194
       129.8385      -5.790920      -23.97571       23.88655      -20.78052
       45.50781       287.3938       362.9493       216.0778      -31.29942
      -78.14386       98.67380       85.76459       177.8032       359.2913
       327.4959       301.5444       193.5930       313.9243       459.1549
       301.3499       240.7836       219.8756       192.3987       267.5587
       254.8617       257.9977       383.8865       471.0183       514.7472
       422.9794       190.9296       265.2554       415.9171       352.4858
       443.9415       418.1323       460.8107       523.8921       341.6765
       353.0796       364.5162       434.7128       369.9478       175.1461
       300.8528       427.5254       523.2356       593.3832       375.4720
       153.1008       459.5308       771.1876       509.5103       288.3494
       383.5415       623.4006       569.0294       355.9166       462.6294
       424.6309       265.2278       358.5852       579.4523       438.6532
       140.6930       371.5281       533.8042       478.6985       452.4849
       304.3229       416.5630       543.1877       353.5568       359.1495
       580.3741       424.1295       87.95245       188.6428       621.5879
       777.3312       328.5012       61.29102       443.2286       658.3268
       358.9472       158.3892       315.3489       530.4744       551.8137
       298.0725       239.1516       556.1934       645.6392       344.1482
       107.1387       116.6666       410.6150       549.5353       272.1932
       26.58923       173.4326       415.9865       425.7770       418.9653
       283.4619       112.0646       271.8656       511.6845       360.4464
       166.1548       166.6797       195.0540       302.3867       162.2562
      -75.70248       32.88391       195.5381       149.3073      -19.89064
       17.12604       108.9179       110.4828       166.4623       16.20435
      -268.5985      -316.8099       103.7721       395.3922      -51.03809
      -428.6555      -356.4154      -216.4247      -4.763489       32.18933
      -243.3011      -236.6936      -29.80725      -36.36813      -88.58038
       10.90515       246.2262       134.9861      -105.5659      -48.04181
       4.535095      -172.8011      -321.6415      -330.7251      -236.4826
       21.80977       31.62537      -261.4530      -445.2582      -483.2675
      -406.9206      -82.11426       35.86841      -463.0342      -1207.650
      -1649.013      -1692.310      -1437.146      -1004.649      -719.7686
      -422.8763       58.23096       527.3448       613.0652       243.8228
      -384.4497      -1181.223      -1675.440      -1612.042      -1503.198
      -1165.364      -257.3403       842.2959       1552.574       1364.315
       1150.152       1352.422       1149.864       651.7559       217.3554
       38.28635       228.9656      -23.22717      -481.0753      -335.3105
      -350.5675      -609.3812      -380.5277       233.3862       905.9736
       1558.480       1934.619       1496.086       244.0493      -1338.708
      -2523.896      -2782.764      -2347.946      -1186.836      -395.5625
      -898.4625      -847.8638      -168.7596       18.18445       324.7556
       968.5167       872.3143       158.8389      -755.6802      -1866.309
      -2357.718      -2421.463      -1982.387      -1117.124      -545.7543
      -112.5615       698.5244       1679.460       1648.680       503.0090
      -502.8032      -620.3589      -946.4399      -1567.494      -1154.750
      -627.3401      -324.0847       143.2680       11.52307      -163.2852
      -269.2065      -359.1313      -100.7336      -558.3135      -1394.673
      -1497.635      -1234.861      -1032.507      -540.2520       684.5564
       1379.203       371.2222      -773.9075      -449.1486       252.8615
       383.5989       682.3511       616.8250       42.93201      -156.3339
      -66.03003       450.5590       733.8024      -188.9717      -1119.029
      -1003.192      -56.71216       594.2559       254.8871      -134.9573
       267.4521       804.6351       535.1896      -21.43433       236.6582
       915.4417       804.3411       151.1216       168.6788       363.7556
      -122.8367      -522.9050      -152.3838       912.6665       1455.655
       225.5093      -1164.628      -403.6812       1094.533       1500.380
       1587.103       891.2891      -324.9288      -769.4092      -50.11987
       926.7350       411.7319      -917.4878      -655.1909       1482.859
       2908.411       2147.854       73.31250      -664.7975       34.16284
       257.3418       808.3798       822.8088      -211.8250      -306.9349
       307.2686       265.0496       71.11584       455.5373       387.4425
      -51.83105       402.1255       897.7605       1052.747       867.7375
       632.0706       940.1381       733.5614      -446.6816      -967.4114
      -159.0925       517.5322       565.8074       378.6254       370.8306
       486.4497       503.5396       363.8326       306.8412       567.7576
       570.6786       384.6003       72.96924      -203.7790      -30.21094
       110.5488       149.7625       444.4651       751.9963       808.1552
       767.8484       483.2795       47.43839      -132.6179      -141.9009
      -42.05524       104.5615       604.0073       802.4483       186.6578
      -72.38342      -334.1826      -916.1509      -547.0236       76.38557
       11.87756      -139.2539      -201.7959      -61.33923      -134.5603
      -859.1898      -888.0238       86.58667       642.5770       229.0132
      -698.0499      -977.6774    -0.02270508       586.2714      -72.80981
      -502.0581       117.1903       686.4344      -15.99536      -917.5200
      -616.6294       18.38745      -293.0626      -374.5453       206.5248
       256.6764       293.5535       49.03247      -497.2649      -583.7988
      -670.8245      -648.5051      -331.1229      -181.5608      -501.1533
      -1086.316      -1069.856      -340.2421      -59.56287       80.65198
       510.9785       445.3071      -14.00916      -343.5187      -201.1219
      -120.2180      -574.6562      -716.6985      -492.5961      -338.2252
      -387.7480      -397.4073      -340.2758      -553.2812      -498.5195
      -333.3719      -426.5630      -349.5931      -99.41266      -95.24524
      -264.4735      -326.1636      -515.6425      -407.8765      -13.29483
      -59.00513      -234.0335      -206.2615      -191.3105      -315.0021
      -223.2037       55.97913      -155.9905      -550.5029      -522.1633
      -217.9786       211.9129       102.4529      -454.9963      -731.1721
      -484.2458      -321.7698      -792.6783      -600.7869       202.3870
       302.3590      -388.4181      -772.5659      -464.0845      -513.7308
      -520.6441      -63.50507       126.6025      -327.6104      -670.3078
      -331.2602       6.442688      -6.038086      -519.9259      -734.5181
      -184.2864       28.50427      -283.4413      -100.2616       438.4169
       456.0229       243.1115      -202.0245      -592.8821      -210.7173
       182.8996       112.0977       188.0486       247.0020      -267.0083
      -455.4703       129.0586      -121.1235      -688.9641      -123.4312
       666.5798       665.1226       368.7920       340.5198       404.6549
       279.6877       181.8900       215.1031      -35.43250       80.40967
       246.6157       278.6394       352.4546       10.43945      -55.69115
       10.67163       35.32104       298.3055       633.0469       532.8755
       113.4651       252.7186       620.5194       630.6472       346.5862
       132.3682       294.8710       590.1360       581.7310       538.1987
       759.9668       1012.025       804.1414       280.6919       401.3040
       966.7937       1002.373       518.2284       400.7720       692.7238
       541.5345       152.5686       414.1224       675.6597       391.9731
       288.2656       324.5137       201.9908       73.66229       182.4230
       506.4984       682.8435       485.8593       263.0891       484.7671
       1145.771       1012.458       202.0336       197.1616       750.4856
       749.2267       46.45059      -42.87915       411.7144       534.1907
       456.4464       179.0778      -2.723267       236.4797       655.1060
       790.2993       699.1508       332.7369       16.64261       113.7189
       252.3792       234.0933       76.15221      -41.88220       167.7758
       330.0041       110.1584       309.4539       595.3143       315.9621
       6.810852       33.60364       300.9554       277.3301       16.81572
      -139.2852       137.5931       365.3616       40.97939      -31.27649
       190.7466       284.0581       108.2395      -126.5822      -235.6799
      -319.1352      -182.2770      -1.433456       39.75105       32.53154
       15.24628       136.5682       297.2576       289.1989       189.2866
       31.40308      -266.3281      -503.9446      -220.5436       36.87793
      -103.8320      -331.7656      -188.5517       105.9142      -86.84619
      -375.1036      -616.6378      -606.6868      -180.6016      -168.1309
      -631.0586      -744.7170      -424.8770      -313.3041      -481.9902
      -607.7202      -477.7358      -494.5977      -779.3967      -724.6060
      -463.0986      -235.5801      -527.4158      -924.4200      -556.2648
      -158.5127      -282.0269      -642.7734      -581.8919      -267.6425
      -259.1179      -441.6531      -713.4224      -807.4373      -750.9189
      -641.1084      -585.3315      -706.5957      -755.8364      -639.0454
      -596.2368      -647.7954      -577.8643      -695.7952      -877.8741
      -567.1594      -491.5337      -836.8485      -751.7715      -463.1624
      -743.5161      -1174.236      -817.6439      -533.0056      -787.9946
      -875.1274      -768.9507      -568.6776      -595.0210      -854.2278
      -779.8330      -570.5801      -541.1401      -607.7888      -711.3135
      -625.4128      -435.9146      -408.7891      -361.5453      -440.8920
