     0.02500000      -1029.481       1053.378      -12345.00      -12345.00
      -30.00997       228.0900      -29.01000      -12345.00      -12345.00
       0.000000       21.18000      -12345.00      -12345.00      -12345.00
      -12345.00      -12345.00      -12345.00      -12345.00      -12345.00
      -12345.00      -12345.00      -12345.00      -12345.00      -12345.00
      -12345.00      -12345.00      -12345.00      -12345.00      -12345.00
      -12345.00      -30.39490      -66.52800       752.0000       0.000000
      -31.37200      -68.11800       0.000000       97800.00       0.000000
      -12345.00      -12345.00      -12345.00      -12345.00      -12345.00
      -12345.00      -12345.00      -12345.00      -12345.00      -12345.00
       186.6780       54.93760       234.1254       1.678422      -12345.00
      -12345.00      0.1484202       0.000000       90.00000      -12345.00
      -12345.00      -12345.00      -12345.00      -12345.00      -12345.00
      -12345.00      -12345.00      -12345.00      -12345.00      -12345.00
      2008       244         6        45        34
       410         6    -12345    -12345     10325
    -12345    -12345    -12345    -12345    -12345
         1         7        13    -12345    -12345
    -12345    -12345    -12345    -12345    -12345
    -12345    -12345    -12345    -12345    -12345
    -12345    -12345    -12345    -12345    -12345
         1         1         1         1         1
LLAN    -12345          
        -12345  -12345  
-12345  -12345  -12345  
-12345  -12345  -12345  
-12345  -12345  -12345  
-12345  -12345  -12345  
-12345  -12345  BHN     
ZL      -12345  -12345  
[...]
       194.9484      -104.0882      -215.4277       88.19154       7.090508
      -46.34175       142.2203      -49.62322      -62.73714       114.4014
      -11.64742       13.31918       144.5839       37.75571      -102.8336
       11.94177       230.4180       133.7850      -156.8740       98.91959
       240.6029       9.425873       85.51382       105.7474       76.63336
       31.62396       57.72635       195.9526       9.435852       121.9118
       166.6679      -51.37305       117.9252       274.4304       52.94063
       6.906799       213.1638       50.07874       24.89807       293.7860
       97.64352       20.43243       253.7109       135.9328       20.33282
       149.7089       209.6310       260.9010       87.08578       33.72498
       241.8920       191.4947       155.0609       156.1970       87.39099
       223.6638       260.2355       197.0909       144.2872       208.5298
       233.8189       145.8458       307.6411       291.9645       48.47717
       200.0265       288.1120       192.9991       216.0242       216.1273
       239.6979       208.9240       228.5377       240.8156       207.7867
       255.2686       208.4723       221.9266       208.6276       253.5510
       285.4652       97.93500       184.6663       361.1329       225.3871
       105.6509       175.0300       236.6867       168.3344       231.6959
       337.0291       93.93024       77.98975       325.9476       162.1623
       159.9380       213.9880       109.1097       249.9995       164.2653
       50.79089       241.7332       219.8809       53.17383       141.0385
       218.6835       97.56024       119.4834       208.8858       85.41190
       48.99655       162.8262       58.94440       47.12970       272.3530
       152.8199      -67.22591       12.03720       151.5103       38.76945
      -32.85321       91.99109       78.26109      -12.42580      -77.32782
       118.2213       117.2085      -74.58866      -34.95819      -42.86314
       5.964157       48.20706      -40.55913      -81.70101      -22.42674
      -16.49487      -99.63884      -116.9981      -19.22784      -59.50784
      -148.2610      -39.23941      -51.34207      -86.93726      -148.3972
      -174.4817      -19.81229      -63.22723      -268.1693      -142.8514
      -3.913879      -143.8379      -234.9361      -168.5437      -70.75043
      -165.4056      -232.1671      -96.74512      -48.39139      -114.9886
      -168.3746      -293.3966      -149.2152      -9.883423      -223.0308
      -75.04236      -123.3101      -254.4922      -147.4843      -127.1573
      -60.92426      -211.0526      -202.3679      -55.40540      -173.9117
      -158.8236      -76.97870      -224.0035      -238.3533      -30.08105
      -75.91046      -262.2647      -127.6095      -59.30139      -145.4307
      -168.9933      -190.3825      -64.81424      -108.9635      -228.2649
      -152.2834      -133.3195      -75.55280      -147.9277      -172.5191
      -122.1113      -177.2084      -161.1291      -158.2524      -113.5642
      -65.46936      -223.3707      -145.6511      -26.01459      -181.8835
      -145.4763      -129.9016      -161.6749      -37.84399      -108.6700
      -155.6321      -89.19464      -114.9200      -121.4253      -27.02298
      -182.4748      -101.1775       16.78326      -263.5215      -58.79164
       42.18735      -195.1419       4.828186      -58.83893      -236.6484
       33.13467      -32.37454      -164.9492      -40.43939      -82.82671
      -39.77783      -169.5035      -56.86668       98.78204      -232.0972
      -83.68990       87.94025      -126.4068      -104.4081      -57.90685
       4.460785      -113.7998      -51.52020      -42.75439      -277.1090
       56.82942       13.51447      -222.6411       50.48119      -87.75336
      -39.86797      -9.836487      -201.8705       3.402130      -33.15773
      -49.55006       69.79590      -174.9762      -111.5531       56.34700
      -88.72775      -38.09027      -62.12929      -146.3365       121.3251
       37.35242      -146.5847       8.668884      -36.72009      -33.22054
       103.9422      -80.14053      -105.5236       26.61699     -0.3872452
      -35.82831       104.9785       98.31607      -147.2934      -81.73221
       57.28539       56.38748       102.9964       59.13866       41.87659
      -19.09328      -11.03520       80.03255       45.88696       57.01626
       47.26175       30.35031       102.0650       16.68341       103.7062
       178.1421       46.37643      -10.04840       55.03235       175.7425
       47.92035       35.94711       167.6466       75.16785       127.4292
       168.2116       36.42801       75.17090       263.5694       184.4658
       8.884918       2.600891       305.7057       213.9289      -116.6463
       166.1685       311.6387       46.44809       17.95709       277.5268
       268.6950       70.44998       54.51199       116.5823       259.0299
       224.3813       223.2509       135.6913       33.63391       194.5337
       186.4477       212.0378       221.0609       59.10425       128.4591
       137.8215       153.3254       253.3466       161.2459       137.8719
       179.4474       164.8343       133.7636       154.8571       253.0046
       143.8110       133.3661       78.86169       101.9861       284.8132
       82.49567       53.17627       304.6312       178.6545       5.386078
       97.51709       214.4606       162.5267       116.3972       129.9189
       99.56168       56.82965       154.1924       247.5046       76.05600
      -22.36609       165.4051       159.2765       31.84613       135.7230
       180.4566       34.47841       27.72104       109.9071       38.98727
       43.59210       170.4293       62.85461       75.50671       179.5304
      -35.97043      -132.0022       211.8690       112.6945      -135.5162
       66.43137       114.1192       45.72136      -6.054321       31.49615
       80.52441      -73.17484       19.86885       86.72754      -21.93184
       93.49288       63.83386      -187.8852      -79.72128       133.7713
       18.56773      -24.71653       32.09857      -107.8642      -132.0893
       138.4593       51.94836      -208.3903       3.896420       22.30331
      -86.60046      -60.46826       24.57932       54.92975      -168.6334
      -194.4097      -44.70929       111.3191       10.90607      -221.8137
     -0.9619751       88.06424      -173.2638      -118.8367       54.60138
      -88.24954      -194.2375       5.650284       162.5827      -186.2667
      -273.9243       41.57616      -41.84976      -109.5391      -26.08746
      -84.15533      -100.0372       28.67407       22.36438      -142.8545
      -158.5869      -207.5036      -49.02570      -10.69238      -215.9480
      -63.99878      -95.71960      -212.7452      -88.99689      -57.22499
      -41.95740      -129.6898      -255.0454      -113.1876      -50.03223
      -180.6980      -179.8024      -152.2154      -194.9891      -170.7473
      -68.65967      -91.35376      -177.6810      -242.7071      -159.2181
      -63.93274      -155.3761      -119.2231      -152.0148      -340.7191
      -225.2708      -25.35669      -144.3984      -230.4443      -70.83807
      -60.41132      -265.3910      -244.8874      -106.2574      -216.9888
      -101.1433       29.42322      -328.1714      -337.5605       1.289032
      -26.93243      -265.2397      -291.1979      -27.99918       51.30084
      -236.7394      -240.9153      -76.28088      -55.06287      -158.6929
      -215.3231      -179.5681      -121.0247      -24.13312      -95.67889
      -149.1700      -203.4765      -147.7723      -39.05283      -194.8027
      -116.2524       15.96777      -180.2814      -230.5903      -13.80537
      -8.787292      -83.89255      -140.7507      -98.30606      -25.45020
      -163.3064      -125.1140      -56.65672      -66.67130      -26.82353
      -57.37492       16.50949      -3.446991      -92.64594      -56.37485
      -73.10865      -66.45505       65.66473       13.57706      -16.17203
       155.5958       22.55667      -196.1242      -41.04587       148.7624
       7.085457      -38.43524       163.3030       100.1781       8.309753
       180.9315       108.2781      -62.57079       34.38614       31.79703
       107.5732       134.6005       69.09775       132.3211       9.039185
       116.0745       197.1740      -45.37378       161.7828       262.4432
      -49.75830       20.72253       307.9376       158.4568      -65.73734
       128.5743       143.0637       139.0112       267.9173      -134.1273
       86.17950       563.8383      -156.5346      -209.6010       503.1262
       197.9048      -153.2694       33.10364       204.5424       260.7323
       98.73849       20.74707       149.3590       261.5549       64.08775
      -59.24213       148.8903       151.0734       165.0526       155.5709
      -27.54271      -5.833740       184.3199       125.4395      -63.71805
       67.72092       200.4482       40.85693       8.603104       74.24324
       30.50223       87.10590       103.8257      -43.18586      -45.38898
       17.19623       2.309937       62.98439       88.32912      -38.98275
      -5.381130       27.76886      -64.18080      -27.20924       37.13641
      -127.6845      -82.87505       110.7249      -117.2145      -100.4591
       127.8680      -54.01930      -27.20703      -77.55786      -165.4525
      -18.59135      -42.33282      -23.87308      -99.94554      -50.96393
       140.7856      -113.8999      -266.3047      -113.2377       1.048187
      -76.02619      -32.13023       12.85742      -60.29187      -12.29522
       47.42059      -125.0810      -249.1760       3.505905       13.84244
      -121.2322      -52.73679      -150.4234       75.77658       163.5427
      -163.2791      -90.73157      -86.88870       28.42723       229.6151
      -218.3998      -134.3853       166.7110      -18.86670      -44.00656
       91.10556       54.37202      -134.0310       99.66870       358.7263
      -48.01590      -290.7692       87.65143       292.8965      -45.74673
      -27.07629       233.4220       186.6283       32.15825      -70.23547
       181.2607       315.2453       11.78467       79.84131       220.0171
       131.7395       116.1262       208.3903       230.1291       74.26624
       156.4547       245.6026       29.62488       169.1016       290.4663
       173.4753       282.2651       225.8469       76.74756       299.9380
       322.0716       142.2538       207.6344       316.4194       262.3537
       78.12122       150.1785       401.3137       277.3723       104.8225
       171.1450       272.5634       276.8827       145.5720       172.8888
       315.4518       245.9319       68.58168      -14.81824       256.7324
       342.2697      -28.83827      -15.06128       262.5863       310.6071
       88.55629       26.96301       199.8067       99.59238      -11.74548
       165.4524       21.19740      -100.5008       267.0640       190.8294
       5.979874       89.96058       53.80585       19.38702      -100.0460
      -361.0475      -257.1475      -47.44522       20.57318       196.8616
      -10.82034      -159.4155       25.08492       27.34003       83.23621
       193.4103       274.4636       214.3209      -138.3406      -315.4158
      -246.5909      -43.27036       192.2096      -186.4187      -631.6976
      -166.7847       306.3605      -193.9938      -475.4119      -15.09033
       259.8829       424.0219       221.1187      -430.8998      -508.7609
      -176.3688       138.1372       288.7262      -335.1698      -717.2889
      -338.9146      -425.3074      -503.8627       496.0225       972.1831
      -125.9163      -658.3717       23.80353       361.2242      -381.2163
      -546.4525      -307.0997      -710.9293      -430.6559      -148.7678
       304.8499       264.4706      -730.2167      -494.7848       164.1467
       289.4215       2.898193      -357.4064      -157.6796      -235.9185
      -336.9957      0.3398438      -159.7568      -661.3567      -780.8610
       211.3040       878.3467      -469.9631      -833.1364       243.9431
      -584.4099      -975.1864       692.0679       100.7444      -932.9796
       98.15759      -333.0402      -461.0886       242.9555      -209.3254
      -126.3943       87.55090      -248.7516      -609.1835      -107.2654
       292.5864      -386.6025      -618.4913      -567.4144       14.81116
       533.6667      -343.2761      -246.9468       275.5901      -401.2012
      -451.3479      -199.1905      -284.7238       466.0309       320.4678
      -910.4929      -348.2274       73.19960      -173.9382       249.8181
       177.7898      -598.1809      -1029.481       136.7376       377.0627
      -799.0950       91.36047       1053.378      -171.3972      -753.2568
       60.19556       146.7948      -102.0967      -215.4683      -749.2102
      -384.5012       309.2808       147.8060      -148.4980      -181.7792
      -117.2715      -288.2379       218.8776       521.0220       91.75588
      -77.87216       43.63708       182.9354      -404.2758       10.46906
       242.3300      -353.3075       93.36293       114.8513      -81.48810
       88.96472       179.1425       170.7550      -302.9512      -40.29343
       252.5005      -280.8967       298.9637       775.2881      -325.6617
      -647.2468       47.46744       192.5917       89.14075       329.2399
       533.0735       82.13055      -50.20874       282.9633       295.0791
       73.72638      -78.18326       146.3100       22.83203      -7.952393
       547.2253       158.7217      -361.6313       109.6997       416.2916
       336.2328       258.5327      -53.30637      -47.80103       392.9045
       410.0367      -86.13501      -393.9658       209.4069       724.2117
       559.0623      -345.6133      -245.5350       856.5506       131.3529
      -109.1179       751.7352       20.48730      -233.3804       519.6058
       380.0157       55.11841       282.9044       290.3279       208.4231
       474.1396       363.3321      -378.6536      -251.9998       947.7606
       294.2417      -519.5654       524.8124       533.4104       167.6047
       317.5121       316.3886       363.6441       209.7146      -193.9784
      -168.1050       567.8536       490.4287     0.07727051       285.8527
       111.4974      -230.9713       504.0750       767.2759      -80.95789
       214.7108       568.2971       66.59985      0.3889160       120.7262
       29.48975       217.2526       535.2195       286.2735      -129.8770
      -175.8649       230.8594       274.3235       54.40494       188.1282
      -1.591919       78.90863       198.4908      -356.4051       45.07544
       724.7734       324.7041      -201.7355      -316.4686       204.9485
       306.2361       84.46609      -22.84404      -19.84122       117.9905
      -80.35864      -224.7338       75.52899       224.8707      -139.1063
      -351.1014      -263.5059       154.2472       155.7336      -66.23773
       110.4284      -196.2229      -303.0031       249.4069       243.1602
      -349.0943      -266.1196       88.96783      -249.5410      -134.8011
       338.3685      -311.1011      -206.2071       33.85120      -215.9879
       31.87671      -391.5107      -412.5857       180.0865       95.57910
      -547.5592      -290.5451       194.1438      -191.0524      -88.70081
      -501.8876      -655.3809       257.8726       414.3979       40.86865
      -447.1122      -797.5796      -380.2468      -214.0269      -38.08392
       440.2698      -372.0322      -809.4069      -134.8606       120.2985
      -146.4358      -463.5090      -461.0073      -121.5250       147.4677
      -344.1207      -386.0253      -109.8776      -60.77655      -211.7570
      -358.2819      -150.9929      -498.3195      -536.6641      -94.36302
       41.50449      -86.35199      -246.8219      -226.5864      -262.8970
      -179.3759      -336.8742      -301.4006       2.909729      -166.8554
      -251.4286      -56.45123       25.93927      -180.9193      -54.90210
      -229.1814      -566.4300       106.7837       92.67419      -319.3846
      -358.6891      -161.1811      -33.66611      -182.1023       115.2048
      -209.0251      -231.4971       259.3739      -12.52599      -41.41968
       130.0733       101.5970      -363.1198      -370.9290       241.7097
       126.3325      -151.7214      -32.27090      -125.1932      -174.0549
       97.98743      -45.95741      -41.42557       46.76924       71.76096
       68.26715      -342.5616       83.47559       455.1276      -318.0208
      -209.9744       515.5812       110.6955      -399.2250       119.9394
       502.4852      -228.5454      -313.5059       443.9588       119.4359
      -456.1890       108.6242       327.6221       11.68213       259.3724
       280.1949      -128.6416      -37.87210       186.3002       23.44933
       12.08386       200.2042       312.1629       266.2132       177.2296
       150.6062       293.8709      -125.0857      -120.4755       409.3676
       167.6184       499.9188       496.4565      -253.5863      -96.10114
       192.4851       355.3376       352.8286      -183.7271      -107.7452
       359.6448       448.2700       335.7492       156.6569      -169.4261
      -287.1475       337.6272       687.3311       342.3600       55.62924
      -134.5969      -93.54140       20.39645      -7.510132       368.1766
       468.8801      -154.9939      -258.8826       304.4777       377.4457
       41.87787      -103.5064      -20.73584       351.4694       320.4736
      -35.18262       22.42389       253.0661       215.0127      -135.8789
       68.05951       145.0647      -183.8987       312.6091       419.2772
      -178.2820      -116.8771       13.55141       1.691040       118.5723
      -43.40015      -5.551628       118.7004      -126.7262       240.6560
       405.8022      -434.0636      -243.5068       420.0374       220.0105
       181.3430      -120.0947      -427.0309       158.9245       324.9904
      -168.1552      -95.45802      -144.5498       36.07349       278.2934
      -403.4603      -173.1448       349.5580       298.4857       15.49988
      -520.3145      -207.9435       187.3602       255.7671       222.8762
