     0.02500000      -686.6499       665.9446      -12345.00      -12345.00
      -30.00997       228.0900      -29.01000      -12345.00      -12345.00
       0.000000       21.18000      -12345.00      -12345.00      -12345.00
      -12345.00      -12345.00      -12345.00      -12345.00      -12345.00
      -12345.00      -12345.00      -12345.00      -12345.00      -12345.00
      -12345.00      -12345.00      -12345.00      -12345.00      -12345.00
      -12345.00      -30.39490      -66.52800       752.0000       0.000000
      -31.37200      -68.11800       0.000000       97800.00       0.000000
      -12345.00      -12345.00      -12345.00      -12345.00      -12345.00
      -12345.00      -12345.00      -12345.00      -12345.00      -12345.00
       186.6780       54.93760       234.1254       1.678422      -12345.00
      -12345.00   -0.004777749       0.000000       0.000000      -12345.00
      -12345.00      -12345.00      -12345.00      -12345.00      -12345.00
      -12345.00      -12345.00      -12345.00      -12345.00      -12345.00
      2008       244         6        45        34
       410         6    -12345    -12345     10325
    -12345    -12345    -12345    -12345    -12345
         1         7        13    -12345    -12345
    -12345    -12345    -12345    -12345    -12345
    -12345    -12345    -12345    -12345    -12345
    -12345    -12345    -12345    -12345    -12345
         1         1         1         1         1
LLAN    -12345          
        -12345  -12345  
-12345  -12345  -12345  
-12345  -12345  -12345  
-12345  -12345  -12345  
-12345  -12345  -12345  
-12345  -12345  BHZ     
ZL      -12345  -12345  
[...]
      -37.50994      -42.15666       37.70969      -10.16620      -131.8073
      -124.8402       20.13327      0.3646011      -72.06439       74.26648
       12.42444      -266.6519      -88.16128       40.16418      -118.2977
      -41.88089      -83.53354      -168.7237      -78.20184      -129.4629
      -90.75116      -53.51660      -85.72574      -79.40912      -146.1871
      -231.3589      -138.7072      -10.13699      -177.0447      -153.2321
      -57.96039      -207.8181      -129.9031      -63.62341      -162.4395
      -151.0432      -51.25061      -149.8583      -246.3185      -186.1958
      -96.68979      -125.2673      -156.5525      -67.48773      -71.42456
      -205.5903      -290.2891      -140.9701      -25.03931      -138.0118
      -160.1866      -140.6983      -175.1960      -112.8966      -173.8957
      -237.3144      -11.80051      -105.1360      -224.5506      -47.48993
      -120.0426      -146.2338      -170.0018      -320.3546      -135.2956
      -78.72137      -140.9840      -137.8674      -126.0990      -98.32233
      -185.3303      -222.4536      -186.7403      -153.8983      -112.6896
      -242.4908      -196.0107      -156.7703      -221.3569      -76.88956
      -82.11938      -229.6224      -215.1454      -161.2924      -181.0989
      -241.2489      -83.56097      -94.01602      -221.4356      -30.67590
      -128.3218      -357.4929      -256.6107      -141.9170      -109.4855
      -134.4853      -100.9158      -123.4673      -211.9823      -97.46443
      -9.864014      -194.3574      -144.1517      -2.005356      -89.13591
      -70.59512      -5.005424      -9.315430      -107.7518      -71.94608
      -5.570099      -109.6000       32.15680       119.0499       21.62989
      -23.48785       51.16229       174.1895       76.67738      -25.70395
       103.2883       201.1563       92.68073       18.79279       124.0363
       255.0616       152.8474      -1.186646       143.3676       285.8578
       320.7496       157.1928       49.90570       214.2281       215.1201
       184.5489       295.6360       269.6915       188.2349       255.6226
       309.4365       310.5044       350.1487       235.5457       157.9634
       271.9325       232.8145       290.2802       352.9888       197.1604
       289.5652       341.3173       268.9091       332.4656       355.1367
       305.1177       221.4014       228.3691       348.6510       369.5248
       214.6507       289.1196       388.1628       255.8433       223.1677
       231.1747       249.9510       274.1932       343.6132       353.0707
       165.1924       176.9015       188.6660       168.4601       391.4440
       346.6816       140.8545       150.6812       175.4318       203.3483
       181.9692       180.0823       195.8654       145.9319       180.2565
       207.6748       37.17027      -36.65930       132.9566       102.5108
       199.1560       181.5505       16.94958       100.3356       41.55239
       29.59990       2.836021      -8.536499       134.2556       2.952576
      -121.2594      -35.48589       64.47137       99.42255      -68.94470
      -148.5542      -133.1601      -57.64960      -26.42123      -108.8982
      -114.8196      -104.6457      -95.39282      -206.0656      -119.9731
      -38.46716      -263.5724      -169.0907      -8.133240      -185.2590
      -311.2138      -177.4275      -126.6086      -317.1572      -304.0547
      -61.70813      -136.7419      -191.1139      -194.0864      -272.7531
      -302.2991      -249.1499      -36.47070      -199.2129      -377.7026
      -180.2781      -153.8569      -237.1405      -206.6761      -206.0945
      -362.7266      -318.0070      -181.9337      -182.7720      -204.2947
      -253.3359      -165.3521      -217.9876      -248.1373      -132.6544
      -196.2867      -260.1186      -189.0806      -83.38647      -316.1618
      -380.9992      -142.7600      -101.8656      -91.68066      -231.7590
      -311.0544      -82.93442      -83.89734      -253.4729      -208.4835
      -135.8962      -176.0797      -208.9067      -253.1775      -244.8228
      -196.6513      -281.5833      -175.7048       13.47746      -38.75592
      -128.1736      -263.3801      -238.6380      -174.3274      -55.65540
      -16.97772      -361.7621      -205.5619       123.0535      -32.69119
      -78.34552      -63.32050      -95.70300      0.7342606       34.04327
      -73.93927      -165.8647      -288.7732      -314.9612      -189.8834
       87.35626       303.1024       53.95776      -269.8701      -262.4062
       103.9053       424.9243       352.5902       75.12683      -205.4655
      -267.0822       56.89813       296.0237       337.4045       363.6390
       42.03687      -215.4976      -169.0894       43.14488       107.0778
       12.96265       167.5650       318.5577       46.85785      -299.9403
       85.94684       391.8984       91.74977      -31.68848       261.7499
       488.5649       124.4899      -199.5259       1.885254       362.6076
       346.5370      -276.7260      -300.9242       289.0255       455.2832
       444.5392       160.8517      -86.59552      -139.3254       3.108521
       516.2653       418.3763      -40.76239      -52.09113      -138.2925
      -265.2404       141.9868       553.7920       269.9752      -57.47256
       3.623917       102.3797      -187.4060      -220.6660       209.3985
       146.1490       37.01990      -154.2037      -25.95691       665.9446
       227.0343      -11.43857       186.8130      -289.1964      -253.9907
       126.3523       283.8762       145.8714       77.48270       26.72092
      -146.2388      -29.81909       97.90990       21.78656      -250.6829
      -213.3649       52.01343       382.7436       164.7258      -94.38336
       319.7156       23.12518      -304.8703      -101.6157      -75.32791
      -74.36214      -30.05969       219.0378       134.8351      -8.598846
       203.6279      -59.32178      -179.1586      -45.46311      -47.72598
       72.46268       89.77942       166.4770       337.3311       116.9858
       2.071594       60.79242      -277.0643      -197.5771       247.1909
       232.6025      -301.4207      -234.1573       392.5733       132.4462
      -164.7573      -190.9325       136.5671       399.8032      -31.18646
       39.71144       106.0809       4.794922       169.1497       175.9648
      -103.7563      -110.4984       175.0086       3.193558      -99.69688
       98.15179      -71.76192      -31.40097       175.2996      -158.9084
       73.05688       382.4799       1.229614      -119.3126       48.59789
       67.65015      -201.3308      -213.8063       141.1640       215.1200
       78.01996      -116.0015      -154.4959      -10.19919       52.38785
       62.69193       98.70032      -99.97369      -244.6508      -29.52646
      -21.38727      -139.8467      -26.57527       148.8579      -132.4217
      -251.9366       111.5076       55.26059      -111.0061      -171.2776
      -27.83157       171.2419      -19.60168      -196.5215      -355.8723
      -69.83905       371.9430      -75.09991      -371.7306      -126.3344
       26.85919       148.6663      -7.913818      -353.9856      -331.2309
       14.07507       138.9659      -126.1122      -62.98622       171.9396
      -143.7601      -286.2324      -6.409027       135.5651      -285.8919
      -327.7904       252.0487       92.52753      -373.9125       33.65631
       490.5585      -26.42621      -381.0393      -121.7635       56.23596
      -90.51099      -375.4167      -289.5176       381.4196       578.5763
      -287.9342      -363.1118       173.8788       52.17825      -16.39807
      -52.95593      -220.6919      -134.6688       53.64722       291.2649
       437.7985      -46.77594      -420.2704      -121.6445       25.48895
       196.2328       306.8302      -48.27359      -131.4441       40.94702
       170.9922       106.8793      -157.8402       101.1714       270.1443
      -95.95740       79.43054       454.0993      -63.54059      -338.3382
       167.0847       163.9652      -90.68614      -22.11180       60.28937
       49.29309       222.3773       319.7770      -51.40125      -261.4112
      -9.158386       154.2191       98.57800       118.5690       186.9890
       74.29507       77.51671       104.7110      -11.51632      -58.75681
       109.5373       183.8721       30.27612       312.6964       452.7324
      -159.8463      -264.7733       91.99328      -22.02615       9.510986
       248.1599       153.7795       22.50787       25.11816       73.61841
       268.3016       85.50162      -259.7691       53.87682       135.9172
      -186.6552      -56.82397       247.3851       334.2233       176.5277
       77.19336      -38.72412      -214.0529      -140.8475      -74.18663
      -10.05530       270.1843       350.0208      -153.1309      -241.0593
       265.6322       285.1852      -69.54163      -239.4008      -203.5955
       124.4963       187.9280      -151.8028      -54.72885       260.3773
      -33.91870      -342.6694       177.9141       364.5549      -413.9044
      -557.2177       104.9917       219.8409      -252.9066      -238.4582
       242.2219       150.5482      -216.4037      -307.2553      -159.8960
       90.71259      -67.08234      -107.9880      -92.64435      -378.9620
      -155.9028       93.61353      -281.8737      -260.6192      -49.93390
      -150.9984      -204.1955      -81.67557      -60.38110      -171.7482
      -248.4969      -146.3706      -50.62561      -324.0663      -380.8672
      -93.17050       4.541168      -31.00806      -339.7664      -454.1994
      -190.1295      -123.9150      -223.0491      -338.1575      -211.1851
      -83.48047      -141.7701      -299.6902      -417.1772      -272.5009
       40.44878       58.66803      -222.0668      -159.3561      -118.7479
      -289.7912      -237.7852      -12.63708       29.00330      -315.9255
      -386.2944      -20.63063      -29.21970      -194.4562      -93.83276
      -174.9622      -227.0793      -42.05807      -71.22076      -181.1450
      -66.79411       32.57727      -152.6928      -284.1210      -22.50725
       93.03020      -53.77216       85.78351      -59.73969      -302.3595
      -54.40895       76.58333       22.34753       105.3770      -52.78961
      -219.6156       36.16541       219.0695       256.9859      -25.60054
      -76.48013       178.4303       16.63452      -9.075817      -11.68076
       44.47961       326.7946       420.0886       157.7183      -71.24695
       55.15454       178.7526       205.5629       337.6965       459.0481
       370.7458       70.53484      -32.30615       157.0561       276.9961
       398.9915       479.9911       216.9707       36.01465       119.0408
       443.6676       540.6035       206.9151       166.2615       349.4474
       346.2496       65.69238       38.73242       467.8514       560.2385
       175.5108       37.04077       377.4778       494.4941       407.1937
       320.5808       100.1390       60.85596       334.5857       553.0862
       299.8732       160.1320       246.1445       192.9287       234.4755
       212.6050       360.8373       435.4478       247.3533       227.7424
       248.7228       153.2499      -46.05118      -80.07074       292.5533
       334.5467       90.96417       230.4919       228.1767       29.39096
       126.7312       221.3451       109.2990       166.6292       235.3118
       7.133881      -75.72168       237.6134       514.2358       269.3676
      -61.07782      -274.4305       2.897461       441.7386       102.5710
      -162.5972      -130.0669       39.93237       397.1544       290.3400
       65.86073       82.07251      -92.62598      -186.6026       140.0160
       149.6192      -35.03725      -100.3512       108.3740       390.4318
      -15.04926      -60.51913       281.2152      -71.21808      -262.6844
       73.86511       259.9725       5.516479      -247.3136      -213.1364
       109.8431       190.2321       76.56985       127.1915      -60.33307
      -239.5175      -59.97888      -61.95633      -184.7395      -44.01703
      -180.7568      -158.2001       132.5237      -82.90625      -202.0254
      -116.1883      -218.7701      -327.1959      -235.7788      -58.05257
       68.83795      -66.58832      -290.2972      -254.9077      -222.3238
      -227.2638      -236.1356      -390.6608      -332.8425      -77.90594
      -117.2287      -303.1354      -391.5378      -366.3798      -284.1432
      -232.2057      -254.9779      -362.1956      -439.4667      -324.3674
      -273.8091      -495.8156      -361.5548      -82.02954      -217.5807
      -405.5828      -483.7332      -307.9756      -144.9160      -395.5439
      -686.6499      -474.0689      -127.5787      -92.27271      -275.9594
      -522.4976      -472.5037      -344.2709      -258.0593      -61.69794
      -133.8030      -378.6973      -474.6759      -468.1604      -287.8604
      -271.7628      -356.8475      -138.1464      -230.4771      -549.9850
      -369.0379      -106.6203      -82.99188      -203.9552      -422.6876
      -394.7338      -168.9637      -147.2164      -304.4832      -307.9209
      -159.4678      -104.8846      -267.8649      -378.1980      -85.03166
       12.42569      -133.0697      -86.99469      -55.95502      -215.4542
      -163.8888      -31.49310      -202.3751      -280.4669      -175.2212
      -11.32309       109.4486      -18.74062      -8.848114       36.92444
      -215.5437      -262.4728       193.8307       299.2838      -3.313293
       33.43201       163.2361       80.88766       63.36777       45.43640
       60.37085       200.7604       118.5381       30.35892       128.1175
       92.13257       218.3846       407.9920       256.1645      -46.50967
       2.692627       288.1117       196.5165       201.9304       404.7308
       82.04498      -70.97015       226.7391       262.5627       257.3145
       303.4055       196.6682       411.5034       517.1205       205.8794
       11.71075       41.11487       292.6665       410.4360       295.5542
       251.3253       251.8673       184.4786       149.1387       296.3889
       300.1135       301.9331       518.8154       468.6519       172.4149
       51.48145       290.6499       510.8131       239.6362      -17.23834
       210.6049       465.5116       237.3605       25.84186       281.7011
       398.2548       201.5199       215.2555       201.9067       78.15033
       293.2447       300.9259       123.9061       172.6631       270.0800
       252.6331       80.44881       27.73566       152.8626       210.2128
       49.73068       104.2610       196.4409       82.93304       142.7668
       155.6109      -68.72510      -24.38477       343.6439       202.4803
       24.17731       139.0938       17.55811       56.38223       153.6044
       73.50389      -44.44189       36.80885       24.09747      -134.5866
      -32.29785       86.27518       119.5238       67.37445      0.7099457
      -77.09676      -18.06485       126.7278       7.514160      -133.0682
      -10.10645       166.6459       91.17947       70.72632      -9.635559
      -236.9501      -13.98602       47.95901      -94.06844       44.09534
      -93.18332      -159.4758       97.69373       17.10382       53.42023
       207.8668       97.25729      -3.732162      -13.62256      -104.7398
      -112.0116       138.8767       44.66931      -166.2835       99.20291
       144.9840      -186.8583      -206.7101       44.76172       78.55190
       25.30382       21.28806       44.62657       93.96013       58.04430
       35.15314      -59.44138      -132.7660       25.91440       136.2598
       5.650482      -141.5522       2.248138       161.6863      -27.35503
      -51.47034       187.5992       276.5127       98.73099      -110.4008
      -73.57698      -20.21815       23.20646       24.22398      -98.97842
      -41.98742       31.82312      -81.81729      -125.8227      -21.96394
      -13.65543      -174.8692      -101.9967       71.73475       1.756021
       15.67972      -26.02039      -178.5257      -90.64323       63.28638
      -137.5117      -255.2796      -42.35872       11.35533      -26.41705
      -146.2947      -238.2371      -159.4854      -34.31073       5.780914
      -69.05505      -183.0706      -215.0014       9.550598      -34.83960
      -371.8342      -288.2903      -53.04980      -134.9564      -184.1623
      -71.63287      -101.0599      -133.0892      -127.3434      -218.9248
      -227.1172      -142.9940      -218.3935      -130.5542       80.47375
      -78.08148      -277.4776      -144.1728      -112.9050      -91.70560
      -64.52643      -213.9107      -248.7660      -200.7947      -40.94638
      -59.06238      -279.5868      -146.9296       10.66760      -54.35663
      -215.5479      -130.7150       15.67725      -180.7310      -190.1971
       19.85735      -13.07413      -81.33868      -102.6194      -173.8631
      -93.96809      -36.43237      -42.44221      -29.86844      -80.23967
      -72.03412      -9.551743      -79.45042      -28.47268       46.08542
      -60.37128      -98.22595      -122.4464      -90.26305      0.3327942
       37.44376       60.57947       19.63185      -50.06951      -50.70834
       4.386978      -37.18850      -42.00666       23.79102      -47.95246
      -38.58768       53.93636       57.61157      -29.19666      -70.60765
      -15.33385       3.308350       114.1317       196.4697       187.0030
       46.22208      -111.2870       69.57352       138.8119      -34.30226
      -6.501465       97.80070       109.3350      -6.042282      -44.38049
       97.44620       174.6753       47.28673      -11.55676       148.2302
       139.5146       16.59707      -44.79192       12.03308       154.6052
       182.4701       69.00164       29.71886       4.689972      -84.53819
      -6.735229       159.7644       102.9786       7.438110       78.10138
       38.90396       97.15892       109.0023      -149.3898       7.293274
       198.0105       30.57043       34.01819       88.55083      -29.02414
      -164.0913      -69.38455       119.3145       102.7786       58.24942
      -33.41269      -97.19116      -45.02704      -100.7170      -62.91583
