     0.02500000      -1109.989       1174.999      -12345.00      -12345.00
      -30.00997       228.0900      -29.01000      -12345.00      -12345.00
       0.000000       21.18000      -12345.00      -12345.00      -12345.00
      -12345.00      -12345.00      -12345.00      -12345.00      -12345.00
      -12345.00      -12345.00      -12345.00      -12345.00      -12345.00
      -12345.00      -12345.00      -12345.00      -12345.00      -12345.00
      -12345.00      -30.39490      -66.52800       752.0000       0.000000
      -31.37200      -68.11800       0.000000       97800.00       0.000000
      -12345.00      -12345.00      -12345.00      -12345.00      -12345.00
      -12345.00      -12345.00      -12345.00      -12345.00      -12345.00
       186.6780       54.93760       234.1254       1.678422      -12345.00
      -12345.00      -1.144399       90.00000       90.00000      -12345.00
      -12345.00      -12345.00      -12345.00      -12345.00      -12345.00
      -12345.00      -12345.00      -12345.00      -12345.00      -12345.00
      2008       244         6        45        34
       410         6    -12345    -12345     10325
    -12345    -12345    -12345    -12345    -12345
         1         7        13    -12345    -12345
    -12345    -12345    -12345    -12345    -12345
    -12345    -12345    -12345    -12345    -12345
    -12345    -12345    -12345    -12345    -12345
         1         1         1         1         1
LLAN    -12345          
        -12345  -12345  
-12345  -12345  -12345  
-12345  -12345  -12345  
-12345  -12345  -12345  
-12345  -12345  -12345  
-12345  -12345  BHE     
ZL      -12345  -12345  
[...]
      -17.38197       9.439270       152.5885       123.0648      -108.2144
       183.6981       244.8151      -89.87839       79.34113       213.8558
      -134.4221    -0.08361816       308.9955      -12.52969       36.17828
       209.2301       112.3902       41.70042       10.57977       125.2328
       124.9396       165.7184       173.0281       51.45697       165.1056
       51.30115      -32.13123       317.4423       280.3063       33.85278
       124.6742       228.7148       187.8867       172.2239       108.1141
       146.6556       296.2482       12.00958       191.0281       441.6539
       96.46674       76.62244       244.1302       315.6031       173.2185
       79.96539       287.3959       223.5562       100.2304       312.8591
       299.3233       93.87860       181.7722       163.8887       139.3178
       268.8581       240.1918       140.8631       136.6796       257.5612
       159.6420       70.28821       320.5863       77.21027      -47.42230
       300.2928       144.5445       78.12515       160.3359       61.53587
     0.02285767       147.3807       124.4491      -15.32373       233.5592
       71.44513      -191.5415       167.0626       113.4680      -146.2966
       66.17970       8.191917      -54.90396       4.436409      -33.37498
      0.5288239      -90.64499      -17.42529      -88.66934      -245.9991
      -7.757996      -65.96033      -207.9316      -99.69141      -143.5567
      -180.1962      -112.6970      -161.1177      -250.7244      -218.8947
      -146.9435      -220.4377      -316.6111      -219.7566      -261.9950
      -199.8268      -182.6165      -367.7701      -365.1389      -384.1526
      -268.9543      -170.5715      -331.9736      -383.1589      -432.9269
      -363.6238      -236.3875      -368.3093      -438.2844      -350.9143
      -401.2026      -386.6113      -347.0093      -483.4876      -328.0310
      -287.6801      -533.2714      -364.1108      -302.5942      -438.6611
      -438.2061      -301.9597      -318.4056      -516.1554      -462.8884
      -340.3583      -342.5835      -332.5791      -390.3571      -436.5846
      -226.4661      -353.6714      -515.5762      -299.6433      -307.8799
      -285.9240      -338.9587      -399.1803      -296.4387      -281.0150
      -261.0560      -237.3824      -328.3083      -355.7948      -183.9709
      -256.5854      -291.3882      -74.87207      -315.3169      -315.9944
      -102.6054      -201.8589      -83.91348      -98.05450      -265.0926
      -145.2273      -108.1385      -162.7242      -147.6567      -69.60216
      -17.53033      -177.6548      -192.3284       161.0114       52.39908
      -242.4892       35.40240       125.4866      -102.8841      -82.16709
       53.06733       16.50763      -39.53012       147.1162       34.18080
      -52.12546       136.0632     -0.3809357      -24.43774       268.1717
       19.07198      -110.4769       319.2072       305.8258      -24.87585
       73.62183       191.2280       78.75378       181.4072       178.6828
       59.00629       194.3711       234.7867       121.7887       95.34357
       148.3419       148.3738       254.7822       251.1809       190.9346
       228.8856       217.2350       190.7717       185.2278       94.79858
       177.5534       285.2781       242.3840       219.3218       108.3257
       125.1312       242.9387       277.0398       201.4883       120.9576
       340.0459       234.2513       23.78174       249.0080       335.7461
       186.7511       156.4067       205.6877       258.0338       198.7570
       249.3411       318.6293       142.6040       147.1267       305.1509
       182.9227       181.5070       413.3311       247.4801      -23.14734
       278.2309       408.5771       59.82812       259.2366       464.2031
       29.49252       74.99170       325.2946       156.5657       226.4816
       345.3311       162.8473       167.6135       203.1928       318.7281
       330.4945      -33.74902       80.12561       252.4084       200.3991
       255.0908       154.6067       209.2477       143.5052       95.79956
       212.8132       143.6535       120.0800       82.78351       52.30817
       239.6465       257.8802       182.3186       44.45964       9.192169
       205.4666       99.05450       18.16669       224.7791       104.0890
      -39.65598       158.7966       42.84971      -51.44952       152.9292
       187.3696       77.32467      -17.38116       51.76284       33.56578
       38.81936      -42.00073       41.42252       174.4092      -21.85895
      -115.1636      -47.73145       160.5353       61.26093      -234.9020
       8.189285       118.4559      -140.2744      -161.9512       81.47054
      0.4077454      -108.2675       12.72226      -33.06500      -82.67578
      -132.8420      -148.1296       8.071960      -74.62610      -229.0663
      -118.6069      -13.30565      -69.83331      -92.90967      -121.3738
      -213.2903      -82.30893      -134.8512      -162.8634       92.83765
      -211.8950      -296.8056      -14.47473      -100.2473      -170.7801
      -129.2993      -223.0519      -224.0341      -47.66038       61.69379
      -135.2434      -372.6155      -38.54169      -54.85846      -262.8850
       74.01501      -140.3498      -215.5302      -102.5321      -188.3479
      -40.80029      -39.29272      -185.8461      -126.4662      -8.468536
      -189.0427      -123.0193       27.85510      -215.0888      -222.5676
       13.95968       34.10117      -116.0044      -116.0509       33.00851
      -63.26132      -230.3415       19.19371       92.31964      -178.3126
      -121.1801       43.31439      -34.55612      -112.3867      -75.62213
       14.52434      -53.41255      -55.55203       68.91878       26.39941
      -138.6830      -64.40829       149.8185      -85.51317      -190.5408
       142.8242      -23.00687      -116.9221       70.99706      -43.94077
      -13.56496       24.36505      -207.0068       73.77676       210.0494
      -279.8672      -88.67099       166.5528      -68.42717      -54.69475
      -36.40598      -9.577271      -120.7014      -119.6110       207.9732
      -6.148773      -172.3506       24.98859      -69.19817       51.64087
      -53.80920      -206.8119       105.7198      -74.53809      -281.6513
       102.0685       85.53174      -275.4791      -121.8794       173.4730
       29.26251      -122.5106      -78.01355       61.94165      -104.6244
      -239.8386       51.07944       25.94260      -136.7919      -92.58244
      -10.37207      -22.80817      -139.2312      -37.27466       62.55978
      -115.7396      -164.7656       25.82846      -72.86205      -138.1697
       56.87274      -142.0613      -151.1491       176.5880      -69.95584
      -179.4398       184.9937      -100.3506      -371.4392       193.5515
       116.4812      -337.6536       13.87418       61.27051      -203.9232
       11.75429       65.21140      -97.91574      -88.81876      -60.97381
       26.62323       17.17368      -97.65200      -16.25127       22.92383
      -223.8857      -73.16019       150.3579       15.62061      -16.83648
     -0.8314209      -23.51215      -175.1992      -176.4493       231.2679
       77.32642      -288.3465       5.510101       204.0797      -53.98300
      -225.2080       64.82584       150.7726      -177.4338      -2.381592
       89.31708      -171.8489      -49.95769       72.41913      -59.12900
      -88.08838       36.32349       179.2415      -110.0278      -151.2578
       94.06725      -57.88881       44.76743       85.04128      -54.32964
       66.07819      -100.6186      -155.0662       119.4809       31.33032
      -166.7683       109.9695       93.31421      -172.8986      -15.63501
       159.5172      -115.0612      -100.5208       249.2709      -5.910416
      -108.2095       169.3697       3.375488      -147.7789       24.32800
       203.2742      -48.33015      -58.14862       127.7170       79.72224
      0.6144409      -138.9678       150.0751       323.7486      -77.76392
       49.00677       289.0142      -67.38141      -80.52637       329.1290
       218.2466      -58.59055       109.4343       157.5267       139.7806
       137.5130       16.49414       84.97058       268.6693       207.1631
      -39.37256       179.6221       237.8934       148.9420       113.6211
       117.2806       284.4918       89.81415       120.4373       246.5767
       37.31445       193.0557       173.6343      -66.59756       110.9512
       250.3237       200.6890       167.0434       35.39487       48.12909
       246.5350       77.87866       32.51572       224.7986      -47.98291
      -77.22327       262.8165       189.4565      -98.37260      0.8326721
       21.02206       81.36821       28.22018      -137.9830       97.74466
       182.5513      -13.11465      -114.7042      -16.97849      0.6470032
      -129.2899      -25.64499       98.00407       1.716095      -46.75721
       24.07672      -76.41772      -120.7055      -61.48421       17.86401
      -26.42361      -159.8220      -172.9563      -102.2191      -84.82001
       142.4661       83.40991      -138.0924      -25.62717      -70.89790
      -86.87659      -66.85628      -61.25507      -72.03207      -152.0940
       6.687531       62.11919      -82.00070      -48.45061      -43.85641
       22.87494       109.7541      -155.2167      -125.1313       24.09407
       6.095322       27.37572      -77.07182      -46.20251       161.2066
       136.4066      -43.60893      -86.64365      -1.311264       56.67484
       79.95245       131.8368       62.77600      -51.83951      -9.532166
       87.84180       7.904312      -13.69086       231.9803       183.4569
       94.92477      -52.28763       20.17719       264.5597      -34.89948
       91.21802       287.1537      -41.19177       107.0633       212.1059
      -10.58630       55.07599       139.0414       74.61646       145.7889
       62.48096       36.90210       190.6963       250.3149       216.0529
       117.4280      -2.266357       165.7307       226.2337      -152.8634
       86.96875       332.0931      -59.32370      -82.28302       130.8242
       232.3574       241.6007       92.97980       79.04688       271.4541
       52.32758      -156.5576       62.43744      -2.851418      -36.62244
      -40.59436      -244.8824      -49.98511       151.4836       102.9715
       42.73413       68.37643      -12.17847      -84.10128      -35.56459
      -12.67700      -185.6317      -302.1445       74.10770       115.2906
      -12.36699       140.8204      -154.2637      -320.1194      -79.49088
       43.60095       326.9474       472.4687       196.4788      -96.46118
      -314.3145      -384.5845      -290.1732      -114.8859      -168.9727
      -300.7300      -374.4813      -450.4014      -156.5427       331.8828
       514.8451      -32.71399      -476.4450      -179.6383      -28.77197
      -179.5788      -227.2321       35.47168      -117.7964      -882.7168
      -327.8691       440.7896      -742.1816      -1048.395       485.3995
       609.2047      -578.2644      -579.6826      -4.895630       177.3260
       218.4504      -156.3315      -575.4889      -776.9257      -393.1791
       402.0596       13.64136      -1046.126      -149.3782       490.5027
      -1091.846      -576.5859       1021.678       166.5068      -1103.530
      -298.1995       377.0291      -474.7405      -676.5594      -200.1116
       208.4910      -194.3102      -504.5673      -221.5964      -507.0326
      -524.4635       133.0339       137.5463      -369.4065       252.6883
       313.1018      -678.3324       29.83929       415.3032      -1068.348
      -910.2424       532.2832       837.7051       260.4675      -689.3120
      -547.6946      -246.0956      -178.0538       401.0268       287.5887
      -135.2062      -77.54907      -565.4626      -516.1165       592.9423
       507.9863      -226.4729      -73.53351       36.86316      -648.0870
       33.53821       960.6123       60.59338      -55.45789       709.0229
      -6.117554      -719.7223       422.7878       878.1011      -243.9932
      -69.38196       551.4028      -232.5764       76.64136       1032.390
       204.0380      -646.9331       262.8474       1162.218       585.0312
      -609.7024      -213.3186       592.8853       122.2654       22.59674
       332.2825       234.1207      -59.63818       557.6985       882.3796
       512.2632       841.9985      -186.4441      -880.6558       447.0085
       854.0623       378.8343       96.34711       319.9446       309.2810
      -65.66162       210.6771       355.5344       574.8669       222.5561
      -434.6116       523.9211       1102.392       154.8389       49.92792
       323.5997      -293.7222      -80.71533       1174.999       838.7712
      -231.4122      -210.3437       6.794434       124.4663       285.6600
       92.17755       154.7760       627.0433       195.5098       237.8232
       658.8667      -350.2573      -328.1695       4.980225      -102.4749
       440.2655       391.9934       179.3506       51.50110       278.9310
       263.4603       200.0234       402.8773      -754.3248      -485.4788
       555.2440       537.4800       544.4502      -313.2589      -145.1307
       558.7068      -124.3391      -569.6709      -179.3593       499.5512
      -24.74197      -442.4290       402.0443       412.4047      -430.7887
      -156.0269       272.6371      -64.52443       84.13635      -206.3797
      -365.5966       369.6051       81.58643      -700.8252       190.9548
       773.4187      -149.2502      -167.8141       64.74927      -304.3708
      -423.4858       19.12268       228.8321       218.3397      -44.04004
      -669.1018      -518.3124       171.6680       212.4835      -346.6954
      -315.5528       183.1431       95.12817      -261.6748      -310.5479
      -144.1818      -15.83093      -259.8185      -132.7524       211.2761
      -358.1948      -406.8298       56.16150       25.38782      -339.8660
      -346.9967       16.16943      -275.7379      -352.7805       29.30981
      -339.9238      -523.9205       232.2974       266.0522      -490.7893
      -863.4437      -466.0428       161.8691      -144.1848      -96.82947
      -148.0167      -413.9743      -94.01318      -187.5668      -199.4313
      -421.3918      -678.9989      -195.3120       330.1093       356.3210
      -400.1299      -1109.989      -429.5145       203.8683      -308.9950
      -217.5468      -216.2945      -241.3186      -92.11377      -288.8618
      -312.3822      -401.1121       148.8954      -57.74133      -857.4885
      -96.95164       114.9250      -320.2393      -465.9993      -555.8985
      -56.32886      -47.51343      -373.0076      -16.10680       28.18188
      -252.6564      -325.5903       24.83969       252.3030      -341.5739
      -635.9213      -279.2341      -74.74042       238.5155       84.47693
      -323.7740       109.3228       75.42767      -438.8219      -25.36548
       211.0029      -145.3165      -105.7246       183.3801       20.88580
      -72.02057       9.278992      -123.0017       92.71448       330.5985
      -125.8329      -237.4957       68.09448       429.7447       387.3544
      -164.0271       12.01270      -269.5033      -501.3823       469.9805
       463.3166       41.05420       301.4368       140.1113       36.56677
       502.8771       82.72784      -525.9421       126.6523       732.7131
       313.2112      -74.23706       312.5207       422.6070       89.36424
       27.67874       168.2818      -3.621155       21.61914       491.3215
       487.9641       275.0340       135.9859      -7.506226       181.8535
       445.2610       140.7736       239.6310       443.2610      -125.2029
       95.15613       777.3882       338.7978      -105.3979       200.9854
       221.4706      -24.93793       138.6525       469.4183       565.4572
       25.55017      -180.2080       260.2267       313.6863       671.9985
       409.1197      -252.8029      -44.89871       97.30383       150.7533
       273.9113       424.3247       291.9918       275.0749       279.3348
      -365.1115      -168.1081       209.5920       195.4788       117.1654
      -191.6982       418.9771       576.3551      -364.1270      -196.4833
       362.3914       76.85913      -34.76483       70.05005       129.3315
       316.0261       3.241516      -346.9308       144.7924       411.8561
       24.91650      -317.4939      -81.51245       334.2491      -4.594086
      -128.4680       352.0479      -119.0453      -363.4279       601.2534
      -7.585571      -469.0750       97.40930      -196.2584       56.57227
       346.3040      -85.59863      -595.1519      -99.54285       568.8444
       200.6851      -255.3364      -425.3115      -290.3215      -58.08914
       17.73813       116.2542       107.3461       3.139618      -11.73328
      -227.8919       46.18530      -199.9192      -409.2861       542.1910
      -41.99719      -825.7412      -87.92737      -2.816681      -117.2795
       107.3628      -62.02386      -61.77013       46.36014      -29.65161
      -393.1455      -656.4412       46.94159       318.7369      -156.7666
       48.29401      -202.3106      -416.8322      -47.95953      -189.3858
      -145.2946      -83.38538       27.75693       232.6276      -280.0832
      -353.6057      -28.19276      -86.77642       56.85889      -127.8392
      -319.8328      -291.0916      -171.2461       401.7729       177.4679
      -315.0753      -258.6899      -427.4013       114.2898       284.0630
      -597.5673      -504.7967       178.0879       105.3833       24.91721
       250.2401      -346.2539      -631.8486       204.9503       467.5331
       51.50241       6.382080      -422.6207      -829.0601       328.8466
       469.7795      -499.1606       114.1840       501.9122      -299.3840
      -326.8950       68.67651       11.64694      -54.50742       87.46204
       161.5263      -142.3231       79.03287       372.9200      -350.3104
      -366.9090      -106.3099       60.57556       617.2007      -109.3805
      -490.7112       439.0355       172.8675      -334.0188       263.5383
      -22.43738      -470.8578       362.7215       305.0040      -288.4749
