     0.02500000      -3565.921       2828.619      -12345.00      -12345.00
      -30.00998       222.4900      -23.91000      -12345.00      -12345.00
       0.000000       17.38000      -12345.00      -12345.00      -12345.00
      -12345.00      -12345.00      -12345.00      -12345.00      -12345.00
      -12345.00      -12345.00      -12345.00      -12345.00      -12345.00
      -12345.00      -12345.00      -12345.00      -12345.00      -12345.00
      -12345.00      -30.16080      -67.83630       1442.000       0.000000
      -31.37200      -68.11800       0.000000       97800.00       0.000000
      -12345.00      -12345.00      -12345.00      -12345.00      -12345.00
      -12345.00      -12345.00      -12345.00      -12345.00      -12345.00
       136.9617       11.42791       191.2845       1.231412      -12345.00
      -12345.00      -1.144458       0.000000       90.00000      -12345.00
      -12345.00      -12345.00      -12345.00      -12345.00      -12345.00
      -12345.00      -12345.00      -12345.00      -12345.00      -12345.00
      2008       244         6        45        29
       310         6    -12345    -12345     10101
    -12345    -12345    -12345    -12345    -12345
         1         7        13    -12345    -12345
    -12345    -12345    -12345    -12345    -12345
    -12345    -12345    -12345    -12345    -12345
    -12345    -12345    -12345    -12345    -12345
         1         1         1         1         1
LUNA    -12345          
        -12345  -12345  
-12345  -12345  -12345  
-12345  -12345  -12345  
-12345  -12345  -12345  
-12345  -12345  -12345  
-12345  -12345  BHN     
ZL      -12345  -12345  
[...]
       285.6260       282.6205       281.0900       273.1345       251.2133
       247.0609       247.5991       232.7585       235.7513       222.2610
       219.1049       225.4454       202.3876       184.5951       184.3777
       168.7476       174.6990       187.5012       160.7753       151.4110
       154.0206       143.9301       135.1479       118.7484       107.4261
       109.8517       96.40610       92.52551       86.11353       77.63721
       74.89902       62.95859       46.14761       36.85599       28.56937
       28.79463       13.59416      -2.545631      -13.33800      -19.78259
      -32.24765      -43.08307      -50.45700      -63.31616      -73.27640
      -83.07062      -89.55743      -98.51111      -115.4351      -122.6722
      -137.2601      -149.9067      -159.4630      -167.8887      -173.2191
      -185.7910      -191.3185      -200.9368      -213.5869      -221.4633
      -228.7086      -237.8853      -245.5616      -253.9940      -263.2566
      -270.5502      -269.6172      -279.6576      -290.8997      -297.2959
      -297.2603      -305.5133      -313.6761      -315.6010      -320.3124
      -329.6877      -329.6011      -336.6855      -340.3290      -338.5168
      -343.4193      -352.6785      -351.8831      -352.9092      -351.5215
      -351.0769      -348.9004      -350.8987      -344.9309      -344.7537
      -352.7607      -350.7567      -324.5549      -319.5057      -296.0689
      -273.7878      -266.5616      -184.7393      -94.83594      -465.7390
      -812.2844      -546.6302      -108.2666       119.6589      -320.8038
      -625.6404      -51.44348       176.2502      -270.4213      -416.4320
      -158.1132      -79.32898      -317.2788      -509.9900      -188.5538
       12.50098      -246.0977      -143.0177      -9.418335      -142.1533
      -376.9889      -109.9293       361.0281      -183.3278      -253.9821
       28.11536      -404.7462      -226.5157       208.4533      -46.90065
      -142.9346       48.81714       91.10046       384.1426       65.49255
      -417.4639       167.9769       128.9218      -426.4851       233.3941
       589.6823      -377.4293      -179.1035       804.1523       94.93372
      -108.4355       698.2557       31.96570      -270.1390       328.7706
       104.5850      -24.86353       309.2161       250.0098       113.4393
       386.4257       341.6229       151.8120       88.27336       33.02814
       94.50879       361.0795       645.0065       42.19159      -244.2427
       454.8605       539.6823      -123.5843      -151.1206       692.8951
       382.4727      -284.7164       480.7257       456.8563      -84.27350
       86.52216       69.70264       236.7881       316.9828      -12.96851
       239.8853       621.2624       216.6064      -29.76825       165.5726
       304.7031       200.1862      -17.22650       13.68030       352.1771
       376.3383       187.5157       176.4493       74.59155       332.5717
       332.3589       43.60068       30.99194       140.4156       282.2952
       193.2410       264.2224       475.4655       353.0912      -18.46948
      -9.495728       413.6071       448.4995       15.96143       70.19897
       411.2153       320.3730       201.4812       248.6248       317.1574
       200.0576       224.9290       405.1577       191.3397       12.92114
       422.3118       534.9423       24.28540       226.7319       483.7085
       213.3224       262.4978       363.0937       290.5262       290.4591
       374.2883       129.2732       143.0927       504.0471       231.4349
       100.6093       327.3566       278.1842       311.9047       386.4911
       109.3546       96.35303       335.6740       141.8615       231.3922
       604.3880       435.1818      0.6336060      -30.01068       300.1295
       291.3024       86.53531       77.86145       317.4128       316.7294
       61.28116       40.80109       105.7034       214.7424       77.42847
       102.4396       308.9922      -19.90784      -28.96274       190.5594
       43.59140       45.95691       133.6345       118.2936       28.75754
       57.40401       16.95866      -96.34236       10.87267       29.88901
       167.8012       67.31345      -137.2301       84.70911       69.39737
       79.15338       188.7815      -115.9423      -184.8411       96.78877
      -29.70004      -115.7105       61.11890       143.6797       133.1447
      -16.73096      -84.42125       14.25272       120.1373       107.8641
      -12.14062       44.27193      -40.00208      -87.87280       94.66559
       151.6522       167.7353       21.64124      -221.6638      -79.85397
       140.6611       85.46091       6.175079      -107.2916       7.695374
       136.2261      -68.01801      -52.73946      -47.73186      -35.88691
       34.44086      -55.58725      -149.6680       53.84241       118.3103
      -129.2660      -38.35037      -71.08295      -125.5890      -46.89155
      -74.41511       38.42392      -105.0495      -122.1476       1.678833
      -304.9503      -263.5847       38.82721      -138.7361      -198.8415
       86.22705      -6.512207      -336.1351      -291.4846      -77.55777
      -90.08121      -104.2377      -40.96802      -190.1328      -339.4617
      -268.2682      -20.62091      -7.450256      -319.0654      -230.5417
      -139.3103      -288.6113      -317.4036      -253.1712       5.036133
      -251.4432      -504.5775      -126.8236      -142.3849      -366.0836
      -241.6161      -105.5551      -297.6612      -360.8245      -205.2815
      -291.8976      -344.2226      -140.0262      -301.8378      -474.2404
      -239.9653      -272.3171      -452.4717      -349.6613      -228.2129
      -289.0845      -461.1676      -423.2601      -205.7465      -294.6985
      -480.2787      -326.7265      -189.6227      -246.7734      -444.7512
      -449.1901      -328.4471      -269.4722      -269.1970      -422.7091
      -296.0389      -354.5584      -392.0218      -81.49097      -216.3053
      -427.8154      -188.2428      -33.47913      -393.0032      -415.8149
      -188.3905      -256.7277      -313.2568      -145.7224      -184.2481
      -320.0969      -204.5509      -234.7584      -232.8377      -26.80261
      -98.64728      -141.6404      -139.6050      -355.3636      -160.9295
       30.85303      -235.4593      -137.0644      -64.64325      -261.5673
      -70.06873      -85.87238      -208.2735       98.15256      -69.56177
      -258.6639      -22.14354      -41.31498      -19.51226       37.28745
      -100.3684      -79.60959      -60.94298      -74.54764       62.66574
       100.9012       76.60109       49.90986      -44.94536       8.327759
       152.7723       227.7658       120.0737       140.4749       132.0772
      -185.5124       23.22290       500.1830       251.6692      -163.8434
      -40.93359       347.7236       217.8715       95.23438       436.2295
       145.5131      -19.66119       265.2004       176.4696       282.2311
       417.7987       239.2700       254.9299       379.0762       321.7856
       290.8525       57.95212       18.96240       378.1910       368.6288
       105.8101       287.6935       558.7459       270.2889       85.74072
       383.4171       413.5034       230.3640       156.7090       248.4713
       396.3107       368.8223       262.0277       331.0017       302.0255
       5.618286       74.00085       307.8442       191.9486       150.5847
       431.5803       330.8283       50.43176       480.4747       478.1960
       39.55286       32.89124       104.8275       240.9335       301.3580
       130.2455       109.6591       248.8251       192.0666       8.801025
       248.6301       401.3620       63.45874       131.4280       324.9534
       195.7041       112.7016       1.202576       84.49414       100.5507
       21.83856       337.4786       307.4246      -28.28075       6.220383
       28.85474       155.2120       360.7304       92.16978      -72.68713
       147.9302       276.0147     -0.8460083      -213.1498       138.2484
       215.7789      -40.76724       7.886780       178.8473       71.22963
      -111.7539       53.23730       99.62869       114.7831       50.94376
      -188.2011      -36.23926       124.7250       10.12558      -82.52582
      -24.86582       47.54186      -3.686401      -103.8498      -103.3141
       33.59808      -67.34302      -210.6749      -51.19347      -11.87492
      -20.88406       3.130615      -175.2392      -176.2122       19.71741
      -151.6077      -287.6454      -104.6815      -185.2529      -294.5962
      -199.3824      -184.4010      -257.2639      -206.4332      -185.0359
      -425.9751      -203.7030      -18.82581      -366.3319      -279.9642
      -97.72937      -367.5300      -540.0457      -271.8009      -129.5667
      -398.0345      -484.5195      -292.1139      -236.4830      -296.3936
      -332.7190      -447.3533      -443.5711      -209.5173      -79.42798
      -435.8694      -409.2899      -37.56128      -142.3638      -292.9325
      -446.7430      -376.4640      -147.2976      -381.4896      -499.8215
      -163.6194      -106.1467      -362.3548      -272.2776      -151.3853
      -379.4304      -446.2187      -101.3284      -26.13477      -402.4351
      -331.4136      -106.7798      -276.0006      -440.4130      -388.8256
      -112.1033      -151.4780      -417.6235      -327.5586      -130.7954
      -134.5035      -293.1873      -304.9694      -295.0687      -253.7970
      -205.2130      -449.4794      -330.0414      -65.48511      -310.1768
      -547.1114      -330.6572      -105.9772      -259.1010      -308.8051
      -142.9680      -277.1292      -271.9672      -116.1262      -269.2568
      -417.7248      -186.7691      -150.0690      -370.4414      -106.4955
       9.222656      -281.5024      -351.5863      -262.3295      -25.68382
       99.25006      -118.6594      -323.2434      -215.8935       35.17809
       160.4598      -65.56064      -161.8082      -167.2379      -118.6093
       306.7983       223.7285      -121.8894       77.28204       186.5490
       47.97375       57.11475       156.2570       143.7175       170.8900
       280.1107       268.9943       94.22162       185.5219       357.6236
       264.3193       135.7356       138.4321       114.7514       176.9615
       310.7864       237.8925       173.4122       371.9362       378.4789
       186.1946       260.9027       477.3510       489.1485       255.4681
       256.5618       405.2664       267.9472       116.4362       120.8918
       403.7598       541.2715       212.0808       85.49414       307.2529
       347.8192       167.0960       217.4484       454.0945       516.9600
       357.7462       134.3564       317.8978       392.9272       99.26685
       131.4961       427.3177       464.4048       140.4694       119.1914
       438.9070       440.1364       324.5144       346.3687       306.9664
       239.5027       337.8354       221.1720       39.45459       383.8357
       672.2284       319.9706       160.9435       293.1945       198.8542
       165.6761       324.2997       455.5272       303.8861       265.2075
       326.0795       13.25830       78.35645       433.4458       410.9196
       246.1552       102.0476       56.39056       113.7289       108.0839
       168.3373       102.4710       85.35504       275.9217       37.58276
      -97.13181       168.3949       8.782547      -130.9498       212.4211
       295.6683      -61.39446      -57.10181       120.8226      -132.0650
      -263.2800      -51.18439       253.3488       353.2708       44.56219
      -118.4608      -278.7871      -245.2028       99.16541      -114.5513
      -325.9138      -148.6770      -65.84647      -49.47516      -121.3644
      -195.6857      -97.01221      -171.6419      -175.3507       153.8176
      -144.4953      -252.2936       124.8415      -101.2009      -241.2948
      -195.9959      -103.0267      -132.6201      -443.2935      -599.8251
      -319.3391      -57.87708      -340.9575      -11.54175       506.8609
       182.0576      -110.0742      -154.5320      -30.72229      -248.0300
      -796.7450      -726.0849      -284.6535       152.3829       420.8722
       628.0836       591.3331      -196.9409      -858.4644      -590.4363
       636.7822       1442.137       1457.583       1999.401       1793.559
       20.91309      -903.7744      -511.7085      -1045.124      -816.4187
       776.2515       272.5859      -1289.462      -2125.482      -1968.505
      -838.3730      -704.2788      -1420.184      -1839.021      -1784.148
      -565.7397       1322.097       2158.443       754.5884      -1475.373
      -1618.000      -376.5214      -222.5786      -30.28320       1703.982
       2322.745      -656.1377      -3565.921      -1997.711       1257.873
       2409.139       2676.901       2706.058       949.4087      -1745.071
      -2584.412      -1684.320      -1471.201      -1593.114      -473.5613
       1081.479       1940.971       1776.395       1518.722       810.9608
      -528.5706      -922.3384      -1517.860      -1498.120      -96.67969
      -753.6284      -1578.579       850.4326       2828.619       2175.990
       969.5494      -155.7852      -435.5430      -256.8630      -387.8763
       129.0571       1232.343       1121.893      -819.3031      -1096.469
       344.8253      -123.9434      -1340.779      -441.6519       1689.073
       1642.103      -78.61255      -920.6672      -636.0870      -67.09262
      -107.4704       74.88208       693.6244      -60.40259      -1439.483
      -725.2538       661.1387       260.3094      -86.54590       904.4341
       748.7234      -1144.542      -1619.164      -29.94257       580.7053
      -384.6882       99.48438       1754.340       972.7148      -513.9373
     -0.5993042      -126.3458      -698.2590       630.7302       799.4343
      -1115.503      -428.8635       1324.565       164.3496      -611.4164
       327.6677      -174.4004      -1542.274      -1066.627       378.6426
       813.6376      0.3541870      -395.6228       656.0881       409.4947
      -367.0952       701.3789       1230.434       132.2968      -392.2723
       125.3342      -6.048157      -322.4758       393.1567       842.3879
      -238.8732      -809.8367      -165.1320      -200.8535      -154.1196
       684.8184       865.1277      -367.3457      -1121.619      -298.8958
       505.3018       382.5980      -15.55280      -215.6136      -89.02490
       231.0767       264.5708       596.5562       805.4697       295.8280
      -230.8385      -495.9592      -274.0871      -296.9076      -323.4834
       795.3967       1118.214      -292.3778       20.69214       1247.382
       785.3364       638.8636       639.8857       49.16162       502.6931
       1198.184       355.5428      -681.3987      -111.8408       1012.137
       871.2139       274.9402       346.5287      -52.43738       34.31689
       850.2009       766.5468       647.5084       438.6227      -180.7926
       246.9390       837.9087       792.2688       470.9038      -6.788818
       330.8748       989.3093       967.5000       303.3955      -571.3774
      -614.5044      -227.2772       204.6686       512.6541       225.8639
      -92.21277       167.4357       601.3236       220.8519      -299.0054
       307.4756       644.3367      -459.4926      -569.2930       855.8334
       730.9629      -290.6611      -454.4257       242.4399       1018.082
       478.5166      -177.5034       412.8672       917.2928       300.2302
       50.63538       424.9203       250.9133      -804.6831      -1742.928
      -360.2201       519.8887      -723.1215      -181.7109       624.7957
      -202.9612      -132.4317       250.9098       45.67535      -166.8616
      -543.0098      -616.5391      -202.4647       361.0408       170.3046
      -268.7161      -136.5593      -557.8596      -860.4033      -241.5743
      -75.97632      -760.0776      -828.1525      -369.6121      -445.9761
      -719.0787      -244.3045       255.0679      -259.3333      -747.4758
      -834.7258      -566.9960      -284.9458      -708.3059      -792.3427
      -28.87479       97.82129      -654.0308      -816.1401      -440.2234
      -321.8746      -368.9412      -595.9180      -513.1032      -229.3110
      -18.90820      -45.44336      -553.6729      -733.3286      -725.3563
      -442.9237       141.3518      -124.9075      -1065.816      -1236.186
      -460.8326       274.7728       419.7057      -178.5649      -815.5122
      -857.9221      -826.8507      -637.0338       125.0770      -13.19519
      -802.5468      -2.575684       720.6384      -371.5648      -974.9126
      -17.55103       333.6641      -558.5510      -1064.272      -380.3103
       481.4426       331.2295      -570.8579      -963.4387      -463.7360
       64.62793       281.8260       40.00482      -172.3598      -112.5822
      -249.5530      -328.5797      -323.5865      -363.9162      -48.74854
      -299.2241      -979.9033      -500.0965       82.35126       198.7596
       168.4285      -165.6805      -89.50861       37.32751       250.6198
       635.7111       349.8253      -181.0788      -281.7222       90.19604
       313.3141       174.3161       26.24854       304.1698       732.6595
       37.18732      -476.7982       12.51172       180.6138       554.5596
       748.1863      -56.02505      -271.4623       92.70044      -250.2602
      -356.0813       395.8693       745.3031       128.0426      -149.4343
       592.6756       299.6833      -404.9501       457.0034       755.7645
      -108.4868      -434.3222      -174.1450       261.2704       425.1957
       318.7266       383.6883       210.8149       136.7795       355.4562
       176.2219       210.3164       511.4626       55.99051      -339.2756
       191.8412       563.0200       503.3862       329.1844       404.5100
       454.8631       167.2279      -22.65041      -29.44135       132.8755
       368.3223       455.0066       56.62225      -398.4143      -38.34839
       546.8356       211.0531      -429.4612       50.52808       476.6227
       247.4635       142.4463       62.90253       260.6129       344.5405
      -84.39561      -94.05054       378.7029       332.0728       125.7954
