     0.02500000      -1347.408       1994.835      -12345.00      -12345.00
      -30.00998       222.4900      -23.91000      -12345.00      -12345.00
       0.000000       17.38000      -12345.00      -12345.00      -12345.00
      -12345.00      -12345.00      -12345.00      -12345.00      -12345.00
      -12345.00      -12345.00      -12345.00      -12345.00      -12345.00
      -12345.00      -12345.00      -12345.00      -12345.00      -12345.00
      -12345.00      -30.16080      -67.83630       1442.000       0.000000
      -31.37200      -68.11800       0.000000       97800.00       0.000000
      -12345.00      -12345.00      -12345.00      -12345.00      -12345.00
      -12345.00      -12345.00      -12345.00      -12345.00      -12345.00
       136.9617       11.42791       191.2845       1.231412      -12345.00
      -12345.00    0.007266642       0.000000       0.000000      -12345.00
      -12345.00      -12345.00      -12345.00      -12345.00      -12345.00
      -12345.00      -12345.00      -12345.00      -12345.00      -12345.00
      2008       244         6        45        29
       310         6    -12345    -12345     10101
    -12345    -12345    -12345    -12345    -12345
         1         7        13    -12345    -12345
    -12345    -12345    -12345    -12345    -12345
    -12345    -12345    -12345    -12345    -12345
    -12345    -12345    -12345    -12345    -12345
         1         1         1         1         1
LUNA    -12345          
        -12345  -12345  
-12345  -12345  -12345  
-12345  -12345  -12345  
-12345  -12345  -12345  
-12345  -12345  -12345  
-12345  -12345  BHZ     
ZL      -12345  -12345  
[...]
      -53.78912      -49.34113      -38.66660      -34.70341      -34.69907
      -34.29182      -25.82321      -23.48792      -21.63353      -22.74281
      -12.13138      -8.548524      -7.285249       1.701456      -1.773140
      -5.804092       14.02721       18.96837       14.96843       15.20079
       18.41200       20.09857       24.19994       20.38765       26.53873
       39.27353       42.27759       42.07796       49.64099       48.14523
       47.58827       44.72124       45.53365       45.39697       50.05460
       50.70784       55.24019       60.79956       61.68082       56.83377
       63.32030       55.30022       58.67435       60.56004       65.47525
       69.10324       73.71768       73.18024       72.24971       72.09232
       72.73259       72.02135       79.46173       77.03723       81.58969
       83.03409       82.85284       84.30441       88.28528       82.21063
       89.75684       95.19812       95.94699       95.80951       98.88025
       92.31390       104.3335       103.4324       103.0619       105.1975
       111.2517       106.5913       112.4463       110.9656       114.9572
       114.0446       116.5338       116.9621       120.6910       119.0057
       122.9407       120.9407       121.6577       120.1832       129.4586
       126.0615       121.5736       124.6629       137.8825       122.2435
       96.26215       116.0051       157.5972       169.1316       235.4501
       277.8549       287.7523       593.0304       648.9104      -395.1536
      -1347.408      -834.3091       621.4993       1484.253       200.1877
      -718.3533       718.5183       884.4981       322.8807       139.1138
      -708.2338      -73.14325       399.3903      -58.75769       514.8441
       215.8866      -151.4730       243.0897       214.8326       528.8851
       95.62865      -131.7938       81.27222      -816.5173       351.3529
       1007.648      -791.0923       80.89209       667.1088      -388.4001
       189.0306       105.2517      -157.4839       417.5495       68.35458
      -191.8028       300.9496      -38.71375      -472.1179       314.4298
       149.3452      -709.9573       245.4453       448.8517      -462.6506
       255.2184       93.09106      -922.0809      -87.61523       509.8365
      -221.6432      -322.5466       68.88190       177.8907       231.1323
      -40.29211      -293.0552      -410.0934      -193.5169      -189.6217
      -441.0879       226.4150       385.5033      -495.5075      -400.7444
       448.5122       185.7599      -490.4790      -289.8872      -87.29297
      -435.2484      -459.2475      -46.42267       313.3629       119.4698
      -235.7692      -237.5364      -345.1617       49.03940       25.63513
      -434.2649       26.53098       104.7092      -33.48047       49.71204
      -556.1162      -369.1967       391.4204      -232.6744      -414.8629
       334.8561       326.8311      -293.5407      -576.8401       220.4445
       322.8928      -364.7135      -339.5659       35.64322       295.8008
      -153.4753      -171.8492       265.2647       30.01306      -154.3946
      -227.1717      -102.7887       35.08713      -229.1956      -7.907715
       265.4722      -120.1554       206.5820       288.6572      -668.1353
      -359.5932       291.1489      -79.90048      -1.394966       38.08678
      -151.6053       137.4518      -152.7652      -298.2461       120.3391
       62.20891      -45.01949      -56.95164      -105.7532       120.8862
       182.3562      -222.8033      -154.7596       74.35249      -78.33615
      -98.55286      -111.8723      -140.9965       212.7062       315.8071
      -128.6745      -238.4086      -117.0491      -99.46651      -6.156921
       141.7299       238.2944       41.48331      -204.4887       86.81985
       258.0070      -10.77884      -103.5472      -167.8703       35.77307
       360.2368       114.2922      -135.7621      -118.5257      -2.335022
       218.5783       116.4932      -18.37487     -0.1208801       55.34821
       157.6826       56.89810       5.380905       43.30884       123.7963
       134.2583      0.4292145       67.78962      -3.059357       26.94946
       248.1229      -158.7706      -250.0758       137.6099       77.82349
       134.6025       160.2150      -63.49728       42.34198       150.3154
       25.61429      -140.5184      -30.71765       242.0180       45.50867
      -65.92221       65.29929       83.50314       85.07280      -99.73174
      -2.712784       161.4496      -171.8548      -52.98749       186.3066
      -120.1805       32.07971       112.1234      -217.8513       62.68622
       211.5849       57.66809      -9.796143      -260.2336      -43.14532
       233.7689      -19.15588      -87.82599      -112.6292      -21.08014
       154.6969       5.236023      -152.0193      -169.5945      -41.56004
       103.3065       26.16388      -142.6577      -166.7486      -66.93593
      -14.14784      -64.07384      -73.38068       49.30524      -125.3406
      -404.4047      -58.77554       211.5108      -27.76071      -197.7278
      -117.0598       21.90286      -45.49200      -100.0370      -226.4774
      -203.7506       38.24728      -60.76715      -158.8190      -239.2006
      -193.8847       251.3245       148.3643      -171.6198      -32.29089
      -175.8147      -233.0399      -101.2203      -261.6528      -56.90271
       85.11212      -225.9193      -77.21454      -106.9825      -274.5211
       123.9048      -66.63504      -195.9706       112.4358      -91.41446
      -141.0723      -11.88788       63.54170       72.24207      -163.5980
      -129.3563       23.83856       85.48779      -84.12151      -89.60341
       91.68619      -200.5099      -100.0301       12.32730      -202.6046
      -16.56226       193.9531       409.9887       190.1177      -387.7455
      -224.9583      -46.73315       58.28613       472.0906       220.5988
      -70.88263       99.06384       147.1327       309.4087       190.2590
      -84.63131      -14.65540       105.9508      -48.57376      -45.01697
       504.5820       265.3452      -36.42659       180.7367      -133.8313
       130.0616       527.2327       46.27808       3.659912       361.8848
       374.4556       301.9249      -163.9037      -226.2794       393.5204
       328.9878       16.48450       359.0198       234.5552      -189.9828
       144.5677       81.12802      -26.64880       359.9480       158.1543
      -47.91724       197.6266       411.0980       264.9837      -59.00769
       16.50720      -70.40652      -188.4819       283.7537       226.6470
       46.66412       309.5937       105.2812      -106.3998      -36.26785
       25.77661       141.4165       319.4294       395.9485      -138.2941
      -333.6012       285.3250       296.7330      -66.95837       2.461014
      -35.45575       125.8246       427.7294       37.54895      -229.9904
       87.32196       129.5900       137.9329       268.0150       156.7296
       21.67749       120.9685       176.9484       12.41345       118.3909
       222.8397      -23.34137       123.0675       152.0861      -190.7635
       25.11371       211.5207       206.4149       61.94519      -234.7904
       210.0898       406.5398       216.1135       271.4200      -156.1804
      -205.6198       104.5220       15.60870       206.4422       150.2903
      0.4241638       106.8637      -6.716614       180.8152       34.60445
      -142.3431       170.1297      -101.1946       144.1523       322.7786
      -260.4333       17.96777       86.09921       3.957306       161.8299
      -293.9919      -138.9070       253.8730       54.71201       11.52686
       20.42259      -17.96448      -160.6196      -132.2489       126.5116
       114.1657       92.52094      -56.90881      -261.2808      -80.66665
       71.15765      -67.76462      -236.4966       1.921295       202.1889
      -235.1833      -221.2854       135.5215      -93.92102      -153.1369
      -97.50061      -368.0540      -307.2125      -5.762817      -159.6622
      -136.1336       78.20953      -199.4941      -225.7177      -82.53473
      -199.8704      -337.3384      -393.6736      -180.7661      -123.8601
      -241.4820       9.623230      -69.63025      -378.4426      -402.0842
      -438.3048      -152.1015       26.51031      -207.3090      -190.7002
      -192.6052      -367.7592      -419.5149      -248.2045      -126.2912
      -224.1545      -125.1287      -126.2473      -425.0919      -330.7593
      -168.2632      -348.3340      -304.7803      -163.3533      -136.7399
      -184.6318      -306.0850      -199.0216      -176.2504      -306.0638
      -192.6251      -148.9018      -116.8501      -357.3859      -535.8352
      -41.45099      -150.5018      -291.3692       86.26233      -202.2883
      -382.3511      -128.1530      -365.7561      -458.0904       19.53018
      -45.76074      -315.9261      -281.1612      -158.2963      -63.03149
      -241.9113      -301.8728      -48.82695       82.45020      -177.4628
      -197.9469      -47.10791      -356.2896      -256.3332       118.2251
      -71.95721      -290.9563      -186.3970       123.6912       160.6455
      -174.3477      -219.3374       63.81354       96.50127       32.35837
      -80.11806      -122.9766       2.450241      -79.43405       37.85773
       266.2856       89.98892       112.5111       120.8745      -184.3597
       29.00568       294.9611       35.30719       104.1588       362.7147
       125.7951      -173.8306       235.7775       397.5068       67.60953
       112.3182       40.15811       53.54639       364.7084       554.0969
       523.6833       201.3252       18.94177       194.1902       239.2146
       251.3184       316.5067       206.7498       211.4484       337.0598
       385.8334       382.8271       137.4846      -105.6226       289.4360
       545.7428       248.6210       213.6328       217.1606       160.4074
       333.6125       347.2469       269.4169       213.6124       297.2319
       458.8153       133.4245      -10.20996       346.0193       313.4376
       137.3247       185.1865       106.6065       70.38025       327.0165
       358.8190       134.8071       318.1555       353.8591       71.77773
       51.94713       43.16138       130.3018       382.1718       390.7949
       155.1115      -185.4378      -198.6277       163.7983       268.8727
       235.5711       201.9263       100.8596       226.8181       163.9527
      -23.45355       141.3468       158.8872      -70.68842      -11.25381
       53.90164       1.997417       2.400452       27.21426       109.7428
       17.39252       13.18683       152.8175       23.96631       225.8176
       321.5596      -68.20465      -158.9249       32.80176       186.5969
       131.2953       30.32703      -103.1810      -434.9672      -62.23572
       357.3631       113.9407       34.74725       114.8754       118.1628
      -214.1146      -304.9550      -193.1217      -314.2578       21.57553
       144.6305       85.00320       133.6728      -135.4376       11.45117
      -39.19940      -465.4769      -12.97961       192.3690       71.32947
      -6.055420      -359.3391       127.6628       174.0199      -246.9594
      -19.19232      -227.1051      -215.3892      -17.78986      -356.9433
      -190.7113       27.59103       61.58563       355.5012      -74.51416
      -343.2981      -13.42807      -22.06876      -95.79654      -102.7850
      -5.946930      -53.05908      -260.9769      -175.1388      -5.706055
      -38.26160      -87.86536      -39.51669       7.726913       9.245850
      -267.3440      -563.9318      -163.9266       69.03003      -382.5991
      -295.1663       42.90936      -176.3207       103.0011       207.6876
      -602.0042      -362.5842      -22.48315      -535.1961      -43.31631
       168.9950      -583.0461      -287.6888       61.01752      -245.9431
      -71.21848      -60.42520      -162.2234      -84.86975      -283.4469
      -292.1454      -37.57374       96.44019      -104.1902      -687.3083
      -727.5878      -328.2493      -284.9373      -131.5862       266.8025
       399.4106       141.1979       8.824951       193.8670       31.79810
      -448.8303      -511.1245      -192.9212      -155.9832      -116.0936
       149.1766      -155.1918      -277.5549       52.50806      -713.6084
      -1256.671      -419.4800      -528.0292      -746.1387       577.5731
       829.8860      -65.17393       10.80310      -100.6976      -649.7332
      -427.9108      -316.2708      -217.1027       127.5169       42.50720
      -221.4286      -392.0454       369.4844       1315.503       1054.996
       573.4583       49.76202      -511.0191       3.654297       386.8960
       624.6069       1714.383       1994.835       964.4872      -62.08801
      -392.7563       118.8460       399.4945      -453.3600      -595.3305
      -66.31616      -854.1071      -451.7419       1211.902       605.8726
      -475.9203       4.102448       125.1360      -59.08698       145.8625
       169.5729       23.97290      -1095.388      -1134.861       557.6752
       180.0050      -25.00317       1274.519       861.9243       483.2958
       318.9897      -840.4059      -750.6597       163.0017       129.3005
      -416.3315      -891.7079      -624.9209       592.3054       1109.315
       114.4703      -94.60413       444.2505       360.2197       505.3820
       138.9699      -289.1637       413.0154       1149.885       1087.898
       546.9631       473.7294       430.8467       299.8477       519.8283
       80.68848      -427.3718      -285.8311      -151.5505       186.9534
      -86.39441      -822.5792      -217.9401       48.24731      -919.5437
      -1124.172      -508.6439       180.6213       354.5981      -146.0410
      -232.0090       624.7640       787.5449       45.05005       192.1426
       632.3789       794.9137       503.2915      -579.0813      -911.0345
      -239.8717       70.31918      -223.9662       7.041077       317.8392
       92.61682       279.0587       221.0968      -112.3814      -4.560272
       198.1577      -343.5627      -834.8591      -100.1532       104.7220
      -146.1587       392.2697       547.9201       31.09131      -674.0234
      -696.9684      -116.3751      -382.0444      -544.7310      -13.02118
      -68.49976      -230.4398      -245.0739      -483.8096      -575.7748
      -301.8781      -358.9834      -645.4918      -81.38428       576.7180
       502.4788      -29.90320      -538.1472      -745.7935      -777.5605
      -198.0315       298.1916       148.0658       102.6754       74.37665
       303.4085       260.1086      -412.7393      -425.9149      -91.40479
      -407.6184      -494.3217      -124.8642      -196.6622       44.82324
       632.2146       529.9353      -29.11700      -205.9079       135.2235
       99.58063      -13.67560       30.17725      -455.6755      -456.2120
      -25.77142       70.29742       148.3460       248.3221       258.8434
      -47.79272      -183.5673       61.90234       481.0040       591.6636
      -1.396484      -301.5405      -15.99664      -199.8348      -234.4256
       154.8695      -47.15472       12.15625       600.0270       355.8250
      -319.2523      -386.3377       114.8901       303.6536      -241.4939
      -188.2011       302.2780      -22.15424      -288.3268      -119.3434
       305.8081       284.1554      -309.0673       146.7738       395.6922
       120.3992       434.7636       175.1568      -66.93628       28.77002
      -229.7312      -253.3947       280.4438       126.4122      -276.4395
       511.1161       483.9525      -348.0125       52.27734       270.2393
       69.10852       352.3342       355.1992       229.3457       158.1494
      -224.0950      -171.7544       156.6062       127.9197      -48.11853
      -174.8346      -129.8657      -142.6316      -88.46802       286.4886
       609.6174       355.1114      -51.09985       80.49597       256.9179
       107.5585       63.51007      -97.66016      -434.6513      -267.4762
      -294.7845      -489.7781       20.53339       272.0688      -176.4433
       151.2858       580.1167      -22.24158      -331.8069      -96.61615
       225.3163       321.7766      -67.42125      -183.0510       199.5565
       258.8472      -124.5908      -134.6927       263.4031       363.6755
       102.7436      -119.1769      -295.9432      -332.9917       195.1578
       496.2103      -95.79315      -268.4102      -153.1680      -477.3416
      -196.5873       78.65054      -12.14563       293.5021       198.5700
      -268.1617      -3.486572      -61.50098      -487.6882      -249.3541
      -300.0006      -197.3012       321.8734       364.3759       23.50275
      -281.3851      -126.1729       27.34204      -152.7625      -416.6073
      -529.0491       227.8344       542.1906      -138.7746      -88.74335
       13.45805      -120.7078       87.74826       62.47552       125.2482
       396.7024       375.1786      -39.22900      -366.5423      -36.54541
       181.7162      -86.09874       1.089294       147.0226       107.7656
      -60.01788      -170.0915       107.5378       284.3933       99.77307
       165.7818       338.8135       77.06622      -252.8016      -344.2318
      -251.7126       301.4415       388.8809      -38.32751       231.4610
       300.2039      -67.16943      -52.89160      -84.75326      -56.53192
       56.96654       39.75293       146.2241       421.2869       254.0240
      -1.144409       214.6839       49.25702      -60.85303      -87.24152
      -109.3156       268.5239       7.851257      -148.0446       93.17834
      -56.73438       315.9058       518.9929      -191.8942      -459.6322
      -252.8198       49.16144       204.1826      -121.7341       31.69861
       534.0594       401.5477      -52.52041      -48.88684       163.6671
       117.6485       47.64942      -11.20100      -42.58348      -64.17491
       7.860291       139.5955       124.7125      -57.01392      -359.8283
      -20.18994       635.1710       514.2605       270.2242       84.88135
      -359.8362      -127.7751       236.4590       184.9275       144.4583
      -145.7548      -113.0261       112.5456      -2.821106       187.3560
