     0.02500000      -1845.291       2040.689      -12345.00      -12345.00
      -30.00998       222.4900      -23.91000      -12345.00      -12345.00
       0.000000       17.38000      -12345.00      -12345.00      -12345.00
      -12345.00      -12345.00      -12345.00      -12345.00      -12345.00
      -12345.00      -12345.00      -12345.00      -12345.00      -12345.00
      -12345.00      -12345.00      -12345.00      -12345.00      -12345.00
      -12345.00      -30.16080      -67.83630       1442.000       0.000000
      -31.37200      -68.11800       0.000000       97800.00       0.000000
      -12345.00      -12345.00      -12345.00      -12345.00      -12345.00
      -12345.00      -12345.00      -12345.00      -12345.00      -12345.00
       136.9617       11.42791       191.2845       1.231412      -12345.00
      -12345.00      0.6605004       90.00000       90.00000      -12345.00
      -12345.00      -12345.00      -12345.00      -12345.00      -12345.00
      -12345.00      -12345.00      -12345.00      -12345.00      -12345.00
      2008       244         6        45        29
       310         6    -12345    -12345     10101
    -12345    -12345    -12345    -12345    -12345
         1         7        13    -12345    -12345
    -12345    -12345    -12345    -12345    -12345
    -12345    -12345    -12345    -12345    -12345
    -12345    -12345    -12345    -12345    -12345
         1         1         1         1         1
LUNA    -12345          
        -12345  -12345  
-12345  -12345  -12345  
-12345  -12345  -12345  
-12345  -12345  -12345  
-12345  -12345  -12345  
-12345  -12345  BHE     
ZL      -12345  -12345  
[...]
      -372.5374      -388.4299      -383.3347      -404.6519      -405.2021
      -394.9188      -400.7837      -407.1941      -403.2902      -409.4509
      -403.8431      -413.9211      -411.4133      -408.6620      -417.7621
      -410.7001      -401.5696      -405.2998      -382.5309      -393.0824
      -387.0621      -370.7002      -367.3901      -363.7994      -342.7273
      -346.0319      -330.8099      -312.5181      -305.0224      -297.0361
      -274.7055      -270.0815      -256.6370      -241.9298      -226.4982
      -221.0138      -198.1916      -180.8170      -166.2293      -154.1728
      -138.1379      -128.3083      -110.0400      -97.42996      -84.92366
      -70.81879      -60.39536      -51.60780      -32.00060      -22.98009
      -15.75700       3.295837       16.12004       23.18936       39.52287
       55.99687       63.11777       74.18713       87.22003       97.31403
       107.9286       119.1943       133.2447       147.8793       155.8715
       165.7849       180.7861       192.7042       198.5355       209.6525
       219.8481       229.0131       235.9541       245.7134       261.7877
       266.7161       272.0452       275.2607       284.0842       284.5377
       290.6445       298.5043       296.9521       294.1136       304.6053
       304.5944       302.7206       302.6149       303.1573       298.2965
       291.7650       284.6121       285.1118       276.0450       265.8781
       257.3358       251.9953       242.6094       231.8929       224.4198
       217.0111       202.4146       195.7471       186.3259       180.0842
       176.8329       160.9765       143.3665       211.1933       248.5994
       137.3065       31.51842       19.39608       21.88184       23.07410
       174.4232       379.5422       178.4101      -87.59119       72.58111
       27.69679      -136.0535       131.9765       131.8882     -0.5401611
       95.06785      -2.220535       3.846191       85.02643       174.2412
       118.7173      -113.1132      -9.982021      -18.22256       98.41046
       300.6188      -209.7800      -123.5479       531.9254       14.74063
      -68.26434       334.9296      -88.56567      -149.3438       73.74957
       132.0071       256.0808       139.1928      -24.46881       22.92148
       113.8682       177.1428       238.1062       158.5007      -48.16516
       169.3200       418.7664       66.86960      -122.4326       52.38556
       20.07227       171.2607       317.7243      -17.80281      -26.82422
       300.8596       242.0507       58.99649      -55.70639       41.35651
       91.22633      -15.20438       151.5697       91.90608      -22.38922
       152.8906       299.3643       221.7296      -77.11382      -25.65300
       92.28865      -29.41571      -55.17902      -92.01233       59.35245
       141.4285       65.82950       50.78919      -28.79079      -37.30058
      -41.29783      -57.54950       120.9922       170.8095       113.9517
      -11.58597      -176.5002       83.29135      -64.24344      -201.4795
       34.49580      -66.98120      -86.71970       26.29901     -0.2436676
      -133.1274       32.68112       74.31061      -188.7838      -42.65001
     -0.1027069      -74.71442      -68.18207      -175.1987      -47.47306
       12.86029      -84.08279      -24.63397      -92.07593      -135.9431
      -24.61884      -109.0397      -214.4554      -100.8944      -95.08011
      -163.6130      -41.20850      -226.4384      -203.3931       60.23987
      -183.8123      -207.8323      -82.80011      -188.2812      -173.7993
      -177.0660      -87.52805       78.06525      -228.3382      -361.6456
      -14.16888      -79.07434      -372.8923      -316.8143      -83.35899
       1.977448      -130.0065      -204.4563      -155.7951      -45.58804
      -108.7922      -114.6993      -71.32074      -228.6265      -211.9996
      -119.1431      -119.8726      -104.8336      -63.21704      -95.08136
      -26.43159       26.95526      -149.1783      -132.9518      -46.69635
      -4.136414      -10.62978      -74.57167       1.090759      -86.50238
      -71.02660       24.78419      -33.75963      -38.28043      -8.268112
       91.94683      -12.83405      -98.04736       85.85854       56.99986
      -49.76733       46.36908       141.3604       17.85571       85.58832
       219.0773      -13.60696       25.91638       174.0363       85.90530
       74.47498       96.04926       111.7051       294.3524       259.6152
       73.06219       226.9680       205.1590       22.93799       73.82800
       258.2633       260.4723       170.2546       233.9235       277.7520
       287.7267       291.9066       89.96436       126.3030       375.6566
       266.0485       301.4663       338.6752       117.1381       270.2668
       368.6385       221.1863       286.6920       245.4945       228.0253
       362.4729       267.8452       248.3253       351.1854       259.1045
       183.3503       349.8292       345.2936       190.1565       234.9059
       418.0799       375.5330       62.43665       303.2062       491.8258
       143.7175       266.6328       351.4259       106.0648       235.8811
       322.0287       246.0132       211.7820       235.2716       293.0913
       232.9890       186.1537       282.0903       440.7161       234.4547
       81.73669       257.0186       303.1606       199.8942       237.6124
       244.8970       144.1886       153.1190       228.1904       363.9510
       144.8497       47.43835       245.8541       149.7094       106.1075
       138.0275       161.5203       165.8066       238.1077       185.8204
       37.59668       128.7986       28.22234      -77.54633       131.5990
       182.3032      -18.27258      -92.99261       97.29544       91.02390
      -110.9065      -37.01096       187.6931       41.65903      -203.9521
      -17.70633       33.02429      -125.9023      -128.2494      -142.8986
      -39.42349      -61.51379      -171.7759      -58.95700      -91.50604
      -203.9048      -173.5854      -286.3318      -253.8992      -142.4016
      -196.4576      -127.6384      -121.6935      -207.3033      -252.3253
      -290.5771      -107.7107      -185.8545      -469.5151      -256.3703
       44.82574      -190.3943      -325.4113      -124.8406      -213.7915
      -209.5126      -95.40723      -361.4816      -379.6513      -91.27094
      -148.6703      -144.1141      -125.2123      -353.5228      -217.8383
      -78.21973      -315.2534      -281.3078      -103.6418      -252.3516
      -113.6028      -80.13245      -354.9265      -230.9742      -181.6947
      -295.8371      -151.9069      -204.7689      -318.9573      -254.6652
      -115.3761      -125.7357      -436.1815      -356.5600      -60.88770
      -304.5265      -320.8568      -52.79138      -191.1185      -339.6356
      -293.7587      -220.8391      -210.9346      -188.8707      -203.8707
      -397.6481      -423.2285      -166.6509      -85.28845      -379.1522
      -406.9769      -214.6053      -186.5439      -336.0919      -309.0105
      -69.54980      -286.7366      -499.4414      -85.80963      -147.2800
      -465.1983      -236.9812      -193.3009      -345.0136      -343.1729
      -114.5108      -85.92377      -348.6542      -269.9129      -155.2019
      -200.2886      -307.3997      -321.1747      -73.14929      -135.1129
      -205.0555      -21.02075      -236.8751      -376.9607      -60.32527
       67.89764      -153.9791      -293.6472      -189.3828      -138.3733
      -174.5394      -111.9185      -97.00281      -156.3494      -250.1731
      -45.75241       72.97937      -246.5568      -193.5146      -26.17795
      -124.0199      -39.93648       18.78455      -75.10437      -130.6841
      -136.6090      -146.9806      -28.76759      -77.27205      -99.51135
       199.6315      -15.61249      -333.6335       133.0926       196.4976
      -253.5652      -91.99425       102.8741      -36.27744       108.4308
       38.70766      -116.9889       17.35421      -1.850311       34.18033
       2.899933      -161.6531       106.8369       162.2123      -43.31696
       52.41467       203.5204       119.8042       68.68141       66.30444
       41.04047       182.6575       239.5863       129.1227       74.25702
       115.1262       240.6411       68.51942      -46.29211       189.0898
       300.7345       202.7222       118.2714       116.5966       122.7626
       240.0491       244.5391       155.9772       180.5229       128.8974
       156.6330       144.1892       136.0776       117.5472       202.7701
       329.0998       121.8869      -10.02466       142.3947       326.3974
       191.6324      -17.76862       135.7002       240.5355       68.98422
       36.75085       276.0446       208.9077      -97.12939      -44.34772
       227.6146       211.1856       58.03220       168.9818       36.66168
      -66.32654       202.6683       92.91582       43.95526       131.3608
      -59.44614       70.28345       229.2117       16.92847       78.33348
       82.47380       51.61868       50.63607      -39.95374       55.03448
       44.58057       76.67872      -6.415100      -108.6264       60.86133
       115.1252       113.8882       23.16711      -120.6571      -101.0049
       27.87640       34.57169      -108.6335       18.10809       225.7959
      -9.844833      -137.1197       83.54715      -111.3715      -244.2180
       52.67322       151.6605       88.39270      -133.9438      -206.3963
       25.76169       36.88043      -69.17122      -60.68254      -86.08766
       26.97567       51.51840      -128.3439      -94.30530      -13.86142
      -73.70099      -66.54849      -33.68088      -100.0305      -99.57695
      -52.72173       4.355957       13.86267      -238.8477      -234.5323
       6.491364      -42.24103      -116.9992      -173.6852      -196.8163
      -82.72623      -55.91940      -80.92249      -112.6351      -128.0455
      -122.0159      -123.0845      -146.3932      -191.0212      -95.50302
      -12.93518      -251.2041      -379.5075      -144.5006       41.95233
       25.54062      -121.9212      -180.5164      -152.6174      -97.38492
      -100.2208      -252.7405      -148.5888       58.30850      -72.41266
      -341.9478      -126.0938       91.06677      -202.1094      -227.0375
      -20.35542      -28.18929       22.36942      -81.15833      -235.0259
      -107.7820      -130.5729      -127.6941      -14.49033      -129.0822
      -193.0086      -38.23437       67.52890      -38.65561      -147.5974
      -115.4495       58.06016       54.42969      -108.9828      -78.90149
       101.4084       94.80589      -51.64487      -13.35602      -38.10867
      -161.8020      -72.14253       66.55992       76.09152      -38.67537
      -99.01587       146.1707       217.4915      -70.23810       14.71329
       154.1535     -0.8725281       60.84448       167.6897       137.2872
       104.2457      -38.10626       57.24973       144.5619       102.4511
       161.2026       88.46143       108.6384       121.8940       132.4319
       222.7081       260.9163       302.6959       94.31580       64.85468
       241.8502       97.78333       200.0598       426.2866       349.2168
       47.51920      -21.45740       279.7853       180.1877       122.4374
       428.0364       308.2274       184.2070       195.4092       255.7825
       446.0772       349.1482       134.5461       122.0424       111.6469
       167.2596       408.5004       342.9031       110.2679       123.9457
       210.9901       64.28983      -11.50012       313.8232       471.5227
       126.2061      -103.7097       155.2249       324.7848       198.8908
       49.17683       40.97809       156.7205       101.6513       115.2047
       186.2997       11.24496       62.35192       36.86768      -134.4163
       111.9203       214.4822       15.64886       100.7307       116.1753
       3.203369       270.5687       166.2367      -272.1019      -150.4749
       75.30420       129.1418       67.92952      -52.58899      -102.6028
      -56.14035      -27.10498      -184.2775      -312.0430      -504.2603
      -569.5491      -604.9043      -763.6011      -350.8694       155.3539
       93.72375      -302.1907      -669.3254      -587.5558      -335.0532
      -397.6367      -674.6401      -148.5693       1303.881       1848.136
       1115.373       856.5073       1307.232       541.9048      -884.9475
      -839.5857      -442.1135      -259.5034       812.5571       1722.130
       1341.493       278.3647      -816.9395      -1472.454      -910.1613
      -176.9930      -180.5049       237.3826       467.1747       213.2281
       34.03381      -665.5937      -554.6033       533.5871       356.0750
      -1065.186      -1335.443       267.7969       2040.689       1862.252
      -501.6365      -1538.474       35.18689       835.0393      -529.6201
      -1589.452      -491.9030       532.1219      -223.1069      -1248.265
      -1246.403      -486.4297       245.0858      -147.2147      -746.2422
      -171.1087       136.7003       45.81201      -524.6699      -1811.076
      -1845.291      -486.3983       423.0503       917.5029       1348.404
       1251.546       887.1514      -227.3529      -555.0283       371.3795
       349.2621       302.0281       302.1998      -687.2592      -430.7920
       844.1093       570.1089      -440.5623      -729.7539      -628.5342
      -1006.312      -1233.756       150.1383       991.5869      -434.6646
      -1421.064      -514.8840       151.3910       107.5354       270.0947
       28.49463      -662.2222      -922.1461      -197.4471       594.8497
       315.5465      -209.4196      -357.0370       231.0073       974.8769
       87.67395      -977.5416      -74.60986       965.0544       842.3368
       376.5162      -99.45706      -160.2916       442.9822       364.7795
      -863.9655      -364.8472       1410.848       903.3746       48.40601
       617.1514       265.3784      -567.3819      -308.6792      -110.0383
      -152.0161       682.3928       1212.611       437.8861      -614.5696
      -409.2210       466.7729      -89.36713      -543.1232       107.2192
       152.6740      -405.7539      -61.07373       1333.503       1505.586
       417.5538       204.4928       217.8273      -676.6365      -557.3411
       940.7932       1146.479      -544.2566      -1305.785      -65.97559
       109.8667      -847.3798      -315.3850       561.7709       283.0970
       312.8201       805.7518       272.4003      -327.6061      -225.4865
       28.79395       801.6606       1075.203       125.9919      -206.7324
       204.7592       136.1982       87.96106       314.4567       267.1257
       425.8618       625.5584       268.4020       88.08777       261.6412
       388.7182       252.6952      -269.0959      -270.4387       522.5372
       786.4244       450.0564       680.2874       746.0733       182.9065
       79.43298       583.3281       323.5189      -356.7876       239.1325
       513.3973      -163.7957       215.6172       556.4888      -248.8268
      -579.3863       247.2448       394.7930      -268.5402       251.4246
       742.4076       143.7734       92.00262       217.8010       1.895874
      -217.8964      -203.1205       180.3110       499.7979       503.0358
      -462.9042      -948.7354       454.3911       1506.676       699.2756
      -423.9299      -178.0305       637.2686       414.7701      -331.2552
       282.1167       684.7933      -308.9896      -42.54846       450.1387
      -91.19350       9.407562       194.2361       20.98657      -196.1857
      -361.2683      -470.9893      -299.0502       319.9738       136.4456
      -677.3246      -140.8605       523.3550      -775.5203      -1063.057
       603.7394       557.8617      -480.3696      -29.19025       106.9088
      -683.7578      -253.0786       887.5166       667.2133      -347.7560
      -233.7231      -18.52734      -752.1920      -720.4028      -381.8644
      -479.7588      -364.2937      -601.0714      -437.0146       470.2369
       5.069702      -797.8848      -13.93408       338.3003      -474.3137
      -878.6602      -415.4944      -361.0977      -870.7197      -685.1445
      -368.8989      -510.7062      -458.3107      -390.3268      -262.2135
       127.3701      -245.7504      -610.2398      -14.15219      -6.051025
      -501.2900      -382.9823      -162.4252      -181.4190      -29.43939
      -19.42079      -104.4304       184.7258      -63.07657      -290.9036
       308.7935       114.3174      -706.7820      -884.6627      -193.3331
       647.8992       500.8338      -165.5159      -517.4844      -433.0507
      -273.2775      -320.7565      -181.6882      -213.1844      -465.3881
      -83.60474       764.0380       613.1219      -201.4808      -216.0803
       89.76135      -75.12563      -134.0861       216.5420       65.05865
      -316.7770      -112.1137       40.14081      -57.08167      -233.2046
       101.9813       748.4410       56.58594      -606.6031       245.6285
       337.4358      -290.3996      -114.0983      -154.1436      -494.0973
      -154.6160       263.8275       209.5198       42.76067       9.650635
      -247.5536      -355.4937       32.86969       299.8377       115.6133
      -217.2711      -127.5406       187.5475       198.6892       45.36823
      -151.2914      -224.9775       170.3645       718.7225       328.6008
      -423.1348       288.4937       685.4954      -147.5865      -56.91667
       206.1971      -205.9026       66.95312       588.1255       325.4744
      -104.0092      -19.37537       259.0291       28.52007      -116.1088
       219.8898       213.9123       145.9142       256.6364      -48.29697
      -262.2350       198.8970       529.0374      -16.84595      -462.0521
       129.0553       717.5648       187.0370      -328.4411      -167.3878
      -173.0668      -59.41705       143.5587      -9.872803       76.79907
       436.1025       383.5603       47.96882      -45.46615      -19.18982
       162.0375       285.3516       119.6558      -146.8143      -307.4866
       137.4003       501.2137       219.4146       117.3848       127.8000
      -224.9355      -167.9348       461.3205       456.9272       95.34619
