     0.02500000      -1810.079       2200.462      -12345.00      -12345.00
      -30.01003       218.2649      -19.36000      -12345.00      -12345.00
       0.000000       14.13000      -12345.00      -12345.00      -12345.00
      -12345.00      -12345.00      -12345.00      -12345.00      -12345.00
      -12345.00      -12345.00      -12345.00      -12345.00      -12345.00
      -12345.00      -12345.00      -12345.00      -12345.00      -12345.00
      -12345.00      -30.68660      -67.50870       990.0000       0.000000
      -31.37200      -68.11800       0.000000       97800.00       0.000000
      -12345.00      -12345.00      -12345.00      -12345.00      -12345.00
      -12345.00      -12345.00      -12345.00      -12345.00      -12345.00
       95.70043       37.59195       217.2794      0.8604480      -12345.00
      -12345.00    -0.04690356       0.000000       0.000000      -12345.00
      -12345.00      -12345.00      -12345.00      -12345.00      -12345.00
      -12345.00      -12345.00      -12345.00      -12345.00      -12345.00
      2008       244         6        45        24
       760         6    -12345    -12345      9932
    -12345    -12345    -12345    -12345    -12345
         1         7        13    -12345    -12345
    -12345    -12345    -12345    -12345    -12345
    -12345    -12345    -12345    -12345    -12345
    -12345    -12345    -12345    -12345    -12345
         1         1         1         1         1
MAJA    -12345          
        -12345  -12345  
-12345  -12345  -12345  
-12345  -12345  -12345  
-12345  -12345  -12345  
-12345  -12345  -12345  
-12345  -12345  BHZ     
ZL      -12345  -12345  
[...]
       126.4004       121.9168       120.1888       117.2702       114.9149
       112.1631       109.9206       103.9578       103.1531       97.32516
       95.39606       93.18744       90.27089       81.82654       81.67325
       77.59158       73.87778       65.50043       64.23198       58.83588
       53.88214       46.88741       40.77893       34.75034       32.43280
       23.41125       18.22090       13.57902       5.655370      -1.443943
      -6.742390      -14.29830      -23.94769      -28.88727      -34.27344
      -42.79326      -49.87949      -59.20552      -67.98262      -75.14078
      -80.42133      -86.34198      -93.81952      -103.6071      -113.2396
      -124.1373      -131.8239      -140.7926      -149.1622      -156.7154
      -164.3979      -174.1503      -182.2657      -192.3048      -199.2983
      -205.8339      -214.5939      -225.0354      -232.5774      -241.5647
      -248.6964      -258.6731      -266.5861      -274.6461      -280.8586
      -292.7964      -296.5810      -305.7654      -313.1586      -321.7454
      -324.0178      -334.1428      -336.7300      -344.0106      -348.6565
      -357.2896      -359.9001      -368.5635      -369.3667      -377.5146
      -376.2036      -382.7891      -382.8516      -387.3729      -385.5901
      -388.0344      -385.9244      -390.4998      -386.6638      -386.8817
      -381.6462      -381.4720      -373.1860      -373.6166      -367.6014
      -364.6675      -354.7740      -354.9589      -347.2147      -343.3380
      -330.2307      -325.6360      -319.8704      -320.1924      -306.0277
      -302.9029      -293.5800      -287.5698      -271.9265      -264.8214
      -254.1077      -249.1905      -237.0837      -228.8450      -215.5052
      -207.2044      -195.6096      -188.1973      -177.2255      -168.9983
      -153.1339      -141.3202      -130.0263      -121.8577      -109.9736
      -100.6242      -87.86566      -79.02106      -67.79927      -55.49774
      -43.90173      -31.02351      -19.11071      -8.001678       4.890182
       18.02408       30.14078       40.77893       55.17923       67.26260
       78.48187       91.96130       103.7549       113.7455       125.1186
       134.8865       143.5526       153.4948       163.1887       170.1295
       177.1453       185.4440       194.1790       202.2344       207.3995
       213.4468       221.3427       228.4808       231.9489       235.7806
       240.1846       246.3666       248.7701       253.2582       257.0940
       259.5168       261.8961       262.9316       264.5809       270.2133
       271.6372       273.7081       275.4926       277.0469       278.2094
       278.0999       278.4296       277.1934       277.3133       278.5665
       277.7363       275.9797       277.3367       277.0239       277.6117
       277.5703       276.1450       275.6829       273.8545       272.9479
       271.3855       269.9354       271.3287       272.4163       270.9772
       268.6156       268.1447       269.8341       269.2160       267.8735
       265.2091       265.5079       266.1677       264.5035       265.3740
       268.2382       266.4335       265.0999       263.6834       262.5775
       261.6570       258.4332       255.5580       252.2496       247.4995
       246.2884       242.9617       239.2951       236.1609       231.1064
       223.9843       220.9341       213.4002       203.6507       197.4812
       194.9429       111.0184      -59.14359      -41.34106       72.40100
      -157.0636       58.44873       950.3347       715.5491      -134.3801
       201.5364       478.1082       52.81689      -341.4124      -241.2034
       476.8787       495.1792      -187.1026      -299.8901       221.5535
       495.8536      -239.1560      -489.8724       258.1614       496.6915
       21.07104      -556.6360      -142.0250       372.9292       80.77765
       148.0403       84.15308      -165.9368      -220.1040       33.30789
       249.3076      -394.0451      -225.1148       457.3124       59.93970
      -400.8048      -381.1682       60.12946       349.7930      -140.4867
      -432.0186      -35.62375      -13.09393      -78.33627       17.85855
      -148.3450      -196.9717      -215.8354      -216.8671       74.50710
       30.87543      -267.2409      -319.6796       8.220932       68.06537
      -252.9960      -390.0935      -259.3490       157.7699       44.99219
      -276.6121      -129.5007      -147.2408      -149.9920       58.30725
      -143.9889      -416.4290      -91.92764       46.80261      -216.1812
      -293.2144      -144.0274       7.062248       55.61392      -118.1568
      -263.7142      -133.7737      -65.89758      -23.28943      -101.9252
      -428.7557      -25.60175       226.5901      -147.8708      -195.9609
      -227.5352      -113.3144       26.78339      -167.8042      -219.2153
      -98.72749       40.66429       13.43768      -259.6209      -229.4496
      -28.04274      -66.44885      -7.778076      -71.74164      -235.1583
      -58.60260       13.78174      -347.3901      -357.2536      -125.9070
      -71.52027      -16.20319      -3.597229      -140.2790      -113.3175
       115.0754      -80.26910      -191.5164      -83.05737      -207.4580
      -305.3275      -129.0219       101.8745      -98.50195      -230.7283
      -45.27992      -12.55695      -149.6007      -161.4387      -222.6675
      -27.83424       105.3323      -255.6140      -146.7458      -89.18935
      -139.3897       25.35382      -140.6575       14.99188       87.05286
      -264.6660      -304.9081      -92.03229       92.10843      -28.96222
      -198.7024       10.07367      -84.20959      -284.4215      -230.6202
       44.75204       325.3743      -140.8726      -241.2684       152.9741
      -207.7000      -351.6366       110.7520       144.0658      -78.29126
      -298.1915      -231.7131       102.7590       85.63153      -177.7949
      -162.6437       46.60449      -154.9064      -110.9107       58.90204
      -132.2846       68.60146       106.7925      -221.5060      -112.3710
       48.98480      -85.47382      -270.8927      -37.25580       295.2576
       93.97223      -119.4417      -111.9426      -45.65960       31.85840
      -132.3171      -207.1931       236.9776       192.4227      -306.7791
      -105.8741       128.2618      -20.84665      -118.6674       20.49023
       238.9889      -30.70160      -120.3175       208.4424       63.18353
      -141.4924       57.16772       167.2519      -28.65712      -77.03909
       2.004890       17.39218       27.03195       206.5659      -1.501343
      -282.3861       41.74622       239.4452       77.57098      -239.8876
      -6.798584       329.7040      -40.42820      -42.89688       198.7498
      -76.18839      -94.97879       88.43439       230.0207       362.0830
      -77.00391      -358.7952      -15.54779       226.6923       106.1325
       23.27653       14.24554      -118.1587      -48.68221       15.32861
      -48.47046       115.3255       100.0343       48.41237       92.84741
      -43.33600      -239.5488      -229.3472       164.1004       131.7354
      -392.5539      -328.7327       280.2064       372.7849       3.476135
      -219.8967      -246.5074       181.8623       242.0444      -251.6689
      -222.2207       96.03302      -106.2565      -192.3448       236.5611
       118.9852      -3.728424       121.0108      -101.6273      -331.5208
      -256.9371       120.5076       326.8508       46.63995      -313.6438
       55.94965       361.2734      -249.8837      -325.7614       439.2786
       451.5974      -213.3739      -200.0163      -11.81702       174.7358
       358.8035      -45.66763       30.40485       378.4206       166.7234
       175.4673       56.33963      -160.2827       96.97205       256.9664
       214.2625       116.9727       131.8438       330.9589       247.0130
       71.10950       217.9935       267.2147      -217.3087      -55.98035
       662.1189       481.7360       40.19202       262.1244       545.5984
       247.9608      -74.88739       77.28809       367.5640       439.2770
       182.7261       132.8028       217.3298       212.7866       326.5498
       274.9539       113.9624       250.2139       376.9163       334.4919
       412.4186       219.2568       77.95715       312.2894       329.4618
       341.8765       420.5236       290.9211       177.2410       416.7096
       189.0548      -78.59033       448.3763       450.2838       36.52905
       375.0437       626.7974       174.3925       86.75702       318.5772
       78.25928       196.7211       470.2148       222.0820       77.36865
       230.6479       221.0360       98.72900       259.9287       162.0320
       348.0136       502.6360      -181.1788      -86.67261       462.3099
       473.4423       291.4948      -51.41293       13.11835       362.2997
      -2.139557      -192.9553       246.1237       265.7941      -71.94995
       266.6544       387.3364      -166.8472      -34.21547       135.4073
      -129.8444      -120.7382       117.8746       237.2217      -39.57452
      -235.4755      -75.18221      -69.92073      -80.76685       117.0359
      -18.66016      -207.1476       3.089783      -61.59024      -110.4315
      -21.33124      -163.2751      -327.1440      -494.6362      -264.3318
      -114.7686      -32.03931      -39.36182      -396.7651      -259.2000
      -102.3700      -346.9957      -180.6455      -248.9767      -621.9499
      -337.1240      -296.2091      -363.6741      -264.8007      -471.6589
      -217.8854      -161.0129      -648.5531      -515.5286      -250.0831
      -330.9481      -281.5166      -349.2924      -571.1958      -679.7964
      -508.1127      -354.5657      -308.4954      -265.6443      -535.4329
      -621.2090      -308.2281      -529.8118      -544.4465      -407.0273
      -486.2266      -356.6830      -634.1722      -747.0734      -240.3218
      -165.3757      -506.6506      -538.4015      -462.5763      -415.8656
      -409.8479      -464.0500      -488.0876      -489.1713      -253.6237
      -49.31567      -303.6942      -551.9498      -458.1981      -566.1176
      -346.3940      -246.5886      -524.8942      -22.09277      -105.6383
      -655.4308      -399.0408      -183.5034      -157.5254      -212.3700
      -205.2759      -180.4136      -225.5292      -297.6545      -308.8287
       12.62048       19.78522      -253.6011      -331.4554      -447.3480
      -7.566803       262.2119      -168.5792      -118.7542       25.55920
      -268.3669      -312.0712      -123.7274       15.74585       146.6420
      -8.118164      -261.3685      -309.9892      -158.4944       310.7607
       380.9417      -194.3287      -144.3407       13.37021      -164.7389
       46.01501       225.7683       191.3162      -137.0378      -69.14917
       366.3008       44.16406      -300.5067       47.73108       433.0986
       272.6008      -119.8901       81.25464       198.2107       164.2482
       352.9879       30.40182      -74.01166       159.5920       266.2675
       219.8550      -140.2130       69.06152       520.6472       176.8372
       78.46387       208.2520       193.4531       499.0509       232.3008
      -36.55908       347.0161       405.5198       102.5510       67.87451
       219.4471       426.5830       380.7419      -40.38184       195.8121
       656.7334       147.6865      -245.2520       168.6799       549.5703
       344.4463      -7.496948       214.2172       323.5390       327.3826
       248.9542     -0.5595703       483.8501       544.7407       101.4816
       434.9902       372.1798      -210.3284       46.06763       416.8516
       279.3774       254.6091       318.1639       196.1871       258.3752
       534.9445       275.3378      -83.47839       130.7771       252.1956
       392.9162       269.1701      -105.9612       216.5515       312.4276
       97.83344       196.5220       234.7399       87.59351       211.4662
       453.5306       213.8923      -39.58691      -338.4622       211.0796
       938.5115       359.9987       63.81182       30.34113      -69.30127
      -431.1348      -1007.784       9.491211       782.3529      -62.23572
       314.9912       963.6021       292.2942      -57.04495      -47.51929
       499.2278       1401.865       575.5962      -897.8920      -212.1161
       892.0243      -178.8875      -1467.272      -478.8770       1381.997
       1405.185       158.8360      -250.1930      -12.41296       9.419434
       420.1338       529.9617      -707.2092      -1302.944       832.9724
       1819.659      -712.9684      -1266.249       523.5681       620.1389
       707.3015       979.6422      -220.4559      -641.4638      -178.0552
      -150.7377      -113.7316      -402.7371       424.5962       2200.462
       877.5801      -1810.079      -1551.433      -316.6602       423.4795
       1472.924       904.0618      -620.1923      -764.3583      -490.6628
      -273.2651       576.6089       1265.384       437.2993      -497.5776
      -305.9218      -117.4240      0.1619873       607.1770       354.1511
      -754.9409      -760.9487      -216.1992       179.4961       509.1980
       523.3759       311.9849      -602.9304      -1141.223      -102.6079
       976.2087       475.1736      -642.7848      -593.2943      -189.6086
       3.426300       70.93542      -489.4339      -97.35083       583.4821
       588.8433      -68.62402      -1054.549      -459.8044      -120.4567
      -511.3847      -118.1411       293.8723       260.3505      -313.8047
      -697.1676      -348.1390      -102.8508      -584.7828      -56.86700
       704.0793      -613.5343      -972.5788       83.75888       234.8417
      -198.3502      -458.9810      -35.93866      -224.8102      -183.8654
       566.2378      -355.9734      -1122.698      -33.05389       43.16400
      -405.9818       13.88928      -319.7297      -1085.505      -706.8656
       416.6544       659.4878      -529.4576      -988.2910       500.4476
       543.7520      -693.5984      -111.4769       92.13126      -176.2100
       466.3203      -731.0051      -1109.945       535.2405      -42.60901
      -441.7014       352.2750       106.4235      -346.8420      -215.8688
       97.38063       118.4187      -255.2891      -1114.393      -871.1101
       776.1604       616.8081      -386.2463       452.4052       424.6842
      -642.8939      -279.3879      -350.0765      -372.8083      -215.3428
      -712.8159       128.6050       317.2845      -511.8976      -371.9336
      -141.2051       491.0538       668.0535      -496.1089      -460.5015
       118.2505      -116.9280      -440.8447      -141.8345       421.9632
       128.5040       38.44482      -384.8528      -705.4829      -270.1501
      -132.4100       341.0884       160.0178      -1150.151      -399.7650
       566.6884      -381.9782      -188.6458       44.06702     0.01660156
       570.6077       102.5176      -352.4894      -213.4802      -407.2084
      -408.9583       127.5444       272.1514      -205.3021      -293.6924
       10.51660       150.5029       325.8607       222.6888      -390.8131
      -386.5787       325.6700       486.6411       205.6437       212.2120
      -113.9572      -648.2947      -219.9260       619.1022       674.7592
      -61.30539      -353.5376       279.3561       175.9301      -307.9128
      -98.40515       91.89050       308.7594       194.7090      -74.11554
      -290.7771      -120.9954       444.7568       472.2534       259.1586
      -160.3930      -20.46564       306.4864       53.98688      -181.2811
       124.0986       443.9046       80.18388       15.51797      -83.99741
      -13.55420       530.6594       331.9431      -124.9066       310.7307
       453.3112      -314.9744      -148.9952       184.2199       68.12622
       335.8022       489.6763       519.9176       206.5880      -313.4160
       107.6546       383.5490       13.67810       130.1906       261.2643
       44.52087      -99.48877       217.0212       843.8892       433.5844
      -341.5444      -104.7238       286.8854       106.2654       71.96869
       262.8146       408.6156       111.6621      -764.1086      -238.0446
       814.5519       504.4797       143.6993       248.3109       234.8259
       190.1230       548.3552       350.9225      -243.3246       143.5860
       404.1630      -53.75720       239.6416       601.0688       427.5365
       84.08496       19.54974       182.2899      -43.69748       71.14844
       129.3624       21.17578       345.7007       589.0934       204.4015
      -245.1057       121.4537      -39.36426      -253.2405       128.0588
       590.8751       363.9927      -935.3586      -428.2815       703.9776
       164.6997       187.0101       333.5385       35.22198       72.69177
       301.7114       20.89752      -469.9086      -33.54578       318.6596
       8.143555      -175.2308      -371.7631      -43.13519       479.4847
      -71.18567      -425.9698       18.16266       100.8361      -198.7239
      -359.7617      -258.7399      -112.5405      -52.01477      -434.9579
      -79.74023       578.9733       22.46936      -244.7349       130.3901
      -150.1482      -602.4271      -360.2030       136.6756       120.4585
      -196.7764      -351.1425      -231.7283      -128.8143      -168.3510
       6.842674      -1.292847      -113.0704       237.9346       116.5317
      -364.3935      -431.4678       111.6940       302.2297      -541.9364
      -698.3008       141.1910       491.3619      -65.85840      -503.3229
      -41.79559      -31.27393      -370.7113      -250.5358      -410.5916
      -98.56671       551.2178      -169.2333      -541.3556       172.2594
       508.9299       190.3622      -452.5411      -414.4891       5.826965
      -13.65485      -7.697842     -0.8914185       48.27271       276.4813
       45.74725      -284.8989       77.90833       414.8624       265.3986
      -140.2351      -636.5485      -546.9823      -53.20703       167.4188
       460.8103       132.9662      -522.2127      -326.4698       51.58472
       220.9068       50.00058      -168.5497       8.993256     -0.8946533
       232.3979       173.4420      -526.2842      -276.4432       271.2285
