     0.02500000      -4406.126       4327.618      -12345.00      -12345.00
      -30.01003       218.2649      -19.36000      -12345.00      -12345.00
       0.000000       14.13000      -12345.00      -12345.00      -12345.00
      -12345.00      -12345.00      -12345.00      -12345.00      -12345.00
      -12345.00      -12345.00      -12345.00      -12345.00      -12345.00
      -12345.00      -12345.00      -12345.00      -12345.00      -12345.00
      -12345.00      -30.68660      -67.50870       990.0000       0.000000
      -31.37200      -68.11800       0.000000       97800.00       0.000000
      -12345.00      -12345.00      -12345.00      -12345.00      -12345.00
      -12345.00      -12345.00      -12345.00      -12345.00      -12345.00
       95.70043       37.59195       217.2794      0.8604480      -12345.00
      -12345.00    -0.06275789       90.00000       90.00000      -12345.00
      -12345.00      -12345.00      -12345.00      -12345.00      -12345.00
      -12345.00      -12345.00      -12345.00      -12345.00      -12345.00
      2008       244         6        45        24
       760         6    -12345    -12345      9932
    -12345    -12345    -12345    -12345    -12345
         1         7        13    -12345    -12345
    -12345    -12345    -12345    -12345    -12345
    -12345    -12345    -12345    -12345    -12345
    -12345    -12345    -12345    -12345    -12345
         1         1         1         1         1
MAJA    -12345          
        -12345  -12345  
-12345  -12345  -12345  
-12345  -12345  -12345  
-12345  -12345  -12345  
-12345  -12345  -12345  
-12345  -12345  BHE     
ZL      -12345  -12345  
[...]
      -78.33817      -83.24789      -84.90125      -89.44080      -89.73605
      -94.33157      -96.44409      -102.2233      -102.3644      -107.9198
      -109.8836      -110.6302      -111.3181      -120.4098      -123.4496
      -126.8444      -128.6571      -132.9066      -132.3846      -134.5668
      -134.1750      -138.8059      -141.7342      -141.6248      -141.0890
      -143.1719      -144.9803      -144.2633      -141.9819      -140.4620
      -140.1931      -135.8513      -136.3733      -133.7722      -130.0759
      -122.9327      -121.2982      -114.6262      -110.5364      -105.9812
      -104.9367      -96.89880      -93.76740      -85.53954      -81.89253
      -75.47162      -71.10983      -65.95671      -61.06729      -55.40421
      -48.95918      -43.59085      -40.90837      -36.28258      -30.19290
      -26.45734      -20.07327      -17.74848      -14.40632      -8.998463
      -2.211795     -0.7295456       4.657368       7.203110       11.65761
       15.71437       22.92316       27.14555       30.96550       31.95309
       37.30035       43.22661       46.30637       51.63071       60.08383
       61.02405       64.80182       70.76300       76.57504       80.79819
       86.50272       92.90906       97.64340       99.66833       103.7167
       109.9295       113.3174       117.5991       123.4579       127.2689
       129.3844       132.4969       133.1738       135.6245       138.1918
       141.6254       145.4155       147.8986       148.5760       151.5249
       152.7415       157.7105       160.6390       162.0269       162.7176
       164.9050       166.8019       164.7128       164.2582       168.7910
       169.0270       168.5041       168.0611       167.7107       164.2416
       162.0876       159.0787       158.3639       154.5692       153.5682
       151.8755       149.0407       143.7266       141.4616       135.0912
       133.0585       127.4732       124.3010       118.9203       116.8087
       109.6092       105.3654       98.48553       91.77435       85.43771
       80.48082       71.92154       66.76091       57.66260       49.94375
       40.80685       38.01195       29.49883       21.97856       11.43491
       7.943169      -3.141296      -8.731133      -17.55959      -22.92236
      -35.19489      -43.38254      -53.77982      -57.34984      -67.05609
      -73.50812      -83.91937      -88.73294      -100.8844      -104.7470
      -115.9428      -117.8878      -125.3547      -130.8230      -139.4232
      -142.9582      -151.8028      -156.6501      -166.1056      -167.5665
      -173.4957      -175.7699      -183.8893      -189.2559      -197.9028
      -199.2429      -206.7273      -209.0310      -215.2007      -216.2197
      -221.6505      -220.1475      -225.9041      -224.7872      -226.8583
      -225.5214      -230.8948      -228.8943      -229.4716      -225.7324
      -229.4802      -224.8962      -227.1310      -217.6678      -216.6381
      -211.7563      -209.6053      -199.4542      -199.7618      -190.6290
      -189.5475      -178.6484      -173.7112      -164.1316      -158.0890
      -147.9129      -139.1502      -125.9315      -121.9283      -109.1447
      -99.05701      -86.69897      -78.68190      -68.26280      -60.33440
      -45.71191      -35.28627      -23.68346      -14.14304      -1.626987
       4.792908       16.56207       26.61832       36.82767       44.26620
       57.93140       63.91772       74.38226       81.93121       92.29474
       99.70801       91.15233       32.08014       34.73369       88.85381
       17.05246       46.09546       375.0420       384.2413       118.8616
       201.6877       412.2021       287.2804      -169.7326      -102.8662
       334.5734       91.41016       216.7816       390.8657       109.8765
       259.2250       59.69241      -22.10840       304.5939       210.5026
       189.9482       130.7460       383.2672       216.1611      -94.12439
       501.7476       195.5549      -50.63954       163.8934      -191.1430
       115.5598       212.8629       169.4136       248.7797       165.1458
       240.7173       3.595581       290.6429       328.7018      -255.1339
       117.2845       233.4526       16.30951       372.9753      -42.73740
      -310.7043       245.2833       274.8589      -30.27985      -211.4929
       89.34552       445.0009      -95.15289      -218.6201       381.7491
       7.302765      -232.8356       109.8732       263.2860       93.06702
      -313.6442       56.66748       243.7378      -83.79545       54.66742
      -116.1246      -291.9568       112.6820       193.7099       21.83170
       4.341818     -0.2353516      -15.29602      -299.1569      -123.2531
       303.4722       28.62805      -301.3763      -55.25320       142.5894
      -40.35297      -28.15881      -226.9606      -217.6008       142.2656
      -126.9711      -104.9511       33.16785      -178.8390      -66.86388
      -65.06265      -103.7699      -60.07805      -111.8751       4.793167
       9.502319      -169.6747      -278.8021      -134.3255      -2.874756
      -225.3770      -54.11002       235.7606      -43.74506      -362.5040
      -180.4986       89.44150      -62.55063      -120.5551       19.53098
      -108.4127      -269.2249       59.94824       42.59045      -335.1927
      -196.6694       213.6423       350.6053      -184.2901      -379.2577
      -33.56430       84.22295       73.61835      -78.28970      -129.8977
       112.2525       11.69672      -223.9716       91.15606       94.97923
      -98.15610      -53.33714      -1.326260       51.15877      -56.31407
       22.15256       39.05116      -57.21100       183.0295       112.9773
      -154.1897       47.42078       45.19893       38.05385       82.53265
      -10.59161       148.6480       75.48734      -105.0543      -63.97244
       86.67068       207.4323      -114.0749      -109.6403       221.0900
      -30.07767       33.84497       199.4247       122.6304      -38.31731
      -162.8518       202.0417       116.6941      -116.4370       163.3185
       66.38985      -58.61172       129.9728      -30.46661      -80.20642
       212.2895       169.4724      -110.6468      -96.51489       138.5170
       252.4905       13.17935      -16.61526       100.2952      -112.9414
       75.20306       143.7928      -166.9096      -142.2234       213.6329
       325.5830      -207.0413      -209.8115       113.9915      -12.64897
       81.29395      -79.28813      -81.82016       163.8494      -56.97221
      -36.42830      -36.55350      -71.67404       61.95477      -168.7346
      -137.1021       101.3238       27.14755      -52.33578      -188.5255
      -121.5721       98.30762      -81.28317      -175.6321      -13.63914
       113.1975      -100.5078      -268.7315      -69.60619      -54.48466
       12.70949       22.40146      -187.0479      -97.50964      -39.13515
       33.10503       58.28555      -175.7431      -185.1503      -51.34219
      -61.98720       5.990902       28.71686      -89.30722      -141.2801
      -133.1908      -8.802094      -113.2486      -106.0895       118.1255
       35.31403      -102.6146      -167.0819      -120.7751      -126.1949
      -110.5958      -157.9968      -133.7811       202.9766       124.1169
      -35.05811      -97.14032      -319.9712      -80.27899       199.5838
      -84.41763      -107.4654      -31.85501      -51.56305       211.5321
      -138.4548      -322.7042       355.5975       213.2686      -507.8797
      -271.8284       218.4268       80.54256       137.9879      -36.96786
      -150.5808       304.1372      -6.904480      -403.9210      -73.07617
       159.4383       163.6458      -9.329041      -204.9194      -41.29205
       291.6853       80.76212      -46.49620       87.80989      -117.8315
       160.8270       134.9214      -119.1558       134.3700       62.62926
       6.213760       66.03867       77.97126       99.93634      -97.45735
      -108.2077       176.6056       98.02077       15.45132       87.04758
      -178.6793       84.87585       456.3694      -98.15311      -43.43256
       273.7644      -42.53271       70.67316     -0.4093018      -266.7847
       217.5477       288.7337      -28.01514       122.5396       219.8770
      -64.53621      -66.15384       181.3091       143.1972      -23.31570
       40.52338       233.8794       130.6714       11.84554      -68.56393
       102.2858       228.5821       107.2055      -36.06094      -153.8737
       254.5689       182.7033       42.73376       364.5397      -59.89102
      -202.4719       463.8266       343.6941      -228.1476      -9.220428
       189.1890      -39.95367       118.4382       129.2746       143.8631
       170.2958       16.81793       170.3395      -55.72571      -103.2426
       561.0841       156.2769      -337.2010       472.3805       411.6607
      -165.9241       17.47403      -34.98291       253.1133       555.8711
      -8.274414      -234.9889       136.3250       308.8998       77.74599
      -69.53870       222.3611       128.5696       109.3988       356.6354
      -157.6338      -264.5628       311.1036       335.8656      -27.96686
       46.88065       218.9068      -76.76511       35.61426       165.0490
      -75.91833      -35.79810       201.6965       136.4757      -2.152695
       76.39061       8.309586      -75.77760      -54.65904      -143.5846
       52.48370       269.6743      -83.82208      -180.6789       82.42877
       74.99762       49.15286      -176.9354      -107.3831      -59.61578
      -351.0966      -175.2078       180.8788       132.9463      -347.3947
      -412.5717      -92.63251      -24.67932      -258.3312      -186.0682
       73.59320      -194.5311      -280.5615      -295.7830      -313.9978
      -45.31989      -291.9623      -417.6006      -20.57739      -337.6522
      -382.4927       123.1343      -353.1163      -445.0051      -26.54797
      -332.2327      -513.5387      -397.4973      -214.8974      -185.4857
      -175.1683      -371.7554      -545.5094      -180.6445      -39.90723
      -338.2058      -581.4641      -466.7419      -115.7041      -92.58682
      -89.31677      -230.1517      -526.7272      -215.4451      -105.9398
      -321.9863      -401.3404      -487.7903      -31.75427      -4.938477
      -323.9011      -201.4882      -129.3398      -80.39551      -445.5786
      -358.9897       305.3480      -57.57507      -443.9565      -33.03351
      -34.24683      -271.8142      -38.65723       32.38776      -209.7740
      -107.4943       40.04434       116.4276       24.30746      -309.8448
       166.7577       333.7114      -368.7285      -95.23029       285.4903
       114.6369       216.5732      -34.03104      -249.9957       1.746582
       206.0023       373.4683      -18.19217      -79.59204       496.8179
       317.7190      -191.0382      -8.272522       270.3253       213.3283
       116.4032       121.2744       249.8998       213.9628       359.4556
       164.9654      -235.7250       333.8230       659.8391       239.5442
       157.0705       251.3625       169.7433       112.9719       202.8057
       376.6644       279.1278       178.3683       276.3331       328.9715
      -6.489502      -70.59631       428.9275       261.6402       164.2032
       485.3173       258.1296       50.33234       311.5255       250.1437
       112.7040       214.4815       109.2107       455.6360       337.8339
      -177.5943       203.3625       380.7155       106.4880       3.285278
       121.1075       182.7219       158.9820       225.2981       264.3711
      -63.58841      -248.1787       505.0668       478.7856      -76.91074
       139.3456       151.2307       145.1733       61.14716      -281.0703
      -112.0178       314.4268       120.3359      -208.6046       44.15295
       446.9568       146.1185      -315.6762       60.66187       307.0465
       146.9624       167.9008       345.7930       432.9846       165.9517
       124.1869      -49.11243      -577.0087       30.95654       316.4366
      -617.0970       87.00732       1842.612       1988.326       1183.222
      -1200.506      -3434.135      -1698.616       45.82971       3.570312
       706.4894       727.2623      -377.6404      -228.5013       162.5950
      -723.4370       534.2229       1766.881      -419.9204      -1887.527
      -1163.090      -1383.026       54.41895       3100.683       58.84180
      -1870.671       602.3018       169.7615       1021.577       48.78320
      -2977.808      -193.0832       282.7241       85.44531       4327.618
       457.6055      -3574.606       1318.659       257.6909      -3064.427
      -629.1982       801.9102       3804.788       4227.314      -2319.321
      -4406.126      -1510.906      -34.79272       1288.562       485.9399
      -1510.439      -571.4580       589.6659      -83.41971      -420.5623
       421.8323       879.6294       1102.459       26.91162      -1744.016
      -1368.050      -241.2449       775.7729       2314.823       1745.910
      -361.2637      -1430.923      -1694.264       8.605957       1389.969
       582.8747       301.7062       174.0176      -1667.681      -2286.426
       1304.339       2375.940      -1189.339      -714.9697       1060.057
       632.0847      -207.8713      -1813.168       1150.967       2876.673
      -1650.513      -1304.442       919.3998      -844.2554       23.63281
       1435.131      -1013.530      -1709.490       282.1671       428.5042
       641.7548       221.1592      -1227.029      -459.7173       337.8706
       1071.431       1105.060      -1616.164      -1588.626       1235.099
       624.4707      -1309.069      -807.5514       280.2941      -340.1547
      -751.6268       756.9351       803.5771      -256.6582      -203.1514
      -720.0698      -809.7226       98.14587       442.7416       183.7168
      -1171.871      -1211.652       884.1156      -4.808594      -1354.211
       267.2147       278.5852      -1244.104      -208.1021       1076.199
      -583.9238      -1319.035      -31.81891       150.2105       72.77222
      -142.5518      -1247.094      -695.8361       668.7864       605.5085
      -396.0259      -1441.217      -814.7937       440.8308      -278.9033
      -621.3220      -33.46747      -226.5045       187.4702       451.9288
       351.8882      -580.7183      -1530.438       265.0063       1059.823
      -1035.523      -925.3201       468.0731      -394.8785      -150.1021
       630.0928      -106.2901      -150.9558      -155.8462      -450.0657
       406.5945       346.1201      -1414.952       122.2612       1770.741
      -475.2203      -637.8879       781.4048      -377.8064      -975.1191
       530.1117       761.7787      -574.1290      -115.7798      -205.0913
      -404.5083       1261.825       14.56232      -625.9794       876.6038
       127.0917      -353.0591      -263.3668      -142.7876       1096.997
       507.1638      -323.2881       247.6924      -815.2922      -180.3086
       1669.452      -53.67102      -735.4155       1052.193       441.3550
      -1063.052       83.79248       999.7463       39.98630      -221.4734
      -13.33984       142.1191       266.0596       298.8218       1022.499
       886.3568      -370.7353       26.60748       240.6036      -539.5586
       525.1718       1006.313      -546.2480       240.9146       838.7983
      -816.4870      -339.2205       1120.526       1459.625       503.1322
      -583.4724      -582.4204      -425.7771       217.6578       908.2242
      -53.28827      -254.1729       977.4786       81.51709      -513.1948
       952.5815       731.6274      -521.3820       15.34140       40.78168
      -420.9202       1077.117       1042.478      -90.32608       175.6098
      -105.6789      -327.9080       53.11084       99.11292       420.5154
       544.2166      -521.9380      -420.9067       1332.837       557.4934
      -975.6940      -198.2804       532.4799       437.7333       136.5685
      -73.53290       32.01495       329.4772      -216.8418      -237.8774
       1167.295       904.4666      -478.0989      -660.0905       97.15942
       744.6388       122.5410      -878.3142      -188.0308       1107.480
       474.3684      -546.1992      -333.7576       430.6007       746.9287
      -378.2939      -818.2087       694.5393       1148.084      -512.8879
      -684.9122       650.8472       66.97809      -139.3832       25.75842
      -527.6519      -111.4609      -338.9117       219.5587       1024.783
      -129.4698      -453.8911       40.75331      -114.1818      -21.13965
       219.4764      -104.8907      -61.56555      -314.6461      -421.3185
       490.1182       18.34540      -70.76947       375.8619      -553.4908
      -453.6047       16.96960      -70.55420       434.9126       171.4663
      -198.0038      -291.0027      -277.3695       203.4780      -304.2987
      -641.8732       121.1753       311.8054      -165.1189      -419.3125
      -784.4811      -214.4475       629.1926      -302.6038      -562.2394
       353.6969       229.1171       114.5305       637.5193      -322.1479
      -1590.998      -552.1238       587.5757       108.4838      -497.3454
      -239.4648       614.7668       242.5288      -781.7355      -463.9698
       276.0537       378.4319      -18.93091      -717.1106       388.9319
       1345.077      -514.8799      -1040.663       5.520630      -290.8045
      -295.2070       397.3060      -113.8121      -539.2029       254.7227
       358.8274       146.2809       201.6888      -72.65979       313.0300
       922.1044      -366.7354      -1273.788      -143.8029       410.1270
       483.8402       182.8888      -175.9048       230.6780       349.0857
      -195.2018      -128.0388       396.9387       59.80408       237.7343
       52.58655      -572.8059       372.1034       386.8186      -386.0007
       213.0081       565.9960      -106.5287      -108.6719       527.9376
       90.08371       104.4180       94.92844      -206.7017       408.7706
       103.8237       140.5959       449.2057      -226.7231      -113.1134
       496.0229       452.4976      -238.8958      -792.7974       399.2529
       1460.826      -7.922180      -403.9075       727.8832      -16.88013
