     0.02500000      -2815.535       3350.914      -12345.00      -12345.00
      -30.01003       218.2649      -19.36000      -12345.00      -12345.00
       0.000000       14.13000      -12345.00      -12345.00      -12345.00
      -12345.00      -12345.00      -12345.00      -12345.00      -12345.00
      -12345.00      -12345.00      -12345.00      -12345.00      -12345.00
      -12345.00      -12345.00      -12345.00      -12345.00      -12345.00
      -12345.00      -30.68660      -67.50870       990.0000       0.000000
      -31.37200      -68.11800       0.000000       97800.00       0.000000
      -12345.00      -12345.00      -12345.00      -12345.00      -12345.00
      -12345.00      -12345.00      -12345.00      -12345.00      -12345.00
       95.70043       37.59195       217.2794      0.8604480      -12345.00
      -12345.00      0.1067811       0.000000       90.00000      -12345.00
      -12345.00      -12345.00      -12345.00      -12345.00      -12345.00
      -12345.00      -12345.00      -12345.00      -12345.00      -12345.00
      2008       244         6        45        24
       760         6    -12345    -12345      9932
    -12345    -12345    -12345    -12345    -12345
         1         7        13    -12345    -12345
    -12345    -12345    -12345    -12345    -12345
    -12345    -12345    -12345    -12345    -12345
    -12345    -12345    -12345    -12345    -12345
         1         1         1         1         1
MAJA    -12345          
        -12345  -12345  
-12345  -12345  -12345  
-12345  -12345  -12345  
-12345  -12345  -12345  
-12345  -12345  -12345  
-12345  -12345  BHN     
ZL      -12345  -12345  
[...]
       33.71938       30.58352       27.70255       22.92972       19.09015
       17.12489       10.79280       5.720219       1.557405     -0.1346111
      -6.020870      -11.79915      -20.65659      -22.21024      -30.85123
      -35.22913      -40.31779      -43.11845      -51.24042      -55.76474
      -61.66830      -65.48712      -74.62021      -78.86307      -84.20370
      -88.76141      -96.28717      -98.62598      -105.6122      -108.1474
      -115.4916      -118.9792      -127.1506      -131.2047      -138.7096
      -144.0972      -150.8386      -152.7251      -158.5882      -161.2855
      -170.2596      -171.5848      -173.8090      -173.9043      -180.6771
      -181.8749      -185.5297      -185.6219      -190.5222      -190.8152
      -193.6690      -191.1417      -194.5348      -196.2743      -199.1984
      -196.3936      -196.6417      -197.0901      -200.1968      -198.5359
      -197.0515      -196.9169      -197.9112      -192.3760      -191.1929
      -188.7719      -185.5751      -182.9548      -180.6788      -179.2133
      -179.0900      -177.5394      -174.6332      -171.4693      -166.5070
      -164.9683      -164.7499      -161.1361      -156.4566      -156.0602
      -151.9030      -150.2492      -142.9214      -138.8413      -135.1750
      -131.9751      -124.6924      -122.3418      -118.8410      -117.5818
      -109.6436      -106.4755      -102.8190      -95.72595      -87.00021
      -85.54842      -75.28345      -70.57233      -63.64671      -60.97321
      -52.42618      -49.47778      -39.32797      -35.34064      -28.25134
      -25.04661      -15.07260      -11.05683      -1.328184       4.988457
       10.43212       13.44017       24.73868       27.37717       34.09541
       40.25406       47.08530       50.46664       57.19403       62.25537
       66.80426       71.66266       78.01740       81.68658       87.21939
       91.18106       92.71155       99.38849       109.0319       113.5369
       114.3864       120.1616       127.5832       131.6240       135.1192
       140.2105       144.0860       149.1162       152.7122       156.3831
       160.2396       167.1957       171.6407       174.4200       177.7799
       181.4957       183.7410       189.2524       195.9454       198.8488
       198.6685       202.4222       207.1906       209.9528       212.9888
       211.7786       209.9736       212.0656       215.3589       216.3247
       216.3686       215.2617       213.5453       212.7917       207.8016
       207.3516       206.3112       201.7333       197.0748       194.1136
       189.0193       185.7426       179.7114       172.9319       168.1566
       162.2959       154.9297       147.0033       140.3811       131.4115
       122.1608       113.8244       108.0937       98.70407       93.10519
       82.67981       75.22997       65.66977       57.99127       45.67961
       39.86243       31.61337       25.95132       14.03111       7.375205
     -0.5140533      -6.564396      -20.54073      -22.33200      -29.91798
      -37.69803      -44.96181      -47.80754      -55.62393      -58.84296
      -63.51227      -67.02376      -72.65927      -75.29428      -78.61502
      -80.02853      -86.13058      -89.84122      -89.25519      -90.74414
      -93.20551      -93.18372      -94.21075      -91.47525      -93.76266
      -93.89911      -93.84076      -90.60931      -90.94199      -87.40750
      -83.99352      -78.73952      -79.38300      -74.96776      -73.43266
      -67.98795      -63.81120      -59.29904      -58.50670      -50.97113
      -47.90726      -45.41676      -43.35309      -36.28722      -34.00826
      -29.70880      -25.36618      -19.60479      -21.89322      -15.84476
      -9.869354      -36.89587      -110.2464      -87.49304      -74.26013
      -266.5603      -133.0200       393.6270       257.6371       3.112305
       349.5611       127.9279      -290.3579      -15.51965       173.3612
      -32.92227      -202.9789       74.72369       187.4139       62.30719
       30.77310      -232.0453       26.51257       459.8111       140.6191
      -250.5051      -225.9797       318.6426       239.2065      -22.33282
       258.6108      -34.84209       28.85545       64.91650      -340.9991
      -67.57837       72.27478       412.9570       403.5925      -377.7150
      -371.4755       77.47168       322.4590       333.7012       57.99243
      -191.5462      -176.5777       37.10037       98.66272       44.24945
       143.8528       24.90788       31.93283       29.89453      -392.1902
      -168.2767       397.8241       228.8403      -66.71655      -130.5206
      -185.0469       45.44128       68.20755       37.76495      -48.61893
       103.1839       174.3539      -301.0063      -227.0518       15.94653
       100.8660       225.5864      -110.7261      -360.1957      -12.28665
       11.42786      -159.5225      -85.43561       95.21164       210.9702
      -42.37057      -128.5021      -184.0042      -144.9926       23.18542
      -181.0362       17.35730       99.41284      -156.3224      -79.48795
      -102.4512       7.512817      -141.3557      -296.9349       81.84376
       35.76556      -136.7741      -129.8615      -74.30768       117.5887
      -55.68176      -185.2441      -212.9784      -136.1419       61.98633
      -22.57071      -162.0603      -104.4217       163.9674       101.3591
      -224.7747      -301.9387      -20.19702       301.0848       22.68280
      -198.9518      -62.12125      -46.65067      -131.9527       93.12296
       76.62115      -112.6051       30.46021       176.5807       37.00952
      -188.9126       53.42147       74.99624      -43.91876       200.2556
      -10.27759      -270.9312       22.92688       213.3159      -72.63474
      -88.58649       151.0774       55.23586      -2.113602       80.84958
      -47.09370      -94.77484       85.58096       146.1383      -162.7159
       11.38647       390.8895      -193.4682      -182.9564       115.6964
      -64.73038       96.11327      -28.68968      -73.08289       231.1741
       33.83350      -205.2725      -1.279488       44.44461      -81.76242
      -121.6957       195.2929       165.1479      -308.2085      -78.61292
       368.8378       50.29834      -365.3370      -111.7004       143.3195
       28.86429       80.77257      -22.63927      -105.2343       141.3492
       3.411987      -121.1406      -111.4891      -171.5223       89.40210
       190.3795       74.79118       81.89667      -48.03033      -145.7876
      -86.43079      -68.76987       153.2727       93.41022      -127.8842
      -40.97339      -92.06121      -3.539581       11.32063      -4.624115
       58.57703      -288.6133       2.998810       316.6064      -272.2808
      -299.1044       250.4095       127.0942      -165.5046      -114.9213
      -112.2469      -223.8204      -83.14853       258.3073      -92.80115
      -246.3493       93.00725       36.93338      -40.99286      -202.9895
      -1.689362       64.73505      -189.7506       41.57521       19.97576
      -38.76547      -22.81018      -156.0027       221.4825       250.1975
      -117.2381      -147.8536      -70.89664       46.07993       56.41193
       72.78851       156.8879      -108.9886      -139.3162       80.11835
       91.99567       143.4420       108.2334       157.3259       168.5757
       37.63665       26.17966      -80.93564       28.46350       178.5944
      -96.50484      -59.26355       239.2244       9.635559       80.91547
       408.6879       137.6174       36.71988       108.5170      -9.517609
       61.37744       208.6270       135.9154       78.39349       329.4450
       237.6724      -102.4591      -112.0758       313.0370       262.4650
      -207.7229       93.46124       147.2173      -111.5151       207.8417
       521.8756       223.0324      -141.8209       35.75424       219.6202
       9.398270      -102.3835       163.9861       185.5005      -10.24274
       106.0694       131.8364      -191.7210      -5.017334       422.1343
       278.6049      -114.7884      -199.2806      -66.65082       122.0018
       278.4147       29.15280      -148.7476       35.41783       98.01710
       11.42554       83.83084       194.2141      -339.4393      -305.4783
       329.4465       35.18597      -233.0781       196.7794       259.6589
      -89.60501       20.25659      -190.7309      -282.6730       129.5478
      -100.2661      -294.1058       61.97408       66.71790      -73.09811
       36.71497      -160.0124      -283.6525      -65.17111       119.7494
       25.44208      -382.5035      -192.4954       109.2250      -190.3431
      -179.9535      -196.0143      -32.97491       128.2471      -127.9720
      -230.7104      -302.0381      -70.24625       49.87842      -393.3169
      -201.1767       155.6694      -194.1655      -265.7795      -89.31958
      -87.66638      -221.1214      -93.02765       79.16147      -154.3247
      -86.23157      -49.11353      -451.3851      -152.3289       215.3150
      -19.23419      -264.4724      -203.7031       10.45042       44.50383
       19.28064      -174.9678      -125.2786       54.65416      -50.43263
      -14.43482       61.70441      -238.1384      -121.1284       115.6845
       76.64235       44.72972      -96.19031       125.5891       9.168114
      -66.39373       60.67316      -182.0452       61.68317       279.3101
       124.2383      -35.48361      -152.4424       26.29767       305.7243
       121.9894      -39.15759       79.19220       179.5861       221.6371
      -48.51740       80.07758       189.2731       99.25201       312.5886
      -31.69690       11.89575       377.9363       63.03592       49.06903
       307.4958       319.6506       332.9212      -38.50864      -176.9078
       403.4838       150.1388      -158.2820       215.0199       103.2314
       251.2170       458.4704       128.1107      -121.6587       7.179688
       265.9358       184.8102       44.10583       164.8520       250.9467
       154.8107       21.40390      -55.66458       64.18811       179.1105
       182.3976       122.2783       3.891418       160.5043      -139.9975
      -2.485291       348.5053      -116.9293      -87.71777       37.91064
       21.81384       245.2535       126.8170      -72.50110      -133.1543
       3.674179      -80.63301      -80.07736       192.7244      -23.27435
      -129.8462      -10.35209       16.90039      -99.16956      -330.7839
       36.00464       89.86667      -241.2479       39.64020      -116.8857
      -326.6797       107.4669      -42.74976      -368.7962      -110.9024
       59.08234      -239.8246      -313.5750      -25.44604      -160.2402
      -304.0271      -149.6475      -278.1014      -204.8733      -277.1825
      -276.8542      -101.1014      -213.5714      -74.92938      -94.69885
      -245.5195      -393.7761      -333.8461      -263.0042      -451.8102
      -87.29269       129.8782      -384.4530      -675.4352      -239.2202
      -68.37158      -401.9421      -309.8461      -173.1245      -438.8718
      -354.7045     -0.3812256      -337.4910      -615.5244      -121.0835
      -124.5875      -240.1898      -201.5601      -580.1686      -463.9454
      -114.4604       39.15234      -109.4347      -570.2085      -274.3391
       4.424805      -297.8484      -373.0270      -256.4252      -216.9661
      -221.0103      -117.3579       9.144592      -112.3241      -516.7225
      -342.0478       12.61423      -56.48160      -10.83264      -76.96704
      -195.3510      -215.2208      -15.90715       132.5960      -141.2765
      -250.4583      -23.29457      -17.80421      -23.30801       165.6570
      -46.11224      -31.24286       167.0599      -135.7664       112.7808
       427.2921       138.4989       91.65894      -55.59677      -6.824219
       386.8703       181.1217       252.8008       340.7283       194.4315
       468.8142       208.9391      -6.386078       174.6195       148.5668
       420.8618       500.5399       267.2454       129.8967       237.2377
       537.7285       434.7096       286.1540       161.1841      -19.25195
       668.6045       1020.958       205.2559       56.86865       493.3955
       889.3372       679.1943       8.121460       181.8119       391.3508
       536.5498       620.6265       248.7856      -261.4227      -210.0024
       219.0701       263.3066       960.7793       2352.190       2280.047
       1290.596       1371.747       1386.969       554.0280      -206.4990
      -1093.813      -2232.976      -2815.535      -1291.492       2245.925
       2914.844       1270.822       1957.849       1106.939      -2158.541
      -2397.776       434.4705       1279.053      -745.4453      -1663.756
       620.9072       3350.914       2915.085       155.0156      -2079.944
      -838.1736       1406.993      -661.9583      -2141.443       1011.639
       2083.993      -526.4839      -2292.340      -429.2070       1821.160
       622.1587       805.0466       957.3413      -980.8927      -525.8499
       63.79858      -898.3088      -312.7192       1164.861       315.8564
      -2369.979      -2775.187       922.3374       2509.031      -95.07959
      -1236.279      -25.10107       1293.088       107.4573      -1218.898
       202.5982       529.8995      -245.5326       139.6726      -411.9512
      -1685.304      -990.7847       725.6198       787.9951       113.2213
      -671.7793      -549.6113       508.5317      -1018.991      -2082.720
      -41.56445       1513.203       993.8311      -1554.456      -2218.625
      -63.80859       424.9021      -221.4663      -474.4855      -466.8144
       34.31604       16.31946      -424.5475      -290.9075      -449.2610
      -1308.977      -781.6656       770.0308      -29.77783      -1244.262
      -69.06329       83.00928      -785.7357       304.5239       55.65234
      -1632.920      -233.8060       708.7534      -1276.184      -1043.019
       972.5903      -368.7925      -1991.796      -240.7026       726.1224
       387.0028       203.6084      -633.7561      -911.2100      -256.3033
      -2.309570      -450.2439      -1090.264      -654.3787       808.7604
       918.1412      -209.0112      -905.8315      -782.3867      -94.68744
       333.2390      -151.9399      -682.6714      -136.4899      -250.9743
      -323.1385       101.9668      -584.2339      -616.8141      -472.6433
       48.70654       1134.024       222.1539      -890.2232      -133.5739
       334.6881      -505.3528      -78.09296       243.3379      -726.9822
      -81.76855       705.8556      -106.4690      -244.4508       378.5085
      -410.8584      -732.2706       498.5348       384.1635      -468.0903
      -439.1021      -151.8102       249.8815      -33.59463      -34.09947
       153.6909      -114.5867       136.7220       397.4707       575.1433
       245.2590      -482.4636      -682.3347       670.2584       1025.605
      -585.1238       4.042999       269.2009      -489.5830       303.0286
       584.9993       167.9147       587.9664       815.2411      -287.4813
      -338.9036      -126.4618      -61.40918       1460.921       1220.526
       218.0529       342.8752      -445.2496      -920.6667       639.9967
       733.9478      -604.4065       898.6797       1543.726      -168.6703
      -142.9534       628.2010      -266.6824      -562.3623       821.7052
       942.0071      -191.2233       132.1079       881.1193       340.7596
      -81.99768      -261.0872      -389.5803       541.4336       1323.798
       596.4755      -70.40823      -188.7295      -17.00854       355.2559
       707.4458       674.3889      -241.1171       43.25433       441.9298
      -238.7510       327.2539       745.9998      -229.8204      -370.2244
       632.2642       206.8259      -333.8262       670.5688       718.6045
      0.9263916      -377.1122      -476.1094       56.51721       534.4263
       969.0524      -59.01807      -1142.530       927.9330       1230.303
      -703.7426    -0.03149414       245.7356      -579.4700       91.29846
       464.7821       804.6356       414.6746      -734.1187       37.81400
       259.4149      -343.1936       504.3262       697.7262      -516.2489
      -656.8020       589.0699       247.5616      -812.6754      -74.69037
       405.2045      -10.09863       160.0534       244.1816      -123.8494
       47.16565       34.78308      -463.1874       21.35669       910.2313
       531.3247      -798.0530      -573.4023       914.5092       258.7649
      -1174.689       45.83667       1084.524      -446.9132      -773.8902
       152.0797       191.7769       103.7825      -232.5909      -317.5465
       307.4360       360.3659      -12.43677      -276.6086      -806.4580
      -343.0714       466.5811       85.39923      -44.15820       487.8468
       509.6523      -454.1143      -850.6780      -199.8351       492.4038
       340.4968       68.82623       459.5291      -775.4797      -1300.913
       546.5920       841.7028      -376.0283      -771.8662       195.4885
       525.7217      -744.4053      -870.1479       376.8516       542.9475
      -64.82507      -210.5612       240.9338      -381.1606      -974.0248
       37.21057       610.3163       199.9937      -616.5727      -522.2874
       516.7100      -99.97742      -753.4589      -73.13910      -132.5006
      -331.3154      -64.95007      -251.3451      -725.5096      -289.6207
       109.4380      -191.0280       205.8437       466.0546      -146.1720
      -565.7836      -365.6134      -257.8769      -53.63083       191.5984
      -576.3799      -663.1038       133.5964       235.4499       199.5227
      -555.4690      -1171.240      -69.65198       838.7144       57.79834
      -920.0404      -177.3096       375.1833      -766.0002      -439.8592
       179.9808      -230.0076      -120.3969      -82.24084       434.6788
      -54.77466      -1025.336      -58.36179       120.1951      -753.6642
      -261.5469       445.1841       324.0298       355.1302      -99.02844
      -597.0239      -67.07977       216.4081       204.7652       362.2692
       146.2017      -390.7747      -440.6671       219.0161       369.0071
      -391.1609      -578.8635       46.90103       171.7863       89.60193
