     0.02500000      -4013.621       3501.166      -12345.00      -12345.00
      -30.00001       224.6000      -25.65000      -12345.00      -12345.00
       0.000000       18.82000      -12345.00      -12345.00      -12345.00
      -12345.00      -12345.00      -12345.00      -12345.00      -12345.00
      -12345.00      -12345.00      -12345.00      -12345.00      -12345.00
      -12345.00      -12345.00      -12345.00      -12345.00      -12345.00
      -12345.00      -30.81820      -66.60730       966.0000       0.000000
      -31.37200      -68.11800       0.000000       97800.00       0.000000
      -12345.00      -12345.00      -12345.00      -12345.00      -12345.00
      -12345.00      -12345.00      -12345.00      -12345.00      -12345.00
       156.6662       67.31586       246.5394       1.408603      -12345.00
      -12345.00     -0.2674345       90.00000       90.00000      -12345.00
      -12345.00      -12345.00      -12345.00      -12345.00      -12345.00
      -12345.00      -12345.00      -12345.00      -12345.00      -12345.00
      2008       244         6        45        31
        50         6    -12345    -12345     10185
    -12345    -12345    -12345    -12345    -12345
         1         7        13    -12345    -12345
    -12345    -12345    -12345    -12345    -12345
    -12345    -12345    -12345    -12345    -12345
    -12345    -12345    -12345    -12345    -12345
         1         1         1         1         1
MALA    -12345          
        -12345  -12345  
-12345  -12345  -12345  
-12345  -12345  -12345  
-12345  -12345  -12345  
-12345  -12345  -12345  
-12345  -12345  BHE     
ZL      -12345  -12345  
[...]
      -259.9592      -249.5396      -257.4839      -256.3402      -255.4532
      -254.1012      -266.1890      -261.3555      -261.3112      -258.6213
      -270.3479      -266.3345      -261.3071      -262.4280      -264.1996
      -266.9911      -271.2017      -264.7639      -271.5569      -265.3998
      -272.1395      -268.8154      -265.6954      -268.0923      -267.0151
      -267.6432      -270.7416      -259.5270      -267.1511      -262.1603
      -258.6749      -251.3023      -251.5494      -244.0710      -243.0901
      -241.7716      -234.0861      -227.5489      -224.4528      -208.2415
      -215.8916      -201.3001      -196.7892      -195.0895      -183.7178
      -170.5430      -166.4251      -84.45331       49.16875       51.60718
      -182.9315      -278.8660      -171.4723      -215.9336      -277.0428
      -182.4459      -113.7406       51.04398       174.3019      -43.80246
      -134.7086      -35.55144      -50.36926       147.9535       235.8973
       80.98134       1.386734      -57.08222       31.84702      -13.14740
      -20.44257       425.2133       151.1345      -314.3769       65.30493
       448.7373       341.8662      -82.00887      -63.25403       354.4818
       453.7938       209.6395       15.57465       192.3490       222.0890
       221.0703       328.6667       289.7309       242.9980       371.6113
       564.6086       225.5487      -160.4895       431.0891       711.1478
       161.6268       159.9087       361.9004       522.3324       556.8916
       232.4751       267.2593       342.5985       415.7863       489.4191
       406.0959       619.2740       619.0045       202.8545       161.7341
       543.2664       677.4723       468.6926       303.9913       100.7687
       536.5288       703.8526       120.2080       500.8998       507.2681
       113.5208       653.4541       612.8497       211.0828       347.3070
       548.0409       312.4396       224.3325       507.3640       320.1367
       258.9801       402.9871       321.8641       377.7572       335.8789
       273.0082       394.2216       287.8534       36.05688       28.95959
       352.7415       457.1064       75.06555       205.4897       338.3322
      -13.08984       54.42813       171.9170       96.31836       242.6750
       105.1645      -18.69064       120.3257       150.8743      -112.6134
      -29.00348       248.8374      -171.8774      -211.6652       106.9096
       86.82962      -68.22369      -334.9590      -74.25790       175.2184
      -108.6397      -264.1523      -134.3478      -156.0271      -212.5396
      -142.3877      -129.2499      -65.04492      -155.7299      -343.5010
      -422.3516      -51.04962      -39.71863      -561.6171      -275.5184
      -11.34418      -137.2121      -102.9661      -220.4672      -404.5031
      -266.0148      -248.3689      -294.4344      -64.73755      -144.3823
      -288.6046      -288.3321      -279.2791      -243.9009      -206.2643
      -205.3322      -370.6584      -235.2772      -176.7429      -223.0130
      -84.63629      -207.3415      -305.3584      -107.9604      -21.46954
      -317.3842      -273.4513      -66.17065      -332.4768      -308.3085
       58.37085      -23.28674      -276.2078      -143.7445      -122.0986
      -261.2825      -202.7230      -133.1101      -49.21021      -102.7480
      -269.2594      -124.7588       78.51727      -163.4564      -305.5841
      -91.88960      0.3895874      -32.59644      -193.2605      -281.4721
      -97.33879       74.26691      -164.8509      -311.4296       28.18889
       138.3764      -135.4199      -194.9847      -33.36768      -57.79272
      -217.6299      -106.2945       102.9266      -64.24280      -215.9372
      -125.3822      -10.13374       52.25319      -64.68001      -26.56106
       23.61432       3.684532      -4.876480      -68.09618       3.843887
      -71.59946      -111.1792       113.3555       69.88721      -120.0848
      -33.80891       70.98604       49.85125       92.93875      -59.18295
      -44.96222       209.0966       193.8538      -105.3215      -163.9856
       104.5532       179.2263       34.45473       34.53302      -16.44238
      -45.48547       197.3494       160.6738      -167.3351       33.55804
       240.3287      -177.9046      -193.5491       355.7169       387.3102
      -194.8608      -305.5060       137.7995       193.2938       27.99603
       28.59912      -152.0032      -85.11441       157.5605       5.774094
       4.716446       84.07990      -169.9427      -165.0071       280.5631
       47.98407      -245.9542       83.37585      -38.97409      -205.2086
      -11.92537      -16.29978       2.178299       21.87030      -229.3159
      -83.58577       85.43253      -217.2705      -75.17848      -11.18010
      -164.2387       72.46887      -13.54614      -275.6620      -147.1786
       97.51022      -52.35669      -251.5551      -59.44667       43.96841
      -80.46838      -106.1322      -76.66199      -128.2977      -61.86731
       49.17456      -183.9705      -191.6115       162.7736      -96.64294
      -272.6146       87.12891       70.85881      -91.76631       17.25355
       34.20721      -126.0747      -47.97845      -10.74704      -121.9442
       85.04489       9.543823      -179.3610       152.9664      -3.090286
      -142.3587       197.5140      -1.467941      -78.70111       256.2811
       149.3982      -83.75311      -67.11359      -36.18347       141.5691
       191.1927      -10.36249       108.3000       161.2490       61.11981
       112.9310       76.87079       21.86621       232.9551       233.2578
      -11.24181      -9.987122       173.2918       280.7382       235.2380
       44.44702       172.9728       201.7921       151.2369       228.1584
       156.1592       133.1963       71.00143       146.4419       177.6427
       233.2937       389.3501       147.0805      -80.09738       17.58997
       311.8724       385.8693       34.74459      -93.19501       116.0262
       373.9406       336.7468       26.24417       23.05328       241.3560
       153.8797       37.02826       161.5365       138.0581       135.8633
       134.9136       177.9974       168.0470      -54.95471       37.29398
       193.7317      -23.71484       134.1356       276.4434      -33.19963
       6.486816       200.1344       89.43913      -43.57773       43.57364
       83.21596       46.21300       13.80455       58.00027       58.74968
       78.52332       48.06143      -171.9832      -10.17310       62.25034
       1.275116      -21.52380      -195.8698      -60.51529       117.4181
       19.19780      -35.28707       13.62598      -109.4765      -203.1950
       48.40041       57.79535      -240.9568      -104.6068       27.14545
      -119.4383       4.294090       63.51291      -56.28268      -131.8983
      -159.7202      -104.8424       27.74628       58.10846      -175.7321
      -167.6925       107.8967       2.218597      -208.6092      -75.14822
      -145.6575       94.11185       233.9181      -336.5202      -96.04315
       246.1070       44.42014      -99.06747      -108.6555       103.0088
       12.12714      -204.5462       94.83948       206.6100      -56.26652
      -7.533188       99.63004       20.98911      -66.35834       45.37509
       191.6869       22.86559      -44.77249       10.77020       131.5239
       261.7983       77.38512       9.953308      -65.73755       70.38275
       422.3503      -3.988159      -239.2660       285.5977       365.8239
       36.69881      -98.29395       104.5779       174.7304       125.1862
       187.4969      -39.72498       217.8235       428.4503      -54.68292
      -22.81604       305.6757       68.50581      -86.23364       301.5687
       319.2721      -177.0956      -39.29340       343.1772      -3.339935
      -183.9992       125.1576       122.3860      -62.23553       177.5000
       172.7677       4.052704       206.3803      -18.87781      -255.9269
       90.69366       104.4491      -122.2810      -145.2956       31.79390
       115.9671      -274.9845      -148.2369       271.7858      -81.63351
      -185.1309       31.51111      -215.2127      -148.4183      -14.99878
      -325.7200      -60.54279       174.4069      -276.8927      -348.2070
      -115.9151      -120.7897      -190.6476      -257.4568      -319.5858
      -179.6449       60.26501      -185.5072      -503.5589      -230.0700
      -35.04053      -346.4731      -263.0494      -186.9558      -499.3860
      -163.6171       121.1537      -327.1077      -511.5208      -317.8672
      -262.7786      -220.0083      -166.1056      -385.9355      -311.2680
      -69.48657      -274.1636      -399.5546      -233.1569      -123.6608
      -152.2844      -213.0178      -289.3912      -342.0993      -234.0312
      -185.1350      -337.3010      -448.4578      -222.5802       143.2167
      -112.1624      -532.3871      -285.1154      -60.93549      -180.9814
      -397.3121      -345.6058       114.9972      -88.43335      -526.8052
      -182.8824       33.29321      -158.5298      -346.4817      -184.9657
       46.76709      -255.7462      -288.6547       44.55652      -68.54926
      -230.9530      -149.9910       81.74664       5.416504      -277.9847
      -85.15240      -147.4472      -123.6924       235.7678      -31.73572
      -230.1452      -94.65796       316.4062       222.9170      -290.6312
       64.12183       233.1300      -30.35611      -34.41020      -69.79352
       136.4539       220.3928       23.68323       171.2471       177.6269
       207.4553       193.2571       114.0887       121.2184      -105.0898
       382.7471       650.2415      -16.13586       142.6302       420.2051
       62.71753       137.1178       414.2877       412.7406       265.5522
       162.5250       199.7998       419.6917       526.5851       303.1294
       153.3185       170.1690       242.3333       447.6823       386.6470
       294.2376       413.5997       51.19922       94.28906       712.9143
       569.6968      -26.65247       132.3206       541.0966       312.1740
       261.6354       300.1350       173.7981       332.0422       304.1021
       180.0544       566.6825       345.5840      -135.8634       244.1345
       493.1250       161.7086       85.46606       289.5861       290.5427
       271.5557       272.0713      -47.08865       6.403015       335.3688
      -22.59564       81.83789       338.9451       10.13879       132.7216
       255.5993      -41.82751       4.366943       319.4725       47.82541
      -239.2091       225.0992       421.6560      -149.4073      -377.3995
       389.0880       271.3993      -408.7585       70.66241       238.1168
      -87.34718       1.752167      -45.77789      -145.5145      -13.89561
      -75.46106       95.79053       113.8177      -262.0575      -145.6192
      -73.24496       15.49629       51.32104      -210.0484      -84.86547
       55.26468      -100.1062      -228.1953      -237.3000      -96.60460
       11.40167      -90.82928      -224.1943      -145.8040      -49.39450
      -27.04364      -175.9552      -337.1437      -74.76349       195.3069
      -294.4261      -526.7590       187.1785       373.0083      -481.3245
      -665.0042       13.38051       117.5621      -190.8032      -390.3038
      -209.9502       243.4982      -164.8563      -611.3288      -87.66895
       232.5399      -104.9655      -469.3448      -279.9694       179.7167
       61.56512      -392.1422      -216.4662       105.7428      -63.28125
      -261.5752      -139.3016       116.4931       12.00952      -257.3907
      -185.9664       78.23148      -30.04419      -227.6653      -29.09491
      -4.930237      -217.3300      -79.85606      -56.14212      -109.3284
      -53.74217      -59.52728      -34.25864      -79.78029      -66.17358
       46.98000       181.9741      -135.5578      -269.0754       107.9207
      -67.33698      -203.2736       49.34810       86.93231      -108.6157
      -236.2974       253.5173       437.3488      -449.2733      -510.8045
      -18.29998       36.76147       11.67407      -361.1436       144.1792
       1056.156       782.1521       633.5264       676.5966       374.7908
      -364.7916      -573.9047       477.5796      -1096.050      -3099.611
      -449.5015       1748.743       1406.007       874.6837      -312.3667
      -1164.979      -1964.823      -622.0352       2000.828      -32.78137
      -666.3049       875.8325      -2375.091      -1110.573       3260.808
       232.8555      -2153.724      -1321.202       26.30957       1905.274
      -185.5122      -2637.428      -1106.961       622.0273       1929.700
       1097.143      -1915.116      -17.51514       2098.171       1561.399
       380.0312      -4013.621      -1572.562       3501.166      -1183.500
      -2884.770       752.8240       387.3324       346.8292       686.8962
       506.4250       650.1321      -827.2805      -1188.855      -814.7201
      -155.2256       1458.273       1193.531      -99.35095      -912.4730
       4.584717       1574.641       197.0000      -1890.877      -1007.069
       681.3777       704.7815       64.19275      -479.4229      -129.9852
      -542.8782      -175.5635       1649.112       2104.990       690.2751
      -1856.383      -369.3557       1132.370      -1214.336       225.2732
       1552.532      -938.4311      -347.2184       960.5702      -669.0906
      -246.4902       1610.856       29.31934      -322.3439       1056.419
      -559.5288      -353.3095       681.1593      -693.5311      -438.0538
       325.4843       292.9681       517.9255       92.67657      -93.36206
       764.1133       1075.725      -130.8435      -1050.324      -186.3730
       1001.292       777.7451      -113.3530      -645.9092      -542.3057
       627.2778       1285.165      -27.53821      -594.7656       136.4410
       59.15479       496.0687       667.7445      -112.9609       142.9574
       584.3485       274.6449       249.8213      -685.1225      -757.4963
       816.2068       229.9729      -652.5475      -305.2756       142.7212
       237.5135      -384.5062      -55.81909       1090.937       594.5552
      -1039.375      -548.7524       949.0777       78.23169       104.2722
       773.4592      -977.1932      -83.92065       1373.360      -911.4841
      -967.5931       769.2876       462.2047       312.9390      -284.2551
      -963.3730       169.5289       874.0497       275.9716      -118.5918
      -362.3148      -426.1049       280.0950       1025.874       322.8821
      -788.1747      -517.0878       327.0825       835.8248       518.5120
       162.4521      -617.3630      -1074.807      -595.8489      -579.2379
       125.9573       310.9887      -393.5707      -96.21774       169.2523
       99.82288       734.3942       493.3528      -1212.108      -1185.673
       683.0190       612.6982      -855.3496      -613.6277      -8.682373
       299.3773       548.5272      -718.7886      -537.4543       291.9674
      -484.2075      -481.6417      -191.6155       362.2545       306.8300
      -712.1538      -604.8687      -325.4367      -389.6662       126.7665
      -28.08325      -978.4362      -597.1370       712.8920       610.5616
      -425.3372      -368.8285      -340.6255      -345.6171       183.8306
      -242.0752      -524.7311      -512.1523      -128.2697       128.6769
       69.53253       446.4336      -665.9934      -1075.400       279.7252
       411.3761      -425.1110      -398.5411      -44.99548      -622.0681
      -284.8760       459.5815      -144.8064      -336.2274      -37.97055
       128.1523      -129.9357      -293.5632       35.96335       24.00476
       25.92285      -767.3241      -724.0779       636.0658       10.21326
      -656.2972       146.9857      -199.6772      -369.3972       511.0501
       485.6123      -53.57721      -195.6833       25.78000      -197.3632
       185.0488       759.4768      -358.1864      -449.6697       401.8646
      -281.1600      -266.2948       911.1950       201.1569      -794.2455
       14.70496       291.4719       307.8171       310.7467      -405.2163
       220.9458       1054.358       5.448486      -557.0653       195.9987
       505.1747       219.3172       156.2593       118.8936      -51.82251
       288.1892       665.0206       125.2386      -331.2283       430.3089
       391.1645      -12.40503       810.3016       474.7021      -406.3058
      -119.4932       151.2261       330.5890       284.5125      -123.2994
       136.6504       901.8015       610.6881      -104.8091      -71.93634
       238.7206       589.0709       347.1915       204.2570       161.6067
      -137.2405       416.9849       277.5355      -167.6484       510.6576
       667.3503       12.01001      -243.4644       179.8138       478.4856
       566.2701       516.9036      -103.7066      -192.7864       1058.532
       775.8182      -890.1599       47.96704       1012.309      -314.4347
       268.3663       866.6678      -771.6403      -468.1030       992.2479
       311.0018      -628.7438       307.8599       272.7178      -573.3037
       460.9757       760.2224       27.28632      -298.6752       1.019043
       567.4877      -279.3974      -287.5474       372.4024      -211.9576
      -217.5223       200.5403      -142.0760      -151.2133       475.7336
       185.9783      -141.3956       110.8254       15.83765      -329.5935
      -373.6738       340.2947       498.8090      -244.1149      -256.5885
      -168.6236      -453.8445      -66.57056       234.5749      -350.6876
      -217.9628       573.2173      -64.23755      -1078.331      -82.46155
       718.7214      -288.1654      -851.3361      -132.3746       364.1874
      -248.9163       148.4589       85.13770      -975.0522      -328.0562
       360.6194       97.33569      -451.6954      -600.9573      -212.8148
      -95.64014      -378.3702      -309.4853       77.98407      -43.90247
      -612.2325      -568.8730       272.4527      -97.45178      -664.4328
       66.74146      -136.1550      -820.2705      -114.3447       249.7499
      -240.7831      -437.2047      -367.3934       68.41931      -182.0150
      -724.2502      -403.2543      -410.8087      -868.3442      -55.52460
