     0.02500000      -1656.846       1882.013      -12345.00      -12345.00
      -30.00001       224.6000      -25.65000      -12345.00      -12345.00
       0.000000       18.82000      -12345.00      -12345.00      -12345.00
      -12345.00      -12345.00      -12345.00      -12345.00      -12345.00
      -12345.00      -12345.00      -12345.00      -12345.00      -12345.00
      -12345.00      -12345.00      -12345.00      -12345.00      -12345.00
      -12345.00      -30.81820      -66.60730       966.0000       0.000000
      -31.37200      -68.11800       0.000000       97800.00       0.000000
      -12345.00      -12345.00      -12345.00      -12345.00      -12345.00
      -12345.00      -12345.00      -12345.00      -12345.00      -12345.00
       156.6662       67.31586       246.5394       1.408603      -12345.00
      -12345.00     0.02245720       0.000000       0.000000      -12345.00
      -12345.00      -12345.00      -12345.00      -12345.00      -12345.00
      -12345.00      -12345.00      -12345.00      -12345.00      -12345.00
      2008       244         6        45        31
        50         6    -12345    -12345     10185
    -12345    -12345    -12345    -12345    -12345
         1         7        13    -12345    -12345
    -12345    -12345    -12345    -12345    -12345
    -12345    -12345    -12345    -12345    -12345
    -12345    -12345    -12345    -12345    -12345
         1         1         1         1         1
MALA    -12345          
        -12345  -12345  
-12345  -12345  -12345  
-12345  -12345  -12345  
-12345  -12345  -12345  
-12345  -12345  -12345  
-12345  -12345  BHZ     
ZL      -12345  -12345  
[...]
      -191.6373      -187.7726      -187.0021      -187.8220      -186.0947
      -180.6113      -181.8449      -184.5394      -182.6456      -179.3575
      -180.0476      -171.4061      -172.0647      -166.2942      -164.6071
      -155.8445      -151.1535      -148.6356      -146.5198      -144.0265
      -138.9224      -129.8641      -129.2138      -123.4300      -114.4734
      -105.4278      -105.3485      -96.22421      -93.49330      -86.30557
      -75.03226      -73.55875      -67.03226      -53.58974      -55.56664
      -44.20297      -40.42218      -26.21326      -22.45158      -21.51692
      -7.772372      -4.462091       1.401543       9.535431       16.77378
       21.37134       24.84801       36.78612       39.37085       45.35257
       53.18428       64.38730       67.97760       75.68335       86.50970
       92.37347       118.8606       340.3350       584.7274       290.3080
      -212.0290      -180.0117      -173.0043      -368.8707      -25.53479
       251.6365       244.4207       525.5197       626.6281       320.2666
       25.70044      -343.6131       80.70447       744.4197       378.4726
       199.5503      -55.09265       52.14386       310.3193       54.39575
       439.4102       210.5333      -81.17810       296.7874       365.4476
       412.6426       21.41585       53.34741       149.6885       237.4400
       448.0523       31.53687       365.2093       274.8717       279.5979
       404.5128      -228.0188       361.9233       415.9775       560.2491
       622.9510      -493.5256      -197.6329       334.5152       170.8576
       395.8326       203.8174       161.5203       690.7353       132.8639
       71.06873       205.7449      -46.10419       323.6333       141.1799
       171.9796       311.6760       127.7640      -78.12714       239.7142
       270.4962       47.35779       556.9674      -50.89404       31.10400
       562.9124      -498.8708       52.52661       370.1323      -85.52417
       386.1238       177.9619       51.25772      -138.4486       121.3445
       244.4998      -241.3794       213.9543       221.7192      -38.54691
       150.0511      -107.2905      -76.57460       14.58798       133.7622
       65.20483       117.5768       229.4347      -330.3063      -109.6722
       120.7420      -111.5291       83.94386       111.3197      -151.4895
      -94.68246      -10.53181      -35.42228      -54.87662       59.31911
       55.07690      -245.8753       4.680187       30.99136      -120.2408
       97.16235      -262.0233      -324.3517      -105.7724       12.98193
      -68.22748      -309.0159      -52.04861      -29.66095       32.66724
      -306.9223      -295.2951       80.30969      -310.2365      -361.2961
      -30.73990      -20.19305      -297.9317      -114.1689      -204.3257
      -197.9280      -124.6232      -482.7575      -194.2438       102.1378
      -108.0546      -166.7505      -278.1193      -503.1860      -223.7421
      -223.9429      -313.5379      -44.05597      -148.8933      -340.8011
      -152.6580      -168.3975      -505.2510      -251.1307      -208.5113
      -285.7109      -140.3929      -320.7994      -302.3499      -151.8788
      -170.6560      -148.8260      -282.3632      -235.5952      -390.9795
      -297.6151       152.1682      -551.7148      -441.4579      -132.7517
      -103.9010       12.42322      -243.9434       38.48486      -285.5165
      -359.5005      -180.6218      -277.0298      -157.7687      -203.5809
      -156.0438      -62.72467      -123.3853      -247.9269      -125.8134
       94.36365      -127.9514      -389.1951      -248.5993      -9.205452
       39.36423      -115.8128      -138.3690      -203.4595      -102.6091
       94.53694      -53.81332      -118.8493      -16.12570      -149.4446
      -190.5234       253.9932       35.83844      -286.6723      -169.2769
      -25.29727       224.5072       26.41675      -44.09111       57.77572
      -26.23401       100.0233       145.3108       32.65345      -38.79362
      -21.11197       84.27869       99.84129       123.6750       2.773132
       51.96277       297.9443       188.5601       80.50665       128.9331
       6.644348       158.7722       423.7879       170.7206      -169.4476
       55.42480       422.9257       77.64804       132.3831       220.8617
       174.6202       397.6995       113.5472       429.4243       296.2687
      -264.6085       96.44666       428.8833       546.4786       357.5756
      -22.14615      -8.960938       419.7903       227.0283       101.4165
       472.1796       83.53223       107.7610       459.8321       218.4453
       171.3027       182.3990       145.3116       311.3419       577.5026
       193.6088       186.2528       571.7027       2.651733       10.05408
       282.1562       309.5557       327.8102       169.5808       201.0450
       304.1740       228.4711       153.8958       295.2257       236.5093
       291.8523       248.5677       246.8288       182.8779       122.6332
       373.5664       180.2774       47.02319       274.8757       361.2864
       170.0795       337.4838       215.3751      -93.79431       256.2475
       60.70959       63.30121       402.6214       216.7284       143.5211
       81.51770       153.5791       265.6233       211.7918       166.9712
      -35.08212      -1.892731       178.0343       99.12390       94.15326
       247.9322      -46.21576       75.92120       157.5932      -57.81226
       248.5683       78.87515      -41.00360       153.8124       93.81949
      -130.4381      -4.653427       121.9423      -139.2125       47.91704
      -71.52972       33.88470       236.7380       118.4798      -98.34601
      -261.9552      -24.28476      -276.5914       180.0877       283.8468
      -204.5900      -258.5621      -94.97491       272.6379      -113.4561
      -175.5166      -133.9627      -284.3526       13.32124       63.80670
      -54.48364      -158.2549      -240.6630      -77.85840      -79.05951
      -122.0529      -99.13428      -156.0923      -227.7548      -139.3707
      -195.6683      -273.3319      -241.8833      -305.2307      -27.46086
       108.1313      -295.0374      -309.4221      -91.26660      -210.8325
      -95.91296      -340.6411      -454.4575      -129.7768      -111.6655
      -181.2217      -53.35938      -215.1512      -628.4215      -302.1899
      -299.3023      -126.2574      -17.30542      -305.3075      -167.6531
      -280.7429      -260.7309      -273.5521      -133.6558      -162.8020
      -451.9141      -323.5020      -229.6925      -123.8676      -207.7200
      -313.9824      -283.7469      -216.5557      -200.2642      -332.1659
      -369.0850      -472.1457      -133.3402      -129.1074      -282.5709
      -106.6667      -314.4174      -274.9852      -85.22998      -388.8444
      -464.2737      -67.13318      -260.4587      -269.5836      -37.95825
      -195.5644      -377.1229      -241.1917      -113.3412      -75.92578
      -265.3629      -603.6936      -46.04541       55.42480      -495.5639
      -257.6225       169.7881      -317.1733      -294.5195      -97.17732
      -222.9933       201.2097      -339.3758      -371.4290       28.05231
      -218.4147       85.54968      -203.1973      -198.3897     -0.6945190
      -185.1368      -60.25916      -41.33282       23.30606      -136.4822
      -33.66904      -35.06256      -307.8814      -15.04678       58.94586
       136.6733       81.65311      -180.6098      -90.35783      -29.44574
       115.9668       9.091705      -39.63907      -67.60295       26.27386
       192.9817       214.9630       277.4338      -153.1278       17.58104
       13.49725       91.76273       301.8506      -103.1647      -4.996948
       149.5776       308.7465       163.9307       80.18188       211.3455
       299.0727       271.5140      -112.7318       107.2047       242.0173
       177.0068       245.1401       170.1740       96.35606       31.88812
       48.70581       344.8115       391.3220      -53.07007       406.9539
       567.8937       184.0848       127.9634       39.94098       111.6399
      0.5676270       327.6027       410.4252       283.8563       249.5645
       51.26114      -49.97009       271.7195       521.2878       403.9459
       565.8784       78.33435      -3.072144       265.3605       38.46606
       358.7854       544.7420       35.14624       270.7723       651.1390
      -1.274353       195.8344       255.1151       225.6487       489.5707
       256.2931       227.9744       201.4830       188.6899       281.6897
       441.2794       152.2358       236.0735       108.7558       95.58398
       672.0295       252.7329       137.2663       188.2367       188.2698
       272.6907       90.92749       297.1494       515.0980       153.6192
      -77.35034       366.6942       240.3352       261.8069       205.0040
       112.2407       578.1592       249.4589       14.47556       88.41748
       230.2558       85.06540     -0.7083130       200.8903       194.4664
       156.8203      -23.50159       336.3727       261.4915      -133.4920
       76.85150       156.2479       244.2433      -80.33316       96.52441
       147.4075      -153.9067       266.5072       144.2630       107.1156
       11.39438      -112.1828      -28.27991       111.6247       49.20589
      -125.7856       255.5104      -161.5601      -429.2924       125.2334
       209.3600      -236.5082       70.06598       27.27372      -74.27690
       114.7155      -275.5691       237.4855      -66.79544      -170.5181
      -140.9974      -347.1227       112.7170      -299.9631      -83.13031
      -207.4977      -229.8591       76.82062      -448.8013      -124.1725
       141.1327      -3.723633      -145.9395      -656.3987      -473.1289
      -102.4482       181.1437      -40.42517      -593.9708      -169.0834
      -313.5624      -184.4222       129.8175      -275.4646      -537.7025
      -810.2694      -155.9308       103.4874      -154.3229      -452.5636
      -518.7134      -196.1720      -270.9017      -290.6379      -309.7290
      -346.8167      -603.1954      -476.2638      -49.15802      -174.9374
      -329.0216      -529.2819      -569.5560      -46.91083      -232.1758
      -552.3623      -302.2937      -439.7180      -302.7787      -117.9524
      -342.0547      -617.0112      -485.7582      -107.4714      -31.82104
      -329.3096      -682.9104      -339.2294      -234.4189      -175.7665
      -143.8018      -545.8868      -352.8292      -169.3165      -243.9849
      -226.0411      -275.9173      -419.6043      -35.87372      -169.4622
      -492.2332      -219.5044      -371.2458      -106.1656      -230.1262
      -378.8337       113.1751      -8.588135      -435.4987      -241.4281
      -127.0534      -454.8372      -96.76625      -62.36899       43.31409
      -34.66174      -301.6626      -188.6143      -205.0823      -153.0956
      -212.7656      -10.05255      -199.5570      -86.59676       57.01422
      -76.33127       69.34076      -173.8757      -145.6995      -30.09445
       16.59924      -137.7363      -71.58122       8.747726      -148.1678
       214.1421       46.75359      -118.4271       127.7034       123.2850
       43.78912       34.00487       29.07151      -11.67749       151.1897
      -89.37201       266.8340       435.7407      -174.6377      -23.07379
       222.7545       292.7623       286.4214       5.996826       15.43414
       314.5090      -77.99652       228.6862       536.8197       164.2935
       333.2112       80.81873       215.2439       545.4277       300.4295
       25.75110       237.8753       444.0688       98.80249       417.8470
       499.7397       155.9646       365.8329       354.3687       262.8237
       402.1469       323.2258       364.0394       487.9816       417.3046
       149.5607       254.8420       456.1478       224.7805       578.7903
       598.9719       107.8419       328.2236       496.0770       328.9772
       437.0315       470.7508       196.9670       411.3387       415.4099
       132.1689       531.2605       452.7455       274.6283       383.4941
       353.4663       525.4879       97.98947      -48.42114       261.0891
       427.9659       350.6936       302.5525       951.8225       526.2512
      -1.877235       106.8572      -120.4800       235.9390       309.1030
      -22.62854      -23.85278       593.9049       674.8206      -22.32843
       27.51138       150.9107      -50.94894      -155.0023       129.5298
       324.6538       868.4530       627.2612      -754.0542      -374.8088
      -239.0103       493.1394       1466.872      -684.9373      -1024.491
       554.0955       224.6543      -199.8315      -687.5712      -758.9326
       1495.755       1882.013      -782.3335      -1656.846      -261.0508
       1458.724       1085.040      -1207.349      -1133.891      -122.3384
      -813.2006      -674.8892      -640.1892       245.8977       1653.573
      -270.1857      -354.0500       1629.804       559.6538      -800.2942
      -1064.258      -256.9626       220.7554      -1040.585      -767.6701
      -293.4080      -10.45972       88.63794      -681.6409      -397.8906
      -630.1263      -429.3171       396.4838       172.9764      -161.8033
       189.1738      -259.6534      -768.5357      -203.9731      -163.3045
      -410.7821      -143.7941      -513.1217      -701.9552       183.0383
      -94.39099      -603.9219       68.73389      -262.9824      -541.5424
       364.8646      -410.4409      -1065.159       833.9871       27.36133
      -1617.368      -145.8649       416.2931       130.3201      -1154.027
      -1318.872      -9.065186       222.1147       144.9689      -240.1826
      -50.90536       91.06812      -265.8656      -316.2981       1069.276
       285.5017      -1215.880      -46.62146      -454.0471      -1028.950
       234.7861       323.1750      -817.8257      -49.25705       246.8998
      -674.4616       179.3115       570.9869       119.5854      -84.30322
      -816.9552      -729.3701       46.19043       197.5767       364.9686
       470.5911       79.70001      -472.8215      -6.982697       137.3032
      -411.3492      -120.0148      -195.6544       208.6773       307.4659
      -643.4297      -370.6465       98.81590       21.95380      -284.3794
      -67.78064       440.2837       610.5741       7.475830      -574.5098
       342.2834       891.4781      -31.79895      -409.2923       294.1201
      -268.5899       102.7485       196.5034      -505.0571       666.0831
       209.9919      -301.9755      -178.2017       248.5922       757.6487
      -108.4312      -60.64670       2.589417       319.4313       261.4860
      -478.7511       113.8207       371.1021       94.90857       335.6564
       439.4445      -126.3910      -296.8733       323.2739       552.6772
       311.2108       87.48370      -262.6925       116.6772       289.2221
      -342.2950      -50.57410       384.2886       156.1886       181.1420
       232.1526      -515.2996       317.9111       1159.690      -229.2720
      -461.4196       161.3710       305.6869       217.8300       355.6520
       201.2017       185.5601      -95.88965      -742.3295       438.3062
       823.9135       667.1724       398.6279      -731.3743       45.37219
       150.6933      -359.3936       296.4805       390.4622       487.2065
       24.58606      -99.64264       507.9521       5.042786      -362.7921
       3.612488       180.4546       256.6959      -21.97061      -146.5938
       476.7885       452.7576       131.8593       82.22504      -179.0140
      -93.30351       11.61649       59.73438       291.4693       375.2388
      -224.6903      -605.7668       392.2278       409.7296      -342.9944
      -193.1121      -2.756775       427.1989       38.03641      -204.5182
      -38.67108       13.00903       291.8505       136.2389       49.60712
      -40.55129       99.16522      -118.8428      -319.4894       106.7184
       231.1256       244.0422       10.25757      -298.9172      -91.37366
      -400.3127      -247.4180       960.0609       299.0033      -657.3205
      -284.1190       31.94421       363.6123       305.2000      -259.0109
      -402.5751       157.3728       11.14777      -192.2792       54.84290
      -413.9080      -226.6612       230.9835      -131.4505      -78.96027
       58.47893      -15.92343      -124.0338      -193.9493       21.00305
      -250.2224      -343.4878       455.9181       6.340546      -356.9320
       497.1119      -162.2068      -439.2029       174.3576      -166.2805
      -194.1555      -97.76428      -345.4711       284.7782      -133.6824
      -714.8564       288.0079       132.5666      -48.64099      -129.1515
      -211.4500      -23.07730      -73.13971      -122.9346      -99.77771
       394.3354      -216.1700       28.11505       358.0078      -660.6389
       23.85138       494.6616      -135.1903      -135.9162      -38.26154
      -294.1539      -160.4500       6.020615      -51.41479       314.9943
      -31.29657      -369.8671      -245.0032      -203.0065       298.4297
      -41.20447      -490.5920       264.6593       215.0499      -268.0757
       281.3561      -114.7128      -300.0259       316.0873      -385.1092
      -441.3724       193.7692      -266.4616      -185.1390       412.7522
      -159.8136       3.917358       348.2371      -51.81903       301.0900
       220.6169      -37.31781      -222.1069      -236.3421       288.3183
       141.9748      -54.58237      -134.5207      -167.1631       118.3634
      -17.28998      -289.4134       6.869263       339.6734       5.466034
      -196.1641      -62.91522       65.00848       321.4822      0.2628174
      -542.4980       90.35574       83.90100      -407.2905       156.1034
      -6.958160      -164.8604       384.1750       198.8352      -319.6882
       270.4486       147.9531      -622.6147       96.00739       218.7149
      -173.0276       41.02919      -69.75666       11.74750      -58.80167
      -182.3479       236.0999       128.5898      -364.6394      -348.6473
       79.35217      -114.7050      -73.61200       311.4104      -132.1613
      -95.28955       67.43408      -363.1617      -196.0261       199.6885
