     0.02500000      -3853.174       5760.103      -12345.00      -12345.00
      -30.00001       224.6000      -25.65000      -12345.00      -12345.00
       0.000000       18.82000      -12345.00      -12345.00      -12345.00
      -12345.00      -12345.00      -12345.00      -12345.00      -12345.00
      -12345.00      -12345.00      -12345.00      -12345.00      -12345.00
      -12345.00      -12345.00      -12345.00      -12345.00      -12345.00
      -12345.00      -30.81820      -66.60730       966.0000       0.000000
      -31.37200      -68.11800       0.000000       97800.00       0.000000
      -12345.00      -12345.00      -12345.00      -12345.00      -12345.00
      -12345.00      -12345.00      -12345.00      -12345.00      -12345.00
       156.6662       67.31586       246.5394       1.408603      -12345.00
      -12345.00     -0.1763328       0.000000       90.00000      -12345.00
      -12345.00      -12345.00      -12345.00      -12345.00      -12345.00
      -12345.00      -12345.00      -12345.00      -12345.00      -12345.00
      2008       244         6        45        31
        50         6    -12345    -12345     10185
    -12345    -12345    -12345    -12345    -12345
         1         7        13    -12345    -12345
    -12345    -12345    -12345    -12345    -12345
    -12345    -12345    -12345    -12345    -12345
    -12345    -12345    -12345    -12345    -12345
         1         1         1         1         1
MALA    -12345          
        -12345  -12345  
-12345  -12345  -12345  
-12345  -12345  -12345  
-12345  -12345  -12345  
-12345  -12345  -12345  
-12345  -12345  BHN     
ZL      -12345  -12345  
[...]
       90.29547       91.76205       94.07416       91.69962       95.18365
       101.9193       99.24619       101.9791       98.26111       98.57794
       102.7414       98.86670       102.4198       102.5365       103.8824
       107.0829       102.1301       101.0324       105.3754       100.5674
       97.97067       105.5302       99.96469       97.35736       105.4165
       100.7349       97.40366       96.05255       94.20468       94.24701
       88.90503       82.20462       84.18373       81.84872       74.80493
       74.95557       71.97308       69.65829       70.83788       68.83162
       64.95462       61.64276       60.31754       60.48009       48.88850
       51.56783       44.44904       42.69249       39.38245       34.91377
       30.64953       25.63395       19.61808       22.59798       13.77971
       11.36668       9.872239       3.068949      -1.417452     -0.4170990
      -11.01586      -4.598904      -20.43604      -22.77979      -23.49646
      -28.76307      -23.04410       23.34182       47.98959       30.45527
       36.44568      -69.35156      -308.7736      -215.1913      -20.81250
      -232.8402      -230.2353       183.7615       129.1767      -11.41635
       111.2867      -162.4232      -294.8283      -118.0121      -120.5778
      -11.69981      -21.87134      -107.5123      -94.31926      -20.53646
       56.59967      -157.7393      -133.9379      -10.26080      -120.9442
      -127.8463       60.48380       183.7471      -343.3022      -293.9001
       237.8661       24.84265      -226.1204      -259.9337       48.97932
       149.7762      -165.7757       60.33590       41.92448      -15.40369
       255.6918       60.91772      -186.0503      -319.0350      -150.4928
       121.8192      -127.9553      -150.3130       70.69724       87.97815
       206.1779       115.5653      -69.85672      -17.29419      -98.89017
      -48.72330       70.35870       65.61832      -40.60442      -15.57709
       80.97964      -12.69836       221.7576      -61.91490      -213.3925
       194.3140      -63.55402      -76.09686       65.63681       148.2498
       196.3593       34.45535      -76.10992       52.00732       236.3511
      -204.4329      -207.7491       418.0631       48.47278      -64.55298
       265.1516       35.68275      -55.07933       28.89697       176.4046
      -40.23785      -201.5101       280.4135       213.0392      -132.3074
       204.7113       133.8587      -149.1185       38.38910       89.69032
       33.94890       45.92053       23.23087      -70.83167       179.0540
       218.3283      -117.6312      -71.39137       6.798332      -10.87970
       40.02499       136.2577       86.21704      -165.3172       11.92809
       67.30008      -108.1371      -103.7798      -241.7119       63.04810
       229.1864      -149.8520      -87.16664       12.35160      -61.14717
       116.0548      -9.794434      -325.4184      -153.6796       16.84558
      -166.9636      -46.06641       40.97437      -251.1823      -150.3592
       33.75529      -18.73962      -79.02179      -193.4442      -177.0583
      -107.9248      -151.9584      -111.0510      -26.71851      -116.9164
      -110.8092      -155.1796      -347.3272      -94.93442      -84.53339
      -291.1680      -14.90030      -48.85504      -82.81317      -71.54083
      -273.9868      -75.37103      -29.90845      -266.4147      -357.9507
       27.58624       36.58685      -286.9742       14.98877      -187.4341
      -370.9368     -0.7648926       15.82617      -162.7350      -236.6854
       5.149170      -45.77948      -198.5587      -123.9034      -235.3077
      -121.8577      -219.4615      -131.8365       158.8893      -131.5323
      -168.6519      -19.20767      -83.34616      -132.3943      -175.0866
      -150.6826      -25.67889       104.4943      -92.40619      -350.0943
       30.36269       184.0577      -195.5021      -80.02341      -62.53729
      -206.1789       110.6490       206.1106      -53.36450      -129.4104
      -39.15610      -205.5178      -21.60657       285.3977      -105.2951
      -137.9129       174.5118       104.4403      -25.51295       32.79614
       98.49948       4.227444       26.01708      -13.45071      -22.42963
       245.5551       83.99075      -139.7449       257.6685       236.2470
      -140.4399       37.84109       182.7761      -1.718651      -8.573669
       138.7647       24.19254       56.84192       276.3843       95.94760
      -6.302704       123.4945       161.1002       116.4927      -51.86493
       207.5891       309.0339      -158.1393       40.96393       226.4044
       156.9306       108.4806      -45.45300       118.6104       207.4233
       71.63190       49.69397       201.9326       121.2019       80.71533
       162.3180       136.3464       244.5333       77.76256      -51.01538
       172.5793       446.8558       208.4328      -193.4938       210.2851
       203.6010      -11.57428       251.8511       251.8848       115.9657
       38.95697       237.2609       218.0169       60.23895       208.9066
       106.1475       123.9300       223.7098       120.7709       221.3023
       129.3115       148.5915       234.6117      -8.284409      -27.24744
       256.3445       424.4299       196.0196      -54.41418       73.88116
       231.8255       131.4478       76.93823       164.2979       156.6417
       135.5355       149.1542       13.86761       29.92645       250.1679
       187.3716      -107.1419       92.51514       219.6924      -53.32257
       111.6294       244.1507       37.22696       4.836670       176.6804
      -68.01401      -201.7292       214.4492       64.85069      -39.89450
       117.3737       2.023697       11.51465      -113.5107      -96.19509
       29.44348      -137.0378      -47.86896       162.4093      -45.35899
      -120.8988       1.688721      -149.6565      -132.1870       113.3271
      -93.86469      -275.8442      -12.70860      -11.89781       16.99651
       15.27277      -279.8282      -196.0625       102.3100       37.86853
      -199.6060      -228.8121       92.15541       32.10721      -224.6136
       1.075256      -41.67599      -229.6552      -10.77934      -13.52115
      -186.0806      -94.35551       2.629028      -80.05466      -125.8422
      -77.84427      -112.7067       66.34036       133.9175      -274.7003
      -142.9849       155.0563      -208.2253      -160.9882       77.12386
      -63.40314      -50.69820      -137.2962       48.32092      -38.93115
      -351.6384      -4.829826       21.93575       64.75453       47.32227
      -193.0897      -46.21675       2.159790       44.44312      -219.0181
      -232.2802       129.2368      -71.01855      -53.67695       22.65057
       1.636185      -56.34858      -59.85648       104.0716      -146.7385
      -154.8277      -7.597488      -62.03375      -86.99274      -139.1796
       150.2172       161.6306      -185.1289      -63.69040       85.63989
      -11.03717      -173.5058      -193.3723      -2.427582       74.44087
       31.78813       79.87997      -50.66483      -186.6766       19.93412
       34.66119      -187.6715      -249.5758      -4.067230       144.5369
       105.6486      -58.80420      -371.1365       40.10062       206.2708
      -295.0853       58.88208       181.5853      -81.19958      -192.1081
      -154.6242       245.1628       123.1620      -198.9968      -224.7260
       120.7506       130.2182      -181.7879      -5.899979      -8.261574
      -55.29758      -15.64604      -65.13856      0.3222122       12.48217
      -85.07404       74.64413       254.1317      -127.8524      -315.4286
       19.82251       80.71713       102.3112      -91.01282      -270.9167
       70.18417       67.87238       27.91058       213.9749      -128.6060
      -154.8292       201.1842      -142.0065      -142.7722       161.4653
      -232.8582      -29.70575       354.0103      -156.2015      -125.1373
       252.8242      -136.2584       5.357239       156.6805      -214.5523
       21.20540       45.39194      -75.24268       86.99361       112.4112
      -89.65039      -243.9682       97.49896       79.73581      -57.40886
       105.6727       29.20401      -21.26257      -3.910435      -22.73659
      -2.372192      -97.85416      -6.497147       67.91656      -70.68369
       58.31628      -104.7963      -198.6160       191.5869       194.1349
       16.12646      -200.4199       124.6217       101.8586      -383.4432
      -4.039886       155.8732      -70.34271      -96.78870      -89.49545
       59.85046       218.4625      -23.69092      -338.5088      -71.51608
       215.3695      -43.77524      -219.6996      -59.34241       210.3280
       273.3783      -248.9171      -304.9964       82.35913      -176.6458
      -9.458160       188.4320      -147.7345       21.57806      -19.11581
      -224.7566      -62.62973       119.4799       40.08276      -278.4915
      -145.3048       151.3601      -123.5169      -85.64075       205.7527
      -51.64554      -137.8571       57.10632      -44.85605      -184.6493
      -81.61555       64.13666      -141.9681      -229.1057      -1.097504
       73.73190       111.4092      -83.39557      -463.7693      -31.74854
       193.4865      -174.2967      -240.4420      -196.0080       120.9534
       8.743408      -226.7081      -114.0144      -66.00533       117.4062
      -173.6829      -235.3680      -14.14072      -97.00032      -79.69221
       13.38574       91.38062      -197.9664      -285.4733       179.5468
      -217.5884      -362.8729       432.7781      -100.3145      -440.4254
       262.5315       88.94800      -244.1965       36.01691       385.2380
      -189.8869      -344.1265       96.75818      -160.4305       117.0647
       66.01350      -173.5840       244.3533       156.3429       48.37189
      -227.6177       35.20093       456.8802      -156.7145      -260.6054
       5.162842       143.4555       426.2199       168.3590      -113.1397
       41.37439       264.3307       329.4086       120.2140       68.32190
       148.3445       28.35468       69.42346       187.8527       225.6949
       221.6789       45.10913       31.66675       466.9443       451.8207
      -112.6298      -113.5388       453.3168       287.2768      -70.11792
       501.2805       461.1392      -27.20605       234.3353       342.1201
       117.6538       143.3418       267.9496       217.5513       401.9163
       341.2288       17.52283       334.5782       340.1004       54.62891
       326.9504       346.5190       303.5632       291.2562       211.7068
       250.6021       250.3750       248.3409       139.6552       155.5797
       419.1874       400.1377       112.7912       131.0503       272.5251
       272.7469       225.5587      -83.06604       128.9219       506.5847
       151.6759       4.351990       179.4977       286.3635       333.5951
      -153.5722      -83.24573       358.7682      -93.65137      -90.56982
       440.7274       263.0384      -285.4956       157.6382       423.5778
      -354.4146       44.94547       259.3940      -317.7711       118.5193
       236.2668      -207.7313    -0.08666992       230.1827      -142.2696
      -325.3016       82.14792       16.16394      -326.5334       66.92897
       210.7146      -225.0926      -6.560577       106.5602      -185.1878
      -80.69977      -3.484985      -258.9051      -288.8553      -52.90852
      -24.58649      -105.4654      -85.19083       73.06461      -33.94202
      -375.6205      -462.3037      -121.0701       210.9924      -140.2746
      -360.9449      -124.8361      -34.12320      -62.30444      -349.6239
      -309.8137       115.4862      -105.9629      -491.0633      -149.9196
      -17.85840      -292.6335      -184.3827      -185.7475      -163.6078
      -45.20190      -198.4048      -234.0497      -123.1290      -211.3650
      -465.8957      -225.2887      -75.93903      -321.6766      -159.0322
      -281.2571      -323.4475      -117.0693      -295.6437      -184.1214
       62.01221      -289.2999      -493.1380      -21.69385       36.63525
      -339.8345      -491.1799      -368.4064      -98.70941      -125.3694
      -326.6122      -341.1253      -135.6984      -218.5587      -292.2798
      -51.30591      -321.4039      -210.8435      -28.53589      -675.9893
      -529.2554      -350.7737      -877.5928      -1099.381      -1513.841
      -1645.325      -1376.456      -1465.248      -503.9326       1799.188
       3447.540       2759.998       218.0852       113.6724       1934.004
      -337.5322      -2231.470       304.4429       1353.744       391.7344
      -1497.947      -3216.582      -3453.280      -3810.260      -707.9683
       3040.061      -596.5249      -363.4150       5760.103       1589.502
      -3853.174      -234.4863       2361.081       481.6650      -1229.348
      -251.5125      -181.5903      -701.2386       719.2510      -1993.527
      -2719.487       3108.642       2004.531      -1659.090      -772.9073
      -660.9402       1404.029       381.4224      -2453.213       1107.998
       2050.679      -673.1710      -855.0171       674.9528       1018.746
      -2145.185      -1963.557       2267.294       1470.808      -736.6216
       100.1343       565.6597       1170.397       1400.460       44.66199
      -480.8723      -912.5337      -599.3149       1837.142       890.8194
      -772.8407       532.0441       776.2267       332.8463      -465.7627
       936.5520       2253.406      -1262.423      -2439.454       452.4663
       1391.951       312.9779      -399.0928       529.3027       1319.422
       638.6317      -282.1445      -210.2405       905.3278       744.1215
       16.04834       715.3279       477.8844      -126.4419       1301.570
       1193.822      -560.2015      -641.4695       306.1293       735.0814
       227.5240       353.9408       19.92529      -611.9116       1457.577
       1226.038      -971.1294       468.4370       1435.033       351.2135
       750.3713       262.6787      -1765.918       175.4695       1612.259
       62.53638       1004.710       908.9429      -447.8356      -4.399658
       394.7211       322.5937      -41.37988      -538.1697      -456.4730
       589.3494       297.7606      -184.9395       1552.691       814.4626
      -463.9793       155.1154       202.8860      -82.94946      -1201.408
       211.4512       1433.218      -636.1442      -43.97052       546.7667
      -513.7687      -182.1399      -186.5771       919.2588       1341.136
      -293.3243       209.6035       1081.261       266.8757      -816.7009
      -809.0524       284.8470       366.0146      -862.6193      -884.4270
       949.5935       232.5332      -1297.537       282.6229       96.64648
      -710.8009       593.8080       486.8474      -59.27814      -189.5063
      -33.98621       327.0859       342.0199      -38.36597      -687.8966
      -281.3485       513.6606       102.1411      -1155.560      -702.0108
       603.4463      -630.7856      -1493.440       612.9353       1375.852
      -102.5970      -534.6301      -531.1838       9.233887       268.6797
      -1237.643      -909.7169       380.9568       4.850830      -561.1240
      -968.8043      -525.2567       547.1034      -195.4913      -771.4899
       350.1143       156.4890      -584.3220      -55.60715       121.1616
      -592.8699      -574.1538      -906.6646      -649.5539       452.5901
      -658.7289      -137.8682       640.1970      -895.3491      -602.5354
      -281.6633      -926.8453       316.2633       784.7566      -1101.462
      -848.4006      -305.5029      -635.3019       312.4849      -394.5217
      -1435.421      -162.4758       719.1813      -153.5701      -512.7244
      -452.3851      -839.1672      -75.83881       355.5630      -197.3621
      -259.0801      -436.2610      -671.4880      -410.9943       106.9040
      -2.859619      -165.8906      -196.4496      -392.8589      -865.4253
      -1088.085      -54.75415       267.1594      -48.18536       175.3159
      -603.5875      -849.9934       442.8337       296.4734      -353.1042
       149.4485      -295.6342      -38.10504       239.5216      -912.7949
       152.1448       462.0629      -900.8261      -106.9505       185.7207
      -453.2090      -399.2292      -755.3120       268.8459       1234.562
      -677.2534      -619.8112       664.7407      -215.1138      -321.8549
       52.79120       65.85278       383.9632       337.3472      -593.7866
      -874.0212       842.0702       753.6418      -763.6565      -138.2471
       519.9948       43.09753      -604.0732      -274.8767       223.1056
       29.02954       974.1546       241.0974      -1238.078       49.05701
       618.9916       213.4987      -174.8197      -857.9443       316.6846
       1275.565      -272.7809      -494.1562       319.3004       262.6471
       350.3368      -227.5538      -28.12494       494.4147      -7.324905
      -66.52576       303.3085       355.9977       50.00623       366.3214
       200.5806       106.0844       835.8969      -267.1086      -247.4038
       746.9795      -271.9503      -78.32227       571.2516      -175.0881
       36.48438       748.9375       605.2241       555.9974       251.7531
       57.14417       627.3506      -357.0516      -677.0928       760.9218
       539.7156       488.4483       472.5670      -1.999634       760.6646
       353.3049       12.07642       769.2345       472.4982       208.8837
       537.6574       212.2612       127.9436       996.2713       305.7608
      -517.5913       525.4791       807.0507       149.8243       71.75757
       367.7968       303.8401       256.5107       194.1231      -178.6095
       226.4656       915.5186       598.2477      -117.7691      -135.0969
       724.9885       780.3601      -538.5637      -379.3423       1128.949
       377.9272      -562.8168       442.2129       972.4634       609.6499
       8.968506      -361.4962       200.3696       150.7438      -642.8865
      -32.44214       844.7438       711.7651       93.16089       197.5781
       191.9920      -279.8123       752.7445       778.4851      -919.5179
      -832.6815       293.5294       402.6663       368.4146       197.0406
