     0.02500000      -3101.381       3481.384      -12345.00      -12345.00
      -29.99998       215.3000      -16.65000      -12345.00      -12345.00
       0.000000       12.40000      -12345.00      -12345.00      -12345.00
      -12345.00      -12345.00      -12345.00      -12345.00      -12345.00
      -12345.00      -12345.00      -12345.00      -12345.00      -12345.00
      -12345.00      -12345.00      -12345.00      -12345.00      -12345.00
      -12345.00      -30.93890      -68.49280       993.0000       0.000000
      -31.37200      -68.11800       0.000000       97800.00       0.000000
      -12345.00      -12345.00      -12345.00      -12345.00      -12345.00
      -12345.00      -12345.00      -12345.00      -12345.00      -12345.00
       59.85764       323.2455       143.4385      0.5381868      -12345.00
      -12345.00     -0.3078867       0.000000       90.00000      -12345.00
      -12345.00      -12345.00      -12345.00      -12345.00      -12345.00
      -12345.00      -12345.00      -12345.00      -12345.00      -12345.00
      2008       244         6        45        22
        50         6    -12345    -12345      9813
    -12345    -12345    -12345    -12345    -12345
         1         7        13    -12345    -12345
    -12345    -12345    -12345    -12345    -12345
    -12345    -12345    -12345    -12345    -12345
    -12345    -12345    -12345    -12345    -12345
         1         1         1         1         1
MONA    -12345          
        -12345  -12345  
-12345  -12345  -12345  
-12345  -12345  -12345  
-12345  -12345  -12345  
-12345  -12345  -12345  
-12345  -12345  BHN     
ZL      -12345  -12345  
[...]
       26.82686       21.34287       7.771046       9.160217       15.61412
       13.69945       11.25464       10.52041       5.695885       13.10129
       21.60449       13.80509       7.177223       10.20139       11.42899
       8.818676       4.746432       1.927538     -0.7876534       3.211432
      -1.199684      -17.25030      -19.85651      -13.04711      -22.32759
      -33.53876      -38.46379      -40.37061      -46.02692      -54.42635
      -68.16229      -81.40924      -84.98599      -91.57986      -108.1021
      -124.3899      -128.6711      -138.2273      -153.6678      -171.2295
      -188.5010      -199.0405      -204.2297      -222.5568      -245.6862
      -251.3845      -253.7955      -266.2053      -281.0694      -293.2061
      -296.6970      -295.2649      -307.6324      -325.5425      -329.6613
      -325.7554      -334.2819      -340.7426      -345.4021      -344.9418
      -334.7911      -330.9282      -332.1356      -333.1201      -319.6046
      -305.4682      -303.7618      -297.4308      -283.6315      -268.3583
      -254.1639      -243.7271      -231.4529      -212.0318      -187.2975
      -174.0899      -162.5798      -144.0643      -118.8967      -98.62738
      -84.03632      -68.94958      -47.50764      -21.61643      -2.567928
       7.426514       23.79759       49.25354       71.06757       80.96222
       90.63632       108.7396       130.9249       147.9319       153.8842
       163.1661       176.8483       190.1151       196.0262       201.2733
       213.6948       223.5560       233.0125       231.1187       228.4811
       234.1348       241.3015       239.2986       232.0582       233.9879
       237.2911       238.3154       236.7507       229.4052       227.1784
       234.2902       230.3364       226.0018       224.7840       229.2976
       226.6488       227.6132       221.8586       224.4246       224.7644
       228.1057       222.6157       222.2518       225.1563       233.1710
       226.7324       230.0311       227.4158       231.6164       234.4839
       236.4504       226.9802       232.7667       237.7969       235.7311
       227.2864       229.4088       224.4688       226.2368       219.7922
       210.9236       204.1225       206.7345       198.6943       186.7758
       180.1167       182.5755       174.9789       173.8903       168.8367
       163.8745       168.1786       164.0115       154.7370       152.3755
       151.3829       153.7159       148.9631       144.9462       138.9225
       140.9008       145.9571       137.8673       125.1451       119.6460
       124.5600       115.9880       103.4302       95.63306       82.95627
       79.38992       67.97629       46.77145       36.73071       32.16610
       20.77809       3.868717      -3.900375      -15.35620      -22.63211
      -30.11452      -44.49380      -53.56300      -55.46188      -61.97870
      -71.07974      -81.27812      -83.00238      -84.38403      -86.63553
      -97.78189      -109.1212      -109.8194      -103.0838      -108.6875
      -112.7829      -115.7276      -112.7936      -113.7052      -114.2264
      -120.6754      -120.8849      -120.8024      -119.2649      -128.8030
      -133.3109      -131.5962      -126.5587      -134.3280      -142.4559
      -145.1222      -143.6584      -149.0395      -153.7880      -159.0561
      -156.7958      -162.4987      -162.0883      -167.8271      -174.0562
      -170.5311      -171.4678      -181.9691      -190.1974      -196.3329
      -199.0762      -205.3131      -213.5931      -225.3092      -227.1549
      -230.3651      -243.5185      -255.3528      -265.1453      -269.4755
      -278.1467      -288.5958      -286.7246      -269.4510      -258.5438
      -255.5801      -258.3333      -322.6556      -429.5002      -514.6077
      -568.3789      -547.4550      -453.4274      -350.0325      -318.7808
      -349.0167      -280.6828      -194.0527      -202.0060      -236.7198
      -291.7603      -379.4535      -545.7100      -732.4873      -717.6661
      -555.3420      -348.9465      -347.4459      -502.1068      -509.5214
      -398.9933      -284.3660      -206.3303      -216.9799      -313.3038
      -348.6714      -255.3606      -388.4014      -662.4062      -783.1860
      -818.9327      -629.9578      -270.7771      -88.02246      -136.8513
      -247.7922      -347.7849      -517.6252      -499.2604      -426.0740
      -500.3478      -426.1765      -212.8240      -111.1187      -199.8009
      -270.7256      -244.1273      -381.8735      -459.4474      -366.8932
      -142.9047       73.42664       93.59811       6.237000      -216.8661
      -350.7910      -166.1523      -23.36023      -88.51791      -112.2563
      0.5620117       161.7589       109.7778      -172.8759      -201.9485
      -53.31894       80.48523       128.2661       109.6215       60.23346
       129.6104       422.5369       502.6857       219.9684       65.96835
       88.29990       63.61450       136.6610       292.1189       387.2268
       530.1730       564.6835       442.5992       289.4867       158.9581
       204.8256       441.5790       514.0330       408.9490       445.8284
       570.9689       538.2798       418.4504       443.1805       533.7197
       537.3778       492.5164       349.5720       356.0062       454.7405
       440.3696       417.6426       456.2341       573.9529       563.6270
       507.0576       608.9395       557.6056       365.0411       326.0903
       501.3889       592.0488       590.0891       575.8921       394.1090
       198.9089       254.3823       344.5657       419.3190       522.8553
       483.9269       457.0504       528.0123       388.0511       244.3472
       351.0159       466.7041       475.9607       509.3868       411.7134
       241.5281       258.4587       370.4264       368.8572       373.3685
       387.9723       398.5237       405.6340       425.0422       351.9022
       201.8047       291.4917       453.2164       330.5883       172.8676
       143.6862       187.7111       208.0527       268.3909       493.7909
       634.9363       437.1951       204.4070       180.9207       276.5956
       345.4454       449.9894       409.1996       202.9567       87.79449
       158.3690       295.9955       341.8329       218.7512       315.3419
       536.3013       421.4985       220.4968       175.9953       120.6461
       123.2067       173.8251       214.8323       137.7474       67.87061
       174.7693       316.6245       356.5112       362.7430       340.5104
       298.0210       248.1326       285.6598       286.1627       241.5958
       223.9800       246.6994       140.8816      -79.41312      -177.9107
      -92.29512       46.48511       153.0478       211.4094       253.7436
       139.4270      -77.71924      -236.3168      -270.1819      -203.3289
      -102.9467      -112.2728      -143.1546      -89.13068       41.71186
       81.85028      -124.0188      -507.2478      -718.0179      -480.8524
      -46.30991       157.9284       30.91479      -304.9309      -539.6575
      -682.1791      -599.2463      -307.4886      -230.1516      -282.2620
      -293.5328      -476.4082      -680.7416      -563.5443      -292.7053
      -373.3882      -616.7675      -647.4431      -503.6798      -402.2888
      -407.3221      -490.0532      -553.2268      -546.7643      -370.2764
      -231.5127      -405.2795      -630.3964      -613.3745      -503.0750
      -404.4113      -449.8379      -447.6584      -366.9414      -493.1558
      -742.8291      -725.7443      -570.0680      -456.8221      -384.9004
      -413.2716      -485.0509      -577.2834      -659.6855      -616.9562
      -556.1705      -453.6591      -406.6467      -401.6511      -570.7581
      -926.5251      -958.9033      -573.6017      -303.5968      -389.0486
      -614.7314      -721.1729      -765.1626      -764.5286      -649.7850
      -435.2897      -343.6519      -472.1055      -626.3352      -657.8730
      -718.8123      -644.2845      -467.6375      -609.7886      -794.1855
      -465.6846      -216.2192      -408.1007      -588.2725      -658.3081
      -559.5092      -276.2217      -285.4453      -562.0280      -548.0179
      -201.3985      -148.6179      -496.1407      -639.7960      -342.0634
      -73.60687      -129.3071      -362.9479      -455.6545      -372.5935
      -319.9358      -295.9415      -281.7348      -296.4369      -153.3244
       32.19922      -23.89362      -273.1439      -306.5421      -120.6552
      -26.55486      -4.982788      -108.3823      -190.4665      -28.16634
       49.33313       147.8215       283.6887       183.9225       65.30618
       47.15448       115.0974       164.0656       80.01837       155.3064
       304.4084       225.3345       76.65771       263.0535       581.5859
       694.3877       649.6367       509.1516       368.4953       326.9248
       298.5270       323.9626       501.4131       724.7188       669.6411
       380.8928       194.5073       365.8967       680.0593       711.9028
       587.3826       689.9668       932.7454       1014.894       821.5193
       518.6562       440.6721       610.6919       622.5664       464.5479
       567.5723       968.9080       1090.187       717.4294       275.7162
       88.33447       189.1536       643.7070       1158.403       1192.782
       859.3826       642.7266       676.2043       640.5112       525.0532
       644.3599       672.0911       549.7437       572.8889       682.4048
       715.9038       616.7466       493.3601       570.2837       700.0903
       799.6970       858.7554       831.2817       814.5493       738.7637
       515.1115       353.7769       347.6711       486.0007       578.9968
       584.1472       585.5315       577.8207       562.0635       548.3242
       424.5286       364.0730       557.8633       798.3879       745.6421
       403.4683       183.3456       349.4319       639.8772       641.2349
       318.9020       138.2085       172.7622       382.0981       633.6971
       512.3027       188.6126       69.34901       67.62946       94.13446
       144.4612       219.0672       217.5217       180.2576       159.1700
       153.5082       103.5628      -124.2169      -228.7224       47.41705
       222.3773       100.0249      -37.64059      -61.26086      -132.8456
      -176.1232      -178.7610      -154.0815      -81.35246      -44.35934
      -113.3508      -231.6382      -291.5378      -175.1589      -4.744324
      -105.8997      -496.1975      -573.8347      -141.6806       113.7748
      -129.2573      -389.6509      -574.7640      -693.7954      -468.1273
      -164.7148      -194.0339      -272.6954      -269.3616      -411.5122
      -612.9039      -463.3118      -139.6388      -111.2356      -339.4463
      -474.2483      -506.7665      -487.4331      -389.6779      -347.1560
      -379.3429      -316.3882      -361.9116      -643.8271      -747.3265
      -451.9187      -291.1331      -515.2367      -564.7394      -298.2202
      -245.6646      -403.4985      -481.3998      -383.7600      -349.9084
      -619.7300      -886.4001      -720.6877      -491.4468      -557.2979
      -609.8715      -544.8799      -681.0957      -1115.042      -1570.167
      -1382.826      -389.7368       622.9727       926.5774       1001.872
       1398.741       1885.971       2110.353       1809.067       867.6807
      -180.7362      -514.9630      -312.7327      -607.5205      -1350.255
      -1927.436      -2458.321      -3034.993      -3101.381      -2180.836
      -506.2651       379.0333      -52.05225      -419.9785      -717.6538
      -1156.173      -824.1204      -331.9951      -657.5449      -1329.621
      -1409.589      -1031.563      -838.4827      -256.8452       878.6189
       1168.025       106.7505      -1388.817      -1798.555      -935.0968
      -116.1635      -16.83691       133.8169       967.3555       1378.777
       789.1843       221.5996      -227.0081      -654.3647      -535.2996
      -79.91016      -250.7742      -725.4355      -678.3425      -540.9026
      -481.5040      -398.9468      -394.2379      -16.44421       534.1500
       577.3626       178.4845       227.9600       750.2120       477.0571
      -824.8564      -1540.462      -1254.937      -750.7217       435.1670
       1872.635       1837.455       570.6949      -152.8557       483.4860
       1017.093       4.764526      -936.3490      -103.9741       1487.745
       2083.625       946.0679      -547.1903      -692.6173       54.21191
       586.4917       984.5229       1270.895       806.0405      -182.4211
      -818.3390      -702.6876       154.6282       872.8447       938.5706
       1100.960       1067.894      -159.6382      -1655.988      -1524.236
       456.2139       2565.981       3481.384       2710.403       759.0408
      -326.1698      -60.18347      -230.0483      -603.5936      -52.83838
       555.9644       741.3047       1048.699       893.4241       79.08838
      -333.8328      -432.1235      -956.1318      -1277.556      -893.3669
      -76.35229       949.7358       1741.216       1699.918       1073.931
       531.9816       186.6202      -135.0128      -233.9061      -368.8641
      -676.0253      -489.3826       100.3440       330.4344       251.3005
       338.7018       433.4783      -174.4951      -919.2930      -900.1104
      -478.5566      -532.6636      -1071.460      -782.0947       629.6465
       1508.273       1129.919       281.8993      -143.7226      -38.19641
       162.1298       188.3450       270.5437       456.9313       492.8036
       19.97510      -851.4587      -1294.188      -1054.367      -579.8353
       170.3418       987.7100       1605.311       1783.289       1268.141
       504.5495      -105.5073      -700.5781      -1233.501      -1324.441
      -824.8756      -285.9598       98.96167       387.3481       585.1686
       612.9622       559.9546       592.0162       602.4734       615.4557
       711.4601       522.0364       350.2139       871.9663       1410.865
       794.6980      -198.5783      -257.8470       231.8095       103.1270
      -689.6045      -1129.084      -844.6982      -461.8219      -140.9146
       363.7397       1072.161       1362.034       936.8466       496.6111
       365.7889       67.44820      -211.0016       213.0115       1032.534
       1066.653       108.0771      -1109.886      -1623.141      -1124.410
      -15.12891       1052.728       1427.381       1069.357       749.7085
       798.5150       627.6406       53.63672      -406.1992      -813.3555
      -1203.370      -1216.164      -942.1987      -804.0305      -560.3543
      -67.10010       243.9418       166.4297      -100.4182      -362.1646
      -509.1300      -605.2944      -659.9159      -608.6708      -220.6327
       297.9379       298.7710      -314.1958      -771.8811      -613.3991
      -126.1048      -60.41748      -812.4443      -1727.420      -1696.618
      -797.7507       196.9717       820.1295       787.1580       203.4553
      -404.3711      -780.4429      -740.7057      -233.4524       193.7985
       194.3829      -91.52783      -699.3457      -926.2432      -447.5202
      -40.43408      -127.7618      -340.8875      -407.3101      -378.0474
      -427.1907      -378.3210      -122.2711       97.80969       199.8872
       622.1584       1150.946       992.4408       249.6183      -302.4342
      -489.3192      -152.2825       423.0495       359.5502      -448.2988
      -1385.860      -2040.628      -1837.833      -856.3694       109.2810
       456.7634       499.2704       328.8408      -452.9741      -1386.759
      -1710.617      -1288.688      -322.0022       579.0796       1224.238
       1538.053       1216.000       318.4249      -360.8629      -378.8338
      -121.6903      -49.89337      -135.1628      -391.5410      -549.0179
      -346.8105      -210.2261      -339.7858      -68.16650       435.5583
       474.3244       138.8101      -168.0015      -525.5264      -920.3853
      -955.4077      -406.1399       243.8882       429.2954       90.30127
      -311.9404      -622.3650      -878.9475      -682.9892      -136.3702
       16.00552      -105.7191      -56.82959       150.2603       375.3894
       631.1248       714.0205       636.2509       641.6377       692.9777
       606.5084       117.4829      -741.8203      -1268.579      -1164.668
      -711.2745      -349.2528      -8.119629       422.9128       359.8819
      -223.7500      -412.6466       57.22119       581.0344       663.8777
       644.7052       578.2889       62.76550      -505.4190      -460.3113
      -44.81598       149.4279       161.6804       311.0405       358.7134
       353.9895       494.3333       493.0778       246.9675       197.1351
       435.8970       602.2905       676.7024       755.3733       797.6980
       952.0576       1088.785       951.1765       410.6017      -46.23364
      -120.3992      -315.1482      -591.0511      -601.3297      -342.3438
       253.5544       740.5901       714.8566       389.3539       87.11832
       98.92157       206.3673       73.30304       81.59998       282.9148
       347.2241       307.4185       420.7567       595.2208       589.5217
       538.8805       633.3740       723.5969       831.0039       902.9314
       897.9607       847.5240       449.7497      -96.35760      -242.9663
      -168.2027      -39.96631       139.7153       307.6224       288.6201
      -10.07916      -167.9455       94.00940       474.6863       750.7349
       823.4819       756.8674       685.8350       670.7275       566.6195
       370.5026       318.7192       321.9809       202.4352       257.3195
       488.6841       434.8159       196.5067       111.2407       193.9768
       360.9612       366.2578       68.23428      -153.8062       89.12390
       463.6449       383.5895       62.54404       64.15454       303.4780
       463.7581       598.2251       745.8406       644.8874       187.2704
      -215.7563      -303.8891      -238.5656      -192.2993      -211.7494
      -220.1885      -153.7234      -203.7800      -449.5400      -679.5967
      -704.3138      -375.1398       137.9521       202.3236      -133.5127
      -370.7893      -498.6792      -618.5775      -564.4217      -217.6144
