     0.02500000      -1717.169       1998.902      -12345.00      -12345.00
      -29.99998       215.3000      -16.65000      -12345.00      -12345.00
       0.000000       12.40000      -12345.00      -12345.00      -12345.00
      -12345.00      -12345.00      -12345.00      -12345.00      -12345.00
      -12345.00      -12345.00      -12345.00      -12345.00      -12345.00
      -12345.00      -12345.00      -12345.00      -12345.00      -12345.00
      -12345.00      -30.93890      -68.49280       993.0000       0.000000
      -31.37200      -68.11800       0.000000       97800.00       0.000000
      -12345.00      -12345.00      -12345.00      -12345.00      -12345.00
      -12345.00      -12345.00      -12345.00      -12345.00      -12345.00
       59.85764       323.2455       143.4385      0.5381868      -12345.00
      -12345.00    -0.08108415       0.000000       0.000000      -12345.00
      -12345.00      -12345.00      -12345.00      -12345.00      -12345.00
      -12345.00      -12345.00      -12345.00      -12345.00      -12345.00
      2008       244         6        45        22
        50         6    -12345    -12345      9813
    -12345    -12345    -12345    -12345    -12345
         1         7        13    -12345    -12345
    -12345    -12345    -12345    -12345    -12345
    -12345    -12345    -12345    -12345    -12345
    -12345    -12345    -12345    -12345    -12345
         1         1         1         1         1
MONA    -12345          
        -12345  -12345  
-12345  -12345  -12345  
-12345  -12345  -12345  
-12345  -12345  -12345  
-12345  -12345  -12345  
-12345  -12345  BHZ     
ZL      -12345  -12345  
[...]
      -806.8074      -799.0554      -782.1365      -752.6074      -731.5178
      -718.9116      -688.2384      -661.6677      -636.7451      -604.9968
      -572.2172      -555.5769      -518.2461      -480.0830      -453.0784
      -428.4606      -382.5275      -352.2868      -320.6115      -284.5062
      -248.1430      -218.8546      -169.7784      -136.0847      -110.8188
      -77.53077      -31.79991      -10.70359       19.92128       56.26154
       88.53790       112.2996       151.1893       172.6786       196.9077
       230.2875       258.9592       269.8585       298.2129       325.8452
       348.3129       364.3020       389.6086       401.0895       418.8865
       443.0309       453.6161       456.9275       485.2878       503.1750
       509.5715       524.8684       537.7684       535.4856       554.0911
       567.7546       565.1432       564.9011       583.3601       582.9747
       578.4481       581.5076       591.1688       591.1860       592.7156
       588.3069       586.8374       587.4402       594.2981       587.8518
       585.3831       582.8735       581.0039       578.0503       575.0911
       564.5139       562.2278       562.1320       556.2834       541.2070
       539.3071       540.1765       531.8320       523.6104       519.0942
       508.9600       507.9186       497.0605       479.6161       467.6821
       465.7673       453.2013       441.8263       436.2396       425.7423
       412.0161       405.6262       389.2224       371.3792       361.3213
       352.6057       327.7025       314.4272       299.2025       284.5946
       266.4011       249.2760       225.5349       204.7416       192.3068
       175.3239       147.3598       132.2945       116.1425       92.59991
       72.41344       57.18137       35.71779       19.77833       7.531296
      -14.16873      -32.29727      -46.23392      -58.97348      -75.50977
      -92.46466      -104.9966      -113.1393      -121.4811      -136.9719
      -149.4915      -155.0551      -159.0983      -172.1521      -180.6301
      -189.2167      -192.8156      -192.2725      -193.7312      -206.1686
      -208.2756      -208.2611      -210.6490      -214.7327      -206.6895
      -209.3260      -204.9113      -202.0812      -206.8149      -209.8867
      -199.0709      -195.7606      -197.3257      -194.3268      -182.5899
      -179.7685      -174.5664      -171.5720      -166.4297      -158.8093
      -151.6946      -152.3451      -151.1122      -141.6180      -134.5922
      -133.2770      -126.6083      -123.4922      -117.5974      -106.1521
      -98.02679      -98.08112      -89.55760      -70.27539      -63.62944
      -63.67905      -49.83327      -38.48077      -27.55926      -15.93062
      -11.15168      -4.900459       10.55050       20.52773       20.59334
       26.76126       36.58144       35.80036       40.84521       42.94990
       40.51112       46.67857       51.24472       43.57222       39.60590
       45.71823       51.24706       47.91353       46.94896       42.69748
       33.94763       39.45012       38.66424       26.83710       26.00912
       32.09827       24.42011       18.43870       19.37658       16.26303
       16.72130       17.78503       7.908144       4.022146       10.57033
       9.508690     -0.6019139      -2.337796      -2.617720      -7.548027
      -2.803547      -9.726902      -18.02818      -14.15379      -11.25060
      -22.01567      -24.27609      -25.99879      -26.95013      -29.01514
      -33.52414      -44.28716      -44.94589      -46.80042      -51.97449
      -59.24344      -63.39075      -70.74919      -75.72595      -82.55661
      -92.58313      -100.5724      -102.4171      -111.7141      -125.2914
      -136.5887      -142.9794      -153.6211      -161.8983      -170.4124
      -180.7607      -190.5922      -197.9820      -215.0595      -228.5466
      -236.5405      -244.5096      -257.4003      -269.2866      -284.2963
      -288.3682      -299.9321      -313.1003      -326.3203      -334.6030
      -349.1824      -362.5708      -371.5247      -379.6954      -389.7546
      -390.5511      -396.7327      -407.3572      -415.8433      -415.4248
      -423.2317      -432.2992      -438.1731      -439.0168      -440.8754
      -451.7910      -486.1406      -541.6261      -608.1396      -742.3025
      -834.2478      -720.8512      -566.5539      -371.2170      -106.8594
      -1.340904      -20.12646      -81.06665      -143.0500      -342.3633
      -545.3025      -345.3856      -136.1272      -397.8569      -593.7915
      -445.6478      -300.1455      -291.2601      -376.0050      -381.1672
      -169.6053       181.2901       201.9681      -40.81750      -227.6855
      -167.3787      -105.8571      -174.0937      -89.66565      -133.9420
      -310.0734      -14.25037       355.6611       326.8914       276.6537
       217.9658       112.4823       110.1761       304.8019       314.7623
       199.2007       321.2454       493.9550       546.2432       329.6256
       293.7133       436.6570       204.3842       18.64124       162.5067
       606.4863       815.6375       551.6482       541.9712       822.8816
       609.9199       32.32300       154.7419       641.0015       800.8099
       609.7917       722.4111       1099.508       722.5359       39.51178
       30.08374       673.7805       827.9240       617.4919       737.7510
       787.4087       791.0289       709.7799       312.4444       174.2072
       516.4100       683.4840       651.4004       659.7863       529.8894
       422.8015       388.7853       245.8185       357.9932       558.3927
       523.5593       472.4839       538.3330       549.4011       481.2837
       431.0328       408.0951       363.3495       244.4525       145.9086
       268.8702       462.7355       336.7267       86.31720       144.6169
       400.4918       612.3159       513.9521       416.9024       241.9109
      -120.3069      -153.4306       122.5783       193.8123       48.33337
       221.1144       328.6448       114.5491       74.94504       200.8211
       92.09225      -133.4494      -62.19629       176.2544       207.9243
       11.44336      -79.47299      -160.1196      -116.0337      -17.74779
      -71.61253      -8.452698      -22.27426      -112.1148      -104.4364
      -111.8307      -60.13705      -54.43237      -298.1333      -331.1782
      -83.36871      -10.69315      -154.8596      -192.4951      -143.5072
      -261.3300      -279.9194      -286.7122      -337.6146      -374.0181
      -380.4622      -242.5082      -136.7186      -216.8314      -312.0286
      -375.9614      -464.7573      -426.7747      -355.0458      -202.0850
      -176.3698      -340.5920      -272.7008      -293.6943      -480.0421
      -417.9479      -247.3192      -218.6553      -439.1187      -450.4216
      -112.9795       24.02588      -196.1256      -499.6166      -484.5424
      -220.2818      -105.3254      -245.9513      -556.3632      -463.2844
       37.31360       246.2892      -3.424866      -306.0923      -408.4689
      -356.1318      -268.3982      -94.64026       107.8891       104.7468
      -175.9606      -443.4722      -409.9350      -162.8708      -151.8402
      -318.5723      -171.6912       4.249115       133.4204       174.3618
      -66.47296      -273.0728      -299.7459      -210.1537      -110.8935
      -48.20099      -156.3885      -196.0211      -73.53500      -108.3916
      -203.3668      -165.4525      -240.8234      -404.1659      -188.7833
      -150.9835      -238.9361       87.75493       104.0129      -278.1455
      -367.6609      -267.7445      -369.8870      -503.9102      -372.1345
      -288.2745      -298.0681      -158.0417       29.10257       176.4420
      -38.33203      -433.4147      -679.6414      -484.0359       118.1125
       201.4609      -270.6102      -501.1182      -415.1400      -178.4912
       91.49876       31.17365      -82.72387      -8.564880      -74.36523
      -257.2380      -287.9776      -87.10742      -86.27704      -223.5118
      -350.1983      -379.0220       106.6611       480.0115       107.9526
      -233.2404       30.53207       91.75928      -113.4570      -196.3214
      -257.8634      -87.84302       158.4766       287.8517       308.6333
       142.4689      -96.47662      -158.4480      -17.62036       293.1747
       309.5848      -3.750275       61.46191       164.3403       229.3757
       432.8297       380.1089       199.7863       109.6003       11.24048
       106.0095       328.7672       188.2197      -112.0773      -37.39502
       348.4199       555.7975       494.4019       254.7897       146.3663
       346.5793       274.8489       237.1086       340.0455       175.9283
       99.40991       351.2245       330.6241      -30.50269       212.0797
       651.4126       481.6512      -34.71150      -115.0940       372.7472
       597.4006       255.8929      -9.940033       99.15735       161.0267
       33.84454       21.75427       231.4658       350.3674       95.00470
       61.38818       536.5160       600.3552       38.80092      -159.0159
       107.1664       182.7639       95.46350       265.9314       561.0234
       405.3953       88.34480       13.47894       24.16386       44.42880
      -67.89502      -45.75439       362.7324       616.7646       231.1545
      -73.69336       128.9910       349.5428       304.3143       126.1991
       196.6600       172.3065       139.7009       411.6789       397.8508
       123.9451      -298.0127      -504.2599      -48.58948       450.3657
       445.2161       291.1006       335.0493       300.1031       187.5539
       114.1325      -15.06578      -64.32874       91.14359       164.7403
       70.02722       126.7679       210.2127       181.2512       97.72174
      -74.42673      -24.07971       130.5979       161.3671       306.9043
       412.4409       32.55328      -369.8256      -251.6689      -114.9367
      -134.5638       109.6442       395.8657       202.2689      -244.0259
      -194.5197       236.9417       200.4219      -180.1579      -288.9738
      -109.6029       43.90503       171.8087       190.5280      -283.2227
      -565.7369      -28.59062       220.2068      -237.6151      -273.7521
       36.22424      -181.2611      -460.3685      -112.5558       147.3199
       28.48639      -165.8087      -365.8534      -116.1056       165.6151
      -237.8893      -563.3035      -399.1566       60.60727       169.7759
      -431.9379      -566.3254      -8.947998       229.5109       79.62830
      -145.9047      -337.1753      -434.6609      -309.8577      -204.3033
      -252.7337      -206.4316      -253.3698      -313.3419      -258.5122
      -225.9244      -137.4607      -50.96674      -32.28644      -265.3293
      -200.2129       295.1880      -65.44531      -596.1968      -72.33875
       183.7600      -315.2841      -282.4818       272.3639       297.6718
      -59.85461      -194.9291      -287.0220      -189.0667       182.6343
      -74.46826      -602.1571      -434.1565      -146.6800      -72.81323
       206.9613       313.7069      -5.004883      -353.4634      -498.0705
      -247.8571       156.1708       154.7759      -198.2473      -598.1218
      -512.9752       167.3769       371.9904       106.8967      -106.4404
      -211.0394       20.91940       168.0363      -4.736130      -53.60471
       149.6351      -28.30249      -400.9702      -422.0973      -508.8803
      -495.7858       60.88806       389.0162       170.3651      -66.41345
       94.71167      -137.7148      -958.6592      -1127.344      -564.2585
       15.37036       345.0105       624.8116       733.5630       150.8757
      -671.7865      -691.3488      -73.09225       40.13879      -212.6177
      -649.8555      -1548.575      -1498.932      -41.17993       684.8387
      -9.005981      -516.2434      -360.5866      -294.9861       344.3926
       1360.645       1193.664      -27.44873      -825.9178      -444.6821
       307.7131       985.8284       851.7830      -534.4873      -944.7408
       189.3548       395.0828      -281.2383      -447.1924      -263.9672
       245.5688       372.6304       409.2222       857.1371       838.1256
       190.4030      -602.2975      -533.2925       222.3277       299.7825
      -113.8855      -349.4375      -832.0959      -942.3370       116.5298
       1055.383       566.6418      -737.4141      -1036.776      -1132.418
      -1717.169      -1421.241      -313.0657       757.0646       867.8210
       75.30780      -293.8922       166.7107       603.3081       732.4204
       859.4150       944.1411       941.1975       136.1978      -933.1649
      -636.9115      -181.4683      -709.9055      -1075.399      -524.6882
       596.1982       1653.774       1998.902       1090.364      -310.3525
      -931.7751      -802.2653      -231.3577       351.9742       180.5461
      -158.1770       42.46240       532.1528       693.5735       677.5786
       1245.952       1467.599       739.9751      -496.8979      -1583.388
      -1243.793      -122.7559       248.8406      -168.1127      -503.5151
       143.4038       1148.331       1555.848       1329.545       921.2461
       906.0112       540.1143      -1.887054       162.2626       1.448120
      -364.7780       28.64688       203.4341      -124.8216       56.29730
       212.6337       29.71167       233.7046       652.1423       886.2228
       620.3172      -132.0740      -521.2925      -58.29883       582.6013
       637.6156       266.7023      -2.134094      -66.18580      -56.07434
       131.9644       216.5533       41.82772       7.583008      -36.19382
       39.53003       336.7125       297.8947       96.78137      -273.9883
      -1040.763      -1267.113      -692.3354       73.57898       460.4768
       489.6296       808.0374       576.4370      -683.1436      -1362.254
      -622.1030       230.0916       183.0095       474.8218       1409.211
       1263.181      -85.29492      -860.4438      -673.0894      -812.5491
      -1063.115      -412.5864       682.3357       1231.474       1035.263
       531.6880       210.6771       371.9288       584.1694       445.9553
      -66.48010      -667.7343      -707.6021      -282.5322      -121.1672
      -33.74277      -53.65137      -216.0947       140.8233       248.2429
      -497.0775      -749.2252       51.19165       698.2805       1131.242
       1695.643       1493.237       592.1562      -70.57983      -350.9527
      -372.2482       108.0046       726.7617       706.4238       451.1041
       517.9349       395.3399       19.75513      -137.3138      -407.6484
      -876.8118      -946.8627      -618.9872      -276.4919      -266.2863
      -478.8387      -486.9925      -228.9230       370.7910       759.7832
       403.2305      -195.0853      -449.8247      -543.4465      -556.5630
      -121.3072       226.4280      -15.44080      -354.6130      -440.7228
      -189.4865       93.29547       179.2863       143.9225       208.5026
       473.7629       353.0858      -176.9437      -403.7096      -528.4478
      -975.7798      -1181.737      -762.8341      -191.2273       398.9346
       895.5059       733.4103      -301.9443      -1212.877      -1299.478
      -936.1656      -440.1410      -183.1073       63.24902       613.3770
       754.2604       455.9891      -22.33252      -469.3733      -338.1754
      -1.793259       18.81657       20.44238      -255.8762      -658.1555
      -469.5297      -82.41058      -28.37450      -54.20807       178.9631
       528.5887       421.7483       38.07196      -33.20349      -206.2632
      -731.1838      -1099.222      -931.2817      -233.0619       172.7850
       90.67297       271.1348       792.0848       810.1884       228.8606
      -303.0120      -534.9171      -469.8065      -117.5520       467.6979
       590.9897      -1.648682      -45.22974       366.1057       105.2423
      -391.5034      -259.6529       100.6644       152.8749      -54.02673
      -336.3438      -624.1594      -626.1609      -378.8964      -60.67163
       274.9084       664.0327       649.2872       43.83228      -454.3209
      -636.2288      -471.5325      -217.3147      -378.5400      -739.0867
      -695.9692      -281.1675      -71.94385       24.03339       124.2629
       246.1835       318.1897       192.8063       158.0204       31.20892
      -339.7806      -316.4554      -291.4910      -704.6899      -835.8374
      -506.4097      -518.2219      -664.6968      -223.4521       415.2913
       491.4896       45.03845      -258.2164      -129.7246       72.45831
      -153.9397      -595.3336      -411.6104       327.0328       636.1756
       311.5504       76.03505      -1.855530      -161.7013      -323.9122
      -476.3586      -557.8873      -395.2474       47.89014       327.0225
       181.0381       138.2000       201.5145       79.82315      -66.80157
      0.2735596       438.8003       835.8452       720.8240       395.8228
       330.3115       379.8082       170.3303      -237.7566      -390.8905
      -77.64838       155.3546       115.8103       368.0503       570.4749
       361.9410       237.9110       302.2114       211.5987       124.2349
       426.9138       488.4839       21.41461      -317.5276      -341.0489
      -317.2552      -215.4882       244.8674       643.3024       580.9434
       462.9312       589.4456       756.7542       770.4846       522.7832
       223.2502      -43.06476      -281.9576      -109.2042       405.0437
       601.9718       339.1997       215.9374       410.3395       302.5021
      -18.01410      -66.69745      -31.02231      -73.19821      -82.71001
       11.88153       179.8855       328.9039       375.0830       194.9443
       30.25717       146.5753       142.6171       91.39832       259.2443
       186.3846      -119.5117      -291.0934      -321.7530      -292.4714
      -300.5752      -307.9877      -252.4772      -33.00000       461.6549
       601.1580       389.1392       437.1804       458.4422       346.8324
       218.6243       122.5959       32.63806      -294.4519      -535.9225
      -334.7852      -53.27312      -16.09924      -200.1630      -261.8654
      -204.7913      -407.6188      -597.4987      -512.2919      -410.1981
