     0.02500000      -2869.932       3205.770      -12345.00      -12345.00
      -29.99998       215.3000      -16.65000      -12345.00      -12345.00
       0.000000       12.40000      -12345.00      -12345.00      -12345.00
      -12345.00      -12345.00      -12345.00      -12345.00      -12345.00
      -12345.00      -12345.00      -12345.00      -12345.00      -12345.00
      -12345.00      -12345.00      -12345.00      -12345.00      -12345.00
      -12345.00      -30.93890      -68.49280       993.0000       0.000000
      -31.37200      -68.11800       0.000000       97800.00       0.000000
      -12345.00      -12345.00      -12345.00      -12345.00      -12345.00
      -12345.00      -12345.00      -12345.00      -12345.00      -12345.00
       59.85764       323.2455       143.4385      0.5381868      -12345.00
      -12345.00     -0.9032677       90.00000       90.00000      -12345.00
      -12345.00      -12345.00      -12345.00      -12345.00      -12345.00
      -12345.00      -12345.00      -12345.00      -12345.00      -12345.00
      2008       244         6        45        22
        50         6    -12345    -12345      9813
    -12345    -12345    -12345    -12345    -12345
         1         7        13    -12345    -12345
    -12345    -12345    -12345    -12345    -12345
    -12345    -12345    -12345    -12345    -12345
    -12345    -12345    -12345    -12345    -12345
         1         1         1         1         1
MONA    -12345          
        -12345  -12345  
-12345  -12345  -12345  
-12345  -12345  -12345  
-12345  -12345  -12345  
-12345  -12345  -12345  
-12345  -12345  BHE     
ZL      -12345  -12345  
[...]
       283.0018       284.4366       289.3636       307.8986       308.9653
       307.4980       319.1983       321.2072       316.8936       326.4077
       327.0037       322.5638       324.4402       326.6313       319.9965
       318.9944       325.0704       318.7596       315.1461       326.3522
       324.9673       316.8429       326.1274       328.2317       319.0886
       328.5576       335.6831       328.3858       337.4308       347.8382
       336.2460       328.8390       339.2140       336.1514       328.2800
       334.8566       328.1678       309.4038       309.3115       303.5555
       280.6089       270.2955       262.2169       242.7003       235.0528
       232.6409       212.8153       197.7381       194.6488       180.2739
       164.9663       160.1167       143.3265       125.9662       116.3440
       108.8580       90.04590       78.25099       68.30670       51.02065
       35.83743       35.33897       19.19744       6.449894      0.6381721
      -7.543121      -22.00868      -27.38348      -39.08893      -53.89767
      -60.78021      -64.63989      -79.19684      -90.13312      -98.66043
      -111.7733      -125.7394      -136.5356      -153.3658      -163.1447
      -172.0305      -187.0051      -198.6505      -203.8901      -219.7036
      -232.7880      -232.9907      -238.7908      -249.5035      -252.9293
      -254.1147      -265.9809      -261.5955      -263.5262      -273.1697
      -278.5939      -273.6945      -277.2101      -278.9519      -276.7148
      -277.3741      -285.9415      -277.5637      -274.5182      -275.4925
      -275.2534      -269.7119      -276.7792      -276.2867      -277.4456
      -281.9569      -282.3660      -279.8571      -288.1907      -290.6354
      -290.4022      -292.4734      -298.8147      -298.9422      -304.0496
      -310.3429      -307.9307      -304.6885      -305.9950      -304.5486
      -303.6271      -312.4207      -313.3721      -310.8674      -311.7145
      -310.3644      -301.7090      -296.3224      -287.2041      -277.2593
      -273.9152      -268.0087      -252.1899      -245.5253      -241.0785
      -227.3693      -216.4796      -216.5286      -207.8303      -196.2969
      -197.6947      -193.1304      -178.8848      -175.8629      -167.4865
      -157.2620      -152.4617      -146.8856      -133.7526      -127.6659
      -122.7999      -112.2615      -98.53635      -94.32460      -85.01016
      -73.52095      -64.30847      -56.62875      -39.53313      -32.79201
      -28.45691      -13.25301      -5.190163      -3.183914       12.73801
       22.06855       23.89486       38.53560       48.41296       50.34470
       64.09268       78.91577       80.41464       91.03128       109.3439
       113.7538       122.0156       137.0168       144.6365       154.0037
       166.6960       177.2733       179.6593       194.1069       206.1604
       209.3610       222.6279       234.5975       236.1219       248.0310
       260.9968       261.2883       267.8492       286.8243       284.9596
       290.2787       306.8989       314.2732       314.2852       326.5956
       330.3021       327.5012       337.7267       344.4392       340.1521
       346.1310       347.0354       340.2855       340.9575       341.8572
       332.2634       330.0923       334.7766       329.8867       325.5085
       323.7936       317.2533       312.5453       309.3813       301.8500
       298.5423       293.2040       287.4072       279.9138       275.4181
       267.5035       257.7847       254.7177       249.2988       236.6243
       230.0958       225.7405       214.7740       206.0388       200.7501
       189.4438       178.6090       169.5673       164.8745       160.6215
       151.9312       143.4056       136.7799       126.1073       114.7145
       107.9590       101.3690       94.38422       85.40625       77.03105
       69.51706       60.48851       54.90002       47.28700       38.86461
       35.32191       31.73286       27.41805       19.38020       14.04933
       4.053127      -5.082382      -9.987713      -16.34470      -25.65852
      -35.63704      -39.33357      -35.43798      -24.96070       3.108490
       30.43860       32.14203      -14.53973      -97.07550      -165.2983
      -187.6577      -218.0301      -263.3083      -280.9839      -284.8947
      -331.5853      -307.6836      -217.7036      -189.3952      -93.26601
       72.72932       21.44763      -208.5011      -167.9368       173.4967
       214.5335      -31.84149      -109.8692      -170.4799      -237.5223
      -141.5262      -55.62336      -38.24530       94.28799       169.4367
      -4.485733      -128.0794       6.162994       84.03043       31.54193
       154.7719       309.6443       59.46698      -268.0982      -184.1174
       5.678284       175.0287       464.0631       502.2266       250.5900
       170.7242       223.1473       77.99603       27.23120       275.0024
       438.9175       406.8657       200.4480      -65.19543      -156.7042
      -33.89316       115.6365       216.9886       313.5219       219.4436
       182.7130       343.7983       313.7686       25.26775      -58.57837
       202.6462       290.0992       110.5084       65.47827       256.7777
       329.1180       27.43250      -222.4739      -171.5333       8.522705
       198.8035       309.8859       348.3781       265.3014       168.6700
       120.2470      -203.8885      -469.8134      -199.5232       190.0447
       305.4915       269.7515       193.3110       178.6169       95.22771
       29.79218       158.5443       107.7193      -49.05676      -73.06720
      -220.9932      -343.4283      -217.4033       261.8926       695.7279
       470.4017      -23.22266      -372.9248      -672.8793      -634.8326
      -45.12671       659.4972       686.0781       94.22662      -229.5287
      -219.1870      -290.8162      -358.7435      -128.3182       163.6323
       67.12508      -16.93996       1.830139      -220.2067      -461.7373
      -518.7825      -549.2060      -380.9320      -66.35016       88.13277
       55.55005      -136.0284      -322.6332      -262.8840      -212.6003
      -281.1143      -267.1650      -277.7291      -383.1598      -360.4862
      -317.8481      -506.1182      -648.7272      -501.8268      -417.2625
      -520.5237      -607.1963      -482.9662      -241.6635      -122.2617
      -150.9818      -57.18243      -92.85876      -398.9214      -614.0994
      -599.3687      -464.2052      -422.0349      -524.0209      -412.0005
      -129.5981      -52.82495      -217.6674      -480.1223      -727.1155
      -714.5520      -421.5556      -126.3642      -108.8031      -183.0837
      -377.7234      -707.6587      -750.4188      -520.3403      -365.7548
      -342.8784      -409.7699      -422.8610      -297.2758      -134.3663
      -222.0403      -497.0634      -527.3086      -196.0341      -38.85901
      -196.8960      -364.2393      -352.3259      -341.1702      -409.2985
      -320.2759      -71.80431       27.46680      -162.1543      -399.4815
      -305.9122      -105.6120      -63.49673      -93.11810      -133.2044
      -273.6583      -432.5045      -458.7838      -253.4697      -6.589722
       160.3584       169.7557       67.05119      -46.37616      -146.6298
      -64.43133       71.81055      -39.13004      -140.1659      -31.31286
       16.61414      -79.24139       74.23285       230.9866       11.27789
      -209.2077      -138.3605       18.08362       149.8557       437.0996
       628.4108       348.2347       104.4147       92.15613      -112.2302
      -268.9098      -54.78333       249.2175       484.2380       599.2854
       478.9149       270.2427       257.7301       370.0153       301.2890
       128.5965       107.8030       176.2009       321.3743       478.1240
       585.5825       471.6099       247.3076       214.5181       364.4910
       578.8107       691.6498       468.3154       106.3939       71.17920
       372.2634       608.6492       653.4772       514.7914       335.2678
       305.8745       461.2216       548.6477       497.9828       466.7197
       409.7866       340.7832       539.9534       797.3966       669.1362
       465.1960       739.0786       1112.387       838.0308       71.76184
      -332.7716      -46.48547       529.2112       961.3875       1089.850
       725.3448       272.0691       328.7451       696.7678       864.0035
       573.7101       182.1294       202.5682       370.1913       447.5938
       563.3723       588.3915       323.5632       108.5105       323.8566
       678.7805       446.9147       91.37488       268.2372       367.8481
       109.0490      -71.62646       128.3153       529.1338       500.7075
      -88.03131      -325.9286       169.8065       414.4272       28.55359
      -239.6186      -47.49472       120.4659       13.67465      -18.57544
       115.4640       135.6313      -14.59418      -218.6677      -138.0147
       192.9615       99.26135      -216.0372       27.14398       333.3859
      -99.59290      -644.4482      -350.1111       117.0333       43.38669
      -23.62231       243.0112       299.8690      -51.15265      -289.6961
      -35.46262       132.4296      -187.3777      -455.8041      -219.3427
       105.2111      -17.27356      -286.1174      -228.1113      -292.7068
      -398.2279       50.34888       779.8834       783.3049      -83.34766
      -670.5974      -535.7833      -381.4758      -371.9631      -339.5320
      -202.6897      -42.68111       20.97327      -143.5131      -366.0570
      -306.2498      -124.6009      -105.3087      -17.21716      -91.26282
      -407.5800      -471.3754      -347.8434      -266.5276      -212.5215
      -342.7539      -488.4055      -487.2010      -335.7953      -148.9752
      -222.7841      -469.1430      -345.9415      -100.6028      -216.8883
      -292.6396      -105.8140      -118.1982      -304.9752      -250.6351
      -124.9080      -292.0829      -555.7825      -648.6201      -505.3846
      -257.4761      -123.1013      -147.9735      -122.6387     -0.8553467
      -69.11951      -379.6207      -442.9135      -183.8539      -175.1035
      -511.4146      -495.3305      -83.61618      -5.583862      -467.3389
      -755.1206      -437.4720      -49.04852      -87.99716      -187.2415
      -115.0811      -145.9807      -438.8372      -727.7661      -561.6136
      -284.5587      -346.5590      -349.9182      -297.2607      -476.9453
      -524.3031      -313.8787      -288.6101      -329.1197      -158.6616
      -35.40120      -1.857971      -16.87073      -267.5157      -411.9385
      -363.0005      -479.3914      -558.9349      -319.5770      -152.6670
      -420.5023      -517.1815      -123.3339       67.39978      -159.1984
      -407.9086      -529.9475      -438.1613      -258.2667      -194.4441
      -161.9507      -254.8452      -458.4598      -512.8303      -447.9463
      -396.7809      -347.5974      -267.6030      -177.3325      -129.7651
      -137.5374      -128.9876      -175.0406      -171.4924      -30.18831
       73.01257      -192.1389      -684.7471      -910.1781      -631.8207
      -191.9208      -68.91443      -233.3491      -368.7107      -397.0275
      -310.5748      -15.51465       343.0376       295.9639      -149.8734
      -592.6230      -740.1113      -545.1777      -153.9628       150.8597
       249.7133       53.93811      -284.3939      -313.7202      -106.0548
      -28.56055       51.04175       181.7925       125.0049      -341.6133
      -809.3019      -752.3732      -452.3158      -409.4468      -372.8281
      -30.19086       191.6973      -398.4116      -1488.347      -2233.657
      -2253.261      -1746.518      -1161.783      -825.7922      -504.6466
      -145.4325      -22.64771       730.5527       2341.877       2872.069
       1238.254      -1096.958      -1773.856      -499.8252       822.6560
       1002.331       736.1011       927.9824       1201.208       1041.992
       1103.686       1922.178       2839.876       2424.289       481.3706
      -489.7054       531.1475       943.1373       130.4747      -87.90436
      -9.937988      -915.9614      -1904.712      -1585.417      -533.8223
       501.0825       1465.702       1759.889       1473.238       1470.401
       1241.678      -264.8601      -1353.159      -227.6685       1354.889
       1943.086       2353.114       2742.371       2102.248       131.0737
      -1129.754      -745.7064      -323.5013       136.0420       1175.434
       1577.464       1091.767       782.4202       996.2197       1320.244
       971.3771      -151.5985      -576.6230       91.90918       876.9502
       1351.688       1402.077       721.6995      -490.2991      -1053.064
      -82.08740       1746.581       3092.072       3205.770       2008.175
       266.5810      -336.9227       522.6790       899.5157       113.0876
      -196.7671       197.7634       204.0594      -189.0649      -667.7783
      -1277.163      -1146.509       312.6895       2012.843       2736.984
       2440.128       1801.905       783.2852      -764.1284      -1559.980
      -776.5649       714.6123       1954.534       2463.111       1843.285
       395.3931      -1140.433      -2376.073      -2765.190      -1690.345
       35.58350       1144.257       1544.545       1657.631       1830.821
       1670.288       708.0308      -200.5687      -204.5444       585.8950
       1416.332       1331.240       280.4996      -450.0108      -244.6014
      -160.0103      -504.9539      -708.4238      -902.2153      -1060.167
      -1050.438      -986.7543      -478.2229       557.1699       1592.955
       2275.109       2183.738       1260.445       188.0188      -181.3181
       58.65985      -18.96460      -401.8604      -555.4570      -949.2163
      -1708.713      -1914.388      -1308.398      -854.1755      -523.1345
       468.4370       1424.027       1342.937       494.9638      -117.8915
       14.22546       486.1523       820.7388       904.8533       955.2872
       816.2161      -51.03906      -1429.718      -2365.189      -2468.298
      -2106.618      -1447.230      -568.6582       134.7795       528.4551
       920.0483       1315.033       1219.989       624.7402      -47.38843
      -514.8545      -774.1707      -1083.486      -1289.486      -766.6870
       53.39276       123.4453      -542.1997      -1160.309      -1349.105
      -1363.669      -1351.038      -1242.972      -957.6827      -534.6338
      -614.1692      -925.3775      -393.2334       532.4617       618.5375
      -160.4674      -665.1284      -469.4755      -212.1685      -271.7212
      -732.4463      -1423.005      -2205.915      -2818.906      -2740.124
      -2386.562      -2239.229      -1790.486      -992.6608      -279.1495
       300.3801       820.0549       1057.279       791.9407       287.4191
      -218.5894      -832.5742      -1635.716      -2254.137      -2092.497
      -1519.396      -1398.680      -1489.419      -802.0156       481.0668
       864.6600      -56.96582      -781.7410      -231.8018       702.8066
       577.9624      -341.7271      -821.6245      -647.1887      -187.8708
       239.6267      -170.1377      -1682.255      -2869.932      -2738.803
      -1918.031      -1128.759      -538.8929       4.604187       311.9105
       143.9357       123.6266       348.1942       231.4742      -15.69641
      -152.3379      -520.8329      -713.3436      -457.1392      -209.4672
       9.513123      -11.98022      -500.3812      -601.9491       108.1477
       934.4487       1268.944       842.2103      -64.15845      -582.8311
      -392.0255      -34.40166      0.7859497       106.4021       550.9087
       835.4634       772.9761       689.9899       425.2975      -190.9829
      -679.9302      -936.0405      -1245.340      -968.6051       213.4333
       994.7087       477.9114      -392.4153      -448.1895       303.9846
       1123.216       1723.785       2382.523       2826.021       2224.897
       777.5461      -341.2745      -486.4042      -129.4373       272.6348
       648.7056       851.5493       769.0446       542.9821       361.1949
       349.5088       595.8442       874.9180       693.5547       379.1631
       585.2998       1083.191       1228.858       1184.999       1262.481
       1294.922       1071.515       593.8927       280.9883       514.1089
       884.7209       1014.408       1085.681       1197.291       821.3715
       118.4280      -254.2183      -315.3389      -68.93652       652.3826
       1304.270       1351.495       1217.849       1487.803       1648.406
       1360.126       1029.919       788.6848       447.5477       66.85805
      -84.64917       129.7583       483.5215       817.5210       1107.909
       1187.294       824.8789       127.8012      -313.3429       21.00146
       484.8528       317.3061       118.5605       564.2197       1090.351
       1138.258       770.4322       286.7828      -28.35361      -172.6072
      -150.3057       301.3042       753.3872       544.9591       107.4734
       79.07642      -73.59058      -545.3492      -600.4429      -88.32886
       345.6390       432.4510       347.7443       82.44067      -358.3195
      -581.5929      -560.3289      -479.8628      -673.6841      -1140.787
      -1029.229      -329.1869      -200.6877      -666.4392      -768.9897
      -558.6572      -546.3251      -492.7853      -97.54675       341.6406
       519.5707       487.0445       252.5081      -14.94189      -265.0803
      -852.1396      -1483.313      -1121.968       130.1689       1056.307
       1067.405       434.2880      -161.9896      -315.8462      -597.3225
      -1063.397      -1145.774      -963.3999      -858.2971      -799.9128
      -655.7480      -600.9023      -866.9465      -1120.461      -878.1386
      -91.52490       661.6362       738.9485       290.4995       83.88025
       84.96094      -209.8445      -515.0088      -492.2181      -425.8916
      -381.9609      -207.6765      -245.6947      -571.3718      -778.5649
      -903.6882      -1019.352      -926.6008      -487.0339       2.957764
       197.1550       268.5616       328.3769       235.8630       162.6249
       381.0442       676.9004       771.0618       731.8254       551.4430
