     0.02499998      -16189.29       9430.037      -12345.00      -12345.00
      -30.00018       213.7497      -14.85000      -12345.00      -12345.00
       0.000000       10.88000      -12345.00      -12345.00      -12345.00
      -12345.00      -12345.00      -12345.00      -12345.00      -12345.00
      -12345.00      -12345.00      -12345.00      -12345.00      -12345.00
      -12345.00      -12345.00      -12345.00      -12345.00      -12345.00
      -12345.00      -31.57700      -67.87020       833.0000       0.000000
      -31.37200      -68.11800       0.000000       97800.00       0.000000
      -12345.00      -12345.00      -12345.00      -12345.00      -12345.00
      -12345.00      -12345.00      -12345.00      -12345.00      -12345.00
       32.72827       134.0520       313.9233      0.2942687      -12345.00
      -12345.00     -0.1115053       90.00000       90.00000      -12345.00
      -12345.00      -12345.00      -12345.00      -12345.00      -12345.00
      -12345.00      -12345.00      -12345.00      -12345.00      -12345.00
      2008       244         6        45        20
       250         6    -12345    -12345      9751
    -12345    -12345    -12345    -12345    -12345
         1         7        13    -12345    -12345
    -12345    -12345    -12345    -12345    -12345
    -12345    -12345    -12345    -12345    -12345
    -12345    -12345    -12345    -12345    -12345
         1         1         1         1         1
NIKI    -12345          
        -12345  -12345  
-12345  -12345  -12345  
-12345  -12345  -12345  
-12345  -12345  -12345  
-12345  -12345  -12345  
-12345  -12345  BHE     
ZL      -12345  -12345  
[...]
      -549.4999      -544.5099      -536.4270      -525.2750      -521.0625
      -509.3727      -499.2275      -484.4243      -476.1147      -462.3186
      -452.4701      -434.8582      -421.2795      -403.1715      -389.4794
      -371.8848      -360.3691      -341.5122      -326.3657      -304.7839
      -291.6769      -271.9124      -254.4169      -231.9980      -215.4839
      -195.1129      -179.6674      -158.7928      -140.7299      -121.6381
      -103.9850      -82.66438      -64.60211      -44.62429      -25.26238
      -4.793705       14.20129       33.14182       53.26198       73.92609
       91.71436       112.9698       132.6841       151.8905       169.6559
       188.8423       207.7090       228.5803       245.0326       264.9835
       281.7947       301.7775       322.6781       341.6073       355.9370
       375.1685       393.6337       409.4875       422.0748       438.5389
       453.8265       468.3895       481.3331       498.7720       511.1956
       520.7585       525.9589       537.7869       550.5703       560.8910
       563.0160       570.7081       580.9873       585.8580       588.6575
       596.0730       603.3721       607.5439       609.7301       609.8206
       612.4917       613.0898       613.0488       612.4635       613.3688
       611.3066       611.0068       608.2351       603.2986       598.1631
       594.0702       587.3469       580.3833       575.2452       567.7540
       559.6108       552.7849       548.7144       537.6384       527.4161
       519.0253       511.2754       498.4363       487.3917       474.9294
       465.2190       452.4548       441.2726       428.5505       419.0969
       407.2738       394.6699       380.1553       367.2302       354.6675
       344.5918       331.1791       315.2020       299.2654       285.8370
       271.8848       257.6161       240.5773       227.4865       215.4543
       200.4529       184.4761       170.8961       156.0285       141.3595
       127.8191       114.2402       97.91022       84.35135       71.25288
       60.50196       43.31413       27.56775       11.66428      0.7961273
      -14.16251      -25.05762      -35.85611      -41.92862      -59.66751
      -71.40201      -82.03641      -88.15204      -103.6538      -114.1452
      -125.7169      -128.9141      -139.9816      -148.8244      -161.0504
      -165.1194      -174.6895      -182.6718      -195.5610      -198.9825
      -208.0757      -214.3287      -224.8425      -229.5690      -238.4445
      -243.5193      -251.9984      -255.6804      -260.9022      -263.2947
      -270.4739      -275.3910      -278.9060      -282.2992      -291.2505
      -295.6106      -298.7146      -302.0441      -307.7918      -311.2946
      -315.4131      -318.7633      -323.3854      -327.9485      -328.6667
      -330.0169      -335.2719      -340.3402      -341.1462      -343.4994
      -345.6663      -346.2520      -343.5776      -343.6494      -344.9125
      -344.5643      -341.7452      -339.1396      -337.4896      -339.1961
      -335.9414      -331.7383      -331.2817      -330.9670      -326.1709
      -320.7029      -317.2136      -317.4119      -310.5670      -301.8387
      -294.4496      -290.6585      -284.7615      -279.8038      -272.3294
      -271.4865      -262.7836      -257.4991      -249.1622      -247.9016
      -242.3800      -237.9533      -226.5798      -227.1324      -221.6325
      -218.8976      -210.9599      -208.6033      -201.2720      -197.2902
      -186.7534      -187.7792      -181.7939      -177.2377      -166.7301
      -167.5802      -162.5591      -159.1632      -147.8808      -149.4402
      -143.1849      -140.0768      -129.7133      -129.9329      -122.0547
      -119.0963      -110.2311      -110.1772      -104.4459      -104.0833
      -96.66071      -95.22949      -91.21161      -90.05713      -82.20746
      -81.45621      -77.66629      -74.96390      -69.00845      -67.16061
      -61.24036      -60.39441      -57.64749      -54.13416      -49.00079
      -47.51947      -43.71928      -44.14275      -38.95326      -38.53995
      -33.75484      -33.07602      -28.79618      -26.77419      -21.53396
      -20.12649      -16.01329      -17.10910      -12.24436      -11.72960
      -8.862087      -8.495054      -4.776179      -4.671420      0.9950590
     -0.2971392       2.929122       2.348749       8.289021       7.954350
       5.560265       1.463093       9.124355       10.06265       10.37413
       8.527168       14.07268       14.33964       13.17362       10.35408
       15.06113       12.44726       10.41932       8.280106       11.60750
       10.01102       12.89006       7.539650       7.241516       6.244987
       9.879768       4.035882       3.782102       1.160360       5.185125
       2.548484       4.766484      0.8645878       5.180086       3.564299
       4.636999      0.6027012       4.966731       1.284724     0.05168629
      -2.571189       2.772912      0.4007931       4.336712       3.418024
       9.220367       9.624660       15.20982       14.35892       20.20294
       22.27747       29.65264       31.77331       37.21880       40.36491
       50.08151       54.12712       61.67424       68.83687       78.49084
       83.99103       92.30649       97.04922       107.7443       115.3384
       120.8927       127.1382       135.2341       142.3958       147.4505
       151.1354       157.9131       164.0012       168.0221       172.2570
       178.6438       183.5616       185.0981       188.1793       195.1826
       197.9993       202.5353       206.3505       212.6784       213.2063
       216.7235       216.8363       222.5582       224.1185       227.6972
       225.9491       234.4462       237.7764       237.1401       232.0657
       240.6279       241.1791       243.1904       240.2087       243.9728
       244.2742       246.4305       242.6243       247.8420       246.7153
       239.0688       252.4100       206.7837      -213.3448      -201.4436
       486.8032       799.1621       862.7677       272.9871      -194.2961
       84.26831      -876.9908      -1219.210       1394.863       2558.149
       963.7180      -378.6892      -847.3545      -447.3434      -591.2676
      -266.1055       1206.341       1305.177       1097.950       734.1985
      -1059.245      -593.6740       32.94067      -1304.214      -672.6104
       839.3169       1087.612       567.3503       171.0869       344.0698
       515.5078       193.3527      -550.1034      -263.8519       295.6479
      -710.6348      -136.5348       476.5549      -918.1914      -217.1603
       312.8517       197.6227       835.3345       164.3867       231.5836
       322.6223      -494.6058       104.0151       216.5020      -772.4365
      -484.9849       243.9908       39.09485      -192.8776       2.556885
       112.4893       214.3781       349.1333      -317.7158      -563.0885
      -185.6925      -208.7595       49.41656       288.5694       116.7074
      -296.4400      -283.6883       363.0129       244.6827      -524.8920
      -476.4267       64.08289      -199.0671      -517.3052      -65.51196
       246.6055       410.9177       388.1906      -226.8374      -613.1550
      -344.8704      -6.467285       297.6353       692.4181       318.3765
      -535.9148      -561.0997      -246.5198      -538.6897      -583.2563
      -88.28058       79.00122      -147.7836      -131.7172       51.43921
       304.1471       415.7960       268.3391      -19.08894      -108.5345
       117.3738      -128.7330      -362.9315      -289.4862      -325.9344
      -369.2617      -225.2850      -36.36322       97.77600       475.4896
       682.8955       411.5081      -220.7109      -706.4452      -268.9374
       245.5659      -222.6802      -557.7281      -334.0642      -60.56689
       339.7418       467.2461       260.0828       172.1063      -47.72803
      -428.1279      -593.6542      -362.7163       36.52713       175.5305
       110.4801      -63.76357      -122.6890       40.37805       370.4886
       266.3325      -523.1277      -581.2167      -103.0763       29.55774
      -29.11133      -259.2532      -290.8101      -95.19159      -181.8671
      -240.3695      -5.876831      -118.5956      -534.1780      -300.7172
       318.4806       141.7413      -509.2197      -453.9436      -59.87433
      -213.9998      -137.0890       134.3303      -354.2126      -536.9268
      -212.3240      -454.4772      -505.6645      -120.9814       58.44849
      -111.8546      -311.8897      -262.3495      -177.3337      -109.8113
      -279.0748      -650.6918      -733.7246      -308.1685       77.75833
       120.0953      -4.246216      -433.4746      -658.7965      -459.5582
      -219.8714      -58.26640       50.69559       21.28540      -202.8557
      -502.9321      -797.8058      -475.8378      -109.5055      -476.8178
      -331.6378       218.9961       176.2050       174.6280       199.8938
      -68.53003      -225.2842      -405.5765      -621.4425      -384.4138
      -33.51193       65.92816       183.6926       39.89642       39.86914
       454.0487       207.8674      -478.7312      -369.3261       209.4401
       219.5919      -269.7277      -336.2373       182.7835       314.1185
       96.41565      -191.9299      -230.8947       297.0905       110.9689
       11.49927       648.6318       575.3550       154.7059      -155.6246
      -368.3799      -157.4567      -55.25589      -212.9917       308.7393
       1043.577       736.2526       165.9069       391.5948       775.1554
       325.9241      -20.48666       154.5172       54.43207       184.4135
       74.90210      -188.4542       323.5679       775.3069       591.0508
       226.4368       107.3994       750.0781       1362.439       1031.307
       332.2741      -82.63892       34.64517      -73.35205       136.7787
       723.4590       452.1511       305.5198       332.8306       358.2334
       895.8732       788.9475       325.6461       408.3241       617.2898
       641.0482       134.8709      -90.47046       455.4531       731.1680
       371.1890       364.1270       825.3475       714.3002       358.5647
       340.3064       499.6945       590.3675       245.5759       49.10406
       53.50217      -88.02289       132.0363       59.52789      -148.3497
       340.7393       312.9741       103.8804       512.4817       577.5433
       413.6257       177.5448       1.815430      -117.8698      -239.9993
       136.4737       135.2587      -87.88074       215.1276       128.6372
      -149.5151      -143.3577      -26.57361       233.6761       144.2581
      -55.43817      -127.7495      -282.5135      -227.5754      -315.3628
      -566.0680      -274.1753       62.94357       13.38672       206.1368
       262.2873       70.82422      -365.2215      -512.9069       1.963501
      -77.91040      -576.4656      -483.6580      -281.3831      -283.5891
      -358.9799      -554.3896      -306.1692       443.5673       168.8578
      -587.4170      -237.3081      -215.1240      -989.6984      -797.9416
      -126.2478      -112.0632      -247.0441      -362.6967      -313.0370
      -221.2512      -360.9670      -146.2768       90.37512      -194.4128
      -587.9055      -611.2817      -699.1545      -719.4996      -73.10576
       84.55515      -153.5681      -86.42383      -396.0129      -676.1346
      -437.0785      -320.7460      -541.4774      -528.5419      -61.56384
       121.3662      -349.1293      -566.0443      -346.3870      -188.6604
      -125.2984      -30.85889      -290.1366      -547.2806      -212.6786
      -7.395264      -214.6812      -586.6689      -551.8301      -222.9743
      -175.1633       8.451431       94.12057      -93.64996      -250.9312
      -235.6885      -79.33795      -192.0698      -356.5063      -363.8134
      -374.0970      -72.88934       272.4576      -16.69891      -266.5095
      -256.8042      -208.5465       228.4408       65.74374      -80.99387
       196.3853      -124.6158       60.56836       112.2042      -289.7319
      -510.7770      -647.1909      -10.54053       534.3329       603.2181
       382.0406      -181.6750      -190.5681      -97.01303      -32.24011
       319.2479       86.20580      -77.18390       329.2233       86.87239
      -196.9984       179.1462       273.8431       306.8642       216.7339
      -128.6676      -196.2187      -373.1650      -21.53320       564.1173
       478.6069       495.6936       264.4884      -294.8702      -261.2090
       92.95068       468.6250       1227.337       1534.916       705.8438
       1242.404       4391.889       7222.834       5312.761      -626.1306
      -2266.148       2787.096       5311.812      -669.3242      -12488.64
      -16189.29      -1303.135       9430.037       3009.525      -2449.569
      -2725.274      -3084.561      -3050.635       738.9502       5545.008
       4239.238       117.9541      -1412.235      -1442.852      -2259.314
      -3029.808      -354.0918       3960.979       4277.457       684.1504
      -3665.009      -1719.560       6283.892       4348.883      -6322.268
      -7836.450       248.0674       5466.726       3999.395      -220.1279
      -2497.133      -1682.304      -1178.935       149.7153       595.5756
      -264.0811       2331.313       2407.005       250.5239       1495.545
       650.8154      -1855.304      -1727.744      -929.9636       512.7588
       2039.756       1577.328      -445.5732      -2096.383      -1473.989
       503.4795       1057.356      -395.6089      -1870.252      -2184.089
      -806.0532       1678.361       3124.937       2578.531      -601.7427
      -2469.627      -121.0596       2791.588       3771.125       1183.742
      -2860.033      -3565.630      -1188.395       280.2487      -497.0140
      -615.1401       516.4666       1294.463       92.74780      -1427.668
      -121.9270       1256.654       648.2227      -225.0759       140.4756
       1506.479       1311.628      -441.9258      -1273.812      -1080.815
       2.991943       978.6718      -157.9485      -1101.973      -474.9414
       266.9976       511.0010       909.1501       1449.841       700.9219
      -318.4023      -956.9292      -1289.372      -577.6968       798.1782
       952.0125      -810.6094      -1908.456      -1029.904       1408.314
       2931.002       1182.964      -803.0577      -822.8699       165.4424
       1513.957       526.5176      -1447.188      -1172.008      -1809.385
      -2676.451      -1049.517       47.38757      -24.21777       1070.600
       2460.689       1867.752      -123.7138      -451.1863       1097.296
       1482.175       512.4268      -949.4238      -2430.528      -1787.982
       136.6812      -401.7085      -2007.192      -942.0596       1014.912
       1196.196       395.2056      -509.6423      -302.9907       1254.697
       1502.529       339.3258      -36.46538       71.35406      -172.7850
      -133.8570       414.4041      -177.7751      -1252.675      -1283.696
      -1290.266      -1110.195      -550.5966       178.3096       1338.693
       1334.258       53.53583     -0.9511108       290.8535      -956.8760
      -1205.470       514.2222       983.3607       345.7433       409.8920
       255.1260      -284.0768      -447.1479      -306.1785      -841.9546
      -1697.889      -1973.486      -1427.403      -280.4874       397.3317
       559.3718       154.3752      -440.6901       149.8110       833.2139
       602.3632       349.1534       57.93359      -480.1494      -553.5115
      -270.0298      -342.3953      -661.0779      -876.5776      -689.2327
       66.94543       698.1118       565.9235       238.9495       464.6133
       243.1552       85.18896       334.6062      -259.9280      -931.6667
      -1085.975      -474.0955       421.4266       184.5927      -557.7529
      -233.0137       796.0679       761.4395       658.8032       976.9142
      -217.1001      -1340.724      -392.7876       426.4334       327.1231
       162.4038      -320.6885      -684.7882      -714.8882      -487.8834
       105.0087       228.7116      -125.8576      -106.7313       458.1169
       411.1862      -140.8885       98.91003       238.7340       213.7500
       685.1758       373.3771      -209.8128       19.29291       299.4019
      -344.8567      -1171.130      -481.9224       609.2537       197.4351
      -654.2144      -365.4501       556.8938       753.9639       828.6116
       1103.031       742.2845       391.2570       532.6952       160.9978
      -463.6046      -128.7111       368.3959       45.08289       16.81482
       199.3895      -263.8395      -281.2656       467.5566       594.4371
       428.5486       513.6235       279.2263       37.04138       316.8086
       568.4609      -81.81787      -602.4631      -86.67090       460.9854
       872.3597       705.3168      -182.9523      -590.6396      -401.2818
      -170.7869       562.8713       928.2467      -77.62360      -424.0258
       329.0469       915.0425       1066.441       311.7085      -656.9838
      -870.4059      -108.1992       612.1542       116.8628      -490.8857
      -136.7933       264.7462       78.24951       209.4933       567.4458
       356.8167       179.8948       65.45532       314.6797       805.0771
       634.5712       248.1209       58.41016      -416.1726      -625.2511
      -387.8016      -264.9548      -308.9792      -711.0703      -380.9272
       146.0507      -123.4374       156.2011       393.2300      -391.2114
      -669.9523       11.87122       266.4311       116.9084      -341.7488
      -883.7144      -329.4651       487.4738       429.8586      -54.33957
      -132.7988       444.7156       986.5459       238.1519      -1130.427
      -554.7955       705.8818      -51.37036      -1135.760      -644.5381
       390.2896       509.8704       139.1311      -19.86377      -201.8619
      -315.1284      -316.1783      -313.9077      -165.4607       62.65353
       25.93970      -528.2939      -1209.267      -1167.223      -130.7737
       579.0043       547.4639       442.4886       278.9231       190.8157
       137.9524       276.0155       457.2346       152.0586      -325.3585
      -601.4318      -340.8865       137.9025      -57.38599      -1011.197
