     0.02499998      -6534.270       5445.627      -12345.00      -12345.00
      -30.00018       213.7497      -14.85000      -12345.00      -12345.00
       0.000000       10.88000      -12345.00      -12345.00      -12345.00
      -12345.00      -12345.00      -12345.00      -12345.00      -12345.00
      -12345.00      -12345.00      -12345.00      -12345.00      -12345.00
      -12345.00      -12345.00      -12345.00      -12345.00      -12345.00
      -12345.00      -31.57700      -67.87020       833.0000       0.000000
      -31.37200      -68.11800       0.000000       97800.00       0.000000
      -12345.00      -12345.00      -12345.00      -12345.00      -12345.00
      -12345.00      -12345.00      -12345.00      -12345.00      -12345.00
       32.72827       134.0520       313.9233      0.2942687      -12345.00
      -12345.00     0.02883464       0.000000       0.000000      -12345.00
      -12345.00      -12345.00      -12345.00      -12345.00      -12345.00
      -12345.00      -12345.00      -12345.00      -12345.00      -12345.00
      2008       244         6        45        20
       250         6    -12345    -12345      9751
    -12345    -12345    -12345    -12345    -12345
         1         7        13    -12345    -12345
    -12345    -12345    -12345    -12345    -12345
    -12345    -12345    -12345    -12345    -12345
    -12345    -12345    -12345    -12345    -12345
         1         1         1         1         1
NIKI    -12345          
        -12345  -12345  
-12345  -12345  -12345  
-12345  -12345  -12345  
-12345  -12345  -12345  
-12345  -12345  -12345  
-12345  -12345  BHZ     
ZL      -12345  -12345  
[...]
      -13.34030      -9.860863      -8.391356      -6.703962      -6.317624
      -4.784821      -1.850752       1.388299       2.793324       6.835228
       6.441954       9.213028       12.00609       15.95950       16.73331
       21.65604       24.00123       30.66817       33.51183       36.55553
       38.43369       45.82855       49.78249       52.87030       55.33890
       63.35408       67.12666       72.39137       76.58069       84.81030
       87.98883       91.63681       94.75522       99.45856       103.5645
       109.9453       113.3503       119.8474       125.8870       132.4940
       135.2828       138.1037       144.5814       152.3293       156.7525
       159.9523       167.0148       171.0665       174.5871       178.1069
       182.1130       187.1031       190.6393       194.5861       198.1361
       205.4745       209.3451       214.7505       218.5742       222.9874
       223.7203       231.0325       231.7191       234.8566       238.1776
       243.3345       242.9922       248.3375       248.5522       249.9971
       252.7032       260.1854       258.1426       259.2277       261.7715
       268.4443       269.0585       271.4948       272.3340       276.2648
       275.0934       274.3807       272.8254       275.6603       272.4295
       271.0144       267.7738       268.0110       264.0075       259.9326
       252.9846       246.8873       240.9540       236.8840       227.1036
       218.4348       210.9786       201.3264       190.9860       184.6398
       174.0062       163.8972       153.8229       144.5204       131.6236
       118.2195       106.3218       95.44933       80.36224       70.72380
       56.00534       42.99043       29.15881       17.84011       1.643326
      -9.918350      -20.40245      -33.90314      -51.12012      -61.13954
      -73.85596      -83.06110      -96.03397      -110.4156      -124.5689
      -134.6777      -145.6062      -158.2224      -171.3080      -180.6129
      -191.7758      -205.2420      -217.5320      -226.6456      -237.4851
      -246.5902      -257.5480      -264.8420      -274.3645      -280.3499
      -291.3650      -297.0884      -305.0333      -307.4648      -316.5419
      -320.7654      -323.1853      -323.1318      -328.8804      -328.6530
      -330.7441      -330.7719      -330.4550      -331.1055      -332.3083
      -329.3663      -326.9222      -324.5190      -325.2007      -323.5845
      -319.6635      -315.3114      -313.2373      -309.4752      -303.0840
      -298.2959      -294.2224      -290.4318      -286.5040      -282.0712
      -278.2114      -270.3961      -263.1024      -261.9547      -254.3607
      -246.4576      -240.6035      -234.0620      -226.2181      -221.6678
      -214.0353      -208.2716      -201.7779      -194.1971      -183.1028
      -174.5819      -166.0710      -155.4763      -144.9120      -136.5911
      -127.9139      -117.5584      -107.3938      -97.69075      -89.70917
      -77.01753      -68.02451      -57.86143      -50.91805      -37.93935
      -27.41740      -18.01007      -12.41250     -0.2485771       10.14736
       22.06297       26.67873       34.47878       43.22307       51.18314
       55.66322       65.60220       69.96146       75.84445       77.94748
       81.20111       81.87567       86.70001       90.47595       94.78336
       95.63123       98.64417       101.2281       103.2511       103.9915
       106.8879       107.1166       108.4323       110.1456       108.7431
       112.0150       114.5468       112.2050       111.2515       114.2121
       114.7947       113.0151       112.1932       112.5028       113.9841
       111.1758       108.0669       103.9568       104.7111       103.7241
       100.2846       96.53793       94.49298       92.46024       89.89670
       86.75237       83.86537       81.04105       79.65381       76.33856
       72.12009       69.13065       67.92764       64.19058       60.73599
       60.18947       58.89778       54.15079       51.57732       49.84792
       48.74599       45.08290       44.83656       45.50551       46.21753
       42.50255       42.02350       41.49419       43.98972       43.01285
       44.50403       44.86891       48.12700       46.25558       44.99564
       44.72871       49.55869       47.80156       50.62442       50.61337
       50.90350       49.99216       50.54834       47.41725       48.28952
       48.98727       46.73892       44.96652       45.60463       47.01950
       43.35556       39.98251       37.62946       36.82629       33.73532
       33.50031       30.94670       32.88087       27.97935       22.83169
       21.22517       22.32518       18.63665       17.51534       14.13741
       15.09893       12.18719       8.645148       3.447576       4.434731
       1.735363     -0.2102919      -2.504175      0.1297150     -0.9830723
      -3.608844      -6.293560      -2.987294      -3.910383      -5.654519
      -4.932224      -4.409397      -6.079416      -5.754578      -4.006295
      -2.715911      -2.124948     -0.9209669     -0.5230899     -0.4603910
       1.447529       2.896362       6.760616       11.14635       16.23228
       17.40667       21.83113       25.54535       29.94914       32.52013
       39.99879       45.57700       51.06955       52.05719       58.91704
       64.87067       69.97797       72.33490       78.04909       81.11096
       90.59433       94.63968       99.45374       105.9044       114.5855
       114.7748       122.4071       127.5035       136.7706       141.9284
       147.9649       153.7822       163.7479       163.1913       169.5847
       178.1477       185.4738       187.5706       193.8144       195.0952
       201.7328       205.1179       208.8954       207.7574       211.8040
       213.9346       216.8831       215.1207       218.3782       217.0463
       214.7643       212.2507       214.1499       213.5437       210.9296
       205.5259       206.3529       205.9966       202.1063       197.6438
       195.4935       193.5327       188.3171       183.2986       176.1458
       172.6078       166.3845       157.3855       150.9741       147.7483
       139.0846       130.6801       120.7559       114.5811       106.4246
       96.03239       86.59546       79.28560       72.71603       59.51779
       46.73067       34.80251       26.36924       14.64841       3.664467
      -10.28952      -17.51966      -28.90356      -42.88159      -56.97076
      -68.53537      -80.19690      -89.60281      -101.1786      -113.8908
      -124.6620      -131.1667      -138.4378      -149.2303      -159.3430
      -170.5334      -177.8965      -183.9015      -189.9150      -198.8287
      -204.6761      -212.0200      -218.2547      -226.7762      -229.6332
      -235.7411      -241.8806      -250.2664      -253.5611      -259.0919
      -261.9895      -266.6826      -272.4927      -278.0229      -281.5469
      -282.8960      -286.3576      -292.1243      -295.4086      -293.2984
      -296.9890      -298.2044      -301.9960      -303.0917      -304.0497
      -303.3655      -305.8123      -302.6891      -306.0204      -305.8466
      -305.1237      -300.7401      -299.1387      -294.3124      -295.6713
      -292.6218      -290.6928      -286.8848      -284.9530      -282.0941
      -281.8318      -274.6302      -272.0372      -267.4695      -266.3156
      -260.2170      -261.0204      -255.5553      -253.8802      -248.5697
      -249.5564      -242.6752      -240.5056      -232.3680      -231.8679
      -226.6982      -227.5641      -220.3880      -216.9421      -210.3344
      -209.3370      -202.9386      -200.0945      -196.0066      -195.5603
      -191.5004      -189.8351      -188.8448      -186.5043      -183.0514
      -178.8772      -175.3770      -171.8006      -171.0229      -166.5202
      -164.4091      -163.2691      -159.3976      -156.3993      -156.2936
      -153.0405      -146.6459      -141.1026      -135.5555      -128.5042
      -123.8151      -120.0560      -110.7782      -101.4666      -93.41087
      -87.77277      -78.14441      -65.37462      -53.33575      -44.67396
      -34.20940      -23.43984      -8.200047       3.216080       15.80943
       28.02667       44.53928       53.22937       66.37262       79.45459
       93.24884       100.8162       113.5359       125.1682       138.5280
       149.4026       159.6106       170.4143       181.9352       188.9795
       199.3601       210.6253       220.9762       226.9238       233.8949
       242.6680       250.5173       256.9796       264.1652       269.4147
       277.0449       283.0610       289.5011       294.0303       300.2397
       301.5625       305.1162       307.9066       314.8070       314.6936
       314.6229       314.0359       318.6820       317.2832       320.1598
       316.3064       318.1719       318.9382       320.8961       317.2595
       317.1910       314.8271       316.4894       311.3281       313.9628
       312.1216       311.9308       305.8060       307.0767       304.3865
       306.5324       302.4294       303.2802       300.5804       301.5293
       298.5043       298.1954       297.0215       297.4346       295.4948
       295.1960       292.1023       290.1182       287.1693       286.9037
       284.9501       281.5576       276.7626       273.5010       270.0537
       266.6851       261.7547       256.3036       250.8987       247.8284
       240.1023       233.9370       228.1279       222.2427       215.2545
       210.0181       202.2695       196.5088       186.9727       180.5484
       171.4642       164.0989       155.0947       148.4837       138.8894
       133.1366       123.4025       116.7439       107.8065       99.88269
       91.10561       84.50772       75.56633       67.40359       60.86017
       54.32767       45.55181       41.00359       35.60091       26.87440
       18.71233       12.86881       8.240251       1.134947      -7.491478
      -13.80952      -18.98271      -26.40563      -31.13674      -38.34290
      -46.77025      -53.65227      -60.10898      -69.52563      -75.40109
      -83.15591      -93.00748      -101.5952      -108.0963      -117.4196
      -124.0057      -132.6442      -139.4724      -147.7742      -157.7392
      -167.9683      -174.2610      -182.5416      -189.1351      -197.6371
      -203.3760      -211.6752      -219.6899      -227.7233      -235.3464
      -243.4210      -245.2665      -251.4872      -258.6110      -264.5331
      -267.4561      -275.3091      -280.4169      -284.0318      -286.1738
      -293.1020      -298.3911      -302.5812      -300.8889      -307.8521
      -312.3765      -316.1428      -313.3126      -317.4851      -317.4839
      -321.4572      -318.1652      -319.2109      -316.2942      -320.4691
      -316.3676      -315.1156      -311.5948      -312.2154      -304.4223
      -302.3521      -295.4773      -290.2896      -280.8630      -278.5032
      -272.1945      -267.6074      -256.7932      -251.3506      -243.1658
      -235.5298      -225.2687      -220.3173      -210.8936      -201.9515
      -190.5303      -179.8796      -169.7048      -162.1428      -148.9507
      -139.4022      -129.6942      -120.4837      -107.6658      -96.01424
      -83.47128      -75.09828      -60.42482      -50.98587      -42.20113
      -31.40272      -18.46635      -8.779816       2.064095       12.65234
       24.33624       31.81767       42.77228       52.77353       61.93748
       67.69170       79.08078       88.51413       98.64719       107.0063
       117.6947       124.0453       134.3417       140.1237       150.5016
       157.5408       163.8440       170.6123       181.5984       185.4214
       190.6230       194.5473       203.0665       208.0233       215.0417
       216.6464       222.9063       225.6096       229.6957       228.8310
       235.8619       235.4869       238.9711       238.1249       243.1704
       240.7651       242.1345       235.7018       237.3665       231.4812
       230.6954       224.7195       225.3224       215.5011       210.4957
       201.3844       199.8727       187.7795       183.4531       172.8731
       172.0018       159.8256       151.8235       137.7166       133.0342
       117.3349       110.2242       95.52841       86.67374       70.61298
       63.52145       48.69579       39.92287       24.88101       16.25486
      0.2509651      -9.814323      -28.43549      -37.81415      -53.22882
      -62.43018      -81.55389      -91.05835      -103.1946      -110.2575
      -122.9385      -129.8709      -143.4388      -149.8793      -159.4912
      -165.0140      -176.6669      -187.2892      -194.1791      -197.2820
      -208.4398      -234.6415      -219.6691      -195.2380      -260.9618
      -347.1262      -224.5088      -2382.131      -6534.270      -2448.282
       5156.492       4468.956       1296.983      -716.4966      -1950.691
       881.2754       1686.163      -2562.227      -2668.540       902.0845
       2784.841      -21.41113      -1885.446      -635.7957      -662.4946
       329.9442       16.43433      -1582.043       251.1069       1846.908
      -1060.788      -914.8088      -683.7178      -2046.482       90.10059
       1708.375       496.5714      -835.6760      -174.0244      -363.6130
      -377.2900      -485.3267      -885.5242      -820.3566       510.7137
       917.1382       21.04132       439.7727      -164.6682      -515.9312
      -1104.626       445.8066       1830.397      -101.7827      -816.4395
      -549.9753      -656.3500      -324.6887       850.3085       63.69092
      -645.2214      -1.701050       5.983643       545.6255       597.8525
      -45.90125      -132.5073       763.9883       1031.078       70.53650
      -374.4796       23.53809      -184.7421      -73.42267       384.2216
      -78.36047       417.2247       481.6415       324.0022       441.3414
      -147.3983       451.6101       872.3865       422.3763       264.5475
       255.2054       276.5266       35.43054       378.4600       616.5471
       393.8926       435.7157      -291.7391      -40.30029       1084.389
       1153.023       678.6069       241.4921       340.4822       358.0422
       61.06458       267.0701       505.2987       202.5989       555.7971
       1000.159       195.0126       91.22510       576.8564       522.0267
       616.8572       514.0940       442.2439       426.7848       383.7280
       387.6842       44.59741       352.8682       995.1669       643.2111
       94.45728      -158.1716      -80.05371       376.2634       695.5481
       754.9429       273.1353      -142.3882       156.6215       541.4839
       788.0691      -99.75159      -792.8400       496.8833       984.3142
       257.8883      -147.1184       183.6279       521.9750       106.1799
      -62.54180      -94.28003       128.2882       277.2224       482.6582
       489.9547      -404.1886      -277.3982       339.2948       123.2043
      -464.5981      -524.5573       131.9745       469.0028       12.48059
      -119.2661      -151.3748      -246.2401      -8.801636      -280.8193
      -234.4560       16.07953      -164.0112      -195.2466      -113.1841
      -124.5500      -369.2253      -239.5286      -177.2499      -409.8947
      -479.4742      -345.0957      -338.6416      -748.0508      -613.6458
      -113.9463       62.34924      -109.2652      -178.9936       182.6433
      -340.0952      -764.7927      -593.1053      -670.8700       133.8606
       212.7712      -1071.343      -590.5389       481.0581      -383.6763
      -1141.566      -782.2830      -435.4794      -566.5665      -214.1844
       145.6406      -438.4707      -571.5585      -307.7103      -244.4686
      -289.1963      -526.4702      -740.9790      -651.4907      -450.7819
      -273.5999      -133.5586      -142.2773      -318.6122      -645.8091
      -431.2284      -236.0891      -371.4928      -348.7369      -272.4946
      -356.4232      -534.5392      -490.0159      -652.5447      -655.9523
       241.2256       339.4935      -521.4978      -324.6626      -52.90631
      -153.3755      -507.5079      -392.1600      -84.57886      -480.4441
       24.09479       321.0197      -87.33618      -707.7955      -694.8734
      -81.85004      -271.9809       70.47054       85.84515      -355.8465
       43.44431       55.24634      -489.0081      -612.5276       319.5063
       531.7378      -266.4001      -229.3043      -201.4645       13.73096
       700.0602       448.4010      -700.7046      -606.6760       431.5294
       472.8385       51.65281       48.04967       21.44378       26.80637
      -14.61285      -337.9201      -228.0240       149.9128       351.1116
       104.8911       99.85677       99.96762      -16.92188       495.1917
       473.4266      -90.37939      -288.7937       141.0079       546.9484
       17.08112      -195.5268      -5.008362       9.321655       324.7407
       141.8896       101.5540       487.3679       505.6458       443.9597
       504.0677       232.4633       36.89330       196.4459      -176.6010
      -89.25018       309.5774       162.2750       251.5936       126.0837
      -93.66467       204.6916       328.2161       338.1458       75.82829
      -165.9230       125.8257       325.3967       435.7986       241.9020
       208.4299       438.8024       383.7039       437.4946       353.8249
       257.6999       133.6460       83.20758       229.9246       162.1662
       84.93372      -227.8133      -189.4398       251.5336       351.6113
       532.2083       639.5556       220.7711       185.1561      -75.92041
      -471.5327       302.4949       366.3185       18.49109       159.7330
       307.5992       344.0970       217.8010       555.8276       178.3080
      -280.5010       357.2216       366.4762       182.9070       165.4722
      -172.3029      -131.1547       223.7654       585.6559       666.4729
       48.95361      -24.71594       739.4194       145.0266      -717.3068
      -98.45679       788.0953       532.1637      -97.89464      -142.8251
       87.50317       710.8221       619.7594       3.238846      -150.5337
       180.8703       502.5208       18.37738      -248.3324       186.9182
       456.9049       64.46280      -134.1106       171.9695       374.1612
