     0.02499999      -10083.03       13510.73      -12345.00      -12345.00
      -30.00015       213.7497      -14.85000      -12345.00      -12345.00
       0.000000       10.88000      -12345.00      -12345.00      -12345.00
      -12345.00      -12345.00      -12345.00      -12345.00      -12345.00
      -12345.00      -12345.00      -12345.00      -12345.00      -12345.00
      -12345.00      -12345.00      -12345.00      -12345.00      -12345.00
      -12345.00      -31.57700      -67.87020       833.0000       0.000000
      -31.37200      -68.11800       0.000000       97800.00       0.000000
      -12345.00      -12345.00      -12345.00      -12345.00      -12345.00
      -12345.00      -12345.00      -12345.00      -12345.00      -12345.00
       32.72827       134.0520       313.9233      0.2942687      -12345.00
      -12345.00     -0.3611727       0.000000       90.00000      -12345.00
      -12345.00      -12345.00      -12345.00      -12345.00      -12345.00
      -12345.00      -12345.00      -12345.00      -12345.00      -12345.00
      2008       244         6        45        20
       250         6    -12345    -12345      9751
    -12345    -12345    -12345    -12345    -12345
         1         7        13    -12345    -12345
    -12345    -12345    -12345    -12345    -12345
    -12345    -12345    -12345    -12345    -12345
    -12345    -12345    -12345    -12345    -12345
         1         1         1         1         1
NIKI    -12345          
        -12345  -12345  
-12345  -12345  -12345  
-12345  -12345  -12345  
-12345  -12345  -12345  
-12345  -12345  -12345  
-12345  -12345  BHN     
ZL      -12345  -12345  
[...]
       82.05052       71.19376       63.33136       53.32787       44.67631
       33.70330       26.21407       17.46411       7.915766      -4.290966
      -11.50272      -21.93346      -29.24376      -41.93405      -51.35226
      -63.01956      -70.78214      -82.70935      -94.05051      -110.1358
      -121.2656      -134.5737      -146.0167      -162.5660      -175.1559
      -190.2415      -201.5904      -216.4611      -226.4762      -241.6719
      -252.8948      -268.2621      -279.6959      -294.6489      -303.1301
      -317.0895      -328.5886      -341.8003      -349.2288      -361.1743
      -369.7543      -380.3459      -391.0732      -401.9707      -406.7537
      -414.0775      -423.0828      -429.4856      -435.3171      -442.0762
      -444.7029      -446.3530      -449.7306      -451.5306      -453.7412
      -452.7931      -451.4553      -452.3223      -452.8136      -449.7358
      -448.8220      -448.4404      -446.1492      -440.3315      -434.2429
      -434.0487      -432.0007      -424.4153      -417.2388      -413.6978
      -406.2047      -398.2141      -388.9518      -381.4242      -371.5613
      -362.6312      -351.0858      -340.5877      -327.4612      -318.8503
      -306.7184      -294.4735      -278.6289      -271.1830      -257.0972
      -244.0402      -228.7495      -222.0507      -208.8453      -197.5986
      -183.7068      -176.3552      -162.3864      -152.0739      -136.1031
      -124.8523      -112.3026      -102.7489      -87.94659      -78.54044
      -64.12299      -49.21447      -35.42424      -25.76507      -12.19489
       2.938507       18.49335       28.91748       40.84488       55.97064
       70.17569       80.88205       90.60486       103.5107       117.7855
       131.4268       141.4440       154.0859       166.9017       179.6223
       190.5649       202.3669       212.8028       219.6832       228.4969
       240.6672       252.6906       261.5381       268.3887       277.6974
       291.3194       297.2747       302.6520       312.7448       323.4806
       333.3373       344.1807       349.3477       355.5236       362.7928
       369.1276       375.2866       384.4037       390.3091       392.6895
       393.6472       399.0602       402.3419       407.0175       411.2356
       414.1998       414.1206       415.4019       415.6147       414.6101
       412.4458       413.1628       411.3459       408.4608       408.2026
       405.7629       400.0665       396.3885       394.9561       392.7386
       386.1680       375.8639       367.9636       366.6244       357.6654
       344.3917       335.9900       332.6508       324.2305       313.6432
       300.2701       293.2886       282.9583       274.1337       264.4814
       257.5831       246.1447       233.5208       219.6780       213.8602
       201.9855       194.9136       186.1390       177.4889       163.2374
       154.0059       141.9458       135.8229       124.0593       115.9525
       105.6007       98.06427       84.19437       77.73186       68.96892
       67.02585       56.84482       48.40253       38.28928       34.30386
       27.57169       20.55968       8.876835       3.938699     -0.9016609
      -5.836571      -13.93375      -20.18207      -26.11775      -30.43799
      -36.95775      -42.04771      -50.16565      -53.80559      -59.31912
      -66.88538      -72.94098      -77.65417      -87.35855      -93.40732
      -98.97705      -103.0433      -111.1772      -117.4573      -122.0331
      -125.0551      -133.6605      -139.8495      -146.6616      -149.4525
      -155.9136      -162.7861      -168.6971      -171.2723      -175.9978
      -179.7168      -180.9877      -180.9650      -183.1794      -185.1624
      -188.7109      -186.5549      -183.3223      -185.4364      -191.7856
      -189.5200      -184.8597      -184.9738      -186.6808      -185.9220
      -185.8787      -186.0742      -187.7357      -189.0001      -182.8058
      -180.4157      -183.1564      -184.4905      -183.4138      -179.8633
      -181.0400      -182.8605      -181.4807      -181.2624      -181.2695
      -179.3669      -180.9820      -180.5451      -179.4535      -179.5404
      -179.7697      -181.5183      -184.2092      -180.2435      -181.5638
      -183.5558      -185.6148      -184.1809      -184.4878      -182.2573
      -185.5166      -184.1507      -182.9401      -176.9310      -180.0747
      -180.7836      -181.3116      -173.8726      -176.3369      -172.8719
      -171.9300      -164.1700      -165.4113      -159.5557      -156.6006
      -149.4209      -147.7722      -140.6364      -138.8492      -131.9136
      -125.8521      -116.1310      -117.6108      -112.3677      -107.2247
      -100.3576      -100.0666      -96.17841      -91.53159      -83.06601
      -81.04419      -75.33078      -70.33231      -61.15875      -56.96945
      -54.18103      -49.74261      -38.44913      -33.77386      -32.50903
      -28.45633      -21.97372      -19.14528      -17.70010      -14.27782
      -7.639919      -2.649948      -3.518519     -0.1733437       5.852386
       10.42695       12.07288       14.97062       18.65085       23.04597
       25.83366       26.32875       29.20226       30.99812       34.25458
       35.13162       36.03347       37.07713       38.96658       40.58487
       41.79518       42.22392       44.01413       46.59677       45.20039
       49.59009       54.45659       54.43881       50.79547       57.11354
       61.28009       65.31973       65.07318       66.21773       69.27136
       72.97568       73.27014       78.24316       81.28668       86.17542
       87.30597       90.34598       92.48248       94.20557       93.06061
       95.91855       99.35907       103.0651       107.3436       108.8141
       107.1826       110.2581       115.3888       115.3778       110.7610
       112.4173       120.3206       120.9965       114.4750       112.6440
       134.9178       122.0101       101.2271       558.4338       1087.542
       15.52832      -1044.551      -267.1974      -282.7830      -230.3333
       1122.271       1555.563       1000.079      -824.4531      -1794.795
       435.6650       1494.092      -677.9434      -2032.025       66.31445
       2762.126       888.1821      -1586.288      -175.5342       962.9321
       336.3866      -785.3976      -534.3267       1108.147       961.0525
      -664.3705      -864.1570       646.0547       1242.164      -247.4596
      -591.5495       219.4629      -26.24297      -103.1631       264.0768
       144.0229      -443.0743      -89.44189       1192.212       852.5710
      -849.0764      -396.9027      -55.17450      -690.3931       680.2468
       732.2220      -123.0710       701.6414       402.8427      -530.8108
      -253.5533       383.1704       826.7665       286.8671      -625.4579
      -591.8412      -28.60126       317.4148       156.2811      -27.29178
       98.79993       141.5918       492.1573       572.9213      -125.8283
      -417.8561       106.9852       141.8365      -453.9844       119.2360
       511.6340      -603.5321      -725.0403       163.6736       195.5854
       499.7222       995.3013       484.5043      -177.0239      -272.1223
      -682.0093      -906.2356      -51.17563       159.7504      -541.7720
      -242.3339       471.4662       291.3498      -38.14233      -225.0378
      -325.3443      -109.9597      -336.1060      -606.1348      -223.2742
      -268.0717      -431.9428      -159.6301      -10.64771       189.4053
       279.5104       69.98901      -307.6985      -547.7048      -706.6924
      -966.8418      -984.6257      -288.0834       146.7480      -148.5217
       117.6374       281.1421      -315.4800      -604.3845      -582.1882
      -942.3444      -888.5441       69.94574       416.7896       36.99689
      -213.6895      -40.79727       93.72900      -385.2588      -917.7719
      -731.0723      -326.4694      -448.2013      -259.4891       305.6360
      -46.66064      -657.5505      -378.9418       10.30406      -1.340454
      -199.6213      -443.9890      -124.0148       155.2319       73.41602
       90.78967      -157.0037      -244.1106      -10.03467      -69.59216
      -185.8955      -437.8939      -563.2479       155.0909       511.5124
      -9.536758      -113.5793       246.2048       198.8091      -237.4973
      -234.4775       21.40964       82.01697       128.7130       76.71399
       75.65680       149.7007       251.8749       311.4639       326.3436
       188.7995       59.68311       219.8133       135.0436      -123.9717
      -187.9343       47.19116       282.5018       147.4832       269.3755
       637.2290       670.9519       490.9039       153.6909       52.09399
       487.2643       523.1628       184.0693       477.5713       726.0530
       455.7839       115.8605       247.6865       824.6742       657.0549
    -0.01080322       21.86273       189.9971       275.5327       391.3705
       284.0056       344.3738       500.8608       508.3452       374.6724
       448.0154       409.2174       129.6970       414.5598       527.5576
       432.9823       633.9662       519.2179       166.7684       226.5256
       352.4282       265.0325       304.8015       250.0347      -80.56714
       236.0769       868.0551       575.6484      -177.1651      -7.377625
       410.3238       138.5423      -22.59706       18.64420       123.3398
       70.62207      -418.5875      -475.6540      -71.73682       343.9681
       332.7120       91.71912       233.2108       72.43420      -212.8634
       290.3763       453.0478      -117.8341      -425.7970      -246.2729
       388.8105       376.0439      -392.7272      -361.9796       192.5062
       20.93066      -361.9389      -6.732788       389.2428      -112.5917
      -355.7427      -168.9384      -473.1561      -326.5318       170.3066
       327.4961      -99.40576      -523.7232      -224.1256       189.0752
       25.35559      -376.2498      -361.3927      -17.25079      -221.1284
      -566.1385       5.631195       31.55920      -356.9230      -269.1056
      -167.4672      -181.6453      -376.5311      -138.7533      -71.63654
      -273.5055      -76.77478      -166.5564      -559.4233      -485.8322
       35.24686       9.468262      -358.4121       5.034302      -151.7888
      -459.9282      -21.04932      -567.2941      -845.3464      -6.358154
       110.4404      -379.5895      -670.5793      -374.0314      -497.8302
      -849.2590      -22.04141       245.0424      -275.5139      -343.7668
      -592.2050      -477.8250       123.9915       62.55249      -585.4240
      -520.8974      -40.24329      -369.5742      -681.0682      -289.0212
      -86.85071      -336.7880      -259.0775      -45.68988      -212.9847
      -284.8824      -160.7571      -351.1056      -494.1472      -356.2796
      -214.7090      -18.20636      -139.3267      -533.3453      -715.5833
      -423.9592      -61.23523      -228.0740      -463.7066      -107.2958
      -12.35791      -379.3495      -78.44995       330.9780      -351.4534
      -1027.857      -436.4285       52.49390      -148.8857       71.45282
       293.6528       11.72003      -196.9389      -135.9395      -68.79016
      -272.0513      -277.1016       60.62573       254.4539       124.0712
      -230.7022      -260.3381      -88.01376       97.77852       110.2304
      -202.6067      -118.8820       212.7853       245.0484       213.7328
       258.7069       204.9180       96.22403       1.429291       59.71002
       286.5539       147.0190      -205.5739       188.6612       503.0793
      -20.84705      -102.8927       429.2333       368.1625      -112.3250
       8.014648       380.4130       615.3915       558.4694       153.2851
       9.052856       266.4691       171.0583       112.4893       786.2831
       900.8533      -69.11124      -215.8494       432.0657       265.7751
       209.0034       610.3156       483.9600       206.5710       291.4382
       182.6407      -85.12866       363.9958       779.2933       388.8146
       358.5634       708.5009       512.8459       243.0529       127.1835
       162.9556       308.1908       169.9432       219.1473       514.8892
       548.4891       686.8652       591.5289       92.79761       184.1558
       370.2451       46.27307       129.1030       986.2568       1201.978
       72.19238      -372.0278       662.4746       1102.911      -124.7427
      -453.8091       851.9290       649.5462      -153.2967       235.3611
       126.7567      -239.7429      -477.2002       449.6658       2166.590
      -500.0605      -7016.783      -10083.03      -4181.039       6766.785
       11958.21       9109.007       3760.521      -2823.703      -5729.238
      -4823.331      -5874.219       3496.379       13510.73       5994.554
      -1431.097       644.7227      -1606.391      -8285.788      -4842.452
       828.4258       1948.901       3659.962       2437.515      -327.3442
      -1493.550      -1229.041      -1238.022      -1151.821      -385.5508
       3416.150       6032.331      -841.4102      -5358.250      -1037.762
       1350.038      -539.0588      -1000.901       206.4605       90.16394
      -276.5300       442.1219       685.4573       403.3586       991.1538
       427.3993      -992.3561      -42.43604       1086.029       203.8765
      -780.2275      -2009.010      -1089.191       2294.681       2478.122
      -300.7891      -2474.223      -1572.489       1259.702       365.6426
      -2806.308      -2608.052      -757.7976       269.0027       132.9906
      -532.1299       913.5542       1368.177      -663.6501      -1050.979
      -665.4734      -712.7805      -672.3643       744.2441       2116.321
      -155.3140      -1881.862      -1416.872      -1733.174      -1621.893
      -104.3871       1033.929      -29.28162      -905.6711       381.5081
       1210.364       366.8398      -672.1915      -271.9700      -104.4395
      -1671.465      -1568.936       768.2410       1022.707      -1072.416
      -1925.164      -128.9315       1028.177      -1293.560      -2538.581
      -444.3281       1536.797       458.5619      -1115.430       188.7793
       1061.085       71.01709      -1266.543      -1923.217      -1456.211
      -671.5108      -381.9901      -82.11328       702.4685      -100.2563
      -1407.669      -36.37134       1143.172       63.80664      -522.2920
      -308.6554       59.02716       77.23486      -730.8442      -558.7998
      -288.5649      -1349.157      -1393.344      -171.6586       561.2402
       787.9789       708.6462       197.6550      -548.7772      -163.5652
       217.9792      -385.4724       523.7996       1230.999      -184.7439
      -1554.500      -940.9483       446.7804      -229.8139      -546.3916
       609.4819       208.1414      -466.9819      -776.9696      -1114.506
       411.1006       1650.610       833.5093       382.5127       543.5145
       96.48071      -560.0120      -661.2339      -444.0295      -413.1974
      -48.25732       947.0698       1729.548       1368.031      -81.03394
      -1150.017      -419.4941       329.2778      -18.69080       440.0959
       157.9343      -1231.168      -555.0380       386.4780       291.5266
       914.3569       1559.886       1210.401       392.5085       62.87004
      -20.91576      -87.29297       137.8621       878.7561       1232.238
      -30.16516      -626.7476      -137.3018      -176.2582       81.10315
       487.1921       439.9641       524.5688       797.9927       414.8715
      -224.5868       301.2275       988.0390       386.9942      -226.1880
       156.6291       281.1720       224.8665       769.2249       640.8922
       389.7703       455.8686      -15.88751       65.49316       581.8077
       340.7816      -488.1042      -289.3815       326.7866       332.8098
       670.7334       829.4131       290.0842      -613.2039      -925.5142
       170.1363       704.7839      -705.2962      -509.1270       1927.614
       2571.539       1136.351      -71.50916       351.1622       890.0330
       71.10376      -454.9869      -279.8254      -257.4863      -767.9924
      -1103.018      -583.0935      -489.4280      -708.4736      -290.2900
       747.7720       1661.443       1116.014      -46.14563      -399.0037
      -70.01733       267.8632       138.2736      -80.73535      -361.1840
      -493.9137      -461.9185      -609.5370      -265.2394       238.2199
       150.8225       300.8640       331.9808      -42.83057       302.5891
       482.4817      -229.4871      -31.54175       696.4656       462.5806
      -42.38110      -370.5420      -661.4382      -758.4048      -833.0935
      -893.2024      -834.5903      -563.6844       158.5939       443.5254
       137.8206       300.7964       909.1653       794.9072      -651.4346
      -1269.842      -464.2463      -384.7178      -878.4451      -636.3440
      -782.7727      -1547.776      -840.2930       513.2538       176.6732
      -119.0861       544.6340       454.8234      -325.9764      -354.2086
       488.7797       711.2296       196.6119      -543.6677      -1138.024
      -930.4307      -462.3636       246.4885       742.7472      -31.01123
      -1049.880      -804.8695       123.4659       179.2583      -31.27032
     -0.2299805      -327.9999      -616.3402      -390.1360      -61.46863
      -73.23816      -373.4264      -270.7576       209.6934      -303.4054
      -550.2527       41.39107      -2.906868      -90.89343       124.9162
       25.11179      -146.3636      -11.10150      -166.1949      -83.51978
       723.9194       958.6583       261.3776      -481.2294      -500.7810
      -218.0808      -117.4083      -126.5235      -57.31372       470.0280
       775.5222       76.40381      -673.6465      -745.7479      -267.6211
       364.5784       494.3744       114.7186      -326.3826      -324.5363
       98.32538       419.3703       107.4470       26.31250       1053.590
       1134.191      -237.4540      -465.7097       119.0000      -436.4396
      -669.5820       272.3087       392.0037      -427.9544      -313.7894
       434.7017       571.7223       501.4382       671.7875       676.6320
       608.5287       415.1603      -534.3571      -1062.718       323.8284
