     0.02500000      -2008.461       2645.220      -12345.00      -12345.00
      -29.99999       221.8750      -23.10000      -12345.00      -12345.00
       0.000000       16.71000      -12345.00      -12345.00      -12345.00
      -12345.00      -12345.00      -12345.00      -12345.00      -12345.00
      -12345.00      -12345.00      -12345.00      -12345.00      -12345.00
      -12345.00      -12345.00      -12345.00      -12345.00      -12345.00
      -12345.00      -31.19940      -66.74700       697.0000       0.000000
      -31.37200      -68.11800       0.000000       97800.00       0.000000
      -12345.00      -12345.00      -12345.00      -12345.00      -12345.00
      -12345.00      -12345.00      -12345.00      -12345.00      -12345.00
       131.9386       82.01488       261.3064       1.186286      -12345.00
      -12345.00    -0.02780528       0.000000       0.000000      -12345.00
      -12345.00      -12345.00      -12345.00      -12345.00      -12345.00
      -12345.00      -12345.00      -12345.00      -12345.00      -12345.00
      2008       244         6        45        28
       500         6    -12345    -12345     10076
    -12345    -12345    -12345    -12345    -12345
         1         7        13    -12345    -12345
    -12345    -12345    -12345    -12345    -12345
    -12345    -12345    -12345    -12345    -12345
    -12345    -12345    -12345    -12345    -12345
         1         1         1         1         1
NOQE    -12345          
        -12345  -12345  
-12345  -12345  -12345  
-12345  -12345  -12345  
-12345  -12345  -12345  
-12345  -12345  -12345  
-12345  -12345  BHZ     
ZL      -12345  -12345  
[...]
       9.790866       5.730155     -0.4311180      -2.791321      -11.04490
      -17.90495      -24.54070      -29.24281      -32.69328      -37.12675
      -45.84943      -51.84238      -55.50751      -60.19778      -70.84450
      -77.54193      -85.56403      -94.25757      -102.3154      -112.6244
      -125.2950      -134.3439      -143.5532      -154.9433      -164.3486
      -172.9790      -182.1942      -195.0436      -205.7120      -211.1810
      -219.3790      -230.5494      -237.3463      -245.5487      -255.4930
      -262.4854      -270.2738      -275.9626      -276.1732      -277.0769
      -282.9211      -283.5563      -280.4185      -279.2734      -278.2067
      -273.5213      -269.5527      -266.6030      -267.8430      -261.4889
      -257.0194      -255.8821      -251.1331      -245.5073      -238.3424
      -226.3210      -216.0657      -208.4609      -200.4655      -191.8068
      -187.6949      -183.1382      -174.0211      -168.4099      -160.7245
      -153.3592      -144.8308      -137.2913      -125.8054      -116.6377
      -106.7485      -102.3337      -96.61487      -93.75110      -88.20049
      -86.94946      -80.76671      -76.76682      -69.21959      -64.49809
      -55.88226      -54.80339      -49.06111      -46.27657      -43.99121
      -45.59448      -40.13870      -39.57210      -33.91062      -30.95879
      -20.34203      -15.16909      -11.20485      -5.561619       6.500721
       8.359116       13.27345       14.97472       23.33936       27.72507
       38.09859       41.56261       50.54909       56.23669       64.61891
       67.51599       75.42757       73.09659       78.70117       77.94250
       83.35800       83.50104       88.61057       88.14868       94.29874
       93.54059       97.05545       98.32999       102.0579       97.59204
       99.40237       98.15350       96.86578       95.77203       102.2688
       100.6165       100.8694       98.41278       98.41663       93.90039
       95.96976       91.46915       92.70401       87.11584       87.84692
       85.16849       88.06245       83.30792       85.98438       82.12672
       84.27095       81.07147       81.78775       77.15759       78.19217
       75.37106       77.27777       72.72801       76.88257       75.36426
       78.14059       77.19455       80.41063       73.16624       75.47540
       73.97491       89.17322       148.1729       344.2894       512.3013
       257.1040      -140.9911      -215.3957      -30.01266       212.1813
       58.33197      -320.2271      -240.8625       276.5618       349.5281
      -53.36389       115.1697       475.8082       244.6340      -78.76498
       32.48401       331.4670       214.6461       29.51306       108.9287
       144.1760       157.4335       188.6713       216.6901       220.9878
       170.8045       140.7652       103.6665       93.60779       180.4215
       262.3279       186.0902       142.6689       310.0507       394.6521
       501.6755       546.7994       247.2032       177.6852       235.8410
       289.4266       237.9574       101.3661       282.0525       415.1648
       342.5668       297.9356       213.2795       177.8884       283.6478
       369.1813       254.3904       207.4913       234.2935       226.5331
       247.0865       204.4084       135.3699       64.10895       150.2377
       240.9295       63.82019       107.6851       297.8445       299.8782
       118.6850       57.59106       253.5601       107.7719      -37.13336
       213.3041       57.66449      -146.2901      -45.29210       53.46236
       49.04152      -62.39844      -12.61844       68.36324       23.94283
       7.821732      -37.11844      -84.31772      -105.6758      -97.09822
      -5.993134      -65.97565      -105.8604       128.8996      -20.00964
      -282.4091      -92.57602       2.099442      -61.65286      -117.1989
      -110.4962       104.2511       115.6492      -166.5129      -281.5961
      -106.0516      -155.2416      -247.1922      -92.48286      -11.23953
      -158.6868      -152.0642       41.15456       11.58969      -78.99115
      -83.00476      -158.5217      -191.1746      -125.1537      -149.5311
      -189.5405      -94.53189      -85.92276      -70.38141      -77.19440
      -206.5072      -235.0537      -199.8964      -203.4507      -137.0282
      -60.51489      -65.70148      -217.6534      -231.3833      -175.9778
      -234.5417      -220.7500      -233.8505      -270.9760      -273.2446
      -258.3097      -246.9509      -316.2385      -294.0352      -150.2719
      -156.4167      -219.0655      -149.3182      -109.0582      -167.7794
      -288.3333      -314.8779      -258.0283      -338.3857      -391.6338
      -242.9554      -191.8187      -218.0925      -179.4354      -175.9635
      -308.9000      -390.4198      -295.1548      -212.5516      -190.9924
      -246.2917      -288.5865      -200.1778      -152.6545      -155.3063
      -125.8849      -181.4896      -267.7325      -213.2999      -78.12805
      -138.5536      -259.1461      -302.5247      -311.8808      -164.7531
       14.73004       54.11066      -108.2017      -192.0493      -112.5145
      -165.0164      -198.5370      -107.8361      -130.9009      -145.1976
      -46.95528      -12.05707      -82.77966      -130.4637      -84.20737
      -11.34205       19.27478      -58.93176      -93.30080       42.23378
       77.82285      -19.64430      -73.02746      -55.83063      -9.315636
      -31.77243       8.506866       42.96746      0.4644585       12.69156
       2.640244       2.975876       63.67636       90.58931       16.46524
      -91.17865      -34.36456       88.62646       124.0524       77.88455
       37.77069       120.8943       189.7592       122.8315       102.0765
       159.2829       139.3651       97.11682       111.5335       25.46843
       6.538513       209.0794       165.0926      -41.49002       46.46130
       196.1936       138.7878       102.5173       167.9028       248.8323
       271.3145       195.3821       167.9375       219.9445       219.4196
       195.8168       261.9110       248.2215       144.8727       161.8770
       99.76727       111.6085       242.1221       170.2188       101.8999
       120.6996       168.3877       333.0760       371.0898       263.4787
       197.9507       211.1257       242.8723       205.1027       187.4934
       236.9059       194.9597       124.3109       131.1368       77.40558
       140.7212       226.8729       213.9185       102.5722       21.12708
       246.9256       359.6922       81.32787      -56.97830       60.21365
       139.8869       33.93365       71.51730       159.5325      -66.89848
      -172.7780       134.5380       402.9901       252.8492      -124.7297
      -211.6045      -200.8547      -98.46997       321.9371       469.7937
       128.6321      -249.4581      -133.7567       152.4786       101.1858
      -13.04184      -5.329712       143.5314      -63.19873      -381.5675
      -131.8870       70.91119       11.24579       113.8964       77.15979
      -143.0988      -323.7735      -161.9129       63.68626      -57.99231
      -78.44482      -112.8298      -193.4015      -24.80574       27.29698
      -10.82245      -37.08783      -97.19385      -271.9558      -336.5747
      -2.630310       96.81039      -28.17807      -82.04279      -236.9792
      -175.6282      -30.90265      -112.8729      -167.3135      -95.18112
      -86.67755      -84.30494      -44.49043      -21.16702       101.5089
       35.10565      -163.1093       18.51129       127.1845      -40.50458
      -140.0301      -96.08411       43.89246      -78.35684      -98.95648
       243.1480       65.07727      -220.5205       25.59222       168.5657
       58.74353      -71.52286      -130.3552       9.396500       100.3713
       45.93830      -17.59186       92.98094       151.7798      -59.66388
      -126.7988       8.941284       140.8943       151.1557       58.88245
      -56.80774      -241.8967      -66.00128       285.7776       191.2392
      -31.47498       24.52623      -18.92447      -121.1061      -3.904907
       156.2282       149.5514      -100.6172      -248.7167      -12.03027
       192.4149       41.63717      -54.18698       95.95756       107.5094
      -123.3296      -185.8218      -4.258926       81.63322       57.41321
       33.28625       89.70404      -32.02452      -110.2385       110.4631
       227.8320       173.5084       37.16815      -100.8345      -72.48013
      -22.65714       59.41159       108.4083      -31.58005      -136.7160
      -13.64642       128.1091       168.5674       213.5774       100.3701
      -81.58269      -109.7633      -19.22325       103.5371       42.80237
       78.30640       80.83429       12.18787       138.1378       149.7041
      -19.94937      -150.9947      -92.76953       92.35016       190.0191
       69.05579      -149.2251      -70.94998       117.3331       86.24078
      -44.24545      -88.97345      -44.15851      -138.7475      -221.3273
      -1.780190       57.58405      -170.1564      -204.7679      -173.3734
      -136.5346      -27.98508      -47.36795      -47.06476      -108.4661
      -200.3184      -156.1595      -221.2097      -327.4723      -196.8760
      -24.23981      -50.14081      -205.4312      -234.8390      -99.63843
      -160.4984      -379.4598      -263.9585      -13.37054       1.479279
      -59.87393      -45.89917      -180.5074      -327.3044      -230.2495
      -139.3553      -239.3762      -219.7835      -59.12872      -115.6473
      -213.7660      -72.05872      -77.10321      -219.0165      -102.6954
       71.51455       32.73865      -106.3383      -158.3561      -19.22708
      -5.146118      -106.8668      -198.2978      -261.3466      -57.04501
       30.68240       69.23251       161.1532      -138.3631      -198.3190
       85.62532       31.12277      -166.2781      -91.70624       140.2970
       127.3649      -202.3541      -180.3630       135.6219       120.2047
      -131.5335      -198.7288       67.73212       91.11176      -47.34030
       60.19974      -45.24127      -169.7603      -56.18926       10.19189
      -20.25784       37.97568       124.7577       32.81750      -100.3569
      -100.7513       11.43427       63.86755      -1.092773       142.6628
       252.7826      -15.88461      -72.89862       12.23048      -28.21606
       176.2752       169.7656      -89.56384       149.0332       397.4697
       153.2592      -29.69455      -18.94913       115.3972       260.0419
       153.4905       111.4865       210.6068       164.3391       185.7303
       247.0481       199.0207       261.5837       328.3619       182.2038
       83.35492       208.2686       286.2921       263.6714       177.0239
       224.9455       377.7543       214.9615       141.0223       176.4199
       179.0735       357.8373       360.9767       182.9022       168.6108
       340.5993       278.0961       39.34045       147.2521       347.8292
       257.7500       50.54034       58.23462       197.9713       158.7712
       24.80093      -13.95630       103.5950       110.5041       47.69919
       116.1418       113.6092     -0.2001190       6.345001       129.7972
       25.34442      -186.4666      -145.8797      -14.07977      -59.84891
      -116.9889      -26.04506      -3.248093      -47.10762       23.46404
       61.23364      -200.1903      -232.9853      -52.05542      -143.4060
      -171.2014      -137.7824      -87.52177      -24.94595      -135.3262
      -103.9630      -23.81702      -243.3099      -334.4215      -25.56598
       140.2789      -23.48547      -134.4390      -134.3426      -72.79480
      -198.4801      -412.0320      -203.0041      -29.80313      -102.4904
      -38.98010       5.880188      -144.8541      -288.5982      -228.2842
      -184.4908      -250.5870      -294.7603      -268.6234      -91.40161
      -123.9114      -320.1364      -290.2925      -114.9679      -171.2232
      -336.3176      -241.5781      -136.6503      -219.6572      -294.3961
      -295.6528      -160.1031      -65.67548      -212.4722      -255.2839
      -154.7229      -235.0848      -273.0135      -225.1120      -187.2274
      -52.91370      -78.93286      -192.8325      -81.56396      -42.49792
       26.96487       61.38971      -106.9249      -165.2977      -194.6089
      -169.8232      -23.08245       35.58090      -56.37488      -259.2224
      -242.0173       136.8667       522.2617       541.5073      -98.73608
      -1017.009      -1065.761      -452.5706      -102.2823       229.9885
       327.3291       359.8053       730.5549       234.7034      -396.2515
      -687.4297      -1549.823      -1721.155      -396.0991       1315.150
       2645.220       2253.699       1127.958       1319.609       203.0356
      -1232.814      -439.5334       517.8428       1371.942       1528.690
       1217.621       1369.327       1094.252       67.52881      -1484.623
      -2008.461      -184.3208       1252.676       628.6548       889.3267
       1689.856       663.1062      -921.5184      -552.3145       858.4951
       1041.047       324.4706      -85.77808      -321.1594      -1088.165
      -1015.748      -90.14514      -107.9062      -953.0571      -961.5922
      -104.8971       160.0549       496.5505       1304.121       1037.531
       131.6046      -34.33990       391.7364       142.7295      -341.8541
      -65.86780       322.7480       145.7645      -384.3725      -334.3954
       201.3821       302.1760       105.2731      -349.4951      -302.1169
       873.7833       967.2513      -390.5969      -856.4457      -376.1228
       58.78735       319.7986       46.51558      -74.96094      -33.71643
      -539.5243      -516.6960      -199.2563      -401.0363      -456.4510
      -266.4817       353.5914       646.2959      -363.7446      -751.5669
      -91.78687       390.4307       463.4584      -39.26849      -385.4458
      -165.4407      -209.9657      -385.5820      -99.63251       123.4649
      -14.76282      -208.0699      -474.3572      -483.5378      -35.37646
       379.6489       288.4474      -39.55811      -159.1232      -252.8042
      -378.4742      -367.4739      -213.0457      -55.32138      -50.29445
      -77.95288       297.4541       597.8457       69.01526      -224.4845
       82.04538      -63.01324      -283.0907       94.78326       154.3964
      -161.7847      -436.1667      -550.1243      -192.9074       67.88208
       135.3060       302.2756       65.47980      -214.4491      -386.9612
      -532.6708      -318.3980       76.58533       463.4733       503.7468
       221.0594       87.59979      -220.1922      -412.4596      -118.9122
       19.69315       109.9255       193.6724       26.85486       223.2203
       384.8386       376.1644       500.2824       25.58105      -300.6975
      -23.93518      -193.2005      -301.5801       83.29272       338.4921
       444.8073       348.2321      -48.21399      -137.7596      -11.76529
       177.9579       122.9820      -37.65051       370.8987       495.2693
       40.27747      -275.3073      -20.89771       397.0146       301.3302
       141.1006       119.0043       70.14343      -72.57339      -101.3563
      -63.90456      -68.73914       44.62625       152.4553       25.29596
       76.49683       363.1511       404.4263       389.0576       180.1805
      -124.6439      -73.77216       190.8099       434.4564       270.4249
       52.92876       142.5018      -65.87598      -236.6433      -24.14355
      -91.35651      -169.3288      -89.24396      -157.1613       103.0112
       350.8782       206.9534       204.1207       276.8557       321.1143
       296.6060       24.05972      -78.86180       21.72369      -210.6614
      -394.5371      -230.2683      -39.19299       220.7762       86.33493
      -194.0960       66.63562       159.6888      -204.4335      -468.0641
      -271.2949       51.63087      -11.92102      -156.6646      -126.2027
      -137.9434      -120.5653      -45.71332      -210.7999      -208.9821
       144.3188       4.424316      -346.0701      -352.7232      -277.7043
      -211.1614      -236.0620      -242.4575      -248.8654      -372.7393
      -400.4648      -136.0428       26.74391      -51.46234      -19.68600
       172.8434       126.7111      -252.0727      -309.5362      -18.71533
      -237.4915      -503.3259      -192.4850       10.48346      -185.9555
      -247.6096      -98.72968      -167.4125      -192.2720      -29.02582
      -99.33112      -124.6182      -87.39050      -274.6879      -337.8098
      -220.8048      -117.7630      -201.4255      -295.2589      -150.6633
      -142.0547      -72.05658       87.39088       59.86043       63.32546
       57.64258      -172.1939      -180.6400      -54.20911      -128.7162
      -202.6614      -250.8347      -334.9591      -263.2775      -177.8597
      -520.3080      -593.8931      -123.7272       113.7558       106.3822
       63.16971       63.72443       155.6462       136.6284      -35.62552
      -72.61685       59.91403       166.9346      -39.27814      -71.65106
       160.2117      -7.275116      -35.35046       228.5240       100.8316
      -130.7405      -121.7212      -108.2465      -144.1718      -101.8017
       23.09183       98.98064       21.30255      -7.466492      -117.3308
      -219.0745      0.8920288       190.2565       215.7074       353.6794
       410.2314       331.5847       232.8647       323.1630       458.3895
       259.2354      -106.5823      -263.1821      -225.1317      -204.7152
      -291.2452      -216.0895      -28.95538      -67.04558      -68.16968
       66.00348       106.4948       222.4673       223.4493       87.91772
       173.1987       180.5948      -97.25336      -109.6465       23.29675
      -20.26928      -9.636414       131.9184       178.6045       138.9019
       173.9174       139.0510       64.79477       135.5246       136.2756
      -10.43921       152.6306       473.0183       390.9358       347.6195
       357.7139       193.6412       101.6149       125.8773       289.7966
       349.4762       122.4066       105.6896       99.04309       108.1382
       355.3505       276.7801       44.96847       23.67989       15.56741
