     0.02500000      -1765.967       2257.551      -12345.00      -12345.00
      -29.99999       221.8750      -23.10000      -12345.00      -12345.00
       0.000000       16.71000      -12345.00      -12345.00      -12345.00
      -12345.00      -12345.00      -12345.00      -12345.00      -12345.00
      -12345.00      -12345.00      -12345.00      -12345.00      -12345.00
      -12345.00      -12345.00      -12345.00      -12345.00      -12345.00
      -12345.00      -31.19940      -66.74700       697.0000       0.000000
      -31.37200      -68.11800       0.000000       97800.00       0.000000
      -12345.00      -12345.00      -12345.00      -12345.00      -12345.00
      -12345.00      -12345.00      -12345.00      -12345.00      -12345.00
       131.9386       82.01488       261.3064       1.186286      -12345.00
      -12345.00     0.08693418       0.000000       90.00000      -12345.00
      -12345.00      -12345.00      -12345.00      -12345.00      -12345.00
      -12345.00      -12345.00      -12345.00      -12345.00      -12345.00
      2008       244         6        45        28
       500         6    -12345    -12345     10076
    -12345    -12345    -12345    -12345    -12345
         1         7        13    -12345    -12345
    -12345    -12345    -12345    -12345    -12345
    -12345    -12345    -12345    -12345    -12345
    -12345    -12345    -12345    -12345    -12345
         1         1         1         1         1
NOQE    -12345          
        -12345  -12345  
-12345  -12345  -12345  
-12345  -12345  -12345  
-12345  -12345  -12345  
-12345  -12345  -12345  
-12345  -12345  BHN     
ZL      -12345  -12345  
[...]
      -160.4802      -172.1790      -185.0844      -192.0837      -197.9239
      -207.9268      -218.4860      -225.0942      -232.1689      -239.0690
      -248.3768      -257.1743      -264.2531      -273.3616      -283.1176
      -292.6899      -300.2559      -309.7152      -319.2142      -325.6477
      -329.7205      -335.7979      -340.1969      -347.4993      -352.1582
      -359.2067      -357.0288      -357.8772      -356.3727      -360.6661
      -360.2225      -362.9353      -359.5836      -360.7383      -355.6945
      -353.2771      -344.1843      -341.5780      -333.5546      -331.4975
      -324.1100      -321.0225      -313.5171      -309.8839      -299.7957
      -294.0178      -284.6653      -282.9192      -274.7048      -270.1180
      -260.2365      -253.8173      -240.7258      -229.5593      -216.5857
      -208.6868      -197.6299      -187.0212      -180.4655      -174.8387
      -161.5706      -152.3334      -145.6294      -137.4668      -123.0271
      -108.8308      -94.58458      -83.02470      -69.87180      -60.50423
      -53.27579      -47.85654      -39.55166      -32.12883      -20.68757
      -10.57104       1.704323       11.28207       20.64049       29.63544
       41.59787       48.10858       57.61060       67.62901       76.21637
       80.76053       92.63635       97.30844       106.8484       112.5145
       126.3286       131.5964       140.9894       148.0410       156.9378
       156.8770       165.3850       169.2910       175.2535       175.6430
       180.7025       184.3286       188.0548       188.6441       193.3935
       196.6528       198.7411       198.4285       196.1082       196.7823
       199.1548       200.7245       199.1305       198.3832       202.5613
       206.8829       202.7963       200.2899       198.4929       196.1962
       192.1219       191.4641       191.8879       187.9868       189.5523
       191.5314       188.1195       188.8733       192.0298       188.6804
       185.6932       183.6464       181.2740       182.0961       183.1194
       179.6454       183.1015       186.3866       185.3486       183.3063
       181.2562       180.6189       179.6384       180.0585       178.3420
       175.3067       177.0128       176.0585       176.9890       175.0418
       170.6224       172.1793       173.0163       171.4150       165.2650
       159.8712       159.1700       158.9048       154.2937       153.4841
       150.0958       147.9109       188.7233       254.0020       178.8116
      -70.73944      -160.3777       83.38562       283.5764       293.6644
       123.4948      -173.8917       39.86548       487.2547       250.7640
      -140.4096       102.5007       291.7551      -123.3611      -369.4791
      -42.37811       248.0627       121.0878      -80.24747      -63.81616
       93.78680       214.0597       106.6398      -118.0519      -23.28287
       142.2954      -36.55103      -143.0675      -68.90906      -43.96802
      -77.08688      -152.7442      -43.46442       29.72588      -98.29340
       82.98134       46.84875      -292.6528      -129.2656       65.25607
      -60.95850      -154.9581      -189.9112      -128.2670      -147.4841
      -245.3919      -279.4440      -114.3002       55.95032      -116.9048
      -160.9333      -161.2808      -248.3146      -101.5715      -131.6169
      -162.8995      -80.93799      -331.4461      -384.3278      -148.0670
      -155.9576      -285.3242      -207.1631       17.71362      -70.46045
      -315.5341      -355.7008      -247.4648      -217.3234      -281.1529
      -241.4702      -239.1567      -249.4382      -39.44623      -45.78094
      -310.1250      -255.0849      -131.4781      -223.4208      -343.4969
      -222.6884      -158.4719      -350.3528      -237.1973      -150.3984
      -281.5427      -206.0549      -123.8621      -1.355957      -99.42358
      -348.7742      -123.6636       50.05188      -164.9664      -305.2645
      -188.5380      -77.02814      -177.1650      -285.4870      -173.3339
      -29.41457       29.42767       80.29620       144.7083       5.601013
      -263.9520      -170.2166      -63.23996      -165.7582      -112.0324
       19.91910       77.31293       77.86195       34.44604       39.94795
       27.06034      -19.57520       5.527811      -1.731131       23.61995
      -19.35670      -62.61386       76.38199       126.4075       179.8932
       150.3075       6.009674       5.928467       53.97791       80.35181
       22.03432     -0.9990845       98.42783       55.19824       143.5046
       237.1794       64.24367       3.445129       101.6545       254.0086
       166.3267       7.442627       98.36375       66.37589      -36.43190
       47.57431       67.75433       60.14673       185.3351       129.3112
       76.67058       94.07362       22.41010       49.96931       39.77526
       6.693054       86.46506       114.3800       156.5678       137.4800
       24.99312       15.08156       64.43091       58.90027       29.25242
       42.82802       30.82878      -81.02942      -20.92865       200.6036
       142.6490      -47.40621      -41.11441       26.82448       23.83743
       154.4431       116.3098      -149.7612      -81.89240       135.9251
       89.03412      -8.510468      -8.809975      -17.33551       43.35959
       41.89377      -63.66275      -23.59694       43.30676       13.74016
      -1.553734      -36.62885       43.83490       89.25278      -27.32558
      -23.62140      -23.05058      -43.70729      -7.855026       29.37544
       80.14890       62.12967       19.49276      -33.83761      -26.01524
       41.41167      -19.10664      -58.70689       50.71195       35.80434
      -97.31447      -26.10948       88.79976       27.37125      -26.64753
      -13.13638       25.62246       11.20504      -35.50282       60.07656
       78.78717      -36.32893      -6.857086       89.31623       7.785538
       8.007599       154.2531       77.19879      -8.643494       143.9516
       132.9296      -5.928101       69.25815       123.9125       53.01108
       57.64282       106.5771       92.17723       53.80783       100.5765
       123.9845       143.0276       143.2496       47.22366       94.80328
       224.8674       165.3273       154.4140       98.23987      -7.861816
       158.9198       262.7240       173.0635       127.6199       79.59906
       78.47281       71.79675       113.3253       208.9052       121.9257
       69.27594       159.6455       124.8188       43.81909       86.38916
       241.1219       181.2532      -6.725189       28.26297       133.2465
       225.3966       165.9662      -77.24924      -92.51801       33.59375
       90.58057       85.67603       36.02622       24.31563       6.775452
       30.48169       171.5018       98.23810      -147.2027      -202.3970
      -147.9724      -40.44934       174.0814       297.0757       41.47949
      -320.1566      -329.1836      -172.9125       96.53888       150.5334
      -112.8884      -108.9398      -32.64056      -159.9770      -253.0383
      -20.07156       99.25064      -157.9805      -122.2936      -177.5021
      -267.3576      -69.50916      -107.2332      -92.35367      -17.25873
      -145.9275      -161.2436      -203.1532      -160.6036      -102.2578
      -129.7634      -124.7518      -258.3654      -320.4809      -153.9561
      -3.048157      -106.7408      -306.8372      -204.0698      -164.9017
      -248.6823      -51.84900      -67.97620      -299.7514      -236.4692
      -182.7592      -197.4848      -31.09453       11.83228      -158.8887
      -242.2286      -277.9445      -222.5961      -94.42218      -135.1077
      -156.7539      -96.01776      -128.0657      -136.6627      -169.9229
      -62.13208      -85.78174      -248.8168      -62.56241       8.438385
      -153.5699      -153.5601      -95.16335      -25.36061       8.024704
      -48.95975      -98.77858       10.72928       12.57312      -113.8163
      -54.63491      -3.122364      0.3109360       43.99118      -101.3304
      -91.04428       91.01929       129.1900       153.1801       57.56381
      -121.6848      -66.32915      -53.61302      -26.14874       243.7657
       288.9958       23.04211      -83.56255      -14.65594       178.5966
       235.4772       124.6119       81.60840       129.0457       152.3823
       20.95908      -28.55188       156.4092       282.7943       198.7651
       8.969421       142.9414       288.3060       174.1931       194.7366
       202.0180       90.52716       40.78918       49.59668       229.5746
       373.6365       268.1073       138.9318       126.3829       208.1853
       327.3063       409.0928       370.2328       74.55441      -45.53650
       93.16455       234.7732       355.8951       342.7288       273.2856
       214.4322       168.3984       207.2403       339.5576       323.8892
       85.62146       151.5309       322.0450       289.7897       280.0385
       187.5330       59.38794       201.5059       331.3098       178.4091
       116.5455       294.7095       335.4806       122.2444       36.08630
       315.2447       309.8665      -10.94943       3.295349       150.9493
       225.8633       270.3966       146.8511       51.30975       104.0187
       121.5588       43.38309      -84.78857       42.74585       265.2266
       111.7652      -28.31761      -19.11516      -77.66422      -1.551781
       33.69882      -178.3313      -90.87926       151.1236      -51.69067
      -210.9331      -55.97101      -123.9727      -275.5494      -37.67390
       28.79224      -228.1699      -203.2932      -143.6736      -210.2774
      -171.4026      -161.3430      -234.0009      -285.1408      -184.5677
      -101.6954      -204.9449      -288.1077      -234.7688      -216.1268
      -316.9085      -329.5435      -289.6199      -313.1067      -240.8622
      -104.7830      -179.5979      -358.4099      -458.4347      -359.6467
      -249.9387      -341.5571      -309.1410      -210.9489      -352.6604
      -408.2857      -297.4108      -333.7048      -306.5413      -182.0356
      -363.5328      -528.6967      -206.4799       16.62292      -358.9596
      -471.1390      -277.1223      -417.4551      -349.7206      -144.2392
      -244.8141      -261.4279      -181.3561      -290.5482      -385.1567
      -278.2766      -143.4955      -84.79871      -213.0831      -335.7620
      -226.7045      -181.6840      -262.9038      -236.4326      -169.3714
      -87.91138      -65.10004      -192.2438      -81.74878      -33.28552
      -357.7500      -252.1244       47.46268      -67.69933      -56.00862
      -7.608551      -53.54918      -70.58655      -73.70777       44.26620
      -28.59357      -112.2020      -14.61826      -62.34119      -127.0491
      -67.55643       80.48053       169.2313       139.8651       51.11771
       1.746170       19.04395       49.77557       68.92871       192.1609
       236.7488       189.2191       242.3189       100.0929      -78.36053
       54.56091       188.4440       193.3278       252.1225       281.0070
       284.1475       202.0677       96.10510       276.7158       395.4391
       295.1152       239.7172       247.8533       279.4811       327.2384
       283.1633       156.7349       289.2947       396.0023       264.6651
       285.2207       240.6305       234.3162       369.0284       347.4415
       194.1149       211.5612       382.9427       345.6675       235.6179
       260.0833       224.5332       125.5856       253.1000       376.5068
       203.0065       118.0291       164.6453       266.9849       283.3205
       162.5315       145.2122       198.0998       94.48196       49.83276
       255.7323       172.7287      -41.24615       127.1188       205.7929
      -50.99573      -16.98193       159.3026       195.9902       96.17648
      -39.94409       84.44164       17.39374      -210.7278      -79.03517
       62.05344       31.45921       52.88299      -13.47169      -11.07622
       48.72147      -95.36652      -81.03404       61.55716      -20.36261
      -122.6561      -86.03621       55.52466      -54.84009      -220.4005
      -45.37469       61.30585      -75.91052      -181.1288      -186.7789
      -148.7570      -130.9042      -23.71751       123.8721      -89.53424
      -273.8080      -51.30193      -41.96603      -166.9570      -73.52820
      -60.49234      -133.9438      -192.1487      -173.4546      -64.59451
       10.04744       109.3143       14.63361      -216.9081      -251.8660
      -95.22244      -35.36267      -97.43115      -178.4368      -432.4219
      -716.5315      -663.7552      -382.5144      -443.1677      -700.3872
      -916.1890      -865.5504      -401.1139      -273.2997      -368.6006
      -72.57239       182.4778       568.6201       1856.793       2257.551
       1155.417       141.9194      -608.3079      -360.4260       921.1240
       1426.387       889.4474       624.2189       49.88379      -978.9257
      -383.8484       82.09717      -1217.899      -1765.967       22.69580
       1753.351       1408.180       193.6365      -717.7258      -456.3336
       149.8131       110.1028      -679.3252      -728.6296       590.6229
       108.8860      -1026.287       168.4756       1076.809       448.1150
       100.4434       402.7796       321.0920      -360.5498       233.8750
       705.2557      -154.5677      -179.2448       188.8307       321.0536
       266.1194      -250.0249      -114.3855       635.7988       641.8175
      -374.3652      -862.1729      -655.2809      -54.38110       777.2100
       331.5736      -381.1406      -426.0480      -218.6547       322.2390
       314.9037      -7.837921      -180.8714       59.78015       597.6451
       62.08557      -345.8597       68.79047       56.13461      -21.87238
      -237.7306      -548.3645      -219.2878       622.7524       980.7922
       198.9584      -479.7712      -452.4144      -445.2920      -303.5296
      -84.97269      -2.360840       287.3116       359.4891       207.5334
       571.3506       582.0247       129.8245      -101.2400      -728.8293
      -832.2868      -46.69460       132.3543      -42.70898      -344.8584
      -936.7652      -487.4250       217.4398      -514.9155      -383.5416
       529.0943       225.7113       74.22292       49.03525       20.09552
       331.1190      -136.2626      -628.8384      -317.5437       45.79590
      -69.95972      -418.2457      -403.8608      -273.9521      -292.9380
      -239.1928      -86.08365       185.5380       67.36469      -274.5560
      -170.0127      -104.2588      -270.5198      -512.8959      -374.3782
       315.3915       386.5303      -122.4091      -272.2605      -337.4946
      -552.0812      -553.8177      -367.0070      -257.7659      -62.49731
       358.1141       384.6617       67.43652      -118.2649      -259.6624
      -188.1198       13.20410      -233.7738      -353.7307      -134.1957
      -239.1085      -348.6260      -146.9721       43.66202       111.3346
       114.6354      -172.3475      -512.2352      -254.7998       138.8663
       49.41881      -91.86880       11.50562      -135.1991      -444.3918
      -212.4031    -0.06369019      -204.8681       13.25482       295.2740
      -2.063843      -270.3322      -105.2054      -164.7348       9.678345
       386.7026       43.72829      -78.41779       192.5687       99.61188
      -205.5475      -267.5946      -280.8289      -550.5424      -420.6406
       130.9351       320.9857       75.84599       4.565346       24.34637
       37.27307       197.0092       322.8494       334.7581       186.3730
       74.78143      -78.21619      -173.1754       98.67590       307.4578
       205.1202      -59.12526      -68.49750       189.0368       190.8848
      -78.18529      -104.7192       88.97430       139.0410       26.71057
       91.19214       461.3788       365.7952      -16.17578       206.9716
       485.7200       294.1960       70.48853       358.5950       596.6614
       263.2323       88.11841       58.98424      -86.29724       171.6234
       422.8130       251.4389       35.27423       185.7710       329.8658
       173.6456      -4.407532      -90.93892       2.225220       73.19067
       190.0168       431.3356       371.8954       278.1200       503.7854
       494.3441       297.6654       441.3617       363.5934      -64.08246
       118.5961       303.7743      -52.96155      -143.0003       40.61475
       187.3965       197.8082       160.5427       281.9325       280.2343
       239.9754       337.4194       162.9580      -17.16345       147.5397
       379.0010       518.2068       587.0160       346.3973       115.9177
       116.9111      -1.448914       232.5216       385.8653      -105.5190
      -148.6423       361.9017       332.4975       53.43929       60.49524
       105.5408       80.15098      -5.353340      -40.41679       6.108887
      -87.35183      -95.50763       72.04495       142.2029       32.96554
      -10.99890       23.92615      -191.2817      -146.9959       216.1366
       284.3004       138.8929      -61.81866      -34.08447       343.8187
       302.4868      -118.4086      -34.75040       83.40582       72.16518
       136.8286      -21.69154      -49.13522       25.08945      -148.3559
      -58.52246       204.0352       171.1021       47.90157       15.97928
      -19.31506      -149.4476      -293.0156      -319.2786      -259.3626
      -89.74091      -5.913452      -284.0400      -446.5442      -224.1865
      -114.5111      -80.84790      -130.7238      -143.3340      -58.46581
       15.53363      -20.99713      -256.9445      -232.9141      -69.10223
      -246.9705      -425.3883      -298.9360      -293.5462      -383.0502
      -211.0986      -94.74243      -154.0591      -139.0996      -116.2570
      -233.7203      -267.6631      -87.52039      -38.50330      -260.3979
      -201.2008      -23.63129      -127.7292      -98.64331      -222.7380
      -524.2140      -403.6547      -212.2675      -208.5072      -181.9155
      -130.2657      -154.5513      -239.0104      -299.1139      -240.2550
       15.74263       62.02304      -112.5969      -86.53268      -15.29224
      -175.5889      -298.2127      -158.1869      -50.15222       26.08505
