     0.02500000      -2471.622       1935.505      -12345.00      -12345.00
      -29.99999       221.8750      -23.10000      -12345.00      -12345.00
       0.000000       16.71000      -12345.00      -12345.00      -12345.00
      -12345.00      -12345.00      -12345.00      -12345.00      -12345.00
      -12345.00      -12345.00      -12345.00      -12345.00      -12345.00
      -12345.00      -12345.00      -12345.00      -12345.00      -12345.00
      -12345.00      -31.19940      -66.74700       697.0000       0.000000
      -31.37200      -68.11800       0.000000       97800.00       0.000000
      -12345.00      -12345.00      -12345.00      -12345.00      -12345.00
      -12345.00      -12345.00      -12345.00      -12345.00      -12345.00
       131.9386       82.01488       261.3064       1.186286      -12345.00
      -12345.00    -0.01996153       90.00000       90.00000      -12345.00
      -12345.00      -12345.00      -12345.00      -12345.00      -12345.00
      -12345.00      -12345.00      -12345.00      -12345.00      -12345.00
      2008       244         6        45        28
       500         6    -12345    -12345     10076
    -12345    -12345    -12345    -12345    -12345
         1         7        13    -12345    -12345
    -12345    -12345    -12345    -12345    -12345
    -12345    -12345    -12345    -12345    -12345
    -12345    -12345    -12345    -12345    -12345
         1         1         1         1         1
NOQE    -12345          
        -12345  -12345  
-12345  -12345  -12345  
-12345  -12345  -12345  
-12345  -12345  -12345  
-12345  -12345  -12345  
-12345  -12345  BHE     
ZL      -12345  -12345  
[...]
      -105.7349      -106.1985      -111.6633      -113.7919      -118.8624
      -118.3242      -121.7862      -123.3564      -131.0185      -131.9105
      -134.3955      -135.0793      -137.3892      -136.4437      -137.5660
      -139.8079      -139.6926      -138.9666      -141.3105      -143.0917
      -143.3185      -142.3709      -142.2676      -144.6363      -145.2283
      -142.7824      -144.7264      -138.4718      -133.1855      -126.3805
      -121.1557      -116.1930      -113.1572      -111.1342      -105.1772
      -99.47186      -97.73395      -94.17670      -90.67026      -81.51517
      -73.47679      -64.30815      -55.39606      -43.98621      -35.61085
      -31.05569      -30.06091      -25.26023      -23.68309      -15.45191
      -9.994193      -3.054081       1.342995       11.99855       17.47777
       20.66136       24.61642       27.78947       29.43244       29.97490
       26.99386       28.26105       29.31944       29.41245       32.92850
       35.55360       38.72308       38.04897       36.38010       34.29415
       30.96836       26.02470       27.13049       25.00757       21.80602
       22.52846       24.66255       22.82072       19.67664       19.47124
       21.10252       16.87181       13.29307       13.45651       11.44177
       11.54886       11.95050       12.45634       15.58922       17.77445
       18.33326       18.75836       15.28632       15.27567       14.47859
       10.82440       8.703636       11.43560       14.79712       13.84570
       14.51167       16.89633       15.54020       14.96719       17.11110
       17.86662       17.84319       19.16955       18.21516       19.88705
       22.94742       28.40018       30.33168       30.54655       32.86990
       36.84641       36.18660       35.75728       37.24559       40.30596
       37.40662       38.58769       40.45819       44.05441       43.83501
       46.19063       49.97783       55.23099       51.94391       54.87666
       54.90007       53.98457       51.36345       60.20425       64.53989
       68.94183       65.01779       68.09183       67.92200       72.11835
       66.87073       56.28424      -12.43958      -167.2475      -184.1512
       212.1370       760.8767       747.9493      -74.70709      -514.8594
       41.88416       612.1363       322.4250      -508.8768      -576.9996
       79.36337       261.4182      -151.5573      -364.5933       312.3749
       626.8658      -156.1026      -362.4761       226.8320       412.5978
       124.6003      -114.2585      -168.0373      -4.516022       190.9787
       55.93422      -76.30199      -25.26048       78.19566       22.44960
      -39.81015       107.7084       152.5543      -39.43567      -101.0849
      -15.87686       55.90033       219.5743       449.8568       164.7596
      -263.2828       47.59772       256.4326       39.61707      -107.3654
      -69.31549       160.9037       204.6549       269.7481       194.3418
      -104.5995      -77.44116       187.2270       214.2413      -76.95587
      -184.6509      -105.8498       152.3154       294.2605      -60.45511
      -86.55676       211.0101       198.6490      -86.56680      -162.0995
       66.53973       47.81987      -22.19934       122.6722       21.49625
      -195.0474      -114.4947       77.55299       51.45807      -217.2620
      -234.0001       44.09320       166.4503       28.82239      -235.3865
      -174.0959       23.89075      -137.5353      -126.5055      -107.6609
      -315.8557      -102.4933       46.66992      -191.6073      -286.6202
      -60.72794       20.24622      -221.2126      -175.2605       82.64496
      -96.92053      -308.5470      -299.0688      -65.94269       172.0084
      -110.3601      -240.6911      -163.8130      -250.1985      -244.6271
      -78.70126      -53.17805      -120.6135      -14.84804      -23.34680
      -183.2535      -169.8932      -74.37317      -169.2946      -202.7520
      -69.26968      -80.83173      -140.8807      -164.4958      -142.2596
      -50.07355      -21.64453      -149.7190      -258.9493      -122.9948
      -88.80026      -129.5264       43.32661       51.58145      -56.95074
      -118.4251      -114.2946      -116.9276      -132.8684      -117.9975
      -192.9912      -78.62848       128.4426       123.9916      -103.7556
      -217.5812      -36.11546       55.90702      -34.96295       14.04901
       211.6371       151.5740      -109.0987      -132.8828      -14.21619
       62.62627      -18.50256      -9.898315       149.9487       204.5340
       178.4232      -41.90726      -146.3512       5.167847       39.41028
       57.46039       155.1069       124.9866       78.54623       106.4504
       105.0548       132.9459       218.8374       183.6586      -54.16313
      -20.37659       159.6666       165.0164       115.3042      -8.126961
       2.149170       110.7576       275.2937       321.7560     0.05447388
      -209.8550      -13.10461       195.8433       161.0361       135.8215
       164.8589       110.0895       158.7002       184.7003       51.72287
       6.328888       122.3250       142.7563       52.01378       27.66415
       43.63809       27.24457       152.5375       292.7501       232.6330
       86.14147      -26.93335       76.82751       198.0038       124.2733
       81.04138       81.98303       185.1137       202.8376       85.01965
       149.3739       150.0259      -32.45001       44.22998       222.0075
       176.3596       103.5721       65.58130       49.95868       99.98236
       149.3242       129.5488       141.8121       149.9958       203.4916
       172.2197      -14.70940      -5.462891       174.0049       168.4963
      -71.19461      -54.73486       142.5559       114.8170      -21.10115
       20.75339       114.1220       79.76299       1.015989      -25.55063
       27.95155       3.211548       9.726334       69.44022       26.22922
      -9.851135      -55.67487      -94.99370      -102.4609       5.436905
       65.35480      -103.0858      -198.0601      -112.0584      -27.50568
       53.55188       4.929932      -185.0754      -269.2936      -126.7862
       23.86434       18.52126      -75.32826      -56.79956       48.60663
      -5.385498      -183.4919      -187.5835       49.39568       31.35883
      -298.0154      -333.5918       48.59494       183.8398      -181.6476
      -424.5836      -218.6203      -54.24832      -58.77078      0.1949463
      -3.996094      -285.7277      -664.2301      -321.1990       416.2797
       414.7529      -17.30664      -467.9398      -730.9727      -521.9492
       123.9705       582.9205       25.04248      -573.8754      -550.4375
      -143.2392       38.09662      -270.0168      -143.9620       72.65627
       30.93964      -154.2135      -344.1097      -205.8147      -161.4269
      -49.44318       141.4303      -181.7111      -286.1144      -123.2276
      -136.2579      -153.3580      -220.6779      -134.6129      -55.64519
      -74.89561      -11.27539      -117.0579      -167.3410      -120.5298
      -137.3740      -22.91171       83.23546       48.50000      -139.7650
      -210.9232      -109.7917       91.68622       211.9958      -3.915588
      -187.4937      -144.1185      -73.26974      -19.85522       91.72260
       190.0882       125.9391      -12.10010      -181.3454      -20.48773
       294.6564       67.22589      -46.93738       243.0834       56.79504
      -346.7812      -110.7997       358.8746       282.6555      -41.17714
      -68.89035       86.79765       40.89137      -66.36504       28.92633
       144.2163       170.5785       70.05934       42.60901       152.3199
       149.3069       1.726624      -167.5419      -14.67419       355.7159
       388.5641       77.34790      -227.7390      -236.6073      -2.499146
       309.3052       370.9319       127.2418       42.43710       53.99756
      -199.0113      -154.6420       348.0673       478.2591       44.96857
      -302.4114      -11.93433       374.9586       109.5724      -118.7927
       155.7230       271.2671       174.0760       78.85452      -28.80267
       17.79773       99.41858       242.0134       300.1983       57.14497
      -156.8590       29.61499       402.4683       360.7751       136.7177
       66.77637       20.40210       164.3526       343.8634       257.4182
      -10.05712      -78.73758       76.04529       201.5985       378.9727
       385.6248       277.7623       68.37936      -37.92328       237.0613
       312.6027       243.6469       267.2423       109.3927      -146.8494
       200.4229       712.9048       354.0633      -117.5268      -96.30255
       225.8126       462.2274       327.3754       112.2351       130.5585
       342.5525       234.1062       5.708984       165.4004       236.5499
       7.212585       116.2225       400.3005       206.8823      -37.96866
      -87.95061      -78.95679       142.1937       304.0298       132.4067
      -10.25647       95.95416       154.0808       28.39587      -112.2561
      -218.1010      -201.8668       215.7200       265.6034      -145.2141
      -173.9737      -53.18283      -45.37610      -226.1860      -287.6330
      -7.907990       10.29184      -87.09061      -19.57816       7.012207
      -196.0370      -299.0521      -222.6399      -274.1973      -233.4031
      -116.2281      -246.6573      -379.2687      -140.9387       26.93054
      -236.2007      -491.7526      -287.9768      -40.59930      -138.7360
      -251.0920      -212.9749      -174.1011      -277.1232      -345.9060
      -416.3762      -418.2064      -256.5306      -152.7325      -183.8127
      -447.5014      -413.0828      -60.00720      -201.9714      -540.8210
      -365.4935      -100.4525      -296.4153      -377.3232      -412.1809
      -374.5211      -40.29822      -173.3116      -576.3938      -527.1715
      -252.4249      -206.0549      -218.7711      -174.8650      -406.7292
      -523.1614      -341.2443      -282.5883      -208.7654      -57.82196
      -105.7631      -255.0903      -414.0154      -333.2780      -85.49457
      -52.47864      -183.4987      -300.8077      -149.8723      -86.17798
      -441.0488      -358.6366       37.05328      -77.94775      -320.0770
      -119.5930       234.3884       56.46625      -337.7943      -279.5269
      -41.79077       86.35860       92.56299       7.575378      -87.99952
      -48.45441       16.50510       48.10611       108.1830       154.9333
       205.7932       79.04855      -157.9527      -70.72418       237.2722
       220.0995       110.9751       267.8550       271.3898       170.7126
       46.66696      -92.25562     -0.2208252       257.1978       380.7477
       223.2954       178.1799       399.2881       312.4988      -9.938477
      -6.893311       286.0115       349.7897       129.5843      -13.12146
       41.80322       230.1470       388.3119       271.9855       93.12549
       242.8928       313.8097       255.4028       241.4306       104.6884
       70.22034       232.5616       324.8354       139.1766       93.91296
       210.8692       244.3553       210.6416       119.2596      -5.755737
       129.8145       397.6746       306.0052       100.8474      -13.91096
       4.512573       147.6061       225.3420       247.2107       237.4559
       17.00444      -85.29724       199.0552       324.9458       153.7599
      -79.37952      -83.00134       238.0684       295.2482       30.84988
       89.56439       277.4396       144.2778      -130.6769      -165.5117
       155.5573       151.1261      -26.87390       231.8261       214.3322
      -158.6091      -101.5166       224.4750       67.40717      -206.0797
      -106.6169       20.08167      -44.92407      -222.5664      -38.88077
       174.8094      -30.45206      -81.43956      -49.07678      -105.8060
      -194.7574      -247.9818      -84.70667       76.17120       107.2407
       169.4192       59.83984      -164.0171      -330.6138      -324.6446
      -105.1956       114.3059       130.6840      -57.07135      -149.4764
      -150.3326       12.10071       182.8495       151.8864      -106.1514
      -350.0619      -151.7378      -8.991791       35.00464       220.7202
       126.3331      -148.7137      -24.00208       170.0393       471.9249
       711.2867      -156.9072      -1068.739      -483.9396       203.1457
       207.6680      -62.38501      -530.1179      -86.83035       17.34204
      -429.5418       226.9989      -5.568848      -1104.365      -125.4958
       1131.364       972.9624       1454.376       1935.505       1910.302
       794.9907      -1339.467      -1772.567      -810.2905       823.7324
       1492.872       601.3572       631.2463       1089.226      -467.6519
      -2471.622      -1580.897       581.6157       1691.675       1122.010
       87.11963      -323.6641      -1269.860      -1455.474       265.4243
       1898.788       1559.687      -776.8701      -2083.597      -301.1278
       637.1830      -514.5477      -612.5333       72.48123      -17.55698
      -299.8521       157.8259       215.2271       452.4102       1184.737
       1058.247       276.7441      -931.2139      -1370.625      -275.0664
       857.7325       579.5317      -565.4117      -675.0300      -158.2328
      -42.90015       200.9774       388.1354       28.34436      -453.4143
       219.0109       798.9241       3.460205      -582.8840      -745.3091
      -583.1124       42.69536       100.2690      -178.1070       54.23267
      -98.37280      -540.0483      -495.9578      -265.0268       113.5711
       121.1819      -185.7322       37.41379       191.8428      -386.4999
      -700.6171      -81.92273       676.9379       626.9108      -212.7053
      -837.8529      -723.7015      -253.3453       229.6886       526.4968
       230.5161      -510.5723      -437.5006      -257.4772      -335.7984
       186.8752       158.8537      -285.6943      -37.08710       204.1766
      -269.6847      -510.6877      -192.0561      -126.3473      -253.0684
      -246.0088      -130.8882       84.40869       258.8617      -15.67323
      -180.0820       237.7741       190.8876      -178.9147      -251.3193
      -438.2478      -565.8716      -554.8759      -446.9135      -75.20837
       351.9127       476.5102       35.50061      -473.4999      -270.2373
      -182.9058      -496.5524      -339.9646       226.2861       600.5645
       353.9492      -45.55075      -113.3890      -23.53412      -27.00714
      -219.5206      -214.2630       24.36003       11.48479      -57.88983
      -38.25732       141.5984       463.1439       356.1468      -22.18750
      -246.3356      -353.2343      -200.0383      -175.1411      -171.1003
       177.8667       185.8510       11.57816       93.71881      -36.66760
      -247.2338      -200.1630       192.6644       507.4425      -98.16833
      -386.8132       27.61867       9.052368      -168.6919      -254.7085
       162.9341       707.7114       297.1981      -407.6893      -438.5515
      -118.4052      -86.13637      -36.43726       219.8186       113.8976
      -73.38672       351.9260       641.1448       117.2660      -87.98425
       189.6967       137.9430       49.17612      -8.732124      -51.34497
       121.9625       174.8144       33.74198      -44.68253       61.33774
      -4.597900      -424.7338      -519.7092      -118.4671       255.4865
       304.0137       190.3473       70.82886       50.08972       146.3722
       116.8029       139.4274       140.1122       26.79812      -54.62345
       13.06308      -37.78183      -255.8524       42.20081       417.7814
       244.3794      -1.067596       51.01703       222.8157       232.2937
       174.9316       62.52019       17.34435       86.01231       23.25208
       116.7940       68.96652      -185.9276       25.62646       355.9137
       373.6653       285.3453       35.74023      -369.6125      -344.8257
       133.8501       290.7504       67.35687       198.3726       326.6930
      -72.99512      -57.59229       406.0975       266.7930       16.49695
       181.8382      -12.86566      -217.2137       46.50643      -34.34138
      -14.41083       205.5005       124.6888       205.7553       362.1732
       165.3098       62.71289       344.4763       374.2078       158.8883
      -10.88316      -135.2927       185.3691       462.0677       201.7830
      -69.09199      -36.15564       134.1633      -6.963074      -313.3314
      -101.0029       280.2544       51.24701      -53.14490       348.7700
       340.4435       34.41663       129.6583       327.7189       200.8308
       163.0837       260.2807      -38.49988      -288.9791      -271.9230
      -177.5622       74.19070       126.5194       104.6820       88.53906
      -13.92554       250.7992       354.7487       125.2457       57.19220
       139.9589       254.6755       305.4319       217.3954       159.7448
       277.3303       216.6117      -19.93633       13.31107      -1.356201
      -216.6082      -223.8067      -39.09747      -16.10083      -47.89026
      -118.9587      -104.0928      -97.37329      -282.8065      -219.5121
       40.72998      -67.50879      -434.7247      -369.0470       53.46672
       146.5743      -41.88574      -3.557617       410.3879       572.1418
       332.5826       142.6060      -136.1084      -400.2515      -446.7495
      -453.9457      -352.1659      -233.0119      -239.1792      -202.8321
      -181.5327      -236.2457      -283.8978      -279.0134      -195.2884
      -194.4695      -128.2406       19.47345      -72.46973      -263.8369
      -432.7331      -309.2820      -87.39981      -169.9050      -90.42526
       5.795166      -268.8505      -516.7589      -376.3882      -189.7136
      -240.7366      -319.8462      -246.7910      -149.4026      -78.60442
       52.32738       70.79535      -83.30695      -200.6743      -89.77869
      -14.58194      -59.98743      -224.9086      -261.1002       72.40897
       133.6307      -109.5704      -40.22957       65.38281      -139.6456
      -277.9370      -228.2288      -128.0333      -99.81482      -169.1901
      -209.1216      -194.6515      -66.09122      -77.73337      -123.6807
      -109.8714       19.34601       257.5179       110.2568      -77.98804
