     0.02500000      -1258.720       1296.341      -12345.00      -12345.00
      -29.99999       222.6500      -24.35000      -12345.00      -12345.00
       0.000000       17.85000      -12345.00      -12345.00      -12345.00
      -12345.00      -12345.00      -12345.00      -12345.00      -12345.00
      -12345.00      -12345.00      -12345.00      -12345.00      -12345.00
      -12345.00      -12345.00      -12345.00      -12345.00      -12345.00
      -12345.00      -31.03680      -69.52500       1657.000       0.000000
      -31.37200      -68.11800       0.000000       97800.00       0.000000
      -12345.00      -12345.00      -12345.00      -12345.00      -12345.00
      -12345.00      -12345.00      -12345.00      -12345.00      -12345.00
       139.1419       285.1281       105.8535       1.251047      -12345.00
      -12345.00      0.1048426       0.000000       0.000000      -12345.00
      -12345.00      -12345.00      -12345.00      -12345.00      -12345.00
      -12345.00      -12345.00      -12345.00      -12345.00      -12345.00
      2008       244         6        45        29
       750         6    -12345    -12345     10107
    -12345    -12345    -12345    -12345    -12345
         1         7        13    -12345    -12345
    -12345    -12345    -12345    -12345    -12345
    -12345    -12345    -12345    -12345    -12345
    -12345    -12345    -12345    -12345    -12345
         1         1         1         1         1
NUEV    -12345          
        -12345  -12345  
-12345  -12345  -12345  
-12345  -12345  -12345  
-12345  -12345  -12345  
-12345  -12345  -12345  
-12345  -12345  BHZ     
ZL      -12345  -12345  
[...]
       364.8821       366.4126       365.0481       361.2042       359.9280
       360.6461       360.1311       360.5864       364.1292       363.1143
       358.1436       353.6643       348.3933       349.0338       345.2943
       339.8229       337.9312       335.0628       330.7701       327.4283
       325.1461       324.1365       319.3959       313.7218       304.9933
       302.9407       291.9379       284.8010       279.4065       271.7378
       264.0815       253.8409       239.3051       227.6213       218.9951
       213.3392       203.0317       196.1316       185.7928       171.7882
       163.2388       155.0594       145.7450       137.7686       129.4770
       113.2664       100.1127       92.97807       78.07549       69.11409
       66.46048       53.07715       45.63626       38.03354       28.12520
       17.20295       5.029455      -2.880623      -9.989105      -23.93481
      -36.41386      -45.96063      -56.93974      -70.40015      -85.68512
      -92.36688      -103.8923      -119.3826      -132.3771      -145.2461
      -157.2184      -170.5876      -187.3901      -199.2334      -208.5714
      -215.2783      -225.2232      -232.4243      -249.2504      -260.3414
      -265.7834      -271.6478      -277.6286      -282.6000      -295.6191
      -299.4592      -308.3124      -314.4520      -320.9323      -327.4127
      -331.8333      -299.0193      -193.6600       37.16663       270.2744
       365.1147       169.6698      -250.7710      -577.5620      -847.3215
      -1172.261      -1229.822      -603.4968      -385.6216      -1188.021
      -1197.453      -275.8970       163.8900      -106.0432      -307.1920
      -137.6871      -77.93005      -340.7865      -452.9111       4.872253
      -33.98413      -517.3519      -513.7916      -520.3613      -768.8429
      -666.7893      -27.80200      -55.96167      -682.6652      -592.1816
      -399.0072      -363.4938      -402.2896      -814.3126      -632.5806
      -64.43634      -155.6877      -640.3773      -677.3638      -253.6965
      -71.67004      -354.8872      -353.1208      -350.7770      -623.4031
      -519.4197      -248.9513      -73.61804      -9.589111      -249.5005
      -736.8342      -833.8593      -436.9540      -2.019440       167.0199
      -11.68112      -20.22672      -2.891479      -313.8457      -819.8027
      -912.1304      -381.1298       2.392960       22.90741      -157.0711
      -123.3281      -100.8249      -183.8023       4.301392      -107.5293
      -138.2580       86.37121       58.47266      -228.7023      -527.7119
      -453.0750       1.017456       280.0107       132.7418      -72.00751
      -129.0655      -71.26262       19.48742       48.82172      -76.16897
      -47.04611       133.2511       167.7857       71.60010      -164.3972
      -387.3600      -258.1938       132.0455       108.5620      -173.5804
      -199.1517      -36.03848       41.32005       30.23474       76.49640
      -51.09515      -222.9872       6.970337       119.4186       131.2609
       151.9391       23.55725       31.21844       123.5501       192.7035
       7.559204      -248.5829      -142.0457      -10.55748      -13.96909
       19.93479      -42.31686       27.26459       117.2887       131.3652
       275.2904       199.9004      -30.31415      -65.50296       62.63582
       49.68588       143.2352       171.8333      -8.705963      -51.03983
      -62.00696       89.68066       311.8779       159.7709       80.86389
       245.2062       277.6497       217.5414       172.2314       183.5662
       216.8712       121.6984       35.09094       252.2552       396.2786
       329.5204       475.0659       484.8436       274.5857       191.1420
       264.5588       503.7605       677.5400       523.9563       291.8552
       322.3208       565.3782       516.2950       216.3819       62.84961
       324.8962       642.3728       573.6763       398.4956       373.1659
       415.9060       543.6493       540.5938       499.0415       512.7887
       528.9612       802.4053       876.4205       611.7191       459.5687
       517.8623       651.1836       724.2443       646.1001       470.5607
       367.1909       409.0089       461.7120       377.9819       424.2769
       511.7228       640.3625       617.2000       392.7616       355.1973
       384.7195       307.2255       328.3851       460.8175       311.7628
       236.7061       378.5598       361.2332       404.9550       491.7064
       402.9037       314.0923       236.8704       127.8436       155.2064
       238.2631       196.6454       141.3929       185.5400       104.9985
      -18.13653      -8.133623      -13.38516       26.51227       100.7568
       83.53180      -60.75031      -134.5544      -125.4867      -152.9396
      -132.3441      -145.5098      -75.44690      -100.3658      -238.5342
      -364.5071      -276.2917      -80.41052      -178.3364      -197.3064
      -161.2427      -319.8802      -469.1161      -469.2017      -449.3291
      -348.5041      -240.1683      -401.2354      -472.0176      -481.7817
      -494.5345      -323.6718      -272.0599      -378.9177      -415.4153
      -468.8131      -439.2621      -314.9137      -305.3523      -414.2030
      -378.0357      -212.6835      -140.8215      -329.1824      -520.9628
      -475.0511      -420.9966      -467.8264      -421.9718      -269.4196
      -256.6497      -382.7979      -472.8474      -350.7225      -201.4173
      -278.8114      -251.2824      -158.2505      -226.9171      -268.9835
      -153.8506      -146.9456      -239.3754      -178.4923      -70.67822
      -109.9346      -199.2936      -221.8936      -214.9401      -131.1561
      -130.3820      -170.2486      -47.79926       3.730286      -47.88153
      -90.66817      -75.96347      -72.71803      -61.77214       8.998383
       113.2554       30.39148      -224.5039      -190.8979      -31.54610
      -48.69366      -28.59682       58.86557       52.22290       62.72647
       45.77596      -69.21729      -12.83665       7.932007      -115.1070
      -121.1226       47.40685       27.44000      -76.02377       8.500549
       17.60812      -15.36945      -121.8656      -207.0584      -108.5024
      -140.3276      -201.1233      -58.92749      -18.61182      -110.1758
      -92.91895       55.38953       119.3334      -33.48053      -204.1881
      -235.2130      -182.4351      -61.63921       88.78909       38.22571
      -108.8038      -149.3581      -82.45041       3.439926      -45.01868
      -110.1541      -15.25946      -31.54271      -110.3623      -27.86298
      -62.01111      -181.1468      -130.8803      -13.20868       112.1792
       158.9321       85.86853       61.07425       40.74695      -61.41113
      -228.0821      -112.8360       74.04467      -19.39464      -1.305664
       168.6481       219.2266       88.64288      -47.73248      -115.5673
      -67.78667      -29.70752       110.7598       222.8396       78.15854
       43.88277       89.40564       37.51088      -25.30992      -11.02667
       120.0571       276.4720       179.9096       58.27058       66.22705
       111.8526       69.96509       141.3586       285.4062       117.4643
       15.91628       45.72314       59.53241       158.8533       144.5203
       48.51781       33.79207       95.20898      -6.522141      -67.83185
       128.6245       151.8015       28.26616       31.39484       26.92012
      -20.80617       63.75388       111.1281       88.00278       168.8849
       146.9351       78.96538      -40.78871      -74.72206       69.39886
      -38.22809      -106.1081      -47.99711      -22.71228       61.23810
       44.27344      -19.81750      -93.47998      -67.73145      -97.12585
      -170.4693      -54.64690      -32.54904      -62.08012       4.710110
       37.67752      -54.59113      -135.4345      -59.20950      -17.10852
      -84.16238      -138.1217      -135.6706      -109.5336      -131.0701
      -99.03389      -16.05328      -22.72099      -34.95613       92.58973
       62.93756      -78.64645      -47.42474       30.53281       111.6222
       130.0014       7.150757      -204.0590      -139.9789      -50.89347
      -30.27365       97.14181       29.80200       45.79266       131.4776
       70.47351       70.09622       115.9319       162.6571       181.7307
       123.2089      -50.71794      -61.81360       121.3824       108.0845
      -5.679932       66.04596       114.3103       22.45148       67.21045
       136.9291       61.55869       37.33893       170.5342       205.1452
       28.80728       65.14197       226.3822       185.5888       94.25398
       26.05957       77.50787       179.2922       266.1816       220.7777
       21.29761       28.27789       255.3324       284.6142       142.6206
       76.09534       58.93033       65.40594       115.4059       127.4873
       180.6066       242.1798       131.6375       12.18375       26.71689
       47.50339       137.7723       227.6475       232.0780       179.0520
       84.97263       60.27295       95.06213       86.89938      0.4828796
      -21.79703       38.98172       87.11707       128.3017       93.97284
       70.93143       135.0495       160.4469       27.58886      -18.19156
       90.11005       145.6329       65.67981      -86.43823      -86.45499
       40.08521       79.14288       105.3176       125.4927       7.934586
      -34.23297       31.01511       26.86371       64.06009       19.66319
       10.27454       41.90184       1.198147     -0.6911926       13.52612
      -19.13704       10.99287      -7.674011      -57.69073      -57.58732
      -12.62535       11.32837      -78.83931      -64.33733      -18.22251
      -41.92128       1.778717       78.04929       86.27682       2.382721
      -61.00903      -111.3604      -151.8310      -41.99429       32.93185
      -142.8118      -151.0229      -4.854218      -32.32806      -91.05286
      -137.3343      -156.0158      -135.5204      -189.4631      -233.7466
      -225.3988      -53.04545       2.485176      -64.13872       2.434586
       55.24187      -20.70531      -64.63525      -12.17664      -122.5278
      -197.3238      -153.7915      -168.6772      -144.2492      -164.9743
      -123.0023      -66.22028      -90.65762      -107.9737      -82.51456
      -87.72145      -67.45081      -48.89983      -88.01411      -12.72937
      -28.26965      -178.3629      -266.7786      -327.7167      -312.9852
      -325.7034      -291.5518      -122.1992       61.71003       67.69879
      -88.68903      -152.7127      -104.5199       37.72119       166.6868
       145.8900       111.3074       22.84641      -55.91702       6.119545
       90.42072      -116.4532      -319.6031      -273.0268      -204.5676
      -48.79858      -20.67755      -178.8136       28.85590       311.0540
       213.8631       66.23505       115.6707       108.1172      -26.85468
      -107.2181      -211.8347      -273.0734      -102.1053      -34.47839
      -2.082977       84.02364       56.51276       35.13651       171.7396
       110.9145      -107.8116      -34.86230       230.8254       172.9874
      -52.53748      -152.3254      -184.3023      -14.66687       134.6091
       48.62263       1.479950       63.19548       43.82022      -18.84521
       15.24768      -137.6907      -223.9105      -142.4420      -76.50385
       105.8512       207.5159       51.61917      -86.54993      -175.5107
      -147.2248      -14.15942       80.50931       139.6602       93.48109
       19.60967      -32.31852      -51.85017       7.838455      -37.89380
      -166.1324      -278.0981      -140.8335       92.81931       47.76115
      -120.1083       8.484161       157.2291       151.2826       69.63307
      -31.75108      -48.41457      -91.20610      -40.08542       43.86288
       44.44329       50.88087      -39.64673      -110.8630      -150.0131
      -109.6409      -73.54822       21.97687       184.7272       224.0707
       130.5461      -8.747307      -17.36568       36.95898       54.79059
       153.9039       86.99740      -49.84155       117.7532       299.0180
       159.3160       75.07544       204.0547       253.6264       137.1126
       1.941544      -85.02432       7.106445       253.5145       397.4120
       290.9164       95.23230      -39.55844      -92.36005      -139.9972
      -98.65530      -63.03979      -161.5649      -240.6121      -117.3840
      -29.22217       143.8115       643.8933       934.7202       330.4806
      -309.6018       13.34448       747.9006       1055.408       706.1754
       144.6907      -344.8013      -464.2631       167.5847       903.9438
       1143.360       1032.829       508.5042      -359.2574      -404.4946
       494.8806       1296.341       1200.209       392.3845       139.3983
       116.9587      -81.90723      -295.0631      -414.0829       136.7896
       648.8707       405.8650      -410.7721      -657.7935      -222.8685
       169.8469       640.2257       460.3457      -449.7153      -869.1599
      -1037.910      -813.5389       83.76123       759.1262       1000.116
       684.7004      -413.7178      -1258.720      -1095.984      -511.7258
       109.3261       88.92468      -334.0957      -541.2356      -993.9146
      -741.5941       239.9073       615.3894       402.8800       147.6295
      -131.7881      -478.8781      -590.3926      -145.5981       332.5109
       110.8943      -150.2384       118.1660      -57.10474      -518.6001
      -839.1653      -720.2740      -29.35193      -93.76123      -839.6375
      -858.2927      -440.5775      -363.4460      -558.9604      -725.3931
      -866.4358      -758.1727      -255.1292      -9.771729      -253.3306
      -445.6396      -365.9570      -440.5304      -471.3739      -164.8245
      -25.51157      -71.84668      -308.8761      -500.9890      -222.7523
       133.8301      -126.3027      -508.1886      -615.5202      -380.0022
       96.20422      -69.03821      -598.8055      -477.5886       60.10959
       32.20740      -328.1240      -491.5953      -437.9956       179.1597
       697.8824       246.7856      -525.7498      -1016.828      -1200.194
      -630.5090       49.64398       210.3320       580.5919       722.1534
       104.3517      -120.5050       44.64517      -99.85930      -22.03201
       75.05151      -84.20087      -142.2104      -253.2748      -409.0526
      -443.3412      -312.0136      -98.54871      -6.439575       173.9700
       435.5790       452.3330       558.4451       675.9727       608.1255
       856.4438       1171.930       768.7437       99.54849      -124.1813
      -40.90677      -39.72818      -121.2637       83.49048       558.0591
       667.9386       429.8207       200.1724      -96.71881      -216.7812
       68.29767       225.4024       166.6338       223.9340       587.3048
       571.8629      -104.6833      -230.3229       416.3940       990.5510
       1004.728       626.1353       368.1665       323.0497       198.0785
       370.9629       883.6661       754.6942       527.0258       402.1393
      -242.5872      -686.9623      -447.9169       172.5881       574.0087
       441.5673       330.9511       200.9671      -76.04330      -114.1898
      -87.72949       47.34155       546.8431       463.1955       46.60327
       256.4607       478.3872       755.6738       1008.560       741.2801
       266.5683      -96.73834      -96.34378      -11.27978       10.35669
      -140.3562      -327.0245       23.62964       324.3949       259.1043
       208.6971       402.1128       632.8049       347.9992       85.41940
      -104.6886      -114.8956       331.3392       453.9605       209.2723
       111.0056       28.38239      -99.39996      -140.7650      -182.9067
      -230.7437      -66.35025       89.81476      -59.57814      -49.15929
       77.78815       52.75836      -88.95065      -83.00989      -53.51721
      -316.4949      -39.28265       280.9714       102.7200       111.8689
       130.7495       129.9269       147.2099       94.83948       301.3121
       332.9884      -115.8268      -415.4352      -340.5179      -284.6147
      -368.2194      -522.7344      -490.5641      -281.2258      -181.6457
      -274.8099      -198.3525       34.58677       33.28103      -33.00635
      -22.99124      -67.02502      -166.9142      -194.4854      -108.4241
       7.108017       78.89676      -51.80231      -205.6007      -401.0732
      -464.8217      -383.6672      -462.1534      -356.8076       2.777939
      -14.50586      -222.6978      -181.4025      -85.72153      -37.22044
      -22.18317      -104.9208      -229.6262      -285.3491      -208.6166
      -11.76931       34.78239      -53.06958      -72.29622      -117.6577
      -19.88595       55.62097      -17.88174      -3.360992      -18.05307
      -150.4822      -197.6558      -45.46765      -104.7472      -358.7821
      -401.2521      -343.4125      -283.6160      -270.1278      -105.0865
       128.4751       35.24628      -298.4414      -236.0098       125.0245
       113.7993      -35.14648      -41.11682      -99.81146      -142.6390
      -54.15700       34.97095      -82.08333      -15.20398       44.57159
      -196.5042      -227.5262      -120.2308      -7.646088       96.09912
      -183.4890      -506.7429      -504.4714      -347.9216      -274.1910
      -348.8846      -174.2525      -48.85600      -76.49896       103.2295
       96.41901      -170.0321      -281.8718      -219.5530      -187.9718
      -113.2940      -69.72774      -90.75974       63.99071       115.9493
      -167.4005      -275.7307      -82.67057       31.75418      -55.93121
      -83.14061      -16.02240      -50.78754      -165.1593      -218.2035
      -152.6525      -115.7982      -127.0392      -122.4395      -199.3505
      -64.16064       222.2333       97.31798      -44.16808      -41.33715
      -62.81796       101.4482       109.0877       48.99405       138.6625
       202.7704       213.0550       73.23788      -52.89252       68.51907
       138.2193       53.07660       121.4028       202.8301       114.0149
       31.54373       121.9999       266.3046       219.9672       188.7962
       106.7906      -21.56768       40.64757       26.81433       57.22764
