     0.02500000      -1213.252       1054.807      -12345.00      -12345.00
      -29.99999       222.6500      -24.35000      -12345.00      -12345.00
       0.000000       17.85000      -12345.00      -12345.00      -12345.00
      -12345.00      -12345.00      -12345.00      -12345.00      -12345.00
      -12345.00      -12345.00      -12345.00      -12345.00      -12345.00
      -12345.00      -12345.00      -12345.00      -12345.00      -12345.00
      -12345.00      -31.03680      -69.52500       1657.000       0.000000
      -31.37200      -68.11800       0.000000       97800.00       0.000000
      -12345.00      -12345.00      -12345.00      -12345.00      -12345.00
      -12345.00      -12345.00      -12345.00      -12345.00      -12345.00
       139.1419       285.1281       105.8535       1.251047      -12345.00
      -12345.00      0.2628681       90.00000       90.00000      -12345.00
      -12345.00      -12345.00      -12345.00      -12345.00      -12345.00
      -12345.00      -12345.00      -12345.00      -12345.00      -12345.00
      2008       244         6        45        29
       750         6    -12345    -12345     10107
    -12345    -12345    -12345    -12345    -12345
         1         7        13    -12345    -12345
    -12345    -12345    -12345    -12345    -12345
    -12345    -12345    -12345    -12345    -12345
    -12345    -12345    -12345    -12345    -12345
         1         1         1         1         1
NUEV    -12345          
        -12345  -12345  
-12345  -12345  -12345  
-12345  -12345  -12345  
-12345  -12345  -12345  
-12345  -12345  -12345  
-12345  -12345  BHE     
ZL      -12345  -12345  
[...]
       116.2986       111.6991       104.5747       96.02991       97.37146
       86.78842       83.56314       83.91655       80.34366       69.11461
       68.11403       57.41385       51.06223       46.87454       47.66003
       40.42601       35.44815       26.35297       23.14568       19.38720
       14.65322       1.245044     0.08124161      -5.142899      -14.73392
      -25.50004      -26.38126      -29.44421      -37.86685      -43.22122
      -47.93544      -55.05804      -59.49738      -69.52634      -69.24680
      -70.73747      -70.57074      -83.23099      -85.28003      -84.54504
      -92.77090      -100.6164      -103.3983      -111.1073      -113.6284
      -117.6481      -120.5374      -125.6844      -120.7840      -127.2440
      -130.2714      -137.9380      -140.4232      -142.3380      -143.6957
      -153.2867      -154.0348      -156.9142      -157.0567      -161.9734
      -162.2322      -177.3845      -176.4728      -182.8610      -190.9720
      -196.7115      -194.4480      -208.2621      -211.4897      -221.3737
      -224.5264      -232.9521      -232.9523      -245.2308      -247.7937
      -261.7689      -267.4475      -274.6068      -270.2040      -275.8988
      -273.6656      -284.8115      -290.0121      -297.0762      -293.3857
      -293.7952      -293.6048      -299.4174      -296.0229      -298.1080
      -300.1168      -300.8320      -298.3552      -295.8261      -291.0593
      -296.1326      -292.0179      -290.4114      -290.0801      -289.3765
      -288.7845      -293.0415      -289.5304      -287.9155      -287.4531
      -284.8403      -282.1967      -281.3700      -276.9918      -273.3220
      -272.8960      -272.7129      -267.3240      -264.8441      -258.7352
      -251.8620      -251.7684      -274.7506      -341.0253      -425.7499
      -472.0504      -433.2485      -319.3200      -221.5488      -160.1031
      -55.77931       105.5460       37.59064      -191.5993       62.63019
       327.3853       35.55612      -185.7746      -114.9923       29.98917
       21.49725      -224.0530      -247.9862       18.83149       49.39209
      -59.83722       89.64789       208.0743       110.0457       220.5112
       283.2615       18.78120      -86.51428       149.7938       276.0360
       6.859009      -72.50868      -43.61780       152.6656       509.4850
       283.1586       153.2249       173.4579       79.38928       139.7111
       263.7114       313.5473       4.272018      -203.0404       170.4365
       385.8953       55.25343      -4.277756       42.56732      -130.2339
       181.7545       496.2967       292.3930       44.08644      -125.1973
       48.01196       184.5447      -9.512657      -37.72858       145.1257
       316.0621       233.9384       112.3787       64.91101       162.7776
       240.5878      -7.509613       131.8160       246.6142       45.16803
       222.5513       162.7067      -30.35028       102.5850       282.9139
       289.0540       111.8105       46.24237       233.6537       201.5602
       168.0769       346.4088       274.2209       122.0579       88.42456
       207.4130       176.4248       250.2571       468.0828       363.9649
       294.5441       311.3718       333.6566       250.9612       233.6130
       260.7512       145.5142       120.8329       283.4918       450.4886
       360.2161       358.8759       433.3810       192.0327       156.0074
       258.4502       394.6353       486.6991       385.7053       297.2978
       131.3972       151.8784       349.5259       506.7855       487.2605
       318.4064       250.9388       158.3049       58.21497       134.0657
       274.2631       368.1818       406.2661       413.3664       287.1748
       207.6620       141.7447       142.8632       373.7354       396.9981
       191.0085       258.3168       329.6582       270.6561       340.7572
       238.8342       223.8885       251.5210       14.75587      -73.19617
       103.0411       422.6199       447.0411       293.5957       244.6561
       214.9265       149.7632      -118.7003      -148.0498       73.24890
       79.11288       111.9954      -17.59735      -60.11575       62.00998
       112.4041       100.4885      -127.9722      -98.56229       132.8913
       177.3020       74.59052      -141.3796      -206.9877      -131.3839
      -116.8157      -171.4042      -122.4114      -14.21228      -43.70694
      -146.7207      -204.9630      -269.3397      -217.1921      -184.6755
      -178.6096      -173.1779      -285.5500      -337.7810      -360.6765
      -338.2065      -244.9429      -204.1785      -229.2496      -313.8243
      -258.4797      -199.6382      -250.0554      -198.4048      -170.9774
      -250.5499      -233.0867      -247.5912      -419.1853      -442.8155
      -218.2137      -198.2155      -323.9531      -266.8511      -301.9440
      -369.8364      -316.6508      -364.7672      -318.7017      -170.8005
      -166.8085      -262.6464      -315.1172      -364.6103      -323.7805
      -162.2898      -146.2444      -215.6279      -198.8209      -279.1165
      -353.3358      -299.1344      -194.2027      -131.3237      -219.0811
      -214.6856      -135.3943      -133.5481      -73.44427      -129.4133
      -204.6456      -208.6361      -161.2339      -200.9344      -216.0984
      -161.1434      -124.9964      -66.43962      -84.40344      -81.46582
      -147.5510      -243.4125      -143.2511       15.35373       21.79291
      -119.9055      -174.8457      -141.7081      -44.36115      -59.57355
      -134.7318      -95.79688      -144.8183      -238.9246      -233.4844
      -175.9378      -148.2993      -130.7114      -34.53485      -80.26306
      -207.4380      -191.9388      -145.4654      -132.4724      -137.5593
      -191.2295      -134.9500      -72.14885      -67.33936      -56.89395
      -70.78586      -55.42761      -136.6775      -239.6060      -148.9568
      -131.6405      -180.7988      -85.82599      -90.12277      -131.9795
      -97.70715      -124.7393      -142.4922      -163.2240      -144.7730
      -143.1565      -167.2249      -153.6453      -141.9832      -130.7356
      -101.8097      -90.58170      -43.83072       50.81012      -27.50507
      -112.0306      -125.9225      -133.1549      -68.12088      -99.92055
      -87.13699      -53.50623      -142.4753      -143.8127      -88.33618
      -99.95538      -118.8464      -60.01308      -15.62611      -28.49736
       41.69612       41.40659       29.73212       45.23714      -65.77753
      -61.59041      -68.94156      -7.884033       124.2264       49.73048
      -31.42331      -7.097137       92.00816      -34.19479      -62.75510
       101.7142       7.477337      -18.25674       68.06522       104.8032
      -4.164925      -62.59067       35.10239      -24.81664      -27.27051
       105.9332       135.4300       7.901756      -65.35117       55.24182
       159.1080       144.9491       48.13571       23.65363      -3.875824
       21.67694       216.3524       192.5224       80.28838       16.93278
      -19.98502       51.58777       210.9111       189.4578       135.6932
       213.8125       165.8627       51.49969       61.13928       242.9292
       138.4626       43.47388       207.9365       291.8159       207.2842
       174.6606       263.6770       167.8870       160.2170       202.7322
       123.8799       207.2042       263.3210       259.7876       192.1475
       111.6406       153.6814       175.5703       283.8579       393.7054
       347.2804       312.9639       248.7437       90.06488       77.44226
       198.3312       221.9073       270.2773       363.0021       263.2502
       180.9285       293.4469       285.6150       323.4690       373.6824
       255.9327       213.4030       268.8965       305.4780       272.6697
       333.7045       390.5782       282.3038       319.8674       319.4304
       175.0570       213.1268       319.1361       322.6931       196.6250
       212.8925       297.9155       287.6783       312.1749       317.5289
       292.9552       320.1331       349.5904       291.7614       249.6862
       269.3858       231.7843       145.4264       232.5739       289.2903
       82.71527       50.07434       204.6693       135.9398       44.79736
       101.1620       162.6023       82.75104       64.03796       101.7356
       136.5840       55.79480       33.82452       165.2209       77.18646
      -71.43051      0.1788406       49.03185       1.728912      -55.96128
      -55.28707       19.04745       74.79619       68.02031      -12.46863
      -88.50656      -129.7643      -54.86156       30.00705      -43.46686
      -214.1579      -251.8163      -129.4851      -146.0866      -19.11563
       18.10986      -145.5770      -156.4213      -132.3905      -158.3281
      -129.5085      -97.90594      -129.9338      -187.4864      -232.2340
      -247.9778      -286.0735      -269.3684      -247.0021      -201.9200
      -78.13586      -184.8616      -368.8329      -319.1010      -203.4539
      -235.0203      -307.1565      -204.4254      -190.7869      -337.3696
      -236.5441      -153.3602      -260.5951      -307.2697      -194.0319
      -238.1460      -384.4702      -288.2092      -241.5811      -311.5198
      -288.8727      -276.9274      -171.3600      -136.4130      -273.4801
      -334.3560      -319.4194      -302.9661      -339.4536      -274.9981
      -200.7425      -245.1648      -224.3741      -220.0394      -225.1167
      -288.8701      -231.4117      -214.0775      -303.5026      -225.4847
      -156.8524      -174.2529      -206.8016      -274.5107      -249.3857
      -261.7093      -261.0486      -214.3716      -198.4490      -194.1568
      -217.9556      -199.0393      -164.1310      -145.2902      -194.3299
      -219.2393      -222.5975      -281.2324      -211.2465      -214.7559
      -269.5433      -189.5590      -76.82504      -41.77545      -133.8019
      -158.8901      -101.5940      -116.2860      -84.91345      -57.51880
      -86.58191      -98.86868      -135.8436      -163.5445      -80.39382
      -24.27016      -41.76706      -68.79161      -53.92152      -41.27808
       13.15976       52.90199       34.91000       1.910187      -129.6768
      -119.6838      -9.592220      -1.566456       5.462982       13.34148
       42.34554       34.41264       39.75513       17.64587       28.93188
       101.7950       143.7406       90.74734       30.19547      -12.18172
      -81.06714      -27.85728       54.91473       71.47821       118.9191
       184.2970       233.0699       197.9633       177.1888       157.1265
       104.6102       176.7951       238.3762       192.7307       174.2871
       147.8586       122.6549       29.59039       123.9119       263.1707
       235.9497       327.6056       444.8274       496.4705       445.4116
       330.5028       371.6981       413.8965       385.8412       371.1074
       333.0016       281.7004       319.8037       359.3395       316.1982
       275.2921       311.7052       320.6349       363.1041       430.1279
       501.4696       501.0134       476.6267       546.3085       554.0054
       433.0959       324.3613       331.9357       407.4278       365.4612
       268.3438       300.8206       342.1711       362.8274       470.9280
       472.6429       392.4545       386.1106       389.3793       371.6184
       355.5272       409.8076       396.4117       294.1934       278.3909
       214.6066       213.3653       197.4516       54.36017       62.43030
       270.2709       393.0662       313.0013       270.2257       162.6520
       41.33911       115.1683       72.57956       22.52454       106.4189
      -15.95541      -120.8401       72.18179       156.6045       85.11473
       20.73468      -127.5557      -104.3640       52.05382      -13.41666
      -72.46552      -107.1398      -198.4749      -171.2892      -241.0111
      -169.3647      -53.16650      -87.81842      -183.7044      -278.8931
      -241.8278      -228.7003      -217.7495      -295.9187      -328.1853
      -208.1661      -239.0034      -377.4480      -427.2068      -324.4310
      -230.5795      -244.0281      -237.8453      -262.9283      -403.7491
      -439.1821      -346.5377      -304.6021      -281.8530      -289.0570
      -364.3295      -333.2939      -251.5587      -286.9653      -361.4460
      -368.2634      -340.7854      -330.4517      -357.5613      -275.4343
      -270.8629      -364.8029      -326.3196      -300.6731      -318.7815
      -250.9800      -159.4129      -172.9244      -46.47787       151.8645
       127.7621      -125.3100      -313.7425      -199.8835      -98.55827
      -2.098541       93.93184       83.88721      -181.1544      -568.3228
      -695.9309      -776.6023      -1000.982      -1109.825      -1213.252
      -1188.395      -471.8502      -4.774170      -617.2644      -999.3717
      -616.1715      -80.05042       119.2843      -150.1758      -470.5581
      -891.0437      -999.2056      -163.7203       485.0791       435.4536
       505.3721       758.8381       1054.807       923.6292       417.4295
       120.0225      -635.1407      -897.7070      -69.84406       320.7431
      -49.00623      -353.0757      -349.5552      -119.6589       338.1230
       685.1505       361.9401      -83.93506      -588.9185      -1208.836
      -1075.484      -511.2458       270.5859       733.4922       779.6504
       927.9189       504.1838      -254.0427      -447.4933      -451.3088
      -599.1609      -298.2156       402.4304       983.3735       337.3946
      -254.3959       254.7277       129.5039       255.7642       1004.664
       887.2325       287.8583      -19.22375       245.7603       694.3070
       399.2947      -93.47806      -139.5571      -164.6793      -456.5176
      -256.2418       517.8976       658.3889       389.5671       302.9514
      -69.42627      -505.1519      -720.6870      -1037.874      -577.4897
       217.3834       308.9568       246.4626       453.3065       568.6545
       457.2562       544.7771       639.9885       652.1570       901.7961
       571.9564      -191.9720      -400.6131      -205.9487      -86.74036
      -91.85107      -252.6346      -84.47632       487.4100       666.4343
       335.6458       197.2875       248.9276       366.0398       613.0562
       754.2925       618.0625       422.5587       598.1098       282.2203
      -219.4847      -289.5445      -121.5984       326.7188       221.1036
      -299.8320      -393.6488       1.699585       87.31055       317.1257
       437.6581       215.1575       512.5857       538.4463       281.1657
       134.3069       323.1902       837.1537       726.5232       411.2189
       354.3650       189.8870      -114.7048      -284.7690      -362.4351
      -415.0533      -245.2791      -1.004150       268.7224       690.8848
       589.3535       176.5619      -70.38306       49.01514       533.4716
       513.3187       187.6746       24.68030       41.12231       326.8799
       487.1437       329.6306       133.4927       262.7122       80.87219
      -577.5461      -657.1602      -435.7280      -269.8886      -5.087151
       74.63165      -52.11462      -246.9352      -161.8467      -356.7576
      -742.0803      -652.0338      -451.0287      -310.0470      -54.93863
       121.5126      -59.99976       127.1511       661.8044       551.4382
       353.7837       99.96167       118.7327       399.4852       347.3910
       398.1598       119.0842      -372.1316      -749.8752      -622.6744
      -291.6458      -478.8389      -929.3845      -912.4497      -594.9656
      -500.9248      -153.2096       89.94109      -7.640869      -101.3203
      0.5415039      -67.96194      -159.6176       16.52722       58.40732
       23.05255       113.2900       183.2398       272.3147       337.0898
       329.6035       276.6175       120.6641      -142.8779      -278.6654
      -239.4438      -256.3584      -437.8180      -487.1408      -226.5994
      -165.1488      -300.2524      -411.4769      -583.2789      -579.6664
      -455.7007      -451.6246      -436.8980      -193.2297       51.48639
       108.1782       15.66736      -174.8063      -267.8055      -343.7957
      -478.3677      -389.8586      -71.99863      -23.85224      -51.40370
       101.0725       26.91060      -89.37152      -53.63983      -167.9437
      -294.8303      -358.6083      -513.9685      -639.7358      -661.6295
      -441.2937      -131.1588      -89.76251      -173.7989      -80.64899
       112.2968       20.66956      -233.9012      -160.0876       20.90508
       18.48734       116.8347       184.2590       13.53140      -55.13770
      -198.4549      -321.5292      -221.4390      -183.2349      -209.0303
      -270.3414      -286.4255      -249.1621      -479.8126      -667.0490
      -439.0289      -176.3927      -56.13153       152.8441       169.6381
       132.0239       78.66521      -16.41003       56.35455       147.1443
       357.3916       587.0837       672.7642       426.3471       101.8604
       65.55518      -14.59635      -48.58270       68.19836       271.0609
       448.0134       248.1466       108.4226       40.50543      -170.7757
      -162.8127       54.62817       241.1548       209.1284       97.76930
      -4.072937      -108.3878      -90.16064      -43.81316      -11.26143
       31.13675       44.27295       313.7025       483.9772       269.8960
       221.1868       319.2777       203.5628       41.11826       82.77222
       228.2721       250.6310       124.7799       134.8847       264.7943
       426.1213       373.0735       305.6030       265.7048       195.5438
       278.4561       93.98825       131.6915       160.0061       9.561005
       117.8784       107.2708       264.7423       325.8745       150.7319
      -24.98776      -80.92780       195.3716       302.3938       200.9857
       187.7480       163.5416       54.06985       23.50848       149.0591
       89.81622      -22.37696       13.78629       76.67473       138.3435
      -25.43092      -32.11481       36.79510       65.65924       192.8812
       188.9976       221.0228       262.5320       170.9219       255.4858
       293.9464       23.65829      -18.71682      -1.098526      -11.44817
