     0.02500000      -1510.414       2302.718      -12345.00      -12345.00
      -29.99999       222.6500      -24.35000      -12345.00      -12345.00
       0.000000       17.85000      -12345.00      -12345.00      -12345.00
      -12345.00      -12345.00      -12345.00      -12345.00      -12345.00
      -12345.00      -12345.00      -12345.00      -12345.00      -12345.00
      -12345.00      -12345.00      -12345.00      -12345.00      -12345.00
      -12345.00      -31.03680      -69.52500       1657.000       0.000000
      -31.37200      -68.11800       0.000000       97800.00       0.000000
      -12345.00      -12345.00      -12345.00      -12345.00      -12345.00
      -12345.00      -12345.00      -12345.00      -12345.00      -12345.00
       139.1419       285.1281       105.8535       1.251047      -12345.00
      -12345.00    -0.09757242       0.000000       90.00000      -12345.00
      -12345.00      -12345.00      -12345.00      -12345.00      -12345.00
      -12345.00      -12345.00      -12345.00      -12345.00      -12345.00
      2008       244         6        45        29
       750         6    -12345    -12345     10107
    -12345    -12345    -12345    -12345    -12345
         1         7        13    -12345    -12345
    -12345    -12345    -12345    -12345    -12345
    -12345    -12345    -12345    -12345    -12345
    -12345    -12345    -12345    -12345    -12345
         1         1         1         1         1
NUEV    -12345          
        -12345  -12345  
-12345  -12345  -12345  
-12345  -12345  -12345  
-12345  -12345  -12345  
-12345  -12345  -12345  
-12345  -12345  BHN     
ZL      -12345  -12345  
[...]
       77.65665       81.41739       75.99768       76.59402       78.17459
       74.13165       81.40683       83.40120       76.97641       79.63405
       78.87869       79.66133       73.67657       74.92142       72.70895
       72.00632       72.51601       70.74016       63.98178       63.34940
       56.27403       55.55309       53.94824       55.26917       48.13623
       52.99155       47.94087       41.08085       36.77207       41.11472
       30.80637       30.06548       25.74157       25.91634       17.70972
       17.20784       13.54825       15.56204       12.35220       17.45766
       15.77094       14.93175       9.609081       19.07704       17.07431
       15.36251       11.33471       14.32566       9.154305       16.05844
       20.77602       23.73682       20.97005       38.62475       30.58463
       35.91025       34.43873       31.12185       26.98359       38.30018
       35.30180       37.05060       39.38696       41.55075       38.11996
       45.18716       39.81073       42.94153       41.25049       45.83095
       44.80693       40.63543       41.24406       45.15132       35.01580
       36.20177       36.93478       45.26266       45.79901       40.60661
       38.10268       42.33627       37.24113       36.66672       32.76785
       30.56958       25.42182       27.01369       20.12936       13.03516
       8.227680       1.030954      -5.307350      -8.416977      -23.41826
      -26.27044      -31.83676      -44.86188      -50.16469      -57.71475
      -64.67371      -70.93793      -84.60791      -87.61606      -99.52332
      -108.3481      -111.6379      -112.1494      -100.0555      -79.95660
      -78.92944      -91.14142      -98.89111      -138.5947      -283.5338
      -350.7174      -347.3471      -159.2950      -38.98419      -242.8827
      -272.0187      -239.6892      -183.6483      -87.36908      -97.84090
       5.901276      -70.90637      -305.0320      -383.9229      -127.3019
      -44.78723      -281.0283      -417.1586      -386.2415      -203.1548
      -107.9956      -166.9665      -71.95462      -80.70844      -223.3174
      -43.62431       45.80316      -189.8353      -179.1280      -74.74982
      -234.9443      -200.5788       27.85384      -47.48453      -124.2596
      -138.9459      -100.0562       60.81146       111.1456      -67.68439
      -208.7920      -2.695557       182.2209       201.0317       216.6952
      -18.04614      -191.8088      -160.3505       57.34656       307.5803
       218.9051       120.6664       14.71722       14.99554       117.3564
     -0.1002197       113.7373       163.6353       212.2645       395.9733
       146.1215      -15.21055      -5.432098       7.655396       311.3475
       372.9938       126.2707       74.46332       205.8539       185.5184
       137.0411       193.7527       216.5922       194.3159       188.3466
       113.1778       20.14651       83.02075       272.4271       227.3248
       120.8489       311.4609       352.9199       136.3087      -35.79004
       156.2527       492.8087       325.2441       53.84127      -9.626465
       44.73065       214.2072       323.6777       250.3399       126.9498
       152.7849       84.78458       34.31506       206.5240       212.7288
       106.4605       24.56018       99.02780       183.7077       50.67686
       6.830933       54.48792       156.3919       218.0800       91.76752
       7.061272      -33.98957      -21.72609       49.56436       100.6862
       97.91241       72.08340      -28.08044      -136.8929      -22.92250
       60.70471      -99.47119      -103.7489       36.94223      -48.25022
      -23.48769       11.54248      -236.9820      -268.0338      -45.87254
       30.56442      -110.5251      -203.5938      -84.39044      -106.7840
      -285.2252      -223.5762      -61.56061       23.79581       60.38977
      -111.1809      -154.1488      -51.63440      -188.8037      -225.9219
      -15.29277       19.98682      -132.8134      -174.1019      -80.31879
      -89.52609      -171.6236      -110.6027      -40.63229      -88.34448
      -75.30457      -42.49194      -103.7340      -167.8882      -175.6883
      -166.0856      -171.7835      -90.02436      -28.21680      -53.22882
      -47.35712      -188.0867      -302.7362      -241.7131      -105.3415
       49.96750       83.61278       22.70105      -98.04144      -234.3792
      -226.6232      -208.9035      -109.7178      -21.19263      -121.6241
      -191.4203      -178.9981      -143.4561      -112.5857      -160.8067
      -202.4333      -77.16814      -24.35583      -72.68222      -82.38013
      -165.2220      -179.4142      -186.4889      -177.6970      -102.3802
      -20.91907      -95.21930      -262.7292      -236.9909      -129.9217
      -50.81475      -33.89457      -40.48577       54.40341      -6.321228
      -145.1511      -138.8944      -16.67139       91.02097       71.98682
       56.28745       13.74879      -20.68303      -17.92142      -63.95168
      -78.54243      -67.64999       48.53980       73.31818      -60.63434
      -135.3931      -150.2503      -40.35437       107.4894       182.0058
       144.7462       19.66809      -11.13477       32.05951       105.0411
       66.31221       66.91315       113.4272       80.14955       28.54489
       49.31694       41.59164      -3.724361      -19.57323       32.76495
       157.2101       237.6729       166.1741       102.0800       75.91885
       74.27460       58.96463       83.06384       40.68692      -26.30704
       12.09735       75.53918       111.7059       104.9907       155.1337
       182.9692       69.16681       97.81747       124.2772       107.2080
       79.67041       124.4896       205.6241       127.6137       46.21213
       94.51279       118.1547       43.31253       72.10217       209.5486
       254.9932       207.9598       128.6879       130.5212       68.24167
       70.03906       164.6508       204.2904       155.2949       111.3085
       93.52896       59.87154       20.79294       54.17456       153.2699
       178.1560       158.8804       151.3511       89.84509       103.5533
       130.6062       165.0673       218.7129       252.3271       169.1053
       108.5961       162.3248       177.1873       92.45016       83.60938
       106.2472       174.2347       209.1885       78.12479      -16.42459
       25.08392       91.05872       197.8896       165.7750       53.09741
       72.12463       124.2636       70.95224       105.9747       124.8055
       52.34882       90.62711       138.6632       71.25278       65.91641
       74.73523       65.47765      -7.197250       50.85684       129.9716
       108.7407       145.9377       104.3274      -12.68887      -35.17722
       43.47351       146.0647       138.0361       94.63528     -0.2565918
      -36.24839      -7.753136      -38.45250       4.167084       130.4293
       98.23595       55.12062       34.49161      -63.65800      -65.56195
       19.66730       109.6960       74.36098      -44.92921      -50.25702
       43.40863       125.1892      -3.735489      -72.88361      -49.80713
      -125.7679      -104.2478      -9.586212       28.85199      -23.03149
      -91.94745      -156.7722      -206.6898      -117.2337      -58.94641
      -125.5362      -159.5293      -164.4822      -144.5976      -95.98297
      -209.7103      -284.1150      -204.5566      -178.7297      -277.7497
      -292.5028      -301.2478      -312.2783      -291.8788      -273.9400
      -183.7126      -208.1594      -272.9421      -304.6759      -251.2429
      -157.0724      -232.1531      -250.7537      -253.0883      -150.9996
      -170.5996      -384.6543      -297.6036      -218.3162      -309.6358
      -314.6888      -230.3262      -222.8794      -295.7250      -318.8259
      -322.0298      -266.9813      -259.9875      -198.2114      -201.2521
      -281.5258      -207.5401      -149.1234      -178.2031      -242.6876
      -293.6827      -244.3575      -191.4360      -227.2008      -184.7248
      -63.23267      -133.5796      -272.4218      -271.5475      -96.94534
      -16.69806      -70.13287      -174.5570      -185.2964      -184.4867
      -210.5326      -151.4517      -105.0010      -64.56932       4.973587
      -37.53275      -122.6478      -108.1553      -27.89018       49.92037
      0.8118134      -71.56348      -59.93134      -91.06038      -43.85081
       29.12352       34.40514       29.34674       76.41693       124.8423
       144.0423       122.4982       48.03287       87.23343       100.2469
       87.16669       150.4337       153.2527       125.8850       49.47516
       73.84839       119.0964       154.0848       192.8766       166.4900
       86.14742       22.82318       128.9958       210.0430       162.2378
       86.76099       94.22388       209.2882       196.5746       73.39627
       121.0383       132.5582       84.27087       164.2445       208.1145
       164.7971       138.0424       94.75648       53.53915       106.9321
       121.1239       67.95908       34.55349      -6.362701       29.72935
       69.20737       74.74933       119.0266       152.9791       121.3887
       66.52899       68.53273       64.06734       55.19595       33.92711
       26.83450       122.6952       104.9997       30.38058       57.80530
       133.7320       147.0325       54.05668       31.53740       40.22549
       19.08130       84.36487       199.5199       188.2562       55.38498
       57.77606       104.9274       124.3907       92.40616       111.4111
       95.96594       75.59207       131.8684       90.22543       71.89917
       100.9261       56.14343       90.66821       118.3729       172.1410
       167.9497       70.04102       127.4193       180.1004       151.1815
       249.1155       226.7567       150.3921       162.0840       120.6871
       90.83588       138.0147       146.0919       186.3855       209.3685
       215.7007       221.0500       198.3492       196.8759       168.5737
       122.0468       208.4382       295.9119       244.1162       167.8005
       158.8656       179.6890       206.5244       207.2831       176.3663
       168.3812       216.0728       174.7960       120.4774       116.0952
       157.1664       188.9572       191.3214       146.1332       118.7621
       176.5286       219.3547       182.9420       134.1906       125.7205
       241.4113       237.1844       156.4619       77.13065      -22.11631
      -8.525940       53.16667       42.37586       26.07108       72.92126
       158.5151       148.6246       113.4899      -60.91849      -123.8780
      -16.58829      -19.23282      -17.99540      -12.83844      -28.71771
      -86.74243      -137.7568      -41.32381      -4.919128      -48.64355
      -58.78489      -45.90660      -19.18049       8.045807      -43.31213
      -104.6610      -163.5300      -317.2321      -277.3409      -163.4432
      -257.7269      -257.9152      -293.1624      -320.8624      -290.9078
      -292.9472      -291.1049      -227.2893      -133.0380      -92.07153
      -146.8093      -234.5306      -277.2988      -178.5322      -211.7927
      -446.0039      -437.7798      -327.7336      -327.3764      -284.0789
      -261.3161      -258.3348      -230.3165      -114.5428      -181.3228
      -322.2677      -342.6197      -330.0210      -274.3280      -275.0280
      -359.5589      -326.8724      -286.0392      -264.8939      -134.5615
      -43.44641      -158.3320      -241.6740      -306.5148      -259.3134
      -63.73212      -45.09546      -163.2722      -294.8448      -336.9626
      -172.5991      -55.19563      -12.85345      -113.6986      -227.9918
      -180.9459      -125.2004      -48.51736      -2.805298      -96.93060
      -157.3460      -145.5054      -35.07605       75.81944       42.76147
      -111.2546      -129.4412      -61.77581      -38.58429       13.20180
      -10.53909      -24.30469      -62.21756      -100.9823       46.58578
       71.74067       32.26864      -21.68763      -30.10699       92.12521
       74.46750       17.98427       4.219177      -39.98622      -80.45525
      -57.06647       103.4539       201.7474       163.7691       132.6831
       81.46008      -76.66537      -120.6711      -84.69427      -82.69223
      -28.99316       83.37711       82.50501      -7.297890       6.258636
       99.41205       155.3433       162.5290       161.3228       155.8759
       10.49084      -180.3116      -251.8274      -66.10889       122.4896
       170.4603       337.0452       500.9033       507.9760       394.4605
       190.4294      -1.995422      -125.7394      -133.2630       31.00879
       225.2175       487.2175       345.2979      -621.7527      -1064.244
      -367.0073       1069.868       2302.718       2064.361       502.5615
      -1250.751      -1453.305       133.1704       1519.932       1946.946
       1669.411       504.2197      -696.7096      -706.7592       216.1771
       727.1558       15.58203      -929.8257      -1510.414      -1325.019
      -433.5851      -103.8806      -475.6172      -924.4419      -1154.791
      -1262.161      -998.1198      -55.58008       604.9094       516.1586
      -47.95972      -755.3083      -576.6589       402.1733       1088.981
       1083.443       826.5781       874.1981       686.0817      -469.5703
      -1344.390      -805.9576       110.7789       496.8766       247.5328
      -268.3422      -229.1700      -29.72198      -157.6278      -113.0774
       189.8137       371.1809       644.8470       708.0126      -120.3926
      -875.2843      -535.3344       175.9045       173.1939       29.29358
       305.8420       159.3833      -419.2617      -766.2025      -909.2843
      -152.7930       869.5764       470.5209      -357.5558      -455.6642
      -134.5935       429.4290       851.3613       686.7336       348.5747
       229.6761       128.3455       358.7603       465.1720       343.2443
       330.0414      -21.03925       120.0958       532.7288       149.7277
      -260.2101      -405.9819      -311.6154       155.5227       568.0791
       934.3423       411.5632      -767.0737      -967.6494      -22.72681
       782.4182       795.0601       728.9558       227.1920      -430.6697
      -418.0951      -173.7646       56.10168       329.5314       302.1120
      -55.22144      -214.3323      -483.7811      -538.2515      -80.15332
       461.6646       693.6196       807.2142       636.5347      -33.76965
      -146.1683      -9.865845      -128.7606      -123.2822      -146.4315
      -67.71648       85.19324      -144.2104      -500.4377      -662.3867
      -643.5613      -313.9721       120.7502       678.8384       784.1324
       396.5198       292.4402       185.8674       139.6064       375.9395
       396.3982       225.7693       210.8300       298.6932       206.1750
      -62.16846      -358.7690      -554.9000      -502.6454      -194.5956
      0.6647339      -232.3173      -146.9746       242.9221       245.0774
       471.3984       643.2418       432.0412       347.1674      -38.03882
      -604.2676      -656.3257      -148.4872       273.4861       172.9048
       90.88994       73.14633       23.78403       44.19360       141.2530
       106.6118       19.15958       56.23187       231.9101       174.9283
      -299.5846      -395.2108      -256.9168      -372.8603      -168.0158
       3.296997      -327.4982      -398.8782      -339.1627      -404.0841
      -194.1440      -40.73431      -124.7866      -201.9028      -100.7151
       152.8093       284.0552       445.7355       585.9182       137.8561
      -69.12906       38.32727       168.1834       264.5898      -102.9084
      -380.4277      -426.1957      -382.1113      -355.3417      -362.8832
      -236.7192      -330.2394      -416.9377      -526.7726      -554.9913
      -310.9551      -120.2898      -236.9418      -273.1756       109.6594
       295.1504       91.13715      -75.32666      -165.7700      -244.8036
      -206.0184      -211.9348      -267.1371      -386.2534      -519.4707
      -405.2307      -360.6185      -307.2853      -384.9241      -547.8440
      -463.3381      -548.9668      -602.8297      -205.2229      -170.2007
      -415.5012      -512.2441      -577.3137      -205.3834       1.005249
      -274.1207      -263.3621      -225.4257      -319.0985      -188.9314
       29.81616      -174.3541      -335.6234      -308.6518      -181.5510
       141.0795       202.3133      -8.912720      -392.1051      -682.2924
      -504.2053      -264.8434      -175.4254      -305.7064      -319.8406
      -236.8044      -348.6442      -375.7395      -48.28027       448.6320
       435.0685       106.6398       15.51598      -4.961426       84.33218
       158.8398       113.0264       94.75478      -69.09608      -73.99503
       134.2704       157.5189       149.4352       277.5829       443.6578
       306.6852       68.93219      -172.0807      -234.8371       22.07918
       19.47107       161.7520       479.2150       400.8266       267.6619
       182.3242       154.5021       70.26462      -109.4161      -62.23083
       174.6683       205.5355       123.0317       216.6436       462.8872
       472.6899       443.1870       566.1570       529.2432       513.0347
       356.4995       124.8835       94.99194       341.6492       683.4855
       441.5185       121.1300       160.1193       136.9738       283.0981
       498.6410       499.8689       691.2415       889.2898       642.8308
       482.0591       499.2157       364.6895       346.4373       485.7766
       495.7549       345.8523       323.7993       491.3805       490.9252
       303.3132       147.2617       136.3147       506.7795       783.1870
       727.8306       638.3490       530.5057       399.1797       287.8044
       195.9383       86.96359       71.66670       6.674347       1.243896
       343.0818       654.2295       687.1213       434.0756       245.4518
       354.1556       270.7284      -34.25462      -34.18518       174.6707
       149.6258      -1.880539       2.954773       116.7437       85.08058
      -22.09904      -49.42772       11.95319       137.3290       311.6512
       321.2346       44.57318      -79.47418       27.90132      -38.72695
