     0.02500000      -1087.699       978.8196      -12345.00      -12345.00
      -30.00006       223.5999      -24.75000      -12345.00      -12345.00
       0.000000       19.30000      -12345.00      -12345.00      -12345.00
      -12345.00      -12345.00      -12345.00      -12345.00      -12345.00
      -12345.00      -12345.00      -12345.00      -12345.00      -12345.00
      -12345.00      -12345.00      -12345.00      -12345.00      -12345.00
      -12345.00      -30.19290      -68.82820       1323.000       0.000000
      -31.37200      -68.11800       0.000000       97800.00       0.000000
      -12345.00      -12345.00      -12345.00      -12345.00      -12345.00
      -12345.00      -12345.00      -12345.00      -12345.00      -12345.00
       147.3412       332.3419       152.7036       1.324735      -12345.00
      -12345.00   -0.009332001       0.000000       0.000000      -12345.00
      -12345.00      -12345.00      -12345.00      -12345.00      -12345.00
      -12345.00      -12345.00      -12345.00      -12345.00      -12345.00
      2008       244         6        45        30
       150         6    -12345    -12345     10145
    -12345    -12345    -12345    -12345    -12345
         1         7        13    -12345    -12345
    -12345    -12345    -12345    -12345    -12345
    -12345    -12345    -12345    -12345    -12345
    -12345    -12345    -12345    -12345    -12345
         1         1         1         1         1
PACH    -12345          
        -12345  -12345  
-12345  -12345  -12345  
-12345  -12345  -12345  
-12345  -12345  -12345  
-12345  -12345  -12345  
-12345  -12345  BHZ     
ZL      -12345  -12345  
[...]
      -184.4927      -202.9986      -225.6868      -237.6119      -255.5899
      -272.3252      -286.3917      -302.4388      -320.1219      -327.9349
      -341.3044      -352.1548      -369.8040      -389.5997      -404.6985
      -407.8206      -416.9312      -433.7529      -453.0293      -464.3097
      -478.3546      -481.6088      -496.5732      -517.7723      -525.0195
      -523.4401      -537.0273      -553.8721      -570.6968      -577.0669
      -581.9172      -593.8522      -601.3562      -602.5969      -617.6215
      -628.8257      -625.3899      -620.8054      -608.8604      -553.3169
      -468.6709      -396.0581      -429.8718      -571.6182      -675.5222
      -709.9912      -858.2327      -1026.979      -938.5226      -649.8513
      -471.6226      -476.3088      -730.8330      -924.6672      -712.2520
      -623.0359      -750.2432      -583.0210      -373.0444      -449.4539
      -517.7698      -503.1309      -799.9346      -1006.808      -749.7076
      -518.2723      -282.7585      -169.2120      -358.4314      -386.9041
      -454.4249      -638.6365      -710.1178      -556.6907      -350.1760
      -413.4276      -317.7866      -250.6360      -498.8979      -405.2783
      -301.4467      -435.9314      -429.3522      -378.8232      -254.7118
      -161.5563      -176.1923      -308.3804      -425.2545      -292.9984
      -150.3255      -54.49939      -184.2429      -371.3876      -177.3351
       138.4604       66.42261      -435.7119      -487.2085       2.143364
       67.01675      -112.4059      -64.14665      -49.99901      -30.28741
       152.2280       193.0553       1.644226      -92.41156      -55.55103
      -6.431824       49.47302       93.35696       113.1541       110.4011
       157.7863       193.3494       253.0008       295.2781       192.2965
       179.3101       165.7481       90.22913       110.8376       269.4443
       417.3062       319.9938       244.5134       259.7327       242.9790
       485.9365       609.3025       364.5545       214.6160       291.8032
       337.7753       353.2969       420.3021       413.5308       490.2201
       515.7334       348.6326       407.6810       467.0039       363.3992
       371.7183       454.4773       534.2246       506.6301       417.1896
       293.3630       323.1848       549.2312       468.8822       386.0884
       462.0133       422.5813       402.3400       330.4159       264.2440
       278.2394       295.8999       344.8809       365.8185       356.9728
       253.4431       191.8605       270.3273       370.0114       392.9283
       319.9638       288.4729       265.0884       107.3021       35.73068
       115.2647       142.4227       82.89636       163.8354       240.1232
       92.21075       51.97849       95.07312       128.3812       212.9683
       185.2228       72.10601      -1.366272       97.90344       224.3228
       155.3647       17.77829       25.67741       113.3657       27.27941
      -66.23270       108.3528       120.9234      -17.20430       50.32630
       40.94531      -113.4416      -117.2908      -62.11731       11.23518
       34.08598       18.50320       63.82797      -58.59106      -195.6809
      -89.91153       2.178162      -69.44055      -129.2364       31.49201
       87.48898      -125.0924      -189.5779       10.21516       84.34457
       26.65987      -17.27081      -44.60429      -80.74834      -64.79380
       38.08452       2.578674      -147.7614      -168.8678      -117.2803
      -63.70993      -76.32951      -1.878448       44.81927      -64.23914
      -171.3958      -220.9987      -175.5737      -109.4358      -100.5749
      -134.5029      -238.2188      -188.1304      -108.9890      -165.8947
      -178.0041      -80.39638      -60.45096      -76.66647      -74.41766
      -158.1655      -267.5845      -269.1403      -242.2725      -252.6763
      -234.4882      -147.5613      -144.2336      -158.6324      -148.5477
      -162.6764      -147.7837      -116.3213      -188.7274      -224.0872
      -180.1630      -240.8999      -300.0715      -183.4096      -155.5314
      -222.9265      -207.5799      -170.5519      -149.0517      -86.55530
      -118.1226      -120.0689      -122.1255      -224.3895      -243.2423
      -106.1252       11.72504      -25.03778      -103.9022      -135.8859
      -184.2887      -141.9815      -51.76443      -48.25043      -124.2202
      -206.1775      -179.3084      -2.172581       23.49176      -68.84470
      -126.0521      -184.7620      -129.2556       26.17416       91.00967
       100.6004       89.86525       2.579834      -146.9561      -150.3031
       11.51605       145.0148       136.4033       67.55237      -9.681931
       14.92236       94.47174       116.3344       128.8489       118.2950
       25.33916       11.19324       122.3872       225.2896       212.2048
       176.6762       146.8106       111.3212       134.9182       216.2856
       240.3857       153.4436       99.83960       167.7675       264.3600
       254.4689       183.7792       213.0682       284.8772       282.9070
       258.6679       284.1076       360.7197       289.1087       202.7968
       252.7184       284.7129       301.3208       309.6519       266.9955
       272.0610       367.1770       451.2299       368.2007       308.9786
       354.5896       283.0308       268.8723       378.9033       321.4302
       269.0347       306.0481       225.6848       176.2677       274.8723
       344.1677       310.9833       288.5594       260.5400       147.1611
       145.2092       217.3791       139.8763       133.2031       311.1895
       406.6361       212.4472      -15.03778       69.34827       210.5199
       235.9301       277.6170       163.1553      -61.75243      -85.36417
       42.29907       101.0880       131.4257       116.7159       36.88116
       20.18735       5.486580      -21.71535      -29.00177      -55.15991
      -120.3337      -228.8022      -212.8271      -83.83380      -134.0257
      -260.5382      -270.3046      -311.0150      -319.2687      -174.5165
      -149.1213      -275.8246      -310.2759      -332.0940      -445.7028
      -435.8971      -305.3932      -305.6705      -327.0939      -294.7998
      -371.1135      -439.0461      -384.2023      -291.6123      -259.1421
      -343.1665      -485.5702      -541.6061      -411.7615      -261.4558
      -301.4735      -365.0618      -356.5784      -357.5247      -397.1514
      -418.8365      -411.1105      -428.1545      -418.9183      -371.3879
      -306.6996      -167.1281      -163.2690      -350.6595      -412.3075
      -225.5208      -147.0402      -343.9304      -397.8918      -245.5270
      -229.3865      -297.5405      -287.7563      -148.9881      -53.67664
      -117.7964      -247.5339      -278.3629      -220.4995      -213.7950
      -187.1514      -137.0808      -133.5715      -124.2906      -191.0537
      -224.4975      -128.2733      -34.79031      -50.97687      -122.9027
      -167.1800      -151.3525      -65.84662       51.90160       62.32388
      -23.32483      -87.21150      -92.37647      -11.66748       149.4800
       164.0346      -3.589539      -142.7289      -163.5616      -67.29010
       84.68820       133.1861       39.58530      -68.43435      -12.86847
       98.11563       149.0355       114.9696       14.09497       4.405823
       88.90686       121.8585       151.4598       175.7841       163.0512
       80.56612      -1.936752      -39.96056       1.857666       91.12708
       134.6297       99.36633       59.28722       47.64964       59.38208
       76.41064       111.9816       169.3119       223.2184       194.9709
       77.45225      -39.00690       29.30676       204.5440       242.6883
       137.3359       124.4724       178.6069       175.1874       130.3429
       192.2988       273.0790       225.7527       171.7364       188.9661
       97.05170       59.43323       150.7724       213.9923       230.7490
       249.9045       222.8648       138.4897       69.60022       135.0175
       215.4333       259.8129       242.3788       246.0724       204.7104
       124.5185       138.9446       184.2446       196.7357       248.5404
       284.9171       260.2068       137.7684       142.0677       215.3394
       251.8874       251.7665       191.4278       137.3727       194.8208
       275.1500       295.3192       213.4926       160.5099       182.3135
       261.0114       259.5097       229.3685       176.3787       152.4351
       227.4108       295.9888       283.7344       266.0392       265.7568
       248.3591       209.4093       227.4437       285.9968       325.3933
       232.2714       181.4247       215.8574       225.1257       229.7455
       281.6104       296.0175       294.2999       276.8085       219.4922
       94.70825       71.16022       207.8408       271.5601       236.2913
       237.6675       158.3015       95.95135       91.73071       90.61996
       87.33060       109.9100       114.9547       73.56726       68.86682
       188.2728       204.4276       83.54515       15.43915       13.11052
       9.820374       39.21512       53.14810       46.21630       37.50390
       31.74431       9.135834      -56.17575      -128.4486      -107.6098
      -22.29860      -6.585815      -73.70981      -137.0569      -139.6899
      -77.28433      -73.00146      -115.3233      -179.3412      -208.2120
      -127.4898      -93.22980      -234.0797      -332.3784      -298.6047
      -278.3862      -310.2419      -293.3569      -247.9835      -246.7104
      -332.0308      -387.6118      -328.8832      -284.9059      -313.3682
      -348.7241      -381.3016      -441.9663      -486.6815      -443.5878
      -469.8623      -539.4226      -513.3021      -434.5590      -409.2052
      -376.7990      -349.3154      -401.6025      -467.1938      -460.2281
      -440.2516      -488.2379      -496.1855      -425.3052      -407.1013
      -421.4772      -417.4338      -417.3813      -500.4005      -515.2518
      -408.2909      -363.7657      -401.8521      -421.1934      -405.6758
      -360.5856      -378.8041      -402.2051      -371.6071      -343.6454
      -303.9862      -287.1218      -259.6508      -267.6430      -343.8834
      -324.7539      -278.5087      -224.2689      -160.3620      -124.4542
      -118.8472      -126.0518      -82.51160      -70.17059      -120.9475
      -129.4203      -57.78622       62.69626       111.1987       108.6160
       100.6703       37.64179      -52.65750       9.101501       159.7408
       221.7418       291.2495       262.8467       131.6152       112.0729
       190.4835       239.7566       214.0381       284.7954       464.9103
       485.6622       302.6416       206.8271       284.2140       335.8369
       373.4778       354.9666       334.2715       350.3450       309.4471
       252.5332       281.6626       374.1714       425.6833       465.2076
       391.8131       274.3824       371.6328       454.1128       421.1227
       361.4216       329.7665       347.4371       348.6847       385.6608
       510.6494       471.4716       302.0762       279.6198       296.3801
       258.0936       268.8571       257.8761       239.7448       288.6580
       410.6943       424.3638       323.7032       179.9631       86.58313
       176.4478       340.8059       402.9116       372.9451       297.1152
       295.0468       312.0411       334.8887       286.2582       192.1141
       166.6262       187.2211       204.9841       249.9866       237.8980
       172.1419       164.9227       256.9000       210.1828       92.30716
       115.8828       212.8707       191.8777       141.2855       136.4055
       157.2356       160.2570       166.8651       152.6504       120.7795
       183.5206       245.3937       133.3902       111.2952       149.1770
       179.8577       196.2747       204.1997       132.1628       100.3150
       146.3777       9.728149      -177.2610      -171.4733      -58.91774
       52.46960       46.22961       95.87775       30.66516      -141.6351
      -188.8807      -184.6281      -127.9063      -63.49930      -129.1694
      -203.2762      -205.1794      -210.6097      -219.3519      -56.41421
       37.55713      -83.49719      -276.7322      -403.2211      -361.2183
      -197.2081      -72.12720      -96.14850      -279.6047      -465.6194
      -656.2134      -743.2731      -661.1387      -443.7655      -162.0798
      -80.84009      -352.6472      -532.6475      -493.0305      -438.8829
      -259.8763      -30.35828      -202.9492      -722.9292      -915.2246
      -764.1628      -749.6011      -738.4270      -613.6909      -600.8865
      -730.1182      -634.1774      -362.7104      -213.9821      -185.0486
      -301.6230      -689.7058      -1087.699      -1043.396      -623.5726
      -218.2615       67.20795      -41.19604      -471.1938      -698.9639
      -765.9578      -912.8740      -862.6093      -610.8763      -348.6576
      -121.6591      -1.874756      -200.2397      -557.2327      -649.6111
      -453.9803      -297.5768      -340.2607      -370.9605      -151.6232
      -64.50598      -191.9404      -259.4808      -263.6560      -394.9451
      -444.9599      -237.6305      -9.919125       41.12952      -33.73242
      -252.7570      -430.5084      -291.8095       49.94904       209.3782
       246.0020       386.3539       308.4576      -13.89093      -76.58252
      -60.41165      -112.2981      -44.64661       212.6211       395.3979
       298.3411       179.9243       203.5788       160.8618       138.2330
       166.7422       47.34109      -20.82397       232.1597       401.1438
       283.3544       182.5064       209.2572       179.0585       172.7771
       350.5552       449.2053       260.4637       196.3250       294.6970
       296.5131       283.7231       287.7781       268.2081       330.7241
       487.5662       600.8761       569.0081       505.1155       439.8198
       371.4943       352.1438       465.3093       598.6060       462.0049
       203.2004       305.5764       628.9385       762.6475       723.2202
       761.9519       806.0688       835.7371       807.6594       690.5984
       661.0469       641.3064       485.6761       330.4608       212.3503
       267.9941       427.0283       520.0292       484.2928       373.7565
       407.6091       581.7576       629.8317       579.6815       476.4033
       393.1783       377.0391       296.9266       186.8223       205.0085
       310.6599       340.2742       213.5935       89.61163       101.7636
       199.9802       310.5885       441.4788       435.7911       276.0798
       125.2544       149.3895       330.4242       352.3280       249.9909
       185.2200       31.04411      -52.65597      -45.31318      -14.05002
       63.66443       87.89896       113.2695       148.1405       85.13789
       26.08801      -46.99359      -59.06464       24.44620       80.20810
       58.23249       36.77043      -30.30530      -152.4671      -153.2742
      -59.01440      -128.2263      -230.2033      -179.7965      -81.43805
      -95.99237      -183.2345      -137.9408      -8.931107      -27.97589
      -79.95544      -152.4923      -348.8789      -457.9294      -282.9365
      -159.3514      -224.7988      -258.2016      -214.4598      -192.5964
      -272.5086      -246.6989       54.61841       258.4576       186.0760
      -70.13831      -308.6378      -319.3114      -174.4410      -145.0848
      -209.6760      -162.0986      -90.82434      -140.9777      -188.3893
      -115.9721      -9.145630       26.56090       37.33314       24.24243
      -118.7344      -296.1151      -305.2598      -292.5060      -256.5548
      -155.6640      -152.5561      -169.6348      -97.69179      -28.40497
      -95.27484      -216.8410      -247.7626      -227.6855      -144.4975
      -11.56711      -48.98230      -226.0939      -274.8744      -202.0875
      -204.1042      -216.7693      -73.33044       62.68433       61.34200
       81.51568       84.10059      -104.8735      -364.3135      -439.3574
      -338.0158      -197.8043      -150.2449      -157.1746      -172.8577
      -219.0479      -216.5974      -142.0022      -83.10259      0.6059799
       55.43958       1.231049      -78.40027      -116.6494      -126.6397
      -106.4632      -110.2001      -99.67310      -90.05396      -101.5066
      -86.46271      -86.92679      -73.60209      -27.69888      -21.10725
      -20.44740      -25.01663      -84.42041      -204.7474      -273.9515
      -254.2592      -169.6075      -123.8826      -195.1154      -237.4911
      -138.8310      -102.6378      -252.3600      -362.6255      -384.5781
      -444.1633      -473.8645      -421.7333      -366.7868      -300.1747
      -142.3768      -29.15216      -100.9911      -253.3237      -304.9786
      -226.5918      -178.8134      -226.9014      -224.4604      -192.4787
      -188.3448      -144.3925      -133.3613      -252.1444      -371.9889
      -402.3127      -404.1659      -380.0262      -357.5398      -401.1040
      -419.7734      -371.3505      -312.8927      -348.0895      -410.1643
      -417.8974      -354.3038      -285.0034      -302.6104      -250.3445
      -104.5563      -33.87026       5.013855      -63.30688      -145.8052
      -162.7783      -198.3729      -279.2965      -391.2833      -509.6361
      -551.4415      -482.2090      -375.8497      -355.1823      -354.4335
      -270.1998      -124.9615      -97.59290      -171.1280      -185.9366
      -141.0566      -133.0695      -98.11172      -99.33832      -187.1204
      -163.8764      -24.42316      -12.37231      -93.11067      -12.85437
       186.0402       243.6882       172.3212       60.25018      -57.59502
      -80.40172       18.10046       139.8031       220.9057       112.8183
      -59.24619       5.913818       123.1599       180.7335       290.1682
       355.2783       423.9020       521.2759       566.2078       547.7051
       582.7660       560.6472       452.3579       455.8254       554.0526
       591.1149       536.1587       501.2482       553.2252       550.6355
       595.2742       647.0459       550.1970       599.5017       769.3806
       796.8789       832.1335       903.4790       976.3120       978.8196
