     0.02500000      -1147.043       1109.181      -12345.00      -12345.00
      -30.00006       223.5999      -24.75000      -12345.00      -12345.00
       0.000000       19.30000      -12345.00      -12345.00      -12345.00
      -12345.00      -12345.00      -12345.00      -12345.00      -12345.00
      -12345.00      -12345.00      -12345.00      -12345.00      -12345.00
      -12345.00      -12345.00      -12345.00      -12345.00      -12345.00
      -12345.00      -30.19290      -68.82820       1323.000       0.000000
      -31.37200      -68.11800       0.000000       97800.00       0.000000
      -12345.00      -12345.00      -12345.00      -12345.00      -12345.00
      -12345.00      -12345.00      -12345.00      -12345.00      -12345.00
       147.3412       332.3419       152.7036       1.324735      -12345.00
      -12345.00    -0.04196699       90.00000       90.00000      -12345.00
      -12345.00      -12345.00      -12345.00      -12345.00      -12345.00
      -12345.00      -12345.00      -12345.00      -12345.00      -12345.00
      2008       244         6        45        30
       150         6    -12345    -12345     10145
    -12345    -12345    -12345    -12345    -12345
         1         7        13    -12345    -12345
    -12345    -12345    -12345    -12345    -12345
    -12345    -12345    -12345    -12345    -12345
    -12345    -12345    -12345    -12345    -12345
         1         1         1         1         1
PACH    -12345          
        -12345  -12345  
-12345  -12345  -12345  
-12345  -12345  -12345  
-12345  -12345  -12345  
-12345  -12345  -12345  
-12345  -12345  BHE     
ZL      -12345  -12345  
[...]
      -297.6084      -219.3651      -212.8396      -295.4707      -341.3019
      -259.7927      -233.2955      -242.6038      -305.9598      -456.6940
      -388.6307      -233.5750      -289.5054      -356.0295      -388.1244
      -361.4662      -224.8106      -164.8416      -244.2158      -297.3668
      -246.3965      -221.9072      -231.8906      -237.0030      -270.1677
      -244.5801      -162.1238      -224.4021      -258.8839      -158.3702
      -113.9603      -134.5684      -128.9829      -82.17763      -65.55444
      -99.45517      -97.55676      -118.8362      -179.9792      -98.54796
       43.18637       4.679810      -68.83057      -75.59816      -66.50485
      -53.98376      -57.98611      -75.99749      -36.45835      -11.53017
       10.48880       80.54060       9.372482      -88.06248      -26.87632
       39.80958       43.42335       20.65263       11.40393       92.74918
       159.3468       106.9566       47.40802       73.03072       98.81549
       51.54346       64.70325       141.5876       100.5865       94.73254
       141.0210       80.92810       108.1286       175.6180       103.4285
       59.83673       75.14127       82.85382       114.0328       116.6198
       85.20468       78.40445       92.44978       41.11844       34.02591
       112.6613       107.7073       27.86720      -19.01117       4.129776
       76.85663       78.82734       33.70333       7.801407       2.547577
       44.23975       71.30181       47.42564       27.37239      -7.560879
      -21.32621      -1.314919      -29.95269      -10.26465       109.1451
       146.8907       55.98914      -47.39926      -66.05274      -18.83797
       29.57407       54.38268       14.22869      -20.65234       30.87820
       95.34152       54.64130      -9.357559       38.01912       73.26456
      -16.18269      -80.65552       11.12076       55.93231     -0.3897247
      -30.35080      -91.65244      -110.4613      -75.75682       3.468506
       128.0771       157.7200       111.2517     -0.7775879      -186.3335
      -182.8907      -33.66959      -11.42343      -82.68518      -139.4302
      -133.5447      -133.3107      -109.8823      -57.85257      -112.1245
      -153.5487      -169.3020      -193.4562      -122.4148      -128.6190
      -251.0658      -291.2344      -300.8851      -286.2069      -213.8306
      -254.5449      -302.0139      -250.1693      -231.6943      -292.0424
      -351.7471      -359.0723      -366.1599      -343.7428      -278.4784
      -314.2762      -362.3806      -363.1516      -367.5759      -366.8019
      -361.7712      -326.5113      -242.8938      -210.5376      -239.9938
      -331.3955      -385.4425      -281.7659      -216.5903      -312.6821
      -369.8999      -343.6832      -257.7122      -122.7242      -114.8682
      -183.5101      -188.2542      -137.9216      -115.7966      -153.8747
      -133.5807      -102.2338      -158.9650      -184.0301      -108.0798
      -7.213043       50.50641       95.52209       91.08630       35.79639
       17.60864       94.93762       183.2250       229.3125       212.3841
       142.3839       122.0017       170.5392       185.5679       246.6919
       347.0729       343.6851       236.5955       234.8428       344.9727
       381.5806       406.0723       478.7726       444.9208       355.0242
       388.8943       492.6362       413.6531       320.4219       495.6421
       601.7467       478.5610       411.7102       477.2528       536.4519
       525.2809       562.3280       487.2268       380.0327       443.4786
       461.6346       397.8455       409.0580       486.2510       547.0999
       529.5378       443.4034       445.2950       549.3435       476.4441
       357.1733       419.6813       499.8848       518.5133       456.0527
       285.7955       235.9308       294.2388       284.2919       222.7152
       271.8691       381.6584       419.8218       384.4014       343.5786
       315.5640       264.3738       186.9075       156.6945       165.7853
       171.2788       142.4890       105.6152       77.19565       26.08019
       6.124115       22.91398      -5.804756      -3.468079       97.85828
       142.9694       54.83719      -20.82437      -14.41369       11.34008
      -7.013657      -13.57951       6.198116       11.52960      -11.40929
      -36.68054      -111.9731      -168.9221      -91.55731       5.247223
      -73.54526      -165.1281      -120.9914      -78.00348      -96.27074
      -55.11679      -20.65295      -16.51909      -51.42383      -131.5603
      -185.5078      -153.5813      -108.0356      -61.57576      -16.00668
      -45.55617      -85.54630      -76.05624      -127.0532      -186.6964
      -200.7852      -123.4667      -56.79058      -53.81782      -7.652496
      -29.10681      -139.9502      -158.4304      -156.7437      -159.5972
      -150.4169      -152.9575      -146.1067      -119.7965      -108.2644
      -163.0287      -199.1404      -176.5524      -194.6399      -126.8014
      -50.49237      -110.9672      -207.7963      -176.0710      -75.83636
      -105.5607      -175.6066      -182.6978      -232.4185      -301.9622
      -265.8272      -122.8585      -31.83627      -76.99353      -175.1157
      -162.9562      -98.82385      -136.2021      -228.9049      -266.0073
      -195.3962      -168.2608      -192.7287      -50.51422       44.03316
      0.2595062      -29.72940      -111.1501      -164.6961      -143.9730
      -192.7224      -211.2551      -164.9228      -164.5741      -162.3155
      -142.2270      -186.9194      -198.8441      -191.9095      -200.9833
      -167.1329      -152.0913      -137.4432      -135.3780      -208.0072
      -233.6182      -251.4592      -291.2080      -269.3066      -236.0309
      -236.2863      -224.3735      -234.1920      -287.4567      -320.2463
      -321.3406      -288.8750      -271.9578      -325.9840      -400.5023
      -394.9182      -298.8687      -327.7095      -409.4086      -342.2324
      -291.4155      -261.2817      -239.7573      -307.5192      -363.4646
      -354.4980      -317.9712      -309.0940      -363.2731      -452.7067
      -459.5588      -332.0498      -228.1382      -254.7500      -317.4293
      -330.7497      -327.5566      -350.2080      -328.7542      -292.8618
      -242.8062      -201.0337      -263.4186      -330.8976      -307.9221
      -243.3531      -131.9094      -103.6873      -215.0211      -261.8546
      -160.3615      -112.5636      -195.1477      -319.7258      -295.8775
      -155.5964      -54.05158      -1.549667      -6.082146      -13.58917
      -35.70667      -99.92591      -66.68256       31.74426       63.35258
       47.81830       107.9233       168.0552       178.5045       200.4489
       169.1071       134.1539       202.2520       232.2683       185.4385
       202.8225       274.4019       319.4591       319.8915       287.8643
       347.8643       468.6108       446.5035       330.3129       236.9613
       273.5105       409.2220       458.8167       412.1863       412.5796
       496.2020       506.4064       452.6318       487.2686       510.3198
       457.0879       451.9012       499.8571       535.4956       475.0120
       384.2930       451.2479       572.3206       592.9900       603.6719
       598.3781       553.2332       581.6801       553.9120       424.7305
       429.7969       546.0360       565.4690       519.7642       553.4175
       604.4329       625.6504       601.3188       549.2748       543.2776
       520.9801       469.0906       424.8149       402.0046       475.3853
       573.4470       487.0081       406.3975       516.1731       564.7720
       527.1194       498.3538       440.7560       412.6854       429.2954
       445.1425       443.7632       485.4928       485.6711       426.4919
       481.1138       496.3730       415.3252       324.1583       203.4862
       210.5387       305.5933       367.1907       350.4895       226.1199
       243.3470       321.8759       237.8762       219.2874       249.3965
       164.7692       105.1644       86.39905       97.15186       187.5525
       188.2784       96.54489       66.04867       40.94154       16.63370
      -19.27122      -40.42058       11.09368       9.707611      -79.22211
      -106.9831      -61.17448      -34.47665      -118.2643      -224.0421
      -251.4250      -211.9166      -181.7586      -240.5487      -278.1247
      -256.6434      -307.8035      -386.3329      -467.9574      -502.2456
      -445.1858      -306.7472      -279.6298      -378.3309      -422.2468
      -433.9573      -465.8425      -526.0173      -532.5090      -483.6694
      -512.8369      -617.8301      -740.9648      -823.7075      -822.0356
      -783.5259      -811.7109      -854.8560      -782.2507      -648.6831
      -596.6440      -630.8680      -611.2622      -548.7441      -572.6417
      -514.8435      -447.9279      -441.6200      -426.1125      -458.5000
      -393.5350      -341.1432      -479.4294      -594.8658      -573.8744
      -508.7789      -366.3468      -251.9775      -276.7192      -319.2582
      -488.9009      -783.0415      -933.2275      -889.8365      -686.7411
      -359.7595      -212.9409      -421.0750      -625.1990      -525.1268
      -299.5840      -172.9330       10.79218       320.2968       320.6665
      -143.8645      -532.3943      -417.0047      -37.96899       246.5844
       284.3829      -43.13464      -579.7710      -883.2181      -732.5884
      -458.5403      -297.2574      -150.3427      -224.5193      -500.2535
      -524.5687      -270.0583      -162.9611      -170.9761      -122.9332
       71.50366       254.4373       70.14139      -45.74292       273.1912
       648.5586       786.7778       489.9501       94.40393      -189.9546
      -628.4301      -781.4515      -274.2683       150.5937       198.4779
       95.32996      -417.7520      -746.8691      -188.2399       421.0447
       349.3671      -122.3016      -331.5721      -165.7525      -60.25818
       227.3507       509.6665       161.7894      -154.3347      -61.97607
       119.7863       354.6091       254.8411      -141.7579      -215.9486
       36.02942       240.6411       97.25256      -286.7343      -392.0885
      -222.3338       3.715515       232.7464       183.9102      -202.2504
      -295.3464       116.0988       514.6417       409.4406      -78.91711
      -383.4958      -314.5514       1.254089       200.1681       199.3438
       432.8408       556.3079       473.7906       492.2327       265.6707
      -27.55307       77.12988       352.0885       594.3008       840.9387
       831.8917       365.1483      -103.5757      -136.0610       88.34619
       436.1060       892.8667       1037.354       728.1301       435.4346
       436.0966       435.1352       119.3704      -83.79797       268.9133
       642.6760       590.1385       367.1848       368.5905       555.9319
       462.9583       398.3728       794.5991       1109.181       993.7079
       715.3927       386.7096       190.2023       336.6553       503.1221
       440.1806       237.0179       155.6509       406.3606       707.3447
       836.4778       837.3156       705.5022       496.6510       334.6008
       322.9703       328.8723       441.6699       672.2133       656.6793
       369.5493       185.6686       355.9772       415.2875       225.2216
       165.2279       123.1688       153.5515       270.7693       342.6086
       512.8633       458.7032       236.3634       378.6130       555.4668
       417.4841       303.1490       362.0961       178.6882      -124.1460
       20.11829       295.8684       355.1187       264.7781       74.84155
      -149.7406      -236.2257      -67.41534      -13.71021      -185.1862
      -226.7370      -100.1943       41.70973       46.15463      -14.83826
       50.61383       46.91296      -152.7151      -175.0936      -1.112854
       54.40347       1.029236      -99.70502      -156.8553      -103.5270
      -196.9268      -419.2695      -415.2375      -298.3151      -283.1976
      -312.1608      -364.8289      -243.8609       21.45033       65.63464
      -152.4751      -285.7638      -390.6914      -568.1495      -475.2778
      -333.4274      -348.1428      -247.9709      -400.1326      -706.7979
      -632.8169      -530.6106      -652.9097      -705.1980      -509.4838
      -244.9689      -164.1968      -187.9175      -211.4692      -364.4752
      -538.3351      -434.8812      -277.7487      -294.5830      -418.3157
      -479.5105      -344.6135      -343.3097      -567.8917      -598.8441
      -433.7733      -297.4154      -131.6565      -66.15222      -288.1143
      -439.9011      -287.9253      -215.6328      -393.5330      -364.1441
      -182.6238      -429.6912      -935.7810      -1147.043      -1070.443
      -926.3926      -762.3673      -661.5190      -656.0044      -739.4858
      -871.5896      -888.5225      -858.9587      -779.1349      -473.1241
       51.03345       417.1606       412.1891       245.7953       27.15869
      -272.6543      -528.8599      -610.4553      -620.7415      -608.9875
      -419.8709      -130.3706       55.50421      -37.61902      -260.1235
      -451.4570      -532.0803      -419.4055      -288.9032      -201.8893
       37.19214       153.7853      -17.25134      -198.8211      -256.7675
      -257.4359      -185.9591      -65.82938      -51.35876      -108.0991
      -122.3810      -236.8210      -405.2998      -469.0133      -258.3340
       86.96123       94.27307      -84.90576      -109.7213      -124.5185
      -123.2180      -53.69539       24.38303       116.7643       213.7929
       230.0581       222.1993       338.0546       503.0759       465.2660
       323.4021       336.3724       408.3957       317.5843       227.0406
       303.8838       372.3560       411.1687       535.4600       447.6063
       60.38910      -185.5518      -72.95911       230.4518       574.5322
       764.8894       804.6196       829.9280       817.5403       777.5980
       633.9904       405.4124       403.5769       480.4125       397.8934
       312.8865       324.6875       379.5396       315.0378       119.7780
       208.8025       493.4561       565.9548       514.3713       515.7078
       508.3132       525.2336       570.6248       587.8031       620.5789
       706.8250       649.9708       538.8186       518.2172       554.2324
       561.2551       454.4585       331.5387       402.5872       505.4407
       579.9731       613.2238       505.5320       313.7418       345.5105
       627.1504       883.9104       913.8440       786.4246       661.2808
       711.8672       717.8890       585.9055       576.3562       643.5978
       483.0048       285.0383       114.8265      -36.50305       7.086426
       207.8517       191.5971       11.51591       16.87328       78.97441
       33.15744       112.0262       120.2803       90.10541       204.4959
       284.5044       239.1703       146.0418       7.351303      -36.95520
      -14.44547      -39.71716      -120.4440      -136.7305      -37.25592
       178.0841       245.2881       107.1823      -53.47339      -165.8480
      -317.6191      -453.6542      -467.4821      -319.7076      -224.4464
      -238.4626      -269.4058      -282.2319      -260.7756      -165.7881
      -78.29754      -17.37869       31.86641       20.85543      -10.24763
       16.08643      -133.2374      -360.3474      -506.8638      -545.8530
      -537.0297      -541.2617      -565.7960      -565.6521      -498.9952
      -360.1500      -276.7297      -192.2312      -114.4572      -141.4775
      -344.2207      -531.3367      -420.8959      -143.1678      -164.4888
      -501.6768      -881.5593      -922.6420      -724.4797      -583.9902
      -519.9924      -489.1400      -500.3818      -414.6313      -376.4598
      -452.0288      -462.1575      -371.8010      -349.4366      -421.6833
      -587.1785      -685.6187      -642.5039      -526.5156      -423.3066
      -341.7500      -345.2046      -382.7836      -438.0349      -538.9368
      -507.3878      -313.8885      -235.4019      -325.1726      -451.2965
      -463.5182      -352.3262      -241.5392      -275.9692      -385.7332
      -371.1403      -224.2620      -107.4658      -105.2043      -149.7300
      -199.1658      -305.8599      -364.5547      -326.1060      -273.1960
      -322.0915      -368.1441      -204.9720       31.48909       101.1480
       44.11680      -2.146507     0.01965332      -59.90820      -191.7141
      -144.0692      -47.89587      -158.5325      -251.4291      -213.3773
      -185.8120      -163.8663      -30.67014       78.53859       18.04500
      -58.91302      -62.75146      -87.54919      -103.9790      -6.683014
       115.7628       50.10342      -47.89472      -29.92444       36.58510
       77.87520       59.74527      -30.73657      -132.5345      -179.9756
      -138.6199       3.779297       213.0865       281.7209       202.9967
       181.3633       263.7570       335.0174       313.5853       178.9319
       57.71004       13.34247       32.99329       96.73264       159.5032
       132.0773       49.24510       34.37227       72.96613       9.706787
      -75.33163       2.401123       176.6147       269.5499       246.3774
       224.5199       285.0292       399.3164       502.7175       441.2460
       261.7867       157.0850       194.4024       254.1844       217.8232
       186.7997       120.8878       104.5443       244.9608       312.1448
       279.8180       273.4948       244.2742       176.4642       155.4319
       237.9329       335.2268       351.5211       266.5911       149.3606
       186.8032       353.4854       395.8650       328.9846       224.4605
       144.8002       192.7289       243.6192       249.2291       347.3706
       498.2653       541.0856       393.8441       207.6315       189.3510
       321.1962       378.3843       341.2461       310.2551       291.8159
       284.6337       330.6101       399.1373       431.8889       406.3326
       405.3176       408.7112       381.8442       372.4685       379.8604
       346.8773       270.2697       218.5039       261.2407       321.0842
       393.4382       563.5095       619.4762       462.0948       263.8341
