     0.02500000      -1237.946       1249.825      -12345.00      -12345.00
      -30.00006       223.5999      -24.75000      -12345.00      -12345.00
       0.000000       19.30000      -12345.00      -12345.00      -12345.00
      -12345.00      -12345.00      -12345.00      -12345.00      -12345.00
      -12345.00      -12345.00      -12345.00      -12345.00      -12345.00
      -12345.00      -12345.00      -12345.00      -12345.00      -12345.00
      -12345.00      -30.19290      -68.82820       1323.000       0.000000
      -31.37200      -68.11800       0.000000       97800.00       0.000000
      -12345.00      -12345.00      -12345.00      -12345.00      -12345.00
      -12345.00      -12345.00      -12345.00      -12345.00      -12345.00
       147.3412       332.3419       152.7036       1.324735      -12345.00
      -12345.00    -0.04342055       0.000000       90.00000      -12345.00
      -12345.00      -12345.00      -12345.00      -12345.00      -12345.00
      -12345.00      -12345.00      -12345.00      -12345.00      -12345.00
      2008       244         6        45        30
       150         6    -12345    -12345     10145
    -12345    -12345    -12345    -12345    -12345
         1         7        13    -12345    -12345
    -12345    -12345    -12345    -12345    -12345
    -12345    -12345    -12345    -12345    -12345
    -12345    -12345    -12345    -12345    -12345
         1         1         1         1         1
PACH    -12345          
        -12345  -12345  
-12345  -12345  -12345  
-12345  -12345  -12345  
-12345  -12345  -12345  
-12345  -12345  -12345  
-12345  -12345  BHN     
ZL      -12345  -12345  
[...]
       632.7965       645.7290       610.0103       569.5032       566.2419
       537.9808       509.5649       522.2605       520.4889       496.7939
       484.6680       468.5212       461.9097       432.8950       384.4990
       386.2915       377.7117       335.0515       347.7554       395.6405
       396.3503       360.7688       301.0040       260.1435       246.2910
       232.9927       207.3132       192.8070       182.1132       176.4948
       165.2319       161.2500       153.1331       159.0612       165.1183
       165.9749       146.0987       112.9775       64.67247       12.67537
      -23.52338      -33.10925      -70.65665      -113.9683      -127.3958
      -98.49292      -95.66583      -143.8113      -190.1997      -202.5651
      -215.7818      -234.6072      -254.4456      -243.6768      -237.4008
      -222.8879      -214.1534      -257.7166      -310.1108      -329.0913
      -358.4818      -390.6409      -411.2769      -441.2935      -487.8229
      -523.0823      -548.9143      -557.6575      -551.1740      -525.6683
      -521.3265      -554.9326      -581.9568      -598.1230      -628.1111
      -639.3735      -637.3796      -623.5963      -614.3773      -632.3643
      -654.9517      -679.0405      -710.6636      -726.4053      -726.0408
      -728.5264      -719.0792      -682.9143      -685.8096      -725.8269
      -747.8779      -740.3533      -728.0491      -716.8972      -713.8987
      -702.9138      -685.3481      -676.5142      -683.8564      -706.5383
      -739.2026      -747.4436      -729.8904      -709.1614      -686.6455
      -657.0632      -652.0818      -675.1123      -696.8501      -697.3037
      -666.0344      -605.9070      -573.9189      -573.5243      -569.4468
      -546.2533      -529.0872      -536.9961      -554.0671      -536.2190
      -503.8276      -491.8473      -508.4451      -510.3108      -486.7369
      -454.3214      -430.5674      -391.1515      -343.9158      -313.6897
      -321.0377      -325.9197      -295.7501      -253.0507      -237.1248
      -220.0803      -199.0903      -181.3972      -168.7754      -154.9087
      -147.1112      -121.8912      -95.02449      -77.34483      -77.81393
      -50.86536      -15.51899       2.059601       20.32797       58.36026
       66.05449       48.81704       31.32904       44.15001       78.04950
       94.82654       75.32214       91.77155       143.3596       180.5737
       189.1237       200.8018       212.3849       226.5097       197.1603
       172.9070       184.2450       214.9520       257.5532       313.2374
       313.9275       291.8167       297.3882       333.2593       348.4374
       366.6096       364.6849       354.3949       354.3992       365.8506
       344.2638       349.2229       381.4641       397.3829       382.4907
       394.6158       416.4069       419.4241       387.5364       373.6522
       345.9984       318.0816       314.8948       320.1855       315.3860
       308.3542       283.1512       302.5233       322.5494       287.7561
       227.5746       209.7488       225.4713       252.7787       234.1061
       216.9912       201.1760       165.2096       121.1425       106.0940
       99.04559       102.8113       90.53510       85.36691       89.06018
       106.6667       115.7308       106.5495       85.42567       86.10977
       73.34604       72.33548       77.55537       73.55841       63.74309
       61.58890       62.92067       72.77284       75.76715       74.19220
       72.35156       93.62799       131.6610       172.9965       194.1393
       192.6392       159.4884       136.7916       145.2216       151.0972
       143.9232       140.4846       143.1047       166.2744       189.3290
       211.6049       236.0975       240.6547       243.7786       275.3591
       285.6234       292.0691       294.2357       288.9366       276.3210
       273.4299       278.5752       289.1760       281.4106       290.8347
       306.7732       321.3908       319.6034       302.9207       268.9667
       253.6360       272.5488       300.4593       284.0637       264.7040
       266.1773       265.4156       229.5862       226.8147       249.3352
       257.6816       243.2622       221.6345       173.6309       143.5912
       134.5363       132.3230       122.3316       145.5269       179.5985
       210.7675       198.4987       145.4769       88.64264       76.20227
       97.81879       129.6773       112.8091       88.08589       58.12674
       40.44849       57.74738       66.81642       24.70949      -15.15686
      -45.52679      -51.92372      -41.97818      -48.88930      -69.93741
      -52.98888      -22.10146       10.36671       10.31473      -20.71967
      -47.64001      -55.77481      -69.81323      -86.96548      -111.5659
      -113.3792      -107.8014      -91.25143      -64.81631      -58.88092
      -86.90906      -112.2202      -133.5664      -126.8044      -115.2337
      -123.1382      -129.6469      -114.1697      -98.77966      -98.06445
      -124.2302      -146.7228      -139.7997      -134.2363      -145.4716
      -148.9244      -156.2150      -172.7648      -185.8571      -212.7660
      -234.3559      -232.6353      -218.1368      -201.2213      -195.3970
      -195.8126      -196.3671      -188.1141      -177.8066      -181.4991
      -200.5481      -223.7405      -240.5370      -256.0352      -270.9991
      -249.0691      -219.3903      -227.6279      -271.6078      -284.7695
      -259.6498      -258.2371      -280.3341      -281.2618      -260.9188
      -232.9065      -221.1220      -211.7307      -194.9726      -188.5820
      -200.3542      -222.8681      -229.4684      -204.0825      -186.2653
      -194.7794      -192.1213      -192.4576      -193.0301      -180.9187
      -182.9940      -208.5300      -226.5731      -222.9532      -196.5750
      -158.3988      -137.7881      -126.5701      -109.9075      -112.6225
      -134.8546      -151.2611      -142.7433      -122.2958      -95.78732
      -68.05103      -53.98016      -67.20435      -96.78885      -91.97339
      -52.25399      -17.52769      -2.153973       2.245079      -4.656647
      -21.66337      -30.67914      -8.718605       5.429062       18.25533
       51.79170       70.52084       53.71541       57.07668       60.53972
       47.81830       53.36026       82.81995       92.42505       97.64972
       112.1936       108.2714       86.67419       101.8522       109.3231
       78.38773       74.86737       113.9073       132.0081       127.6317
       111.9498       98.91089       118.2875       147.3327       140.7350
       123.9908       125.6724       141.9650       159.2931       168.7307
       187.2693       190.6799       165.8068       151.0882       166.1364
       167.6512       163.0081       174.0889       186.0035       195.5282
       196.2870       163.3577       141.9237       134.2261       138.7269
       155.6816       166.3573       172.9848       188.8136       194.6838
       189.7795       163.7201       145.4832       141.2957       149.2439
       164.5269       192.0088       199.6118       181.8407       144.7570
       126.5742       122.3565       103.8125       77.92392       70.85266
       64.32480       54.56080       27.30081       13.87840       21.05638
       26.42142       15.90861      -4.927963      -46.17593      -84.02496
      -118.7445      -130.3981      -128.9233      -126.7776      -128.0045
      -127.1438      -140.1530      -154.5773      -165.5412      -180.7224
      -204.7902      -205.7874      -217.9136      -234.8128      -234.5502
      -240.7419      -269.8793      -277.5259      -283.3810      -282.6794
      -287.3652      -296.1328      -317.4454      -339.5249      -364.0382
      -379.5544      -395.5103      -395.5437      -399.3389      -389.9926
      -387.1406      -403.4897      -428.7484      -436.4954      -452.4443
      -442.3574      -423.0654      -430.2186      -449.0267      -457.7649
      -470.3245      -476.0494      -480.6460      -462.4287      -439.4049
      -440.0168      -464.1953      -478.0635      -458.7461      -424.6880
      -418.6694      -422.7532      -414.7844      -386.2589      -343.5839
      -326.8771      -347.4221      -359.5183      -347.6782      -319.9346
      -312.6055      -320.1230      -292.8441      -258.0559      -236.9993
      -209.3649      -212.5922      -214.6860      -197.4695      -182.3712
      -150.3626      -106.2142      -93.91437      -84.20016      -58.34090
      -40.60815      -33.21160      -7.254013       30.37256       59.72719
       50.64159       24.52406       32.81641       65.33084       80.40155
       100.0652       135.0953       177.1340       193.3713       181.6719
       169.4280       182.5866       217.0734       260.5502       283.9365
       299.3307       311.2078       324.0785       326.7375       327.6118
       345.7240       378.5033       411.2080       445.6711       458.2881
       466.1740       495.0383       535.5643       568.2391       585.2871
       584.0779       581.9934       584.3979       609.7363       648.4304
       665.2380       673.5259       684.4510       680.7715       686.5200
       690.4028       713.1245       746.1621       760.1672       761.8979
       764.9849       772.8411       779.8655       783.7991       807.3967
       828.4209       844.8789       851.1348       868.3088       907.6646
       949.4500       966.3997       973.9688       957.3164       925.3113
       890.5342       891.5090       900.5669       895.2585       916.3809
       953.0750       948.5034       922.5005       887.2793       868.6816
       872.5046       876.9880       861.9727       831.9165       804.5576
       777.5291       741.2773       704.2764       695.9260       695.6338
       693.8359       676.3870       617.5646       569.0542       550.0021
       524.8871       488.4868       456.8691       439.1860       427.6321
       406.2651       359.6526       319.4302       302.3761       296.7504
       280.3594       236.8512       205.2751       203.2755       206.5655
       182.6206       132.8034       97.55003       82.94813       54.63243
       7.224277      -18.36325      -14.65603      -18.09937      -40.57318
      -67.27795      -87.99304      -122.1735      -175.1941      -224.5977
      -249.7988      -258.1371      -282.8632      -310.9524      -341.9536
      -370.1821      -390.4976      -410.8497      -429.2628      -446.0693
      -473.0374      -516.3188      -566.6923      -591.3856      -607.0668
      -619.9886      -644.1689      -688.3738      -731.7019      -750.9009
      -779.7400      -822.1436      -848.3799      -852.6978      -868.6423
      -889.1660      -903.8779      -936.9438      -969.0156      -994.3047
      -1019.214      -1043.800      -1061.868      -1070.927      -1079.811
      -1107.053      -1124.244      -1124.973      -1112.794      -1111.443
      -1116.627      -1146.634      -1173.894      -1178.362      -1176.965
      -1200.736      -1207.510      -1218.972      -1219.741      -1211.726
      -1204.356      -1216.918      -1224.248      -1234.129      -1229.396
      -1213.831      -1197.788      -1211.162      -1228.693      -1237.946
      -1212.590      -1191.337      -1171.654      -1172.923      -1181.127
      -1182.329      -1167.291      -1153.335      -1120.885      -1091.855
      -1063.632      -1045.713      -1034.189      -1023.795      -991.3611
      -971.1660      -954.7124      -935.6414      -918.4443      -892.5422
      -850.9023      -810.8552      -762.4971      -730.6450      -703.7478
      -665.0321      -625.7517      -579.3031      -520.1196      -478.2201
      -454.5986      -431.6528      -390.3154      -335.3756      -291.6659
      -261.7883      -236.7658      -208.0560      -182.7085      -150.9085
      -115.9672      -70.56525      -27.16232       12.96585       46.92770
       79.30258       113.5890       153.9985       179.6080       192.2075
       212.8783       260.9568       291.1215       300.2103       327.7477
       391.2622       460.9728       493.8110       498.9482       514.4893
       552.0413       602.5344       629.8859       638.3406       670.2749
       725.6970       780.0415       821.5757       828.7336       837.2024
       861.7183       868.2454       872.5503       903.4412       934.8047
       960.7905       984.6938       1006.941       1023.311       1052.828
       1087.305       1116.178       1131.153       1151.123       1166.671
       1186.916       1183.673       1182.471       1188.221       1203.122
       1211.676       1223.954       1231.796       1227.806       1203.467
       1192.913       1214.854       1240.580       1234.288       1232.860
       1249.825       1249.558       1234.086       1229.078       1214.393
       1199.699       1190.759       1169.062       1136.574       1126.400
       1149.896       1162.135       1139.263       1120.094       1113.194
       1109.876       1097.650       1059.185       1009.042       977.4543
       953.4934       933.8369       917.3145       903.3062       897.6279
       888.2695       860.1104       839.5952       825.5244       814.1033
       782.3599       732.1121       689.4763       655.1943       607.1945
       578.8682       547.6957       522.8765       508.1431       479.0441
       434.7078       402.7347       373.0806       354.6599       328.7614
       294.9779       263.0496       231.2235       185.9398       154.5799
       131.2607       111.2661       66.08867       35.27245       19.37649
      -2.821152      -25.77020      -50.97034      -99.80444      -130.8788
      -161.0424      -172.9739      -178.6155      -205.4793      -244.9979
      -259.7151      -275.3658      -293.2256      -341.8215      -363.8654
      -366.2056      -377.8579      -403.7124      -414.0968      -425.3252
      -452.8464      -515.6733      -541.7327      -529.6089      -504.7329
      -521.4600      -555.0081      -592.6060      -618.4875      -654.2859
      -684.2522      -704.2246      -688.1060      -671.5066      -669.2144
      -684.6550      -688.5674      -688.3167      -695.9585      -729.9287
      -753.2549      -763.2837      -767.2532      -762.3491      -750.1340
      -754.7314      -757.9814      -748.0913      -730.7908      -733.2075
      -742.3508      -743.8853      -737.0347      -755.7007      -782.2859
      -805.1572      -796.5037      -784.5417      -790.3982      -796.8940
      -779.9551      -775.6396      -764.8848      -763.6282      -761.0242
      -759.3225      -762.8743      -769.1750      -757.7446      -756.5947
      -750.0535      -740.4255      -730.2085      -727.2214      -723.8538
      -710.4111      -685.9165      -684.8101      -680.3081      -677.4302
      -674.6462      -663.2012      -650.3605      -646.1895      -628.2476
      -607.0347      -575.6736      -552.6716      -533.1067      -517.3450
      -496.6401      -487.7236      -474.0455      -453.8157      -445.9854
      -445.0164      -425.5261      -400.6085      -382.0383      -383.5977
      -391.6200      -383.9977      -362.6476      -331.1372      -294.7447
      -268.2209      -246.9402      -221.8911      -228.1884      -242.7307
      -232.2551      -204.9373      -185.9532      -174.9294      -179.7986
      -163.4571      -142.0796      -138.7137      -141.3011      -129.9942
      -94.18872      -46.33669      -24.26064      -24.78818      -27.24358
      -22.54092      -21.32132      -12.35161      -6.651674     0.03811264
       5.039387       15.43075       27.69683       27.15498       17.32927
       19.24960       21.76312       38.67676       61.16507       70.38632
       70.88605       84.09570       109.3546       143.8904       154.2566
       142.0417       144.0209       171.8168       193.7885       195.5007
       172.4999       165.2053       167.6994       176.5426       189.9814
       198.1357       212.1754       228.8668       228.6013       227.0019
       221.1124       220.9890       247.1344       271.4336       264.4275
       262.2114       284.5086       300.8674       309.7814       310.2548
       306.7015       315.5178       332.9050       339.8164       347.9822
       351.1178       360.1965       373.4645       370.9240       368.1846
       391.2197       392.5298       368.4686       344.5618       341.6772
       357.4512       382.4646       399.7651       411.0088       410.2748
       401.7496       393.5499       393.8344       397.8351       399.8263
       406.5276       430.9545       445.5095       448.0455       443.1060
       436.8208       433.2670       431.0404       420.5428       430.5051
       464.8481       491.9763       489.0208       474.7930       468.1464
       466.1680       467.9261       476.2168       479.4302       475.5924
       483.8024       501.7030       501.7740       491.9822       500.1829
       503.9357       492.1749       486.8893       491.7292       492.2744
       488.8386       484.6400       472.6664       468.2168       479.4070
       469.6610       446.3621       431.0892       427.5845       438.8130
       453.7020       453.1277       446.1427       431.8656       405.7996
       385.9447       379.0942       350.9567       334.8250       344.8705
       336.5058       313.0976       289.8641       256.2405       240.2903
       246.3461       240.2745       228.8815       229.6948       227.7548
       228.7053       221.0333       196.2468       186.6734       182.3790
       153.7191       136.5324       134.8312       134.3515       131.7571
       128.0988       108.9437       81.96597       59.67972       59.63390
       62.25755       59.45005       42.94401       21.30924      -7.451950
      -23.53816      -27.87865      -28.41467      -40.89534      -48.56187
      -55.81485      -58.37787      -88.34708      -119.0098      -138.5169
      -158.8578      -181.0540      -178.8357      -181.0331      -175.5855
      -172.7005      -188.3770      -215.4705      -220.0387      -230.0464
      -249.4701      -268.6214      -273.3256      -288.7521      -293.7639
      -283.5604      -269.8824      -261.6382      -246.4652      -242.2706
      -249.5370      -264.7876      -269.5645      -271.5433      -281.0393
