     0.02500000      -778.4276       827.0542      -12345.00      -12345.00
      -29.99499       224.0800      -25.32000      -12345.00      -12345.00
       0.000000       18.74000      -12345.00      -12345.00      -12345.00
      -12345.00      -12345.00      -12345.00      -12345.00      -12345.00
      -12345.00      -12345.00      -12345.00      -12345.00      -12345.00
      -12345.00      -12345.00      -12345.00      -12345.00      -12345.00
      -12345.00      -30.20850      -67.28640       945.0000       0.000000
      -31.37200      -68.11800       0.000000       97800.00       0.000000
      -12345.00      -12345.00      -12345.00      -12345.00      -12345.00
      -12345.00      -12345.00      -12345.00      -12345.00      -12345.00
       151.5717       31.88930       211.4657       1.362773      -12345.00
      -12345.00       3.924735       90.00000       90.00000      -12345.00
      -12345.00      -12345.00      -12345.00      -12345.00      -12345.00
      -12345.00      -12345.00      -12345.00      -12345.00      -12345.00
      2008       244         6        45        30
       720         6    -12345    -12345     10164
    -12345    -12345    -12345    -12345    -12345
         1         7        13    -12345    -12345
    -12345    -12345    -12345    -12345    -12345
    -12345    -12345    -12345    -12345    -12345
    -12345    -12345    -12345    -12345    -12345
         1         1         1         1         1
PAGA    -12345          
        -12345  -12345  
-12345  -12345  -12345  
-12345  -12345  -12345  
-12345  -12345  -12345  
-12345  -12345  -12345  
-12345  -12345  BHE     
ZL      -12345  -12345  
[...]
       199.2836       188.8187       119.8353       95.37500       161.2162
       186.1714       165.4919       119.6481       97.94330       161.6827
       206.0483       158.4709       153.9743       200.7279       223.1385
       162.2119       121.3124       122.2757       119.3503       155.7684
       219.6131       187.8077       71.32964      -14.05862       15.34207
       62.19296       70.66693       68.10596       158.4458       201.9378
       101.8191       18.96759       56.91095       126.8075       136.8341
       64.20100       30.94995       84.62473       104.8166       19.96140
       6.381943       41.19581      -4.003571      -48.74976      -94.13376
      -184.6248      -92.45139       85.62863       89.86891      -22.95944
      -51.60562       23.56391       57.99154      -6.364029      -50.58870
      -38.36884      -38.62732      -84.93195      -86.86819      -74.83368
      -115.8257      -161.1557      -155.0472      -141.8157      -82.15839
      -13.76489      -19.35902      -59.16263      -84.24316      -95.53825
      -50.82935      -43.87842      -141.5372      -233.2548      -214.7207
      -171.0590      -197.6404      -243.2941      -195.6848      -127.5059
      -174.5062      -257.5663      -215.4268      -149.7022      -161.9875
      -141.6180      -85.95087      -124.3075      -198.8867      -207.8660
      -191.8998      -188.7231      -178.5410      -174.4214      -222.8049
      -282.8615      -255.5957      -227.4404      -287.4459      -323.8491
      -272.6163      -261.9421      -351.5983      -402.1364      -365.6793
      -302.2491      -250.5800      -254.6063      -320.4169      -349.9242
      -346.3783      -386.4302      -443.7642      -460.6250      -420.9885
      -407.7415      -497.3177      -508.7803      -437.4852      -440.1105
      -456.0276      -421.8815      -395.9427      -377.7040      -407.9768
      -439.6689      -436.4147      -427.2429      -415.8778      -426.7617
      -510.2977      -540.4763      -471.9574      -441.7677      -478.1331
      -470.4840      -437.2983      -412.5237      -410.4033      -411.6937
      -394.6094      -370.4070      -395.1770      -413.8638      -395.1187
      -361.6163      -322.1075      -267.0328      -248.7910      -281.9942
      -319.1117      -322.7526      -336.7344      -315.0627      -224.1352
      -144.5446      -97.92795      -65.09958      -69.03128      -104.1563
      -174.3267      -232.3419      -186.1716      -84.00851      -29.78983
      -11.26132       13.33017       24.26074       4.814703      -5.254690
       10.83192       1.286148      -56.22357      -103.4699      -42.51776
       84.11806       92.41844       14.19800       38.12238       136.1561
       186.3323       194.6824       204.2250       212.9559       231.8950
       277.6963       316.9951       297.6011       293.7357       358.2844
       382.9929       344.7205       327.6326       313.8428       341.0120
       416.4718       427.9888       408.7617       462.1729       515.0537
       475.8700       400.4658       373.3774       424.9688       516.9548
       550.3997       562.2449       592.0439       590.6038       545.4415
       489.5764       510.7069       558.7058       526.8010       471.7229
       459.9915       506.0015       572.5402       575.3270       544.5225
       558.3372       553.1144       512.7871       510.4459       492.1719
       433.4763       403.2219       423.9883       475.8057       470.2020
       405.0790       386.8804       399.5320       378.7740       379.7380
       401.8253       386.7188       384.8491       394.6564       375.7788
       374.4435       344.2861       268.2494       249.0537       256.5896
       223.7064       209.2684       210.7263       177.9919       171.8158
       203.8954       188.6702       106.1621       29.37914      -21.76349
      -48.59126      -45.58288      -16.91444      -5.506760      -16.57158
      -43.04437      -74.26959      -135.1818      -165.8430      -112.7035
      -55.25073      -89.15118      -148.2836      -189.7419      -243.4022
      -268.3435      -243.5276      -296.4421      -378.0308      -322.9446
      -209.5116      -225.4847      -310.1518      -297.8455      -246.8361
      -288.9840      -353.3000      -389.9564      -398.3224      -383.8236
      -374.9088      -348.9755      -272.7133      -230.3843      -283.8170
      -376.9843      -418.6157      -430.7810      -436.1937      -406.6345
      -339.8717      -308.7024      -335.2688      -338.3359      -290.8125
      -318.0952      -418.8087      -479.5149      -475.4106      -423.8917
      -364.6766      -371.2421      -391.5310      -404.2495      -448.3975
      -499.1429      -496.8654      -455.8318      -414.1094      -405.5024
      -435.5193      -432.2512      -374.0767      -346.0925      -383.5890
      -406.5143      -376.7274      -348.4928      -317.5813      -236.5763
      -239.7996      -360.5004      -402.4075      -330.9084      -267.6008
      -208.1208      -144.7803      -140.3953      -149.4570      -137.4131
      -120.3841      -85.96378      -69.95288      -105.6082      -135.0499
      -104.9624      -41.10888      -13.95016      -7.727478       46.66638
       104.1973       115.2119       112.3727       111.5611       109.2116
       120.1847       174.5077       251.4331       254.0839       206.2690
       208.0068       242.6547       257.5637       270.2911       301.2728
       307.5103       238.3694       225.5294       348.6210       418.0195
       401.8556       402.0902       353.1791       281.5227       347.4260
       472.1877       474.8827       443.2419       508.1925       544.6187
       469.2665       422.0889       463.3889       521.9269       535.9395
       537.4634       547.9600       554.1914       561.8116       583.8563
       584.4656       578.3905       576.5986       537.3777       475.9738
       475.1851       509.3199       514.5879       470.3171       459.0352
       484.8833       464.1155       416.9274       402.2162       410.8921
       437.2759       472.6766       522.0240       522.4116       471.6616
       433.7749       393.5935       362.4585       396.1085       395.2692
       374.1267       394.1422       389.8657       360.5911       376.9536
       392.7762       362.5746       287.6140       264.1682       300.6675
       325.7739       306.0344       274.6376       204.3564       127.7648
       155.2411       258.8284       280.0042       264.8994       276.1249
       256.6062       233.0080       231.5253       174.8304       110.1754
       64.18768       13.65940      -7.265266      0.5077801       8.510216
       1.665359      -35.66211      -67.94225      -60.34486      -11.58051
       18.75320      -22.35034      -100.4436      -128.2184      -119.5058
      -113.9860      -124.3695      -131.9360      -118.9859      -74.85339
      -65.66785      -108.7540      -160.8674      -211.5203      -278.2657
      -319.2939      -337.1119      -329.2734      -316.5945      -348.7340
      -398.7393      -381.2461      -341.4106      -362.1187      -429.3419
      -499.9756      -502.3374      -460.2203      -485.4126      -522.8992
      -511.3677      -506.6567      -529.8923      -526.9427      -500.5291
      -517.1272      -571.0039      -585.9878      -576.0662      -592.7263
      -622.7560      -624.0688      -603.3827      -591.6831      -594.4839
      -609.3711      -630.7144      -594.0704      -559.2842      -617.3975
      -680.7441      -661.1222      -623.2291      -610.4902      -605.8975
      -611.4819      -619.2322      -589.3486      -535.7289      -514.8047
      -566.4429      -588.4076      -536.2622      -498.4104      -501.9402
      -492.1558      -477.5890      -449.8003      -456.4514      -506.1892
      -515.5308      -467.5917      -452.3417      -416.7446      -397.5063
      -440.8822      -472.6178      -476.3444      -471.8702      -445.3066
      -469.8708      -473.9143      -376.5044      -276.5210      -284.1768
      -282.2872      -253.3173      -300.6295      -336.7207      -267.6266
      -223.9121      -205.2622      -168.6554      -136.2603      -115.2643
      -101.2178      -123.8981      -138.1284      -102.4724      -50.78926
      -39.54697      -33.08910      -18.20480       11.47133       35.30005
       41.44794       30.38342       19.64119       56.66083       120.1317
       139.6885       159.4524       215.4114       252.9576       243.6953
       218.4957       219.6774       226.5878       196.4673       195.4537
       266.1707       322.7286       299.0458       256.5015       250.5620
       278.7567       329.9352       346.7173       314.4318       319.2427
       371.2291       384.9189       345.3137       312.8657       289.9878
       309.1731       361.7498       355.5417       336.1506       384.7156
       416.7144       403.0487       434.1349       498.9021       482.3138
       469.1760       499.7740       485.5818       445.1553       454.6401
       491.8965       485.0957       451.0216       457.0787       440.3240
       381.0032       358.2925       365.3438       365.4663       383.9623
       395.9307       371.1978       383.8716       408.9630       358.9022
       318.0925       366.5203       423.0587       424.1339       389.9650
       376.2915       373.6431       349.2805       308.6757       289.1419
       298.3732       304.8900       275.6838       250.6388       252.9845
       224.7142       154.2048       129.2125       153.3240       187.3355
       205.5801       171.3716       147.8228       169.5229       168.3824
       155.4479       182.8216       208.2370       230.8533       243.0376
       213.6788       157.6385       160.7368       212.2524       245.2224
       237.2368       228.2992       238.5896       259.0767       261.3634
       275.9260       312.2612       301.0072       245.4062       207.0996
       161.3809       121.4274       155.3206       192.9919       177.3767
       174.1507       180.7022       149.6586       168.3988       223.9802
       222.9993       199.2063       213.9382       213.3180       227.2303
       263.4250       244.3606       186.4760       153.7539       122.6692
       107.0817       119.0006       170.8687       205.2586       190.3333
       156.8941       171.8903       194.4733       174.3163       136.5650
       147.0635       166.1340       157.7050       125.9521       141.9937
       169.2323       144.1143       97.37213       76.26599       49.09802
       35.46674       50.06802       82.58644       61.98294       19.59831
      -9.517487      -46.17789      -60.23993      -11.33500       4.718842
      -49.51765      -84.54089      -69.63074      -67.17432      -86.87933
      -97.89566      -128.4092      -168.5139      -162.4287      -169.0820
      -231.6177      -257.3442      -248.4414      -261.5287      -275.0058
      -257.6014      -242.5049      -273.4314      -338.1788      -365.6459
      -359.4675      -362.7629      -388.8771      -404.2158      -397.4216
      -378.9574      -382.3688      -405.3466      -444.8658      -474.8616
      -465.8649      -450.8192      -478.2517      -511.1208      -530.9104
      -533.5643      -524.0839      -531.8096      -583.5442      -623.5508
      -615.9741      -627.6669      -665.4812      -662.2239      -614.9792
      -606.4695      -647.8560      -655.8783      -660.4307      -710.4177
      -740.8013      -724.3162      -721.2051      -742.7097      -754.4014
      -729.9717      -666.4636      -629.3030      -644.0654      -642.8656
      -634.2262      -667.3225      -685.2257      -679.6772      -671.3562
      -646.4641      -614.2887      -636.0385      -658.6006      -632.6876
      -590.6804      -567.5790      -551.2295      -557.2146      -573.9645
      -568.3518      -504.8613      -434.6260      -403.0300      -407.1628
      -412.2738      -396.5525      -348.2141      -318.2563      -299.4508
      -257.4449      -233.8258      -234.4407      -198.0076      -144.1260
      -102.5611      -72.62683      -61.89160      -77.55672      -85.99254
      -42.22059       20.91876       59.34227       70.68771       71.87921
       103.4841       152.2886       176.6854       166.7738       171.3448
       210.2834       268.6016       336.3257       353.8535       318.6671
       334.7104       386.0875       415.6851       424.2939       460.7068
       507.6311       526.1453       512.9659       523.4550       560.8301
       565.1218       533.3296       540.7157       579.2183       643.2610
       694.8951       688.2242       661.1328       673.8550       688.8834
       676.3794       671.1885       728.4419       769.8909       768.2297
       780.3130       801.9248       810.0725       827.0542       811.9822
       778.9424       775.4412       783.5513       768.7566       778.0264
       795.0020       787.3325       769.0173       758.1816       761.1282
       760.1897       723.3628       697.2041       699.7329       695.0876
       694.4170       732.1379       748.7998       740.4746       715.0959
       677.3608       658.8374       648.2048       618.9285       595.0986
       590.8516       561.1082       519.7808       484.2705       435.6696
       397.8323       421.1770       486.6370       549.9722       539.3188
       472.4838       417.7594       427.4399       453.0266       407.7642
       317.9789       275.5847       263.3986       244.1168       200.0502
       166.6899       167.3078       166.2944       111.6201       65.81982
       91.21115       106.0877       58.23840       40.20923       78.68387
       99.94868       52.67380      -14.77617      -55.64197      -73.36075
      -83.74432      -104.2973      -141.4633      -127.4032      -83.00444
      -73.07953      -97.83197      -133.0744      -149.8787      -159.8475
      -218.4371      -254.4736      -237.6480      -223.1484      -227.5651
      -241.6796      -266.5767      -300.4556      -355.3157      -367.4576
      -328.5486      -325.1606      -373.5698      -404.4396      -394.6138
      -382.5312      -380.4537      -392.9088      -397.5946      -383.2655
      -381.4586      -387.6819      -387.8635      -391.3228      -388.8367
      -389.0795      -409.9126      -435.6248      -428.3857      -421.6130
      -436.3618      -448.6530      -444.7544      -439.7836      -443.0210
      -444.7129      -425.9055      -414.0734      -411.7462      -410.2264
      -413.0725      -417.8383      -402.2369      -394.5682      -379.7915
      -349.5100      -329.2227      -358.3319      -393.8352      -384.6129
      -366.6306      -373.7126      -360.1964      -319.2860      -294.6737
      -311.5185      -323.6865      -322.8744      -314.6418      -300.9731
      -316.8755      -371.1357      -380.0079      -322.4662      -292.5408
      -318.8700      -330.3130      -323.0875      -338.6401      -352.3499
      -331.6637      -298.8813      -283.7561      -273.1459      -267.0148
      -282.3420      -300.2861      -306.2258      -320.8977      -326.9546
      -315.4707      -273.3522      -235.6709      -225.3007      -224.8130
      -187.3337      -172.3357      -189.3207      -207.6190      -205.3191
      -211.2091      -206.4550      -195.8010      -179.4764      -190.3810
      -201.5776      -200.8257      -170.7682      -152.3325      -133.6088
      -104.8816      -105.9110      -158.6708      -163.1648      -116.4999
      -95.49490      -100.4514      -107.4238      -136.1278      -127.3912
      -83.12396      -60.57632      -60.09079      -63.15996      -74.63722
      -61.17224      -25.19059      -1.753235      -3.601662      -16.55107
      -41.08827      -54.17159      -47.44324      -39.90025      -52.45563
      -53.70132      -61.53244      -83.85645      -82.79053      -50.44687
      -42.26422      -67.50893      -76.44777      -57.58962      -40.11133
     -0.2696762       34.32359       7.889442      -25.89878       1.936279
       49.25465       53.32837       31.21068       37.74118       30.42256
      -4.056698      -8.711411       26.85434       45.99124       59.80582
       82.48149       88.90973       76.45387       75.09259       73.80042
       87.25983       112.5972       130.2792       129.5626       144.7933
       167.6041       174.5060       161.8611       158.8676       148.4195
       141.3855       151.9724       153.0892       118.2335       92.42963
       98.26675       110.1371       108.2758       129.6631       163.7504
       155.5370       129.3119       148.8997       170.1399       170.0960
       155.6790       142.6463       132.3629       134.4268       146.7255
       148.7346       152.3608       177.1582       191.4666       186.4202
       179.0789       198.9252       223.6572       219.4483       225.2589
       279.0869       312.1525       287.9857       270.2122       294.9819
       313.9987       316.2958       317.8322       308.6834       297.8867
       306.3799       311.7000       309.5850       294.4814       287.0724
       303.9257       337.7351       362.6805       379.0406       370.0807
       357.5907       347.3805       343.4889       343.2596       349.6102
       338.4832       329.0267       335.7882       375.8613       413.2823
       421.1646       418.4458       430.4360       424.1764       408.1752
       385.7339       371.0765       379.9514       392.0948       393.2676
       381.3462       358.0802       331.7512       317.4538       320.3719
       316.2828       294.6833       275.7895       262.8873       252.2360
       253.6855       245.3201       237.4725       236.7778       224.7454
       186.2883       155.2150       154.7859       156.3771       134.9217
       134.7155       147.1695       119.7349       68.63338       61.01680
       73.72755       65.71753       42.23828       29.41209       21.40323
       11.02000       3.448341       7.104145      -2.502655      -21.93137
      -36.62271      -39.60475      -49.54929      -59.14694      -82.66168
      -105.1542      -133.9457      -172.5970      -207.5816      -206.8103
      -206.7507      -219.9528      -245.4548      -248.3094      -250.2194
      -265.8887      -278.9872      -267.3635      -272.4876      -272.5892
