     0.02500000      -537.3320       668.4414      -12345.00      -12345.00
      -29.99499       224.0800      -25.32000      -12345.00      -12345.00
       0.000000       18.74000      -12345.00      -12345.00      -12345.00
      -12345.00      -12345.00      -12345.00      -12345.00      -12345.00
      -12345.00      -12345.00      -12345.00      -12345.00      -12345.00
      -12345.00      -12345.00      -12345.00      -12345.00      -12345.00
      -12345.00      -30.20850      -67.28640       945.0000       0.000000
      -31.37200      -68.11800       0.000000       97800.00       0.000000
      -12345.00      -12345.00      -12345.00      -12345.00      -12345.00
      -12345.00      -12345.00      -12345.00      -12345.00      -12345.00
       151.5717       31.88930       211.4657       1.362773      -12345.00
      -12345.00       5.616043       0.000000       0.000000      -12345.00
      -12345.00      -12345.00      -12345.00      -12345.00      -12345.00
      -12345.00      -12345.00      -12345.00      -12345.00      -12345.00
      2008       244         6        45        30
       720         6    -12345    -12345     10164
    -12345    -12345    -12345    -12345    -12345
         1         7        13    -12345    -12345
    -12345    -12345    -12345    -12345    -12345
    -12345    -12345    -12345    -12345    -12345
    -12345    -12345    -12345    -12345    -12345
         1         1         1         1         1
PAGA    -12345          
        -12345  -12345  
-12345  -12345  -12345  
-12345  -12345  -12345  
-12345  -12345  -12345  
-12345  -12345  -12345  
-12345  -12345  BHZ     
ZL      -12345  -12345  
[...]
      -143.3173      -73.88440      -151.7310      -311.1761      -279.5934
      -45.49773      -5.480835      -228.6488      -322.7556      -267.1479
      -232.8710      -184.7389      -208.3239      -212.8519      -125.4531
      -205.0691      -341.9299      -360.3629      -309.9811      -234.0687
      -125.7805      -128.4806      -202.9536      -174.2097      -213.1132
      -335.0847      -350.3197      -142.6898       147.2257       24.12976
      -296.1093      -304.4766      -230.3084      -308.1884      -282.5392
      -164.4687      -81.82935      -86.00177      -124.3923      -78.45221
      -101.4103      -163.4579      -129.5468      -209.3744      -303.1414
      -210.8958      -71.59912      -57.68509      -100.7478      -137.0399
      -164.7543      -160.9426      -108.2621      -67.74274      -61.59616
      -43.87073      -93.31787      -182.5589      -165.7304      -125.6572
      -76.96460      -17.13963       7.493210       3.344791      -7.193939
       31.77054       110.5027       106.2508       49.13366       19.98697
      -57.70514      -157.8343      -153.7523      -67.29817       8.984177
      -57.08298      -97.84154       25.45447       154.9437       198.5579
       164.3481       62.99878       28.89339       48.50912       3.375565
      -16.41521      -22.28232      -80.73280      -45.44608      -16.60968
       29.79736       201.5017       319.3027       238.4788       122.8304
       23.87970       33.51804       68.18764      -1.265625       83.35101
       253.3364       274.4047       252.8713       200.5169       32.43061
      -57.24487       120.2709       308.3203       337.5115       193.1307
       82.35980       209.9089       392.6765       396.1871       338.5031
       289.7592       289.3372       310.0424       244.8215       262.5884
       444.0266       543.9138       430.0222       258.4480       280.6133
       348.7594       375.0698       477.7412       516.3081       347.0373
       274.2311       393.6819       381.7206       255.2012       354.7419
       438.8079       361.1393       391.0209       558.6981       520.9817
       348.5598       398.1906       470.6971       437.3843       424.0713
       410.8955       489.8291       517.7864       499.1139       474.4818
       500.6964       589.6320       551.2605       377.3125       296.5117
       298.6029       352.5349       426.5282       461.1069       398.5658
       333.6011       398.1787       423.2100       284.0193       160.9213
       158.2842       260.5172       246.8594       227.3605       201.6134
       124.9963       147.5865       263.3470       296.2499       169.6456
       56.88532       27.48859       62.48816       213.5500       128.4640
      -33.44452       57.66116       120.3197       7.051186      -54.64008
      -12.14046       46.11512       25.13046      -51.95959      -139.1872
      -149.6009      -98.22607      -57.76450      -89.54501      -56.03242
      -24.47906      -61.56354      -174.2081      -235.7556      -217.7499
      -237.4805      -238.0673      -177.2141      -182.6045      -139.0653
      -22.65675      -3.392029      -133.0483      -258.5645      -327.7784
      -277.9229      -185.9758      -159.1800      -192.6069      -228.1227
      -257.1844      -245.0709      -297.5162      -358.6922      -305.3494
      -210.3871      -112.8219      -52.29303      -103.9321      -167.7363
      -236.7302      -272.0032      -320.4972      -359.5624      -281.5679
      -163.5056      -195.8769      -288.9295      -260.7147      -139.5029
      -131.2694      -188.0315      -168.2299      -158.7956      -191.2328
      -203.8689      -109.4931       4.945068      -89.51562      -175.7057
      -154.1090      -99.35883      -78.26404      -163.4463      -200.5693
      -101.9488      -37.39471      -65.35824      -58.68005       51.83508
       147.3347       141.3629       55.82681       10.33227      -3.100983
      -67.10255      -76.65609       23.03258      -6.905487      -127.6959
      -69.96454       97.83057       122.0375       78.76016       112.3960
       176.7124       116.4397      -17.40814       8.946472       171.3130
       215.5535       220.5703       176.2435       92.54736       96.84406
       131.9976       181.0995       266.2211       261.6590       177.2078
       105.3380       135.3492       232.9722       262.5795       201.2516
       199.1792       298.6321       362.3602       293.6034       219.9772
       241.7583       288.7609       269.4338       274.3507       325.7426
       242.9325       132.1039       146.8618       186.5737       217.6921
       261.9952       295.6313       298.5967       321.6678       328.8218
       288.6262       260.4170       259.9077       329.2990       381.7874
       338.4694       230.9591       154.8855       94.39308       18.18607
       51.47577       156.1400       198.3716       225.8818       195.6983
       121.4673       176.9861       287.2696       284.3527       250.9109
       206.7697       115.6938       62.28467       80.20859       99.41653
       75.04425       90.51593       187.5561       175.2969       58.59082
       1.533737      -28.24547      -10.50085       112.0747       137.5125
       42.20267       19.03317       75.26602       80.60345       40.16435
       22.26449       11.94101      -22.27408      -54.59222      -89.46103
      -103.8626      -73.24527      0.7777100       68.49216       128.7374
       63.73169      -99.28806      -167.1389      -131.6364      -102.9540
      -70.17816      -64.75073      -68.88554      -45.47578      -6.473709
      -43.63022      -123.1222      -101.5775      -15.83858       15.15112
       65.55737       91.28059       21.99507      -57.06567      -83.15106
      -137.4651      -93.94122       99.75479       171.1153       43.86264
      -68.22552      -134.3151      -77.61810       21.36858      0.5734863
      -60.37244      -68.29343      -64.05331      -33.75659      -39.26237
      -67.18347      -77.02312      -59.54711      -1.791031       55.05696
       68.83902       93.25052       65.95945       3.040451      -49.19754
      -80.78389      -91.22160      -59.67134      -25.36980      -13.98833
      -47.36066      -29.83252       34.55298       85.35735       61.69777
       23.71354       13.38898      -10.33614      -27.50607      -62.66504
      -174.4841      -265.5408      -238.0720      -118.9068      -12.77162
      -2.228210      -103.4513      -137.6816      -101.7998      -88.00342
      -70.82178      -122.1664      -199.4653      -140.9133      -91.14655
      -123.5978      -204.5643      -218.4140      -155.2477      -152.9332
      -197.6130      -213.6719      -173.2775      -118.5578      -206.4778
      -277.9651      -241.2350      -197.4745      -147.5693      -129.5605
      -207.6388      -245.6146      -304.9527      -349.7491      -306.2596
      -251.5647      -185.5198      -187.0128      -251.6051      -247.3687
      -268.1771      -297.4849      -263.0319      -263.0511      -313.2910
      -281.9587      -289.1712      -336.5328      -312.5934      -250.9569
      -254.2695      -308.1616      -335.2404      -327.8766      -378.2672
      -336.3881      -294.7812      -350.5422      -395.4324      -368.8229
      -302.9949      -278.0384      -273.4985      -241.5143      -256.3865
      -254.5465      -299.0443      -337.3186      -303.5270      -266.6898
      -234.6768      -209.9105      -247.2258      -260.9304      -252.9207
      -302.4163      -313.4669      -253.3442      -239.6442      -215.6102
      -173.0865      -166.9282      -157.7054      -141.1447      -161.1492
      -150.0843      -96.14423      -92.97632      -147.0325      -153.2884
      -151.7732      -148.1754      -94.57198      -10.43829      -8.871094
      -62.54016      -72.77485      -32.45943      -9.750961       14.65523
       59.53836       60.84557      -25.90741      -55.84978       16.52216
       116.4526       134.4838       73.63843       74.03468       39.03020
      -16.10080       116.5112       216.9788       167.5054       78.32286
       42.44513       49.14420       55.95789       84.54852       127.1055
       130.3247       113.7770       96.47301       49.51469      -9.136246
       34.88708       122.7017       174.6301       175.8834       132.3463
       95.25079       129.2394       174.1843       169.7593       153.1953
       173.2467       165.7541       153.3940       161.5222       155.1398
       89.38670       38.49963       71.51105       160.0714       257.3638
       277.2107       227.4220       225.0853       186.3004       110.3342
       149.6070       257.3101       272.7289       181.6858       122.4835
       116.1533       137.2845       213.9423       265.2896       285.5531
       265.1091       229.7743       235.7730       186.6586       131.2278
       174.7225       253.7401       268.8453       186.1837       74.68060
       44.52740       140.0762       229.1434       245.3565       254.6880
       245.8519       166.5522       118.5168       158.7195       219.3992
       224.6856       180.1100       166.2794       169.2320       176.7194
       154.8774       88.71837       62.45227       66.64932       12.68668
      -10.60402      -2.318367       6.781509       46.58041       60.02638
       55.46924       83.39816       61.93119      -4.474731      -30.45356
      -12.95691       16.35277       5.404297      -60.20493      -114.0298
      -114.3140      -93.96066      -85.10559      -84.37811      -156.9216
      -233.7255      -175.4651      -108.0022      -125.5548      -169.6644
      -242.5063      -286.0411      -328.2422      -333.4932      -239.3185
      -209.0839      -272.2351      -266.7280      -263.0278      -294.5795
      -281.1722      -271.3353      -276.3397      -265.2438      -315.6924
      -370.4662      -369.3174      -299.7250      -179.8633      -157.8374
      -258.6487      -303.4739      -294.4349      -264.0509      -184.3700
      -115.3222      -170.3489      -224.5036      -209.8534      -197.6086
      -169.3527      -125.5488      -131.1170      -136.2168      -101.8799
      -93.87015      -119.6697      -115.3095      -154.8724      -152.5058
      -75.20111      -55.00467      -59.44263      -26.96903      -20.30422
       3.646339       26.13692       36.72885       44.13492       50.10753
       61.48820       39.13556       21.30069       77.14606       102.5639
       57.02773      -17.75053       6.594269       72.32587       96.85284
       107.0410       93.61666       14.51486      -59.93912      -62.64240
      -11.40683      -9.841867      -3.918083       29.85573       40.95095
       13.98565      -7.278763       5.992935       67.51961       58.71664
      -18.07424      -21.96256       7.591445      -2.408419      -1.408722
      -26.84038      -12.39734      -3.352028      -30.18232      -37.03484
      -20.15112      -32.83409      -77.17633      -84.96887      -62.49609
      -95.20312      -103.2227      -105.9020      -132.5140      -127.6533
      -165.4950      -235.5603      -224.9734      -210.9862      -159.8588
      -108.5353      -147.8882      -196.6990      -192.0536      -227.6409
      -261.3224      -239.5101      -260.8834      -331.9828      -284.5303
      -212.3269      -231.3188      -274.5939      -239.0706      -185.5919
      -155.9643      -157.8345      -202.0525      -279.8540      -338.4872
      -384.4177      -357.8508      -260.5212      -206.0886      -295.2021
      -332.7554      -271.5665      -237.4448      -252.3350      -199.4902
      -115.9253      -112.7518      -191.9974      -223.6242      -191.7828
      -103.4554      -76.21411      -140.0637      -179.9692      -132.0628
      -119.8621      -90.84344      -57.66678      -81.31183      -102.7627
      -79.55064      -56.71465      -32.12531      -58.08139      -26.66858
       53.16324       88.60070       43.34607       6.586349       38.72585
       98.12818       52.01955      -9.175812       40.90054       133.7599
       157.3611       185.6528       195.9708       153.8965       104.1013
       173.3810       246.2321       237.0639       233.3085       313.1768
       340.3008       291.3087       266.6664       320.2906       373.1768
       410.5126       377.3831       346.4957       344.1296       365.8561
       410.9551       484.7719       515.1794       487.6752       462.5513
       503.2527       504.2764       459.6592       420.6909       401.0249
       410.0012       497.0671       574.0752       592.0304       552.8572
       518.8016       532.9688       587.9186       592.1436       591.9620
       600.2856       566.5610       527.5078       556.3433       600.8325
       662.0669       668.4414       625.2900       594.5566       619.3469
       599.8281       558.9104       595.5466       623.4807       569.4329
       526.4803       529.8065       500.6676       416.2451       448.5759
       493.2690       452.3834       475.1179       550.8315       519.9954
       474.8550       512.2913       505.5701       418.4468       384.4912
       420.5591       472.1858       439.9207       366.6140       320.2255
       295.1057       328.7114       387.3990       391.7297       340.4244
       281.6743       293.4882       299.3611       260.0757       261.1511
       275.2202       237.3870       214.6994       196.5041       153.1225
       140.9080       173.0967       193.2574       198.0776       148.5220
       89.21230       87.08014       79.68905       5.762239      -25.85377
       22.07491       42.66898      -4.599304      -59.12772      -70.28607
      -8.050772       24.33322      -28.18929      -73.62085      -81.94580
      -96.95151      -97.43738      -79.83221      -85.81982      -141.2880
      -194.8207      -209.3361      -203.2620      -218.2174      -207.5493
      -196.9661      -243.3536      -251.4016      -159.1781      -160.8340
      -248.6809      -263.6646      -269.9041      -331.7363      -368.4932
      -316.5563      -270.9177      -314.7202      -358.5096      -388.3417
      -404.8115      -384.3662      -331.7824      -292.8564      -297.4543
      -329.6741      -386.0831      -450.1954      -454.5356      -429.2662
      -431.2803      -449.3042      -424.3728      -407.1422      -417.1564
      -443.5403      -469.1610      -449.6472      -433.5446      -451.0782
      -449.0022      -434.4121      -425.9688      -411.4738      -413.0659
      -438.0093      -459.1512      -427.0387      -382.0262      -401.0977
      -451.5369      -486.2529      -467.2661      -397.4584      -368.7571
      -404.1727      -431.6598      -408.9740      -389.2625      -371.3645
      -350.6646      -359.0918      -404.6597      -398.5739      -346.1227
      -327.4799      -336.8612      -346.8948      -330.1274      -283.3600
      -268.3135      -266.8869      -287.8785      -285.1934      -216.2061
      -169.7910      -180.5195      -163.1976      -154.0068      -160.5367
      -136.7299      -129.7233      -143.1165      -135.3854      -164.4938
      -153.1621      -64.31442      -29.08334      -74.09335      -72.70242
      -27.97635       24.57390       71.96384       63.00790     -0.4241028
      -58.44847      -74.04450      -36.78387       6.443176       71.03809
       123.9933       137.4834       126.6916       111.1129       113.2693
       128.0335       114.8376       93.07970       63.29529       56.71869
       84.28253       121.9684       117.3788       135.4552       208.7222
       261.9218       244.7577       230.9547       228.8368       244.4783
       259.1110       231.6906       193.4955       202.4791       173.1936
       136.3094       152.9265       190.7725       186.5292       185.6495
       211.4641       265.2427       276.1475       265.7223       301.5224
       325.0809       272.0355       224.0117       200.7218       207.6772
       224.3342       240.5695       240.1476       258.4852       255.5421
       266.3844       290.1982       323.9662       324.2151       304.0421
       288.7667       298.9669       293.3875       287.5405       314.4917
       377.5638       349.7152       263.1556       205.4963       205.3455
       222.4454       229.2871       257.6273       333.4187       363.2845
       351.9638       300.4362       227.8499       174.7443       170.3887
       158.6921       166.5870       181.9244       183.2419       156.7827
       135.5421       140.9149       129.1414       72.72357       80.21033
       143.1615       176.6399       129.1621       92.53601       117.1295
       169.5203       145.2522       75.34935       42.42380       23.37665
      -10.98880      -15.84402       4.799088       16.64001      -22.62180
      -25.54387      -5.875717      -22.21777      -32.91106      -23.81207
      -37.91523      -32.41685      -6.506508       14.40000       12.39749
      -4.474724      -34.92355      -33.31154      -26.48611      -45.71655
      -62.57439      -56.06458      -99.23492      -125.6468      -87.44284
      -52.67261      -82.57471      -107.7199      -82.84268      -54.88666
      -84.50488      -102.6011      -102.5772      -112.0190      -144.0413
      -121.2184      -76.73068      -69.26892      -82.00204      -95.30154
      -144.8038      -152.8953      -98.59763      -54.10510      -75.03528
      -126.4847      -181.5338      -194.2480      -194.1714      -184.9722
      -165.1884      -136.9047      -125.9977      -145.8312      -185.1450
      -189.6450      -185.7579      -171.0484      -172.1441      -209.6324
      -232.7651      -154.5011      -62.70813      -79.90619      -150.2306
      -152.0167      -120.4498      -148.7723      -219.4592      -243.6417
      -204.6725      -123.0206      -94.51315      -121.1045      -164.2139
      -170.6921      -180.6073      -174.1809      -157.5492      -188.9885
      -218.9161      -202.2421      -234.3902      -257.3538      -216.9623
      -175.7567      -191.9387      -197.8599      -179.3763      -185.3634
      -233.3523      -268.5231      -258.8632      -255.9802      -300.9784
      -314.1562      -279.8358      -236.6624      -220.1166      -228.9698
      -265.1061      -302.5638      -307.4939      -287.8600      -284.3694
