     0.02500000      -758.5591       631.5410      -12345.00      -12345.00
      -29.99499       224.0800      -25.32000      -12345.00      -12345.00
       0.000000       18.74000      -12345.00      -12345.00      -12345.00
      -12345.00      -12345.00      -12345.00      -12345.00      -12345.00
      -12345.00      -12345.00      -12345.00      -12345.00      -12345.00
      -12345.00      -12345.00      -12345.00      -12345.00      -12345.00
      -12345.00      -30.20850      -67.28640       945.0000       0.000000
      -31.37200      -68.11800       0.000000       97800.00       0.000000
      -12345.00      -12345.00      -12345.00      -12345.00      -12345.00
      -12345.00      -12345.00      -12345.00      -12345.00      -12345.00
       151.5717       31.88930       211.4657       1.362773      -12345.00
      -12345.00      -7.012471       0.000000       90.00000      -12345.00
      -12345.00      -12345.00      -12345.00      -12345.00      -12345.00
      -12345.00      -12345.00      -12345.00      -12345.00      -12345.00
      2008       244         6        45        30
       720         6    -12345    -12345     10164
    -12345    -12345    -12345    -12345    -12345
         1         7        13    -12345    -12345
    -12345    -12345    -12345    -12345    -12345
    -12345    -12345    -12345    -12345    -12345
    -12345    -12345    -12345    -12345    -12345
         1         1         1         1         1
PAGA    -12345          
        -12345  -12345  
-12345  -12345  -12345  
-12345  -12345  -12345  
-12345  -12345  -12345  
-12345  -12345  -12345  
-12345  -12345  BHN     
ZL      -12345  -12345  
[...]
      -87.32770      -91.92511      -97.12897      -102.6921      -109.4832
      -115.5372      -121.0427      -125.4773      -131.8121      -136.0157
      -141.7531      -150.0510      -155.3213      -159.2341      -161.7647
      -166.8738      -169.8301      -176.3682      -178.4672      -181.4587
      -184.4790      -187.8130      -188.6544      -189.4039      -194.2535
      -197.4043      -197.8054      -198.6108      -196.9479      -198.4698
      -202.4260      -202.2830      -203.2441      -204.2744      -201.2832
      -201.8621      -203.7916      -200.7000      -198.0054      -198.9675
      -196.6852      -191.3359      -189.7910      -186.1840      -183.2618
      -175.0871      -169.8217      -166.6258      -162.1866      -155.5627
      -149.6901      -140.7292      -135.6019      -128.1402      -118.7083
      -112.4199      -110.0579      -98.62988      -88.08105      -82.62674
      -74.03961      -55.12556      -42.33363      -26.76494      -15.95567
      -3.401348      -2.124847       19.92528       57.91202       58.28874
       34.64911       46.83481       69.11899       73.07579       64.88330
       100.7804       122.5960       91.11795       107.3607       165.0323
       183.1995       182.0220       189.5465       230.5246       236.1636
       212.9092       219.7000       210.6259       194.4902       226.5968
       280.0074       315.4720       269.7687       265.9186       330.4649
       337.1477       316.5607       354.3547       357.2695       323.9807
       291.9973       313.6145       378.8535       424.8081       409.6545
       379.7736       364.8135       403.8235       460.5269       416.6851
       340.1907       410.1772       437.2921       422.8525       480.8901
       478.2634       428.6536       465.2418       464.9403       454.8369
       487.5914       524.9670       462.6738       408.7180       504.0005
       602.4888       525.8843       470.2842       499.1519       506.3594
       501.4164       540.9449       497.0596       465.3090       513.3785
       520.2999       519.9260       529.4528       490.7610       469.6868
       467.1655       514.3452       549.1414       516.3145       439.6517
       427.0902       481.0271       467.0280       387.3589       384.3627
       432.7789       442.3157       426.7303       436.5349       412.1055
       351.9263       350.8920       405.2084       329.6029       254.4354
       290.9432       316.4860       307.9067       301.8825       296.0070
       293.5354       259.7451       203.4579       212.8859       201.8908
       147.9328       163.8193       184.4068       152.8213       115.3688
       148.4481       170.5270       77.49846       13.07864       66.93945
       74.68741       30.55731       11.39384      -9.409523      -11.33023
      -51.03656      -96.94359      -27.55839       13.29239      -107.5260
      -193.1236      -143.8130      -116.9753      -137.8581      -154.4999
      -220.0914      -242.5258      -176.9718      -178.8160      -253.6539
      -272.4875      -221.3849      -238.9248      -272.2787      -255.1719
      -242.1552      -279.7221      -325.5381      -280.3958      -249.0959
      -329.5115      -291.6506      -255.2728      -289.9703      -279.1474
      -261.3527      -281.5924      -332.9590      -354.0477      -298.5837
      -238.2749      -264.2217      -367.5292      -356.0266      -291.2943
      -250.7453      -229.2415      -240.7731      -274.6050      -303.3154
      -317.3213      -297.2142      -226.8047      -190.9207      -211.7557
      -220.4087      -268.5200      -269.9248      -216.0374      -211.5624
      -209.6782      -153.7306      -148.3654      -191.1068      -195.9455
      -167.4522      -171.5098      -146.1876      -115.4164      -142.6887
      -134.3904      -147.0006      -154.6802      -92.92720      -82.01555
      -53.28947      -47.35745      -99.57779      -79.18886      -31.50806
      -51.98041      -102.9274      -55.37762       37.09245      -8.252914
      -79.42079      -55.55074      -53.62825      -44.44978       41.30569
       18.96432      -69.32359      -32.13868       5.447342      -48.25896
      -26.46639       22.44762      -15.57684      -56.91811      -34.07732
      -18.80910      -10.15604       4.040939      -12.30328      -87.37169
      -93.41692      -8.825377       8.302460      -40.34308      -58.58865
      -80.23949      -90.63577      -59.33983      -47.79205      -56.80997
      -58.24091      -91.33224      -97.18802      -83.18085      -141.4471
      -163.9136      -92.70206      -83.84351      -103.3744      -96.11987
      -146.5170      -176.9029      -159.2788      -140.3662      -151.6929
      -177.1115      -188.5908      -197.0859      -203.3447      -177.1218
      -149.5717      -154.1142      -156.8220      -170.2182      -221.9292
      -224.8838      -207.6652      -215.7111      -201.0717      -175.0113
      -188.4736      -187.7498      -191.2809      -224.7137      -222.8333
      -197.3926      -194.2723      -175.6519      -186.5005      -213.4041
      -218.4963      -205.3051      -218.6766      -217.2095      -187.8361
      -166.5032      -172.3089      -172.6600      -175.7356      -181.8635
      -191.8426      -189.0082      -160.6481      -148.9064      -167.1731
      -136.3822      -137.6277      -176.5739      -194.7506      -140.4344
      -80.16132      -136.8202      -193.0231      -131.7662      -105.2974
      -121.3778      -120.7089      -107.8269      -106.0523      -92.65087
      -43.10498      -26.20586      -63.65247      -88.12354      -103.4914
      -73.06229      -47.46004      -46.70422      -20.29749       16.52112
       30.38634     0.09391022      -6.946564       59.18790       77.00465
       23.92899      -26.97589       25.74524       119.1392       118.3176
       88.23712       79.35031       73.06519       116.1670       141.5222
       127.4562       71.11340       83.45801       142.3718       106.8000
       112.4435       199.3002       194.5935       151.9697       202.4503
       263.6040       173.6056       85.45062       127.1680       179.4603
       177.9371       213.8053       236.5717       122.7100       99.37018
       168.0810       120.4259       133.2773       191.6687       108.3133
       51.33795       98.66110       122.2781       97.60197       60.04242
       57.83438       90.24640       86.47006      -17.28048      -27.14948
       117.6512       93.27111      -2.668171       21.24136      -11.22713
      -5.491821       106.4805       86.86905      -52.29565      -110.8099
      -66.92217      -36.42938      -22.82348      -30.18059      -37.92465
      -3.422058      -46.36404      -135.7270      -95.12711      -11.79320
      -44.71370      -53.93158      -4.286064      -6.163300      -72.77750
      -111.9465      -57.52582      -50.35190      -150.2297      -149.2323
      -52.98314      -22.43840      -60.67737      -68.75238      -136.9711
      -163.5814      -89.91061      -86.15790      -121.2238      -60.87238
      -81.69836      -171.6966      -117.2606      -19.65066      -25.67265
      -11.90462      -20.18976      -100.6420      -137.2920      -73.73112
      -71.71500      -76.02818      -36.29651      -17.39655      -80.61169
      -156.5309      -140.0534      -71.60500      -45.79578      -35.62962
      -6.799469      -23.50209      -92.18866      -63.54135      -42.84177
      -67.47774      -61.79727      -80.35202      -32.84106       59.17582
       11.32865      -27.43641      -10.76485      -17.63282      -24.29860
     -0.8874741       27.80927       30.41772      -33.61581      -33.07034
       5.982109      0.6478100      -14.48972       3.862802      0.1350822
      -16.23480      -4.219435       2.699036      -21.57954       10.38800
       51.30803       17.02024      -46.44301      -16.12865       56.48470
       90.84318       23.13799      -70.23311      -66.13255      -17.43258
      -19.84130      -10.86741       4.453018      -16.87637      -65.63571
      -43.68480       50.98143       27.95619      -77.76416      -63.06224
      -17.25393       3.680145       15.00640       4.739807      -61.99323
      -84.10953      -56.82819      -102.8155      -123.0177      -34.74568
      -26.15381      -85.45477      -168.0754      -225.6830      -138.2100
      -21.66489      -44.46149      -147.0502      -154.4249      -59.30276
      -84.12122      -207.8558      -243.7752      -138.2493      -94.93939
      -143.4938      -178.6388      -211.5552      -255.7913      -254.8926
      -209.9803      -102.9693      -73.19940      -160.0669      -224.5425
      -225.7217      -218.1191      -170.0698      -165.6726      -193.2456
      -196.2878      -206.9112      -234.2557      -206.1843      -173.8799
      -176.1958      -236.4208      -302.8032      -227.3282      -142.5014
      -207.6587      -240.2865      -178.6450      -161.1018      -194.4086
      -161.7444      -190.3224      -242.6119      -201.7440      -169.2354
      -195.3735      -223.8090      -206.3279      -142.1492      -156.8892
      -194.4681      -160.4302      -108.5373      -115.8567      -149.2346
      -173.0753      -182.7499      -190.1485      -113.7776      -75.46405
      -153.6909      -186.0002      -147.9075      -126.2079      -107.4243
      -82.06903      -94.04388      -142.3958      -102.7248      -65.67023
      -116.8780      -118.7922      -74.14197      -109.8146      -94.61845
      -51.95358      -79.29626      -84.71060      -53.65637      -55.24747
      -101.9450      -95.98917      -13.09811      -19.22275      -100.6417
      -74.32346       14.12177      -8.842239      -53.62223      0.2287140
       77.91861       58.94025       4.114244      -13.59856       28.67731
       48.28931       2.293106       18.90466       121.3588       137.9225
       70.85085       18.74698       29.67252       103.4050       145.7005
       117.9623       123.5850       158.7684       132.4276       102.6517
       138.9635       190.1605       208.7039       168.2865       144.9379
       152.9749       176.7303       228.5264       247.4954       191.9896
       159.3096       196.2462       225.6927       199.7307       146.4845
       159.0435       255.8284       195.5146       129.5184       248.2056
       275.7378       189.0395       160.2643       136.2800       139.5790
       219.0155       271.0783       247.7383       229.7122       236.3154
       191.6928       143.0997       161.5242       189.9412       210.0205
       239.1569       266.8456       236.0269       158.5015       129.8463
       132.3533       151.2166       235.4184       282.1277       186.4632
       95.03949       107.6568       192.9558       232.6273       206.4572
       182.8752       167.0814       172.9859       169.6647       129.8048
       99.50769       103.4205       165.4641       224.6838       197.3166
       133.7645       116.7263       156.4066       136.7287       63.22644
       107.0429       166.9992       131.6056       141.7221       211.6572
       146.3198       65.50302       123.1914       155.1300       92.72522
       128.4881       176.2922       136.9834       133.0888       179.4997
       151.2250       114.7095       175.4284       242.3444       149.3852
       63.74438       129.7014       221.4722       234.6149       208.1732
       135.8589       136.4258       176.3366       141.0625       140.2671
       174.2255       172.7175       222.9593       179.0221       110.2123
       135.7426       147.7161       144.2165       160.8314       124.1432
       73.00711       101.9200       176.6801       167.3205       107.5584
       94.04861       122.9084       121.5929       102.7501       119.1460
       186.1329       187.5480       129.4842       106.1639       70.35315
       59.38489       121.9613       124.6280       98.25598       80.47977
       121.6517       127.2578       45.12941       66.99490       117.5799
       41.22279       27.51662       59.35909       20.04919       49.15327
       92.35033      -2.084320      -63.39783      -31.47128       62.11075
       104.9558       40.02409      -16.04178      -2.724445       22.48445
      -35.39999      -129.0184      -74.06210       52.17377       119.6560
       201.7212       214.1492      -3.648315      -293.3088      -396.5484
      -129.3107       279.0124       289.1783      -41.69690      -182.3038
      -23.71387       220.6694       201.0116       21.43683      -2.827393
      -137.0448      -353.9319      -252.1816      -114.0176      -214.6049
      -207.0899      -75.35559      -116.0105      -181.7463      -310.1865
      -458.6211      -221.0563       121.4772      -36.62509      -207.1063
       93.59656       199.7400      -359.0054      -758.5591      -396.6981
       174.7003       243.6064       242.6264       350.7922      -85.58936
      -602.4464      -538.2125      -149.5497       319.2751       413.6795
      -20.83594      -369.0188      -491.2244      -408.6088       114.5802
       233.0925      -28.70312       212.5535       369.2760       48.15814
      -136.9726      -134.2400      -129.1631       4.667542       26.86230
      -317.0504      -364.1837      -50.80725      -36.72247       153.3496
       611.5192       268.1737      -275.8193      -366.1892      -462.9295
      -261.1677       127.4973       332.6550       431.4327       71.86511
      -363.2427      -155.6584       212.5345       228.6544       102.3510
      -103.1530      -166.0156       51.69583       192.6344      -7.994690
      -46.85767       369.9933       338.7578      -337.9490      -326.4076
       173.0233       74.48038      -55.39557       244.1036       330.6000
       247.4548       180.4178      -153.1902      -365.1214      -86.19022
       77.60760       91.56946       218.9852       193.5385      -38.13380
      -108.5486       113.8496       150.3100      -61.73407       13.83655
       230.9119       124.7151      -173.7451      -260.2399      -19.78345
       341.3304       384.5048      -5.247833      -89.58179       432.7004
       617.1105       221.7003      -260.5068      -424.8012      -139.1815
       105.4018       32.58167       168.4335       372.3808       184.9444
      -13.25012       117.5063       346.5718       210.3123      -279.6782
      -372.9366      -51.83072       99.12369       159.1171       165.3131
      -84.91919      -64.26471       221.5419       182.0756       117.4859
       230.1722      -29.49243      -449.5562      -296.3646       11.79300
      -18.35657       229.3381       449.5182       53.10748      -180.7720
       131.6580       295.8045       164.4640       92.84761       94.42377
       9.339172       51.44122       209.0000       122.3456       145.9313
       354.5404       79.43195      -220.8589       9.541077       282.6215
       277.8918       234.3231       394.5702       444.4523       170.4880
       44.01007       170.3240       229.5616       130.8085       184.6715
       393.8517       381.8506       300.9306       237.7797       33.47038
      -6.564331       218.4696       334.4781       269.5834       211.7408
       328.5754       365.7697       239.9167       249.1115       206.9384
       72.50177       64.32782       231.0875       521.5361       445.5072
       180.0916       194.4286       175.8238       123.6083       151.8519
       81.84595       83.92896       250.5919       487.0254       580.1013
       355.7980       98.67908       177.5939       369.9430       282.1530
      -117.1373      -300.7068      -2.915527       149.1492       51.44104
       222.3992       330.9350       108.9674       33.25751       246.5982
       311.6958       39.81476      -172.6046      -31.46307       179.8865
       245.5914       73.84912      -326.1064      -497.5160      -182.2036
       117.4891       188.0526       166.1671       84.50403      -118.5549
      -374.8517      -420.5242      -241.8604      -79.72656       5.477100
       7.716858      -77.84058      -123.2397      -77.40234      -122.2296
      -184.8372      -259.6072      -432.0159      -461.2437      -323.6416
      -421.7845      -564.2827      -279.1385       37.34070      -118.8630
      -345.3625      -397.4774      -451.3230      -480.1140      -459.3151
      -480.1886      -510.8331      -428.9950      -313.4741      -377.2231
      -416.5899      -282.3697      -88.15143      -214.3116      -535.9528
      -609.3943      -480.0795      -361.0221      -327.3016      -449.9775
      -438.2178      -350.4517      -549.1439      -647.9849      -406.5414
      -208.2129      -160.1007      -338.2461      -552.8433      -558.6957
      -487.2773      -423.4963      -345.3702      -416.7761      -462.1930
      -352.6105      -329.8540      -504.7021      -661.3999      -654.8228
      -487.4871      -267.3690      -157.5392      -224.3634      -381.7395
      -578.4479      -644.1263      -504.6417      -313.2144      -252.5669
      -234.1488      -314.2644      -488.3365      -577.2288      -561.6239
      -592.2406      -502.5719      -308.4907      -265.6073      -247.3699
      -177.9133      -361.1160      -471.6223      -404.1981      -450.1086
      -419.9216      -175.0488      -104.4043      -310.4740      -552.5342
      -450.6708      -268.2496      -366.4727      -432.7177      -207.1642
      -12.34055      -100.1467      -304.9875      -340.6836      -265.5573
      -278.0924      -419.8613      -427.6909      -260.6668      -34.79333
       194.0978       235.3896       54.29492      -60.83032      -91.81506
      -143.1190      -157.2042      -9.828064       9.347198      -157.5066
      -105.3696       121.5072       206.0234       262.2605       193.2488
      -49.50127      -99.71790       128.8063       271.0026       267.7388
       289.8865       282.8734       170.9873       222.0923       297.3477
       294.7062       429.2880       357.8378      -18.03467      -53.17212
       163.6462       237.3920       305.2700       457.0474       535.1346
       522.9678       348.8110       149.4291       155.8428       253.0159
       319.2433       343.7065       305.5541       348.1802       332.6982
       277.7341       309.3480       283.3859       203.8475       223.6918
