     0.02500000      -1025.641       1188.838      -12345.00      -12345.00
      -29.99504       225.0049      -26.67000      -12345.00      -12345.00
       0.000000       19.87000      -12345.00      -12345.00      -12345.00
      -12345.00      -12345.00      -12345.00      -12345.00      -12345.00
      -12345.00      -12345.00      -12345.00      -12345.00      -12345.00
      -12345.00      -12345.00      -12345.00      -12345.00      -12345.00
      -12345.00      -31.89650      -69.69230       1971.000       0.000000
      -31.37200      -68.11800       0.000000       97800.00       0.000000
      -12345.00      -12345.00      -12345.00      -12345.00      -12345.00
      -12345.00      -12345.00      -12345.00      -12345.00      -12345.00
       160.2704       248.3144       69.13612       1.441048      -12345.00
      -12345.00    -0.01391023       90.00000       90.00000      -12345.00
      -12345.00      -12345.00      -12345.00      -12345.00      -12345.00
      -12345.00      -12345.00      -12345.00      -12345.00      -12345.00
      2008       244         6        45        32
        70         6    -12345    -12345     10201
    -12345    -12345    -12345    -12345    -12345
         1         7        13    -12345    -12345
    -12345    -12345    -12345    -12345    -12345
    -12345    -12345    -12345    -12345    -12345
    -12345    -12345    -12345    -12345    -12345
         1         1         1         1         1
PATO    -12345          
        -12345  -12345  
-12345  -12345  -12345  
-12345  -12345  -12345  
-12345  -12345  -12345  
-12345  -12345  -12345  
-12345  -12345  BHE     
ZL      -12345  -12345  
[...]
       143.4914      -103.9938       16.25043       262.5598      -75.87112
      -7.223389       350.8168       101.8130      -185.9852       166.5259
       267.1153       57.53424       114.8380       170.3777       76.97040
       180.6300       266.7404       167.6640       91.97528       125.8360
       293.1650       234.9395       175.9938       236.0174       25.61145
       157.9978       487.2244       217.7288       2.450317       437.9417
       350.7315      -100.7690       225.3995       520.3691       103.5931
       63.94714       447.8611       316.2434       53.40900       195.3424
       398.7803       274.8887       156.4296       151.2754       248.0389
       333.9398       150.7030       182.9449       351.5576       239.2903
       159.3383       313.7996       316.0846       302.2424       190.8665
       92.81604       315.2744       429.9544       218.4103       165.6377
       319.8921       294.0715       176.0804       242.7615       390.2243
       345.4527       164.1394       84.56799       174.3582       319.0231
       356.4470       137.9780       163.2401       310.0020       73.60114
       293.6496       244.9019      -123.0291       84.44653       280.1404
       174.5387       112.0705       144.2139       20.32275      -25.90875
       153.1918       131.9165      -34.02391      -40.75546      -17.45042
       18.81058       57.75830      -29.87708      -91.94722      -56.66734
       9.670898      -91.40747      -220.7141      -107.0878      -78.74884
      -100.0443      -131.9623      -321.8489      -159.2509       29.36829
      -231.6913      -435.0402      -95.43716      -5.611084      -423.5907
      -291.1123      -91.62891      -372.1033      -354.4277      -265.2428
      -291.4510      -220.7312      -316.2805      -369.2113      -282.7992
      -279.1814      -404.7529      -496.3654      -339.1877      -274.8818
      -438.9515      -391.1694      -246.0234      -320.3461      -477.7521
      -437.6072      -401.9165      -442.5938      -304.4923      -323.9746
      -538.8779      -564.9541      -333.0303      -301.6473      -435.2235
      -481.2815      -553.2023      -460.3124      -326.1099      -412.4978
      -455.2614      -415.7422      -417.0177      -414.2056      -489.9380
      -510.0923      -479.8215      -386.8401      -466.0474      -524.6801
      -428.3990      -460.3434      -460.3450      -481.5243      -486.8796
      -446.5270      -370.5112      -458.2915      -638.7061      -415.6885
      -329.0673      -499.9442      -461.2302      -363.5244      -468.6732
      -530.8030      -299.2886      -325.8195      -570.1627      -426.0177
      -199.9613      -296.6560      -437.6608      -363.4963      -375.2194
      -355.6475      -177.2540      -216.1122      -372.7957      -296.4641
      -215.9949      -241.4078      -229.2928      -205.1218      -182.7095
      -119.3431      -115.3356      -86.92379      -13.92578      -92.77618
      -224.4181      -103.6516       47.40968      -8.582382      -30.35390
      -32.68169       4.647644       136.9571       47.06580       13.24646
       121.3040       112.6678       32.49243       180.9192       227.5647
       86.45221       51.63062       155.1752       346.0818       230.6151
       105.9769       311.2855       212.2087       110.9022       307.5282
       240.9818       147.9547       339.3245       413.3408       314.1252
       351.9106       315.2011       177.3912       380.5601       490.2052
       337.5906       249.2727       283.3030       401.6427       419.0122
       409.6482       450.2692       396.4077       395.8281       415.1082
       393.7094       446.0667       498.4120       387.4843       358.9258
       393.8590       448.5806       482.2427       499.2815       516.4016
       527.9194       494.8163       393.1571       417.4528       567.1819
       453.1833       286.3076       561.8116       662.1682       289.8026
       407.1145       641.4773       392.2114       315.2971       576.5474
       530.7914       403.1013       476.3458       400.1758       318.4923
       281.4531       389.4875       573.3589       314.5908       280.7642
       493.9388       286.6378       262.2612       493.7360       309.7485
       92.44244       165.2731       266.3764       283.1341       377.8405
       223.9440       19.67755       108.4200       261.9039       236.0895
       50.07935       36.96915       185.1478       29.78058       30.28552
       227.7911       99.81493      -46.14795      -102.6360       40.50323
       160.4622      -3.481934       61.03177       15.34503      -280.3239
      -30.37793       167.2205      -60.90875      -60.19363      -92.11243
      -242.8731      -209.6236      -111.9178       19.28027      -27.88245
      -276.1292      -103.2977      -183.1372      -190.4566       77.50964
      -217.8267      -266.8380       82.32452      -56.50751      -367.3273
      -260.1166      -88.08038      -195.4177      -153.3926      -80.19128
      -254.4117      -260.9868      -21.48206      -101.9059      -418.8439
      -299.9726      -160.2019      -199.7103      -112.8006      -138.0155
      -200.3312      -393.6205      -362.1263      -155.5062      -206.2228
      -216.9521      -177.4885      -309.9363      -265.3037      -92.48926
      -181.5157      -196.5694      -103.1278      -217.5546      -360.6311
      -278.4787      -116.4555      -102.3528      -231.0518      -213.7321
      -25.00830      -174.5731      -279.8210      -18.16370      -179.8149
      -307.0190      -70.52783      -224.6382      -343.1067      -106.8479
       5.553711      -170.6354      -146.2215      -2.944336      -148.4353
      -211.6636      -79.07138      -37.41553      -184.9092      -326.0602
      -144.3078      -138.0282      -201.1511      -65.40527      -120.7733
      -170.4287      -110.7498      -38.64178       14.57776      -97.41447
      -94.66472      -8.302368      -182.1675      -207.0030      -27.97647
      -27.66638      -111.1180      -223.1797      -138.1487       6.762421
      -107.5271      -182.3374      -56.88173      -21.37714      -198.4725
      -148.8021       98.86969      -37.37201      -205.2706      -135.6528
      -36.73059      -113.0420      -179.7140      -8.469482       19.00871
      -53.92646      -13.75740      -6.583557      -149.6201      -124.9315
       2.214859      -38.63214      -33.15388       19.44304       79.64493
      -37.12897      -49.21941       16.19655       14.31029       45.15118
       63.80682       130.2774       146.3262       25.81562      -77.48117
       35.45929       126.8937       181.1515       198.9211       58.44910
       71.33539       156.6770       206.4300       166.2289       72.93768
       138.8457       162.5197       155.7816       174.5352       88.28345
       197.7219       267.5679       116.1581       141.9918       204.1227
       139.5418       106.1910       163.6211       136.6689       96.92603
       317.1035       309.9182       42.82373       16.80389       118.9650
       243.5487       202.0599       110.3671       169.5981       144.4083
       201.2446       285.3536       177.6809       178.5684       161.1108
       199.8455       266.1796       83.92740       62.98181       290.7471
       185.2990      -11.17432       133.7805       213.4468       174.6736
       249.8002       233.0253       73.93665       113.5616       177.7864
       20.67618       116.5687       127.1848       42.72650       182.5231
       168.0673       65.74506       127.2992       137.5731      -52.02721
      -72.58417       116.2879       56.50864      -74.15500       60.84167
       128.6627       9.779419       55.54202       140.6654      -78.44504
      -140.8536       104.5183       129.3203       54.79404      -54.16327
      -202.4185      -215.2609      -159.3052      -55.05614     -0.8237610
      -154.1675      -169.3448      -47.06647      -81.01520      -204.3869
      -141.2109       114.1126      -96.40558      -369.6223      -155.1184
      -62.74500      -135.9923      -224.3098      -208.6319      -152.6064
      -199.8565      -297.2708      -167.0356      -258.3177      -290.7300
      -126.4205      -310.4598      -283.4412      -147.8961      -232.1198
      -179.2713      -240.1650      -423.0907      -309.9026      -199.1624
      -278.5858      -383.0505      -334.0941      -169.7159      -193.8462
      -280.8932      -370.6685      -355.2487      -276.0862      -202.5673
      -263.1605      -271.5059      -264.6785      -372.8228      -281.6914
      -153.4697      -243.8103      -295.1573      -165.5718      -21.24298
      -278.4928      -405.9192      -63.33380      -36.96680      -212.5713
      -222.5529      -247.6093      -167.0278      -110.4593      -96.47124
       13.34412      -59.50507      -216.9735      -102.0965      -52.23430
      -85.65312      -49.82701       13.56911       48.19404      -4.604141
      -62.67102       31.76855       139.8424       168.1508       109.7656
       144.8258       238.6332       179.2790       61.57190       211.5488
       304.7467       87.89265       16.09875       208.4671       312.8606
       151.9469       74.88098       195.3079       177.1174       156.6772
       346.2598       380.3821       180.2761       263.4218       437.4597
       265.7423       214.2089       430.2810       288.2697       205.6860
       398.5865       308.2593       297.7980       473.4072       422.8413
       308.9000       272.3130       286.0172       297.3917       293.3662
       209.7437       171.7054       199.7099       236.3566       185.5879
       367.3105       579.4283       439.8671       319.0062       315.7357
       290.5967       344.2601       383.8774       202.3001       84.54590
       319.8832       383.7134       195.2951       103.8619       241.2277
       362.8944       253.3107       233.0637       304.6917       245.1251
       193.4032       233.5038       361.7538       296.6794       272.8908
       165.4315       102.4628       154.4525       6.266571       50.43268
       256.2847       232.5563       97.91874     0.08782959      -10.45453
       128.6482       261.4495       199.5242       65.08029       63.83559
       32.12061      -67.82083       57.17950       171.9288       40.06216
      -6.569237       37.43335      -49.40434       13.07262       22.67722
       21.40390      -38.88525      -140.4581      -116.0539      -75.27233
      -50.92961       20.94293      -68.91949      -231.3770      -41.61459
      -55.79742      -198.7669      -106.2331      -161.0968      -183.5474
      -43.91159      -32.88928      -230.4111      -268.6773      -206.0173
      -91.82780     -0.6677246      -27.56116      -286.6639      -394.7884
      -155.0319      -83.58698      -207.8804      -249.0113       13.55774
      -70.43994      -389.7807      -208.4016      -174.7343      -342.3078
      -343.0871      -249.5111      -220.8809      -266.1630      -190.5003
      -103.5231      -173.1268      -255.5444      -417.8723      -352.8269
      -68.57477      -168.9966      -276.6536      -285.0386      -406.4576
      -281.1534      -216.1187      -97.85280      -13.13019      -185.0639
      -207.3313      -86.74976      -142.3877      -407.6279      -390.1813
      -103.6437      -158.4680      -303.0858      -186.4556      -137.8857
      -170.0764      -84.06821      -21.43555      -267.5336      -566.8945
      -495.4983      -298.4789      -285.7205      -453.8835      -585.1658
      -706.4025      -638.8324      -457.3100      -214.8056       107.8959
       133.8289       153.1035      -11.46375      -501.0278      -473.1632
      -232.6460      -13.40802       298.5396       251.1115       270.6540
       175.3125      -319.8401      -274.0432      -71.70441      -156.5203
      -336.5265      -368.1510      -183.0985      -475.7048      -510.9832
       71.18701       523.6599       359.7261      -408.2469      -444.8752
       53.09399       57.39241      -98.29999       93.19055       420.8800
       271.9064      -138.0983      -97.69653      -40.63257      -657.1040
      -552.4926       56.51735      -22.54504       34.73889       257.5200
       349.5303       596.9873       1036.062       1048.822       640.1489
       383.8289       335.2131       342.7325       64.82361      -238.9771
      -164.5974      -84.85036      -77.68103       171.2158       313.4008
      -126.3003      -467.1977      -67.83992       152.3107      -206.4938
      -490.2711      -186.5160       520.3710       399.9802      -612.3220
      -728.2962       68.31093       175.2232      -146.1277      -86.44318
      -66.26086      -295.5871      -354.2130      -14.41089       492.0433
       200.8712      -420.5745       71.89380       790.2766       1188.838
       893.0421       410.7816       154.7867      -288.5068      -436.3045
       85.48889       510.9005       48.66356      -82.91272       158.2712
       529.1191       1078.542       841.0040      -79.77704      -354.1897
       81.85934      -128.6060       313.7889       690.8793      -155.4065
      -13.99695      -32.57837      -288.5999      -46.79517      -102.1528
      -294.8744      -603.0502      -407.1855      -393.8944      -127.6263
       40.70703      -493.9051      -80.16138       647.4664       283.7711
       156.2731       172.4306       14.03696       167.5374       46.25000
       323.5948       520.3254       32.54065      -528.3215      -179.8457
       733.9542       565.8986       93.34912      -165.6274      -328.2821
      -276.7447      -135.9818       246.6954       651.5169       219.8971
       58.95410       505.6743       297.4828       258.5937       327.6167
      -130.4811      -303.9600      -203.0151       3.341476      -12.66144
      -45.17139       157.3726       290.3319       446.9957       128.7234
      -257.3271      -642.1917      -1025.641       108.4556       998.3298
       504.1849       174.0834      -15.17944      -301.4118      -242.5884
      -81.38074       196.7346       184.4691      -122.1600      -32.42969
      -193.8093      -298.6022      -132.7013       165.8577       551.3868
       117.2012       45.39825       334.2036      -93.38049      -80.54370
       615.4578       223.4487      -667.5767      -669.5646      -476.6383
      -186.9041       349.4858       559.1400       448.1373       123.2106
      -506.8700      -434.9452       189.8403      -91.55005      -330.4500
      -199.9060       47.74133       369.5673       265.8065       204.9536
       183.0415      -75.61530      -195.8532      -217.1598       192.1143
       508.9969       174.2528      -268.4998      -251.0437       36.02368
       181.3625       142.2551      -401.3821      -591.4124      -9.443481
       665.0850       650.4818      -120.6682      -401.8244      -278.4120
      -23.77628       259.0114      -49.02295      -98.28745       197.7010
      -103.9908      -24.00862       118.4419      -219.9944      -308.1146
      -34.71310       170.8171      -74.96744      -105.2387       45.98651
      -319.0646      -385.0394      -212.6245      -103.7872       40.17611
      -70.46951       44.89821       158.7107      -140.5046      -337.1124
      -339.2031      -286.2014       17.66786       203.2610      -189.2365
       10.56616       71.90112      -418.1098      -163.1220       229.8207
       377.4504      -1.197266      -702.9768      -572.7352      -77.50110
       298.4113       253.3922      -66.76036       84.56911       3.383179
      -70.84326       352.5324       263.3680      -27.46832      -2.281647
      -74.47937      -161.2014      -467.6624      -536.5768      -180.4133
      -25.32428       77.90073      -168.6688      -144.1125       190.3148
      -333.1489      -350.8473       15.75250      -145.3865      -66.78137
      -50.53845       282.5923       272.6628      -45.89413       72.21045
       185.0115       306.9127       20.99849      -49.45276       326.2679
       317.3809       166.0204       197.9064       252.8407       43.71365
      -165.7787      -16.25049       187.7177      -18.27722       65.92963
       366.1089       181.1615       106.7370       164.8534       259.2284
       99.45668      -123.0007       183.5571       247.3941       33.46942
       152.8132       281.0623       214.2671       305.0359       393.1323
       282.0246      -26.69362      -67.74908       176.0412       20.59557
      -31.78815       210.4301       49.04532       73.62939       329.0636
       519.8422       680.9221       463.2247       368.5926       146.6432
      -57.06532       99.64389       50.11523       226.3696       514.3088
       187.6083       208.9332       443.6588       110.7216      -103.2852
      -85.54059       117.2266       374.8325       340.1223       41.75336
      -331.0966      -234.5494      -189.2652      -194.7154       267.5560
       269.7034       68.00897       186.6890       232.7346      -73.70439
      -114.5014       50.93378      -309.6609      -274.5807       367.3503
       645.5201       251.5365       6.135818       51.88348      -125.6144
      -146.6257      -262.0770      -160.6572      -78.23895      -336.0660
      -166.1501      -281.7980      -197.3350      -209.4167      -484.9974
       7.838623      -115.4547      -395.9510      -114.2531      -229.6405
      -151.7380      -219.5010      -361.3202      -364.3254      -387.3280
      -206.6173      -415.0780      -394.7290      -329.6116      -530.8712
      -274.6010      -199.7207      -335.9482      -438.5664      -495.4265
      -413.7935      -17.55304      -70.45105      -590.0267      -442.0641
      -358.9661      -468.6584      -389.4913      -336.9098      -197.4974
      -159.5992      -193.6963      -320.6707      -301.4365      -173.3446
      -266.2124      -476.7443      -418.5195      -149.6509      -157.9144
      -20.97389       46.09705      -204.6465      -175.3740      -60.41742
       48.18298      -383.5084      -437.5875       41.26477       244.7641
       206.5207       37.92614       86.23218      -76.02182      -143.5117
       24.40655      -36.56905       42.33704       166.1498      -72.76697
      -183.3683      -141.7518      -224.4821      -194.3043       55.48364
