     0.02500000      -1083.172       1089.812      -12345.00      -12345.00
      -29.99504       225.0049      -26.67000      -12345.00      -12345.00
       0.000000       19.87000      -12345.00      -12345.00      -12345.00
      -12345.00      -12345.00      -12345.00      -12345.00      -12345.00
      -12345.00      -12345.00      -12345.00      -12345.00      -12345.00
      -12345.00      -12345.00      -12345.00      -12345.00      -12345.00
      -12345.00      -31.89650      -69.69230       1971.000       0.000000
      -31.37200      -68.11800       0.000000       97800.00       0.000000
      -12345.00      -12345.00      -12345.00      -12345.00      -12345.00
      -12345.00      -12345.00      -12345.00      -12345.00      -12345.00
       160.2704       248.3144       69.13612       1.441048      -12345.00
      -12345.00    -0.04615062       0.000000       90.00000      -12345.00
      -12345.00      -12345.00      -12345.00      -12345.00      -12345.00
      -12345.00      -12345.00      -12345.00      -12345.00      -12345.00
      2008       244         6        45        32
        70         6    -12345    -12345     10201
    -12345    -12345    -12345    -12345    -12345
         1         7        13    -12345    -12345
    -12345    -12345    -12345    -12345    -12345
    -12345    -12345    -12345    -12345    -12345
    -12345    -12345    -12345    -12345    -12345
         1         1         1         1         1
PATO    -12345          
        -12345  -12345  
-12345  -12345  -12345  
-12345  -12345  -12345  
-12345  -12345  -12345  
-12345  -12345  -12345  
-12345  -12345  BHN     
ZL      -12345  -12345  
[...]
       86.82475       74.51773       94.88470       103.3152       84.14426
       82.16293       91.59192       95.93054       92.54340       86.56427
       96.16943       106.7180       99.77396       79.83072       82.97162
       98.80103       106.9477       99.26172       91.76404       93.18454
       108.1713       73.33237       85.68079       97.71460       106.6666
       178.2210       29.64855       19.95634       81.45323       14.84869
       136.9288       26.83789      -14.83435       111.3263       54.14313
       75.03450       105.2726      -6.878765      -24.45949       45.50958
       23.03905      -1.786766      -39.44051      -3.381744       130.4669
       49.59277       41.48325       46.09167       121.3242       54.54397
      -15.97157       87.42511      -114.0082      -3.504486       159.1574
      -10.39621      -23.00281       47.19994       17.53484       6.510086
       19.44456      -6.849457       52.51758       112.4983       66.45940
       33.47869      -23.31889      -39.45114       94.05906       29.04314
       20.54634       87.19609       37.34656       131.9993       84.95262
      -8.010345       50.28140       55.77512       56.78140       39.06311
       18.60290      -18.74829       81.18106       53.49063       114.4109
       144.9734       64.07880       113.4091       18.78436       41.45074
       122.9725       137.5384       86.01508       107.9588       205.4987
       74.46722       74.54785       37.13307       13.04150       112.5660
       99.70764       193.2725       230.9620       30.35269       22.48590
       186.7851       210.0615      -29.63356      -28.30713       192.3845
       158.6842       53.30634       133.9531       199.3330       132.1999
       78.43372       14.80368       78.02493       155.6629       84.18863
       39.76465       124.2400       161.6949      -16.73255       39.87733
      -17.59806      -61.36426       103.3564       78.39450       74.02029
       40.36054       14.77892      -13.70625      -87.31358      -3.213394
      -41.38306      -96.05474      -27.70239      -16.90814      -53.84467
      -126.6593      -121.1697      -60.53613      -139.9095      -117.0746
      -206.9158      -198.4079      -65.67212      -168.6137      -233.0190
      -294.1651      -144.3427      -104.6658      -319.7399      -320.1035
      -255.7407      -232.5853      -167.2416      -265.4901      -325.6722
      -215.1216      -290.8840      -340.6958      -391.5632      -278.6915
      -161.2924      -288.4106      -401.9102      -367.2262      -284.2113
      -317.9489      -347.8447      -305.2646      -359.1443      -384.4531
      -338.7653      -382.0284      -346.0314      -352.7753      -449.1555
      -366.3119      -324.3047      -386.0220      -378.6748      -313.4403
      -436.8105      -417.2661      -267.9502      -371.6835      -441.6479
      -419.1234      -326.4052      -329.8640      -313.0144      -230.9926
      -313.4446      -339.3816      -347.4688      -375.0752      -304.7216
      -175.0725      -273.1323      -359.3837      -199.7845      -153.6054
      -194.7865      -210.7770      -204.5925      -169.8583      -184.5429
      -194.3911      -161.1003      -183.7814      -179.5057      -115.8119
      -73.00418      -81.34418      -194.4176      -99.95764      -65.73363
      -89.72513      -27.00432      -43.04554      -20.77330      -43.32810
       12.73132      -33.44064      -49.37536       36.29785      -48.95813
      -8.775639      -3.898449       11.57329       6.013817      -13.47214
       132.5392       87.57307       17.38078       71.26613       103.2473
       12.17957       39.39856       174.7536       64.44440       72.47931
       204.7328       164.8967       130.5240       59.32471       129.2660
       236.3989       172.3325       177.9009       88.44867       65.68195
       190.0128       164.7863       140.9243       275.7041       179.3193
       106.3002       297.4169       312.2414       138.3251       108.7252
       238.1149       284.1279       324.6819       221.0264       179.4667
       289.8434       238.5812       264.7244       229.3219       205.4366
       252.8741       204.2698       331.5473       327.7028       242.0453
       240.3027       250.2827       355.7153       337.7234       252.4108
       253.7163       301.0902       250.3985       293.2004       347.4491
       237.0884       318.0278       382.2285       276.1233       303.7388
       333.4399       298.9066       284.3883       304.8415       269.0933
       225.5792       311.0263       318.3779       385.9205       332.2188
       277.4785       473.0474       400.0027       367.5562       308.0759
       282.7638       469.0217       331.8431       275.3175       373.0054
       394.4149       405.5463       330.0674       360.7913       456.1322
       334.1730       371.1356       504.4043       255.9938       223.7965
       421.1780       373.8212       320.9348       347.0765       272.3727
       255.6782       412.5053       371.6577       277.2587       295.7642
       240.9924       239.5862       210.7486       166.9435       107.5941
       188.9547       234.6800       98.85388       145.5338       140.5665
       125.1018       134.9058       27.98288      -15.22908       33.81232
       85.08591       9.272003      -16.17726       17.72563      -95.72664
      -21.86739      -47.17825      -111.2472      -51.60834      -184.2845
      -152.1303      -89.15463      -114.6534      -197.3378      -254.0228
      -265.4883      -223.6495      -164.4417      -292.1545      -317.3843
      -276.2850      -256.1405      -174.1781      -255.4189      -394.2566
      -303.3920      -271.9817      -428.7175      -487.0533      -394.8860
      -327.3788      -336.7198      -417.3997      -427.2418      -394.2012
      -372.2230      -327.0791      -427.0361      -477.7852      -413.0729
      -465.7113      -377.3147      -293.6223      -445.8320      -468.8618
      -419.4424      -321.3462      -389.9407      -492.6593      -343.5944
      -421.7839      -417.0739      -348.0690      -341.5210      -288.8905
      -312.8348      -343.6562      -297.9841      -333.0443      -438.4928
      -312.8438      -344.9755      -340.6395      -240.1067      -269.4951
      -297.5191      -175.6760      -144.3294      -229.7176      -282.9526
      -231.5031      -130.8442      -250.8557      -253.3352      -254.3730
      -206.3574      -130.2223      -216.4944      -234.6324      -176.5339
      -86.55017      -146.1274      -312.8041      -252.7248      -28.47031
      -87.51465      -285.7056      -208.2941      -173.2758      -153.9313
      -172.0980      -185.0177      -25.61444      -174.4232      -193.4634
      -37.73669      -131.2916      -261.5536      -195.5244      -159.7541
      -157.7809      -61.30792      -125.8589      -130.0583      -126.1895
      -146.2217      -95.44482      -99.16000      -128.4910      -77.11441
      -57.34589      -210.4801      -177.0404      -48.79332      -56.15971
      -19.38766      -37.31730      -16.26598      -21.40648      -82.20193
       38.65852       85.82200       41.27707      -35.89167      -69.77473
       66.21188       56.19621       42.12224       61.13216       7.805603
       68.56396       129.4414       128.1577       63.52570       128.6313
       220.8874       153.0790       118.4551       105.4140       147.4933
       236.4883       210.4592       226.1290       231.5299       279.0928
       288.7791       189.6782       253.9950       224.8181       306.0900
       318.5713       249.5685       346.0718       321.6003       267.2822
       254.9308       324.1508       324.4672       292.4218       350.0662
       280.0223       321.5341       336.8717       238.1343       295.6722
       215.8436       221.0365       340.5870       373.5019       295.1511
       209.5008       342.2338       322.4628       231.7297       362.0021
       261.4759       246.6902       400.7793       309.3020       247.1414
       209.3716       227.9178       331.1209       286.7551       171.0492
       209.0082       270.2023       245.8395       210.3148       206.9731
       229.2393       262.4874       293.2603       222.1631       110.1331
       155.3473       243.8313       234.9666       153.4774       191.1131
       197.6152       39.13434       139.7461       241.4691       260.3883
       232.6235       140.8473       147.6680       75.54034       164.6764
       152.5405       216.9781       293.3982       44.03055       42.55942
       125.2845       178.6934       237.2829       71.61238       86.06187
       75.92800      -46.92834       110.2694       167.7524       149.4788
       137.6872       16.55122       19.65320       74.26233       156.0466
       125.2905       1.758575      -6.818420       155.5731       124.1945
      -8.953857       53.62006       60.43904       54.88710       18.76603
      -12.19499       46.45566       18.17622       59.63038      -16.59333
      -44.24512       122.8798       133.9629       39.99992      -55.74261
      -110.5672      -61.92395       41.51990      -62.90038      -44.08607
       16.74707      -108.0497      -95.07672      -105.2372      -95.09431
       33.02104       48.51328      -68.96417      -57.17929      -70.12064
      -92.71179      -54.06508      -77.19885      -72.33612      -134.6941
      -143.3555      -124.3812       49.71163       53.80498      -56.07216
      0.1575928      -5.743591      -74.66132      -123.8786      -23.71464
       29.03030      -16.84180      -63.09311      -73.92499      -72.72440
      -98.40176      -73.42451      -81.16626      -23.06583      -26.22589
      -76.88978       29.13831       9.175461      -93.87929      -45.38332
       79.52016       20.41708      -99.01669      -9.740219       4.210571
      -122.3926      -102.1086      -17.73489      0.2914429      -141.2037
      -179.2459      -33.33037      -19.20767      -69.24219      -213.8984
      -229.5233      -115.7900      -102.2880      -182.5332      -227.3019
      -197.7980      -268.8272      -187.8603      -21.18262      -188.7659
      -237.0095      -172.2263      -217.6129      -175.9463      -220.3499
      -355.6155      -334.0423      -243.3344      -224.4474      -275.2928
      -446.9274      -332.2461      -277.8409      -416.2120      -335.3678
      -335.8350      -351.1744      -384.0898      -500.1390      -340.3276
      -227.0103      -397.9872      -378.9130      -353.4708      -378.0432
      -289.6263      -359.2665      -364.3032      -289.1765      -399.8051
      -393.6248      -394.6681      -402.5630      -305.0051      -358.7422
      -394.5868      -413.7761      -436.9109      -266.3842      -278.2195
      -339.1420      -285.5759      -350.5333      -265.8541      -294.9668
      -370.3918      -329.9390      -362.5334      -233.4297      -172.8773
      -220.8323      -240.0309      -238.3095      -227.1923      -220.8142
      -292.2668      -216.3088      -113.3864      -186.0172      -188.8265
      -65.91638      -100.6049      -201.9916      -167.3503      -192.5547
      -81.69127      -14.33746      -22.53566       16.43008      -60.36002
      -38.51244       2.937912      -59.51175      -10.94301       75.12677
      -47.05513      -63.06828       61.35846       77.81158       82.38138
       140.4468       63.46686       16.87009       106.8254       50.81915
       216.9591       241.1771      -3.586853       162.6021       231.6039
       85.67490       101.4581       174.8820       183.9983       179.7780
       179.6151       185.9250       204.5383       223.0392       90.56445
       85.59277       199.5965       132.2158       163.3350       223.6310
       354.2565       282.5035       113.0380       213.0692       262.9913
       239.1721       134.7745       216.0834       258.5112       187.7451
       250.6861       164.6852       158.8222       309.3816       296.0327
       216.4974       195.3798       212.1339       197.5828       151.5834
       325.4540       290.0965       17.08893       126.8911       190.2252
       142.3732       229.2183       223.4365       195.7650       175.0287
       209.4136       388.0353       500.4429       681.4531       777.3864
       608.5991       525.2039       473.1654       369.0471       289.2703
       47.67599      -118.3377       32.38556       157.4999       242.6366
       297.4711       252.3103       65.68665      -475.5791      -828.0983
      -710.9294      -255.5814       301.1384       642.7019       738.7858
       686.5925       651.7112       628.5632       369.4363      -6.775696
      -48.97278      -218.3712      -358.5706       129.8352       625.8665
       1089.812       753.5842       67.56384       11.13855       205.1513
       219.7716      -20.31299       244.2222       173.1798      -31.03748
       324.7043       792.2512       919.1998       700.9131       415.5374
      -445.3015      -376.5228       43.72711       77.62158       826.9901
       714.5370      -35.81549       129.5061       676.6130       198.7757
      -176.5880       256.1107       33.91687       120.1370       462.7883
       594.7241       953.4421       852.3513       154.4302      -643.9388
      -716.2843       565.1829       880.9754       164.8181       359.9041
       106.3003       212.9581       567.3546       80.65804       91.13617
      -16.52832      -782.0096      -816.7471      -337.2517      -721.5284
      -755.7686       173.2266       905.5955       972.3939       106.1362
      -439.0648      -145.0859      -89.75305      -417.4292      -626.5546
      -358.9352      -70.97055      -186.2288       99.53186       392.8427
      -83.35809       89.80411       176.5730      0.5206299       70.10410
      -253.4515       134.4926       369.2317       75.57068      -188.0211
      -698.4365      -374.0407       284.0804       428.7908       265.1064
      -3.739418       30.99438      -23.74976      -246.8281      -623.7295
      -1083.172      -466.9198      -39.20245      -356.0516      -220.3563
      -579.5256      -454.9501      -265.9385      -525.3032       43.56903
       280.0212       222.2593       393.2822       198.1438      -570.9762
      -711.2379      -169.6188      -73.03304      -13.07568       34.58069
      -527.3843      -457.7287       172.7939      -152.5107      -487.9203
      -507.4072      -875.6106      -879.7561      -378.8066      -294.5106
      -240.2068      -189.2662      -299.3805      -114.5368       105.5546
      -226.0857      -572.6499      -338.7739      -523.1754      -459.8790
       160.2110       121.8707      -337.5432      -902.8481      -923.4702
      -519.5746      -163.3148       53.88684      -46.83795      -211.1354
      -237.3459      -120.2532      -278.9375      -962.9226      -1024.696
      -263.6871       65.93250      -118.0671      -449.6620      -229.2469
       47.72485      -189.8422      -36.66731       97.15967      -21.25988
      -107.1146       119.9813      -113.5624      -530.3542      -464.2993
      -933.9678      -744.6411      -49.66864      -2.201416      -533.7498
      -895.5081      -499.8987      -291.3901       53.12415       157.1127
      -114.9319      -248.2120      -361.5314      -270.2078      -392.3160
      -569.5549      -409.4799      -143.8931       323.5189       248.5869
      -237.0981      -109.3898       100.4295      -13.76660      -791.8586
      -1012.924      -249.8356       171.7314       279.3881      -72.90051
      -554.0100      -341.7556       258.2842       407.2284       178.1562
      -369.5269      -885.0724      -419.7731       231.6837       24.48875
      -39.80122      -22.64555      -81.36745       35.19562      -170.2257
      -176.2451      -145.6728      -421.4677      -101.8434       293.0602
       148.1355       121.4858       33.29099      -103.1961       73.18201
      -126.0436       104.6318       450.8788      -308.6067      -276.8281
      -18.72546      -319.2398      -129.5616       77.30884       362.0654
       315.2355       360.8048       168.9315      -177.7889      -17.88623
       212.3359       629.2463       856.6248       592.3394      -74.75488
      -389.6017       1.999756       471.3494       543.3262       483.5095
       305.0416       122.1562       250.2335       302.9810      -1.919678
       22.01624       631.2027       394.7689      -132.9042       120.8284
       332.6560       263.3459       371.7947       589.7554       684.4778
       665.6166       636.7046       578.1880       261.9812       157.2451
       570.1238       589.2209       383.0569       459.2144       366.0793
       438.1007       528.7379       235.8904       370.6327       545.0298
       449.2225       517.6829       393.5629       414.8613       503.4946
       537.0554       761.7395       800.3726       735.9375       549.5117
       669.9221       744.0316       415.8044       505.3727       203.7552
      -112.2177       262.4093       292.5613       361.2910       496.6689
       546.1227       624.8301       801.5215       784.0649       464.4463
       376.2600       497.8302       448.2197       317.5940       651.3276
       668.9213       428.9790       468.5517       223.0093      -70.91602
       196.9888       645.1987       511.9679       480.8209       399.4041
      -118.0194       111.9097       357.1343       176.2007       463.4087
       542.2068       347.7706       61.37634      -197.1002       54.28455
       382.4496       401.7703       208.0247      -77.93029      -46.27435
       207.9436       92.51248      -220.7502      -20.25024       33.54703
      -181.2641      -63.28281      -159.9308      -157.0445       105.5027
      -16.65630      -96.78073       237.2262      -185.4546      -442.0936
       179.2851       112.8002      -117.7904       144.6080       8.604858
      -436.2017      -392.8518      -174.1141      -97.82584       81.40544
       132.4711      -144.8010      -291.5798      -337.5748      -177.5302
      -137.0114      -251.5229      -277.5709      -150.4243      -133.7053
      -462.7107      -559.1198      -601.3743      -425.1010      -227.3083
      -293.6173      -380.9778      -584.2358      -603.6106      -634.5065
