     0.02500000      -1005.958       707.3381      -12345.00      -12345.00
      -29.99504       225.0049      -26.67000      -12345.00      -12345.00
       0.000000       19.87000      -12345.00      -12345.00      -12345.00
      -12345.00      -12345.00      -12345.00      -12345.00      -12345.00
      -12345.00      -12345.00      -12345.00      -12345.00      -12345.00
      -12345.00      -12345.00      -12345.00      -12345.00      -12345.00
      -12345.00      -31.89650      -69.69230       1971.000       0.000000
      -31.37200      -68.11800       0.000000       97800.00       0.000000
      -12345.00      -12345.00      -12345.00      -12345.00      -12345.00
      -12345.00      -12345.00      -12345.00      -12345.00      -12345.00
       160.2704       248.3144       69.13612       1.441048      -12345.00
      -12345.00    -0.03969980       0.000000       0.000000      -12345.00
      -12345.00      -12345.00      -12345.00      -12345.00      -12345.00
      -12345.00      -12345.00      -12345.00      -12345.00      -12345.00
      2008       244         6        45        32
        70         6    -12345    -12345     10201
    -12345    -12345    -12345    -12345    -12345
         1         7        13    -12345    -12345
    -12345    -12345    -12345    -12345    -12345
    -12345    -12345    -12345    -12345    -12345
    -12345    -12345    -12345    -12345    -12345
         1         1         1         1         1
PATO    -12345          
        -12345  -12345  
-12345  -12345  -12345  
-12345  -12345  -12345  
-12345  -12345  -12345  
-12345  -12345  -12345  
-12345  -12345  BHZ     
ZL      -12345  -12345  
[...]
      -255.8457      -245.4464      -244.6338      -252.5189      -246.4214
      -242.9740      -244.4553      -251.3174      -246.9879      -244.8906
      -248.3895      -248.0254      -249.9477      -257.1901      -248.1113
      -248.5815      -253.8154      -254.7311      -251.9270      -249.7937
      -247.9261      -239.9271      -239.1618      -243.9060      -239.0439
      -233.2166      -225.3421      -226.6885      -222.2411      -215.3719
      -206.2984      -180.8199      -145.3651      -109.7287      -101.2914
      -133.1614      -164.8869      -227.5466      -283.7546      -216.6278
      -106.2897       2.427338       4.274780      -237.4125      -240.6801
      -213.9932      -122.4088       200.6368       108.8688       5.852966
      -59.96790      -169.8413      -10.41934       111.6590       109.7493
       25.79415       46.86134       27.57014       1.580994       141.9437
       127.1636       115.7362       123.9223       61.99370       46.22452
       145.6527       28.77497      -98.66293       86.66626       110.0944
       227.2031       250.3765       192.0045       187.9018       50.89441
       116.2942       242.2091       98.64355       57.48596       213.9900
       196.6850       131.0799       115.4718       130.4749       98.72650
       166.9186       308.3633       227.1030       206.2528       200.7681
       142.8502       190.7097       280.7939       240.6699       268.1887
       210.4503       125.7130       161.3899       126.4288       367.3609
       298.9802       81.92627       255.0751       235.7034       213.3331
       260.0681       278.7186       294.5492       225.5120       250.2841
       232.9015       199.4780       241.9931       200.9927       229.3751
       267.4657       304.3976       327.5654       448.1600       294.1503
       158.6097       194.1505       139.2313       304.2731       252.7677
       291.5838       367.7408       254.8802       289.4905       267.0256
       237.5362       207.5081       85.87378       116.6985       321.1653
       302.2167       244.9310       131.7443       86.41425       162.5593
       187.6489       254.5504       163.2434       135.0751       166.7366
       135.1496       185.8276       106.1523       89.84528       86.08035
      -51.12418       45.64809       64.21104       7.536423       38.29724
      -46.16925      -42.18567      -1.576600       8.998077      -9.321838
      -151.3720      -207.8146      -105.3005       20.32333       72.86545
      -56.62415      -239.2621      -212.7974      -64.04175      -85.48334
      -155.0122      -195.6360      -166.4102      -118.2617      -117.1005
      -253.4918      -299.3766      -43.05994      -101.6722      -187.3859
      -154.5177      -173.3792      -140.0969      -210.8915      -255.1389
      -215.5571      -146.8052      -110.7234      -123.6797      -142.3097
      -206.7365      -146.8723      -124.0914      -137.8851      -176.6198
      -359.6447      -220.6511      -68.03040      -105.1075      -64.10730
      -133.2654      -213.1709      -220.1313      -132.6488      -46.92847
      -151.0927      -213.9324      -183.0493      -245.5565      -162.3805
      -85.06567      -164.0016      -134.3695      -148.1736      -172.2122
      -79.22992      -138.1842      -125.3434      -134.7130      -159.5351
      -13.40263      -54.13425      -129.6454      -178.5173      -150.7280
      -23.34670       17.48096      -94.97556      -138.7222      -76.95565
      -11.44866       50.75840      -48.72179       44.02201       30.98956
       5.418930       93.88232       29.09160       93.72122       12.84982
      -17.44980       87.31573       108.0533       76.02551       93.23364
       142.2917       95.84082       169.2406       127.6621       106.7963
       108.8423       88.95920       151.3495       133.4471       271.4460
       231.4572       121.2216       140.2394       153.1694       273.8005
       213.0305       79.26318       158.2220       281.1569       308.2673
       92.75104       92.34918       160.0391       188.4595       269.1332
       178.3356       255.0527       225.9924       133.0114       186.0983
       202.0442       135.4499       24.22583       143.8303       196.7134
       147.7537       163.0131       197.4109       205.2728       121.6636
       78.41046       160.1320       189.5643       229.5417       245.5347
       110.0629       106.7182       164.1906       202.4227       232.0559
       223.7659       172.2631       46.94048      -12.28076       12.89134
       12.47006       116.7903       222.0656       223.1861       156.4543
       123.6709       108.4759       51.19400       120.5119       56.96198
      -10.78526       86.89458       79.40515       95.44769       105.2767
       107.6233       18.41767      -72.92319       60.73694       92.83801
       96.30745      -2.076981      -109.2183      -24.69910      -158.5417
      -238.6231      -205.7175      -98.12988      -81.36462      -240.5332
      -108.6434      -69.43683      -180.0942      -211.7367      -281.9696
      -263.1412      -277.8226      -288.2586      -227.3832      -361.4413
      -573.0544      -435.5204      -288.3044      -322.6645      -285.7218
      -388.9108      -495.7878      -430.8007      -335.5599      -374.0046
      -429.5215      -357.5778      -452.9747      -470.5253      -354.5247
      -414.8296      -419.8591      -314.3301      -379.9700      -461.4111
      -358.9581      -335.1695      -313.2944      -392.8298      -488.6078
      -431.1210      -375.0214      -225.9572      -230.2005      -318.2841
      -286.8389      -371.3972      -251.0568      -131.2710      -233.1171
      -261.5525      -413.6245      -307.9211      -129.7325      -152.6125
      -198.6550      -186.9125      -223.1662      -187.0757      -102.1345
      -182.6020      -106.4804      -118.8387      -90.72934      -98.46417
      -201.7813      -93.75427      -98.24548      -146.3723      -170.3307
      -119.0497       6.407913      -59.41003      -11.50256       34.47192
      -79.38586      -3.845978       95.38221       10.45305       10.77521
       145.8980       50.84326      -29.64598       40.92468       41.74927
       173.5016       205.7634       43.34265       95.02084       81.13632
       63.09943       247.4010       231.3189       207.3036       103.4753
      -21.02271       152.4471       245.1035       177.3327      -19.46133
       11.45142       165.9850       82.93536       110.2788       213.4868
       250.4661       219.5144       59.49619       157.8079       166.4622
       104.6096       191.5182       178.2360       100.3217       76.56421
       93.54803       129.6608       240.7953       201.3158       145.1383
       109.1606       92.86163       290.3042       212.5490       119.8795
       252.7521       127.7875       147.0089       231.1370       189.6416
       195.4055       96.28210       171.5031       188.8751       231.2380
       290.8768       228.1224       176.3493       29.50909       21.90515
       154.7102       211.9795       295.1363       279.8377       101.0470
       67.92505       206.4698       265.4798       265.3180       172.7864
       37.80353       181.8331       226.2958       119.7408       255.2269
       286.7630       156.0536       256.8226       241.5793       128.0593
       194.5927       266.4598       347.2142       336.2105       295.2379
       171.7571       126.6530       236.6168       367.5161       405.3687
       294.3992       248.3240       315.3923       396.9610       299.8481
       140.9229       253.1930       307.4390       211.4379       305.9855
       352.3058       306.6460       305.0492       300.6616       261.0457
       243.2496       354.1415       291.5831       257.4387       334.0496
       242.7757       266.9730       253.3498       211.4449       293.5490
       336.8909       338.7009       151.9567       192.1844       385.6370
       360.4397       310.6016       196.3939       137.0189       151.9178
       281.9111       331.3391       248.1264       257.0528       197.7296
       184.7379       113.5190       97.64307       281.2250       242.2670
       192.8938       177.0849       58.70639       119.3820       195.7892
       135.9647       85.92697       14.41974       42.33170       80.75033
      -4.568344       16.74979       83.97015       100.5246       41.91330
      -31.37134      -68.90279      -116.6110      -7.355892       22.35847
      -101.0814      -54.00098       3.526733      -70.35950      -137.3769
      -205.9800      -173.2551      -57.84021      -153.8834      -211.3936
      -198.7845      -145.7416      -131.9673      -164.3451      -144.0591
      -295.1167      -324.1851      -288.9750      -203.8784      -115.1722
      -212.9630      -205.5255      -250.2823      -386.7688      -314.2130
      -243.2422      -279.5805      -260.2463      -246.1376      -237.9762
      -306.3048      -303.3541      -262.3169      -442.9948      -494.2064
      -330.8035      -264.5283      -404.7916      -402.9741      -407.9781
      -408.4010      -455.9883      -507.5720      -394.4712      -357.5278
      -433.5916      -592.2551      -449.4109      -448.9871      -547.0649
      -434.0012      -471.6836      -505.9536      -531.8661      -518.4049
      -571.3638      -674.3933      -569.6899      -481.3193      -443.6809
      -494.3384      -666.7672      -633.3022      -497.6201      -410.9735
      -534.8995      -613.6735      -545.5334      -569.2552      -541.2568
      -486.5732      -538.4354      -534.3566      -501.2904      -470.1533
      -502.2679      -581.6631      -493.6182      -377.9956      -390.7979
      -493.3790      -492.6945      -384.8396      -371.1958      -466.0385
      -407.2875      -282.7766      -418.0745      -377.6438      -325.2644
      -282.4844      -332.9577      -354.6215      -142.7615      -130.3428
      -149.4542      -191.7422      -272.8461      -202.1503      -206.9969
      -120.6499      -44.98843      -170.7448      -158.2729      -108.8355
      -76.25693       11.40727      -63.49765      -122.4864      -38.30060
      -45.39337      -147.6912      -115.3503      -4.346069       114.6003
       154.0142       188.2035       205.4195       104.3599       77.88147
       182.6365       261.4302       318.2467       321.4394       184.8116
      -3.144943       9.257690       112.2278       185.7288       219.1881
       111.0560       66.68021       147.1411       210.3008       329.1224
       336.3179       319.7422       337.6942       264.7631       282.6052
       445.2543       479.3606       383.8973       335.5074       252.2279
       247.9130       282.7880       276.0223       316.9769       265.4963
       230.1887       226.6876       257.0440       270.9803       256.0765
       319.0735       404.0375       462.8557       411.2607       365.1460
       414.0565       366.0071       318.9784       352.6401       334.5341
       365.4164       372.0002       344.0200       392.0924       328.6892
       261.6759       330.5054       425.9249       411.6147       308.5959
       322.2891       397.4022       478.8823       506.8505       393.0249
       358.1188       284.7992       220.2761       371.1078       411.2125
       458.1145       366.5298       173.6085       251.0933       362.3440
       520.9719       499.6226       343.6415       322.4045       396.5480
       365.6567       263.5278       361.8311       372.5110       337.8907
       404.9938       424.2834       279.1377       260.0410       428.3232
       476.4882       422.9868       320.6931       338.3899       392.1809
       411.9788       410.8925       353.6412       312.9557       320.3994
       355.9158       437.4683       417.8587       239.8586       171.3588
       240.1737       283.2472       199.9717       285.6826       364.7094
       325.2610       288.1882       224.3607       283.8101       345.1223
       367.0692       383.0396       325.9037       179.9620       167.2377
       205.2051       161.3292       282.5369       365.6525       256.5251
       104.4145      -34.49106       65.77148       208.6578       210.6445
       175.2114       38.39226       28.59293       141.3286       97.90466
      -41.06273       14.37381       12.46326      -114.1576      -67.71465
       16.40674       52.09979       56.13333       55.49634      -35.95203
      -159.0091      -226.1193      -206.6873      -113.9362       16.94618
       64.65543      -88.39600      -321.0349      -403.9060      -326.5842
      -278.3049      -215.9072      -249.5978      -430.1965      -595.9771
      -682.4062      -662.8384      -630.2921      -580.3875      -536.3278
      -406.3589      -249.0760      -359.5625      -749.4307      -1005.958
      -596.5150      -160.3936      -33.64739      -10.72940      -84.78595
      -96.47827      -416.9570      -444.0656      -229.9939      -406.9695
      -532.5063      -599.0453      -616.8423      -620.6333      -391.0236
      -264.7076      -526.6929      -631.0310      -601.1825      -627.8523
      -628.7163      -522.6440      -464.6631      -601.7295      -701.6293
      -387.1829      -314.4573      -383.1284      -358.7903      -555.4478
      -421.7142      -311.2309      -267.5699      -229.2003      -457.7896
      -473.6346      -171.2933       14.41455      -305.5330      -549.2531
      -215.6601       244.5461       226.5259      -181.9799      -506.7947
      -433.1980      -251.6776      -229.9285      -453.8896      -747.9491
      -482.4016       264.3750       670.9769       429.0833       43.11401
      -234.6291       2.793854       298.4449      -103.5575      -505.1602
      -24.24112       267.7329      -354.3462      -567.1716      -671.5217
      -627.8815      -193.2945      -84.59924       96.51953      -34.57251
      -496.2277      -404.4043       98.79395       522.5671       280.3186
      -105.7150       199.0380       267.5155       189.9923       275.1476
       140.7822      -49.83661      -165.7496      -231.2705      -382.7830
      -152.1782       231.1569       86.83752      -46.82513       47.77045
       93.27722       177.8127       415.9988       583.6099       347.3664
       101.7726       199.3403       210.1248      -102.3423      -459.1599
      -400.2727       134.2183       580.8331       658.9854       294.3106
      -52.14520       82.92236       221.7141       222.0723       167.0150
       190.0309       355.9008       224.4660       43.99284       37.62292
      -170.8386      -387.8733      -455.3112      -252.4673       195.8937
       320.7896      -38.41614      -344.7605      -438.1692      -408.3561
      -334.9080      -136.8497       237.0645       168.5701       234.0822
       604.0444       131.6723      -242.6792       185.6246       223.4229
      -75.05737       4.726044      -30.34789      -108.6785      -30.43011
       66.85516       241.3438       150.2580      -44.12503      -89.16101
      -114.8163      -243.4708      -79.80191       46.62860       65.50563
       108.2605      -341.1781      -551.3254      -276.1298       4.034729
       162.1348       185.3088      -4.264160       56.20898       311.1534
       261.4005       171.2624      -103.5184      -160.7046      -48.18030
      -145.5042       36.31227       121.3299       8.175125       55.31054
       19.02391       45.27045       145.4236       125.5764       168.3766
       148.9335       310.9425       378.5256       190.6943       179.9144
       121.6464       231.8893       271.6663      -58.28027      -40.11865
       258.9595       459.4313       583.7103       389.7469       192.1728
       184.4647       221.4451       284.5475       62.34659      -134.7223
      -31.87012       288.4822       462.5455       358.0143       248.4492
       169.4512       439.0505       481.5500       286.0018       274.1041
       85.94934       40.73480       199.7632       403.8136       520.7227
       350.0407       239.9317       171.6074      -17.75758       5.078522
       110.8423       71.74194       201.4434       319.0901       343.3884
       487.4853       424.1251      -80.87225      -390.9370       74.83374
       555.5697       471.1050       244.8506       15.12182      -33.82030
      -31.32150       3.623169       286.7225       298.4384       51.01691
       251.9167       315.4414       131.2883      -6.077484      -185.6481
       35.11359       325.0559       95.03717      -170.2582      -9.169189
       137.3813       165.7240       97.91486      -114.8241      -38.45341
       122.9994       1.074402      -139.0119       136.7129       215.4197
       84.44739       141.0347      -217.4146      -314.0103       88.15656
       266.5998       231.1695       91.85950       240.1494       420.1226
       152.7182       21.34528       3.665710      -109.9438      -126.6773
      -9.121021       25.78793      -83.89275       4.101990      -146.0753
      -146.6773      -65.17285      -364.1455      -246.1940      -46.24353
      -224.6424      -284.8643       12.69360       350.3195       384.7906
       67.09585      -81.01657       73.57959      -134.9306      -207.5738
       36.76131      -34.63001      -5.471130      -72.29184      -200.6193
       94.71420       175.3059       92.37902      -2.012726      -108.8723
       21.31079       199.7020       322.3607       236.0145       119.9230
       235.8801       115.7134       120.2190       474.2596       430.6086
       280.3076       278.8293       215.9982       175.0760       35.56824
       118.2001       282.0651       171.2676       200.7911       134.0844
      -77.69833       97.22223       191.5600       248.4788       385.5927
       339.4503       277.1113      -9.019958      -257.5237      -218.6553
      -210.0143      -101.3540       85.77655      -5.922424      -154.9116
      -219.3220      -205.1383      -68.87984       34.61294       47.08618
      -46.44348      -243.9650      -385.5281      -217.1017      -162.2633
      -321.8633      -232.2225      -192.6230      -299.4153      -342.9404
      -376.7852      -451.9178      -486.0103      -209.5753      -116.2529
      -419.0197      -420.0092      -202.1190      -279.7928      -327.8837
