     0.02500000      -1660.063       1244.486      -12345.00      -12345.00
      -29.99502       228.5049      -30.47000      -12345.00      -12345.00
       0.000000       22.77000      -12345.00      -12345.00      -12345.00
      -12345.00      -12345.00      -12345.00      -12345.00      -12345.00
      -12345.00      -12345.00      -12345.00      -12345.00      -12345.00
      -12345.00      -12345.00      -12345.00      -12345.00      -12345.00
      -12345.00      -31.89930      -70.02770       3885.000       0.000000
      -31.37200      -68.11800       0.000000       97800.00       0.000000
      -12345.00      -12345.00      -12345.00      -12345.00      -12345.00
      -12345.00      -12345.00      -12345.00      -12345.00      -12345.00
       190.3622       251.6168       72.61362       1.711615      -12345.00
      -12345.00     0.02354200       0.000000       0.000000      -12345.00
      -12345.00      -12345.00      -12345.00      -12345.00      -12345.00
      -12345.00      -12345.00      -12345.00      -12345.00      -12345.00
      2008       244         6        45        35
       870         6    -12345    -12345     10341
    -12345    -12345    -12345    -12345    -12345
         1         7        13    -12345    -12345
    -12345    -12345    -12345    -12345    -12345
    -12345    -12345    -12345    -12345    -12345
    -12345    -12345    -12345    -12345    -12345
         1         1         1         1         1
REGU    -12345          
        -12345  -12345  
-12345  -12345  -12345  
-12345  -12345  -12345  
-12345  -12345  -12345  
-12345  -12345  -12345  
-12345  -12345  BHZ     
ZL      -12345  -12345  
[...]
      -243.5498      -375.7268      -301.0947      -193.7383      -265.7084
      -351.2747      -313.7999      -273.6799      -189.4143      -185.0001
      -344.5801      -307.5162      -119.2557      -142.9650      -331.5110
      -354.6839      -138.3326      -32.46872      -84.24957      -95.24744
      -198.1624      -236.5779      -122.3497      -54.29138      -106.6021
      -209.9112      -141.7442       24.40419      -29.97485      -60.26303
       64.22073       35.91425      -45.91847       2.343132       39.49902
       38.34847       13.76821       4.357391       46.74719       101.5761
       157.9268       169.4082       189.4062       153.7561       17.07489
       48.69617       207.0446       257.6630       143.3535       131.2708
       124.1472       63.43256       199.9983       212.3876       126.2588
       256.8634       222.2364       170.2924       329.9811       277.4791
       76.45676       92.44580       183.8003       178.8833       132.3029
       194.7151       221.8665       217.7604       257.4709       177.1546
       93.23418       41.18883       3.841553       222.0304       287.8291
       86.49200       78.12625       112.4840       124.9664       188.2414
       82.96236      -36.23166       23.42664       53.99840       32.39551
       74.19641       110.2299       133.9445       109.1281      -33.20988
      -115.0219      -7.858582       116.0488       103.8137       19.11800
       35.67954       30.54309      -19.61287      -49.22104      -134.4277
      -113.4715      -35.78969      -24.93573       16.15615       5.407654
      -61.52573      -100.2531      -134.5015      -98.12964      -91.11133
      -172.5695      -208.2779      -149.3906      -149.6882      -168.0441
      -92.60754      -173.3558      -250.8304      -124.6295      -124.8107
      -298.4437      -347.8588      -234.2060      -136.7043      -139.8719
      -276.8397      -434.7881      -396.6470      -220.8032      -106.0676
      -140.8483      -321.3004      -442.9333      -409.0852      -369.7091
      -329.3347      -249.2859      -204.7358      -226.1143      -250.1927
      -340.9718      -392.7211      -312.9353      -300.4857      -330.3677
      -283.0076      -310.9803      -445.4121      -430.1634      -289.4341
      -218.1808      -276.6754      -327.3929      -408.7163      -517.4893
      -445.3210      -292.3049      -380.0227      -442.5085      -405.5330
      -459.3184      -389.3777      -321.3723      -356.3528      -320.8392
      -400.2258      -478.8404      -286.1872      -201.1812      -332.4216
      -434.9352      -456.1183      -386.6239      -262.6714      -264.7131
      -393.7101      -350.8149      -286.6749      -242.2208      -73.89236
      -71.19849      -291.0931      -323.8185      -184.4570      -124.2409
      -85.83450      -116.9633      -125.2851      -20.56139       24.88525
       30.01260       26.15086       11.91718       22.17615       59.58478
       139.5442       213.4795       162.4936       91.75122       182.2908
       229.6058       268.3440       238.0537       48.68695       118.8805
       343.1123       420.6723       367.9317       228.3187       157.5403
       263.2878       366.6423       412.0724       417.6190       309.4017
       287.7136       385.1399       349.6199       337.3097       357.5415
       317.9021       376.7253       443.4868       317.7687       294.4309
       429.3688       413.2743       339.2524       375.6152       367.5219
       381.1823       493.5448       425.5010       293.8579       267.8116
       216.2382       350.6166       543.2531       456.7262       346.1406
       486.1292       552.4602       479.7695       414.8306       362.4741
       348.3499       341.3575       414.0829       545.2715       616.0305
       457.4230       352.6165       425.8931       392.9390       420.4462
       444.5851       404.6885       399.2180       438.6902       507.2670
       441.9956       346.1594       334.9890       327.8914       282.5033
       275.1519       386.4269       477.5762       337.0481       252.1517
       315.2666       318.4008       327.7511       277.3206       154.5987
       198.1691       290.5428       290.1539       268.1964       150.8484
       160.6487       251.8941       230.8165       139.3159       32.94193
       84.86639       143.0742       107.2641       101.8577       119.3848
       123.6008       100.1895       85.74295       62.62009      -27.06546
       54.70416       178.8773       43.74747      -84.29440      -62.02835
      -50.55941      -13.24691       24.41761      -18.28336      -41.23637
      -56.29038      -29.14159      -4.408531      -5.111923      -36.31781
      -127.8241      -141.9806      -111.7260       22.51349       156.1878
       25.94202      -219.6998      -196.0724      -114.6779      -175.2897
      -139.6541      -69.64581      -105.5016      -188.9196      -151.5960
       55.08740      -41.18677      -312.9417      -262.6323      -207.3735
      -303.3517      -227.9915      -54.89218      -36.85547      -174.4999
      -266.5624      -246.6644      -238.5627      -258.3484      -267.8916
      -312.9120      -253.6794      -189.6966      -170.4719      -279.3475
      -398.8162      -329.3811      -304.1711      -285.5161      -257.5179
      -300.5948      -311.8145      -425.6139      -481.0461      -362.4472
      -305.9324      -388.7671      -425.3695      -274.2516      -308.6155
      -540.0310      -518.1571      -378.0585      -281.8801      -246.9498
      -375.3875      -484.4266      -457.3472      -406.6190      -321.8124
      -308.9607      -291.3681      -247.5714      -297.1890      -329.8503
      -293.5174      -305.8879      -352.2365      -250.5315      -100.7523
      -98.04053      -187.0691      -337.7768      -347.4886      -315.0962
      -362.5341      -277.7542      -96.73718      -128.7721      -257.4665
      -232.9761      -193.5851      -169.8306      -22.94580      -42.46844
      -121.3237      -157.4279      -230.0995      -172.8914      -116.9652
      -92.38402       14.31332      -18.41464      -81.15063      -146.1639
      -272.8870      -211.8273      -39.30608       19.08191      -20.62976
      -113.7295      -81.01511      -49.96979      -142.2844      -171.7216
      -76.94677       28.47249       19.64917      -134.2240      -247.2194
      -149.8561       20.37024       91.31635       78.20158      -49.58167
      -102.9277      -39.47984      -40.32645      -19.33328       73.89331
       115.4531       30.01691      -37.62810      0.3929749       6.538025
       163.8002       101.7549      -197.8873      -132.3464       183.1841
       228.2043       54.34009      -44.65318      -10.07138       32.42517
       170.2344       266.3252       125.5371      -27.81494      -28.24360
      -13.14996      -8.313660       79.93018       241.4770       257.9999
       87.11414      -16.12961       60.95270       47.24896       66.26038
       214.9225       188.4953       86.89252       142.8967       104.7863
      -2.181320      -37.03731       9.251465       187.6237       286.9153
       101.3154      -29.43903       51.69354       62.89890       4.129883
       82.45563       154.4485       156.1672       134.1714       110.3202
      -7.861244      -25.91443       144.4026       261.5431       184.7674
       21.80551      -84.34091       39.64398       317.8237       377.7767
       96.79065       19.17963       166.2549       212.4851       274.3831
       331.1268       269.3949       277.7257       270.3364       122.3514
      -18.78795      -8.175476       87.18677       238.1035       341.4313
       386.9898       286.7935       119.9320       90.33044       209.5914
       363.5645       405.7609       220.4380       116.9714       191.3608
       230.9604       320.7034       372.4540       208.5100       68.42267
       122.9138       217.2583       234.6621       259.0825       268.5311
       270.7498       359.9208       401.2924       224.2736       110.3561
       97.08063       136.8353       204.6644       213.4425       168.8376
       139.4688       146.3760       220.8343       138.2704       83.65729
       221.7762       301.1318       350.3445       274.9653      -1.038055
      -80.48492       49.54694       174.8307       236.6362       189.1101
       63.45041       34.61043       34.05032       40.94489       69.42096
       122.0565       141.1913       139.3490       136.8824       124.8845
       23.82681      -85.64305      -75.01740       51.21118       174.8971
       227.1802       210.4717       124.0145       56.75995       45.35748
       54.46300       81.24481       52.94830       47.13712       84.91428
       30.42946      -75.19781      -63.68270      -12.55443      -46.05415
      -71.31433       22.87033       90.42166       16.08163      -109.6569
      -30.00299       90.37690       20.55536      -64.55457      -100.8458
      -178.2311      -155.8503      -39.78417      -40.53888      -44.88776
      -64.75943      -167.5031      -65.16113       7.417603      -121.7320
      -127.4761      -129.6454      -252.7520      -201.6694      -92.56918
      -133.9359      -97.95804      -67.46075      -188.7775      -264.1111
      -255.1410      -177.1174      -110.9303      -114.0494      -14.11418
       76.17735       9.139793       1.178467      -89.18152      -262.6295
      -229.4329      -13.81395       4.586761      -144.5299      -179.9827
      -144.1664       2.651115       102.2680      -97.91443      -273.3829
      -166.7507      -48.12872      -101.2874      -215.3572      -194.5611
      -8.670380       131.4139       15.90869      -339.4729      -496.7040
      -359.1202      -161.3992       51.37772       106.0015      -70.01691
      -135.4762      -76.21210      -55.90125      -37.68359      -108.8934
      -154.3134      -146.4274      -197.2931      -229.7245      -247.5451
      -183.1833       15.67229       86.58734      -73.71692      -195.8335
      -187.6136      -170.5055      -104.9423      -111.3630      -137.9122
      -78.09686      -99.05786      -300.9812      -575.4353      -698.4192
      -680.6519      -526.6114      -147.4265       164.0807       139.8223
      -29.60516      -118.1468      -68.13123      -97.41846      -256.3349
      -208.2043      -104.2419      -127.2361       64.82935       352.9523
       406.3695       346.8521       267.3478       154.3795      -202.6287
      -621.5137      -815.0068      -819.1786      -220.2825       640.2466
       773.3980       283.5291      -280.7556      -428.5656      -119.4435
       74.52039      -14.33228      -394.9652      -660.2365      -354.8796
       107.9577       338.3921       219.8391      -232.7380      -493.5187
      -188.1725       247.0790       329.2376      -98.16675      -736.3723
      -1018.074      -780.7017      -33.35815       541.1752       291.4012
       6.013306      -35.71408      -82.05750       176.2102       315.2693
      -26.15991      -496.3793      -673.0480      -91.12354       698.9856
       836.4868       691.9696       488.8599      -173.3224      -654.3101
      -376.4739       402.7412       921.8311       413.5509      -105.1424
       141.8752       393.7065       636.7916       714.8478       164.1104
      -430.9055      -291.1097       205.5642       433.5317       570.4536
       831.5857       907.0190       632.0506       156.0624      -194.0778
       17.00427       563.0507       678.4478       319.5408       300.9714
       841.9626       985.6729       459.6601       41.06153       68.09879
      -77.52161      -116.8281       505.4819       965.4380       1120.848
       1140.715       640.9258       285.0826       234.9680      -120.7611
      -246.0699      -9.132324       314.9849       911.7820       868.3853
       405.4175       588.2903       760.1957       534.5774       194.1030
      -466.7100      -380.6348       558.0005       1053.502       788.5787
      -130.0491      -407.7076       56.31384      -185.4467      -484.5174
      -303.1644      -178.0632       175.0648       393.8292       15.85803
      -194.2733      -363.5657      -546.0612      -295.6967      -105.0790
      -556.7810      -890.5266      -276.3339       341.1041       31.86987
      -493.7804      -654.3809      -452.7000      -261.1628      -333.1178
      -123.4945       101.9895      -378.2891      -1000.243      -1107.505
      -865.8998      -672.5515      -580.3740      -584.2244      -634.5767
      -583.0063      -260.3059      -32.89648      -324.4346      -605.3098
      -679.0979      -1086.289      -1091.146      -638.5200      -586.8413
      -636.1061      -538.5844      -311.6919       10.31250      -133.7925
      -751.0771      -1367.228      -1660.063      -1332.663      -691.2003
      -293.8271      -260.5344      -387.0973      -461.9324      -661.7241
      -1019.408      -1276.848      -961.3059      -332.2863      -195.3198
      -342.4166      -301.9521      -229.1628      -399.5139      -664.7471
      -686.6650      -665.5396      -700.2793      -716.8750      -802.9170
      -498.1229       256.4415       439.6216      -223.3340      -968.9573
      -1012.619      -322.7639       371.1536       484.1910       21.24707
      -586.0842      -819.3965      -501.7555      -187.0397      -331.7828
      -394.5909      -37.38220       364.0679       339.4194      -154.9650
      -366.2744      -127.1128      -335.6740      -656.6237      -195.6956
       388.1973       536.9409       450.0372       200.2812       74.05159
       5.283264      -143.5737       122.3726       604.7961       347.1086
      -278.2033      -131.2568       620.4863       967.5651       672.2135
       218.5684       49.18811       386.2866       838.7517       735.9214
       397.5094       446.8954       534.7771       487.0450       475.1498
       267.2225       168.9749       305.7512       513.0063       874.9365
       1053.110       905.5002       481.6843       148.1045       398.4648
       707.7163       846.5356       1096.532       1215.517       1186.749
       1078.175       797.8070       394.5077       67.41504       338.7832
       1023.262       1244.486       1155.961       1146.381       866.6680
       462.7275       460.3004       619.2787       549.5917       488.2021
       660.1829       917.9358       1019.041       908.5974       657.0317
       286.9092       119.1863       477.2375       947.2515       1103.388
       1091.696       955.4033       811.7556       764.1166       668.0397
       465.5841       323.6084       554.0645       872.4775       1043.004
       1052.846       792.5422       646.3870       694.9448       769.1803
       571.8613       175.4366       59.32928       207.5027       398.3557
       598.5361       816.2529       904.7848       657.2196       236.0820
       22.55029       193.9529       408.0043       392.6536       382.8086
       346.6769       397.2764       606.0000       532.8115       293.6138
       191.3674       347.8046       558.3032       452.3992       154.4360
      -121.6524      -214.6377      -17.43694       67.59833      -155.5967
      -207.4225       59.61035       148.4144       43.97055       82.93439
       87.09125      -175.7917      -433.1797      -401.9974      -133.5116
       26.74200       7.952454      -126.6903      -356.3552      -481.6465
      -445.9325      -496.4127      -695.2172      -641.2594      -338.1046
      -151.3260      -142.0825      -398.6040      -800.2090      -965.6458
      -785.9036      -548.6012      -483.9393      -625.0447      -798.3765
      -878.8906      -856.1003      -794.0303      -722.2246      -734.6008
      -827.6748      -836.8867      -758.6672      -727.3699      -817.3696
      -958.7192      -1123.425      -1205.268      -1010.385      -721.5574
      -625.5103      -597.0037      -613.3518      -707.0652      -784.1431
      -1049.186      -1204.254      -1026.399      -868.6428      -750.4054
      -624.5544      -676.0908      -708.1045      -690.7383      -815.8672
      -866.4819      -747.1348      -707.8413      -843.0142      -1013.981
      -941.7490      -634.2842      -471.2327      -453.7788      -498.3164
      -744.8320      -936.5281      -898.7742      -707.9487      -465.2133
      -404.2401      -404.4918      -338.6915      -347.6860      -447.0809
      -514.2505      -501.1597      -538.1042      -680.9795      -699.2715
      -514.2274      -269.9426      -130.0319      -252.4778      -361.4883
      -313.4327      -417.1829      -363.1718      -187.5554      -262.3072
      -305.8255      -238.9146      -149.0643      -147.1008      -159.9135
      -37.11253       2.424616      -2.353680       18.97937      -72.65906
      -205.2796      -252.7310      -155.4971       34.60870       184.9905
       236.5624       136.8858       52.65723      -108.4595      -326.6756
      -229.8660       8.029541       112.2846       57.56186       1.802979
       78.40454       167.8559       184.3934       179.0166       284.6366
       298.6322       190.0319       233.3442       255.7097       187.4122
       214.2479       274.9089       323.7523       405.9055       335.0896
       146.1979       92.41357       243.2646       407.9376       461.4868
       355.1603       167.8815       103.5044       230.5745       429.3854
       524.1270       366.6199       287.9692       407.8031       398.2367
       329.5020       309.4228       187.9974       199.9946       508.2191
       685.4642       467.4619       232.5290       285.6802       424.3630
       459.5282       524.7788       490.1839       299.1545       328.1484
       522.8875       472.7963       316.1990       340.6541       394.5057
       313.5981       254.0116       365.7080       470.9791       422.4835
       375.4059       372.2489       294.1051       179.8687       237.2029
       372.5013       413.2969       378.1572       437.8865       556.6370
       491.6185       414.7076       413.8463       316.7399       275.1493
       315.7967       315.1025       378.8516       549.6738       686.8970
       608.7390       401.3751       395.8828       500.3503       494.5576
       426.8291       498.9670       617.2056       688.1162       809.1471
