     0.02500000      -1827.092       1588.946      -12345.00      -12345.00
      -29.99502       228.5049      -30.47000      -12345.00      -12345.00
       0.000000       22.77000      -12345.00      -12345.00      -12345.00
      -12345.00      -12345.00      -12345.00      -12345.00      -12345.00
      -12345.00      -12345.00      -12345.00      -12345.00      -12345.00
      -12345.00      -12345.00      -12345.00      -12345.00      -12345.00
      -12345.00      -31.89930      -70.02770       3885.000       0.000000
      -31.37200      -68.11800       0.000000       97800.00       0.000000
      -12345.00      -12345.00      -12345.00      -12345.00      -12345.00
      -12345.00      -12345.00      -12345.00      -12345.00      -12345.00
       190.3622       251.6168       72.61362       1.711615      -12345.00
      -12345.00       2.630409       90.00000       90.00000      -12345.00
      -12345.00      -12345.00      -12345.00      -12345.00      -12345.00
      -12345.00      -12345.00      -12345.00      -12345.00      -12345.00
      2008       244         6        45        35
       870         6    -12345    -12345     10341
    -12345    -12345    -12345    -12345    -12345
         1         7        13    -12345    -12345
    -12345    -12345    -12345    -12345    -12345
    -12345    -12345    -12345    -12345    -12345
    -12345    -12345    -12345    -12345    -12345
         1         1         1         1         1
REGU    -12345          
        -12345  -12345  
-12345  -12345  -12345  
-12345  -12345  -12345  
-12345  -12345  -12345  
-12345  -12345  -12345  
-12345  -12345  BHE     
ZL      -12345  -12345  
[...]
       45.08992       77.55014      -36.25781      -234.3679      -602.0370
      -464.1835      -207.3622      -216.7792      -159.7261      -201.0375
      -335.2267      -412.2863      -447.1248      -376.4700      -361.0889
      -314.2708      -251.6514      -320.2637      -403.1663      -501.4539
      -418.0948      -230.8344      -267.3442      -420.7214      -466.8689
      -406.0759      -398.3185      -373.5735      -402.9844      -367.4102
      -240.7131      -308.1328      -455.7985      -403.1902      -252.2159
      -256.4468      -303.3954      -246.9254      -180.0120      -206.5240
      -276.6355      -288.3713      -299.2277      -210.9737      -157.2766
      -128.1310      -192.9235      -397.5414      -401.2644      -163.0618
       31.78142       65.28724       38.41656      -78.36841      -293.0447
      -340.3394      -188.4033      -22.27969      -2.133087      -82.51837
      -133.0901      -237.1591      -294.2753      -123.1494      -24.51050
      -60.02591      -168.5016      -143.1021       7.876869       23.01210
      -50.89590      -103.4775      -81.03090      -76.32526      -80.14542
      -68.05101      -80.48703       27.23965       85.30669       70.99969
      -39.93362      -187.4812      -59.94760       85.12309       40.87155
       18.64334       38.34882       135.3541       102.8820       15.14513
       12.64951      -98.78757      -111.0991       69.52211       106.2041
     -0.2057114       2.545197       59.54727       102.0290       121.3854
       79.86102       96.66912       64.00208      -65.13049      -41.32916
       147.4861       330.1296       279.4054      -2.047668       47.35843
       197.4174       90.31459       43.37335       62.66956       160.0010
       282.9404       213.7584       100.4165       105.1424       90.00473
       36.76855       56.38795       62.19199       38.15240       109.6505
       234.0985       119.1875      -92.04092      -80.38107       16.71252
       21.85645      -36.66751      -66.07129      -62.56149      -57.27681
      -48.40573      -76.64790       12.23384       25.30420      -198.0784
      -304.5317      -182.5336      -76.18915      -120.0649      -135.3039
      -35.22620      -155.7441      -396.3174      -442.8613      -251.3611
      -87.50676      -7.778748      -10.54846      -279.5630      -402.3557
      -277.3463      -291.6761      -301.5160      -177.9532      -42.98132
      -144.7183      -357.1105      -410.8582      -247.5751      -34.69922
      -102.9275      -264.6130      -210.6241      -301.4282      -460.3965
      -300.0312      -68.36765      -43.86566      -86.20593      -272.6105
      -470.2408      -449.9319      -251.6353      -102.8335      -119.7534
      -196.5319      -245.0728      -251.3031      -322.9434      -463.2932
      -304.7328      -56.58221      -113.0594      -317.1968      -328.0354
      -84.74622      -54.48730      -310.7678      -203.1218       38.14792
      -49.03949      -185.5460      -175.1412      -115.8516      -28.54129
       11.11406       63.89587       89.39809       21.20494      -95.59387
      -14.59857       125.0878       173.5212       191.3752       186.5392
       132.8516       110.3438       200.5989       222.8643       203.6812
       345.4438       430.0178       436.4846       284.5731       55.03601
       206.3392       497.8528       538.8503       427.7950       268.4854
       251.7548       297.7784       355.3500       443.9587       511.4584
       519.6901       427.1830       300.4948       260.8490       368.3525
       474.9167       501.9594       499.7640       420.3519       399.8286
       403.6790       410.7030       470.7568       496.7042       461.1600
       455.7512       510.7690       476.0569       425.3995       514.3201
       545.4830       525.9919       534.5173       529.5051       548.7700
       520.8434       487.5315       677.7046       760.7827       649.0610
       525.9885       503.0928       535.8047       552.1101       539.8821
       522.9846       660.2166       718.1343       622.6886       578.0704
       509.4456       448.4277       446.1840       611.3081       746.4517
       540.1842       359.2300       448.0288       497.3643       576.4034
       649.4404       529.5844       458.2753       367.2004       258.8975
       394.6302       537.5845       569.4229       486.3349       288.9724
       198.1017       272.9441       307.4041       306.5713       400.5626
       371.8405       23.93585      -88.57141       184.0891       265.5408
       246.4000       228.3838       7.148529      -18.23251       137.2866
       134.6825       93.09888       61.18832       16.93470       31.78278
      -99.50116      -288.4522      -202.6790      -96.69087      -15.22091
       67.10728      -10.52478      -184.9094      -292.2235      -118.9769
       30.74542      -75.37372      -193.0811      -351.0498      -387.5863
      -269.5703      -247.3544      -226.2351      -262.6125      -354.8146
      -321.0306      -284.1017      -299.6777      -385.5964      -413.0234
      -394.2368      -476.8650      -489.2452      -346.0947      -112.4307
      -275.2932      -641.1089      -572.7594      -480.8792      -360.5438
      -279.3501      -431.3384      -587.7174      -681.5092      -556.1075
      -402.5404      -423.2749      -445.5837      -532.9500      -737.7031
      -737.4923      -551.0845      -512.4113      -575.3647      -530.3345
      -536.6798      -669.8379      -694.3995      -577.1533      -524.1156
      -606.4473      -656.6710      -574.8198      -508.7209      -597.5864
      -621.6135      -641.1470      -738.0020      -774.8906      -746.7881
      -474.7195      -459.2390      -726.2832      -734.8010      -654.6936
      -559.9294      -625.1440      -781.9596      -661.4873      -566.8822
      -655.5120      -737.3079      -681.9453      -564.3202      -569.3173
      -647.1550      -670.1068      -605.8102      -597.2012      -761.7458
      -794.3257      -545.3574      -472.5425      -733.8879      -890.2137
      -627.8922      -394.2397      -550.2656      -715.5676      -657.4639
      -567.6749      -590.0712      -577.2086      -481.0613      -514.2349
      -535.7915      -410.4890      -384.1875      -482.0739      -402.3391
      -297.5669      -450.0153      -500.8203      -274.5737      -156.4661
      -300.2716      -438.5903      -437.8120      -331.9243      -185.2144
      -86.57590       36.95651      -39.50458      -169.1931      -102.5811
      -84.71912      -49.48316      -18.85263       52.70447       111.0866
       105.7864       147.2422       114.1042       134.3401       177.4282
       193.2690       382.4335       462.0474       389.9662       369.0026
       334.7689       293.1987       365.9521       528.2439       551.7585
       469.9443       458.1184       447.7506       515.3099       607.5225
       636.6321       802.4177       898.0303       700.3918       583.2604
       561.3445       599.4521       718.6519       723.1833       835.4839
       993.8608       981.6897       917.2336       700.9188       500.2249
       636.7842       864.0376       971.0308       871.8627       564.5076
       513.3320       669.0256       746.6636       927.0791       1024.302
       913.8191       729.5476       469.8282       480.4766       705.5554
       764.6101       827.6101       848.2336       726.6809       680.3330
       683.1478       617.9186       556.6533       631.7876       768.8704
       785.3580       681.4009       507.4874       489.6812       584.2941
       605.4250       704.1633       726.3499       559.8398       471.4634
       485.1150       512.8120       518.3491       539.2542       508.8130
       435.2367       362.3216       223.0915       178.6057       278.9849
       353.1051       319.6191       245.3146       296.2754       307.7378
       192.3674       82.95486       40.70654       81.24347       154.7722
       175.6157       18.11325      -84.37404       57.30615       133.0559
       63.01410      -78.21393      -165.8173      -190.8578      -274.1437
      -184.3759      -38.84174      -147.6649      -283.9001      -358.3699
      -259.2646      -108.4174      -250.8369      -518.1503      -529.0498
      -403.3370      -233.0124      0.4606323      -21.21704      -320.3076
      -560.6187      -543.4265      -362.2999      -211.8205      -162.8508
      -256.1949      -396.8777      -558.8877      -624.5797      -426.1077
      -125.1791       5.280029      -142.0940      -392.2919      -506.3972
      -555.1445      -512.4625      -292.2291      -224.9091      -315.2965
      -303.7169      -277.9957      -330.3076      -401.3702      -293.8510
      -126.3340      -261.6323      -496.5050      -489.2633      -297.8832
      -104.4008      -21.44193      -107.2173      -168.6187      -54.87030
      -98.81677      -303.9143      -370.6502      -296.0479      -97.60835
       66.13794      -30.55396      -276.3019      -350.7945      -223.0596
      -46.05280      -48.41690      -148.9532      -203.9828      -300.3905
      -289.9278      -93.48495       72.09265       116.5105      -87.19891
      -333.8526      -250.3269      -56.09955      -67.94958      -118.7419
      -48.86607       50.68562       24.59726      -78.93463      -155.6633
      -130.8367      -15.00726       21.63638      -126.3615      -175.7361
      -39.59485      -73.91156      -269.6147      -154.9729       125.4667
       174.9690       28.85059      -33.39217       11.28265      -102.6992
      -233.3954      -215.4982      -231.7744      -151.2118      -5.906860
       66.19583       103.3540      -44.45947      -316.2913      -328.0537
      -158.7759      -5.994690       122.2321       78.80945      -164.3198
      -258.9813      -272.1907      -327.9837      -167.3116       9.529541
      -113.1646      -275.3636      -307.6467      -316.5635      -347.2408
      -279.2680      -13.83921       63.82959      -175.3433      -251.6929
      -227.0969      -292.3295      -203.6779      -92.79584      -124.8842
      -221.0757      -285.7123      -142.1596       2.488586      -79.23340
      -329.4214      -351.7918      -114.7838       45.87038       66.87198
      -30.87604      -193.1552      -385.4249      -445.6697      -190.8259
       133.3458       186.0565      -12.54337      -148.6206      -16.37764
       88.15228      -89.23650      -78.82095       57.26886       176.1318
       278.5437       118.8945       23.81573       171.4386       179.3283
       78.29178       31.87646      -9.995850       9.351624       161.8828
       242.1384       247.4604       218.6714       171.6813       221.9180
       303.3008       301.4364       289.2690       274.8031       282.0532
       265.4967       277.9003       248.5076       214.5935       316.7392
       351.3969       199.1400       142.8443       239.4215       418.1570
       476.9565       503.1509       482.5561       201.7046       26.45654
       203.2345       356.1238       473.5686       449.1359       312.0714
       334.1196       345.1202       198.3367       213.6082       324.7007
       419.1702       541.5599       399.2496       196.8284       362.5178
       530.4470       639.0431       636.8467       411.6746      -20.27515
      -372.8969      -373.5783      -34.33398       400.9956       720.2179
       734.8047       383.6393       119.0643       7.086304      -230.7966
      -215.1830      -88.57782      -240.9429      -253.9080       157.9194
       598.4153       668.3514       437.4190       174.8355      -192.1123
      -361.2487       71.37976       446.9195       229.7516      -173.3701
      -532.9480      -257.3955       516.6677       975.1946       770.8234
      -104.8052      -878.8499      -1069.007      -690.2520       168.9925
       307.7773      -583.5039      -1024.596      -414.5808       584.4949
       1166.327       622.0635      -398.1617      -616.5800      -409.8066
      -885.6274      -1639.013      -1388.689      -101.7036       866.4958
       1006.273       370.8003      -838.6260      -1546.027      -1262.610
      -511.0470       262.2094       445.7691       62.31799      -162.5571
       112.4318       93.90259      -693.7681      -1265.234      -582.8197
       278.7051       210.1636       54.87517       15.41815       163.7922
       684.4327       472.2578      -135.0626      -476.1929      -868.9165
      -931.2563      -402.3820       453.8479       615.6024       249.2966
       361.9236       38.89594      -359.6075       188.0859       758.3469
       236.8086      -862.1025      -930.8267       285.1931       835.8997
       188.4825      -237.1719      -176.7246       235.5325       820.2896
       943.7516       248.0095      -1052.463      -1827.092      -982.0046
       592.7168       1176.938       954.4995       438.1628      -344.0784
      -775.4070      -782.4092      -1027.980      -835.4406       73.61084
       858.9368       1072.056       418.8933      -743.0237      -1275.307
      -564.7864       620.9241       992.4493       495.2115      -54.43188
      -634.8611      -799.5587      -247.5514      -330.8619      -86.10547
       888.5896       613.7074      -314.2288      -735.2687      -678.7727
       148.1313       639.3405      -32.92969      -1147.497      -1790.360
      -1019.588       411.6882       591.5436      -153.0104      -496.0512
      -342.0308      -127.1357      -40.35352      -97.38867      -562.1523
      -1074.417      -385.8975       791.8185       997.2729       16.37256
      -939.2175      -979.8301      -535.7408      -22.33267       79.18027
      -45.21439       114.8957       30.91235      -260.8047      -531.1814
      -517.1854      -364.1875      -443.3282      -445.5248      -427.5644
      -338.8367      -293.7785      -215.0645       332.8401       581.8961
       381.2097       88.09857      -180.9864      -32.80055      -1.296539
      -223.7646       195.4992       390.9883      -115.3849      -190.4216
       225.0566       500.7234       602.8159       544.9009      -11.18457
      -724.4553      -791.3732      -312.6531       519.6438       1020.619
       810.2369       659.8513       604.7954       220.4047      -51.13599
       102.3888       315.9884       208.8010       212.8462       772.7019
       926.2864       413.5559       282.5356       564.6521       686.0693
       592.0121       233.8878      -44.76672       255.7332       763.2249
       914.5087       659.6642       344.7219       166.5066       298.4712
       530.9045       279.8520      -402.5699      -210.9949       1040.378
       1588.946       1029.957       149.8966      -306.6450       26.27917
       252.3495      -225.9615      -512.7598      -243.3174       141.2905
       915.3132       1368.931       589.4218      -376.7471      -640.0616
      -79.01953       790.3628       805.9655       174.8533      -266.7046
      -228.1831       394.4575       691.0162       304.0712      -1.654205
      -221.3369       93.42346       651.3073       414.1440      -176.0134
      -633.5464      -441.7801      -2.273560      -142.7240       87.01282
       508.8889       347.4079       166.1796      -7.558807      -40.11232
       85.62622      -414.3741      -640.4348      -79.09570       272.1779
       329.9706       416.8279       465.2069       600.3757       375.8906
      -304.3901      -639.5505      -775.7166      -466.1318       250.0401
       265.1844       134.0635       404.7587       313.2614       106.8629
       173.6973      -108.8171      -603.7480      -746.5263      -402.3421
       98.77679       327.5970       316.5418      -115.4112      -452.7946
      -14.08862       265.4308       9.700928      -238.6252      -236.6375
       254.5040       575.1718       166.1152      -292.9863      -444.9446
      -394.9470      -405.4396      -347.9525       201.4199       621.3693
       292.7046      -143.6954      -174.3690      -141.6198      -97.51270
      -289.2927      -735.2378      -627.8676      -12.91553       436.9385
       499.1898       216.9153      -186.1602      -687.5197      -664.9837
      -63.73340       228.6833       241.4645       160.5859       143.9666
       18.48242      -445.0498      -590.0789      -470.1555      -260.5890
      -73.37451      -399.6780      -747.8401      -448.3063      -132.0187
       38.90009       221.6658      -86.99561      -425.3906      -390.8663
      -173.5784       136.4135       314.6992       302.2009      -40.04639
      -573.2166      -811.3119      -562.4426       9.564453       470.9525
       259.8516      -206.2986      -463.2023      -681.0304      -542.6799
      -245.6779      -133.4820      -86.04498      -226.4393      -378.9146
      -343.4053      -390.2140      -552.6895      -440.2668      -118.7354
       3.646805       59.56396      -42.49023      -296.4719      -462.3372
      -667.1609      -990.8022      -1026.341      -691.0793      -440.1882
      -25.89935       366.7297       35.79517      -586.3142      -835.9277
      -751.3771      -325.7597       124.8093       70.29492      -325.0182
      -679.6071      -610.7756      -425.3702      -525.3816      -596.1895
      -568.5177      -456.6917      -69.47290       419.2725       304.0591
      -448.9995      -872.2388      -704.0554      -421.3345      -335.2061
      -385.1843      -104.7764       266.2458       80.78357      -117.7304
      -88.04651      -237.6267      -388.7997      -404.3729      -81.55359
       544.2782       606.9823       52.51807      -298.1091      -450.9701
      -462.2925      -110.8516       245.3815       332.5144       293.9984
       200.5813      -9.703033      -140.8050      -75.85449      -204.9271
      -297.6666      -118.5191       61.41797       291.1468       247.2836
       115.1066       69.38791      -88.55695      -98.34142       29.92401
       107.5032       94.59131       120.1557       151.5688       69.56287
       265.7502       459.4751       249.4298       17.60593      -93.96848
       17.29016       333.1717       393.6304       232.1991       136.4488
       142.0527       208.4504       148.9247      -57.21333      -60.48981
       187.1851       546.4421       860.8533       630.2501       211.1910
