     0.02500000      -3012.297       2646.372      -12345.00      -12345.00
      -29.99502       228.5049      -30.47000      -12345.00      -12345.00
       0.000000       22.77000      -12345.00      -12345.00      -12345.00
      -12345.00      -12345.00      -12345.00      -12345.00      -12345.00
      -12345.00      -12345.00      -12345.00      -12345.00      -12345.00
      -12345.00      -12345.00      -12345.00      -12345.00      -12345.00
      -12345.00      -31.89930      -70.02770       3885.000       0.000000
      -31.37200      -68.11800       0.000000       97800.00       0.000000
      -12345.00      -12345.00      -12345.00      -12345.00      -12345.00
      -12345.00      -12345.00      -12345.00      -12345.00      -12345.00
       190.3622       251.6168       72.61362       1.711615      -12345.00
      -12345.00      -2.153220       0.000000       90.00000      -12345.00
      -12345.00      -12345.00      -12345.00      -12345.00      -12345.00
      -12345.00      -12345.00      -12345.00      -12345.00      -12345.00
      2008       244         6        45        35
       870         6    -12345    -12345     10341
    -12345    -12345    -12345    -12345    -12345
         1         7        13    -12345    -12345
    -12345    -12345    -12345    -12345    -12345
    -12345    -12345    -12345    -12345    -12345
    -12345    -12345    -12345    -12345    -12345
         1         1         1         1         1
REGU    -12345          
        -12345  -12345  
-12345  -12345  -12345  
-12345  -12345  -12345  
-12345  -12345  -12345  
-12345  -12345  -12345  
-12345  -12345  BHN     
ZL      -12345  -12345  
[...]
      -190.2678      -254.1061      -259.1412      -178.0875      -186.4851
      -344.7758      -590.1921      -512.8250      -308.2112      -317.0012
      -301.5059      -247.8282      -339.0905      -420.5404      -377.9824
      -342.7157      -431.9302      -507.6409      -453.4700      -374.4473
      -397.1191      -435.9119      -382.8300      -333.4038      -361.5105
      -395.8595      -380.0284      -295.0552      -299.7659      -385.3177
      -395.7838      -357.2301      -261.7759      -329.0898      -440.5399
      -338.1885      -347.2213      -360.4329      -265.3293      -209.9548
      -266.9016      -325.6635      -265.8816      -160.7678      -149.7998
      -256.4277      -323.5500      -291.4510      -228.2073      -123.4315
      -78.66805      -102.6409      -23.64295       31.95479      -38.21829
      -167.6698      -121.7816       9.081696      -29.72290      -106.2646
      -67.62341       44.11102       154.3361       205.4985       108.5073
       99.26520       154.9220       93.90930       159.3962       278.4625
       264.8835       216.2753       305.7007       359.9490       197.2752
       184.9410       410.6635       452.5714       356.3288       279.8347
       327.8461       410.8967       298.1337       236.2079       439.9855
       536.3361       477.6737       470.0493       423.7710       470.9487
       629.5131       660.3068       519.5981       404.1252       426.9346
       463.0984       554.6345       620.7266       581.4740       625.6239
       694.5364       605.3799       608.2615       726.5668       630.2632
       408.3606       429.2249       699.8755       881.9194       748.4620
       485.6783       428.8252       657.7671       714.0079       637.3350
       751.7888       813.0179       671.1887       650.7720       675.8617
       644.0229       602.3143       418.7366       220.6951       434.4438
       890.9802       1031.495       865.0200       594.0559       377.7002
       397.7887       357.2266       343.8030       556.4479       673.9493
       568.8613       464.0110       465.5312       451.4941       385.5996
       289.0740       254.8259       355.7831       363.8943       434.6660
       442.3091       271.1953       99.21849       22.90164       96.75092
       216.8809       312.6830       346.5750       192.1004       53.03679
       33.94545       62.34763       82.32571       69.51160      -4.210220
       35.41727      -37.79126      -161.2360       10.98749       110.9583
      -61.55359      -240.2379      -298.5957      -57.91349       86.40359
      -94.00928      -170.6564      -111.9820      -190.0836      -111.7928
      -15.03864      -107.4029      -188.2473      -267.6277      -374.0848
      -354.2954      -251.6050      -162.3866      -204.2396      -275.5137
      -287.8787      -218.7295      -196.6287      -308.0235      -342.0279
      -140.3610      -133.1626      -220.1528      -336.1488      -452.9648
      -315.3080      -229.5972      -291.4462      -209.2341      -212.4941
      -303.1655      -339.1625      -259.1274      -167.5742      -226.4097
      -361.9238      -429.5144      -431.8109      -336.1809      -287.8734
      -286.5115      -317.3235      -280.4149      -340.1306      -453.8137
      -384.3703      -153.8879      -123.2866      -353.5376      -616.2002
      -592.2983      -371.3428      -223.2103      -225.4949      -269.9603
      -415.0278      -482.5048      -383.5417      -367.9006      -347.5341
      -322.2035      -373.0380      -221.4883      -135.5375      -245.4585
      -347.2788      -453.0862      -632.0176      -597.7755      -314.3106
      -127.1932      -231.5034      -430.6208      -517.6445      -503.0284
      -478.1902      -421.6011      -327.1394      -209.1340      -221.2573
      -391.0737      -571.6809      -496.7935      -384.8008      -296.7770
      -190.2551      -201.2418      -339.8479      -463.8344      -446.4524
      -298.6544      -242.2715      -289.4755      -376.6536      -403.5924
      -272.6150      -79.45471      -165.0635      -408.7560      -493.4294
      -379.3931      -376.2649      -215.5867      -1.813538      -94.91626
      -209.5747      -315.4940      -432.2541      -180.2156       85.54526
       12.12134      -109.6096      -136.4164      -153.1473      -37.78036
      -15.85577      -102.3469      -143.2192      -118.5363      -3.705322
       180.2321       127.3558      -26.90421      -114.3652      -26.24988
       135.4784       202.8112       133.0198      -4.191826      -70.58731
       52.86176       205.9051       168.8916      -38.09781      -43.46576
     -0.8394470      -14.69922       62.89709       249.1907       340.4410
       92.71295      -142.9499      -162.4312      -67.50500       151.1778
       74.81671      -143.9900      -68.83087       224.5601       386.0262
       237.6045      -103.5668      -331.7605      -293.1837       38.80371
       312.3638       282.2517       36.89062      -193.0030      -232.1821
      -67.22394       104.1509       27.91650      -190.4688      -178.4513
       38.52576       210.4517       242.7309       83.94040      -116.6751
      -42.32483       71.96527       142.8296       74.95636       38.63007
       215.6281       262.3652       77.40051      -11.62186       94.23108
       245.0262       159.4032       90.21173       191.1709       244.4030
       325.2161       366.9260       166.7122       120.0320       242.4370
       271.8551       270.9015       405.2136       510.0990       302.7271
       153.5886       366.7803       520.5608       437.4968       174.9662
       142.7157       382.0507       479.7897       397.2054       449.7062
       491.7917       371.6011       351.6104       364.8027       338.7775
       364.5137       354.9438       425.1274       403.8186       448.6832
       620.6576       467.9479       302.0135       366.0617       356.8807
       297.5293       242.7036       385.0366       605.2883       549.6815
       371.8064       328.7227       285.4161       310.0901       391.1423
       408.2618       311.0090       129.9122       225.8623       404.2117
       346.8614       334.9315       348.4390       228.1165       66.40878
       75.03467       217.6400       290.9081       211.9907       64.53766
       37.91864       89.13995       172.8541       180.5791       30.91170
      -57.79877      -92.33154      -91.52249       28.77448       111.4818
       14.21652      -135.5399      -180.8668      -87.10535      -55.05750
      -233.1014      -259.3650      -153.6829      -78.82050      -46.51227
      -188.3672      -355.5552      -430.9126      -454.5195      -339.4723
      -123.7860      -1.247253      -63.83789      -304.0106      -535.8633
      -535.0090      -391.4560      -221.5944      -222.4211      -382.1896
      -494.4547      -581.2515      -544.8154      -332.4291      -212.6716
      -207.0143      -227.4921      -291.1541      -411.6862      -428.9783
      -447.1583      -541.5504      -479.6973      -193.4632       42.76855
      -124.5703      -517.2426      -725.3538      -562.8921      -67.97992
       161.5454       84.06934      -88.70654      -414.1483      -587.0868
      -417.0141      -120.0195       26.61107      -18.60568      -103.5439
      -193.4872      -152.1252      -43.99487       4.325058      -3.296783
       81.11420       134.1134       63.59479       65.82285       119.2331
       7.854950      -138.9960       74.21021       441.8589       523.6013
       465.8887       224.6359      -142.3863      -137.6687       313.7117
       656.0153       677.9729       493.8041       251.0170       112.3450
       239.3075       443.1210       483.3356       373.9464       314.5916
       346.4612       322.5576       257.8542       454.0022       552.1715
       345.9398       310.1343       470.2518       577.9642       469.4688
       175.8000       110.0376       425.7476       705.4946       590.4777
       350.2158       167.4760       182.8256       399.8064       514.5746
       425.9694       406.2675       528.7365       530.1685       268.6655
       133.2169       266.2426       346.1167       364.3325       381.5847
       237.8122       119.6891       145.3907       192.8030       158.0814
       225.2396       236.7637       115.2285       174.7275       367.9232
       229.9159      -10.45612      -127.4072      -183.7352      -39.73547
       297.2494       291.0424       40.03442       38.50714       124.7645
       89.86755      -51.07251      -294.3999      -369.3298      -165.1411
       111.4365       251.8372       255.7949      -60.99646      -421.3273
      -468.1550      -256.8679      -141.3541      -129.1303      -83.29042
      -12.53949      -31.94513      -103.2219      -237.4700      -434.2312
      -531.8987      -290.5110       12.26978      -62.91357      -429.3346
      -663.4767      -464.6695      -175.4180      -212.0146      -190.9226
      -166.4089      -333.9741      -567.3972      -660.8794      -562.4838
      -403.6014      -375.3027      -505.1118      -717.9736      -684.5984
      -442.1287      -308.8790      -297.7623      -369.8767      -622.9805
      -756.4199      -702.8315      -650.4456      -531.6875      -415.0472
      -385.2399      -395.4539      -533.1638      -866.7751      -993.4681
      -724.5793      -526.3052      -378.6693      -349.8699      -465.2065
      -575.1274      -841.6851      -968.8035      -619.3267      -322.5417
      -392.6992      -610.2925      -706.4875      -747.1216      -816.6694
      -698.7118      -405.6746      -346.5171      -434.2684      -455.8477
      -530.5609      -660.7567      -668.2996      -563.9347      -438.0613
      -467.2283      -509.9410      -342.8513      -331.3820      -611.6387
      -678.4060      -526.2188      -333.0118      -178.5891      -191.2379
      -339.3564      -473.5510      -592.9507      -503.0817      -305.9746
      -319.8308      -350.2209      -241.4708      -158.9716      -96.80438
      -163.9688      -370.8323      -506.3950      -328.4906      -79.79648
       102.4302       142.3882       85.98695      -3.474304      -208.4143
      -333.8751      -311.3121      -253.7801      -115.5974       61.84619
       217.6255       213.4107       168.4810       157.1891       124.5596
      -6.289383      -44.46002       23.37476       242.2971       459.2528
       333.5121       67.13924       35.08405       171.5065       280.1972
       280.3850       299.1313       401.0507       487.8960       516.1394
       575.2949       688.5452       679.4335       381.5126       99.26007
       121.7566       421.2935       696.9734       687.7089       591.6709
       763.4612       808.7671       701.1786       670.3710       636.7100
       725.1487       820.5984       685.1935       537.0162       608.0342
       826.8713       957.0879       972.2317       854.0803       621.5974
       400.9924       449.8979       914.1621       1360.702       1569.658
       1716.505       1398.110       646.3823       30.29663      -374.1676
      -464.8217      -19.78052       847.1265       1577.153       1624.473
       1060.582       263.1611      -128.4349       140.9194       530.1453
       744.1602       894.4397       869.0444       836.0903       1144.595
       1532.805       1567.163       1067.895       87.90479      -948.5916
      -1050.219      -62.92773       923.6636       1549.066       1668.635
       1022.948       175.6365      -15.58105       790.0361       1356.875
       456.5134      -844.8269      -818.7739       617.7588       2207.918
       2228.439       33.45020      -2262.445      -1869.571       655.1396
       2646.372       2432.021       230.9575      -1392.411      -1288.300
      -556.3315       328.9080       621.7644      -118.9973      -651.6956
       192.1484       1734.899       2088.104       689.8613      -1044.431
      -2371.879      -2544.111      -928.7031       1015.575       1915.811
       1641.366       59.32910      -1745.271      -2276.529      -1346.034
       206.5645       876.8357       174.7600      -656.2941      -477.2170
       553.7731       619.3384      -707.9082      -1499.207      -1351.520
      -1109.227      -1111.056      -831.0754       334.7681       1202.982
       1138.799       159.3257      -1256.208      -1914.977      -1513.886
      -542.8830      -8.390625      -358.1914      -518.7225      -21.49524
       421.4760       379.6401      -147.0928      -652.0527      -690.8643
      -1072.445      -2016.239      -2021.213      -556.1970       816.2617
       1317.933       1043.308       128.5107      -1183.930      -2387.799
      -2127.171      -737.7941       333.1897       1063.627       1124.604
       810.2056       598.6494      -560.2090      -2458.252      -3012.297
      -1738.854       12.70093       1157.395       967.5172       56.12030
      -241.7841      -117.6221       250.5046      -285.5195      -1578.213
      -1435.253      -10.55518       982.4561       377.9856      -1039.959
      -1383.674      -444.8453       254.4842       218.1418      -76.32581
      -335.9805      -17.26343       214.4285      -142.1084      -936.3857
      -1401.987      -831.7302      -249.4485      -89.37012       102.9036
       411.7083       440.1042       92.11926      -42.26343      -663.6006
      -1267.628      -1275.110      -1561.656      -1301.709      -359.4062
       719.7134       1581.368       1168.937      -83.39453      -1094.037
      -1366.760      -836.9366       27.75659       467.8328       187.8294
      -23.99658       214.6402      -137.9183      -219.7118       498.1837
       31.59424      -1188.438      -1474.606      -1188.332      -478.0005
       598.6858       1168.374       831.3766       55.54785      -726.9614
      -1337.668      -1336.996      -726.6306      -28.96265       749.8447
       1209.233       1328.883       1261.924       988.9446       642.5198
      -350.0742      -1530.648      -1558.146      -852.6248      -100.8257
       725.6731       1019.681       469.4280      -526.3594      -992.5725
      -74.67578       1036.650       1242.174       1024.551       872.3522
       253.2930      -688.3098      -940.9273      -239.7390       593.3242
       1049.135       959.7760       542.9866       443.0304       601.0173
       329.3865      -470.8960      -916.7657      -390.4824       592.2344
       1325.581       1278.295       742.0637       252.3186       87.05005
       456.4265       376.1169      -339.1881      -320.9736       290.8940
       815.4197       790.4633      -14.03687      -848.7671      -841.0649
      -296.4132       390.5728       1229.948       1427.590       797.2697
       204.2339       131.1957       346.0901       500.2650       539.4356
      -26.17322      -429.3805       220.9336       888.2419       896.6506
       385.7197      -418.9384      -638.1520      -185.8588       47.70300
       363.9453       944.6565       974.2328       782.1298       159.3638
      -987.5393      -1250.261      -724.4380      -231.8884       199.2556
       479.0442       661.8467       958.1296       1101.205       689.6232
      -28.14453      -835.2971      -956.2320      -303.4304       233.5310
       695.7827       803.6336       479.8372     -0.3395996      -636.1289
      -763.7678      -470.1443      -67.56494       466.2207       834.9365
       974.8160       778.2246       45.22339      -699.9177      -891.6556
      -789.0896      -461.1992      -88.27490       129.5756       501.5610
       501.2433       281.4883       258.8414       135.3933       151.3197
       71.98120      -392.9790      -751.0574      -708.3551      -225.9647
       125.1150       62.06171       148.3864       144.3827       154.4526
       369.1898       153.7955      -139.3999      -397.0081      -634.7134
      -501.9904      -229.8447      -68.26318      -119.9335      -130.3099
      -59.24158      -57.61465       64.75609       32.42242      -252.6504
      -175.5865      -129.0535      -496.9998      -405.7464      -87.46909
       74.66608       209.6743       6.163849      -109.8807       28.24213
      -134.6227      -211.1064       109.2687       361.5762       335.0400
      -27.72546      -379.6436      -221.5026      -119.7440      -122.3355
      -14.24194      -381.1813      -698.1624      -339.4038       109.7010
       304.9855       183.6802      -46.94043       186.2776       694.8123
       858.9174       551.3431      -50.66553      -472.6148      -424.1852
      -176.6437      -20.63538       225.5470       490.2566       418.5920
       360.5791       473.4883       296.4802      -254.5442      -689.0679
      -623.3264      -280.2178      -76.23193       186.6464       494.6995
       432.7167       267.8860       165.0555       79.07922      -53.89709
      -274.5934      -240.8985       86.38031       354.9898       214.3573
      -337.7373      -684.0275      -317.5725       193.5385       284.4225
       153.0990       107.6026       42.51019      -121.7950      -221.3149
      -367.9980      -317.5790       226.2263       702.4229       820.6898
       376.4758      -400.6721      -792.4413      -595.4128      -303.0759
      -53.85083       286.9960       400.6544       337.9648       40.25958
      -307.8205      -158.2651      -183.7223      -470.3741      -351.7600
      -122.6214      -274.3897      -82.20062       334.0696       135.8073
      -22.04642       97.78979      -64.37918      -156.0309      -176.8135
      -363.1446      -386.8580      -216.6314      -172.3412       8.582703
       262.4083       207.6448      -78.21841      -176.1978      -29.48474
       365.8741       610.0851       99.18896      -389.0800      -197.7908
       35.20447       203.6051       232.1372      -58.20496      -299.2940
      -322.8707      -261.8606      -287.6152      -346.8130      -217.3825
      -85.68109       16.90765       36.24182      -58.55011      -195.9557
      -293.2574      -257.6388      -104.4449       14.20303      -94.75616
      -137.2101       63.87593       148.5830      -155.3385      -587.0266
      -447.6428      -68.86157       287.1484       681.7441       570.7981
       68.26968      -120.6094      -147.5047      -87.33795       59.04395
