     0.02500000      -1271.363       2796.108      -12345.00      -12345.00
      -30.00499       221.4950      -22.73000      -12345.00      -12345.00
       0.000000       16.34000      -12345.00      -12345.00      -12345.00
      -12345.00      -12345.00      -12345.00      -12345.00      -12345.00
      -12345.00      -12345.00      -12345.00      -12345.00      -12345.00
      -12345.00      -12345.00      -12345.00      -12345.00      -12345.00
      -12345.00      -30.27030      -67.72450       1286.000       0.000000
      -31.37200      -68.11800       0.000000       97800.00       0.000000
      -12345.00      -12345.00      -12345.00      -12345.00      -12345.00
      -12345.00      -12345.00      -12345.00      -12345.00      -12345.00
       127.8128       17.23267       197.0320       1.149158      -12345.00
      -12345.00     0.03482255       180.0000       90.00000      -12345.00
      -12345.00      -12345.00      -12345.00      -12345.00      -12345.00
      -12345.00      -12345.00      -12345.00      -12345.00      -12345.00
      2008       244         6        45        28
       130         6    -12345    -12345     10061
    -12345    -12345    -12345    -12345    -12345
         1         7        13    -12345    -12345
    -12345    -12345    -12345    -12345    -12345
    -12345    -12345    -12345    -12345    -12345
    -12345    -12345    -12345    -12345    -12345
         1         1         1         1         1
RINC    -12345          
        -12345  -12345  
-12345  -12345  -12345  
-12345  -12345  -12345  
-12345  -12345  -12345  
-12345  -12345  -12345  
-12345  -12345  BHN     
ZL      -12345  -12345  
[...]
     -0.1286066      0.3661990      -2.500601     -0.9146957      -6.121063
      -9.415070      -16.08463      -14.61600      -19.83058      -20.89118
      -26.70473      -27.09851      -31.83453      -32.50734      -38.05702
      -38.01273      -42.95401      -41.54494      -47.11598      -47.98465
      -52.33446      -51.83496      -57.73367      -58.72575      -60.77994
      -58.50992      -63.20053      -63.38324      -65.67912      -65.53001
      -67.95987      -67.96140      -69.91159      -70.84909      -73.12550
      -71.66490      -72.63589      -70.15109      -69.07886      -69.87234
      -70.08318      -66.24423      -64.80733      -61.25806      -58.45233
      -58.72240      -56.27808      -54.16077      -52.79642      -49.90352
      -45.81958      -43.28205      -41.14331      -42.75562      -37.76445
      -36.25625      -30.33311      -26.49229      -24.57353      -22.17490
      -17.76865      -17.50432      -15.67927      -13.29733      -12.25034
      -10.04397      -5.893478     0.02679825       2.166551       2.799026
       7.515293       9.737984       12.24826       19.04272       23.46236
       25.45366       27.29790       33.16783       37.33548       39.60889
       45.59415       47.26892       52.77034       55.65219       57.40637
       62.20605       67.70364       70.56290       76.08839       77.31442
       81.36682       87.51086       91.58282       93.18533       96.75635
       101.9792       103.7489       109.4315       114.8316       115.5114
       116.9767       119.5607       122.2983       125.2189       128.8622
       133.2354       134.0611       134.4489       138.7197       140.2168
       142.8143       146.0958       149.3204       151.1664       150.3340
       150.6385       155.8333       159.0489       156.0508       156.9607
       159.4148       159.5830       156.8966       156.9747       156.6178
       156.3267       157.8974       154.5201       154.0499       151.1122
       149.5392       144.7679       145.7133       142.2310       139.6102
       138.5436       139.8532       132.1862       129.3227       125.7758
       126.1932       120.1624       118.6880       117.0320       117.5187
       112.3725       112.5353       109.2971       108.5210       104.3298
       103.9991       104.3350       109.3082       111.6546       113.5316
       112.5706       95.34216       80.02109       84.00427       84.98764
       144.2161       139.7354       70.07964       83.82884       64.67468
       49.34671       87.74805       49.66107       72.15894       118.7336
       141.1370       162.3625       87.42277      -1.526306       101.2039
       183.5123       88.37437       24.44699       51.76996       103.0008
       136.4137       145.6174       77.86275     -0.9890747       135.1820
       249.4363       142.2129       29.82832       51.11710       46.88763
       70.64856       210.6384       34.69142      -48.77386       169.6009
       82.55621       63.38269       129.7970       107.2086       27.90427
      -64.10437       30.39412       30.68266      -22.00571       130.8727
       40.47790      -102.6551       81.82239      -11.04025      -157.1962
       24.05431       69.57581      -185.0776      -89.27869       116.9650
      -222.3078      -19.98174       105.5622      -375.3010      -199.9356
       112.4064      -137.8481      -222.1767      -89.37378      -135.0398
      -229.3657      -159.1267      -59.56775      -212.9730      -373.9591
      -156.2653      -43.22351      -265.2755      -313.6763      -184.0269
      -180.9796      -262.1825      -290.8623      -282.1467      -318.1647
      -271.2244      -272.1582      -287.8141      -235.2384      -329.1734
      -353.3853      -171.0273      -309.8115      -485.9700      -269.7186
      -290.9800      -453.3387      -265.1102      -271.4676      -375.4894
      -265.6295      -322.5620      -393.6538      -340.3833      -314.3734
      -268.6561      -338.2417      -426.2314      -408.1201      -290.5491
      -225.2013      -334.9500      -395.3461      -329.8267      -306.1040
      -313.6948      -384.3445      -222.5076      -186.0574      -406.2352
      -356.1935      -266.8748      -257.5873      -295.7913      -427.1663
      -218.9087      -107.1512      -359.1090      -337.0318      -103.2722
      -259.5027      -401.5782      -224.1825      -138.3324      -108.3875
      -155.8461      -286.7443      -253.6284      -156.2595      -42.08795
      -66.22430      -227.8608      -147.7820      -10.72247      -121.2375
      -112.6602      -74.77643      -85.27432      -24.00941       27.47499
       38.82977       9.511517      -36.69327       33.91571       67.28214
       24.23462       116.9391       137.8721       100.6783       106.2697
       38.43829       248.8681       314.2451       22.63251       104.2267
       310.2893       193.4678       153.1042       225.9736       225.6545
       280.1193       317.7406       244.0792       249.0090       249.3633
       225.1870       286.2688       359.1366       344.7790       260.5909
       261.4648       381.2596       387.4025       313.1274       281.1074
       296.4355       267.0183       356.7600       385.4120       265.5533
       324.0186       437.4426       332.8065       263.5725       302.9972
       295.0889       368.1531       389.4144       319.6591       308.6530
       283.5128       334.6525       317.7278       347.1070       381.9351
       230.5472       250.5239       366.8284       387.4031       300.9289
       214.2959       248.1011       316.4525       310.1489       259.5659
       287.5892       262.0343       229.1677       265.0508       275.7693
       318.0421       262.3663       210.2665       211.7343       143.5470
       280.8149       261.1884       87.67340       193.3683       263.6885
       153.4457       136.3717       212.8878       133.6220       34.94299
       157.6616       139.7454       62.34268       157.2144       25.79344
      -7.707794       187.3556       70.20434       15.94647       63.32584
       38.86415       20.82792      -28.18578       16.38438      -35.06873
      -45.43734       62.73758      -89.34525      -68.29712       26.79561
      -52.81670       10.30823      -79.71375      -182.5903      -54.99969
      -135.2048      -74.33498       22.77499      -117.0311      -84.98706
      -144.7722      -238.3458      -80.04735      -27.12024      -73.75946
      -171.4486      -157.5491      -135.8683      -343.1722      -292.6512
       11.37466      -63.01233      -304.5521      -130.3516      -28.13989
      -218.0979      -135.4521      -160.4965      -307.9156      -145.9600
      -81.83954      -104.1305      -54.38940      -97.66821      -116.5975
      -90.22968      -159.8865      -235.5578      -150.4447      -45.28729
      -48.30475      -193.4470      -184.4448      -95.34438      -77.76241
       50.43874       52.47382      -55.33350      -161.6834      -193.8450
      -30.33386      -33.93777      -197.6865      -108.5405       191.5621
       131.9398      -191.5218      -105.5844       38.17413      -125.4327
      -115.4221       74.04533      -17.93401      -64.51588       8.579407
      -199.4952      -81.13507       264.5163       23.29306      -157.5714
       93.34332       102.5307      -164.2028      -177.3183       39.31256
       116.3191       11.24103      -134.7190       7.331108       37.97740
      -120.9947       22.64508       55.06305      -49.61658      -62.84047
       2.506073      -33.55731      -102.5271      -57.87262      -56.30551
      -101.4274      -102.0440      -12.75694      -31.89111      -115.4678
      -51.26152      -79.74246      -5.192139       157.7593      -97.57092
      -231.6862       22.94467      -25.69824      -293.7732      -174.3206
       1.920471      -179.9377      -172.0788       15.40157      -38.03046
      -101.6577      -97.27863      -259.5264      -235.9699       81.87225
       20.28351      -289.6593      -364.2823      -294.6299      -82.05060
       91.87406       62.60632      -123.7677      -279.7129      -290.2739
      -223.4600      -84.36624      -20.26184      -239.9310      -329.3027
      -83.74243      -17.47620      -99.99231      -310.4858      -377.5679
      -57.01527      -8.132996      -201.7851      -119.3422      -155.7059
      -220.8445      -63.11108      -83.21295      -132.7894      -87.13306
      -174.9836      -336.5759      -137.2609       28.47549      -141.8389
      -74.12805      -96.24072      -247.1006      0.6831970      -16.40417
      -287.1227      -127.0093       46.76590      -65.91769      -114.2673
      -59.63008       2.570938      -31.99060      -159.3543      -32.85237
       59.29964      -68.74680       9.209740       57.82336      -34.69064
      -18.69452      -106.4686      -47.68338       171.1873      -25.19846
      -88.14922       56.61035       61.36526       122.7279      -12.12231
      -153.1233       8.408142       209.0417       252.1972       76.12144
      -80.40448       23.65079       200.4418       97.61789       38.50616
       201.7252       130.7594       48.42797       59.63350       5.614380
       178.0675       259.7042       120.0294       149.4204       299.6140
       176.3448       2.826355       102.9291       207.1440       206.7593
       234.3683       250.2039       302.3003       150.8322      -36.67456
       238.1598       291.0141       130.2161       226.8472       258.8057
       199.6754       253.3527       284.9253       76.54956       153.8786
       396.6526       199.0813       161.8407       242.7653       85.33423
       214.3419       370.9619       298.4979       158.7450       69.83948
       169.9983       259.8748       212.6115       113.3464       51.01587
       102.7605       291.1895       273.0463       146.3857       106.1573
       25.35062       89.49194       201.7906       186.1140       29.37347
      -94.38371       33.75906       141.8712       137.3882       95.48853
      -102.9046      -90.04053       131.8282       88.68610      -77.17757
      -12.67014       119.1579       30.70535       52.38071      -33.78384
      -180.3776       82.69247       80.19632      -89.10878      -4.829819
       9.367493      -65.63069       1.920036       45.13548      -82.80347
      -45.39978      -67.39680      -122.8733       59.49855       114.9532
       19.09464      -104.8989      -115.8788       10.77058       7.005417
      -52.74940      -21.07370       3.337051      -46.41028      -72.07040
       73.15709       126.5010      -73.07285      -79.78580      -58.88702
      -148.4719       20.33356       110.3392      -32.46332      -127.3176
      -75.70743       32.85516       19.24533      -55.42132      -32.21490
       65.79063      -24.53522      -56.14105       104.9175       57.70868
      -79.20857      -25.52444       131.1460       131.6006      -60.98703
      -26.17961       69.57253      -44.00299      -130.8909       114.1108
       204.5555      -80.76134      -95.75446       76.95479       113.2175
      -29.57724      -65.13342       123.2477       41.85507       55.96735
       204.1007       99.08041      -97.35007      -157.9514       194.3575
       264.7431      -157.3326      -99.65454       126.5411       74.27512
       49.27417       80.82860       9.655754      -65.76361       6.098305
       21.42853      -28.72009       164.1404       165.7983      -125.5985
      -135.5037       8.917450       4.729340      -36.48425      -47.48032
       2.677254       23.62588       5.111847      -31.67752      -36.77704
      -85.89645      -225.5604      -23.36880       110.4139      -83.31824
      -46.84039      -149.7681      -225.4856      -13.95657       11.86383
      -132.1352      -126.4387      -44.78070      -173.3455      -166.8883
       28.18799      -142.5578      -361.7226      -149.2394      -15.77994
      -164.3037      -153.7949      -150.9172      -160.9890      -221.5166
      -258.4742      -59.84998      -219.7242      -399.5936      -214.9182
      -204.2238      -135.1727      -86.16931      -206.9446      -156.2679
      -192.8862      -266.1840      -176.5057      -225.5835      -283.6576
      -246.3797      -95.90509      -127.2892      -215.9456      -136.3336
      -227.4299      -343.3450      -404.1766      -284.2251      -180.7384
      -500.6986      -372.7405       343.7744       274.3979      -204.3696
      -3.447937      -104.7189      -712.9098      -570.2208      -173.9941
      -633.9060      -967.9508      -138.9541       302.2900      -566.9224
      -1271.363      -1259.846      -718.5844      -214.9915      -429.4061
      -735.7731      -527.3154      -320.9052      -142.4209       1237.808
       2796.108       1859.771      -62.75214      -109.2786       530.8128
       261.9026      -591.2358      -418.7146       263.5365      -80.25635
       376.5916       741.1843      -577.2363      -947.3265       20.35889
       671.7805       779.0555       14.06787      -658.4345      -493.3624
       268.7230       512.7158      -501.4841      -472.0876       289.5884
      -103.6375       172.6421       1121.331       374.9779      -54.89355
       1036.316       902.0359      -216.8848      -830.7021      -645.7651
       874.4629       1763.556       147.8378      -752.1069      -79.39038
       474.0781       667.3972      -179.3241      -6.978760       1194.077
       961.1115       565.0479       756.4519      -137.2176      -675.6756
       444.7655       576.0574       374.6866       575.4138      -212.4512
       382.9478       1174.962      -27.87524       265.7542       681.1096
      -207.8938       327.9487       931.9530       198.2235      -707.8500
      -545.1279       524.2466       358.5394      -876.1890       395.8340
       2126.439       782.8249      -337.8414       181.3568       421.8392
       253.3982       27.86859      -374.3523      -75.13940       876.5745
       725.4584       292.6191       293.0659      -317.2931      -398.8900
      -247.0027       124.2824       352.7561      -387.3648      -83.05969
       389.8035       107.5736    -0.05102539       238.7025       139.7375
      -176.2537       277.1947      -1.592285      -496.6865       185.1512
       370.9787       27.71179       192.5055       271.1428       136.3828
      -380.0007      -611.8445       396.0002       307.6576      -782.1801
      -89.50897       130.2788      -660.8603      -291.2222      -95.96854
      -112.5223      -102.3666      -313.0216      -63.40544       31.96680
       43.50018      -113.6449      -169.9092       110.1051       17.25000
      -485.2092      -542.5004      -58.22363       117.5461      -215.7075
      -640.7268       43.11816       748.9843      -58.40491      -599.0074
      -307.0931      -412.1139      -399.3853      -287.8215      -376.0721
      -231.3481       125.5198       688.1420       45.25586      -858.3003
      -627.8578      -593.6633      -159.9099       381.1965      -109.5833
      -486.2603       118.1497       398.5667      -392.0532      -584.5271
      -164.2631      -28.01440      -346.9595      -568.4867       41.18329
       25.37720      -741.1315      -451.2444       198.9393      -4.758911
      -366.9298       58.84650       310.9563      -282.2888      -378.9707
      -494.0200      -590.1603       204.9249       353.7644      -334.4447
      -296.6617       277.8937      -282.7778      -642.9868      -44.10252
      -35.18401       9.911377       135.1812      -136.2144      -402.9877
      -462.8158      -85.73767       95.25696      -135.0349      -156.6373
      -244.4362      -294.2307       92.71619       413.6850      -102.4665
      -429.6204      -43.01306      -221.8330      -202.3799       71.59122
      -111.0995      -1.535339       112.6386      -51.54993      -240.4672
      -156.5105       488.8992       433.6426      -217.1301      -618.2461
      -470.8056       246.2582      -42.34491      -396.4730       222.0492
       428.1980      -189.2703      -325.2417       266.6534       32.12941
      -136.4949       153.8586      -222.7919      -413.2534      -33.19044
       4.404312      -110.5527       171.3517       264.5691       107.6725
       115.7366      -144.0663      -279.5203       205.8939       165.6516
      -366.8657       115.0181       508.5813      -153.9564      -319.3128
       102.1374       393.5666       147.8746      -278.4194      -12.34302
       128.7415       79.91614       246.2495       186.9022      -113.1541
      -213.0865       92.58191       308.7569       65.59152      -12.08057
       188.1570       266.8826       237.6567       37.90781       65.27994
       200.8457       106.4794      -132.2832      -117.9450       118.7495
       84.14459       77.47382       194.7476       133.4674      -89.86929
      -66.40216       101.2451       104.6563       65.81689       215.2369
       427.8605       98.76251       30.99219       567.8181       217.3015
      -466.6553       261.4607       941.9088       234.6199      -67.01099
       126.2657       205.3323       271.1623       59.41754       115.3555
       471.2716       514.2480       194.7449      -21.72934       9.895508
       354.4763       542.5056       156.9396       119.9066       218.5592
       148.7426       403.4852       164.5717       170.6907       577.2906
       151.6318       201.0447       336.4619      -254.2162      -168.7339
       173.6832       204.3574       411.5308       503.0067       221.7664
      -75.15015       107.3145       365.9810       355.0474       160.2094
      -144.1046       13.78397       170.9970       90.35187       196.2893
       204.7507       298.8165       349.5105       68.47040      -153.9155
      -129.3767       8.430420       133.5357       133.1777       337.6896
       293.5760       41.77252       216.1441       174.3077      -122.4466
      -119.7563       345.2001       268.5565      -290.8339      -74.08942
       218.7012       341.7825       294.8118      -45.75391       137.2365
       199.4308      -150.1069      -328.4910      -255.9102      -151.3813
      -19.86292       252.8486       48.08716      -308.2377      -62.42697
       125.1991      -50.77290      -40.03381       157.9908      -43.16748
