     0.02500000      -1597.240       2191.857      -12345.00      -12345.00
      -30.00499       221.4950      -22.73000      -12345.00      -12345.00
       0.000000       16.34000      -12345.00      -12345.00      -12345.00
      -12345.00      -12345.00      -12345.00      -12345.00      -12345.00
      -12345.00      -12345.00      -12345.00      -12345.00      -12345.00
      -12345.00      -12345.00      -12345.00      -12345.00      -12345.00
      -12345.00      -30.27030      -67.72450       1286.000       0.000000
      -31.37200      -68.11800       0.000000       97800.00       0.000000
      -12345.00      -12345.00      -12345.00      -12345.00      -12345.00
      -12345.00      -12345.00      -12345.00      -12345.00      -12345.00
       127.8128       17.23267       197.0320       1.149158      -12345.00
      -12345.00    -0.07704850       270.0000       90.00000      -12345.00
      -12345.00      -12345.00      -12345.00      -12345.00      -12345.00
      -12345.00      -12345.00      -12345.00      -12345.00      -12345.00
      2008       244         6        45        28
       130         6    -12345    -12345     10061
    -12345    -12345    -12345    -12345    -12345
         1         7        13    -12345    -12345
    -12345    -12345    -12345    -12345    -12345
    -12345    -12345    -12345    -12345    -12345
    -12345    -12345    -12345    -12345    -12345
         1         1         1         1         1
RINC    -12345          
        -12345  -12345  
-12345  -12345  -12345  
-12345  -12345  -12345  
-12345  -12345  -12345  
-12345  -12345  -12345  
-12345  -12345  BHE     
ZL      -12345  -12345  
[...]
       3.057730      -1.414217      -2.918613      -7.378990      -13.69014
      -16.71559      -20.51395      -25.38861      -31.13441      -32.43311
      -38.39024      -41.52394      -48.06770      -51.94016      -53.56783
      -56.63724      -63.25430      -65.25897      -66.56305      -67.21027
      -75.22182      -75.06793      -78.24989      -79.28206      -85.55792
      -84.29913      -87.32428      -88.21207      -91.33902      -91.34705
      -93.00037      -91.85757      -95.36093      -94.02823      -95.58203
      -94.43280      -93.71848      -92.83466      -92.27533      -89.93839
      -88.08618      -84.49310      -83.62448      -83.15649      -77.71178
      -75.77336      -74.98399      -72.97374      -68.45169      -69.07799
      -65.65942      -63.82719      -59.88664      -60.19786      -57.03629
      -54.30554      -50.39911      -51.78085      -48.95036      -47.85323
      -44.85023      -47.06947      -47.25156      -50.03307      -48.36774
      -52.29991      -49.90970      -52.25610      -53.57098      -57.35210
      -57.68234      -61.12668      -61.55667      -65.35747      -69.00098
      -73.21637      -75.39709      -80.32489      -80.18970      -82.84460
      -86.81458      -89.98218      -93.73926      -97.37988      -97.62674
      -103.6026      -105.6694      -110.9434      -113.9000      -115.2628
      -116.2405      -120.9618      -120.5424      -122.9216      -127.0786
      -133.3470      -133.0979      -135.1996      -136.5520      -143.5142
      -145.3708      -148.2305      -149.5328      -154.0052      -152.8597
      -158.4064      -159.6613      -160.5627      -160.6185      -163.0105
      -161.7526      -166.4523      -165.9969      -167.2896      -164.4002
      -164.3622      -162.2070      -162.1085      -154.4303      -153.9474
      -152.4450      -150.3040      -143.4364      -140.7487      -135.7497
      -132.5533      -126.0439      -121.3907      -116.4334      -111.4000
      -102.9555      -95.72998      -91.71686      -84.44662      -74.16516
      -66.45496      -60.89668      -54.06447      -44.99693      -38.44138
      -31.82108      -21.08449      -14.45967      -8.560964      0.6289024
       6.568157       13.44710       19.32307       27.85406       40.52150
       47.98158       54.17967       66.85272       59.49976       51.66440
       72.64313       114.8262       109.6943       72.74878       80.49658
       137.0665       148.7136       90.36551       76.62155       131.6690
       141.5689       168.5845       152.3889       136.8679       201.8220
       189.0129       156.5928       178.0461       137.3995       192.1337
       259.5028       227.9693       253.6022       187.6045       110.9191
       265.4984       261.7596       179.1808       261.2835       269.3594
       243.9199       254.1104       211.4058       208.7244       296.5120
       288.3912       214.5248       224.4310       264.5896       335.7322
       280.8303       204.5542       196.7451       214.2128       329.6784
       293.5127       119.6747       204.8369       325.4784       229.3286
       226.4357       259.3813       217.2524       145.6896       152.2444
       350.1319       308.7022       167.4341       97.38699       95.25769
       281.9752       263.1457       143.4191       151.4276       179.3292
       196.2489       204.8044       182.8267       102.7884       65.24884
       147.9168       129.8939       145.3522       276.2635       123.4605
      -40.30261       138.2556       200.6371       76.36613       20.57483
       95.28191       79.66348       2.029419       71.60239       125.5071
       106.0655      -2.703522      -58.73297       42.25143       105.9066
       44.76579      -64.44336       104.6043       96.08899      -261.5947
      -26.84644       171.1921      -98.23322      -64.04190      -27.25336
      -45.55696       15.30295      -80.33893      -125.8733      0.7048340
       117.9461      -57.62213      -220.2279      -77.06149      -60.08583
      -47.19214      -54.28110      -192.5353      -110.1412       3.655304
      -82.28397      -157.4796      -134.9944      -98.89240      -75.32458
      -206.3912      -259.8383      -81.54413      -102.3448      -159.5695
      -45.88440      -134.4520      -250.7776      -220.7241      -184.4518
      -134.9526      -177.2169      -216.6666      -176.7364      -191.0523
      -159.0201      -207.0061      -252.8815      -198.3434      -204.6190
      -182.5009      -222.4055      -194.7020      -167.6986      -245.8611
      -219.9806      -215.5388      -244.5318      -178.0628      -170.1502
      -212.7181      -230.3963      -199.6291      -220.9209      -243.0742
      -171.8884      -165.0651      -165.8379      -196.1252      -177.3450
      -245.0515      -286.2811      -66.52545      -108.9288      -281.8639
      -184.7769      -139.6093      -123.8314      -87.54059      -205.2222
      -219.0648      -154.0713      -113.8619      -112.9778      -176.4204
      -164.7433      -47.16396       3.089417      -149.0335      -199.1774
      -115.1207      -36.79419      -91.83466      -167.9017      -42.09779
      -18.13593      -100.5525      -56.64363      -21.01141      -35.79901
      -82.41095      -89.71109      -15.63937      -71.07105      -36.31113
       59.14611      -33.65610       12.58443     -0.4698181      -105.3597
      -6.999966       41.36054      -29.76554      -27.97047       10.88739
       95.18083       124.7606      -61.95140      -38.87378       148.8535
       92.61786      -33.58981      -43.67786       89.14261       180.2938
       71.95633       33.83858       70.64888       16.22595       80.77411
       154.3821       139.3298       121.0286       59.74464       32.82574
       74.81970       173.3764       165.9616       48.18854       72.08807
       140.3600       145.7400       100.4083       68.39038       125.2277
       156.9239       88.93381       34.05243       108.6136       174.9461
       54.20892       103.5523       188.3804       30.74576       17.45734
       133.7534       188.3172       126.0468      -14.74207       55.72375
       187.7865       99.98737       51.60948       91.94760       31.26642
       99.53357       175.5538       74.20600       27.46436       42.18781
       129.0690       115.5167       6.131561       97.62012       150.2982
       35.82294      -43.44226       81.89746       243.7700       106.4100
      -97.97991      -2.903076       112.5876       91.15865       30.92499
       40.99008       159.9633       148.5990      -34.29687      -29.68512
       93.95166       105.4202       78.93704       38.61835       163.7241
       180.1890      -27.19003      -50.72400       38.17258       75.04614
       90.89713       129.6865       14.92192      -27.03955       108.9026
       126.2404       59.38231      -93.60159       5.103485       137.3139
      -41.54431       89.08521       139.5357      -128.4865      -93.72180
       93.71527       153.2378       22.24498      -137.6579       23.53423
       113.6835      -30.28857      -46.27994      -65.89520       16.64474
       69.29230      -33.62826      -16.43828       73.85867       41.79749
      -139.6257      -68.07459       69.14551      -106.9613      -55.18713
       116.2370       66.64429      -53.09576      -204.8319      -107.7625
       97.44583      -18.86586      -91.41093       13.73462       15.17271
      -75.44853      -56.94000      -9.887728       27.82356      -30.80728
      -193.0918      -71.93407       77.41193      -60.41016      -134.2023
      -59.57711      -30.02924      -51.59860      -98.58832      -104.1782
      -56.74148      -3.059280      -29.56654      -40.06320      -2.452576
      -149.9783      -258.9031      -96.74897       17.87805       20.73892
      -5.277710      -186.0101      -159.2219       37.90152      -100.2043
      -154.1247      -27.50977      -116.9647      -178.6374      -24.07124
       18.00824      -85.71735      -89.84180      -92.52437      -44.10586
       49.87109      -75.18613      -159.0669      -50.53650      -73.81775
      -78.03532       60.07272       10.88986      -72.15129       14.89090
      -106.5151      -87.62541       69.35880      -68.57313      -16.57150
       102.1254      -83.50325      -124.5971       10.11475       44.57034
       2.919407      -17.99409       11.66588       52.48548       7.389351
      -40.96889       20.33939       75.90894       12.86534       6.876862
      -19.56891       99.75598       84.76819      -167.3618       32.19199
       106.5972       6.001526       174.3531       90.01311      -86.61267
       35.39882       125.0778      -18.09094      -9.823997       85.09731
      -46.41235       6.019775       142.9421       36.65647      -25.15971
       36.69829       42.44362      -5.932251       100.6999       136.2031
       52.91539       31.86498      -13.90622       73.50288       133.1671
      -24.51891      -82.68689       92.79446       108.2324       73.28455
       159.1218       48.24365      -200.4851      -74.78503       229.1314
       189.3939       40.65398      -36.87735      -29.96202      -29.66776
       54.65820       251.1399       121.9171      -163.9956      -132.1578
       35.00597       96.94884       61.82031       14.89381       45.97255
      -8.772369       91.18918       101.1119      -146.3763      -28.76733
       142.2540       73.86802      -7.470123      -90.31088       2.443359
       139.3965       57.48336      -27.02368       1.217173      -23.62489
       30.21400       127.7159      -16.00696      -57.53870       160.4687
       55.00866      -54.19370       91.46953      -38.85365      -46.28640
       65.24103      -11.73893       6.511948       47.04971       43.00395
       67.97527       69.14128       12.64340      -76.55540      -22.39620
       56.04610      -10.47101      -57.16118      0.5745621       37.61149
      -7.474030       12.91653       28.07962      -2.028046      -50.38196
      -72.90259      -49.16948       22.55859       93.97060       27.55377
      -21.70200      -101.8242      -88.80505       43.08872      0.5865555
      -3.249039       56.00360      -131.6976      -74.83026       124.0428
      -63.23724      -131.3366      -23.00889      -29.70956       14.05272
       7.716553      -173.8245      -133.4497       108.9577       54.06232
      -41.96866      -124.3929      -116.1469       61.93141      -52.26054
      -52.10378       69.05321      -31.14554      -78.61813      -110.1420
      -88.70760      -30.72224       13.41430       53.18482      -12.16328
      -67.86896      -67.34743      -11.52948       67.11485       26.97292
      -45.37976      -89.59348      -191.8217      -79.48019       166.6133
       55.04967      -110.5036      -60.00443      -9.036800      -2.296043
      -39.69724       57.03021       107.9955      -76.12521      -148.8552
      -43.40158       32.58096      -25.67097      -36.39246       71.35713
       23.28185      -78.38575      -62.08239       34.66254       46.25104
      -90.38467      -192.6837      -18.46130       119.3951      -93.82166
      -164.8351      -4.004913       17.21948      -75.02744      -154.2134
      -33.51096       57.39307      -125.3159      -183.9446      -9.743866
      -25.48471      -93.97745      -51.80902      -129.5596      -131.4566
      -50.91318      -99.78180      -120.4272      -193.0055      -180.8376
      -73.67188      -108.9771      -99.05820      -68.10364      -166.8751
      -188.2303      -158.9805      -163.7310      -68.79657       5.704163
      -114.5982      -217.9796      -89.48347       36.31818      -67.68069
      -123.5517      -126.8624      -163.1087      -22.10980      -45.88739
      -126.6566       49.02698       20.56024      -204.2167      -186.1942
       42.82497       56.65101      -3.568725      -8.427240       10.74239
       10.09368      -63.10287       94.89937       114.9888      -2.568451
       159.7168       81.65308      -68.29361       104.2814       177.3802
       114.9125       133.3720       82.97424       61.51691       134.7469
       134.8652       62.33569       185.7244       204.2146       74.98950
       415.1003       842.1409       770.7026       555.7649       443.9064
       379.1956       81.80212      -471.6182      -355.4932       274.0492
       303.5258       215.4489       167.7736      -182.6227      -44.35498
       588.4293       696.5829       117.4997      -325.3494      -282.4818
       283.7917       1058.346       581.4331      -751.5341      -643.3980
       323.1644      -69.97021      -70.61768       1477.589       1338.619
      -239.4214       318.5916       950.5341      -2.591064      -290.4775
      -1220.356      -1465.095       1000.657       2191.857       983.7352
      -226.5098      -937.6406      -842.7936      -219.3289       338.7617
       592.8340       897.1063       1096.103      -762.1470      -1597.240
       742.5500       1342.140      -268.2202      -1062.745      -1006.110
      -34.61914       296.3656      -540.5289      -146.8687       967.1576
       789.6166      -81.83887      -168.8883       1.775391       292.5009
       106.8153      -536.9696      -323.9161      -512.3773      -409.5247
       696.8226       282.8734      -680.8412      -364.2272      -154.4790
       376.0593       905.0974      -169.9026      -809.5803      -533.5477
      -709.5529       112.3170       699.2573      -471.3076      -516.7090
      -55.07825      -449.3807       167.1560       317.3011      -517.4043
      -346.4077      -302.9604      -367.6910       247.3522      -61.21939
      -250.5891       93.88477      -477.8182      -135.4280       766.5261
       7.457397      -497.1258      -66.60095      -458.0189      -621.4672
      -245.6781      -538.8542      -424.4008       299.7719       322.8513
      -70.01392      -407.3998      -768.1420      -116.3677       899.6990
       640.2421      -392.1182      -541.9652      -163.4559      -427.8909
      -186.0233       237.4529      -153.4731      -565.5186      -285.7078
       56.35535      -120.2009      -319.8246      -213.3344       303.8621
       453.0060      -83.31036      -327.3254      -353.3088      -514.9288
      -86.11666       50.65097      -79.63928       352.2475       164.3630
      -268.9892      -15.39148       64.31628      -410.3937      -403.6231
      -134.7316       58.72272      -74.90411      -477.3784       141.5322
       605.3596       298.7666       107.8365      -188.6417      -389.8574
      -88.12390      -100.0732      -474.7766       122.2571       503.3716
      -15.38574      -31.08447       323.4693      -38.97961      -707.9413
      -347.3535       512.2925       599.9236      -24.68012      -44.65884
       191.3687      -389.1742      -676.2802       49.57068       705.1346
       423.3304      -302.3541      -237.2281       192.8419       250.8531
       401.0247       468.9610       181.4226      -302.3373      -302.9113
       99.26880       437.2828       714.0734       113.7361      -845.3246
      -130.6130       779.1470       400.5222      -83.98645      -485.5564
      -403.7020       2.031738       135.7772       313.9597       74.92279
       118.5774       573.7883       16.87854      -676.0542      -243.4379
       301.8792       314.8431       136.4719      -68.84497       24.20547
       142.7306      -40.96735      -312.1580       201.4125       563.5498
      -32.60779      -3.486786       159.9038      -157.5195      -112.5606
       146.7788       38.61053      -229.8344      -340.4286       170.5008
       539.6820      -150.0598      -335.4429      -55.22937       51.10950
       122.9022       228.4191       204.9161      -236.5295      -101.6894
       169.2767      -138.8109       8.253632       56.55205      -100.1558
       296.2316       239.2196      -142.6589      -389.8293      -189.6323
       350.6324       278.9117       61.35754      -253.4896      -498.8489
       94.94177       549.1269       126.2696      -280.8917      -177.8733
       69.72160       128.7402      -151.6368      -435.1857      -114.3625
       676.9760       536.9025      -493.4539      -426.9734       403.9533
       468.6058      -75.84875      -404.4432       201.9855       541.7488
      -473.4986      -476.5729       496.7316      -128.2958      -540.3335
       296.0869       559.1024       304.9540      -87.68396      -268.0016
      -140.8265       168.0172       425.0353       81.03642      -116.5920
       117.6398      -39.58385      -116.4292       107.0550       3.498779
       131.4330       138.6746      -81.26738       21.85632      -117.5593
       54.01880       294.9425      -75.66504      -454.5075      -142.9954
       331.7348       39.25880      -9.284729       144.0800      -13.98798
       226.7674       332.0229       59.65005      -33.87709      -41.74854
       36.84912       220.7495       325.9287       90.22699      -199.7286
       53.28711       312.6442       252.8510      -157.7356      -666.3767
      -212.4980       630.8923       508.1177      -90.16209      -36.81845
       55.45349      -285.8564      -340.6896       160.2916       479.6447
      -34.29172      -172.5969       379.4244       141.5734      -362.7782
      -108.9285       336.2030       172.4326      -116.0389       147.3073
       115.8895      -272.9230      -277.9945      -45.41707       77.69841
       68.61829       80.70005       14.01483       63.94766       226.6526
      -22.95300      -436.6988      -163.4998       417.0466       363.0457
      -229.9675      -215.2090       179.3764      -69.46161      -163.6690
       50.10539      -80.00624      -23.92627       85.08870      -133.8267
       55.28847       62.74750      -346.5937      -108.9897       125.7963
      -58.40750      -110.9404       35.51337       142.3276       171.5742
       81.95807      -245.1552      -87.37309       162.8132      -115.0713
      -24.16205       104.0670      -36.83972      -197.2612      -160.3623
       58.25006      -81.38022      -169.4430       170.4124       279.0530
      -173.8122      -248.8950      -34.49800      -64.10773      -53.04465
      -38.57214      -90.70398       53.71191       521.5316       253.6241
