     0.02500000      -762.7975       702.6172      -12345.00      -12345.00
      -30.00499       221.4950      -22.73000      -12345.00      -12345.00
       0.000000       16.34000      -12345.00      -12345.00      -12345.00
      -12345.00      -12345.00      -12345.00      -12345.00      -12345.00
      -12345.00      -12345.00      -12345.00      -12345.00      -12345.00
      -12345.00      -12345.00      -12345.00      -12345.00      -12345.00
      -12345.00      -30.27030      -67.72450       1286.000       0.000000
      -31.37200      -68.11800       0.000000       97800.00       0.000000
      -12345.00      -12345.00      -12345.00      -12345.00      -12345.00
      -12345.00      -12345.00      -12345.00      -12345.00      -12345.00
       127.8128       17.23267       197.0320       1.149158      -12345.00
      -12345.00    0.002631803       0.000000       0.000000      -12345.00
      -12345.00      -12345.00      -12345.00      -12345.00      -12345.00
      -12345.00      -12345.00      -12345.00      -12345.00      -12345.00
      2008       244         6        45        28
       130         6    -12345    -12345     10061
    -12345    -12345    -12345    -12345    -12345
         1         7        13    -12345    -12345
    -12345    -12345    -12345    -12345    -12345
    -12345    -12345    -12345    -12345    -12345
    -12345    -12345    -12345    -12345    -12345
         1         1         1         1         1
RINC    -12345          
        -12345  -12345  
-12345  -12345  -12345  
-12345  -12345  -12345  
-12345  -12345  -12345  
-12345  -12345  -12345  
-12345  -12345  BHZ     
ZL      -12345  -12345  
[...]
       267.3452       272.7543       282.9222       289.3606       294.6846
       300.5207       307.8601       313.1003       317.6884       321.8028
       325.5658       329.1708       335.8488       338.1259       340.3854
       345.6836       351.1605       351.3054       355.6415       357.9994
       361.1934       362.3135       366.5035       366.2231       369.5172
       369.4629       371.0388       370.2443       371.4637       372.5017
       375.6324       370.2767       373.0531       373.3552       372.2350
       367.9309       370.9359       369.0144       363.3851       360.8267
       362.3883       357.0391       357.6172       352.7214       348.3141
       341.9406       338.9564       332.0626       328.4759       319.1425
       315.4853       302.6067       298.5481       289.4589       281.4374
       272.7634       264.7192       249.8722       241.8958       229.4744
       219.4629       205.5273       193.2833       179.1774       167.4332
       154.7458       142.4055       124.0947       111.8860       98.16797
       80.88698       65.20428       53.27060       37.37279       24.87524
       8.250134      -4.951866      -18.82939      -31.53143      -49.85931
      -61.07544      -74.39816      -91.08453      -107.7240      -120.6217
      -135.4351      -146.5247      -163.6451      -177.7686      -189.4801
      -201.6904      -219.1794      -233.6777      -246.0630      -261.0355
      -273.8228      -287.3795      -300.9246      -314.1581      -324.1176
      -336.9080      -346.9436      -359.6890      -370.6826      -384.1537
      -395.2383      -408.0502      -422.5890      -439.8894      -450.3577
      -462.8788      -451.4966      -446.5618      -443.8558      -443.6199
      -521.8988      -551.4354      -502.0737      -478.7783      -425.1593
      -417.5591      -448.7878      -500.7812      -532.5918      -506.9370
      -600.5618      -588.8693      -501.6470      -461.5762      -512.2349
      -633.8411      -500.2754      -464.0776      -539.0854      -514.3815
      -619.1255      -596.7571      -438.1877      -438.7231      -533.1008
      -631.2744      -597.2920      -504.5275      -563.4474      -433.8745
      -381.0354      -568.3900      -482.6821      -387.8997      -468.1233
      -556.0730      -558.9379      -402.3873      -448.4729      -593.0867
      -276.7079      -195.7581      -536.2571      -324.8806      -276.9785
      -543.1255      -396.5497      -249.6351      -238.0276      -304.9365
      -399.2756      -385.0263      -221.2500      -194.8069      -310.8560
      -247.3456      -271.7233      -260.0386      -100.6870      -182.2357
      -271.5830      -52.99658      -79.09973      -277.3018      -126.5614
       25.67493      -154.8071      -225.3933       75.14615       163.2413
      -175.8524      -162.3961       205.4134       39.64717      -129.2015
       152.3892       80.72800      -43.53015       204.9719       274.2411
       71.53677       122.1256       241.5004       120.8265       181.0381
       251.0413       105.8281       149.4056       390.3822       323.1722
       165.1346       361.4444       295.1361       228.4420       464.0811
       212.4885       90.95264       486.2792       503.5795       175.8876
       274.0002       468.3536       409.8934       464.9308       381.9620
       165.9487       288.7085       534.1387       360.0188       337.4885
       608.2574       433.4759       280.7190       460.8530       372.3726
       304.1270       501.2942       463.9894       413.4369       529.5679
       432.6918       340.7793       526.7626       438.5441       301.6381
       415.7982       428.8221       446.0342       469.9128       379.5684
       319.4448       440.0182       457.9569       392.9656       401.9126
       371.7708       386.9214       406.7400       328.0778       368.4514
       455.1138       411.3037       334.9821       317.4910       363.6013
       299.9945       334.4360       338.3477       305.9613       357.8916
       297.9901       237.4579       186.3081       281.0444       396.1962
       242.5060       117.9778       167.5518       303.5510       255.8510
       158.9379       220.0064       212.4886       207.0275       157.2097
       188.7220       125.2900       46.56946       164.5502       149.8764
       97.26697       98.67331       131.7419       84.07414       102.8725
       38.49113      -63.50922       38.89136       63.80742       22.04353
      -39.43115       28.81329       158.5801       61.43791      -111.3426
      -30.74680       13.11314      -94.96274      -14.80286       45.05844
      -3.576508      -32.41599      -98.27502      -109.4898      -81.34555
      -66.58978      -17.52936      -79.36084      -77.62009      -110.7399
      -116.8273       39.68445      -48.98444      -215.1256      -129.0004
      -46.16275      -87.01520      -93.15927      -125.2330      -129.0142
      -74.31250      -151.8131      -192.9474      -81.82117      -80.97986
      -211.8805      -186.5559      -199.2365      -175.2022      -65.00391
      -111.2012      -196.2340      -173.7258      -125.8824      -198.2381
      -194.5311      -54.16992      -164.3983      -295.7001      -181.3512
      -78.37988      -151.0717      -170.6653      -162.1466      -212.0786
      -204.5869      -146.1307      -138.6776      -188.4213      -165.1278
      -159.2939      -211.2688      -152.7140      -196.6304      -188.3562
      -44.42163      -147.8486      -236.4890      -78.17957      -121.6809
      -275.5132      -236.1525      -119.3596      -90.13739      -183.3479
      -154.8035      -127.2437      -257.8346      -253.5433      -185.5811
      -53.45392      -89.34552      -247.3919      -174.1496      -162.6497
      -282.8806      -245.7096      -59.60750       53.36108      -83.34180
      -211.3242      -231.1022      -153.6288      -122.9636      -189.5405
      -170.1346      -243.4826      -168.5561      -1.699829      -128.7490
      -224.7684      -186.8377      -153.8471      -284.0093      -397.0447
      -235.7698      -3.478775       76.68213      -21.70056      -277.1956
      -389.3038      -131.9148      -52.28647      -180.7434      -55.20398
      -109.3521      -416.0200      -319.9470      -18.64331      -100.5983
      -118.9077      -24.44333      -81.66943      -160.0376      -402.6775
      -352.0563      -18.14587      -59.84869      -151.3823       3.367607
       16.78461      -133.9678      -182.8172      -189.3067      -128.2283
       6.636185      -16.91959      -183.8995      -89.02196       14.31952
      -162.5916      -188.6477       8.420876       94.17944      -77.56342
      -142.1455       23.41046      -16.58719      -104.3130       214.4384
       183.2983      -376.9141      -211.9041       215.7583       12.21471
      -36.86847       226.7834       116.3111      -157.2828      -15.72083
       332.8054       85.61729      -122.0546       176.3657       137.2970
       50.11896       94.55833       23.26031       107.1966       113.1356
      -51.29225      -78.50354       227.7257       417.8767       54.48059
       1.897888       318.7691       242.6075       28.57864       74.63593
       207.5808       108.9131       149.5062       255.5984       109.6491
       30.01819       261.0027       431.8844       229.0394       102.5941
       13.94041      -38.81458       251.2285       356.2975       225.1808
       269.0937       388.7733       126.3382      -53.81549       286.6970
       360.7762       120.4327       113.7436       339.4753       338.2563
       35.39490       210.6782       371.9288       108.1346       248.4275
       517.1796       279.5900      -10.47986       196.3746       248.6227
       166.6837       359.3788       360.0754       288.2862       190.1008
       190.7659       267.8013       222.6129       222.4208       170.5344
       370.3517       426.4423       167.6337       238.0228       148.2472
      -76.90875       210.0007       442.6507       262.4170       218.2047
       219.4827       205.4428       103.7833       42.77502       161.3864
       204.3397       380.8680       226.7359       68.85330       177.0104
       57.32394       135.4376       162.1882      -27.28000      -17.68433
       205.2047       228.8732       65.44345      -35.48952      -66.27307
       26.15165       17.39095      -31.65256       65.35159       110.8606
      -69.28204      -199.6091      -19.17340       147.4173       67.79486
      -81.27051      -92.56250      -165.6793      -332.2068      -197.7632
       103.0372       62.12067      -132.1385      -173.4129      -105.8218
      -151.3521      -265.0668      -137.5312      -66.15082      -145.1106
      -166.8615      -204.6683      -151.1735      -124.8259      -240.2897
      -211.6717      -129.0981      -139.2743      -80.16431      -138.0815
      -360.7299      -281.6933      -157.6848      -184.2174      -146.0577
      -101.5966      -290.7732      -279.4516      -74.92297      -193.7028
      -255.1945      -248.8079      -228.5983      -213.0137      -190.1780
      -61.87366      -170.4547      -280.5959      -250.8286      -295.9313
      -330.0889      -226.2933      -115.8970      -179.7580      -198.1623
      -90.69122      -117.0145      -313.2175      -412.6362      -188.6340
      -73.51086      -213.0159      -233.1239      -166.9963      -89.34155
      -185.2476      -334.5334      -177.5037      -151.5750      -224.6804
      -158.9760      -134.8323      -188.7819      -240.5517      -169.2301
      -123.8153      -238.7636      -118.8918      -42.09924      -222.4273
      -140.0188      -67.00546      -64.30408      -90.01147      -240.3101
      -155.3024      -75.59733      -39.96199      -6.164215      -139.7829
      -69.97089       66.05304      -15.36118      -26.19138      -23.40866
      -107.1666      -173.8971      -13.17065       112.2305       49.96808
       65.93890       132.1051       10.70447      -114.3368       70.00449
       71.10217       118.0152       199.9984      -30.77487       37.87659
       152.8754       69.19534       33.52008       102.4232       163.9007
       108.8436       68.98639       163.5804       122.6729       56.95102
       137.1224       178.2997       256.4639       279.9400       185.1413
       99.86594       116.8278       240.0825       264.2218       147.2867
       105.2019       269.9795       233.1937       142.2726       139.0768
       114.9113       203.8362       222.5132       169.9901       219.6339
       223.5057       181.8612       168.6372       154.6058       250.3854
       288.3768       142.1745       39.94214       200.3509       337.1515
       184.2097       162.1317       166.9351       114.3087       199.1498
       221.3627       196.1510       125.3373       68.59708       147.3827
       164.6310       99.36496       76.72534       188.8497       153.0367
       80.01093       264.6132       269.2367      -1.566071      -73.86121
       52.21582       170.2521       128.6613       35.69888       161.8417
       125.3107      -39.51190       68.04279       238.9411       68.12752
      -105.5133       109.2319       238.2933       92.72737       14.32610
      -23.27755      -25.39453       93.92139       135.8790       78.13147
      -45.33876      -59.24445       181.3199       265.6767       67.47635
      -132.7010      -58.69465       11.36711      -47.42137      -21.46729
      -42.05670       51.58966       132.1943       12.61071      -52.44910
       55.16142       87.22357      -102.7050      -83.74088       82.21140
       81.77887      -133.4470      -203.9969      -59.82910      -149.8873
      -239.0520      -13.18651       140.6890      -27.30595      -38.14771
       293.4123       157.6927      -80.77844       44.08289      -133.9896
      -325.1348      -341.2607      -336.1279      -256.6905      -278.3410
      -65.84094      -137.2783      -395.6721      -29.69794       182.0960
      -65.79871      -294.4064      -235.5966      -461.7334      -666.8788
       47.66345       62.31531      -637.1436      -349.5037       68.25800
      -208.8649      -379.0312      -88.86584      -275.0484      -468.1263
       143.2169       24.24957      -464.9422       100.6620       204.7184
      -421.4631      -422.0673      -238.9333       135.4618       423.7319
       399.9204       103.1946      -692.9995      -437.0858       160.9048
      -486.0726      -649.4280      -43.24457       94.21265       202.1006
       45.59058      -609.1932      -596.1938      -408.3075      -433.4832
       36.77106       69.51575      -541.1672      -507.7330      -73.53789
       88.08118       70.17224      -178.8665      -413.7440      -501.6919
      -262.6999       274.1780       48.90869      -762.7975      -678.2466
       121.0972       255.3161      -82.84033      -167.3773      -195.3971
      -111.6191       188.7432       327.0046      -80.82739      -528.4135
      -215.0895       53.78558      -108.1332      -117.3301      -149.8915
      -122.1660      -87.79742      -300.5366      -165.7861       148.8151
      -187.6830      -457.9769      -316.2368      -149.4564       124.3675
       180.2117       38.95593       35.30458       132.2389      -167.8775
      -212.3420       371.3519       420.7764       198.6042       122.5793
      -194.8666      -308.8337      -53.79297       195.4237       129.1268
       273.6719       368.9960      -12.63422       174.1800       150.5723
      -227.0330       54.69006       191.6041       170.8911       287.4572
       173.4803       25.03287       127.3007       209.6089       102.0932
       130.9536       38.44995       292.3827       665.1716       367.1216
       252.2139       258.3860      -69.09988       23.90430       451.1064
       390.0129       99.87097       141.6005       331.0154       348.9984
       141.7888       88.05530       417.2272       257.4312      -11.18738
       236.6913       411.0237       411.1085       279.9483       103.2714
       67.05334       240.9893       353.5424       124.5295       289.3623
       500.0128       270.7240       384.6351       82.45636      -291.1529
       199.8823       243.3718      -178.5767      -24.11829       331.7236
       459.4921       702.6172       557.8036       17.88672      -214.4209
      -5.600525       360.2772       222.4750       15.71902      -125.6921
      -107.8223       301.2300       335.4469       212.9330       417.3413
       380.6227       156.7498       225.5837       80.56720       82.83472
       292.8239       9.128662       9.307236       198.6153      -191.7391
      -212.3545       249.1284       166.6950      -12.90625       211.5839
       363.8343       123.1852      -73.76910       153.5009       213.9487
       167.0715       109.9977      -218.7499      -52.29944       363.5887
       189.3367       47.58221       188.5721      -7.554779      -128.0851
      -205.2462      -197.0410       183.2701       109.6929      -320.4656
      -211.6854       303.9793       193.6726      -119.5995       103.8654
       39.12030      -286.9324      -92.11536       256.7239       34.44060
      -98.11771       120.2973       71.74982      -71.69604      -253.5250
      -294.2581      -190.3484      -281.6057      -149.9964       95.41937
       7.143555      -277.7318      -538.0760      -390.5302      -266.6921
      -195.2090       127.6189      -14.41821      -362.6888      -304.4283
      -116.6002       1.936768      -169.9193      -345.9147      -218.4603
      -209.5436      -288.1858      -107.6755      -6.366699      -377.8662
      -540.5491      -343.7576      -279.4381      -331.7494      -512.1524
      -422.0783      -19.94455       76.73090      -44.57181      -88.41803
      -221.5896      -251.0452      -219.8229      -323.2557      -283.8844
      -178.3563      -280.1594      -470.7905      -346.6834      -72.86151
      -147.6155      -372.6926      -405.0676      -75.05771       136.1534
      0.3054810      -108.3837      -308.9171      -432.2153      -202.0397
      -178.7007      -376.9792      -138.2343       69.32292       33.06406
      -64.37567      -224.8747      -98.04852      -85.11688      -86.99403
      -18.73291      -97.45502      -298.7016      -188.9286       269.6380
       182.1108      -64.79462      -76.36047      -173.6642      -149.6263
      -13.75043       138.8989       229.2326      -47.74585      -288.2420
      -156.1357      -27.12738       68.50348       232.4243       192.2629
       151.9423       91.57809      -94.57861       68.13019       161.0431
       114.1842       238.2419       158.7064      -14.44238      -15.61975
       132.4001       303.5851       195.9247       172.4812       394.5975
       299.3910       32.49214      -45.76865      -58.42389       101.9539
       278.7775       316.5423       323.5420       201.3762       152.4047
       173.8442       124.4272       320.8286       290.0911       104.2592
       218.2507       134.1973       107.6924       313.5486       379.8983
       345.7362       313.6940       399.7416       526.3535       361.3130
       101.9670      -18.84597      -98.28424       80.12256       363.4145
       252.3315       24.10596       214.5887       390.9518       212.6758
      -39.64087      0.9923401       166.1738       57.26251       166.6807
       234.9480      -16.37347       25.56918       185.6706       119.6713
       50.09827       164.4111       48.47998      -190.3309      -105.2044
      -7.201500       31.30224       24.55878      -56.53193      -32.64607
       3.055618      -15.90082       92.64709       238.3365       94.85986
      -101.4168      -61.02258      -19.76447      -144.1834      -74.60760
       171.0030       153.1469      -73.26013      -185.5565      -14.20721
       139.7164       38.42078      -42.09100      -140.7492      -242.2954
      -94.38532       5.795410      -76.85477      -33.71899      -139.8994
      -264.5173      -119.6663      -31.25812      -48.92194      -191.7009
      -204.1981       25.80514       86.95709      -111.9399      -296.3157
      -209.3448      -94.24692      -134.3048      -172.8214      -147.0138
      -134.2352      -63.66734      -19.03865      -63.67258      -71.62587
