     0.02500000      -3606.922       4512.648      -12345.00      -12345.00
      -30.01005       217.1649      -18.71000      -12345.00      -12345.00
       0.000000       13.74000      -12345.00      -12345.00      -12345.00
      -12345.00      -12345.00      -12345.00      -12345.00      -12345.00
      -12345.00      -12345.00      -12345.00      -12345.00      -12345.00
      -12345.00      -12345.00      -12345.00      -12345.00      -12345.00
      -12345.00      -31.51150      -68.98430       1231.000       0.000000
      -31.37200      -68.11800       0.000000       97800.00       0.000000
      -12345.00      -12345.00      -12345.00      -12345.00      -12345.00
      -12345.00      -12345.00      -12345.00      -12345.00      -12345.00
       83.79173       259.1380       79.58772      0.7533942      -12345.00
      -12345.00     -0.2577922       0.000000       90.00000      -12345.00
      -12345.00      -12345.00      -12345.00      -12345.00      -12345.00
      -12345.00      -12345.00      -12345.00      -12345.00      -12345.00
      2008       244         6        45        24
       110         6    -12345    -12345      9888
    -12345    -12345    -12345    -12345    -12345
         1         7        13    -12345    -12345
    -12345    -12345    -12345    -12345    -12345
    -12345    -12345    -12345    -12345    -12345
    -12345    -12345    -12345    -12345    -12345
         1         1         1         1         1
SASO    -12345          
        -12345  -12345  
-12345  -12345  -12345  
-12345  -12345  -12345  
-12345  -12345  -12345  
-12345  -12345  -12345  
-12345  -12345  BHN     
ZL      -12345  -12345  
[...]
      -16.99014      -27.91606      -44.30905      -60.82932      -66.99677
      -82.31720      -92.44794      -115.5914      -121.7940      -118.1806
      -128.0961      -152.5348      -147.1449      -155.9333      -181.1027
      -209.0906      -203.8218      -206.9512      -224.7681      -243.9266
      -253.8104      -271.3682      -269.7844      -291.2683      -315.7244
      -313.8763      -300.2296      -320.6760      -337.0446      -346.1028
      -345.1863      -362.6731      -378.2921      -387.6632      -388.0374
      -403.9828      -406.3235      -417.7935      -427.8369      -431.8853
      -437.0924      -454.4128      -441.2615      -442.6021      -465.4519
      -471.6326      -465.5349      -477.4939      -481.6755      -497.2367
      -491.5923      -483.6250      -497.0074      -506.3188      -501.4323
      -515.2825      -500.4646      -492.9910      -513.8140      -515.2390
      -499.9525      -511.4056      -516.0969      -513.1016      -505.8195
      -494.2664      -496.9590      -496.8218      -489.5735      -487.7866
      -477.9498      -466.7566      -450.4763      -452.9401      -451.1581
      -434.2412      -426.6785      -433.6292      -404.6838      -391.1569
      -386.4960      -362.8584      -330.5913      -318.2352      -316.9600
      -305.1804      -267.9370      -261.5729      -257.3086      -240.9972
      -211.8051      -189.6525      -168.5086      -167.0436      -146.1817
      -120.7715      -96.93204      -81.85950      -49.08226      -41.84908
      -29.89250       1.293293       19.86530       14.76991       58.03839
       79.51312       76.76163       87.23218       123.8431       138.5926
       146.7914       148.7049       178.0745       195.9867       202.0204
       202.0781       225.2816       245.6796       263.4588       263.0352
       273.4662       300.1236       319.1293       312.6746       329.3697
       338.6130       343.6465       354.5916       368.8054       370.9625
       389.9410       401.0039       413.1113       419.5906       439.4194
       460.6230       474.1351       466.0500       480.7390       505.7351
       513.8276       505.1359       519.6234       542.2612       554.3037
       540.8063       546.1447       559.1382       561.8423       549.8069
       557.3005       569.8665       568.0771       556.0530       558.9180
       556.7637       552.9662       548.1233       543.8608       543.0303
       538.0381       522.8314       524.3868       520.6599       495.7930
       475.1118       478.2551       466.6143       454.4845       446.0127
       423.5530       409.3477       410.7217       392.3368       367.7505
       362.3440       357.3773       331.9983       318.9553       304.5908
       291.8447       273.5528       257.1552       242.0965       227.4471
       212.4431       196.6440       169.9746       159.1013       145.6852
       125.8334       117.0439       106.1500       84.62546       74.34531
       60.83771       39.39890       12.69137       14.09291       16.32039
      -20.03347      -32.68366      -19.09705      -47.28738      -77.90607
      -85.74420      -94.67368      -101.5811      -120.1431      -143.2677
      -147.7260      -148.5439      -155.7798      -166.7616      -183.6312
      -187.4291      -203.0061      -227.9177      -221.0719      -232.9739
      -264.1602      -263.5271      -269.0312      -290.4861      -298.3566
      -313.6988      -325.4745      -327.7916      -339.5063      -343.6965
      -347.0687      -359.5492      -366.6224      -377.0325      -360.9254
      -343.0332      -358.5193      -234.2725      -451.5397      -788.2902
      -256.0382       46.24805      -1131.497      -1364.524       399.2465
      -78.36597      -1196.209      -155.6997      -312.8665      -616.3403
       504.4100       227.2083      -1087.239      -801.4689       10.13696
      -622.3446      -877.8463      -187.5641      -436.2817      -427.1798
       362.7688      -241.4067      -1066.334      -828.3203      -644.6626
       463.0050       325.2689      -762.9670      -289.4971      -661.5347
      -924.6221       175.7384       88.64258      -537.8440      -94.08752
      -113.2972      -715.9261      -324.0947      -158.4893      -574.7559
      -133.6184      -278.4904      -550.8309      -19.69244      -187.7253
      -398.7762       275.7288       460.4888      -979.5183      -1057.187
       750.1340       391.8462      -824.8149      -579.6334      -449.8904
      -90.22107       760.2472       367.3351      -661.1099      -543.0412
      -11.26160      -234.2313      -376.3060       238.8325       505.1498
      -186.1730      -275.7664       219.0211       305.4855       249.9507
      -118.9774      -117.6783       176.8745       131.5524      -22.86703
       53.85147       106.9565      -57.39014      -69.63055       145.5743
       402.3185      -21.42468      -463.0905      -19.36816       370.4265
       724.2930       747.4470      -605.1750      -439.0356       1224.544
       384.3436      -822.7587       80.47693       884.3695       205.2006
      -483.0952       268.3740      -8.751099      -460.9561       555.7297
       656.6491       169.1957       130.2585      -195.7510      -501.4628
       498.3126       875.1591      -273.6447      -268.0823       87.78995
      -177.5476       451.8745       574.3058      -375.5637       43.33618
       755.1465      -353.3170      -274.8979       773.0132      -102.1711
      -403.0948       316.6512       309.3461       114.0635       155.7616
       222.1155       77.80994       168.1271       164.5657      -67.60297
       385.0466       217.2282      -64.54919       407.1786       30.80627
      -155.2505       691.7162       598.6155       38.96216       423.8728
       556.6963       1.854858      -199.0203       275.4526       588.8042
       197.5250       133.6284       548.1958       489.7656       166.4664
       76.45068       332.8434       359.5042       152.2825       227.5341
       88.89600       310.7209       628.3078      -21.40503      -77.21240
       558.9199       335.7155      -197.9747       247.4149       497.6551
      -87.91345      -117.3458       175.6825       175.2666       289.0967
       538.7745       61.25415      -368.2135       120.6839       339.6511
       9.675781       270.2453       277.1242      -226.4143       36.41287
       190.9567       3.556351       24.46689       92.75305       290.7375
       302.8478      0.8924561      -93.27649       231.6806       223.2247
      -121.9326       5.123840       161.0387       206.7158       167.2550
      -119.6920       38.80920       555.8992      -19.91772      -388.2499
       222.5024       205.4979       292.1460       74.41306      -284.5400
       490.3469       513.4742      -319.7227      -19.79126       446.2307
       101.1638       13.34610      -60.65326      -182.5533       349.8264
       573.0453      -126.2474       107.7667       837.6149      -64.44836
      -340.8502       603.1505       14.28967      -478.1467       606.7171
       412.2029      -528.6489       7.825867       444.3764      -156.8651
      -81.40756       11.46164      -309.2520       248.9468       336.5465
      -172.7673      -115.2085      -192.1073       182.4943       495.4790
      -600.0765      -674.7866       371.6855       226.9743      -78.67816
      -16.78943      -421.8250      -459.4013       57.25565      -41.40765
      -393.6156      -30.81323      -385.1200      -563.5787       24.86084
      -498.3954      -443.7633       113.7279      -116.0515      -415.8301
      -441.7354      -45.70020      -639.0192      -886.4391       354.6652
      -5.390625      -884.1256      -412.4099      -310.1570      -483.4553
      -719.5276      -608.3668       212.5499      -302.2083      -1035.702
      -70.12720      -391.8923      -1161.672       100.9453      -84.35034
      -850.5884      -769.9719      -742.4391      -138.3569      -335.8093
      -855.2744      -752.9039      -251.4541      -151.5217      -614.4126
      -464.2031      -283.1133      -322.0059      -345.1467      -391.8154
      -598.0537      -944.9410      -410.7798       361.3033      -386.7905
      -929.7526      -288.3295      -24.71924      -402.8719      -754.7394
      -355.2066      -40.93420      -320.4983      -264.8744       41.74414
      -314.4218      -780.5854      -277.1964      -94.80212      -441.6571
      -98.27420       338.5933      -375.5420      -471.6045       475.3094
      -93.73706      -578.1954       66.57898      -271.8523      -288.6443
       385.0251      -243.5222      -280.4535       566.4802       44.48621
      -387.3096      -170.9334      -97.65332       199.4372       72.21533
       15.95038       284.2307       31.76868       110.5058       220.9719
      -137.3943       142.5579       653.6612       185.6344      -157.1555
       107.0035       323.3630       392.8356       74.79895      -118.0273
       481.9667       710.8361       366.0177       41.63342       261.3948
       538.0239      -134.7527       324.2061       1335.767       380.6810
      -552.5068       35.47290       775.5723       695.1321       793.1967
       637.9445       124.1064       287.3873       486.6211       335.7449
       550.0339       730.2181       213.8435       377.9956       857.4222
       750.2262       515.7717       187.9503       246.3958       744.1230
       819.2198       440.0571       663.9089       728.1263       355.7678
       669.3197       575.5493       280.7131       620.9827       717.5293
       572.7571       521.2568       696.3040       566.6917       408.5720
       907.9828       723.8553       21.06152       601.0419       584.3235
       24.33081       592.5258       526.3469       361.2512       772.9178
       568.7202       277.7532       364.8282       337.1084       353.8475
       338.7306       276.5167       536.9463       397.2317       150.3778
      -114.5472      -89.44922       844.4348       616.7783      -339.1539
       384.6019       713.9912      -450.3847      -215.5400       696.9927
       3.591064       25.54242       445.8547      -216.6135       152.4945
       393.3831      -283.6408      -211.2477       246.5035       201.5401
      -57.91296      -90.11609      -276.4294      -196.4200       86.79883
       128.3055       87.18384      -205.3672      -124.2375       163.0795
      -357.6765      -641.5183      -151.7520       112.7213      -64.21759
      -395.7877      -226.9547      -175.6033      -487.9933      -324.7418
      -237.3799      -286.1475      -521.4717      -769.2791      -384.0282
       62.12988      -132.6311      -554.4124      -657.3239      -384.8043
      -173.6150      -305.8384      -423.6655      -930.5757      -564.2787
       277.2664      -567.6165      -946.5728      -416.9666      -752.3369
      -683.0193       81.18091      -580.9297      -1342.155      -424.7529
      -171.0259      -807.7473      -672.4266      -406.7491      -310.4326
      -194.0967      -565.3807      -610.3435      -365.9949      -963.2372
      -809.2710      -122.8184      -665.6470      -733.1068      -55.91968
      -258.5461      -575.7803      -560.1182      -702.4191      -432.9030
      -376.5503      -897.0154      -564.0756       72.96118      -362.6610
      -611.8037      -378.5385      -659.9686      -632.8458      -250.2234
      -599.2075      -996.5691      -264.1983       117.6182      -372.5934
      -193.9164      -143.6173      -189.3929       26.52026      -590.4679
      -937.2803      -45.67880       324.0600      -169.6568       2.185760
       133.7771      -463.2024      -704.4927      -162.2111       12.84875
      -577.9957      -311.6253       59.24042      -299.5168       169.8148
       514.4806       39.12891      -169.6519      -271.6498      -570.8823
      -615.1931      -244.2713      -51.70886       128.0508       964.1370
       1256.709       12.39404      -953.0405      -903.9348      -962.9059
      -887.6672       379.8794       1850.880       2690.910       3640.177
       3903.170       3046.354       1909.304      -270.0049      -3606.922
      -3418.482      -336.3989      -1412.215      -2364.894       430.2059
       587.7109      -1529.338      -2298.667      -290.4468       2533.806
       2247.195       411.3931       551.6726       1402.018       605.1951
       754.8403       1459.051       801.7780       11.25806      -1325.632
      -1175.572       1719.754       1745.180      -1245.592      -328.0269
       2174.482       922.5367      -471.4846       128.7977       505.7549
      -790.1555      -1286.016       986.7007       2025.699      -865.3975
      -3049.854      -597.6191       1947.616       635.9868      -461.9922
       1715.731       3937.433       4512.648       3403.750       1794.358
       1723.926       464.1143      -2440.302      -3049.852      -2466.792
      -2737.975      -1132.639       1918.027       1971.307       713.9634
       1800.337       2135.260       667.5952       186.2665       515.9274
      -35.66919      -672.8754      -90.56238       197.1194       429.4431
       605.3271       202.8445       989.4797       1787.740       332.5574
      -1230.106      -122.3733       935.2219       207.7607      -609.5208
      -974.4962      -224.9213       792.6265       28.71729      -1188.691
       43.41998       860.5732      -749.3022      -804.2437       1034.778
       876.4902      -1371.876      -948.2798       1311.909       1085.216
      -51.54175       412.0959       798.8338      -313.0487      -41.21729
       1134.729       27.65884      -170.7702       662.7683      -790.5669
      -1415.988       71.24881       194.0213      -409.1606       975.7656
       1998.878       511.5381      -431.4747       469.5127       224.7012
      -1850.197      -2515.328      -915.9988      -116.5309      -279.8054
      -292.9725      -305.9277      -198.5100      -267.0135       215.7041
       1315.458       1481.758       135.8899      -720.0710      -809.3589
      -1388.283      -890.7886       163.8818      -535.4463      -1195.459
       232.8093       1596.725       479.7485      -1317.703      -1301.880
      -442.1760       28.37476       335.6067       438.4182       579.2159
       286.0798      -702.7056      -1449.939      -1250.236      -813.5864
      -1341.417      -1523.563       53.17358       978.8591      -456.8547
      -1326.099      -178.7570       60.87891      -1267.732      -1613.430
      -734.5175       78.01074      -600.7881      -1829.844      -908.6908
       154.6945      -2.405807       43.50089       84.98755      -174.3677
      -882.2365      -964.9236       351.0194       523.0620      -287.7001
      -137.9003      -126.3096      -786.1309      -1577.947      -1106.252
       294.4734      -200.0103      -1246.653      -725.0668       43.38486
       121.1100      -476.3629      -387.8457       1021.660       1438.295
       264.5147      -315.3425       357.4949       156.1787      -1560.779
      -1331.387      -142.0415      -958.3547      -301.1273       763.9443
      -271.6703      -350.7446       356.7346       440.8088       628.5338
       571.1869       356.2667       569.5150       79.12793      -680.7745
      -262.1087      -33.74133      -487.8034      -88.32904       191.9609
      -90.55420       688.9346       1495.170       1126.071       205.2685
      -388.9387       168.0809       249.5249      -601.7351       251.2441
       256.1362      -1527.964      -1012.566       472.1287       184.9214
      -487.8021      -297.1407      -23.90845       327.3273       471.5529
       53.48059       270.6169       787.6782       924.0177       689.7048
       430.4436       176.1107      -512.0133      -397.1663       723.6693
       547.0435      -202.8723       381.0962       490.0969      -362.2415
      -205.8623       324.4725      -45.21570       238.0598       1158.175
       1241.241       546.9822      -338.4442      -465.7250      -215.2553
       129.3444       495.1251      -149.5966      -548.3422       33.38843
       471.8425       482.8476       212.2730      -168.4603       407.6443
       837.9677      -340.6751      -599.6199       940.5652       836.8845
      -807.6208      -312.2795       957.2004       396.3067      -167.2871
       448.9114       918.0532       262.0593      -251.1187       300.8787
       502.7569      -52.18506      -471.2572      -724.6924      -398.9119
       700.3235       887.7766      -38.13937      -92.84668       411.0226
       519.7295       385.6287       669.5667       1003.676       342.2746
      -96.79053       371.5083       525.8029       441.4309       178.2684
      -283.5851       194.2349       523.1377      -979.2677      -1213.358
       424.2233       886.9645       82.16650      -401.5483       171.7914
       106.2161      -205.7394       97.59814      -239.3696      -199.8143
       354.9709       372.8563       280.2341       160.2724      -78.98830
       49.83917      -27.65491      -461.8400       151.5857       925.5570
       269.4414      -226.1182       319.8718       15.21973      -1079.772
      -468.7130       564.1553      -10.65955      -471.6787       110.8889
       529.4517       98.37263      -74.87570       210.7617      -85.60675
       31.15796       487.9500       233.3212       131.4646       463.0426
       307.5121      -283.0489       35.29639       660.4398       292.0173
       73.30298       487.0344       120.5998      -462.1320       56.86902
       392.4739      -9.704407      -139.6974       281.2985       59.37781
      -566.5319      -145.8913       108.3713      -159.0654       328.0909
       277.0723      -657.7876      -522.0771       421.1920       214.5459
      -806.0242      -728.3458       167.1359       71.29291      -465.8722
       142.7549       279.1062      -559.7509      -335.5704       419.3524
       76.05859      -564.4133      -771.4515      -332.5323       605.7478
       529.0045       60.53073       207.2437       78.29553      -305.2013
      -274.6988      -204.9054      -252.7620      -151.3531      -187.8905
      -303.1638      -115.6921      -505.2483      -697.8808       114.7763
      -28.10342      -223.0902       343.1122       68.13501      -341.3709
