     0.02500000      -5321.328       4513.306      -12345.00      -12345.00
      -30.01005       217.1649      -18.71000      -12345.00      -12345.00
       0.000000       13.74000      -12345.00      -12345.00      -12345.00
      -12345.00      -12345.00      -12345.00      -12345.00      -12345.00
      -12345.00      -12345.00      -12345.00      -12345.00      -12345.00
      -12345.00      -12345.00      -12345.00      -12345.00      -12345.00
      -12345.00      -31.51150      -68.98430       1231.000       0.000000
      -31.37200      -68.11800       0.000000       97800.00       0.000000
      -12345.00      -12345.00      -12345.00      -12345.00      -12345.00
      -12345.00      -12345.00      -12345.00      -12345.00      -12345.00
       83.79173       259.1380       79.58772      0.7533942      -12345.00
      -12345.00     0.06063303       90.00000       90.00000      -12345.00
      -12345.00      -12345.00      -12345.00      -12345.00      -12345.00
      -12345.00      -12345.00      -12345.00      -12345.00      -12345.00
      2008       244         6        45        24
       110         6    -12345    -12345      9888
    -12345    -12345    -12345    -12345    -12345
         1         7        13    -12345    -12345
    -12345    -12345    -12345    -12345    -12345
    -12345    -12345    -12345    -12345    -12345
    -12345    -12345    -12345    -12345    -12345
         1         1         1         1         1
SASO    -12345          
        -12345  -12345  
-12345  -12345  -12345  
-12345  -12345  -12345  
-12345  -12345  -12345  
-12345  -12345  -12345  
-12345  -12345  BHE     
ZL      -12345  -12345  
[...]
      -76.78670      -71.41035      -40.00677      -35.68821      -34.43541
      -9.386436       13.60722       26.83615       31.50687       43.06558
       64.83698       85.17987       90.07129       91.71252       110.7235
       133.0885       160.6799       172.4454       181.1970       215.3242
       236.3551       230.8302       239.7545       271.0581       285.1466
       287.3597       305.3499       328.3780       337.7782       342.4651
       347.7336       356.3125       379.5596       378.6196       361.8824
       370.4492       385.8102       393.2209       385.7644       387.7130
       402.8326       400.5603       385.3352       387.7979       386.3853
       387.4784       377.8245       366.7258       363.0139       362.4280
       355.8802       345.4989       339.5975       334.3563       324.8536
       311.6344       292.4165       287.9462       292.4603       272.2083
       247.0196       256.2041       247.4498       213.1324       201.0588
       206.5159       204.3881       180.5793       156.3025       133.0348
       129.3948       126.5026       106.1615       80.84476       86.28604
       85.37004       55.11374       41.85559       44.40963       30.13902
       16.33189       13.88640       8.893009      -6.840279      -23.48005
      -40.92545      -44.85336      -58.35266      -63.94049      -70.11606
      -76.69650      -72.01205      -79.52451      -116.6377      -119.5100
      -100.4852      -113.5386      -131.2440      -137.1785      -129.3301
      -130.0776      -154.5030      -161.3529      -149.3133      -157.2415
      -186.4014      -188.3560      -190.3746      -197.5227      -209.9865
      -211.7382      -203.4572      -205.2418      -215.6794      -234.2569
      -248.5193      -228.6086      -243.7112      -269.1050      -260.4319
      -243.9584      -265.0938      -289.9523      -280.7039      -264.9987
      -295.4133      -318.2402      -310.2614      -292.1646      -302.6338
      -325.9765      -328.7882      -314.8981      -342.0466      -362.8088
      -349.5194      -341.0278      -350.0818      -365.6443      -363.0613
      -356.7548      -368.4053      -363.1230      -371.2650      -368.5834
      -357.6206      -365.5491      -375.6123      -371.3350      -378.4615
      -381.6465      -380.4781      -366.3707      -350.7958      -356.6813
      -360.4399      -346.8729      -344.7300      -341.7379      -331.5397
      -320.4231      -317.9949      -303.6517      -293.0278      -284.7653
      -285.1492      -280.2735      -272.8258      -261.8873      -253.8954
      -239.9572      -217.2740      -203.9154      -208.6032      -198.1222
      -170.7711      -157.9902      -170.0063      -154.5282      -125.4112
      -112.7600      -127.6899      -120.6703      -95.28909      -84.13315
      -77.24466      -69.77264      -58.91138      -39.44180      -49.10828
      -51.42028      -17.61271      0.7236633      -8.213745       3.804306
       28.90700       42.49304       42.99742       55.10324       67.26816
       88.15491       106.6980       117.6818       125.7734       149.6229
       160.9813       159.2965       178.6616       202.1094       210.9365
       220.7186       232.5679       262.2036       277.1713       271.3768
       280.0925       308.9022       320.0168       322.3253       334.1974
       353.6927       363.1953       368.5857       376.2367       388.9275
       396.6240       400.2369       417.8331       435.5051       437.7075
       439.5673       458.7250       467.0818       454.3119       465.9878
       488.1387       492.7289       499.5635       511.4242       516.2843
       526.9305       528.4480       531.9714       551.7183       554.1606
       550.3822       551.1538       571.3468       576.7434       564.4075
       564.1376       571.3613       580.1193       565.9758       563.1764
       574.5685       574.2683       564.5853       562.9893       571.5300
       563.2808       553.8964       548.0774       536.1145       535.0579
       533.2507       522.4514       501.6699       509.8453       505.1592
       460.0203       440.9484       448.3887       436.5947       426.5305
       408.0282       399.0271       379.1255       350.2944       327.4935
       322.9525       312.3345       350.6841       424.6670       442.3479
       437.1839       177.7123      -1.668091       319.7020       436.5469
       272.0169       11.79729       79.11691      -97.76858      -18.92609
      -51.85400      -36.84973       778.8566      -24.64001      -499.1223
      -464.5311      -796.7306      -408.1547      -141.4292       459.2504
       459.3854      -149.7005       95.77692      -237.7137      -473.7053
      -222.6808      -60.51630       521.4126      -254.6201      -675.1142
      -98.24268      -444.6189      -517.7832      -328.7856      -599.0195
      -336.4158      -247.5653      -188.3585      -442.1259      -592.6287
       242.4684      -180.1248      -514.7395      -172.0818      -230.5066
      -253.4863      -653.2084      -502.2076      -264.4771      -363.2856
      -422.9348      -678.7914      -363.2196      -111.5979      -471.5762
      -724.8931      -558.4594       414.8649       427.9375      -847.5959
      -907.4937      -380.3828      -546.8750      -850.9794      -701.1168
      -125.3721      -146.9835      -779.4483      -425.2860       43.87463
      -452.1985      -85.01105       338.4438      -859.9226      -1323.479
      -238.9832       51.62979      -259.2372       40.18152      -365.4194
      -1091.083      -715.5636      -474.6794      -204.2230     -0.3651123
      -56.04675      -319.2748      -642.8782       55.56921       167.9099
      -972.2926      -978.2327      -44.22052       95.10242      -552.3604
      -178.5106       192.7671      -1005.097      -1158.206       270.3065
       77.40601      -926.2234      -104.2505       224.3143      -152.2037
      -33.04199      -587.1793      -811.4001       257.3951       189.3588
      -566.4690      -205.7193      -201.4706      -377.2932      -247.0312
      -214.9021      -25.68875       309.2598      -331.4373      -891.6816
      -415.7709       301.1813       92.60522      -646.2053      -207.7283
       97.56860      -391.3893      -392.1678      -409.4866      -293.6247
       111.4671      -75.43909      -320.2008      -59.64404      -164.8828
      -370.4061      -281.4240      -128.2408       203.0715      -398.4995
      -352.6044       337.0823       81.86993       2.653564      -426.9794
      -470.1089       156.5507       124.0282      -306.3678       18.49323
       266.0676       92.79144       27.51099      -500.4597      -210.9539
       95.87134      -62.20068      -235.8184      -410.8893       266.1765
       154.1931      -116.2139      -61.25262       205.5103       612.6316
       144.7047      -190.4858      -92.08386       176.2587       432.3234
       137.6425       168.3768       231.7760       391.0178       375.6776
      -74.05615       224.9814       391.2670       256.0006       262.8694
       610.3355       339.6329      -131.1132       538.5574       458.4759
      -126.8474       220.2981       468.7864       384.2612       214.9995
       201.3789       804.1659       722.6195      -72.82706      -15.76733
       488.4653       792.4876       515.3576      -212.5474       209.5884
       859.4966       361.7323      -56.38171       175.0498       463.6927
       523.7966       159.1427       81.17310       359.8542       444.2825
       594.5175       381.8337       264.6997       342.8505       208.5635
       262.9552       251.5756       460.8901       473.4220       276.8027
       226.4460       137.4364      -1.060791       251.4512       570.9797
       235.9197       290.9077       580.4448       184.7173       85.39050
       293.4351       561.5021       734.0385       328.3990       149.5508
      -31.17358       317.0606       465.7972      -13.45288       138.3044
       405.1825       581.5641       92.16232      -160.6221       437.4160
       554.9637       379.0804       18.37820       58.45435       188.9441
       267.4948       503.7814      -40.39075       121.7730       495.1980
      -157.0038      -248.8398       7.532227       245.6323       676.5880
       305.3250      -143.4634      -143.9349      -95.91135       202.4215
       30.81323      -332.0011       281.2578       426.1952      -106.7014
      -222.5654      -312.3869       37.90030      -15.66553       307.3446
       699.4856      -641.3506      -217.7334       332.8909      -472.4325
       199.3356       197.6078       50.76886       137.3942      -524.1898
      -418.9530       221.7222       271.9225      -364.8241      -683.1823
      -6.725098       690.9714      -161.5779      -409.7711       362.9500
       159.8777      -371.6157      -378.5916      -54.03818      -48.45154
       291.1917       187.7169      -366.9434      -338.0210      -23.69873
      -13.77222      -501.4085      -395.6532       344.6873       713.2369
       48.03772      -406.5762      -53.67175      -351.0270      -394.6613
       242.3974       16.91364      -344.7629       48.52509       305.9102
      -42.11621      -739.6335      -264.7323       421.2122      -89.19824
      -432.7812      -350.4807      -27.44470       236.2771      -77.40717
      -201.7742       100.7775      -44.74121      -276.1404      -314.1722
       5.312378       321.4909      -159.7415      -301.0648       15.22437
      -78.68311      -70.04437      -82.16565      -296.7278      -92.23169
      -161.4957      -539.5271       98.99915       333.5457      -167.3706
      -167.2554      -331.4074      -175.5780       14.25851       49.02673
      -205.3098      -702.4434      -203.5280      -21.37567      -402.7808
       89.99921       120.6838      -705.3171      -586.9218       68.34052
       274.4872       15.93542      -546.3702      -295.9204      -86.43933
      -267.6752      -344.5064      -74.08984      -206.2938      -320.1435
       18.30432      -463.6224      -184.4991       342.5762      -450.2207
      -1128.594      -636.1873       316.6323       252.8846      -545.0918
      -542.3090      -121.9377      -394.7682      -680.0693      -154.0696
       156.0415      -432.3834      -576.8615      -211.5771      -338.0399
      -362.8551      -416.7167      -280.7941       107.1691      -403.5739
      -617.9631      -520.7280      -345.3083       74.82434      -245.5656
      -452.3712       4.142395      -68.66895      -611.0779      -790.6855
      -476.2392      -98.36420      -281.5696      -207.2816       141.2220
      -250.3633      -435.4373      -336.5677      -290.2354       81.58734
       175.6915      -228.3315      -580.7142      -96.65428       130.3154
      -159.7725      -87.80298      -321.8014       88.83308       87.31009
      -275.7023       95.64014      -212.1793      -207.6496       133.8244
      -209.2213       165.2814       696.3245      -89.77002      -510.5425
      -183.3589       228.1866       634.7808       263.1454       7.138504
      -43.99011       77.97528       380.8306       153.3191       166.5212
       283.4941       318.8192       417.0366      -17.15204       55.13342
       646.3622       413.1565       286.8668       319.1545       3.682648
       37.93677       215.8848       616.6804       543.0789       53.82324
       97.31445       284.5094       201.0271       416.1351       766.4521
       111.7427      -98.37012       832.7766       915.8184       208.9774
       172.8821       398.1603       365.6047       437.6716       461.1122
       553.4769       267.1171       32.54590       313.6243       307.2843
       374.4795       385.7321       327.3647       504.7898       358.6215
       35.65128      -58.31714       360.7336       654.0995       331.0612
       70.42444       311.0541       558.9193       370.7525      -19.55322
       258.8180       572.2831       133.3242      -149.2763      -57.41699
       370.1701       459.8372      -7.619507       281.7883       479.8951
      -131.3522      -241.8922       55.36090      -180.5821      -111.9504
       445.0381       414.7182       37.58875      -80.21835      -97.70218
      -132.8711      -83.73364      -68.70233       113.7776       419.1523
       131.8560      -587.5961      -745.7207       221.1517       643.1224
       75.88449      -4.339111       150.0129       279.6266       37.03442
      -588.9319      -524.5785       161.0916       997.7854       810.5010
       20.67966       37.45276       185.3929      -133.0376      -407.1947
      -440.1426      -575.9766      -1061.725      -912.5322      -718.2256
      -621.6306       674.7986       1035.264       120.2852      -1419.398
      -3991.434      -5321.328      -4213.845      -2690.831      -838.9648
       2238.789       3983.071       4513.306       3594.715       562.4690
      -703.4763      -354.6063      -383.3363      -206.5013      -868.5686
      -101.5439       2829.233       3977.416       2682.710      -764.1963
      -3217.181      -743.1963       2134.906      -172.3462      -3315.595
      -810.2988       1873.823       783.3325       690.9463       1739.968
       975.1944      -499.6011       113.4115       522.5967      -2121.301
      -2379.469      -591.5225      -1671.792      -1893.871       364.5918
       3922.476       3953.180      -57.32019      -1073.088       212.6934
       1333.622       2034.755       381.8228      -1713.483      -1936.142
      -1014.654       620.0405       1457.789       1760.754       336.5635
      -2638.729      -2190.850      -53.28247      -373.3889      -466.2800
       885.5870       168.9424      -2045.049      -969.1465       1854.047
       2632.489       2720.468       1558.109       78.23511      -438.7722
      -1626.659      -631.1582       949.5652       534.3738      -365.4858
      -1885.838      -917.6104       1016.166       187.5764       575.0342
       1416.135      -370.9270      -1203.435       237.4226       1316.013
      -275.1409      -1099.870       911.4688       2020.160       1731.410
      -654.5308      -1321.195       540.6567       744.1680       806.1692
       681.5014       540.2894      -224.0020      -1333.633      -304.3795
       628.8988       259.4340       434.4916       422.7075      -694.2161
      -1430.799      -608.0576      -491.2019      -1413.301      -503.5633
       190.5637      -613.9727       15.40271       596.7817      -727.3000
      -1692.754       83.03198       1639.071      -370.5920      -1041.894
      -131.0614      -298.9265       140.6511      -17.14429      -506.7739
      -774.2237      -746.4114       824.8824       1066.012      -477.1660
      -936.0205      -1050.048      -1281.376      -1554.113      -1078.671
       480.5563       234.4146      -1402.128      -1669.825      -266.7391
       259.2314      -1490.197      -1941.679      -110.0691       521.1552
       7.591675       680.5361       381.8696      -1416.599      -1218.555
       428.4900       724.8538       36.55917       7.583618       231.7555
      -204.3495      -346.2184       152.8744       483.6736       149.3989
      -570.6277      -883.4890      -559.1252       478.6954       607.9775
      -587.7563      -1462.285      -1110.969       153.7354      -335.0723
      -2105.522      -1098.954       908.2059       343.7458      -530.2804
      -411.2144       104.4479       253.9594       248.5222       1122.236
       526.7769      -1143.735      -699.1144       236.9603       350.6418
       524.0228      -10.70209      -440.0777      -92.59399       104.5325
       184.6743       359.1176       178.3096      -619.7483      -537.4425
       79.58595       57.55310      -55.30267      -9.412842       562.4875
       84.14386      -633.9880       568.6882       811.7767      -526.6063
      -743.0897       136.8195       194.5386      -554.4453      -1249.300
      -1297.739      -499.8571      -47.93433       307.1372       650.5854
       743.7236       995.2424       786.7976      -304.8057      -1368.596
      -536.0986       760.5916       572.9393       126.7861       181.0707
       248.4333       53.87524       355.7538       855.6258      -58.78320
      -835.7385       434.5347       756.2706      -292.3621       377.4083
       452.0915      -277.0594       115.7837      -204.9184      -92.50293
       782.7864       805.4933       470.3397       240.3556       210.0151
      -293.0126      -383.8080       473.9573       351.7334      -989.4476
      -892.4131       1022.400       628.4197      -867.8169       386.4043
       748.4279      -15.37830       49.76431      -141.8694       48.23581
      -168.6171      -32.07593       642.2261       470.3564       822.7285
       939.0574       103.9727       101.5142       457.3635       420.5540
      -389.4231      -889.7831       186.3591       971.0101       680.0117
      -127.3414      -82.09351       1158.875       267.0899      -814.7346
       966.2114       1237.218       443.9723       590.6827       478.3734
       42.10791      -194.9937       656.7673       1558.391       975.2612
      -44.86353       536.1526       1261.241       759.7280       362.2809
       104.4939      -152.9617      -406.5072      -212.9309       790.7603
       944.9517       598.7209       785.6581       466.1501      -124.4216
       6.644287       564.4663       944.3472       868.5696       61.48151
      -420.1601       75.13437       25.25092       63.31787       710.0115
       770.0315       787.4933       574.9529       471.3777       165.0383
      -110.7437       607.0868       531.9653       338.0665       566.0859
       40.85242       296.2549       872.1780       468.1791       581.1240
       653.7987       258.4990       575.5161       608.7509       39.98932
      -65.95312       633.6836       854.8793       370.4438       752.4578
       385.9112      -522.5072       57.13959       379.9522       109.8024
      -253.2930      -350.2635       232.3092      -304.3875      -598.6920
       132.8805      -61.54944      -327.6326      -555.0066      -807.1205
      -452.4447       268.8241       520.0919       14.39819      -152.8208
      -356.0563      -476.0224      -26.03513       120.5306      -100.0327
