     0.02500000      -2218.303       4098.852      -12345.00      -12345.00
      -30.01005       217.1649      -18.71000      -12345.00      -12345.00
       0.000000       13.74000      -12345.00      -12345.00      -12345.00
      -12345.00      -12345.00      -12345.00      -12345.00      -12345.00
      -12345.00      -12345.00      -12345.00      -12345.00      -12345.00
      -12345.00      -12345.00      -12345.00      -12345.00      -12345.00
      -12345.00      -31.51150      -68.98430       1231.000       0.000000
      -31.37200      -68.11800       0.000000       97800.00       0.000000
      -12345.00      -12345.00      -12345.00      -12345.00      -12345.00
      -12345.00      -12345.00      -12345.00      -12345.00      -12345.00
       83.79173       259.1380       79.58772      0.7533942      -12345.00
      -12345.00     0.05557494       0.000000       0.000000      -12345.00
      -12345.00      -12345.00      -12345.00      -12345.00      -12345.00
      -12345.00      -12345.00      -12345.00      -12345.00      -12345.00
      2008       244         6        45        24
       110         6    -12345    -12345      9888
    -12345    -12345    -12345    -12345    -12345
         1         7        13    -12345    -12345
    -12345    -12345    -12345    -12345    -12345
    -12345    -12345    -12345    -12345    -12345
    -12345    -12345    -12345    -12345    -12345
         1         1         1         1         1
SASO    -12345          
        -12345  -12345  
-12345  -12345  -12345  
-12345  -12345  -12345  
-12345  -12345  -12345  
-12345  -12345  -12345  
-12345  -12345  BHZ     
ZL      -12345  -12345  
[...]
      -93.49649      -88.51227      -78.03229      -69.59006      -65.82730
      -62.60876      -55.42934      -50.85007      -42.91199      -35.44383
      -22.95689      -18.48010      -18.54502      -14.75764      -5.616960
      -4.641217      0.8096619       6.015068       17.11937       16.73035
       9.706085       14.01367       17.35461       12.84908       20.00687
       22.98158       20.06790       13.21547       5.014971       8.625195
       13.47598       12.56380       13.62275       10.61059       9.840874
       8.993242      -2.959747      -11.85743      -13.32518      -21.78053
      -24.38239      -22.70941      -21.32845      -26.64830      -33.36980
      -38.26688      -37.66089      -52.77026      -68.03049      -66.70451
      -63.79269      -78.60645      -76.77534      -78.74677      -80.71579
      -80.60687      -80.45013      -94.72205      -90.58264      -97.78995
      -101.2877      -105.4741      -104.7894      -108.3592      -108.1427
      -110.2796      -104.9014      -109.5131      -113.5460      -128.2655
      -128.5969      -123.3054      -116.6980      -122.5185      -121.8943
      -126.1602      -126.8504      -131.3599      -128.2489      -126.8464
      -117.5953      -111.0746      -103.9850      -106.3991      -100.7601
      -103.0159      -101.2867      -98.70157      -86.56372      -78.66678
      -76.72279      -78.56503      -65.21745      -60.57678      -57.95515
      -51.65305      -27.38548      -19.63913      -25.13847      -20.80703
      -5.960868      -3.340206       1.990387       5.707436       18.41468
       28.41688       36.39067       38.97885       45.07115       44.14246
       51.26730       49.09152       50.74985       57.43835       69.87790
       62.91559       64.77989       70.79083       81.85651       71.45935
       68.22363       68.31699       69.69522       65.63426       80.29782
       78.73497       70.49657       63.96140       70.41565       64.95807
       69.10606       66.57803       62.26582       61.86359       68.07254
       48.79745       37.15570       38.48380       43.79670       30.21864
       25.22111       21.57177       13.41309      -1.166622      -8.268826
      -12.46363      -7.999855      -17.77680      -20.19753      -28.20176
      -38.93237      -49.50624      -54.23209      -62.45941      -63.38385
      -60.94681      -53.74191      -64.48080      -71.68158      -75.42886
      -81.80658      -88.14395      -96.10025      -105.2524      -100.0523
      -101.7991      -109.5368      -113.0176      -105.4709      -105.3019
      -116.1761      -121.4365      -111.4428      -114.9820      -118.4900
      -114.5797      -108.9691      -111.7632      -105.1990      -102.4238
      -98.86633      -93.47952      -85.58113      -82.97888      -70.81828
      -72.58215      -69.47676      -53.84933      -39.53781      -33.34893
      -20.19894      -22.91827      -26.51020      -25.48066      -14.53517
      -6.368028       1.278919       5.255894       12.35606       10.08730
       11.14320       14.50340       18.56406       17.67769       15.43832
       9.146866       22.47292       18.52327       15.84976       19.23246
       19.34505       10.58809       19.91095       18.17213       14.06191
       9.451935       17.48146       15.52853       14.69120       8.627884
       15.69240       11.36315       12.82038       13.48253       15.86559
       10.72082       19.56918       18.66872       22.17375       15.69273
       18.57825       13.36008       8.510124       8.536781       16.17988
       9.615784      -13.72803      -202.4353      -474.0950      -568.4126
      -527.1350       180.1588       814.4805      -350.8137      -1362.047
       211.6538       1513.584       463.2993       1238.839       1268.830
      -1541.659      -1616.752       786.8590       970.8860      -924.6155
      -15.08057       1022.720      -574.9880      -559.8760       974.6445
       273.0264      -397.8246       305.8772       327.7775      -199.5508
      -764.0004       174.5280       460.8914      -537.3441       171.2103
       795.7156      -375.5352      -147.6201       679.7708       217.5427
      -56.36945       214.0594       114.3240      -299.6040       343.8100
       450.3634       109.1069       399.3766       225.6841       316.2789
       477.3562       358.8530       345.7444       41.47205      -496.4819
      -872.2102       92.05859       1404.325       715.9178      -177.3227
       27.57605       143.4636       415.7612       800.7110       488.4228
      -74.52988      -149.1841       114.1006       126.6781       241.8745
       1075.342       371.3153      -1002.437      -13.74109       744.7266
       430.9684       198.9635      -124.8843       364.4464       161.6796
      -271.5475       507.7057       499.8304      -213.8497      -137.0325
       282.0250       355.7793       374.3365       84.36371      -80.62024
      -103.4000      -93.28882       393.2845       512.5899      -21.92650
      -143.3538       214.6714       302.8466      -70.23245      -282.3365
       163.0423       294.9618       277.0103       161.2732      -474.8520
      -259.0023       636.7283       193.8671      -467.8951       28.64673
      -135.4932      -646.7466       220.4688       335.4515      -204.2219
       92.13660      -218.9206      -340.4027       470.2128       119.3251
      -561.7986       2.488129      -52.97150      -336.6464       153.2885
       238.9147      -406.8011      -609.5418      -101.9712      -34.17822
      -1.516113       368.1345      -23.55298      -328.8040      -28.67798
      -170.0295      -240.9402      -142.9066      -331.4904      -274.6782
      -88.60931      -306.2147      -236.1514      -185.2201       19.28009
       8.570801      -579.6592      -416.5514       65.79931       7.565979
      -112.8287      -128.5525      -555.6869      -480.6338      -41.27734
      -155.2725      -377.4235      -383.5551       124.2197      -80.54065
      -559.6799      -303.6703       70.02316       56.18567      -167.5392
      -287.7485      -562.1633      -359.4087      -280.7441      -309.1428
      -91.39856      -104.3506      -111.2883      -122.0481      -79.87866
      -288.8405      -293.2091       48.10559      -162.0593      -443.4266
      -23.24207       160.4310       63.13358       48.25676       14.35924
       90.36255      -86.21466      -251.5150      -93.11980      -12.69644
       31.40967      -219.5760      -410.5894      -26.07309       133.4413
       5.756958      -140.1147       30.39325       278.6773       21.83582
      -45.75421       193.2862       111.1380      -38.15457      -10.93317
      -184.9718      -97.37427       62.97733      -37.53479       31.49261
       85.12451       9.119659       161.9245       60.15158      -207.3701
       2.656256       2.818085    -0.06030273       277.2422       85.84924
      -331.7354       11.05972       295.8533      -258.5794      -266.5989
       351.6383      -30.75006      -371.8439       17.08185      -201.4151
      -140.4261       357.0013      -231.0577      -571.8619       384.0350
       715.2323      -66.22107      -631.2311      -106.8290       533.8699
       324.9973      -374.3887      -371.1193      -123.8569      -101.2035
       317.1092       63.55914      -377.7225      -165.6497       30.92351
       63.35394       34.60095       197.0410      -40.39050      -324.0847
      -369.4846      -525.3820       221.9546       515.9170      -386.7429
      -91.70483       615.7026      -71.68225      -497.5215       133.7495
       530.0966       32.86002      -290.1649       93.66565      -263.7676
      -362.8372       416.0239       273.1330      -217.7625      -206.9599
       187.0430       316.3748      -507.3433      -432.7651       648.3079
       12.60602      -475.2007       158.4258      -488.3372      -209.7146
       943.7316       368.2405      -651.2126      -599.6520       345.4922
       415.0861      -151.4871       117.0301      -55.80249      -470.9219
       276.3486       379.7179      -358.9283      -134.1901       107.1292
      -278.7373       62.28857       318.1058      -13.07410       253.5794
      -18.56982      -500.9703      -146.9120       448.5491       355.9899
      -232.1896      -129.9285       39.04256       86.06061       66.07336
      -66.60910       100.0267       241.2640      -30.79956      -200.0020
       278.1145       432.9585       495.3912       315.6464      -223.1280
      -362.4459      -144.0328       229.7529       274.0315       275.0049
       244.7880       54.29364      -16.73596       193.7402       329.5699
       8.787170       89.65872       143.4333      -57.65875       214.9873
       190.0730       33.07214       378.9229       270.6530      -282.1272
       15.04370       423.6066       203.9562       275.1622       376.1431
      -11.55994       77.55707       363.5961       124.4510      -19.39478
       438.2835       412.1638      -156.4749       464.8450       798.6416
      -272.0992      -186.6819       517.1108       135.1539       171.4592
       700.9178       300.0631      -91.86115       201.7622       274.2209
       130.2812       143.2639       248.3951       254.3737       387.1406
       335.6454       376.7791       423.3022      -124.2519      -151.7208
       270.4063       266.0469      -3.260193       75.46497       412.3383
       428.6235       438.6035       438.2328       284.8239       114.0439
      -86.76208      -9.995758       149.8014       177.0106       136.5536
       210.7546       335.8230       322.5262       304.0021       477.1273
       196.6096      -189.1055       33.44073      -145.8615      -125.1600
       287.2487       38.87238       6.908936       529.5660       327.5446
      -179.6847      -14.83325       424.1569       356.3788      -26.67859
      -140.1440      -198.1492      -155.8283       385.1930       223.1403
      -320.7227       54.57581      -82.63312      -351.0200       231.4545
       103.4359      -641.8007      -158.2001       309.7472      -22.92691
       158.6661      -18.15967      -287.0205      -130.1461      -259.4988
      -253.9899       143.6837      -233.5713      -748.2472      -189.6295
       343.2656       172.1147      -318.3696      -282.9435      -163.7106
      -286.6050       67.05896      -184.9697      -596.1068       126.9997
       441.0062      -295.4485      -659.4170      -336.1794      -166.3007
      -199.8493       3.272720       26.08136      -281.0769      -236.9876
      -57.35632      -99.78467      -177.5083      -338.6378      -322.1540
       26.37468       126.6707      -108.2766      -251.4153      -489.9772
      -266.8206       111.7031      -411.9685      -727.8760      -493.2450
      -72.79712       331.5544      -113.9879      -708.8181      -224.6274
       93.26483      -320.6461      -205.0603      -131.7252      -415.9933
      -241.3892      -25.67572      -92.26465      -231.5895      -405.5095
      -476.1108      -390.2920      -293.2413      -394.3407      -244.3899
      -146.7437      -481.4242      -250.5039      -259.2124      -790.6963
      -528.1331      -183.5393      -355.4875      -507.5737      -559.7102
      -439.6313       30.77573       86.09448      -489.2582      -449.8809
      -366.2151      -861.1462      -976.3611      -747.3005      -692.7278
      -517.9073      -102.9657      -28.77383      -56.97742      -253.8816
      -854.4906      -680.6598      -96.61853      -113.0883      -148.0971
       25.92017      -391.2847      -1036.338      -995.8158      -665.2877
      -287.1840       294.8647       312.9575      -874.4868      -1546.496
      -744.0417      -551.2200      -616.7883      -64.70792       44.81030
       237.4956       295.3413      -487.7783      -1218.482      -1049.495
      -584.7830      -445.2542      -346.5441      -220.7561      -183.5733
      -69.85583      -403.1802      -950.1179      -526.7544       70.69788
      -205.1442      -795.1769      -456.8324       163.6353      -535.3237
      -1310.817      -967.4927      -1067.176      -670.1831       1360.224
       1808.161       1108.146       1567.575       1107.391      -241.2508
      -21.44885      -128.1250      -1008.299      -845.0627      -495.4678
       850.5732       2255.429       2237.702       1559.258       577.5540
      -336.5138      -344.3173      -125.6328      -1481.471      -2218.303
      -964.2286      -220.9120      -193.5908       730.0310       1130.337
       1033.734       1472.822       2249.451       3347.823       3116.339
       1165.274      -1035.970      -1942.048      -2127.598      -2132.196
      -1665.943      -1643.332      -1265.948       962.8896       3292.554
       4098.852       3974.455       3430.532       1899.497      -1162.148
      -1905.776       781.2661       2194.954       1895.676       1840.685
       1885.779       1468.035       374.8467      -463.6729      -647.4041
      -606.0016       200.2087       1277.836       505.3989      -1118.476
      -938.6853       535.7803       1544.328       2446.733       2834.165
       1875.044       1067.886       580.9243       573.4546       801.3350
       1117.191       1509.839       1127.008      -30.94971       247.9600
       1680.989       1156.287       642.1538       1834.869       1607.255
      -160.7721      -353.0407      -57.87363       10.15735       436.9253
       988.4336       1881.753       2148.541       1962.725       1847.451
       1777.994       836.7666      -1025.882      -1377.766      -471.9436
      -615.5785      -832.8810      -163.8988       459.6096       607.8650
       697.4614       224.4998      -519.4365       43.97803       887.0427
       1191.049       1560.342       1742.736       1115.734       358.5731
       278.7733       31.85962      -579.7369      -552.1683      -309.7466
      -73.75562       219.2576      -107.9833      -594.5936      -300.4883
      -97.53763      -96.47571       495.6459       103.5000      -719.2979
      -348.3446       193.6471      -35.80408      -256.7700       162.7583
       282.3644       300.6647      -219.7710      -841.0186      -631.0627
      -337.7205      -235.5652      -258.7545      -76.18640      -436.1863
      -943.8175      -608.1604      -492.9535      -694.2190      -432.6973
      -648.6628      -1080.283      -646.5405      -309.6628      -410.0569
      -467.5928      -515.4717      -776.3779      -1201.167      -1540.508
      -1462.087      -1118.890      -408.5334       135.3158      -443.6008
      -745.5507      -508.7169      -638.7258      -442.7336      -713.0098
      -1469.611      -1387.582      -1283.405      -1603.494      -1620.107
      -1222.599      -769.7563      -719.2808      -758.7017      -719.1721
      -1106.510      -1149.359      -670.5562      -756.1243      -965.8215
      -1209.466      -1378.624      -1091.292      -1082.331      -1079.020
      -856.7927      -984.4102      -1421.510      -1708.664      -1121.255
      -761.6609      -959.5847      -693.7695      -968.3838      -1441.903
      -1051.710      -554.0968      -112.3387      -123.4995      -969.6204
      -1166.811      -197.3951       151.3264      -209.0065      -268.1228
      -351.7094      -366.8353      -146.5819      -83.46497      -49.40869
      -278.2104      -692.6260      -926.7139      -1054.250      -1060.168
      -872.4324      -636.5776      -728.6919      -785.7783      -619.8987
      -632.6035      -706.6100      -635.7139      -656.4243      -837.3748
      -800.0865      -545.2681      -318.3040      -120.3104       161.0503
       116.3894       43.27460       46.85400      -361.7782      -418.0747
       55.23413       585.6362       688.2579       127.0568      -512.6060
      -479.6444       74.79810       416.4725       396.7716       121.0802
       242.7244       454.8766      -4.734055      -198.5760       207.5757
       380.3246      -43.76404      -426.3078      -28.58862       384.3130
       557.4357       691.3669       388.8347      -1.753128      -71.06689
       119.8250       426.5323       451.2810       601.9325       631.5287
       282.6540       183.4253       390.8246       671.6785       561.3397
       224.9424       312.9603       524.0171       311.3347      -128.6326
      -273.9713      -182.0796       264.5684       634.8241       502.0963
       343.9370       390.0332       466.3081       556.8059       655.6626
       883.2026       1191.433       994.7842       580.1882       509.6055
       556.7715       822.6562       826.6522       604.9551       766.7102
       893.8403       881.2394       777.4583       415.9951       315.6226
       379.9232       9.630005       34.43286       424.0365       406.3065
       488.1494       660.3247       731.5835       913.7034       813.9724
       791.6841       921.7710       753.0208       596.6461       371.6096
       312.8977       692.1460       937.8098       1025.769       995.4626
       741.0005       910.5959       1079.083       671.6479       362.9263
       278.1283       390.9194       752.8513       813.9922       600.2944
       626.6226       828.2026       1023.189       929.5127       972.9456
       1129.506       713.9719       531.3616       727.3906       779.9512
       955.8423       1159.937       1181.838       995.9995       834.0093
       791.7396       661.9346       524.2338       536.5493       706.4048
       919.9473       761.5656       502.4197       450.3544       553.7914
       693.3121       620.5901       798.4666       746.4338       143.9949
       246.9092       758.1986       601.7512       385.3258       417.2528
       444.3038       297.8937       266.1500       358.8217       261.9601
       281.2317       293.1954       123.9546       158.7151       228.0258
       238.8452       344.6086       229.3992       39.61549       56.30420
      -41.12506      -256.7850      -51.25327       117.6166      -336.5988
      -289.8060       214.6563       123.7170       6.686401       27.87756
      -403.6479      -305.0746       200.8458       48.37932      -65.05112
      -48.97498      -373.8027      -232.3652       184.8715      -34.20612
      -321.9997      -139.4846      -310.3667      -902.5565      -792.0562
