     0.02500000      -7542.855       7823.707      -12345.00      -12345.00
      -30.00004       215.6999      -17.40000      -12345.00      -12345.00
       0.000000       12.84000      -12345.00      -12345.00      -12345.00
      -12345.00      -12345.00      -12345.00      -12345.00      -12345.00
      -12345.00      -12345.00      -12345.00      -12345.00      -12345.00
      -12345.00      -12345.00      -12345.00      -12345.00      -12345.00
      -12345.00      -31.27110      -68.79910       1530.000       0.000000
      -31.37200      -68.11800       0.000000       97800.00       0.000000
      -12345.00      -12345.00      -12345.00      -12345.00      -12345.00
      -12345.00      -12345.00      -12345.00      -12345.00      -12345.00
       65.78761       279.6146       99.96691      0.5915106      -12345.00
      -12345.00     0.03378549       0.000000       90.00000      -12345.00
      -12345.00      -12345.00      -12345.00      -12345.00      -12345.00
      -12345.00      -12345.00      -12345.00      -12345.00      -12345.00
      2008       244         6        45        22
       800         6    -12345    -12345      9829
    -12345    -12345    -12345    -12345    -12345
         1         7        13    -12345    -12345
    -12345    -12345    -12345    -12345    -12345
    -12345    -12345    -12345    -12345    -12345
    -12345    -12345    -12345    -12345    -12345
         1         1         1         1         1
SECA    -12345          
        -12345  -12345  
-12345  -12345  -12345  
-12345  -12345  -12345  
-12345  -12345  -12345  
-12345  -12345  -12345  
-12345  -12345  BHN     
ZL      -12345  -12345  
[...]
       286.1813       279.6732       276.3146       276.0381       264.3506
       258.7900       245.4257       243.1569       238.2744       232.2855
       224.5219       225.6227       219.2485       216.1635       204.9995
       204.0884       200.1641       195.9255       183.3269       181.1387
       176.5296       173.9846       163.0097       164.2046       159.6414
       156.2246       145.5914       143.0117       134.3293       127.1918
       116.2020       109.5452       97.90488       96.26086       89.50471
       84.65666       74.61850       71.46162       60.49721       61.97531
       57.16135       52.66307       43.00677       41.38453       36.25010
       36.67833       25.08605       22.48480       12.32069       10.10096
      -1.797337      -4.228836      -18.27116      -31.64702      -40.32907
      -39.34583      -56.83044      -62.18413      -78.29266      -88.20166
      -101.8434      -105.7604      -122.4675      -128.8165      -145.6583
      -148.5413      -158.3257      -160.6718      -172.9662      -176.9957
      -189.7291      -187.4349      -197.8308      -198.6470      -207.4297
      -206.6593      -213.4574      -210.8674      -213.2466      -212.8202
      -221.9089      -212.8367      -213.5370      -209.3420      -214.5659
      -214.5499      -213.3184      -204.7152      -207.0391      -199.5430
      -196.6553      -187.1971      -192.0253      -189.0646      -182.2383
      -174.7710      -172.8058      -158.5755      -154.2872      -144.9447
      -140.5128      -136.2060      -129.4998      -113.8817      -112.3506
      -111.1692      -110.2397      -100.1943      -94.77798      -83.17111
      -82.19701      -78.39667      -75.16193      -63.12094      -61.77406
      -57.47176      -58.28387      -49.38513      -47.83965      -41.69406
      -43.69742      -38.25140      -33.37409      -21.69309      -21.43530
      -17.46962      -13.72839      -3.744823      -2.195187       7.825829
       15.05072       16.50776       24.32101       36.53339       36.79005
       42.42653       50.96417       60.01007       63.26289       67.94969
       71.80389       77.77704       81.23273       86.14017       91.23053
       93.32092       93.55292       97.33273       97.53745       96.61331
       100.2883       103.6074       102.6276       103.7407       102.5392
       103.3076       103.7681       101.9503       97.46262       92.68741
       90.72867       87.23953       79.61430       73.93347       68.09668
       59.89279       52.92245       48.78235       43.51392       41.25990
       36.59832       31.33667       24.53540       19.61560       8.175832
       3.513912      -2.059784      -10.03831      -18.65089      -21.47157
      -30.75223      -38.63583      -43.02689      -47.95901      -57.33701
      -63.90509      -70.87601      -77.96153      -82.38959      -90.28961
      -96.43329      -101.9215      -106.8262      -115.2040      -119.7075
      -127.3416      -134.6624      -141.5176      -147.1609      -158.3241
      -165.9766      -174.0140      -182.3890      -189.9872      -200.7633
      -211.7454      -216.6287      -225.8536      -234.7504      -234.1289
      -239.7294      -247.7896      -250.7178      -255.5715      -260.2594
      -262.1155      -262.0479      -260.4368      -266.0031      -270.0309
      -271.6295      -269.4614      -269.1899      -268.3611      -269.8694
      -265.0177      -263.2630      -259.7847      -253.1278      -250.1204
      -246.6522      -236.8162      -236.9948      -231.4649      -226.4346
      -218.1829      -210.5670      -201.6960      -191.4486      -185.4803
      -183.0638      -174.5601      -162.9355      -151.0969      -142.7698
      -136.7972      -127.0081      -118.8369      -109.1412      -102.9527
      -98.18118      -89.32050      -76.79042      -69.28009      -59.37408
      -48.58172      -38.17699      -32.52716      -25.86577      -19.81716
      -8.319813       2.024450       6.177505       16.01105       21.73408
       31.04886       43.71509       51.86847       58.05229       72.79703
       81.21436       87.33337       95.00708       110.3084       118.1147
       125.1167       129.7738       140.2593       148.2414       155.4119
       155.2341       165.4992       172.6230       176.3683       177.3928
       188.8712       192.9428       195.7699       199.4967       208.9319
       211.0244       216.4562       219.4797       225.5889       228.6041
       235.2954       241.8901       253.1617       252.2198       255.8193
       262.8439       270.2291       272.3122       278.3352       284.2485
       296.3309       299.1235       301.3235       307.4153       314.3527
       317.1252       322.8613       320.2056       310.6586       286.6635
       266.3091       279.7542       346.8531       446.2269       498.8820
       460.0548       402.1108       393.2229       540.8733       540.0731
       126.7088      -44.41235       263.6052       641.0295       763.7003
       418.7670       265.4220       67.60223      -285.3826       145.7261
       1097.921       1214.929       475.4204       293.4622       654.0297
       387.8677       248.1676       355.2892       13.58777       282.3286
       950.3055       543.5865      -231.0556      -64.78076       565.0829
       577.7986      -64.38577      -61.27435       371.0765       276.9636
       405.4713       583.5419       233.2438      -220.2999      -340.8024
       137.2590       671.5393       535.6870       135.9157      -209.3442
      -32.59320       437.5109      -130.3987      -379.1716       322.9979
       339.9127      -126.5398      -136.8841       119.0137      -3.950012
      -334.0583      -344.7084      -131.9622      -30.18326      -38.63647
      -306.7071      -448.2303      -95.75610       300.5057       83.27588
      -695.6938      -852.0522       16.02905       402.5259      -86.37817
      -558.0852      -781.2533      -373.1941       339.5939       164.7446
      -400.4124      -448.6811      -245.3359       49.27820      -26.83496
      -632.6647      -832.4262      -128.5775       517.9733      -252.5554
      -1303.393      -719.4395       500.0366       175.8208      -845.0826
      -567.0372      -57.66394      -299.8893      -560.4634      -551.9785
      -207.6315       8.825806      -239.6031      -298.8802      -311.6785
      -660.4233      -788.7831      -545.1599      -279.8525      -163.1273
      -46.29370      -157.3635      -706.5208      -921.9059      -630.4182
      -292.9646      -446.0142      -838.5809      -410.6348       128.6587
      -451.0002      -1060.792      -795.4238      -195.2158       181.0193
      -350.7019      -1015.588      -681.1493      -183.9269      -4.533936
      -274.7944      -851.1036      -546.6019       152.5927       130.3984
      -456.3037      -853.5266      -534.7252      -184.9268      -314.5884
      -369.0959      -181.7629      -73.21155      -455.3326      -702.6921
      -289.4264       227.3095       122.5253      -331.1402      -397.6141
      -124.6857      -2.381226      -280.0150      -650.1628       9.242798
       518.0730      -478.9597      -781.3218      -40.49390       474.2308
       623.0344       38.67468      -601.0609      -34.41223       580.6875
      -130.7919      -685.2391       27.47498       646.1012       182.0021
      -379.9306      -310.4694       154.9979       518.0891       432.4556
       161.3530      -265.6628      -729.1305      -355.4702       354.2482
       562.6110       192.7090      -247.1317      -58.49243       419.0150
       462.1017       212.6509      -39.35181       152.9404       488.9022
       291.7380       259.7700       323.1018      -5.031189       48.45752
       205.0699       43.13239       135.2469       528.3661       553.3336
       69.38254      -181.0629       88.35693       223.6933       127.8151
       31.31592       203.0901       605.9258       738.8194       267.9485
      -197.3608      -76.13251       179.5837       254.4022       379.0659
       437.2238       292.8412      -37.42389      -11.19897       560.8517
       633.1163      -122.2649      -496.6965       72.16724       737.9058
       863.5580       402.2806      -275.5870      -209.6271       294.8293
       483.0012       347.6461       77.05273       257.5819       657.4224
       638.3896       326.9944      -160.6981      -448.3532      -139.4863
       667.7778       1018.731       636.1978       99.10490      -71.96295
       106.9054       298.0078       575.7371       821.5193       445.2305
      -41.87402       259.8994       754.7609       727.7347       333.3548
       43.01085       31.04041       163.0139       473.4627       383.2699
       60.44092       155.9219       419.6028       441.7700       202.2478
       220.9382       430.5775       278.7836       88.92194       206.9218
       341.3929       333.9463       242.5741       68.04288       46.62976
      -63.64850      -10.62439       493.3944       221.7890      -269.4321
       349.7117       570.1215       221.0434       34.13754       38.91290
       251.7289      -49.36938      -489.0079      -205.6492       191.1329
       284.0680       325.4596       78.44617      -233.1772      -246.6688
      -270.3890      -2.704956       448.9499       287.9640      -185.1808
      -301.7742      -200.6459      -35.56053      -46.60605      -46.76965
      -110.0613      -373.2609       84.34045       487.5564      -319.1709
      -703.2103      -17.99109       467.3995       250.6027      -211.6397
      -338.3047       42.51193       231.1484       32.33643      -497.5173
      -1122.548      -776.4312       762.2971       1400.260       155.4673
      -1157.932      -1047.971       24.20831       298.9265      -237.2666
      -301.3743      -81.68298       86.13770      -128.2964      -412.9539
      -145.3301      -26.38110      -541.2064      -647.5969      -110.1760
       339.8292       109.4351      -413.4397      -536.9141      -429.4067
      -415.7803      -582.9406      -815.8730      -366.8347       432.0489
       378.0448      -312.4768      -873.9536      -1151.398      -678.7773
      -250.6626      -503.7418      -139.2800       370.6713      -137.7655
      -415.0311      -271.2299      -585.6357      -729.1630      -409.5274
      -119.6784      -28.87878      -447.1716      -847.9337      -644.0042
      -218.2045       162.9193       150.2145      -418.3840      -809.7429
      -515.1671       74.69943       88.52283      -342.9551      -832.4740
      -562.7822       216.3255       87.70630      -308.9946      -402.6088
      -475.7109      -215.9550      -96.41202      -89.88623      -244.4862
      -518.8978      -26.59167       400.3990       208.4130       284.9205
       12.62500      -637.7580      -462.4816       173.1978       276.7951
      -60.20242      -185.5735       169.0100       336.7349       282.6682
       46.81824      -275.8611      -99.31128       632.4351       812.5768
       59.97583      -514.0644      -307.3408       216.0696       447.0620
       693.1479       1003.485       495.9882      -225.9164      -243.6625
       228.3567       518.8021       360.0372       215.9200       22.00055
      -136.4001       558.8306       1076.757       472.5651      -250.6202
      -280.1466       148.7183       745.1033       1001.616       777.1644
       379.7531      -107.9050      -265.9451       36.37372       267.2393
       489.4467       650.1906       395.3080       76.46262      -71.14145
     -0.1651611       358.7047       393.7925       522.1453       873.1189
       608.4164       305.6885       487.9205       51.92670      -366.4609
       52.45703       377.4436       504.6199       527.7863       305.0375
      -81.53198      -426.8969      -338.1941       244.7095       1039.621
       1108.288       517.4463       49.95410      -415.5665      -571.8770
       87.88477       889.5945       1225.665       544.0625      -1175.629
      -1843.325      -66.17090       1922.078       1719.060      -509.0552
      -2266.806      -1402.828       917.6401       1965.134       1129.724
      -418.6890      -1900.690      -2014.092       190.5376       2208.977
       1475.235      -1224.752      -3196.408      -1745.107       1534.659
       1930.805      -990.1240      -2705.345      -586.2329       1959.886
       945.9307      -2077.825      -2548.168      -273.2704       1006.135
       70.36682      -552.0765      -304.2900      -66.05469      -143.6011
      -1068.869      -1866.382      -1620.377      -779.1326      -495.6221
      -1512.323      -1923.032      -249.1411       2055.943       3154.917
       2474.288       585.0491      -1090.093      -572.0405       1906.521
       4115.373       6633.625       7823.707       2853.754      -4943.113
      -7542.855      -3271.138       2092.791       1118.734      -4196.691
      -6906.496      -6362.189      -4005.291      -2748.144      -4186.515
      -1716.724       4303.727       4733.292       337.0635      -2949.007
      -2934.453      -844.5562      -766.7227      -2480.589      -1509.448
       1927.957       2279.344       755.0742       1733.430       2965.328
       1955.320      -1886.679      -5661.844      -3144.218       2429.104
       2778.282      -1044.530      -2978.249      -459.2051       3707.759
       4984.411       2583.990      -723.4346      -2112.330      -1311.332
       10.60596       1069.164       1931.599       609.5928      -2728.582
      -3111.233       1229.379       4477.967       2955.881       471.2214
       301.3393       334.6436      -1362.598      -2942.500      -2155.001
       1255.842       4554.983       5039.624       2603.519      -1328.275
      -3013.577      -1484.149       751.2090       1960.026       1237.671
      -720.3760      -3029.936      -3341.686      -731.4736       1928.540
       3780.165       3312.449       1198.483       544.5229       1404.974
       2576.129       1529.368      -1369.959      -2638.619      -1735.461
      -299.3473      -161.5844       127.1338       1521.023       1971.615
       981.4865      -810.6067      -230.4795       3149.006       4117.182
       1790.748      -1222.321      -2492.049      -1175.159      -107.6951
      -727.1674      -535.1528       1512.775       2642.137       541.2637
      -3033.630      -3094.508       1050.625       3546.543       2051.042
      -637.6431      -1394.917       501.6865       2425.613       2112.519
       284.2708      -728.6154      -301.3085      -160.7131       23.54761
       697.2131       257.7002      -1236.188      -1379.575       935.3896
       3073.532       2093.479       17.30933      -761.5283      -1343.556
      -1210.611       276.1317       889.0615       259.0288      -768.8169
      -2069.002      -2309.843      -1393.446       228.2852       2843.021
       3394.583       712.9202      -1111.454      -777.4529       347.9685
       1022.515      -365.4150      -1729.695      -256.9590       1864.653
       988.3418      -2748.783      -4969.021      -2167.877       1981.760
       2106.691      -914.0830      -2218.260       246.5703       2977.493
       2402.628       35.79858      -1153.146      -1057.554      -537.5220
       602.7012       797.0283      -1830.927      -4061.367      -1771.760
       3088.729       4277.532       738.8765      -1204.545      -195.3169
      -308.2976      -1258.494      -548.4091       623.1464      -165.4028
      -1624.060      -1001.062       774.4990       566.9375      -1251.402
      -1572.866      -637.6299       353.6628       1183.328       127.2227
      -2696.819      -4169.175      -3095.016      -276.0303       2143.555
       1789.352       236.1924      -703.3772      -1498.416      -1005.625
       258.6067       337.3587      -60.17041      -320.8452      -898.9766
      -2406.386      -3573.264      -2070.823       332.1448       453.5813
      -981.3048      -469.1748       2312.628       4082.771       3013.814
       343.1460      -1673.954      -2591.768      -3651.471      -4052.340
      -2315.109       310.8906       1485.187       1307.481       795.3046
       144.0915      -99.81396      -353.0500      -1026.375      -1452.984
      -1779.546      -2162.885      -2055.294      -476.4800       1349.930
       345.0059      -2107.068      -1387.635       2691.708       4894.933
       1673.419      -3132.343      -4406.872      -2256.052      -213.1675
       554.0940       1118.321       897.8573      -41.00266      -335.1025
       383.4878       1345.895       731.1487      -1156.768      -1744.044
      -602.1567       780.3687       1086.431       137.3436      -314.5569
       248.9621       201.5840      -713.0771      -408.2642       1085.638
       1010.296      -441.0237      -969.9301      -668.3638      -42.53760
       1062.838       1980.166       2114.646       1514.051       574.6531
       71.70496      -74.82193      -155.8530       431.5063       1354.288
       1636.210       1621.652       1293.199       515.8853       147.1670
       720.5181       1377.812       1233.643       701.5571       530.8499
       566.3499       283.1272      -265.6398      -515.3518       6.210449
       970.5029       1988.019       2786.542       2370.070       1539.084
       1147.532       301.2759      -698.1084      -719.2789      -31.86475
       240.4077       742.5801       2107.451       2456.641       1039.823
      -481.3942      -563.0752       707.8457       2008.537       2002.852
       1210.359       674.0099       412.2322       304.1033       308.8740
       120.0648      -14.27466       608.4021       1391.233       1230.708
       650.9884       11.00159       6.966797       1314.297       2598.860
       2327.845       257.6968      -1735.729      -1352.562       477.6448
       1094.722      -318.6682      -1354.733      -254.2163       1000.030
       912.4443       568.3721       824.9927       1189.241       846.5975
       310.6119       80.72015       155.7546       457.0083      -88.78467
      -1856.821      -3273.680      -2912.322      -869.7961       926.9485
       745.8795      -436.2729      -974.9451      -721.8323      -284.1088
      -122.0735       392.8882       1019.917       269.5066      -1223.296
