     0.02500000      -10092.37       8665.176      -12345.00      -12345.00
      -30.00004       215.6999      -17.40000      -12345.00      -12345.00
       0.000000       12.84000      -12345.00      -12345.00      -12345.00
      -12345.00      -12345.00      -12345.00      -12345.00      -12345.00
      -12345.00      -12345.00      -12345.00      -12345.00      -12345.00
      -12345.00      -12345.00      -12345.00      -12345.00      -12345.00
      -12345.00      -31.27110      -68.79910       1530.000       0.000000
      -31.37200      -68.11800       0.000000       97800.00       0.000000
      -12345.00      -12345.00      -12345.00      -12345.00      -12345.00
      -12345.00      -12345.00      -12345.00      -12345.00      -12345.00
       65.78761       279.6146       99.96691      0.5915106      -12345.00
      -12345.00     -0.2722965       90.00000       90.00000      -12345.00
      -12345.00      -12345.00      -12345.00      -12345.00      -12345.00
      -12345.00      -12345.00      -12345.00      -12345.00      -12345.00
      2008       244         6        45        22
       800         6    -12345    -12345      9829
    -12345    -12345    -12345    -12345    -12345
         1         7        13    -12345    -12345
    -12345    -12345    -12345    -12345    -12345
    -12345    -12345    -12345    -12345    -12345
    -12345    -12345    -12345    -12345    -12345
         1         1         1         1         1
SECA    -12345          
        -12345  -12345  
-12345  -12345  -12345  
-12345  -12345  -12345  
-12345  -12345  -12345  
-12345  -12345  -12345  
-12345  -12345  BHE     
ZL      -12345  -12345  
[...]
       38.13792       39.31126       45.97319       45.36172       42.90407
       43.58389       47.73203       44.52333       44.47844       46.13315
       47.76978       50.51468       53.18813       50.76797       51.13101
       54.11310       56.34593       59.05313       61.31093       64.34567
       66.19662       71.66675       79.32573       83.92279       84.08350
       88.68860       97.27585       100.7226       101.1260       104.7337
       107.9786       109.7590       112.1137       116.6692       118.2330
       121.4858       122.3365       120.3145       121.4427       123.8767
       119.4744       121.8685       122.3601       124.9488       121.0965
       114.6963       109.8339       106.6171       101.4924       97.00497
       89.01762       83.70679       76.26320       66.01538       51.42555
       43.23225       34.32706       25.41776       12.27487       3.515800
      -8.598541      -20.27940      -34.03726      -43.78973      -54.96652
      -68.47113      -85.18134      -98.52313      -110.6818      -121.1723
      -135.5991      -150.5786      -167.2357      -183.8607      -203.9312
      -216.9233      -234.8175      -253.6532      -268.3861      -280.8217
      -299.8538      -322.6942      -346.1271      -364.5403      -382.7280
      -400.4310      -418.2764      -438.6390      -457.5015      -479.4473
      -501.2078      -520.8748      -536.0728      -550.9563      -566.6135
      -583.6377      -594.3191      -610.5708      -623.8590      -633.9468
      -639.5272      -642.8660      -649.5168      -653.4944      -654.0123
      -652.3979      -650.2263      -649.2334      -650.9202      -647.8550
      -641.7534      -633.1010      -628.5668      -621.0908      -614.7712
      -604.1262      -596.7069      -587.0903      -580.0774      -569.7183
      -559.7557      -550.0826      -542.4309      -529.1534      -517.8083
      -507.5217      -498.4895      -485.7893      -479.8770      -471.2620
      -463.9559      -447.8846      -438.2822      -427.3425      -419.9861
      -405.5403      -398.6130      -379.4236      -370.8484      -356.8220
      -351.3269      -333.8550      -327.4396      -312.6221      -308.2223
      -294.1921      -288.1408      -271.6066      -261.0894      -239.6631
      -230.7926      -212.8978      -203.4355      -187.9521      -178.0420
      -156.6651      -139.7178      -118.6524      -106.8265      -82.70119
      -66.91986      -51.88960      -36.00507      -6.144417       12.13939
       36.04832       56.21902       76.98584       94.43530       119.9332
       139.3605       164.2380       188.9337       217.6360       240.2118
       257.8927       275.4636       300.1305       314.7147       336.0735
       362.8096       380.2200       394.4816       414.6674       435.0150
       456.2350       471.6434       486.1738       500.5266       514.7565
       529.3792       547.7300       558.1610       574.7766       590.3130
       606.9895       617.8734       633.6118       643.4561       653.8242
       664.1943       678.2056       687.6113       697.7476       703.0320
       710.2419       715.2393       725.0718       731.6375       736.9563
       743.9126       752.9070       752.6016       757.0386       761.2832
       762.8962       761.3257       764.5430       765.8164       767.2512
       765.7766       766.6777       766.2231       769.5813       764.8188
       762.0945       760.3438       757.8308       748.6948       746.1489
       741.3103       732.3127       725.3716       724.7354       714.9756
       707.4072       701.6831       700.0513       691.3884       682.6078
       679.6943       674.9811       662.4938       658.9810       651.5793
       642.3667       628.2590       622.1556       612.5103       599.9495
       583.4995       570.3391       554.1460       541.1390       523.7854
       508.4791       493.4276       480.2041       459.2324       442.3442
       416.4564       397.3804       379.0424       358.1416       336.1998
       318.0005       289.9647       269.2820       246.0048       222.4146
       192.5767       170.1912       143.4858       114.3232       85.34538
       63.28824       36.34760       11.38941      -15.23128      -38.26556
      -60.07745      -87.68771      -116.1460      -141.0160      -165.1904
      -191.0386      -217.7264      -240.2507      -261.7122      -296.7335
      -322.9225      -343.4673      -365.1589      -385.4933      -404.5166
      -427.3704      -445.9941      -463.6387      -477.3599      -495.2590
      -507.3539      -519.8010      -535.7223      -551.0466      -560.9954
      -580.8796      -589.8162      -600.2009      -609.9006      -618.5486
      -623.7612      -625.9398      -609.9041      -560.6664      -485.5670
      -446.2927      -508.9380      -664.6055      -837.4138      -952.2100
      -893.0667      -930.6802      -1046.512      -904.2936      -618.1740
      -380.9203      -135.9241      -430.8848      -1310.948      -1388.102
      -1100.422      -1017.163      -187.3365       293.7368      -833.7275
      -1935.049      -1240.017      -235.4364      -483.2478      -993.8608
      -987.2632      -486.3757      -181.5864      -853.6089      -1439.216
      -991.0872      -600.6693      -691.2866      -621.9380      -444.5829
      -451.8220      -366.9171      -124.0883      -72.33740      -759.4883
      -1688.809      -1536.986      -570.3556      -137.6731      -653.5100
      -1002.858      -201.5647       588.3876      -49.14575      -942.8939
      -448.6261      -32.82886      -526.6193      -649.3623      -677.1672
      -326.3312       272.1836      -150.6987      -893.6694      -520.8542
       558.5758       669.4436      -254.9669      -672.5664      -248.6466
       260.2167      -10.15894      -701.0739      -625.5015      -289.1855
       201.5201       604.8622      -27.92603      -598.4666       76.02686
       745.3801       335.7511      -402.1481      -429.4563      -20.84326
       180.7000       401.6554       106.4984      -234.4526       426.4315
       890.0161       34.97388      -618.4990      -208.4604       349.4648
       599.6815       312.4115      -57.15826      -330.3943      -112.3451
       355.2219       344.3872       465.1245       624.1515       444.7821
       3.796722       78.20593       262.9329      -131.5064       31.44189
       602.9343       901.5522       590.6681      -167.3296      -357.8011
      -194.6764       175.0105       868.7146       874.6395       23.24609
      -28.18896       674.3388       243.6154      -283.5598       199.9016
       454.7524       768.0769       920.5825       387.5876       433.8431
       760.6036       124.3273      -379.2507       253.7920       742.8513
       745.4563       920.5480       624.6304      -92.48639      -301.2181
       100.2837       745.7695       1170.332       896.1848       457.9595
       153.1581      -101.5789       403.8909       737.2310       169.0021
       298.1140       995.5121       661.3068       224.5867       506.2905
       743.3267       577.2090       363.2662       237.7645       79.49475
       389.3186       1076.940       1243.170       484.1399      -304.6633
      -235.6587       125.9619       347.4219       879.2590       1169.120
       596.2225       254.1417       282.5251       63.09583       359.9844
       859.2607       527.7495       417.9655       593.2422       173.7947
       244.7043       716.4604       963.0969       808.7637      -171.7758
      -779.3036       87.79248       981.1965       473.5458      -27.25293
       615.2681       971.3215       439.0704       156.7346       203.8086
      -101.4844      -170.7620       60.08176       81.18396       313.3074
       467.7004       201.2791       106.2662      -162.1726      -267.5579
       286.5341       577.7419       108.6412      -524.6010      -424.9469
       38.04016       254.3784      -90.45789      -659.5707      -397.4352
       319.9655       445.7051      -44.10889      -414.5906      -607.6392
      -695.5137      -327.1982       219.4427       152.5029      -490.4395
      -829.0577      -422.1074       71.42664      -108.3528      -568.2080
      -728.5562      -587.5944      -632.0244      -439.4195       135.6731
       59.53198      -335.6467      -687.7529      -1062.346      -1164.211
      -955.2428      -495.4271       373.5071       594.7510      -474.5066
      -1132.590      -900.5828      -499.3949      -228.2703      -224.1848
      -87.33545      -218.9832      -973.9783      -1235.060      -281.5567
       218.3105      -571.9595      -984.3308      -716.8093      -524.5513
      -403.0895      -254.3270      -72.33105      -154.2289      -518.3610
      -502.7664      -181.3118      -574.9146      -1033.215      -659.0255
      -203.6992      -45.81053       80.67224      -287.6641      -516.4463
      -460.4709      -656.9880      -519.2554      -250.3417       68.78494
       249.4288      -331.4070      -633.1539      -226.3134      -182.0129
      -682.2251      -525.5103       316.1648       179.5325      -706.0172
      -739.1303       102.3305       364.9883      -440.5800      -506.3989
       238.4924       123.2152      -559.7406      -329.1619       712.0582
       631.9824      -550.3748      -1061.704      -458.5994       598.8218
       857.3387       123.8158      -450.2444      -213.2201       410.1494
       594.1833      -4.243866      -145.0287       360.2607       439.8705
       453.1095       403.6609      -52.41599      -140.3801       201.8443
       226.6274       314.8186       628.0083       645.0637       778.8745
       696.7971       21.02405      -492.4548      -326.0293       429.6489
       1218.831       1020.701       242.8701      -1.957764       341.0469
       730.5190       729.3881       496.7390       189.7013      -90.40704
       91.76343       744.2051       1338.945       1116.269       199.3853
      -331.5558       139.8652       799.0853       748.6746       328.8929
       355.1914       695.4176       731.6420       335.3115       92.85889
       465.8474       797.3857       805.8430       799.7565       403.9253
       26.33066       92.75476       136.1517       285.0518       393.8306
       184.1960       125.4116       351.7744       543.5714       466.9059
       208.4409       134.4960       410.4127       313.1070       44.48294
       83.79520       116.5486      -69.37457      -312.7002      -187.6508
       471.2883       856.0010       269.9583      -252.8692      -56.49231
      -89.38757      -339.7365      -385.0146      -139.7820       147.3325
     -0.5000000      -289.4465      -338.0537      -235.0203       162.0893
       365.1321      -178.3325      -927.6775      -907.3354      -286.5836
       257.1881       339.4492      -84.25415      -491.2383      -807.0967
      -848.6671      -450.0488      -387.0986      -661.1589      -359.2953
       261.4886      -22.12500      -831.0762      -936.9631      -720.9103
      -584.6746      -334.1622      -175.5403      -300.0999      -806.2917
      -966.4214      -740.8430      -571.4647      -467.4307      -382.1219
      -279.6304      -237.8608      -709.4250      -1033.585      -438.7642
      -58.75928      -502.2783      -1020.432      -785.2490       107.6418
       487.2290      -247.0332      -1172.155      -1207.650      -609.4854
      -58.19025       300.3607       370.5511      -168.5288      -699.2693
      -880.7411      -478.6542      -63.62921       95.39709       458.1254
       217.3602      -312.9290      -354.4631      -580.0774      -818.0829
      -379.1375       245.1423       641.9385       830.7592       499.5891
      -123.2965      -463.0751      -482.0344      -194.0496       421.1919
       644.9233       1130.845       1531.126       346.0127      -1431.475
      -1776.652      -279.9019       1282.970       1271.497       687.1688
       140.3838      -994.1179      -1179.646       747.9077       2234.799
       1424.153      -581.0078      -2012.109      -912.5747       2094.641
       3152.041       1441.703      -961.2041      -2510.260      -1703.743
       974.3477       2737.276       2160.220      -634.9014      -3392.921
      -2080.897       2549.547       3737.745      -219.9023      -3285.615
      -1640.727       1872.929       2898.058      -116.6724      -2893.921
      -772.5322       2843.865       3531.820       1229.909      -1565.509
      -1917.534      -1184.008      -1256.278      -437.9473       1692.012
       2664.693       1314.545      -665.7451      -1870.800      -1824.751
       313.7900       2434.774       939.8740      -3057.580      -4661.101
      -938.0156       4072.293       4414.803       2476.566      -143.8223
      -6291.668      -10092.37      -4730.170       4076.746       6769.452
       2689.212      -1235.934      -2391.527      -3059.180      -1060.621
       4763.236       8665.176       7998.899       6395.565       3539.395
      -3223.432      -8270.226      -6079.432       844.5195       7183.234
       7855.241       3094.592      -1316.275      -3295.965      -3242.517
      -1533.091      -429.3682      -180.5020       110.5869       2191.562
       5545.401       5034.293      -66.26270      -3920.923      -3205.285
      -848.9863       2042.780       4622.158       2128.838      -3457.963
      -4573.680      -1943.544       812.7505       2967.899       1330.886
      -2718.896      -3561.138      -800.9673       2203.903       2702.671
       612.4297      -1492.675      -2066.150      -2196.308      -1676.841
       91.91162       1474.118       804.8048      -681.6965      -307.5173
       1296.723       1048.804      -1757.783      -3603.757      -1882.787
       1358.660       2672.844       1049.672      -108.0729       312.8072
       127.4973      -158.1677       556.1458       1511.484       777.2109
      -1511.237      -2263.530      -912.6108       588.3505       702.3325
      -964.5845      -1879.749      -650.1833       955.5054       2071.632
       2058.192      -214.9541      -4084.392      -5005.021      -1218.959
       1432.349       444.3660      -946.3643      -1211.158      -1306.631
      -1454.231      -260.6143       952.0588       503.1071      -184.6450
       142.8590       373.0310      -587.9543      -1098.284      -40.39130
       521.1621      -692.9888      -1786.779      -839.0503       1516.143
       2938.986       1826.282      -409.9502      -2195.087      -3026.426
      -2572.404      -1631.773      -1267.771      -1337.099      -1276.439
      -770.0386       727.5591       1812.263       656.6699      -1398.014
      -2031.469      -1298.794      -294.9111       737.7139       1793.677
       2555.067       2077.052       176.1333      -1989.234      -2755.239
      -1540.991       232.7002       166.3887      -1837.840      -3273.985
      -2926.196      -1456.161       777.4443       2160.537       1084.504
      -763.5176      -1944.352      -1897.303       36.55566       1863.297
       1288.147      -190.0762       639.5815       2411.583       1178.455
      -1619.251      -1894.846      -83.94128       725.0552       1.434692
      -798.8064      -320.4043       1321.305       2272.349       1449.880
      -1415.388      -3618.051      -1960.472       770.3479       639.5759
      -1237.427      -1569.115      -3.804443       791.2100       64.13159
      -690.2842      -954.3519      -485.8418       1114.274       2467.363
       2156.970       1066.891       1460.895       2697.430       1480.809
      -1453.354      -2580.784      -1116.858       434.3563       227.9902
       502.3062       2021.564       1569.059      -805.2234      -1529.446
       17.94873       1461.601       1396.099       854.4995       657.9661
       724.7227       1221.239       1484.002       1250.942       675.2681
      -687.4443      -1412.472      -703.6404       388.0063       1417.081
       1958.935       1346.704      -686.5913      -1946.551      -285.9546
       1911.720       2033.439       677.5173      -65.75668      -59.17993
      -166.4055      -331.1162       65.44727       1569.198       1891.558
       381.2379      -30.88135       1204.385       1769.500      -13.44165
      -1599.178      -312.7734       1609.861       1423.307       521.3516
       1187.796       2122.131       1152.097      -819.0762      -1823.968
      -771.5552       1578.462       2652.105       2048.607       957.9924
      -349.4331      -880.1484       231.2354       1719.805       2246.281
       1484.743       432.8616       811.8501       1762.892       1128.403
      -595.3462      -1712.351      -2029.181      -1739.882      -559.8779
       787.9189       1522.121       1770.360       953.6423      -604.3364
      -1389.011      -764.7671       718.9143       1224.876      -283.4180
      -2352.059      -2483.848      -874.8145       529.6162       1533.354
       1831.713       1131.373       80.41989      -316.2715       462.2799
       827.7727      -171.5225      -986.5696      -446.5066       939.8281
       1889.621       1982.953       1094.891      -424.6533      -1344.115
      -1513.603      -1281.877      -890.9532      -482.8575       164.9722
       659.5342       796.0243       668.6221      -366.0576      -1544.476
      -1502.236      -597.9010       285.5963       655.1157       555.5115
      -348.4707      -1558.548      -1663.828      -515.8701       913.2190
       1253.730       24.18945      -1464.683      -1790.892      -980.5264
      -212.6982      -232.3364      -1013.591      -1784.747      -1329.542
       79.84253       839.3395       416.6371      -190.2043      -349.2537
      -480.7048      -606.7617      -317.2075      -271.5522      -996.2798
      -1475.280      -923.7497      -181.7402      -599.5674      -1584.295
      -1251.471      -106.3481       749.1298       796.7134      -295.1670
      -1234.085      -1382.105      -841.6559      -131.8112      -13.71057
      -209.0024      -705.9387      -1305.838      -1396.231      -1023.028
      -362.1137       142.1460       245.5269      -152.5742      -798.6058
      -794.8049      -209.1801       65.78395      -37.23560       207.7351
       249.3311      -1046.348      -2624.368      -2425.632      -382.0643
