     0.02500000      -4983.743       3731.690      -12345.00      -12345.00
      -30.00004       215.6999      -17.40000      -12345.00      -12345.00
       0.000000       12.84000      -12345.00      -12345.00      -12345.00
      -12345.00      -12345.00      -12345.00      -12345.00      -12345.00
      -12345.00      -12345.00      -12345.00      -12345.00      -12345.00
      -12345.00      -12345.00      -12345.00      -12345.00      -12345.00
      -12345.00      -31.27110      -68.79910       1530.000       0.000000
      -31.37200      -68.11800       0.000000       97800.00       0.000000
      -12345.00      -12345.00      -12345.00      -12345.00      -12345.00
      -12345.00      -12345.00      -12345.00      -12345.00      -12345.00
       65.78761       279.6146       99.96691      0.5915106      -12345.00
      -12345.00    -0.04092285       0.000000       0.000000      -12345.00
      -12345.00      -12345.00      -12345.00      -12345.00      -12345.00
      -12345.00      -12345.00      -12345.00      -12345.00      -12345.00
      2008       244         6        45        22
       800         6    -12345    -12345      9829
    -12345    -12345    -12345    -12345    -12345
         1         7        13    -12345    -12345
    -12345    -12345    -12345    -12345    -12345
    -12345    -12345    -12345    -12345    -12345
    -12345    -12345    -12345    -12345    -12345
         1         1         1         1         1
SECA    -12345          
        -12345  -12345  
-12345  -12345  -12345  
-12345  -12345  -12345  
-12345  -12345  -12345  
-12345  -12345  -12345  
-12345  -12345  BHZ     
ZL      -12345  -12345  
[...]
       539.1865       551.6484       571.7471       589.7766       609.2787
       624.4626       644.2566       663.1399       680.6418       697.0405
       715.4241       730.2336       750.9746       769.6255       787.8496
       807.6970       824.1216       839.1646       858.6958       875.0303
       889.4624       902.7229       916.0227       931.5469       943.8870
       956.8948       968.3442       976.5981       989.1819       999.0032
       1006.683       1015.388       1021.857       1027.369       1035.523
       1035.403       1041.251       1043.777       1046.093       1049.861
       1054.902       1054.786       1058.115       1055.105       1056.811
       1054.869       1052.936       1049.580       1050.459       1045.041
       1041.556       1037.082       1034.667       1025.666       1024.620
       1017.152       1013.815       1005.225       996.8772       988.0544
       981.4365       968.7986       964.9531       955.3369       948.5427
       939.6631       932.0750       918.1035       908.1235       892.8489
       879.9998       863.7476       852.5410       837.5640       819.5823
       803.1338       792.7314       772.0742       755.1506       733.9194
       712.4471       689.0083       670.6512       648.7266       623.9459
       594.6892       572.7488       546.7239       523.2894       495.1665
       467.6072       439.8994       416.7268       384.6116       361.7772
       331.8691       303.5931       271.8715       244.6385       214.2762
       183.4468       149.8200       122.8367       87.93822       57.01981
       21.93086      -8.389099      -42.60519      -77.49878      -112.9260
      -146.4169      -185.7739      -218.1207      -256.5879      -294.1130
      -333.1066      -371.9059      -409.2925      -443.0826      -484.2080
      -522.6948      -564.2106      -600.5588      -637.8413      -673.3735
      -715.9248      -752.7234      -788.8569      -828.4639      -868.5664
      -899.9226      -936.2886      -973.6172      -1009.102      -1039.557
      -1073.764      -1103.229      -1132.693      -1163.372      -1193.762
      -1222.647      -1251.796      -1278.016      -1304.898      -1328.113
      -1348.015      -1370.831      -1393.809      -1406.676      -1419.094
      -1434.993      -1452.865      -1465.877      -1480.093      -1487.080
      -1495.198      -1501.137      -1510.580      -1509.904      -1509.452
      -1509.216      -1506.452      -1499.776      -1495.689      -1486.409
      -1477.199      -1463.545      -1454.341      -1440.265      -1427.863
      -1410.306      -1397.431      -1379.628      -1359.326      -1336.057
      -1314.247      -1289.583      -1267.833      -1239.488      -1214.710
      -1187.714      -1156.299      -1121.092      -1090.966      -1058.286
      -1024.580      -989.3950      -952.7783      -910.1228      -873.3123
      -838.4749      -799.1592      -757.6826      -719.4783      -678.7283
      -636.5593      -595.2175      -552.5452      -508.9268      -466.4771
      -423.9436      -383.7515      -342.2919      -305.1283      -267.5734
      -224.4723      -183.5091      -143.7791      -104.7786      -68.77645
      -36.17604    -0.06254578       32.93549       64.29382       96.63885
       128.1271       159.5818       190.0512       219.3546       247.8367
       272.2067       295.3176       317.7563       341.3702       363.4927
       385.1985       404.9956       424.4814       439.4375       457.4242
       473.8367       487.4402       502.2626       520.4458       532.3286
       545.0997       556.1421       570.1245       583.8459       598.5580
       608.6562       620.8827       630.5592       644.0782       652.5837
       663.5868       675.0544       685.0103       695.8867       707.3169
       720.3306       738.6123       753.9451       768.4319       782.0862
       796.6538       808.7424       823.8733       836.7173       847.3809
       857.8569       874.8403       889.5361       898.8479       904.7407
       919.3159       930.8486       940.7544       950.0576       959.7158
       969.2651       979.4658       986.1912       996.2546       1004.994
       1013.873       1023.664       1028.730       1038.006       1042.478
       1049.341       1057.824       1068.677       1070.796       1072.331
       1074.324       1081.351       1084.256       1089.197       1092.326
       1097.012       1101.840       1104.055       1106.025       1116.894
       1117.035       1116.312       1120.145       1122.088       1115.655
       1115.083       1109.568       1110.281       1102.337       1094.631
       1087.318       1083.265       1070.252       1058.588       1045.803
       1028.105       978.1299       859.4099       645.0817       447.3804
       342.4365       369.7024       511.2837       844.6387       1060.534
       1195.029       1938.446       2059.226       979.1646       543.0864
       739.3659       82.62891      -372.4402       814.8298       1573.001
       485.6390       12.47827       567.4136       614.2621       381.7008
       257.1030       111.1848      -207.5878      -356.9744    -0.06176758
       44.71960      -414.8566      -433.4745      -188.0049      -152.7306
      -138.4487      -307.6498      -310.4269       177.0616      -169.1887
      -943.2610      -630.2828      -412.6042      -842.5623      -778.0573
      -200.4194      -303.8552      -725.7462      -543.7168      -750.9104
      -918.2404      -631.9956      -781.3984      -904.9651      -1122.504
      -1467.875      -943.0205      -442.5720      -1102.675      -1547.728
      -1019.055      -863.4766      -1502.599      -1513.080      -1241.536
      -1108.680      -854.6455      -1280.224      -1548.113      -1092.407
      -1026.295      -1045.190      -1239.586      -1564.573      -1328.855
      -988.7886      -1230.970      -1600.424      -1210.079      -1053.351
      -1234.788      -1229.697      -1292.436      -1230.234      -1209.573
      -901.8486      -980.3901      -1573.561      -1420.473      -796.6387
      -1035.743      -1452.478      -657.0435      -661.4548      -1530.244
      -1009.287      -694.6465      -1126.410      -696.2219      -482.2124
      -1028.901      -1318.602      -958.1409      -366.4429      -727.1953
      -1274.126      -884.0111      -336.5132      -501.6548      -1054.243
      -793.2280      -642.8796      -1166.321      -740.2298       5.708618
      -1.346680      -585.3762      -1216.144      -789.4841      -342.5577
      -729.1682      -375.4466       284.0142      -324.0094      -802.0848
      -127.1731      -97.69385      -857.6110      -766.5681      -165.5584
      -199.3343      -104.5372       483.8518       106.6952      -533.5496
      -368.8147      -342.5090      -306.5966       122.6213       621.6445
       375.6148       19.67114       389.1421       178.0962      -413.1091
      -230.2048       251.3607       527.9933       394.7507       431.3228
       458.7985       273.6147       458.5013       178.8957       38.14160
       392.3542       423.4924       453.4894       331.2579       50.57520
       424.2300       811.1525       178.3198       345.0889       1485.470
       1173.538       549.6199       960.4526       717.1960       311.9763
       759.5598       575.5339       358.2290       1043.318       1163.947
       593.7075       578.7849       913.9458       865.1666       758.9625
       497.2490       375.1379       717.5693       812.1870       671.7432
       854.7964       874.1526       416.9282       678.8462       1137.245
       791.6309       602.5012       701.5889       653.7654       635.0898
       815.0474       808.2351       754.9004       1073.137       1147.353
       759.4482       693.9905       958.0667       894.1919       559.8730
       314.0083       399.9482       823.7097       1024.920       771.5186
       681.6958       931.3994       861.4070       628.5895       604.1395
       392.8827       232.2599       405.8032       899.3008       1141.337
       660.9592       371.9845       635.4324       766.4036       448.4893
       703.1782       1173.077       269.4807      -266.5687       418.3931
       949.7614       715.2177       187.9740       172.2383       239.9438
      -47.08588      -235.7288       288.3438       704.4158       321.3898
       43.58594       156.5929       340.3567       404.9684       240.8413
       67.45032       231.9504       269.3762      -305.8939      -545.5769
      -27.93646       70.47934       100.1993       285.2201       77.59657
       68.78473       111.3916      -82.87170      -131.5238      -207.9479
      -285.8875      -308.9905      -159.3963      -61.81171      -107.1343
      -345.0668      -562.5633      -270.6884      -184.2584      -101.5653
       283.7058       120.7291      -287.2598      -797.1625      -703.2708
      -52.89207       35.37897      -62.00154      -85.86719       186.4531
       68.03125      -643.4373      -395.3415      -14.83142      -316.9771
      -282.3628      -199.9854      -320.7860      -265.4711      -249.7817
      -164.6244      -298.2296      -551.0059      -422.3649      -260.4714
      -264.3334      -279.9441      -493.7661      -903.7029      -764.5824
      -46.35992       167.0818      -18.34668      -245.6733      -543.3347
      -581.6501      -583.8407      -519.2073      -336.2806      -602.9255
      -601.9210      -138.1428      -273.9688      -472.9694      -224.3142
      -388.5623      -997.6235      -668.1372       76.54468      -350.8330
      -925.3691      -653.3635      -399.0906      -900.1641      -1061.288
      -638.7179      -355.4233      -424.6360      -691.0879      -528.4644
      -493.7697      -705.7707      -353.4340      -254.1798      -621.4553
      -707.4126      -721.2053      -637.4421      -486.3248      -534.6934
      -620.4233      -725.5332      -561.9033      -224.6223      -367.2324
      -782.3850      -767.4395      -378.3876      -191.4048      -409.0674
      -673.6450      -592.3022      -384.5544      -513.7035      -550.7388
      -335.2383      -269.7698      -314.0127      -253.6284      -357.0385
      -392.9561      -162.2615      -313.9565      -420.2985      -199.6823
      -289.4506      -214.8086      -225.9604      -469.5999      -542.6935
      -245.9022       197.7561       84.91687      -226.8018      -431.9305
      -233.6272      -34.34253      -178.4727       42.92194       285.6752
       285.8421       48.47369       21.31921       487.4761       243.1289
      -313.8759      -151.1752      -169.4105      -390.2634      -26.93713
       546.1466       531.4096       139.4568       62.36771       45.98535
      -221.3388      -318.7411       185.2026       818.1589       709.0375
       313.9521       362.5356       218.4428      -76.36047       231.1289
       745.4929       600.4274       211.8131       540.8828       551.0744
      -113.3217      -103.4326       648.0819       603.4785      -226.2231
       78.68604       991.2498       796.4954       415.3722       488.3929
       534.4938       386.1489       222.3658       350.8167       483.1262
       471.3601       452.2129       556.9570       228.2669       126.2405
       630.1414       651.5952       726.5006       783.8286       283.5732
      -9.069702       175.3323       250.6007       376.9227       539.9597
       383.7666       362.5408       414.6956       397.3524       341.1958
       175.5806      -88.67377      -229.1473      -205.3656      -69.21820
       206.3540       553.4136       878.8652       1039.000       954.0067
       272.3867      -245.6071      -261.0569      -2.184998       327.7103
       287.6192       200.0251       412.4536       566.7401      -105.4277
      -1175.590      -1314.709      -673.8973      -207.3157       419.5439
       1150.199       239.2209      -1472.615      -1056.400       975.3823
       2296.109       2096.362       506.6304      -1202.354      -997.9243
       823.0015       1573.916       765.9355      -604.7246      -2054.617
      -1986.275       150.2896       2492.373       2815.609       371.3643
      -2014.740      -1152.133       1670.968       2250.375       280.7632
      -1523.665      -1534.760       298.5142       1751.256       1110.532
      -273.5575      -579.2300      -252.8433       471.2286       491.1006
      -462.8506      -1168.920      -1856.985      -1613.863       205.8955
       1770.650       1633.475       974.7744       667.9285      -258.1704
      -976.7383      -270.0303       419.3031       619.1385       365.2123
      -47.48303       625.6719       219.2092      -1434.552      -789.8926
       1225.677       2030.990       1320.624      -339.4590      -2847.944
      -4983.743      -3498.479       861.2666       3025.928       1210.858
      -1218.087      -2364.480      -2604.698      -262.1914       2915.410
       2959.443       1169.589       662.9303       745.0039      -1046.960
      -2187.941       386.2188       3317.466       3731.690       2825.108
       1076.752      -1563.764      -3767.546      -3474.658      -1467.541
       61.91119       326.7104      -828.6467      -906.7515       868.6423
       1399.923      -536.7124      -2130.615      -937.2415       267.7603
       367.9717       1976.193       2554.619      -30.02246      -1861.550
      -1303.049      -464.5485      -78.63086       1022.789       1499.045
       1306.108       2021.187       922.0840      -2090.255      -3758.487
      -2742.168      -836.7265      -44.31854       394.6985       67.64270
      -736.8832      -233.6721       715.7011       457.5042      -650.0312
      -920.2756      -624.1874      -122.8330       1026.174       1567.403
       1784.324       1117.880      -266.7617      -638.1636      -555.5459
       148.0670       458.8553      -39.78925      -98.72437      -415.0700
      -239.7888       335.5143      -152.1880      -1409.788      -1880.941
      -541.8849       482.2749       850.7053       1170.819       278.7782
      -444.0276      -830.4009      -1197.778      -549.4331      -98.04150
      -615.5876      -1278.501      -827.4709       714.8840       1498.405
       920.5205       542.2863       594.1771       450.4771       216.4341
      -501.7634      -767.4973      -275.7588      -315.9944      -457.1463
      -44.83609       105.4270      -44.73669      -189.0382      -405.3396
      -721.0894      -1046.926      -541.6387       491.2324       994.6115
       878.8256       166.3026       118.5004       488.9999       406.1262
       751.6909       807.2096       98.17310      -829.7551      -1255.067
      -641.0803       347.1694       550.2612       408.2014       603.9197
       329.3515      -13.93460      -23.89844       269.1582       872.2151
       913.2284       261.9043      -800.6943      -1869.717      -1669.635
      -558.8286      -576.7073      -1040.230      -563.9846      -534.5238
      -669.5043      -460.2158      -739.4941      -569.8561      -142.9238
      -358.6335      -187.9346       614.3731       440.0835      -555.2753
      -233.2861       909.6200       574.8242      -393.2700       229.8025
       838.8416       328.4476       327.4530       406.6948      -358.2397
      -854.9097       343.3425       1173.208      -380.0640      -1726.780
      -1504.057      -1506.014      -2014.325      -1620.227      -646.1440
      -511.2243      -217.8248       822.5110       332.2422      -987.7208
      -501.1521       287.6785      -250.3596      -413.2450      -127.2300
      -622.6508      -673.5341       19.87329      -204.2312      -826.7222
      -157.3138       790.6992       464.1565       121.3738       653.9414
       705.5298       141.9458      -337.2979      -622.0656      -385.7556
       258.2610       843.2006       597.0208      -339.8075      -514.2672
      -190.4131      -93.34293       31.55438      -80.53665      -46.07681
       219.0216      -20.06680      -201.7047       288.9924       316.2700
      -452.5635      -780.0122      -679.3456      -325.6372       335.0293
       828.7910       1401.851       1634.868       969.3612       398.3751
       302.4290       351.6031       349.2743       177.9302      -128.3087
       78.05688       884.8320       687.6805       3.887573      -163.5865
      -368.3114      -220.2937       62.10960       16.77399       52.26721
       510.7280       934.4312       755.1497       788.4294       885.0928
       581.9504       931.1831       1435.048       1021.917       383.0697
       390.3457       655.2115       613.2235       363.8497       194.7144
       90.72656       254.2546       655.7773       666.8643       617.4395
       993.7434       1055.272       348.2301       51.42334       609.5493
       883.2052       681.6902       483.5547       430.7780       448.1003
       558.5735       250.1865      -116.1490       72.08899      -212.8705
      -667.8900      -423.9185      -387.8127      -684.0741      -470.9966
       120.3210       593.4963       837.2317       974.2095       1130.727
       928.6742       165.3228      -733.5896      -770.8600      -180.6262
      -468.6608      -754.8638      -97.47290       385.9111       740.0737
       862.4147       478.6741       128.1066       164.1006       251.5381
       173.9009       372.5140       568.0114       222.3711      -295.9076
      -548.7903      -199.1637       172.3030      -113.9543      -525.0908
      -580.8171      -476.2625      -202.7817      0.2167358      -254.4865
      -135.4626       433.6587       467.1503       421.1501       497.4359
       444.2012       314.3442       235.5961       359.9602       279.8684
      -17.50024      -291.2239      -330.1685      -352.2424      -902.6218
      -991.2836      -495.7903      -210.3324      -272.9915      -121.3088
       448.1167       147.6179      -430.5905      -7.957397       210.2146
      -105.3449      -15.96057       327.1329      -74.53125      -698.4383
      -405.3286      -192.5253      -575.8369      -537.9509      -533.3604
      -1015.981      -1107.152      -843.7310      -709.7119      -181.8729
       430.8137       326.0314       47.54712       184.5728       80.48340
      -472.4421      -869.1396      -796.1417      -480.3116      -515.5057
