     0.02500000      -1260.991       1325.437      -12345.00      -12345.00
      -30.00501       219.1200      -20.78000      -12345.00      -12345.00
       0.000000       15.43000      -12345.00      -12345.00      -12345.00
      -12345.00      -12345.00      -12345.00      -12345.00      -12345.00
      -12345.00      -12345.00      -12345.00      -12345.00      -12345.00
      -12345.00      -12345.00      -12345.00      -12345.00      -12345.00
      -12345.00      -31.91720      -69.02180       2396.000       0.000000
      -31.37200      -68.11800       0.000000       97800.00       0.000000
      -12345.00      -12345.00      -12345.00      -12345.00      -12345.00
      -12345.00      -12345.00      -12345.00      -12345.00      -12345.00
       104.9007       234.5757       55.04755      0.9431990      -12345.00
      -12345.00      0.1018253       90.00000       90.00000      -12345.00
      -12345.00      -12345.00      -12345.00      -12345.00      -12345.00
      -12345.00      -12345.00      -12345.00      -12345.00      -12345.00
      2008       244         6        45        26
       180         6    -12345    -12345      9966
    -12345    -12345    -12345    -12345    -12345
         1         7        13    -12345    -12345
    -12345    -12345    -12345    -12345    -12345
    -12345    -12345    -12345    -12345    -12345
    -12345    -12345    -12345    -12345    -12345
         1         1         1         1         1
SOMB    -12345          
        -12345  -12345  
-12345  -12345  -12345  
-12345  -12345  -12345  
-12345  -12345  -12345  
-12345  -12345  -12345  
-12345  -12345  BHE     
ZL      -12345  -12345  
[...]
       117.0994       128.6549       136.0736       149.9102       156.1568
       164.9576       177.0684       189.7991       188.1252       204.4826
       217.2827       224.5346       222.6114       231.4734       241.0765
       249.2977       242.2250       243.3262       242.4093       248.6532
       245.3564       251.4675       258.7247       265.5529       262.0047
       263.8488       252.8048       255.1504       257.6284       253.6036
       252.3973       249.1787       243.4983       245.2118       244.9841
       246.7391       241.7620       241.3607       237.8708       232.4575
       225.9534       231.8066       232.1320       227.5325       224.0359
       228.1039       229.1747       236.1368       234.4120       232.6736
       232.4652       231.4744       227.5486       226.0461       222.8999
       225.8152       218.3883       218.5636       221.9589       216.0992
       212.9440       213.3483       210.3749       213.4528       205.9353
       205.4297       197.2398       196.2568       193.1332       193.5372
       189.8022       187.3365       178.0979       184.4171       178.5753
       171.6880       173.5163       176.3327       168.2881       167.2279
       155.4651       147.9149       136.7415       130.4041       121.0603
       117.8692       104.6687       96.06674       80.42043       74.08527
       57.81294       50.34657       42.19581       30.32559    -0.08741379
      -11.90231      -24.49669      -39.02283      -54.02036      -62.82794
      -82.24432      -96.62775      -117.1257      -134.5046      -144.3708
      -154.2014      -171.9121      -187.3891      -201.0589      -206.7574
      -222.5399      -237.9391      -238.9919      -249.9301      -269.8893
      -276.2537      -278.1541      -288.2777      -301.7883      -305.5490
      -309.8961      -317.7088      -327.8684      -337.9358      -337.7365
      -352.4644      -362.2751      -365.3369      -375.9971      -375.6538
      -376.1003      -381.2925      -385.6847      -392.9863      -396.6525
      -393.6572      -390.9758      -390.3164      -397.3271      -397.8923
      -383.3298      -375.7711      -379.3383      -378.7213      -373.1443
      -372.1938      -364.4603      -341.8527      -337.4531      -335.9999
      -327.7154      -315.3647      -308.6648      -306.7517      -300.5400
      -289.3884      -284.4807      -274.4791      -265.9324      -261.1460
      -252.4600      -236.6544      -232.7367      -230.5504      -222.1254
      -212.0387      -211.5350      -203.6026      -197.0904      -189.0549
      -178.2476      -168.3582      -165.0094      -161.8274      -157.6066
      -154.2806      -146.8900      -138.8666      -133.8442      -124.3889
      -120.3649      -114.7700      -106.9390      -105.1867      -102.0903
      -89.36252      -80.62082      -74.40192      -65.33202      -52.57668
      -49.95446      -42.27203      -31.77867      -29.76115      -21.51372
      -4.049221       5.677414       15.43332       24.08614       27.46378
       38.89548       45.44485       51.43513       58.72690       61.02856
       64.84653       81.52106       122.5917       171.2880       145.7661
       113.0846       189.4250       198.1538       139.4551       134.6456
       57.42676       60.80457       217.1300       178.8726       22.83777
       81.79620       206.0458       143.6417       188.7584       399.5428
       329.6381       208.6723       198.9529      -4.576843      -26.06476
       257.3453       266.2819       67.80971       27.61951       183.9061
       299.0694       226.6987       170.0972       236.5808       346.5135
       347.4092       171.4920       252.7115       456.9460       279.4153
       258.9117       302.1315       147.4324       253.9319       436.8066
       329.8120       96.88110       22.08224       59.64099       241.0576
       390.3044       334.6916       304.2030       369.8700       290.2656
       120.9385       245.8962       422.7928       465.2484       304.3088
       43.97219       1.342613      -2.626953       126.2500       326.3705
       266.8107       253.8427       241.4800       133.6669       181.9772
       202.2523       65.59265       111.5280       233.6107       68.46259
      -23.78809       99.27858       107.7030       21.41632       12.47566
       49.90985       29.32697      -19.33652      -37.98807       22.16221
       59.37558     -0.4044399      -11.25871      -5.330353      -99.93448
      -89.08012       30.52248      -37.56328      -93.65126      -10.07761
       71.73904       56.57701      -34.31082      -38.39172      -62.12096
       19.57953       74.49335      -140.7434      -162.0641      -92.12411
      -104.0013       10.11320       28.37671      -89.65448      -113.0509
      -139.2946      -144.1239      -51.92642      -44.20428      -214.4087
      -288.5585      -191.7263      -217.5456      -136.7900       3.666237
      -78.62885       47.24934       172.9892      -91.14056      -294.6868
      -329.4501      -332.6754      -182.0294      -171.9649      -335.8472
      -337.0507      -243.7729      -251.2429      -218.9235      -129.9967
      -49.68415      -2.528076      -82.20276      -249.4048      -300.5706
      -252.9028      -274.6283      -253.6050      -246.3336      -254.8990
      -108.6892      -176.1427      -234.5092      -295.2123      -399.2539
      -254.4600      -204.6837      -297.5894      -265.8115      -167.4854
      -68.46631      -51.17493      -161.9094      -270.5065      -263.6909
      -268.5445      -209.6946      -213.8279      -297.1025      -305.6177
      -322.7534      -195.9058      -71.54559      -138.2401      -128.6064
      -154.6027      -167.3012      -139.9513      -229.7605      -350.9651
      -343.4525      -339.6926      -264.2032      -104.2428      -152.3960
      -253.1105      -257.2062      -226.9677      -117.9974      -102.1603
      -172.8582      -177.1791      -122.0242      -191.3627      -272.6856
      -237.2837      -167.2324      -98.89233      -52.34528      -86.00763
      -103.6757      -133.0009      -216.9874      -209.9436      -64.40137
      -53.99338      -99.37677      -102.5142      -112.3330      -20.86824
      -29.96069      -79.41216      -54.63686      -6.693167       12.01320
      -23.89890      -91.13477      -187.1617      -140.3311      -49.60179
      -75.77013      -54.58551       18.25957       6.699280       66.39746
       130.3730       56.81918       108.6597       230.8064       135.3849
       63.29279       93.12749       75.39984       81.32407       108.2242
       114.7216       129.4625       260.5700       219.5356       22.79211
       138.1102       247.7191       197.0281       233.2279       203.3698
       112.2073       200.4893       298.9594       181.8220       138.1290
       286.3712       245.4517       137.9112       284.8587       273.4030
       147.0143       322.0021       344.7808       277.4817       394.9680
       348.0882       299.3303       397.2863       435.4684       353.9954
       289.5613       341.6023       320.8578       277.1571       356.1934
       381.5892       345.6213       293.1681       213.2169       296.4258
       494.8802       515.1484       418.2312       349.3524       336.9301
       306.7447       289.3984       362.4460       391.2022       333.4960
       291.3273       274.9384       300.6805       334.5137       336.6069
       388.3403       350.1278       262.3733       183.4720       149.2959
       164.4268       142.3837       165.6520       184.0252       149.4196
       142.2205       196.2986       172.0981       55.08093       85.68420
       148.0475       128.9936       53.11237      -24.45747       37.71690
       43.24274       83.26982       112.5108      -84.65271      -74.76421
       18.40335      -60.46904      -77.50686      -37.73224       38.72412
       88.88141      -52.20074      -170.8638      -191.1828      -148.9344
      -30.26877       73.06075       4.216125      -166.3643      -206.3455
      -161.9991      -96.00690      -46.78687      -114.0839      -156.5515
      -125.8280      -68.37015      -45.59414      -43.92278      -22.29724
      -94.27765      -236.6056      -254.6434      -150.5481      -84.26743
      -12.65708       41.58826      -91.15222      -176.5138      -75.91441
      -27.09376      -20.33539       42.69647      -21.06802      -130.9806
      -33.01373      -22.52112      -114.5229      -58.92432       15.59052
      -44.95309      -155.4938      -103.9286      -25.53467      -10.18671
      -21.94482      -97.62518      -241.6055      -190.2211       41.73302
       42.42233       5.545807      -38.68076      -141.4775      -157.6656
      -82.46469      -23.45776      -135.6449      -176.0619      -139.9694
      -85.64615      -19.37830      -144.5636      -118.3716      -91.23755
      -222.3475      -178.0022      -142.3383      -172.3310      -107.8477
      -79.45251      -165.3170      -206.4374      -263.1649      -345.7773
      -236.0923      -162.0956      -241.7576      -270.5532      -262.4191
      -282.4399      -195.4006      -126.8412      -263.7649      -309.3674
      -236.8055      -262.1208      -248.5628      -219.9468      -174.2166
      -168.3846      -244.5784      -249.5243      -312.9661      -310.1097
      -219.5386      -282.8477      -326.7698      -309.2144      -284.1859
      -133.2012      -69.52692      -181.7272      -341.3210      -461.1113
      -304.9363      -162.8236      -308.8865      -324.2997      -188.9789
      -137.1470      -188.3171      -261.7090      -334.5051      -274.4410
      -126.4179      -157.2037      -83.78366      -35.62799      -131.4152
      -104.8633      -130.8716      -163.4557      -151.7871      -168.5178
      -162.0753      -15.41672       102.5401      -24.42899      -96.87352
      0.6195068       82.87256      -28.35095      -212.8267      -188.8811
      -103.4090      -43.80193       33.89030       74.09018      -11.66693
      0.1889038       164.0835       96.66765       20.77526       13.27313
      -100.3590      -71.30280       78.33246       73.16302       96.18008
       212.2811       54.47272      -150.7025      0.3281860       138.9419
       84.82739       176.6573       234.9006       124.9893       151.1362
       151.1088       65.61258       70.68427       136.7628       229.0243
       266.4844       209.5334       179.5376       206.6241       260.8995
       285.4948       194.5349       71.11972       82.29932       170.9503
       251.7804       377.5544       464.1445       420.9531       338.4215
       283.6481       149.9732       97.37164       286.3929       407.2478
       364.2721       347.0427       348.3251       262.5970       240.4751
       295.8235       338.3154       321.7163       359.7906       390.0201
       260.6276       247.3585       262.5512       166.3558       267.9501
       392.4480       341.9593       351.5938       313.4013       149.1379
       174.1030       305.3800       423.0896       384.4015       186.8057
       59.95953       84.97028       160.2899       233.3269       271.7285
       282.5779       329.9912       324.5903       322.8261       317.3762
       219.8257       218.5363       280.3253       302.4372       317.9906
       182.8825      -54.38672      0.3847046       153.2197       137.1741
       202.7994       327.3792       287.5150       171.4646       56.88005
      -18.15531      -13.80270       33.47198       191.5304       251.4800
       119.2897      -68.93671      -176.5674      -91.84944       16.64966
       156.4796       215.0894       198.0942       225.7654       201.7628
       122.2616       5.155701      -89.38547      -118.6989       37.97491
       118.2390       31.59485       136.1884       90.67627       2.790649
       249.0445       267.0521       39.21603       5.510788       29.21460
       153.5487       285.9483       154.5330       8.448660       5.912125
      -15.70361      -53.66103      -43.81358      -44.17003       33.68564
       162.5217       158.2262       35.56833      -145.9855      -158.8248
       61.11322       156.3929       127.7510       48.24833      -25.48035
       90.63550       64.75754      -123.0792      -135.6951      -53.88312
       67.26950       161.9441       77.83647      -23.98224      -58.24707
      -43.55510       13.50249       37.07170       6.292358      -135.5564
      -309.1836      -377.1853      -306.8313      -218.2291      -314.2109
      -606.0459      -946.1462      -1019.956      -916.6191      -732.8641
      -426.6003      -197.1432      -134.7582      -144.6436      -121.5604
      -111.5599      -143.6103      -249.2656      -459.0597      -469.6615
      -210.1765       186.6479       652.6958       1187.236       1325.437
       917.8252       471.5914       212.5773       223.8856       373.5063
       280.8301      -338.4773      -1068.176      -1260.991      -854.2440
      -157.9231       430.3558       336.5032      -363.7382      -552.4102
      -425.5396      -802.7979      -1135.196      -1081.185      -824.2815
      -535.6681      -490.6040      -290.3042       279.4370       716.4957
       529.6587      -9.400299      -134.6696      -31.40680      -250.2748
      -469.8236      -411.4040      -348.5892      -115.2701       342.8048
       458.4781       121.9798      -195.4490      -115.3056       67.11206
       189.8611       257.3765       93.39740      -52.53906      -129.6731
      -250.0244      -151.7308      -143.0358      -495.0464      -772.3435
      -823.7014      -534.2266      -37.40863       167.2457      -14.92847
       16.64062       350.5958       281.7668      -159.6920      -587.2720
      -812.0637      -696.4236      -52.99841       650.2213       635.1279
       235.0695       24.88734       33.00723       165.8910       52.84753
      -175.8501      -106.9444      -23.91949      -210.4055      -409.2258
      -274.7255       85.85480       311.6779       228.8287      -28.04639
      -362.2935      -692.8348      -570.1527      -70.60474       199.2974
       241.3136       307.6110       199.2073       106.4642       99.57928
       77.67334       239.3856       348.8285       161.3572      -90.81752
      -58.91309       234.1465       437.9575       561.1176       620.6000
       168.8669      -279.5647      -168.8377      -169.4589      -258.2394
      -150.9148      -42.33435       11.53860       133.3984       131.4026
      -140.9653      -126.1204       232.9489       496.5986       428.9272
       144.2827       29.21661       133.0749       212.0193       210.7363
       197.3995       123.3646       86.80240       106.2882       73.42213
       70.57841      -49.45111      -217.9294      -223.7561      -181.9035
      -73.79108       143.5431       421.4492       522.1210       323.6881
       139.6958       224.0908       526.8690       394.9003      -80.79794
      -165.8071      -168.4207      -157.2683       4.417679       8.993042
       78.89392       326.9636       347.4540       89.86069      -116.1160
      -120.6672       92.49890       318.5503       438.5200       519.2321
       423.3174       211.7079       128.4974       34.74722       18.35840
       134.1107       94.33455      -1.717209      -61.26038      -77.45618
       165.4784       379.6567       374.9260       277.1552       154.8207
       249.2496       363.5414       291.1409       241.6768       163.0913
       79.68643      -45.71510      -108.1887       209.5793       530.1331
       379.1747       125.7247      -86.83536      -73.08600       259.7728
       207.2283      -108.6190      -84.32715       184.0425       381.0188
       432.0740       329.5589      -67.40988      -217.2498       87.07068
       384.3792       455.8334       253.4775       83.47974      -216.9818
      -638.4683      -667.2891      -427.2658      -123.9084       138.1823
       202.5884       125.0793      -79.15845      -334.9705      -350.5580
      -130.4372       19.26807       83.96198       163.1101       138.1208
      -47.50293      -235.2294      -374.1623      -308.3359      -89.91644
       114.6534       219.9958       49.82007      -186.8611      -337.4175
      -384.3378      -146.3423       82.09271       179.1613       263.3000
       78.39160      -180.4863      -430.3624      -574.2676      -340.4860
       11.30341       267.8620       53.10156      -495.5856      -604.0823
      -455.8708      -401.5212      -503.7344      -717.2522      -694.2161
      -354.8677      -32.39389       74.48584      -127.0223      -410.4521
      -666.0186      -835.6895      -537.6649      -88.31612       18.83301
      -123.9546      -349.6998      -551.9868      -677.5894      -656.0149
      -473.2141      -153.4191      -34.85168      -167.0168      -302.3096
      -475.7905      -731.5806      -783.7961      -619.9685      -422.8509
      -252.1952      -200.7144      -147.2227      -74.81995      -113.6740
      -49.60034      -116.5649      -444.6709      -451.5176      -225.2005
      -160.8374      -126.2030      -340.5156      -479.2946      -85.87201
       140.5524      -13.00922      -102.9324      -160.4167      -112.1711
      -126.6699      -385.9221      -470.1826      -232.7274      -166.8277
      -282.5037      -193.5804      0.6909180       164.7326       205.1486
      -16.56476      -228.6143      -103.5290       105.0789       87.07086
       56.34558       117.6799       262.1103       273.7898      -207.2758
      -586.4530      -470.8270      -201.7769       59.74597       197.1898
       215.9393       211.1385       280.7898       358.7961       360.9193
       213.0724      -95.97046      -310.2523      -241.8933      -55.52473
      -66.48907      -114.6550       71.00635       293.3625       350.6395
       115.1466      -95.94128       60.07513       215.8623       323.0085
       295.6781       99.38440       199.6974       314.8569       328.2618
       434.7943       398.6204       271.7267       105.0253       31.52380
       105.3149       169.8276       149.3517       157.8645       379.4132
       428.1180       203.1128       56.13962       40.99896       111.8240
       221.8849       423.3381       568.7328       428.9521       244.2612
