     0.02500000      -2130.449       2194.069      -12345.00      -12345.00
      -30.00501       219.1200      -20.78000      -12345.00      -12345.00
       0.000000       15.43000      -12345.00      -12345.00      -12345.00
      -12345.00      -12345.00      -12345.00      -12345.00      -12345.00
      -12345.00      -12345.00      -12345.00      -12345.00      -12345.00
      -12345.00      -12345.00      -12345.00      -12345.00      -12345.00
      -12345.00      -31.91720      -69.02180       2396.000       0.000000
      -31.37200      -68.11800       0.000000       97800.00       0.000000
      -12345.00      -12345.00      -12345.00      -12345.00      -12345.00
      -12345.00      -12345.00      -12345.00      -12345.00      -12345.00
       104.9007       234.5757       55.04755      0.9431990      -12345.00
      -12345.00      0.6341153       0.000000       90.00000      -12345.00
      -12345.00      -12345.00      -12345.00      -12345.00      -12345.00
      -12345.00      -12345.00      -12345.00      -12345.00      -12345.00
      2008       244         6        45        26
       180         6    -12345    -12345      9966
    -12345    -12345    -12345    -12345    -12345
         1         7        13    -12345    -12345
    -12345    -12345    -12345    -12345    -12345
    -12345    -12345    -12345    -12345    -12345
    -12345    -12345    -12345    -12345    -12345
         1         1         1         1         1
SOMB    -12345          
        -12345  -12345  
-12345  -12345  -12345  
-12345  -12345  -12345  
-12345  -12345  -12345  
-12345  -12345  -12345  
-12345  -12345  BHN     
ZL      -12345  -12345  
[...]
      -146.5327      -150.4375      -150.0940      -155.9561      -155.6064
      -159.4289      -154.0810      -156.3957      -156.5515      -159.5030
      -158.0134      -166.8402      -167.1210      -167.1128      -161.8304
      -161.3516      -152.6674      -153.8657      -149.7836      -144.9453
      -140.8184      -151.5087      -144.8184      -145.9020      -143.1784
      -137.7258      -135.4474      -140.4222      -127.4644      -128.6928
      -121.6321      -121.8607      -122.1479      -117.5531      -111.1828
      -112.7154      -109.0397      -108.5078      -99.09982      -101.2072
      -94.08092      -83.87488      -84.89984      -83.10181      -67.67549
      -64.27644      -58.41885      -51.74332      -49.33433      -46.26239
      -32.89873      -21.97475      -15.13486      -8.071841       2.402231
       6.539391       17.30539       20.44903       25.09068       31.30360
       41.19098       45.40460       49.60535       57.51778       70.23189
       67.37027       70.84552       78.13843       89.34534       92.98737
       93.04520       93.68945       100.6451       100.0988       104.5050
       110.2214       115.2780       108.8012       110.4776       118.8054
       127.0123       137.1837       148.1813       143.4926       147.3149
       154.6379       162.5551       162.8995       167.8419       176.1870
       179.4498       181.6547       190.0801       192.0594       195.0942
       194.3752       205.3937       210.6672       212.1903       206.0333
       205.8140       211.7656       221.0938       217.6008       217.7024
       220.9894       226.9402       221.3067       221.8837       220.4476
       224.8734       219.9193       214.0294       208.0081       209.7731
       203.2418       201.8513       198.9274       197.2794       192.3307
       192.8516       184.2018       180.0194       173.8193       172.5287
       165.2216       166.4055       157.7391       151.7419       138.4915
       142.7311       139.2349       134.6752       123.6890       122.0557
       115.2274       111.5728       107.2104       100.7146       90.44589
       93.87332       84.03223       81.55400       76.33118       72.55710
       74.43195       67.21820       53.10355       50.25719       43.13136
       34.55885       26.66085       28.27089       24.83023       21.78583
       8.306458      0.7329369      -1.085854      -9.743004      -19.29552
      -24.04160      -37.57138      -45.94252      -53.71922      -63.03760
      -74.52234      -85.25592      -96.60632      -102.6893      -118.4746
      -126.9225      -141.5505      -157.2882      -170.9027      -177.5278
      -191.3493      -197.5260      -205.9109      -217.2286      -229.8421
      -234.1002      -249.9467      -254.2699      -265.7124      -276.9077
      -290.9182      -294.3442      -304.1107      -316.2132      -326.2003
      -325.7019      -338.7793      -343.9562      -354.1144      -356.4229
      -369.0122      -383.2419      -393.9235      -393.3601      -396.1604
      -400.0912      -414.1533      -415.6321      -415.5549      -414.0150
      -417.9735      -416.0448      -419.9590      -420.6689      -420.2007
      -412.8446      -407.9009      -383.5260      -325.8969      -304.0819
      -370.5034      -332.1824      -289.6926      -464.6200      -432.4749
      -305.7396      -478.6616      -435.1637      -388.5406      -586.4535
      -540.9988      -376.8752      -549.4302      -617.7968      -334.8754
      -344.1770      -420.3660      -364.0117      -447.6707      -334.3361
      -221.0388      -284.9143      -221.2818      -209.0666      -267.4508
      -241.4075      -332.2665      -397.3466      -348.8326      -355.0718
      -398.7855      -348.4397      -196.0565      -258.8108      -422.9427
      -394.8544      -346.1844      -317.4390      -181.9715      -115.0964
      -26.10052       19.65765      -247.9662      -316.5140      -139.4137
      -206.7167      -347.5095      -267.8217      -133.7928      -181.2756
      -118.5880      -101.2444      -156.7844       7.125336       73.74078
      -63.33829      -204.1246      -43.05115       121.1053       57.73793
       59.58315      -45.21008      -15.03690      -30.57489      -56.06055
       118.5762       23.51938       16.26599       188.5069       28.93666
      -21.03699       212.3048       311.0343       280.6192       130.5093
       214.3619       364.2959       103.3399       67.39441       212.8085
       204.4053       247.1705       330.0755       184.0637       126.5061
       324.9475       412.2908       350.8984       213.1533       205.3598
       312.5562       226.3578       156.4180       354.4648       432.3395
       270.8578       292.2924       156.4465       80.95020       400.1490
       396.3500       263.9502       351.1265       321.2423       298.1769
       313.4544       274.7877       291.7219       268.3785       297.9695
       321.0591       351.6693       397.4341       270.3068       331.4763
       381.2590       386.9799       477.0968       368.9474       186.1110
       240.0740       347.0190       331.5280       332.3174       356.2485
       384.2935       372.6373       359.0503       535.1448       452.9409
       286.9757       409.8107       397.2675       292.9791       518.4465
       487.7440       249.0061       370.5247       333.2665       324.5059
       561.2540       502.6931       286.0887       320.1743       407.0944
       252.4879       207.4890       415.4164       428.2260       276.4496
       429.3212       443.6519       327.4663       484.1375       489.1508
       291.2819       318.6182       411.8406       299.5444       199.8202
       221.1362       205.5575       214.0786       338.1420       461.3066
       283.3845       88.52039       237.2142       369.8854       246.0449
       185.0010       111.9429       82.83606       229.1878       263.9543
       212.5997       157.9538       158.4294       186.2804       188.7905
       256.2607       251.2884       214.9360       119.3185       90.57257
       101.1449       118.3619       103.0740       29.42111       67.36823
       117.2428       33.95761       50.51260       138.9962       159.8164
       148.1526       29.63813      -4.453476       55.42041       39.72641
       65.31602       27.62392      -49.60994       8.037857       102.6441
      -17.66541      -102.4230      -29.07300       37.58580       45.92670
       14.63486      -101.7555      -93.74538      -1.026688       26.38395
       6.153931      -17.79388      -67.40881      -91.41336      -44.18500
      -117.6271      -312.5049      -419.2618      -331.4625      -161.5201
      -88.99335      -99.06384      -138.7363      -123.4776      -127.3971
      -177.2050      -224.6686      -255.7040      -269.1147      -238.5265
      -244.9899      -221.9960      -225.5735      -308.1543      -370.1742
      -341.9154      -270.8693      -243.2486      -277.8904      -386.2749
      -454.2720      -387.2832      -390.7767      -467.2318      -420.8784
      -337.1887      -409.2460      -432.1591      -430.6688      -451.1702
      -464.5254      -497.6892      -528.9187      -526.8486      -474.6073
      -497.5614      -505.6364      -455.4297      -608.1370      -562.9866
      -374.6283      -420.1373      -442.2539      -453.0917      -499.1255
      -451.7672      -473.9536      -405.9513      -473.8281      -537.3674
      -537.8228      -585.9677      -531.9653      -476.8085      -362.6270
      -311.4691      -321.2662      -364.2905      -492.9620      -445.9939
      -406.8920      -335.7796      -284.3271      -356.2356      -414.9353
      -447.1039      -357.2534      -290.3372      -343.2156      -353.9364
      -309.0858      -307.1923      -332.0292      -208.6117      -189.9164
      -219.5922      -194.1280      -151.0922      -173.6525      -131.5287
      -66.24837      -93.25140       3.375244      -77.54410      -229.6932
      -16.34749       16.49405      -175.2432      -104.0891       18.83612
      -75.91455      -89.80972       149.7877       188.9802       81.34048
       89.72345       93.80130       101.2805       92.35138       200.7100
       271.9426       184.6368       183.0706       207.8711       263.6655
       192.5326       129.7604       344.6263       407.0508       342.2708
       337.1803       296.0718       257.1923       293.6052       408.1511
       362.6868       372.8833       531.3104       455.1566       417.9526
       315.5219       240.7748       332.8708       421.5309       437.8783
       280.4525       461.4885       529.1572       417.6570       485.0894
       290.4795       277.7817       407.2035       444.6377       493.4850
       439.1167       570.1621       585.8811       365.2888       344.9164
       461.1669       479.5116       451.0315       589.8690       521.7134
       322.9523       488.6472       440.7429       297.0745       526.7722
       580.0293       441.0000       432.7642       379.3055       294.1310
       418.4495       448.3679       387.6379       501.6559       523.6194
       413.6813       329.1953       277.6652       244.9133       329.5876
       402.1754       322.5652       377.4894       398.9355       276.2964
       174.0311       159.2932       247.1838       239.4825       231.4724
       413.0054       419.9944       292.6307       123.9346      -49.11282
       53.48719       47.49567      -47.80743       130.5797       225.2773
       201.0176       209.1187       41.88110      -133.0297       27.20923
       159.6940       23.87857      -17.27567      -75.35353      -91.56366
       38.85327       3.712986      -15.74183       7.908089      -2.456970
      -113.3767      -253.3546      -125.5283      -23.73453      -70.04596
      -76.84549       75.33197       175.5239      -45.62402      -194.1936
      -237.2885      -217.6382      -144.1050      -199.1410      -63.93840
       33.91306      -60.58014      -197.7222      -317.7648      -219.8833
      -103.7880      -126.6560      -136.9924      -146.8030      -96.38403
      -195.1823      -228.3248      -3.984344      -50.12500      -291.9504
      -273.8292      -202.9395      -227.7867      -149.4540      -79.77655
      -210.8627      -238.9643      -79.87354      -168.2305      -426.6633
      -378.1472      -115.5794      -95.36414      -266.5235      -226.0247
      -138.8757      -205.5065      -321.8177      -380.0598      -367.2948
      -171.9856      -76.36719      -194.0727      -156.5332      -99.29895
      -282.4980      -398.7413      -302.3419      -138.5778      -32.03717
      -81.65491      -131.4779      -199.1872      -150.5362       28.17261
      -237.8115      -362.8308      -182.2602      -180.8803      -123.2654
      -13.59332      -105.5554      -165.7772      -102.7855      -71.81719
      -31.25449      -51.27832      -93.59859      -68.15437      -25.32761
       32.46008      0.1886711      -45.03427       59.64084       106.4673
       26.22346      -65.11669      -18.71021       101.2626       5.374634
       15.68588       96.86153       54.86692      -13.99780      -30.05859
      -56.86256      -63.61487      -68.75092      -238.0494      -182.1449
       103.7944       80.84933       20.19720       124.8111       96.51405
       27.38855       144.4574       230.1341       180.0932       139.3195
       141.6200      -20.08530      -127.2935      -167.1353      -352.2789
      -247.2023       25.31424      -2.275375      -14.34192      -37.15686
      -172.3135      -213.1431      -91.59514      -18.08476      -27.79486
       69.87032       43.09735      -237.9516      -313.6027      -170.0604
      -96.27927      -117.7336      -117.6268      -217.7338      -400.7048
      -481.4182      -535.7736      -545.6351      -455.1967      -342.4875
      -158.3243      -79.72168      -171.6666      -305.3503      -262.9229
      -151.0966      -139.4782      -127.1927      -163.9231      -331.1809
      -366.8569      -336.7280      -405.5262      -578.4674      -637.7112
      -502.2317      -447.5508      -298.8876      -156.7079      -298.8560
      -338.0780      -226.4559      -151.7219      -147.8438      -235.5125
      -349.6696      -342.0209      -460.4373      -559.7026      -430.2502
      -350.7408      -310.8580      -193.8111       1.371216      -20.04602
      -277.7065      -369.7557      -310.1165      -215.0300      -174.1295
      -254.6670      -350.2452      -158.8715       77.81741       44.00591
       56.23090       104.2475       119.3226       217.1196      -151.1260
      -1125.394      -2023.173      -2130.449      -1368.723      -411.1489
       312.4251       489.7373      -72.00830      -699.8835      -684.7505
       155.3408       1452.616       2194.069       1572.522       9.526367
      -1409.769      -1525.490      -254.3145       1232.441       1720.112
       655.2261      -965.2461      -1629.036      -969.5063       489.7456
       1192.050       656.9368      -137.5734      -311.7290       309.0150
       570.0792       288.6641       124.3252       153.8102       411.1119
       274.3344      -257.0384      -349.5493      -53.01489       323.6914
       483.2957       223.0271      -110.5134      -270.9183      -246.3782
      -156.2251       306.4802       771.2695       786.0562       989.4746
       1071.562       974.0361       893.0352       430.8043       282.3184
       395.0068       474.1819       1024.831       1086.092       397.6530
      -112.4086      -411.3687      -394.9838      -247.2709       77.18848
       776.1885       1278.918       1275.296       872.8184       543.7014
       320.1558       117.3434       431.4219       954.8823       1122.444
       832.7609       144.8317      -430.6509      -252.5328       180.9191
       207.5931       293.5347       622.8584       872.2849       1089.933
       1056.894       561.5243       200.7595       318.8605       551.2380
       656.3655       584.3058       324.5928       95.86938       375.5161
       911.2383       1030.034       680.0475       178.3784      -117.3339
      -329.6743      -479.1486      -314.5994       23.70874       376.0847
       449.3370       205.3857       217.7745       507.5701       658.4030
       505.1752       224.1465       18.50708       231.5171       717.5044
       688.0864       62.26062      -372.9845      -21.76855       627.1392
       734.3671       348.7301      -61.40195      -45.08060       36.34631
      -246.7706      -418.8343      -43.11157       376.6215       294.3511
       104.6909       95.56641       408.6572       727.1696       450.3082
       48.74329      -261.2425      -312.9189       32.48557       178.6339
       137.5580       73.56543      -307.4916      -469.7377      -263.2324
      -37.30182       43.69434      -276.6956      -640.2620      -642.2056
      -313.4572       138.2483       392.7850       211.0908      -305.7208
      -529.6273      -336.4125      -160.2142      -56.73746       20.84863
      -83.17749      -233.7717      -375.7373      -343.1914      -198.5267
      -20.85828       239.4998       164.9277      -257.8938      -605.4807
      -654.8318      -411.4572       77.62140       365.4359       61.04822
      -444.8789      -846.4242      -820.0121      -405.6679     -0.1395569
       152.8427      -24.04517      -516.8257      -869.4060      -683.9246
      -550.9531      -611.2789      -370.1393      -98.49390       15.85901
      -123.2041      -419.2115      -367.4417      -55.45880      -9.282593
      -94.62872      -275.2645      -446.9553      -450.5645      -429.4142
      -145.1365       179.8009      -102.4443      -642.3379      -840.4285
      -809.0881      -895.5876      -837.1521      -777.7971      -638.8069
      -254.8851      -76.83240      -236.4465      -714.1187      -851.2551
      -429.2319      -153.3820      -109.0050      -395.9426      -803.0178
      -944.1346      -742.0713      -340.9843      -259.7449      -564.3562
      -866.0555      -808.3049      -201.2701       415.9962       464.7393
      -111.0679      -572.1697      -420.5256      -371.9987      -491.6722
      -280.1349      0.9349594       55.02283      -137.2441      -345.1398
      -280.6754      -295.1848      -427.9713      -436.9053      -269.8376
       79.37360       21.20239      -317.4572      -456.6611      -386.1230
      -195.6587      -223.7501      -459.0469      -260.7921       304.7344
       532.4573       7.687134      -560.0925      -543.8628      -178.4326
       523.9985       1198.957       1236.248       689.8789      -145.0938
      -756.3510      -740.9634      -178.7408       455.3967       514.9734
       30.19458      -296.5191      -304.1007       78.01965       516.7069
       505.5791       138.4966      -278.8577      -371.2733       24.90161
       366.5303       368.1698       462.3053       503.4276       157.7060
      -136.0400      -224.1055      -245.9340      -88.21039       86.36676
       157.7783       460.3135       717.9067       687.5354       723.0847
       683.5901       346.6893       100.9544       39.03430       211.5098
       599.1455       755.5582       633.6523       530.7982       480.3136
       534.5431       626.1223       593.6853       295.1331      -133.4137
      -416.1290      -334.4439       5.746094       405.4226       555.7214
       189.9331      -105.0291       208.1947       634.6627       597.2393
       99.21570      -62.12793       384.7161       780.7739       868.3058
       686.5761       333.1881       171.6084       195.2998       344.1294
       371.5661       65.41606      -75.73364       152.1372       390.8882
       641.2537       794.1221       662.7092       255.2713      -126.8625
      -65.18329       120.9373       148.6517       235.7437       430.8676
       629.2026       634.5022       235.5639      -202.2115       49.12598
       729.6384       872.6416       386.5215      -142.6078      -260.2941
       38.55676       255.9639       316.3641       360.4164       422.4242
       492.5362       312.8777       83.25755       34.58173      -41.00398
      -93.65158      -10.48706       180.0918       272.2848       201.8109
       185.8796       78.83415      -44.86923       16.63489       125.0296
