     0.02500000      -743.4985       957.7148      -12345.00      -12345.00
      -30.00501       219.1200      -20.78000      -12345.00      -12345.00
       0.000000       15.43000      -12345.00      -12345.00      -12345.00
      -12345.00      -12345.00      -12345.00      -12345.00      -12345.00
      -12345.00      -12345.00      -12345.00      -12345.00      -12345.00
      -12345.00      -12345.00      -12345.00      -12345.00      -12345.00
      -12345.00      -31.91720      -69.02180       2396.000       0.000000
      -31.37200      -68.11800       0.000000       97800.00       0.000000
      -12345.00      -12345.00      -12345.00      -12345.00      -12345.00
      -12345.00      -12345.00      -12345.00      -12345.00      -12345.00
       104.9007       234.5757       55.04755      0.9431990      -12345.00
      -12345.00    0.001706103       0.000000       0.000000      -12345.00
      -12345.00      -12345.00      -12345.00      -12345.00      -12345.00
      -12345.00      -12345.00      -12345.00      -12345.00      -12345.00
      2008       244         6        45        26
       180         6    -12345    -12345      9966
    -12345    -12345    -12345    -12345    -12345
         1         7        13    -12345    -12345
    -12345    -12345    -12345    -12345    -12345
    -12345    -12345    -12345    -12345    -12345
    -12345    -12345    -12345    -12345    -12345
         1         1         1         1         1
SOMB    -12345          
        -12345  -12345  
-12345  -12345  -12345  
-12345  -12345  -12345  
-12345  -12345  -12345  
-12345  -12345  -12345  
-12345  -12345  BHZ     
ZL      -12345  -12345  
[...]
      -232.0146      -225.1621      -219.5040      -219.3258      -214.2440
      -206.1256      -205.9078      -196.2407      -187.3850      -184.5245
      -175.1414      -165.1211      -154.3052      -146.7212      -137.6353
      -125.4830      -118.0521      -107.6335      -98.61862      -86.71143
      -76.96236      -64.87567      -51.11575      -33.53278      -22.32048
      -12.59841      0.2862816       15.89893       29.02167       40.46327
       52.11705       71.69769       84.29330       93.60547       109.1274
       131.4279       137.1187       145.3922       163.2634       178.5760
       183.7678       192.2333       205.4361       221.3966       229.4410
       241.8054       243.7328       256.9035       262.1897       263.1444
       268.3563       272.8203       266.8484       268.9406       273.9583
       279.5422       283.2660       283.3037       277.4161       281.0311
       279.8613       276.7103       274.7495       273.8621       272.4800
       272.0457       265.2312       263.4108       260.5870       254.8906
       251.5841       253.9473       252.5879       245.5731       236.5626
       233.9540       229.2200       219.8621       214.8512       206.5654
       204.1197       206.3431       196.3841       183.0170       177.3357
       174.1951       168.6500       161.5179       153.2308       143.8957
       135.6408       124.4743       119.0767       106.3070       93.05530
       80.00409       70.06300       55.66606       41.05621       27.01950
       14.51938       4.843590      -9.035103      -29.96651      -40.21973
      -58.66782      -77.08722      -99.59183      -117.2249      -127.0573
      -132.4911      -144.5791      -160.2422      -172.6497      -183.6536
      -196.2775      -207.1202      -220.5394      -227.6169      -234.5931
      -240.7761      -252.6738      -263.1813      -268.0898      -275.3240
      -285.7257      -286.0532      -286.4126      -292.1495      -296.1957
      -296.9399      -300.1218      -302.6313      -308.5896      -310.2058
      -307.3375      -310.7217      -314.5157      -307.4592      -309.3172
      -314.2142      -304.4439      -296.5890      -293.3679      -291.1826
      -289.1306      -282.8356      -277.5265      -273.2573      -263.8260
      -256.0582      -248.1198      -236.4127      -227.1993      -221.8491
      -212.6132      -196.2864      -185.2591      -177.0927      -166.7840
      -159.8732      -148.7294      -129.5029      -116.7590      -107.3574
      -99.28162      -86.29515      -68.31560      -57.85351      -44.60844
      -34.52526      -24.63170      -12.50947      0.1127281       10.53068
       31.95688       43.78294       54.87457       63.04904       69.87460
       78.54807       92.95712       97.58716       114.3982       112.8378
       115.5816       103.6542      -15.46228      -230.8468      -137.9212
       190.6786       19.71422      -122.4408       211.6110       56.26797
       17.74341       474.5145       448.8263       452.5765       778.7257
       491.4546       88.04419       320.8105       529.7439       363.1829
       125.9527      -123.6443      -22.72998       384.3640       252.8217
       61.93401       84.30786      -239.1024      -45.36682       423.8202
       243.6351       224.6975       483.0269       406.2253       102.0335
       59.15662       300.4509       428.6239       487.9658       216.7388
      -260.5974      -210.3622       60.50360       193.3687       183.5775
      -14.34729       151.0522       471.8393       240.7314       39.02051
       176.2715       359.7675       182.3194      -100.9718      -26.50412
      -102.0076       58.89517       158.8817      -83.83627      -26.39699
       3.368134      -15.90784       96.63849       112.6742       6.936157
       198.9025       185.0164      -61.23624       131.7374       86.55057
      -136.9238      -32.98972       122.1057       238.5346       166.3642
      -69.97353      -20.83279      -10.90701      -126.3966       162.0219
       229.6787      -109.2946      -52.92212       276.7963       247.5802
       12.96686       57.83678       86.28716       15.64035      -11.83315
       9.918819       1.092880       14.58539       144.1221       87.95469
       19.13751      -61.98176      -63.11674       30.21545       133.6912
       314.0105       146.0682      -10.56635      -6.955032       29.72598
       72.71112      -140.4077      -85.25116       160.8124       39.67263
      -7.026794       59.78579       53.80994      -97.73203      -94.49300
       115.0195      -66.97577      -160.9376      -104.5781      -212.3933
      -89.87988       23.36248       33.97348       23.11292      -93.88775
      -28.22765       55.91345      -91.72046      -141.5188      -181.1246
      -214.3051      -78.24921      -82.21143      -260.4226      -262.5013
      -228.7186      -382.5795      -271.8204      -91.95117      -239.2323
      -157.5294      -129.2145      -345.8013      -256.6411      -77.24219
      -169.8246      -203.8108      -88.24335      -49.64233      -59.80588
      -131.8674      -230.9443      -345.1219      -318.6641      -123.3292
      -281.1868      -415.0278      -195.0594      -273.2299      -415.9158
      -109.5629       69.45557      -50.28088      -171.7544      -97.47626
      -5.542786      -122.8236      -137.6418      -115.7624      -287.9100
      -190.6365       124.0373       27.83815      -66.68912       33.54788
       72.26555       79.33806      -38.70532      -20.50388      -18.14825
      -151.7058      -117.8726       43.01404       108.6286      -37.48071
      -18.10075       25.82419      -85.43539      -24.40790       116.2326
       134.9904      -30.33557      -100.3705      -13.58548      -42.52255
      -110.4378      -120.9191       2.916626       256.5502       364.6263
       193.2099      -96.07301      -85.47229       149.1421       151.1715
      -14.15195       16.85745       175.5012       114.1153       14.57709
       110.2309       103.5892       6.463472       8.352211      -1.919373
       118.0899       256.3082       206.1169       145.5619       101.2302
       119.5282       110.5703       51.29205       86.16357       76.35600
      -2.381958       78.10538       125.9168       9.852142      -76.89395
      -111.3448      -46.66555       34.79420       7.012466       59.78301
       69.54718      -91.04706      -93.01266      -11.41198      -20.40430
      -18.25369      -28.36237      -92.56152      -137.0978      -98.48029
      -170.2858      -229.7201      -102.2831      -137.0557      -218.1522
      -82.88342      -129.9875      -232.7516      -151.7672      -201.6269
      -294.2133      -309.0051      -133.7285       63.02686      -33.82886
      -258.9623      -289.4639      -182.6605      -187.2667      -202.7558
      -116.8120      -138.3708      -248.9980      -239.0696      -195.9438
      -66.23077      -79.64502      -265.8066      -245.3242      -271.7853
      -196.3824      -176.0892      -337.6871      -267.3492      -98.60420
      -11.93286      -110.3689      -185.0372      -144.1037      -86.68820
      -44.17865      -215.0887      -262.9447      -147.6038      -77.25168
      -117.2928      -171.1767      -68.77411      -44.16302      -167.3665
      -209.1360      -233.3974      -257.2896      -66.12143      -58.45764
      -224.2906      -73.13023       32.58771       12.73859      -194.0042
      -282.8567      -73.94597      -39.89789       16.59991       83.14340
       133.9379       20.82028      -227.6778       19.87601       199.1798
      -45.64374      -129.7993      -63.75243      -72.70667       16.68683
       252.9602       191.3079      -151.7322      -197.2418       62.10107
       257.6304       285.2294       218.8820       53.32513      -85.30456
       4.643768       51.35706       83.09045       235.4909       141.0487
       107.7952       122.8498       108.8938       263.7768       174.9340
       77.41803       96.88858       17.64868       73.08093       189.4083
       335.5226       245.8415      -20.88998       62.33978       325.7375
       317.3533       248.2778       351.6466       245.4384       153.4995
       131.6550       74.82629       265.6460       364.2595       414.0865
       277.4905       112.8033       258.4036       400.6555       353.7695
       150.2474       52.21552       145.0905       225.6088       324.3857
       291.5829       285.5774       295.8457       74.72192       103.6119
       357.0302       302.1509       321.6263       329.8927       171.1969
       191.4864       186.2000       132.8985       323.2324       311.4369
       122.0786       177.3747       277.2135       253.6852       217.0121
       190.1963       185.2654       323.7999       517.9412       251.5523
      -56.64742       4.074402       87.80688       208.4763       319.0539
       275.1415       245.7094       151.9648       144.1237       246.6531
       204.0625       73.15182      -59.97717       110.5671       411.6338
       259.0445       168.5081       247.9650       138.6164       54.97874
       40.85628       41.80322       150.8192       186.1642       73.26880
       94.95975       89.20499      -84.24969       87.35593       205.5705
      -15.95477      -148.8593      -91.01620      -12.10460       30.24081
       94.67449       48.39536      -83.61206      -180.6991      -107.6578
       23.80859      -118.0586      -96.48523       68.98431       48.27260
      -51.90710      -115.7373      -161.1044      -268.8696      -135.3685
       181.7377       158.9178      -57.05408      -150.6353      -93.73648
      -4.102303      0.1924438      -76.43811      -209.2429      -282.7288
      -225.0372      -166.4078      -92.50235       68.50288       140.7487
      -117.4244      -318.4473      -265.2589      -83.15746       10.23734
      -61.99158      -211.7498      -206.6222      -79.67392      -148.9642
      -202.6670      -137.4889      -96.74344      -43.24170      -86.05716
      -179.9561      -116.9452      -37.37744      -75.85083      -181.0640
      -232.4562      -138.6248      -133.2973      -127.0789      -188.0194
      -154.6535       14.10391       17.75635      -140.6754      -288.0502
      -347.1840      -410.9448      -223.2952      -108.7036      -197.5861
      -84.86511      -160.9568      -293.2828      -146.3140      -157.1907
      -234.3764      -104.3880      -15.47006      -26.79865      -209.3523
      -383.0955      -380.0061      -245.9220      -212.8890      -228.8564
      -135.2262      -97.10931      -192.9896      -334.3087      -324.1996
      -228.3967      -159.6365      -196.3718      -126.3844      -48.90479
      -250.7747      -337.8215      -196.4860      -123.6024      -98.44812
       80.50696       148.6924       80.45782       58.44611      -179.5421
      -530.5980      -456.6965      -240.6040      -378.8247      -434.3364
      -319.1224      -368.6440      -470.9002      -245.5361       61.26694
       112.8958       192.6270       213.2868       100.6589       49.61426
      -158.6241      -274.0450      -77.85413      -134.9114      -320.4007
      -202.3047      -192.9630      -388.6281      -428.4318      -250.8009
      -44.68844      -12.33716       86.24487       162.7410       15.54016
      -174.6163      -208.8901       27.29742       138.4671      -25.25473
      -65.93680      -4.954224       65.05847       231.3664       250.8470
       101.5004      -135.9786      -328.7378      -268.5411      -66.99289
      -25.33267      -59.14132      -35.98863      -3.470459       213.8458
       392.6561       204.1506       61.01477       357.9247       495.1284
       300.1439       134.1860      -92.36407      -191.5582      -131.5228
      -128.0600       46.42639       246.8159       179.7714       129.9573
      -13.15778      -114.4285       113.3630       239.3851       172.4670
       96.09424       147.7574       41.27008      -199.4581      -104.2747
       150.1704       301.1934       161.2026      -71.53650      -134.6315
       5.423828       192.5216       127.5656       59.42465       146.7247
       88.47195      -44.47742      -14.72296      -104.7305      -331.5181
      -405.8672      -304.7600      -128.1131       49.34741       258.4363
       380.5347       192.0353      -91.21313      -258.6094      -139.6584
       185.3484       339.5261       302.3107       94.76855      0.5242310
       173.3176       442.1509       734.3291       636.7616       120.1395
      -361.3718      -391.8306       40.96777       602.8105       890.6107
       425.5085      -197.8982      -132.5158       19.12573      -4.240845
       97.80042       184.8823       100.9253      -86.72617      -171.2065
       145.3259       668.6433       957.7148       867.1130       428.3882
       124.3936       136.0322       249.6561       303.4190       122.2049
      -128.5422      -235.8874      -253.1481      -312.2757      -99.52112
       338.3688       158.4720      -102.7191       507.4482       929.1930
       689.3361       454.4011       392.3621       562.4430       536.3301
       404.1377       613.1746       621.5988       136.2798      -96.77783
       243.2734       426.7866       454.5992       624.9629       452.4327
       274.1964       464.9891       375.3086       203.1785       315.7548
       360.3384       235.9927       105.1243       149.4028       308.9103
       378.5096       343.4644       376.5043       285.8065       190.9504
       460.6285       623.2667       380.6061       226.1102       301.0708
       348.4808       422.3899       467.6870       169.3824      -110.9166
      -22.47110       55.36621       199.7163       446.5432       484.8623
       400.0046       398.8115       401.3287       331.4563       353.2789
       328.0627       290.9958       233.4543      -80.74658      -388.0386
      -385.5321      -163.8848       37.28992      -76.63318      -285.3540
      -250.1606      -158.9054      -111.3552      -116.1611      -73.72089
      -118.9949      -163.4088      -44.34070      -180.7693      -324.6600
      -216.9850      -145.9887      -203.7115      -209.7362      -271.7490
      -113.7781       182.1849       4.667053      -283.1620      -384.8656
      -495.2129      -509.1007      -469.5754      -457.1284      -502.4027
      -607.1226      -497.2141      -291.2294      -288.2866      -343.7877
      -311.1697      -325.0181      -430.8977      -373.7852      -264.1609
      -42.50902       109.0082      -147.6818      -533.1826      -711.1677
      -723.0344      -726.5156      -645.2717      -555.3810      -530.4778
      -477.3519      -561.9896      -667.0635      -622.7992      -495.2017
      -358.6058      -249.5131      -388.5530      -639.9510      -663.6855
      -504.7957      -387.4397      -391.2842      -468.7244      -530.6840
      -430.3074      -295.9931      -183.6337      -248.7249      -498.7058
      -551.2747      -479.4514      -489.0394      -531.4468      -414.5852
      -175.5089      -254.1797      -563.0083      -743.4985      -689.7710
      -465.5317      -494.4114      -687.7405      -397.7040      -112.5557
      -313.6230      -252.0786      -20.23029      -181.8355      -153.3203
      -31.97327      -246.7734      -320.3740      -223.6065      -279.1047
      -461.8809      -659.3409      -579.2392      -302.0956      -218.8045
      -220.2264      -249.7026      -373.2170      -447.3945      -394.2093
      -297.9555      -169.1325       90.62146       310.7286       357.1622
       426.1475       356.3290       10.61426      -209.5755      -50.62604
       286.1467       275.5451       38.05927      -56.79993      -194.7530
      -164.9440       101.2430       208.5747       213.6951       325.2792
       430.2944       365.9954       58.72577       29.91162       267.0146
       377.3450       412.2622       282.7688       338.7266       527.8683
       429.0084       326.5123       346.3531       305.8696       270.1244
       97.29269       21.12384       245.3197       416.9437       345.5093
       153.5570       138.2539       254.9010       454.8179       676.4497
       605.4287       508.9510       487.0312       417.2184       423.5544
       444.5605       387.9382       473.9062       554.1021       339.1411
       86.65190       64.43802       114.5701       166.6884       231.6004
       258.9485       323.3411       509.0620       564.2618       398.1219
       270.2388       264.1124       243.5213       235.5103       156.3547
       5.518066       33.63474       138.8342       122.7083       139.2639
       284.2509       504.2194       636.7795       549.1694       287.2834
       78.09767      -45.55961      -50.28415       110.2356       223.0902
       173.8559       171.4388       205.9504       172.7122       135.6440
       51.56888       22.65021       226.8195       256.7504       139.3683
       130.0939       158.1113       165.4271       72.99539      -48.24437
       3.233887       169.5792       240.7025       56.39206      -171.9297
      -123.5025       51.43069       36.06282      -15.30271      -3.042824
       43.72891      -1.665062      -13.54541       116.1185       38.06502
      -102.1480       68.98138       209.6589       198.5287       163.2183
       230.1987       234.0839       30.13802      -75.48542      -11.80803
      -21.45099      -138.6289      -223.1308      -45.90518       78.91566
      -95.13115      -50.26831       275.1798       226.0670      -6.422913
      -101.0209      -246.1432      -280.0630      -64.35162       94.56262
       168.3165       243.2308       284.1836       128.8575      -87.34442
      -191.2791      -266.5458      -314.7159      -230.7975      -70.55232
       15.67258      -61.54388      -168.6740      -104.3206       47.26093
      -23.82559      -136.6510      -108.4982       19.74731       107.8862
       59.65169      -4.724548       127.1346       156.7031      -36.70728
      -119.3992      -186.9017      -182.2650      -50.37073      -115.8102
      -282.9019      -197.0568      -33.01992      -38.41127      -23.44431
      -29.58627      -116.7252      -127.8785      -103.7420      -268.8718
      -298.0897      -80.62369       8.942566      -38.54496      -11.21128
