     0.02500000      -441.3789       520.9098      -12345.00      -12345.00
      -30.00999       249.6650      -49.10000      -12345.00      -12345.00
       0.000000       35.36000      -12345.00      -12345.00      -12345.00
      -12345.00      -12345.00      -12345.00      -12345.00      -12345.00
      -12345.00      -12345.00      -12345.00      -12345.00      -12345.00
      -12345.00      -12345.00      -12345.00      -12345.00      -12345.00
      -12345.00      -30.77170      -64.40940       1205.000       0.000000
      -31.37200      -68.11800       0.000000       97800.00       0.000000
      -12345.00      -12345.00      -12345.00      -12345.00      -12345.00
      -12345.00      -12345.00      -12345.00      -12345.00      -12345.00
       360.1062       80.30607       258.4009       3.237753      -12345.00
      -12345.00    -0.02237782       0.000000       0.000000      -12345.00
      -12345.00      -12345.00      -12345.00      -12345.00      -12345.00
      -12345.00      -12345.00      -12345.00      -12345.00      -12345.00
      2008       244         6        45        54
       500         6    -12345    -12345     11188
    -12345    -12345    -12345    -12345    -12345
         1         7        13    -12345    -12345
    -12345    -12345    -12345    -12345    -12345
    -12345    -12345    -12345    -12345    -12345
    -12345    -12345    -12345    -12345    -12345
         1         1         1         1         1
ESP04   -12345          
01      -12345  -12345  
-12345  -12345  -12345  
-12345  -12345  -12345  
-12345  -12345  -12345  
-12345  -12345  -12345  
-12345  -12345  BHZ     
XH      -12345  -12345  
[...]
     -0.1657333       8.818056       10.39440       8.505554       20.16686
       18.21585       11.47727       23.23442       28.35922       17.08492
       18.87794       33.69710       33.61882       29.39003       30.44059
       30.78568       34.67979       40.16523       36.23175       36.93422
       48.05513       46.84467       49.89561       56.39172       57.23581
       58.64914       60.18396       64.29597       65.22557       72.42587
       79.10295       78.58981       85.86215       84.59731       77.88770
       79.85477       83.46292       89.86157       96.40869       97.81165
       99.36945       98.01761       97.09677       103.9858       107.0723
       103.2579       107.2157       113.1870       112.1927       103.3313
       103.6713       108.1551       105.4947       104.2109       113.2928
       113.3139       104.0781       105.3018       109.6538       100.2955
       97.83936       99.24214       85.68616       77.91748       87.84125
       92.12784       85.81055       79.94354       77.63422       73.58435
       64.01398       65.40155       70.55608       65.81721       61.08609
       58.72171       50.76349       44.72493       42.34132       43.90790
       41.15884       39.92942       42.11469       34.53020       25.39464
       33.34592       29.84623       14.95920       19.13940       26.68244
       18.12466       12.02479       14.23539       16.18247       11.24335
       7.244783       11.69944       4.283541      -3.231236     0.05644083
      0.3255157      -6.147194      -12.28230      -8.582581      -10.54549
      -24.15555      -22.57480      -18.64199      -25.89240      -33.20352
      -28.74491      -35.28329      -43.79813      -41.93590      -49.18652
      -54.75754      -51.09259      -55.03928      -64.59464      -69.75960
      -68.31430      -70.26160      -75.67935      -74.38556      -76.31308
      -85.01703      -86.16476      -86.45416      -86.20432      -92.89719
      -103.9480      -106.8742      -104.0674      -102.0560      -99.98077
      -100.8839      -108.3008      -108.4254      -107.2438      -107.5768
      -104.2744      -103.9442      -106.0687      -104.0153      -103.3218
      -97.16312      -91.17096      -94.04382      -96.38840      -97.24582
      -87.65506      -85.02844      -93.16833      -92.31531      -91.33694
      -88.39078      -81.06496      -80.50591      -84.47972      -76.58015
      -67.99654      -73.80075      -68.65543      -65.34732      -71.74426
      -68.46738      -60.95584      -58.42738      -54.36356      -53.60555
      -51.29883      -47.60405      -46.00175      -42.20162      -39.65825
      -44.60139      -37.12688      -24.22359      -30.59216      -34.71794
      -21.71492      -23.82458      -29.38319      -26.11657      -26.14015
      -27.20088      -19.34205      -10.38065      -14.04021      -18.91572
      -15.19306      -10.96762      -6.243637      -9.473730      -4.458185
       5.178800      0.9807529     -0.3822212       11.20470       15.04158
       9.370560       19.05360       28.72717       22.98796       31.65576
       42.04503       40.15044       43.59561       47.26501       41.70015
       49.99701       52.17603       46.55975       55.53757       55.55658
       54.19382       67.60638       70.48422       64.00357       77.70731
       83.48111       78.14807       78.32274       74.80908       81.53519
       91.99091       88.73026       86.31564       82.74652       87.24445
       90.51431       83.67426       93.62952       97.12036       86.04807
       89.86813       95.25778       90.89114       86.31137       93.40802
       92.73439       84.14993       80.99898       80.44235       77.91293
       74.49176       71.52811       73.09886       66.22961       54.08737
       59.99792       58.03094       42.50682       45.11568       40.15257
       26.71469       23.40343       24.41590       17.87689       10.16089
       3.222221     -0.8594637      -3.285816      -2.941940      -12.37494
      -17.56097      -21.57922      -25.22388      -29.25349      -39.28741
      -39.67380      -39.01427      -54.41617      -58.10559      -54.63554
      -56.51123      -69.22702      -70.18036      -65.59375      -77.26627
      -78.98834      -71.87143      -83.10126      -91.52032      -88.14899
      -85.45920      -88.87567      -90.06409      -87.92746      -90.75632
      -95.21796      -87.19864      -82.50476      -91.31989      -93.83563
      -95.02551      -99.53143      -96.33359      -89.63879      -86.02841
      -90.33789      -94.29666      -87.42242      -82.09042      -91.18753
      -89.12491      -74.58221      -82.05270      -94.57272      -91.38173
      -85.62744      -84.10571      -78.17213      -77.73346      -79.72955
      -75.80841      -71.46733      -76.23566      -77.67529      -67.48303
      -64.18127      -65.13673      -55.99753      -55.67586      -52.43783
      -41.67937      -42.75536      -41.26640      -41.72980      -43.24007
      -33.53366      -28.69285      -22.51720      -16.75917      -16.04980
      -13.51944      -12.76732      -6.605614     -0.4241676       2.246338
       15.19983       17.92170       14.58078       22.58502       31.59472
       37.00351       40.13802       41.26358       43.72037       43.24460
       46.68640       54.30820       60.42386       64.36603       63.57928
       65.05389       72.49147       71.46106       82.66605       95.81705
       93.76831       90.85150       93.89435       96.46368       101.1323
       103.1024       101.6006       106.5341       112.3745       112.6754
       115.8478       115.3953       111.0169       119.9407       122.2188
       119.8091       126.4479       121.1779       112.1896       112.0680
       113.5186       108.8707       107.5692       109.5007       104.6143
       100.0599       98.84439       94.44110       86.75980       86.77151
       80.05217       75.25531       70.27832       66.27069       73.72018
       66.41446       51.44275       51.54769       46.20743       34.44438
       29.75718       29.27612       19.36799       13.22864       20.11807
       19.16938       9.994187     -0.4028845      -4.550430      0.2434502
      -16.31654      -30.23554      -27.05914      -33.61063      -39.28616
      -39.64255      -44.02824      -43.76007      -43.32347      -45.76459
      -52.00256      -52.71332      -42.75481      -49.50131      -54.47736
      -45.35857      -46.09065      -45.55860      -41.56769      -44.95309
      -50.17569      -50.58946      -45.00665      -42.73463      -39.56934
      -34.88380      -33.73505      -27.80659      -26.42374      -32.02037
      -20.70156      -9.049362      -13.50864      -15.29972      -7.567602
      -2.089906      -4.359539       7.386349       18.74866       19.43982
       25.62099       37.52176       42.47440       45.94839       50.08705
       55.05672       57.77078       63.88062       70.59735       66.93671
       62.57071       74.00409       84.69713       79.35608       83.43179
       93.74445       86.34485       84.03320       91.18610       93.27881
       88.64554       96.63525       97.23486       97.29443       102.0682
       99.21179       94.51566       90.40433       88.92950       88.35513
       86.01567       85.05087       78.36514       76.85095       74.71956
       69.86006       70.02446       67.47060       48.52594       44.91836
       47.03479       31.81098       29.26201       31.91511       21.03639
       19.63197       14.15701      -3.201321      -12.45306      -10.85074
      -16.01024      -23.63483      -27.78716      -29.85004      -37.45348
      -45.78510      -60.29214      -74.84561      -79.40622      -80.92346
      -86.73978      -99.37628      -110.2242      -112.6389      -123.4364
      -137.8899      -143.6071      -144.9369      -156.5317      -165.2533
      -160.8651      -169.0096      -183.4426      -173.3841      -176.0685
      -194.8257      -196.2103      -189.8188      -194.6061      -200.7538
      -196.6119      -192.0927      -197.2615      -199.8641      -197.2180
      -201.8840      -208.9010      -207.9774      -207.4055      -212.9128
      -206.4440      -208.9197      -210.8004      -202.4084      -200.5104
      -205.4102      -201.2300      -202.0368      -201.8052      -201.3037
      -203.9224      -194.2207      -189.6765      -195.3943      -184.9187
      -179.1577      -173.5452      -169.1349      -162.0219      -151.5252
      -150.7837      -152.7523      -139.1752      -128.9764      -130.8381
      -125.1452      -106.2661      -103.5834      -100.6250      -85.74507
      -82.13135      -82.19814      -69.19745      -62.89050      -56.63760
      -55.92429      -50.70676      -38.55185      -43.58293      -35.63599
      -20.08498      -21.95264      -12.55706      -4.213320      -5.005922
       2.460941       16.00768       17.05705       14.14445       28.10365
       33.59664       26.07921       36.21263       40.97516       39.29437
       49.82335       59.02684       56.29030       55.29517       65.57819
       77.27805       75.09164       68.92102       73.62900       78.22607
       76.98895       87.27222       92.79724       93.34875       94.71942
       97.45215       102.4078       107.0494       114.6126       117.0386
       112.7556       118.0087       123.3847       124.0955       130.2985
       135.2199       133.1168       130.0516       140.8956       142.2045
       134.4486       149.2736       161.5582       151.0299       153.7357
       167.4581       168.1457       157.7245       167.3751       177.5385
       176.4943       180.3145       188.7700       190.1008       188.2164
       197.2510       199.9100       196.4952       204.0853       214.2142
       215.3250       215.8750       216.7559       211.0889       209.1366
       224.2494       228.8477       214.6036       218.7764       234.5846
       229.9412       219.6292       227.9556       231.8967       231.3079
       230.0297       232.3248       228.1072       218.4277       222.9268
       220.3104       216.6176       220.8330       224.2343       221.4476
       219.2360       222.8269       213.8440       205.4655       205.0980
       204.8542       199.0500       191.6275       194.5508       192.8765
       181.5200       182.6707       185.3776       178.9644       172.0169
       170.8249       165.7192       156.6332       151.4838       152.1858
       142.7261       140.5229       143.9178       133.9764       119.8849
       113.1403       115.0527       107.3699       99.62411       100.4012
       90.67032       83.66197       82.62454       74.80513       62.55603
       49.37608       44.83604       35.05063       19.52955       17.70330
       15.02593       3.595716      -7.335613      -11.25377      -11.85862
      -29.50632      -37.70837      -36.33263      -54.62051      -63.39151
      -68.01453      -84.75278      -94.55444      -99.55460      -107.5285
      -118.4772      -125.2549      -127.4996      -134.5094      -146.6052
      -152.1933      -152.6557      -165.1158      -179.2537      -186.1393
      -191.7556      -192.1852      -197.4303      -201.4094      -209.3588
      -219.8752      -218.7748      -222.6429      -226.4346      -231.4511
      -242.8616      -241.5397      -246.8755      -254.8025      -258.0865
      -260.2850      -262.3988      -262.1657      -272.7204      -280.7319
      -284.2745      -286.5996      -289.4835      -288.1957      -291.9178
      -293.6849      -290.1131      -293.2905      -295.3870      -300.1232
      -307.7788      -302.6243      -307.6420      -310.8959      -311.8559
      -310.2733      -308.9937      -308.1107      -303.2384      -307.7853
      -315.4650      -314.6937      -310.5046      -311.0459      -310.3463
      -302.8372      -302.6323      -305.8420      -302.3590      -299.3357
      -299.7396      -299.1459      -291.9077      -287.0178      -287.4565
      -280.0474      -272.1090      -270.2885      -267.2308      -259.7191
      -250.8798      -245.8404      -236.6938      -224.7209      -222.2872
      -222.2767      -209.0270      -208.0073      -197.4152      -181.5659
      -183.5645      -177.9216      -166.3345      -155.6927      -142.1809
      -138.2586      -132.2600      -121.0103      -116.1197      -112.1700
      -92.73793      -73.71565      -57.64522      -52.21867      -51.54639
      -30.18726      -3.632248      -17.90755      -31.42222      -11.91079
      -6.260071      -21.76945      -53.77742      -47.93739       26.40218
       60.31409       63.66110       34.63505      -34.31299       53.47803
       169.7736       126.0278       85.13856      -23.37769       133.0909
       520.9098       290.3108      -153.7659       17.56418       140.9916
       97.31738       312.9338       311.3201       107.3353       95.09814
       314.2858       319.5271       160.9712       269.4658       229.8514
       82.33228       360.7820       505.5341       176.7279       236.7635
       439.6324       237.0557       300.0330       425.3073       283.3456
       164.4796       226.9373       515.0848       487.4324       303.6841
       372.4055       376.6002       300.5717       376.5157       361.6644
       213.9155       304.9628       383.8715       388.1589       343.9290
       380.2933       458.1642       294.4171       286.6587       365.9584
       381.5667       391.1897       409.5905       356.3629       244.7605
       352.4641       397.1471       327.4225       330.8152       296.7103
       315.1738       402.4756       383.1664       342.8317       321.0060
       282.4293       352.3408       323.9092       282.1487       331.6530
       317.2214       363.3821       338.4858       194.8900       228.9982
       355.4818       315.3483       203.6113       158.2947       278.8105
       362.5196       272.7049       139.9586       113.2625       265.5834
       269.2600       162.7410       163.0835       174.3064       115.1389
       58.44244       49.07501       163.7705       188.3305       54.64615
       68.72121      -23.42197      -36.49628       80.86136       64.71516
      -26.00552      -106.2241      -40.03485      -59.60246      -13.27235
       24.16895      -84.01038      -84.40796      -113.5621      -115.0173
      -108.4849      -145.2583      -113.6731      -93.82721      -145.4560
      -193.6599      -192.5979      -194.4460      -173.8532      -175.8027
      -199.6240      -269.8828      -293.1334      -173.3514      -172.6199
      -286.9540      -305.0929      -248.3868      -228.5828      -258.5278
      -228.3865      -291.9694      -389.7017      -234.9110      -238.5344
      -361.1766      -314.4177      -333.6489      -272.2139      -236.0071
      -316.1559      -353.1283      -362.0084      -270.8450      -314.1636
      -415.5228      -270.9570      -269.1241      -354.7034      -312.8489
      -359.0320      -366.6171      -263.3120      -320.3246      -394.4504
      -295.8521      -273.8865      -339.2693      -307.0286      -332.6458
      -356.8125      -268.8876      -282.7018      -298.3121      -330.0126
      -347.5533      -303.1989      -319.4958      -276.9219      -283.9784
      -287.5023      -275.9645      -333.0535      -257.4897      -223.4032
      -235.6431      -271.6289      -322.0282      -253.1072      -280.1412
      -213.8414      -154.0385      -235.0748      -246.8574      -232.0577
      -245.2713      -198.6946      -110.4066      -211.0569      -243.3008
      -180.4157      -167.6621      -131.1224      -151.1340      -165.2906
      -173.4133      -129.1938      -102.8170      -128.4088      -173.1477
      -150.8229      -81.12903      -90.88452      -57.50677      -122.6123
      -112.8927      -44.65277      -91.63428      -52.26152      -22.49303
      -28.11005      -8.559216       1.943665      -25.61742      -44.09647
       8.014267       45.36914       60.11966       79.33880       19.35222
       63.40170       117.8600       65.35278       127.2897       56.35034
       44.06052       104.5375       106.5958       213.2430       192.3656
       140.8552       102.6573       137.7125       213.6158       196.6888
       169.2883       185.4015       246.0305       216.3693       256.8342
       285.4711       216.9195       254.9476       282.5640       265.2128
       251.9238       271.0221       279.6489       300.9375       313.0696
       221.0128       244.7257       305.8741       326.8046       277.4542
       263.5939       323.0333       260.3185       297.6632       297.8041
       278.5123       360.4315       296.7328       264.4783       266.5866
       243.8266       250.6404       240.6015       292.3131       255.9216
       230.1732       239.5182       214.6514       265.6525       210.3223
       224.1172       235.7484       221.1481       237.7332       158.2151
       212.3381       192.0721       126.3402       185.9570       178.4365
       191.9586       207.3190       160.0295       123.5115       102.0761
       108.1577       165.6200       189.5323       160.9525       137.1642
       64.99667       76.91696       113.3420       103.4660       109.9012
       53.28003       79.03662       105.5020       66.56567       35.37415
       34.06412       105.7995       122.4047       63.49259      -20.46133
       29.31702       146.2395       93.33911      -14.66308      -24.59843
       27.70483       65.51366       41.84673      -44.75940      -38.23163
       49.44940       101.3432       101.4914      -15.56493      -54.58239
      -12.97303       19.22623       59.03551       48.47443       46.84178
       12.55820      -35.96349      -31.59076      -56.29237      -44.58670
       11.58683       31.83676      -17.35209      -11.56114       28.67531
       47.89832       41.42178      -7.965126      -15.22182      -40.56543
       23.42499       34.73463      -63.88783      -38.11996      -39.93446
      -83.64766      -82.59398      -45.98347      -33.43594      -17.78242
      -9.586395      -42.42405      -18.41379      -29.72581      -80.01909
      -71.12440      -43.39324      -11.56293      -33.09570      -115.1519
      -126.8989      -91.32172      -132.5824      -68.12094      -59.75842
