     0.02500000      -597.0348       688.0310      -12345.00      -12345.00
      -30.00999       249.6650      -49.10000      -12345.00      -12345.00
       0.000000       35.36000      -12345.00      -12345.00      -12345.00
      -12345.00      -12345.00      -12345.00      -12345.00      -12345.00
      -12345.00      -12345.00      -12345.00      -12345.00      -12345.00
      -12345.00      -12345.00      -12345.00      -12345.00      -12345.00
      -12345.00      -30.77170      -64.40940       1205.000       0.000000
      -31.37200      -68.11800       0.000000       97800.00       0.000000
      -12345.00      -12345.00      -12345.00      -12345.00      -12345.00
      -12345.00      -12345.00      -12345.00      -12345.00      -12345.00
       360.1062       80.30607       258.4009       3.237753      -12345.00
      -12345.00    -0.08201870       0.000000       90.00000      -12345.00
      -12345.00      -12345.00      -12345.00      -12345.00      -12345.00
      -12345.00      -12345.00      -12345.00      -12345.00      -12345.00
      2008       244         6        45        54
       500         6    -12345    -12345     11188
    -12345    -12345    -12345    -12345    -12345
         1         7        13    -12345    -12345
    -12345    -12345    -12345    -12345    -12345
    -12345    -12345    -12345    -12345    -12345
    -12345    -12345    -12345    -12345    -12345
         1         1         1         1         1
ESP04   -12345          
01      -12345  -12345  
-12345  -12345  -12345  
-12345  -12345  -12345  
-12345  -12345  -12345  
-12345  -12345  -12345  
-12345  -12345  BHN     
XH      -12345  -12345  
[...]
      -258.5388      -213.2400      -238.8231      -267.5624      -241.4831
      -183.7713      -90.83990      -194.7175      -246.2252      -142.8030
      -181.9561      -191.0019      -221.5619      -302.0157      -286.4365
      -241.7216      -175.9232      -182.1420      -181.7856      -144.4688
      -202.9401      -196.2792      -165.3673      -154.0259      -128.5486
      -193.2635      -215.8575      -169.1393      -127.5524      -134.3341
      -185.3313      -139.3651      -65.81436      -85.95361      -159.0807
      -176.2342      -127.8567      -92.11108      -88.27295      -92.15173
      -102.0919      -105.8860      -100.7887      -99.74146      -51.35791
      -72.73889      -157.2362      -100.8657      -65.85961      -60.36455
      -2.737366      -36.69492      -76.71474      -54.29990      -47.50063
      -37.12682      -18.41850      -23.70712      -43.70593      -53.37632
      -41.51332      -15.26902      -32.81801      -14.23824       54.91674
       11.95758      -24.70182       4.543823      -61.23174      -53.32117
       31.41936      -9.143356      -41.03394       18.50082       57.53050
       35.79079      -2.070419       23.94419       12.87325      -14.11223
       65.17149       79.75922      -15.70921       17.24760       67.83708
      -15.39855      -34.28996       29.70583       22.66492       21.99959
       22.36932       26.31697       36.34734      -12.48392       36.54517
       130.0199       111.0538       57.46550      -29.39261      -12.25417
       77.91786       70.03194       4.372717      -7.368080       25.39957
       31.28455       97.91217       133.3873       29.88475     -0.4278564
       65.99838       63.80449      -5.245605       54.57625       88.39869
      -36.56474       1.601311       61.19964      -36.98373       25.42859
       60.10667      -28.47516       59.98886       151.5851       82.87554
       20.14691       28.48676       48.69511       28.99551       46.02818
       61.53241      -1.987915       14.99796       57.53988      -27.89303
      -18.69847       56.07843       16.01337      -4.412331       22.06165
       35.67883       42.93530       53.00140       41.32096       9.747940
       32.13243       37.08752       27.14181       45.39982       36.26114
      -11.90256      -16.13239       83.09706       101.1242      -21.02638
       14.69327       124.1876       24.29192      -27.51645       30.34726
       19.56932       21.79797       20.26223      -2.789188      -18.03216
      -15.32071       5.236847      -35.72007      -37.34165      0.3107300
      -55.13510      -36.69643       3.344299      -86.00882      -89.96661
      -16.43514      -10.12685       32.35295       73.40768       55.59314
       81.81879       158.4677       150.4982       154.6021       191.9393
       71.23439      -22.99442       21.57227       31.43961       6.215271
       64.90527       153.9081       74.77359       5.143936       72.25446
       36.98462      -112.5818      -170.8161      -75.84016      -33.00493
      -90.77528       3.999222       112.3573       16.14406      -18.69415
       112.9683       80.18265      -45.75192      -37.93890       66.03142
       85.13449      -84.07306      -139.1410      -79.65579      -59.27952
       11.50621       20.99161       104.9554       132.9573      -3.471436
      -49.86215      -107.9331      -280.3295      -283.3950       118.5865
       454.2119       240.9116      -20.85606       38.36246       65.84412
      -215.6589      -415.9340      -352.2327      -367.0348      -251.7146
       65.59459       88.26776       71.34216       296.9606       361.9152
       147.6834      -142.1449      -346.6188      -350.6674      -317.7244
      -207.5471      -149.3324      -317.2946       122.5840       685.1926
       211.2817      -141.0089       236.4841       115.8654      -561.2792
      -453.0972       95.07971      -147.9141      -298.8320       111.9413
      -122.3942      -597.0348      -146.0977       456.0670       164.0906
      -332.4457      -342.3911      -101.8896       29.47034      -225.8447
      -524.3328      -326.9525       73.92767       149.5276       190.1399
       209.7919      -95.04248      -277.2479      -340.2332      -333.8120
      -126.7257      -12.90817      -52.00256      -143.4276      -31.77927
       192.8248      -32.78595      -234.7735      -72.09116      -120.3873
      -85.40076       194.4216       158.5762      -153.4933      -276.1993
       5.082184       242.1401       8.168365      -163.8615       57.21304
       55.99413      -99.92514       3.135971       59.93167       22.94510
       37.09338       222.6424       388.0425       114.5054       16.84921
       168.7198       28.80706      -52.48690      -3.618530       110.3345
       292.8874       194.1583       12.66139       12.86926       32.26999
       37.81689       144.8326       271.9643       239.3854       182.4205
       224.4599       100.7985      -16.95587       129.6125       244.2301
       277.0364       312.1869       306.9464       208.7805       100.1509
       130.4673       195.2789       224.3296       161.8271       122.7602
       170.6757       289.0293       386.1154       149.3292       29.71802
       376.3168       478.0669       303.7158       325.7298       292.9146
       173.0415       177.3762       230.5552       326.0861       296.1562
       154.3907       121.7673       143.2413       256.7327       344.5991
       253.3653       217.9537       248.0508       200.7272       145.5006
       231.5316       288.7023       246.3329       263.7122       237.2303
       273.0557       303.5301       168.0043       38.20974      -30.32071
       57.91196       133.3441       64.44788       291.0287       432.8432
      -19.10294      -89.03668       331.3510       219.6178      -62.00818
       99.04480       250.6411       41.13629      -126.2736       67.88008
       82.49628      -157.4901      -74.86357       65.05588       32.76593
       111.9861       147.9607      -28.24585      -166.1007      -111.2025
      -27.17490      -58.77301      -86.16800      -120.2237      -171.2844
      -108.7559      -27.64044      -45.46619      -163.9247      -170.1999
      -92.87183      -221.5322      -285.5710      -180.4760      -118.4797
      -73.80188      -174.7562      -201.8685      -102.3929      -244.1421
      -317.1013      -237.1881      -279.8994      -322.9130      -321.6296
      -300.5927      -312.4879      -308.8982      -257.3565      -282.4938
      -257.1647      -197.1115      -314.4170      -412.6139      -302.1898
      -326.2410      -386.2576      -263.0370      -275.7433      -343.0658
      -358.1983      -298.3339      -260.5370      -388.2130      -348.2112
      -215.7583      -264.3834      -392.6206      -404.5276      -269.2124
      -306.5309      -377.8896      -249.6136      -246.5422      -259.2101
      -256.4227      -358.2057      -300.2115      -239.8516      -302.6228
      -264.7665      -197.0434      -250.3480      -201.5739      -39.88226
      -83.32932      -168.9913      -103.3645      -25.55780      -27.53021
      -200.3753      -252.9219      -106.8846      -143.4966      -183.8535
      -92.17793      -56.51282       15.21460       103.6694       105.8461
       37.47304       1.575993       2.918274       42.80591       139.0831
       71.20216      -77.06670      -2.121674       81.21307       108.1566
       159.3850       202.6688       263.1091       159.9187       151.7540
       232.6564       56.94000       78.49786       272.3693       215.0458
       154.7245       236.9238       291.0199       268.3770       236.3350
       306.2850       280.0244       179.0005       269.6011       310.0102
       203.2744       100.1998       119.7341       257.0673       321.1440
       362.9076       347.7685       246.4477       226.1567       249.5789
       241.8644       267.2832       275.7405       173.1050       84.37378
       143.7412       247.1740       174.8268       114.0893       217.1443
       213.5953       162.3516       199.7474       255.2509       251.0541
       212.0745       159.8141       123.7997       139.8420       107.3447
       84.75943       105.7174       73.57847       30.04916       29.75293
       88.97614       149.3382       116.0682       55.17820       38.02041
      -3.704449      -22.17578       41.72589       72.59348       19.61038
       52.94685       118.3773       3.360626      -108.1982      -20.70613
       23.22028      -117.5928      -136.2001      -19.30560      -76.95500
      -107.4773       34.20377       136.7341       54.53296      -94.28033
      -92.14952      -64.58405      -83.50330      -149.9650      -223.8848
      -130.7410      -63.89200      -79.23764      -55.96906      -73.44600
      -46.50284      -48.42950      -174.8322      -128.1719      -32.03574
      -127.4121      -170.3768      -76.31860      -57.85645      -94.03920
      -36.66338       58.80945      -58.01410      -250.6328      -145.0197
      -73.85660      -160.2151      -84.62331      -20.42690      -7.324554
      -48.21655      -165.9272      -129.4666      -97.28412      -156.8403
      -95.72534      -52.45667      -87.45123      -104.3033      -110.7898
      -103.6806      -99.80258      -93.04810      -53.93677      -48.74463
      -146.1164      -114.8724       1.906708      -56.96819      -43.64263
       5.428589      -94.08566      -121.4385      -73.62036      -34.96292
      -57.40999      -112.6269       60.87332       118.5978      -153.1257
      -229.5331      -54.73303       35.63132       71.27847       113.5023
      -4.971558      -160.0845      -110.6215      -17.62417       15.05618
      -44.07396      -102.0775      0.2673187       52.56267       16.35945
       33.75285       15.98279       59.36177       77.91245       8.084202
       19.46751      -27.49459      -21.41064       105.2678       63.78299
      -4.083862       84.49054       124.0928       27.07819       20.51727
       54.99134      -5.662155       29.18335       156.2062       167.1773
       95.67361       84.42407       102.2423       20.41701     -0.5234375
       115.1783       78.20200      -23.65054       81.15814       145.0652
       6.948090       23.60623       124.4645       1.182022      -16.98129
       128.8711       165.3536       114.8835       89.77313       100.6252
       28.83899      -65.91028      -19.22110       39.66730      -17.12253
      -119.4563      -91.84685      -7.053375       14.06154       57.97380
       50.40492       38.34109       47.81158      -23.00235      -73.69923
      -62.40836      -84.72357      -196.8831      -183.7455      -10.28945
       31.66254      -76.49237      -131.7122      -56.20971       3.991882
      -33.64856      -81.08459      -125.1962      -211.6227      -240.3944
      -191.6047      -225.1795      -230.6089      -116.5347      -78.69965
      -148.0563      -144.7264      -157.9053      -249.3699      -225.7362
      -160.3623      -176.0634      -246.7925      -254.4151      -209.6931
      -232.0643      -213.2398      -133.1802      -60.36087      -105.7490
      -135.9644       13.02387       37.28320      -124.6549      -245.3100
      -280.0665      -254.0522      -348.5956      -471.4502      -370.1776
      -281.6441      -267.5062      -114.7115       3.742188      -55.64198
      -90.19249       24.30944       36.70850      -151.8236      -289.0267
      -231.7510      -112.6731      -213.4399      -375.7536      -186.3232
      -27.63446      -143.8198      -30.70859       179.3395       102.1113
      -40.09885       17.11838       71.97186      -132.0877      -261.3999
      -113.9028      -48.60156      -99.09955       116.3700       494.4130
       459.1672       56.78110      -114.4804      -61.21056      -67.98376
      -13.42224       183.6732       255.9392       76.21036      -22.05829
       202.3750       480.0383       358.4295       3.224888      -40.99357
       40.38147       31.85608       212.4749       454.1147       398.2307
       257.4441       379.4364       508.8540       387.6472       341.3489
       388.8413       224.8265       62.89966       170.8516       331.6189
       387.8583       452.2588       406.6029       280.1033       300.1581
       325.6682       352.8320       376.6906       279.8926       255.0226
       311.4943       340.7144       426.7462       481.6807       374.7910
       186.1660       184.9181       357.1805       300.1701       177.0573
       369.9573       507.6279       403.8503       339.0205       376.1624
       369.1024       168.7001       78.19971       220.0982       146.0258
      -2.594116       173.9471       319.0519       182.0544       266.1846
       660.4441       688.0310       385.3012       313.8781       214.2962
      -91.45578      -131.4782       106.8737       124.2054       7.325531
       76.43710       123.4774      -61.79303      -227.3662      -119.8759
       29.58263      -39.50357      -43.82880       170.2324       113.7537
      -94.54524       29.44476       177.0726       122.0997      -31.19574
      -197.1552      -262.5258      -276.4496      -201.2529      -217.2813
      -367.4106      -255.0577      -93.90376      -52.19899       78.31871
       27.15845      -249.8101      -424.1091      -362.6492      -194.6400
      -250.1807      -410.0160      -362.9767      -352.8706      -396.3477
      -257.0502      -145.1890      -222.4913      -274.4645      -184.8842
      -57.20935      -117.7893      -313.8430      -364.4647      -299.4482
      -321.3889      -385.1875      -343.3237      -252.4784      -303.4179
      -273.1920       18.90730       57.02496      -264.4574      -372.1167
      -312.4003      -347.8229      -324.7159      -238.8996      -256.9917
      -373.5701      -306.4049      -132.3837      -168.6588      -179.0258
      -140.3990      -140.2778      -107.1061      -131.8973      -55.50757
      -13.84283      -174.9028      -203.0424      -149.0255      -177.1564
      -249.1829      -222.7646       12.94244       55.49756      -132.2943
      -114.2498      -23.51091      -26.62225      -7.322510      -85.06836
      -328.5972      -448.0214      -233.5418      -41.18683      -85.94818
      -75.49915      -54.18343      -97.38097      -13.36801       192.1399
       111.2599      -206.9778      -173.9212      -18.35547      -111.3943
      -166.9275      -97.81036       33.83034       57.18501      -42.30554
       88.99878       290.0120       180.9198      -54.31049      -232.4209
      -240.6273      -20.51545       58.89534      -51.78084     -0.3500977
       178.2759       112.3488      -39.57202       108.2147       149.4618
      -28.59343      -38.31758       5.319397      -70.69424      -156.7033
      -64.31439       150.3371       152.8179       114.1732       283.9849
       319.6324       206.8109       124.8212      -1.584053      -1.088539
       44.23186       39.28003       128.2484       149.2543       186.6665
       288.5104       304.0800       191.0175      -31.75748       32.23563
       195.6772       84.60736       126.4919       252.7321       109.6610
      -14.10626       61.89752       144.8345       140.2744       213.9803
       263.0714       115.1072       74.97247       220.6551       258.7136
       154.8046       13.55315      -3.871338       184.6367       341.4631
       316.2809       190.6667       100.0364       155.7047       211.2377
       174.8269       97.82254       58.71085       111.2898       91.88303
      -1.146973      -63.36148      -103.2064       81.73456       265.2643
       140.1452       106.7842       278.0811       292.8553       128.6537
       91.19983       158.6034       4.276215      -104.3619       89.31873
       164.8254       22.93386       21.41788       77.14008      -24.65561
      -105.0074      -31.75842      -19.61641      -66.65187      -21.97992
       48.15137       117.5466       114.2080       16.94305       39.36351
       122.9106      -22.94800      -192.8368      -113.3806      -115.7999
      -259.7101      -261.4357      -90.76106       60.28672       16.66418
      -101.8399      -204.0522      -211.2459      -153.1286      -181.1813
      -122.3932      -34.53754      -67.05249      -69.88141      -59.10162
      -171.2493      -274.4744      -131.8370      -55.53058      -189.3127
      -180.1378      -102.1169      -112.3139      -96.93853      0.3572922
       55.76947      -19.74072      -146.7582      -203.5431      -206.2201
      -258.6640      -274.5587      -249.8182      -232.9310      -137.4437
      -79.28271      -122.4164      -170.7405      -252.1925      -304.4602
      -240.6776      -198.7816      -170.7731      -106.7968      -120.4484
      -154.7684      -131.0099      -131.7813      -226.6648      -316.5366
      -251.6232      -206.7407      -250.3650      -204.1213      -105.7675
      -69.30252      -116.3512      -115.3014      -82.99200      -121.6085
      -98.45245      -105.2059      -254.2332      -310.3844      -256.2570
      -206.2345      -160.5895      -136.8502      -84.66882       7.939850
       131.5655       142.0711       50.30814      -13.28015      -127.6866
      -201.9212      -107.2405       34.89923       15.25540      -82.89801
       30.89264       168.5443       124.2711       67.64191       119.5150
       166.7987       75.16727       15.46747       118.3736       207.8237
       143.6818       109.6370       263.4312       239.5614       60.47528
       144.5648       249.6364       221.9191       172.5557       141.3159
       147.0243       115.4354       195.8093       255.8691       174.4927
       202.9840       294.6768       323.8262       315.1313       267.6008
       225.8431       245.7430       237.6632       130.1115       139.9150
       295.3206       307.8286       213.7222       280.1677       304.3919
       136.3469       186.5550       367.9907       264.8884       160.9180
       232.1127       300.9547       338.2629       290.7566       132.5981
       39.31000       105.6381       227.5960       228.6998       115.9745
       97.22757       112.1495       117.3184       267.4447       292.5010
       111.6129       16.27155       72.81708       189.9536       161.5702
