     0.02500000      -576.0865       842.2625      -12345.00      -12345.00
      -30.00999       249.6650      -49.10000      -12345.00      -12345.00
       0.000000       35.36000      -12345.00      -12345.00      -12345.00
      -12345.00      -12345.00      -12345.00      -12345.00      -12345.00
      -12345.00      -12345.00      -12345.00      -12345.00      -12345.00
      -12345.00      -12345.00      -12345.00      -12345.00      -12345.00
      -12345.00      -30.77170      -64.40940       1205.000       0.000000
      -31.37200      -68.11800       0.000000       97800.00       0.000000
      -12345.00      -12345.00      -12345.00      -12345.00      -12345.00
      -12345.00      -12345.00      -12345.00      -12345.00      -12345.00
       360.1062       80.30607       258.4009       3.237753      -12345.00
      -12345.00      0.2478777       90.00000       90.00000      -12345.00
      -12345.00      -12345.00      -12345.00      -12345.00      -12345.00
      -12345.00      -12345.00      -12345.00      -12345.00      -12345.00
      2008       244         6        45        54
       500         6    -12345    -12345     11188
    -12345    -12345    -12345    -12345    -12345
         1         7        13    -12345    -12345
    -12345    -12345    -12345    -12345    -12345
    -12345    -12345    -12345    -12345    -12345
    -12345    -12345    -12345    -12345    -12345
         1         1         1         1         1
ESP04   -12345          
01      -12345  -12345  
-12345  -12345  -12345  
-12345  -12345  -12345  
-12345  -12345  -12345  
-12345  -12345  -12345  
-12345  -12345  BHE     
XH      -12345  -12345  
[...]
      -47.81575      -13.38907      -53.66492      -70.60425      -77.12321
      -63.99203      -69.61795      -80.82735      -8.168076      -67.44725
      -99.70518       23.12373      -3.902527      -82.56927      -105.0164
      -85.59604      -24.58661      -59.46559      -79.07327      -57.07558
      -60.20641      -11.71725      -55.43752      -90.52616      -25.84665
      -70.62659      -68.94643      -32.37491      -55.39510      -28.41972
      -48.34247      -64.03362      -36.25610      -34.74207      -43.19176
      -77.26657      -50.71844      -35.28025      -44.32585       1.937912
      -37.21176      -97.79340      -43.77989      -29.04448      -74.22540
      -60.80344      -34.03745      -52.94904      -83.25815      -23.52596
       7.121857      -85.01867       3.670746       65.59666      -72.16910
      -6.413132       105.0605      -37.92323      -105.9592       6.863842
       5.498840      -69.90264      -13.83972       45.74678      -27.87341
      -43.18152       18.09137      -24.28867      -68.20400   -0.004089355
      -11.16589      -86.66250       3.125549       42.00998      -64.20190
      -72.33892      -16.55675      -40.53632      -92.65024      -70.35750
      -30.56412      -74.59839      -97.90423      -14.63828      -19.17114
      -118.5788      -77.86478      -15.17432      -120.0173      -177.1938
      -51.55542      -29.19418      -92.96596      -71.16913      -82.44092
      -122.3836      -127.0609      -98.02316      -61.06108      -81.48422
      -89.66391      -21.86929      -72.43774      -201.6522      -133.0701
      -49.34192      -103.2523      -128.5128      -126.9358      -98.44827
      -112.8863      -152.0193      -99.53455      -101.3142      -101.2504
      -97.05377      -147.0682      -138.8036      -145.3704      -183.9083
      -206.3227      -126.9247      -83.35229      -167.7604      -134.1513
      -103.8812      -162.3036      -160.2598      -149.6367      -135.3325
      -153.8228      -186.3299      -135.4175      -147.3141      -177.1000
      -115.7703      -125.4200      -190.9687      -222.8893      -174.7783
      -143.1771      -179.8241      -113.3701      -107.1680      -210.8668
      -171.8860      -165.0373      -210.1417      -135.6937      -125.4413
      -151.9681      -165.5811      -197.1296      -99.24554      -91.81555
      -205.3705      -165.5515      -143.5080      -137.5246      -85.37128
      -148.5075      -173.4063      -141.0505      -127.7192      -79.36649
      -115.4662      -126.2476      -79.29962      -81.92035      -116.5797
      -133.1081      -76.00684      -80.19537      -104.2396      -70.44415
      -94.83559      -56.51785      -33.26109      -69.61559      -17.08629
      -29.73819      -74.65007      -27.27284      -1.240450       13.00953
       1.664342      -1.664379       4.716225      -25.82924      -17.46059
       5.400986       59.30905       89.96932      -1.414688       15.36728
       107.9016       54.16459       10.57410       78.45697       70.36530
      0.7001953       59.03143       96.14185       41.78206       49.21310
       108.0797       137.1862       94.08080       54.89182       79.23044
       77.13483       85.37729       140.7877       104.1794       64.99628
       127.3759       104.6239       85.89850       140.1818       91.19498
       70.23126       142.7411       147.2768       121.4915       85.22296
       113.9858       192.2257       131.7751       105.9236       204.8343
       146.6114       44.02893       167.5308       224.3609       103.0008
       154.7103       230.1460       155.4448       117.2986       160.4468
       197.6129       163.1516       124.6571       145.1085       199.1323
       173.7135       157.5217       235.1365       175.5961       129.1772
       249.3860       210.3674       100.1297       146.9060       217.0701
       215.4236       170.6467       162.3446       171.8159       147.0285
       128.3972       165.3536       208.4184       194.3962       170.3839
       200.5667       192.7608       99.91125       142.5106       243.1568
       192.6782       154.9717       165.4449       143.3076       161.6464
       152.5401       117.3508       172.3941       180.3750       121.4832
       146.5853       168.9260       112.2324       119.2843       171.9074
       146.7290       112.7051       109.3933       126.1031       114.0655
       67.96844       73.98724       98.62680       99.03534       64.08994
       68.14668       88.57689       42.68170       58.91086       89.51181
       47.84660       10.97534       2.163681       50.72068       40.79702
      -35.11652       21.12683       86.62634       30.38851      -35.48740
       3.332867       19.72247      -45.46957       9.975014       21.52785
      -64.07779      -18.62381      -2.511276      -57.84692      -21.15581
    -0.05435181      -31.97479      -46.46368      -92.09323      -94.34741
      -83.89374      -50.98664       8.624023      -65.11160      -98.04272
      -82.85379      -129.1201      -107.2466      -99.12756      -134.1628
      -95.48218      -65.82196      -110.6207      -126.9358      -120.3417
      -134.2242      -122.7919      -130.7062      -151.3644      -182.8768
      -188.1667      -121.6832      -152.1062      -214.5129      -163.6803
      -151.3577      -189.5050      -199.9890      -214.9104      -188.6425
      -128.1317      -173.0845      -249.6455      -217.1155      -211.3329
      -230.0231      -202.6835      -242.6505      -254.1482      -227.9734
      -238.6306      -194.0523      -241.3108      -291.8105      -226.6140
      -240.7057      -240.6691      -258.9675      -321.8165      -276.4348
      -254.9719      -307.7882      -296.6787      -263.7443      -311.1962
      -322.9866      -256.5025      -260.2610      -270.3732      -273.3354
      -308.2200      -228.8373      -230.1499      -324.2983      -249.1682
      -248.2891      -325.0163      -266.8396      -273.3226      -297.3346
      -239.9458      -205.6830      -197.5251      -219.9507      -203.5258
      -180.8464      -239.1630      -287.4207      -201.1937      -121.0502
      -167.8658      -148.5966      -155.7823      -244.6910      -196.9775
      -123.2433      -116.3495      -144.8773      -128.3637      -59.04803
      -112.7531      -149.4030      -74.43555      -84.25624      -96.55466
      -61.72618      -55.09535      -25.62185      -18.17857      -4.733932
       10.21113      -30.34430       14.04344       76.06154       28.86823
       41.60553       103.8051       80.01251       34.60574       47.61200
       101.8163       128.9811       124.9380       130.2850       123.5208
       110.8021       134.8275       155.9936       139.4972       196.2001
       262.2168       186.5228       144.6548       172.8438       161.6155
       181.3355       184.3988       198.4945       234.6472       182.6005
       193.0837       256.0859       259.1404       276.9275       298.5283
       235.8934       167.6722       238.0398       288.4982       250.1984
       276.2338       270.8822       255.2214       295.8898       240.2046
       218.5476       250.1415       203.4430       204.4260       287.2490
       304.0139       226.9802       262.1778       319.7990       219.8813
       152.1792       180.0613       230.0140       232.1910       190.1675
       221.4283       202.2918       117.1006       146.3784       203.6891
       211.1378       198.6394       220.5217       189.4045       72.92786
       133.8450       223.6195       73.57318       43.60712       180.3257
       142.3770       30.46061      -14.01044       59.49722       139.1445
       103.2740       86.81857       47.42979       30.38976       8.136780
      -7.359291       58.30070       3.164185      -91.55856      -51.12189
       33.03741       50.03250      -5.243988       1.407234      -9.280304
      -69.43854      -50.36967      -36.96154      -8.968859       25.59634
      -27.60312      -58.71600      -112.4165      -198.5678      -182.8584
      -171.6071      -132.6460      -14.47125      -56.09384      -143.7130
      -99.99030      -141.1486      -206.1543      -155.3516      -133.5820
      -145.1407      -107.9151      -59.98886      -76.22589      -86.29813
      -100.4647      -144.6932      -110.1932      -115.8700      -150.3173
      -89.20889      -132.7118      -187.2363      -186.3146      -251.6960
      -224.1708      -166.0238      -142.7547      -85.28372      -99.55896
      -102.1901      -66.78979      -108.2514      -131.4869      -127.9254
      -136.1164      -104.7815      -60.43925      -24.11687      -40.38164
      -40.60757      -48.21442      -118.5402      -97.20369      -49.94635
      -55.01111      -66.43869      -108.5504      -152.2502      -161.7785
      -111.1589      -66.07623      -39.90263      -69.05592      -105.3769
      -4.296402       2.455597      -53.94760       8.144623      -22.98816
      -76.46634      -53.84174      -37.29019      -65.13847      -74.13544
       7.445395       20.46323      -9.241638      -29.88536      -25.55070
       14.91780      -42.09507      -21.06119      -8.482483      -100.1412
      -46.04966      -3.001366       6.433418       45.50087      -17.72957
      -34.34895      -6.686661       4.846802       46.54532       113.8194
       144.2437       46.56096      -16.07306       6.897385      -8.367558
       5.107559       30.52328       63.66185       88.93719       62.05780
       73.21045       113.3502       89.26346       53.62555       69.65289
       92.66861       67.78467       92.34735       178.0912       149.8410
       99.01677       97.01169       36.68591       37.03284       114.4869
       146.8359       130.4450       109.6934       111.6937       93.60565
       111.0408       185.5642       168.8714       95.26703       67.79071
       112.4367       121.0893       50.69702       132.9748       193.5626
       106.0036       122.6434       120.8664      -6.084076       18.47342
       153.3565       129.6998       63.05252       116.6163       142.0252
       84.81964       41.26001       61.08109       71.06145       29.92819
       65.05789       131.7771       96.85965       101.0479       162.7066
       99.90345       2.798798       33.20107       85.33310       64.58950
       46.38215       19.13733       13.14725       91.86667       140.8602
       152.5085       140.0178       64.63162       13.44466       26.38821
       58.70868       66.14844       77.21548       103.0440       86.13928
       81.17789       158.6631       179.1114       104.2404       87.60516
       92.51091       35.45892       62.25244       134.0907       75.15190
       54.52202       101.2253       22.92312      -10.52330       44.90179
       38.83357       39.28156       106.4794       187.6777       166.8615
       93.58737       62.05664       32.35973       40.84579       81.60834
       65.02525       44.42902       85.80968       29.40292      -53.77199
      -6.591614       42.43505       9.901604      -24.70300       26.45865
       85.34904       56.35568       1.839828      -40.78295      -2.706696
       64.52293       24.25223      -34.51899      -2.263306       42.59314
     -0.7753067      -43.99257      -7.948780      -6.788342      -20.89560
       24.56963       38.04626      -23.38225      -55.23132      -29.24283
      -69.78688      -97.58170      -41.01215      -107.4709      -135.9907
      -26.62384       9.900261      -7.430244      -11.79962       6.164978
      -30.24268      -90.75006      -55.79489      -54.68161      -66.05813
      -17.04713      -18.81387      -36.79883      -58.42505      -158.7506
      -197.7254      -101.6110      -12.48270       22.13115      -16.31348
      -31.29504       12.13457      -55.64557      -126.7084      -87.86975
      -21.56815       64.57397       100.4185       86.62738       101.6704
       33.42297      -93.65521      -80.43027      -38.07690      -79.70413
       31.39429       191.8996       118.7482      -14.99690      -19.37894
      -113.9094      -280.1844      -206.2885      -17.52686       65.90814
       159.2661       240.4616       48.59132      -124.4278       40.97975
       104.1267      -4.702667       39.53333       189.1710       267.9029
       124.2918      -75.49225      -194.9721      -238.0743       43.54663
       268.2725       140.1865       258.6317       354.6527       26.04193
      -119.8017      -110.4234      -202.1178      -82.90961       169.5933
       218.6767       97.29273       1.842743      -13.04681       65.61804
       153.6406       223.9639       166.5481      -163.8429      -185.8928
       167.5582      -50.07422      -460.5929      -8.241394       331.3381
      -82.39917       286.0952       842.2625      -6.237427      -576.0865
       104.5543       351.7360      -31.93076       104.0326       274.3549
      -146.7019      -274.4590      -13.45915      -4.344200      -55.91478
      -15.47760       42.66553       228.5870       394.8828       48.79053
      -452.7741      -411.0064      -64.53851       119.6375       52.82324
       114.4020       282.4029       65.85982      -79.75442       28.97725
      -28.00873      -104.3777      -216.1729      -226.2681       154.3596
       207.9185      -187.0212      -189.6350      -71.54822      -194.0541
      -182.4371      -39.17917       68.35355       73.04903       43.39972
      -31.61499      -196.4969      -208.5743      -100.1480       58.10185
       102.1050      -167.4904      -161.9896       36.44226      -164.7466
      -242.4996      -55.60883       35.16131       50.69673      -22.17267
      -44.06342      -105.2094      -246.7735      -171.0532      -104.7856
      -150.2575      -96.65942      -63.01208      -191.8461      -165.6495
       94.90360       82.31802      -122.9928      -152.1590      -93.19513
      -91.49548      -196.2297      -225.7797      -147.1447      -140.0896
      -167.0186      -5.008362       145.0748      -64.04639      -169.5847
      -60.67395      -178.7346      -238.8541      -162.1154      -207.3775
      -95.41983       118.2120       106.3567       42.05502       53.03534
       110.1040       71.27335      -134.3027      -215.4428      -127.6807
      -37.70313      -46.81499      -31.32425       83.91333       153.1310
       219.3490       150.3021      -35.16863      -20.80020       29.45445
      -12.71883      -17.67008      -34.94913      -1.691971       93.99216
       52.49286       84.73401       239.2487       116.6981      -40.71727
      -3.772461       83.67953       150.5957       67.48993      -6.453461
      -22.68039      -51.76581       60.97073       158.5902       125.5218
      -2.588921      -73.21693       79.86683       56.73039      -114.1034
       59.55772       158.1840      -111.7999      -185.0866       35.31259
       108.5077       50.32448       25.85648      -31.28650      -100.2260
      -127.9872      -80.21176      -64.71899      -137.9862      -103.4165
      -119.6182      -193.5213      -69.25998      -33.46942      -208.8908
      -243.4066      -80.10300      -57.55951      -131.8839      -104.1656
      -106.0314      -178.9890      -263.9454      -190.5849      -75.67545
      -132.9998      -123.3395      -37.95035      -80.71613      -179.6157
      -224.6802      -227.3866      -213.1559      -110.7615      -145.1816
      -333.3061      -281.8329      -95.63251      -50.87817      -161.1515
      -132.2642      -99.48560      -193.4394      -140.5928      -219.2467
      -332.8791      -195.7358      -51.72920      -31.87628      -170.2740
      -242.8592      -170.3658      -150.8650      -120.5858      -130.8750
      -160.0672      -138.4009      -113.4266      -85.67969      -165.8102
      -199.5784      -107.0274      -124.9632      -147.1094      -34.22568
      -28.91821      -140.9409      -139.7137      -128.8888      -225.9229
      -180.3221      -52.10202      -130.4787      -191.1964      -25.23969
       100.6236      -60.56305      -194.0304      -83.98705      -34.31122
      -87.22523      -53.89946       29.99380       52.85122       35.10369
       27.61739       11.11565       16.86133       69.89754       69.59957
       22.99995      -5.082657      -64.71269      -9.494263       110.0767
       46.46870       14.72980       107.5491       135.8443       64.33487
       20.63861       136.8101       192.6240       164.8563       162.9321
       91.79443       119.7338       157.3184       123.5981       133.3524
       79.34015       177.8995       302.5035       160.1528       176.9288
       325.4712       276.2444       180.8174       218.6431       326.8625
       245.1507       152.9617       176.1516       116.7362       168.0791
       258.6855       261.6204       219.6722       137.9633       232.2856
       259.4869       202.1821       363.0052       311.1638       93.00864
       144.4421       189.8182       159.7215       166.4973       205.1946
       300.2491       275.6856       168.4927       180.9744       283.5797
       225.7390       149.9058       312.3990       243.0203       57.51520
       170.9955       216.9713       205.4658       193.0463       119.4310
       220.6296       246.4578       223.9877       343.2258       285.2946
       131.5211       117.9001       186.6132       203.5809       109.2208
       119.1287       238.2589       194.1285       146.5587       263.5671
       215.6801       112.9534       234.0607       223.6468       80.69427
       86.40222       167.3883       228.3414       160.3037       107.6964
       179.9960       171.5947       90.60510       81.64856       122.1946
       105.9489       141.4637       200.5968       136.7858       182.6836
       207.2353       17.56019     -0.9990845       76.66702       69.94165
       63.05988       5.837639       17.49850       91.73193       124.1674
       173.0644       96.77322      -29.11380      -45.62361      -52.67590
      -9.705490      -4.575623      -94.18925      -88.65605       29.15096
       62.45171      -60.10602      -94.56696      -116.2070      -199.1010
      -165.2195      -121.0067      -85.29886      -58.36093      -115.0052
      -131.7952      -174.3857      -274.6168      -270.9193      -180.8789
