     0.02500000      -574.1700       594.8474      -12345.00      -12345.00
      -30.00499       199.9950      -42.02000      -12345.00      -12345.00
       0.000000      -43.02000      -12345.00      -12345.00      -12345.00
      -12345.00      -12345.00      -12345.00      -12345.00      -12345.00
      -12345.00      -12345.00      -12345.00      -12345.00      -12345.00
      -12345.00      -12345.00      -12345.00      -12345.00      -12345.00
      -12345.00      -31.13820      -64.95640       1252.000       0.000000
      -31.37200      -68.11800       0.000000       97800.00       0.000000
      -12345.00      -12345.00      -12345.00      -12345.00      -12345.00
      -12345.00      -12345.00      -12345.00      -12345.00      -12345.00
       302.2434       85.89768       264.2650       2.717527      -12345.00
      -12345.00    0.003189757       0.000000       0.000000      -12345.00
      -12345.00      -12345.00      -12345.00      -12345.00      -12345.00
      -12345.00      -12345.00      -12345.00      -12345.00      -12345.00
      2008       244         6        45        47
       420         6    -12345    -12345      9201
    -12345    -12345    -12345    -12345    -12345
         1         7        13    -12345    -12345
    -12345    -12345    -12345    -12345    -12345
    -12345    -12345    -12345    -12345    -12345
    -12345    -12345    -12345    -12345    -12345
         1         1         1         1         1
ESP06   -12345          
01      -12345  -12345  
-12345  -12345  -12345  
-12345  -12345  -12345  
-12345  -12345  -12345  
-12345  -12345  -12345  
-12345  -12345  BHZ     
XH      -12345  -12345  
[...]
      -177.2405      -263.3412      -245.4183      -263.3665      -245.2813
      -237.7838      -246.9636      -218.7994      -209.8746      -203.2153
      -198.7596      -256.4847      -352.8048      -236.7899      -182.4460
      -323.0382      -299.9889      -228.4252      -197.7203      -196.6671
      -213.5414      -260.9578      -291.1457      -295.6758      -225.0055
      -198.1440      -294.6173      -288.6160      -216.8874      -170.2397
      -218.2065      -228.5718      -254.6486      -307.7950      -206.0021
      -174.0267      -183.5332      -181.9163      -191.9340      -206.9638
      -153.4495      -101.1036      -191.8477      -256.8861      -169.7708
      -74.36969      -120.1658      -166.8356      -119.4721      -87.47345
      -153.8278      -122.1936      -37.88434      -156.6871      -168.2612
      -105.8837      -53.97839      -94.37668      -204.2922      -93.42711
      -25.17554      -65.20840      -116.1418      -119.0550      -72.16394
      -128.6543      -99.70853      -52.66142      -41.01463      -85.05806
      -64.20435       10.56213      -137.3860      -151.2636      -26.35678
      -33.41684      -79.29349      -103.9933      -63.10959      -32.19762
      -44.28232      -117.9139      -111.1663      -75.89549      -95.16464
      -62.29916      -95.11816      -143.1974      -46.49030      -26.20667
      -153.0887      -92.53909      -24.33711      -96.16818      -61.82562
      -77.38589      -69.26721      -117.1268      -135.2449      -54.37458
      -15.57988       23.41442      -31.14729      -56.29813      -85.91579
      -106.2281       61.32464       20.58099      -78.98591       17.94422
       8.568878      -74.10292      -44.28539       19.37680      -39.70285
      -88.71835       31.56453       27.98361      -82.36115      -8.310410
       109.3617       26.72089      -75.96467       17.82886       17.94191
       28.16904       71.28955      -4.301880       87.82578       143.6181
       56.11673       14.59761       12.71744       105.4428       158.2043
       56.37153       19.66870       78.09592       115.3389       113.3708
       131.6278       59.73312       46.02505       113.6905       111.5458
       141.2877       29.52835       50.82404       232.7980       136.9960
       130.3582       166.9610       111.6320       163.3789       87.86609
       74.13400       180.6342       137.8065       176.9000       240.9368
       228.3099       223.1207       185.5480       177.1586       246.4767
       224.3325       171.2997       203.5516       200.9037       193.1746
       229.9234       248.3466       213.6557       185.5194       250.7222
       304.8924       256.9258       144.2807       179.4985       274.6669
       201.1033       245.2817       306.6804       154.7466       215.1326
       303.3123       220.4468       287.8914       216.7291       182.7598
       307.0422       200.1263       181.9800       283.3799       259.2900
       223.6115       229.1708       179.0606       232.9562       298.9695
       204.8665       187.6837       200.8251       193.5497       203.7076
       217.0017       214.5439       114.0419       188.9205       243.9502
       131.6187       159.4952       173.2834       122.7710       75.47504
       121.1066       162.5187       123.3430       132.7095       130.0702
       130.4366       122.5223       116.5360       62.69873       75.99200
       137.3831       104.3607       47.46656       12.62259       47.36447
       49.98343       15.00948       16.11911      -17.25485      -24.66648
      -14.17912      -18.11187      -14.64133      -32.64880      -45.16164
      -51.82080      -147.0799      -166.3949      -76.69446      -141.1367
      -135.2848      -82.66592      -168.5706      -125.3595      -155.0938
      -243.3561      -186.3705      -169.6125      -168.0983      -223.2120
      -310.5543      -242.8757      -179.0338      -218.2103      -298.3263
      -275.1885      -208.9581      -270.6312      -302.4006      -341.7200
      -354.4442      -299.2928      -268.9243      -246.6385      -312.2852
      -357.3311      -338.4429      -335.2680      -321.4685      -340.4882
      -288.8114      -246.6602      -333.7156      -290.4539      -341.1973
      -365.6864      -225.0692      -308.7527      -352.8124      -243.6694
      -255.6871      -315.3668      -271.9739      -243.3663      -274.6448
      -260.6058      -303.1603      -294.7323      -291.4250      -239.7128
      -147.0250      -229.5416      -266.4821      -193.9748      -137.6402
      -185.7154      -247.6061      -173.2144      -165.5889      -203.1307
      -151.5725      -155.5639      -192.6902      -118.9338      -123.7247
      -190.0194      -91.50688      -15.37051      -62.32983      -131.4113
      -128.9883      -18.18546      -26.50768      -85.35586      -19.09816
       11.80148       35.32515       58.73299      -33.11617      -39.97231
       19.99303       19.43259       44.21495       13.97519       43.72261
       60.98763       17.84225       78.10596       54.34352       17.49344
       87.09970       98.29874       78.18854       109.1916       126.7764
       125.6202       112.6663       101.5168       130.2112       138.9859
       161.8494       114.9558       55.43231       150.8948       162.2131
       163.2368       178.3162       121.1329       181.7845       221.4505
       158.1553       113.7656       129.9655       210.8388       178.2986
       187.4770       234.5030       148.0153       140.3264       172.3204
       158.7920       183.1674       140.1141       162.9561       194.0610
       164.5996       202.1795       186.3719       172.8187       192.2028
       230.6625       228.5947       166.7047       188.3597       204.4396
       229.5775       235.4656       177.7659       132.2344       158.2396
       201.6274       190.1225       166.4647       154.6085       178.5712
       196.0670       135.5855       121.2613       148.8946       139.3145
       124.8630       114.2896       119.9023       118.0811       141.0486
       144.1256       41.28729       74.41748       138.2525       77.34613
       47.09570       73.48486       67.37421       70.26929       109.1758
       65.52734       73.89003       53.43186       17.64816       58.02974
       12.40971       36.42226       75.20607       29.87166       15.22336
       58.77207       42.60553      -59.57125      -12.43747       56.55741
       30.29617      -28.18652      -54.63782       14.57346       3.925411
      0.4810791       60.74984       33.36440      -41.79301       8.809525
       45.07525      -7.050888       25.49598       50.28249       24.11471
      -2.156231      -3.769623       42.07503       50.75294       56.66310
       21.26106      -20.04101       7.679626      -23.25300      -25.99805
       23.34291      -2.646286      -7.700447      -22.81667       7.726517
       27.71832      -23.14103      -13.78649      -29.71873      -28.15182
      -60.92136      -61.31590      -5.613617      -24.80774      -16.82031
      -70.24343      -57.63291       9.355530      -79.97516      -103.8101
      -65.94080      -98.81033      -60.27823      -17.59045      -93.71503
      -129.1289      -57.97150      -50.23105      -88.68933      -82.15219
      -128.9894      -169.2330      -115.6651      -71.75372      -113.5674
      -164.8900      -172.3280      -213.4391      -165.3124      -96.42935
      -134.5123      -180.5939      -213.8542      -160.5411      -113.2184
      -160.0807      -170.2844      -137.7773      -158.7288      -165.2194
      -118.3544      -147.5400      -165.6872      -157.8834      -145.6668
      -140.2885      -189.3872      -178.8441      -129.0722      -125.5577
      -160.5648      -208.0412      -233.4998      -138.3087      -55.05219
      -155.3262      -183.0007      -133.9153      -196.9007      -168.4715
      -147.7327      -199.6111      -195.0728      -189.4044      -151.6624
      -169.4630      -175.8967      -95.72260      -108.1809      -179.5524
      -148.5845      -140.1635      -153.1655      -118.3876      -145.8389
      -122.8992      -140.2212      -153.1416      -55.64581      -92.79880
      -174.9360      -129.8036      -46.41217      -73.44513      -146.6363
      -103.6054      -57.26187      -84.55344      -137.2028      -87.00060
      -46.89224      -104.7071      -65.39478      -52.64343      -102.7336
      -89.44161      -39.46103       14.48358      -41.99794      -71.90383
       1.164886      -16.53493      -36.15694      -31.11282      -86.11932
      -37.45605       44.60675      -3.067619      -37.56681      -30.65083
       18.31409       41.73675      -10.62801       13.00562       60.00415
      -29.77285      -12.73698       77.15808      -3.157516       14.94109
       51.20044      -15.77435      -12.76379      -3.235687       91.46936
       201.6662       60.79430      -20.12213       123.1900       148.3203
       110.0739       84.79027       52.02448       58.58496       111.9278
       194.6640       159.2136       94.04065       126.9611       140.6931
       138.2330       212.6443       199.9315       142.3886       190.7943
       186.3065       179.5999       212.5604       201.0972       220.1161
       241.4755       202.0626       224.3993       251.2795       234.8083
       255.2194       236.7511       235.0834       292.6399       314.3333
       238.4441       216.9971       276.5875       283.5299       299.5543
       293.1318       277.3651       281.1505       273.2385       347.9938
       299.5853       202.5965       292.9000       282.6279       273.4910
       290.3641       243.6234       291.5994       290.0334       217.8447
       201.8851       289.5803       314.5231       235.5828       218.4627
       259.7581       267.4020       210.6765       210.5912       231.1119
       244.4954       280.1831       282.0585       224.9286       155.2666
       208.6302       258.5226       204.2122       171.9425       215.1951
       259.9373       182.3572       155.4919       204.2704       177.1964
       151.5714       157.3456       140.5229       157.3549       189.2740
       120.4932       101.9098       98.70435       58.72192       123.8831
       136.0369       84.13065       88.86151       92.27303       68.92308
       55.72267       87.38235       66.81906       56.34245       66.59267
       27.30503       36.85435       34.82297       34.80508       63.21429
       15.79819      -6.388840       14.51865      -15.09933      -72.80719
      -78.22218      -2.586327       21.51218      -41.67805      -74.64560
      -85.11694      -73.62958      -82.02240      -121.6152      -79.35921
      -49.47745      -97.19113      -130.0157      -133.5709      -132.6005
      -132.8297      -149.7959      -136.3849      -126.2408      -142.0305
      -120.3770      -133.2947      -182.0414      -196.0956      -169.0526
      -154.9456      -198.3990      -235.0110      -221.8821      -219.2438
      -234.8412      -267.4274      -244.1378      -220.1166      -259.5284
      -294.9763      -287.7662      -240.2253      -295.7814      -371.7662
      -329.1068      -306.1598      -321.6006      -337.7056      -348.2944
      -355.8251      -359.4955      -345.6404      -414.6060      -402.5798
      -368.8533      -436.6628      -407.3550      -397.3341      -394.5051
      -422.7158      -464.5710      -443.7164      -439.1544      -449.0227
      -482.6329      -488.5723      -488.9917      -513.7709      -486.8685
      -473.2076      -504.3511      -504.7805      -503.8402      -514.9624
      -539.7223      -574.1700      -481.1653      -456.3062      -530.3308
      -491.3811      -520.4146      -539.8833      -422.6388      -415.7405
      -514.3677      -489.7849      -370.4159      -383.2596      -453.6414
      -435.5433      -371.2008      -361.6935      -385.7726      -362.7655
      -360.3220      -362.6298      -280.3393      -304.9039      -330.5897
      -272.2738      -291.0858      -239.4679      -198.0516      -223.1108
      -202.4998      -165.5935      -105.3175      -86.19794      -94.48624
      -113.6478      -100.9771      -44.67977       12.03095       39.01974
       18.33415       10.83011       75.81534       134.9353       129.1813
       104.1755       132.7091       197.9077       212.5443       228.3640
       201.8265       215.0470       371.6317       330.2205       223.2626
       272.4180       340.4478       402.1852       404.3757       385.1218
       387.9108       388.5225       412.4210       468.4724       477.1451
       433.2753       457.7195       504.9281       503.2261       484.1914
       522.1779       547.6521       516.3037       497.9407       548.2639
       594.8474       555.0771       557.1879       588.1978       530.8396
       510.5063       584.1992       577.7495       522.6135       524.3943
       529.7491       543.7352       546.7527       539.1045       553.8608
       528.8225       532.7789       532.8916       425.6963       396.9597
       502.3257       558.1709       499.9382       457.5161       468.1202
       436.5498       406.5007       423.8571       407.3904       429.8000
       429.0032       359.7479       337.9191       362.2612       384.0806
       359.1581       274.2051       285.3488       302.1365       242.1261
       255.3798       270.4277       237.9556       243.5532       227.1758
       192.7659       189.1027       138.1828       105.2179       144.9151
       119.5958       91.85797       137.0824       146.7121       70.25335
       17.37320       31.27800       68.61035       57.03941       22.04404
       48.50279       16.54135      -24.67150      -10.97749      -20.62724
      -23.67185      -40.94489      -12.95599      -28.75230      -62.27396
      -58.11327      -47.86340      -75.30017      -175.3194      -141.0310
      -122.5762      -173.0211      -101.9659      -97.72162      -193.4975
      -237.8405      -178.7305      -140.4932      -214.7837      -214.0087
      -144.2455      -112.3028      -140.6302      -214.9068      -209.4720
      -190.9213      -220.6246      -225.1002      -185.7313      -138.2438
      -169.3428      -255.0449      -204.6697      -161.2528      -228.8462
      -215.7764      -197.6991      -267.5315      -303.1776      -290.1322
      -250.1812      -261.5388      -353.5908      -320.2801      -213.4395
      -219.4055      -266.9036      -333.8953      -309.3847      -237.0347
      -290.8379      -282.7718      -236.0490      -280.7491      -275.3374
      -298.8932      -288.4320      -249.3185      -290.9686      -299.2084
      -291.1568      -270.7141      -258.2354      -318.8962      -378.9436
      -354.9683      -249.0243      -248.0938      -353.0359      -378.9067
      -365.9644      -324.3529      -224.8303      -258.9382      -318.1919
      -291.1027      -305.0327      -281.2695      -226.9540      -272.4186
      -296.9619      -255.2712      -178.7050      -176.0954      -223.4421
      -238.1074      -246.8113      -229.8197      -233.9299      -204.8358
      -156.2324      -192.1184      -241.0718      -236.2664      -144.7198
      -118.2978      -98.08539      -80.17322      -102.9555      -77.22726
      -78.43774      -93.55209      -121.2918      -118.2423      -103.5620
      -58.54326      -31.92438      -72.31052      -10.38191      -5.816376
      -60.46650      -26.85736       3.208326       11.22473      -29.90134
      -61.88539       45.74629       72.35431       52.04836       99.10042
       58.19713       46.70595       49.60574       62.00769       117.2266
       104.7550       89.69046       109.6157       123.7684       106.0234
       157.5356       198.5352       115.6879       82.37427       181.2545
       215.0370       181.9317       186.2206       114.7820       111.5854
       170.9736       169.1938       245.9301       266.9182       243.3937
       266.2887       215.9838       226.0897       297.5941       267.5314
       214.4730       201.7772       251.1631       329.9205       295.2776
       218.6969       281.5233       301.3423       229.3939       216.6310
       259.1078       294.0958       230.1382       207.5541       258.4995
       242.2917       246.9297       278.5957       202.8115       109.6491
       255.0641       378.1072       264.1995       180.9736       205.6008
       229.7277       183.6257       158.9725       185.5144       182.6873
       167.7046       198.3148       230.3021       133.2382       103.6099
       169.5512       133.6605       77.36176       37.05667       80.22327
       106.4795       72.46407       31.59727      0.2952194       34.02993
       20.25741       21.36302       20.12707      -44.40230      -28.30770
      -19.82987      -36.71894       1.867828      -60.84290      -128.9568
      -101.1009      -19.32240       24.89807      -56.86368      -105.2045
      -103.7232      -135.9374      -134.4594      -185.6295      -243.3623
      -179.5366      -157.0883      -183.7510      -124.4639      -160.5267
      -214.5108      -126.1770      -67.98474      -23.34857       24.47881
      -8.904419      -116.2637      -258.2456      -257.9235      -205.4971
      -210.0908      -280.0677      -401.0847      -279.4135      -68.20856
      -7.298187      -22.89734      -128.9584      -96.58763       20.98285
      -10.54266      -16.87491      -31.93030      -167.3602      -212.9004
      -181.8348      -208.9456      -119.1808      -69.53571       37.77814
       278.8708      -20.62244      -300.5300      -101.8177      -58.58159
      -5.312805       148.9234       98.87836      -107.9390      -189.7098
      -41.25451       43.75601       14.37541      -25.06535       24.85889
       169.8949       165.5912       110.5291       61.93697       24.28198
       55.00281       98.89117       123.4141       19.63599       94.58746
       317.7698       151.0722      -2.290039       209.1738       227.3544
       141.2859       113.1808       74.11566       228.5498       174.3301
       46.03394       235.5052       305.8720       125.6279       11.95630
       182.3902       286.8398       219.0259       172.2940       8.782478
      -26.72339       152.2952       184.5616       206.2487       314.4353
