     0.02500000      -464.1677       500.7114      -12345.00      -12345.00
      -30.00499       199.9950      -42.02000      -12345.00      -12345.00
       0.000000      -43.02000      -12345.00      -12345.00      -12345.00
      -12345.00      -12345.00      -12345.00      -12345.00      -12345.00
      -12345.00      -12345.00      -12345.00      -12345.00      -12345.00
      -12345.00      -12345.00      -12345.00      -12345.00      -12345.00
      -12345.00      -31.13820      -64.95640       1252.000       0.000000
      -31.37200      -68.11800       0.000000       97800.00       0.000000
      -12345.00      -12345.00      -12345.00      -12345.00      -12345.00
      -12345.00      -12345.00      -12345.00      -12345.00      -12345.00
       302.2434       85.89768       264.2650       2.717527      -12345.00
      -12345.00      0.6296725       90.00000       90.00000      -12345.00
      -12345.00      -12345.00      -12345.00      -12345.00      -12345.00
      -12345.00      -12345.00      -12345.00      -12345.00      -12345.00
      2008       244         6        45        47
       420         6    -12345    -12345      9201
    -12345    -12345    -12345    -12345    -12345
         1         7        13    -12345    -12345
    -12345    -12345    -12345    -12345    -12345
    -12345    -12345    -12345    -12345    -12345
    -12345    -12345    -12345    -12345    -12345
         1         1         1         1         1
ESP06   -12345          
01      -12345  -12345  
-12345  -12345  -12345  
-12345  -12345  -12345  
-12345  -12345  -12345  
-12345  -12345  -12345  
-12345  -12345  BHE     
XH      -12345  -12345  
[...]
      -67.40186      -229.9192      -69.95471       189.9496       77.60199
       153.1743       199.5572      -11.46445       56.11610       82.25618
      -64.48080       22.40512       155.4326       85.05988       90.95212
       101.3218       98.22491       150.7435       141.8571       85.85052
       88.26993       129.0173       156.0369       133.0610       114.2231
       157.7833       184.9789       208.0605       56.24426       38.37671
       220.4448       184.0744       135.6351       143.6791       132.5576
       100.2684       151.6182       127.9483      -8.174255       146.5189
       271.8914       82.50333       26.95056       137.2120       225.3885
       210.9342       52.45016       45.54327       125.9722       175.1461
       161.5860       53.03577       55.37064       66.56180      -46.86864
      -69.88467      -1.416492       3.139635      -5.685577      -4.308197
       66.64864      -1.600220      -130.8408      -51.42347       28.35808
      -72.37329      -107.2768      -63.88083      -116.7204      -95.74359
      -101.5402      -130.4130      -90.32663      -85.27490      -128.8400
      -201.4656      -167.0306      -112.9686      -149.7225      -228.1330
      -212.2238      -170.4332      -284.3110      -242.4181      -123.8876
      -203.0529      -228.2870      -221.9446      -266.2930      -254.6370
      -215.4136      -257.7827      -318.8151      -296.5165      -239.6576
      -260.5171      -260.0792      -189.8002      -232.8283      -234.3760
      -186.1331      -213.9094      -245.9919      -247.3060      -231.7236
      -215.9601      -211.9942      -275.0613      -264.1610      -221.6041
      -168.0782      -146.1774      -222.1798      -259.2792      -163.1335
      -144.4867      -267.0137      -183.8356      -130.4515      -231.6577
      -259.0908      -192.6751      -96.43146      -187.6061      -283.2172
      -239.3103      -146.3919      -129.4224      -196.3287      -122.2276
      -39.77567      -121.6871      -183.5113      -126.0012      -118.6340
      -173.6161      -140.8992      -97.78638      -74.75977      -97.62448
      -114.2491      -75.95917      -91.33322      -157.1915      -149.7949
      -35.10641      -56.90936      -138.4047      -95.51421      -30.56140
      -51.65503      -152.9149      -104.6899      -46.78029      -110.8872
      -27.23645       24.24396      -60.06126      -9.447052       12.97925
      -136.0869      -43.88592       82.20013      -77.22435      -56.11067
       57.42397       19.47596      -25.46154       29.76030       59.95099
       22.72198       42.86548       47.98426       44.06373       30.57147
       29.05212       70.07941       58.08057       65.71112       97.92664
       81.18536       87.71965       68.64117       83.80910       83.16415
       5.342926       74.35165       154.8036       62.99205       43.38306
       150.0094       138.5921       85.51379       176.1985       174.0647
       98.40649       124.7174       223.6804       290.0342       246.8224
       251.7214       163.9810       64.83942       201.4136       276.0132
       220.0371       181.5249       141.8177       213.1528       245.5223
       228.6117       187.7926       182.4282       224.0499       194.9671
       226.9652       234.0680       230.2339       286.5498       264.3812
       248.4360       280.3630       211.0775       238.0188       256.7516
       176.6904       254.1912       263.7715       239.7097       303.4072
       303.0957       312.8071       298.3763       188.5903       272.1028
       339.0060       203.4360       196.1808       242.0190       241.2578
       247.7306       247.4412       220.9343       208.9863       221.5208
       193.0940       200.7073       202.2759       209.5686       242.9299
       226.9945       274.9258       268.2149       167.7111       205.8933
       257.2160       212.9979       241.2368       233.9510       199.5926
       217.0306       184.3752       136.5890       161.3848       225.3504
       159.0661       152.3206       181.9866       183.7059       207.7540
       148.0756       93.72955       140.1981       197.2274       140.8409
       112.2405       161.8496       94.94550       120.6618       169.4939
       54.68597       111.4967       186.8613       94.06799       9.731506
       28.67798       74.15591       52.29086       55.64168       62.53989
       69.03891       66.16293       50.15214       28.01727       31.51130
       6.515717       14.27143       37.49382      -23.11378      -73.01755
      -74.67383      -55.13812      -101.4021      -114.1238      -84.83524
      -105.4507      -84.95215      -56.12634      -102.6970      -143.0789
      -89.05655      -139.8446      -201.6035      -97.37396      -142.0693
      -165.7411      -65.24722      -104.6378      -167.7629      -176.8119
      -156.8503      -115.9211      -125.8190      -188.2812      -152.6932
      -146.1931      -208.3174      -169.8231      -149.0625      -202.1071
      -162.1231      -119.0439      -206.5590      -228.0677      -150.1031
      -138.6412      -188.0615      -157.1830      -150.2362      -188.2310
      -159.3936      -154.8939      -183.5360      -200.3618      -195.0419
      -150.1724      -98.27899      -100.9919      -86.03729      -163.4409
      -169.3641      -50.57211      -130.0885      -148.0239      -58.41254
      -147.8554      -185.6384      -122.0930      -165.4907      -146.6029
      -67.58374      -146.8125      -191.9515      -163.8546      -133.4415
      -117.3925      -172.0012      -149.3504      -133.9500      -159.4674
      -162.5468      -169.5571      -115.0681      -140.4209      -171.3141
      -120.6747      -169.2911      -171.3260      -149.1763      -218.7327
      -175.2493      -121.1730      -144.1301      -158.7544      -208.0660
      -223.3492      -181.8303      -224.1939      -239.7355      -167.2504
      -191.9949      -205.2437      -173.4741      -253.9828      -292.4489
      -218.2612      -248.1855      -253.8766      -240.2393      -294.8479
      -253.1342      -257.6052      -251.2028      -227.9404      -278.5022
      -261.1157      -225.1586      -214.0132      -189.2703      -201.2885
      -205.1514      -200.8220      -227.3785      -238.0906      -216.1879
      -210.1064      -207.3643      -208.9286      -210.3544      -198.0132
      -170.2042      -180.9146      -187.7835      -135.0825      -181.1216
      -210.2279      -131.5347      -150.6987      -132.9351      -109.7617
      -132.3587      -78.77179      -69.42389      -143.2430      -120.2937
      -44.67343      -69.72821      -72.55413       3.350586      -40.95718
      -82.10152     -0.5580215       32.43690       26.07849      -9.683014
       39.34418       88.70177       33.50116       43.91879       94.94464
       120.5412       94.01489       74.08432       53.70847       39.46225
       104.9242       133.5545       93.31015       77.92715       76.42560
       147.6250       168.3654       104.6799       143.0887       193.3289
       147.1401       125.1570       187.3474       197.6148       186.4202
       192.0640       143.3021       159.7347       180.1573       154.5775
       170.3886       235.1970       225.8763       176.2847       206.8065
       217.7746       234.0244       193.6372       142.4726       204.9629
       191.1396       170.8821       220.0017       245.4271       195.9506
       143.3121       204.2805       212.9058       180.6046       184.0042
       174.7440       180.9486       164.9698       165.7682       177.1324
       178.0656       180.4746       177.2954       146.9434       167.8300
       182.1582       100.5920       92.82712       157.8396       143.5478
       113.9518       132.4250       102.5557       79.76994       89.50565
       55.87576       88.06317       91.38227      -19.51926      -3.168709
       42.71578      -15.73228      -2.793110      -19.49647       6.750168
       8.107201      -37.05515       15.85870      -52.43741      -83.18428
      -39.01173      -46.17704      -14.78477      -20.58990      -81.89368
      -87.48856      -52.89673      -70.89471      -120.1284      -144.0729
      -121.8037      -138.0528      -146.4155      -104.8792      -80.49335
      -138.7823      -205.7886      -174.9120      -135.4463      -169.2869
      -175.2858      -150.7980      -150.1028      -154.8243      -199.5573
      -192.4996      -148.8771      -195.4064      -158.3098      -106.7822
      -178.8724      -174.0617      -131.7400      -162.1154      -144.4404
      -141.6549      -163.6926      -113.3917      -91.45392      -111.2128
      -94.70471      -137.5824      -145.2464      -69.63281      -78.46027
      -144.6549      -142.0974      -105.7175      -120.4113      -119.2200
      -89.55371      -81.88147      -147.9090      -119.6592      -28.28845
      -104.0890      -123.8144      -33.68420      -55.61607      -51.29303
       4.766388      -30.87497      -18.04599       13.10493      -14.99842
      -38.68165      0.3521118       53.80233       14.80762       45.00189
       106.8994       21.18792       22.50963       47.29105      -5.545837
       110.7216       68.04968      -16.20377       128.8042       103.5678
       20.97693       107.5569       133.2470       31.63620       81.89462
       156.5832       77.24194       94.52850       132.2256       107.8218
       133.8520       149.9944       145.8059       105.5739       105.5677
       159.3702       162.7330       185.1782       167.0422       128.7337
       140.9985       126.3854       139.0648       161.1533       127.7505
       132.6706       163.4905       140.2440       137.2311       113.0042
       115.6124       143.9307       59.21075       66.35632       187.2766
       116.1462       58.09900       126.5851       68.14224       51.51880
       147.1977       147.3447       84.02496       65.22961       127.1502
       180.7349       74.13867       39.83917       148.2980       124.6174
       79.12756       92.27658       75.80167       3.143517       2.259964
       74.75964       82.37236      -6.243538      -47.29153       70.11517
       50.96903      -22.13256       13.11696      -35.11735      -20.64697
       28.19153      -19.80670      -18.07701       4.580978      -7.180913
       7.146637      -28.70038      -32.21434      -21.41553      -48.89119
      -37.64742      -37.10946      -7.883244       18.04701      -31.80609
      -40.57184      -12.93317      -42.52237      -50.83286      -38.71814
      -52.21231      -24.79810      -40.02141      -35.47997       9.034027
      -76.52914      -132.7675      -67.49835      -76.59113      -99.84450
      -64.38489      -75.55252      -78.16188      -33.30374      -77.18286
      -96.31569      -39.54065      -63.59131      -137.5125      -132.2390
      -8.568329       2.947449      -110.4193      -109.0112      -82.40698
      -69.89420      -85.11581      -99.61064      -48.87567      -68.72968
      -120.5139      -81.46005      -79.80457      -119.4028      -94.73914
      -71.74023      -142.8208      -161.1807      -111.9330      -137.0380
      -160.4365      -111.5344      -107.6287      -137.0880      -114.6443
      -118.1077      -133.5593      -119.2052      -133.7740      -147.1286
      -126.4142      -111.8568      -125.1589      -106.2649      -106.6091
      -156.7050      -132.6049      -79.25226      -76.03806      -106.3409
      -135.2637      -123.1299      -119.5503      -67.87061      -93.91678
      -173.3636      -72.77969      -39.69513      -123.8265      -112.4101
      -123.4552      -119.3415      -42.67442      -22.64751      -37.70944
      -56.77293      -76.27786      -59.99025      -50.03133      -63.38918
      -19.33841       23.14044      -52.60496      -60.96094       10.44278
      -2.491404      -14.43188       39.54607       39.08529      -3.620605
       26.24687       77.04050       79.40205       54.28422       45.41818
       26.81934       37.89246       74.83875       96.27179       106.9715
       92.87433       91.24524       115.4473       139.5300       134.0583
       124.2742       176.5456       195.9537       131.3102       156.5376
       232.4845       221.3325       215.7181       231.8226       259.7805
       240.0459       224.8417       321.6210       275.0764       224.2206
       320.1777       302.2393       254.9108       295.0803       348.8956
       326.8147       310.7468       360.1632       383.1576       341.3335
       307.8108       351.8484       374.7900       348.2709       356.4194
       383.1437       356.7312       387.9092       437.0917       394.6475
       400.0398       415.3665       372.7661       408.3159       457.0414
       480.3452       408.2498       327.1517       455.2490       500.7114
       396.5869       410.9305       431.9957       394.2606       390.1732
       389.0720       408.9709       436.7386       390.6028       361.7917
       345.8164       334.9592       375.6808       364.4323       320.2817
       327.2626       320.3226       307.3594       324.4525       326.6976
       258.9323       237.4335       276.6364       303.0232       322.8231
       263.6599       209.8589       187.4813       197.9208       212.6918
       168.0692       178.5459       189.4920       146.5774       93.32233
       95.17212       109.2621       91.15828       92.27348       59.50827
      -15.33374       8.114815       56.73738      -9.601288      -40.45332
      -50.62721      -73.02571      -25.67006      -34.37073      -103.4881
      -101.9048      -100.5901      -159.3991      -149.0567      -108.3784
      -132.6588      -132.2714      -117.4756      -153.1557      -214.0627
      -215.6443      -190.4589      -215.2704      -198.4772      -213.5871
      -261.5228      -248.3552      -323.3205      -335.8386      -212.4083
      -271.0237      -357.6736      -321.0480      -285.1207      -313.2932
      -355.4602      -345.2181      -349.2498      -351.0646      -316.9934
      -335.1086      -359.3044      -353.4210      -389.3623      -400.0022
      -363.5110      -368.3809      -381.0914      -372.4960      -324.1963
      -342.7932      -424.9890      -402.2864      -382.6543      -373.6475
      -348.4519      -385.3916      -403.5208      -394.8855      -376.0880
      -350.1133      -381.9518      -403.2385      -412.2616      -464.1677
      -411.8466      -366.0472      -366.0381      -309.6050      -358.5247
      -372.6865      -301.3362      -385.2185      -387.2611      -302.9766
      -334.1561      -342.2399      -291.3234      -272.8812      -307.1316
      -329.9296      -314.5339      -315.7738      -310.4229      -285.1609
      -285.4609      -294.2845      -235.7018      -246.6917      -328.7019
      -253.6515      -230.0831      -278.2193      -244.2842      -213.9716
      -184.1133      -154.4494      -201.3544      -268.6497      -217.6683
      -198.0540      -206.5129      -139.7278      -140.6882      -168.1936
      -160.0716      -153.3120      -147.1579      -149.3235      -108.9850
      -85.80045      -87.05385      -62.92709      -68.87250      -76.14481
      -42.06932      -24.50920      -67.92630      -37.81980       51.21204
       23.86341      -33.73108       47.00040       109.9567       7.514702
       9.684814       93.41251       62.98268       59.88068       79.58801
       112.1299       124.9292       53.67407       73.34869       161.5379
       238.9827       240.5922       141.4269       117.8799       170.1305
       204.5547       265.6016       291.4371       232.9254       221.2399
       249.9433       218.4248       227.8368       294.6918       300.4670
       279.8701       291.4421       279.6993       274.9480       217.3643
       201.4097       349.1531       362.8333       250.8411       258.0586
       273.5444       254.9009       322.4575       387.9795       381.3229
       341.7668       284.2137       267.7719       311.9348       314.4467
       290.9065       315.0332       323.2827       288.7013       287.9612
       316.4264       273.2210       226.6404       249.5125       266.9203
       233.9840       210.4525       213.1757       213.5241       236.0688
       230.7356       211.4559       217.4771       207.9729       211.2036
       213.5555       210.9551       167.9148       146.4234       140.6194
       150.3601       173.9884       146.5553       155.6168       143.6745
       76.86411       53.83170       67.65869       91.85828       100.0365
       88.29143       95.14777       44.71997       7.241699       69.72281
       74.49838      -5.224693      -35.01523      -21.46721      -32.39987
      -45.03174      -82.15045      -126.5468      -127.5660      -143.2862
      -121.4632      -69.93903      -93.11774      -129.9193      -102.8199
      -96.59219      -144.5385      -172.5274      -172.1138      -166.9643
      -193.2352      -214.2652      -178.8115      -158.7839      -184.5379
      -221.8849      -243.8804      -215.1804      -225.9480      -272.2400
      -219.6221      -209.5042      -260.8273      -235.5743      -248.3533
      -252.0957      -193.6294      -270.2894      -345.7520      -288.4496
      -237.1274      -251.3660      -288.0544      -263.7760      -224.3010
      -288.0271      -298.7944      -230.7197      -236.9486      -268.5299
      -232.6519      -172.7490      -168.5189      -263.8881      -290.9717
      -223.3538      -231.7451      -190.6027      -173.8170      -231.1541
      -194.8757      -164.7285      -169.0784      -193.7411      -189.9902
      -193.2400      -252.9101      -248.3638      -232.0756      -220.0145
      -149.8221      -126.3969      -167.9757      -177.2844      -155.4857
      -111.1981      -111.0956      -171.6560      -132.1765      -76.65802
      -122.6330      -96.50427      -23.85297      -84.17517      -125.6942
      -67.39873      -8.764435       16.61243       7.523632      -11.88031
      -11.36361      -20.50732      -23.57669      -35.41754      -88.44040
      -20.23752       65.32535      0.5973511      -58.05374      -133.6882
      -209.9135      -64.02029       152.4308       186.8277       160.5136
       88.48814       18.34137       131.1119       248.1211       319.3917
