     0.02500000      -408.6289       457.4625      -12345.00      -12345.00
      -30.00499       199.9950      -42.02000      -12345.00      -12345.00
       0.000000      -43.02000      -12345.00      -12345.00      -12345.00
      -12345.00      -12345.00      -12345.00      -12345.00      -12345.00
      -12345.00      -12345.00      -12345.00      -12345.00      -12345.00
      -12345.00      -12345.00      -12345.00      -12345.00      -12345.00
      -12345.00      -31.13820      -64.95640       1252.000       0.000000
      -31.37200      -68.11800       0.000000       97800.00       0.000000
      -12345.00      -12345.00      -12345.00      -12345.00      -12345.00
      -12345.00      -12345.00      -12345.00      -12345.00      -12345.00
       302.2434       85.89768       264.2650       2.717527      -12345.00
      -12345.00     -0.1273288       0.000000       90.00000      -12345.00
      -12345.00      -12345.00      -12345.00      -12345.00      -12345.00
      -12345.00      -12345.00      -12345.00      -12345.00      -12345.00
      2008       244         6        45        47
       420         6    -12345    -12345      9201
    -12345    -12345    -12345    -12345    -12345
         1         7        13    -12345    -12345
    -12345    -12345    -12345    -12345    -12345
    -12345    -12345    -12345    -12345    -12345
    -12345    -12345    -12345    -12345    -12345
         1         1         1         1         1
ESP06   -12345          
01      -12345  -12345  
-12345  -12345  -12345  
-12345  -12345  -12345  
-12345  -12345  -12345  
-12345  -12345  -12345  
-12345  -12345  BHN     
XH      -12345  -12345  
[...]
      0.6409416     0.02136230      -8.902763      -19.22315      -19.14499
      -25.47560      -36.18216      -41.94321      -45.83826      -54.01546
      -66.53108      -72.96938      -74.45953      -78.49640      -87.59363
      -95.17825      -99.31097      -108.4760      -116.2538      -120.2079
      -124.1013      -132.2957      -142.7021      -150.3253      -151.0210
      -149.5001      -153.7172      -160.5763      -162.9638      -162.6511
      -170.9707      -172.9739      -174.1973      -176.8965      -178.8527
      -180.0236      -177.9966      -178.6227      -184.4503      -188.7706
      -193.4966      -195.8435      -198.4096      -201.6044      -209.0615
      -210.1942      -210.7324      -211.8494      -214.1790      -220.2239
      -224.3569      -221.6169      -225.5865      -232.3525      -236.4670
      -237.9062      -241.6191      -240.3632      -241.5383      -240.9639
      -238.0545      -237.5991      -244.8777      -246.7039      -244.3232
      -246.4655      -243.9772      -239.8468      -243.8125      -241.0195
      -234.0554      -226.0989      -224.0573      -218.7244      -209.6069
      -206.4975      -205.5664      -201.5941      -201.5558      -195.9340
      -193.8449      -191.4557      -182.3553      -176.3057      -178.8128
      -171.7843      -165.2789      -163.7289      -156.1330      -146.9874
      -137.0653      -123.9855      -120.6289      -115.3941      -105.4586
      -96.33139      -88.98425      -84.59789      -82.33324      -70.24049
      -62.73732      -59.85316      -53.21718      -45.77781      -38.44405
      -30.61832      -30.79717      -21.81977      -11.94928      -13.76637
      -11.92254      0.6451359       7.137241       12.54760       17.32976
       23.11227       27.25774       34.04019       42.31683       46.91492
       46.00357       55.90659       62.72542       68.83942       75.67976
       83.79169       86.93103       90.68539       97.62103       101.3310
       101.8187       107.0131       107.7377       108.2754       112.5528
       116.1414       116.5588       121.4163       125.9772       123.7263
       118.2032       124.5083       124.0412       119.5079       121.2586
       122.4000       117.3763       111.2044       109.9243       112.3795
       110.6615       109.8768       107.0174       102.7111       100.3220
       105.6885       107.1514       109.0896       108.3669       103.6057
       104.6672       102.6792       93.03244       88.77834       81.51715
       76.25807       69.32089       64.51819       59.49126       52.58327
       44.01461       36.20322       26.54017       24.10706       21.22909
       17.47361       3.891502      -5.020498      -5.409920      -9.918941
      -17.53796      -15.54453      -21.33218      -26.22414      -30.36627
      -39.55768      -46.47224      -44.76184      -43.05554      -47.33885
      -56.77538      -56.96114      -58.91907      -61.17928      -65.29486
      -68.24069      -73.55182      -75.49794      -70.58408      -71.94046
      -78.08517      -76.86795      -78.86282      -83.48178      -89.04193
      -86.76141      -85.70770      -85.87628      -84.21695      -86.22498
      -88.06299      -84.79669      -82.97847      -80.74741      -76.54376
      -67.76019      -63.70616      -57.21811      -50.58080      -47.74277
      -46.90044      -36.08611      -28.66438      -26.82999      -24.85134
      -12.63707      -6.112976      -5.617767      -5.401697       2.296917
       5.598816       9.966099       11.26344       15.23471       20.34146
       28.80394       29.71788       38.50348       42.54919       46.26205
       49.86113       60.74161       68.71063       71.05383       80.12878
       94.76251       95.79269       102.7115       109.5976       120.8684
       126.7375       126.4091       127.1859       136.7994       141.1066
       142.0950       148.4711       155.6328       159.2762       162.8910
       159.4792       165.4839       169.8392       165.8445       168.6364
       176.9985       177.4153       180.1676       179.3290       181.0109
       181.6544       181.5345       182.2393       181.9213       181.6371
       182.2117       182.8348       186.3529       183.0969       179.7256
       182.5701       183.8649       181.3408       182.6948       183.8894
       180.6913       178.4773       177.9691       170.4325       165.9174
       166.4061       161.1036       156.6163       155.8058       146.5353
       140.6368       136.8804       128.6044       121.8487       122.6922
       121.4384       112.7201       104.4130       103.6871       97.63431
       94.20395       88.49039       76.82483       74.46165       75.56670
       68.15073       65.27061       59.57529       53.33781       45.83153
       38.95589       31.69493       25.77203       18.52518       9.876176
       6.024433      -2.346008      -15.90680      -18.63878      -23.04684
      -35.12172      -43.59026      -48.40196      -52.24428      -57.63408
      -63.03955      -70.66565      -82.64880      -87.62903      -93.64404
      -97.74811      -104.7241      -113.0150      -114.7959      -118.3552
      -125.7826      -127.6856      -132.8506      -138.6581      -139.5449
      -143.1605      -150.5325      -153.1570      -159.8315      -164.1985
      -168.9922      -173.1938      -174.6285      -178.2485      -184.1101
      -185.0557      -193.6710      -200.5102      -202.7913      -208.4818
      -212.3827      -210.5562      -212.2239      -215.6550      -216.2292
      -214.3316      -206.7848      -203.7820      -206.2981      -204.7648
      -208.6314      -201.5084      -192.8895      -193.6507      -192.0417
      -194.9442      -194.9250      -187.5863      -190.0553      -195.7285
      -198.8796      -197.8193      -202.0533      -206.9453      -206.0401
      -208.3214      -213.1083      -214.8046      -220.3932      -227.9690
      -231.0101      -232.0397      -234.3196      -234.6431      -237.8724
      -242.3058      -240.3968      -240.4901      -245.3020      -246.2862
      -245.9247      -245.0731      -243.7370      -244.6237      -240.0732
      -237.4904      -238.4068      -236.3870      -228.6714      -222.6127
      -221.5001      -217.9737      -212.9012      -213.7792      -207.6548
      -199.8466      -194.3496      -188.6407      -183.6631      -174.9262
      -165.4401      -159.1542      -147.2727      -133.2622      -126.4363
      -122.7713      -112.4863      -98.10875      -84.45634      -69.89873
      -59.94099      -45.42125      -32.68710      -21.83724      -12.30969
      -3.552269       10.74365       24.04863       34.41058       47.72964
       56.57901       64.08911       72.36884       83.47070       94.86105
       107.1898       113.6378       122.4965       133.5862       137.7780
       143.2761       153.6262       165.4022       177.5206       186.3165
       197.4825       205.7097       215.3716       227.0034       235.7052
       240.8604       254.2693       265.8169       275.3748       285.4980
       290.9929       296.0188       306.4545       315.8217       323.3745
       324.4031       328.6755       333.2352       337.8926       343.7899
       350.7971       355.2688       353.8760       350.1493       349.4856
       350.3665       353.1749       351.2057       350.6141       351.8442
       349.5370       345.5339       349.7235       350.7948       348.6598
       348.2250       343.3951       338.3484       339.4791       337.3817
       334.6369       327.9089       325.5115       323.0197       313.1829
       307.2169       305.2371       299.3420       294.6605       282.4124
       268.9502       263.8696       261.8787       250.3267       241.5620
       232.3657       221.6292       212.8337       205.2123       195.1965
       186.1134       178.6586       171.2009       159.6900       156.9484
       149.4930       137.5227       131.6776       123.6730       113.3981
       110.2887       101.0356       89.08966       83.31613       77.24748
       63.16043       54.07037       42.55711       29.83194       25.01812
       14.90187     -0.9415245      -9.848923      -18.15078      -28.90781
      -42.49646      -53.38113      -62.13672      -72.29572      -84.34903
      -91.83145      -98.13058      -110.6572      -119.7601      -125.2653
      -131.0833      -135.4326      -142.8917      -146.4040      -152.9102
      -158.9276      -161.5112      -169.7173      -175.8509      -178.1541
      -183.4117      -186.6687      -191.0344      -196.3034      -203.1829
      -208.9288      -214.1332      -219.8237      -222.2472      -224.8580
      -233.0890      -234.6198      -234.9508      -239.7709      -246.7929
      -244.8802      -241.0410      -247.2596      -252.1494      -253.2599
      -254.2979      -248.8966      -244.6860      -240.9146      -240.6108
      -237.3660      -232.9475      -228.3119      -224.2865      -218.1912
      -214.7138      -214.1453      -213.1092      -210.6973      -209.8556
      -201.4711      -198.0505      -195.7749      -191.1071      -181.1929
      -177.0850      -175.5297      -171.3387      -165.8732      -166.4672
      -162.7088      -156.5379      -152.5419      -150.6547      -139.8889
      -132.1261      -129.8528      -127.3516      -116.7833      -109.8425
      -97.64948      -88.20894      -81.30006      -75.18465      -64.63396
      -55.48065      -46.28670      -36.20171      -31.95867      -28.24691
      -11.81896      -2.903477       5.081432       12.80711       16.63530
       22.90214       35.30974       39.66498       44.66582       55.78679
       64.40593       65.71707       74.76788       80.29926       85.51862
       96.70645       107.3573       113.1263       119.1602       126.0865
       136.4664       140.4837       145.0150       153.3254       158.3257
       160.3642       166.3656       172.2968       175.5718       174.2236
       173.9106       177.0106       183.6871       184.7161       187.3134
       192.6743       188.5563       188.5620       191.3058       188.2715
       189.9011       193.2007       194.1960       190.1436       187.9624
       189.1678       188.8268       186.1324       189.5383       190.8327
       191.8961       192.1305       191.5152       189.8128       187.9050
       185.2119       185.3427       183.8352       176.8109       173.9330
       177.2172       174.0799       166.1710       158.1169       157.2702
       152.9226       142.2119       137.5388       130.4229       121.3688
       117.0002       107.1408       98.35095       93.99026       83.85403
       76.16991       70.89070       62.15904       54.29094       43.84242
       32.66400       23.09573       17.66309       9.919773      -3.234219
      -15.28333      -24.18268      -34.52443      -46.77368      -52.17699
      -61.12366      -74.88699      -84.09155      -95.90387      -109.5636
      -117.3818      -130.5821      -142.5829      -149.4024      -159.3395
      -170.5763      -180.2565      -190.7137      -199.3953      -208.1519
      -216.8085      -226.6095      -237.4835      -244.4623      -249.5402
      -262.5974      -269.2836      -271.6057      -279.8831      -284.6372
      -294.9316      -302.7286      -303.8723      -313.1494      -321.4554
      -322.3917      -325.8009      -334.1842      -340.6123      -340.0969
      -346.0648      -348.1083      -350.0586      -356.0771      -356.0151
      -357.9895      -363.0013      -358.1592      -356.4915      -353.7338
      -354.8776      -355.2006      -350.2676      -344.6383      -339.3597
      -330.4709      -327.5760      -321.7567      -313.2712      -304.8455
      -302.3431      -295.0145      -285.2456      -277.4851      -269.7007
      -261.9929      -253.2545      -240.5782      -233.2284      -226.4520
      -218.9616      -209.2236      -197.2678      -187.1327      -178.2332
      -167.7204      -154.6630      -143.9952      -135.2852      -123.1917
      -108.1370      -94.74565      -83.83478      -68.44621      -53.17228
      -39.69332      -24.18684      -7.381958       10.84750       25.19572
       41.18002       57.57034       74.55255       91.53848       106.9302
       119.8464       134.9614       151.8259       164.2974       175.9525
       192.0696       205.0204       216.5630       229.1497       239.6255
       251.3881       261.8284       276.1985       289.5554       298.2679
       308.0338       320.6278       328.5791       337.6689       349.8408
       361.8162       369.7151       380.1660       389.0570       396.8774
       404.4448       417.8992       425.6271       431.6465       440.1210
       444.7561       443.8782       452.1879       456.2061       455.2772
       453.1227       454.4106       455.3438       457.4625       453.6829
       445.9932       441.2866       438.7891       432.4854       428.3223
       418.3883       407.2959       400.4530       394.6892       386.2001
       375.9552       369.6987       364.3663       350.8090       336.9844
       327.9009       320.4755       308.7714       297.5071       286.9724
       273.7039       260.6298       242.4246       224.9562       210.2510
       197.2428       183.8879       165.8625       152.2723       135.6092
       122.1963       109.9898       95.41373       82.91653       73.42523
       55.54248       41.43896       27.82729       12.46274     -0.3602371
      -10.69226      -19.57149      -26.53475      -37.86993      -48.39734
      -56.58701      -59.83257      -69.15109      -81.47183      -85.62796
      -85.72803      -94.01129      -102.9983      -109.3010      -108.0219
      -114.1684      -113.9315      -121.0836      -129.1326      -132.6524
      -129.3437      -133.7041      -139.4208      -135.4797      -141.7241
      -147.0773      -143.6791      -144.2214      -144.9097      -149.5198
      -148.8493      -148.4051      -150.0828      -150.0073      -145.2979
      -143.9318      -141.6547      -138.7719      -139.7505      -143.8862
      -138.9601      -138.0083      -138.4341      -135.8835      -134.9002
      -136.9577      -140.4202      -142.4987      -141.5622      -143.9840
      -147.1340      -147.2126      -150.8195      -155.4474      -160.1997
      -161.5145      -165.1313      -173.2939      -174.7455      -179.0518
      -183.7300      -184.1720      -183.1089      -184.1215      -189.2343
      -192.1425      -187.6747      -188.2170      -192.8945      -193.0701
      -193.1956      -199.7986      -196.2159      -190.5338      -196.6551
      -200.5494      -195.8244      -199.8120      -204.6791      -206.8297
      -199.9520      -201.3109      -206.8551      -202.4490      -202.0303
      -209.7781      -209.6594      -200.9107      -205.0910      -212.8744
      -208.7500      -204.4025      -200.5937      -202.1578      -199.7579
      -194.5178      -199.8729      -199.3549      -189.5914      -186.1317
      -185.9192      -183.0734      -180.8250      -182.7722      -179.6335
      -170.7472      -169.7215      -170.2584      -168.4371      -166.5212
      -166.9395      -160.8137      -158.1831      -158.5136      -154.5155
      -152.3303      -151.0844      -140.8727      -137.4889      -136.8394
      -133.7526      -128.1755      -122.9241      -120.5483      -113.7670
      -105.9238      -104.2614      -97.60355      -87.66440      -84.82162
      -81.39691      -69.86411      -61.96606      -53.56998      -47.07640
      -44.89542      -42.17426      -35.60266      -27.24208      -20.69865
      -15.38908      -10.86886      -6.529120      -3.235985       3.913200
       11.55598       16.55633       21.90379       28.19734       39.73047
       42.90747       42.32866       49.12418       59.18228       64.90617
       68.08037       75.63293       86.05219       91.40021       92.13455
       102.8706       115.3055       118.1649       127.5526       138.0350
       139.0460       144.1746       153.1689       155.1039       157.6942
       165.6228       169.5260       174.6776       177.3356       180.0898
       185.9581       188.6827       196.0037       201.5248       199.4636
       202.9960       210.2787       217.3730       220.8611       219.8779
       225.6493       233.0081       232.0994       234.7804       238.5582
       240.2128       241.9418       247.1801       250.4186       249.0830
       250.7623       252.2681       249.3376       246.7247       247.0598
       246.2939       245.5331       241.6628       237.9775       236.6666
       233.4343       229.9107       225.8767       222.9222       217.8277
       209.7686       205.2103       199.5546       195.2421       192.3428
       184.8084       174.3967       171.2386       166.4798       159.3422
       152.5300       145.5826       137.2272       128.4344       121.6055
       117.2286       108.4891       102.1950       94.93752       85.48428
       77.19643       70.47580       62.53937       54.40756       47.92265
       39.50452       31.08841       27.14276       16.53396       9.565186
       4.955898      -2.296412      -7.995445      -15.41924      -22.68669
      -27.17419      -33.57954      -39.02174      -42.11023      -46.22188
      -49.08658      -54.03577      -59.50699      -59.35443      -63.26953
      -69.34448      -72.52802      -75.70305      -79.48160      -81.85226
      -85.54428      -88.06052      -91.22653      -94.91376      -98.25696
      -101.4428      -103.5886      -104.5748      -107.8660      -108.9409
      -108.8518      -110.7582      -112.9801      -113.1603      -115.4087
      -114.9851      -112.2981      -112.2885      -113.4933      -114.2171
      -113.7270      -111.0137      -111.2552      -110.1129      -108.0532
      -107.3358      -106.1375      -102.7640      -101.1472      -98.27823
      -96.33490      -94.47626      -91.83624      -89.79190      -88.38901
      -85.79825      -84.47054      -81.87527      -78.81265      -76.00282
      -74.64511      -71.34027      -68.12660      -65.47522      -63.15408
      -59.84608      -58.28317      -54.52538      -50.33463      -46.95963
      -44.67203      -41.59661      -38.56548      -35.78590      -32.09486
      -29.23857      -27.81906      -24.62325      -22.61485      -20.37416
