     0.02500000      -1384.009       1358.718      -12345.00      -12345.00
      -30.01999       238.9300      -38.81000      -12345.00      -12345.00
       0.000000       28.36000      -12345.00      -12345.00      -12345.00
      -12345.00      -12345.00      -12345.00      -12345.00      -12345.00
      -12345.00      -12345.00      -12345.00      -12345.00      -12345.00
      -12345.00      -12345.00      -12345.00      -12345.00      -12345.00
      -12345.00      -31.26510      -65.22400       1042.000       0.000000
      -31.37200      -68.11800       0.000000       97800.00       0.000000
      -12345.00      -12345.00      -12345.00      -12345.00      -12345.00
      -12345.00      -12345.00      -12345.00      -12345.00      -12345.00
       275.7139       88.28537       266.7882       2.479004      -12345.00
      -12345.00     0.09559933       90.00000       90.00000      -12345.00
      -12345.00      -12345.00      -12345.00      -12345.00      -12345.00
      -12345.00      -12345.00      -12345.00      -12345.00      -12345.00
      2008       244         6        45        44
       210         6    -12345    -12345     10759
    -12345    -12345    -12345    -12345    -12345
         1         7        13    -12345    -12345
    -12345    -12345    -12345    -12345    -12345
    -12345    -12345    -12345    -12345    -12345
    -12345    -12345    -12345    -12345    -12345
         1         1         1         1         1
ESP07   -12345          
01      -12345  -12345  
-12345  -12345  -12345  
-12345  -12345  -12345  
-12345  -12345  -12345  
-12345  -12345  -12345  
-12345  -12345  BHE     
XH      -12345  -12345  
[...]
       149.4148       175.3033       83.42279       51.83807       107.6569
       156.8591       79.40417       64.56976       169.2752       175.4824
       186.7609       231.9572       148.5406       95.29056       92.27507
       42.90282       57.65759       122.1014       88.00558      -27.71204
      -10.09493       31.51474       3.896179       16.03975       72.49185
       89.66931       88.02550       83.03051      -7.703960      -22.30234
       84.66998       23.36942      -58.22559       57.85985       37.91934
      -95.99075      -77.60129      -50.32797      -65.14587      -100.2935
      -134.5702      -112.7422      -46.81189      -33.83218      -114.2616
      -120.8683      -84.50891      -127.0911      -185.7025      -169.0641
      -71.55597      -89.56793      -170.5363      -192.3535      -195.0576
      -122.5645      -103.3449      -140.9424      -138.4097      -193.3346
      -189.6236      -92.32626      -153.1035      -186.9638      -108.5299
      -123.6531      -194.4304      -202.1898      -151.5795      -146.1221
      -168.2574      -212.6525      -236.3844      -157.9465      -113.6580
      -135.5343      -160.3673      -206.2292      -145.1234      -89.06769
      -218.2379      -239.6384      -79.54437      -109.9337      -238.4788
      -196.3151      -169.8412      -197.2477      -143.5797      -96.51566
      -138.7855      -175.7499      -185.4390      -172.4297      -168.3048
      -102.2090      -40.15240      -96.65323      -113.3169      -96.44620
      -107.8586      -113.6095      -80.72314      -134.1227      -120.9546
      -55.31415      -122.6625      -118.9079      -85.98488      -81.35748
      -62.66302      -73.40430      -119.0021      -18.13757       32.99313
      -82.33438      -20.45938       31.64389      -93.45471      -124.1857
       27.90718       58.65057      -87.12762      -92.62642       38.26274
       83.68294      -19.78210      -83.08191      -41.73140      -1.136253
       3.342331      -33.43933       81.54480       186.1805       70.52124
       17.54416       59.54846       54.77140       37.33496       52.55951
       89.93076       153.1410       64.20453       11.89719       150.2062
       136.6088       45.90723       2.815735       47.63779       86.08246
       72.72803       222.5840       307.8780       137.4639       31.09991
       142.9001       168.3949       100.4362       169.9579       225.0818
       159.0044       140.3971       120.4587       121.2633       150.5003
       109.2754       197.8127       224.3357       100.4525       107.1205
       135.3073       191.9093       202.1442       138.2814       195.1149
       194.3576       152.0638       120.5423       37.94049       118.3273
       244.0212       158.3631       41.45282       144.7173       230.9377
       213.4429       169.2325       84.88306       144.7170       139.1150
       75.38885       137.9256       161.3500       162.1806       166.0968
       126.2579       135.8343       236.3282       214.8305       87.68872
       77.70221       155.6639       207.4073       131.4601       79.22729
       220.5965       298.3664       135.6558       34.52603       122.7382
       192.5663       184.7631       131.5081       150.6912       180.1047
       102.3560       84.58673       153.3331       141.3935       67.59232
       46.26468       97.37183       187.3551       247.5489       173.4220
       41.43817       46.39572       80.52502       128.1219       194.5542
       112.5870       63.04865       117.0272       100.1624       68.56194
       47.14973       9.051571       11.62640      -8.809860      -55.67502
      -39.28436      -30.77676      -43.93631       82.14378       116.8888
      -29.02293      -49.68536      -48.79027      -40.85436      -6.911011
      -85.40659      -134.3876      -42.14360      -4.163605      -66.48883
      -45.71433      -4.531937      -21.94110      -92.61124      -135.1882
      -24.14240      -24.50790      -150.3652      -128.8651      -79.49591
      -120.5334      -109.6720      -73.16342      -119.0701      -196.7858
      -203.3514      -198.5105      -216.8905      -181.1741      -185.5276
      -203.6098      -170.6396      -153.6165      -122.1006      -181.2379
      -252.1080      -241.1509      -240.8734      -168.0496      -178.2020
      -320.6046      -280.3140      -209.4105      -264.8123      -286.6616
      -298.6956      -277.2201      -218.2612      -216.3020      -242.9316
      -278.7672      -350.5143      -378.2742      -312.9436      -287.8892
      -350.9318      -343.2966      -258.6747      -332.4143      -406.7504
      -279.3228      -233.1911      -269.6581      -283.4302      -310.7407
      -289.0020      -279.6089      -268.3033      -225.5385      -236.3347
      -273.2206      -258.1524      -202.1157      -217.1217      -274.0433
      -303.5500      -274.1016      -179.2594      -170.4344      -208.7591
      -148.5354      -180.4716      -290.4961      -173.4968      -103.6693
      -181.0367      -149.2559      -96.09448      -76.28339      -110.7050
      -121.6266      -49.68890      -55.69562      -110.9439      -84.24615
      -27.30325      -57.70038      -99.29797      -73.35465       9.366585
       42.35342       6.801548       17.94529       1.334486      -14.42759
       1.336243       44.35236       153.1193       71.92485      -23.12231
       79.49872       147.6329       136.4869       117.2852       143.3369
       143.9188       120.5023       111.3856       80.37817       153.1502
       241.4281       194.1725       201.5087       221.0273       158.5010
       180.3898       240.8655       241.4524       203.4424       166.5518
       225.4370       274.2328       240.6537       245.5315       224.3507
       258.4167       324.7771       253.8610       287.8457       413.3406
       373.0657       252.6636       228.1412       282.5990       325.4960
       283.9871       301.8376       386.2357       356.6604       322.1963
       256.5632       269.8905       359.8246       316.7077       320.7706
       366.5836       274.4335       200.2494       267.9760       339.7817
       309.2700       213.1981       234.8181       305.4266       272.2314
       251.7208       238.9413       232.8934       295.7296       298.5857
       268.1434       214.9176       181.3881       281.4810       283.3304
       131.2978       88.70410       153.8389       178.9363       181.9921
       248.8754       219.1912       44.36980       13.15594       97.17029
       146.3461       148.2777       57.03551       13.43274       150.1365
       171.2993       14.36778       3.507202       62.46330       22.93002
      -16.15816      -31.16691      -25.24874       3.113859     -0.1921806
       3.932709       38.05783      -22.02036      -111.5527      -59.37964
      -22.80524      -106.9240      -117.3348      -79.33496      -67.09653
      -13.90414      -11.98273      -119.8435      -236.8182      -206.0511
      -102.7161      -84.32663      -99.45251      -126.8433      -89.39206
      -61.27228      -162.9056      -215.4009      -216.8073      -193.1623
      -101.7388      -82.05212      -155.6801      -181.6575      -189.2579
      -255.4106      -296.1919      -209.1229      -91.28992      -140.7512
      -208.5606      -178.7300      -152.3402      -125.0193      -188.5605
      -215.9312      -128.4301      -177.1184      -219.7909      -179.5918
      -237.7987      -217.1481      -162.9209      -229.5023      -165.2934
      -117.3422      -212.1868      -195.3824      -175.0861      -214.9276
      -165.6883      -88.54608      -126.6580      -213.4227      -167.7584
      -118.7010      -119.4220      -98.82608      -117.7170      -92.50243
      -13.58064      -28.76837      -109.6508      -94.48947      -38.00473
      -36.55365      -94.11243      -119.2619      -21.34814      -21.06415
      -92.48376      -112.4256      -65.38120       51.19606      -19.84866
      -118.9567      -3.575249       52.08174      -6.980843       1.951782
       71.08043       83.66606       24.28917       4.033539       53.51855
       92.68715       12.71310      -58.74355       21.79250       72.01566
       25.59523      -23.42167       2.365990       54.20887       19.11615
       37.64230       109.2442       65.79472       19.47780       71.11847
       72.14787       14.42572       58.62869       96.61848       63.87114
       50.94110       77.91904       123.0769       57.68047       24.56919
       46.57868      0.2008667       66.32639       126.9311       39.99673
       43.28653       112.0018       34.81897      -77.91841      -34.99388
       41.87213       77.57114       71.47153       29.64553       46.73097
      -8.978027      -76.79829       9.301514       42.49771       30.37878
       52.80817       9.657032      -8.854998       13.08271      -13.70805
      -29.79173       35.81151       79.78285       20.20828      -19.42851
      -26.53893       27.34522       66.14204      -27.75093      -55.63726
      -34.70316      -38.86914      -36.69258      -54.66450      -8.374928
       25.80756      -3.766319      -44.39867      -16.00388       79.26553
       68.51578      -58.75423      -71.07658      -3.152618      -38.69031
      -76.45998      -33.95825       38.93593      -17.04398      -105.4027
      -29.72050       62.71904       35.03835      -38.27965       3.937263
       18.91373      -44.57122       3.366943       118.7911       81.13030
      -46.24666      -23.24210     -0.1067047      -86.86195      -52.14996
       108.6980       108.3908      -47.82687      -68.45837       2.020706
       21.40250       26.76895       34.70607       67.20618       1.779465
      -68.90317      -12.50377       48.12633       24.35917      -10.18452
       32.44550       14.83624      -63.70941      -62.74283      -48.93579
      -56.01944      -33.57404       1.499897       1.850861      -21.52315
      -39.14694      -61.31924      -108.8957      -116.0890      -11.71887
       80.31268       67.63132       28.11709       34.39299       20.46951
      -79.26529      -125.6564      -92.25296      -59.88010      -60.42413
      -116.7764      -107.1366      -29.45219      -56.04620      -59.75645
      -35.56149      -75.97218      -65.98407      -95.29993      -165.0213
      -97.02499      -41.97363      -83.33606      -99.02917      -132.2913
      -133.4712      -70.46851      -111.7514      -192.0421      -116.2967
       10.37459      -31.24344      -105.7952      -97.24707      -110.4922
      -103.7721      -58.60923       15.27599       39.35771      -68.28217
      -94.93206      -28.57907      -34.34808      -114.6439      -108.0434
       28.28443       36.72794      -21.76080      -66.81512      -132.4497
      -27.03452       51.06735       52.00528       54.38873       26.79102
       90.00400       79.17438       73.52795       172.2576       107.0617
       76.90051       153.8531       141.8033       106.3958       59.07050
       58.33681       93.61288       53.58787       6.598816      -28.17369
      -74.37045       30.18628       220.0302       252.1808       226.1482
       242.1538       191.8150       125.5149       82.24785       47.99768
       117.1841       204.3995       173.9821       108.4337       119.2816
       142.5575       136.6995       142.5836       38.37578       8.765961
       85.17856       52.98578       167.2988       281.4242       140.2772
       32.18420       120.3012       222.5705       144.6180       29.88992
       48.59433       93.00815       86.19627       77.87698       61.60724
       75.80127       87.44439       31.50961       39.49075       23.06135
      -38.31580       65.89960       164.7293       82.28235       104.7548
       164.8068       24.87691      -63.97908       36.75269       140.7901
       168.2776       92.19521      -24.36473      -50.06773      -41.68280
       8.087830       84.18619      -19.74249      -118.2202      -62.10123
       33.58105       114.8640       184.1867       217.3769       48.01169
      -96.71609      -46.30426       51.83124       171.7023       150.8982
       83.71725       73.00548      -39.22633      -82.23595      -12.75253
      -14.92468       33.18945       52.06881      -12.43132       26.76062
       76.21833       20.28421      -60.30013      -86.44186      -70.03545
      -86.06575      -26.89597       102.5858       97.48956       79.04657
       258.9507       482.6897       455.6922      -46.76440      -715.9509
      -1126.611      -1174.241      -804.2841      -188.5070       500.9219
       1085.608       1358.718       1255.263       575.6909      -518.5605
      -1124.294      -969.4026      -596.4935       19.42285       680.5195
       791.8069       406.6506      -519.2769      -1378.949      -1384.009
      -858.1541      -39.48389       605.0483       924.8179       932.7034
       450.0781       273.1936       321.7830      -115.0571      -564.6569
      -556.7234      -202.7803      -34.34308      -159.0433       97.02026
       439.7744       322.7102       552.2189       831.3713       153.7987
      -527.0084      -252.0864       299.4731       131.9942      -162.5831
       78.24939       218.6357      -166.3757      -521.2827      -115.8528
       151.1734      -134.1666      -225.1916      -85.38843       387.5044
       711.3374       551.1378       178.9308      -270.8533      -468.4612
      -690.4089      -705.7770       60.63165       218.4250      -438.4269
      -219.1195       381.4346       321.1996       58.85925       199.8273
       394.3354       233.4207       125.0369       202.7761       102.3788
      -411.0872      -776.7694      -467.1697      -48.30664      -339.4659
      -350.4762       369.7462       286.1470      -346.3488      -223.1431
       218.7359      -61.83301      -671.5040      -559.4433      -244.3795
      -322.4576      -42.34991       393.6267       255.5953      -14.89481
       33.43195      -79.17322      -542.9507      -784.3947      -376.2218
       154.2815       205.2765      -17.73682      -221.9597      -527.8213
      -808.2915      -657.6436      -256.6553       51.39771       314.2756
       560.0136       450.2561       66.46930      -266.9893      -365.9266
      -405.0295      -551.5765      -456.6080      -44.74110       87.29785
      -411.3423      -584.6823      -257.4998      -178.5746      -108.6790
       266.0916       645.6689       538.7823       135.6567      -77.67792
      -150.9084      -171.6255      -143.2418      -175.1694      -394.4998
      -556.9706      -473.1482      -226.0279      -76.25851      -104.0706
       1.546753       217.0902       402.4917       307.6553       147.7184
       54.36212      -93.15646       19.21384      -32.65875      -242.3721
      -203.7899      -197.8922      -106.5867      -130.5534      -266.5053
      -23.09625       266.1129       254.7379       298.4956       460.3407
       416.9995       269.1538       62.63849      -165.8577      -114.1950
       30.18465       12.64130      -122.4397      -208.7621       41.65186
       155.1146      -133.5966      -140.7773       247.9283       388.6490
       183.2504       74.16406       258.3394       417.1476       306.0248
       165.9624       208.1805       234.3517       80.20612      -19.91858
      -197.5931      -154.9119       59.11982       28.13766      -69.33086
      -80.99280       124.4970       190.5439       20.09251      -33.96240
       113.6388       244.9841       349.3453       393.7242       184.9596
      -74.40533      -119.9393       97.03961       240.8005       319.8081
       422.2566       335.1981       23.57272      -210.6991      -103.8014
      -36.62488      -98.31067      -60.76892       53.51447       204.4591
       329.5870       181.6481      -145.8422      -106.3866      -25.25639
      -110.6863       279.8414       714.4541       574.5975       253.4368
      -64.02240      -177.2373      -83.80440      -82.25987      -4.626099
       215.3564       274.2274       125.0375       64.58366       80.93262
       48.72783       27.53940       46.94690       137.4759       144.4852
      -89.90155      -193.7333      -29.75018      -55.82495      -192.2109
      -1.873291       390.5208       497.1542       176.6628      -36.82863
       31.53465      -34.83023      -42.42090       295.9114       541.3112
       264.6244      -163.2787      -177.8527      -12.11758      -62.10822
      -193.7122      -214.7238      -23.94452       201.1507       80.30145
       80.36011       402.8799       426.6919       243.3818       125.8486
       55.70042      -8.857658      -71.19366       86.37671       365.2169
       362.9871       290.3299       192.9917      -74.46442      -122.9104
      -96.49059      -9.433228       219.8300       232.3409       139.3578
       46.71838      -111.3715      -259.5301      -243.5494      -58.26297
       77.69595       69.81238       71.84485       184.7054       298.3956
       318.4998       257.9264      -51.23242      -431.1486      -265.7175
       67.28040       215.3940       509.4250       544.6154       107.7449
      -357.8452      -483.3104      -216.3744      -16.22572      -40.06091
      -56.71228      -148.2522      -268.0301      -241.5028      -194.9612
      -265.8423      -372.5507      -349.2867      -251.1294      -131.8570
       64.04883       69.62146      -146.5350      -225.5942      -135.1277
       56.31185       52.73865      -169.2252      -213.1232      -398.9159
      -579.0187      -369.4633      -202.8519      -164.7468      -245.9378
      -360.3461      -253.2875      -245.9185      -273.7104      -158.4929
      -224.7650      -389.0752      -450.6244      -506.3812      -439.1580
      -333.9958      -199.9378       9.733795      -79.54382      -341.2332
      -491.5250      -425.4182      -214.7076      -228.8206      -150.3433
       172.6732       136.8646      -244.6167      -430.3304      -460.2231
      -448.0675      -260.5215      -122.8036      -141.6417      -48.07248
      -41.06946      -313.8671      -537.8470      -526.7900      -425.6810
      -195.8063       83.66730       154.5754      -9.998291      -239.8507
      -441.4589      -529.4222      -383.1787      -58.22513       179.6721
