     0.02500000      -1407.195       2255.759      -12345.00      -12345.00
      -30.01999       238.9300      -38.81000      -12345.00      -12345.00
       0.000000       28.36000      -12345.00      -12345.00      -12345.00
      -12345.00      -12345.00      -12345.00      -12345.00      -12345.00
      -12345.00      -12345.00      -12345.00      -12345.00      -12345.00
      -12345.00      -12345.00      -12345.00      -12345.00      -12345.00
      -12345.00      -31.26510      -65.22400       1042.000       0.000000
      -31.37200      -68.11800       0.000000       97800.00       0.000000
      -12345.00      -12345.00      -12345.00      -12345.00      -12345.00
      -12345.00      -12345.00      -12345.00      -12345.00      -12345.00
       275.7139       88.28537       266.7882       2.479004      -12345.00
      -12345.00    -0.04468462       0.000000       90.00000      -12345.00
      -12345.00      -12345.00      -12345.00      -12345.00      -12345.00
      -12345.00      -12345.00      -12345.00      -12345.00      -12345.00
      2008       244         6        45        44
       210         6    -12345    -12345     10759
    -12345    -12345    -12345    -12345    -12345
         1         7        13    -12345    -12345
    -12345    -12345    -12345    -12345    -12345
    -12345    -12345    -12345    -12345    -12345
    -12345    -12345    -12345    -12345    -12345
         1         1         1         1         1
ESP07   -12345          
01      -12345  -12345  
-12345  -12345  -12345  
-12345  -12345  -12345  
-12345  -12345  -12345  
-12345  -12345  -12345  
-12345  -12345  BHN     
XH      -12345  -12345  
[...]
       184.4449       216.2737       229.0399       341.3469       273.0104
       118.7467       161.3178       213.4135       234.2228       297.5533
       255.6887       190.6092       189.6104       230.4642       275.5056
       270.4987       221.5114       290.6830       344.7784       134.5208
       143.0760       354.9334       258.7512       149.6719       244.0414
       344.0113       299.8109       225.1433       226.5528       214.2919
       186.7189       228.4504       260.4288       232.5420       180.9424
       118.4265       161.8941       254.1388       308.4955       196.4407
       68.24216       170.2281       84.90955       45.95428       205.6788
       56.55799      -43.58122       81.09000       83.17334       40.06226
       94.91174       76.81332       30.72656       32.11887       8.602024
       10.57741      -58.69019      -110.7292      -21.66415       23.97131
      -47.46858      -53.80920      -34.00356      -75.33265      -23.82277
       11.38251      -200.5529      -230.7664      -93.70483      -209.5663
      -198.1815      -61.00677      -143.1722      -232.6367      -204.0548
      -170.6201      -139.5681      -195.9653      -213.3705      -172.1560
      -210.7870      -217.0161      -149.7069      -152.8187      -207.6391
      -179.2068      -139.4175      -112.9634      -130.5355      -194.6230
      -172.3109      -145.2938      -150.6802      -161.7225      -207.3556
      -207.3555      -138.9284      -95.44589      -84.03595      -112.2957
      -109.9906      -54.10982      -45.82520      -64.61960      -110.9535
      -89.27603      -63.66840      -80.30070      -51.84030      -5.743736
       33.28729      -80.32632      -134.9604       12.22653       45.39304
      -13.15863      -65.47397      -71.25414      -21.83611      -22.44609
       4.421188       16.75206       31.81086       46.51239      -6.881945
       3.483391       4.516663       25.09449       30.88682      -13.26481
      -19.23854       1.060745      -23.99978      -20.63248       55.97801
       54.17361       42.33190       47.37241      -3.394787      -33.67146
       57.82059       118.0020       34.25948       17.59033       70.25101
       65.47131       5.920776      -4.769623       52.33880       41.23619
       20.50000       55.40668       20.51188      -5.761795       34.15079
       23.52068       1.465393       53.70799       65.60612      -35.03516
      -55.46820       34.83553       61.69527       43.69345       12.70930
      -83.02307      -61.75370       34.74869      -54.93515      -125.4096
      -64.60468      -43.43292      -48.26217      -6.170479       7.768173
      -42.90337      -85.45041      -5.790714       31.42899      -87.97864
      -144.9552      -141.9550      -117.2853      -101.5274      -114.6583
      -64.01575      -96.00085      -204.8834      -181.1558      -119.2350
      -97.15930      -128.1401      -160.9683      -142.3521      -154.2083
      -168.1905      -129.6041      -106.9317      -141.4949      -195.5439
      -172.5774      -168.2480      -150.5393      -32.48978      -83.36871
      -213.0108      -229.8643      -140.0544      -41.31371      -69.50961
      -105.4075      -113.7967      -140.6876      -105.5616      -97.16650
      -120.7322      -67.79666      -69.73633      -183.2971      -126.8724
      -25.82176      -71.47408       8.283890       63.73318      -14.85748
      -67.19745      -145.9514      -114.2743       56.80191       48.08197
      -84.99751      -29.00835       52.99478       51.44951       71.55067
       82.03992       71.09373       39.71793       57.46307       113.9221
       81.69061       5.915649       66.91867       138.6965       95.93301
       85.70819       139.0002       121.8180       88.12384       133.8532
       169.9548       172.5324       89.31390       99.18317       192.8812
       230.7988       230.6070       179.9765       150.0894       158.9688
       249.2770       191.2470       27.44183       110.4573       183.4115
       172.1137       211.3186       208.9260       189.6766       151.0643
       141.1724       227.7345       254.0511       168.7365       126.0322
       165.0063       223.7156       145.0976       29.44232       107.5683
       166.1868       83.30627       139.6194       273.8804       214.5565
       145.7571       136.6611       181.3501       195.4219       77.82159
      -4.591446       27.35939       46.67664       43.62286       81.02051
       113.9129       131.4622       42.91400      -75.06389       35.59579
       129.2201       43.32613      -24.99640      -41.61186       27.87798
       59.25595       12.57037       31.59119      -15.31781      -116.7588
      -152.3937      -77.27264       65.42151      -3.699463      -109.4893
      -4.960083      -18.68253      -85.72308      -91.16342      -132.4146
      -111.3606      -50.95685      -48.56598      -62.38910      -36.10155
      -25.35797      -84.29477      -105.2384      -75.96541      -63.02473
      -76.54745      -75.66882      -110.0292      -144.2210      -84.45551
      -87.57986      -101.2836      -40.36765      -81.58386      -67.37930
      -35.06137      -132.4121      -91.27684       17.55057      -36.29532
      -96.66650      -62.50651      -45.60052      -36.59961      -89.37724
      -122.8091       1.673508      -10.88617      -78.41420      -31.27898
      -1.064316      -2.167892      -38.89594      -32.60575      -17.98491
      -21.73960      -7.814232      -41.87209      -22.26708       16.63921
       20.55167       3.898247       17.67946       72.96399       57.79474
       55.19577       103.4451       88.86172      -16.84469      -33.96213
       52.26324       110.7229       103.8906       60.74425       81.73589
       20.30278      -40.85004       87.88776       149.9955       90.40851
       31.35730       16.94418       111.5409       183.3457       159.3306
       79.35297       41.33052       79.60805       91.38049       56.42426
       105.6637       153.1615       62.17697      -36.61383       72.03802
       144.3628       107.5507       78.53819       30.26260       82.86215
       37.43466      -88.98380      -24.59232       58.89717       49.58857
       40.67517       27.93481      -10.08627      -42.01239      -66.94698
      -14.02768       62.87531      -1.737518      -61.37468      -31.56140
      -73.70022      -58.11517      -7.549927      -41.39461      -52.48526
      -28.22485      -18.92488      -43.28442      -78.71686      -105.0832
      -73.75043      -85.76019      -180.1317      -181.1553      -125.2534
      -125.4397      -102.4245      -19.99885      -7.085510      -107.2447
      -191.1841      -104.4274      -118.3590      -202.2012      -67.61203
     -0.4066162      -139.8976      -229.9743      -154.0140      -63.59689
      -83.06299      -133.1681      -135.4916      -123.7982      -87.97385
      -41.72491      -87.32480      -143.1375      -79.14172      -48.55261
      -174.7095      -188.9724      -15.19768       9.076752      -91.23907
      -171.9874      -168.5327      -86.61743      -95.18723      -87.00140
      -40.25220      -115.6693      -159.9813      -69.53559      -10.45929
      -21.02626      -41.81293      -61.44360      -94.69586      -91.78687
       36.68536       110.0176      -40.14191      -144.2571      -57.05025
       47.28077       28.55576      -53.99278      -67.99512      -14.67322
       68.67379       32.45578      -48.76192      -30.48838       19.03158
       42.44865      -2.934874      -8.488968       30.69638       44.55116
       48.64434       3.580658       53.54544       73.27032      -2.803558
       64.82022       117.5237       34.71931      -15.75888       56.02350
       126.2040       106.6563       89.20218       117.7973       76.65774
      -8.444164      -15.92868       90.07568       147.0994       68.93109
       80.64200       122.7779       70.34894       45.37512       173.0005
       247.4890       94.27673       7.818451       62.09894       118.7283
       138.6630       90.02072       83.09937       129.5952       34.60450
      -6.201752       114.7535       177.6404       227.2460       117.1011
       22.51088       102.3741       33.03400       86.84320       211.9554
       113.0609       30.66905       23.63251       67.23888       56.58762
       39.71619       130.4380       62.82554      -22.64758       32.73709
       53.50960       82.91164       85.19968       12.22546       19.74774
       67.02739       99.38496       49.70923      -53.69742       40.16580
       131.1279       52.01955       11.80270       28.02197     -0.5643692
      -51.85618      -21.16278      -16.53178       2.748627       70.22477
       19.52645       5.276672      -19.37944      -96.09074      -55.03448
       47.98950       145.9450       113.1331      -31.42700      -91.47614
      -81.67009      -71.58626      -23.84378      -19.40308      -60.01703
      -81.82587      -50.81322       15.96986       31.80471       13.24078
      -65.39197      -128.3268      -100.4146      -43.38995      -7.412048
      -50.30772      -38.79969       12.13443      -24.18521      -60.14810
      -90.98943      -26.28808       27.94777      -55.01248      -48.33057
      -35.88572      -15.42102       8.447754      -58.76799      -74.55437
      -28.46484      -67.09457      -93.22948      -58.63728      -53.88321
      -43.32907      -94.22125      -85.34460      -10.85419      -75.57227
      -94.07109      -28.99352       4.019077       12.03786       15.11794
      -19.54858      -59.12068      -77.67366       6.955551       61.86680
      -35.50754      -64.75589      -98.26643      -102.8490      -6.215122
       30.44025     0.03068542      -67.89066      -52.20940       4.524323
      -22.25771      -44.04759       14.48459       84.61055       14.27332
      -88.00674      -16.38094      -12.24597      -20.95476       64.17062
       99.30025       48.05293      -55.96353      -32.04754       33.01057
       23.68352       4.034172      -7.106979       28.87505       42.07543
       25.20243       4.548996       48.42981       108.3616       91.10876
       87.17039       81.20985      -15.03526      -28.09357       36.50543
       39.02322       58.70671       81.34644       24.51433       8.962402
       100.9510       107.1199      -13.68532      -38.54105      -37.64732
      -48.59781       53.82672       100.5296       66.91212       4.496784
      -11.51525       18.61518       6.573997      0.1227036      -44.76445
       19.92945       12.15813      -84.14716      -15.67893      -13.61897
      -4.096527       78.63410       50.76871     -0.3829193      -29.05326
      -46.33139      -25.16069       19.54427      -36.65487      -55.27728
       85.97208       85.62199      -48.87769      -28.83940       26.87640
      -36.73758      -41.06136       6.085754      -35.36417      -83.04807
      -89.63383      -54.31038       8.026520       52.42558       44.66608
       50.67859       66.21626       25.04364       36.71472       59.24675
     -0.5891075       3.702332      -64.27783      -160.5508      -95.64623
      -18.40318       45.06416       24.94825      -30.19926      -3.196075
      -50.66043      -101.9186      -61.46682      -6.302277       63.16270
       57.74347      -16.55994       10.07835       10.69497      -17.36576
      -12.87392       6.380531       53.13564       2.540009      -131.7944
      -148.8783      -54.57102       42.15762       24.21587      -23.47863
       6.240738      -40.62842      -44.15809      -3.205399      -2.274818
       58.04601      -9.156189      -37.13738       27.13846      -54.69704
      -50.33954       8.853024       12.63560      -3.415985      -144.3729
      -137.5338      -55.80362      -122.3229      -71.53984      -2.873993
      -81.50034      -143.7605      -132.8765      -46.78596      -20.86526
      -38.46030      -25.71161      -68.11600      -126.8064      -91.42717
      -2.221237      -18.94952      -133.7045      -112.7560      -143.2200
      -249.7070      -170.9695      -9.905830       57.31456      -28.41577
      -129.5297      -205.0103      -201.2021      -98.40533      -61.84247
      -20.36589      -24.45950      -71.82867      -100.3839      -119.6656
      -90.18738      -74.04227      -126.3539      -169.1950      -92.77344
      -53.53928      -135.1931      -57.86081      -3.149399      -71.34779
      -28.29797      -43.37585      -121.2924      -118.5482      -38.40808
       118.0943       66.92694      -92.58679      -126.7564      -192.1785
      -351.4586      -485.2283      -478.8447      -407.0629      -466.5995
      -542.3967      -477.5024      -533.4923      -719.7015      -265.0029
       619.7798       1128.878       1685.832       2253.332       2255.759
       1516.701      -1.187988      -1224.836      -1407.195      -1286.126
      -787.9539       422.2573       1185.370       983.5016       498.0170
       440.1750       640.2198      -40.64575      -1287.695      -1215.672
      -422.7102      -453.0492       225.0432       1156.897       501.6959
      -262.8109      -490.5083      -316.9453       348.3553       556.5164
       316.8658       45.65210       138.2617       711.0815       825.9319
       644.6833       607.7264       543.9075       143.5379      -82.55103
       411.3839       356.2953      -379.8198      -566.1080      -165.9189
      -119.3391      -151.8567       270.0934       299.5439       2.688538
      -159.0978      -136.1183      -20.60742       314.1033       620.1980
       344.2089       356.7783       502.9680       223.0574      -78.55701
       35.20966       307.3247       2.764832      0.2343750       507.8007
       518.2644      -10.51883      -131.9374      -94.96826      -546.8142
      -531.6260      -323.8673      -478.6269      -214.3135       245.1013
       560.0110       289.3883      -186.2850      -178.9871      -359.0593
      -525.4187      -249.9683       156.9326       331.7015       172.4459
       251.8392       397.7234      -47.91638      -284.0447       101.3648
       25.33289      -257.3014       47.86932      -68.45679      -542.6507
      -64.84875       294.2031      -277.0907      -515.3402      -158.2836
      -92.63290      -30.61047       348.8845       519.1160       367.6379
      -49.79150      -261.7390      -347.9829      -736.7811      -607.9461
       34.05389      -71.41931      -571.5309      -349.0168      -113.5322
      -86.71339       107.7460       38.06726      -106.0746      -144.6782
       79.81482       629.4528       709.4000       339.5369       52.45343
      -84.36499      -181.5049      -498.9036      -688.2785      -388.0930
      -152.4915      -276.5672      -216.3818       224.0352       368.0668
       216.7860       327.4775       267.6495      -67.99913      -88.83276
       185.4397       412.6046       400.4700       173.1433      -209.8477
      -419.1316      -459.3153      -268.5356      -121.3865      -334.8969
      -25.20886       217.2734      -93.43652       105.7366       292.0927
       296.3835       467.9432       350.1684       232.4265       135.3637
      -122.2762      -162.3948      -278.4037      -462.0779      -157.9532
       178.7596       208.8035       274.4103       48.75580      -244.0805
       70.07639       229.8608      -5.899384      -82.87695      -232.3569
      -264.8148       49.02054       143.2944       94.77972       274.9152
       130.4401      -265.2623      -274.8006      -127.2557      -69.70258
      -74.92297      -187.0692      -227.6547      -233.0620      -100.1670
       120.9743       80.26842      -4.548599      -53.81014      -40.56059
       85.40286      -42.94055      -211.5289      -296.3563      -367.7721
      -73.84109       125.7662      -119.2761      -38.89520       212.3249
      -77.26147      -405.2786      -336.8972      -151.8049       32.92981
       128.4115       98.65820       136.4970       38.11588      -127.8138
      -32.00452       37.10020       63.56956       3.257955       2.717255
      -15.58130      -379.5741      -381.1557       1.768555       78.14877
      -150.0448      -62.26764       298.9239       175.7164      -15.81070
       113.1979       205.8562       130.1426      -198.7803      -267.1119
       18.73523       157.5104       205.4566       186.9311       11.16257
      -68.94142      -34.80197      -154.3914      -169.2012      -43.52324
       17.35533      -7.163467       44.23698       22.17871      -107.6416
       32.22327       163.8005       181.3068       257.4692       169.8206
      -65.32393      -95.49805       124.5338       350.0162       570.7129
       642.8729       356.8300      -10.30554      -126.9905      -45.70773
       44.95789       146.6171       195.2016       72.23122      -10.51712
       32.20593       222.5225       390.5243       271.4236       148.0235
       62.49518      -95.70863      -117.2931       1.726181       103.9492
       25.59875       28.94305       259.7018       293.0753       202.4398
       115.0001       66.49435       142.7799       94.86246      -29.58444
      -73.73132       182.0620       417.7581       202.7323       142.0084
       229.0061      -29.04218      -269.3481      -117.3938       136.3759
       75.45337      -199.8735      -353.9244      -259.1360      -54.21899
       186.4914       313.4413       206.6359      -52.71289      -339.2588
      -260.7699      -10.51170      -70.29297      -98.51721      -105.3775
      -197.7574      -114.4216      -167.4573      -252.1551      -163.8042
      -89.66622      -2.627594       8.203674      -181.6437      -360.5485
      -192.6467       156.3755       154.2048      -162.4889      -257.1537
      -258.7627      -415.7699      -291.0068      -88.72864      -156.8568
      -281.4796      -196.4575      -24.59405       17.63757      -40.41815
      -161.2751      -233.3756      -356.7312      -380.6348      -146.0442
       37.56149       68.38110      -109.1201      -263.2090      -174.5676
       1.356552       89.92620       24.93320      -20.11279      -135.3564
      -329.2096      -326.6111      -208.3997      -221.1448      -78.93521
       168.7852       171.6546       141.1940       28.55408      -115.7535
