     0.02500000      -1204.719       1431.867      -12345.00      -12345.00
      -30.01999       238.9300      -38.81000      -12345.00      -12345.00
       0.000000       28.36000      -12345.00      -12345.00      -12345.00
      -12345.00      -12345.00      -12345.00      -12345.00      -12345.00
      -12345.00      -12345.00      -12345.00      -12345.00      -12345.00
      -12345.00      -12345.00      -12345.00      -12345.00      -12345.00
      -12345.00      -31.26510      -65.22400       1042.000       0.000000
      -31.37200      -68.11800       0.000000       97800.00       0.000000
      -12345.00      -12345.00      -12345.00      -12345.00      -12345.00
      -12345.00      -12345.00      -12345.00      -12345.00      -12345.00
       275.7139       88.28537       266.7882       2.479004      -12345.00
      -12345.00     0.04896910       0.000000       0.000000      -12345.00
      -12345.00      -12345.00      -12345.00      -12345.00      -12345.00
      -12345.00      -12345.00      -12345.00      -12345.00      -12345.00
      2008       244         6        45        44
       210         6    -12345    -12345     10759
    -12345    -12345    -12345    -12345    -12345
         1         7        13    -12345    -12345
    -12345    -12345    -12345    -12345    -12345
    -12345    -12345    -12345    -12345    -12345
    -12345    -12345    -12345    -12345    -12345
         1         1         1         1         1
ESP07   -12345          
01      -12345  -12345  
-12345  -12345  -12345  
-12345  -12345  -12345  
-12345  -12345  -12345  
-12345  -12345  -12345  
-12345  -12345  BHZ     
XH      -12345  -12345  
[...]
      -92.76331      -105.3501      -24.61204       46.73739      -10.91898
      -92.18066       50.74005       175.5934       141.8137      -50.73976
      -118.3341      -15.48118      -19.26280       42.36960       74.29245
       73.61835       201.9865       141.4145       50.27737       87.60767
       77.79199       82.88306       105.6755       63.00790       47.57556
       172.4254       170.5983       57.77502       161.9930       185.2030
       109.3459       108.0100       68.19250       60.86536       128.0830
       186.7831       138.5527       116.1256       86.72986       70.56454
       145.4208       62.48074       81.08426       143.4098       66.76013
       83.93341       190.5878       203.7894       81.13928      -15.84224
       33.20160       130.4152       141.6252       123.6027       27.09538
       3.904114       111.2635       140.2735       129.3307       97.51622
       57.73175       44.62221       20.78355       11.75611      -55.60641
       13.51160       175.3924       110.4188       57.72636       80.03667
       55.29701      -38.25060      -90.08701       7.490707       58.21864
       21.80600       44.80017       105.9826       77.73990      -29.43137
      -58.28132      -16.83049       5.951019       31.72906       92.63271
       33.65417      -112.9354      -66.58788       30.74121       81.24231
       87.10670      -43.37956      -40.84567      -53.43239      -62.52586
      -27.01111      -103.3740      -69.53537      -15.88449       41.83606
       62.61722      -26.50549       11.03148       81.18686      -126.6596
      -179.7873       45.09639      -13.50935      -15.06090       100.3615
      -5.437973      -93.58524      -58.09943      -72.45720      -71.17310
       44.39628      -8.390251      -34.68129       24.86786      -94.43860
      -109.1580      -38.62234      -12.83585      -31.14912      -44.69736
      -33.10117      -85.70273      -155.6653      -107.8062      -57.14558
      -33.79550      -52.32239      -117.5316      -66.32846      -58.08298
      -114.3524      -143.6722      -168.4182      -12.67239       39.66260
      -129.9402      -158.9481      -80.33691      -55.90808      -88.31946
      -143.3408      -152.3622      -58.98706      -108.8952      -223.7048
      -45.81705       5.681183      -146.5482      -113.3553      -39.46255
      -67.13135      -93.66544      -129.8657      -69.17976      -3.731087
      -44.55465      -28.39604       3.931519      -71.64026      -98.51830
      -38.43215       18.61072      -24.05795      -136.2083       11.09608
       106.4736      -1.735588       7.890411      -40.33945      -107.0474
       25.93433       146.2432       114.7182       87.89519       32.82565
       105.7899       105.1424      -41.44235       60.16460       68.55713
       49.53790       92.76517       76.07336       126.8308       140.2925
       159.5870       131.4197       101.6928       104.2648       100.2390
       50.89485       31.19580       170.6801       240.7697       210.6470
       149.9695       112.0632       130.2418       185.7379       171.8962
       70.82034       132.0710       184.7652       122.9871       157.6556
       215.1152       240.9421       153.4491       87.71759       119.8674
       99.80859       178.0132       182.7883       116.9214       163.6530
       205.0357       139.3972       74.80798       117.0459       114.4462
       85.58646       91.70195       40.24283       33.09631       153.2619
       203.3360       147.1242       58.28471      -52.16986      -16.21262
       37.01374       37.71918       26.23820       40.72900       71.57562
       64.17740       72.55484       15.46916      -36.89702      -66.61974
      -84.52335      -16.43982       36.25922       22.78888       23.85098
       7.386864      -34.64606       33.06662      -42.79459      -179.2940
      -129.6763      -150.8718      -130.7384      -39.57687      -83.09769
      -61.50883      -28.04372      -16.01486      -13.73889      -190.1627
      -224.5599      -172.2283      -239.8206      -127.3048      -106.1328
      -119.0159      -78.76474      -148.2787      -76.58759      -78.80566
      -274.9304      -359.4260      -256.0610      -169.1309      -200.1813
      -125.2728      -30.54709      -132.7797      -243.1992      -273.6085
      -226.6934      -153.2487      -188.5731      -226.9767      -241.1577
      -211.8480      -160.1232      -116.6255      -102.3813      -148.6417
      -204.3524      -242.7134      -149.7785      -124.3507      -183.8397
      -137.8185      -157.5068      -69.07526      -13.63623      -136.4603
      -155.4608      -127.6444      -161.8018      -145.4537      -107.0257
      -122.4561      -68.89723      -18.88878      -51.14246      -110.4892
      -86.18771      -50.59254      -88.87475      -46.76805      -2.926636
       20.12624       40.72163      -14.13689      -31.22288       26.98045
      -27.67159      -54.13222       18.40952       77.76773       74.59735
       23.12563      -17.99089      -38.57638       22.15063       59.58527
       73.75140       133.6479       128.3770       110.8943       65.37967
       5.877731       46.53827       59.38992       98.84076       151.2203
       109.0929       81.21439       60.08865       62.96896       70.92163
       103.9751       172.6689       114.6833       79.36310       135.9667
       47.56624       7.730621       72.98134       34.59372       51.30484
       94.26865       98.22864       173.8257       69.74795      -34.63000
       49.13678       51.92557       90.89435       133.7022       79.40927
       86.98191       9.004639      -44.76324      -32.76274      -92.75650
       80.20203       178.0003      -28.77636      -28.31842       68.11832
       54.55820       30.81960      -4.176758      -71.06867      -49.22401
       40.70441      -17.00740      -36.09061       8.680624       8.835072
      0.9317093      -34.39923      -15.78584      -4.579361       51.22964
       67.16888      -74.38675      -133.5563      -103.0512      -117.6112
      -109.1098      -9.802368       102.2471       62.36287      -20.93636
      0.8147736      -1.222931      -74.86676      -116.5584      -62.79765
       40.50719       16.99590      -35.76060      -17.64273      -65.61249
      -72.38660       61.92722       136.3295       16.17929      -87.05312
      -22.28075       71.18744       17.16330      -92.71806      -66.17126
       20.81766       106.7504       76.63631      -17.09859      -21.06906
       35.01732       75.35191      -16.09807      -40.84991      -10.60156
       8.454987       57.83562      -4.035110       4.122299       70.30136
       84.59292       54.89011      -13.76849       71.97495       159.0464
       46.23932      -65.52682      -53.96593       39.74205       4.277466
      -69.83142       131.1065       228.1290       1.510750      -35.29559
       97.86163       104.5107       86.14763      -55.69968      -115.3007
       47.97046       126.0307       121.3112       27.46153      -25.09311
       112.0079       151.9178       12.31510      -31.09943       23.98256
       75.81458       60.34446      -2.176010      -7.422047      -30.86772
       13.17276       139.5248       82.05434      -14.44900       2.453629
       64.69223       54.91940      -36.50562      -74.86863      -46.82612
      -8.963722      -2.841568      -63.56616      -98.34073       51.09883
       116.8469      -17.77701      -112.9829      -132.2008      -68.48081
      -47.21252      -24.93105       18.30316      -64.93512      -120.9996
      -71.58167      -53.45562      -39.62070      -31.80670      -118.6997
      -120.9425      -9.111084      -76.08591      -143.9574      -75.75627
      -67.74005      -98.40469      -79.34998      -109.0619      -104.4734
      -21.76657      -101.6172      -197.7097      -65.54849       4.997803
      -82.87836      -97.50548      -75.08080      -7.837051       75.15945
      -5.910889      -89.86328      -169.3929      -151.4908      -55.74120
      -83.53802      -4.329197       46.73825      -35.14240      -64.64311
      -84.73978      -23.29608       117.2614       158.9206       14.74487
      -71.89963       28.06094       50.38159      -6.286552       37.61040
      -15.18067      -32.22681       110.4321       95.89874       123.5893
       154.3118       57.83583       77.32534       48.01411       22.81470
       55.73016       46.77045       168.0040       241.2786       159.8389
       160.1310       140.4799       85.88782       169.2867       184.1453
       115.5584       146.7115       157.1813       162.8137       215.7187
       196.5261       195.2679       243.1630       212.0247       161.6237
       169.8483       172.5110       225.4962       239.8278       231.9110
       252.4664       190.0891       219.7525       206.5843       137.3284
       154.3094       178.8193       213.7471       196.3994       250.9536
       266.7167       146.5732       150.3798       113.0679       67.84204
       161.2588       225.7388       208.7341       162.1279       166.7388
       139.0574       129.4170       122.8322       55.84784       105.9607
       88.81403       61.14487       128.5996       122.0604       128.3561
       100.8518       97.27051       91.42281       14.66418       45.95578
       84.58783       87.46111       7.016891      -66.94980       4.310394
       53.38293       65.66241       50.25233       23.19826      -36.14235
      -79.45665      -1.378994       23.40248      -30.99087      -10.25616
      -35.26938      -112.0667      -25.19252       70.26688      -6.682190
      -102.6245      -152.6799      -136.5524      -65.00281      -105.1932
      -124.1154      -56.90649      -116.7331      -208.6183      -158.1229
      -76.18736      -67.13959      -92.65686      -97.40729      -145.6854
      -204.8944      -185.6649      -142.0991      -164.8510      -156.8034
      -119.3596      -123.7066      -170.6039      -244.4490      -268.7624
      -260.0055      -171.7333      -159.2213      -241.0930      -172.2277
      -186.8335      -231.8048      -142.8845      -123.1006      -157.3571
      -143.3362      -195.7313      -274.4489      -265.1814      -264.4542
      -223.0523      -139.7212      -95.70587      -109.4029      -173.2728
      -232.5643      -182.2260      -129.6392      -158.6873      -173.1092
      -185.7148      -164.2934      -169.0857      -99.16656      -51.89047
      -114.0567      -75.83575      -58.60077      -134.1124      -162.5849
      -144.8875      -152.8739      -123.2850      -134.8044      -175.5475
      -90.38249      -36.31078       39.54017       57.37466      -71.05704
      -108.0351      -72.99671      0.2457695      -20.92928      -17.67052
      0.7353516      -122.8641      -46.87148       5.323914      -77.36694
      -86.13680      -83.20639      -31.03854       22.64090       83.56066
       44.63634      -60.16729      -10.41611      -24.48986      -39.19407
       47.05252      -1.888870      -31.49605       23.64671       37.54015
       54.15894       59.97629       46.29377       41.93512      -2.573776
      -30.05792       25.36981       44.71874       2.765472      -26.10590
      -100.5805      -107.9891       54.65387       143.5077       137.6351
       95.57851       13.55711      -9.720642       45.06862       11.47981
      -109.4728      -1.890320       222.9782       158.1136      -59.96802
      -137.6523      -82.77176       30.37532       68.20580      -11.34267
      -50.98774      -40.68640       43.51709       125.4785       42.98072
      -13.42401      -11.80594       19.35120      -20.69669      -61.79900
       54.83147       64.10294      -42.30408      -131.1871      -105.4884
      -38.38765       1.710014       43.66797      -10.57739      -116.0976
      -106.9179      -55.62182      -43.44303      -13.27377      -10.13786
       23.86414       72.53176       17.60669      -41.84610      -67.24586
      -65.80768      -70.66187      -83.97900      -61.35718      -101.0220
      -65.77190       29.68614      -34.55289      -22.53102       26.53321
      -35.28384       3.109116      -34.33395      -67.99858      -26.71404
      -55.23130      -2.624466      -9.592773      -32.20665      -7.326355
      -44.18839      -98.98727      -75.85718      -90.66199      -138.1541
      -42.40308       26.43433       195.9504       506.2510       761.0881
       722.0679       263.7341      -267.4863      -662.6829      -726.6582
      -685.5833      -504.0957       350.5159       1155.017       1307.508
       1109.962       559.4733      -181.4900      -921.4092      -1204.719
      -819.2418      -399.4780      -37.39185       501.4614       1300.494
       1431.867       982.6545       776.8277       211.6299      -121.5986
      -321.7086      -712.3105      -408.4342      -9.148682       343.6321
       854.0277       552.5726      -52.59387       13.64447       277.4305
       192.0836       54.03003       432.0649       804.6141       600.0013
       199.5929      -154.4249      -234.2874      -401.7484      -513.7041
       318.2947       779.6727       494.3408       581.1973       696.0181
       640.0405       300.1005      -201.9524      -628.6677      -477.1125
       186.4869       444.5156       277.1004       43.20557       262.0156
       545.1302       98.54260      -239.5379      -69.26759      -151.4221
       82.10492       429.3078       46.34352      -110.1082      -6.650299
      -23.10126      -242.9818      -396.7946       136.6796       672.0421
       668.7719       398.7153       24.31052      -133.9489       113.1400
       62.95886      -338.4692      -617.8296      -639.8408      -455.8766
      -401.6029      -25.22681       479.7496       432.4415       359.3721
       69.41132      -405.3742      -116.7238       96.96631      -515.8042
      -785.9263      -387.9568      -196.1339      -206.2406       93.09143
       222.3060       125.8334       244.3611       88.47101      -276.2318
      -412.4119      -413.3091      -251.3375      -65.13281      -242.2350
      -622.7119      -607.2953      -369.2520      -330.4828      -162.7920
       90.02835      -40.45972      -53.03963       81.68143      -92.53955
      -278.0586      -518.7646      -722.5509      -744.4514      -547.9344
      -203.1016      -62.77910       16.84052       139.4064       193.2802
      -6.666016      -454.3657      -656.5977      -545.0039      -577.6766
      -498.9434      -152.1401       33.48232       42.24556      -17.95764
      -101.2950      -288.9814      -432.9937      -427.1490      -437.0486
      -306.8344      -262.6143      -205.0704       38.81274      -249.0676
      -437.7926      -185.7059      -196.8215      -144.7009      -150.4009
      -66.04395       198.8696      -28.50183      -293.5209      -187.1989
      -240.5862      -419.4934      -372.6846      -298.3036      -249.8972
      -131.8879       18.73734       135.2932       121.5478      -55.27454
      -197.2404      -257.6455      -286.9694      -61.39676       109.1374
       203.5695       315.7467       237.1476       69.37823      -84.46127
      -178.3522      -111.0150       20.19107       30.16557       84.46042
       20.77736      -75.07281       182.8758       294.9720       122.0652
       113.4241       256.7417       278.8347       161.5984       136.2666
       47.93571      -46.47253       185.9966       340.1050       216.9212
       283.6385       300.5178       156.7024       166.4724       202.2353
       164.7264       191.1247       180.5079       107.6178       289.2457
       416.2935       476.0659       578.5000       300.5718       58.89935
       108.7473       73.82831       146.7658       243.4509       255.5304
       256.6470       268.6722       351.9348       396.2600       481.6736
       452.4464       343.4199       316.8979       206.3950       234.2666
       242.4392       143.8925       162.5725       178.9587       363.8449
       401.3026       196.6993       282.9091       392.3071       327.2023
       159.0821      -24.63220       68.85388       175.2046       67.65448
       104.3699       300.4941       390.3085       300.7767       62.67065
      -49.09119       37.80017       200.7947       404.8729       323.0337
       19.83728      -216.5801      -245.0095      -52.89471       91.34967
       125.4890       147.7261       271.9071       223.5505      -87.80554
      -120.7510      -107.3537      -323.2917      -288.7063      -112.6754
       20.11667       122.9593       24.72317      -34.36218       110.0750
      -61.17712      -389.4780      -309.5272      -213.7426      -226.4249
      -194.1906      -233.8161      -153.2561      -32.26294       16.61447
       110.0373      -27.24426      -231.3113      -284.7253      -363.3301
      -480.6211      -526.1711      -370.5779      -116.9976       28.72913
      -66.50339      -37.42849       98.59906      -74.64111      -319.2532
      -437.0232      -514.7950      -487.8710      -341.1473      -322.7684
      -335.5854      -190.5790      -26.43668       134.8336       105.9214
      -76.24713      -69.55862       60.23342       30.07336      -92.60254
      -87.03461      -141.2165      -209.8279      -268.3695      -388.1121
      -314.1514      -226.4451      -210.5756       21.51898       236.9527
       265.1773       115.7184      -71.45197      -130.3198      -305.9067
      -335.7651      -68.06660       56.54935       113.4073       259.0079
       242.2650       178.6538       123.3725       40.01398       40.94461
       70.58514       142.3740       132.6929       53.83585      -51.16919
      -75.27222       16.59857       156.3649       257.5090       147.3331
       143.7446       169.0959       32.43269      -101.0441      -46.80249
       187.2256       158.8623       227.6508       366.7784       183.2067
       167.2772       160.7283       132.7475       168.7608       188.9034
       385.6406       329.9188       211.5149       342.6207       283.2669
       189.4307       237.5446       265.0759       174.3623       139.9712
       232.1417       184.0825       113.1169       95.44061       208.5280
       355.8152       223.9499       207.5051       253.8088       194.7040
