     0.02500000      -583.1953       492.8129      -12345.00      -12345.00
      -29.99999       247.0750      -46.34000      -12345.00      -12345.00
       0.000000       33.72000      -12345.00      -12345.00      -12345.00
      -12345.00      -12345.00      -12345.00      -12345.00      -12345.00
      -12345.00      -12345.00      -12345.00      -12345.00      -12345.00
      -12345.00      -12345.00      -12345.00      -12345.00      -12345.00
      -12345.00      -31.59730      -64.54960       1192.000       0.000000
      -31.37200      -68.11800       0.000000       97800.00       0.000000
      -12345.00      -12345.00      -12345.00      -12345.00      -12345.00
      -12345.00      -12345.00      -12345.00      -12345.00      -12345.00
       339.9663       95.13985       273.2849       3.056738      -12345.00
      -12345.00     0.03197404       0.000000       0.000000      -12345.00
      -12345.00      -12345.00      -12345.00      -12345.00      -12345.00
      -12345.00      -12345.00      -12345.00      -12345.00      -12345.00
      2008       244         6        45        51
       740         6    -12345    -12345     11084
    -12345    -12345    -12345    -12345    -12345
         1         7        13    -12345    -12345
    -12345    -12345    -12345    -12345    -12345
    -12345    -12345    -12345    -12345    -12345
    -12345    -12345    -12345    -12345    -12345
         1         1         1         1         1
ESP08   -12345          
01      -12345  -12345  
-12345  -12345  -12345  
-12345  -12345  -12345  
-12345  -12345  -12345  
-12345  -12345  -12345  
-12345  -12345  BHZ     
XH      -12345  -12345  
[...]
       103.3540       44.27211       13.53474       33.16119       46.85286
       2.986130      -60.66022      -82.49231      -109.0109      -76.98685
       42.45280       32.96863      -54.95307      -43.09492      -24.27275
      -58.73335      -64.07483      -98.57983      -157.2791      -88.01691
      -10.09244      -72.68987      -76.63935      -3.280060      -35.30444
      -82.09775      -77.35657      -121.8908      -132.0459      -77.01108
      -86.39662      -86.28070      -72.83792      -136.0555      -128.6646
      -132.0604      -218.0377      -207.5406      -116.3972      -117.6028
      -236.2507      -215.5322      -78.75946      -84.16364      -171.9846
      -192.3232      -99.29660      -88.96045      -200.8491      -255.5321
      -103.9078       50.19324      -50.85840      -109.8926      -57.62679
      -56.96143      -45.35736      -63.72650      -113.2716      -102.4897
      -53.40524      -118.8030      -183.9826      -45.34204       105.7788
       49.89260      -5.962433       62.06396       71.24244       16.49858
      0.9340134       6.319946       16.41876       46.13223       49.13446
       76.69604       109.3673       123.1741       131.6467       99.73309
       112.2732       141.8507       115.8212       78.65723       95.00797
       115.2665       111.3935       140.9583       127.8951       78.89600
       105.5725       147.9857       188.2827       193.2242       166.9933
       181.4589       192.5288       179.6599       162.5355       172.1472
       224.4136       213.2375       147.1018       170.0754       236.4523
       250.1057       254.0551       264.4623       271.3140       250.4849
       193.0930       171.2079       202.2625       220.4647       204.9819
       165.3982       210.6208       276.3162       254.0941       246.2141
       265.7167       286.3407       296.5594       248.0521       203.2278
       201.5673       222.4441       210.4695       142.4545       146.7744
       207.8549       216.0995       236.5024       245.9633       201.5814
       140.0794       130.5268       146.0380       118.7137       117.7485
       132.9693       141.3543       177.9088       153.4471       106.0511
       129.3402       156.1587       123.5421       90.60469       66.08960
       92.30811       137.9833       72.32147       29.28168       81.87291
       36.42685      -27.74825      -14.87817      -36.51547      -50.58557
      -47.55102      -46.90852       11.46836      -11.09741      -86.79553
      -83.59262      -82.22652      -75.27032      -86.99622      -172.9537
      -164.5456      -105.3470      -166.0040      -199.9736      -171.5734
      -194.2145      -194.3301      -195.8081      -264.9734      -296.7171
      -271.2488      -266.2793      -283.2986      -327.2539      -324.7244
      -251.4993      -302.8843      -369.6477      -307.6835      -295.2108
      -299.6664      -294.0831      -319.2366      -301.7348      -268.8053
      -277.9526      -298.8508      -299.0244      -276.9791      -281.2755
      -320.9448      -272.3009      -215.5662      -267.4802      -272.2923
      -290.4514      -308.1744      -276.4940      -276.6222      -292.0634
      -297.1262      -285.9459      -273.9303      -286.7672      -279.3372
      -230.4031      -272.4728      -305.1355      -210.1061      -216.2571
      -282.4520      -284.0576      -286.3992      -226.8087      -208.5248
      -292.5553      -272.0807      -179.0807      -185.9667      -236.6682
      -250.8848      -244.9116      -216.6643      -190.0463      -212.8750
      -215.1066      -172.4241      -155.5479      -126.6773      -100.6178
      -144.8416      -155.0666      -121.9789      -128.5888      -136.0620
      -139.2887      -144.9660      -140.8344      -110.3493      -57.96478
      -82.75211      -113.6570      -72.01907      -26.53983      -13.70743
      -59.12947      -59.06575      -11.85289      -23.28345      -77.96548
      -117.4615      -70.24760      -14.87219      -62.80542      -76.13852
      -18.66315       5.602713      -3.205231      -4.656448       28.86562
       43.16331       21.60101       27.98152       37.90233       36.30592
       31.32842       10.17714    -0.06547546       57.79102       70.29227
       56.87009       75.53696       57.59238       82.93372       97.52820
       80.14417       104.7566       102.8195       81.54330       85.76648
       133.0032       159.6223       130.3115       148.3790       199.1860
       193.0775       210.2070       215.5709       170.9475       206.2173
       247.5339       227.3054       245.2155       264.3337       246.8589
       246.6351       280.1540       281.7407       272.3882       274.4178
       282.3561       330.5629       356.9420       329.5394       318.6244
       306.4003       322.9064       353.7231       366.2458       389.0349
       377.5317       390.3812       459.5793       426.5818       377.5599
       424.8240       462.2567       431.4426       417.2080       424.5483
       403.8159       401.2697       388.0616       383.3308       439.2504
       415.5494       378.6838       443.2313       425.9182       340.6410
       357.0863       375.1442       366.6990       349.2533       291.4058
       289.0643       315.7874       277.9190       239.3019       248.3088
       302.6954       259.9922       180.0688       217.7697       235.6851
       208.4898       240.7137       236.4720       214.6698       218.3187
       175.5790       125.2726       163.7783       165.9491       80.99857
       82.53764       90.59409       58.66397       81.01610       66.48734
       57.81297       64.24059      -6.327316      -39.03774      -4.118835
      -36.73557      -61.83444      -55.81360      -91.84138      -83.20645
      -68.14938      -153.8551      -145.0833      -87.79620      -137.5773
      -131.7755      -107.5461      -163.7135      -153.2132      -131.5959
      -196.0878      -185.9904      -142.9906      -208.1596      -218.4210
      -196.3865      -221.2138      -183.5253      -161.6719      -200.8577
      -213.0178      -205.1844      -207.5717      -219.7606      -200.6181
      -214.3087      -243.0327      -229.6476      -231.0674      -215.7327
      -229.4874      -246.8178      -175.2266      -177.0335      -230.9996
      -203.9333      -187.1671      -213.0892      -189.1772      -163.4606
      -185.0339      -186.6006      -178.4893      -216.7757      -226.2976
      -172.5595      -146.3900      -161.8378      -196.1358      -200.1494
      -146.1956      -150.8333      -210.1437      -219.1830      -164.3376
      -161.7634      -225.7300      -221.9258      -193.5080      -165.0574
      -158.8837      -228.6531      -209.8034      -159.1593      -220.6650
      -215.3051      -154.9994      -201.0542      -229.6954      -199.7972
      -217.7131      -231.3446      -196.8157      -177.6894      -184.2175
      -204.3425      -248.7865      -232.4619      -196.0966      -224.2466
      -231.0211      -228.0891      -238.3287      -226.4491      -215.8533
      -209.4910      -204.4223      -216.1297      -221.2161      -205.0988
      -210.6440      -228.1302      -219.3478      -201.1960      -195.9045
      -211.6052      -223.2474      -201.5994      -200.9111      -225.5991
      -225.7012      -195.0074      -180.1530      -195.6434      -209.7434
      -197.0276      -166.8804      -171.3171      -211.3174      -190.6961
      -162.3942      -182.1275      -176.4940      -160.4199      -156.7321
      -154.0735      -173.1945      -164.7887      -141.4185      -149.2070
      -159.1199      -147.5987      -140.4945      -121.2571      -109.4825
      -100.9720      -76.06927      -80.54861      -69.65765      -50.87421
      -76.57275      -84.13956      -41.35773      -46.34651      -57.98217
       3.665024       45.38608       47.81544       40.94545       40.28110
       82.64948       91.48532       89.94690       123.4720       132.6152
       122.9134       132.7856       164.0106       188.7921       174.5445
       171.5069       193.4137       212.1383       209.1639       214.4163
       244.7547       246.1969       220.1018       256.7240       295.0948
       277.6874       296.7681       331.2289       341.1023       322.1721
       312.2942       354.0159       356.3370       333.2703       356.3865
       401.2861       386.4109       365.9845       405.2050       402.1729
       392.2643       408.1660       405.3009       407.2074       386.8501
       390.3663       399.1573       372.8326       368.8810       348.4589
       304.5734       339.6541       367.1353       315.5613       332.3787
       374.6055       343.3738       332.6742       354.7688       335.8103
       328.3222       343.5890       305.6027       306.9591       352.6041
       324.4930       308.6567       321.5519       297.8712       303.4568
       265.7522       254.3386       322.4370       261.8477       219.7102
       273.6133       224.7582       199.5302       237.5364       202.2070
       186.5046       191.6771       154.5650       159.1512       167.1625
       135.9494       121.3448       123.9020       109.9079       99.56137
       112.2338       104.4998       72.30061       50.87520       56.90207
       64.17362       45.86464       28.75682       7.805870      -26.28146
      -33.26715      -25.96339      -56.30821      -79.44458      -84.02460
      -98.55115      -128.8488      -141.2963      -136.3422      -163.9877
      -177.6670      -181.7515      -207.3094      -222.3323      -233.1885
      -247.4871      -272.0957      -300.7479      -309.1924      -301.1700
      -302.9847      -322.3131      -344.0485      -351.4413      -327.9370
      -348.7333      -397.0338      -371.2605      -360.1957      -397.7144
      -409.4138      -384.4901      -390.7588      -390.1768      -357.9816
      -400.9171      -421.2156      -378.9496      -384.3910      -422.1212
      -434.6074      -402.8446      -415.3450      -438.6655      -399.7365
      -403.1384      -410.9490      -370.2544      -351.4969      -369.1995
      -386.6582      -383.3606      -377.7142      -369.9744      -371.7114
      -371.0198      -370.8843      -388.3679      -384.7012      -360.0167
      -326.8280      -303.7071      -318.9604      -308.7064      -279.9850
      -302.6622      -311.9283      -299.9836      -282.6353      -246.8180
      -251.5192      -268.0443      -233.0519      -203.3514      -225.4825
      -205.1742      -177.3915      -169.6544      -123.5659      -119.3555
      -142.6642      -92.65454      -72.13922      -83.16570      -52.08365
      -62.85960      -57.85375      0.7001724       21.37089       21.14420
       13.15500       47.08368       97.58136       83.04877       81.27798
       111.7263       120.0234       140.4939       165.8065       183.2156
       193.8849       197.5596       223.5762       246.3085       239.2555
       249.1531       277.5885       273.5764       273.7752       295.1025
       313.2717       354.9436       377.1216       344.3983       368.0006
       405.9359       389.4423       396.0104       411.3512       414.9357
       423.7079       417.6121       428.9109       474.1211       463.3118
       419.7800       441.6034       452.3933       442.9666       455.3370
       450.7141       451.4579       471.9463       446.3438       429.7969
       471.1680       485.5243       452.9121       442.1727       463.1547
       468.3817       456.2312       443.3538       456.7910       477.1096
       458.1063       435.0719       438.3337       444.3773       423.7997
       406.9729       402.2020       397.1063       401.3180       386.7377
       388.4991       380.4072       351.5095       352.3096       329.2438
       309.6450       308.7003       279.1627       261.1404       253.7014
       266.5197       245.2332       206.4878       203.1468       188.8434
       176.1680       148.3650       112.0327       120.7052       107.1864
       70.03944       68.33710       60.19415       41.37376       38.27950
       10.32929      -11.48241      -4.106934      -46.00951      -83.60916
      -62.02252      -87.47839      -129.4014      -130.3567      -145.8422
      -169.5667      -185.3247      -214.8365      -238.4510      -237.4614
      -244.4548      -280.4514      -296.0579      -300.3005      -326.9076
      -339.5312      -365.8052      -383.1566      -386.7660      -416.1489
      -432.0691      -432.7083      -432.2897      -444.9314      -470.2507
      -465.1853      -470.4309      -494.6864      -507.6687      -516.4785
      -516.5028      -527.3840      -543.8984      -533.6443      -532.3066
      -541.3491      -549.5713      -562.9718      -554.7698      -561.0095
      -583.1953      -571.6736      -570.5864      -566.8264      -573.8240
      -581.7826      -564.9341      -563.3621      -557.6140      -560.9437
      -552.8145      -534.5790      -540.0933      -522.4938      -523.4888
      -512.5872      -482.7832      -485.7069      -472.1855      -458.4580
      -457.2446      -454.4066      -441.2556      -401.6058      -401.2705
      -404.5173      -376.1691      -365.1687      -354.7565      -337.8419
      -336.3502      -311.5665      -295.3622      -287.2242      -258.6881
      -251.1726      -232.2490      -214.9559      -217.2033      -178.9520
      -157.0034      -146.1349      -128.5231      -109.1368      -75.94690
      -64.97559      -53.45309      -33.79306      -4.775761       20.05291
       12.28323       37.98727       68.03784       79.45056       95.69379
       100.3160       121.2932       143.0632       128.6141       148.3043
       198.2155       201.3215       193.5108       216.2922       243.0508
       233.0547       243.5534       282.1946       281.7019       295.4576
       307.8527       300.2543       320.6262       338.1199       337.8810
       343.7388       361.7610       386.7433       387.7694       379.4226
       405.7222       412.4132       399.1069       421.2845       418.9866
       415.4720       437.0281       435.4377       433.6169       442.9302
       447.6221       446.4373       433.4067       434.7095       441.9570
       435.9246       428.3372       422.6074       436.0800       435.1069
       425.8531       438.7167       432.1643       424.2065       420.1477
       415.3715       424.4185       423.1461       417.6902       408.0640
       391.2025       399.3525       397.2329       377.7909       391.6660
       384.3358       357.1523       373.7284       364.8397       339.7726
       342.3494       329.8005       321.9871       326.6909       308.4813
       299.6936       295.8943       276.8228       264.3806       259.2935
       248.5810       246.9028       239.8193       222.8232       233.7486
       229.9869       193.5974       194.9702       199.7590       187.1786
       182.8922       165.5178       148.6216       145.8368       128.6334
       113.6359       107.8952       110.9287       103.6173       87.17096
       82.68356       81.02832       54.07338       47.04385       59.83038
       44.41794       33.35611       30.17317       9.696362       10.58862
       5.524683       1.797310      -12.47642      -26.17135      -23.51634
      -36.93997      -57.58476      -54.96681      -59.63612      -74.50920
      -84.90921      -85.94113      -75.23636      -73.38812      -99.73340
      -92.69122      -96.50296      -114.9432      -115.1116      -125.1807
      -129.1277      -130.8117      -140.0693      -128.4648      -137.6102
      -149.7944      -144.0612      -140.3610      -158.3994      -177.8247
      -158.9746      -146.9706      -176.6239      -171.6624      -158.3832
      -178.5715      -187.0416      -181.3784      -178.2737      -169.5397
      -200.0231      -202.8380      -188.0083      -193.3065      -195.3776
      -209.6556      -203.8636      -209.7077      -215.6073      -206.8836
      -223.1760      -217.9907      -216.4312      -229.6374      -220.4525
      -230.8990      -248.3419      -221.0103      -223.8784      -248.5164
      -219.0527      -215.7074      -245.7707      -234.7346      -236.8034
      -245.8508      -239.3920      -258.5383      -259.6901      -240.5771
      -256.8682      -263.2513      -252.6985      -264.8755      -259.8024
      -248.1053      -256.5265      -252.9048      -254.7234      -266.6104
      -248.2364      -221.6808      -240.3406      -246.2725      -229.0355
      -234.0524      -238.3597      -228.0941      -228.9734      -222.9020
      -218.0014      -218.9044      -210.5703      -211.6044      -211.8839
      -200.0248      -205.5020      -207.1226      -195.8077      -197.7839
      -205.5408      -191.0117      -181.1917      -178.2828      -176.6652
      -185.6451      -167.1357      -148.0098      -165.8179      -164.4808
      -149.1796      -142.7055      -154.6260      -171.2441      -152.0721
      -141.0953      -147.8679      -140.8966      -136.9550      -138.8280
      -144.3644      -135.4890      -130.3581      -141.9985      -131.2535
      -130.9969      -143.4858      -136.4758      -145.5520      -138.1390
      -137.4493      -142.1087      -138.6707      -142.5389      -132.5881
      -129.3567      -130.8826      -118.9951      -136.1324      -135.3866
      -118.2947      -129.1123      -133.8113      -116.4575      -112.6782
      -113.4236      -110.6908      -99.85413      -103.4364      -102.5284
      -96.64093      -96.04919      -84.73599      -82.77107      -87.35571
      -62.74762      -64.90976      -72.55600      -40.25650      -40.80859
      -43.71706      -7.763992      -18.81050      -12.38907       21.02378
       6.779549       18.40810       55.63450       29.93822       25.66394
       82.73167       71.66212       67.02975       119.8416       119.5613
       123.4357       145.9244       137.1710       166.4537       202.4069
       193.7657       205.3613       200.5635       211.3719       246.4771
       245.3871       255.5233       275.6298       283.2163       281.9432
       301.7182       315.9247       313.6091       323.2483       331.7561
       336.9624       360.0879       362.1353       365.3052       381.0813
       383.5948       396.5366       387.8177       401.4343       415.6805
