     0.02500000      -507.5673       383.9435      -12345.00      -12345.00
      -29.99999       247.0750      -46.34000      -12345.00      -12345.00
       0.000000       33.72000      -12345.00      -12345.00      -12345.00
      -12345.00      -12345.00      -12345.00      -12345.00      -12345.00
      -12345.00      -12345.00      -12345.00      -12345.00      -12345.00
      -12345.00      -12345.00      -12345.00      -12345.00      -12345.00
      -12345.00      -31.59730      -64.54960       1192.000       0.000000
      -31.37200      -68.11800       0.000000       97800.00       0.000000
      -12345.00      -12345.00      -12345.00      -12345.00      -12345.00
      -12345.00      -12345.00      -12345.00      -12345.00      -12345.00
       339.9663       95.13985       273.2849       3.056738      -12345.00
      -12345.00       1.868907       0.000000       90.00000      -12345.00
      -12345.00      -12345.00      -12345.00      -12345.00      -12345.00
      -12345.00      -12345.00      -12345.00      -12345.00      -12345.00
      2008       244         6        45        51
       740         6    -12345    -12345     11084
    -12345    -12345    -12345    -12345    -12345
         1         7        13    -12345    -12345
    -12345    -12345    -12345    -12345    -12345
    -12345    -12345    -12345    -12345    -12345
    -12345    -12345    -12345    -12345    -12345
         1         1         1         1         1
ESP08   -12345          
01      -12345  -12345  
-12345  -12345  -12345  
-12345  -12345  -12345  
-12345  -12345  -12345  
-12345  -12345  -12345  
-12345  -12345  BHN     
XH      -12345  -12345  
[...]
      -69.29910      -77.29153      -94.60052      -109.8325      -122.7525
      -130.0007      -115.4186      -128.2024      -152.8174      -139.9353
      -157.0156      -164.1982      -147.8482      -184.2654      -189.5033
      -165.0027      -170.2336      -166.4838      -183.0445      -190.8539
      -167.8452      -180.5977      -198.4059      -179.1442      -173.3198
      -190.7256      -178.5152      -190.3955      -213.9627      -182.3819
      -162.0621      -183.4946      -190.8591      -186.1160      -175.8799
      -175.0234      -177.6695      -138.9902      -133.6023      -159.4938
      -151.5826      -141.8373      -138.6160      -135.9684      -118.6560
      -114.1450      -126.0256      -114.2484      -102.0192      -115.4824
      -114.4293      -100.0533      -90.86084      -80.47150      -90.95070
      -80.24210      -65.06451      -93.12627      -78.59709      -52.98538
      -52.14207      -48.55109      -65.20515      -60.92944      -20.79121
      -35.59090      -59.36316      -32.43590      -17.32443      -40.17511
      -31.32960      -11.44200      -55.28118      -42.41652       10.26044
      -50.31384      -69.95628      0.7264252      -18.93492      -51.37447
      -13.45652      -35.74084      -31.07680      -1.692169      -45.92594
      -49.42995      -20.70683      -38.83996      -20.62718      -13.66191
      -40.13080      -9.476780      -2.954310      -14.28979       15.10345
      -9.801909      -4.656235       24.36147       6.470081       11.49320
       30.11918       30.54501       36.11819       49.42159       56.78648
       50.85362       51.84500       56.99677       71.48981       77.38873
       41.60362       58.28815       101.9403       74.34814       82.51958
       96.29895       58.71307       66.26331       106.7179       78.88412
       78.22650       127.6995       85.31824       95.08765       132.7375
       73.64667       69.39099       107.8459       88.19604       85.60941
       93.41690       75.46808       85.42834       76.16669       69.11798
       93.86867       75.60185       71.69843       90.87592       48.74609
       56.05731       98.56406       53.45261       39.21494       62.09285
       40.68446       43.37077       46.26648       40.37921       34.13792
       20.23356       24.72648       16.47983      -8.366196      -4.926115
      -1.938198      -11.25722      -15.09838      -10.11081      -22.97169
      -26.61887      -28.86157      -55.60841      -53.44528      -39.29041
      -72.75377      -83.11633      -59.47876      -64.09494      -72.76523
      -70.36230      -93.49298      -92.33551      -93.97183      -102.1806
      -92.06998      -98.14203      -103.1622      -97.36911      -94.21851
      -97.51096      -90.98355      -81.27698      -87.57751      -89.60535
      -91.37759      -82.61707      -87.18524      -87.88867      -77.78911
      -71.33226      -65.50278      -77.87129      -80.67450      -72.78847
      -75.23396      -59.85345      -59.50319      -56.62915      -44.65643
      -68.53369      -59.99730      -41.40539      -45.04176      -32.06686
      -37.68150      -32.90972      -26.59621      -36.46294      -27.43452
      -20.19838      -23.17015      -14.80383      -14.11451      -13.53758
      -9.783516      -20.96551      -14.15074      -3.351479      -9.442232
      -2.075563      -3.136257      -6.652924      -6.437859      -11.75891
      -16.53889      -15.14923      -23.46514      -35.25746      -20.78233
      -22.23502      -33.76171      -12.25078      -25.21509      -46.99621
      -29.33847      -37.34254      -54.14595      -39.71826      -48.39612
      -69.48590      -53.42593      -56.03131      -74.18178      -59.97198
      -71.04926      -79.72586      -72.55698      -80.75381      -82.89667
      -85.52609      -91.83145      -89.59454      -100.2013      -108.6204
      -99.07135      -91.47485      -107.9355      -110.0273      -111.0056
      -110.5603      -104.9317      -117.4961      -131.4501      -126.4769
      -115.9802      -114.5063      -108.7011      -112.1266      -116.1336
      -102.4258      -113.0011      -104.2198      -84.50790      -105.7437
      -100.0437      -71.28777      -77.49280      -79.84979      -65.71404
      -78.79733      -81.72896      -40.73460      -49.14737      -63.34560
      -36.95222      -41.00427      -42.04955      -14.64306      -19.86888
      -22.36663      -8.388412      -20.91022      -11.04492       15.13886
       3.826107     -0.8214188       28.42994       22.77504       7.026321
       33.73871       37.59368       24.78017       15.77705       33.92307
       42.89148       36.17358       69.27112       63.99869       66.17334
       98.92032       92.00732       95.44540       83.43103       93.04791
       119.8658       86.14062       104.4602       135.3245       98.62817
       109.7895       144.7059       116.4131       117.7870       147.1418
       124.6568       126.4243       141.0786       96.05270       115.5662
       147.5724       113.7056       146.8934       132.7784       107.6864
       125.3910       94.70200       105.5417       108.0062       79.74869
       88.29980       107.3022       101.5449       79.61115       75.99690
       79.00346       63.56956       52.48599       44.34239       36.86704
       45.72589       33.98357       16.64433       37.81686       6.146744
      -37.28321      -11.47904       1.009758      -24.54446      -42.15164
      -62.57510      -56.54472      -32.67551      -63.58527      -96.86127
      -82.39343      -95.16815      -133.3316      -120.6025      -113.8088
      -140.5674      -135.7631      -127.0155      -135.4130      -153.0413
      -156.3814      -147.8671      -144.7139      -169.1996      -189.3081
      -155.3642      -164.8479      -204.7375      -173.6879      -168.8672
      -212.1991      -189.1017      -167.0990      -208.5388      -199.9691
      -178.9722      -217.7963      -188.4852      -159.1053      -205.9993
      -195.2538      -191.6784      -217.1048      -191.4899      -195.7999
      -214.1624      -196.3733      -215.8486      -214.5072      -193.8315
      -229.5239      -211.7429      -186.8021      -230.9930      -211.0501
      -195.2468      -220.4563      -192.5360      -190.5118      -199.5751
      -183.8479      -198.0922      -194.2007      -169.4533      -183.4725
      -183.0392      -168.6504      -165.9799      -165.8618      -143.4355
      -147.5111      -160.2803      -119.2368      -134.3779      -146.4524
      -108.4034      -118.2885      -142.1711      -122.6704      -101.0234
      -100.9386      -94.03580      -101.6156      -85.86438      -47.35046
      -68.85164      -83.53255      -43.15176      -47.51466      -69.52538
      -42.74839      -31.79357      -44.72026      -27.16183      -24.81577
      -22.81152      -6.687752      -34.92773      -13.80316       43.26393
      -5.768272     -0.9676208       72.56725       23.30055       19.61035
       67.65747       41.87274       82.08527       99.22258       60.88104
       93.00244       121.7014       112.4142       137.2683       142.8731
       117.5452       175.6618       180.7817       140.7812       210.8685
       200.9412       183.9508       239.3589       220.1322       227.0520
       261.6259       252.4973       252.8035       293.3169       279.8611
       267.2168       320.6811       312.1502       306.5348       347.8345
       343.5458       331.4548       337.5448       330.7271       332.4766
       370.2966       355.9242       331.8459       366.6599       368.2275
       342.1035       362.7294       372.8472       367.4932       377.5574
       367.8348       364.2935       370.1489       353.2434       349.4299
       363.7402       354.1664       334.5316       348.0432       337.9634
       320.2814       363.1495       345.5607       311.1458       341.4468
       332.0231       322.8652       334.8065       319.5703       310.1059
       309.2836       301.4373       305.8632       309.1995       289.6164
       286.8806       292.4464       292.0275       276.5150       263.8773
       263.4574       237.7401       243.6035       264.5603       237.9985
       221.6081       224.8021       217.4722       210.5646       200.5748
       191.3477       207.6815       191.1077       170.6266       190.5162
       191.7734       173.0944       171.5918       174.2971       145.9985
       142.5757       147.1274       122.2454       111.5715       106.6682
       131.8755       122.0808       79.98436       73.84177       79.55025
       63.19034       59.20909       88.44452       49.09363       36.32486
       62.00066       27.76615       32.48938       51.61413       37.50951
       35.63947       17.02833      -14.63446       26.92265       50.33929
      -22.43822      -22.30546       5.770706      -42.43006      -48.00674
      -12.33887      -40.25116      -52.05728      -41.79114      -83.11118
      -82.48615      -76.59845      -100.5473      -100.9243      -119.0250
      -133.3452      -115.7959      -142.8773      -145.2184      -100.6077
      -121.5070      -145.4432      -155.9315      -190.0347      -194.6594
      -188.6191      -185.9795      -168.3006      -194.2300      -206.7906
      -199.1724      -221.4748      -227.0221      -221.3787      -221.6201
      -234.4240      -260.4373      -255.2805      -240.1813      -248.1486
      -257.4580      -291.1332      -303.3663      -269.0907      -265.4061
      -306.7764      -319.9851      -298.0051      -278.1223      -301.1817
      -323.5461      -298.3141      -299.6564      -313.6242      -325.4479
      -340.9854      -294.4202      -253.3611      -294.8591      -276.1235
      -251.6008      -308.3295      -238.7521      -241.1948      -329.4976
      -230.9592      -229.2245      -312.9282      -203.5342      -185.5154
      -280.3268      -183.1308      -121.0285      -173.4300      -159.8703
      -174.3200      -185.7540      -128.3664      -136.5334      -100.6099
      -11.56732      -92.04797      -146.5636      -63.78296      -56.73015
      -78.60022      -28.10489       6.655487      -25.30258      -18.41389
     -0.5667763      -22.23788       5.644302       18.97816       13.96803
       61.52283       75.02768       29.16290       69.45337       143.7305
       126.7904       159.8831       162.1285       134.6266       179.2073
       151.4869       125.5937       178.2598       178.9188       162.1169
       196.7620       192.4094       155.6067       191.8270       213.4117
       161.5405       182.2735       260.8984       228.2045       216.1265
       244.2394       227.7723       232.3098       211.8077       213.9433
       229.5964       206.5850       244.7085       265.8684       238.3701
       206.2688       196.2627       255.5895       222.7930       179.8381
       264.9414       242.5855       203.9390       231.5598       213.1251
       234.5562       245.7606       211.4926       192.8680       178.8990
       155.7300       145.7377       169.3320       157.3795       148.9926
       192.0272       205.6890       181.7504       167.5858       174.7345
       195.5852       195.7119       176.3470       190.9911       195.6041
       157.4806       175.1941       171.5819       143.0817       154.3865
       161.5729       157.6548       124.0632       155.9310       188.7088
       142.3496       150.4154       148.8454       133.9970       135.8198
       100.4900       124.0406       164.3801       141.7743       136.1212
       148.8035       123.6417       135.0027       158.1010       130.6657
       139.3465       124.1592       98.02817       132.8992       126.1138
       101.1846       133.5433       133.0526       96.98734       82.47943
       91.00793       98.41324       74.33440       81.13626       90.67046
       48.70233       46.13538       83.18304       53.90970       33.93585
       72.89742       36.20088       17.40900       35.61137      -7.785385
      -1.700916       9.375469      -20.74114       1.615784      -3.940521
      -34.29673      -30.76989      -45.81911      -30.43211      -26.40919
      -76.96123      -66.13792      -49.80219      -90.55716      -83.98601
      -64.27765      -96.15228      -116.9849      -108.8256      -116.5388
      -169.0399      -176.4592      -161.6353      -185.4680      -217.7814
      -235.4943      -224.2505      -239.6387      -248.0715      -233.7205
      -291.0969      -319.4965      -282.7949      -318.0913      -335.2565
      -318.2062      -356.8271      -369.9692      -354.8905      -393.3702
      -401.8268      -383.6538      -436.6000      -433.9200      -414.9448
      -448.9526      -446.3755      -451.8752      -463.2410      -462.1774
      -488.7260      -475.7406      -458.5709      -497.5099      -507.5673
      -479.3374      -490.8296      -486.0027      -473.7734      -504.4728
      -487.0916      -473.5916      -496.0956      -488.1567      -468.6583
      -466.4877      -484.3970      -477.0331      -441.4360      -443.0781
      -473.3790      -432.3492      -406.7781      -443.0006      -412.0649
      -387.5834      -411.1483      -385.9701      -380.3167      -382.8552
      -352.6581      -366.7717      -371.2545      -333.3440      -338.8559
      -315.4466      -302.7992      -325.5344      -298.8288      -291.4451
      -291.8745      -260.6637      -274.9721      -269.5136      -239.8015
      -249.0408      -239.9740      -221.9833      -215.8248      -219.7960
      -221.4405      -188.5605      -193.4053      -204.5816      -174.9655
      -144.4741      -154.6468      -176.3794      -123.0250      -121.6981
      -185.0696      -128.1018      -95.83298      -128.0649      -102.7102
      -76.28754      -90.57343      -87.68005      -61.24043      -48.10924
      -46.00143      -47.99243      -34.17772      -2.116772      -11.66775
      -8.312683       22.81168       20.69437       21.67633       32.66911
       43.82047       62.70189       72.79749       90.11292       106.0610
       94.23242       107.6101       137.5433       129.5073       147.1152
       146.9587       160.5073       189.2007       166.6934       188.2443
       203.9258       200.4809       220.4265       204.7720       224.5339
       220.0859       215.7786       264.3151       253.8552       249.4512
       275.3517       252.2833       270.1647       289.1436       274.2715
       285.9845       287.8489       281.8659       308.8976       296.9489
       296.3171       306.2751       293.1223       300.7919       302.9426
       289.0411       300.2715       325.0315       306.8979       297.7419
       339.0825       305.9631       297.9990       331.2410       293.9449
       292.8106       334.8228       304.5538       302.5817       318.3820
       301.9891       319.4208       307.1019       276.3369       311.1074
       306.0593       287.2843       310.8126       297.7768       278.1213
       291.4321       278.4122       274.5525       274.2044       257.7837
       254.6147       253.3820       228.9044       229.0490       236.5257
       220.8834       216.8031       215.5183       191.4583       185.8843
       191.3568       180.1089       168.6423       163.3564       165.4572
       157.6997       131.2943       141.7764       143.6219       122.4131
       139.4095       112.0551       76.72302       99.08569       79.93515
       58.00497       70.15202       48.01944       49.88591       40.11420
       1.171448       28.70664       15.40695      -14.65994      -8.287880
      -36.26060      -37.42651      -38.85017      -66.51746      -59.06740
      -68.92044      -98.86865      -97.21884      -102.5179      -124.4302
      -118.1712      -116.1646      -144.3291      -155.2895      -146.1518
      -158.8805      -169.6412      -160.1654      -192.9746      -213.1306
      -191.9438      -217.0761      -226.6545      -216.8184      -251.2400
      -250.0677      -240.9683      -261.1350      -265.0925      -267.0143
      -284.4265      -284.4175      -289.8253      -308.9409      -302.8659
      -305.4255      -322.4152      -302.0794      -297.3029      -344.5889
      -312.5035      -300.1700      -360.3138      -319.8109      -292.0433
      -339.5643      -311.3920      -298.3677      -314.2981      -293.6443
      -292.2653      -295.0601      -279.9515      -287.8353      -284.2542
      -255.1068      -262.8268      -281.9401      -259.2175      -254.8026
      -245.5654      -234.8207      -239.1948      -220.4523      -216.2212
      -225.1622      -205.6134      -193.0303      -198.7822      -193.6642
      -168.9310      -162.8694      -169.9984      -149.2979      -140.6117
      -134.3991      -108.6091      -108.5102      -107.4419      -102.5468
      -65.52011      -36.82101      -72.84912      -64.88983      -4.431641
      -31.13708      -29.84208       29.46656       8.495598       1.594940
       39.27672       55.79128       40.99753       52.89014       92.74985
       80.29938       103.1147       110.0031       107.5156       150.3793
       151.6796       146.9124       180.1881       184.6128       177.4250
       209.3421       216.1302       211.9315       235.9047       258.1640
       253.1461       235.7542       263.6665       266.4458       293.3617
       315.9507       262.1355       306.3600       349.4677       277.1454
       311.4910       340.1299       301.1583       345.1919       351.3453
       314.1857       348.3477       352.5896       330.3525       369.2893
       355.5531       315.1682       345.6968       348.8787       353.2172
       358.3701       349.8322       350.8705       347.7048       351.1722
       360.2791       357.2866       354.7715       357.5835       365.0156
       348.2532       332.0297       361.5166       362.3923       329.0588
       340.4612       341.2877       318.8151       313.5189       322.9915
       313.2881       308.0103       325.4662       320.0331       292.4464
       284.4742       293.7747       308.4557       296.1625       268.4510
       280.6525       282.2314       262.9223       268.5792       256.5277
       242.3430       258.4570       236.2359       232.3712       252.9344
       211.9808       230.2100       241.9719       190.0557       212.9052
