     0.02500000      -455.3288       475.7911      -12345.00      -12345.00
      -29.99999       247.0750      -46.34000      -12345.00      -12345.00
       0.000000       33.72000      -12345.00      -12345.00      -12345.00
      -12345.00      -12345.00      -12345.00      -12345.00      -12345.00
      -12345.00      -12345.00      -12345.00      -12345.00      -12345.00
      -12345.00      -12345.00      -12345.00      -12345.00      -12345.00
      -12345.00      -31.59730      -64.54960       1192.000       0.000000
      -31.37200      -68.11800       0.000000       97800.00       0.000000
      -12345.00      -12345.00      -12345.00      -12345.00      -12345.00
      -12345.00      -12345.00      -12345.00      -12345.00      -12345.00
       339.9663       95.13985       273.2849       3.056738      -12345.00
      -12345.00     -0.2346818       90.00000       90.00000      -12345.00
      -12345.00      -12345.00      -12345.00      -12345.00      -12345.00
      -12345.00      -12345.00      -12345.00      -12345.00      -12345.00
      2008       244         6        45        51
       740         6    -12345    -12345     11084
    -12345    -12345    -12345    -12345    -12345
         1         7        13    -12345    -12345
    -12345    -12345    -12345    -12345    -12345
    -12345    -12345    -12345    -12345    -12345
    -12345    -12345    -12345    -12345    -12345
         1         1         1         1         1
ESP08   -12345          
01      -12345  -12345  
-12345  -12345  -12345  
-12345  -12345  -12345  
-12345  -12345  -12345  
-12345  -12345  -12345  
-12345  -12345  BHE     
XH      -12345  -12345  
[...]
      -64.93494      -103.9442      -131.1452      -94.43790      -74.23167
      -60.92616      -52.96201      -82.91383      -82.08713      -49.58471
      -20.44849       6.954244      -7.645580       15.96256       24.71141
      -43.72656      -9.100937       59.32591       71.47087       63.24695
       36.35626       69.37534       129.9279       142.2386       150.4463
       130.8082       135.1791       166.4267       167.0916       164.1257
       184.4380       202.8721       205.5243       233.3840       248.1711
       205.9918       217.3430       263.8823       276.7058       256.4011
       250.9070       306.2100       350.0845       341.3884       318.3536
       311.0533       321.1216       314.8518       341.9520       354.5465
       317.5455       338.1239       361.2501       329.1012       370.2257
       414.0166       363.8809       344.9956       393.6774       401.3392
       361.8308       352.3636       393.2734       363.7515       333.3564
       374.1934       393.6890       369.9845       329.0934       333.2078
       360.6531       343.5413       326.1267       309.4375       298.8556
       280.6476       265.6704       267.9121       268.8741       251.3558
       250.6275       244.3242       232.2053       210.3099       164.9739
       172.5547       224.6089       175.4811       116.5666       122.4144
       131.6908       157.8363       142.3957       72.10745       21.07950
       7.413834       57.50755       56.82049      -12.20072      -44.10568
      -39.09280      -39.29927      -39.54114      -59.73633      -124.4400
      -136.2488      -57.19757      -83.80194      -197.8489      -204.0187
      -118.1022      -137.3553      -190.1895      -181.8796      -225.5175
      -273.2012      -257.4722      -229.7926      -222.5999      -259.8339
      -269.4620      -254.5287      -259.6636      -271.9901      -307.9515
      -327.8044      -270.4651      -266.1921      -349.4989      -371.0386
      -328.7750      -323.4614      -312.5405      -333.8657      -389.5057
      -385.4266      -380.8479      -350.7937      -310.0686      -336.9154
      -358.3325      -345.0320      -348.5112      -337.0756      -325.1201
      -331.2878      -309.2511      -331.1479      -353.7218      -356.8638
      -337.4427      -283.2924      -319.0165      -355.2220      -295.8990
      -292.9767      -340.5208      -313.0510      -281.4955      -271.4042
      -206.0477      -203.2046      -213.6658      -201.6259      -272.8222
      -263.3839      -199.6461      -203.0314      -144.0513      -155.0280
      -231.9491      -190.5615      -126.2028      -102.6838      -100.5236
      -122.9531      -101.4563      -73.52841      -76.07782      -69.25488
      -71.95462      -96.64005      -71.10614      -69.76508      -67.92109
      -1.094859      -2.474733     -0.5738907       21.72091      -13.76865
       1.486824      -13.73952      -29.09973       21.19236       9.297554
       2.508484       70.76991       34.55690      -6.787521       32.26383
       20.16088       48.32680       30.95641      -36.72697       12.73455
       24.84336      -1.001534       27.92425       42.15110       37.84532
       33.07774       49.62860       76.37505       41.86844       17.93355
       54.03654       31.77047      -4.390640       64.96368       99.33310
       77.75366       89.29718       66.50507       44.47441       70.22040
       83.27783       97.59302       104.3638       59.00562       22.00146
       79.49854       112.2409       80.30252       60.49391       64.11780
       91.99844       86.48090       81.15958       111.5320       68.80515
       54.52090       116.2966       124.7791       80.04770       39.04212
       13.78785       20.52853       61.34454       91.16003       72.87250
       57.03311       74.55701       34.59808       3.941605       49.59280
       25.86893      -7.313950       48.59341       53.27597       13.08322
       13.43134       5.005997       23.29494       1.470093      -52.01440
      -40.17929      -61.11304      -69.26949      -18.90250      -37.39241
      -84.18169      -72.46399      -65.10265      -72.94775      -31.24833
      -2.308197      -52.77832      -110.5569      -86.64160      -49.70372
      -81.37195      -83.66660      -32.30301      -42.90636      -52.61530
      -28.89822      -23.09447      -39.61122      -44.26610      -18.90793
      -33.83950      -39.25780      -33.71683      -58.63094      -32.03515
       11.97995       4.396169      -5.209206       6.942291       27.69259
       43.99166      -4.804428      -25.42844       54.38382       107.1662
       61.94696       58.45300       118.2667       106.8302       115.8101
       130.9113       102.0417       126.6272       139.5665       99.22418
       121.0603       175.5404       161.8409       178.1731       184.8462
       147.2795       189.0076       193.7045       126.8630       184.3349
       226.0117       176.2606       206.4173       226.7945       199.5655
       208.0798       201.3229       224.5077       242.1771       216.7910
       250.1669       263.1646       202.8678       206.3591       281.9751
       295.8553       245.4022       241.4456       282.9929       270.4020
       216.7850       232.9592       265.5552       262.1865       256.4714
       255.0273       245.2122       251.2404       263.7805       264.3826
       250.9071       231.6612       241.0256       255.3447       247.2117
       230.8621       177.9496       174.0081       240.6033       191.7487
       140.0762       188.7015       156.9331       140.9806       190.4239
       172.2867       135.5966       143.0801       117.7622       96.64606
       89.64886       105.4117       128.7671       56.77179       66.19818
       113.4777       13.76820      -20.44748       40.54041       36.31409
       14.35332       26.71745       17.56673      -7.746246      -46.54409
      -34.61181     -0.6744690      -41.39946      -66.21945      -85.34125
      -82.63583      -58.30157      -129.8043      -176.6060      -91.01355
      -70.54724      -151.1351      -179.2379      -153.3837      -148.1727
      -192.2725      -162.7227      -118.4988      -154.2705      -145.6774
      -143.4091      -171.3475      -192.3956      -201.4816      -170.9866
      -173.2305      -182.0374      -181.8366      -227.1969      -241.7561
      -213.8207      -213.9864      -239.8949      -223.2448      -166.8746
      -233.5007      -253.5991      -171.4308      -209.6542      -218.2062
      -185.8093      -207.3384      -197.2592      -179.0894      -172.2386
      -171.1390      -180.7341      -206.2774      -171.6379      -131.9796
      -190.7313      -225.5883      -198.9427      -195.9683      -169.1018
      -148.8252      -204.8304      -244.6777      -225.4070      -169.6160
      -133.2588      -122.4446      -122.9170      -135.4533      -95.55664
      -85.57578      -135.9792      -119.0298      -85.49565      -89.23109
      -70.05182      -55.21155      -103.7388      -96.49005      -48.09294
      -63.21118      -49.36823      -52.73019      -107.4796      -137.0695
      -119.8789      -70.66510      -73.70111      -92.28595      -36.79954
      -23.77106      -51.96135      -20.34695      -21.01936      -18.34858
       26.68106       7.216114       4.360222       35.87439       8.681839
      -30.71351      0.5375366       58.17381       30.07482      -29.30259
      -19.43517      -8.172752      -35.71371      -46.80995       24.56543
       77.25742       35.32822      -50.91402      -82.95613      -21.41143
      -11.73754      -36.88626      -35.75278      -56.84097      -36.74826
       1.289326       3.710470       13.22505      -4.730164      -62.29099
      -35.92329      -43.44211      -65.90596       18.94297       6.538246
      -54.30925      -8.879360       31.25095      -5.058273      -48.89232
      -44.24940      -20.29800      -57.05165      -67.28825      -11.10603
      -15.22936      -4.248569       12.22421      -39.61612      -74.50834
      -31.02868       33.42315       8.003687      -5.232040       30.71098
       17.77587       1.483574       8.022820       21.33812       27.15441
       25.16490       32.16832       31.45929       31.67230       47.28927
       31.58624       32.94408       87.54575       55.43954      -24.56179
      -23.56683       49.51277       69.77187       16.84017       20.27551
       31.32138       20.32229       36.45253       53.74164       76.06549
       126.7563       144.1422       111.5829       88.95741       72.34052
       109.3257       144.7980       102.7084       114.8788       167.1352
       156.3090       114.2774       103.6905       129.6465       150.6171
       149.5278       128.7998       116.2249       113.5308       150.0862
       188.3074       169.9869       177.8913       177.6473       160.7292
       153.8105       115.6213       106.6521       117.7315       101.2563
       106.7394       147.4709       150.0482       142.1467       169.2251
       122.5144       92.36377       154.4872       165.1916       108.0478
       90.05374       107.8065       115.3273       93.60016       84.88263
       155.5686       149.2946       55.06949       75.89137       96.67538
       60.24164       111.6281       219.8899       220.0669       70.66516
      -3.266144       37.60335       61.08331       91.53769       91.32605
       62.80103       94.83356       124.6579       115.8212       120.0039
       118.5609       97.86024       68.82939       23.66129       34.26303
       58.08524       59.95068       85.40057       116.7747       148.5272
       155.2362       128.5988       94.79700       66.89323       43.55807
       56.09494       83.65424       66.76315       108.8226       151.5437
       101.7531       99.72070       111.6321       52.11890       70.55902
       103.9790       52.16328       64.66888       95.70409       68.33801
       97.68419       97.60687       22.93405       13.91702       57.37604
       63.15788       50.32962      -15.00369      -90.20235      -59.24464
       42.01950       100.0961       100.6770       78.41187      -2.862701
      -71.67788      -20.88784       43.04898       24.69136      -5.701813
      -10.40964      -50.49234      -32.57602     0.09999084      -32.60390
      -30.61944      -12.31982      -20.01727      -28.39926      -29.99608
      -30.31468      -77.05981      -99.66492      -49.04643      -49.24202
      -84.92487      -71.33099      -118.5270      -160.5354      -89.54047
      -68.30423      -113.4208      -92.94655      -61.74689      -54.21521
      -49.22708      -79.93161      -116.1187      -127.7157      -132.9850
      -119.9882      -134.9105      -181.5154      -183.6721      -202.4885
      -264.1383      -168.6490      -106.7127      -175.8340      -150.3585
      -125.2550      -159.2028      -211.8297      -222.1123      -155.5358
      -128.7913      -117.7159      -137.1110      -190.6716      -203.5218
      -196.7274      -151.4418      -108.7936      -144.0276      -184.7403
      -212.6911      -238.0809      -197.0010      -172.8859      -206.7954
      -240.2975      -275.4821      -244.4344      -217.5643      -248.3263
      -248.1868      -257.5689      -237.5452      -172.6019      -156.1119
      -215.7826      -240.4889      -147.6512      -75.28882      -78.57422
      -140.8649      -243.2181      -206.7113      -126.9747      -135.0887
      -130.1157      -165.1359      -196.6193      -137.6573      -104.1216
      -108.9653      -158.6797      -272.4886      -282.5909      -187.6911
      -186.9578      -262.2845      -270.1966      -214.6273      -231.4837
      -215.0622      -58.63766      -23.82928      -170.5768      -228.4973
      -99.51062      -61.04956      -303.8571      -455.3288      -292.5816
      -19.22867      -15.92822      -361.3657      -341.8556       115.6921
       176.4863      -171.2213      -239.3610       102.4384       313.5964
      -3.446472      -312.7291      -47.76189       144.6566      -107.2825
      -273.9134      -71.52528       116.8020      -55.97839      -147.7502
       37.25983       125.4404       9.246017      -61.87988       86.96912
       203.9745       175.2850       62.97251      -23.21039       70.61880
       146.8492       77.28766      -16.69408       10.58862       182.1849
       288.7722       160.4620      -83.41593      -98.77750       113.8209
       179.6955       195.6477       310.1139       331.2074       354.5649
       358.5387       186.2723       201.0258       359.1378       254.1584
       161.8345       251.7406       210.2483       136.2803       367.6509
       457.6984       219.5823       163.0369       187.3989       188.9586
       214.1548       193.5844       190.6841       300.9908       475.7911
       380.5338       106.3652       113.2382       273.3026       268.5613
       141.9626       51.41428       98.91809       266.4285       269.6833
       141.5970       121.2799       201.8585       260.6387       201.9489
       130.1455       162.7054       198.9857       136.9479       87.71259
       134.2433       194.7871       160.6073       79.50282       80.26358
       94.02460       102.7180       139.7691       168.5237       99.74493
      -18.17347      -1.361389       106.1129       114.9841      -72.49680
      -144.9617       25.99261       114.7076       113.7894       39.48084
      -43.59689       56.93214       90.05911      -8.778961       46.48892
       94.76135       86.55113       100.8907     -0.6438599      -77.47342
      -54.24774      -90.04312      -120.4412      -77.87791      -58.18669
      -55.92523      -108.8526      -115.7448      -42.50040      -82.07056
      -190.2803      -222.1284      -151.2305      -106.2389      -93.54230
      -39.16136     -0.2240601      -42.50336      -173.1053      -233.5415
      -106.9523      -17.65845      -97.83875      -194.3962      -241.9345
      -151.4958       11.95449      -7.681377      -32.94777       12.33020
      -89.90762      -150.7568      -119.4376      -157.6552      -171.1269
      -156.4255      -79.81616      -84.23877      -176.2171      -104.2936
      -55.57806      -118.4461      -88.58310      -15.42908      -37.63187
      -70.55379      -66.05713      -67.65711      -27.47137      -49.48846
      -144.7838      -160.4588      -95.96831      -38.57278       5.985413
       61.19803       143.7617       106.7835      -54.88124      -76.06790
      -71.09981      -44.17879       39.93349       2.710876       17.95514
       77.69588       92.22137       57.88400      -7.010010       44.92410
       101.2885       70.35664       19.59400       8.830994       72.50439
       151.5902       159.6517       64.60657       83.57385       197.5549
       143.8243       7.205627       45.43292       172.3412       175.0818
       141.8382       126.7766       115.8916       158.3353       196.5059
       165.0375       125.0328       157.2379       140.1699       139.8253
       200.9752       202.3374       219.4512       249.2421       219.3716
       188.0960       154.3080       119.3843       142.8036       195.3858
       214.1423       181.6005       140.7690       180.1022       277.9482
       268.1705       122.1608       76.16879       122.9920       124.3906
       133.9886       168.9929       186.3193       180.2986       145.2921
       132.3715       129.4741       107.4257       115.5758       176.6849
       237.7558       226.0886       191.3220       177.8043       173.4696
       152.2839       125.8431       144.2484       135.7159       158.4646
       200.1934       159.5197       136.7415       145.0703       121.2084
       119.3256       148.6340       99.60851       24.13081       47.23517
       127.8164       166.1796       110.5937       81.25369       148.6396
       143.4253       66.14294       69.13022       84.90840       49.59531
       50.78967       58.23322       60.61580       55.01104      -17.81119
       19.54013       91.91138       25.11514       8.420441       52.17468
       70.37256       108.0388       85.02759      -30.33762       29.02463
       119.5079       66.68887       40.85780      -33.49829      -36.33908
       79.79644       58.74945      -30.77467      -26.42453       55.14048
       63.56583      -9.795853      -42.52225      -43.85735      -29.47960
      -20.31612      -47.31271      -47.18398      -48.83011      -57.62067
      -36.17708      -60.27351      -82.35930      -66.66457      -55.36261
      -71.37802      -105.4193      -105.9177      -96.91553      -110.4932
      -129.4107      -120.8229      -136.3413      -136.6903      -106.7437
      -94.20187      -109.1746      -164.8585      -139.4104      -121.0524
      -187.8295      -213.0602      -176.8426      -109.2306      -91.97687
      -149.1475      -226.4224      -241.3443      -180.3587      -178.5726
      -222.1744      -251.3625      -212.0818      -105.1387      -104.9050
      -174.8397      -185.4131      -148.3408      -147.4542      -194.3402
      -201.5815      -247.0453      -274.9191      -230.0198      -213.5020
      -152.8284      -145.6616      -218.5604      -201.3373      -173.8601
      -192.5600      -183.7569      -156.6759      -187.6547      -203.4215
      -234.7428      -294.1393      -209.4308      -147.2414      -167.0674
      -129.2589      -103.1774      -127.0986      -124.9854      -75.53966
      -51.97079      -58.26950      -133.7121      -161.0255      -83.55835
      -100.6058      -98.37968      -49.76457      -57.08141      -41.13876
      -46.24033      -98.21393      -120.9603      -79.47977      -57.28705
      -52.66908      -23.39224      -48.76102      -107.8613      -109.6437
      -73.16946      -80.92545      -52.90881      -51.16449      -122.8767
      -72.01492      -81.79866      -102.0372       5.645388       13.45727
      -34.92214       1.243191     -0.4444885      -59.01921      -35.37794
      -23.39531      -70.32501      -68.97791      -58.83534      -34.22794
      -48.59880      -92.83576      -11.68881       19.11965      -34.12273
       24.75581       61.10069       32.54798       10.27885      -6.936546
       9.198681       4.746857      -46.25432      -55.92703      -47.25473
