     0.02500000      -759.4283       678.0559      -12345.00      -12345.00
      -30.01000       242.9900      -42.60000      -12345.00      -12345.00
       0.000000       31.53000      -12345.00      -12345.00      -12345.00
      -12345.00      -12345.00      -12345.00      -12345.00      -12345.00
      -12345.00      -12345.00      -12345.00      -12345.00      -12345.00
      -12345.00      -12345.00      -12345.00      -12345.00      -12345.00
      -12345.00      -32.15180      -64.99920       1093.000       0.000000
      -31.37200      -68.11800       0.000000       97800.00       0.000000
      -12345.00      -12345.00      -12345.00      -12345.00      -12345.00
      -12345.00      -12345.00      -12345.00      -12345.00      -12345.00
       307.8428       107.1249       285.4908       2.767945      -12345.00
      -12345.00    -0.01580677       90.00000       90.00000      -12345.00
      -12345.00      -12345.00      -12345.00      -12345.00      -12345.00
      -12345.00      -12345.00      -12345.00      -12345.00      -12345.00
      2008       244         6        45        48
         0         6    -12345    -12345     10921
    -12345    -12345    -12345    -12345    -12345
         1         7        13    -12345    -12345
    -12345    -12345    -12345    -12345    -12345
    -12345    -12345    -12345    -12345    -12345
    -12345    -12345    -12345    -12345    -12345
         1         1         1         1         1
ESP10   -12345          
01      -12345  -12345  
-12345  -12345  -12345  
-12345  -12345  -12345  
-12345  -12345  -12345  
-12345  -12345  -12345  
-12345  -12345  BHE     
XH      -12345  -12345  
[...]
      -171.5800      -68.31686      -58.04080      -158.1696      -106.9002
       6.726837      -11.05135      -73.55441      -97.14670      -70.10095
      -105.8213      -151.7461      -100.2963      -77.74548      -75.51231
      -44.19833      -26.49008      -52.97128      -132.5107      -204.8561
      -179.8950      -124.5121      -99.30946      -32.24222       2.465469
      -31.98557      -68.69904      -121.9964      -166.2847      -137.5235
      -91.80890      -126.4063      -152.1878      -130.8824      -127.2035
      -104.1028      -57.16252      -34.04599      -82.56508      -100.9169
      -32.38580      -49.65244      -101.2122      -108.1714      -67.34454
       19.68531       2.778320      -62.38979      -27.16662       19.01942
       9.382732      -14.44872      -3.474533       29.69103       28.74920
       36.59203      -2.023430      -35.27313       22.79836       56.23412
       50.84415       45.90055       42.58051       27.97748      -1.658707
       27.04913       66.37947       50.03897       10.25601       33.30316
       69.51614       92.91092       112.5946       56.32150       32.18324
       71.15771       41.62332       50.35068       91.91879       27.47902
      -39.04933       6.253418       62.58621       64.80739       66.14668
       80.04587       77.57080       91.63046       79.97237       71.36937
       69.61487       46.07617       90.68469       120.5407       86.26384
       71.33878       83.66360       136.3719       169.5341       158.1245
       123.6669       90.60086       76.17273       116.0247       189.4645
       233.6599       201.5066       140.3699       119.8557       85.74231
       40.49054       85.77347       161.6901       140.4199       96.27740
       113.2930       149.6915       145.3860       99.96948       113.3614
       146.4903       108.3847       62.94156       80.11072       73.42470
      -23.46163      -40.97729       40.58295       100.6867       160.5450
       146.4227       32.67184      -42.24916      -46.37674      -47.75169
      -65.72717      -108.7108      -130.4558      -76.54814      -35.57379
      -64.32727      -100.5504      -107.6315      -116.9657      -160.3460
      -161.1850      -121.6978      -140.1144      -205.3341      -251.1761
      -188.5848      -74.08142      -77.29468      -146.3085      -208.3254
      -228.6728      -163.5429      -113.5458      -155.0132      -176.7742
      -113.6908      -51.52258      -68.94901      -141.3289      -188.0508
      -195.1441      -193.1911      -147.7940      -104.4459      -117.1096
      -113.2484      -49.23828      -68.81412      -156.3675      -132.4278
      -65.56752      -53.05713      -89.59589      -116.4893      -67.73387
      -14.19905      -12.79602      -71.84802      -138.5342      -115.0666
      -19.16751      -20.99976      -92.04416      -124.0408      -125.4939
      -92.79617      -54.80313      -61.60056      -71.31738      -68.80862
      -93.99313      -122.8547      -109.3831      -151.6104      -208.0644
      -194.7363      -143.7183      -85.87030      -29.06631      -23.64795
      -94.28674      -172.2720      -190.0396      -133.9727      -87.08038
      -103.6725      -93.82349      -55.22940      -34.72952      -77.08881
      -101.2715      -89.24762      -89.63364      -106.5294      -94.32938
      -22.11047       3.841064      -77.23062      -102.7747      -4.703590
       46.24756      -22.45685      -83.79613      -76.35564      -19.79584
       48.51193       37.89750      -25.39855      -32.07268       2.739090
       44.76244       68.66348       36.36650      0.4730682       5.896255
       30.82033       54.57294       56.82257       31.22961       14.23383
       50.39534       76.86884       102.1506       88.72125       69.06161
       92.75745       63.85413       96.52118       155.3135       145.6163
       147.8995       118.0711       72.62012       93.76379       130.0392
       137.2967       168.2665       173.8971       146.2228       182.4484
       174.0932       96.10272       88.03748       142.6691       176.3049
       181.5529       165.3792       152.0110       128.1687       118.6606
       172.6926       182.6016       144.3299       147.2271       133.0302
       117.8731       138.0643       166.3967       90.51727       39.37244
       214.1135       291.2273       124.0976       33.23642       56.36459
       98.46954       124.2068       120.5578       102.1217       85.59903
       88.03548       62.99716       9.544357       2.704529       77.22745
       134.1273       64.65804       10.60129       26.74129       40.51932
       77.14319       71.03943       25.68881      -36.08873      -67.60246
       48.07968       146.1633       69.80823      -50.47605      -61.35366
       14.14554       42.68287       17.38164       11.72270       15.69090
       18.39519       7.564209      -29.91110      -21.90984      -3.131882
      -56.09766      -83.95331      -48.05377      -37.37628      -66.00214
      -94.95325      -91.05939      -81.57839      -52.95538     -0.4780731
      -15.01178      -119.9038      -184.2685      -117.9975      -80.83826
      -127.6146      -133.8027      -154.2663      -141.4111      -86.03040
      -67.66980      -73.23529      -176.2610      -209.9005      -134.2844
      -166.8574      -190.9691      -141.0395      -153.8944      -214.7284
      -200.9528      -110.2986      -15.46515      -92.57300      -222.5650
      -167.8383      -144.1875      -222.6629      -157.8176      -105.0777
      -189.8013      -214.9267      -156.6335      -109.2118      -59.92603
      -67.60522      -132.2304      -163.4328      -123.6417      -99.14026
      -159.7492      -223.7470      -163.3704      -58.69281      -76.73083
      -109.6583      -31.05495      -29.53343      -91.27524      -67.78644
      -52.05893      -67.53812      -72.16733      -76.04617      -4.318130
       75.51668       4.892975      -88.83298      -58.02978      -36.50851
      -48.83243      -3.983704       62.49478       86.86560       63.64497
       29.97726       40.04099       60.29903       74.15308       86.31119
       87.33148       100.7038       99.21555       70.77988       65.34689
       114.8221       161.0005       74.61502       34.14490       150.6758
       225.0424       187.9520       127.1582       150.2653       201.5718
       164.5945       123.2979       110.5702       118.6138       160.1083
       182.9809       180.2895       174.0387       155.2762       160.0062
       188.2911       161.2906       115.6573       124.0312       133.0886
       108.9339       57.24919       30.08945       108.7421       241.2457
       268.7895       191.2886       116.8234       85.75685       30.47209
       7.996948       113.7667       161.4102       116.9706       104.8393
       109.4084       127.6662       140.1859       135.3289       107.4588
       57.84134       65.48163       110.2328       85.91533       65.83594
       78.07120       83.21533       132.4720       139.0105       43.52605
       32.90363       112.9366       101.1123       60.08249       108.7708
       184.3458       178.4047       107.8364       60.12683       57.28059
       45.56866       66.93066       124.7316       108.1290       74.48039
       85.91626       61.74313       60.61334       81.75443       52.54552
       33.57513       59.31470       101.4901       56.73508      -10.93388
       27.16602       56.93547       26.15318       4.683540      -13.41861
      -23.93802      -12.82562      -52.92259      -102.4779      -41.45303
       35.28003       18.56863      -40.50818      -95.06732      -116.8896
      -71.44856      -51.41031      -113.9817      -126.7793      -62.65546
      -55.60812      -98.05469      -145.5169      -145.0684      -107.8442
      -129.7371      -153.9733      -82.38879      -43.22559      -159.6259
      -234.7474      -172.1317      -56.86909       63.53700       18.99780
      -157.5111      -242.8060      -207.9093      -183.0683      -227.0383
      -187.5026      -32.11736       31.45824       18.33354      -34.41309
      -165.6943      -239.8579      -183.5587      -96.61322      -71.69296
      -88.01205      -33.59606       27.37461       14.84145      -19.49722
      -42.11710      -63.44141      -99.65588      -108.0605      -40.45874
       44.56520       49.85311       19.96981      -3.551706      -1.539726
       20.87502       7.005171      -2.749481       36.19661       73.84792
       45.30482       10.72487       27.00317       90.38901       113.0554
       97.64752       101.2148       68.97350       24.28881       8.461197
       1.271240       71.21835       155.3527       95.50044     -0.6091461
       56.23329       98.41875       25.85869       36.44537       86.38786
       29.39564       12.68237       91.29120       150.5811       107.8994
      -15.97004      -64.53277       10.36575       52.01845       65.65015
       91.86053       87.59879       38.00092       19.42721       22.18767
      -48.38279      -56.57303       61.38885       118.4979       79.86230
       92.75592       131.4913       70.04115      -22.55789      -38.00180
      -6.152985       3.956665       17.31743       30.17603       11.85032
       15.19343       34.67006      -19.04678      -83.87970      -67.72418
       14.98463       95.33246       54.59131      -77.46649      -152.7328
      -126.0524      -81.42462      -76.79539      -51.38555      -10.58735
      -2.148552      -5.914307      -72.09216      -197.6858      -210.7320
      -150.7395      -114.9298      -44.94461      -20.39539      -96.42548
      -144.0396      -189.9440      -200.2109      -130.9330      -103.4684
      -90.10611      -51.80859      -47.87534      -107.0150      -161.3897
      -128.6163      -100.6426      -135.9562      -112.4541      -67.98328
      -121.3890      -198.9201      -231.8691      -187.4102      -129.7985
      -146.7913      -197.0232      -199.3873      -140.4884      -95.71649
      -94.12802      -122.4909      -167.0758      -210.1469      -261.0815
      -274.0319      -191.5037      -94.60626      -107.3365      -154.2411
      -125.8384      -138.4420      -220.8802      -167.2054      -80.52002
      -98.15533      -111.2138      -97.85724      -105.6177      -133.8506
      -130.3719      -102.0031      -99.84192      -102.6384      -131.0372
      -103.1762      -21.92930      -15.24098      -64.45743      -123.7207
      -165.8155      -137.6452      -60.39894       20.51293       27.52111
      -9.715399     0.01240540       21.58423       34.58744       26.04657
      -33.28058      -22.54572       28.74637       71.87393       107.9529
       98.98242       55.53325       28.07142       39.19568       49.55623
       39.25012       31.42676       72.65216       115.4323       102.1570
       75.35423       63.77518       113.1248       104.7749       16.01554
       3.008972       43.21474       75.86182       103.9873       131.5593
       186.9904       216.0434       116.9312      -13.86279      -14.99245
       38.17459       68.10858       117.0782       161.5344       211.8176
       286.1523       291.5652       219.3258       141.8009       88.51904
       34.27835       73.38379       175.0066       228.6370       266.8977
       310.4350       347.5605       271.3838       143.1134       158.5057
       178.2726       54.20032      -61.42876     -0.1560669       224.2605
       410.0757       384.0011       332.4741       392.2273       438.8414
       439.5542       357.3545       150.6354      -22.38853      -7.579529
       136.5341       260.6398       326.2212       385.6726       434.3342
       426.1365       441.7581       494.1250       417.3954       273.5662
       241.2158       244.5884       176.8615       125.0365       149.0731
       262.6702       496.7871       611.9650       427.4205       195.9196
       113.9298       53.08593       31.70667      -26.59570      -303.5815
      -430.7783      -135.7135       263.5109       465.8765       498.2010
       420.0378       197.3416       43.93375      -32.86047      -317.7817
      -683.3433      -680.8500      -207.0588       393.4565       601.9081
       316.3153       14.41652       13.01126       109.4256       118.1528
       150.9904       163.1481       50.66728      -46.29022      -73.53577
      -266.6927      -438.0278      -188.2139       137.3723       236.8530
       132.9451      -128.0392      -291.3303      -340.3228      -489.0006
      -562.2804      -490.7004      -410.2316      -286.5284      -206.8334
      -255.4653      -301.9535      -325.6797      -330.6837      -338.7844
      -472.6123      -535.3154      -339.2971      -307.3557      -480.2542
      -389.2419      -236.7563      -505.5750      -759.4283      -455.0202
      -140.8987      -293.3357      -456.0533      -402.8170      -311.4851
      -323.2115      -401.4468      -449.4291      -488.5312      -492.8994
      -477.1046      -485.8486      -446.7520      -501.9844      -691.5273
      -738.1644      -620.0483      -496.6023      -462.0311      -482.1989
      -479.9857      -517.4597      -501.3043      -495.1702      -585.0984
      -467.9439      -204.6614      -99.09448      -202.1067      -458.9697
      -645.7913      -619.3049      -400.5952      -152.8714      -21.11786
      -42.39734      -175.5297      -278.6313      -356.0554      -400.8722
      -325.6503      -210.2971      -1.853149       196.3522       214.5567
       185.1404       36.77863      -194.2771      -138.7917       127.0430
       267.1022       317.9448       237.1078       20.23641      -38.25778
       49.41687       189.1840       312.1196       314.9259       282.7046
       389.3005       454.1296       291.7356       95.26941       114.5879
       302.3806       427.7009       416.4932       369.4390       386.7725
       444.0928       475.3228       415.2087       288.4072       212.7148
       228.8965       332.1558       381.1078       381.0247       409.3560
       378.6926       391.4857       536.3655       540.8595       284.6480
       216.8071       419.8499       492.0833       529.1382       593.6410
       493.9547       430.3177       463.4449       441.2938       436.5426
       429.6218       371.5492       381.1458       456.5280       453.3422
       420.7034       438.8049       394.0780       252.9144       161.5869
       232.5137       301.2809       265.7012       389.9072       650.5366
       678.0559       479.0081       282.7479       181.1830       168.9207
       208.6915       238.1011       238.3490       292.1343       385.7264
       383.4886       293.3308       254.0323       309.3217       391.3595
       328.9539       169.9351       139.3440       217.6833       206.6406
       159.2193       247.9097       303.7618       234.7001       163.8372
       45.56476      -59.38164      -21.36963       64.47035       78.95995
       34.64228       6.503708       22.37933       68.27970       29.60681
      -134.1693      -215.2831      -128.6620      -5.704376       50.15662
       12.41241      -112.2963      -221.6766      -289.7491      -251.4705
      -50.96825       79.44249      -12.85052      -195.8619      -254.9865
      -175.4031      -138.5531      -221.8832      -251.3786      -131.2855
      -55.35718      -163.6368      -282.7922      -259.1821      -265.6091
      -409.1572      -526.5479      -433.8137      -316.3210      -385.1393
      -436.9419      -272.2156      -134.2566      -186.6233      -250.8265
      -325.2207      -435.9661      -405.1058      -283.7482      -308.3977
      -408.6519      -399.8544      -269.6410      -125.2718      -116.6755
      -156.6485      -169.6179      -258.6603      -364.5797      -389.3276
      -382.3252      -351.9332      -269.0121      -231.8094      -236.4698
      -127.1090      -80.43658      -207.8868      -327.7727      -337.3304
      -241.8947      -202.1230      -238.6025      -164.9843      -45.60266
      -94.96448      -260.8890      -311.2922      -278.3552      -228.5995
      -181.4554      -208.7679      -239.7412      -140.0722       50.21176
       88.59010      -30.75540      -124.6704      -174.0412      -130.8959
       28.24716       162.4200       124.0295      -14.51184      -141.8035
      -207.4737      -154.9639      -59.47227      -55.65875      -86.13004
      -24.83263       65.96423       53.28506      -18.85631      -16.40514
       15.56352      -46.20618      -139.3022      -135.3813      -40.84265
      -65.37506      -146.8015      -85.91339       44.48364       172.5361
       275.7496       246.0674       36.64847      -163.6913      -103.7042
       61.19498       135.2136       171.9881       165.3693       88.51920
       28.35699       44.50244       91.24158       144.9569       239.1157
       263.1516       175.3907       135.9419       169.8435       105.7621
       15.97519       69.31113       87.67554       125.6613       331.4895
       301.3668       25.84207      -43.80213      -22.52436      -55.43469
       45.81152       165.6438       189.2851       153.2344       36.41302
      -85.50854      -193.8622      -208.6032      -39.27887       91.15445
       46.83002       34.50018       89.71252       54.49976      -91.40405
      -206.5051      -183.1382      -80.80994      -13.95667      -3.454178
      -21.11096      -49.48508      -115.1147      -159.0088      -63.90607
      -38.32703      -190.9810      -294.4787      -197.3470      -38.14845
      0.9515076       11.40771       72.28030       116.3887       117.0277
       134.4543       217.3231       201.1146       9.732056      -104.9807
      -94.43132      -66.60500       2.601196       61.26396      -29.06104
      -197.8802      -170.0225       62.53815       148.8152       19.73524
       2.890747       72.51086       54.24213       114.6732       296.8754
       324.7047       78.29349      -120.9958      -22.07166       137.3374
       244.9506       337.4028       251.6286       76.81836       63.97174
       194.5236       260.0003       163.8701       97.66534       195.7725
       371.8849       541.8214       463.8643       132.9816      -61.40869
       50.07770       249.0455       270.7628       60.47278      -194.9220
