     0.02500000      -496.4011       592.0330      -12345.00      -12345.00
      -30.01000       242.9900      -42.60000      -12345.00      -12345.00
       0.000000       31.53000      -12345.00      -12345.00      -12345.00
      -12345.00      -12345.00      -12345.00      -12345.00      -12345.00
      -12345.00      -12345.00      -12345.00      -12345.00      -12345.00
      -12345.00      -12345.00      -12345.00      -12345.00      -12345.00
      -12345.00      -32.15180      -64.99920       1093.000       0.000000
      -31.37200      -68.11800       0.000000       97800.00       0.000000
      -12345.00      -12345.00      -12345.00      -12345.00      -12345.00
      -12345.00      -12345.00      -12345.00      -12345.00      -12345.00
       307.8428       107.1249       285.4908       2.767945      -12345.00
      -12345.00   -0.001519898       0.000000       0.000000      -12345.00
      -12345.00      -12345.00      -12345.00      -12345.00      -12345.00
      -12345.00      -12345.00      -12345.00      -12345.00      -12345.00
      2008       244         6        45        48
         0         6    -12345    -12345     10921
    -12345    -12345    -12345    -12345    -12345
         1         7        13    -12345    -12345
    -12345    -12345    -12345    -12345    -12345
    -12345    -12345    -12345    -12345    -12345
    -12345    -12345    -12345    -12345    -12345
         1         1         1         1         1
ESP10   -12345          
01      -12345  -12345  
-12345  -12345  -12345  
-12345  -12345  -12345  
-12345  -12345  -12345  
-12345  -12345  -12345  
-12345  -12345  BHZ     
XH      -12345  -12345  
[...]
       12.35869       12.03412       13.90118       21.11438       26.40944
       20.55238       17.58624       26.16614       29.85229       23.72958
       21.86652       18.89505       25.14292       21.38431       15.88573
       26.26585       15.94555       18.02932       20.02178       7.683853
       11.58789       10.62848       17.60993       5.229490      -2.741983
       14.02863      -3.688237      -1.714333      0.5016899      -26.23043
      -4.400173     0.01928711      -20.92126      -27.33129      -32.25246
      -22.97906      -33.89789      -48.19629      -50.94617      -59.16492
      -56.47723      -64.89606      -71.40619      -74.55029      -81.34276
      -81.12216      -83.96771      -93.44232      -99.36578      -90.97610
      -105.0697      -116.4539      -96.37186      -99.43494      -115.8749
      -108.5553      -95.77875      -107.6380      -109.3717      -99.67236
      -100.8811      -102.6075      -96.94678      -84.58627      -85.64078
      -94.61667      -84.74893      -73.00005      -73.06165      -75.20689
      -70.37534      -63.52782      -58.87849      -66.94814      -52.15942
      -30.45645      -56.48732      -57.23013      -32.07993      -28.19099
      -23.65813      -28.78443      -30.71993      -20.26827      -10.59081
      -7.206192      -8.454311      -17.82072      -10.42363       5.640433
       1.841221      -2.689587       17.51646       24.29154      -2.902725
       10.52232       27.52698       15.63971       39.80450       45.02063
       20.13614       38.11472       58.45882       41.57359       53.79791
       59.65265       47.03571       69.27081       69.94444       64.07700
       80.99596       72.32922       76.24802       92.48373       78.85059
       88.28696       103.1152       100.4409       99.07117       102.4497
       107.9768       110.0344       125.7444       126.7076       118.9685
       121.4431       118.2933       123.4251       127.9279       132.2495
       130.5340       118.8730       116.2592       119.0915       120.6635
       133.6604       123.2099       101.1613       105.6898       121.9853
       117.8252       115.0854       126.1670       109.0316       105.3303
       121.6985       110.8202       115.2104       135.6733       117.9762
       110.4796       127.3760       127.2659       128.8619       141.4964
       134.9080       122.5246       136.2031       143.3737       139.8998
       147.7931       147.0642       121.6349       121.9053       145.5742
       148.7724       122.2890       134.6547       145.1419       116.4341
       121.2463       125.9828       117.4596       124.7361       113.2151
       102.4248       105.3571       102.8249       95.42041       88.45331
       91.28683       91.64595       75.88257       73.30072       80.55872
       82.25894       77.45676       65.05225       59.19153       67.48956
       62.05551       48.19661       55.04980       57.74759       50.40041
       49.18954       47.02582       34.83012       42.61952       48.98351
       35.25928       21.88433       30.01999       39.08364       25.18069
       24.48313       38.08422       5.060457     -0.7492752       13.70219
       7.811571       7.099735       2.292562       4.178627      -10.55304
      -23.46510      -16.70746      -25.37773      -32.70351      -36.52826
      -47.83023      -53.24786      -51.46591      -69.45505      -69.83836
      -69.46448      -78.37613      -91.09293      -91.96777      -86.31653
      -93.27139      -94.37512      -85.66147      -107.9511      -118.9173
      -108.2940      -115.9995      -121.0867      -117.6010      -121.6440
      -118.0323      -125.1262      -136.0100      -145.0921      -140.1083
      -127.1175      -135.7126      -150.6516      -151.1863      -146.6317
      -146.9517      -146.4150      -150.3732      -154.7114      -141.9826
      -148.4275      -158.3665      -148.4419      -148.7444      -153.8749
      -135.0083      -139.0446      -155.3398      -146.6983      -142.9861
      -139.9299      -142.3259      -159.8605      -148.9307      -133.0247
      -146.0593      -151.0359      -135.1356      -143.1474      -140.9698
      -144.3734      -152.7761      -127.9977      -133.3951      -145.9445
      -136.5153      -138.2387      -141.9759      -146.1554      -138.3644
      -125.5408      -128.0823      -131.8143      -125.6808      -127.2979
      -127.5958      -121.0801      -119.9036      -114.5654      -106.9344
      -115.3503      -119.0768      -112.9426      -113.2841      -101.8130
      -96.96945      -93.29630      -100.7354      -111.2137      -94.32379
      -93.24405      -108.1136      -94.79172      -98.41678      -106.2934
      -92.76593      -97.05807      -91.26448      -76.04353      -80.62021
      -84.44263      -81.88495      -83.78046      -86.56851      -63.92902
      -61.00793      -75.15984      -62.61382      -56.00722      -63.07635
      -60.15535      -50.59811      -53.76250      -43.71616      -42.77861
      -46.09365      -29.47194      -25.56050      -25.00091      -30.47155
      -25.66113      -11.04114      -12.47320      -14.26086      -14.62299
      -3.742700       1.083097      0.8536062       4.090231       7.438805
       5.124249       7.180401       13.12949       29.90314       27.98206
       17.81142       26.80275       36.94170       37.40538       44.92078
       46.28409       54.43095       66.09012       69.98349       67.99527
       69.06001       74.67642       84.88370       88.28577       88.70926
       96.38312       101.7424       109.7079       118.6816       115.9803
       124.1525       120.7900       125.1642       140.7982       139.3289
       142.6144       147.2054       148.0176       155.2420       153.3829
       157.6175       158.5027       160.1264       165.3501       160.4926
       170.2397       181.7867       171.6725       171.3511       184.7148
       187.7051       178.2091       177.6089       186.3236       200.4515
       191.1169       187.5209       202.2489       194.6346       186.2546
       203.8331       212.2955       208.9918       206.4051       213.0581
       211.0209       202.5152       210.1013       204.4476       204.6161
       217.8887       188.0759       184.7869       200.5344       200.8652
       186.1375       182.9474       191.6527       170.4938       164.6100
       176.6030       162.5320       150.1317       147.6437       156.0522
       143.4385       134.6279       131.2621       122.7357       125.4441
       127.2258       113.2948       105.8111       107.9714       97.79781
       83.42522       82.30978       73.61136       75.57776       64.95111
       49.91458       50.40411       51.11642       39.22849       37.87769
       28.57893       14.67776       20.44176       18.43522       4.631645
      -1.688017      -5.874210      -6.180542      -21.67748      -21.30199
      -25.48700      -42.05261      -49.14972      -43.91484      -51.59534
      -64.00108      -60.18147      -76.41086      -93.63431      -91.38818
      -96.27008      -102.8746      -121.7070      -126.8176      -116.1659
      -120.8296      -146.3635      -140.3008      -146.4648      -154.0000
      -147.5883      -169.5574      -179.8206      -160.4148      -172.4525
      -179.5635      -174.9924      -172.2950      -169.0282      -182.8523
      -192.7404      -177.9526      -168.7903      -177.0961      -183.9304
      -178.3105      -182.2778      -183.5607      -177.0172      -179.8729
      -189.0214      -175.2785      -172.6999      -179.8499      -179.9443
      -175.7117      -168.8061      -169.4573      -174.5163      -169.3552
      -162.7871      -156.4144      -162.3051      -162.2474      -145.1874
      -142.5004      -143.5207      -140.0455      -143.9547      -137.5929
      -116.3323      -118.1718      -136.1649      -114.4712      -100.5881
      -104.2111      -93.18314      -91.31985      -100.9587      -88.98775
      -73.10754      -76.32217      -69.79233      -57.79364      -62.31577
      -55.23595      -44.96477      -41.20593      -34.69841      -15.36271
      -15.54958      -16.82388       6.670813       7.634572      -7.822807
       19.97838       44.41354       27.96200       13.61749       42.30251
       52.98782       53.75494       58.59851       61.58984       80.72078
       76.30078       67.86172       77.64124       86.60248       97.65820
       91.29297       88.95517       105.9662       109.1285       95.68057
       105.5762       111.2262       110.7487       116.6333       106.4525
       108.6648       113.9703       113.5894       115.2912       99.31287
       106.9329       115.7138       115.5396       116.7422       109.6481
       113.6746       107.1002       106.0935       112.1515       104.9906
       100.9413       103.6100       110.8126       95.87598       87.49069
       99.36877       96.31146       85.87018       78.30997       74.74428
       85.31429       79.59732       69.67813       62.88864       53.06424
       56.04114       61.97148       50.93626       39.65570       47.46364
       54.25807       36.45021       34.58578       35.10419       20.69184
       15.75158       15.25916       8.693344       6.427532       6.979719
       2.057938      -6.861953      -3.613918      -6.964802      -17.22508
      -8.328560      -19.33593      -35.65092      -28.62843      -30.79795
      -32.27223      -29.62071      -31.47009      -39.30811      -38.14459
      -44.03328      -43.76286      -43.86987      -38.25674      -43.83241
      -55.20563      -48.40181      -45.76070      -51.33179      -62.71690
      -55.82748      -53.50638      -67.81580      -48.08319      -50.31107
      -74.88846      -69.98021      -55.69513      -71.44997      -76.51559
      -60.05319      -67.73129      -76.32225      -61.91464      -63.85573
      -67.86615      -61.98357      -61.35921      -58.70929      -50.59680
      -53.00385      -48.85923      -37.37758      -43.34460      -45.27313
      -50.43677      -44.14855      -23.88404      -30.10120      -29.16498
      -38.51810      -38.44908      -13.48592      -18.67390      -37.99570
      -30.76965      -17.09916      -9.939774      -29.38283      -42.00591
      -12.65546      -9.179588      -27.48055      -13.82112      -6.465820
      -13.50092      -20.40775      -10.21354     -0.7100334      -12.51042
     0.07786179       1.495972      -6.336514      0.9265003      -4.310715
       7.684921       13.96751       4.496109       4.699749       14.84415
       24.94091       14.36481       7.737064       19.98752       22.88338
       19.47351       29.12640       35.01432       21.78112       13.55495
       28.02174       35.61118       17.87852       22.93613       35.99623
       28.31512       18.81181       22.74055       27.92378       26.10172
       24.06033       33.73875       25.37807       27.81288       46.32143
       37.02394       30.17734       46.07106       42.57983       40.11032
       59.27583       53.91570       28.76440       48.31415       54.78621
       39.64726       43.71829       57.49054       58.78531       45.05696
       44.80257       51.76086       41.46179       51.63651       55.79556
       44.21642       24.05385       32.68932       44.28742       27.78378
       20.34265       31.68993       34.37534       37.36400       29.67453
       23.95879       30.45895       27.15385       23.64709       38.94335
       26.32353       21.46170       29.96710       25.89079       21.93918
       29.89222       29.91473       19.22034       25.32891       34.82980
       25.98321       30.08152       36.35935       41.65764       34.57593
       24.47034       30.47543       37.35894       31.10454       47.76413
       52.80573       29.78453       29.42357       50.49232       43.29705
       42.20076       38.03258       36.26688       48.75289       44.55573
       35.14407       49.59146       47.51215       39.81615       37.11008
       53.74025       61.10712       42.06046       46.00972       52.45311
       38.55838       45.44073       56.40375       49.86455       43.48643
       42.39105       42.13324       48.91207       29.92941       43.65776
       59.21687       31.40173       31.95485       50.63403       45.36008
       50.40097       43.48126       45.36969       39.55635       38.08548
       50.43899       33.75626       28.09452       39.31604       37.01324
       25.72316       24.60431       63.16638       94.00830       117.2057
       179.6700       192.7538       85.65110     -0.6782532      -67.66550
      -11.06476       42.04346      -230.8960      -290.2785      -94.97760
       35.58821       145.5606      -207.4524      -496.4011      -122.0628
       29.59341      -217.0221       195.6525       592.0330       96.94556
      -240.1490      -10.28314       146.7023      -38.55487      -44.93866
      -113.1148      -251.5773       7.846252       153.6473       159.5122
       33.62329      -315.9470      -330.6680       29.54626       82.57330
      -35.56082       89.42310       139.8475       98.65199      -11.72504
      -120.9277       11.86363      -28.05841      -124.5651      -35.41830
       113.8967       125.6603      -45.92043      -26.26996      -89.06683
      -127.8825       125.5494       97.26569      -192.2625      -147.6299
       82.18575      -54.56274      -145.6959      -57.93771      -85.19223
      -52.57336      -86.38857      -51.69881       7.372437      -210.4884
      -243.6313      0.2171631      -105.8259      -270.9738       2.814896
       117.6276      -184.0209      -371.6412      -173.1465      -40.64172
      -252.9200      -167.8400       57.63220      -117.3019      -231.2281
      -135.8385      -78.85345      -147.3389      -193.0358      -146.4008
      -229.8562      -267.6372      -141.5444      -86.99536      -190.0139
      -270.8849      -176.9203      -219.8627      -297.8209      -203.4337
      -199.8148      -239.9401      -151.1342      -103.7086      -256.1720
      -360.1330      -227.1647      -65.68561      -99.90698      -181.3577
      -188.1157      -245.2452      -288.9708      -153.6111      -78.59357
      -156.3956      -140.7158      -99.56567      -237.7419      -244.0887
      -109.2635      -176.5399      -188.8802      -132.8720      -68.59970
      -69.45483      -108.9913      -92.52271      -178.7192      -216.3746
      -106.4195       17.80238       18.32773      -102.0530      -77.30725
      -53.14435      -144.0234      -86.67305      -25.32440      -41.87294
       19.86186       31.17803      -42.22447      -40.17305      -2.110653
      -42.09900       54.07764       179.3116       93.42593       34.20074
       104.8256       140.8349       59.78363       59.06250       215.1155
       239.1777       130.6091       46.94812       96.61298       238.8843
       269.3897       166.3104       125.7552       190.6158       205.0998
       200.4756       183.7092       144.4852       231.1398       265.3112
       123.7849       128.7760       249.6860       207.0992       67.53992
       23.80164       180.7705       340.8604       403.8048       319.4007
       150.9044       90.23523       132.5282       288.9746       356.0615
       295.5839       254.8138       229.1335       184.5582       146.7876
       237.0671       322.8704       239.8850       98.45657       107.1215
       191.0974       243.7083       268.2786       159.2101       99.74554
       102.9344       142.2986       280.5803       200.8196       59.78625
       112.3932       109.9955       6.286621       149.8599       422.9215
       401.3136       223.2006       87.66419     -0.9914474      -11.18484
       28.63629       84.91180       175.6039       162.8759       9.655884
      -78.23016      -33.53381       41.18854       140.7280       190.1840
       155.9217      -23.72302      -260.0912      -110.4625       64.75107
       81.18762       161.4084       56.60815      -124.5775      -201.8193
      -150.5389      -5.466995       67.74562       57.81880      -33.27045
      -121.7095      -129.8929      -147.1100      -145.9835      -85.44617
      -53.62262      -64.42719      -145.7759      -217.2463      -139.2809
      -82.88495      -119.0219      -69.96011      -54.37054      -155.3456
      -169.7811      -57.70877      -130.7294      -249.6578      -129.8147
      -82.71802      -164.3831      -202.8679      -213.1547      -103.6406
      -11.29724      -62.74081      -94.56140      -177.0438      -279.5130
      -190.4644      -73.35609      -47.78889      -52.23096      -139.7377
      -221.2219      -135.7228       10.85004      -48.78857      -81.67316
      -78.15625      -225.2867      -146.5125       4.786377       44.58673
       93.32593       50.16403      -47.32019      -114.2899      -79.38361
       45.00519       62.84187      -29.75647      -45.47084       29.04987
       70.07372      -7.517822      -24.65575       75.43001       11.31903
      -24.88519       93.24289       108.2805       98.51474       85.71802
       62.79561       64.35823       32.30091      -18.22229       46.51761
       177.3249       90.18762       73.48907       150.0675       112.9246
       101.1038       103.6386       86.20984       38.66663       89.42862
       141.8423       61.30890       73.09351       115.6503       96.79968
       185.5230       198.2557       37.12410      -4.098541       121.0621
       160.5714       119.8779       138.2704       128.4478       26.78169
       32.51520       113.3566       127.5766       204.4748       135.6328
      -47.04337      -4.237244       133.2937       179.0299       130.4187
       34.97116       49.56125       138.2182       103.4569       15.92656
       29.79662       39.99602       47.84344       93.52032       89.82863
       75.14104       86.41626       27.40092      -65.72755      -12.26721
       101.8800       52.90714      -21.16763      -6.594284       33.46725
       94.43382       28.65533      -109.9429      -128.4936      -91.62471
      -38.68222       60.01768       76.44431      -28.28021      -35.44460
      -70.72379      -82.01939       28.06060       15.15778      -24.39703
      -81.85968      -213.9730      -134.0030      -45.57684      -70.81497
