     0.02500000      -696.4429       694.5420      -12345.00      -12345.00
      -30.01000       242.9900      -42.60000      -12345.00      -12345.00
       0.000000       31.53000      -12345.00      -12345.00      -12345.00
      -12345.00      -12345.00      -12345.00      -12345.00      -12345.00
      -12345.00      -12345.00      -12345.00      -12345.00      -12345.00
      -12345.00      -12345.00      -12345.00      -12345.00      -12345.00
      -12345.00      -32.15180      -64.99920       1093.000       0.000000
      -31.37200      -68.11800       0.000000       97800.00       0.000000
      -12345.00      -12345.00      -12345.00      -12345.00      -12345.00
      -12345.00      -12345.00      -12345.00      -12345.00      -12345.00
       307.8428       107.1249       285.4908       2.767945      -12345.00
      -12345.00    -0.06359347       0.000000       90.00000      -12345.00
      -12345.00      -12345.00      -12345.00      -12345.00      -12345.00
      -12345.00      -12345.00      -12345.00      -12345.00      -12345.00
      2008       244         6        45        48
         0         6    -12345    -12345     10921
    -12345    -12345    -12345    -12345    -12345
         1         7        13    -12345    -12345
    -12345    -12345    -12345    -12345    -12345
    -12345    -12345    -12345    -12345    -12345
    -12345    -12345    -12345    -12345    -12345
         1         1         1         1         1
ESP10   -12345          
01      -12345  -12345  
-12345  -12345  -12345  
-12345  -12345  -12345  
-12345  -12345  -12345  
-12345  -12345  -12345  
-12345  -12345  BHN     
XH      -12345  -12345  
[...]
       220.9984       192.3680       173.1921       206.4612       187.9871
       199.1484       253.7541       151.6257       84.93042       208.4591
       291.4600       223.9413       134.9018       111.0325       119.2477
       134.1168       104.4585       96.36487       150.7792       191.9875
       183.1666       110.5075       56.76445       38.68178       47.47528
       107.4505       87.78343       14.29524       24.88321       65.09367
       69.50128       48.24319       38.62453       38.83387       3.568008
      -43.57018      -68.75424      -63.77040      -62.79846      -87.30219
      -67.86736      -5.688126      -19.07327      -97.82445      -75.94473
      -38.60455      -99.11255      -118.0920      -83.96008      -83.45264
      -98.18663      -76.88383      -58.06195      -98.35095      -121.1606
      -118.5267      -130.4366      -126.0949      -98.55713      -71.65442
      -115.0356      -162.3060      -123.3594      -45.39813      -33.50766
      -115.3089      -175.1678      -170.2794      -151.3181      -122.4505
      -104.6386      -118.3235      -170.8197      -190.9673      -143.6402
      -118.0261      -117.1129      -107.3761      -103.9493      -118.9707
      -160.8571      -195.4507      -162.8649      -145.2002      -192.4658
      -166.8035      -119.1940      -163.5495      -182.2237      -133.8106
      -128.1902      -220.5287      -275.5279      -209.6335      -179.4958
      -186.3983      -129.7136      -115.3793      -160.6307      -173.7531
      -196.2051      -226.1540      -211.2854      -184.8781      -139.2220
      -126.9943      -167.7569      -167.4432      -117.8793      -99.75726
      -176.4096      -199.0452      -115.5866      -71.01849      -87.44568
      -106.4154      -65.50183      -36.78036      -85.25064      -131.4383
      -106.5398      -52.13361      -18.04542       9.078781      -36.77344
      -104.3761      -80.00994      -21.08566       9.132416       50.85896
       48.40816       19.61131       54.16314       20.77972      -42.47240
      -1.281158       64.20290       69.34311       51.37349       60.37401
       45.35153       67.41536       98.82898       29.03966       13.59129
       71.72424       68.67047       107.1060       151.2792       99.74697
      -7.099640      -87.21458      -18.79523       108.0470       110.5145
       2.500324      -24.16776       67.30780       85.41679       14.12925
      -10.54867       10.13531       6.760620      -6.793350       7.141037
       19.34293       9.242815       5.086037       6.028465      -15.77716
      -67.20490      -53.27417       60.08877       26.77133      -69.23489
      -4.161377       48.19011       5.785347      -42.36533      -27.11256
       19.59449       34.44352      -11.07730      -73.56401      -82.33501
      -26.31491       33.34843      -1.337936      -71.34071      -32.86777
       25.20042      -25.83319      -81.26880      -100.0185      -61.05177
       7.577307      -5.060867       10.11913       16.54688      -61.44157
      -97.64638      -54.11732      -57.94777      -70.65880      -13.09814
      -9.586182      -57.58385      -38.24419       6.512398      -18.40245
      -71.99588      -75.87188      -28.25125       43.38692       52.82859
       3.757202      -40.83667      -84.48914      -55.19014       5.854736
       32.25568       74.21352       68.47070       14.19320       22.50073
       59.57596       77.29785       107.9234       116.0765       32.95874
       16.56119       105.9169       119.2695       125.3754       150.5869
       125.7061       113.5938       114.7641       107.4216       93.22339
       145.2164       177.3889       97.00104       87.18863       149.4101
       189.1649       184.7475       123.2485       97.32962       141.6774
       199.5197       200.0464       185.4241       180.0242       187.6790
       227.4142       239.1747       168.6651       137.9490       224.5873
       261.2968       200.1164       173.5896       215.9467       276.8418
       274.5983       255.5240       253.4877       199.0598       173.0590
       211.6010       213.1057       155.2352       172.6979       249.8497
       246.5540       213.8146       175.8921       176.7968       177.5249
       132.3349       185.0496       236.4970       157.3365       105.7754
       154.8046       182.2007       183.4134       194.7700       124.7278
       6.168625      -2.812164       86.56070       123.0278       120.5831
       133.8013       105.7197       53.09485       18.18307      -2.722782
      -12.15955       34.90268       31.86417      -89.50598      -126.8828
      -37.76541      -11.77005      -50.37167      -33.12321      -36.43805
      -131.8752      -187.5519      -170.5807      -162.5414      -132.6512
      -95.58356      -120.8120      -151.3981      -180.0824      -243.6245
      -250.3626      -176.0704      -117.5120      -132.6240      -211.5492
      -299.1819      -328.8813      -196.3419      -84.37097      -195.2805
      -257.6794      -215.0838      -255.7748      -244.3336      -187.0504
      -219.3795      -272.2721      -274.5860      -254.3736      -262.6058
      -232.2538      -202.3745      -253.3187      -256.9053      -201.7455
      -218.8073      -283.2787      -288.2131      -237.5519      -188.3051
      -215.6503      -274.8537      -270.4288      -210.8627      -168.1618
      -193.5158      -210.9386      -175.3764      -131.2920      -185.3237
      -291.1949      -219.8766      -69.71341      -89.26343      -176.0268
      -201.0658      -157.7942      -87.96414      -73.82274      -83.89253
      -73.84854      -80.64441      -83.27634      -65.47638      -67.42673
      -24.46886       51.48466       17.43865      -37.91051      -33.47989
      -76.33377      -124.2240      -86.24841       52.31366       188.0237
       167.3528       59.51552      -26.81134      -100.4639      -107.3419
      -3.272842       71.59137       90.40347       112.6905       35.68687
      -54.90301      -7.720673       52.78450       9.947849      -30.17336
       31.52673       69.71805       1.323296      -26.43643       38.00294
       42.34806      -18.28450      -53.73880      -61.06094      -63.57682
      -28.65049       6.246407      -12.97998       8.793186       23.39217
       1.338921      -15.34399      -77.68619      -89.84254       5.235247
       11.74158      -25.85987       15.89649       6.997528      -27.45668
      -21.75810      -24.72927      -20.88142       19.73092       46.90278
       7.660820       18.99445       69.08801       98.80255       130.7556
       121.9502       88.14256       53.68466       35.40561       71.68564
       117.9692       118.7836       184.2856       268.4548       205.6301
       128.0298       117.5618       122.2350       162.3282       222.5099
       249.1111       209.0371       192.3583       227.1760       211.9457
       164.8774       166.6141       191.8693       219.1997       241.2244
       248.8873       249.2072       222.7651       191.7264       231.6545
       282.7314       269.4227       221.7236       204.0138       228.3191
       222.6390       221.1193       253.0444       254.6950       236.4709
       248.7610       268.8572       242.5302       207.0623       189.0920
       215.2222       257.9707       267.2635       263.7899       247.1399
       213.0222       198.0406       226.4417       247.5430       218.0066
       197.2610       217.4452       184.7481       155.7450       246.6736
       275.0277       177.7919       92.71573       61.78217       113.3271
       185.2494       162.3498       100.1852       126.2879       177.6181
       153.8569       46.98490      -7.454193       50.30350       91.81386
       80.54310       5.090479      -20.83412       20.15387      -18.83302
      -59.73900      -17.92395      0.8244019      -60.78729      -72.96179
      -62.02618      -74.33624      -54.22485      -81.76453      -102.0485
      -89.81970      -82.27979      -71.62750      -98.74036      -127.9670
      -181.1280      -199.5643      -117.7729      -64.01361      -52.40747
      -77.01733      -190.6903      -269.1392      -242.9124      -186.2344
      -126.4502      -104.7268      -128.5351      -111.4398      -128.0267
      -249.6730      -293.1668      -197.3922      -158.2635      -181.3907
      -189.8331      -180.7244      -200.3266      -242.4245      -208.7360
      -167.9510      -199.4417      -218.3729      -235.7515      -275.9101
      -256.5364      -206.6506      -230.9247      -280.6183      -299.5818
      -271.3170      -176.6302      -101.5580      -132.0361      -220.6097
      -324.1133      -372.3784      -327.6786      -251.0278      -241.6230
      -285.4258      -268.7135      -226.1080      -208.8693      -228.5135
      -245.9773      -208.0807      -182.5270      -197.9312      -255.5679
      -284.3391      -213.9643      -157.8572      -164.0680      -150.1649
      -151.7011      -213.9828      -213.9200      -191.8771      -273.3796
      -271.9828      -84.73895       6.665894      -66.45946      -86.55873
      -36.47319      -51.78885      -132.2433      -198.7084      -186.5849
      -79.46054      -22.24202      -56.85109      -50.90434      -35.14246
      -51.58757      -36.37299      -34.82306      -91.20361      -129.7903
      -92.10434       19.48553       81.53055       48.73927       33.98564
       51.57948       40.42881       24.17012      -1.777348      -17.09591
       10.04733       45.25528       90.73669       118.5323       122.2052
       120.1436       91.26201       83.67447       83.62016       89.16914
       74.55725       88.10687       176.0876       184.0423       143.2895
       92.30590       17.04666       39.82324       135.8150       170.8460
       137.8784       109.8283       100.8130       108.9174       128.2560
       147.4258       150.0388       137.2204       92.46460       54.70044
       36.95349       42.18793       151.1632       223.2630       179.4120
       146.4521       108.4600       65.71935       62.68452       75.42282
       94.88885       126.8618       147.3655       102.9007       65.07013
       91.52603       77.48134       63.65462       77.28305       51.99738
       44.73923       58.07344       48.81833       56.99142       86.90845
       98.49799       86.45578       115.6621       154.3654       91.43057
       35.69205       120.0420       161.6305       101.3682       115.0487
       139.4751       150.9371       165.7859       137.3041       131.9994
       140.3440       184.2896       243.8726       145.0329       27.87898
       42.91068       121.0226       176.1274       175.1027       164.8778
       159.9021       179.6554       217.7992       218.9235       192.7045
       171.8283       156.4181       111.8036       122.3342       160.0826
       116.5291       93.97241       113.3767       139.7839       183.5719
       162.9059       146.4733       197.3298       203.8181       73.80676
      -23.62979       54.18683       59.20499      -22.08479      -12.71052
      0.2910919       26.09543       108.6625       138.5109       128.8183
       89.69412       22.90712       32.55770       54.39850      -33.35413
      -99.93401      -62.64082      -37.82075      -23.94559      -11.63145
      -44.70478      -31.58350       44.65469       94.85722       44.46942
      -69.99493      -148.9041      -174.9561      -156.9527      -103.8557
      -34.30878       60.59331       87.84545       51.18040      -10.19968
      -100.9528      -127.2840      -49.18340      -5.584259      -57.77997
      -104.0701      -110.7749      -97.92261      -122.7814      -171.1117
      -143.7332      -94.86661      -70.25793      -118.4913      -195.4483
      -176.6048      -131.5632      -85.49720      -31.59734      -26.28699
      -117.2422      -226.2565      -201.1245      -97.16318      -65.60999
      -120.3875      -150.1166      -124.4567      -106.0485      -145.6465
      -141.5853      -105.7359      -125.8709      -60.57899       19.39941
     -0.2159424      -65.99387      -146.8177      -180.6018      -202.2916
      -267.9818      -347.9221      -376.5643      -254.0822      -12.07723
       54.80133      -168.9231      -375.3932      -409.2977      -410.8362
      -404.9414      -348.7314      -385.9601      -343.8985       46.39941
       323.1825       170.9863      -99.05554      -384.3804      -601.7788
      -342.6211       45.55090      -77.26636      -402.9946      -546.9141
      -455.9619      -249.1227      -137.8513      -259.4259      -455.8528
      -478.6060      -445.7548      -349.4644      -179.7620      -114.7326
      -202.9594      -292.6820      -272.9238      -266.0289      -232.8789
      -22.74957      -19.65112      -450.5295      -696.4429      -502.6864
      -84.94702       364.6368       473.6954       269.7509       37.61591
      -102.5713      -229.0067      -443.3389      -487.1459      -298.4752
      -63.51398       221.6625       405.1094       264.8169       128.9551
       95.87976      -157.1576      -250.1965       27.23206       174.7984
       164.7356       142.8212       93.60037       125.0200       46.14502
      -245.6420      -249.8954       104.9966       315.3099       355.9584
       279.6120       100.5528       14.92391    -0.05477905       16.51068
       94.03741       224.0161       415.8418       466.2677       322.4761
       185.7783       150.5744       155.0566       158.9267       205.7673
       206.4946       186.6783       281.0104       395.7001       435.2935
       379.1866       183.1024       20.60071       170.8350       433.5006
       526.5887       493.5128       399.1112       335.6842       267.2622
       119.9856       113.9928       174.4763       134.4453       282.9724
       568.7001       617.4132       409.9001       231.3432       291.6644
       216.5207       79.98535       363.1906       613.9318       470.8924
       214.7188       161.3452       257.7766       274.2284       333.4824
       371.4882       255.1725       285.3750       430.0872       286.9976
      -34.37302      -142.5720      -67.80487       172.2861       546.1343
       694.5420       565.3584       286.8774      -5.411217      -36.51733
       94.73169       162.7711       214.6405       281.0205       340.2690
       289.8905       166.8083       179.3597       195.0127       28.96960
       84.64893       373.7858       239.8202      -51.58533       65.29041
       182.0848       83.87560       46.14451       11.12842      -42.12592
       116.1699       341.3133       314.8401       96.97400      -72.68628
      -147.5132      -177.6422      -114.0404      -13.30261       90.53345
       212.5302       206.2100       113.9057       62.17854       32.46667
       7.472672       28.90240      -8.959839      -72.06716      -32.15530
      -26.18787      -99.32886      -192.1125      -206.4434      -87.13519
      -67.60205      -290.4563      -461.3365      -408.8505      -266.3184
      -43.66561       91.65967      -110.9301      -328.7439      -320.3624
      -297.9185      -204.9530      -60.58423      -101.5380      -222.7985
      -282.6232      -270.4130      -268.2424      -289.7031      -249.5201
      -166.8358      -225.7921      -371.8623      -306.7153      -183.3301
      -247.4221      -357.7147      -409.5049      -446.0983      -394.1580
      -195.6131      -42.97412      -3.184326      -153.3888      -409.4615
      -443.8017      -343.5290      -285.9989      -244.3657      -263.6991
      -288.7719      -267.7473      -279.7163      -287.8141      -226.0894
      -231.8936      -446.0267      -598.1346      -471.5603      -297.8322
      -204.2192      -200.0284      -252.6516      -198.1659      -188.5734
      -330.1432      -374.8511      -297.5230      -214.2439      -199.3739
      -302.9900      -376.1492      -381.4158      -398.5804      -310.3118
      -139.0972      -182.8979      -277.1759      -231.8314      -143.4515
      -47.10034      -49.16888      -102.8953      -131.8931      -137.0044
      -117.9546      -103.4393      -103.6030      -104.5657      -59.31700
      -57.07916      -95.40811      -82.47582      -32.16995      -41.45239
      -166.7945      -184.8179      -79.88026      -9.352234       83.25003
       135.4314       118.8646       81.37109       2.403778       9.218323
       148.9402       231.6609       196.8338       80.72823      -23.94977
       69.15186       217.0185       258.1868       240.3177       195.5997
       231.1124       280.2507       304.0607       345.8344       267.5676
       101.5843       22.62109       149.9922       377.1765       426.3994
       256.3196       92.49915       153.3782       310.2994       312.3436
       239.4589       316.6110       363.4298       224.6985       177.1792
       271.2087       303.1476       303.4308       353.3394       291.0353
       183.5903       281.4595       377.0497       351.5228       380.7000
       396.2053       326.4204       303.6619       366.7668       369.7604
       333.9159       334.2972       268.4618       162.7056       143.6917
       278.3518       455.7244       424.7173       251.8313       139.1179
       131.7378       233.2938       428.5697       512.1053       432.6755
       360.5612       226.7175       28.35498      -178.1730      -293.0282
      -151.3354       63.63782       232.0408       339.8320       294.2263
       185.1199       97.59494      -37.46045      -210.5187      -286.4173
      -238.6553      -126.0631       74.71729       326.6238       430.8296
       325.6368       75.18311      -252.0339      -474.8992      -431.4801
      -188.3078      -69.60626      -144.7377      -187.3586      -174.5994
      -166.4833      -154.1057      -121.4324      -110.7535      -126.0087
      -42.37363       68.19490       3.233948      -191.8177      -296.3829
      -308.1280      -262.0993      -132.9792      -78.59296      -132.0510
      -173.0170      -199.1413      -260.2612      -230.5704      -169.8356
      -245.9246      -293.9619      -217.2128      -93.13600      -4.349724
       7.701111      -83.80280      -206.5661      -201.2446      -138.5169
      -167.3468      -208.7029      -132.8463      -43.42786      -182.7886
