     0.02500000      -787.7608       923.4626      -12345.00      -12345.00
      -30.02000       235.9550      -36.46000      -12345.00      -12345.00
       0.000000       26.44000      -12345.00      -12345.00      -12345.00
      -12345.00      -12345.00      -12345.00      -12345.00      -12345.00
      -12345.00      -12345.00      -12345.00      -12345.00      -12345.00
      -12345.00      -12345.00      -12345.00      -12345.00      -12345.00
      -12345.00      -32.83200      -66.08020       1675.000       0.000000
      -31.37200      -68.11800       0.000000       97800.00       0.000000
      -12345.00      -12345.00      -12345.00      -12345.00      -12345.00
      -12345.00      -12345.00      -12345.00      -12345.00      -12345.00
       251.4003       130.6227       309.5447       2.260483      -12345.00
      -12345.00     -0.4510840       90.00000       90.00000      -12345.00
      -12345.00      -12345.00      -12345.00      -12345.00      -12345.00
      -12345.00      -12345.00      -12345.00      -12345.00      -12345.00
      2008       244         6        45        41
       860         6    -12345    -12345     10640
    -12345    -12345    -12345    -12345    -12345
         1         7        13    -12345    -12345
    -12345    -12345    -12345    -12345    -12345
    -12345    -12345    -12345    -12345    -12345
    -12345    -12345    -12345    -12345    -12345
         1         1         1         1         1
ESP12   -12345          
01      -12345  -12345  
-12345  -12345  -12345  
-12345  -12345  -12345  
-12345  -12345  -12345  
-12345  -12345  -12345  
-12345  -12345  BHE     
XH      -12345  -12345  
[...]
       125.4164       129.0443       36.55927       76.67130       131.4387
       44.66208      -13.72685      -21.59985       94.08676       153.5270
       86.45650       51.28461       37.98115       5.229977      -20.82515
       48.73063       66.19315      -72.39645      -143.9512      -28.04465
      -39.84087      -111.5082      -1.616295       44.16293       20.01462
      -34.78178      -66.76396      -47.82623      -127.0142      -138.9761
      -58.93073      -93.25989      -169.9100      -144.5407      -78.11316
      -55.99097      -174.1648      -296.0591      -118.3620       32.76031
      -52.13074      -106.7534      -240.8203      -262.7242      -77.52771
      -117.1578      -245.5488      -308.2769      -320.3596      -167.7385
      -145.0193      -257.0587      -277.3804      -265.3571      -253.6182
      -270.5385      -271.9357      -222.5991      -253.0159      -303.0394
      -259.3770      -279.6556      -303.3422      -192.3088      -191.8806
      -272.8657      -319.4418      -322.5093      -287.1880      -249.1424
      -220.6498      -290.7311      -264.9836      -235.3804      -298.2786
      -243.5448      -259.6066      -255.1812      -226.2584      -313.0343
      -304.7198      -251.9403      -200.4852      -184.9597      -247.2928
      -234.3079      -169.3290      -117.5474      -99.79022      -174.8058
      -249.4011      -191.4436      -104.1117      -136.5934      -239.8191
      -156.9667       47.07721      -97.36359      -303.2652      -58.72607
       85.61346      -93.14847      -181.3877      -65.34724       106.2239
      -8.046326      -143.8243      -19.98414       16.20840      -14.74969
       2.318388      -1.840775      -17.48778      -4.259430       64.63863
       51.41922      -8.440292       14.97638       92.62262       143.8017
       76.63782       84.32489       106.8927       86.30728       131.0799
       84.74551       62.77863       126.9092       160.7917       190.1870
       121.4233       125.4908       169.7224       105.2660       177.7134
       230.9539       144.1569       104.2974       120.2635       197.1748
       186.5276       192.9875       222.9665       154.9575       199.4232
       217.4991       198.5862       235.3310       185.4713       200.2004
       246.5856       166.6080       141.4031       240.5079       270.5415
       199.2495       196.4650       245.2370       267.9138       151.3342
       44.01117       237.7703       407.9302       217.3098       67.50513
       235.9059       294.3927       200.7521       188.1696       188.0491
       178.2169       143.1472       134.2878       170.5069       199.9589
       173.2104       118.4552       168.7886       183.1829       79.73651
       167.8185       249.8357       60.83875       49.08923       215.4042
       168.9399       72.02072       125.9955       171.6704       141.1085
       92.35205       96.85510       116.9022       120.7395       116.5881
       46.71304       73.21039       231.4906       191.4380       62.88655
       62.90164       103.4398       152.0884       148.2032       96.58310
       68.65164       131.2713       151.2303       66.75769       92.98697
       100.3445       104.9348       183.9211       146.7207       100.4371
       58.75336       58.06476       200.8559       209.5431       127.5352
       106.3546       62.11224       66.06793       116.6331       138.7461
       134.3618       74.27194      -8.409958       21.46469       126.5443
       88.24326       4.785858       43.46353       101.3612       64.44722
       46.13139       93.07046       64.40106      -12.48370      -6.945084
       69.08126       15.52988      -63.29502      -4.907166      -35.63315
      -79.35320     -0.3545227      -31.94934      -117.0478      -60.20340
      -61.25496      -111.4710      -20.60997      -20.62787      -149.7296
      -168.4016      -145.8528      -123.9483      -121.5834      -121.5721
      -109.6428      -168.7011      -159.5002      -103.1086      -124.5577
      -114.6912      -73.68024      -154.9127      -215.4528      -190.6678
      -159.6639      -120.1849      -159.7740      -160.0302      -135.2315
      -173.7286      -139.4400      -162.3993      -140.4118      -33.20728
      -159.7044      -224.7983      -186.8768      -196.7595      -122.3704
      -137.5522      -179.2728      -89.26675      -112.5345      -252.8125
      -192.4159      -101.9788      -142.9537      -165.3625      -161.9248
      -119.1461      -80.74866      -170.1184      -289.1217      -231.6241
      -106.5166      -93.31708      -126.1459      -144.5713      -199.0054
      -203.1423      -131.0454      -132.2411      -94.75348      -93.74701
      -243.2258      -234.7925      -143.5217      -123.1250      -62.31149
      -70.20157      -132.6391      -180.5723      -202.6785      -155.5838
      -157.0999      -226.8409      -179.9209      -147.1611      -171.7933
      -137.4804      -160.6590      -225.7774      -241.3271      -195.3456
      -175.5908      -175.8143      -95.15948      -118.8107      -224.3931
      -259.3753      -220.3663      -179.3925      -247.4157      -218.8148
      -122.2581      -162.5955      -240.8955      -357.1440      -294.2900
      -180.9105      -194.3998      -152.6006      -220.7979      -236.0687
      -199.8433      -253.3800      -248.2181      -298.9007      -228.7271
      -153.3546      -282.8850      -240.9606      -207.9229      -279.4150
      -217.4532      -189.2071      -210.7628      -230.7935      -185.6271
      -95.27271      -166.7002      -200.7182      -149.2002      -251.8428
      -288.1446      -178.4944      -116.6147      -159.2574      -260.4092
      -196.8965      -120.3034      -175.8003      -150.7145      -30.50920
      -46.45901      -128.4744      -95.71490      -152.7693      -131.8237
      -13.46179      -61.26819      -95.75781      -121.0753      -132.9845
       2.143211       63.19011      -29.09439      -108.2745      -101.3570
       29.68280       79.75192       52.49954       57.82664      -35.33948
      -33.95993       66.27478       80.83881       96.72449       97.91124
       71.67325       57.59753       88.56516       73.91901       99.38635
       148.0882       88.33173       144.9931       165.8685       71.16040
       142.7472       143.2016       95.60449       214.6606       195.9502
       126.8124       161.9556       208.0621       217.0453       117.9202
       87.49512       182.2034       236.3661       151.6855       78.57898
       221.5049       345.7510       236.4840       184.0392       180.7744
       216.2974       328.0074       273.6802       236.6038       240.7079
       158.4375       231.8258       352.6061       327.4591       244.7059
       180.2323       173.0559       240.9429       338.7025       313.1201
       265.8405       331.1700       277.8253       289.4410       362.9573
       298.1680       246.1137       226.2817       312.0509       367.0779
       267.5918       204.7777       201.9731       190.8846       288.4587
       404.8258       318.2455       177.6559       234.5981       390.6514
       315.6735       313.2031       370.9028       245.4354       213.5742
       169.0331       131.5201       304.9869       335.4840       169.5529
       147.9395       193.2628       181.0190       150.6995       124.8868
       201.4069       167.1169       108.5952       187.1732       150.7952
       134.1328       155.8883       153.1093       115.1786       48.03011
       74.72934       73.06273       82.34476       64.43797       20.65396
       86.22795       84.14579      -27.59177      -71.89514       75.85722
       138.8069      -60.81201      -162.0407      -40.38106       95.14600
       52.29291      -29.71313      -65.99857      -82.26936      -32.52017
      -90.73212      -76.45441       41.13803      -59.32053      -132.6217
      -74.47208      -83.45450      -131.7770      -124.6734      -178.8733
      -152.0081      -33.48242      -191.9882      -264.8411      -175.0948
      -246.2923      -143.1136       9.971802      -134.0317      -259.9635
      -180.7379      -58.54358      -174.8558      -374.9355      -257.6379
      -88.98328      -166.9637      -281.0411      -243.7708      -198.0332
      -197.0358      -215.4076      -287.0985      -310.9786      -250.7726
      -162.6804      -169.3679      -258.4883      -280.9519      -219.7514
      -187.2817      -184.8047      -165.8643      -221.6157      -201.9412
      -115.1785      -192.3558      -210.5637      -124.3898      -144.0182
      -159.5587      -169.2957      -181.1133      -196.7661      -211.9476
      -145.9952      -150.7182      -166.1409      -100.9508      -77.01361
      -105.1174      -113.6270      -118.7936      -147.1544      -104.6579
      -121.2883      -195.7548      -134.2487      -131.9825      -95.88341
      -26.59314      -138.7171      -112.9514      0.8445816       13.34539
       6.930653      -12.23573       2.306920       7.906372      -10.51784
      -26.18118      -45.99015      -27.78093       39.65373       85.56397
       22.37606      -22.15720       29.33115       4.114365      -47.48927
       36.60988       46.00314      -45.08702       42.35722       59.54493
      -1.780518       110.1152       121.7310       42.64252      -2.008572
      -30.03073       36.95526       75.26386       21.86018       33.13124
       50.89925       18.89374       114.2274       163.9823       32.97182
      -42.96758       17.94638       144.9590       136.0156      -24.08833
      -88.31508       12.28799       119.6204       64.22397      -57.70162
      -23.13912       23.73447       10.54694       72.92531       42.04421
      -20.82812       89.63168       162.4233       94.58618       4.897903
       3.923859       125.6935       207.4596       92.97179       42.82013
       137.0298       99.80784       33.12030       46.11926       136.5211
       126.1331       1.111877       76.48271       101.7357       24.28821
       29.79776      -55.41492      -31.03889       68.75819      -36.94128
       44.30432       159.3786       21.16034       104.7007       305.6027
       302.5416       321.0779       269.4610       157.9362       181.7965
       254.9762       272.9871       180.7968       176.3958       257.3742
       251.5652       163.0680       23.80368       44.61877       135.0551
       152.2773       227.3896       191.3070       28.10431     -0.5791016
       134.3826       330.7817       410.0890       324.5434       224.1744
       213.5173       266.7820       311.1032       274.8931       174.4697
       245.1172       328.1815       207.9517       96.60089       106.0541
       193.4334       205.4552       194.6071       256.6143       278.8838
       271.3344       213.1285       127.1962       142.3376       135.7424
       113.8358       235.3550       263.3433       67.01994      -62.55560
       82.40253       265.4512       207.6850       55.58488      -3.880539
       17.50278       117.3243       176.0202       114.6656       97.46088
       104.9879       133.9122       132.5246       83.89857       99.84572
       55.32082      -8.458847      -27.16263      -91.57764      -188.9386
      -121.8486       20.40598       14.44823       11.20160      -58.98206
      -207.1514      -231.6454      -109.1553       89.11053       21.36395
      -131.7442      -79.94342      -99.13124      -68.31180      0.9060059
      -150.1368      -252.3118      -298.1999      -340.8775      -227.1500
      -206.3439      -254.3915      -194.2314      -192.3974      -236.2584
      -320.1783      -292.0299      -183.1954      -265.6109      -314.3991
      -193.3218      -124.5184      -206.4082      -307.7460      -301.9441
      -279.3940      -273.8346      -163.6510      -87.42291      -196.6743
      -403.2301      -578.6433      -440.0440      -169.8319      -172.3152
      -228.8835      -280.8766      -330.0729      -290.7095      -300.0374
      -282.6714      -273.9590      -325.2836      -182.0578       72.16727
       61.90643      -141.5746      -125.6868       44.04042       26.52051
      -227.5110      -513.7733      -388.1874       16.30188       43.95361
      -251.7452      -408.0506      -358.9015      -214.3471      -90.92029
      -254.6196      -366.9119       130.1970       556.8030       207.6284
      -210.5865      -276.3446      -91.85742       264.8418       152.4130
      -220.4799      -109.5723       312.7139       420.5417      -255.7700
      -787.7608      -314.7902       225.5751       175.3621      -201.1841
      -286.1497       101.1967       163.8800      -169.5236      -143.0497
       176.2442       140.9664       65.78488       174.7656       52.61865
       378.2576       923.4626       646.0327       232.0430       15.60629
      -82.95514       238.8317       190.1091      -233.7531      -67.01031
       190.7934      -3.165588      -101.4387       24.53226       101.0663
       115.8340       195.0576       331.6902       241.6255      -35.94995
      -94.40320       152.1072       287.3688       305.3201       418.3182
       284.4354       84.17099       183.0186       132.7723       23.67255
       138.1750       53.06028      -23.60000       58.41352      -14.36871
       21.23512       18.88074      -233.0139      -144.8618       271.6532
       423.1277       316.5162       182.4181      -39.83948      -177.7938
      -29.15311       76.04120       32.79010       158.2780       333.8371
       288.9073       118.9815      -40.95320      -78.96837      -47.84567
      -28.37134       181.0645       448.6877       356.5611       10.31665
      -97.52721       64.74603       108.3734      -58.19141      -152.3019
       34.80688       275.4795       234.4082       164.3559       310.9482
       319.6912       223.8058       233.2009       160.3558       57.87848
       5.295044       128.9890       277.5892       56.24014      -137.7793
      -4.300575       37.50697      -6.813782       173.0447       280.2278
       145.8248       151.6578       223.9769       161.0948       109.7379
       99.48030       89.20496       49.75293       157.2642       309.7795
       164.3671       137.5707       224.3188       112.8806       45.26523
       60.57938       67.21996       9.882034      -55.49902      -64.01759
       1.229042       18.13222      -76.20175      -11.90512       150.5632
       99.61246      -51.78207      -84.14743      -79.84187      -48.19730
       27.93250       86.94751       179.6650       235.4179       168.4200
       149.1902       211.6186       142.6721      -36.95886      -200.2858
      -222.0103      -145.1194      -176.1814      -87.42480       15.35313
      -62.62741       19.71272       56.01620      -46.06184      -20.83259
      -15.83241      -15.38019      -18.05884      -155.7471      -217.0012
      -95.62384      -55.19818      -203.5804      -234.3940      -226.3207
      -340.2947      -276.8960      -173.0911      -123.7826      -77.67102
      -161.6452      -180.6735      -22.56790       76.17847      -45.50366
      -179.2229      -256.2171      -332.5389      -255.3666      -257.2668
      -414.1276      -442.2145      -444.2483      -341.4032      -168.9902
      -51.54700       93.35265       53.35693      -90.39294      -170.2783
      -225.0835      -280.6389      -364.1772      -231.3648      -127.9387
      -315.1800      -291.7183      -191.8786      -301.7224      -276.1373
      -135.0997       165.3203       357.1539       94.50851      -99.75299
      -106.1725      -129.0226       19.66739       108.4140      -174.2261
      -340.1497      -126.9217      -6.767487      -81.94273      -82.73305
       7.561638       64.78870      -127.4430      -266.0901      -9.264084
       86.51907      -112.2802      -267.9067      -225.2194      -82.28569
      -65.21182      -72.99994       36.41458       127.5851       108.8546
       60.21146       79.84256       62.70911      -95.56433      -157.5951
      -41.19671       29.48328      -28.26428      -145.8088      -190.8925
      -54.29250      -35.64316      -148.9454      -5.134033       235.4307
       195.7630      -10.66156       59.75409       188.3119       34.48901
       3.094269       77.48836       29.48114      -10.34409       44.39455
       71.89429      -32.14661      -49.88353       6.604050       44.39600
       67.72317       48.55682       19.77514      -46.39514       58.75250
       184.9356       6.319702      -144.8585      -86.54828       17.48520
       123.6049       118.9860       41.49953       74.46022       105.9935
      -2.223938       47.50696       227.3629       68.58881      -93.41025
      -36.10345      -67.26552       33.81729       125.1177       32.86743
      -33.38795      -71.85693       64.32935       199.5392       71.76340
      -126.6691      -125.5932       103.8878       155.2558      -14.33273
      -174.7943      -97.09390       114.8155       65.34372       12.55661
       63.24334       3.843536      -83.79968      -111.6386       32.64801
       190.1355       100.7603      -82.09717      -248.4380      -301.0548
      -133.9621      -57.08510      -100.3946       10.54034       44.74268
      -139.0778      -274.6774      -142.2711       62.38922      -35.51666
      -129.7987      -96.22491      -160.7631      -155.7432      -83.72707
      -5.448479       39.00397      -116.5624      -308.8079      -218.5143
      -156.9837      -311.2296      -198.9029      -22.66971      -106.6824
      -154.5108      -142.1821      -229.1238      -250.9181      -61.21275
       66.43379       18.72689      -3.045197      -32.99289      -81.17006
      -57.19904      -82.69189      -258.0190      -338.8657      -205.2599
      -69.54126      -156.7775      -203.6792      -57.52290       17.29776
       50.84756       1.648621      -102.5152      -110.9626      -132.7102
      -163.7498      -155.8036      -50.27475       54.47455       119.7310
       234.9186       180.9196       22.18762      -26.89732      -12.13213
       27.84477       10.44521      -36.12209       16.75153       127.6068
       191.5862       153.7111       148.8267       164.9515      -27.50179
      -126.2755       66.05463       206.8517       177.7563       208.3810
