     0.02500000      -551.2814       555.7059      -12345.00      -12345.00
      -30.02000       235.9550      -36.46000      -12345.00      -12345.00
       0.000000       26.44000      -12345.00      -12345.00      -12345.00
      -12345.00      -12345.00      -12345.00      -12345.00      -12345.00
      -12345.00      -12345.00      -12345.00      -12345.00      -12345.00
      -12345.00      -12345.00      -12345.00      -12345.00      -12345.00
      -12345.00      -32.83200      -66.08020       1675.000       0.000000
      -31.37200      -68.11800       0.000000       97800.00       0.000000
      -12345.00      -12345.00      -12345.00      -12345.00      -12345.00
      -12345.00      -12345.00      -12345.00      -12345.00      -12345.00
       251.4003       130.6227       309.5447       2.260483      -12345.00
      -12345.00   -0.002477613       0.000000       0.000000      -12345.00
      -12345.00      -12345.00      -12345.00      -12345.00      -12345.00
      -12345.00      -12345.00      -12345.00      -12345.00      -12345.00
      2008       244         6        45        41
       860         6    -12345    -12345     10640
    -12345    -12345    -12345    -12345    -12345
         1         7        13    -12345    -12345
    -12345    -12345    -12345    -12345    -12345
    -12345    -12345    -12345    -12345    -12345
    -12345    -12345    -12345    -12345    -12345
         1         1         1         1         1
ESP12   -12345          
01      -12345  -12345  
-12345  -12345  -12345  
-12345  -12345  -12345  
-12345  -12345  -12345  
-12345  -12345  -12345  
-12345  -12345  BHZ     
XH      -12345  -12345  
[...]
       181.6623       40.53992      -51.74814      -155.9197      -199.8647
      -59.66428       114.8984       94.03462       29.27582       132.2653
       207.9261       108.4290      -114.1786      -181.5444      -22.45399
       41.03200       14.45935       140.1293       260.6943       79.55743
      -88.55502       70.42664       200.8188       118.9908       93.94592
       178.6182       240.7789       243.5354       154.0564      -1.433624
      -37.90472       84.09412       152.2855       97.10442      -1.172623
      -29.53027       61.91043       79.91499      -16.67120      -67.66077
       27.42871       167.0800       200.1542       143.0599       33.74069
      -11.68772       22.92068      -52.27039      -168.5723      -149.8495
      -71.60858       49.61365       143.9639       175.9642       184.9890
       92.37560       53.14606       93.99319       104.3493       79.51215
       89.01193       154.0960       153.4015       91.98103       12.96625
      -26.09803      -12.46698      -15.45129      -33.61935      -24.43927
      -79.80817      -122.5422      -70.47710      -83.00026      -82.51739
       21.42517       80.11810       27.09827      -74.82495      -188.5570
      -200.1826      -113.3839      -75.52066      -74.03917      -68.29656
      -3.064911       64.59198      -24.33524      -94.72998      -59.47858
      -84.25739      -141.0783      -121.7087      -67.79349      -59.05743
      -132.2370      -109.2660      -2.045074      -37.61865      -36.97147
       105.3779       79.32541      -97.45605      -146.4313      -156.8971
      -203.9208      -161.2402      -127.2568      -177.7131      -157.4506
      -2.432373       123.3401       124.2762      -15.78931      -211.4335
      -287.5964      -243.2050      -167.4546      -82.75748      -93.68042
      -141.1105      -99.12732      -67.10364      -41.84319      -37.18961
      -53.35424      -5.407532      -54.77979      -131.3496      -77.71880
      -5.376858       10.77813      -18.35196      -41.94534      -99.42587
      -189.6368      -103.8002       36.75607       8.562668      -46.21118
      -78.07321      -53.56973       37.53508       23.32910      -64.52808
      -141.0705      -120.8802      -53.53197       2.020599      0.7764740
      -67.12715       14.80627       151.4743       68.85497      -51.41281
      -22.79849       46.25374       68.33414       55.57149       12.72876
      -27.21916       20.34216       56.76299      -13.03729      -5.575256
       118.1754       162.7868       142.1568       138.3180       84.51202
       33.05026       77.88988       99.03023       35.45654       34.85602
       112.1983       125.4131       89.30757       47.79579       1.620789
       25.57930       50.07590       36.15454       91.43169       106.5175
       16.09051      -12.97183       102.9141       178.2659       63.11168
      -4.743195       56.24612       69.74817       17.45989      -33.18908
      -22.70106       28.71697       28.99669       17.95337       70.14807
       108.3735       120.9879       72.57638      -7.135437       84.76318
       237.8454       171.8033      -20.67059      -76.57453       7.178177
       68.20153       48.35877       8.569992      -10.73279      -13.43498
       14.63231       78.33263       47.91907      -91.30884      -104.9404
      -70.96829      -86.69776       1.401825       69.35600       62.47369
       44.37360      -24.70332      -12.07016       110.2211       125.6108
      -12.65628      -129.0022      -81.15118       14.52663       44.42554
       10.05420      -110.8091      -131.8706      -58.78847      -65.35768
      -34.96283      -56.63037      -209.6113      -217.9635      -34.64307
       97.09969       69.34669       1.870987      -43.67441      -75.43042
      -73.16534      -52.71420      -45.83235      -64.88860      -4.281250
       56.84988      -39.17612      -98.34512      -64.02948      -86.61086
      -82.48061      -30.50493      -43.46719      -79.68292      -104.9506
      -145.5356      -130.3409      -51.41074      -60.90787      -81.79645
      -78.50818      -212.0862      -235.0384      -71.88287      -9.585526
       11.22614       12.21451      -31.41095      -71.46094      -136.2309
      -84.48610      -10.05593      -13.32773       24.12889       6.677345
      -34.47771       33.42165       37.66275      -61.63562      -139.3888
      -122.4390      -107.9665      -161.1930      -124.5968      -23.53598
      -20.42404      -57.85382      -74.20208      -53.62115       20.82529
       45.92504      -14.59619      -60.85736      -83.38802      -99.10928
      -33.29300       60.69501       49.72362       34.76288       44.96368
       42.08875       43.55560       97.60229       114.2343       59.58392
       46.16174       83.11993       157.4865       175.5341       55.01523
      -7.041840       70.46414       119.6927       93.86865       132.1075
       182.3423       82.57060      -12.33020       39.27454       127.6711
       180.1456       167.5530       76.73817       2.782814      -29.66986
      -62.57830       13.38077       123.0928       95.68616       96.48746
       153.4517       37.75794      -12.39188       142.4611       193.8289
       171.2516       146.6466       11.98398      -7.066803       119.0662
       86.69842      -6.733315      -18.26641      -18.85883      -30.33873
      -37.35258       19.94012       101.0958       97.50893       26.03386
       37.97659       96.40149       90.70404       138.1204       200.3338
       163.3270       47.56880      -84.31660      -19.25891       161.3555
       147.9539      -3.822334      0.1405487       101.2545       28.87624
      -71.25373       9.529327       104.9541       43.44833       7.981476
       109.1484       73.49792      -80.00372      -107.2350      -92.48627
      -57.87299       1.234478      -4.698288      -24.38557      -24.73596
      -24.62692      -68.69720      -95.13623      -131.9582      -147.1917
      -44.36818       8.726776      -40.41425      -156.5845      -198.6460
      -96.62436      -104.4805      -133.8186      -122.7788      -151.2759
      -100.5825      -63.80505      -151.0577      -177.4259      -129.1227
      -142.9305      -151.9164      -133.1869      -191.3658      -226.3558
      -144.7048      -140.7787      -178.5471      -152.5922      -216.5547
      -158.7171      -72.02365      -129.4434      -72.83893      -77.55402
      -228.7431      -234.8397      -195.8712      -145.6062      -104.8408
      -208.9230      -309.5153      -289.4901      -206.2231      -113.6040
      -55.86798      -107.8113      -213.9965      -143.2373      -87.70874
      -143.0660      -143.5430      -112.6161      -97.53125      -147.3163
      -124.4395      -24.34561      -79.66788      -150.6905      -111.6238
      -31.26929      -80.09796      -207.0703      -146.5474      -21.41277
      -33.42664      -27.70709      -7.897186      -89.34872      -119.0936
      -61.02635      -59.71938      -37.46806      -27.22349      -38.72145
      -8.388191       12.49115       54.57782       50.15881      -50.30297
      -34.79961       63.61157       79.46585       58.64819       29.75681
       26.11346       76.96936       113.8310       136.5271       99.12617
      0.2451172       43.65436       108.3673       20.10181       61.80029
       183.8505       197.6076       169.6799      -2.384430      -111.2422
       69.87573       140.5020       62.20706       110.9207       96.03496
       32.74022       81.09875       66.62827       60.65143       169.7230
       194.6768       115.7444       69.60968       118.9731       193.0900
       197.4573       133.5000       101.7610       82.46484       8.990631
       33.56641       156.6677       208.7758       164.5917       79.25760
       85.30817       127.8000       100.4905       130.3525       157.1081
       55.78793       10.90912       119.4621       171.0729       151.5181
       150.0357       106.9484       93.85242       120.8760       95.38593
       73.01430       79.48499       55.87082       91.59467       184.7431
       130.6239       27.34174       78.34998       160.6218       180.2726
       166.0221       107.9500       45.24472       83.17197       171.5303
       163.0598       154.4070       123.0322       73.68610       154.9214
       150.0671       33.12616       69.31741       108.8282       76.90482
       116.5509       100.5040       53.71045       97.68924       126.1964
       136.2869       146.6237       95.14565       11.18292       68.65936
       191.0842       167.0151       81.49341       15.34438       20.79662
       72.00275       68.54041       165.3699       326.8988       297.0893
       161.6066       43.22208       1.966003       60.36639       103.8407
       100.0129       75.16083       48.97845       22.52710       36.17169
       112.4529       137.5624       62.22826      -46.08916      -35.74814
       82.58534       48.94221      -10.01504      0.9620018      -4.847954
       39.19965       36.10839       10.62828       34.40131       20.25099
       4.208649       45.26709       80.72495       85.07326       46.38765
      -46.11719      -89.04312      -82.03375      -105.3241      -87.95845
      -68.34201      -116.6976      -103.8886      -39.02066       3.192181
       36.29468      -8.783752      -116.2301      -156.6144      -115.1180
      -69.21924      -110.2323      -167.6628      -140.6386      -105.8105
      -92.61142      -96.50854      -106.1906      -62.38470      -36.33601
      -17.61680      -12.62402      -81.98846      -133.4675      -106.9421
      -78.31683      -134.2382      -144.4460      -63.11630      -48.10141
      -74.97957      -50.92902      -11.39978       8.259491      -32.15033
      -105.1282      -69.44119      -58.76245      -106.1883      -47.73985
      -34.22244      -121.4839      -98.91611      -8.705754       5.357941
      -9.976624      -35.78317      -118.5195      -181.8866      -132.4975
      -52.87413      -12.37384      -17.76707      -45.24365       13.30428
       38.39162      -59.21442      -110.6456      -47.01283      -22.55170
      -18.75623       57.29492       71.54060       23.69617      -12.99048
      -88.65140      -123.3251      -140.4959      -177.7379      -106.7131
       17.68615       17.58400      -35.31345      -39.26144      -56.13687
      -100.8300      -106.8706      -49.11517      -27.49759      -102.6949
      -174.5651      -98.92373       13.97314       8.638889       17.40997
       20.79296      -8.855713      -78.21558      -179.2460      -111.2547
       53.99507       38.19019      -114.1011      -167.0859      -95.39111
      -65.19427      -145.6259      -178.3759      -148.6222      -206.4258
      -254.8480      -214.8402      -177.2181      -191.1950      -173.7412
      -102.7282      -78.35333      -82.00467      -51.74484      -89.81738
      -121.1690      -13.91406       22.82666      -59.36658      -106.6088
      -100.6970      -113.9711      -152.6968      -170.3290      -208.5394
      -250.0554      -227.0063      -214.0692      -262.0619      -270.7952
      -226.0185      -170.2346      -153.6662      -137.1933      -44.82373
      -45.88611      -150.9198      -153.6720      -159.6406      -263.5107
      -250.8154      -103.1133      -93.68097      -174.9362      -128.3150
      -67.06958      -89.15887      -103.8744      -115.8239      -168.0331
      -158.4824      -116.3771      -152.2324      -204.2021      -174.1479
      -81.92638       14.61200       73.86115       51.15902       4.033600
      -34.25128      -82.19278      -115.7847      -64.08153       59.70058
       104.6588       29.59775      -44.60080      -89.01002      -66.30408
       35.94409       101.5057       139.3482       161.3415       116.1444
       76.60034       61.70233       50.08276       89.32239       184.8915
       219.3683       207.3238       210.0829       199.4339       222.0955
       217.4727       163.2867       169.8632       222.6385       271.8979
       285.7977       330.4592       328.2443       210.7890       132.2329
       133.8026       226.3436       321.6290       308.6622       314.6044
       273.5858       216.4191       286.2823       315.8229       284.3082
       315.5010       391.9127       481.3516       501.5215       437.9727
       386.4862       395.1940       399.1450       356.1216       308.0598
       296.9309       341.4148       423.7708       444.8030       385.4703
       319.9979       324.8990       372.7793       406.9474       367.5371
       296.9410       321.2686       370.6754       351.4978       310.9106
       314.7153       349.2319       370.1357       451.3694       545.6624
       555.7059       485.2346       386.1481       322.2045       293.3153
       317.8037       371.4426       392.2771       388.2466       354.6256
       323.1979       262.3266       164.1335       120.4562       134.6272
       156.9453       193.2495       202.6782       106.2273      -15.61214
      -47.17722      -26.12096      -36.27347      -68.56178       10.18472
       121.6114       101.1367       46.06738       51.02954       15.58035
      -56.02029      -89.87089      -41.46836       46.60168       9.452942
      -163.4656      -302.1097      -301.2753      -217.6529      -164.9854
      -184.3990      -257.2332      -299.1500      -280.7006      -293.2456
      -312.1257      -261.8546      -252.4688      -317.3325      -345.0640
      -310.8259      -311.5436      -327.9662      -319.0208      -353.0128
      -422.0247      -458.8098      -431.2996      -394.2286      -404.0879
      -438.3416      -480.9175      -448.8737      -420.8762      -485.8845
      -529.1136      -513.9601      -458.8457      -378.4053      -326.1785
      -325.1094      -393.7439      -447.3882      -369.0710      -283.7396
      -319.9187      -386.4044      -365.5394      -281.8591      -268.8138
      -333.6530      -463.8184      -551.2814      -519.3595      -474.9967
      -449.1667      -458.9363      -490.9581      -456.9175      -429.8457
      -431.2871      -380.4159      -332.5037      -285.8637      -213.3628
      -213.3098      -265.9656      -284.5649      -217.8357      -149.3057
      -183.6813      -212.6301      -127.8466      -93.31805      -182.7610
      -228.2852      -234.0697      -233.6423      -188.7629      -218.3716
      -291.0743      -253.5724      -217.1886      -258.3077      -217.9792
      -169.3628      -196.0616      -184.0887      -131.6510      -71.14844
       2.440029       21.80936      -30.57236      -36.04329      -6.485870
      -34.92334      -94.68964      -136.2164      -84.70958       44.93414
       80.08652      -4.272041      -44.36112      -11.02571       37.24239
       55.54232       15.61564      -16.81415       26.69946       94.41275
       56.17337      -50.03844      -47.03025       4.996552       48.90430
       166.3128       229.5258       168.4751       171.7075       221.7172
       227.9901       227.7646       236.8080       284.1609       305.6542
       246.3968       233.5079       274.0098       278.2590       246.8892
       210.5447       188.5996       227.7924       269.6758       289.5416
       325.1117       310.9609       256.2966       292.7288       336.9413
       328.0146       358.9281       335.9777       268.9073       324.0604
       356.4830       271.0201       239.1826       292.5258       285.8367
       260.6940       286.6168       268.0549       219.0310       257.3363
       305.9237       267.7847       237.1338       257.8817       286.0651
       335.0504       345.3557       271.3173       234.7859       256.3170
       250.9694       309.0214       330.1211       270.6234       296.0135
       302.1794       269.6663       288.3019       234.0578       167.2470
       176.5700       157.9888       187.0925       278.2112       268.6985
       212.0022       159.1603       172.4746       301.8524       348.3256
       245.6091       166.6487       110.4625       120.8989       187.6910
       129.8821       104.4949       160.2247       128.2721       92.83112
       107.8202       90.21690       36.57557       4.660721       23.65479
       79.23026       101.0421       32.37913       3.410889       74.46423
       117.6942       88.50294       25.87373       10.71115       40.46951
       39.57604       24.33324       2.665854      -6.288723      -8.762901
      -30.34766      -34.87343      -9.616524     -0.6224365      -67.83896
      -108.0278      -93.17896      -124.1388      -155.6711      -143.8641
      -100.9885      -35.10245      -15.73334      -19.79657       9.893440
       32.74754      -19.64050      -138.5030      -199.4808      -189.2729
      -173.7408      -115.2749      -43.46649      -66.63467      -164.9462
      -182.8465      -152.6931      -181.1699      -183.7282      -144.5717
      -149.4144      -184.4141      -210.2082      -202.2031      -169.9381
      -178.6970      -184.9496      -151.2270      -159.2954      -172.1626
      -159.2787      -171.5413      -185.6748      -163.9029      -135.7544
      -135.0511      -165.7864      -195.6665      -238.1714      -256.4117
      -205.2743      -182.5018      -173.2753      -193.4588      -249.9463
      -242.8248      -238.4772      -230.8765      -203.4038      -222.3158
      -240.0294      -264.0108      -305.8940      -241.7502      -130.2487
      -105.4189      -134.2310      -164.1519      -219.8809      -266.2428
      -279.0141      -334.6989      -327.8019      -256.9342      -306.6858
      -272.4661      -157.6761      -214.8931      -195.8800      -136.1818
      -270.0179      -294.5362      -200.5424      -221.2611      -195.9653
      -175.0332      -261.1898      -268.7289      -242.3683      -240.1942
      -186.3893      -183.6645      -248.8716      -226.4617      -183.1230
      -182.3450      -150.5065      -142.6119      -128.8791      -106.6478
      -167.7164      -178.0703      -109.0849      -99.10559      -137.7969
      -135.0193      -105.3929      -121.3759      -134.5269      -120.9261
      -114.4929      -76.65991      -77.50333      -107.2891      -97.91974
      -120.9258      -146.6959      -115.8479      -82.81319      -22.24638
