     0.02500000      -641.2515       393.2225      -12345.00      -12345.00
      -30.02000       235.9550      -36.46000      -12345.00      -12345.00
       0.000000       26.44000      -12345.00      -12345.00      -12345.00
      -12345.00      -12345.00      -12345.00      -12345.00      -12345.00
      -12345.00      -12345.00      -12345.00      -12345.00      -12345.00
      -12345.00      -12345.00      -12345.00      -12345.00      -12345.00
      -12345.00      -32.83200      -66.08020       1675.000       0.000000
      -31.37200      -68.11800       0.000000       97800.00       0.000000
      -12345.00      -12345.00      -12345.00      -12345.00      -12345.00
      -12345.00      -12345.00      -12345.00      -12345.00      -12345.00
       251.4003       130.6227       309.5447       2.260483      -12345.00
      -12345.00      0.3796955       0.000000       90.00000      -12345.00
      -12345.00      -12345.00      -12345.00      -12345.00      -12345.00
      -12345.00      -12345.00      -12345.00      -12345.00      -12345.00
      2008       244         6        45        41
       860         6    -12345    -12345     10640
    -12345    -12345    -12345    -12345    -12345
         1         7        13    -12345    -12345
    -12345    -12345    -12345    -12345    -12345
    -12345    -12345    -12345    -12345    -12345
    -12345    -12345    -12345    -12345    -12345
         1         1         1         1         1
ESP12   -12345          
01      -12345  -12345  
-12345  -12345  -12345  
-12345  -12345  -12345  
-12345  -12345  -12345  
-12345  -12345  -12345  
-12345  -12345  BHN     
XH      -12345  -12345  
[...]
       109.6948       54.54459       41.44572       79.43146       85.22976
       54.55997      -20.13801      -11.46103       118.5765       98.07335
      -54.17240      -46.93967       32.78992       41.25000       36.52075
      -41.24236      -19.48557       116.0426       97.20789      -38.28296
      -128.9056      -43.55093       105.3363       122.9772       20.86963
      -105.5120      -106.6767      -14.58519       6.655611      -11.35095
       1.011414      -10.42058      -49.94287      -100.9012      -111.4323
      -3.002808       66.30914      -39.50150      -72.88829      -41.75720
      -54.19774      -67.18457      -37.98659       54.57511       25.68896
      -76.21046      -85.02625      -76.84979      -88.50218      -65.77809
      -10.36937      -34.17906      -41.79500      -14.75540      -67.02608
      -88.97318      -51.16718      -21.30783      -63.03867      -107.8036
      -83.51232      -2.721443      0.1627197      -101.3031      -95.27354
      -43.27802      -42.22638      -36.47644      -83.86896      -124.7024
      -105.8616      -28.99716       2.858093      -91.66467      -77.83179
      -31.20074      -112.4316      -159.8596      -122.8515      -58.25815
      -67.86206      -113.3274      -124.2586      -98.84177      -88.63266
      -112.0634      -112.2251      -130.0448      -94.20294      -80.65836
      -119.5816      -113.6814      -113.5106      -96.83441      -92.58112
      -96.24219      -110.0149      -192.4843      -196.6466      -71.17044
      -26.69522      -75.54456      -112.4427      -123.8693      -112.5588
      -99.73404      -51.05046      -32.30319      -87.50684      -54.98152
      -21.24677      -88.14719      -107.1201      -41.47894       1.859604
      -18.30452      -55.52902      -85.67960      -83.01003      -31.16953
      -33.46722      -57.60144       5.600315       16.28064      -12.02226
      -18.44064      -36.57724      -22.63809       28.35823       49.01898
       33.48167       65.24135       90.97482       21.63164      -42.68970
       28.84229       115.8797       110.4735       57.95752       55.54987
       158.2191       159.7355       47.90619       53.80170       137.1880
       157.1643       137.4199       141.8259       159.8870       125.5598
       126.9344       200.5363       193.9531       158.0639       196.6016
       182.7877       161.8378       248.4772       239.7675       159.7557
       156.7493       177.4391       213.4434       189.5718       165.2956
       193.0538       197.5660       198.5284       173.1245       157.3371
       228.2206       221.3793       143.2003       180.9246       214.7605
       186.6540       173.6793       144.6646       125.5857       137.0671
       93.59882       90.94415       172.8082       152.4729       112.8330
       58.92492       1.687744       72.88593       139.6673       87.48940
       53.15134       99.23071       58.12133      -11.53891       23.69678
       49.57699       28.27733       6.138079      -3.499437       2.406448
      -32.81515      -52.64743       47.86360       71.34930      -23.96280
      -70.75293      -64.81992      -14.52777       2.479187      -62.81442
      -90.87204      -93.81091      -116.2910      -64.35400      -56.55466
      -127.7070      -92.36417      -48.25360      -72.14856      -101.2997
      -119.0362      -105.6444      -108.6139      -129.1872      -43.57413
      -21.23917      -109.9704      -177.8815      -171.5535      -75.69122
      -75.10815      -110.6463      -63.07068      -120.1607      -166.5536
      -90.81403      -78.14120      -138.9537      -117.6224      -97.83188
      -111.0470      -66.27325      -125.1517      -204.5024      -121.9153
      -50.32629      -34.07462      -82.17136      -134.3423      -144.8839
      -123.4209      -77.09174      -132.6328      -162.4122      -97.69333
      -62.59241      -45.97754      -69.18185      -60.98120      -56.45352
      -127.4079      -121.2161      -43.44127      -11.48322      -67.54547
      -138.2587      -117.1397      -25.66412       33.36763      -31.17310
      -104.3696      -76.82611      -30.66019      -34.44118      -70.19388
      -77.37524      -70.89320      -59.76697      -34.06514      0.9163361
      -5.718948      -50.07373      -75.26010      -88.37311      -107.4520
      -86.28555      -19.57096       38.32993       12.94699      -66.20047
      -86.64148      -54.68513      -30.32410      -24.68309       5.806896
      -4.217590      -38.42940      -9.739563       28.31291       38.70157
       20.82912       36.50315       36.68045      -6.891418       29.96660
       70.54401       56.87047       52.11600       47.44693       70.74341
       134.8399       92.43929       3.790085       61.12570       124.5416
       51.14864       44.77612       165.3256       187.2707       87.72805
       30.64061       44.64819       92.25403       134.8272       161.5846
       121.9355       101.4517       122.5035       67.71426       64.74377
       125.4006       134.9506       122.1836       101.5901       117.3973
       111.2965       95.28941       83.20090       35.40289       70.59601
       162.1448       148.8209       72.60793       70.08542       105.1609
       72.04945       34.66203       73.87750       96.81631       74.47896
       66.91854       37.83217       18.62575       85.98125       79.81332
      -16.72737      -37.96169       12.59080       24.13214      -47.44137
      -30.94885       56.11334       59.39027      -27.74515      -96.58800
      -47.17049       14.54329       20.37973       18.41496      -8.937988
      -66.38937      -72.49890      -62.72433      -107.0724      -108.9835
      -63.44884      -30.04063      -43.25537      -37.92764      -43.38043
      -115.5822      -129.7642      -84.07520      -57.25755      -54.96002
      -84.49048      -126.5982      -106.1740      -90.22980      -142.9566
      -158.8328      -143.7308      -134.8108      -112.3671      -107.0480
      -88.05814      -87.23126      -133.2195      -165.3168      -149.4790
      -77.19818      -65.29660      -122.2182      -148.2693      -114.8318
      -82.75174      -123.3491      -166.5374      -126.8476      -74.03296
      -88.09459      -69.67622      -25.57576      -65.52716      -109.2266
      -105.4957      -90.76948      -59.34246     -0.4171562       1.842529
      -53.33362      -72.33698      -43.41008      -5.440109      -23.09808
      -63.82368      -19.48489       9.121773      -55.51515      -15.35606
       77.72733       73.98970       69.54584       74.63300       69.53534
       96.37495       80.72627      -13.45658      -36.70117       111.7408
       190.9965       79.09433       22.44379       101.1160       128.0276
       60.92160       83.66013       149.8746       133.4992       134.7480
       141.0138       125.0890       120.8715       127.9476       101.2818
       85.74149       124.9231       138.7201       151.3353       177.6855
       154.9874       104.0199       71.35345       109.2595       140.9970
       150.5292       169.3756       158.7726       152.4355       173.3349
       204.3409       136.5655       76.66031       134.9285       154.6353
       152.4225       186.5992       191.9773       154.3832       116.1265
       138.7969       176.2374       172.5559       168.2027       174.6229
       214.2574       226.6159       171.7468       101.1985       111.1902
       215.3016       220.0253       173.4081       198.0782       156.3351
       76.57935       116.2351       176.9478       173.4026       177.7474
       191.1975       192.1388       194.2212       197.4547       154.8763
       130.1886       162.6071       148.4669       105.7794       113.8387
       165.4134       180.1176       176.4017       168.0248       128.1808
       114.0237       131.6481       103.9698       108.5872       155.8372
       122.1205       94.71066       103.2646       102.3289       145.7871
       150.8455       108.3378       105.1270       106.0320       82.04559
       102.9071       146.4177       105.8601       40.38584       18.53909
       45.06996       68.41167       33.04541       55.41605       100.7001
       63.25102      -19.67723       8.283264       74.00935      -28.66256
      -47.72598       54.48164       43.37062       13.86692      -3.063354
      -63.92850      -80.05956      -39.14764       9.456196       44.34235
      -59.18967      -168.1944      -66.45749      -31.41467      -168.3605
      -178.8553      -51.43262      -22.45465      -97.91516      -131.2622
      -117.9921      -134.0508      -135.0067      -92.78180      -142.7708
      -217.5944      -110.8600      -61.53302      -137.3183      -180.1550
      -210.8627      -216.5178      -182.1844      -151.5997      -138.9733
      -141.5130      -172.9113      -235.6771      -266.1974      -269.4410
      -274.1459      -228.1248      -207.0137      -271.9698      -298.9773
      -225.1322      -167.9800      -191.9473      -227.8062      -216.2023
      -203.5321      -285.8641      -310.9445      -243.4882      -197.7333
      -174.4258      -205.7427      -273.9051      -261.8507      -197.5019
      -168.7679      -196.5687      -228.1342      -185.7844      -208.5179
      -253.3229      -209.4251      -213.5112      -216.9976      -182.5621
      -184.2196      -215.8817      -201.9882      -154.0701      -184.2665
      -217.7048      -150.3390      -131.1472      -219.1989      -217.9652
      -102.9233      -113.5478      -182.8169      -141.8849      -131.1076
      -198.4421      -190.2939      -106.3493      -140.1078      -225.6644
      -220.2629      -162.2415      -105.4315      -62.02357      -44.04861
      -119.8004      -178.1998      -168.1675      -152.1878      -119.3652
      -72.80887      -70.90637      -149.8307      -152.0573      -65.92883
      -116.6925      -163.8647      -90.62747      -72.20496      -77.24060
      -68.21603      -81.36155      -26.27924       24.95618      -72.88522
      -135.7152      -70.63324      -89.52362      -119.3038      -28.72772
     -0.5914154      -63.69958      -121.2261      -134.6182      -104.5768
      -67.00513      -76.61450      -129.2983      -84.70621      -40.29919
      -137.4802      -185.6233      -61.18124       11.09438      -31.68826
      -55.08658      -71.63681      -85.72687      -61.09491       25.42841
       87.52448       100.1331       97.06238       76.11536       22.34497
      -72.34076      -56.04250      0.9280090      -48.13586      -61.97157
      -44.60303      -31.36880       26.54728       2.501053      -51.75462
      -19.47571      -14.76629      -26.97012       14.12039       35.85466
       63.39352       120.6594       135.5480       65.38770       31.98724
       39.13895       42.14435       129.1107       181.0833       139.7564
       112.1361       88.48569       82.36444       111.2285       121.3950
       133.2863       130.7529       71.00970       93.53381       153.6226
       134.7505       127.5608       188.0242       233.4495       247.6551
       214.1700       197.6323       210.2841       195.3672       191.4594
       186.7480       174.9330       251.9805       365.9952       361.2269
       229.1954       135.0786       238.2257       389.6706       323.6078
       177.9686       191.8152       263.1414       263.2374       283.9407
       334.1160       314.7919       265.0898       229.5229       198.4194
       200.5084       221.9904       217.1840       217.5743       230.7213
       228.0758       229.9127       246.0740       320.9723       317.2991
       123.6584       10.88513       155.4836       272.2317       292.0649
       364.0083       223.0283       7.927139       5.322815       105.3995
       194.2371       200.8431       236.3207       234.2557       163.1560
       181.7740       254.6735       263.2007       191.2906       154.8906
       123.9720       59.62744       84.88641       131.1498       151.3791
       159.0330       73.91693       11.47845       23.74683       70.94983
       105.3607       36.10713      -12.34588      -15.30804       62.77527
       209.1492       74.78284      -112.8416      -69.15080      -68.61951
      -23.32308       52.80417      -13.79709      -73.49130      -80.18829
      -24.13482       36.89915      -50.21469      -92.56138       36.54501
       22.76245      -169.0651      -266.8568      -244.3693      -1.634583
       135.0074      -100.4948      -181.2467       19.69930       78.35989
      -48.84998      -162.8086      -279.5231      -313.5502      -195.9672
      -42.89461       42.50815      -50.36407      -167.5307      -171.7290
      -23.26434      -59.81226      -458.0799      -309.6965       142.1154
      -185.0264      -641.2515      -531.3523      -270.8441      -283.6020
      -291.3086      -145.3521      -1.283142       222.7006       161.8459
      -339.0076      -474.9438      -122.9519      -24.97633      -58.20346
       33.07812       70.49709       34.09570      -102.8202      -262.2538
      -206.5733      0.5456543      -93.46114      -119.9586      -11.11523
      -255.7204      -328.5383      -108.1077      -128.4056      -311.4176
      -497.1268      -468.0408      -84.20795       186.3888      -30.33044
      -421.7068      -493.2971      -206.2718       63.93197       56.49696
      -1.429993      -77.29089      -278.1845      -234.9764      -6.269775
      -41.63457      -130.4227       4.890778      -75.08569      -347.3774
      -376.6622      -270.1676      -68.32051       78.93005      -199.4972
      -521.4855      -300.7518       82.56802       102.3648      -21.37613
       25.40985      -42.16394      -290.9341      -397.6633      -424.6016
      -376.5195      -176.8017      -55.55377      -153.6992      -171.7501
       34.82068       158.8301      -40.65274      -153.9765       36.38367
       136.2221       79.15594      -150.5405      -383.4833      -194.3021
      -33.33733      -106.6948       55.25919       184.7196       45.81876
      -136.6907      -145.6936       34.67860       91.49603      -39.92236
      -214.5226      -154.6409       31.30502      -22.53151      -37.49315
       81.92186      -6.450989      -159.4313      -179.6284      -201.8358
      -158.8189      -35.51868       83.84976       166.1288       104.7524
       80.74710      -8.053284      -222.3865      -210.5539      -108.0780
      -147.1511      -18.47717       256.6138       227.7289       50.93274
      -37.22151      -77.09355      -68.37348       12.38513       88.17297
       109.2857       151.5175       128.7046       122.7329       83.55461
      -15.47668       32.22754       151.4446       248.6534       367.7924
       321.8578       130.7018       130.8505       204.8664       57.80539
      -100.7088       14.34503       64.24747      -48.16235       116.5409
       332.8715       264.2188       192.1890       104.5232      -58.29854
       28.29436       76.63507      -18.68347       86.61130       127.2224
       106.1498       210.5797       179.7933       85.63013       96.96503
       137.3260       169.1992       90.47665       6.460632       120.6967
       218.2463       169.7291       42.11732      -57.46762      -18.63812
       62.77750       81.78101      -5.409996      -69.56258       17.68396
       163.6401       222.7429       202.5269       144.0645      -9.400177
      -147.7244      -162.5750      -90.14107      -27.21660       59.73386
       81.39189      0.7386322      -36.20093      -83.38753      -115.1381
      -24.96768       112.7648       141.8529       134.6337       112.1930
      -63.44360      -127.9980      -42.57953      -52.40741      -127.7289
      -180.2434      -152.7135      -92.85364       48.09406       266.4840
       192.6010       38.30935       74.48962      -21.93298      -158.1289
      -88.07428      -69.64610      -89.17694       48.84381       96.63367
       12.68979       18.56466       33.52721      -27.67822       64.43079
       199.2087       134.8552       54.13230     0.06034088       1.194992
       64.68835       110.7068       136.2664       36.28073      -45.16510
       3.050354      -47.92821       14.58456       161.3316       78.17072
       31.97223       84.82788       149.5125       263.2981       271.3552
       225.2422       252.9130       240.5578       161.2834       133.4944
       133.3294       157.9496       253.3643       273.4103       185.2162
       179.8005       148.9625       119.0669       237.2530       335.7410
       316.8339       196.5098       73.92136       152.3297       202.6790
       180.6302       282.3337       212.1442       53.62363       108.9230
       226.8871       293.5649       249.1918       113.1147       73.88763
       201.3042       326.7143       326.6761       186.2840       114.5637
       196.9183       130.1064       79.41669       216.0357       208.0421
       117.1637       71.72005       3.558823      -1.732788       125.1521
       134.2519       50.89951       145.5693       153.8651      -39.16402
       4.803711       172.4453       115.5402       45.73013       54.82331
       35.07236      -29.47516      -82.03117      -30.12070       71.28338
       97.45032      -100.3132      -307.0820      -187.3284       21.38833
      0.2150116      -10.99020       73.14275       21.17157      -166.9209
      -215.1493      -200.5531      -183.3467       7.061447       20.27771
      -173.9107      -190.3072      -97.58713      -66.95660      -131.7162
      -181.9755      -154.0444      -217.5725      -254.3584      -139.2230
      -83.27637      -66.17224      -144.3918      -367.0745      -422.3915
      -276.6390      -252.3112      -319.8645      -263.6271      -214.0563
      -313.4130      -311.1761      -223.4049      -272.7740      -269.1205
      -176.9117      -188.0793      -184.7067      -172.5009      -326.0542
      -395.5050      -269.0421      -200.0347      -217.8107      -238.3075
      -295.7878      -301.6094      -222.4925      -226.7214      -281.3942
      -281.8271      -260.5934      -159.4020      -49.40137      -109.6381
      -212.6385      -190.9091      -133.8129      -102.8706      -24.54535
      -79.55524      -202.3904      -146.1235      -87.41412      -63.20857
