     0.02500000      -1117.201       1164.750      -12345.00      -12345.00
      -30.01001       223.7150      -25.66000      -12345.00      -12345.00
       0.000000       19.18000      -12345.00      -12345.00      -12345.00
      -12345.00      -12345.00      -12345.00      -12345.00      -12345.00
      -12345.00      -12345.00      -12345.00      -12345.00      -12345.00
      -12345.00      -12345.00      -12345.00      -12345.00      -12345.00
      -12345.00      -30.65860      -69.43630       2628.000       0.000000
      -31.37200      -68.11800       0.000000       97800.00       0.000000
      -12345.00      -12345.00      -12345.00      -12345.00      -12345.00
      -12345.00      -12345.00      -12345.00      -12345.00      -12345.00
       148.6681       301.8023       122.4783       1.336684      -12345.00
      -12345.00      0.1998033       90.00000       90.00000      -12345.00
      -12345.00      -12345.00      -12345.00      -12345.00      -12345.00
      -12345.00      -12345.00      -12345.00      -12345.00      -12345.00
      2008       244         6        45        31
        60         6    -12345    -12345     10150
    -12345    -12345    -12345    -12345    -12345
         1         7        13    -12345    -12345
    -12345    -12345    -12345    -12345    -12345
    -12345    -12345    -12345    -12345    -12345
    -12345    -12345    -12345    -12345    -12345
         1         1         1         1         1
TOCO    -12345          
        -12345  -12345  
-12345  -12345  -12345  
-12345  -12345  -12345  
-12345  -12345  -12345  
-12345  -12345  -12345  
-12345  -12345  BHE     
ZL      -12345  -12345  
[...]
       305.6548       309.6532       310.9552       313.8395       314.5469
       315.9689       315.9676       319.4351       318.1826       322.5770
       320.6240       317.2128       312.3881       311.3148       307.4216
       307.0306       301.2910       298.8166       293.7567       289.8115
       282.0088       279.4530       273.2468       270.3118       261.0274
       256.7800       249.2512       247.8455       239.7707       236.0392
       227.1585       222.5322       215.2644       211.3257       201.6504
       197.4667       189.5118       186.8561       178.4326       174.4786
       166.4031       163.3934       155.6677       154.4427       147.3300
       142.0898       135.6359       133.9233       127.8693       124.3918
       118.6808       114.6526       108.9846       104.1318       90.07951
       73.14822       72.19482       76.03151       74.93375       93.56017
       100.6976       47.08942       3.264732       15.63609       30.20731
      -32.32238      -67.63747       12.70457       35.03076       3.475464
       267.9210       441.3567       77.31705      -138.7506       6.133545
       190.7416       5.934143      -155.7775       42.99286       20.20157
       110.6689       129.5977       12.61458      -2.993286       146.1766
       219.3120      -100.6485      -133.7992       15.01263       25.19028
      -109.8896      -70.88062       235.3401       241.8603       73.71967
      -154.6267      -196.2844       55.98468       169.5449       20.34241
      -111.6280      -155.1753      -257.1297       35.69858       218.7434
       12.25021      -123.0688      -106.9866      -6.004456      -117.7508
      -79.48172       88.28158       51.29494      -64.89903      -43.37134
       125.7514       35.12994      -197.4024      -81.51678      -96.75568
      -229.6279      -157.0031      -70.24753      -40.65741      -23.85321
      -16.31219       64.83498       70.28006      -119.3800      -17.51573
       5.753296      -192.4019      -260.5155      -128.1796       7.528717
      -83.35141      -130.8698      -111.1782      -113.2604      -49.49942
       71.84245       84.91547      -86.61853      -116.9609      -61.66013
      -139.1280      -153.8566      -84.20642      -193.3789      -350.0275
      -197.1189       41.25984       85.59631       16.67224      -69.88940
      -136.8516      -228.0961      -179.0707      -103.5282      -188.7891
      -229.2921      -101.3681       84.04337       55.58514      -193.6786
      -155.8354       51.83118       21.80652      -244.7440      -317.9874
      -147.4160      -110.5701      -107.6095      -52.99409      -13.79242
      -107.4901      -125.3125       110.9427       84.61829      -146.1263
      -183.5152      -48.25980      -72.03296      -226.7405      -246.5010
      -135.1613       27.01711      -19.74869      -199.4458      -74.07864
      -60.49817      -242.8737      -204.3672      -153.6252      -63.74303
      -25.78368      -42.93594      -43.68076      -85.96826      -197.2070
      -288.5188      -27.50452      -22.01691      -285.7422      -193.6147
      -53.06561      -169.3895      -250.5005      -168.5495      -113.2302
      -72.71289      -122.8646      -221.3437      -77.15038       47.97920
       25.15012      -51.40967      -142.2383      -167.5230      -158.0336
      -181.4335      -217.0299      -288.9706      -291.6596      -62.65283
       72.75020       5.372162      -46.84222      -109.8470      -149.7731
      -133.7305      -74.43298       25.33289       89.28889      0.6607666
      -104.0125      -72.50209       64.73224       30.57568      -207.9757
      -170.2227       3.649857      -68.75986      -95.49596       24.42645
       43.93987       26.97559       72.08849       101.0799       31.01561
      -38.72029       62.73666       124.2019       17.84955      -46.16468
      -52.67784       32.02777       116.0544       159.5764       99.18555
      -108.0482      -98.29095      -28.94299      -103.9534      -14.46536
       178.4707       114.7267       69.66827       99.57782       23.63594
       35.83441       33.48116      -6.713226       60.81299       109.1806
       76.44016       65.38544       122.5486       91.46700       35.49887
       59.08582       49.72896       64.13988       69.09727      -27.74568
       5.004883       142.3573       221.8363       140.6745      -14.23607
      -93.18121       31.51282       162.4737       58.51608       10.15033
       82.66124       46.33431      -53.05577       15.57425       134.5597
       97.92480       51.92169       70.51204       66.72897       4.118307
      -14.85705       27.96430       5.880108      -28.18465       32.04523
       102.6227       103.7383       115.4311       159.4272       127.0837
      -53.16282      -80.78210       100.6354       165.9045       80.42314
       58.60349       121.1948       57.09766      -38.69135       11.27802
       16.87537       38.99991       123.7029       117.8562       60.99365
       32.05640       138.4547       239.8590       95.03570      -59.22630
       22.91946       54.28377       57.68478       79.27838       89.05383
       130.4272       129.1819       156.6659       111.3011       120.5261
       206.0194       140.8540       94.51559       81.00461       56.99561
       155.3631       207.0246       103.2082       78.76971       157.5013
       239.1078       219.0999       149.4744       180.4696       157.8351
       139.0314       163.8659       212.7850       247.0569       157.6398
       115.3392       116.4519       238.8455       387.2297       287.9250
       142.5620       129.7449       191.1200       160.9351       158.2153
       254.4008       292.5895       278.6937       181.9701       146.8938
       241.4501       229.4658       239.4974       298.6630       248.5218
       190.2560       231.0431       308.9263       279.8181       254.1038
       282.2687       210.5730       113.3762       227.4222       355.1537
       315.1806       261.1208       244.7612       200.4268       148.3751
       218.0846       188.7426       49.68793       82.81836       208.9664
       210.9956       185.6572       204.1208       147.5838       116.4615
       132.4844       146.4702       195.1201       148.9472       38.41353
       42.38184       77.88040       36.71306      -44.98470      -30.98346
       59.72820       11.86357      -14.35512       9.055878      -58.99704
      -129.8671      -177.8151      -243.1724      -212.6068      -124.6270
      -28.84210      -118.0305      -239.0499      -151.5901      -112.6119
      -186.7980      -179.7179      -215.4332      -298.0389      -198.2893
      -174.1439      -321.0909      -382.4149      -371.9381      -346.7671
      -343.0197      -362.2421      -386.6174      -393.2939      -452.1989
      -359.0558      -297.2897      -407.9033      -460.2085      -423.7894
      -364.6606      -429.4385      -597.3379      -613.2965      -521.2892
      -467.2484      -469.7775      -466.2179      -448.8839      -428.5081
      -453.4038      -554.8203      -591.2318      -458.9121      -372.2134
      -463.5461      -556.4136      -568.4189      -611.7207      -603.9094
      -398.1045      -292.7332      -491.2096      -544.5634      -464.2065
      -409.5127      -453.6758      -531.0686      -456.4573      -380.8507
      -452.6326      -506.1736      -379.2240      -300.1411      -397.2910
      -429.1259      -444.8778      -446.2626      -348.9142      -222.1703
      -239.9404      -308.2509      -335.3082      -350.9973      -329.5706
      -288.6440      -212.6454      -117.5773      -168.7468      -269.8666
      -221.7618      -155.0304      -157.3408      -146.6694      -154.2103
      -148.2126      -179.9760      -139.7820      -70.06857      -109.3745
      -89.30920      -10.37822      -18.13812      -55.92348      -34.35479
      -5.110291       81.22562       137.0222       36.58112       39.78700
       76.96063       99.13818       149.7266       227.8860       171.4246
       39.54834       91.27979       239.0762       289.0617       262.8732
       256.3457       264.8958       226.9587       204.5785       288.4443
       391.4589       324.6476       276.6277       317.1249       243.9817
       238.1846       356.5647       356.3173       367.8417       447.3999
       484.9736       424.7512       338.1577       365.2578       416.4993
       407.4781       353.0874       339.5691       372.4381       360.1248
       404.4440       373.0460       364.9277       506.0952       431.4291
       258.5502       350.2697       442.1100       456.0865       378.1973
       236.2194       253.7826       275.7986       331.9373       410.5194
       447.5056       500.6402       344.0360       270.6694       379.9016
       289.2567       189.7369       314.5687       419.2280       412.2389
       312.2546       181.0538       193.8398       293.8785       342.0386
       291.3151       279.9307       326.6783       294.8007       248.6123
       283.2451       374.8815       367.6024       255.0333       144.0584
       104.8920       233.4067       341.3552       267.0099       234.3265
       244.4692       224.9102       249.2490       184.8993       150.6900
       241.8645       273.0533       282.2404       200.5709       105.6620
       173.8607       266.8042       230.9211       207.7229       187.3154
       127.8020       161.3798       162.2164       195.2745       236.1434
       204.0490       243.5720       225.1346       127.1470       162.4618
       258.0253       199.5153       160.4115       264.7693       271.1211
       171.4985       177.7578       212.8528       167.6967       210.8063
       222.2941       196.5464       179.9194      -10.65793     -0.9771118
       238.4723       204.2889       70.31258       75.92590       97.24780
       114.0387       105.2618       56.84126       35.50698       34.73709
       6.987488      -32.00330      -40.42525      -6.953529      -15.37695
      -76.21036      -112.9930      -117.1799      -158.4325      -170.9765
      -160.4171      -192.9423      -189.1361      -95.39960      -29.89093
      -79.88086      -168.0250      -257.8350      -338.2264      -329.9951
      -251.0793      -255.2516      -219.1229      -130.6555      -198.2069
      -324.4634      -308.4767      -271.1152      -360.0895      -418.7704
      -392.0897      -318.1543      -294.7615      -356.9386      -444.3542
      -480.1680      -391.4491      -383.1963      -463.6299      -460.0186
      -427.8583      -407.6100      -305.3051      -264.4082      -318.0045
      -425.9817      -570.0132      -600.7023      -642.4907      -596.2083
      -529.3354      -557.5438      -511.8223      -577.2990      -650.6233
      -572.0817      -423.8669      -402.9482      -494.0059      -520.0850
      -493.7719      -502.2922      -488.8943      -463.4257      -514.0305
      -659.9097      -689.1580      -528.6763      -360.6774      -308.4833
      -383.8358      -467.7866      -446.2350      -513.9568      -515.6410
      -356.4578      -350.3638      -437.9888      -561.0940      -571.5698
      -380.7736      -306.5554      -353.9856      -405.4994      -325.6002
      -229.2214      -234.5046      -216.8807      -255.3353      -300.1920
      -252.4924      -248.3591      -253.0163      -206.0682      -219.6891
      -310.3519      -232.9910      -117.3146      -64.45367      -58.21960
      -101.5468      -76.13945     -0.2748108      -10.21242      -63.58455
       16.41655       3.567215      -90.88605      -56.20206      -46.20597
      -38.98062      -1.931915       42.20334       52.88293       65.99652
       140.9387       163.8142       161.2816       131.2637       122.4069
       138.6050       76.01321       37.86282       103.5421       236.3389
       312.9270       327.3018       321.2695       267.0602       242.1176
       269.7413       231.2410       219.8894       275.7178       258.2896
       240.0658       233.7709       265.8408       337.3744       353.6188
       302.3916       291.1862       381.7808       376.7797       346.2247
       404.8839       455.2412       372.5317       295.4623       345.0118
       373.7756       397.8184       514.6509       620.0356       576.1394
       487.5781       451.7313       405.1838       398.7914       450.9390
       456.4980       441.1174       427.2396       357.4836       382.2109
       520.5431       544.5752       508.0538       462.9929       417.8921
       432.8679       336.7386       298.4227       382.7864       346.6461
       161.1973       59.76038       65.56177       139.9423       233.0975
       245.0767       224.7861       11.83566      -162.1964      -5.287109
       340.0630       776.7349       1097.616       1164.750       962.8135
       601.9379       223.2887       10.97266      -77.54608       21.29419
       458.9148       780.4287       577.1895       2.512390      -187.9822
       394.1035       996.6973       1057.103       440.2363      -461.3169
      -699.0876       21.86768       628.1657       369.5570       46.12305
       201.6240       281.8000       42.96014      -118.1255       39.62549
       302.7280       541.9979       662.7100       367.7691      -238.3312
      -285.6707       180.4646       526.1254       318.9222      -295.0778
      -521.8595      -436.7481      -322.3491      -138.2330      -109.5674
      -415.7838      -786.8883      -368.2852       461.6365       865.6859
       759.9547       173.9999      -355.9755      -609.6548      -795.7090
      -669.0060      -412.2050      -358.2926      -218.3447       238.8417
       492.4198       360.9923      -113.3911      -781.3501      -1117.201
      -1024.182      -913.1218      -880.9507      -588.6685       87.73486
       367.5740       188.3863      -7.916016      -311.6807      -637.1252
      -648.7216      -519.7832      -500.7596      -308.0240      -14.19711
      -26.12341      -188.1228      -278.9189      -611.9723      -696.7798
      -519.5610      -832.2590      -765.8889      -178.2667       115.8753
       61.19193      -23.40033       182.7957       407.9947       46.54590
      -624.8845      -957.5168      -857.0635      -752.2622      -590.7703
      -129.4531       198.1888       185.1845       187.9952       205.1738
       125.4928      -122.2249      -411.0022      -531.3125      -486.7462
      -214.9504      -129.0853      -462.5498      -524.9939       36.18518
       551.7943       410.4253       59.43408      -112.1066      -298.2439
      -296.9872      -135.8747      -63.20779       54.32593       296.5446
       411.9974       172.4042       80.79214       117.4926       6.008545
      -44.26802      -49.62117       16.25485       77.49500       54.10498
       132.8570       118.5309       164.0796       225.2402       116.1975
      -7.600037      -263.3167      -283.0737       94.82465       223.8795
       208.5994       334.6161       331.2870       215.6839       249.8141
       215.9803       43.40308       14.41614       125.6302       161.7358
       10.44517      -53.85883       172.6829       421.7173       587.0898
       613.8582       461.9038       244.9581       102.1234      -72.13105
      -68.57485       44.50624       25.35208       127.1393       201.3898
       266.0059       278.5948       153.1765       90.23517      -62.29019
      -143.7447      -24.25397       69.59001       18.73389       133.5393
       381.5780       258.3010       169.5169       296.1268       185.0466
       11.42706       41.66089       114.3690       188.8704       179.8235
       223.5377       414.3976       274.9539      -43.83319      -154.7635
      -189.3414      -146.0035      -121.8119      -66.07082      -29.04004
       23.46768       176.0531       46.30833      -33.09518       47.84167
      -67.17729      -11.60913       122.9310       12.87433      -77.01004
      -69.53790      -106.8287      -125.1030      -119.3302      -30.86456
       102.2564       111.6762      -3.467712      -110.0453      -253.4451
      -296.2769       41.50633       99.07794      -278.0669      -355.0785
      -233.3518      -275.2045      -229.7644      -143.5038      -85.79510
      -144.9733      -330.7755      -250.8701      -79.79469       13.04764
       51.86804      -11.85146       42.96359      -65.60657      -349.7700
      -465.9125      -469.9782      -341.5502      -281.6620      -262.3099
      -392.8727      -428.9395      -112.8234      -125.6154      -215.0325
      -143.4808      -329.8331      -292.5922      -90.15779      -21.62927
      -57.71893      -221.6371      -328.2891      -163.8509      -100.6687
      -196.9395      -122.1621      -176.8144      -158.0956      -22.47601
      -134.0143      -251.3234      -392.3181      -308.2463      -265.4541
      -424.8857      -360.7700      -294.1479      -165.8646      -90.95044
      -349.0352      -368.9270      -118.1111       3.396545       119.8686
       142.0896      -93.13110      -224.4990      -207.4552      -188.2417
      -176.7945      -137.9215      -27.36517      -29.21527      -332.5712
      -259.4056      -37.91147      -145.1791      -75.99866      -109.9506
      -296.6342      -212.4543      -16.09259      -6.466919      -124.8816
      -11.21149       198.4232       227.1202       105.8644       29.10689
      -60.00746      -17.04784       87.67691      -79.87692      -163.8444
       83.48672       115.3007      -106.2785      -197.6834      -84.56184
       17.80087       8.945862      -86.17810      -95.68723      -85.32379
      -40.58496       48.49310      -32.49146      -17.92590       146.8163
       21.60782      0.3814087       214.2513       249.3976       89.42236
      -126.0278      -155.9557      -58.98878      -101.4792       58.08679
       213.1112       202.2387       159.1779       191.5668       235.4538
       136.2499       88.36371       53.66302       134.5237       231.8340
       72.43861      -1.115723       105.8385       289.9022       324.0844
       327.9953       317.5554       135.3898       73.52063       315.8723
       490.4354       379.4528       226.5010       296.7742       513.4713
       615.0626       469.2253       338.2992       414.0986       396.5065
