     0.02500000      -834.8965       1138.408      -12345.00      -12345.00
      -30.01001       223.7150      -25.66000      -12345.00      -12345.00
       0.000000       19.18000      -12345.00      -12345.00      -12345.00
      -12345.00      -12345.00      -12345.00      -12345.00      -12345.00
      -12345.00      -12345.00      -12345.00      -12345.00      -12345.00
      -12345.00      -12345.00      -12345.00      -12345.00      -12345.00
      -12345.00      -30.65860      -69.43630       2628.000       0.000000
      -31.37200      -68.11800       0.000000       97800.00       0.000000
      -12345.00      -12345.00      -12345.00      -12345.00      -12345.00
      -12345.00      -12345.00      -12345.00      -12345.00      -12345.00
       148.6681       301.8023       122.4783       1.336684      -12345.00
      -12345.00     0.05832439       0.000000       0.000000      -12345.00
      -12345.00      -12345.00      -12345.00      -12345.00      -12345.00
      -12345.00      -12345.00      -12345.00      -12345.00      -12345.00
      2008       244         6        45        31
        60         6    -12345    -12345     10150
    -12345    -12345    -12345    -12345    -12345
         1         7        13    -12345    -12345
    -12345    -12345    -12345    -12345    -12345
    -12345    -12345    -12345    -12345    -12345
    -12345    -12345    -12345    -12345    -12345
         1         1         1         1         1
TOCO    -12345          
        -12345  -12345  
-12345  -12345  -12345  
-12345  -12345  -12345  
-12345  -12345  -12345  
-12345  -12345  -12345  
-12345  -12345  BHZ     
ZL      -12345  -12345  
[...]
       375.3314       386.2667       388.7433       395.1287       401.2986
       409.1423       412.9730       421.2461       429.2299       461.3762
       494.6075       497.0267       488.0337       483.9498       413.7611
       410.7729       536.9874       615.3032       609.1897       587.1309
       672.1552       708.7847       466.2767       401.5397       413.4109
      -207.5759      -440.9534       413.9509       802.4717       637.0667
       350.3225       436.5269       853.2111       686.5396       343.5355
      -196.1963       34.45532       625.3491       498.2544       217.5106
       207.9541       531.1523       257.9697       453.0132       775.9443
       136.5451       50.03578       91.48303      -150.7378       513.6650
       1123.231       267.7158      -169.7918       123.2227      -57.64490
       305.8585       462.3423       469.1790       423.9496      -140.7820
       89.75128       436.2923      -36.35950      -123.1019       539.8763
       480.2972       12.31337       54.91147       69.12170       42.05812
      -46.74361      -70.06773       53.09535      -13.25934       67.63361
       375.5422       231.3600      -114.8890      -151.0600      -119.5333
       11.23438       210.3434      -14.44086      -309.9369      -208.6029
       70.65643       74.59979       16.71542      -101.8378      -229.6314
      -169.2766      -78.74158       1.373230      -180.1049      -127.6496
      -42.48975      -263.6841      -270.1898      -316.1380      -262.0719
      -62.92444      -253.4807      -313.0143      -136.0546      -275.5619
      -258.5009      -96.05627      -156.8658      -295.4412      -440.0558
      -294.0757      -113.1749      -86.23669      -307.5596      -397.8904
      -99.99414      -243.0513      -528.7538      -351.3062      -116.3042
      -194.4001      -314.0432      -318.1656      -273.9506      -211.8916
      -371.9558      -316.2193      -159.2538      -216.7939      -160.5306
      -235.7026      -335.7001      -320.2090      -245.9125      -253.8470
      -266.4918      -205.0060      -254.7709      -274.0047      -217.8710
      -191.7823      -154.7243      -202.7808      -265.1049      -234.4857
      -307.4486      -282.6833      -64.93481      -41.42712      -258.6277
      -288.2663      -191.7237      -149.4041      -192.4022      -260.8611
      -123.4097      -208.8094      -335.2737       9.331665       70.26657
      -170.4012      -158.3412      -80.12183      -154.3752      -299.4678
      -201.7901      -154.2446      -159.6288      -50.17462      -142.3030
      -89.95374      -55.21576      -184.5700      -174.3704      -191.8486
      -96.06467      -14.27228      -162.5394      -125.6304       24.27319
      -58.77866      -154.1010      -59.80707      -147.1925      -218.0062
      -257.9346      -187.8214       183.1953       5.636719      -319.0243
      -203.1353      -162.6837      -243.6049      -219.6852      -115.6348
       8.639435      -16.62231      -104.7926      -118.4926      -206.9156
      -134.6441      -24.25494      -192.2136      -187.6869      -60.86481
      -153.0404      -237.4158      -199.4160      -178.7362      -86.12166
      -8.437256      -186.3182      -273.9960      -260.1279      -234.4301
      -137.5162      -115.2039      -119.5947      -44.01080       9.849243
      -194.6960      -255.8944      -119.5609      -78.20566      -72.75256
      -171.9517      -227.9076      -53.35152       22.33508      -87.46436
      -151.9147      -305.0719      -230.5079       94.07665       23.70401
      -143.6310      -131.1234      -108.6416      -38.60046      -73.09062
      -117.8734      -12.22735      -34.18336      -30.16672       16.76500
       18.73965       106.9363       61.72043      -113.0453      -114.1400
       26.35773       169.1376       148.3461      -10.32794       37.22949
       103.8090       124.9445       97.78363       127.1559       157.1114
       82.95996       191.6377       180.5919       181.7368       385.4478
       296.7577       28.65839       91.91370       245.2297       200.8713
       286.4912       384.1078       234.2168       219.1509       275.0332
       286.7052       319.8882       380.0094       394.7317       289.4934
       236.0298       317.1982       403.2855       406.9116       353.1289
       327.6775       237.5930       130.1711       144.6525       242.0061
       285.0992       301.1909       337.8065       323.3811       223.7584
       137.5851       164.8662       191.9026       227.6193       359.6682
       348.6108       217.3586       223.0551       297.5339       281.6973
       238.5847       323.9076       320.1835       204.0547       301.4043
       341.6972       77.88193       48.95898       298.9702       417.1737
       340.7974       290.3348       325.4765       274.8075       260.6347
       198.6443       131.6212       178.3899       188.1353       256.3508
       353.6679       315.8815       207.8218       143.1261       306.3088
       410.5865       184.7640       91.59503       188.1047       267.1833
       209.6308       219.2496       242.1098       156.7302       209.2036
       184.9155       101.2307       135.6732       212.4223       301.5856
       224.0692       74.77142       175.2004       216.2047       120.0350
       235.0945       258.9955       194.6437       244.3392       165.6556
       101.9516       187.7751       169.2285       135.7479       96.17088
      -37.39169      -11.16306       133.5608       171.5158       119.8168
       104.8927       188.1967       51.83978      -136.5317      -4.170853
       44.27083       25.84813       55.94775       99.88779       136.0485
       64.11317      -38.39548      -99.77545      -90.91310      -90.26151
       4.454803       54.62076       34.01379      -69.03687      -212.6589
      -180.0848      -83.71771      -164.2415      -159.6209      -58.05798
      -199.1218      -225.8738      -191.2737      -199.7398      -101.1465
      -86.55042      -238.7698      -285.9251      -220.2675      -168.2994
      -82.68378      -120.3063      -252.4247      -263.0750      -225.0651
      -219.0982      -239.1373      -305.1307      -267.0295      -277.9879
      -269.3589      -142.6942      -173.2429      -169.9645      -217.5287
      -316.5488      -293.1746      -253.6366      -243.0870      -314.5442
      -237.6198      -82.58423      -149.9229      -284.0556      -313.4785
      -214.3096      -191.6408      -249.1152      -269.3153      -216.5515
      -203.0120      -277.4193      -227.7738      -134.9534      -199.1335
      -284.4695      -201.6083      -200.1584      -390.7153      -363.2609
      -216.8419      -155.2856      -204.7316      -261.8794      -238.5020
      -287.1168      -262.7476      -270.9957      -331.0176      -306.9106
      -257.6649      -231.8151      -210.0063      -269.8439      -376.8584
      -360.5685      -358.8849      -310.0587      -322.2292      -458.2546
      -411.7932      -336.7980      -353.6398      -341.5483      -395.8878
      -371.8874      -183.6445      -303.3427      -511.6646      -405.9761
      -389.4932      -340.2958      -277.6824      -358.1377      -398.1135
      -383.3324      -318.4850      -264.3112      -256.4062      -330.2822
      -369.8070      -283.3412      -245.7791      -309.1156      -421.2163
      -439.2491      -341.6412      -255.5298      -235.1885      -227.1052
      -140.3951      -165.4033      -232.9630      -229.8190      -330.2804
      -338.6552      -230.3813      -114.2886      -86.23224      -182.0089
      -96.75952      -54.48877      -158.8618      -185.2187      -256.4891
      -187.3516      -133.8797      -117.5515      -59.79703      -99.53503
      -96.34924      -197.4815      -186.2455       4.974091      -59.95181
      -163.4602      -120.3451      -45.74133      -5.904053       5.763863
       25.17694      -52.22733      -83.53382      -6.759872       26.90490
       17.41060      -65.96442      -11.90680       144.8155       213.4198
       132.3279      -12.08234      -36.92642      -26.91791       41.92676
       156.4989       201.5940       175.1005       139.3550       177.0443
       111.5338       89.06348       216.5493       228.4992       178.2330
       227.5588       255.3286       246.9335       290.2661       260.5963
       220.4536       192.2125       228.2877       315.4563       322.1658
       288.6157       241.2073       324.5767       409.9622       357.1215
       377.8005       461.4312       441.5645       279.5305       378.6477
       558.5942       472.7594       420.4668       445.5481       435.3248
       443.2644       421.2749       412.0911       507.0474       517.0146
       454.7035       456.2271       485.2633       512.7646       510.7606
       509.5579       527.9705       479.6824       539.3904       635.0637
       518.9824       522.2681       582.2881       470.8010       471.2473
       571.9205       618.3573       609.8298       489.8088       417.6252
       485.3108       576.8264       574.6617       595.8676       616.3578
       481.8157       522.2832       647.4131       571.8835       530.4004
       584.8535       575.1246       518.2429       508.3306       444.3364
       433.5691       542.4172       560.5049       440.3379       403.4414
       530.8922       510.0988       371.7327       395.7312       506.0637
       472.3921       380.4410       409.0067       426.3776       381.2241
       381.4360       393.7881       372.8002       377.6309       385.7842
       295.0050       314.9232       334.9467       258.8308       238.7562
       306.9849       357.7087       232.8215       217.2932       245.6609
       167.9005       156.2160       82.80582       57.10535       93.76068
       126.8057       196.3735       123.5743       4.705475       59.48203
       88.78763      -6.882202      -154.1618      -224.8970      -262.3513
      -256.2711       14.84174       204.1128       108.9027      -58.74530
      -148.8615      -152.3894      -126.2574      -19.59299      -25.17859
      -206.4281      -301.8801      -394.4240      -522.5082      -454.4547
      -415.3541      -446.9227      -386.9015      -379.2337      -300.5747
      -134.6287      -205.8384      -511.8687      -676.1458      -614.0962
      -558.5303      -526.9944      -493.9016      -440.6031      -456.0188
      -614.8269      -558.0559      -451.4862      -460.1223      -503.9567
      -645.9307      -653.3727      -556.8091      -554.7983      -555.5986
      -601.6328      -729.5889      -759.3105      -657.2112      -614.2961
      -566.2148      -540.9880      -552.9414      -605.4543      -695.0852
      -698.5029      -715.4246      -674.5850      -593.4519      -559.7516
      -604.1304      -778.9841      -779.1750      -579.1917      -501.1075
      -565.9525      -550.3894      -693.7808      -763.7664      -600.3080
      -562.7416      -455.5332      -463.8330      -671.3582      -648.3459
      -630.6189      -662.2278      -627.6455      -589.9097      -528.9587
      -481.1541      -422.6093      -406.4979      -405.1523      -405.3264
      -440.1851      -407.3289      -400.7598      -508.1125      -502.6643
      -515.3951      -520.7976      -320.1334      -204.9149      -255.0812
      -260.9932      -173.3677      -191.1133      -296.1738      -366.5188
      -357.1210      -256.8396      -257.9540      -213.1848      -199.2667
      -254.4918      -251.4901      -306.9282      -276.8734      -98.41321
      -64.60095      -199.7488      -270.4481      -260.6918      -247.5481
      -224.4437      -97.31776      -10.83206      -134.8661      -212.9987
      -153.3979      -94.19681      -63.49384      -29.23675      -14.22510
      -88.54059      -152.5919      -106.7501       36.14508       133.1773
       70.43059      -12.17023      -149.2846      -191.8668      -123.7015
      -192.4200      -162.4443      -9.710205       118.8254       349.8318
       529.6464       456.4414       180.2311       3.704102       79.37097
       175.5781       244.9536       361.8754       505.3879       628.7812
       638.4304       661.4897       657.9309       439.8782       328.3839
       454.2714       493.3206       364.3320       151.8011       203.1572
       605.2197       912.8137       881.5522       674.6719       605.1387
       715.7356       843.2357       709.6838       452.7024       442.2227
       422.4744       397.7692       466.9531       625.4602       865.8325
       875.1095       601.8597       344.7771       409.7412       780.2085
       1032.505       954.1567       868.5513       824.9087       618.6145
       568.7581       618.6079       699.3635       884.1272       781.3842
       432.1936       322.9141       734.8472       1138.408       1093.328
       828.9324       587.2458       479.8416       336.4299       223.3630
       372.6812       648.9668       782.6174       790.8110       871.1685
       770.5022       465.6594       98.13034      -8.840820       343.4604
       666.5214       687.9763       473.7889       466.7546       649.0850
       678.9293       567.5648       192.6260      -165.0997      -117.8798
      -39.73053       37.31030       283.5790       495.8811       574.9468
       469.1431       359.3174       242.0673       98.60620       178.4453
       159.4790      -176.5735      -299.3600      -88.87531       68.79434
       135.8839      -9.002625      -153.9681      -184.3467      -185.6573
      -169.1917      -271.1578      -248.6718      -269.2150      -300.4835
      -108.5000       29.53965      -2.046417      -120.0115      -174.5933
      -358.7190      -602.5404      -575.5493      -370.6944      -296.5081
      -293.0769      -297.6093      -380.8120      -244.6193      -88.21936
      -120.9292      -333.4482      -670.4182      -832.2375      -805.5542
      -732.4960      -644.2521      -400.8464      -181.3486      -235.8630
      -282.7784      -258.6262      -359.1467      -527.1123      -593.6003
      -679.9729      -755.1221      -448.1556      -91.70258      -114.9573
      -181.3423      -150.5136      -268.9205      -410.7866      -423.6392
      -325.2881      -305.6931      -424.2112      -539.1195      -562.9940
      -435.5591      -233.4384      -34.95917      -47.04358      -227.0797
      -390.8470      -493.0842      -323.1877      -203.1355      -328.7288
      -315.6805      -320.5988      -422.0590      -438.5457      -403.5107
      -234.2517      -127.5988      -65.40186      -85.27039      -344.4963
      -460.6428      -331.8724      -326.4141      -269.6530      -169.9295
      -230.0146      -176.5251      -47.08511      0.9668121      -94.58122
      -28.50162       114.6955       100.0785       83.11369       33.23656
       41.19438      -18.06259      -135.5094      -199.2465      -232.5586
      -198.8133      -178.8497      -120.9846      -65.41290      -129.7386
      -128.6392      -101.3873      -226.1461      -223.3925      -97.48286
      -41.94945       35.80428      -23.88620      -102.4547      -39.07181
       21.98523      -89.46426      -153.1859      -49.37637      -147.3043
      -205.8738      -48.10062      -43.11520      -141.8457      -5.410522
       277.0643       332.5501       260.0046       142.3671      -46.66132
      -92.55545      -78.46973      -11.46902       10.52220      -52.90717
       77.35112       128.7016      -33.38705      -55.42523       88.65692
       139.3789       74.86075       44.81494       65.43542       165.6471
       199.3686       64.81732       7.925476       117.1121       224.1188
       257.5525       233.9708       164.8375       2.214138      -43.46641
       46.40237      -6.985229      -127.5356      -66.39838       13.25146
      -75.47330      -139.1487      -167.2426      -115.0078       53.46814
       182.6132       265.9349       227.3685       91.42775       39.35736
       151.2538       109.1705       9.449020       77.45679       71.54253
       67.13415       56.85089      -121.1804      -215.2794      -231.2453
      -253.8355      -115.4272      -54.22620      -180.8956      -157.7457
       47.67206       247.4444       214.0809       108.6635      -33.95535
      -125.3150      -100.7286      -155.0482      -127.2854      -61.61224
      -95.55704       40.11426       127.8554       8.770355       47.12524
       174.9343       67.91835      -52.49666       30.70700       87.50146
       112.3935       221.3166       207.0845       139.0816       104.5955
       147.4321       151.5213       70.23465       7.494064      -67.04083
       40.34406       198.2268       160.6123      -8.084778      -85.85565
       12.20599       3.658630      -113.7113      -210.3066      -224.9647
      -94.68944      -7.689697       35.14545       149.7849       202.8069
       177.1747       144.3712       186.2626       152.0890       53.92532
       20.72211       3.629303      -64.17961      -78.35712      -41.09656
      -186.9481      -291.4531      -203.0962      -142.2454      -78.26331
      -89.15132      -66.89331      -49.12206      -78.74349       27.74672
       23.98108      -187.3076      -293.7516      -242.0229      -109.2868
      -54.41144      -114.2190      -177.9624      -92.99530      -135.8402
      -243.5402      -62.80554      -43.92767      -226.1943      -255.0271
      -227.9565      -296.9498      -306.2402      -170.6526      -201.9869
      -270.7341      -281.4327      -365.7463      -276.0222      -129.8872
      -107.7361      -51.03265      -172.6477      -258.1375      -268.2283
      -260.4150      -102.0728      -116.2833      -189.2542      -82.75696
      -106.5463      -225.3370      -330.5414      -377.4881      -217.9745
      -45.92200      -111.0251      -148.2089      -51.87749       57.49762
       138.6598       89.53577      -53.52521      -149.5564      -82.86788
       21.26385       32.40787       37.28456       35.75626       95.02145
       82.57510      -23.11047      -53.74296       2.858948       65.42804
       159.1175       228.8934       257.7114       284.2980       280.5156
       281.8362       306.8643       245.6405       304.9430       367.7675
       308.3300       362.1208       421.7751       413.9980       377.3463
