     0.02500000      -882.8189       1033.877      -12345.00      -12345.00
      -30.01001       223.7150      -25.66000      -12345.00      -12345.00
       0.000000       19.18000      -12345.00      -12345.00      -12345.00
      -12345.00      -12345.00      -12345.00      -12345.00      -12345.00
      -12345.00      -12345.00      -12345.00      -12345.00      -12345.00
      -12345.00      -12345.00      -12345.00      -12345.00      -12345.00
      -12345.00      -30.65860      -69.43630       2628.000       0.000000
      -31.37200      -68.11800       0.000000       97800.00       0.000000
      -12345.00      -12345.00      -12345.00      -12345.00      -12345.00
      -12345.00      -12345.00      -12345.00      -12345.00      -12345.00
       148.6681       301.8023       122.4783       1.336684      -12345.00
      -12345.00     -0.3377324       0.000000       90.00000      -12345.00
      -12345.00      -12345.00      -12345.00      -12345.00      -12345.00
      -12345.00      -12345.00      -12345.00      -12345.00      -12345.00
      2008       244         6        45        31
        60         6    -12345    -12345     10150
    -12345    -12345    -12345    -12345    -12345
         1         7        13    -12345    -12345
    -12345    -12345    -12345    -12345    -12345
    -12345    -12345    -12345    -12345    -12345
    -12345    -12345    -12345    -12345    -12345
         1         1         1         1         1
TOCO    -12345          
        -12345  -12345  
-12345  -12345  -12345  
-12345  -12345  -12345  
-12345  -12345  -12345  
-12345  -12345  -12345  
-12345  -12345  BHN     
ZL      -12345  -12345  
[...]
       64.53784       85.24536       99.31116       119.3130       136.0219
       153.9018       167.2619       187.8108       200.2885       217.9849
       234.2950       254.8822       270.6517       289.6850       299.9612
       316.9545       328.5403       342.4141       352.4861       368.5948
       379.9357       394.1060       399.3285       416.1461       434.6838
       459.2634       462.6201       461.1902       464.4702       456.8275
       449.5768       516.4739       558.2258       541.0818       509.2435
       536.1533       610.8845       551.3397       446.0984       484.6364
       428.7566       316.3545       493.4846       631.5441       490.1030
       365.0544       391.6116       553.2212       691.4430       704.7761
       465.6046       308.4581       340.7908       610.9943       714.0929
       172.8953       54.18140       572.1760       761.3252       579.7159
       405.0344       409.5161       571.2179       505.7594       266.9075
       361.9557       461.0730       362.3295       301.6108       299.0104
       471.8090       653.9673       563.5245       209.2929       45.11670
       416.1132       644.8773       434.2768       76.48587       81.37903
       339.0587       356.1030       283.3235       155.2814       242.8694
       371.1523       138.5717       162.4169       384.0811       332.9764
       215.2039       222.6685       26.98792      -148.5394       196.6852
       448.7705       210.9230      -5.459946      -69.48590       108.4742
       235.7168       12.91486       79.86108       287.5000       75.13379
      -115.5584      -98.90436       5.970612       178.4899       58.01279
      -143.9715      -42.55609       79.44434       140.2143       44.95889
      -4.967270       69.30466      -63.20819      -144.9643      -38.39679
      -48.30397       28.10428       95.98242      -112.8580      -374.7814
      -225.6483       90.45312       154.0993       41.08020      -106.8310
      -126.4617      -25.07184      -57.08398      -348.2435      -338.0652
      -33.80420      -30.64020      -120.0964      -156.4863      -177.4165
      -141.0748      -184.6732      -105.5237      -116.2230      -242.9229
      -261.8341      -398.0719      -491.8226      -331.1024      -60.87109
      -98.27893      -298.2771      -323.3518      -268.8652      -282.7219
      -314.6454      -389.9812      -366.7286      -259.7040      -460.6028
      -630.3811      -341.8749      -56.66541      -113.3986      -427.6643
      -611.6676      -258.4424      -90.92749      -496.8368      -488.6814
      -287.9712      -510.7712      -587.7820      -322.9004      -288.9907
      -504.0925      -433.2682      -391.0004      -490.3582      -358.7654
      -371.0470      -503.0935      -301.5000      -234.5674      -603.1957
      -554.1056      -330.7094      -453.8091      -342.8064      -211.7902
      -314.9440      -311.0430      -275.7573      -437.4650      -573.0194
      -342.0479      -202.1973      -377.0002      -384.5913      -295.3383
      -292.3685      -249.2812      -368.5309      -394.7566      -223.0559
      -252.5690      -212.3708      -105.4390      -164.3477      -155.9484
      -144.7875      -235.5969      -256.3806      -76.24515       7.875732
      -137.9085      -250.1759      -208.7088      -127.8022      -123.6326
      -42.68639      -37.29486      -118.1099      -96.39636       74.30318
       55.27701      -66.01122       23.76933       3.874985      -8.180206
       69.76152       39.33286       75.88919       124.2717       28.85907
      -13.13760       30.35663       76.06094       97.04873      -36.25151
      -34.91022       106.1337       162.2685       259.4581       212.4668
       22.52032       104.6189       141.4200       50.26093       148.9441
       127.8291       111.4019       210.7757       173.2265       109.7363
       165.6324       186.0282       89.27948       72.80469       123.4124
       206.7574       245.9399       240.9951       237.2944       230.4265
       216.1004       165.7562       135.6027       158.5044       283.3353
       299.7380       239.7919       262.4821       245.5225       319.1206
       253.2169       150.3344       321.8385       298.2973       232.3789
       318.4622       292.1321       240.5206       281.5300       329.9679
       286.6035       340.9711       345.7861       256.6124       334.9307
       366.2185       255.3496       256.3433       256.5844       245.8420
       299.7911       354.5236       323.8330       315.2942       443.1233
       444.8622       283.7891       251.1389       315.0825       374.7771
       364.9567       304.9584       262.8719       210.1908       201.7170
       230.1907       214.1820       203.8741       222.6237       290.2756
       320.8047       269.3514       181.4255       145.0440       186.0342
       203.5356       149.2652       120.8922       91.61353       175.3108
       282.4796       208.9752       85.65381       152.6188       189.1050
       37.86053      -57.44135       90.55548       221.2675       211.0654
       117.3724       103.0005       72.53384      -62.18651      -79.65993
      -14.34634      -25.77347      -71.38052      -73.91798      -48.98948
      -8.668716       16.01419      -40.83389      -96.26138      -115.5268
      -77.84912      -47.56236       12.42855      -11.32668      -64.66537
      -22.23128      -27.32629      -134.8949      -118.0332      -72.42883
      -128.9194      -65.32692       19.94543      -112.2180      -211.7894
      -102.2024      -39.62622      -110.2452      -84.81512      -70.72687
      -129.8712      -38.94008       40.40302      -47.41939      -43.56435
      -57.62221      -93.63850      -1.472351      -12.38959      -135.8862
      -170.1481      -63.14359       42.71378      -12.39521      -49.04773
      -3.626938      -27.82666      -85.75403      -60.14787      -75.59865
      -96.18800      -18.53577      -16.57467      -21.11948       2.917084
      -63.24105       7.982857       83.57193      -70.24219      -170.5032
      -214.2330      -128.6293       8.063843      -50.84204      -159.0183
      -197.7650      -114.4095      -1.458160      -13.69568      -142.3322
      -147.8475      -70.49957      -143.5081      -219.1547      -42.63020
     -0.3560791      -181.5980      -155.7149      -155.7816      -165.0486
      -93.25687      -111.2253      -128.7142      -147.5858      -198.4083
      -148.5484      -43.73309      -80.18640      -200.7436      -191.9498
      -63.93875      -35.64752      -113.9763      -100.9552      -102.6298
      -144.7163      -67.30821      -68.71469      -118.5873      -57.24228
       6.342468       3.730347      -80.49240      -177.7752      -152.7171
      -35.92570      -28.76892      -71.32658      -30.29469      -60.28654
      -97.32323      -7.268631       32.10947      -81.58517      -93.07329
      -38.60049      -66.48102      -119.5497      -127.2838      -5.074566
       34.67175      -20.96844       38.52869       65.28342      -85.59489
      -76.02539       7.270401      -53.47112      -89.22957      -71.69476
      -52.52763      -65.77541      -38.16831       12.06061       2.398376
      -83.83408      -121.9235      -28.52487      -21.13571      -135.3038
      -143.5970      -47.08047      -78.15637      -122.4046       8.832863
       44.54877      -88.93832      -110.8161      -124.0527      -202.8871
      -86.59900       103.3250      -14.78577      -184.6040      -90.86633
      -69.66002      -63.90350      -3.329529      -65.93872      -162.1030
      -191.1492      -139.9088      -54.27734      -29.11127      -96.21201
      -60.37576      -143.6102      -219.7311      -32.28391       34.82626
      -167.0285      -174.2597      -26.92526      -88.51740      -75.11348
      -15.57037      -151.2072      -151.9533      -17.38318      -96.36539
      -160.4739      -93.25704      -47.71671       1.314667      -23.00085
      -145.4119      -159.6604      -37.60893      -18.55707      -110.7072
      -178.0422      -127.5102       52.58840       89.98402      -86.67653
      -74.44281      -37.48309      -148.8939      -115.1911      -4.229477
      -45.45784      -90.27858      -59.67955       5.668510       59.15540
      -62.37717      -196.1788      -80.74695      -49.21877      -111.6715
      -30.17663       26.06065      -6.864563      -28.81776       14.03431
       18.37140      -57.24323      -73.26917      -186.5918      -245.0320
      -47.70689       95.56477       64.18407       1.841584       3.185417
      0.4191284      -115.1667      -202.6123      -151.2969       7.763382
     -0.8945312      -118.1455      -23.80922       65.78686      -17.64043
      -46.76495      -29.56954      -20.19630      -26.58167      -28.02132
      -18.88181       1.406118       9.547606       3.361298      -21.90401
      -66.79965       35.94107       82.67637      -20.48839       8.114105
       81.77362       112.1508       67.40921       20.76886       94.26245
       117.2501       40.70031      -1.809387       60.76215       244.6625
       236.1798       114.1145       81.91040       40.58682       80.02338
       194.4168       232.9689       266.2292       214.1508       92.37347
       131.8675       141.6474       55.70880       200.5077       309.9592
       157.7200       124.1304       212.1528       186.3248       126.6641
       81.12323       134.9144       207.8526       253.3042       225.5719
       110.8762       104.9349       189.6420       207.3090       186.1391
       150.7535       162.5551       213.5937       266.7827       299.0107
       245.9398       168.3859       127.1833       81.42651       151.2306
       199.4758       133.3082       125.5031       233.9841       208.8308
       103.9239       129.9576       218.2811       210.8495       157.4040
       142.9384       131.2495       99.44287       96.39392       119.7930
       158.3102       134.1958       28.38922       52.68555       175.4258
       181.6426       207.0380       164.2844       52.93971       8.497284
       122.4819       251.7124       189.6366       39.68930       43.20270
       80.11238       63.94333       81.65057       133.5209       73.64861
      -34.53659       45.07123       155.4088       220.5389       258.5135
       141.3033       29.79402       52.80219       120.7179       99.62456
       22.25658      -54.28810      -90.24976       30.98184       100.5658
       54.37878       58.99554      -64.71149      -210.6157      -161.7578
      -34.51603       6.603394      -44.64278      -78.64986       2.634117
      -7.451668      -50.82350       7.418076      -25.96384      -105.7158
      -237.0914      -334.6466      -121.2637       48.74469      -95.83667
      -226.3853      -180.9811      -129.3815      -144.3933      -145.0656
      -43.58850      -40.82587      -163.7355      -198.6243      -260.2402
      -314.1973      -261.1746      -273.1609      -339.0606      -270.3276
      -163.8459      -207.8934      -264.8406      -197.5941      -163.3708
      -305.6426      -382.6504      -423.2114      -376.3090      -219.5877
      -136.4639      -139.1093      -254.3475      -285.2537      -199.8804
      -177.9614      -213.9009      -325.8442      -323.6820      -191.6547
      -206.6052      -283.9879      -330.2936      -359.7545      -316.3680
      -326.3870      -260.9065      -208.6663      -255.4883      -255.9727
      -238.0611      -197.6067      -179.8942      -156.3199      -145.0634
      -248.1600      -267.4464      -142.2827      -98.57611      -131.9139
      -133.8578      -92.01556      -87.56622      -213.2601      -207.9688
      -47.87435      -29.39133      -59.62251      -33.81035       48.01476
       62.49377      -91.33182      -124.7143      -50.24109       31.68161
       115.7799       85.24380       64.54572       115.7754       85.44788
       83.00964       207.6165       209.3844       98.55849       51.54031
       11.63589       29.62195       84.45868       154.1445       341.0725
       412.6260       419.0652       528.6885       536.7415       449.2410
       446.7756       350.1276       159.0913       272.5015       516.3096
       462.4484       208.4695       186.0872       452.1821       676.4653
       696.9338       671.8472       660.3483       564.2592       468.0688
       277.9268      -259.1257      -844.6189      -882.8189      -215.0643
       559.8445       797.0433       619.9388       448.7434       375.0381
       197.4351      -83.90686      -311.3005      -346.6975      -88.90796
       375.6298       577.1472       485.1880       460.4597       243.9879
      -122.0685      -64.46710      -47.84937      -365.9260      -305.4077
       138.9619       360.4290       732.0957       1033.877       651.4341
       114.2283      -344.0084      -659.4445      -475.7974      -397.5759
      -680.6265      -748.4773      -632.9031      -329.3407       327.4233
       932.0054       963.1686       428.6607       51.67554      -193.1570
      -621.6980      -874.9312      -681.1935      -316.8716      -53.74841
       180.2167       301.0538       193.2852      -49.98584      -367.3351
      -266.1985       190.0723       538.1290       706.5215       337.7432
      -316.4438      -730.7380      -758.5240      -452.1082      -194.1130
      -4.297592      -41.40155      -105.9284      -151.2651      0.2252808
       239.2193       9.595764      -169.5154      -131.0854      -149.9527
      -226.5092      -344.9366      -525.8533      -213.2834       303.4398
       115.9857      -91.49060      -120.7468      -186.0134       62.04980
       259.1416      -15.41577      -325.1954      -384.9296      -419.9595
      -220.7507       68.85138      -68.51239      -303.0676      -194.9036
       48.66400       289.5047       425.1192       81.22742      -477.0789
      -726.0007      -685.7810      -417.4681       66.88574       363.9321
       161.5453      -69.70586       12.58008      -135.6669      -274.2983
      -80.76898      -97.85143      -140.0978       45.88995       126.3607
       177.8845       95.50438      -58.44579      -18.50244       33.82854
       71.27454       36.93518      -388.9467      -587.1033      -211.4152
       207.9744       397.4244       406.5774       237.5878       46.98730
       224.6365       440.2799       216.9001      -150.3301      -283.1292
      -197.4588      -92.05551      -14.56952       87.92957       313.0356
       432.3690       440.1764       368.6696       100.9913      -32.12585
       68.13605       274.6177       355.3157       281.8622       291.8932
       192.4194       103.5262       143.2267       207.5939       250.1566
       238.3452       280.6777       80.58438      -2.981689       393.8077
       420.2407       52.06653      -100.0875       65.41049       130.1077
       30.77136       254.2993       517.5377       535.1312       442.3399
       177.6708      -50.74002       2.777557       26.69513      -140.7228
      -8.531006       335.9994       330.6064       240.3219       434.8123
       467.9276       246.0551       42.38458      -164.9117      -134.6611
       83.83539       210.7221       123.9819       16.01987       114.0545
       164.0043       152.4197       116.1988      -55.95978      -279.5876
      -256.9145      -98.93162       47.32126       4.416687       70.75952
       314.6736       213.3872       146.1197       130.6837      -37.68893
      -22.85637       107.1194       29.70764      -228.9832      -265.3295
       160.1609       390.7755       176.3691      -14.09467      -49.43222
      -119.3749      -246.6896      -238.6246      -115.0908      -138.9635
      -275.4706      -68.65955       131.2434       61.42876       25.58502
      -69.12433      -195.5822      -141.6011      -63.18152      -107.7148
      -188.9108      -247.1732      -279.5972      -340.2566      -376.0347
      -263.0387      -25.89771      -43.51160      -306.1227      -288.8087
      -187.8602      -224.2324      -197.0933      -82.33762       2.918518
      -178.3569      -413.5787      -364.0615      -185.0850      -108.2485
      -41.95422      -70.68988      -158.8994      -287.4509      -427.6798
      -465.0326      -474.2584      -388.6835      -183.8726      -166.0594
      -250.7792      -234.3322      -193.4014      -172.3220      -61.46767
       88.33167      -68.15186      -307.7412      -336.1742      -368.1527
      -326.4600      -316.1057      -568.6169      -572.7623      -312.3267
      -284.9601      -145.7118       34.35066      -21.73807      -32.62097
      -156.6672      -316.7343      -360.8903      -207.2752       66.37357
      -93.35077      -314.3929      -186.2780      -39.09729      -59.19617
      -149.9849      -188.4970      -253.7014      -207.7603      -61.72839
      -135.5775      -356.8192      -284.4117      -32.26208      -76.41724
      -193.7902      -129.1301      -175.6046      -222.1263      -114.1686
      -105.5190      -138.1051      -92.48816      -24.76050      -72.51695
      -52.45660      -5.634796      -130.3828      -80.51962       70.09283
      -39.98096      -218.7049      -212.4373      -227.6925      -117.9768
       61.25874       15.50611      -27.03088       103.4685       303.5314
       199.3506       20.31073       196.6274       204.3000      -9.443375
       16.54681       211.2149       239.1689       75.78241       112.8032
       199.0112       80.69452       121.3339       143.1682       3.798981
       29.30637       97.24219       278.9530       428.2828       399.6963
       419.5787       266.2530       119.4263       202.8551       184.0399
       92.78583       204.9283       166.4451       129.4437       250.8843
       15.51645      -8.050781       147.0318       148.9556       246.3562
       220.0229       209.5729       269.2903       218.1033       196.7385
       356.7316       344.3867       124.6122       243.9180       378.0614
       286.5779       279.9475       267.4243       164.3292       208.1487
       367.7946       452.4330       481.3694       360.1726       296.0796
       418.3608       337.5014       292.7064       361.4209       286.7545
       269.9365       369.2122       465.8828       441.2003       433.4231
