     0.02500000      -1343.016       1319.358      -12345.00      -12345.00
      -30.00497       218.7950      -20.63000      -12345.00      -12345.00
       0.000000       15.19000      -12345.00      -12345.00      -12345.00
      -12345.00      -12345.00      -12345.00      -12345.00      -12345.00
      -12345.00      -12345.00      -12345.00      -12345.00      -12345.00
      -12345.00      -12345.00      -12345.00      -12345.00      -12345.00
      -12345.00      -30.57010      -68.62600       946.0000       0.000000
      -31.37200      -68.11800       0.000000       97800.00       0.000000
      -12345.00      -12345.00      -12345.00      -12345.00      -12345.00
      -12345.00      -12345.00      -12345.00      -12345.00      -12345.00
       101.2891       331.2406       151.5007      0.9106929      -12345.00
      -12345.00     0.03333110       0.000000       0.000000      -12345.00
      -12345.00      -12345.00      -12345.00      -12345.00      -12345.00
      -12345.00      -12345.00      -12345.00      -12345.00      -12345.00
      2008       244         6        45        26
        30         6    -12345    -12345      9953
    -12345    -12345    -12345    -12345    -12345
         1         7        13    -12345    -12345
    -12345    -12345    -12345    -12345    -12345
    -12345    -12345    -12345    -12345    -12345
    -12345    -12345    -12345    -12345    -12345
         1         1         1         1         1
TUCU    -12345          
        -12345  -12345  
-12345  -12345  -12345  
-12345  -12345  -12345  
-12345  -12345  -12345  
-12345  -12345  -12345  
-12345  -12345  BHZ     
ZL      -12345  -12345  
[...]
       11.79282       6.542503       18.29378       18.44912       16.32874
       27.66939       33.39037       32.73965       39.22371       40.68913
       42.46527       45.57893       53.43539       57.99442       60.03122
       61.53386       62.79079       61.56149       64.04803       66.16525
       65.61484       64.40193       60.69789       61.27661       54.31056
       52.01109       51.31152       41.91152       35.28064       40.17760
       27.06401       16.37893       17.87411       11.75466      -1.224947
      -4.765484      -12.63730      -15.75707      -21.05194      -23.92667
      -26.09521      -30.29639      -33.47835      -31.91698      -37.27403
      -36.87786      -37.16048      -38.94370      -37.37554      -32.07102
      -34.40169      -29.29465      -19.69598      -24.93496      -25.91354
      -11.20104      -7.059583      -2.927498       5.713661       5.687527
       10.66180       25.68015       32.20822       33.86253       44.88876
       62.60712       65.95135       74.63995       92.48566       98.46674
       109.7538       126.9187       131.0726       145.3673       163.2486
       176.0508       187.3303       201.9799       211.9785       229.7451
       241.0006       255.3656       267.4539       283.3910       294.3032
       307.6794       324.8201       334.5715       344.2113       362.8790
       375.6713       386.4919       393.5173       412.1156       415.8340
       420.4354       437.7036       448.2305       449.9794       459.8463
       466.5100       474.8164       481.8575       483.6235       483.0206
       490.2207       487.2948       489.1627       490.9978       495.4858
       488.2987       484.9424       478.9705       478.7664       470.3961
       468.6316       460.4346       448.5544       441.0435       435.6052
       421.1636       413.9144       401.3751       395.1543       377.4116
       359.8787       351.7555       334.2848       316.7323       303.6136
       281.0756       261.7328       247.2331       231.7795       216.3234
       197.5803       180.7711       164.9677       143.7568       125.3163
       114.1937       99.59395       81.86722       63.72263       53.04561
       35.98727       23.45296       16.67236      -1.770081      -15.66319
      -26.14583      -39.08582      -54.85330      -68.93362      -75.79279
      -89.64011      -103.9492      -115.0848      -128.0725      -141.6557
      -155.3228      -165.5332      -180.0188      -193.0557      -209.3645
      -222.2047      -239.4865      -252.9022      -266.1925      -277.0161
      -291.6309      -304.2681      -320.7622      -330.6742      -342.4346
      -353.2783      -366.8074      -374.6060      -394.2233      -399.5026
      -407.6350      -417.0891      -426.0746      -426.8771      -440.5337
      -443.1477      -447.6019      -450.7048      -463.2494      -459.0522
      -458.2930      -455.6776      -462.6284      -461.1372      -462.0146
      -449.6606      -448.9901      -447.0894      -443.3805      -430.7504
      -424.9731      -416.8000      -415.6519      -401.2565      -394.8961
      -381.5759      -370.2335      -355.1013      -346.2118      -332.8655
      -318.6600      -295.5258      -287.9757      -269.8147      -257.9043
      -239.8628      -226.1254      -210.3815      -203.4305      -166.9289
      -102.8200      -7.270004       59.94325       76.56439       39.24715
       13.14302      -49.89357      -68.65952       183.4680       40.43829
      -426.7178      -50.91125      -155.5062      -802.7139       329.7126
       1005.673      -875.7280      -1280.499       512.5223       569.5266
      -566.5519      -44.80237       732.9338       357.9003       219.3337
       208.5165      -144.3354      -68.96808       63.64661       30.06769
       274.1975      -158.1100      -550.5726       266.7253       358.6821
      -174.7931       45.09418       259.6589      0.7378540      -110.5466
       68.09721       29.47980       23.70090       213.7930       68.38678
      -84.46066      -111.4494       143.2727       480.4335       69.83850
      -359.3173      -116.7783      -74.89857      -165.3965       215.5112
       211.7985      -86.76877       161.1869      -139.0052      -471.0365
      -73.44998       41.63416       154.8517       180.1394      -126.5372
       31.47369       284.4341       58.62366      -263.3801      -245.4559
      -45.54617       3.626854       21.13866       66.58447       17.85522
       10.09863       165.5944       177.3348      -132.9317      -147.3916
       105.6697      -58.48660      -290.6400       99.19061       320.5418
       56.61542       56.37231       189.0495       188.5687       101.1189
       9.989899      -96.34695       7.174377       356.8813       299.6324
       135.6463       172.7792       146.2710       96.52136       238.4424
       354.9297       168.1489       71.47485       280.1814       278.4719
       110.8181       170.1705       243.9915       196.3607       226.9334
       336.7434       228.7671       59.30487       284.0308       339.6852
       146.2010       213.3440       356.5707       357.2151       328.8466
       250.9249       166.1233       247.1158       252.9086       233.2968
       348.8190       189.2850       66.05444       265.9017       272.5856
       126.6129       138.9322       143.7946       99.40247       88.95728
       204.4661       241.7468       134.9587       82.01570     -0.2656860
      -39.40985      -71.60165      -85.96277       201.9921       344.7058
       2.715149      -187.7338      -166.1455      -172.3451      -44.34546
      -75.44507      -201.3754      -97.12482      -137.7874      -228.0190
      -136.9536      -151.3208      -182.5554      -141.9419      -193.0995
      -363.1997      -434.8047      -346.4843      -175.3246      -31.44653
      -244.3286      -497.2328      -272.5659      -138.7701      -302.6436
      -328.2828      -376.6649      -401.6819      -306.3342      -335.1292
      -378.3491      -395.7297      -401.5217      -279.6755      -225.2205
      -317.8213      -376.6106      -424.9526      -429.7379      -390.2708
      -404.9714      -349.1198      -213.9186      -240.4374      -333.2976
      -333.2720      -291.2131      -287.4618      -347.6469      -366.0215
      -386.9600      -543.3022      -495.8182      -300.0710      -387.3802
      -471.5648      -363.1113      -295.9888      -363.9004      -320.6248
      -163.0925      -285.9705      -479.2747      -327.4677      -110.8245
      -143.7423      -161.1548      -235.7666      -387.1058      -321.4922
      -182.3903      -117.8594      -164.6688      -205.7145      -168.2402
      -158.8646      -220.3780      -157.9685       41.40265      -55.55737
      -244.1644      -152.4317      -56.30993      -43.72288       7.378769
       74.74632       43.55560      -68.76249      -46.26453       103.3690
       115.4871       11.14896       64.16760       135.3265       71.15302
       171.2752       298.7587       228.9855       233.3098       267.9359
       259.7525       284.5511       283.2211       325.6606       431.8744
       450.9175       430.4670       427.2034       389.0571       508.4463
       598.2058       521.2078       473.6106       464.5095       535.1199
       631.5784       711.4939       673.9397       519.0153       466.1986
       578.1904       729.2915       706.5671       645.8623       651.1166
       612.1959       551.4473       612.7788       728.1648       775.5679
       847.2820       756.1035       603.2798       643.1135       633.2581
       649.3467       743.1372       617.7424       492.2631       592.9243
       604.8413       552.0010       654.3159       716.5229       584.1533
       439.1626       602.5374       732.2123       528.2042       498.7119
       573.6938       414.2844       383.9207       515.0604       458.9093
       407.0496       442.3721       319.7243       269.4225       422.8359
       497.7463       356.0100       231.6876       306.1232       327.6809
       239.7344       284.7968       238.2706       118.2817       279.6005
       383.9487       240.8293       96.33917       53.48145       108.9030
       182.5457       233.2854       150.8568       62.54562       83.36951
       87.30783       66.28827       36.84436       69.39346       113.5122
       33.00702      -61.80884      -162.3829      -169.5321       1.549774
       100.6193      -44.26929      -181.0462      -142.8978      -59.32275
      -73.25906      -120.9369      -47.21796      -53.99481      -247.8430
      -301.3370      -201.8245      -114.1958      -91.66980      -215.6288
      -388.5663      -426.4491      -342.1233      -150.4083      -59.60266
      -225.8975      -341.5325      -390.8247      -550.1515      -421.6469
      -247.7300      -375.6182      -255.5747      -141.4226      -492.9148
      -707.9086      -546.1913      -390.2618      -436.9998      -438.2252
      -412.6691      -539.4351      -615.1361      -600.5377      -487.9619
      -261.5300      -342.6299      -657.7429      -745.2386      -614.1958
      -463.3121      -508.5894      -741.7010      -724.3361      -477.2249
      -387.4076      -516.2700      -566.2708      -468.5842      -556.8074
      -707.6626      -537.4281      -400.9692      -555.1958      -689.2727
      -693.2095      -627.6774      -571.2170      -467.3650      -454.5122
      -687.7456      -697.9001      -412.1267      -409.7139      -603.6948
      -636.4744      -559.5133      -396.8618      -350.4424      -453.2865
      -564.3420      -596.7991      -568.2020      -622.4949      -584.7202
      -451.0227      -396.8271      -318.5279      -288.1729      -361.7802
      -462.7509      -468.2336      -350.5465      -313.2072      -363.8555
      -434.3726      -407.2495      -256.5824      -283.2896      -385.0612
      -308.7031      -257.4768      -332.0895      -305.4816      -117.5410
       24.40277      -167.2096      -432.2838      -339.0882      -151.9128
      -93.28548      -21.85016      -48.58948      -187.0993      -181.8401
      -54.66418      -27.54651      -79.52582      -112.5093      -154.5108
      -116.4460      -20.07901      -43.32977      -73.42804       6.135193
       149.6208       60.03592      -144.2646      -137.4484      -151.0304
      -140.8095       25.58871       28.52728      -159.7500      -187.1187
      -39.32541       26.85049      -92.34265      -132.8140      -16.75220
      -64.01337      -92.29138       56.02203       43.72009      -145.5071
      -241.7465      -199.8858      -165.6863      -94.57034      -16.89468
      -47.29901      -162.3219      -220.7380      -100.1286      -59.41663
      -179.2573      -133.7419       26.98998       54.67444      -66.34912
      -136.3646      -100.4482      -87.77701      -72.62694      -43.53247
       8.747223       50.60849       7.838104       2.369904       89.77898
       26.04865      -69.06335       61.11737       188.2075       196.3285
       209.4995       154.8773       87.47192       217.0145       417.6943
       501.4254       478.9612       324.2387       226.9760       283.2142
       342.7854       371.2263       391.7983       431.6423       468.4091
       419.1519       428.0912       610.0973       588.9307       408.3313
       522.9443       698.7219       699.3525       663.8004       651.9980
       667.0725       782.0698       776.4919       640.2903       689.1743
       828.7578       810.8496       892.2324       983.3652       789.5964
       743.1497       935.8809       947.1165       886.9165       954.4138
       960.4683       821.5583       788.4353       784.6343       822.6963
       978.3657       1058.679       940.7278       766.5708       746.6946
       944.0862       1063.667       948.9607       829.4998       799.6301
       774.2834       895.3171       1060.530       949.4917       806.1355
       832.2253       719.7844       701.9604       850.2046       874.2549
       876.3062       741.8750       522.7668       692.7205       930.0278
       831.1619       754.1938       740.5024       620.4265       505.4948
       413.6355       436.4448       521.6038       467.4652       363.8174
       291.6127       200.5169       118.4698       121.4460       158.1831
       156.2242       161.4182       200.0695       252.1132       307.6160
       311.4419       168.0625      -19.91055      -102.1655      -115.9611
      -155.8488      -172.7158      -112.6093       5.013062       12.92428
       9.805847       93.56831       3.714661      -203.0597      -328.5974
      -418.8655      -408.4059      -345.5006      -301.7937      -291.1153
      -293.0834      -226.5173      -264.4695      -492.3391      -658.3052
      -950.6953      -1343.016      -1267.885      -799.2898      -498.2274
      -452.1631      -626.0251      -959.4177      -1214.837      -1216.370
      -1035.921      -1002.816      -1025.817      -746.0237      -529.9056
      -529.7899      -319.7924      -131.8176      -322.2244      -634.3052
      -655.9155      -418.7786      -379.0083      -589.7925      -663.9927
      -653.0581      -753.5139      -649.8304      -271.5067      -246.2275
      -621.7886      -781.3745      -673.1394      -558.7336      -451.9662
      -401.1667      -687.2695      -1113.790      -1013.846      -658.4507
      -612.2334      -685.8074      -697.9368      -922.4395      -1234.296
      -1172.155      -794.2537      -710.2471      -1010.806      -1271.146
      -1236.236      -911.4712      -725.6909      -683.2161      -501.0409
      -465.8745      -545.1567      -594.7476      -610.0990      -608.5015
      -682.3591      -808.8984      -877.9512      -825.4268      -565.8347
      -360.0100      -468.0144      -558.4526      -447.7163      -253.0019
      -50.61342       71.88013       65.16455      -135.8162      -371.7103
      -508.0363      -528.9932      -482.2373      -388.7841      -175.9608
       159.9402       423.9330       309.5233      -167.2502      -433.1381
      -300.2993      -145.9008      -22.20691       165.1193       180.7170
       59.33420      0.3071289       214.5962       589.9772       714.8220
       536.7418       337.1539       422.0928       515.4292       357.4585
       320.1926       532.8439       525.5395       273.0372       171.9732
       171.9156       137.5693       220.0684       451.2223       584.1134
       569.1326       422.0518       137.7504      -9.228668       54.60596
       218.1472       310.2448       271.8046       244.9214       297.3191
       385.0533       366.2955       320.2993       445.4076       408.5410
       253.9294       246.0106       219.0050       221.3419       346.2554
       415.9351       303.8990       133.2903       176.5376       283.0037
       110.1144      -36.34259       75.87671       156.2494       1.406067
      -126.1456       156.1388       498.7604       424.7747       153.8161
       39.22327       116.9851       208.3893       257.9935       302.7776
       196.3956      -38.73456      -136.3794      -125.8705      -246.6871
      -330.2961      -77.51855       231.0582       222.1672       109.5712
       239.9370       354.9542       258.6808       363.9432       611.3762
       472.9598       141.6373       71.13551      -1.770569      -187.0831
      -244.8785      -108.5059       154.6487       393.6974       536.6277
       533.5292       346.3549       154.5029       60.47464      -33.92145
      -145.2296      -143.8916      -29.61285      -55.44809      -156.7976
      -171.5586      -138.1350      -20.03149       89.79022       91.51526
       75.46808       81.87387       118.2471       178.7438       92.27231
       24.51462       153.5950       195.2304       113.8638       94.00739
       96.89949       53.82890       47.82140       95.65074     -0.7930756
      -69.13760       41.67505       204.5710       377.1862       391.0457
       246.5027       46.93182      -213.9777      -262.0913      -125.1777
      -146.7716      -187.4355      -61.13763       117.6192       257.5714
       289.1116       318.0228       348.1638       275.0374       119.5000
       38.02341       111.4042       169.3654       231.4543       319.6564
       315.0800       264.6317       125.7289       59.15094       126.3140
       89.78757       75.84009       214.1658       209.8069       92.74945
       152.4827       376.2225       598.7228       628.8248       426.5337
       193.9676       99.20441       253.7698       457.2067       458.0573
       387.2556       401.8697       340.8684       195.1743       218.8416
       301.0657       225.9456       218.0961       351.2079       328.1100
       217.7485       228.3151       285.9990       397.0205       551.1206
       621.0642       513.9694       240.1504      -32.69583      -51.40686
       74.08295       234.5712       346.1574       207.5574       144.6298
       261.1287       298.9532       345.9849       283.3587       82.04875
       5.735901       180.1235       429.6047       463.7001       327.1495
       288.4341       274.0800       279.0291       385.2760       440.2615
       337.2090       221.4324       267.5391       379.6938       287.4372
       253.4257       391.1307       375.0145       251.8140       213.5700
       191.9835       108.7060       55.27527       131.2333       246.3840
       339.5605       321.5444       136.4247       22.07751       76.03271
       54.23083       62.60213       117.7204      -11.33206      -104.3447
      -14.24435      -54.50258      -129.6789       47.42241       40.52655
      -258.9091      -345.3900      -189.7298      -56.01935      -40.45654
      -109.8509      -168.2808      -180.7440      -137.9678      -65.34740
      -34.86232      -28.29466      -14.55150      -62.86578      -77.31473
      -8.158905       10.91394      -74.05505      -229.0496      -444.8109
      -610.7402      -549.1221      -423.2332      -474.7180      -499.5342
      -419.6050      -423.1836      -450.3297      -408.4436      -405.6981
      -441.3660      -459.2239      -452.8442      -429.3406      -530.0234
      -681.4194      -693.7906      -662.2117      -615.3845      -544.2856
      -615.9058      -732.2781      -715.8704      -719.9426      -764.8928
