     0.02500000      -1483.946       1465.194      -12345.00      -12345.00
      -30.00497       218.7950      -20.63000      -12345.00      -12345.00
       0.000000       15.19000      -12345.00      -12345.00      -12345.00
      -12345.00      -12345.00      -12345.00      -12345.00      -12345.00
      -12345.00      -12345.00      -12345.00      -12345.00      -12345.00
      -12345.00      -12345.00      -12345.00      -12345.00      -12345.00
      -12345.00      -30.57010      -68.62600       946.0000       0.000000
      -31.37200      -68.11800       0.000000       97800.00       0.000000
      -12345.00      -12345.00      -12345.00      -12345.00      -12345.00
      -12345.00      -12345.00      -12345.00      -12345.00      -12345.00
       101.2891       331.2406       151.5007      0.9106929      -12345.00
      -12345.00     -0.1277234       180.0000       90.00000      -12345.00
      -12345.00      -12345.00      -12345.00      -12345.00      -12345.00
      -12345.00      -12345.00      -12345.00      -12345.00      -12345.00
      2008       244         6        45        26
        30         6    -12345    -12345      9953
    -12345    -12345    -12345    -12345    -12345
         1         7        13    -12345    -12345
    -12345    -12345    -12345    -12345    -12345
    -12345    -12345    -12345    -12345    -12345
    -12345    -12345    -12345    -12345    -12345
         1         1         1         1         1
TUCU    -12345          
        -12345  -12345  
-12345  -12345  -12345  
-12345  -12345  -12345  
-12345  -12345  -12345  
-12345  -12345  -12345  
-12345  -12345  BHN     
ZL      -12345  -12345  
[...]
      -109.6395      -93.54854      -77.28212      -51.99643      -36.09371
      -23.71220      -4.516876       17.69037       31.12531       50.56145
       67.93909       86.97040       101.7375       119.0698       133.3352
       147.3901       163.6927       185.1577       198.5692       209.9782
       222.3723       238.6254       249.2523       261.9575       278.0858
       288.5723       294.4364       309.8027       322.9724       334.0753
       339.0903       350.7556       365.1379       376.6189       379.7860
       387.1536       401.7017       408.8751       408.2804       420.1650
       429.8264       437.9539       446.6077       452.2355       458.0232
       466.1553       473.7015       484.0934       489.9258       498.1873
       505.2122       516.9064       523.1936       531.1870       535.4583
       544.0867       551.4214       559.1418       561.0591       571.6304
       581.2207       589.9966       591.6387       598.1677       598.7272
       610.6316       617.5645       622.6749       615.2417       620.4032
       623.1121       628.6166       625.3567       625.4858       621.1704
       623.8723       618.0592       617.6792       608.8987       603.5120
       599.1440       593.4104       578.6782       576.8135       568.0598
       559.1345       544.6661       540.1351       525.9061       514.5044
       498.3751       488.4814       471.6996       458.5820       440.7906
       426.1685       404.6208       391.5524       371.4180       354.7855
       334.2902       319.8843       296.6545       278.2605       254.3706
       239.9705       218.1689       203.3002       183.3437       167.0556
       143.7234       125.8416       104.4682       85.89890       65.67735
       54.89677       31.60805       13.61201      -1.981918      -22.62965
      -44.60210      -54.80591      -80.61224      -100.5299      -117.6714
      -134.0562      -157.1737      -173.9313      -193.5956      -210.3650
      -229.5670      -242.6044      -264.3581      -280.7578      -300.8848
      -311.7507      -321.1067      -338.9808      -356.0403      -364.8077
      -385.8251      -397.0637      -400.7550      -412.1815      -427.9799
      -431.5048      -441.9648      -448.8806      -456.1948      -461.1530
      -465.5277      -467.4379      -472.7422      -475.1461      -480.4714
      -474.4402      -474.8182      -478.2606      -481.7759      -475.0535
      -476.1111      -472.1483      -466.7905      -465.6301      -464.9106
      -449.0186      -446.9119      -439.8827      -430.2944      -419.5544
      -413.1897      -400.7535      -389.6853      -375.0837      -363.5883
      -346.3529      -329.6847      -311.6478      -296.3173      -278.8315
      -260.9827      -241.8513      -226.6294      -202.2686      -182.8106
      -167.3490      -143.6318      -123.8553      -107.4670      -87.99525
      -69.43841      -46.32196      -27.41271      -8.131466       11.61639
       24.53278       39.49782       58.06790       76.60934       92.62982
       109.2436       120.7676       135.5375       150.8754       165.4285
       173.5717       186.8813       200.5721       211.0157       212.9316
       225.6157       234.7048       237.6845       242.5731       246.8672
       253.3868       255.3533       247.9864       253.4108       252.8484
       245.9764       244.9728       240.4060       234.3544       230.2849
       224.9038       218.8754       206.3522       193.6125       189.0693
       181.1473       170.2371       155.3696       145.9412       137.4255
       122.8080       112.2337       97.46640       87.16960       75.31342
       61.00896       46.97932       30.69218       23.78352       16.07901
      -2.200111      -14.26802      -27.84050      -37.62161      -50.97879
      -66.43942      -78.34579      -88.33560      -101.9262      -111.6093
      -126.8316      -137.5824      -146.7371      -159.3793      -171.3235
      -179.0148      -191.7653      -196.9820      -207.6126      -219.9966
      -224.5743      -232.4896      -245.7267      -252.1744      -254.5007
      -265.4496      -270.6417      -275.1675      -282.4948      -282.7834
      -283.1807      -291.4377      -295.2878      -297.6357      -298.4550
      -304.6486      -307.1436      -307.6934      -309.4619      -314.1560
      -316.6105      -316.2283      -318.1921      -314.0789      -309.1934
      -304.6303      -303.5631      -298.2950      -291.4463      -289.3713
      -283.0175      -274.3053      -268.4014      -260.3976      -250.9323
      -244.0223      -236.9095      -225.7109      -213.4498      -204.7642
      -196.2999      -180.6977      -163.7545      -157.0397      -144.5189
      -130.8674      -117.6543      -106.0565      -91.88855      -74.95479
      -64.38515      -49.76994      -31.80954      -21.95044      -6.751726
       5.338448       12.36639       28.65903       45.32495       57.21881
       74.30817       88.25134       96.90170       113.5573       133.7670
       144.5906       151.8076       163.9675       180.7704       197.4357
       212.2843       222.0165       229.6033       250.1992       266.5277
       278.3054       286.3774       298.7905       315.3248       327.5642
       337.8440       357.4608       361.2545       370.2583       390.5057
       397.0143       402.2526       424.2057       429.3967       435.9211
       445.8922       454.6993       462.4618       474.5081       476.6162
       479.7438       485.0344       489.9684       492.1218       495.3899
       496.6619       496.6360       492.2688       492.4479       486.1594
       483.2361       477.6409       475.7804       468.8318       456.5416
       446.3765       440.5228       426.5085       417.0071       403.4624
       396.0227       383.9390       370.5054       351.3285       334.6624
       320.6372       308.7826       289.9592       277.8573       257.0391
       239.1163       222.0322       202.3976       184.2174       169.7917
       147.4550       130.7416       105.1461       87.96349       72.51910
       52.27614       29.73477       12.07281      -11.63496      -23.51807
      -45.01193      -65.18768      -83.23831      -97.60605      -116.9783
      -128.5142      -147.4378      -165.5939      -181.4176      -197.0842
      -216.4233      -221.1719      -241.1220      -260.2877      -272.0510
      -274.7601      -293.4080      -303.3121      -313.3650      -319.0354
      -330.0319      -337.1614      -345.4250      -346.3064      -352.1776
      -352.3262      -360.8558      -360.5781      -366.4375      -363.0563
      -367.4055      -365.4458      -373.9872      -370.5812      -367.3923
      -365.6881      -372.7467      -372.3125      -375.7844      -369.3831
      -370.8802      -370.2725      -370.6833      -368.2618      -366.7166
      -367.4576      -371.2644      -364.8585      -368.6494      -370.2712
      -365.9666      -365.4352      -365.2549      -366.8386      -368.6998
      -368.2870      -371.7496      -368.4470      -363.1119      -363.0240
      -364.8633      -362.2177      -354.3854      -347.3546      -345.2336
      -336.7568      -328.2480      -325.3892      -318.7581      -309.0779
      -295.1171      -286.2661      -274.4548      -263.4795      -250.3081
      -234.7050      -222.2004      -207.6425      -189.5608      -173.6071
      -151.3310      -137.3138      -122.3293      -103.4928      -78.16298
      -55.99014      -37.97095      -20.05064       1.357857       22.10017
       45.62836       66.00775       87.55130       106.8380       133.5654
       155.2297       174.5718       202.0054       226.4075       242.4726
       262.9309       286.8571       309.7172       324.1223       340.4277
       366.6033       381.9911       395.4928       413.2175       423.5214
       442.0020       459.9412       466.9612       477.4144       491.1646
       507.3721       513.9199       520.9163       533.4282       546.2435
       552.1138       559.6040       567.0862       574.2449       581.7083
       589.1279       594.3109       602.6897       604.4248       611.3633
       612.5160       614.5308       613.8313       617.9773       613.8027
       588.1099       554.7175       544.3680       540.1035       546.7968
       548.7605       580.6636       545.7737       427.6954       576.4790
       715.2632       508.4175       650.7545       830.0695       297.0035
       338.1279       1173.205       898.8717       122.0630       680.0771
       1132.878       248.6495      -3.516968       540.9183       390.6900
      -21.52832      -1.105217       40.41125      -104.6651      -10.92798
       275.7847       334.2756       353.8661       293.1219       163.0801
       400.1670       437.5576       199.4321       164.8571       131.8819
       103.2834      -32.63055      -297.1852      -227.1912      -32.01215
      -143.0066      -302.8765      -323.7054      -175.5666      -108.2736
      -283.0989      -479.3169      -483.6176      -316.7530      -263.1045
      -36.60645       115.6597      -291.2449      -531.6648      -555.6206
      -776.9844      -747.9958      -360.2491      -243.6436      -477.7737
      -638.0947      -763.0148      -698.7288      -579.0762      -672.8362
      -557.8096      -412.4260      -634.5649      -925.4214      -992.5120
      -700.6377      -573.6787      -738.4453      -807.9038      -896.3755
      -946.4163      -854.6553      -810.5398      -729.8302      -633.6150
      -724.4346      -964.0635      -968.5718      -719.9690      -836.6323
      -1094.289      -886.6912      -701.5994      -816.5049      -933.3535
      -919.1323      -897.0986      -840.0154      -727.1152      -728.9795
      -797.9951      -795.4253      -777.5034      -791.9246      -706.5269
      -604.4436      -698.7192      -917.3496      -1027.905      -938.2563
      -790.0037      -693.6550      -706.8481      -748.3440      -772.1492
      -780.8130      -747.2213      -675.9290      -608.3042      -576.8125
      -572.3242      -598.3979      -645.8269      -659.7529      -711.4473
      -667.0796      -553.4988      -532.8223      -573.4390      -556.9678
      -519.6569      -570.7273      -643.2321      -570.9147      -431.4307
      -395.6375      -414.6827      -348.2559      -317.7285      -368.1897
      -352.0270      -338.5944      -328.3271      -270.5815      -190.3384
      -92.12320      -90.93811      -144.1116      -162.8222      -84.26513
      -2.524290      -1.345953      -8.844589       36.05145       74.68768
       85.20859       118.1957       153.9388       190.3152       312.7328
       352.5072       286.2140       346.0541       515.7151       593.5283
       584.4167       558.3577       560.2124       641.2476       712.0830
       692.8979       736.1860       775.5425       737.8940       753.1758
       794.4089       829.0723       911.5867       946.8806       971.3774
       1022.434       1084.719       1118.707       1135.300       1108.256
       1094.707       1143.858       1162.540       1141.307       1217.751
       1238.816       1232.420       1259.089       1274.349       1317.765
       1366.829       1354.011       1338.688       1351.792       1446.190
       1465.194       1358.080       1352.575       1404.703       1303.247
       1262.037       1289.301       1268.835       1235.381       1314.956
       1405.200       1350.577       1290.957       1307.460       1242.102
       1242.787       1286.987       1233.495       1198.761       1171.640
       1133.811       1184.953       1135.100       1055.084       1073.332
       1095.121       1029.653       1012.110       1056.648       992.6675
       874.9783       887.0312       912.6611       861.1172       794.2319
       787.4185       779.1292       741.5366       704.3645       671.9043
       600.9312       610.9421       626.7258       540.2551       456.2545
       446.6816       421.6418       326.7984       212.5361       210.3947
       272.8176       271.7520       211.7130       116.6883       13.54591
      -30.55595      -31.95117      -1.827179      -36.69360      -108.3623
      -180.4268      -242.2987      -249.5894      -267.8195      -336.6726
      -359.0712      -339.2644      -399.5419      -508.7068      -506.2527
      -498.3409      -593.0183      -672.3298      -682.0845      -744.1516
      -792.0737      -779.7266      -802.2939      -856.3220      -868.5784
      -973.1104      -1096.106      -1081.922      -1049.237      -1087.267
      -1105.916      -1201.431      -1276.293      -1233.455      -1206.429
      -1268.044      -1300.558      -1297.104      -1362.776      -1478.781
      -1452.625      -1414.233      -1453.300      -1442.658      -1399.630
      -1458.577      -1483.946      -1396.023      -1364.037      -1472.464
      -1459.765      -1399.720      -1463.802      -1482.011      -1404.583
      -1393.849      -1400.240      -1327.036      -1298.594      -1383.589
      -1388.258      -1296.613      -1266.974      -1286.653      -1261.890
      -1269.787      -1255.750      -1225.273      -1180.003      -1111.410
      -1051.846      -1028.538      -1015.872      -1063.058      -1081.492
      -988.4993      -882.0620      -890.0378      -918.8762      -936.7300
      -921.5630      -824.9810      -722.3674      -708.9062      -701.6399
      -699.7009      -686.9314      -673.4348      -601.3480      -512.4578
      -460.4791      -441.8250      -442.4738      -463.3380      -419.9266
      -371.0786      -401.4526      -434.9644      -355.2142      -244.5571
      -227.3208      -335.9419      -368.5801      -291.8910      -245.9081
      -123.0580      -21.47327      -133.3896      -154.2610       9.476151
       43.54837      -41.13611       16.28455       90.07841       17.65230
       20.83795       120.2213       110.7329       82.47476       90.45959
       159.6044       301.4651       397.9775       324.9181       173.3028
       200.4740       365.7734       512.0786       528.3591       397.2069
       378.1389       466.4246       483.1555       528.4001       622.7017
       641.3142       630.9912       700.7908       714.6636       636.5024
       660.0591       751.5579       716.9343       703.5276       856.7290
       922.7319       822.2061       814.8521       927.9548       944.7534
       865.0588       831.7866       843.6902       928.8154       1070.279
       1069.326       928.3455       900.0576       992.9570       1072.121
       1025.369       989.8508       1077.507       1081.226       1034.054
       1019.752       997.2070       1014.596       1038.827       1067.592
       1074.431       1009.095       1023.573       1103.040       1052.764
       944.1230       971.7842       1109.697       1147.922       1003.326
       939.6348       1038.519       1084.513       1016.643       940.4487
       961.4602       1037.089       1021.333       916.8281       889.8772
       975.3523       962.7205       830.1860       806.8174       877.5586
       878.5630       861.9473       860.1013       817.6086       733.8435
       691.6497       718.2571       684.9866       614.8547       596.7776
       558.2003       510.0477       511.0591       542.6624       501.7693
       436.8015       451.9818       429.5132       318.1909       297.5698
       318.8197       243.9067       161.4172       201.3967       213.0221
       139.7382       132.9837       161.6016       90.05058       12.90049
       11.75899      -26.04578      -97.49426      -75.75708      -40.18713
      -132.4863      -237.3811      -218.3344      -216.9894      -253.1473
      -263.4520      -254.8616      -273.6500      -301.2199      -285.9720
      -297.9861      -337.7465      -331.4414      -321.8232      -338.1145
      -321.7828      -321.3445      -386.3416      -428.4282      -415.0599
      -432.2325      -471.0468      -460.0295      -469.2915      -514.2898
      -549.7762      -522.6106      -440.3569      -420.8442      -481.1202
      -532.0205      -503.3835      -485.6501      -536.2084      -555.0421
      -515.6710      -436.8696      -408.6661      -415.9153      -390.7012
      -410.4268      -466.2603      -463.9722      -459.4980      -516.1082
      -598.8127      -630.4199      -559.1771      -494.6895      -493.8313
      -517.3138      -566.5797      -617.3948      -552.4109      -501.1681
      -608.2133      -646.0024      -497.3018      -441.8884      -561.5226
      -579.6267      -490.6415      -456.4739      -435.7043      -492.1677
      -647.2976      -660.3245      -547.1411      -563.7576      -602.3099
      -546.2401      -502.1038      -492.0681      -516.4474      -555.4606
      -528.6892      -506.9478      -561.7795      -592.3579      -602.5969
      -531.4172      -418.3285      -426.1553      -480.0507      -452.9072
      -448.0634      -478.3442      -494.2524      -555.1316      -587.8870
      -521.9028      -534.1423      -564.2585      -509.9863      -508.2031
      -546.1759      -463.2329      -411.7349      -453.6323      -452.6572
      -436.6216      -429.2642      -402.4489      -392.8391      -384.7014
      -404.0095      -374.2860      -343.5367      -413.3425      -446.7757
      -361.4651      -236.7748      -167.4425      -296.4232      -369.6774
      -277.9357      -263.7600      -319.3716      -314.3379      -305.5780
      -303.5338      -258.1744      -194.0613      -171.3208      -128.4004
      -29.97041       9.743500       15.47449       218.4150       412.6693
       369.3260       330.9980       344.0060       201.4935      -26.25037
      -276.1309      -688.8906      -1061.173      -900.7017      -318.0634
      -57.06812      -291.1965      -529.1865      -605.4934      -659.9680
      -712.3303      -742.1780      -772.4783      -622.3116      -198.6227
       187.7437       325.4863       325.5696       271.2258       263.5095
       482.6094       831.4834       1037.349       1038.884       823.8413
       645.7954       741.1826       887.8589       999.0854       1227.409
       1351.972       1197.595       1099.371       1105.693       814.4177
       311.6020       52.60651       1.547180      -140.2826      -134.9871
       187.5885       410.6770       499.2344       588.0532       498.4146
