     0.02500000      -2029.839       1071.777      -12345.00      -12345.00
      -30.00497       218.7950      -20.63000      -12345.00      -12345.00
       0.000000       15.19000      -12345.00      -12345.00      -12345.00
      -12345.00      -12345.00      -12345.00      -12345.00      -12345.00
      -12345.00      -12345.00      -12345.00      -12345.00      -12345.00
      -12345.00      -12345.00      -12345.00      -12345.00      -12345.00
      -12345.00      -30.57010      -68.62600       946.0000       0.000000
      -31.37200      -68.11800       0.000000       97800.00       0.000000
      -12345.00      -12345.00      -12345.00      -12345.00      -12345.00
      -12345.00      -12345.00      -12345.00      -12345.00      -12345.00
       101.2891       331.2406       151.5007      0.9106929      -12345.00
      -12345.00     0.02702022       270.0000       90.00000      -12345.00
      -12345.00      -12345.00      -12345.00      -12345.00      -12345.00
      -12345.00      -12345.00      -12345.00      -12345.00      -12345.00
      2008       244         6        45        26
        30         6    -12345    -12345      9953
    -12345    -12345    -12345    -12345    -12345
         1         7        13    -12345    -12345
    -12345    -12345    -12345    -12345    -12345
    -12345    -12345    -12345    -12345    -12345
    -12345    -12345    -12345    -12345    -12345
         1         1         1         1         1
TUCU    -12345          
        -12345  -12345  
-12345  -12345  -12345  
-12345  -12345  -12345  
-12345  -12345  -12345  
-12345  -12345  -12345  
-12345  -12345  BHE     
ZL      -12345  -12345  
[...]
      -406.7002      -413.1699      -410.2195      -418.3181      -413.5731
      -413.5540      -418.7490      -418.8950      -410.6438      -417.1705
      -414.6141      -412.2954      -408.5988      -403.7136      -394.9153
      -391.6914      -387.1571      -385.5775      -374.8906      -367.9551
      -356.6212      -351.2228      -337.8098      -329.5731      -314.4072
      -307.7737      -297.1547      -287.8788      -265.7690      -257.3673
      -249.9104      -236.5758      -215.7455      -205.4355      -184.9841
      -179.0678      -164.9853      -153.1634      -136.3301      -125.8193
      -111.1734      -104.1338      -91.78522      -78.07339      -58.54221
      -57.10716      -49.87198      -39.47433      -22.92082      -14.19987
      0.3017235       2.651855       20.12856       26.71707       40.95378
       50.15317       58.48648       66.75061       86.58768       85.84344
       100.8252       115.4319       126.6436       128.8889       143.6029
       151.5814       160.0186       166.9662       178.0924       178.2708
       185.1892       189.2841       207.6160       204.1387       210.9312
       214.1376       216.2092       217.5120       228.1547       226.2383
       226.1589       224.9059       230.1356       223.7149       223.8063
       222.4095       227.0175       216.3380       214.9760       211.0781
       211.9938       202.3730       202.3075       196.5218       193.2065
       184.9662       188.1439       186.7097       184.1936       174.0648
       171.8055       163.7767       160.9126       154.3747       156.2346
       150.7335       144.4237       141.6940       136.6467       130.1371
       139.3030       137.5576       129.5276       130.0568       131.8730
       122.4016       120.6593       125.1183       128.2463       127.6441
       126.7719       129.9024       129.0000       124.8824       125.8468
       132.5870       131.5560       130.0842       133.9796       134.2069
       137.4642       138.0073       134.0744       137.3494       137.5096
       136.4788       137.8576       142.7731       141.7018       135.1350
       134.8255       138.9559       143.1856       136.3600       137.6974
       138.3973       137.4512       134.6121       138.5168       134.3438
       130.5784       125.3896       133.3293       133.1114       128.9481
       123.2156       129.2258       126.0321       130.5888       126.1303
       125.0145       128.1768       124.7690       120.2416       127.6481
       125.5659       119.4088       120.0372       122.6966       118.4989
       114.1907       107.2725       105.4968       104.9171       102.9460
       100.0951       99.80472       95.11646       89.01770       87.90012
       84.67264       79.36201       81.19968       74.93152       69.64746
       69.73134       67.10689       58.57651       58.10768       54.37506
       46.21802       44.33620       45.10619       36.15186       33.20916
       34.45607       31.09806       19.96364       12.74725       14.03749
       31.75191       46.83102       50.55980       58.83037       60.55135
       54.71753       22.43163       15.83386       13.41611      -142.9487
      -74.45091       77.87683      -241.6737      -245.7061       90.22937
      -225.5254      -413.3538       68.54828       131.5061      -405.0335
      -519.8253       174.3340       360.4184      -139.3779      -40.23218
       334.3527       267.7215       19.92322       127.7360       436.7488
      -43.39441      -521.7286       56.00369       108.1463      -373.9834
      -210.3033      -156.8807      -205.0244      -117.4331      -85.84720
      -44.71983      -104.2651       60.19336       263.8175       121.3549
      -152.0269      -76.56537       308.7003      -24.14172      -528.8035
      -73.92505       286.7653       98.13747       96.14212       15.34497
      -373.4959      -385.6899      -64.44583       23.22266       79.74084
       196.6388       218.8718       8.239258      -323.1006      -265.9715
       38.79626       127.0178       133.7625       46.07581      -90.17316
      -192.7224      -304.8759      -221.9655      -20.40869       161.5581
       261.3886       45.30896      -234.0309      -140.3557       129.7273
       31.09009      -263.8015      -280.3405      -162.0674      -189.9989
      -264.4568      -209.0840      -6.439232       48.75159      -130.2446
      -281.8804      -278.7362      -151.5476      -162.5356      -291.1957
      -211.7649      -89.66553      -131.4259      -341.7929      -331.4218
      -108.0398      -270.1826      -480.8053      -395.4797      -308.4063
      -195.9879      -236.2408      -274.9990      -4.929123       129.4891
      -226.0792      -596.1147      -467.3385      -166.3524      -98.97165
      -89.80341      -47.68396      -86.63159      -313.2656      -458.9742
      -371.9832      -234.4329      -96.04868      -62.47034      -97.19714
      -96.44775      -116.8166      -89.72681      -196.6076      -284.6699
      -69.30166       47.99744      -7.674885       12.27972      -6.889404
      -56.75665      -121.7064      -134.2827      -55.98801       43.02469
       52.02276      -5.490906       19.49277       59.16107      -75.86807
      -122.4559       49.34015       176.3898       184.2862       165.2043
       140.2797       101.1374       58.02228       78.10530       84.36215
       67.96750       120.3395       153.1619       188.2531       224.8507
       150.2287       154.8469       214.2678       122.2565       46.24597
       108.8349       232.8863       253.9749       104.7599       46.44479
       82.78568       56.55975       87.71863       156.2307       201.8969
       239.5822       254.1456       242.7180       163.4863       89.15375
       111.2975       177.9157       149.8861       89.52551       114.7890
       167.7035       142.3484       60.85565       53.92761       172.2457
       215.4891       97.35294       12.20953       71.27893       171.2197
       185.8217       137.3450       154.3593       118.2790       26.07224
       64.98239       166.2054       112.1624       8.021240       67.20302
       59.40384      -28.86810       59.94836       132.1700       36.84105
       17.39404       93.91565       118.4734       151.9574       124.0429
       22.64772      -10.42171       22.76244       68.06293       26.93990
      -19.04086      -38.30663      -73.11026      -86.72725      -64.94408
       17.36753       36.23502      -39.92433      -51.26839      -14.92591
      -6.054153      -60.36629      -71.87399       3.319336      -18.31619
      -161.9433      -153.5362       19.10921       28.84894      -111.1969
      -122.4187      -47.71683      -86.79004      -175.0722      -104.5832
      -36.14134      -62.02168      -20.30045      -20.35770      -119.0500
      -126.8348      -61.88452      -87.65833      -137.7443      -139.3465
      -127.1169      -12.73592       11.34286      -86.47342      -97.17148
      -88.35443      -86.27179      -101.9105      -136.8095      -113.9666
      -71.16740      -76.39032      -87.60992      -45.41448      -7.260757
      -38.81792      -46.66592      -7.959328      -30.46698       27.04590
       114.1531       75.43370       31.68636       22.69769       61.93823
       133.9243       121.1547       81.47937       121.5831       188.3733
       163.0308       162.3116       213.7682       192.1718       108.9667
       133.3896       205.9559       168.2408       195.1561       302.6700
       202.1995       96.11682       223.9686       319.7241       222.2244
       176.6373       225.0330       210.4992       147.7004       127.6844
       122.3073       97.10315       169.4054       249.1936       177.1554
       149.7946       140.6919      -21.28407      -64.70255       85.31073
       105.3296       6.584229       29.83949       100.3813       3.546478
      -78.28949      -51.37372      -69.26397      -26.32426      -9.570984
      -146.5389      -192.1490      -128.1156      -112.3085      -123.1624
      -103.2051      -146.1860      -223.6091      -226.5131      -145.4152
      -19.70608       28.10214      -84.17871      -196.8474      -195.0644
      -180.4144      -173.8855      -153.4969      -189.4596      -164.9014
      -108.8804      -173.1200      -262.8514      -211.6027      -119.9815
      -61.31610      -28.31454      -15.54959      -34.45074      -86.63860
      -106.0740      -38.29254     -0.5680695      -49.10449      -120.6597
      -133.4704      -62.33742       72.22528       77.22693      -48.66852
      -132.3820      -68.77879      -38.53326      -64.35724       53.50177
       92.52847      -50.19092      -28.53995       69.62186       107.7999
       70.79504      -29.85022      -56.27057       38.50250       154.5943
       142.6247       37.53174       52.78104       107.5741       130.3049
       110.4963       56.37610       82.11420       83.92752       20.23694
       143.5103       197.3576       60.61584       82.39035       169.7233
       86.67767       35.27875       106.2072       201.7597       138.2754
       62.24512       167.1973       289.7094       212.1771       137.2084
       162.7151       166.2032       127.5314       177.5569       166.6804
       46.62463       41.99426       117.6891       117.5826       110.0973
       54.34320       69.50555       136.1882       136.3848       27.09640
      -68.30334       29.35820       121.4733      -10.07158      -93.17725
      -50.08893       73.15425       32.29224      -133.5565      -145.9368
      -79.81586      -92.01807      -112.9590      -126.2906      -117.1033
      -162.1027      -240.2115      -212.4300      -150.1280      -193.5481
      -171.1804      -93.80371      -131.8164      -219.5500      -225.0230
      -270.4644      -290.7614      -190.9877      -164.0532      -256.2139
      -246.1890      -238.2737      -279.9510      -247.1472      -186.2115
      -231.1061      -270.9719      -214.6353      -178.4949      -236.9864
      -258.1387      -231.4661      -214.1028      -225.3690      -243.4789
      -190.8136      -145.6799      -169.8222      -135.9993      -169.1580
      -206.6491      -155.3105      -164.6683      -197.3829      -118.8910
      -48.55786      -97.06381      -159.1784      -110.5597      -99.49283
      -139.0172      -115.1247      -62.83347      -78.83492      -94.89782
      -41.18983       4.745010      -43.26630      -63.38291      -13.69825
       25.47464      -54.05939      -88.36640       2.148567       58.24821
       7.028702      -56.26370      -94.54980      -65.34735      -32.52168
      -21.08992       18.93840       54.24654       3.440895      -54.10033
      -18.50449       21.74170      -11.60572      -14.21056       29.05125
       68.79205       94.79297       88.65482       32.55943      -12.81501
      -8.657684       55.68362       123.2221       100.3769       52.90997
       87.22894       89.27962      -30.90591      -105.8495       44.22198
       149.7882       112.2054       121.2013       165.2919       161.3426
       173.6494       184.6120       145.6436       123.6600       159.4803
       177.4318       201.7936       216.4671       151.7368       93.84900
       188.0175       273.7338       202.7538       170.1395       266.7703
       253.1953       178.2483       193.1711       191.7116       150.0270
       163.1985       176.7125       175.8913       184.9690       175.9023
       123.8612       89.16599       101.0847       145.4269       189.7390
       210.0693       205.0119       191.4307       212.6739       247.5647
       130.8678      -21.68980       6.407898       115.2037       190.0662
       200.7756       149.0209       183.3046       222.7449       122.7896
       45.68996       60.16034       77.71719       93.21869       130.6399
       199.7895       224.4348       167.7969       185.5543       239.5638
       156.5620       36.14850       85.85306       138.9425       19.83857
      -32.83698       41.94275       69.98297       97.57706       112.4200
       107.3814       159.5804       133.2737       41.28960       29.49788
       56.61955       72.64655       75.30536       82.76447       92.36090
       129.8620       110.1470      -2.548084      -26.56491       36.38501
       73.19751       160.6899       282.3867       287.3015       212.4621
       222.9830       198.9916      -5.856262      -175.8389      -167.6337
       1.617920       259.4875       375.6799       241.4497       145.0374
       323.2412       532.5490       564.5779       542.5519       500.6749
       172.5369      -313.5259      -452.0638      -352.6287      -451.1672
      -588.3433      -578.7192      -442.4545      -115.3517       93.93823
      -325.0576      -1323.982      -2029.839      -1625.727      -542.9728
       234.6191       411.5263       288.6437      -70.74890      -552.5774
      -624.3376      -317.7802      -129.9513      -153.1954      -397.1968
      -749.3890      -761.4792      -235.5091       153.0225      -148.1917
      -543.5212      -541.7102      -395.1344      -257.4928      -44.31915
       151.7113       97.54163      -133.0030      -131.8062      -8.573395
      -111.0984      -246.3490      -111.3165       96.10017       6.239136
       116.5327       716.1238       879.4180       256.1274      -483.4485
      -795.6449      -537.6168      -66.44751       184.0375       259.4941
       251.4697       95.43121      -214.2813      -411.1165      -107.3568
       465.9001       679.1371       302.2927      -247.5515      -326.3680
       107.0024       429.9785       257.7410      -53.65613      -8.447021
       282.4734       439.7663       317.6545       168.1588       188.0713
       55.03403      -140.7233       11.98257       169.6159      -11.06067
      -216.9745      -160.4916       7.357666       92.94083       148.5155
       131.4480       76.73419       115.5284       162.5798       105.3166
      -67.48779      -268.9599      -248.2872       110.4852       578.8582
       718.4216       483.7648       319.6202       211.2589      -77.58276
      -302.3398      -286.6733      -168.4655      -129.7772      -130.9741
      -29.33286       115.5690       196.1436       190.1294       181.3365
       164.1157       115.5804       137.8451       126.7904       91.21872
       167.9791       34.59021      -274.3523      -288.6168      -15.95239
       174.7224       230.5680       392.6078       467.8149       189.2350
      -31.75085      -50.38593      -154.3358      -303.4521      -323.9377
      -22.91809       503.5236       702.8506       461.9318       128.9206
      -132.7736      -188.8904       33.02173       310.6834       347.0579
       69.48792      -230.0417      -298.5824      -256.7408      -195.2371
      -69.77811      -45.65125      -208.8724      -370.8925      -233.4714
       70.52850       105.1830       18.71570      -26.41895      -346.1793
      -698.3759      -624.4769      -448.4901      -447.2336      -317.0677
      -69.90237       70.72763       95.51514       113.4012       130.2596
       50.13015       13.41547       88.84744       44.56689      -150.7025
      -390.1981      -492.7858      -387.5350      -223.2485      -74.50087
      -29.23389      -34.95279      -13.83624      -69.54584      -116.4682
      -37.45380       43.71174       52.15295      -103.3936      -379.2905
      -514.7208      -468.7471      -358.5119      -213.6904      -82.36900
      -67.71469      -49.09595       182.8453       368.8213       360.1974
       352.8776       241.3592       69.07544      -35.83887      -188.4866
      -321.4543      -382.2007      -262.7872       19.16020       21.23230
      -203.4595      -237.0215      -262.7913      -437.5404      -465.4479
      -238.7453      -34.15668      -41.87073      -175.5984      -287.0402
      -270.7753      -200.9321      -119.4907      -25.78421      -36.70508
      -107.4148      -68.67615       122.9143       362.2254       331.0031
       78.62421      -106.5618      -258.4993      -341.5641      -357.3088
      -434.1439      -393.6921      -241.2964      -256.4521      -392.2158
      -354.6007      -238.9746      -428.9507      -781.0652      -794.9706
      -501.3871      -249.0132      -42.12817       141.0815       136.8803
      -73.51758      -294.5624      -278.6092      -84.44781      -46.32944
      -135.9196      -179.2234      -181.5388      -194.4884      -238.5739
      -262.7881      -197.8261      -82.38782       75.31543       242.9470
       297.7623       197.5034      -42.89880      -222.0205      -130.7568
       37.73303       149.3349       122.3262       23.61755       74.37701
       227.3173       277.4399       176.4313       84.63995       149.0913
       235.4131       269.4817       276.3544       310.9614       385.1882
       419.5734       422.6340       424.8714       286.3650       200.0256
       332.5964       388.7360       351.3694       459.9211       582.6868
       596.5205       555.6683       510.4231       434.3221       356.1199
       384.6492       461.9432       492.9719       540.1853       571.4128
       554.1942       504.3821       460.7148       502.6315       589.8516
       584.3469       515.1147       490.6172       465.0565       399.0945
       425.3792       509.9653       534.5562       577.9475       626.5183
       570.0347       464.8316       347.5970       282.7991       279.8177
       241.0463       240.2301       308.4357       297.9711       277.8247
       358.5662       404.7225       376.6506       475.1134       665.9244
       645.0787       349.2170       87.48798       101.7658       224.8431
       245.5757       289.8701       408.1391       375.0167       214.5819
       118.6920       167.3927       258.5131       250.1201       209.1329
       225.4854       222.5134       187.6045       178.7107       185.5829
       143.4524       140.5192       198.8329       242.2500       306.9115
       337.2397       316.6688       278.0374       264.4894       286.6206
       180.8710       21.94428       19.41890       38.25620       51.35583
       133.6269       136.2313      -25.12268      -168.0223      -116.1254
      -6.441833      -119.1636      -366.6979      -428.4175      -304.5100
