     0.02500000      -838.7593       806.2515      -12345.00      -12345.00
      -30.00001       224.2000      -26.15000      -12345.00      -12345.00
       0.000000       19.20000      -12345.00      -12345.00      -12345.00
      -12345.00      -12345.00      -12345.00      -12345.00      -12345.00
      -12345.00      -12345.00      -12345.00      -12345.00      -12345.00
      -12345.00      -12345.00      -12345.00      -12345.00      -12345.00
      -12345.00      -32.22400      -69.38780       2491.000       0.000000
      -31.37200      -68.11800       0.000000       97800.00       0.000000
      -12345.00      -12345.00      -12345.00      -12345.00      -12345.00
      -12345.00      -12345.00      -12345.00      -12345.00      -12345.00
       152.9203       231.5143       52.18014       1.374971      -12345.00
      -12345.00     0.03392630       0.000000       0.000000      -12345.00
      -12345.00      -12345.00      -12345.00      -12345.00      -12345.00
      -12345.00      -12345.00      -12345.00      -12345.00      -12345.00
      2008       244         6        45        31
       550         6    -12345    -12345     10169
    -12345    -12345    -12345    -12345    -12345
         1         7        13    -12345    -12345
    -12345    -12345    -12345    -12345    -12345
    -12345    -12345    -12345    -12345    -12345
    -12345    -12345    -12345    -12345    -12345
         1         1         1         1         1
USPA    -12345          
        -12345  -12345  
-12345  -12345  -12345  
-12345  -12345  -12345  
-12345  -12345  -12345  
-12345  -12345  -12345  
-12345  -12345  BHZ     
ZL      -12345  -12345  
[...]
      -97.34387      -106.2588      -113.9871      -124.1195      -131.3231
      -140.5881      -146.9828      -155.6693      -163.6776      -172.9661
      -181.0631      -192.0039      -196.7299      -208.3130      -217.6249
      -225.7547      -233.0650      -244.1501      -250.7805      -259.4570
      -269.9271      -280.4055      -288.4243      -298.6794      -304.3846
      -310.9195      -316.5546      -324.9369      -332.6223      -341.3613
      -344.0476      -350.9550      -356.6672      -362.9451      -363.3605
      -367.7452      -369.6866      -371.1577      -367.5928      -367.7417
      -361.8981      -360.1267      -357.5375      -356.2897      -348.8489
      -346.9624      -342.8296      -339.7852      -333.1241      -334.4479
      -328.6251      -319.8832      -310.2166      -309.5782      -303.7978
      -300.9613      -293.6422      -289.2784      -278.3334      -269.4418
      -259.4492      -256.0449      -249.2403      -242.0747      -235.6085
      -229.3591      -216.9124      -209.0764      -200.0094      -191.4263
      -181.9528      -170.2321      -156.4952      -147.5516      -134.9373
      -124.8288      -113.3535      -103.6658      -89.23563      -77.75534
      -69.16011      -59.50842      -46.06859      -36.41581      -23.29832
      -12.90307      -2.285294       11.31427       21.05527       29.23856
       41.40678       49.28305       59.02274       68.11035       82.63498
       92.51416       102.7446       112.6270       126.2291       135.2607
       150.8112       157.7243       166.6846       174.7341       187.6046
       191.7795       202.8026       211.9271       223.4963       227.6657
       238.7021       246.3344       255.7626       257.7307       266.1639
       269.7235       278.2707       283.2498       289.6995       289.5178
       292.1700       298.5020       303.4696       302.9144       307.6787
       317.7679       321.2317       323.9017       328.1913       329.3417
       333.6324       338.0371       342.9723       347.4124       351.0684
       349.5006       353.3019       355.3867       359.5342       361.7042
       366.7012       366.1613       371.2788       370.3547       374.3391
       373.1248       377.6536       375.5115       377.4081       375.5087
       378.8999       377.1887       377.6116       374.6621       379.7219
       376.6091       374.2504       368.1333       366.6710       364.0140
       360.5049       352.3779       348.1324       342.7361       336.3857
       328.1299       319.6682       308.9225       300.5682       291.6227
       284.5521       277.3259       271.9059       261.2224       250.9487
       244.9683       236.2382       223.8304       215.9305       206.7762
       197.0746       190.4637       179.7706       171.4666       163.2725
       156.7266       146.1563       138.5127       130.2009       122.9092
       111.6236       107.6375       102.9032       96.37610       85.49496
       77.80272       69.64348       63.76585       54.17456       48.92025
       41.91235       37.18162       30.93558       26.64150       22.48635
       13.84074       4.061825       1.877052      -3.243713      -12.68188
      -17.92657      -24.62544      -33.06988      -38.46562      -46.53632
      -53.21382      -59.57591      -67.99246      -76.56332      -84.50409
      -95.64999      -103.3196      -111.2253      -117.6002      -128.2009
      -136.3508      -144.2390      -152.6118      -164.2861      -175.6295
      -183.4960      -191.1443      -203.5647      -211.4137      -222.6554
      -236.1368      -248.1742      -256.9656      -265.6520      -273.7690
      -282.3892      -290.1634      -297.5621      -305.3352      -312.8408
      -320.7968      -329.6584      -338.0183      -343.9078      -346.3213
      -354.6145      -361.2007      -364.4698      -367.4346      -373.8177
      -376.6271      -381.2375      -384.4164      -391.0166      -390.6853
      -392.2307      -392.8177      -394.1062      -389.3320      -393.7332
      -391.3109      -390.0419      -387.1289      -387.6527      -380.2079
      -380.4678      -374.5361      -370.4797      -364.1567      -363.7732
      -358.3871      -361.0118      -355.6719      -354.7019      -349.0172
      -347.9816      -343.3486      -344.3971      -338.0143      -338.2898
      -334.8390      -332.4091      -322.7080      -320.3909      -314.7391
      -309.6676      -300.7030      -296.1215      -286.3659      -281.9408
      -270.6221      -263.0733      -257.1536      -252.6580      -239.6235
      -227.8251      -218.4987      -213.5688      -205.2968      -196.4320
      -185.1349      -178.0778      -169.9293      -156.9546      -146.6413
      -141.1029      -133.1805      -123.9672      -116.9978      -113.0303
      -105.5166      -95.83276      -89.60358      -83.80072      -75.57150
      -68.63646      -62.17349      -54.25450      -45.29362      -39.37639
      -28.67434      -17.64752      -9.110159      -2.374451       8.503769
       20.56445       33.10101       42.13327       53.65231       62.01657
       73.12430       84.65512       96.17172       105.5002       116.7202
       125.6350       136.8802       147.3662       153.5078       163.1359
       176.3257       187.4117       196.1954       203.3793       215.3106
       225.5785       234.5793       241.5063       249.2839       259.0950
       270.5303       275.7505       278.3564       281.4937       287.5775
       294.1824       298.3486       296.7616       298.8148       302.6670
       303.9938       305.5560       307.6818       308.2058       310.5198
       312.1673       312.9854       310.5348       309.5817       308.9878
       308.0828       308.3353       312.3213       307.1447       304.9667
       305.0419       302.1492       298.5955       296.1848       294.0529
       292.4432       287.5894       282.8356       280.9406       277.1944
       270.0196       259.2736       249.5204       243.4531       233.9136
       225.5652       217.5869       210.4401       200.7994       194.2397
       185.1419       175.7978       165.2556       155.3381       146.4959
       139.8592       126.8142       115.2679       105.5265       97.20447
       86.57690       74.60902       66.13165       59.35574       49.79459
       39.08228       31.08217       19.97662       10.91940       1.114981
      -5.877029      -14.83012      -21.57020      -30.78085      -39.65823
      -49.13371      -53.42538      -60.40509      -66.33597      -75.48746
      -82.01978      -87.58871      -92.10400      -98.82712      -103.6545
      -108.1704      -111.6165      -117.5030      -122.2729      -125.8851
      -133.3712      -137.2655      -138.9807      -144.3420      -146.5844
      -150.6590      -154.3005      -157.7065      -161.6254      -165.4941
      -167.1181      -170.5492      -170.6154      -172.8376      -174.7936
      -180.4669      -180.5411      -180.8891      -181.6649      -184.7343
      -185.9367      -187.7590      -186.5237      -186.7322      -183.1674
      -181.7379      -180.7116      -178.9204      -177.0423      -173.8132
      -168.0172      -163.3342      -157.3985      -151.0325      -145.8743
      -140.1364      -131.2676      -119.8220      -110.9832      -100.3859
      -94.18353      -80.72873      -73.33301      -61.42075      -53.32076
      -39.03411      -27.09964      -11.80178      -3.534641       12.32426
       20.74371       33.29028       43.02686       57.08293       67.52203
       81.82059       90.02689       101.9321       109.6804       123.4161
       131.2173       141.7806       150.1837       157.4352       165.9993
       174.6333       180.9757       189.6967       199.6674       209.1794
       215.4145       224.9482       233.4426       238.9106       242.1486
       249.8300       255.7656       263.7533       266.7983       270.3871
       273.7184       280.3804       278.5612       281.8439       282.7221
       286.6135       286.2326       287.7146       287.6826       287.8999
       288.6143       291.9086       288.4973       289.2571       289.5913
       285.7242       279.9762       281.6831       281.3690       280.7221
       279.6678       278.0787       271.7394       269.5773       267.7430
       259.7003       254.3037       250.7738       244.5104       239.2289
       232.0916       227.1283       223.7912       218.1115       212.1904
       206.1483       200.7944       194.2990       188.9865       182.7590
       176.8153       167.0859       160.9053       153.6287       145.0802
       133.6439       125.2106       113.7136       103.6389       92.02512
       84.55524       72.72469       58.42445       44.04381       33.21584
       17.47814       5.176788      -9.453468      -20.52472      -33.41518
      -45.94334      -57.95050      -72.87476      -89.30334      -102.3789
      -114.9497      -128.9229      -140.9225      -156.5222      -166.9611
      -181.7952      -195.9186      -210.2483      -222.1783      -239.5853
      -252.8912      -268.4484      -278.4088      -290.8884      -302.5035
      -319.0002      -327.1349      -337.9844      -348.8152      -359.1506
      -370.1982      -381.2701      -389.0249      -400.4238      -410.6605
      -419.1217      -427.4292      -437.2239      -450.0920      -458.3987
      -467.4893      -475.7289      -485.1418      -490.9070      -498.1609
      -505.7178      -511.8625      -517.4526      -524.8345      -527.9709
      -531.5754      -536.8071      -540.8021      -539.4097      -539.8458
      -539.8340      -542.6351      -543.6104      -543.2620      -541.9896
      -545.6553      -540.7343      -539.2700      -537.7495      -534.6594
      -528.6256      -525.2522      -522.9225      -521.7048      -512.6471
      -508.8629      -501.2783      -495.1411      -488.1476      -483.9113
      -472.1140      -463.2169      -450.1294      -439.9231      -426.4561
      -419.0889      -407.3384      -391.8796      -375.1731      -365.8326
      -348.8037      -332.3472      -315.7677      -302.6838      -285.2802
      -268.4040      -248.9821      -233.3035      -215.8577      -203.6035
      -183.8163      -164.4807      -146.5184      -131.9421      -108.1176
      -90.87222      -75.15051      -61.18687      -40.13672      -23.47020
      -2.850769       14.45145       36.36470       51.62892       73.03964
       91.36606       112.0641       127.5481       149.1537       167.3120
       189.0052       209.5948       230.9965       245.9551       267.0728
       286.0850       305.6055       320.8445       338.0259       353.7931
       371.9137       386.8762       403.8333       414.6387       432.7720
       445.6453       460.6627       468.1772       481.6682       492.2434
       506.9998       515.7710       526.7719       533.8070       548.1630
       555.7256       567.3998       573.1624       585.3098       591.5400
       602.0940       604.7249       618.0667       621.3816       630.2734
       637.1610       649.7351       655.8169       667.2041       670.6414
       681.1528       687.6855       699.7007       701.6897       706.0500
       708.8542       720.6333       723.4844       731.2163       734.2417
       739.2629       737.0957       742.2388       741.4575       745.5654
       743.5107       745.4995       745.6726       745.1238       737.1467
       735.8140       730.7056       727.4966       718.7324       712.7454
       702.7026       694.4723       681.7390       671.9116       659.2422
       649.7505       636.0471       619.4397       600.9515       585.8871
       568.8408       551.7700       530.9418       509.3037       487.9631
       466.9565       441.9895       418.8492       397.0330       372.5974
       346.3684       320.7522       293.7329       265.4539       240.7565
       214.1448       184.4884       155.4028       127.3499       99.73537
       73.47449       48.67763       19.26178      -8.878082      -34.73358
      -59.15347      -86.43622      -111.4305      -138.3762      -161.1620
      -188.5675      -215.0566      -240.0684      -263.1444      -287.1013
      -307.8896      -332.9225      -357.2584      -381.5267      -405.3052
      -427.6057      -449.8241      -472.0828      -492.6157      -516.4824
      -535.4575      -554.7045      -572.8087      -591.1581      -609.9902
      -626.3716      -640.3766      -657.3679      -673.7153      -689.9712
      -705.3484      -716.1995      -726.9189      -739.2405      -749.5000
      -761.1841      -772.4902      -781.8691      -789.6360      -800.2456
      -805.8142      -812.5776      -815.5427      -820.5225      -827.4312
      -833.5146      -834.2986      -836.5684      -836.5232      -836.5994
      -838.7593      -836.1453      -828.4109      -826.0378      -823.6187
      -819.2166      -813.9531      -809.2874      -802.7820      -798.5510
      -792.6382      -785.6545      -778.1008      -771.0107      -764.5698
      -757.2715      -746.2991      -738.9480      -727.4409      -712.3091
      -701.9336      -694.9282      -679.1074      -662.5337      -651.5157
      -637.5901      -617.8657      -599.5712      -584.2875      -565.2609
      -547.5106      -526.9580      -507.6627      -490.5912      -470.3667
      -446.6034      -427.3313      -404.9908      -379.6924      -354.5304
      -331.0470      -307.8646      -286.7289      -263.5385      -240.1779
      -213.8165      -193.8554      -172.2411      -147.8522      -121.0842
      -100.5007      -75.70656      -49.86042      -22.60695     -0.7629852
       22.44968       44.96530       69.74915       89.99951       111.8801
       133.7767       159.0325       179.7223       205.7889       226.2257
       249.5295       272.8821       294.7190       313.2981       334.5983
       353.7588       375.4905       395.5464       415.8158       436.9387
       457.4113       473.8840       492.4817       511.6534       526.2675
       541.7400       558.5519       576.7993       591.5022       609.0205
       622.7622       635.7483       647.1284       661.7837       674.9961
       691.2437       703.5408       714.9199       725.3867       737.6675
       746.6733       757.9221       767.9492       776.0051       782.7520
       787.9773       793.2781       796.7168       801.3472       803.2854
       804.3562       806.2515       804.4597       801.4553       796.9802
       791.8340       787.8455       782.7722       775.1147       767.6914
       756.6492       749.7468       739.3433       724.3962       709.3616
       697.0557       680.0391       664.8787       647.7122       630.6335
       608.4197       590.6538       570.0460       549.1337       522.8746
       505.4832       483.2952       458.8944       433.6776       413.6855
       387.4850       362.8441       337.3961       311.2717       281.9288
       258.5275       233.9557       209.4639       186.5498       162.0840
       135.5749       110.5854       84.14699       61.63310       39.19164
       15.77582      -9.553329      -28.22397      -46.85309      -66.51569
      -87.86386      -105.6810      -125.6205      -141.8338      -158.2772
      -172.1125      -193.0837      -207.8158      -222.8026      -237.8088
      -258.2052      -268.7773      -284.3045      -296.4497      -313.6116
      -326.2251      -344.0787      -351.2700      -366.0840      -378.4431
      -395.1827      -400.3767      -412.1088      -421.5786      -437.2062
      -442.1893      -448.2231      -450.2073      -462.0520      -469.3635
      -476.1692      -476.8912      -484.4429      -485.9875      -488.4951
      -487.5864      -492.1147      -492.4418      -492.5771      -489.4806
      -491.6205      -488.9386      -486.5247      -483.1318      -481.4064
      -479.4617      -480.0125      -474.9412      -471.1826      -470.9739
      -464.9054      -456.5237      -451.2847      -449.6204      -444.4962
      -437.6332      -428.3850      -422.1429      -414.4304      -407.3318
      -396.7327      -388.2810      -377.3199      -370.0520      -361.0492
      -349.9215      -339.5216      -330.3033      -318.4469      -308.5581
      -298.4634      -288.1348      -279.4556      -267.1403      -254.4782
      -244.2456      -229.3587      -217.8041      -206.2841      -195.2978
      -183.4861      -171.6993      -157.3820      -143.5303      -127.8090
      -114.7836      -101.4284      -86.45512      -69.87634      -55.81480
      -42.25494      -28.88351      -14.46897      -1.901802       16.15372
       28.65395       42.78062       53.92453       69.80322       80.96469
       96.76508       105.6937       119.2575       130.1138       144.7139
       154.0139       169.2542       181.5496       194.1931       200.2097
       210.6313       220.9193       232.8299       238.2015       248.1487
       256.6285       266.0187       273.3137       282.6483       287.6523
       292.8118       298.6320       304.1972       307.7927       312.7028
       314.8799       316.6064       317.0190       318.3469       318.9962
       317.8120       321.3333       320.7311       319.2950       319.1517
       317.9863       313.9373       313.1452       309.7847       304.1987
       300.2654       297.7892       292.7299       288.2090       286.4047
       282.2539       276.5504       273.8931       272.2842       273.6726
       268.8840       265.0330       260.4514       258.7878       254.6004
       252.2161       249.3704       244.0273       238.5129       235.0316
       228.2045       223.7830       217.2093       212.9704       208.7033
       201.2823       194.9257       190.8823       181.9404       175.5565
       171.3370       163.1406       156.8251       148.5095       138.5154
       130.8069       123.0177       116.1841       109.4479       101.6982
       90.85648       85.60629       76.74146       70.33720       61.45451
       56.54704       47.56771       44.96471       36.02872       28.71048
       19.79251       16.10936       3.296993      -4.031643      -11.45438
      -12.43159      -20.14799      -27.57681      -37.17322      -41.39438
      -49.72601      -56.49081      -66.95493      -72.28033      -81.14404
      -84.41156      -93.23929      -98.68384      -105.6554      -110.7617
