     0.02500000      -706.4730       842.6729      -12345.00      -12345.00
      -30.00001       224.2000      -26.15000      -12345.00      -12345.00
       0.000000       19.20000      -12345.00      -12345.00      -12345.00
      -12345.00      -12345.00      -12345.00      -12345.00      -12345.00
      -12345.00      -12345.00      -12345.00      -12345.00      -12345.00
      -12345.00      -12345.00      -12345.00      -12345.00      -12345.00
      -12345.00      -32.22400      -69.38780       2491.000       0.000000
      -31.37200      -68.11800       0.000000       97800.00       0.000000
      -12345.00      -12345.00      -12345.00      -12345.00      -12345.00
      -12345.00      -12345.00      -12345.00      -12345.00      -12345.00
       152.9203       231.5143       52.18014       1.374971      -12345.00
      -12345.00       1.115379       90.00000       90.00000      -12345.00
      -12345.00      -12345.00      -12345.00      -12345.00      -12345.00
      -12345.00      -12345.00      -12345.00      -12345.00      -12345.00
      2008       244         6        45        31
       550         6    -12345    -12345     10169
    -12345    -12345    -12345    -12345    -12345
         1         7        13    -12345    -12345
    -12345    -12345    -12345    -12345    -12345
    -12345    -12345    -12345    -12345    -12345
    -12345    -12345    -12345    -12345    -12345
         1         1         1         1         1
USPA    -12345          
        -12345  -12345  
-12345  -12345  -12345  
-12345  -12345  -12345  
-12345  -12345  -12345  
-12345  -12345  -12345  
-12345  -12345  BHE     
ZL      -12345  -12345  
[...]
       215.8073       62.03516       213.5432       445.7113       395.0734
       191.5861      -92.05736      -106.6397       167.6868       377.9819
       401.6033       356.7985       293.0172       53.62219      -278.8726
      -350.0821       3.688965       411.1290       487.7086       214.4069
      -117.5003      -83.45245       111.9749       153.2035       249.9208
       302.0160       114.5395       4.796021       34.23535       251.6659
       539.1021       491.7728       152.1129      -52.02615       65.15707
       157.6537       115.7740       84.02112       34.37134       216.1023
       443.9144       345.5806       295.8447       314.4560       148.0052
       208.2479       233.1565       161.0420       130.2672       79.78265
       146.7646       218.9964       170.3773       184.6552       310.8943
       245.2850       3.611130      -20.28113       131.9328       181.0836
       30.30594      -28.69956      -36.86740       92.04535       291.2471
       129.9024      -72.39858      -30.10951      -8.783268       32.98346
      -60.08731      -122.9586      -25.19175      -10.32437      -58.69843
      -145.6680      -190.7964      -66.27567      -39.38934      -82.30621
      -116.3936      -41.27100       51.43663       6.598267      -131.8212
      -306.3548      -263.7402      -105.2122      -102.1288      -52.65268
      -21.14502      -167.6259      -284.8622      -146.3110      -63.13177
      -192.1419      -289.4032      -225.8375      -177.7339      -221.2865
      -189.0248       55.48230      -24.06836      -231.1414      -194.3175
      -214.6705      -229.1643      -155.2885      -75.58002      -236.0784
      -496.1401      -534.0686      -426.0183      -177.3380      -32.71489
      -21.78651      -87.41821       56.10626       145.7225      -98.49146
      -164.6943      -33.56400      -53.87830      -78.76550      -101.6918
      -54.98248      -43.66931      -183.2748      -317.4183      -356.0394
      -295.5360      -213.9482      -142.3806      -119.3686      -184.4137
      -26.11719       187.3154       241.8730       157.4194       36.12906
       38.40698       173.4341       260.7203       226.6184       63.37964
      -47.95734      -137.1675      -83.74667       111.6118       83.26462
       55.23859       285.6866       354.7220       189.5632       15.32431
      -99.29179      -82.20035       129.0379       90.45042      -90.97757
      -60.43594      -42.89670      -67.30353      -60.93456      -63.16037
       61.39107       73.31046       9.344891       20.01391     0.04670715
       5.798683       37.54401      -28.21508      -19.58453       115.4974
       168.8036       165.2643       136.0474       38.59732       131.5929
       198.0740       151.5758       72.76572       98.21069       270.2944
       156.8688      -163.7189      -215.1904      -167.1446      -200.9447
      -284.5049      -259.4323      -179.5607      -153.8945      -231.6238
      -250.7267      -178.8269      -129.6784      -44.50073       76.94638
       50.29868       89.89500       114.6266      -103.0097      -201.9073
      -107.7674      -84.30126      -17.97662      -72.19177      -130.6659
      -7.446705       30.28867      -98.18253      -140.1527       48.39890
       74.36340      -74.42770      -135.1333      -174.0938      -200.0013
      -199.8661      -81.19028      -64.41983      -150.5328      -208.6255
      -177.8905      -170.6078      -191.3922      -4.703552      -39.37732
      -217.3680      -109.0701      -111.0343      -137.7716      -52.50552
      -86.09274      -163.3744      -93.78784      -6.258026      -78.55322
      -243.0692      -281.6307      -24.94516       123.6302      -62.19260
      -84.34464      -43.22827      -160.3230      -126.5513       21.98841
       47.92850      -3.944389      -57.89276       102.8885       284.7276
       197.7995      -5.523834      -99.61418      -75.93156      -48.53398
      -24.84215       7.641022      -49.57703      -85.47809      -96.35236
      -174.6330      -134.1421      -38.98126      -45.73860      -51.27786
      -42.11218       20.29633       108.2329       31.65332      -119.4129
      -182.1685      -215.3193      -26.06079       181.5781       182.2867
       200.6823       200.3130       86.08473       33.18961       75.71011
       112.8597       7.159866      -1.971954       133.4894       151.0623
       83.62320       40.01369       76.63824       55.50848       17.50964
       114.0052       177.5237       190.1354       264.0966       279.4916
       118.5044       70.37579       62.68445       20.43628       100.7508
       75.94803      -29.72656       116.7465       227.5496       126.7775
       22.88368      -42.47510       32.00677       234.5262       150.7661
       112.9645       230.7752       167.5895       177.7037       237.2501
       175.9185       173.8155       190.0309       113.1286       55.90164
       30.70749       102.0957       287.0034       237.4488       41.74493
       152.2485       322.4099       329.5649       297.4893       232.3062
       283.5186       327.1802       289.9440       304.6283       209.3409
       82.51416       184.1865       279.1082       213.9246       232.2478
       304.2950       293.2697       75.71124      -99.36308      -45.33728
       31.39850       118.9536       148.2452       195.6808       207.3212
       195.9299       356.0743       346.9164       183.7692       167.4257
       138.3784       88.86212       73.21002       28.11810       125.1454
       257.1660       109.3577      -66.68039      -33.24176       78.32083
       150.8983       1.662888      -75.03928       36.11127       77.15189
       163.8803       118.5910      -16.63669       58.60083       127.3040
       61.92777       32.11706       54.70503       2.439392      -87.69220
      -134.6742      -111.4219      -97.12662      -93.06567      -131.0049
      -123.3642      -30.99167      -22.75262      -165.6046      -152.1301
      -52.22177      -86.11737      -93.74362      -66.03247      -69.63945
       35.88232       35.61726       9.316193       145.0287       109.4550
      -63.49965      -71.49846       20.06708       32.65092       14.09573
      -19.20775      -74.26463       20.47745       50.13257       84.49826
       69.96915      -64.67102      -144.1837      -85.28415      -41.27417
      -84.70162      -32.45821      -7.396942      -47.17070      -7.629559
       22.43951      -5.528534      -61.34775      -82.21657       4.928772
       130.5554       120.4754      -3.218750      -125.4704      -80.40027
      -73.24777      -95.40756      -38.76366      -2.394440      -24.77032
      -149.7259      -139.8038      -59.69130      -65.07182       48.91394
      -46.61353      -286.4412      -222.6373      -65.58189      -7.103088
      -69.23590      -197.7890      -137.2651       27.36255       84.23648
      -5.668152      -120.4786      -154.3020      -76.12451      -122.7089
      -221.6855      -159.6136      -192.7877      -192.6574      -216.1544
      -407.0747      -430.1826      -256.4005      -93.45715      -175.7772
      -320.3711      -318.3923      -231.0565      -161.5155      -180.3663
      -325.4258      -475.6477      -407.8026      -323.5521      -311.6064
      -263.3654      -288.9473      -309.0474      -291.2629      -332.6904
      -433.9170      -445.9907      -422.6389      -480.2421      -469.9172
      -393.0073      -366.5084      -302.1322      -215.8462      -234.7415
      -375.2115      -379.2522      -330.7752      -235.2359      -147.2742
      -233.7285      -321.1460      -310.4963      -317.5111      -307.1146
      -235.6203      -217.8481      -216.8969      -285.1141      -389.4279
      -283.1206      -160.6743      -137.4851      -229.6698      -284.4451
      -255.4957      -242.3251      -262.0467      -338.9860      -233.4477
      -101.8115      -156.8295      -121.1264      -145.5521      -197.0653
      -118.5586      -57.46661      -68.21826      -144.2557      -236.2365
      -190.5339      -16.04666       82.15081       28.80898       14.75600
      -45.68204      -153.2184      -101.1205       21.91715      -18.44392
      0.8963623       118.4756       158.9370       133.3023       24.67832
      -54.97516       69.54651       175.5477       106.7469       116.3298
       229.8117       167.5837       147.5693       209.0439       217.0018
       213.9851       84.14830      -90.13870      -34.57431       153.7831
       198.6862       168.8965       138.2158       67.54187       191.3846
       212.4026       11.66714       5.553284       102.7080       159.7721
       213.6487       138.2105       100.9518       130.4258       105.9073
       94.90045       113.7247       138.2811       146.5114       163.0780
       298.8533       365.3069       318.9131       332.4487       308.9445
       187.5040       167.6689       230.2942       312.9445       383.5529
       346.2522       320.0542       353.7363       398.3840       414.0256
       374.9576       409.9235       440.3885       433.5573       420.4949
       326.2595       243.1227       235.5851       240.4048       173.7814
       139.6229       323.1599       419.0538       297.3676       212.5732
       171.9288       264.6390       432.7941       378.5725       248.4211
       374.4531       448.1139       357.3137       353.5903       315.8219
       289.7124       301.3976       253.4025       275.2258       336.9841
       277.7787       171.9412       203.1187       276.6724       328.9279
       295.7261       286.9821       421.1888       489.1055       380.4769
       216.2941       182.5854       272.2980       281.6874       299.1049
       346.5312       368.8441       383.5203       312.7531       231.6436
       195.5282       143.1687       153.5062       141.1810       158.7454
       226.3156       204.9597       123.5377       185.3251       298.6702
       208.3259       215.2477       369.1168       273.7536       161.7990
       170.9158       187.0107       164.8447       142.2371       140.2403
       182.5834       185.6899       62.20488       1.843933       68.64160
       128.6244       160.4476       123.4480       135.9866       138.1920
       4.850883      -44.23643       14.17733       3.221283       51.77386
       69.61415      -48.86569      -76.90948      -4.220562      -4.976837
      -11.98822      -58.75958      -153.1361      -59.78679       60.71811
      -41.25891      -84.53171      -59.54071      -99.14178      -153.3256
      -228.3330      -184.2750      -8.498306      -22.49005      -98.53839
      -167.1624      -214.2857      -107.7821      -92.90576      -198.6539
      -202.5160      -122.7103      -128.9884      -207.2955      -215.5840
      -263.4173      -237.6904      -201.5123      -334.0092      -364.8959
      -275.6166      -232.7608      -160.5745      -109.4297      -162.8574
      -314.6792      -411.6671      -402.6012      -340.4586      -287.2898
      -279.3271      -375.7068      -423.0730      -364.7183      -319.9412
      -351.0829      -360.8857      -288.9290      -284.8299      -324.9594
      -303.7764      -390.2910      -479.9966      -494.5181      -518.2711
      -478.5402      -439.4026      -472.7902      -443.0265      -450.7537
      -503.4872      -575.4719      -538.5519      -460.8154      -477.7488
      -526.7340      -553.2609      -502.9412      -456.3940      -517.8809
      -567.4159      -594.2739      -588.8795      -522.0942      -521.3566
      -638.5698      -655.3938      -676.2267      -611.5005      -451.8083
      -423.6592      -474.3694      -588.5820      -706.4730      -662.3958
      -566.4250      -560.7485      -647.9590      -562.2894      -424.4265
      -403.9937      -454.7124      -492.9324      -428.4653      -363.1272
      -462.5881      -544.4637      -456.6368      -314.0009      -264.4448
      -281.1366      -354.3469      -363.8376      -312.8461      -231.2352
      -192.6350      -216.4620      -246.3490      -245.0027      -223.3784
      -174.9852      -163.5427      -171.7295      -166.1105      -85.41546
       16.73046       26.43514      -24.82257      -14.49385       45.00020
       34.28975       45.06833       89.71429       117.7020       204.7578
       253.9833       228.9491       127.8679       133.3967       312.5845
       414.2720       377.8125       357.4613       402.0370       433.1007
       462.6201       444.7310       398.8245       426.3052       460.2997
       498.9075       569.1223       639.4944       650.0277       628.2949
       712.1434       708.4763       619.0907       631.6343       675.9177
       690.6444       660.0649       636.5688       696.8662       801.3674
       842.6729       769.2659       706.9856       733.6377       783.4390
       760.0745       724.4082       734.1904       777.4377       778.6191
       734.1443       755.2791       766.2866       671.0398       681.6227
       689.3325       668.9573       768.7090       793.5857       697.6177
       612.6456       586.6735       669.0100       680.2985       612.3948
       646.0447       621.8147       461.7762       413.1086       504.9081
       538.7454       448.7278       389.8534       474.3815       475.6927
       369.6899       324.9138       361.7975       428.8223       380.9702
       229.5780       191.1640       262.0367       224.5835       198.7502
       212.5303       173.1198       200.9357       206.6554       118.7830
       72.88507       89.32727       138.9855       86.54308       35.33249
       113.1168       77.87839      -59.36658      -82.38037      -82.60883
      -138.2140      -143.0991      -133.5853      -181.5345      -157.2851
      -158.5336      -203.1024      -213.1442      -155.7883      -138.7621
      -234.8525      -344.1448      -294.6042      -207.4383      -214.0537
      -263.2207      -353.3627      -412.3970      -367.4579      -355.8330
      -363.8003      -339.5039      -359.9188      -373.4545      -342.3098
      -363.4132      -410.2787      -440.1550      -410.5710      -405.5083
      -468.6888      -481.5525      -448.6707      -489.7231      -579.5493
      -585.5364      -562.6050      -540.9265      -566.5299      -604.9882
      -549.2972      -483.5710      -504.1958      -503.1012      -535.3091
      -593.2649      -552.0494      -500.9768      -489.4019      -526.1134
      -609.2068      -583.7013      -512.0416      -541.4036      -595.8315
      -583.5669      -567.6243      -533.4250      -524.1091      -576.2744
      -574.8816      -568.4127      -521.3929      -517.3098      -562.9424
      -517.6423      -435.1741      -445.7255      -508.9846      -521.3765
      -496.2773      -465.7642      -434.0590      -407.9301      -321.3104
      -305.5027      -371.9763      -381.7278      -363.7000      -373.8465
      -317.0751      -268.4078      -222.7050      -222.0007      -226.0240
      -196.4592      -173.2269      -178.3582      -186.4013      -83.17551
      -18.85016      -92.06870      -84.22081      -71.13739      -62.95959
      -46.25616      -55.09926      -85.63297      -64.99731       28.69019
       135.0251       143.8063       121.1970       112.6064       101.4725
       123.5051       184.9134       206.2847       215.7662       193.2104
       191.8591       247.9813       280.4152       298.8402       384.3302
       372.8469       312.2886       362.5636       414.4932       344.6843
       296.4324       274.8473       297.0525       366.0894       414.6787
       370.7307       359.2927       377.4270       398.3386       395.3002
       381.8748       424.7478       465.9531       443.7803       463.4083
       477.2327       532.9935       607.6066       591.1976       536.2332
       560.9255       538.6637       436.5570       405.8376       402.6287
       432.9530       494.4883       480.6187       442.4457       450.4163
       546.2200       560.9042       434.6044       383.9595       440.5580
       450.3815       411.4130       347.9404       355.0504       425.2218
       424.2520       332.2547       280.5133       270.9601       256.3286
       256.0782       264.4900       236.7730       224.7728       224.8148
       213.2886       279.4495       295.9062       203.6533       168.0485
       151.7844       154.6324       153.6238       112.6791       116.8043
       135.5180       103.6989       73.65100       72.66739       86.07401
       58.58056      -7.036789      -68.06644      -20.90279       47.56445
      -5.761108      -88.91231      -86.99652      -64.92770      -41.05496
      -33.38914      -37.43457      -86.73053      -72.06281      -1.446915
      -7.702698      -70.91460      -82.85922      -83.35078      -39.70618
      -75.42999      -162.3888      -147.1977      -72.06440      -27.69713
      -9.959131      -8.986412      -6.705338      -50.75381      -105.9522
      -104.5125      -84.51031      -133.1193      -178.0380      -136.8643
      -23.08994      -18.79019      -98.37042      -148.6842      -120.1775
      -96.58447      -113.7703      -104.7419      -100.2661      -86.81329
      -42.91711      -96.77988      -163.5405      -144.1475      -140.6700
      -252.7300      -276.4803      -194.6734      -162.0000      -165.7456
      -120.1874      -124.1602      -180.4799      -247.6339      -293.6888
      -287.8834      -253.4125      -248.1794      -286.4367      -342.2913
      -298.3782      -264.8685      -323.6671      -302.6807      -265.1721
      -317.6685      -314.6855      -310.1188      -357.6497      -393.5502
      -403.9760      -447.2609      -463.6127      -436.5775      -344.7034
      -309.0817      -422.0168      -448.6868      -395.1312      -471.4614
      -465.7059      -396.1013      -414.2489      -438.0779      -379.8877
      -349.4526      -394.2234      -433.9321      -462.3506      -419.1460
      -362.8492      -377.8880      -337.3135      -316.0549      -353.3708
      -377.4452      -374.5576      -372.8075      -359.8420      -365.7546
      -360.4298      -314.9923      -287.3808      -308.7340      -334.8843
      -329.6095      -261.2230      -215.4829      -247.4501      -250.4098
      -226.8483      -195.7046      -103.0874      -65.87616      -108.4528
