     0.02500000      -733.3558       776.6273      -12345.00      -12345.00
      -30.00001       224.2000      -26.15000      -12345.00      -12345.00
       0.000000       19.20000      -12345.00      -12345.00      -12345.00
      -12345.00      -12345.00      -12345.00      -12345.00      -12345.00
      -12345.00      -12345.00      -12345.00      -12345.00      -12345.00
      -12345.00      -12345.00      -12345.00      -12345.00      -12345.00
      -12345.00      -32.22400      -69.38780       2491.000       0.000000
      -31.37200      -68.11800       0.000000       97800.00       0.000000
      -12345.00      -12345.00      -12345.00      -12345.00      -12345.00
      -12345.00      -12345.00      -12345.00      -12345.00      -12345.00
       152.9203       231.5143       52.18014       1.374971      -12345.00
      -12345.00      0.1229785       0.000000       90.00000      -12345.00
      -12345.00      -12345.00      -12345.00      -12345.00      -12345.00
      -12345.00      -12345.00      -12345.00      -12345.00      -12345.00
      2008       244         6        45        31
       550         6    -12345    -12345     10169
    -12345    -12345    -12345    -12345    -12345
         1         7        13    -12345    -12345
    -12345    -12345    -12345    -12345    -12345
    -12345    -12345    -12345    -12345    -12345
    -12345    -12345    -12345    -12345    -12345
         1         1         1         1         1
USPA    -12345          
        -12345  -12345  
-12345  -12345  -12345  
-12345  -12345  -12345  
-12345  -12345  -12345  
-12345  -12345  -12345  
-12345  -12345  BHN     
ZL      -12345  -12345  
[...]
      -112.1339      -84.62427      -238.7292      -253.1638      -209.0750
      -218.6911      -154.0131      -169.4281      -182.4915      -97.12689
      -118.5795      -201.5416      -177.8336      -83.83594      -144.4712
      -178.1476      -84.55583      -44.52124      -86.56726      -207.4711
      -291.5879      -240.1952      -253.2091      -259.9885      -109.7102
      -59.93494      -278.9392      -531.4844      -663.6404      -733.3558
      -728.8430      -477.1868      -301.8758      -212.9027       87.35602
       295.3008       182.9183      -13.69040      -96.76285      -111.3825
      -51.81360       126.7501       238.6107       258.4999       323.8047
       323.1590       177.7276       71.14020      -68.83118      -255.1101
      -303.4473      -321.1470      -368.0885      -320.3443      -174.2802
       47.27441       137.0762       61.98239       34.38000       120.6327
       78.18695      -58.92224      -79.12549      -277.9702      -617.9011
      -663.2032      -478.2656      -221.1491      -18.95480       19.57806
      -132.8499      -204.7075      -23.99709       97.06078       41.13267
       16.24553      -7.283264      -73.19250      -208.3450      -108.1072
       207.0403       359.6009       345.0215       241.7350      -99.69653
      -279.4056      -313.8027      -463.6088      -279.4280       64.63361
       175.1605       197.3029       112.8253       152.4414       153.3698
      -103.3052      -266.6561      -223.1024      -134.2357      -261.7468
      -390.6119      -99.67676       267.5131       232.2185      -48.83417
       64.00928       395.9985       331.0411       214.7391       350.2209
       361.1655       359.2025       339.5470       252.5413       315.9257
       491.0581       435.1297       221.9338       229.0611       184.3139
      -84.36996      -208.1376      -15.77808       341.0916       665.6936
       528.2236      -56.48779      -282.7400      -201.6544       49.07935
       470.5256       297.7680      -170.1584      -82.59576       126.7467
       70.76465       145.7288       465.6042       638.2034       497.9711
       232.3116       57.57086      0.4406815      -14.99812      -37.93390
       73.42181       288.0956       355.1741       341.4402       387.1038
       425.2206       307.7973      -44.71396      -164.5729       57.28552
       95.22546       91.50977       162.3527       276.9734       327.4278
       96.52344       231.8184       474.2655       324.0399       308.0252
       238.4422       103.7907       78.69888      -90.05513      -37.37512
       176.2194       136.9146       28.73555      -49.96078       2.871704
       271.2354       313.9096       219.6830       289.5522       250.4911
       70.85638       40.53708       82.90775      -7.375671       106.2992
       316.6507       148.5099      -67.85934      -13.78387       80.82544
      -162.3070      -257.6230       114.4814       213.8463       59.18420
      -202.7742      -456.1935      -357.7289      -217.8633      -161.3059
      -88.99081      -90.89021      -65.39966       125.0693       113.4800
      -116.6975      -265.7659      -223.1511      -57.94629      -177.6108
      -304.5854      -106.1164       48.74048      -139.7767      -363.0713
      -427.5769      -518.9343      -496.4435      -317.2366      -112.7289
      -160.7915      -317.7429      -302.3468      -404.5428      -427.6622
      -313.2128      -385.8745      -588.3989      -701.0393      -562.0154
      -300.8052      -135.8308      -172.9547      -263.9209      -109.8058
       18.86774      -114.7701      -261.1031      -199.9222      -235.2598
      -378.2361      -467.1074      -621.2438      -462.4131      -156.1906
      -158.7242      -239.0709      -298.1151      -270.0687      -388.4495
      -515.7758      -513.8533      -449.9095      -365.0693      -380.3060
      -310.6049      -177.6028      -136.3927      -150.1220      -151.6855
      -125.2984      -105.2730      -33.70319      -40.00305      -160.1227
      -130.5591      -48.94948      -28.39312      -26.04320      -22.93983
       33.30637      -43.75388      -103.8985      -93.45886      -225.1797
      -308.7550      -236.5847      -159.1663      -163.9648      -43.85248
       241.0085       245.7602       26.98853      -73.65175      -17.53149
       67.03394       33.65402       78.23233       72.91718      -147.2840
      -194.1281       105.0627       430.1515       378.2769       81.41693
       19.53357       249.8905       519.3018       456.6930       118.6565
       163.5151       454.2073       501.2661       385.8560       380.1029
       472.7642       556.6569       524.9191       377.5483       385.0154
       406.5850       391.2146       350.2595       476.2424       632.5128
       536.6294       401.4683       459.8829       577.9283       479.3204
       292.7026       378.8022       519.4576       496.4386       489.7572
       422.9701       369.1996       484.3689       560.7277       591.3718
       641.8290       539.8323       386.8661       438.7755       427.8003
       416.1948       540.5709       459.0381       270.2878       351.6130
       293.4433       104.0222       268.9862       447.3750       520.8696
       497.7432       277.2348       208.1809       253.6720       455.3860
       513.2255       205.4971       82.45129       192.4166       313.5474
       353.6632       401.3052       417.2048       267.7242       182.5527
       241.4720       275.2180       154.7018       125.5053       61.58011
      -64.47455      -137.6975      -110.3477       183.2640       168.1333
      -120.5917      -104.5696       5.026077       71.00534      -10.45877
      -40.06824      -50.51892      -183.2473      -174.2516      -121.4938
      -207.8464      -366.9640      -424.2714      -54.27759       237.6410
       23.62640      -278.7561      -432.5042      -362.2488      -267.2433
      -349.3431      -405.1935      -436.8635      -290.2640      -64.16357
      -148.6272      -331.6323      -407.5950      -457.2729      -280.4317
      -73.99695      -187.4631      -309.9856      -408.0398      -595.1321
      -563.6013      -314.8198      -163.6348      -213.7479      -268.3137
      -335.1221      -372.4407      -377.7711      -374.4675      -281.4974
      -150.0810      -232.3496      -383.2440      -419.0787      -386.5073
      -232.3652      -313.0847      -526.8156      -345.5847      -119.1100
      -390.4968      -661.3812      -581.0316      -509.4857      -386.5754
      -237.3000      -162.7367      -171.5177      -166.2254      -150.3228
      -222.0577      -285.0982      -302.9703      -276.3126      -315.5859
      -312.7264      -106.5771      -96.05640      -198.6570      -240.1418
      -322.3560      -411.2495      -254.4728      -203.0387      -250.4295
      -125.6831      -170.5396      -158.1134      -77.40381      -143.2303
      -118.8006      -116.7381      -98.80518      -156.9555      -255.7859
      -189.8378       23.21465       33.60648      -139.4109      -128.7555
      -37.38213      -16.94244      -58.84033      -163.4127      -186.4354
      -205.0997      -19.03873       120.2086      -62.63312      -282.8851
      -244.5379      -92.10903      -11.99715      -44.24719      -111.2620
      -73.15222      -78.28473      -169.6396      -103.9697      -51.25982
      -34.30954       13.57263       172.4005       226.9618      -52.60548
      -84.01410       126.6692       25.96207       47.70419       172.5649
       30.61465       15.40961       73.22342       19.94106       68.46909
      -44.58328      -146.6361      -16.26740       110.1401       217.2858
       232.7746       49.21317      -87.53650      -15.25075      -7.718056
      -33.88489       96.25443       106.4461       55.58295       9.765015
       152.3608       385.8949       210.1392       20.43591       214.8672
       398.0507       223.7660       126.4474       196.6508       83.75064
       57.51437       130.2130       165.2482       289.2224       295.3466
       98.25701      -16.95488       21.86322       204.5575       197.6116
       218.9005       407.4088       308.0956       215.0800       131.2902
       118.7334       256.4355       186.3983       239.3821       323.4653
       230.7356       158.6857       137.5939       162.1299       103.8673
       204.5067       364.9894       272.1290       209.6678       264.4759
       166.5229       121.7472       135.1823       7.502346      -38.61168
       27.66858       135.2111       272.0956       402.2078       374.7103
       240.1897       244.9650       189.8214       86.72421       108.2400
       62.01724       54.65509       227.3474       168.8394       48.81885
       149.0358       220.6391       184.7137       89.62552       64.69220
       195.4169       278.7363       164.2719      -55.02081      -12.65411
       217.2789       228.9436       110.6074       58.81221       7.103828
      -37.29582       2.651001       175.4083       321.2250       148.4390
      -81.24585      -91.20898       46.51160       302.0564       270.3889
      -94.46518      -95.55920       181.0352       262.8224       271.4930
       196.5181       27.57379       141.9957       236.2235       80.65771
       68.78983       98.15186      -33.79937      -58.37402       130.2037
       279.6361       214.3459       156.1201       165.8503       12.77657
      -88.48407       168.7051       241.6483       67.64041       79.67377
       21.58105      -83.57603       2.872093       44.24966       21.18550
      -49.98532      -4.695709       143.3704       111.4320       35.54538
      -76.10698      -105.6278       50.82850       38.73046      -48.50710
     -0.9769592       76.62360       90.22910       51.21506       69.03314
       46.17575      -137.3049      -104.5426       60.04208      -43.00574
      -134.7940      -29.08267      -24.78473     -0.1036530       85.73237
       12.08470      -28.49030      -2.494751      -101.1075      -188.4557
      -178.8819      -73.04808       6.200195       66.16797       84.08500
       9.178610       21.32785      -17.78983      -135.5187      -75.86678
      -57.31946      -63.77996       23.30196      -17.96664       5.898071
       118.5193       31.52567       18.16029      -10.57031      -82.99298
       142.5215       251.2681       65.46808      -28.63451      -42.02107
      -43.47943      -8.624298      -40.78824      -186.9995      -93.06195
       103.4423       22.23029      -91.45889      -32.78801      -39.77898
      -65.05951       70.81001       67.62207      -136.5026      -178.0610
      -149.0082      -156.9678      -79.11072      -48.55392      -102.9129
      -71.98483      -51.93475      -111.0047      -103.0710      -160.0545
      -186.0627      -9.430084       81.57721      -106.8472      -366.2561
      -350.3098      -236.1087      -147.7449      -106.3756      -311.9420
      -359.6061      -256.8753      -281.4652      -226.6077      -240.3131
      -326.7635      -239.7487      -231.0498      -270.2960      -284.4674
      -296.7658      -303.6295      -289.9962      -329.2367      -373.3112
      -324.5844      -429.2946      -435.6810      -325.0228      -412.5886
      -428.2238      -411.8682      -391.8054      -343.6226      -431.3108
      -533.3835      -548.8022      -558.7698      -573.5503      -528.3857
      -539.0344      -485.2395      -386.2878      -390.6726      -367.3918
      -524.7501      -601.4637      -408.2676      -352.4292      -433.5374
      -551.2240      -555.3301      -404.6433      -353.8616      -431.0908
      -593.4542      -637.6636      -463.7029      -440.6483      -548.1150
      -531.0178      -456.9559      -461.9257      -423.1219      -344.3917
      -322.6458      -332.6306      -376.3553      -367.6790      -328.4495
      -452.9021      -525.5359      -373.2061      -266.3438      -254.1075
      -265.3847      -274.7867      -268.0570      -274.0929      -273.6264
      -243.9674      -113.5849       11.44635      -100.8051      -276.2260
      -193.2330      -59.13364      -92.22760      -132.2141      -97.24771
      -43.56594       10.09499       72.13382       100.8654       57.22256
       53.97275       146.3501       178.0762       147.8879       253.7615
       344.0996       317.6335       186.2740       177.8976       374.5674
       405.0717       348.5759       327.1967       263.1289       301.5850
       356.2253       408.0276       481.5601       455.5066       430.5934
       471.6763       466.2930       443.7747       460.3923       499.4147
       531.9950       540.5701       563.9968       590.4216       600.9067
       604.5918       522.6426       411.0332       467.3218       696.4077
       776.6273       692.2974       591.4922       476.8137       513.9197
       569.2715       528.5042       630.7920       762.9072       766.0908
       615.3777       528.1537       607.0885       645.0349       597.9365
       658.0835       723.9573       613.6909       500.4369       575.9484
       670.1046       597.6145       573.9800       684.6897       728.1287
       715.0317       664.8464       602.6758       599.4717       591.9080
       465.9573       480.8306       670.0657       649.9119       608.2407
       634.8492       561.9504       527.0007       599.2996       622.2971
       487.3312       466.3738       560.2451       537.4395       459.7983
       484.9038       502.9924       340.2321       224.0349       302.5566
       405.2513       319.3697       183.4006       214.0320       261.5391
       236.3215       260.4142       261.6919       263.6312       229.6869
       170.6753       215.8565       161.3968       72.53992       140.1634
       153.4219       35.63868      -12.91458       44.34012       54.27806
       47.24183       45.24470       14.35175      -34.41254      -83.39941
      -131.0744      -179.5045      -185.7686      -157.5239      -80.85919
      -52.89948      -120.1442      -187.5713      -234.1976      -254.2503
      -221.4818      -156.8322      -244.4351      -415.8407      -423.6455
      -412.0018      -525.8470      -570.9016      -505.6349      -436.1372
      -391.9329      -398.0920      -494.0259      -599.4246      -518.2267
      -452.7242      -501.7188      -489.0603      -489.9658      -533.2928
      -558.5750      -618.6753      -661.3989      -529.9399      -438.7268
      -542.3530      -589.4615      -518.2478      -487.8865      -514.2585
      -594.7274      -593.3679      -519.0950      -595.8052      -719.9939
      -594.3678      -431.1526      -471.4771      -501.6738      -508.6855
      -531.5581      -549.3914      -595.2279      -504.7314      -462.6130
      -530.9932      -487.4346      -429.5010      -454.7981      -487.7256
      -542.7606      -546.7012      -460.5472      -416.3639      -422.9139
      -431.2690      -481.0150      -412.4965      -357.6625      -415.9271
      -340.6828      -269.6359      -280.0589      -282.9253      -388.3392
      -366.5067      -249.3314      -218.4191      -170.8634      -103.7892
      -210.4810      -352.0240      -304.9225      -176.4682      -120.5080
      -139.2513      -138.1040      -89.31131      -83.40494      -151.5129
      -169.6821      -41.80067      0.8658409      -20.19209       41.65863
       109.0343       52.60281       33.57048       84.09731       75.71582
       73.00574       85.87785       88.99554       50.02829       26.97192
       117.7520       172.5649       183.4100       234.1714       217.4079
       158.1152       185.0010       177.3768       188.2311       283.2896
       308.6695       153.1989       82.39313       255.7195       414.7756
       389.9882       285.5249       294.0858       312.3097       295.2673
       296.5718       246.8796       248.9492       258.7916       234.6610
       276.3072       305.1534       326.9391       339.3266       261.9645
       246.3010       261.3359       256.5266       340.9062       392.4441
       336.1847       315.1084       324.7568       325.3943       356.4874
       425.0431       391.1042       250.4489       181.7707       186.2458
       255.8212       321.7133       327.8940       308.3618       263.5231
       317.5614       407.3692       332.8510       223.9246       179.3755
       169.2042       248.5076       276.2585       260.7740       294.5161
       259.6896       219.6858       224.1660       234.6699       254.4062
       222.3638       182.9946       153.5652       167.9976       149.5026
       112.5999       82.17682       119.3817       169.3870       86.09668
      0.6252213       41.98142       37.81124       4.115341       34.54375
       21.47913      -79.75188      -90.22107      -53.41092      -23.63068
       33.70629       50.64328      -8.079346      -74.86658      -114.8449
      -113.5345      -92.36473      -72.20245      -75.56403      -110.4460
      -179.2215      -123.3985      -82.59924      -152.8590      -179.3118
      -189.3881      -165.2949      -87.93121      -99.21436      -156.9618
      -214.7218      -313.9632      -322.9679      -229.8204      -168.3381
      -189.6838      -310.9975      -321.2454      -217.6929      -279.2489
      -348.8164      -271.8179      -214.9479      -188.2495      -179.3582
      -238.6503      -333.5630      -326.0050      -235.2737      -249.0289
      -282.2521      -265.1788      -262.6647      -259.5828      -264.8671
      -229.8834      -205.1436      -232.5521      -249.4910      -232.5652
      -158.4680      -149.7449      -239.2926      -270.9602      -233.1288
      -138.6663      -129.7190      -190.8024      -243.5859      -236.5349
      -134.4424      -47.04120      -95.15894      -129.9488      -139.2297
      -143.3083      -41.36784       10.26044      -102.2506      -162.1918
      -57.90639       26.72948      -31.16008      -49.93542       28.83490
       99.53026       73.67512       1.439907      -29.42705       32.84198
       115.6412       99.84011       31.22265      -8.939514       26.15350
       144.7215       184.9598       117.3604       116.0939       86.58833
       8.089996       40.83344       97.29880       135.0002       150.4532
       126.9123       103.5673       120.7765       165.2882       134.0448
