     0.02500000      -959.3938       1015.137      -12345.00      -12345.00
      -30.00002       228.0750      -29.70000      -12345.00      -12345.00
       0.000000       21.92000      -12345.00      -12345.00      -12345.00
      -12345.00      -12345.00      -12345.00      -12345.00      -12345.00
      -12345.00      -12345.00      -12345.00      -12345.00      -12345.00
      -12345.00      -12345.00      -12345.00      -12345.00      -12345.00
      -12345.00      -30.16580      -69.47490       2894.000       0.000000
      -31.37200      -68.11800       0.000000       97800.00       0.000000
      -12345.00      -12345.00      -12345.00      -12345.00      -12345.00
      -12345.00      -12345.00      -12345.00      -12345.00      -12345.00
       186.4290       315.4838       136.1745       1.676173      -12345.00
      -12345.00      0.6314520       90.00000       90.00000      -12345.00
      -12345.00      -12345.00      -12345.00      -12345.00      -12345.00
      -12345.00      -12345.00      -12345.00      -12345.00      -12345.00
      2008       244         6        45        35
       100         6    -12345    -12345     10324
    -12345    -12345    -12345    -12345    -12345
         1         7        13    -12345    -12345
    -12345    -12345    -12345    -12345    -12345
    -12345    -12345    -12345    -12345    -12345
    -12345    -12345    -12345    -12345    -12345
         1         1         1         1         1
VELA    -12345          
        -12345  -12345  
-12345  -12345  -12345  
-12345  -12345  -12345  
-12345  -12345  -12345  
-12345  -12345  -12345  
-12345  -12345  BHE     
ZL      -12345  -12345  
[...]
      -254.7505      -104.9788       63.78528      -114.4381      -167.4058
       104.9541       115.8536      -247.2929      -215.1348       221.4769
       307.7014      -177.9506      -176.4541       112.3097      -101.8867
       91.31619       173.9216       13.85779       105.6540       51.49108
       38.83620      -69.66483       3.479218       177.3368       126.8311
       144.7894       18.26851      -50.41614       237.7344       221.1145
       10.50180       39.59595       158.1559       46.14963      -44.23901
       181.6097       284.0047       152.9096       1.673843      -14.34769
       140.9254       224.4652       55.61353       47.90863       273.6694
       201.2600       193.2293       181.4930       34.28101       76.92419
       179.5378       163.9877       39.20810       50.31519       236.0568
       362.2012       140.8596      -130.6309       67.86078       324.6363
       308.6239       68.14783       55.40057       271.4091       37.67072
       29.17175       327.2845       128.1793      -3.438965       134.0772
       157.9720       97.41451       80.30059       34.13939      -76.64583
       3.803772       121.2851       59.23987       73.39168       97.46671
      -6.848396      -35.01920       107.3174       77.00768      -41.42281
       43.38358      0.1256104      -194.8847      -129.7035      -2.918610
      -71.14806      -82.10751      -13.43597       10.78131      -93.38113
      -127.1731      -20.04828      -66.85040      -91.63370      -109.8462
      -131.8081      -36.43178       6.082611      -56.86546       12.09851
      -38.80566      -249.1440      -32.36360       23.21106      -253.9150
      -157.0037      -90.28441      -84.72887       11.62115       23.33521
       50.33875      -75.75198      -153.6301      -66.14165      -98.69646
      -24.51182       38.89697      -145.6855      -159.3592       23.65475
       76.46819       1.720490      -52.44495      -29.96579      -9.309753
      -37.49078      -85.34030      -93.86696      -82.82110      -51.91788
       2.615234       41.24313      -10.21359      -127.9937      -155.2670
      -28.64154       19.07474      -21.38647       12.68793       39.64246
       39.34537       65.67117      -24.78384      -95.13685      -30.39198
       16.55563       89.77914       77.02713      -21.86908      -6.149796
      -45.46995      -49.36255       77.37109       132.4171       93.15826
       54.70883       60.07126       47.15245       34.66342       69.00848
       93.82205       109.3417       65.54269       35.28558       64.02509
       122.0355       174.3863       75.56558       23.47949       124.3661
       128.8011       146.5852       147.5628       46.59796       39.13239
       90.68861       51.78312       6.220009       39.12851       38.90496
       9.107040       25.07819       85.82562       93.90001       68.79234
       18.93768      -41.06332      -24.46979      -36.70815       25.28207
       58.37967       19.85928       47.52532      -36.58856      -35.32083
       67.24355      -18.86183      -34.74266      -46.40616      -92.68855
       1.276428       49.32971      -39.43048      -88.09769      -59.50816
      -65.62621      -81.54449      -16.30833       60.26799      -25.19962
      -142.6475      -17.33809       86.57257      -25.81239      -62.94211
      -42.75119      -105.4602      -66.30516      -20.19788      -88.72417
      -66.30768       65.20309       47.48553      -63.00981      -90.82056
       66.00237       139.1402      -27.78960      -73.70703       35.56732
       39.28842     -0.6811066       40.25782       47.56851      -98.01088
      -82.82861       104.7510       90.86038      -37.40496      -36.07796
      -41.35526      -57.92071       2.815643      -46.68732      -85.62656
      -16.28994       7.703491       48.56533       38.42587      -38.06559
      -36.22932       30.31462      -6.971115      -70.46889      -40.86974
      -5.325012      -51.11206      -106.1922      -52.90839      -58.94342
      -143.1306      -71.83080       39.25340      -55.16086      -130.1905
      -90.10083      -125.1679      -74.54068      -4.917480      -139.1097
      -251.5539      -99.21658       43.07451      -44.76385      -144.3148
      -69.39514      -48.64471      -164.0087      -162.2275      -94.10120
      -176.0146      -244.2842      -166.4096      -60.35361      -47.38104
      -111.1201      -101.0912      -36.61758      -64.49286      -116.1050
      -85.17386      -98.34000      -127.8749      -64.67767      -104.9514
      -154.5027      -59.78366      -74.10373      -131.7874      -121.7485
      -100.2744      -79.29416      -97.91275      -82.95892      -53.32138
      -68.73604      -27.71914       47.55106      -37.21619      -106.4854
      -106.1154      -134.5073      -125.9102      -54.46045       30.74026
      -54.95346      -165.2729      -82.38968       20.53055      -65.04744
      -101.5593       16.40822      -22.13898      -105.1564      -128.0298
      -77.12978      -27.71289      -83.72350      -95.65215      -3.789917
       67.20774       54.08255       12.61649       12.11164       4.875504
      -56.72187      -47.04512       56.86193       22.72782      -54.28298
      -15.04552       6.115677      -20.97694       26.10202       63.68550
       49.27538       57.59702       85.37866       37.01913      -78.03081
       7.845734       75.78876      -18.76465       54.59628       174.3313
       150.0203       71.44553      -17.32564      -23.48776       38.49744
       84.01698       27.45592      -8.426819       134.4651       184.1400
       74.91731      -26.82919      -107.8309       72.02902       222.2351
      -3.561829      -133.3784       33.42328       188.1771       122.2603
      -12.19147       27.52246       129.8096       87.54421      -9.624146
       50.03748       117.5477       43.79501      -6.224480       10.05028
       61.40671       22.56290      -21.69106       3.951347       16.77519
      -47.07877      -59.63551       39.10950       22.12140      -44.69745
       24.29581      -2.221741      -98.25777      -43.52344       93.23865
       42.70204      -67.03247      -28.94370       17.14685       50.25945
       13.28415      -73.75687       41.40909       129.6209       47.66290
      -95.49442      -111.6221       43.44614       38.35717      -44.66841
       38.87927       107.8004       60.12166       24.27332       30.27060
      -1.794907       32.39813       159.0295       175.9529       103.1713
       64.22676       68.05484       106.8194       78.99518       110.5243
       214.0955       232.7827       212.6547       192.0129       39.79549
       22.81656       140.1871       112.6616       162.1116       223.4666
       235.3904       306.4221       275.8430       212.1624       149.9640
       234.5695       308.2841       234.7323       226.9303       207.3363
       228.5810       284.5376       239.3510       238.4215       248.0865
       226.0261       153.4817       144.7223       235.3116       266.2609
       286.8013       317.0836       322.0485       276.0692       187.6813
       212.4549       249.4257       223.1634       122.4968       147.3636
       265.2866       156.9593       68.67462       198.0828       239.9785
       147.8326       111.5634       130.4756       125.9661       111.6346
       179.7324       162.3513       54.77655       128.4509       175.1177
       23.28168       5.609772       130.8669       94.32877       24.79950
       53.97244       89.12747       97.84003       81.71109       70.37012
       106.0758       126.3337       58.67218      -45.36394      -69.23354
      -36.50487       17.58484      -20.96754      -60.51877       82.89202
       92.08574      -65.61548      -86.55960      -10.80745      -12.96082
      -79.92685      -83.81839      -70.96716      -65.84509      -70.59760
      -76.71490      -124.8832      -238.2863      -265.0209      -187.3428
      -150.7014      -171.0800      -191.7355      -195.6924      -196.7832
      -240.4913      -250.8940      -240.6437      -322.0161      -416.6960
      -371.1543      -284.8387      -360.3119      -373.8113      -319.1096
      -378.8718      -460.9304      -456.2010      -387.8019      -336.8239
      -333.4346      -353.4229      -339.5747      -368.7593      -466.7494
      -467.1183      -398.1726      -376.0002      -350.0715      -299.9187
      -359.0691      -452.8442      -432.9448      -382.6541      -424.0801
      -379.0925      -324.7271      -393.8774      -353.7202      -315.8235
      -430.6052      -466.8618      -416.0463      -392.3590      -387.7728
      -385.3220      -361.2446      -440.5394      -416.9937      -245.9050
      -215.2854      -296.6000      -355.1698      -398.3289      -420.5660
      -310.0872      -205.1911      -305.1507      -365.2753      -253.8927
      -239.8316      -296.1306      -247.5851      -249.5310      -355.6914
      -371.7459      -325.9411      -249.3504      -197.5346      -200.6743
      -179.4238      -196.1273      -102.5744      -71.46484      -199.7606
      -179.7686      -151.2028      -46.89052       1.173462      -140.0894
      -170.3379      -103.6621      -81.20986      -55.86050       54.51080
       115.8660       120.2876       74.72772       18.77416       34.62485
      -48.61118      -54.40427       129.4319       118.4564      -47.84482
       65.26605       251.4122       242.4487       111.6135       29.57941
       77.93774       165.1776       221.0906       298.4227       334.4495
       314.8243       297.2957       289.4573       334.2640       250.8771
       151.8545       283.4688       432.0654       398.8035       340.9078
       353.1410       339.8604       348.8772       370.3336       430.0454
       483.6639       427.2539       413.6852       446.6365       495.6711
       595.3364       628.6360       543.2609       521.0432       542.0012
       550.2322       597.0935       631.6338       600.9197       523.6030
       557.2554       694.5499       665.3655       566.7645       499.9800
       508.4119       625.4592       711.7894       601.4597       449.3217
       589.5864       730.1223       720.4272       654.6260       561.6576
       595.5876       539.4412       515.1392       612.2443       565.2861
       592.4187       648.1938       536.6130       553.9487       626.2292
       553.1937       458.3689       509.1194       550.3270       487.8341
       514.2889       466.8230       382.3826       405.1285       406.8041
       401.5404       367.5010       372.7208       417.3400       359.4255
       281.9027       233.7053       218.0824       248.3062       322.5579
       325.9348       177.5128       132.9161       244.9142       175.0904
       85.97449       137.5931       141.6920       105.7443       129.3213
       135.9369       45.99268       30.82394       58.35233      -40.55499
      -103.7348      -59.70714      -52.01077      -148.9946      -204.6699
      -149.4268      -160.1985      -298.9056      -251.4140      -83.78528
      -155.8899      -288.6768      -280.3438      -342.8839      -386.1660
      -342.1573      -391.3058      -460.2584      -488.0555      -533.5806
      -463.7373      -363.7815      -427.5837      -508.4443      -550.2805
      -604.9493      -555.5916      -510.7854      -495.1819      -534.6294
      -547.9968      -484.2289      -510.8325      -578.5906      -607.9006
      -621.4338      -663.5840      -698.5151      -637.1958      -682.2134
      -742.0171      -676.9062      -632.1667      -665.6321      -641.8920
      -597.3550      -640.8662      -679.5100      -653.1595      -634.4519
      -601.7373      -631.2776      -729.8079      -735.9359      -570.0281
      -482.1895      -560.6603      -680.9316      -651.9897      -554.0527
      -581.5367      -611.4966      -621.8367      -630.1394      -633.6000
      -630.6971      -565.0388      -535.3823      -540.3269      -520.5277
      -523.5959      -514.4912      -412.3667      -364.5825      -311.1030
      -201.3300      -197.6770      -337.7137      -413.6342      -279.1027
      -281.6143      -380.6669      -314.6558      -209.2339      -97.24948
      -100.0775      -135.2327      -163.0581      -120.6553      -42.89465
      -208.5459      -265.7087      -162.0895      -271.0162      -386.9731
      -173.4752       204.4895       322.0186       181.5898       85.40405
       262.8105       554.0576       548.1387       267.3696       110.7420
       125.8655      -184.4943      -485.2304      -191.8031       264.3060
       415.6270       181.4505       78.73029       214.1938       160.1490
       189.5101       420.5503       266.9705      -135.6218      -72.09290
       287.9231       646.9233       973.3745       1015.137       708.6865
       350.1652       182.4042       103.9367      -9.153122      -87.23798
       30.26257       206.3811       179.2142       197.2095       336.9563
       347.8438       421.2380       464.3257       348.6307       337.5066
       335.7787       139.4086       101.7704       213.4468       125.4064
       78.71021       398.0972       788.2061       775.2971       491.6652
       277.5045       146.9702       2.093903      -112.7340      -63.09320
       231.7611       490.3140       405.8689       477.5636       566.0188
       369.2773       120.4285      0.8854446       28.78371      -48.61977
      -101.0259      -19.90271       203.5608       635.2457       734.7936
       444.0355       205.1155      -3.260468      -142.5166      -73.16457
      -23.10369      -13.35425       114.4441       258.0818       262.7553
       197.3500       283.7448       123.6013      -86.62213      -66.60010
      -243.2305      -211.2948       50.94397       304.5465       399.2910
       301.1361       212.8320      -9.882782      -119.5039      -27.59998
       147.4290       312.2293       90.37907      -90.32837      -54.52808
      -70.15125      -158.5599      -160.3512       121.7374       378.9805
       252.5315      -29.19745      -161.3201      -59.25356      -13.13855
      -124.2165       27.98337       166.3306      -45.45148       110.3977
       304.8935       56.98286      -62.89673      -39.92993      -179.9784
      -217.1655       3.012451       109.4136      -5.236786       39.35999
       227.6599       230.5183       89.48730      -96.24127      -296.2317
      -241.3177      -24.92065       133.5181       369.1472       610.3124
       363.4311      -106.9637      -129.2078       42.08162      -31.15706
      -47.63556       95.93423       63.90436       18.84662       176.4107
       198.8154      -122.1371      -301.4497       20.91022       277.1130
       175.1623       99.93613       164.6533       66.05212      -4.516602
       94.29691       133.4179       18.59726      -116.1666      -15.14099
       114.0506       117.9507       261.7522       130.7964      -116.3409
       59.29211       241.4536       145.7907       3.360542      -26.38317
       16.41101      -92.94380      -107.2199      -19.41229       97.01349
       227.8044       12.33492      -121.3223       279.1583       550.1145
       320.3123       150.4874       99.43463      -64.29462      -191.4206
      -276.7301      -142.1619       89.39282       201.3802       205.6596
       125.8976      -93.93225      -248.0753      -88.75229       154.5349
       127.1897      -123.6919      -54.54333       68.60046       80.69122
       181.9434       95.47050       29.48870       49.11786      -78.47736
      -238.0915      -97.87045       14.38025      -163.6439      -279.0732
      -230.6221      -117.0159      -92.09113      -212.6961      -225.4960
       62.72758       36.65417      -325.5214      -216.7442       1.747620
      -134.9955      -218.4873      -129.6202      -272.7491      -346.4080
      -97.35654       66.56579       24.51349      -154.5741      -241.4449
      -323.4818      -461.5009      -329.1115      -296.0976      -359.9752
      -165.8468      -36.22827      -57.41345      -225.2747      -310.7290
      -268.7195      -311.3143      -304.8663      -232.5137      -129.3086
      -198.0964      -344.1230      -303.8552      -398.0930      -438.6436
      -165.3878      -198.7441      -311.0707      -200.9105      -242.9282
      -261.9458      -133.9512      -3.263184      -70.04889      -274.3325
      -305.2427      -93.88541      -78.04651      -211.5363      -195.1411
      -214.3140      -213.4378      -289.6967      -417.7549      -318.3565
      -221.8748      -154.6565       28.67192       123.0277      -28.76147
      -186.0668      -226.1250      -381.7588      -500.0083      -338.9196
      -195.4891      -12.31136       65.02429      -139.6251      -187.4919
      -145.5011      -242.4205      -274.3397      -28.53925       159.7299
      -13.76871      -125.6846      -88.07959      -216.2317      -430.2999
      -440.3684      -420.3022      -481.2012      -315.9856      -59.44371
      -54.93909       58.47458       91.59097      -156.3694      -93.20662
       23.76086      -122.5016      -273.1957      -379.6931      -270.4007
       103.1380       258.7635       9.668121      -148.2749      -120.3366
      -89.70972      -99.22723      -295.5132      -278.5415       74.59241
       151.0733      -11.79797      -137.4000      -157.6969      -190.2814
      -144.8801       126.2469       128.6389      -64.61220       8.669357
       69.89963       61.56683       53.11168       55.08795       107.9722
       131.6369       139.6381       237.2379       222.7077       1.563492
      -35.41914      -5.380653      -29.03845       126.8503       168.3127
      -4.265438      -14.59033       67.16875       3.208893       13.33838
       167.6878       226.0172       223.0151       179.7903       89.57199
       67.95013       252.9618       440.0159       315.1215       271.5924
       340.0861       189.8815       97.05707       140.2939       165.5738
       309.8762       327.4640       176.0797       295.7159       330.9369
       160.7079       196.1173       379.7150       441.3585       316.4438
       374.6714       468.8081       317.7400       357.7670       508.9094
       399.3571       296.3783       365.1091       498.2853       509.7283
