     0.02500000      -938.3596       1018.999      -12345.00      -12345.00
      -30.00002       228.0750      -29.70000      -12345.00      -12345.00
       0.000000       21.92000      -12345.00      -12345.00      -12345.00
      -12345.00      -12345.00      -12345.00      -12345.00      -12345.00
      -12345.00      -12345.00      -12345.00      -12345.00      -12345.00
      -12345.00      -12345.00      -12345.00      -12345.00      -12345.00
      -12345.00      -30.16580      -69.47490       2894.000       0.000000
      -31.37200      -68.11800       0.000000       97800.00       0.000000
      -12345.00      -12345.00      -12345.00      -12345.00      -12345.00
      -12345.00      -12345.00      -12345.00      -12345.00      -12345.00
       186.4290       315.4838       136.1745       1.676173      -12345.00
      -12345.00      0.1161454       0.000000       0.000000      -12345.00
      -12345.00      -12345.00      -12345.00      -12345.00      -12345.00
      -12345.00      -12345.00      -12345.00      -12345.00      -12345.00
      2008       244         6        45        35
       100         6    -12345    -12345     10324
    -12345    -12345    -12345    -12345    -12345
         1         7        13    -12345    -12345
    -12345    -12345    -12345    -12345    -12345
    -12345    -12345    -12345    -12345    -12345
    -12345    -12345    -12345    -12345    -12345
         1         1         1         1         1
VELA    -12345          
        -12345  -12345  
-12345  -12345  -12345  
-12345  -12345  -12345  
-12345  -12345  -12345  
-12345  -12345  -12345  
-12345  -12345  BHZ     
ZL      -12345  -12345  
[...]
      -89.80627      -129.0039      -41.18133       55.10996      -13.98080
      -19.08014       93.78232       65.50076      -67.14392      -68.86114
       5.477264       39.10712       92.38104       175.3346       203.8626
       180.6517       69.18445       29.02393       128.1588       166.6802
       85.78809       42.65613       180.1147       262.9996       234.9988
       208.4308       116.9011       98.20599       115.8715       68.98257
       108.4257       168.0172       136.0397       144.7512       153.3475
       122.9383       133.0135       170.1395       310.0907       348.7247
       225.6342       192.9333       278.9971       274.9816       123.9656
       139.8211       278.7848       274.0337       192.9889       223.3408
       322.3130       268.9810       218.8254       289.5556       233.2900
       252.0191       359.4263       252.6346       137.0912       207.3489
       257.1057       218.9982       231.7857       249.5034       247.9098
       320.4105       371.5248       237.4698       134.8251       207.7932
       281.3796       306.5837       255.9246       299.8737       347.3939
       217.1295       202.6089       343.9940       307.9612       193.0166
       195.1133       187.4921       244.7837       369.0305       288.1349
       214.9081       251.8590       185.9910       213.7241       329.4323
       302.7206       241.3915       236.8320       316.0530       323.4530
       244.0163       303.6254       288.5826       129.2001       154.2198
       271.5438       236.1665       155.2914       254.9008       312.4836
       201.8341       262.4108       303.8375       188.6801       176.6290
       235.0836       221.2632       170.0695       221.5632       217.9063
       122.5899       216.8392       299.3060       218.4992       152.5055
       82.47182       45.36682       159.9952       146.4687       25.71515
      -47.60298      -66.12402       109.9740       171.0766       39.05238
       28.51844       41.68065       12.85652       20.00626       46.46426
      -12.43762      -97.77954      -167.9102      -211.6880      -199.6133
      -102.4848      -78.55521      -172.9149      -113.9623      -45.99927
      -179.2114      -180.6367      -180.2959      -332.0261      -451.0490
      -450.7287      -332.9298      -313.7396      -482.3793      -511.0714
      -344.6035      -263.1028      -233.3824      -238.7532      -312.1262
      -354.7656      -468.4653      -672.4177      -726.9866      -546.5946
      -419.3024      -287.2300      -143.2358      -239.8444      -368.2974
      -460.4331      -586.3633      -536.2004      -358.4098      -321.6381
      -470.6117      -621.2628      -660.4995      -632.7321      -612.3923
      -710.5020      -681.4027      -458.1194      -360.2050      -384.1372
      -424.2517      -503.2876      -690.3413      -825.0896      -865.1433
      -905.8804      -896.1583      -733.0044      -491.0459      -413.4187
      -454.1749      -417.9679      -314.7833      -438.7700      -708.9402
      -770.6418      -745.7837      -737.6443      -809.9907      -832.3328
      -589.6089      -385.8716      -461.2268      -608.8864      -647.6238
      -488.2236      -251.3566      -288.1252      -520.2656      -617.6345
      -552.4906      -525.3097      -631.8501      -545.8420      -436.1646
      -559.9314      -572.2198      -375.1766      -192.1147      -216.5481
      -429.6466      -530.5988      -353.1517      -300.4419      -455.5466
      -448.1395      -349.5497      -261.3527      -234.1307      -221.1003
      -198.5729      -244.0723      -227.2506      -140.8219      -68.74053
       2.501511      -33.61436       13.01118       39.73709      -95.32996
      -38.47687       161.3154       72.53592      -34.85989       73.42053
       223.9158       268.6602       277.0060       258.4075       141.9728
      -21.32726      -40.36035       75.63446       198.3309       315.9838
       376.6274       537.2661       676.9110       352.8076       190.2554
       442.6921       443.3940       279.1225       226.2676       199.0166
       400.3389       662.1553       742.6538       741.8879       619.6467
       565.8572       529.4707       428.5493       517.8403       617.0406
       579.6318       617.8196       726.5110       677.1283       649.5122
       722.4614       759.5332       799.6055       803.9849       548.7120
       346.9497       446.7941       465.2087       501.1653       699.0034
       714.3325       812.0261       879.9761       639.5093       636.6411
       802.5403       637.3721       583.5757       693.0272       549.3121
       540.9043       670.1440       594.7124       593.4547       590.7395
       484.9551       484.1350       595.0842       586.1689       590.8643
       707.3887       685.0634       504.7507       404.3571       372.8451
       345.7705       375.5116       289.2372       169.7236       362.1542
       614.3064       538.4756       256.4457       229.8397       411.4330
       266.0241       172.4365       409.4164       356.8467       214.5018
       217.1451       212.2477       219.8701       226.0315       290.1062
       354.7604       163.4067      -72.13699      -51.27371       76.85413
       124.0659       127.0566       178.3468       194.7297       121.5248
       147.6064       90.93842      -59.26233      -70.03860      -160.2460
      -165.4567       2.424767       49.79364      -21.51984      -179.3674
      -45.29526       36.19708      -261.0904      -291.0917      -143.8271
      -132.3262      -163.3837      -201.1508      -82.65326      -99.52002
      -270.2829      -194.1122      -90.70923      -232.2512      -439.6658
      -487.4900      -375.2560      -368.3257      -258.5410      -87.16699
      -129.5775      -241.9601      -238.3010      -201.8430      -176.9021
      -207.6982      -406.0018      -458.1764      -339.8125      -404.5891
      -418.0034      -233.4217      -260.7166      -394.0178      -337.9647
      -302.7276      -255.6844      -197.7094      -165.8533      -200.8649
      -216.3021      -192.9146      -279.7017      -328.3657      -241.0490
      -244.5086      -81.93022       40.34601      -179.3217      -216.8150
      -130.0864      -166.2540      -217.5475      -150.9900      -59.94641
      -180.6211      -224.5020      -118.7432      -10.44781       27.06634
       24.23633       16.60236       15.49332      -107.6304      -153.8269
       116.5503       111.0693      -71.80579       54.29166       94.72917
       57.74728       46.97392      -46.89547      -24.51455       2.839722
      -109.7594      -88.52763      -5.814415       12.52257       40.79981
      -3.762314       15.52991       165.4712       112.9501       6.392090
       92.75565       165.4055       72.76456      -22.92184      -123.6244
      -101.9413       84.21121       92.11795       31.82098       31.49103
      -53.94910      -145.5745      -64.80194       94.39336       18.38132
      -56.47778       24.12292      -82.03937      -175.7553      -167.2912
      -178.2431      -190.3919      -245.6591      -226.2607      -121.0106
      -29.67611      -24.24763      -68.62271      -81.05023      -155.4987
      -329.3608      -510.7113      -494.5981      -280.8267      -147.0828
      -214.8625      -252.3837      -148.1473      -201.8915      -312.6893
      -335.0337      -437.2917      -512.8171      -385.7408      -268.5273
      -314.3807      -350.6569      -262.1306      -361.9658      -541.6990
      -366.1351      -285.5551      -374.7491      -240.2739      -149.6990
      -331.4944      -448.7949      -377.9366      -434.4310      -464.4410
      -276.1575      -192.6619      -293.7776      -384.2622      -349.9850
      -260.8317      -223.9446      -303.0255      -421.0057      -440.7014
      -312.7721      -276.0729      -249.7609      -206.5701      -314.2474
      -237.4056      -141.1895      -338.7277      -374.7478      -244.7781
      -292.3763      -260.2905      -243.4760      -284.5403      -255.8499
      -290.2963      -235.0925      -221.3596      -203.8489      -124.1417
      -274.6584      -402.8061      -263.5128      -228.2894      -372.0117
      -238.9193       19.74202      -6.914185      -209.5880      -261.4552
      -126.6426      -195.7450      -315.7212      -185.8059      -113.5780
      -118.7782      -52.92215       38.13808       68.30611      -12.14598
      -83.76477       19.28925       116.3411      -4.843353      -32.91617
       63.85120       117.9086       45.73968      -19.03314       61.73938
       95.32611       157.4466       229.8644       205.6849       278.6894
       283.5820       184.7742       235.1260       263.9558       210.6861
       297.4144       388.9279       350.0540       318.1318       427.9292
       482.9277       462.6580       476.7571       416.1510       377.7798
       436.2725       406.5916       469.4983       576.7986       529.7063
       488.6788       560.3071       620.9362       582.5283       574.3563
       623.9929       597.1895       590.2856       568.4268       548.8403
       567.6724       658.6554       724.8955       591.5063       548.2964
       715.9805       834.9426       824.5066       675.4794       597.5503
       645.1277       649.1963       686.8389       736.2937       625.0249
       618.3813       693.9211       677.2544       758.0171       811.2588
       745.1143       738.1135       748.3765       770.6565       795.7935
       774.1265       727.8140       688.7119       576.8926       577.4805
       722.5717       679.1411       642.3425       731.1675       656.1454
       654.5996       727.8115       603.2849       577.3267       651.6716
       603.3044       585.6743       610.4238       538.6023       497.9117
       505.1973       457.3398       481.7323       442.6137       309.9958
       373.6343       422.4537       340.9646       321.3732       298.4964
       254.7184       259.1660       312.8226       306.8367       186.8063
       191.8673       189.9372     -0.5752182      -46.89696       57.08997
       63.80579       73.16821       40.50378      -57.67075      -62.66742
       34.59596       3.116119      -139.4459      -168.2217      -194.3024
      -241.9069      -231.1813      -281.1533      -316.0050      -396.7859
      -461.2153      -433.3182      -463.2122      -420.2720      -361.0168
      -365.1589      -464.8489      -624.7159      -574.6378      -497.2410
      -514.4304      -517.0057      -525.8511      -499.4561      -555.5454
      -636.7456      -615.4766      -665.4680      -772.3337      -746.8547
      -707.9087      -732.8838      -752.7439      -754.3315      -682.6851
      -683.7676      -752.1240      -746.6125      -724.9443      -716.1847
      -678.3975      -680.2954      -755.6494      -787.3577      -743.4395
      -743.2180      -800.8557      -806.1875      -683.2300      -708.6367
      -780.0104      -657.0808      -607.7229      -734.4812      -756.4043
      -681.3152      -746.3779      -833.3254      -757.5835      -766.5781
      -819.1567      -712.7617      -676.2441      -761.9595      -720.6333
      -724.7278      -804.1619      -797.3455      -778.8066      -754.6274
      -738.7485      -756.3213      -781.2734      -798.5439      -722.5916
      -697.9656      -756.3047      -805.7271      -763.9717      -634.4192
      -644.2485      -753.3738      -692.6259      -605.3447      -595.1104
      -611.9692      -639.6266      -572.8435      -561.1616      -599.9495
      -561.1064      -577.6978      -580.2262      -516.0791      -482.2561
      -447.1344      -380.6484      -389.0385      -465.9408      -494.3875
      -413.0284      -336.2045      -312.0828      -354.9818      -342.3386
      -240.8953      -338.3508      -369.9526      -225.1726      -269.0098
      -216.2773      -5.919907      -28.08301      -82.46889      -32.50008
      -47.88899      -35.71432      -27.74133      -61.64806      -21.94714
       36.54553       131.0763       244.2101       178.3145       69.22632
       158.1732       243.6859       170.7582       202.8966       276.0637
       239.6509       226.5682       275.2181       334.3251       336.6394
       381.7405       479.6150       475.2822       473.3402       542.3647
       495.8739       465.4441       529.6697       515.7042       546.9010
       659.3618       695.9961       670.8586       701.8208       727.6165
       702.0520       669.4434       740.7002       787.8809       723.6587
       714.5417       778.4492       808.2380       781.9272       767.3091
       817.0947       862.4175       825.3540       850.7710       900.3584
       887.7312       892.3831       880.0308       855.8389       800.6731
       824.0330       876.1411       841.8423       914.8062       1018.999
       989.7422       899.0386       854.2014       893.0586       879.6470
       855.7261       953.8540       990.5046       921.1230       910.0171
       892.1182       859.1030       875.8992       880.6267       851.6880
       801.0095       733.9502       792.9189       860.1509       794.4082
       723.0139       672.4202       645.6506       689.8574       704.2034
       689.4717       747.9463       755.1064       595.2637       543.7622
       617.4259       559.4033       514.4510       578.4019       545.9659
       467.1818       479.2072       519.8433       443.6810       383.3683
       393.1539       425.7604       360.2916       287.1349       315.2239
       305.8624       255.8634       271.2515       236.0419       190.9651
       200.4085       193.9118       138.6971       100.4773       92.47798
       79.83582       1.758919       18.45101       18.66150      -51.99948
      -77.16196      -105.9144      -94.41040      -73.47815      -142.0432
      -163.2659      -204.2522      -244.3701      -253.0983      -282.0042
      -282.9257      -273.3784      -319.8578      -314.2013      -324.9089
      -356.0645      -360.9628      -369.5968      -456.2965      -531.7371
      -501.5728      -466.5649      -468.7041      -482.0096      -489.4916
      -441.8676      -525.7151      -597.3879      -603.7217      -682.5540
      -695.5015      -672.5657      -721.3262      -724.1133      -688.6172
      -698.1611      -739.7996      -700.9636      -633.6914      -670.4128
      -739.8723      -785.2112      -828.8044      -827.0215      -848.0127
      -864.5293      -847.8582      -846.7200      -826.3611      -769.3374
      -781.4219      -799.0757      -756.8281      -821.3179      -917.7864
      -901.3611      -920.4094      -937.4565      -915.1946      -910.2168
      -843.5745      -791.7041      -832.4688      -839.5103      -889.6489
      -938.3596      -843.8564      -779.3640      -837.7954      -835.6467
      -790.1401      -789.5396      -863.4243      -858.4417      -733.5461
      -678.9617      -706.2378      -688.8613      -691.6826      -723.9006
      -697.6021      -629.1323      -605.8308      -616.5820      -652.8572
      -664.0332      -650.4106      -620.6078      -571.3058      -506.4639
      -494.7551      -443.6097      -370.1660      -382.0671      -382.8822
      -332.5394      -346.4762      -362.8184      -344.0066      -290.6804
      -244.0696      -213.3463      -168.0428      -131.5618      -151.6547
      -142.6931      -80.08158      -23.18539       62.73489       86.48413
      -9.041016       5.090332       62.55640       74.63208       111.6178
       128.6844       196.2169       279.1936       279.4883       315.6803
       395.7997       414.5814       371.8135       362.9218       396.3214
       392.5819       389.4421       441.4857       551.8881       594.7812
       530.4602       548.8494       630.9802       614.0458       582.8240
       588.0955       592.1099       644.9272       692.6477       691.5481
       734.3547       822.1709       774.4363       651.9963       648.0117
       713.1372       750.1494       741.1882       751.9573       792.7798
       793.0691       819.0938       838.8772       805.6177       801.2961
       814.7124       807.7983       813.7666       817.9812       766.2256
       765.9805       827.6746       825.6284       836.9846       865.9216
       809.2441       778.0723       846.7661       844.7202       708.7258
       675.4739       713.8835       672.7715       727.7812       763.2485
       687.4255       703.2878       730.0957       657.2207       611.1165
       648.8495       652.0342       621.6262       557.0681       491.0986
       493.8577       526.6466       511.9423       448.6797       396.6609
       344.7496       326.8024       294.5134       282.9427       323.1944
       315.8180       278.0829       264.1860       228.9983       174.1267
       95.04822       80.01486       108.6134       105.2142       49.25769
      -9.904465      -37.44537      -35.15355      -29.06653      -51.61133
      -126.9902      -160.9735      -146.6422      -152.7587      -214.0131
      -246.4288      -239.2130      -270.7291      -275.7412      -303.5225
      -379.2361      -345.8732      -317.4680      -361.7576      -393.8363
      -379.6051      -384.5596      -413.2018      -424.9648      -463.5773
      -489.9478      -477.3394      -512.1328      -548.6187      -519.9681
      -467.1292      -440.5692      -462.0699      -495.2380      -500.5420
      -524.1233      -567.9478      -661.3301      -669.3691      -593.4619
      -578.9910      -549.4861      -527.0006      -588.1382      -610.9082
      -571.3500      -587.1309      -634.5536      -616.9670      -580.2577
      -558.5103      -602.0635      -596.8099      -528.3796      -525.1550
      -529.9182      -468.1211      -441.1562      -459.3394      -481.6479
      -461.2218      -470.8274      -500.6885      -480.7954      -439.0115
      -417.1718      -401.8241      -381.2217      -366.6899      -331.6251
      -272.1747      -324.7218      -375.3909      -320.4474      -279.0950
      -274.4536      -287.8878      -298.4393      -260.3889      -248.3948
      -295.1493      -279.4549      -197.1803      -157.1415      -93.73868
      -36.90250      -63.20747      -87.98608      -64.99240      -71.76935
      -101.5632      -75.91577      -37.06177      -29.04884      -1.836365
