     0.02500000      -704.1067       928.0502      -12345.00      -12345.00
      -30.00002       228.0750      -29.70000      -12345.00      -12345.00
       0.000000       21.92000      -12345.00      -12345.00      -12345.00
      -12345.00      -12345.00      -12345.00      -12345.00      -12345.00
      -12345.00      -12345.00      -12345.00      -12345.00      -12345.00
      -12345.00      -12345.00      -12345.00      -12345.00      -12345.00
      -12345.00      -30.16580      -69.47490       2894.000       0.000000
      -31.37200      -68.11800       0.000000       97800.00       0.000000
      -12345.00      -12345.00      -12345.00      -12345.00      -12345.00
      -12345.00      -12345.00      -12345.00      -12345.00      -12345.00
       186.4290       315.4838       136.1745       1.676173      -12345.00
      -12345.00      0.4378205       0.000000       90.00000      -12345.00
      -12345.00      -12345.00      -12345.00      -12345.00      -12345.00
      -12345.00      -12345.00      -12345.00      -12345.00      -12345.00
      2008       244         6        45        35
       100         6    -12345    -12345     10324
    -12345    -12345    -12345    -12345    -12345
         1         7        13    -12345    -12345
    -12345    -12345    -12345    -12345    -12345
    -12345    -12345    -12345    -12345    -12345
    -12345    -12345    -12345    -12345    -12345
         1         1         1         1         1
VELA    -12345          
        -12345  -12345  
-12345  -12345  -12345  
-12345  -12345  -12345  
-12345  -12345  -12345  
-12345  -12345  -12345  
-12345  -12345  BHN     
ZL      -12345  -12345  
[...]
       115.8931       213.2466       342.5294       150.4070      -1.904968
       112.4615       251.7094       303.1521       204.7775       229.0427
       174.0127       103.2769       220.4441       286.9719       440.9037
       389.4915       140.0884       283.8458       275.3862       45.78784
       283.9763       465.8335       341.3650       344.5422       502.9811
       396.5088       306.9119       446.7057       466.8036       433.1047
       323.3324       281.6172       364.7175       398.4792       403.6066
       217.0227       297.4116       533.0193       478.5012       545.6910
       497.6259       318.9375       424.8151       534.1654       411.0115
       330.6941       417.3852       337.3406       220.2905       363.0863
       492.5393       414.0867       245.1147       264.1643       475.9159
       406.6613       270.9879       334.0857       384.4688       231.0015
       161.1692       304.3807       355.5205       368.1900       316.4770
       171.1420       67.83533       96.57611       201.2332       193.6160
       201.0992       265.6912       219.5424       104.9872       195.7886
       218.0180       60.99417       97.29034       128.2430       64.60895
       66.94391       201.0672       210.1666       6.781509       43.57256
       54.85873      -85.18245      -13.34009       177.9568       211.8828
      -27.57637      -110.0508       21.08393      -5.789492       18.66517
      -9.044170      -24.22012       80.42654       48.24010       3.446283
       11.02647      -35.65454      -6.145233      -8.109985      -104.3435
      -100.5392      -63.64014      -129.6060      -80.73630      -71.34474
      -107.7222       42.14575       2.409546      -224.3619      -160.6535
       37.99670       40.55385      -74.40552      -60.73227      -19.69519
      -78.47830      -153.4130      -169.7713      -21.45834      -10.32016
      -164.3548      -122.0408      -221.9730      -302.2439      -184.7539
      -120.8492      -134.9221      -165.1434      -129.3187      -26.82925
      -97.33777      -275.2098      -306.9802      -200.1576      -62.88437
      -58.15018      -144.1096      -132.2336      -218.5073      -323.8192
      -209.4161      -98.19659      -202.8220      -185.0074      -97.06799
      -125.5273      -220.8178      -204.1844      -120.6586      -150.4260
      -233.2110      -123.1139      -140.2285      -280.9318      -220.2013
      -213.8488      -215.3860      -184.0862      -269.9140      -241.8145
      -146.1497      -138.5400      -128.9642      -140.0230      -292.2881
      -248.7592      -190.0470      -307.4843      -251.1951      -145.0154
      -194.9027      -174.3947      -220.0177      -327.1536      -242.6799
      -199.7277      -237.0650      -237.9229      -272.9824      -270.6870
      -344.4517      -265.2923      -105.8148      -233.8288      -321.8318
      -228.4374      -271.0466      -242.6184      -91.95294      -141.1985
      -343.7618      -368.7977      -234.0057      -197.0381      -286.2046
      -225.6685      -155.0857      -169.9275      -244.1758      -277.7487
      -161.6703      -160.7380      -232.9754      -162.5155      -132.6335
      -215.0427      -176.7980      -63.32617      -201.0582      -199.3100
      -21.36017      -36.47714      -148.9652      -147.1266      -99.54160
      -126.0535      -87.55075       56.61008       13.56534      -93.11383
      -130.6073      -101.4890      -5.026371       2.795006      -50.23235
       12.47031       46.13544       40.41600      -70.07478      -85.00510
       77.05586       38.44507      -39.96790       26.67868      -62.68906
      -69.87628       70.99744       138.1184       90.72414     -0.2515564
       56.85708       40.08408      -59.44846      -3.725861       60.94293
       72.90186       13.75858     -0.7347412       134.8398       135.2602
       26.09418       93.02762       137.3426       82.40671       90.06860
       121.6401       100.0674       89.74326       98.80328       110.3346
       190.4326       217.3134       193.6830       240.8684       208.5961
       104.4799       155.6718       247.8423       223.9088       162.6758
       175.8029       214.8461       290.6305       366.8351       280.1827
       179.8257       278.8344       224.8266       67.37048       258.9520
       451.5801       334.6130       267.5760       327.8340       287.7279
       249.1814       316.9230       288.2415       240.4431       274.4407
       352.1726       402.8741       233.0501       87.73248       243.4347
       290.2941       168.8595       171.2181       311.0888       329.6202
       250.2915       366.8933       417.9321       207.3774       130.2921
       273.4210       244.7480       121.7285       198.9756       253.7852
       145.6180       168.9914       263.0070       95.88989       68.22327
       252.7766       225.0630       196.6433       232.2042       171.5113
       95.26446       8.417725       110.1304       186.9425       59.99568
       45.27176       90.56255       30.19157       27.48911       86.62778
       103.0190       24.09837       10.27457       86.20830       89.83580
       12.61449       2.900143       14.49698       29.20328       40.19217
      -75.19775      -229.4845      -202.1012      -59.01474       58.93105
       24.88983      -135.8780      -173.3428       26.64194      -57.65295
      -241.0739      -81.43515       10.31409      -232.4667      -280.1999
      -118.3389      -147.2751      -149.4850      -22.39502      -29.98325
      -112.6192      -208.1133      -256.4374      -207.4858      -197.1889
      -160.0039      -59.83234      -137.3228      -225.3468      -142.7815
      -103.9698      -208.3635      -151.5141      -61.94556      -126.8712
      -157.0615      -178.1950      -223.8870      -198.0316      -151.8258
      -171.6515      -166.2121      -81.28796      -155.1082      -332.0561
      -290.1035      -59.92693      -39.81946      -148.5563      -123.5869
      -82.33496      -52.93115      -158.4981      -292.9877      -215.6651
      -47.88390       12.40836      -144.3682      -214.9589      -67.34106
      0.9778442      -84.53070      -132.3317      -141.1200      -69.49733
       73.59930       56.40698      -99.64072      -127.8927      -116.2705
      -3.414062       96.64716       67.68142       51.46950      -57.67490
      -101.7885       23.28610       68.75824       88.82906       77.50227
      -6.911446      -9.005066       66.26450       100.0153       104.0669
       27.16909      -52.24390       32.64581       171.4283       78.39544
      -7.386536       70.00574       151.7932       95.26211      -6.769958
       82.24445       195.1808       98.98489       14.78335      0.2026215
       24.97580       71.08350       139.1636       210.8474       145.2687
       3.015625       64.93048       132.4117       72.21249       68.76767
       108.4167       71.71227       42.88707       74.83752       58.58154
      -50.49094       35.43030       154.0940       34.79819      -2.486023
       102.5258       101.4910       52.18752      -34.87729      -20.20593
       20.87601       70.82959       125.9407       76.34912       134.9197
       125.8727      -24.70854       32.93636      -17.81999      -70.85319
       35.82214       9.480423      -10.08109       111.2351       31.07870
      -141.5975      -105.1837      -29.66687      -43.64136      -75.65895
      -57.71208       35.29388      -59.12875      -178.6097      -97.51611
      -93.32123      -231.9997      -141.3005      -77.04089      -245.0618
      -227.1107      -96.61176      -143.9441      -238.2477      -264.1396
      -256.0405      -227.9425      -261.2660      -349.8878      -325.9310
      -340.2015      -350.6420      -222.2061      -163.9408      -284.6130
      -297.6248      -217.9453      -311.4373      -400.6013      -284.4406
      -203.1471      -319.3561      -330.8666      -171.1270      -287.2776
      -368.3992      -276.3764      -265.4913      -215.7169      -179.1544
      -254.6302      -287.4652      -121.8126      -111.2209      -286.3149
      -234.1691      -133.9258      -200.0381      -195.5764      -53.86823
      -53.86270      -124.7875      -81.86850      -43.91637      -83.91541
      -35.44852       15.66714      -65.40683      -60.05707       57.94830
       73.34184      -19.32684      -32.84723       41.27611       79.37129
       53.55813      -7.159607       57.95319       122.1797       82.03345
       198.6021       301.4444       115.9165      -12.66162       135.5871
       243.4563       206.9673       189.4164       216.1726       226.3544
       317.2913       359.8395       237.7877       313.3458       493.7538
       326.6394       189.7037       340.8622       357.6221       287.2235
       281.1705       326.6418       337.8698       242.8203       247.3070
       378.2017       382.2151       251.9963       273.5964       240.8456
       157.7101       370.2227       479.4811       286.4059       258.8473
       389.9137       338.3965       239.8801       310.3376       302.8517
       176.2809       260.9109       375.3007       347.8760       407.0549
       408.8959       266.2074       198.0774       272.1210       345.6797
       357.2783       322.7852       309.7000       365.5126       364.6964
       242.6710       224.1196       308.2434       369.2072       251.7217
       121.5088       228.5117       268.0676       198.6183       177.9399
       128.2216       170.6553       243.2851       250.6088       198.7651
       198.4129       156.4575       176.9629       305.0315       270.0026
       103.3976       15.27103       66.91577       71.96411      -41.64462
       38.77374       122.1025      -23.26820      -25.10870       163.7447
       131.0246      -21.08252      -151.9509      -175.4197      -131.6409
      -112.5631      -112.7748      -102.6583      -125.2529      -122.0293
      -54.98291       32.20245      -96.42639      -323.2830      -310.1369
      -161.1691      -141.1924      -181.5711      -130.5428      -193.6619
      -346.3158      -291.2405      -332.8680      -442.3039      -246.0268
      -96.03674      -211.3013      -295.4263      -352.8251      -395.2378
      -382.7273      -338.0791      -360.3699      -398.9480      -358.6699
      -341.2413      -403.8170      -417.9607      -311.5250      -284.6268
      -340.4675      -324.5742      -335.2693      -297.7124      -331.7803
      -408.6112      -370.2339      -319.4052      -252.5081      -302.0842
      -386.0745      -276.7627      -259.0621      -314.0778      -312.6285
      -326.6807      -298.4808      -303.4874      -416.5042      -397.4637
      -292.0177      -348.1904      -433.5675      -312.5370      -218.6173
      -224.2976      -202.6434      -247.8544      -351.0442      -373.8639
      -289.4216      -273.7821      -329.2213      -217.7929      -132.2488
      -209.7067      -331.7072      -296.5607      -201.6735      -138.9589
      -11.57385      -20.26303      -138.0366      -96.27277      -140.8885
      -237.5687      -151.7062      -135.4334      -162.0197      -100.1172
      -131.1937      -108.6047      -59.64146      -52.37273      0.6548767
       91.09644       50.96649      -110.4184      -65.44824       97.98126
       95.49194       111.0026       65.68304       4.921997       90.25073
       147.0202       153.5353       234.6909       186.4661       92.84113
       157.1467       185.8129       131.5853       220.9075       321.2867
       242.6365       180.6941       309.8446       341.2808       223.0103
       181.8197       245.0321       275.3758       256.0569       287.8607
       301.7014       212.6448       138.8151       171.5397       315.3284
       316.0804       244.4632       241.8323       290.2953       298.1400
       256.3477       309.8270       398.7468       302.6794       204.7451
       202.6069       218.6877       290.1884       330.0763       245.7516
       263.9526       304.8262       230.3065       199.1414       229.3328
       200.3047       184.9208       309.3727       291.3340       53.18771
       101.5911       277.3521       157.7087       26.29681       175.9513
       280.0840       253.0681       294.5834       193.7298      -80.05634
      -160.1346      -22.19336       166.6166       327.6346       319.9791
       88.79675      -183.3469      -264.8104      -25.00171       386.9932
       600.2063       429.5071       165.7458       284.4126       730.3401
       853.4167       521.3877       259.2069       69.05365      -281.4089
      -456.6232      -219.3888       48.30286       152.5527       155.2604
       200.3665       325.0609       223.8747      -101.5197      -9.222900
       640.1768       928.0502       434.8777      -207.2308      -355.9236
      -246.1206      -198.4503      -276.2476      -411.1900      -303.0351
      -79.38684       256.3527       345.6151       156.1671       56.85602
       165.4880       533.7356       454.8286      -63.40192      -220.4315
      -65.30203      -18.00488      -243.1090      -452.3360      -339.7068
      -201.4523      -173.0642      -95.25681      -127.6034      -240.2649
      -344.3144      -148.1887       164.5886      -54.88403      -345.3790
      -333.9730      -306.6671      -355.8538      -358.8272      -91.38809
       208.0144       79.14307      -241.7579      -297.8105      -399.0768
      -545.2256      -486.1555      -517.9683      -580.9199      -372.8778
      -293.0427      -507.6476      -522.0011      -527.5483      -606.7981
      -393.0334      -85.18207      -119.9508      -457.5193      -517.2764
      -559.7823      -500.8538      -100.0564      -198.4774      -624.6211
      -423.7003      -159.6798      -476.5244      -628.6397      -257.8977
      -107.8010      -323.2399      -470.2812      -395.3274      -192.6635
      -210.9445      -293.1373      -82.66845       14.46582      -144.4210
      -97.09262      -15.68860      -370.1993      -442.8363      -130.3331
      -384.3094      -603.5072      -191.1366       71.33317       36.90717
      -66.72601       27.43866       141.0577      -198.0412      -318.4100
      -167.1639      -82.13930       15.49332      -155.0270      -165.4935
      -34.10388      -212.4842      -129.5249       273.4077       289.9933
       156.6175       13.51709      -260.5786      -212.9497       58.83551
       177.1718       282.9419       284.9326       25.71497       84.59784
       345.7585       135.5620      -82.13947      -153.3328      -210.7954
      -178.9368       189.4940       682.3154       363.3582      -130.2245
      -48.29202      -32.92297       68.36560       340.0905       340.2795
       151.3895       219.7449       440.5836       325.2527       285.1779
       611.1852       218.9536      -240.4667       43.50513      -114.3552
      -200.3662       532.7799       696.3296       276.0681       368.0470
       530.4072       334.7991       59.26292      -72.78583       214.5852
       327.0635       240.4536       497.7981       464.7075       23.88130
      -135.9559       169.9221       661.1179       411.8853       54.59717
       372.4197       583.3270       370.9491       351.1307       421.4125
       311.6742       420.7360       328.7875      -18.19051       15.67285
       129.0851       193.4027       92.78491       176.5288       610.9899
       590.0295       201.2025       234.7429       396.2781       327.8893
       162.7380       68.19989       159.3979       449.5554       750.7059
       624.4191       263.1810       240.6297       227.4263       134.7171
      -19.68701      -250.7156      -297.7992      -75.48624       54.31757
       153.5287       326.0238       276.8639       14.96680      -340.3292
      -384.0646       113.8580       277.3595      -28.12070      -99.60944
      -60.61328      -74.40210       274.0692       387.4482      -55.55057
      -186.4136       114.0974       29.28697      -84.62653      -41.67749
      -272.3368      -265.7029      -23.49744      -141.7146      -349.8351
      -198.7146       136.4250      -91.02606      -386.2426       19.42480
       265.3472      -140.7134      -228.6718       29.37445      -195.6046
      -503.3318      -158.2018       150.3255       97.43810      -15.08194
      -15.49861       81.67813      -22.65027      -313.1624      -419.9324
      -273.6997       38.58636       96.71016      -133.7397       80.68164
       329.1953       19.59552      -130.3734      -47.21045      -79.27161
      -221.9857      -159.8278       47.82410      -2.816833      -215.1522
      -240.6416      -121.2565       33.56135       92.39734      -67.26343
      -421.8221      -363.8458      -2.392822      -281.2090      -580.7198
       42.69751       315.9139      -207.9921      -336.1056      -57.57019
      -96.42554      -421.3377      -410.6297      -109.9873      -65.20099
      -231.6726      -380.7496      -349.3090      -387.4370      -337.7711
      -301.8689      -310.2913      -84.27283      -164.6504      -514.6982
      -529.6312      -338.6816      -105.9192       45.96704      -241.2878
      -552.3172      -211.9081      -3.582520      -389.1652      -671.7505
      -377.6961      -27.08588      -213.7030      -394.5359      -142.3817
      -20.73242      -402.9144      -704.1067      -428.0522      -326.5607
      -342.4496       126.6403       153.6692      -280.1994      -185.6288
      -156.9033      -496.3781      -387.4500       90.17346      -97.96417
      -378.1701       197.4654       319.7602      -156.7352      -19.16705
      -80.84552      -306.1777       8.360641       81.88794      -74.55452
      -13.74002       170.3223       170.8404      -93.37781      -69.02637
      -84.64972      -257.5508      -5.539001       216.0631       119.4422
       199.3555       331.2893       262.6982       129.2907       49.91190
       111.3471       81.31195      -60.68050      -12.08972       123.3640
       383.1971       478.0314       191.7095       187.5417       349.9311
       164.5959       61.67883       93.72647       91.06410       84.19836
       49.77527       269.5546       501.8772       477.6030       368.3676
       204.3057       138.9557       71.77874      -31.92972       59.60907
