     0.02500000      -9308.716       6392.073      -12345.00      -12345.00
      -30.00006       215.4999      -16.75000      -12345.00      -12345.00
       0.000000       12.62000      -12345.00      -12345.00      -12345.00
      -12345.00      -12345.00      -12345.00      -12345.00      -12345.00
      -12345.00      -12345.00      -12345.00      -12345.00      -12345.00
      -12345.00      -12345.00      -12345.00      -12345.00      -12345.00
      -12345.00      -31.60370      -68.72130       995.0000       0.000000
      -31.37200      -68.11800       0.000000       97800.00       0.000000
      -12345.00      -12345.00      -12345.00      -12345.00      -12345.00
      -12345.00      -12345.00      -12345.00      -12345.00      -12345.00
       62.81626       245.7028       66.01637      0.5647991      -12345.00
      -12345.00     0.04469568       0.000000       90.00000      -12345.00
      -12345.00      -12345.00      -12345.00      -12345.00      -12345.00
      -12345.00      -12345.00      -12345.00      -12345.00      -12345.00
      2008       244         6        45        22
       150         6    -12345    -12345      9821
    -12345    -12345    -12345    -12345    -12345
         1         7        13    -12345    -12345
    -12345    -12345    -12345    -12345    -12345
    -12345    -12345    -12345    -12345    -12345
    -12345    -12345    -12345    -12345    -12345
         1         1         1         1         1
ZOND    -12345          
        -12345  -12345  
-12345  -12345  -12345  
-12345  -12345  -12345  
-12345  -12345  -12345  
-12345  -12345  -12345  
-12345  -12345  BHN     
ZL      -12345  -12345  
[...]
       151.9222       156.3576       157.5472       165.1037       163.1779
       165.2655       168.8469       172.5776       168.9668       170.3356
       170.0788       178.4624       173.5549       175.0203       172.4514
       170.1002       171.1876       175.8519       172.0684       169.2738
       170.1374       178.9927       177.4143       180.9208       183.7524
       186.4249       187.8916       195.7020       198.5403       197.5646
       199.6406       204.5591       204.5967       212.5653       210.6071
       214.4543       222.9611       226.6379       222.8030       234.5336
       237.8035       243.3839       245.4307       250.8315       254.1656
       263.0221       264.0212       275.2611       278.8883       287.7927
       288.7005       298.0019       302.2474       307.7811       309.3550
       316.3371       315.0470       320.1042       326.0970       331.6071
       330.4564       337.0780       340.9055       342.1191       344.1669
       353.8232       352.2656       351.4069       347.9351       347.5681
       348.1299       349.6018       346.9738       348.8376       347.4248
       345.8174       335.8627       336.7047       335.8053       335.2618
       334.2220       331.7430       321.7554       315.6534       309.3364
       307.4744       304.2233       301.9640       291.5779       283.3993
       280.9437       277.1560       265.1882       257.3776       253.8909
       245.1512       234.5886       225.4981       207.7341       199.6526
       195.1016       181.2199       169.6675       158.4748       147.9238
       133.6857       116.9238       103.5906       89.00827       73.31677
       60.62553       45.67014       28.18590       10.15521      -7.782394
      -18.39288      -31.94499      -50.19751      -66.22025      -78.00681
      -94.67316      -111.0599      -129.3730      -138.7411      -154.4129
      -167.6797      -183.1005      -197.6258      -209.2145      -216.1907
      -237.9321      -249.3427      -271.8354      -284.2867      -295.1974
      -306.8495      -319.6704      -332.0591      -356.1290      -368.8635
      -385.0863      -394.7704      -407.4709      -417.5083      -436.6027
      -446.3882      -457.5099      -473.7203      -492.5332      -498.4250
      -509.8591      -520.6322      -530.4540      -537.9705      -552.5273
      -558.7699      -565.4667      -569.0067      -581.4618      -589.1580
      -594.2529      -594.6836      -597.9480      -601.3174      -609.4780
      -614.1521      -621.9078      -623.0416      -622.2676      -624.2382
      -629.3394      -622.7742      -624.0828      -623.5505      -624.0970
      -622.9387      -623.0168      -617.5295      -617.6248      -610.5347
      -611.7666      -603.4348      -597.5576      -591.8770      -584.3896
      -578.2007      -573.1790      -559.9463      -562.7136      -549.7139
      -535.1553      -527.5713      -524.4307      -508.9254      -501.4456
      -489.3752      -477.6279      -463.6691      -454.4172      -434.9723
      -427.4419      -415.1147      -400.4438      -383.7131      -379.6837
      -362.1019      -348.2389      -337.3813      -326.6350      -312.8712
      -301.8192      -285.3887      -273.3285      -254.2814      -244.6220
      -228.6323      -213.7284      -201.1258      -186.8483      -169.4531
      -156.9773      -138.7899      -130.6736      -115.8865      -100.4856
      -90.29718      -77.77466      -59.94353      -44.79830      -28.69254
      -15.68752      -8.702381       8.482246       20.16470       29.99004
       47.12180       64.38269       80.40771       90.08929       96.86993
       112.3087       120.0890       129.7927       147.5283       162.0525
       169.6020       179.0868       187.2242       202.9047       215.4648
       228.0808       237.6265       250.4880       262.4083       270.5025
       277.9741       291.8424       299.0391       310.0451       321.8478
       333.4723       340.2631       350.9514       364.9376       379.8645
       388.2445       400.9645       413.5148       426.1265       435.7494
       450.2410       463.0364       472.9789       481.5239       496.2639
       509.0552       519.7676       532.5063       540.4093       551.9797
       563.1777       574.4404       585.0149       592.0547       601.4895
       609.8464       614.6619       622.8738       625.9016       631.2246
       637.0132       646.1519       654.0410       653.8043       656.5674
       658.5585       659.1213       662.1447       667.2822       667.1207
       667.7114       666.2802       661.5371       664.1650       664.5291
       660.2683       658.2112       650.9614       646.6213       639.9226
       633.6997       636.3201       632.2297       622.5117       612.7628
       606.2146       599.1846       586.9401       579.2920       568.5704
       550.0300       534.6676       532.9380       524.7308       508.4600
       516.9872       617.3474       764.5637       631.7897       347.5920
       161.9182       115.9910       694.9628       916.9023      -12.27148
      -671.1530      -310.7119       921.7065       1316.782       183.6677
      -488.7907      -444.7742       159.4014       1248.255       1246.690
       417.1235      -622.3242      -2066.725      -848.8232       2308.656
       1474.794      -1054.604       3.425842       885.3086      -982.1144
      -1187.720       478.7615       914.7650       309.4824      -971.2607
      -1628.037       197.6536       1402.776      -110.2449      -852.0098
      -497.7402      -1010.261      -821.6204       198.0359       151.9816
      -107.7573      -156.3774      -950.7249      -1014.532      -348.6333
      -397.5289      -625.2081      -487.9395      -379.3580      -782.8237
      -38.97241       572.5613      -573.2092      -872.5658      -386.4438
      -1004.668      -1059.674      -139.3418      -852.4692      -1364.193
      -135.6784       138.2656      -564.4434      -969.4694      -500.7533
       517.1904      -158.6416      -1991.854      -2316.583      -746.4800
       477.0554       177.8440      -636.1663      -753.8872      -739.7307
      -1304.423      -450.4518       717.4557      -497.8101      -1524.834
      -677.5581      -632.4790      -624.9615       48.12317      -363.2639
      -628.0867      -776.4243      -1365.086      -614.8544       514.2472
       54.10254      -1066.888      -1245.905      -508.8522       110.4364
     -0.1351318      -367.6169      -413.1090      -362.9773      -545.6650
      -931.0782      -623.7894      -58.73901      -130.3453       73.89648
      -260.9624      -1132.473      -516.1436       365.7111       44.39343
      -517.2573      -411.2004      -490.3507      -792.2098      -71.91245
       190.4210      -296.1144       37.16382       411.6915      -185.7130
      -582.0874      -643.2751      -571.2146      -283.2877      -293.2961
       91.03906       638.8654       62.73828      -707.6526      -96.10059
       308.3673      -149.5831      -462.4482      -758.2986      -672.0835
      -29.89526       483.7404       585.4252       11.03809      -797.3785
      -425.6801       18.33804       19.12048       404.4144       299.4201
       150.0060      -20.62305      -923.0972      -500.3936       914.2390
       539.0095      -83.86694       170.2362       50.72687      -386.1308
      -192.8438       373.3802       347.8194       233.1386       134.6303
      -6.617584       78.01105       11.18628      -298.0589      -155.5560
       360.4637       124.3513       198.2496       693.3478       57.81595
      -173.8002       573.2603       562.7440      -195.3655      -472.1105
       122.4192       488.3476       354.4354       55.34729       74.18115
       551.8495       566.4097       301.6497       161.8620       255.6084
       123.3407      -23.96240      -78.06723      -252.4944       449.0862
       1019.870       482.1447       223.9763       459.0200      -10.26306
      -285.9307       640.8341       852.2151       248.2443       424.3170
       300.0508      -328.9528       138.9751       1084.671       851.5118
       137.4377       112.7229       514.5052       593.3260       423.7965
       178.0296       56.23975       352.1270       432.4946       769.8655
       799.2444       330.2103       314.7464       79.99005      -23.18103
       546.3152       889.2273       510.5112       242.6256       335.8962
       625.7920       645.6290       229.8866       189.6077       692.8303
       878.2012       172.1703       73.19922       774.0153       614.9425
       133.6042       172.2271       26.97064       69.15527       789.4393
       744.6260       163.3762       220.5464       308.0923       587.5770
       737.3105       71.27859       11.01361       325.3215       17.59009
      -176.5739       100.9277       932.7366       1051.279       17.77478
      -432.5108       95.11145       436.1759       560.3857       420.1211
      -525.7670      -535.2440       280.7093       395.7304       63.32172
      -234.9082      -241.3416       480.7770       873.6036      -10.09814
      -606.0352      -347.3818       39.06631       156.4371       25.91272
      -279.0882      -156.9522       420.7040       60.93353      -303.3988
      -238.5828      -103.0300       374.4998       489.6183      -248.4344
      -587.4641       58.61130       222.3001      -20.21698      -184.0384
      -134.3014       6.328491      -267.6345      -641.8391      -293.2002
       384.3076       102.9575      -295.8499      -447.6266      -328.6034
       447.1841       506.4774       83.46503      -60.32849      -780.0176
      -459.8162       471.5853       186.1726      -574.7753      -564.4199
       504.1597       470.9146      -640.9180      -784.6052       118.9056
       639.6983     -0.7570801      -1022.788      -683.9629       696.3553
       672.4249      -195.3518      -475.9745      -642.5581      -544.7756
       256.4823       474.8457       235.9534       288.1081       253.0737
      -549.1914      -1122.663      -391.6821       361.3748       813.2878
       616.6265      -715.7327      -1246.256      -240.4850       391.3351
       207.0200       171.0788       57.78210      -62.30249      -129.0043
      -54.09302      -352.2720      -435.8868       389.3138       120.5125
      -900.9436      -494.1335       152.0507       49.06760      -191.6989
       98.20020       438.1533      -85.78015      -492.5206      -382.1490
      -26.70740      -433.0209      -724.9466      -236.6996      -69.91187
       145.5500       196.3018      -110.5416      -604.1465      -743.1276
      -393.5520      -257.8311      -299.1264      -108.2971      -281.7957
      -272.6329       34.03974       51.58472      -133.8038      -535.1622
      -448.3245      -290.6217      -417.4631      -619.0066      -231.4444
       144.7926      -238.3459      -75.41492      -216.0916      -666.3049
      -610.7532      -260.3085      -152.9418      -328.0949      -51.43237
      -127.2533      -396.1166      -69.71741      -323.2010      -561.1509
      -128.9110      -175.2676      -374.2234      -23.73419      -109.6011
      -609.5510      -55.38721       223.4873      -410.9711      -216.6575
       155.0054      -271.5021      -447.7715       32.21931       110.6906
      -135.1859      -235.6882      -224.1639      -61.89086      0.5567627
       4.226746      -256.9538      -215.1923       354.7895       41.24472
      -205.2699       292.0951      -178.0812      -497.3500       274.0349
       523.7615       316.5386      -323.2205      -644.8000       353.4392
       819.7961       100.9473       75.04327       302.4169      -229.2404
      -271.0000       129.5005       272.7876       413.7864       80.65305
      -200.5522       26.05234       76.65445       59.68555       382.6475
       414.0487      -173.6945      -306.7442       31.62488       152.4725
       218.7722       568.9585       480.7036      -135.7886      -199.7019
       252.0164       251.4192       162.3835       325.4343      -151.0034
      -677.2820      -481.5111       241.2178       683.3864       327.3591
      -340.8343      -551.6721       230.3218       1524.238       1047.149
      -770.3992      -887.9572       20.00519      -147.5611      -287.2454
       71.24626      -73.88647       199.9398       574.5151      -167.2029
      -707.7448       68.89648       805.2281       739.2445       435.9731
      -643.4983      -1237.135       110.8130       1233.691       515.2290
      -543.3143       10.62305       966.0038       733.3086      -635.5215
      -1520.369       274.9546       2116.794       992.2524      -1731.847
      -1882.454       125.4092       1635.072       3976.836       6368.750
       6392.073       721.4219      -7738.881      -9308.716      -4037.907
       666.0640       2073.604       1839.804       965.4713       87.61035
      -1230.653      -2990.406      -1442.516       2103.331       2459.083
       1195.862       673.6292       773.4298       946.4871      -1245.215
      -2018.310       1730.938       2464.859      -1377.021      -2148.178
       2228.518       4199.566      -635.3691      -4996.216      -2390.244
       1948.028       336.2209      -2185.735       677.8794       2343.349
      0.6406250      -1995.010      -1828.002      -35.39502       664.8297
      -159.3556      -275.3047       778.9907       1755.796       1756.910
       1054.665       218.4114      -1064.560      -1638.253      -673.6809
      -388.0044       1411.764       2487.239      -313.6893      -849.9397
       1219.887       1067.670      -1153.871      -1039.508       717.6871
       339.7381      -286.7383       380.0836       451.8167      -623.5803
      -670.2954       733.2783       1257.696       1472.546       1217.060
      -1163.175      -2397.377      -797.6699       295.7461       576.8877
       1866.100       1137.048      -1117.230      -1001.933       409.9939
       1048.604       951.1797       1816.853       2552.187       1233.970
      -474.0688      -1580.829      -2125.188      -1329.159       27.56616
       1001.369       683.3882      -989.9418      -931.8428       998.4038
       1655.294       1294.084       1490.205       595.0708      -1417.978
      -1367.544      -765.2861      -1455.765      -309.3032       1526.019
       948.4106      -585.4028      -1329.319      -984.4897       70.64307
       847.8340       695.7966       807.8072       452.5278      -806.0858
      -231.0757       1160.944       1099.037      -356.9873      -1752.260
      -1181.625       612.6416       1218.662       136.2637      -1356.067
      -1659.677      -61.29639       1581.823       1200.215      -264.7339
      -1169.721      -1120.938       232.8721       1987.847       1646.871
      -474.6526      -1344.168      -1188.593      -1148.472      -175.8045
       244.5532      -252.2318      -229.8413      -348.1210      -168.9419
      -386.5493      -1165.968      -1064.782       712.3652       2057.527
       833.4246      -639.4087      -1474.749      -1506.976      -388.1716
       156.6469      -47.54126      -369.8521      -1534.302      -1502.273
       101.8097      -74.97974      -921.5461      -282.5579       959.9990
       1613.201       897.0454      -977.8027      -2622.661      -2401.988
      -94.22510       1884.075       1347.210      -1256.925      -3119.302
      -1832.504       577.7319       1178.558       154.3362      -786.6606
      -1187.963      -1337.643      -602.4139       343.0636       509.3328
       117.3112      -394.1440      -367.1704      -235.7756      -615.5280
      -624.8164      -393.9110      -465.8470      -434.2024      -116.3295
      -134.2892      -276.0240      -240.0814      -525.0786      -628.4836
      -350.9258      -179.6549      -24.74808       24.17273      -391.6626
      -1041.542      -900.7138      -119.9070       55.19730      -24.77429
       297.2152       362.2465      -179.1865      -131.7695       282.9427
      -11.42975       16.54288       252.9671      -145.4832       103.8999
       746.0264       109.9015      -427.4781      -148.3362      -157.5413
       455.2402       1050.395       209.8048      -654.9314      -124.4529
       982.8564       1051.164       375.6299      -600.8218      -1047.387
       195.1631       1730.700       1209.298       73.44171       271.7545
       306.2138       3.642746       7.535095       105.8149       77.46045
      -968.4395      -1430.248       787.0479       3085.932       2438.281
       1131.470       609.8984      -621.9868      -1541.232      -1034.276
      -36.61694       423.0366       779.6680       1247.218       854.5006
       130.9658       734.2397       1687.678       648.7305      -670.7003
      -703.9280      -145.5601       837.4446       1062.661       476.8354
       413.4546       819.0742       494.0175      -48.48877       984.2756
       1372.785      -182.3138      -727.7854       433.5415       1017.875
       381.1610      -103.2833      -295.4193      -578.9471      -136.5647
       812.3589       900.7251       495.9704       189.6765      -504.9487
      -957.7852      -780.4729      -177.1730       328.6839       196.3588
       295.8521       935.1611       1273.608       1158.666       465.8484
      -371.9453      -416.8704      -72.16620      -78.75836       113.1986
       237.5217      -282.1188      -555.6608      -145.6849       559.6130
       797.9141       304.2881      -384.4661      -856.1319      -329.9821
       762.0194       501.2144      -553.0317      -534.3171       62.76257
       247.6372       684.0981       1058.149       575.3109      -269.0381
      -996.2705      -1029.457      -588.6534      -233.4235      -207.3346
      -186.4567       364.7878       988.6255       872.9656       370.3309
      -74.23291      -368.7744      -254.6827       126.1730       361.8171
       531.0064       339.9353      -354.9862      -483.6879      -196.1138
      -567.2815      -1029.099      -347.7767       523.9413       104.7982
      -513.2371      -366.5435       629.6189       1557.171       743.1941
      -450.2234      -222.8479       359.2477       379.8788       299.7882
      -69.30591      -780.5483      -890.6216      -360.1284       279.2250
