     0.02500000      -3739.419       6057.451      -12345.00      -12345.00
      -30.00006       215.4999      -16.75000      -12345.00      -12345.00
       0.000000       12.62000      -12345.00      -12345.00      -12345.00
      -12345.00      -12345.00      -12345.00      -12345.00      -12345.00
      -12345.00      -12345.00      -12345.00      -12345.00      -12345.00
      -12345.00      -12345.00      -12345.00      -12345.00      -12345.00
      -12345.00      -31.60370      -68.72130       995.0000       0.000000
      -31.37200      -68.11800       0.000000       97800.00       0.000000
      -12345.00      -12345.00      -12345.00      -12345.00      -12345.00
      -12345.00      -12345.00      -12345.00      -12345.00      -12345.00
       62.81626       245.7028       66.01637      0.5647991      -12345.00
      -12345.00     0.01927903       90.00000       90.00000      -12345.00
      -12345.00      -12345.00      -12345.00      -12345.00      -12345.00
      -12345.00      -12345.00      -12345.00      -12345.00      -12345.00
      2008       244         6        45        22
       150         6    -12345    -12345      9821
    -12345    -12345    -12345    -12345    -12345
         1         7        13    -12345    -12345
    -12345    -12345    -12345    -12345    -12345
    -12345    -12345    -12345    -12345    -12345
    -12345    -12345    -12345    -12345    -12345
         1         1         1         1         1
ZOND    -12345          
        -12345  -12345  
-12345  -12345  -12345  
-12345  -12345  -12345  
-12345  -12345  -12345  
-12345  -12345  -12345  
-12345  -12345  BHE     
ZL      -12345  -12345  
[...]
      -251.6247      -250.4746      -250.8264      -256.6962      -255.1157
      -248.9845      -247.0002      -244.9180      -233.6740      -230.0355
      -229.0904      -226.1028      -220.2151      -215.6524      -210.1958
      -208.8972      -205.7974      -199.1340      -186.0154      -179.7949
      -175.2608      -172.6440      -164.9193      -165.1939      -155.7834
      -147.6427      -151.2413      -145.9200      -133.0019      -129.1588
      -121.2036      -111.6260      -103.7923      -99.47174      -91.64078
      -84.40277      -75.51355      -69.94707      -55.34045      -46.98324
      -40.27132      -28.80827      -16.15663      -7.350956       5.902176
       15.92043       26.99176       34.89075       44.33246       53.54361
       70.00696       78.13086       84.35489       90.26437       102.9727
       110.2162       117.9804       127.2050       132.6748       133.2958
       142.3033       148.4173       151.0725       154.3479       160.5214
       165.7255       173.0375       171.3546       173.9226       176.2091
       175.4358       177.2463       185.0142       182.6558       182.6472
       186.3154       187.0928       186.8195       189.9159       183.5211
       181.0328       180.9420       185.0641       186.6535       187.3060
       179.3821       178.0745       174.5504       174.7914       173.4171
       169.1637       159.0252       157.6356       152.9921       150.2247
       144.1038       142.6505       136.6711       133.7971       123.1658
       116.3536       109.6649       102.7183       92.49496       91.80869
       82.39728       76.86499       68.05670       64.61436       53.78255
       48.94757       42.15439       42.07043       34.19008       29.29113
       17.76258       15.29522       14.38003       12.69170       5.369525
      0.5253143      -6.012230      -7.734566      -16.74832      -20.13846
      -26.14560      -31.19121      -33.95682      -37.44009      -52.16551
      -51.49631      -50.17285      -46.15512      -50.76036      -55.74484
      -62.80371      -60.42209      -56.60948      -48.37631      -50.36664
      -43.19348      -47.69553      -44.55508      -41.27919      -32.95389
      -32.74722      -23.93285      -23.60160      -17.24756      -15.64761
      -6.245340      -2.486160       3.832397      0.6973000       8.335812
       14.89032       20.36028       19.72215       27.67955       36.37256
       39.79427       39.45575       47.06467       51.02505       56.98703
       68.18321       69.71735       66.02478       67.26416       75.94768
       83.78516       87.16772       92.57544       95.77792       99.31680
       103.0998       102.5042       106.9215       112.8854       113.6125
       115.3182       118.6542       124.4950       125.8793       126.7447
       126.9432       127.9460       125.0656       128.7018       126.1832
       126.9952       124.4619       124.1457       121.2366       121.9437
       119.3472       124.5976       120.8676       114.6108       110.9595
       109.5325       106.0372       102.4294       95.45438       90.77130
       87.40256       81.91953       75.99272       69.88528       69.31912
       61.47688       51.58920       44.61787       38.00648       30.61995
       25.61592       14.45681       10.10810       1.116386      -11.79272
      -19.25967      -24.88922      -36.16727      -43.61014      -55.70416
      -67.35794      -73.35913      -83.38129      -94.38110      -100.2540
      -107.2498      -113.4792      -124.6385      -135.4894      -144.1448
      -149.6384      -158.5737      -169.3438      -175.1204      -181.2271
      -189.1498      -190.9868      -200.2407      -212.5767      -221.5975
      -227.9501      -231.7897      -235.6870      -247.1707      -250.6517
      -254.2930      -258.9353      -261.3066      -262.3986      -266.4730
      -268.7802      -271.9600      -274.5898      -279.9742      -280.5098
      -278.4086      -280.7737      -285.3991      -286.8533      -285.0894
      -282.7418      -284.7883      -282.6605      -282.7056      -282.4492
      -276.8712      -275.7362      -273.2637      -265.5853      -263.1544
      -267.9861      -264.5042      -257.7379      -253.4713      -252.2676
      -246.0686      -240.8187      -233.6974      -228.0013      -222.0680
      -217.1599      -210.9719      -207.7306      -200.9053      -197.7164
      -189.2715      -185.6404      -183.6398      -178.3193      -171.3980
      -168.9733      -159.9050      -153.8395      -152.1413      -147.1247
      -143.0935      -139.9074      -132.3520      -125.1452      -119.7613
      -113.7379      -109.8508      -101.1353      -95.29593      -86.43661
      -82.39664      -78.90784      -73.85378      -62.93759      -56.90572
      -51.20710      -45.51528      -35.87338      -32.06781      -20.64193
      -10.37111      -1.926930      0.4002228       10.45679       30.15552
       131.5212       426.7566       740.3832       702.2723       370.9977
      -153.8365      -79.98926       915.8188       767.3877      -1020.575
      -2510.695      -2105.157       237.0632       1444.284       1153.133
       973.4016       172.3098      -521.8171      -624.3804       336.6504
       1758.178       944.4927      -653.4595      -1210.280      -530.7314
       803.5889       1031.058       1482.202       1667.497      -25.74341
      -987.1793      -264.0196       25.14844      -157.9973       1007.933
       1872.131       425.7676      -1431.182      -197.4580       2316.111
       1253.967      -582.5737      -428.9149      -493.3849      -426.5021
       72.91577       6.693237       377.7720       1108.742       632.9473
       332.3618       846.7900       191.7256      -314.3455       614.1566
       160.9854      -920.9451       273.1760       1232.861       591.5999
       205.3918       32.33939      -267.5115       215.1963       822.1406
       111.4021       168.9972       517.1437       129.2104       40.19836
       8.596924       634.3643       1210.956       654.0962      -458.8503
      -1188.734      -418.8058       493.6390       97.01355       87.17761
       438.1494      -329.6373      -542.0195       671.7905       1195.451
       27.28857      -607.4966      -212.6588       139.1974       415.9313
      -65.11816      -477.3937      -167.2180       21.73486       309.9471
       439.8792       195.2126      -245.6279      -619.8001      -154.0948
       519.1815       153.8893      -346.9071      -43.72504       291.5089
      -104.6047      -774.4642      -422.4069       336.6221       59.97131
      -59.50073      -193.0243      -719.1403      -590.7137      -165.8301
      -180.9512      -481.3901      -238.5389       274.1638      -261.0190
      -800.0132      -145.7092       159.7855      -195.1578      -445.5053
      -293.8593       95.85767      -430.8839      -500.0088       100.6167
      -147.2808      -694.0757      -898.5828      -264.5859       462.6993
       432.1107       255.4907      -145.6351      -448.9500      -373.7051
      -460.3077      -358.3609      -118.8143      -160.2386      -156.7476
      -263.2480      -474.6061      -281.7093       176.4866      -55.51624
      -508.7820      -79.63367       423.0906       242.7846      -209.0864
      -330.5677      -381.7970      -489.6888      -79.46771       275.8535
      -18.37689      -360.9420      -185.8970       75.13279       25.99414
      -144.3675      -62.45679       212.2444       436.7826       357.8158
       65.51457       16.87013      -14.36913      -105.9646       58.14436
       69.62259      -198.8504       31.22607       621.9166       360.9887
       57.70483       342.9404       143.0970       37.27567       44.73529
      -152.3990      -91.47855      -134.5189      -3.141296       282.7027
       346.0409      -114.1549      -180.3042       588.3926       440.0885
      -221.9122       109.5106       401.7325      -63.13899      -140.7800
       223.6199       132.8263      -354.5507      -405.0979       129.0201
       254.4531       7.301208       95.84137       207.5289       277.8035
       292.5569      -94.74371      -222.3028      -131.1101      -47.01733
       356.2070       483.7551       83.97546      -170.7404      -254.3444
      -320.0540      -85.83380       141.3459       95.99634      -38.32727
      -252.6832      -351.9685       89.36578       319.0190       11.98459
      -165.4416       71.71600       371.9388       99.60223       26.55762
       28.26581      -284.7015      -101.1905       225.7682       254.3566
       291.2540      -162.0848      -431.1011       156.9765       127.9972
      -127.9132       118.8849       262.2396       124.3428       28.33760
      -80.77444      -89.06409       220.0122       167.2173       41.11499
      -142.5223      -345.1654       243.3599       809.7812       749.1519
       320.1610      -81.13763      -304.7291      -133.8403       138.7590
       68.83008       398.9683       530.8683      -116.0989      -344.6676
      -123.2988       78.83331       187.7421       202.6448       513.1077
       585.4722      -252.5792      -553.7509       179.2837       206.8844
      -100.1210       110.1736       35.01926       29.55872       387.1710
       162.7828      -208.2640       197.6475       614.0481       246.6572
      -334.8528      -337.0476      -417.5293      -613.7842       120.9435
       385.4740      -113.4633      -198.2701      -211.7671       67.12814
       63.00491      -114.4025       55.59814       51.72748      -97.54761
      -570.0869      -768.5717      -47.71204       430.4680       70.88672
      -311.4724      -287.9084      -4.089600      -262.5151      -502.9640
      -191.4667      -181.6257       176.6876       350.0022       16.93753
      -30.85901      -256.4261      -394.8433      -70.79144      -198.5950
      -297.6432      -38.16943      -393.8792      -441.3411       35.77063
      -299.1192      -432.8724      -10.86670       335.4071       319.2062
      -471.6296      -1012.798      -622.5558      -64.59998       51.23247
      -127.3565       16.01631       90.87497      -131.9451      -26.13617
      -206.3080      -463.5544      -348.6467      -676.7833      -24.45886
       624.1434      -142.6748      -628.0135      -545.6306       24.14059
       185.3414      -412.6617      -219.5119       316.0145       255.4205
      -301.3572      -635.4313      -648.3334      -378.2877       398.7954
       417.0688      -406.2151      -789.3965      -415.5267       163.3958
      -47.19119      -176.4058       104.6890      -232.8394      -107.8596
       396.8199      -148.2285      -449.8764      -24.47296       12.50244
      -457.8051      -385.1122       457.8762       579.4969       131.3677
      -91.47388      -292.5256      -353.6085       115.4204       587.9808
       77.74066      -197.4946       275.9168       286.5764      -261.8107
      -555.3077      -145.5708       749.8452       1052.642       328.8092
       101.1551       24.51654      -78.27661       640.7500       482.6078
       102.8040       259.1120       103.6963       367.4581       362.7943
       90.65247       537.6628       584.7074       447.5891       501.2473
       128.6880       337.4434       776.0388       313.6101       83.30347
       432.4644       567.9785       461.1294       679.0803       899.6130
       416.1603      -8.678040       92.82446       255.6998       570.4761
       558.1441       156.0472       24.11902       230.4645       314.0261
       476.5002       903.4504       565.3383       74.08826       474.0508
       418.6872       71.64658       60.47412       197.1414       878.4681
       883.4128      -32.30281      -141.7493       145.9990      -9.066162
       42.49390       208.0704       119.9200       175.2717       259.8687
       32.81848       189.8234       493.0402       187.3766       84.06630
       132.5310      -42.41956       54.04871       201.3027       255.8904
       398.5212       116.9432      -399.4138      -229.7139       112.4365
      -377.1665      -606.5184      -176.1567      -4.026794      -275.1282
      -80.97238       248.7466      -99.33124       111.3665       403.6677
      -157.4246      -299.7888      -478.8201      -1217.059      -689.6359
       456.3339       147.7223      -581.9587      -68.06750       737.9163
     0.05761719      -1384.862      -1113.667       543.7235       746.3647
      -489.2400      -1115.631      -687.8120       280.9370       870.0898
       506.2985      -107.3405       122.7158      -222.4150      -1694.457
      -1482.367      -502.9917      -648.9824      -1179.662      -1748.773
      -2077.150      -2406.097      -2174.391      -2239.869      -2310.849
       1720.270       6057.451       5417.033       2776.866       1314.843
       1176.630       276.1230      -1801.381      -1572.007       560.1962
       705.4673      -972.5527      -1406.366      -859.9844      -2865.264
      -3739.419       941.4189       4420.188       1667.899      -2370.725
      -2493.479      -1564.868      -732.4448       1155.413       1539.865
       240.3584      -157.3660       1219.267       369.3174      -2931.186
      -3477.005      -368.0640       1860.420       221.4189      -2318.520
      -2716.403      -158.6597       2597.801       1918.681      -792.3638
      -1473.761       526.0830       2148.396       1190.188      -1831.000
      -3195.271      -1586.076       72.18115       830.0928       1878.675
       794.1533      -1917.189      -346.1387       2812.463       1170.131
      -2486.277      -1814.853       1519.844       2264.001       291.7734
      -1523.561      -1852.907      -1367.947       112.8760       1237.347
       892.9617       965.5332       1018.304      -966.7925      -2420.786
      -182.7419       1164.744      -662.6326      -1257.940      -407.1555
      -4.688110       216.5717       646.6904       223.3897      -605.1697
       267.4046       337.0273      -1538.371      -1284.540       585.9448
       1090.597       568.4538       88.58679       209.0325       1001.512
       675.6334      -726.6343      -261.4261       771.5917      -16.31012
      -488.5483       134.3984      -632.0443      -726.9893       1644.162
       2530.961       1298.662       184.8519       189.3701       660.2721
       312.8824       66.63538      -173.8000      -852.0862      -692.0900
       234.5073       813.5201       555.6599      -68.24780       335.0181
       1401.639       1301.148       131.5194      -285.9091      -105.7356
      -535.4294      -326.6956       442.4729       100.1825      -141.1484
       802.6963       913.9114       60.34393      -23.72021       633.7412
       673.6478      -217.5463      -678.4231      -293.5063       735.2520
       1489.536       744.8008      -132.7478      -121.4517       276.4531
       556.2764       700.1102       452.4333      -379.2118      -343.5806
       769.9116       1318.390       549.7129      -950.3940      -1811.335
      -838.2756       760.9319       862.0150       470.2607       528.0745
       193.6105       139.6438       873.7979       915.0106       189.8547
      -490.3876      -426.2408       555.1844       754.3148       92.45190
      -458.0986      -896.5166       207.0137       2117.378       1707.500
      -177.2394      -620.6808      -336.8737      -235.0020       513.0913
       554.7402      -930.2585      -1753.867      -347.5264       1007.465
       614.6601       23.05493      -703.3983      -959.4299      -91.19800
       258.3415       13.28552      -173.2923      -65.69489       317.3039
       168.0163      -75.65222       205.7256       770.0947       567.1665
      -751.5781      -1754.860      -682.6282       1110.911       596.6874
      -503.7784       13.71310       275.5247      -508.4683      -1191.971
      -902.4778       290.1765       884.2037       394.2425       19.44312
      -343.9081      -439.4279       277.0175       291.6779      -262.6947
      -274.2871      -339.3318      -125.9290       229.2851       152.2947
      -517.2239      -1391.526      -1180.602      -433.2002       16.94324
       522.1974       440.0386      -146.5120      -437.5308      -518.2373
      -568.4268      -359.9661      -499.8660      -1074.164      -621.4382
       237.8824      -41.81763      -344.3691      -318.6218      -487.1245
      -559.2639      -1137.481      -1523.121      -500.5466       637.5497
       793.3398       339.0293      -225.8689      -908.6477      -1118.468
      -581.1409      -544.3673      -585.8337       220.8689       741.5220
       925.4408       698.2038      -52.24072      -527.8885      -409.3323
      -388.6685      -887.0581      -984.4700      -236.1784       313.4124
      -117.6826      -900.8867      -1157.625      -460.3694       751.3054
       949.1095       98.36792      -406.2356      -285.6514      -390.7532
      -505.1767      -149.1978       15.21484      -439.3911      -686.2339
      -608.1430      -396.4896      -61.90485      -119.7920      -17.68140
       279.6603       82.81854       110.4878       528.0082       525.5002
       66.43726      -555.0879      -807.7800      -703.9902      -330.5586
       381.8882       663.3071       715.2493       677.4855       431.4883
       49.24707      -390.0640      -133.5618       559.1749       651.6019
       252.4937       623.8816       1021.242       19.89905      -786.0873
      -116.3777       778.1641       335.8403      -781.6509      -1039.847
      -185.0596       839.3801       763.2018       141.0886      -326.0526
      -321.5002       279.0687       371.3054       142.8440       320.5818
       775.1021       1018.165       885.8342       780.6937       552.3031
       248.6512       95.27875      -339.5210      -167.1075       522.2628
       340.8245       106.0397       459.8325       411.8351      -118.1913
      -176.2822       94.21482      -84.47766       97.85107       1229.716
       1414.564       245.6770      -211.6893       89.02374       115.6568
       83.35950       373.5333       462.1234      -159.3161      -58.08081
       1039.392       1294.115       225.9017      -522.2016      -46.96265
       635.7163       866.5577       666.9321       241.6178      -48.62410
