     0.02500000      -5257.819       4850.233      -12345.00      -12345.00
      -30.00006       215.4999      -16.75000      -12345.00      -12345.00
       0.000000       12.62000      -12345.00      -12345.00      -12345.00
      -12345.00      -12345.00      -12345.00      -12345.00      -12345.00
      -12345.00      -12345.00      -12345.00      -12345.00      -12345.00
      -12345.00      -12345.00      -12345.00      -12345.00      -12345.00
      -12345.00      -31.60370      -68.72130       995.0000       0.000000
      -31.37200      -68.11800       0.000000       97800.00       0.000000
      -12345.00      -12345.00      -12345.00      -12345.00      -12345.00
      -12345.00      -12345.00      -12345.00      -12345.00      -12345.00
       62.81626       245.7028       66.01637      0.5647991      -12345.00
      -12345.00    -0.01888688       0.000000       0.000000      -12345.00
      -12345.00      -12345.00      -12345.00      -12345.00      -12345.00
      -12345.00      -12345.00      -12345.00      -12345.00      -12345.00
      2008       244         6        45        22
       150         6    -12345    -12345      9821
    -12345    -12345    -12345    -12345    -12345
         1         7        13    -12345    -12345
    -12345    -12345    -12345    -12345    -12345
    -12345    -12345    -12345    -12345    -12345
    -12345    -12345    -12345    -12345    -12345
         1         1         1         1         1
ZOND    -12345          
        -12345  -12345  
-12345  -12345  -12345  
-12345  -12345  -12345  
-12345  -12345  -12345  
-12345  -12345  -12345  
-12345  -12345  BHZ     
ZL      -12345  -12345  
[...]
      -272.8163      -281.8980      -287.1718      -292.6451      -292.5732
      -293.2336      -295.3168      -303.7946      -298.8237      -295.2306
      -300.1204      -301.7251      -295.4728      -299.9383      -296.7284
      -287.8060      -292.6364      -297.0013      -283.4199      -275.8145
      -273.5084      -272.1505      -264.7693      -261.6940      -256.7099
      -256.5187      -248.5598      -243.7083      -240.7242      -238.7634
      -228.6749      -222.5332      -217.2053      -213.6979      -208.1539
      -203.5226      -195.6284      -186.8297      -183.3614      -180.2956
      -170.5141      -164.6923      -163.2368      -157.8110      -146.3808
      -141.5877      -135.8784      -132.4631      -128.9047      -133.2633
      -127.5203      -123.2005      -118.9832      -115.9422      -104.0967
      -101.1334      -94.35684      -94.70221      -90.97644      -85.39938
      -75.37563      -76.43219      -68.05598      -63.25365      -59.04825
      -54.38997      -41.75731      -38.75273      -34.61308      -30.81143
      -28.34675      -26.54488      -15.27560      -12.95845     -0.4420738
       4.996426       5.835125       8.313808       15.77018       14.76858
       18.26796       22.25540       28.42093       31.65019       31.70950
       30.55277       38.13904       41.26074       48.87430       48.57210
       44.63463       40.37589       40.72574       40.91035       48.28741
       45.84543       48.60619       51.79294       54.48921       54.44690
       58.82144       55.85510       56.50906       57.79224       59.48094
       54.44444       57.67407       62.98114       67.61348       63.39548
       66.40852       67.19250       73.34155       70.62589       73.37018
       73.84488       75.96045       75.72392       81.23438       75.82434
       79.79088       81.57065       88.90106       86.94090       85.05286
       79.89366       82.48621       77.89789       87.38092       84.76334
       82.56596       81.08521       86.77484       85.63904       89.02051
       82.52252       85.91267       83.84708       84.20035       80.40930
       89.62552       89.57077       92.87924       91.97589       99.59857
       98.19598       101.7617       102.0425       108.5036       108.7586
       113.5232       114.1781       122.2149       125.9835       132.8079
       135.1199       144.5424       140.1640       140.0595       147.5612
       159.6642       160.3311       167.7966       170.4467       174.2096
       182.1362       189.6030       187.3715       193.6589       195.5112
       203.9921       209.2747       214.3795       218.4844       225.9553
       229.1436       230.5737       232.8920       241.3406       241.6552
       239.7237       241.9036       246.4763       248.0119       252.2064
       253.0566       255.2413       257.5768       256.3191       251.3971
       255.4523       255.5895       249.9608       248.2041       248.8684
       245.6426       244.4424       244.1807       240.2153       236.7064
       231.3573       222.8798       222.2463       216.8972       212.1547
       209.0051       202.6246       195.2061       191.3186       183.7131
       179.2551       169.4462       161.3392       148.9217       142.2478
       135.2802       129.4459       118.2750       110.8993       99.45645
       88.71011       73.02597       62.16910       50.08835       45.10606
       33.40576       21.17041       5.038439      -1.486977      -7.306778
      -14.41362      -29.46391      -41.52849      -60.73660      -72.98962
      -81.50171      -92.54099      -107.5258      -117.4328      -135.7412
      -147.9817      -157.0275      -167.0319      -182.8275      -194.7518
      -210.8942      -223.3109      -233.5237      -242.4067      -254.7550
      -262.2662      -272.0022      -280.5408      -292.5265      -302.2395
      -310.0211      -315.2750      -327.6402      -334.3968      -338.2513
      -340.7983      -345.7573      -346.9303      -350.3210      -351.2993
      -353.0503      -355.0178      -358.3486      -357.6479      -358.8871
      -355.7515      -347.9244      -345.6039      -345.3827      -344.2166
      -340.8619      -334.1183      -330.2455      -326.9493      -320.0032
      -308.3708      -303.8453      -303.3448      -296.2317      -283.1596
      -278.5850      -269.2577      -260.8936      -250.7225      -245.1428
      -234.7855      -223.4525      -212.6701      -204.6599      -192.9661
      -184.5654      -174.5423      -166.1721      -154.1009      -144.7006
      -133.4598      -128.7878      -123.1426      -111.7617      -99.09406
      -100.3728      -87.79781      -73.82254      -70.88205      -67.89003
      -48.35081      -42.21298      -43.39434      -36.76205      -31.73822
      -109.0016      -311.0194      -417.6625      -287.4213      -51.50061
       252.1868      -243.6052      -1359.831      -1340.396       24.34863
       2003.301       2286.825       342.5980      -434.4744      -87.47974
       595.4825       460.4414      -672.7550       9.775909       350.2439
      -313.0603      -547.5935      -909.1742      -248.0410       350.3647
       346.0803       907.6733       334.7324      -486.7909       264.9404
       467.3264       735.7762       825.1694      -1099.971      -1207.613
       574.4423       249.5846      -204.5134       970.0349       1376.467
      -298.3293      -1448.486      -45.12366       521.3441      -510.5867
       75.71777       1102.021       444.4768      -695.6411      -505.5996
       575.1995       1160.566       214.0293      -898.2708      -152.6017
       622.2968      -143.7633      -871.4929      -70.62524       863.5515
       604.7227       515.3821       704.6552      -138.5608      -587.3928
      -363.0514      -230.2742       662.3232       581.5638      -73.31604
       273.2913       302.8403       362.7946       461.5665       282.4008
       169.4516      -259.5938      -447.8915      -16.44067       958.2463
       715.8584      -307.3025       157.8630       761.1750       562.9546
       298.6391       16.98596       170.5891       349.8562       122.8969
       43.88742       73.35718       302.0438       137.3317       70.97083
       546.1638       244.8828      -39.35736       288.6678       187.3975
      -87.53137       268.8155       251.6745      -7.856476       170.1916
       167.4044      -31.95117       220.5112       671.6699       240.8310
      -171.5768      -354.9473      -485.4186       307.4951       363.3377
      -81.98295      -55.13574       208.0844       367.2731      -290.8475
      -130.5189       615.0807       249.1846      -398.1359      -332.7678
       80.84464       207.6935       6.089844      -242.5233      -139.1002
       7.723450       122.2488      -61.88864      -257.8968       45.19580
       361.8738       605.0578       231.7602      -233.3302      -76.01077
      -107.8621      -187.3319      -276.8984      -310.5241      -235.7766
       34.47646       222.1438      -201.3135      -286.9659      -240.2250
      -459.5086      -113.6941       264.4330      -134.0541      -130.1741
       269.1897      -238.7678      -470.5193       13.13184      -180.6802
      -457.5488      -156.2717      -308.4598      -534.2479      -432.0103
      -264.4753       11.36261       139.5048       119.1989      -194.0387
      -360.0319      -386.8242      -499.0826      -139.5447       42.72931
      -116.9331      -246.9836      -582.4817      -754.8788      -381.8837
      -155.0752       104.7689       20.50317      -576.9113      -366.9059
      -278.0900      -500.9525      -302.3394      -211.1575      -357.9829
      -573.9723      -293.8426      -142.7104      -224.3470      -38.56927
      -71.12549      -322.5193      -556.7920      -317.2472       103.5569
      -13.58002      -224.9751      -202.2292      -519.5763      -539.8761
      -73.39697      -103.3611      -187.0217      -136.8669      -212.3900
      -344.1348      -263.2210      -45.99205       46.22130      0.3505859
      -232.7230      -321.0005      -156.4068      -155.0482      -351.8651
       39.07983       302.2027      -183.8092      -179.5912       268.0837
       105.9971      -78.98180       34.62482      -41.29294      -65.32860
      -79.38947       55.72232       206.1298       79.61836      -18.96591
       162.6812       185.9603      -199.1336       28.84601       222.6316
       228.3882       188.5296     -0.9011230       428.7316       254.4330
       40.84094       612.5272       219.1577      -177.4830       349.8309
       414.5583       166.9530       42.49866       228.6257       634.7983
       325.9941      -93.27521       16.32910       584.0449       723.3127
       324.1295       99.22818       142.9098       201.7407       190.5624
       430.6414       569.2341       317.6035       177.4207       103.8345
       695.5962       1096.675      -7.845856      -188.5614       520.1188
       561.6749       507.0856       219.4539       302.4663       689.9702
       696.6710       404.2598       166.0070       138.4060       770.2568
       1091.240      -4.362061      -630.4470       65.50562       992.9133
       768.7516      -79.99719       170.7361       890.9272       969.8917
       232.0319      -307.3627       5.879395       876.8621       1279.924
       432.6499      -333.8328      -86.76306       485.9553       728.8380
       266.4549      -270.3051       35.32117       550.9346       247.8962
       21.81714       356.1472       473.9716       613.9591       434.0677
      -182.3834      -299.0956       21.82471       278.6943       169.2225
       176.5823       544.5065       689.8280      -202.9034      -790.6361
      -313.7191       8.638367       366.7278       64.07568      -357.5265
      -36.01004      -65.60547      -316.7587      -606.5877      -273.2272
       397.4758       247.3079      -174.0699      -384.3693      -580.9321
      -32.62259       481.9132      -468.0276      -1031.440      -547.0371
      -351.7505      -329.3846      -588.2935      -826.8822      -463.2797
       154.4065      -85.02905      -1111.152      -1152.684      -119.5971
       377.6555       8.703857      -681.3950      -1130.467      -1033.567
      -865.6814      -938.9403      -725.0951      -87.01208      -248.9023
      -662.6074      -947.2383      -1284.338      -287.6201      -124.5928
      -1036.728      -1264.326      -826.5409      -139.7642      -260.7925
      -835.6914      -1151.385      -744.5152      -95.11133      -344.7053
      -983.4138      -887.9303      -200.0457      -50.72144      -779.2300
      -1279.566      -1031.522      -296.4325       168.3807      -389.9141
      -943.3364      -886.6323      -244.9293       80.04956      -302.3883
      -338.0913      -168.8016      -243.0114      -544.6118      -658.5353
      -329.2882      -139.4353      -510.0641      -507.6849       222.5279
       204.7197      -323.0991      -289.7129      -262.4868      -112.4009
       318.5577       113.7229      -519.3040      -566.3493      -34.07922
       437.0391       728.9094       381.5151      -277.5750       70.80811
       614.4297       103.4150      -82.68365       21.73639      -426.9598
      -140.2119       503.7065       430.3867       347.8159       523.0497
       527.6317       407.3008       266.8038       30.67334       612.2856
       996.2460       66.83578      -233.8234       134.8496       530.2556
       961.5372       467.1087      -54.18933       318.8083       864.2529
       947.8687       395.6351      -15.95337       298.0267       554.1208
       538.9719       648.1904       784.7891       876.7914       490.7773
       67.73315       309.8912       418.5460       412.7292       719.0605
       860.8397       645.2568       561.7090       416.8803       174.5900
       102.6721       239.9897       567.8096       761.5623       584.3616
       624.4656       879.7518       355.3085       26.68323       187.0159
       450.3157       757.4482       300.5438       2.197021       168.9597
       287.6951       534.2808       799.3999       674.9924       406.4207
       556.9227       738.6903       308.6378      -108.2329       425.2780
       530.5151      -80.19482       100.6995       261.9372       131.5204
       51.52747      -178.4764      -28.08984       514.7014       652.3879
       325.2098       404.8838       221.8052      -376.8003      -701.1584
      -776.1240      -482.0161      -895.7373      -1861.757      -1372.971
       475.2998       1207.895       97.63696      -1105.637       1082.741
       4850.233       3674.748      -396.7821      -1452.454       1071.881
       1226.511      -1888.277      -1537.553       631.0139      -123.9119
      -1927.730      -90.58203       3071.296       175.4346      -5257.819
      -3492.177       3564.079       4261.773      -2335.755      -3971.073
       681.0156       2511.509       566.0391      -1480.706      -1190.242
      -43.64795       94.86371       320.6428      -811.7852      -2311.678
      -603.4673       2010.447       1275.138      -1392.864      -1552.689
       619.8623       1923.026       1332.416      -875.7080      -2176.395
      -1306.423      -13.28174       1780.967       1611.438      -1478.070
      -2053.270      -667.3679      -317.9473       1036.367       2356.809
       869.7363      -1127.804      -277.4443       1472.631      -69.27051
      -2935.228      -1690.299       1142.805       1461.143      -173.3589
      -1618.240      -1241.042      -1110.374      -643.1782       1638.824
       2102.182       199.3628      -1036.346      -1249.528      -845.6599
      -81.18918       249.6915      -354.5333      -725.6616       60.15405
       253.0643       67.43018       824.1617       842.6283      -141.1460
      -101.0896       163.2713      -211.7910      -486.0741      -538.8762
      -274.0027      -83.76147       193.4158       1210.903       1303.143
      -997.7754      -1778.392       625.7793       1280.341      -320.3655
      -1099.388      -785.6537       201.9673       1508.112       1634.580
       1079.890       408.9795      -487.5124      -402.0845       45.29163
       352.1124       87.08875      -382.0784      -184.4414      -349.0977
      -17.38745       757.2369      -264.8553      -872.1882       274.0073
       933.7946       587.5270      -243.4512      -657.6201      -1219.240
      -1462.669      -264.8650       782.1653       692.2214       193.0109
      -50.73706      -129.1884      -512.8591      -446.9944       236.7092
      -208.1420      -436.1372       609.7623       442.5763      -359.0727
      -253.0736       151.0093       111.0294      -122.0225      -645.4570
      -889.9038       406.6616       638.1770      -1100.278      -1560.094
      -171.1064       1328.001       1389.443      -368.3027      -2196.656
      -1945.585      -389.2004       265.2090       418.5273       1017.052
       230.4976      -1254.563      -735.6045       38.89807      -546.6895
      -603.6206       50.61560       419.3035       29.35693      -881.8008
      -1410.180      -1558.681      -378.4814       1519.500       969.0957
      -890.8994      -1182.430      -849.2221      -297.9578       914.5336
       446.1868      -965.9832      -879.4250      -152.5140       155.0909
      -48.15820      -693.1892      -1177.278      -626.0618       90.13940
      -84.76172      -1029.622      -1756.752      -829.6455       494.3285
       692.1694       455.5226       396.9216       363.1333       516.3799
      -273.6824      -1546.597      -438.8198       1146.853       508.4180
      -776.5504      -772.2462       225.8516       429.3884      -287.3406
      -659.2939      -210.6636       662.8826       938.2210       423.9917
      -108.6153      -369.9964       49.87842       616.3291       630.4346
       322.4502      -332.5725      -674.4360      -261.8397       125.0424
       292.1031       541.4810       644.6481       284.4686      -204.9164
      -311.1830      -105.0459       448.0266       927.2344       770.1441
       352.7285       120.2632       473.2747       1036.788       1072.267
       792.9218      -88.15039      -1032.552      -243.5059       964.6110
       597.7538       33.95532       220.4598       682.6488       647.2390
       157.7429       312.0793       709.5118       249.5364      -595.6370
      -666.9636      -211.9756       438.2935       1243.028       1167.429
       471.0841       233.7231       402.6892       367.4845       195.5952
       141.5922      -5.532593       157.2024       711.0090       1033.022
       1122.127       665.1055      -328.3892      -501.2563       480.4590
       1167.755       710.1213       364.8652       978.5503       1323.683
       529.9060      -454.7907      -202.5751       312.9224       92.82532
      -232.0995       64.28320       519.9907       296.1689       45.81589
       149.8251       20.15979       61.81171       312.4778       152.2879
      -69.85132      -275.9903      -307.2285       312.0916       975.4875
       978.8295       263.6255      -417.6709      -596.7214      -685.6108
      -1056.060      -681.6362       676.2080       880.6274       161.7268
      -20.23499      -153.5262      -159.5521      -248.1455      -278.5044
       354.6184       930.9364       668.5148      -44.92419      -380.6991
       79.10144       444.4359      -143.2573      -454.9389      -286.7954
      -313.1202      -235.6671      -14.19238      -11.51294      -595.9685
      -757.5592      -141.9424       98.50900      -25.12244      -104.0429
      -26.09308      -112.7026      -503.8517      -518.8657      -250.8792
      -113.3945      -240.3467      -335.1893      -227.3955      -324.3481
      -565.8156      -476.5887      -357.9233      -219.2444       156.8646
       248.0056      -192.3359      -578.7745      -355.3501      -363.2567
      -690.1778      -399.9680      -217.4646      -676.6808      -684.1006
       107.0599       79.36218      -593.3220      -636.7240      -568.5061
      -605.2598      -584.1674      -577.2134      -335.1719      -227.9220
      -129.4008      -38.76562      -440.6996      -680.0250      -215.1529
       285.5156      -5.661133      -553.3049      -713.3896      -790.3676
