     0.02500000      -41553.66       39396.31      -12345.00      -12345.00
      -30.00498       236.8950      -36.68000      -12345.00      -12345.00
       0.000000       27.93000      -12345.00      -12345.00      -12345.00
      -12345.00      -12345.00      -12345.00      -12345.00      -12345.00
      -12345.00      -12345.00      -12345.00      -12345.00      -12345.00
      -12345.00      -12345.00      -12345.00      -12345.00      -12345.00
      -12345.00      -31.49900      -66.23830       530.0000       0.000000
      -31.54000      -68.94500       0.000000       103500.0       0.000000
      -12345.00      -12345.00      -12345.00      -12345.00      -12345.00
      -12345.00      -12345.00      -12345.00      -12345.00      -12345.00
       257.1243       89.69131       268.2830       2.311885      -12345.00
      -12345.00    -0.06758801       0.000000       0.000000      -12345.00
      -12345.00      -12345.00      -12345.00      -12345.00      -12345.00
      -12345.00      -12345.00      -12345.00      -12345.00      -12345.00
      2008        49         8        51        40
       380         6    -12345    -12345     10677
    -12345    -12345    -12345    -12345    -12345
         1         7        13    -12345    -12345
    -12345    -12345    -12345    -12345    -12345
    -12345    -12345    -12345    -12345    -12345
    -12345    -12345    -12345    -12345    -12345
         1         1         1         1         1
ABRA    -12345          
        -12345  -12345  
-12345  -12345  -12345  
-12345  -12345  -12345  
-12345  -12345  -12345  
-12345  -12345  -12345  
-12345  -12345  BHZ     
ZL      -12345  -12345  
[...]
      -3665.395      -1301.641      -3609.848      -5205.802      -2960.571
      -1041.986      -2832.832      -6507.383      -5444.629      -2224.487
      -185.3857       3101.251       4423.812       2141.131       545.6162
      -490.5188      -919.5449       1489.065       2199.764       1571.070
       3486.894       3957.743       797.5420       684.4424       2966.043
       599.1125      -206.2549       2301.902       2025.365      -395.3242
       680.3169       3070.975      -134.2383      -2117.053       77.45068
      -261.1484      -1780.805      -793.1750      -757.0254      -1339.939
       34.22241      -833.0366       786.8320       3335.685       1065.279
       1331.714       2777.538       110.3794      -3103.983      -1718.483
       2150.563       1527.546      -1513.978      -3065.701      -4787.400
      -6319.738      -2915.989       890.7378       1020.315       1040.217
       1565.588       2974.480       3105.658       4140.729       5745.787
       3522.756       2802.926       4079.078       2540.812       159.3945
       1804.847       3924.783      -458.0078      -6838.645      -6166.178
      -2107.144      -3189.244      -2734.017       520.1919      -144.1436
      -1524.554      -1730.410      -1069.359      -700.5291      -1180.120
       565.5469       3841.950       1492.932      -2576.932      -1355.788
      -2536.953      -5467.582      -2692.482       1047.493       1111.588
      -1898.601      -3663.318      -2142.486      -1404.345      -385.8398
      -389.3677      -2229.707      -2515.436      -3337.522      -3130.577
      -2000.266      -1118.151       1566.835       4971.730       2200.199
      -3440.766      -1607.419       1505.943       2314.776       4599.789
       5428.914       4330.651       3423.058      -1330.753      -3320.928
       1063.529       3900.719       5851.594       6608.427       4338.370
      -1497.421      -4162.792      -1510.185       1962.682       4445.196
       4810.318       3125.863      -2816.691      -7464.660      -6391.136
      -3280.778       1233.201       6774.744       9836.939       3885.899
      -4254.025      -4112.529      -1636.576       178.3193       2565.271
       2637.998       2110.795       3076.276       2424.326      -2500.996
      -5564.158      -4686.944      -3455.841      -1339.654       1170.201
       3713.175       1825.103      -1229.008       315.6660       1478.333
       2151.781       3987.463       4785.557       2069.858      -134.5010
       1805.999       2209.343      -1059.969      -1587.743      -525.7979
      -2617.835      -3055.707      -2371.711      -2246.554      -1116.886
      -361.7646       1805.244       1950.261      -1311.857      -2011.375
      -856.0020      -2469.309      -2421.367       1015.438      -373.9453
      -3807.832      -3732.366      -2447.476      -441.2708       877.9084
      -334.4878      -1601.786      -1778.723      -2406.092      -2955.489
      -297.0723       3998.732       6040.843       5041.100       1276.582
      -957.1963      -2226.858      -1148.424       3572.837       4458.725
       3564.226       5123.880       5132.574       1208.360      0.5830078
       2161.795       1393.373       1774.099       2303.508       1575.138
       948.7167       146.3424      -110.8687      -722.0190      -1093.180
      -1653.819      -1844.989       217.7057       680.1094      -3021.191
      -4260.492      -2177.202      -2002.452      -2685.659      -826.7180
       1382.769      -659.1572      -2157.744       1356.547       2507.426
       1844.483       1407.062      -2418.334      -6129.828      -7046.807
      -4242.929      -966.2603      -782.3590      -262.9901       377.5327
      -903.8311      -1027.643      -1599.797      -2053.476       1767.745
       4833.555       3805.862       3384.560       2855.149      -1202.896
      -4150.630      -2374.494      -863.4932      -1988.216      -1528.181
      -2221.817      -3976.727      -1958.704       242.5793       1407.806
       928.2544      -944.8857      -1622.153      -1617.249       532.0391
       5367.271       6668.462       1985.246      -231.1542       1125.002
      -1356.671      -3797.289       403.0933       2544.306       572.9104
       1121.969       1115.199       313.8906      -1597.587      -2070.723
       628.0862       871.5151       1539.655       3376.225       2958.434
       1541.258       923.5537       2112.257       1567.095      -1110.872
      -2433.786       372.7085       2505.349       514.8879       1098.831
       833.2163      -1134.315      -1902.188      -3513.387      -4043.094
      -2943.584       1851.582       5341.033       3152.338       182.3242
      -2239.973      -1358.727       467.2051      -2370.361      -6476.400
      -7716.103      -2705.384       5475.406       8038.584       4156.559
       1319.794       231.9658      -4247.191      -6996.410      -5425.941
      -3027.236       1007.928       4197.859       1188.863      -4241.199
      -3097.293       47.01270      -721.9697      -3178.096      -5438.452
      -3647.511       1978.334       6771.223       6898.917       3559.014
       344.2920      -2742.393      -3424.007       226.0146       3287.313
       3201.729       634.3804      -1923.606      -343.5566       902.2275
       488.5669      -1175.069      -4716.381      -4348.598      -434.7949
       1704.881       1373.951       651.4260       305.7228       462.8408
      -887.4521      -2426.237      -1261.431       778.1680       1872.086
       633.0140      -791.6895       1477.900       5469.529       4666.809
       862.8379      -1255.602      -2479.611      -1120.092       2009.109
       1796.019      -965.8115      -1272.692       568.6875       73.23730
      -2632.381      -3985.520      -2042.363      -895.5861      -648.0674
       1981.366       2125.820       1122.076       2387.315       2233.814
      -963.3132      -1121.843       3468.594       3687.944      -500.4097
      -1167.417       351.7275      -1633.932      -2409.247       933.0850
       2031.165      -268.4121      -2804.805      -3499.783      -1891.755
       483.9049       1287.564      -1099.378      -3370.318      -1247.060
       1676.113       3226.754       5004.010       4904.885       2630.416
      -672.5703      -4515.269      -5592.099      -3449.639      -2402.421
      -1291.259       193.5918       1346.170       2362.023      -611.1963
      -4597.557      -3919.073       514.8896       3237.263       1387.987
       553.8062       1679.207       641.0896      -503.8857       1195.059
       2844.062       227.3818      -1362.394      -714.7129      -2120.635
      -2540.994      -1914.981       1618.770       4609.750       1183.832
      -1729.350      -3068.261      -4744.783      -2411.583       371.4082
       2209.521       3310.960       2617.590       1146.117      -2386.386
      -2848.272      -1222.115      -1010.885       1500.516       3595.727
       2395.857      -324.5393      -655.1694       1705.687       2815.786
       1642.451       912.1499       1949.209       1740.840       245.6208
       276.9509      -227.9219      -2267.160      -3098.102      -1575.378
       1647.711       2603.166      -327.4341       291.2061       2631.093
      -752.3340      -3635.521      -1292.966       60.42383      -1165.512
      -2336.881      -1311.469       243.5535      -977.4025      -1268.118
       1733.511       4613.070       3174.821       3162.993       4553.671
       2492.213       3039.731       5021.753       4051.819       2060.504
       371.3044      -1053.550      -1008.377      -3316.180      -6829.958
      -6228.428      -2853.006       493.8452      -153.7637      -5168.711
      -7008.290      -5170.059      -2834.332       2432.515       3647.749
      -880.9844      -2655.849      -2280.358      -1977.530      -34.23340
       4555.783       6023.309       4365.253       4015.924       3413.133
       2587.912       2156.659       2374.216       2789.642       3703.338
       4082.094       1345.740      -4202.523      -9102.562      -9944.353
      -6592.236      -2089.068      -988.2781      -1358.152      -76.81201
       496.9054       203.3286       1170.119       2287.644       1524.762
      -3691.102      -7211.192      -3002.219       2022.424       5027.537
       5741.210       5180.704       4712.159       240.6406      -4585.346
      -4501.696      -3442.679      -1740.845       3790.582       5412.565
       263.8359      -2542.270      -1626.512      -3046.097      -4441.456
      -1729.230      -923.1338      -1114.374       2791.223       4505.875
       3030.411       3008.746       1770.893      -3469.091      -5950.958
      -2344.793       2283.246       6895.580       7967.879       4069.750
       1506.439       884.0176       1227.650       2837.915       1661.304
      -650.1299       1043.939       2490.603       473.2783      -3845.803
      -6960.152      -7471.740      -7286.153      -4561.941       131.4180
       3006.631       2698.978       1270.101      -867.9502      -1431.676
       796.2602       457.6953      -1299.366       105.4648       4736.756
       7598.792       5999.640       4060.875       2032.844      -1189.324
      -3666.522      -2796.040       475.6919       1916.692       627.6062
       75.86401      -164.6323      -2224.882      -1079.286       1189.619
      -1132.832      -5524.463      -7108.148      -5309.535      -1824.536
       361.0732       1224.143       4429.148       5708.384       2719.806
       2987.557       4392.887       737.8489      -574.9893       2668.010
       1948.322      -1407.340      -1539.443      -1361.344      -3999.230
      -5812.744      -6069.398      -7960.920      -8250.387      -3428.352
       1199.162       3457.486       6666.121       8731.408       9231.641
       10561.94       9303.512       3089.569      -519.8604       1520.789
       4678.842       8454.717       7841.924       2712.736       192.9600
      -241.2563      -1649.592      -698.0946       873.1143      -189.0400
       1666.027       3385.685       262.7947      -326.8418       2754.047
       3276.199       5205.125       9075.973       9612.438       10667.40
       9922.757       4518.666      -368.6143      -1321.398       1987.385
       5286.934       6581.796       2214.090      -8228.148      -15878.11
      -18573.23      -18856.42      -17378.86      -13350.21      -10317.02
      -11837.05      -14057.42      -16198.85      -19208.60      -17768.26
      -10448.07      -3924.475      -3444.766      -5959.333      -5542.069
      -1956.318       3680.918       8562.895       11755.30       13096.91
       10517.01       8424.215       11458.31       18776.05       23107.93
       21251.05       18020.43       16566.78       14215.21       9010.658
       6417.047       8440.711       11261.04       12655.65       14023.03
       9367.102      -4323.371      -15548.58      -21237.84      -22877.55
      -19214.80      -15817.56      -15229.04      -15569.29      -17350.69
      -20683.09      -24894.65      -26533.54      -22085.20      -13358.72
      -3747.791       5053.314       8773.242       8854.039       12018.25
       13655.99       11820.10       13938.74       16520.04       16234.38
       14601.75       9660.547       4375.273       1380.099       708.2634
      -642.7783      -2730.037      -3526.684      -7511.906      -12099.02
      -12685.62      -13084.28      -12606.25      -6764.465       1880.408
       8844.785       13827.33       12931.31       5136.681       1506.008
       5649.266       7971.523       8682.496       13805.44       17730.17
       15058.64       11476.02       9559.109       3890.516      -2928.422
      -8785.422      -15433.00      -17805.17      -19503.04      -22869.64
      -19617.20      -14233.09      -13163.45      -12677.50      -9615.102
      -9152.195      -15820.27      -18306.80      -11292.53      -3879.242
      -280.5000       3079.666       6457.704       5972.650       4125.367
       6066.206       6867.732       1785.392       1605.111       6419.676
       7935.207       10426.50       12112.49       9556.361       6248.949
       2785.514      -836.6592      -3074.877       801.1992       10361.63
       19006.26       27129.38       30608.22       25875.05       22161.70
       18031.01       11454.63       12741.39       17789.22       20011.88
       20230.34       20135.40       18596.74       9209.932       1371.427
      -2221.621      -8995.164      -10591.96      -6775.742      -7135.199
      -9728.934      -9715.055      -13724.34      -21432.95      -24604.66
      -23496.16      -20849.05      -19803.92      -21407.91      -29314.33
      -40338.91      -41553.66      -31055.75      -17803.04      -8268.337
      -3409.402      -6572.262      -17425.10      -26690.92      -29585.22
      -29805.55      -19379.60      -614.7031       7947.258       9197.234
       6223.328      -76.59277      -812.5312      -868.6875      -6568.336
      -8665.992      -2471.289       8973.094       26262.95       39396.31
       39195.18       31207.99       19480.19       8459.654       6293.547
       12469.05       17933.23       20821.67       24670.37       25707.20
       17041.41      -6235.820      -28457.27      -30770.16      -19465.48
      -613.3027       11785.96       7473.298      -875.8555      -12920.13
      -23278.23      -16914.78      -6522.077      -3231.738       4798.305
       17092.83       19704.49       13407.05       6842.360      -1988.707
      -10521.25      -6991.389       4621.414       14112.78       20096.51
       15486.53       121.7812      -11036.70      -12728.07      -10942.09
      -8305.674      -1086.202       5758.462       1704.592      -9154.266
      -13843.48      -11635.30      -10027.00      -6650.938      -5908.889
      -6279.111       2304.594       12425.63       16612.42       13030.93
       5111.095      -1483.799      -7745.414      -8196.078      -5872.764
      -10513.85      -7283.859       7571.391       10267.31       5400.477
       11722.24       14177.92       4812.689      -3042.256      -7380.656
      -6622.868      -310.6699       3009.649       2810.021       362.4004
      -4937.375      -8162.112      -5634.183      -624.8618       103.6523
      -5660.898      -16250.19      -18757.15      -9349.965      -2372.129
       3825.633       14257.93       18625.81       14185.78       8711.368
       4254.806       757.9756      -2554.716      -3799.719       4390.320
       13524.63       15328.92       17513.46       14736.23       1845.815
      -5809.208      -3657.025      -2620.312      -4927.295      -6921.201
      -6404.859      -5712.691      -4509.262      -2854.840      -6539.803
      -8359.709      -4849.001      -4928.106      -5950.178      -3998.966
       285.0645       7641.613       11255.12       8484.336       6567.271
       6700.828       6336.816       8671.268       11643.49       5392.598
      -4629.497      -4003.876       4071.160       6956.730       6662.562
       10036.44       5303.164      -7150.717      -6332.760      -200.2500
      -3036.072      -4945.430      -2460.245      -10.37891      -695.6133
      -7582.797      -16031.45      -18688.98      -18309.43      -16134.80
      -9599.733      -1278.394       4107.858       1243.101      -4229.672
      -4926.465      -7019.285      -8863.087      -4011.397       1085.643
      -1660.254      -5958.953      -1195.541       2094.481      -1066.499
       1848.734       9646.723       15529.69       14650.80       10470.92
       7811.203       2980.127       1953.500       9620.203       16568.37
       14589.91       8954.930       6684.212       4307.078      -4748.508
      -10968.82      -4278.250       2508.100       4194.500       5283.537
       5852.629       5835.031       3629.006       1155.525       1869.948
       3024.659       961.9432      -223.3711      -829.5654      -4480.529
      -5036.427      -2412.410      -417.5139      -84.07129      -2096.867
      -2177.532      -1088.438      -1465.775      -3796.201      -7018.652
      -6572.127      -5181.225      -7791.871      -8254.955      -3394.861
      -576.0276       109.4966       2018.892       2113.419       2895.559
       6604.539       9708.480       11352.81       7213.334       459.1074
      -3009.908      -4568.525       1021.062       11234.39       14905.38
       14497.88       13121.25       8152.754       940.9746      -5685.717
      -8115.770      -7324.525      -4328.522       831.9336       3049.185
       2517.813       1759.050       607.6367      -4614.998      -9959.158
      -9166.604      -9664.188      -7277.264      -559.2266      -2478.109
      -4355.172      -657.5879      -2998.166      -8776.857      -7362.095
      -3483.882      -3434.907      -3851.596      -5643.215      -7430.823
      -3639.005       3951.405       4400.474      -365.9038      -150.7227
      -1261.991      -4079.218      -1175.275       1948.338       4363.148
       12136.91       16249.84       9584.882       1589.833      -1516.611
      -5280.738      -9742.732      -9894.220      -6102.139      -433.4434
       4291.555       4247.982      -581.2520      -4165.225      -2762.388
       76.20898      -1629.603      -3994.864      -1270.562       2285.881
       4618.487       5944.619       2169.508      -6495.670      -8498.886
      -2879.479       2565.106       4586.782       4014.246       4707.432
       4672.275       3618.286       2033.348      -1702.486      -3017.062
       773.8330       4969.006       6075.619       3745.517      -2149.199
      -5191.376      -5297.212      -4134.770       2958.126       5028.358
      -291.8662      -3708.278      -4824.676      -2238.713       1111.215
       1046.797      -2843.484      -6252.569      -4954.936      -2224.290
      -920.5049       741.8896       2130.405       1373.219      -870.5598
      -1918.343       132.8838       1812.309       1577.475      -688.7471
      -4105.904      -3295.343      -1672.571       45.86914       4363.580
       6679.793       6193.723       6008.553       6647.671       3988.438
      -1847.962      -5219.241      -2985.496       3278.396       8639.688
