     0.02500000      -28364.62       23717.47      -12345.00      -12345.00
      -30.00498       236.8950      -36.68000      -12345.00      -12345.00
       0.000000       27.93000      -12345.00      -12345.00      -12345.00
      -12345.00      -12345.00      -12345.00      -12345.00      -12345.00
      -12345.00      -12345.00      -12345.00      -12345.00      -12345.00
      -12345.00      -12345.00      -12345.00      -12345.00      -12345.00
      -12345.00      -31.49900      -66.23830       530.0000       0.000000
      -31.54000      -68.94500       0.000000       103500.0       0.000000
      -12345.00      -12345.00      -12345.00      -12345.00      -12345.00
      -12345.00      -12345.00      -12345.00      -12345.00      -12345.00
       257.1243       89.69131       268.2830       2.311885      -12345.00
      -12345.00     0.05708363       90.00000       90.00000      -12345.00
      -12345.00      -12345.00      -12345.00      -12345.00      -12345.00
      -12345.00      -12345.00      -12345.00      -12345.00      -12345.00
      2008        49         8        51        40
       380         6    -12345    -12345     10677
    -12345    -12345    -12345    -12345    -12345
         1         7        13    -12345    -12345
    -12345    -12345    -12345    -12345    -12345
    -12345    -12345    -12345    -12345    -12345
    -12345    -12345    -12345    -12345    -12345
         1         1         1         1         1
ABRA    -12345          
        -12345  -12345  
-12345  -12345  -12345  
-12345  -12345  -12345  
-12345  -12345  -12345  
-12345  -12345  -12345  
-12345  -12345  BHE     
ZL      -12345  -12345  
[...]
      -1306.941       1624.760       2281.009       1905.215      -1147.734
      -1458.979       1456.818       3950.578       5056.500       5590.453
       5119.425       2646.520       1249.479       2121.416       2659.631
       3061.510       2532.532      -1422.077      -4350.566      -4946.891
      -728.0312       3852.449       4866.178       6237.435       5001.879
       1998.766       884.7148       3038.018       3235.186       661.7900
       1341.843       1870.160       2141.933       1658.806       282.7451
      -1268.402      -3375.044      -3166.475      -2715.195      -1912.110
       205.1582      -2315.302      -4483.658      -925.8262       2853.817
       5681.339       3942.787      -3664.131      -8628.514      -7335.738
      -3368.731       1540.291       4524.936       2484.118      -899.8047
      -5495.109      -6328.084      -2401.288      -804.8159      -1643.480
      -3264.034      -922.2256       2025.117      -211.2328      -685.0321
      -421.6079      -803.1118       1332.693       2482.571       2615.270
      -608.6719      -4627.398      -1844.087       2835.793       2941.571
      -344.4854      -2683.656      -4738.880      -3176.571      -590.7258
      -762.5200       175.3809       1030.033       3688.328       5653.745
       1308.310      -3571.221      -4904.312      -3165.167       2435.480
       4000.083       945.2461       2628.574       3628.160       2190.736
       3468.244       3385.289      -1042.204      -1621.464       1021.023
       691.2310       2198.739       3351.998       777.2109       1143.990
       2640.706       2591.584       766.9805      -4649.121      -7435.835
      -2880.443       3165.826       1768.401      -1559.474      -1088.094
      -2985.723      -1171.812       1655.273      -901.7142      -973.0430
       1095.866       1953.428       2737.182       2030.070      -1499.195
      -3271.949      -1106.445      -1092.383      -806.0254      -1684.373
      -5174.395      -4322.270      -3238.756      -1206.927       2055.515
       221.6152      -2769.680      -2645.255      -554.6346      -525.7446
      -42.92383       2377.475       3770.038       3585.353       567.5157
      -687.2510       3055.059       2803.889       1371.533       3263.588
       2669.179       2015.203       2962.626       1450.335      -1407.944
      -1446.629       243.7500       861.6671       343.4023       770.1055
       3001.396       2002.389      -175.4795       1579.746       3856.980
       2231.789      -194.2153      -1247.047      -169.3403      -747.0411
      -689.7939       1751.160      -723.5283      -1898.524      -1474.332
      -1791.124      -667.6133      -2214.100      -2662.229      -538.7827
       971.8315       2029.793       1276.852      -2929.893      -6273.250
      -7484.659      -6932.460      -1215.409       4511.680       4637.264
       3428.789       1606.847      -2242.088      -3033.649      -2924.301
      -4182.323       1247.084       4671.450       2756.315       288.2725
      -3626.359      -6082.383      -4680.969      -1524.537      -1361.764
      -1064.672       341.1924       2201.348       3479.161       3451.343
       5239.373       1433.497      -4202.677      -1411.889       2075.686
       3756.686       5017.741       832.3540      -1191.627      -1956.668
      -3785.577      -1578.356      -3489.954      -6268.952      -2580.220
      -635.7344      -2082.996      -1656.910      -26.41455      -437.2219
      -887.2935       1074.635       3621.898       4355.374       4323.105
       2525.818       820.1187       1591.950       2412.538       4401.928
       4430.283      -1216.971      -2746.172       1550.492       3003.481
       2599.500       2975.505       2682.181      -327.3774      -1904.994
      -829.5771      -2579.659      -1005.211       2853.615       614.7117
      -1696.176       535.2354       1678.401       1012.234      -1098.453
      -4119.982      -3605.414       1146.035       1635.518       1474.819
       3769.320       2008.394      -1119.318      -5326.787      -7064.445
      -4590.968      -4049.697      -3115.380      -847.6946      -421.5677
      -1358.548       918.0801       3807.859      -1073.217      -6975.897
      -2849.312       2726.094       3132.260       3680.992       2068.448
      -870.5201      -519.9005      -356.0388      -855.0020      -1777.267
      -821.4365       2349.998       2652.509       803.7129      -677.4434
      -2411.480      -3666.646      -5257.021      -1862.482       2183.622
      -327.9996      -1206.304       1582.530       3564.083       1646.280
       1113.759       810.4170      -3177.979      -2803.156       871.5830
       3042.751       747.8813      -520.5469       4507.438       5863.961
       1453.512       33.02124      -338.4453      -3421.005      -1571.050
       2379.550       212.0049      -1966.710      -3248.828      -2916.235
      -427.1279      -389.6132       133.1354       298.8171      -1647.813
      -398.1360      -205.2955      -908.1035       1146.547       2997.679
       2898.805      -435.8223      -3029.331      -643.2192       1696.498
       904.2358       1715.470       1201.500      -1406.871      -1308.246
      -2147.466      -3451.888      -2596.035      -371.9556       1604.592
       2734.320       1396.059      -1981.578      -3967.360      -1655.452
       1189.758       484.3184       2967.951       8631.527       6624.528
      -2142.105      -7639.625      -7833.209      -4293.859       1920.988
       4037.565       2177.684       184.4460      -443.6357       2077.808
       528.6523      -3218.874      -1625.730       465.6018       999.0339
       341.0991       1112.833       1989.373       1459.114       2253.986
       3084.556       2836.996       1359.644       797.1244       157.8530
      -2659.121      -2081.793       1290.033       1312.442      -1256.042
      -1130.346       449.5845      -1692.863      -3409.260      -1161.721
      -1834.836      -3861.379      -2515.021      -2436.578      -5605.635
      -6221.628      -4593.631      -1779.093       1962.187       1480.216
      -624.3921      -1356.580      -561.5723       2013.783       3812.395
       5154.281       4910.527       2039.536      -1325.090      -3709.206
      -4052.155      -2447.603      -67.23779       689.8239       83.26575
       1049.486      -138.9639      -2096.698      -567.2441       1729.980
       1819.646       2272.953       797.8179      -2489.783      -1448.515
      -526.0813      -544.6299       2428.060       3178.032       729.0811
      -2304.355      -2753.256       2271.703       7087.031       5947.833
       2909.771       2159.220       2427.288       2331.592       862.2119
      -1585.443      -2023.924      -778.3699      -164.4031      -1162.251
      -1742.066      -1508.551       423.1328       3349.136       2542.495
      -1207.190      -3123.408      -7.006836       4099.663       3874.066
       881.5176      -385.1060      -986.2920      -2792.544      -3532.019
      -2836.485       127.4229       1766.719       3647.672       4689.490
       3048.642       667.7720      -2625.600      -2556.885      -2677.121
      -3290.025      -1560.365      -955.0557      -1749.187      -2207.588
      -173.8062       673.2034       102.0716      -405.8359       1533.490
       2722.043      -621.6931      -1413.472       404.8507       306.2656
      -2177.403      -4220.812      -1651.198       2041.209       726.2808
      -603.7969       1124.351       1946.962       150.7871      -2208.895
      -4271.856      -5927.220      -2140.002       1112.089      -456.3584
      -2386.032      -1779.534       1931.638       1925.727      -3274.232
      -5598.698      -4369.843      -985.5039       4180.498       6974.086
       7193.176       4282.767       665.3547       494.1392      -783.1843
      -1682.978       677.6279       3452.524       5127.318       4971.981
       4025.130       4843.700       3973.825       4184.420       4650.789
      -1636.129      -6092.279      -6958.244      -8611.008      -7790.039
      -5875.707      -3888.543      -2118.103      -889.7539       2256.926
       3746.963       1125.540       756.9629       3039.440       3194.631
       1846.460       1829.784      -32.75342      -2946.420      -123.7969
       5563.961       6323.729       5619.187       5642.681       1434.419
      -3497.436      -6028.383      -7270.916      -6655.923      -5724.401
      -4526.436      -4268.459      -3155.224       882.1006       4277.966
       2000.688      -3898.414      -8285.818      -8720.357      -4692.147
      -793.0762       1072.568       4549.445       6953.904       5812.398
       5484.763       4260.163       934.9150       916.0571       2119.986
       1565.254      -1111.437      -4054.577      -4090.739      -815.5249
       570.0597      -66.98682       1380.889       184.4746      -2406.488
       865.0293       6521.627       9652.348       11292.46       10985.11
       8654.814       7714.047       4161.615      -2127.007      -2594.887
       509.4067       1231.001       1283.393       4657.029       6685.656
       4567.402       4294.309       6468.188       9921.947       7880.541
       2653.767       1305.593       928.6816       2198.123       4772.340
       8721.266       14483.49       19411.09       21111.32       19716.35
       17363.70       10570.56       2553.242      -1024.577       13.13477
       3360.490       5606.379       4390.079       66.82617      -4507.350
      -7629.686      -8667.432      -8870.264      -9742.281      -10616.57
      -11858.33      -13067.09      -16908.30      -19581.96      -15596.33
      -11839.56      -10296.67      -9738.344      -10991.20      -11730.62
      -12298.69      -8887.434      -4246.484      -3475.623      -904.9219
      -5.491699      -156.0498       2578.912       6977.297       15033.07
       18377.30       16245.50       13672.42       9766.176       6460.416
       7555.766       11059.36       14525.64       19454.59       23717.47
       22924.31       12934.07       1242.416      -5762.938      -14456.12
      -18226.48      -15662.39      -13910.94      -10577.06      -8133.537
      -7898.723      -7870.359      -11538.86      -17073.11      -19435.77
      -19638.09      -19220.35      -13649.90      -5176.365       1789.664
       7465.057       10428.57       8265.783       2741.912      -1983.176
      -6448.695      -9403.531      -11162.54      -15272.53      -17873.39
      -14123.33      -5747.059       2637.379       7892.110       6421.210
      -47.33984      -4651.655      -3041.240       3735.648       8169.773
       10002.16       15757.78       20619.25       19644.45       17214.47
       17877.58       18103.14       15778.24       12779.61       10308.71
       7712.400       3746.266       3956.948       6649.334       1687.371
      -4375.957      -8213.262      -14370.30      -15505.05      -12075.14
      -5262.475       3430.374       4656.686       815.8438      -3568.426
      -4103.703      -4462.518      -6629.699      -6755.123      -6644.715
      -4070.328      -774.0532      -332.3677      -931.7036      -1560.677
      -1184.739       1067.915      -2574.141      -10652.05      -12376.50
      -11235.13      -9376.738      -10040.52      -12958.34      -13398.62
      -14622.14      -15528.37      -14440.00      -14617.06      -11064.40
      -4880.587      -1884.139       2412.234       8031.410       10358.70
       10650.61       9428.676       6298.613       8712.348       18057.05
       22203.22       19538.24       19431.13       22337.95       22435.08
       17352.84       12174.12       10675.26       7205.453       4786.604
       4460.570      -2271.797      -12343.23      -18469.42      -19724.91
      -18375.53      -14556.69      -6477.410      -5221.812      -17352.48
      -26429.62      -27091.13      -26547.20      -16255.61      -3105.337
      -2137.215      -4378.684      -3438.191      -7895.990      -9300.964
       2197.355       2833.102      -7576.172      -6279.961      -10106.09
      -19247.09      -12490.62      -4159.452      -2603.713       3074.047
       7641.712       3938.732      -3157.184      -10643.12      -12994.49
      -3452.008       7732.117       14056.40       18915.91       20003.30
       17087.42       11645.28       4840.207      -4440.488      -18519.34
      -23385.62      -3988.828       19034.80       18608.68       8432.937
       2250.426      -977.3594       3403.273       9868.469       10160.70
       6799.115       2316.299      -2035.941       6362.594       21504.35
       17985.61       6844.004       9378.393       4917.430      -12995.52
      -21242.32      -22429.34      -25309.12      -28364.62      -15875.61
       7670.211       16701.80       15690.14       10555.95      -1722.438
      -16260.57      -23122.34      -17454.74      -7512.160       4193.672
       15050.03       17140.88       8703.463       3728.176       11293.90
       15064.31       10020.12       6785.052       4787.425       211.9336
      -7392.812      -13070.64      -12839.91      -16572.93      -15418.88
       1343.007       8842.711      -2135.408      -7990.447      -3064.785
      -4665.580      -9101.871      -3446.281       10678.37       19205.77
       17293.55       12691.64       2183.992      -10697.96      -9810.480
       1431.559       9455.291       11923.78       7614.358      -2160.660
      -10901.02      -15366.85      -15709.87      -14203.42      -6205.007
       3444.219      -1899.821      -5678.637       3062.202       3571.448
      -2605.572       558.4766       7807.238       8888.324       8739.172
       13876.52       12939.35      -4083.349      -8747.328       8790.953
       14443.36       4953.934      -255.8965      -5599.414      -11596.03
      -3389.590       13989.69       15453.26       1794.590      -4845.646
      -6481.398      -9073.117      -3260.379       7757.312       16260.88
       18332.30       12095.71       8798.180       7551.123      -242.1519
      -3425.139       2202.222       6338.974      -1543.143      -8121.610
      -1577.711      -3171.273      -11686.63      -10107.59       1832.672
       11244.35       9088.184       10322.92       12261.62       2301.102
      -11520.10      -15781.91      -7320.737      -1923.773       2747.090
       16950.25       17636.25       3094.941      -3760.254      -9423.438
      -20045.36      -20454.30      -5948.719       8559.338       9654.857
       2510.614       1636.796       1338.529      -7638.291      -11798.34
      -5522.609      -3286.220      -6189.834      -1745.945       1113.810
       40.98730       3122.320       7434.652       12309.54       11266.09
       7423.859       7227.156       3461.832       1730.395       1561.848
       2345.264       8640.428       5862.428      -1512.922       5380.719
       14290.49       11806.18       5942.759       2163.543       866.7542
      -38.05371      -3469.515      -2537.043       7717.027       12615.26
       9735.385       5010.849      -2903.541      -2189.972       4386.939
       2507.160      -820.2716       608.9563       367.7222       960.7627
       3218.506       3132.371      -2177.066      -7814.652      -7965.000
      -10108.54      -11917.64      -8660.710      -5857.623      -1969.719
       568.1660       1374.361       3637.467       2543.712      -1388.185
       607.2578       5059.357      -1732.037      -5203.550       1065.578
      -2292.456      -5707.488      -3615.787      -5751.780      -1969.285
      -982.1768      -6487.581       1452.619       5455.906      -7000.758
      -15424.21      -12243.07      -9260.318      -6392.645       5859.367
       12667.41       4317.596      -1720.091      -2682.084      -1652.801
       5067.023       14512.88       18712.12       16462.24       11571.03
       2759.980      -266.1816       3862.523       7133.713       7672.883
       6522.302       3002.758      -3653.587      -4204.677      -544.0806
       342.8945      -4671.031      -7791.631      -5111.195      -9138.363
      -11752.89      -6167.684      -1556.877       3975.450       4781.660
      -4899.797      -11557.82      -12002.68      -11582.07      -7990.121
      -3684.318      -2592.237      -727.8418       3562.017       1464.525
      -4858.306      -5110.604      -5716.307      -10760.61      -10017.28
      -5762.394       192.1680       6032.973       6196.713       4235.613
       2261.944      -666.5439      -4604.656      -3581.084      -3093.551
      -4199.602      -279.0312       4089.785       7379.223       11349.05
       15302.01       11558.22       184.6250      -8083.752      -7272.597
       861.8477       7531.092       5243.348       2507.344       672.7295
      -3934.930      -1790.376       1568.188       877.7441       4634.744
       7793.819       6133.285       1634.026      -816.4238       4002.373
       5010.964       793.5308       3143.346       1296.754      -7411.696
      -5418.818       4288.199       7030.928       1815.293       535.5996
       2192.556      -3505.479      -2343.164       3497.263       1445.165
       801.1465      -569.6055      -5872.543      -12658.17      -13582.48
      -9784.004      -11481.92      -9516.249      -3777.561      -5022.438
      -7081.938      -3801.013      -3288.807      -6087.883      -9237.283
      -9219.072      -1501.717       5311.777       6195.428       3325.824
      -1677.809      -5368.686      -2133.340       5017.084       6939.107
       3361.475      -129.6914       1708.381       4945.152       9557.891
       13573.97       7825.847      -889.7256      -3651.453      -872.1348
       5843.211       8477.502       8083.617       5534.823      -1120.805
      -3221.726      -1143.196       690.0137      -1661.608      -5052.798
      -2489.731      -1394.662      -3036.428      -4573.270      -10243.14
      -15949.03      -15751.17      -7193.902       5155.727       10177.83
       6816.168       1664.199      -3971.346      -8000.724      -1111.096
       5657.486       506.1709      -84.73047       1536.199      -4861.880
      -6511.787      -2572.168       4079.383       10851.27       12031.16
