     0.02500000      -35905.67       39320.20      -12345.00      -12345.00
      -30.00498       236.8950      -36.68000      -12345.00      -12345.00
       0.000000       27.93000      -12345.00      -12345.00      -12345.00
      -12345.00      -12345.00      -12345.00      -12345.00      -12345.00
      -12345.00      -12345.00      -12345.00      -12345.00      -12345.00
      -12345.00      -12345.00      -12345.00      -12345.00      -12345.00
      -12345.00      -31.49900      -66.23830       530.0000       0.000000
      -31.54000      -68.94500       0.000000       103500.0       0.000000
      -12345.00      -12345.00      -12345.00      -12345.00      -12345.00
      -12345.00      -12345.00      -12345.00      -12345.00      -12345.00
       257.1243       89.69131       268.2830       2.311885      -12345.00
      -12345.00     -0.3681278       0.000000       90.00000      -12345.00
      -12345.00      -12345.00      -12345.00      -12345.00      -12345.00
      -12345.00      -12345.00      -12345.00      -12345.00      -12345.00
      2008        49         8        51        40
       380         6    -12345    -12345     10677
    -12345    -12345    -12345    -12345    -12345
         1         7        13    -12345    -12345
    -12345    -12345    -12345    -12345    -12345
    -12345    -12345    -12345    -12345    -12345
    -12345    -12345    -12345    -12345    -12345
         1         1         1         1         1
ABRA    -12345          
        -12345  -12345  
-12345  -12345  -12345  
-12345  -12345  -12345  
-12345  -12345  -12345  
-12345  -12345  -12345  
-12345  -12345  BHN     
ZL      -12345  -12345  
[...]
      -1140.949      -2031.190       3088.980       6152.620       2434.042
       629.2939       115.0493      -1736.259      -711.6553       2124.045
       3531.876       2318.955      -1198.687      -4041.277      -6185.752
      -4750.903      -703.1658       877.3306       353.3567      -1282.208
      -1539.424      -3099.236      -5116.049      -5235.945      -4114.606
      -298.6436       3178.331       3999.998       3908.995       4101.107
       2016.249       770.2481       481.8057      -809.1890       912.4613
       1179.164      -1292.229      -1201.578      -278.6514      -1371.392
      -1959.121      -636.2919      -212.7967      -402.8210       385.1033
       1113.088      -716.5786      -1886.417       1208.722       3232.715
       2174.357       590.5952      -1054.986       53.85107       3020.801
       1268.090      -2887.905      -4851.900      -3784.121      -1480.050
       1794.312       4377.063       207.8438      -4458.634      -4813.290
      -2807.070       577.8643       1091.811       658.8604       595.5234
      -1774.463      -2793.888      -598.0752       1460.869       1344.584
       1767.657       2442.580      -489.4814      -3432.249      -2295.480
       1206.200       3607.795       2187.293      -1757.568      -5489.729
      -6380.140      -1868.271       3940.364       5391.074       2204.253
      -584.0283      -1239.678      -2565.003      -1907.823       1784.745
       4315.516       3513.378       1735.915       1354.669       741.8032
       680.9473       1726.039       2658.506       2783.434       1884.961
       484.4492      -1298.117      -1804.295      -397.0273       1787.655
       1776.738       440.3745       1073.524       1151.199      -2221.024
      -3407.963       362.0435       1663.691       2144.601       5287.984
       3594.818      -1580.897      -1757.728      -623.9971      -2880.965
      -1317.609       1442.872       410.0952       1973.382       3075.177
      -2156.686      -6849.892      -4123.445      -787.3623       403.9257
       228.8447      -1838.501      -2415.126      -1364.141      -60.65576
       572.7723       522.1096       460.5859       2484.019       1875.849
      -1630.779      -655.1709       1343.650       3281.809       4217.006
       2115.174      -221.5652      -1479.074      -224.0757       1737.714
       1288.925       1266.001       475.8931      -994.9856      -757.6294
      -179.3066       2242.006       3621.871       2674.965      -1296.212
      -3385.475      -1325.151       73.92542       318.6870      -1429.561
      -665.1118       1108.393       1124.577       2137.056       3841.112
       2977.522      -931.3003      -2025.367      -1530.875      -474.5056
       979.7579       274.6117       219.3923      -861.0601      -1348.584
       160.7021      -1869.350      -4517.161      -2231.641       1253.732
       1067.231      -704.3074      -1020.848      -685.2263       373.7056
       10.82739      -1306.507       239.3052       1437.861      -267.6045
      -1260.355      -1484.038      -2906.747      -2011.457      -48.50366
       301.1096       749.4126       1010.772       1226.911       1647.216
       2787.857       2396.236       409.8792      -572.6270      -817.5928
       867.6499       2592.122       2261.657       1547.901       237.9597
      -1105.007      -124.2649       953.9446       738.9381       220.5200
      -484.3241      -81.20126      -89.98840       194.7549      -905.9902
      -2820.613      -669.0049       2185.969       2511.043      -606.3691
      -3232.438      -1925.346      -1752.630      -3247.277      -2441.655
      -1130.151      -2589.575      -3324.865       56.04785      -30.20117
      -2674.730       246.9951       776.0453      -150.5721       1314.140
      -831.1749      -1018.835       2265.848       1666.210      -1053.591
      -749.6230       1924.314       1365.288      -293.4614       968.1287
       300.1337      -638.7173       1460.874       1447.475      -1222.414
      -660.8689       347.1079      -725.9194       1064.885       3002.851
       2785.625       389.4736      -1855.014      -1948.001      -2106.241
      -577.1843       1492.648       1008.519      -1234.118      -1503.502
       197.8390       569.8926       166.0593      -196.0278      -2235.864
      -2156.165       1042.570      -2184.665      -6267.910      -2301.372
      -78.21265      -1863.572      -328.4802       944.2422      -1934.818
      -1526.529       1692.497      -569.7935      -2063.265       1984.053
       5228.891       4616.646       3446.990       1979.812      -798.7681
      -575.5933       2419.573       3721.381       3496.586       917.4146
      -1633.559      -977.0557      -2374.918      -2320.983       975.4912
       1978.593       1647.614      -646.1920      -749.3068       779.0146
      -1087.229      -335.3882       2628.499       1605.308      -850.7749
      -1966.498      -2000.703      -665.2419       220.5074       388.5632
       362.1826      -657.0381      -1914.570      -2905.241      -2289.351
      -780.7290      -852.0967      -1814.969      -808.5303      -1822.450
      -2460.735       2599.951       6492.072       4945.165       1332.802
       717.5723       2686.208       3525.179       2891.431       1209.141
      -235.0609       108.3711       1307.937       773.8711      -872.1123
      -3044.688      -3559.496      -1617.093      -1511.348      -3185.873
      -3305.357      -787.1074       1630.940       1671.143       290.5929
      -192.3571      -103.1431      -334.8409      -354.9702       665.0776
       2431.932       2047.080      -71.19916      -813.5398       902.4657
       1386.509      -1659.714      -2270.430      -303.3651      -526.9722
      -387.1274      -1338.402      -2030.440      -81.80103      -79.62598
      -1736.766      -958.9265       672.3454       496.2744      -1719.071
      -4331.069      -2974.418       375.6157       1686.938       2024.274
       492.0913      -1431.020      -570.1582       1281.263       1788.286
       1447.582       387.9595       1462.302       3755.906       4663.213
       4546.594       2081.312      -321.0933      -1918.053      -1034.937
       329.0541      -1000.907       645.5769       1730.087      -474.9257
      -599.4192      -85.12598      -2199.887      -2155.256      -417.3896
       287.4482       3500.938       3536.929      -1247.071      -798.6343
       2345.812       219.5215      -2034.857      -258.9500      -276.5422
      -1664.862      -281.8378       526.4304      -431.2278      -1055.176
      -1060.618       448.4302       2059.074       2480.995       2626.584
       2571.704       902.6753      -995.8301      -2555.373      -2717.488
       73.04053       116.2856      -2004.341      -2069.863      -649.2207
       1728.819       2462.615       1052.978      -2067.516      -4885.786
      -3405.944       403.4170       1621.160       1729.186       1280.646
      -1046.881      -2100.484      -239.7446       1359.863       1924.903
       986.7573      -86.44476       49.85791       262.7559       2885.205
       3936.269       1177.888      -306.3071      -1408.218      -878.5145
      -85.94238       1084.902       4075.425       2844.110      -309.9258
      -2767.435      -4010.895      -1699.571       330.7417       1776.293
       3040.955       955.3096      -1530.547      -2296.855      -2614.439
      -1389.608      -440.9382       69.99738       385.8809       181.7451
       95.87518      -300.4113      -240.2794       240.9931      -284.1887
       90.13184       2915.312       2714.807       385.2085       1452.859
       1420.335       950.7699       10.53271      -1872.005      -1331.038
      -566.8331      -145.7610      -365.8682      -565.0177       179.6545
      -306.2869      -1240.000      -170.2031       2445.727       1938.939
      -483.7026       776.7148       2213.027       2598.078       2252.280
      -1165.111      -1908.083      -74.44482       305.7053       1312.749
       456.2671      -1933.856      -2408.771      -3772.792      -4895.911
      -3873.261      -1781.061      -407.3843       1192.342       3815.267
       3085.575       760.1641       860.7856       1471.347       1677.998
       1903.956       2910.798       2234.846      -578.7920      -2368.065
      -1609.028       467.8342       1267.254      -413.6440      -2547.854
      -1006.430       707.1693      -632.0860       286.8347      -219.5244
      -2991.053      -2960.993      -2221.861      -818.4802       1363.958
       748.2769      -1903.058      -1424.980       747.4424       2094.558
       3395.406       2423.154       1742.771       1819.100       800.8564
      -1787.289      -2568.026       222.6019      -191.5422      -318.5391
       2863.258       3661.354       1948.896      -513.9688       625.6221
       2490.350       1326.813       2570.449       2374.766      -1842.103
      -629.7354       2195.551       387.9810      -1466.936      -3260.246
      -4488.293      -2837.804       52.08740      -2.282715      -2212.614
      -98.74341       1029.887      -717.2528       293.0105       1009.356
      -675.0762       722.4609       3904.786       3089.041       3571.480
       3348.392      -691.3926      -271.7672       1181.915      -319.8124
      -222.1354       296.0898      -2387.577      -3803.046      -1819.505
      -1834.335      -796.6108       1491.604      -837.2432      -2805.523
      -3144.634      -3357.227      -2128.699       497.4717       2931.902
       4056.829       3474.215       793.7009      -1555.558      -310.7520
       3523.535       3943.278       1061.226       836.4751       887.0037
       313.8199       316.0851      -192.0989      -72.54541      -1963.077
      -2567.231       2001.405       4028.478       2166.570      -574.3784
      -3063.227      -1613.285       3734.053       3895.302      -471.6523
      -1122.215      -166.5137       800.8149       1413.561       292.5815
      -276.2148      -1181.541      -2940.096      -4386.852      -3955.023
      -1671.162       285.9976       1111.225       1367.704       729.4434
      -2560.227      -4086.358       126.8652       3154.062       3357.840
       3319.453       2723.034       1342.726       1991.854       5689.496
       7322.156       5247.370       2280.463       294.6084       1462.146
       1326.850       133.4204       1923.403       1543.403      -151.2493
       1271.764       1365.202      -2561.891      -6193.714      -4991.408
      -2442.760      -4868.625      -8037.771      -5532.688      -3738.533
      -3163.021      -2132.611      -4497.033      -5019.740      -1884.821
      -925.2205      -1864.231       310.7061       3577.477       2164.848
       1921.568       4081.451       5128.723       7285.799       7426.316
       5443.205       5965.912       5714.671       4581.449       4046.759
       2859.502       1997.788       2202.324       3195.101       2850.361
       2298.135       2299.652       1209.486       70.85547      -2371.833
      -3369.615      -2458.913      -1540.640      -1437.097      -3633.615
      -5910.002      -5951.676      -3914.377      -1874.888      -2246.797
      -344.6750       919.4365      -1306.003      -1246.549      -512.9932
      -1286.125      -86.15039       2994.957       4315.695       1183.051
      -2956.425      -4757.893      -3964.688      -2333.790      -2427.065
      -2493.289      -3487.945      -7121.785      -9487.590      -11507.05
      -13947.42      -16519.07      -20556.63      -19942.72      -14683.38
      -14308.55      -14903.41      -14837.56      -16998.16      -19513.53
      -20054.77      -18051.24      -16940.44      -15281.51      -11475.61
      -11100.87      -12361.01      -13114.19      -17506.76      -18769.53
      -14663.81      -11947.13      -8484.289      -10214.94      -13425.81
      -9888.039      -10604.65      -15090.90      -11984.92      -3031.043
       2366.828       2595.586       4678.273       9711.703       14688.62
       13434.66       11330.23       16106.34       21029.11       26339.07
       31983.02       32117.73       29509.72       25155.95       20135.20
       17145.27       22444.34       34170.08       32828.63       21986.09
       17079.90       9071.125       3851.637       11915.73       23690.20
       31292.30       29841.12       22784.78       16105.90       5939.958
      -1485.627      -2101.102      -10166.87      -23914.59      -19935.87
      -6112.916      -161.7275      -2094.637      -8312.922      -8824.359
      -11557.36      -18650.84      -13756.76      -12114.33      -17829.63
      -9086.818       2023.422      -4376.848      -15355.28      -14023.40
      -2621.730       11263.95       27683.44       39320.20       37248.29
       23475.56       4518.195      -17180.98      -35905.67      -33374.30
      -7279.641       19316.61       28819.16       22944.55       17187.18
       8227.355      -8295.094      -10309.00      -2581.350      -9279.688
      -13183.54      -2289.981       4266.148       6920.723       14878.01
       19278.62       17232.93       16715.84       14910.48      -1316.957
      -18559.12      -27564.44      -28001.34      -15966.71      -3276.969
       13832.65       34444.07       36693.40       17003.95      -7426.719
      -22369.44      -28093.40      -27111.04      -17193.68      -5803.545
      -1173.018       4979.848       14150.77       13931.49       3522.977
      -6041.594      -13689.17      -12207.81      -4204.689      -5981.363
      -10550.15      -6885.049      -4970.859      -6043.295       1340.039
       13875.75       11904.70       2231.564       8049.266       14120.99
       6874.266       4750.191       10163.76       8095.376       3649.188
       5103.388       379.0312      -7885.343      -4571.182       4086.619
       4397.994       1801.307       1762.145      -909.2466      -479.1621
       5286.563       4466.734      -2437.438      -12257.64      -19849.06
      -14542.60      -5515.414      -4265.850      -589.1802       1968.746
      -4774.873      -10451.62      -11663.82      -15186.15      -16509.34
      -7432.766       5754.561       11078.55       7641.950       22.90820
      -7877.039      -10670.34      -3828.777       3096.895       2683.340
       3769.574       10758.43       14443.62       13486.17       6348.973
      -8701.020      -16944.15      -13433.82      -6328.255      -18.66992
       4892.547       12834.23       16013.60       4340.678      -11067.58
      -14691.73      -12368.72      -7157.975       2403.211       10144.53
       18484.11       18875.76       6351.958      -463.5996      -1483.688
      -5280.268      -8382.979      -7608.767      -3921.183      -1961.892
      -3704.152      -3033.249       1109.669       2411.659       1603.916
       2105.305      -6290.863      -16325.50      -12525.46      -8460.779
      -9424.407      -1330.000       8819.922       9576.912       2388.579
      -1810.664       2145.926       111.2871      -5597.430      -6336.689
      -3029.812       559.5776       419.5430       5008.881       10323.79
       9959.013       6597.377       1640.508      -3198.811      -2374.600
       6617.824       16398.39       21298.83       18607.27       9842.734
       1427.793      -7954.293      -10958.64      -4995.020       3242.146
       11285.70       9629.409       379.2832      -5516.275      -3775.430
      -3111.613      -13287.55      -14444.86      -5900.847      -3735.949
      -3876.132      -986.9126       1045.664       3030.517       3573.062
      -1221.154      -1067.731       4820.974       3857.714       3961.414
       6682.996       1714.269       630.4062       2881.708       1960.369
       4076.897       7105.396       2169.836      -10741.36      -15704.78
      -12155.60      -9895.867      -8173.949      -5518.895      -6579.264
      -9313.414      -10747.26      -8889.687      -4416.179      -3276.972
       380.0156       9560.859       10618.17       7349.451       11390.80
       9800.961       4786.566       5973.465       4448.451       4217.833
       4897.447       6463.477       13065.30       15340.83       10797.41
       9677.047       10630.64       8742.225       394.1094      -6660.148
      -3753.130      -3249.942       404.7461       11216.47       12061.97
       5559.221      -2152.836      -6767.938      -7976.722      -5054.621
       2582.443       3700.824       4864.301       8578.432       6219.835
       1139.914      -5256.919      -7351.957      -1304.113       5510.855
       6529.275       4454.831       3661.783       3657.918      -5607.023
      -18409.73      -18620.96      -14092.58      -10065.59      -1029.981
       6600.432       1219.938      -11579.38      -11531.23      -11672.25
      -16396.35      -10698.23      -2594.691       6357.814       7639.199
      -5532.404      -9390.920      -5233.961      -9937.656      -13784.19
      -10447.51      -3873.629       1579.464       3681.529       2976.406
      -3613.932      -8925.922      -7580.715      -6928.496      -8677.613
      -9423.535      -8824.330      -4173.008       5999.973       15178.01
       12188.85       1834.129      -5013.236      -8791.848      -7770.619
      -1054.572       4758.400       9125.062       8850.480       665.9121
      -4837.549      -1842.348       1309.383       4270.207       7384.260
       4968.863       5079.465       9766.014       7186.814       1922.747
       3972.922       7856.398       8600.672       10765.89       6328.553
      -2958.062      -1126.780       5515.161       4572.518       3178.391
       2645.020      -4301.645      -9642.199      -7898.947      -6309.604
      -4398.076      -762.9639       496.8594      -2530.050      -3502.299
      -1033.714      -1494.532      -276.7500       3327.277       4540.063
       4542.561       5384.383       5086.442      -827.9229       1436.332
       12760.99       12003.46       3056.360       1133.457       2439.020
      -1070.414      -10229.15      -13455.01      -5016.812       2447.252
       2619.571       2376.692       1912.713      -1600.783      -6269.875
      -9008.023      -7102.037      -5147.786      -4247.445       1530.456
