     0.02500000      -274905.9       281800.2      -12345.00      -12345.00
      -29.99501       222.0550      -24.42000      -12345.00      -12345.00
       0.000000       18.42000      -12345.00      -12345.00      -12345.00
      -12345.00      -12345.00      -12345.00      -12345.00      -12345.00
      -12345.00      -12345.00      -12345.00      -12345.00      -12345.00
      -12345.00      -12345.00      -12345.00      -12345.00      -12345.00
      -12345.00      -30.40760      -69.24540       1968.000       0.000000
      -31.54000      -68.94500       0.000000       103500.0       0.000000
      -12345.00      -12345.00      -12345.00      -12345.00      -12345.00
      -12345.00      -12345.00      -12345.00      -12345.00      -12345.00
       128.7864       347.0475       167.2014       1.157921      -12345.00
      -12345.00       434.8260       0.000000       0.000000      -12345.00
      -12345.00      -12345.00      -12345.00      -12345.00      -12345.00
      -12345.00      -12345.00      -12345.00      -12345.00      -12345.00
      2008        49         8        51        28
       120         6    -12345    -12345     10083
    -12345    -12345    -12345    -12345    -12345
         1         7        13    -12345    -12345
    -12345    -12345    -12345    -12345    -12345
    -12345    -12345    -12345    -12345    -12345
    -12345    -12345    -12345    -12345    -12345
         1         1         1         1         1
ARRO    -12345          
        -12345  -12345  
-12345  -12345  -12345  
-12345  -12345  -12345  
-12345  -12345  -12345  
-12345  -12345  -12345  
-12345  -12345  BHZ     
ZL      -12345  -12345  
[...]
      -1388.577      -1670.011      -1389.647      -1706.672      -1485.326
      -1761.965      -1551.068      -1907.362      -1668.419      -1967.059
      -1736.420      -2041.711      -1793.653      -2078.866      -1842.609
      -2165.724      -1921.450      -2232.764      -2015.212      -2308.188
      -2042.493      -2341.065      -2098.404      -2397.473      -2157.607
      -2466.125      -2237.938      -2508.540      -2217.245      -2519.107
      -2282.305      -2551.359      -2302.486      -2615.927      -2342.034
      -2602.997      -2376.753      -2673.419      -2393.506      -2694.131
      -2477.633      -2724.027      -2440.003      -2755.121      -2524.092
      -2794.364      -2534.755      -2797.804      -2520.086      -2781.832
      -2537.829      -2843.109      -2610.983      -2917.013      -2689.057
      -2952.072      -2668.155      -2933.858      -2669.060      -2934.737
      -2691.089      -2984.555      -2727.801      -2968.875      -2409.167
      -1463.708       2111.738       8145.352       18916.09       33150.66
       45734.00       53147.16       60248.03       62923.28       60768.77
       48154.92       21434.80      -10153.16      -50352.92      -81037.75
      -72946.81      -89951.44      -124909.4      -61334.25       31022.30
       55849.38       50291.82      -576.8438      -83425.78      -117749.9
      -34801.28       62843.30       69226.98       4936.125      -129949.4
      -170005.4      -18883.53       106456.1       95502.31      -17593.50
      -112741.3      -60125.84       81596.00       82797.08      -60597.31
      -67970.31       10820.94       3265.814      -5787.336       10834.00
       16701.34       26775.22       71952.66       89930.81       44063.34
       17306.08       37312.64       64365.98       57245.56       42940.55
       25006.64      -53533.56      -110800.5      -96131.02      -80691.70
      -78101.56      -64943.36      -60165.05      -59895.35      -35773.52
      -10877.02      -10118.88       31406.81       116153.7       131414.5
       80672.91       55024.97       27960.99       2090.924      -1091.672
      -5999.570      -20242.36      -41670.16      -43263.16      -51767.12
      -82083.20      -74711.48      -36014.20      -22518.46      -19553.95
       23433.88       85830.36       64463.50      -36106.99      -60125.64
      -1696.961       34715.37       34490.90       40853.34       20236.00
       7618.000       37633.60       20628.72      -26535.50      -20788.71
       18619.16       35053.38       7117.750      -39770.06      -75309.81
      -68088.32      -33774.56      -23172.04      -21536.25       16499.48
       44585.81       21648.40      -8495.572      -8961.055       18980.82
       30678.84       15745.54       7382.414      -24411.67      -60325.54
      -32480.42       198.0195      -22096.55      -9503.078       29291.09
       19227.41       510.3940      -4005.483       2898.605       2660.891
      -28319.05      -27951.75       20086.19       29044.27      -17246.07
      -40558.41      -34953.82       2761.055       36794.85      -4359.234
      -42041.05      -5024.547       23080.70       7844.816      -3465.877
       8921.113       6183.570      -3859.629       6210.303       8758.102
      -10879.88      -39135.80      -10828.71       24074.58      -15903.40
      -5850.859       50222.38       36156.93      -2957.561      -936.6641
       8020.383       18438.38       25468.75      -6167.371      -18193.58
       8608.305       333.9062      -18650.23       4887.430       17536.86
      -11506.23      -23319.35      -6236.958       8172.613      -9000.555
      -25179.92      -16687.52      -14706.67      -33559.16      -36253.09
      -16029.89      -13139.95      -19901.36      -21256.34      -8153.000
       25726.43       40566.81       12307.14      -24558.50      -16954.87
       6285.848       9535.291       11197.61       2746.293      -10413.16
       3031.863       1468.421      -7766.766       17221.62       15963.05
      -18507.18      -12936.16       5906.480       14259.97       24115.01
       11663.25      -8386.979      -6783.521       2201.415       4966.532
       633.0732      -3138.312      -1105.130       8532.781      -6225.789
      -36403.57      -9527.148       39572.79       25417.20      -4298.037
      -2135.338       3287.797      -15622.18      -35222.57      -35270.11
      -13182.21       7334.234      -7269.055      -32947.69      -47798.02
      -39952.37      -6216.252      -1517.678      -9207.102       10423.76
       19190.05      -7234.291      -8649.641       24853.76       27466.56
       13172.71       14954.62       30615.45       38715.60       8983.055
      -14125.90       919.3779       9378.740      -7988.934       942.8135
       10851.74      -5726.348      -6607.926      -4185.846      -11245.36
      -2367.596       10546.88       4021.211      -13163.41      -21551.66
      -32947.08      -28542.52       4432.484       17608.74      -3395.305
      -16687.09      -18286.34      -26027.31      -19569.36       15224.64
       35143.20       20548.55       5210.320       1732.812      -10617.50
      -13071.24      -7173.975      -9324.141       7816.113       25887.60
      -10796.90      -31168.44      -4623.764      -1799.531      -12122.65
      -11261.46      -14628.60      -5466.727       13343.12       26611.43
       18023.81       6855.844       27353.03       40070.48       24226.74
       18422.25       24247.02       20373.77       12363.87      -1343.219
      -19169.38      -25421.98      -26052.13      -14182.72       22365.00
       59713.82       17869.97      -64408.33      -65477.93      -20712.05
       1585.055       17912.77       24005.56       20691.27       175.6094
      -30945.72      -41102.16      -13907.78       37704.47       54664.99
       17690.92      -11013.82      -12008.84      -27305.97      -49591.01
      -5942.938       44823.91       11086.62       949.7500       41085.20
      -6898.781      -95322.44      -90923.44      -8860.250       49653.76
       39687.39      -11374.88      -36441.34       1305.156       58877.31
       81164.06       64856.92       30045.45       12030.68       11145.57
       7017.914       9400.891       19810.67       14709.17      -21407.01
      -52435.89      -17402.60       18467.89      -6435.703      -31009.77
      -34856.97      -35055.43      -23109.63      -11042.71      -18125.88
      -28351.64      -14025.34       15880.05       46505.64       26204.62
      -19308.46      -4908.547       39484.62       49743.36       25573.61
       14816.72       41933.70       42459.18       6564.867      -28440.86
      -31103.16       6880.898       29529.20       23588.70      -4469.383
      -31794.28      -43591.53      -54418.16      -16824.06       46488.39
       63966.05       14262.36      -26846.51      -2248.023       28632.95
       34615.66       40904.38       29586.91      -9699.172      -48082.09
      -57179.82      -25342.48       3330.881      -4488.938       14048.94
       45759.80       33018.31       23366.40       34938.94       10895.54
      -8130.262       13444.49       9785.234      -19889.93      -3052.592
       16047.52      -17572.73      -23651.95       14485.78       24655.69
       3114.342      -9704.246       9072.451       12775.30      -3337.801
       5243.250       18717.50       9052.023      -2336.297       13437.50
       38960.90       44064.31       10679.08      -41067.61      -23790.39
      -10766.19      -46102.30      -37612.41      -12407.26      -11308.86
      -20775.87      -15171.03       20570.01       37266.14      -5053.408
      -21838.55       32098.27       46393.82       31020.54       27645.41
       9166.250      -10544.73      -10774.73       22000.52       59577.00
       35412.71      -11287.42      -2824.301       22058.25       5055.113
      -20526.34      -21629.73      -7609.494       2794.414       13785.27
       17122.83       5527.414      -3240.246       8781.919       7472.369
      -2279.739       4280.064       7236.855       12201.47       5238.688
      -3883.594       9941.875       20416.34       25529.05       18348.79
       5098.109       14176.70       22393.62      -4274.447      -15432.88
       4063.344       15195.61       13938.16       11257.60      -7535.102
      -21855.99      -19959.90      -28409.21      -13591.12       34024.73
       66730.88       66193.26       23759.39      -15204.68      -12579.77
       32660.69       82555.36       70186.80       14223.05      -12776.88
      -7975.412      -5886.304      -5730.660       526.0898       14766.05
       17580.65      -4038.186      -1352.036       2186.109      -7530.102
      -3219.074       5720.867       14295.80       19654.59       23114.52
       5747.504      -21000.91      -7798.766       20702.81       35133.69
       17645.47      -1385.966       4595.635       1150.359      -19264.47
      -25581.93      -161.0859       4002.859      -20484.38      -11198.58
      -5055.336      -16845.41      -25155.85      -14125.54       17808.62
       29861.79       26638.60       21927.06       20587.84       38830.73
       58746.69       54278.19       15676.79      -12473.95      -11552.17
       6044.930       24920.19       20126.17      -272.4453      -10321.36
      -8592.676       391.1699      -92.79834      -158.1758       7622.906
       18697.53       20923.77       10540.66       16426.33       31331.99
       35550.96       30002.89      -847.0547      -20184.98      -11773.76
      -2875.844       2980.249      -3295.309      -1067.031       21517.13
       19807.58      -9552.771      -18545.61       25196.47       60640.73
       53451.97       36043.06       24347.76      -3937.867      -36968.83
      -28661.14      -8999.230      -10590.57      -13934.85      -30283.02
      -24503.19       9230.717       8482.359      -23446.91      -47732.00
      -35885.65       14562.67       45537.88       32522.01       24858.59
       16605.03      -29288.24      -42439.98       8581.734       48989.62
       45459.72       52441.02       77437.00       89967.05       60788.50
      -6770.609      -51702.50      -38735.85      -6650.422      -3514.777
      -15917.34      -15768.65      -17399.77      -28257.92      -37377.16
      -17840.86       1186.826       730.0156       22167.50       66982.89
       77006.16       41836.88       44945.94       60833.65       22139.11
       11431.72       13499.48      -15379.09      -29978.03      -18471.58
       2465.506       7731.871      -9979.242      -12629.68       23687.11
       22475.79      -31648.22      -50055.95      -39288.67      -24118.80
      -7288.297       27775.25       52062.73       48201.23       25818.94
      -739.8613      -4758.398      -18407.99      -18777.18       15829.26
       24845.57       17912.82       3246.906      -38914.73      -75717.97
      -77538.13      -39689.17       12991.26       28731.84       8110.391
      -26961.48      -43274.52      -38938.58      -17559.39       19866.25
       42658.38       32962.24       4247.552      -8279.767       3459.242
       7463.945       18108.75       21528.98      -17248.24      -40454.00
      -21179.46       3044.062       18417.54       15605.50       18930.58
       14902.68      -9993.930      -4080.883       34834.05       45628.78
       33156.81       26854.58       22271.20      -3980.922      -35196.15
      -35398.69      -32978.47      -51891.66      -51633.60      -19811.06
       1873.438      -17628.47      -55598.50      -92682.75      -111550.0
      -90670.99      -43402.70      -3175.574       14041.82       1260.430
      -25871.12      -64831.84      -90064.98      -63267.38       9646.062
       70926.27       70315.26       37736.77       2491.254      -3640.102
       31536.41       56395.44       96129.38       130526.0       105922.0
       50804.39      -9236.219      -65360.41      -94653.47      -80821.52
      -33911.42       12509.26       25857.24      -21460.69      -68188.21
      -49491.96      -8701.641       1574.062      -24517.34      -60157.69
      -60379.23      -45669.31      -47384.17      -21445.98       28326.41
       40852.78       61620.47       93603.12       95486.09       123484.5
       153126.0       119831.4       99488.94       101223.8       61561.86
      -3667.125      -45655.05      -60686.06      -88870.38      -132830.1
      -146546.0      -137354.8      -126849.8      -108818.5      -107187.8
      -150419.6      -192438.4      -197284.9      -215063.2      -251769.2
      -212590.1      -100938.4      -10229.53       39955.93       52307.52
       14854.80      -37177.52      -66629.30      -6827.281       120106.6
       200333.8       251159.0       281800.2       198507.0       35374.50
      -97951.81      -151695.8      -161785.9      -192468.9      -204699.6
      -150338.3      -62056.11      -4161.672      -54266.12      -150830.9
      -160156.6      -80440.83       11394.22       122826.4       204334.2
       148149.5       43901.33      -32050.75      -99133.19      -90752.27
      -20469.31       102781.0       236594.8       225838.3       116901.6
       21559.28      -89297.31      -137650.8      -69123.15       5216.312
       53267.02       42633.19      -78227.69      -180418.2      -217288.4
      -219024.2      -181070.6      -154996.1      -131322.8      -53439.00
       52384.16       98981.45       67870.19       39248.76       35504.27
       45565.73       64074.86       67381.16       68383.19       120499.0
       152825.3       99615.36       65123.53       75402.84       69416.16
       31849.15      -21680.97      -55152.80      -84586.20      -90792.05
      -39232.34       29905.11       54267.25       79645.84       115137.9
       90057.03       65142.50       99572.25       148450.3       170604.4
       166512.1       135026.6       69761.73       24686.78      -3634.336
      -18211.86      -26593.27      -67539.66      -124638.1      -148143.8
      -128334.1      -121537.6      -114396.7      -111575.5      -133704.6
      -120182.5      -111749.3      -123875.4      -127170.6      -110152.7
      -92062.81      -95474.62      -89315.66      -86077.55      -80223.13
      -38194.54       13148.03       60371.56       112663.2       142700.4
       132682.4       119012.6       89383.31       57240.91       48696.39
       43481.67       36480.21       28540.28      -13743.70      -71694.25
      -89639.38      -82621.17      -70326.71      -44885.70      -3978.117
       43282.32       42762.55      -7246.906      -39566.42      -25807.55
      -13108.45      -1306.488       29376.89       3611.125      -107412.1
      -205012.9      -230505.1      -209132.1      -151422.1      -86981.73
      -72618.19      -63875.88      -50869.25      -79036.20      -94125.84
      -17775.12       100553.9       159325.1       154112.5       150141.2
       176616.9       204637.7       198274.8       196383.3       184596.4
       100760.0      -7304.266      -64286.41      -81064.92      -80577.38
      -97193.69      -161878.0      -222597.6      -177776.8      -34058.38
       77083.12       98304.31       106278.6       120480.6       121367.9
       108297.7       58869.98       39948.19       81245.58       93901.41
       67788.90       8053.125      -53732.38      -93852.94      -112893.7
      -87424.64      -56020.89      -56764.31      -76315.53      -103866.2
      -101188.0      -37336.39       61732.44       138288.1       147281.8
       92922.73       22886.04      -23356.11      -17919.48       5087.102
       22565.93       24149.47      -41470.00      -124399.5      -143218.3
      -132021.3      -117686.3      -85916.19      -42685.21      -26608.30
      -25665.98      -292.7812       45796.41       68749.28       68280.05
       64872.41       63554.47       88872.53       93149.93       35103.25
       15729.97       75861.53       131581.1       125237.5       94671.20
       68512.81       34080.90       13091.42       53430.44       128966.4
       136740.8       97602.59       125341.3       150303.3       113101.2
       89129.59       87556.77       78785.92       62285.08       50139.49
       42021.88      -16021.12      -82503.81      -111423.2      -173050.0
      -246389.7      -235512.1      -187220.6      -199087.1      -224763.8
      -209422.2      -177063.1      -96734.37       10806.84       75972.44
       96829.47       115368.3       146350.9       156093.5       145660.3
       157331.6       167611.4       103966.0      -5099.188      -68720.92
      -93352.90      -55251.84      -6736.320      -17099.61      -38144.53
      -84492.75      -101224.8      -46317.09      -8835.590       10434.63
       10321.88      -21490.23      -36060.24      -27482.51      -16085.94
       12176.77       29539.94       1647.672      -39740.92      -60013.76
      -49986.23      -28136.91      -34818.20      -29614.75       6958.719
       32353.00       33345.75       61706.78       148396.2       211831.8
       196402.0       133379.5       68840.27       26242.62      -14168.30
      -51764.66      -70937.56      -60915.05      -43052.17      -31909.88
      -5079.281       36845.36       62922.20       68093.81       63089.06
       64460.16       82614.75       101554.9       111577.1       104970.1
       70280.42       34965.90       11830.91       29841.45       77640.86
       72858.47       21292.47      -18166.55      -38677.02      -37226.84
      -15345.98      -16144.05      -38432.81      -44235.42      -59231.97
      -71738.20      -60605.94      -52743.17      -62751.09      -80423.22
      -90967.48      -80443.69      -52500.81      -47191.08      -57863.81
      -53875.98      -48072.29      -21582.79      -1218.516      -17771.22
      -21939.67      -6654.922       10397.91       44777.53       94194.12
       142630.8       167211.5       181599.1       199819.7       199770.2
       158537.4       102379.2       62788.77       33995.53       13747.36
      -9607.227      -24615.86      -31786.81      -65009.59      -93632.78
      -89090.47      -64468.00      -43393.39      -36846.60      -42658.64
      -42120.78      -44247.19      -79427.23      -94970.06      -71912.46
