     0.02500000      -804650.5       769982.8      -12345.00      -12345.00
      -29.99501       222.0550      -24.42000      -12345.00      -12345.00
       0.000000       18.42000      -12345.00      -12345.00      -12345.00
      -12345.00      -12345.00      -12345.00      -12345.00      -12345.00
      -12345.00      -12345.00      -12345.00      -12345.00      -12345.00
      -12345.00      -12345.00      -12345.00      -12345.00      -12345.00
      -12345.00      -30.40760      -69.24540       1968.000       0.000000
      -31.54000      -68.94500       0.000000       103500.0       0.000000
      -12345.00      -12345.00      -12345.00      -12345.00      -12345.00
      -12345.00      -12345.00      -12345.00      -12345.00      -12345.00
       128.7864       347.0475       167.2014       1.157921      -12345.00
      -12345.00       297.7279       90.00000       90.00000      -12345.00
      -12345.00      -12345.00      -12345.00      -12345.00      -12345.00
      -12345.00      -12345.00      -12345.00      -12345.00      -12345.00
      2008        49         8        51        28
       120         6    -12345    -12345     10083
    -12345    -12345    -12345    -12345    -12345
         1         7        13    -12345    -12345
    -12345    -12345    -12345    -12345    -12345
    -12345    -12345    -12345    -12345    -12345
    -12345    -12345    -12345    -12345    -12345
         1         1         1         1         1
ARRO    -12345          
        -12345  -12345  
-12345  -12345  -12345  
-12345  -12345  -12345  
-12345  -12345  -12345  
-12345  -12345  -12345  
-12345  -12345  BHE     
ZL      -12345  -12345  
[...]
      -1215.819      -1023.928      -1200.305      -1099.567      -1211.229
      -1007.000      -1164.661      -980.2725      -1063.093      -949.1875
      -1149.585      -988.6855      -1186.443      -1146.034      -1293.154
      -1052.991      -1232.395      -1088.949      -1140.672      -987.6912
      -1209.566      -1051.827      -1202.691      -1105.107      -1282.862
      -1094.718      -1236.992      -1103.050      -1248.130      -1070.412
      -1251.308      -1123.764      -1261.611      -1108.041      -1314.705
      -1186.206      -1342.496      -1194.643      -1383.709      -1246.361
      -1413.404      -1283.712      -1456.820      -1282.748      -1444.247
      -1330.866      -1504.443      -1353.220      -1594.883      -1524.323
      -1671.533      -1495.450      -1693.485      -1535.160      -1669.220
      -1546.050      -1749.171      -1635.531      -1854.902      -1730.560
      -1911.208      -1750.923      -1915.043      -1759.974      -1903.897
      -1753.271      -1981.167      -1898.768      -2079.204      -1945.492
      -2128.451      -1927.192      -2071.256      -1912.298      -2101.911
      -2155.881      -2867.962      -3786.596      -5483.822      -7290.793
      -9330.957      -8252.289      -6767.254      -9690.355      -12329.02
      -10311.77      -10770.14      -11235.95      -7229.429      -1238.260
      -4609.172      -12536.34      -1769.010       12586.61       5648.008
       19695.87       35231.86      -1960.297      -35018.51      -21513.15
       11436.73       24110.58       26184.73       33301.43       21486.80
       26930.91       33249.28       21579.90       13260.50      -31838.14
      -52774.33      -1569.191       21105.18      -17705.14      -52880.66
      -26256.36       6228.145       3730.711      -2076.375      -22003.05
      -34492.20       1474.969       34537.85       28629.49       11897.94
      -32207.73      -83799.04      -59157.48       10121.52       30743.79
      -3048.414      -40476.59      -38154.99       1873.516       42039.16
       52684.12       16127.71      -9627.992       13503.89       30040.59
       22371.04       2645.136      -8220.770       11638.58       13890.48
      -7120.856      -8906.633       4805.172       15871.02       4802.967
      -6996.131      -2672.172      -12644.12      -12068.20      -5649.656
      -29731.91      -42852.45      -14352.07      -10915.80      -36062.05
      -13529.64       12461.98      -21123.24      -29084.05       17778.88
       68620.66       84590.74       37871.40      -4819.600      -14799.65
      -2909.113       21120.35      -551.3438      -33506.53      -32410.78
      -32217.48      -29670.98      -12373.34      -2765.047       8424.422
       17609.96       17882.73       15500.57       27594.72       34108.22
       15449.40       4202.948       3973.730      -4795.871      -15974.35
      -25193.26      -27978.96      -16599.20      -7667.910      -4790.975
       6519.560       1557.653      -7253.070       11934.21       21661.35
      -1365.812      -15910.23      -20061.17      -23748.96      -19175.63
      -5754.727       3210.730      -1098.104      -1864.172       4939.605
       17451.08       27576.22       24651.45       7389.719      -18908.81
      -35262.02      -24926.99       7572.664       11475.70      -24590.31
      -35362.71      -13241.23      -16559.46      -23520.55       4927.070
       35828.41       31463.12       21386.40      -5541.664      -39102.62
      -16022.92       14776.21      -662.6016      -18091.42      -5833.809
       11780.20       7287.547      -12908.09      -14992.28       19222.34
       31922.26      -2264.185      -11680.78       9508.227      -5619.477
      -29566.06      -27653.73      -16795.77       10875.41       30491.23
       8640.232      -14426.91      -2646.453       20076.01       29178.00
       29687.84       18048.58       2482.016       4557.203       16100.94
       1151.438      -30302.71      -38054.95      -31668.03      -32189.14
      -26732.36      -17166.59      -12950.23      -18687.36      -15100.01
       2649.070       13291.38       12906.81       8151.992       11505.38
       25137.53       11523.55      -17279.91      -6171.609       13720.86
       4716.129       3484.406       17895.05       23842.60       8562.609
      -8631.062      -21268.40      -25073.32      -13147.44      -18376.09
      -35069.80      -21545.14      -6115.746      -11972.48      -20161.94
      -25997.59      -27619.84      -19781.49       2273.344       21861.62
       24195.80       30707.30       26531.53       4063.102       9418.969
       34610.77       13591.52      -34823.12      -31214.99       7394.875
       3781.523      -24371.46      -20414.52       3748.206       3574.898
       1351.156       20829.51       28121.18       11577.38       1316.965
      -2414.547      -13698.70      -7827.413       7950.359      -1508.744
      -14676.28       540.9883       20580.01       15226.00       9474.043
       8686.879       5264.463       2412.705       2039.158       8737.275
       13862.18      -5125.156      -32098.81      -38112.89      -20710.96
       2928.479       5112.688      -11709.39      -12945.12       3536.156
       16319.42       14607.29       13233.97       23629.57       20569.91
       2556.422      -5762.164      -11330.45      -13971.22      -15483.00
      -23902.70      -26483.98      -31341.47      -35356.50      -19302.95
      -21451.99      -23207.84       8330.258       20270.61       8839.312
       14066.86       24823.45       19694.24       13664.28       17072.68
       62.06250      -15449.52      -340.2578       11322.80       10860.35
       29664.21       28582.91      -6999.781      -31098.89      -32948.88
      -13076.13       13224.34       24494.47       10378.78      -16603.48
      -15580.44      -7201.016      -20085.88      -4323.773       33487.99
       22368.86       1302.625       17994.38       33162.10       21855.06
       4652.707       5779.578       16007.66       5916.891      -15454.60
      -11949.05       5747.223       2141.726      -315.9414      -5757.820
      -21283.80      -36908.77      -36544.23       7885.039       25518.10
      -9739.453      -19295.67      -11129.48      -7994.883       6172.379
       23270.59       18499.36      -15910.70      -25426.73       10610.53
       20435.91       21736.48       36247.77       17000.31      -6475.848
       1560.188       21103.91       22397.11      -175.0488      -7953.444
       5347.304       4471.805      -13501.88      -23492.97      -21733.43
      -508.7500       26906.05       27798.72       24269.84       40976.01
       29831.93       3554.797       15897.11       29539.01      -2106.328
      -38979.05      -36982.54      -22360.06      -13622.64      -20489.48
      -43421.71      -34715.23      -5189.711       4142.980       32.04688
       18290.40       23275.84      -4024.297      -2417.234       25898.43
       39885.32       5267.125      -33151.27      -9482.621       13482.14
       8688.998       10547.63       4609.753      -1571.352      -3958.453
      -9459.855       4163.040       4357.415      -4279.070       18675.50
       25799.88      -5605.898      -27473.80      -26709.39      -9875.500
       21586.68       37408.34       25722.05       28929.59       47922.14
       44019.09       20523.17       2056.762      -13201.35      -19502.81
      -23740.10      -29248.42      -11734.98      -2700.992      -33362.66
      -48083.76      -16518.81       17700.17       37659.03       63186.20
       67261.22       31527.52       6765.680       27731.83       41247.25
       28891.56       38092.02       34252.15      -2458.938      -22886.58
      -33496.39      -36889.91      -30537.14      -33570.66      -29185.63
      -245.6699       2480.047      -23096.23      -17912.37       2397.930
       6970.857       8450.211       13486.78       19833.09       21495.27
       12793.70      -4366.420      -7801.035       2897.750       2739.146
      -2569.185       362.4429       1302.527       2388.945       20617.83
       25789.63       114.5605      -11617.14       6497.904       10824.81
      -17528.82      -24048.82       6165.156       34851.38       27085.83
       914.2031      -14957.48      -19323.65      -5306.830       2190.560
      -8099.799       795.6641       25344.55       21103.77      -1347.615
       4113.867       20140.52       11008.64       3078.316       10774.94
       4885.109      -18121.45      -34354.09      -15697.20       5117.954
       3357.209      -242.1328      -18343.63      -40374.02      -27676.95
       20914.94       52847.33       35160.37       10575.61       10947.03
       39187.92       65585.22       49118.23       9712.139       3302.352
       10377.81       996.6406       8608.621       17039.21      -683.6133
      -24740.86      -12143.81       26019.98       24951.82      -4172.031
      -23989.82      -18492.44       6860.758       21102.85       19412.75
       20056.64       32162.47       24622.43       1324.541       2262.256
       2606.625       13287.94       42356.91       22304.34      -27279.78
      -27083.58      -3351.383      -7839.527      -17992.63      -8330.979
      -1803.613      -11989.46      -15358.94      -5393.965      -10128.62
      -15522.90      -1968.559       11638.34       25610.59       27715.01
       10589.40      -1748.469      -9513.477      -6664.294       2479.609
      -9296.109      -19402.52      -15393.67      -6769.155       704.4502
      -606.7734      -6541.871      -13670.89      -16466.41      -6971.500
       6409.203       18053.69       40689.20       46414.30       30115.77
       21805.44       6976.055      -14413.34       10398.38       37578.94
       8553.511      -3931.672       15371.98       34425.81       38504.95
       28756.92       26466.94       21815.69       15235.23       18925.25
       34943.05       43093.51       23842.89       4642.686       7869.004
       12170.27       12316.94       10055.21      -7320.906      -14656.22
      -6197.363      -11538.46      -21278.72      -25193.83      -19316.67
       1927.355       18286.67       1929.312      -26773.79      -24021.76
       4239.916       13618.06      -7467.684      -16119.32      -4110.721
       9229.207       13585.95       13891.19       23133.63       19122.44
      -10850.74      -9509.484       32049.88       50096.35       29497.45
       1218.719      -19979.88      -32112.48      -20333.61       7516.375
       28433.56       24740.04      -1742.188      -24561.40      -14661.62
       25128.55       39124.64       19595.92      -8630.029      -18242.63
       10486.27       25588.04       7119.504      -3721.684      -7321.773
      -26876.27      -33741.05      -10529.64       5329.360       4314.758
       4392.994       7967.961      -2815.590       9102.055       38128.37
       29872.61       5419.004      -14892.81      -2754.188       40607.75
       54493.50       31492.08       1671.156      -14493.80      -26113.02
      -27345.89      -371.4531       12449.30      -1966.993      -7896.654
       4028.949       12688.96      -6414.411      -7803.859       18667.59
       28352.98       25696.66       17215.63       9386.711       18454.15
       14265.10       5388.133       15702.51       3405.500      -18069.50
      -26463.84      -40179.50      -32546.75       2833.572       16494.38
      -17221.89      -45859.44      -39900.12      -28958.10      -11232.47
       21165.05       12308.30      -16636.54      -4909.830       13995.27
       3571.361      -5905.621      -202.4609       69.28125       19103.84
       42097.70       29791.32       18062.66       11656.02      -4893.832
      -11539.49      -745.0605       8705.932       8041.250      -7678.109
      -34986.69      -65459.44      -82265.08      -67511.88      -30189.96
      -4587.930      -9057.609      -36763.03      -68954.53      -68031.56
      -44817.66      -24174.17       10011.89       16173.67      -38299.69
      -103369.3      -114570.4      -79830.70      -29399.55       1071.516
      -3956.465      -13167.44      -21494.80      -33322.26      -30100.30
      -27063.27      -29192.25      -35216.47      -61772.53      -86941.69
      -93040.38      -104224.3      -127486.6      -183528.5      -282391.0
      -360320.9      -397201.8      -433662.4      -442314.5      -408830.0
      -361638.7      -291416.0      -196765.7      -141303.3      -112563.7
      -29766.94       123396.9       351214.4       606034.2       752486.5
       769982.8       739360.2       697589.4       596758.4       423881.1
       293385.8       301499.4       344651.0       267699.3       143580.7
       4720.250      -312305.0      -664671.2      -804650.5      -741181.1
      -464100.2      -99278.36       71504.14       63750.97      -56811.81
      -272367.8      -375460.9      -270142.0      -45592.38       241408.6
       497393.5       672362.5       755571.2       607499.9       295455.6
       170117.0       217047.1       185272.5       118628.8       139198.1
       167497.3       21293.25      -328045.2      -539783.8      -408503.7
      -222443.3      -138190.5      -31583.15       31003.56      -50319.38
      -175491.8      -223135.9      -224754.2      -208401.4      -135223.8
      -62567.00       1413.930       51877.92      -29633.41      -144720.3
      -118355.1       21957.38       161508.4       225882.2       224544.7
       200724.0       110184.2       37491.88       121771.0       198907.9
       126880.5      -32185.12      -187837.5      -193917.7      -76670.55
      -27520.28      -67510.97      -94230.41      -91554.22      -97133.22
      -98155.84      -55501.59      -50375.12      -79896.73      -38899.71
       7027.391       25629.80       30920.09       12822.47       44359.34
       27294.55      -56007.35      -46517.38       3494.406      -31308.50
      -111194.1      -140618.6      -61644.19       29901.22      -56778.31
      -198211.8      -149585.7      -17630.31       68750.00       152217.6
       224540.9       226356.8       184296.0       127994.2       62074.12
       42389.04       24291.08      -43030.88      -59496.27      -36039.67
      -52494.06      -67807.46      -35359.76      -9058.875      -53033.50
      -202281.8      -323126.3      -261853.1      -158203.5      -103911.3
       29161.75       162858.6       127758.9       6182.875      -55472.19
      -64946.98      -73991.63      -55740.77       7578.453       22602.84
      -34478.25      -121863.0      -217239.0      -265040.4      -261514.6
      -250087.2      -216802.6      -192173.8      -153788.4      -80333.75
      -78480.56      -124804.4      -43023.25       151482.1       254037.0
       219490.8       185308.1       241829.8       365347.0       421049.3
       354438.0       283608.8       267367.6       263920.9       262344.8
       221942.0       162415.2       111310.2       21975.19      -89501.81
      -156833.1      -183574.9      -216790.6      -236554.9      -190960.8
      -165895.6      -236668.3      -310611.4      -315527.7      -302497.9
      -290681.4      -230998.7      -112605.8      -37586.34      -57380.86
      -75524.23      -13709.47       50920.97       68008.30       68619.03
       72692.31       111963.1       168118.9       206153.9       226868.2
       179038.8       69682.47       23110.38       83574.75       205372.7
       307728.9       293335.2       250741.8       265312.2       262791.6
       225096.6       185495.9       127265.7       98575.59       132081.7
       102569.6      -41919.06      -94298.84      -28597.00      -88696.38
      -231692.6      -237366.7      -151285.3      -115716.2      -126586.2
      -112990.3      -120657.3      -151433.5      -124503.6      -81340.09
      -35362.03       63570.88       108839.5       33680.21      -16939.06
       46356.19       114987.5       128129.7       99136.42       62841.31
       51685.09       67323.50       110171.3       120508.4       101883.2
       101849.8       50404.38      -13516.15       6109.922       56413.13
       43513.16      -43203.06      -119267.6      -110230.6      -117393.8
      -203652.4      -227804.9      -187197.7      -221499.5      -244061.0
      -187446.1      -159062.4      -193081.3      -257975.6      -272366.4
      -195056.9      -104774.6       26603.09       152969.6       182349.0
       235656.6       297225.1       228603.8       168015.0       195930.3
       134436.1       3386.906      -41383.69      -59765.94      -118044.3
      -169196.8      -136963.4      -54597.09      -85960.22      -173814.6
      -109636.2       15376.27       32843.66       30640.47       80327.30
       88541.25       66082.00       56108.51       45435.89       17937.73
       399.0859       38411.07       39640.31      -28020.17      -11824.12
       95435.19       143164.9       77888.44       55709.31       172473.6
       236119.3       170695.8       173579.3       252712.2       264275.1
       202473.5       86477.27       10621.06       66889.75       90202.34
       52966.94       110219.3       178005.7       95660.02      -30700.02
      -61575.72      -38129.38      -22610.62      -81608.44      -189011.2
      -215384.8      -214566.8      -242627.9      -255322.4      -256022.2
      -246668.9      -241264.8      -229111.8      -179695.3      -126842.0
      -46718.25       50823.62       79917.88       89872.75       140666.5
       155299.8       140456.5       192272.0       256451.6       206915.3
       107158.5       87209.66       114637.9       91165.04       31132.31
      -29947.91      -78604.16      -73355.47      -47834.66      -93488.62
      -193031.4      -275179.1      -281101.1      -228775.4      -203818.1
      -163837.9      -88383.88      -108367.8      -174258.2      -130687.1
      -36372.91      -1106.555       17027.66       22092.14      -28239.20
      -74257.58      -62436.20      -8942.789       29954.39       7626.984
      -18444.94      -13277.57      -1326.766       20551.06       63712.12
       117811.6       173819.8       203966.5       169199.3       85408.39
       16297.90      -5813.777       1297.047       31560.28       85365.56
