     0.02500000      -1190996.       771625.2      -12345.00      -12345.00
      -29.99501       222.0550      -24.42000      -12345.00      -12345.00
       0.000000       18.42000      -12345.00      -12345.00      -12345.00
      -12345.00      -12345.00      -12345.00      -12345.00      -12345.00
      -12345.00      -12345.00      -12345.00      -12345.00      -12345.00
      -12345.00      -12345.00      -12345.00      -12345.00      -12345.00
      -12345.00      -30.40760      -69.24540       1968.000       0.000000
      -31.54000      -68.94500       0.000000       103500.0       0.000000
      -12345.00      -12345.00      -12345.00      -12345.00      -12345.00
      -12345.00      -12345.00      -12345.00      -12345.00      -12345.00
       128.7864       347.0475       167.2014       1.157921      -12345.00
      -12345.00       527.6017       0.000000       90.00000      -12345.00
      -12345.00      -12345.00      -12345.00      -12345.00      -12345.00
      -12345.00      -12345.00      -12345.00      -12345.00      -12345.00
      2008        49         8        51        28
       120         6    -12345    -12345     10083
    -12345    -12345    -12345    -12345    -12345
         1         7        13    -12345    -12345
    -12345    -12345    -12345    -12345    -12345
    -12345    -12345    -12345    -12345    -12345
    -12345    -12345    -12345    -12345    -12345
         1         1         1         1         1
ARRO    -12345          
        -12345  -12345  
-12345  -12345  -12345  
-12345  -12345  -12345  
-12345  -12345  -12345  
-12345  -12345  -12345  
-12345  -12345  BHN     
ZL      -12345  -12345  
[...]
      -491.0593      -783.7954      -448.9241      -804.1138      -475.3708
      -798.1487      -491.6965      -823.3954      -498.5957      -827.6954
      -510.5186      -855.4773      -478.7705      -816.5491      -487.2241
      -829.0057      -554.9019      -926.6729      -570.2175      -923.7229
      -606.7742      -925.9219      -561.6953      -962.7314      -638.6096
      -981.5586      -720.4580      -1143.115      -781.2659      -1115.978
      -797.4509      -1186.183      -874.9719      -1242.700      -925.3521
      -1325.684      -991.8115      -1389.659      -1068.560      -1396.681
      -1042.651      -1421.661      -1082.851      -1482.261      -1158.847
      -1555.100      -1263.312      -1655.488      -1288.122      -1666.271
      -1332.875      -1729.763      -1405.188      -1840.896      -1530.074
      -1900.777      -1553.574      -1986.023      -1677.940      -2107.163
      -1779.878      -2174.545      -1829.171      -2230.820      -1901.294
      -2315.567      -1970.718      -2374.595      -2031.774      -2450.226
      -2115.951      -2559.146      -2240.298      -2664.509      -2343.297
      -2766.053      -2391.080      -2786.171      -2450.636      -2881.829
      -2433.334      -2518.765      -1395.987      -419.4951       2029.861
       4118.658       6668.154       8146.168       10345.37       11511.24
       11535.49       6165.092       593.3906      -5593.988      -13938.34
      -17781.97      -18540.27      -27021.63      -19650.60      -1550.070
       5664.844       16201.73       16580.86      -7441.512      -19099.11
      -16688.72      -7043.953       2505.680      -6001.812      -37011.89
      -55542.82      -27682.79       14799.24       28155.75       18144.69
      -14723.62      -34206.76      -1620.641       38056.16       33744.32
       1567.594      -31100.02      -23975.87       20130.77       47420.47
       28183.10      -6921.455      -8475.109       24387.45       52021.88
       52746.05       22518.94       604.4492      -3433.469      -29385.25
      -62012.94      -73898.33      -81190.95      -62476.80      -21016.73
       7595.533      -643.0312      -24155.39      -35595.37      -34855.20
      -26812.16       1137.617       26390.01       15699.27      -16538.00
      -36102.42      -21394.56       4842.645       10550.67       7697.297
      -18687.06      -37568.93      -4268.000       28199.24       12921.29
      -5713.652       12252.67       28237.34      -10008.95      -12122.47
       45551.36       47722.90       30548.55       44765.07       15813.11
      -39067.55      -47510.37       3317.758       33834.36       15703.21
       5023.898      -3973.164      -31030.05      -44027.80      -50814.02
      -46008.39      -26199.66      -15937.72      -28509.06      -31728.85
      -17095.05      -12891.93       4564.125       44213.05       48114.45
       23042.96       27441.36       27578.84      -10328.88      -13802.81
       11096.46      -1075.305      -26026.68      -26545.81      -43160.83
      -67343.42      -42524.59       4165.398       17940.80       8866.789
      -5200.172       14747.77       44573.89       27090.37      -8940.457
      -9127.520       5224.602       13948.39       9496.152      -4631.574
      -7788.445      -18014.39      -33022.72      -14136.11       14363.50
       28701.95       32123.13       22309.95      -1711.289      -21026.89
      -27501.92      -5349.062       15115.02      -734.9531      -23130.34
      -29011.60      -31975.64      -19200.44       16930.02       37114.18
       11117.92      -17331.75      -12496.53       4703.629       6120.148
      -2492.648      -4875.961      -4061.842      -9708.959       1273.603
       6827.232      -8248.481      -6407.324      -587.3438      -22386.50
      -23035.09      -684.8066       8542.406       166.0625      -10469.89
      -16511.37      -9646.209      -4545.984      -13452.87      -7855.750
       2591.719      -14713.12      -21339.49      -5032.934       8266.906
       6566.062       15257.60       19962.59       6699.977       11931.72
       28827.04       7051.299      -17918.05       3500.361       8670.047
      -20816.70      -8710.898       25798.30       30093.33       1541.227
      -27595.59      -30885.02      -5410.062       15366.36       12105.44
      -2471.406      -4217.262      -11325.43      -22801.61      -1034.352
       20707.01      -6983.406      -31154.73      -16066.92      -9307.375
      -20108.04      -7717.049       5285.379       6299.375       8933.969
       16638.57       17285.06       9530.134       5048.886       3698.143
      -4771.898      -15410.41      -25267.71      -15664.23       5097.074
       17868.96       7917.523      -13965.02      -19863.12      -11954.50
      -16607.88      -14366.05       13145.54       23755.45      -11753.84
      -29431.89      -15500.78      -18858.40      -7583.961       35387.25
       29586.57      -12885.55      -17920.14      -3278.633      -13163.87
      -15104.58      -2304.961       8415.953       17173.11       12175.55
      -12052.45      -25560.30      -16607.96      -2382.348       1377.111
       4771.446      -1437.957      -7017.664      -2263.879      -3823.600
      -8772.434       5887.334       15751.61      -3671.641      -19792.34
      -8689.648      -2274.283      -7356.575      -9737.371       6618.756
       9978.473      -16020.94      -27469.67      -12275.47      -5966.160
      -12496.23      -12824.54      -705.0469       6193.793       15618.94
       25616.49       22159.72       20998.69       25772.74       13570.15
       14244.35       22071.18       12022.89       1575.469      -7979.385
      -11962.63       949.7109      -10961.17      -26440.53      -13840.31
      -4063.011      -1675.180      -8470.660      -18932.18      -4891.182
       4115.787       2489.760       5303.910       10164.26       17011.10
       24414.76       18709.79       17270.86       16813.19       6226.957
      -6015.348      -7511.852      -7604.523      -18927.01      -29696.04
      -13582.54       1655.766      -7246.691      -21847.34      -15689.46
       171.0020       5474.318       329.8203       8765.023       33766.78
       39437.14       20907.54       14498.18       17174.29       20576.19
       15055.02       16340.22       23451.89       3629.469      -15981.37
      -1032.512      -6771.602      -30980.33      -38356.50      -31110.27
      -11314.99       17243.02       18139.28      -14079.39      -34529.77
      -7101.914       27655.15       33170.45       42187.91       48696.65
       8910.535      -24558.05       152.1484       34619.27       28875.21
       15431.27      -5640.664      -27977.38      -26735.25      -16868.97
      -4907.197       9289.242       10553.11       10802.88       7355.141
      -6268.812      -30906.45      -31831.61       390.2969       24663.62
       17658.34       7808.406       11572.59       13335.25       7870.465
       15953.38       24793.64       17519.89       18244.95       33577.05
       32836.43       12344.28      -7100.398       7226.736       14534.57
      -1921.256      -4079.577       4558.068      -4984.033      -10981.72
      -2376.205       2265.113      -7770.156      -26670.00      -33678.17
      -8465.805       11057.77       18132.75       24929.81       13091.06
      -4448.287      -6268.991       387.9609       15271.39       20445.81
       16053.19       9800.082       16108.44       24285.55       20409.99
       20127.21       20000.52      -3485.191      -15837.71       1552.105
       18753.53       26613.89       29761.54       4857.148      -25690.00
      -24563.59       7703.789       25964.68       15501.57       2416.625
       1049.742       8573.664       4259.445      -25979.84      -23037.70
       8716.407       6454.898      -17406.89      -17485.52      -16784.59
      -4682.062       27334.41       39257.14       38174.80       31659.28
       9876.269      -3143.224      -5979.766       10169.36       38480.26
       31271.19      -14783.83      -40400.75      -40126.24      -14703.85
       12274.12       8131.005      -5426.735       276.3320       4361.539
       9995.102       24569.73       23099.81       14551.63       27740.00
       34959.55       29648.95       27966.21       27652.16       17766.84
       11813.96       6235.607      -5216.018      -8734.512       265.6963
       4558.067       1467.359      -9391.496      -20168.77      -15810.24
       4177.688       11838.98       17663.26       19168.34       1037.277
      -14551.40       672.9609       24623.54       38461.12       33045.14
       21538.56       8605.155      -3238.292       486.8232       3561.504
      -6861.260      -5997.828      -14877.66      -37325.62      -47903.90
      -29034.62       16292.50       51989.41       41328.42       4492.908
      -2569.590       9603.148       6939.633       26490.04       24370.80
      -4738.629      -13927.21      -9976.629       4854.414       21088.18
       34008.51       33538.89       3627.566      -3253.113       12073.84
       17510.26       13711.54       15870.67       13293.79      -7070.070
      -16817.65       1938.078       19140.08       22590.81       17146.58
       18744.70       15526.62      -3453.553      -9037.727       19395.38
       31494.00       19716.61       15733.31       12202.14      -2788.285
       576.0078       23524.86       27093.13       11103.87       5385.559
      -331.8311      -3474.428       5740.996       13828.41       8011.258
       7985.826       7917.570      -3309.469      -29068.59      -46665.89
      -26049.85       12008.45       24687.69       28093.81       23849.91
       15176.14       29841.42       49710.12       27816.26      -2228.289
       7425.375       32616.09       34458.65       17638.04       1908.951
      -505.1230       6018.021       7859.438      -15126.94      -28444.11
      -22796.77      -13971.70      -6225.023      -14161.85      -27152.29
      -15221.94      -6095.652      -10328.12      -7652.496       3606.113
       13306.41       35829.23       58695.75       55227.17       38438.36
       31273.09       30290.06       46449.48       57930.82       39482.57
       9228.047      -14161.19      -29187.58      -11377.53       19062.39
       21445.69       7025.283       4961.745       6678.221      -6108.520
      -17624.72      -13383.44      -14841.98      -5122.496       9280.758
       3930.289      -16413.00      -18982.40      -9356.859       841.4219
       22924.89       43586.09       38822.34       21479.33       15218.41
       22509.23       18668.77       1929.966      -2678.115       7097.815
       3958.541      -2366.273      -11420.45      -20771.64      -41083.06
      -49794.20      -16229.75       15471.72       26990.91       40690.67
       33505.86       12594.79       7728.733       17.45898      -15627.14
      -1139.562       29157.70       45485.03       28608.06       13769.72
       19674.70       19623.32       16892.79       2228.305      -29104.78
      -39046.81      -41564.54      -38726.89      -18040.29      -1981.359
      -5539.547      -15354.86      -25412.66      -25885.04      -3586.484
       33879.03       57340.59       59827.22       36582.50       10067.55
      -839.3389      -192.1172       8781.965       16158.23      -831.9766
      -10500.37       2584.508      -6481.430      -35277.68      -25878.03
       14915.91       19656.19      -27310.41      -41212.00      -15939.31
      -4608.225       623.1953       8605.078       17657.02       24508.86
       24013.93       24321.40       5511.519      -6976.172       3429.781
       23196.03       20931.85      -14503.05      -44026.41      -54277.62
      -53406.78      -49984.81      -58086.41      -59328.52      -54171.88
      -38953.24      -12139.05      -1086.508      -17309.74      -25499.61
      -20819.33      -25741.97      -37898.47      -29478.19      -1516.914
       25216.70       28539.37       9822.812      -10876.27      -13635.08
       115.0918       11912.63       8930.084      -807.4844      -9520.422
      -8566.609      -17334.56      -45983.55      -67306.27      -52291.17
      -27583.99      -10478.72      -2528.910      -7987.562      -24385.42
      -42392.17      -33270.11       1313.953       10628.44       14084.81
       38789.33       65791.44       85584.38       91880.55       64187.90
       5429.562      -57209.81      -82936.96      -55544.28       36389.38
       179289.2       340018.0       514375.5       683623.8       771625.2
       757789.8       717220.5       695169.5       662019.2       602401.8
       482983.0       231222.1      -140002.2      -506100.2      -855719.0
      -1140788.      -1190996.      -1051888.      -867784.5      -686922.8
      -624659.2      -693917.9      -684000.2      -438829.4      -29011.88
       408573.2       712335.2       678154.8       362118.4       141167.9
       155623.9       258798.6       377014.1       377330.7       133567.0
      -146509.6      -277990.5      -366714.9      -416260.6      -330630.3
      -231024.2      -224035.0      -316847.5      -516936.8      -673041.9
      -515197.9      -64365.50       336838.9       496975.9       474398.1
       288613.4       29905.56      -96746.73       1507.375       234979.6
       369355.7       202724.9      -148775.8      -364225.9      -347645.5
      -259395.9      -204742.8      -166491.4      -131336.1      -197581.7
      -343525.1      -350617.0      -203580.0      -77519.85      -11926.69
      -10512.33      -42103.16      -43796.39      -40553.11       16480.75
       206385.5       375306.9       336098.3       160324.8       70225.59
       106846.1       146317.4       120856.6       33221.00      -79889.44
      -156500.5      -195023.9      -208718.0      -202669.5      -237056.8
      -294829.9      -302568.9      -266177.3      -142303.4       6183.281
       31138.00       23001.19       126353.0       258414.6       333588.9
       326370.0       201303.7       77668.32       47677.63       2987.855
      -22272.47       80569.22       143387.5       31603.25      -86584.00
      -134770.2      -169898.2      -176474.2      -105503.0       8382.516
       28867.94      -78535.50      -210395.7      -253866.3      -154383.9
      -4985.656       74413.38       35651.05      -51008.39      -67111.70
      -22046.25       24984.66       116067.8       229933.3       201682.9
       15551.84      -109935.1      -93653.88      -38463.73       4202.957
       10522.00      -23086.84      -54774.50      -113120.3      -133946.1
      -12254.50       116796.5       161057.0       204316.8       232056.6
       229967.4       265424.1       305213.1       258942.0       174402.0
       107584.4       63864.30       17504.92      -37256.47      -22733.30
       39817.27       35330.77      -17043.47      -37100.91      -41965.69
      -102124.6      -202216.0      -201219.1      -64989.42       55347.88
       80418.50       30893.66      -42847.62      -90579.42      -73805.12
       15640.44       109739.9       162977.9       199513.1       188058.9
       115770.0       61267.50       77576.16       102043.6       73460.73
      -18100.53      -112886.9      -120849.3      -60290.60      -6669.062
       1351.547      -52639.41      -133156.9      -148585.0      -47110.73
       68187.59       91823.41       78420.94       77087.95       16483.00
      -97090.25      -143845.9      -118778.9      -94391.48      -75345.69
      -62778.47      -51409.06      -60970.44      -145939.3      -261170.1
      -286588.3      -210390.2      -126169.6      -67354.66       21546.53
       94513.98       74597.81       15770.95       34630.38       132299.6
       203433.9       208629.0       150938.1       95943.91       136846.4
       170294.6       137962.2       131675.6       128088.0       74752.10
       7620.352      -23817.35      -11737.56       13633.44       56324.08
       87080.48       54568.97      -23218.88      -87377.78      -129295.1
      -141554.0      -136041.6      -158131.7      -158149.0      -132339.5
      -146729.8      -164842.4      -125610.7      -49948.24      -20635.75
      -29426.38      -28230.14      -43922.75      -88052.17      -83087.08
      -8848.547       44024.84       54528.06       101494.3       170294.7
       172090.2       108731.5       47072.47       36463.55       1652.219
      -90210.62      -79477.42      -7320.016      -51566.97      -137671.6
      -137145.4      -100499.2      -55356.42       17425.70       76338.78
       83832.58       32428.93      -24205.28      -19626.95      -5067.188
      -17316.06      -5024.984       24231.67       31344.00       28579.06
       20097.00       4564.953       16438.22       77821.81       132271.9
       149207.3       151924.4       152926.9       139687.6       122830.5
       134311.6       147521.8       144584.5       123301.6       63163.16
       31284.31       49479.06       56845.67       53061.50       43097.88
       18686.48       23985.78       59138.00       70852.81       54662.78
       47301.62       52122.72       66669.62       97368.88       87274.69
       48376.94       37879.52      -13663.83      -71136.02      -43386.68
       13796.89       19586.92      -22724.41      -53519.61      -71197.81
      -101609.1      -95925.19      -61759.66      -45046.43      -16635.80
       31926.81       60259.53       84738.25       121678.8       99891.68
       40909.03       43366.64       61269.14       46166.20       35239.24
       31553.71       463.3125      -36066.64      -39822.04      -7708.992
       43291.24       43784.33      -18429.44      -47943.34      -35288.56
      -34075.00      -79576.00      -151743.2      -163342.6      -118095.1
      -94087.45      -58489.38       10506.32       2727.969      -73622.34
      -73668.25      -34500.31      -61144.69      -74198.41      -46287.50
      -92877.81      -199038.0      -244057.7      -177198.7      -71256.29
      -18337.88      -8812.168       5180.172       35773.77       57839.16
       38291.88       25834.12       60965.34       94486.94       104539.9
       104606.7       82153.84       50414.08       60926.91       119577.6
