     0.02500000      -491080.5       598333.5      -12345.00      -12345.00
      -30.00502       215.5450      -16.48000      -12345.00      -12345.00
       0.000000       12.16000      -12345.00      -12345.00      -12345.00
      -12345.00      -12345.00      -12345.00      -12345.00      -12345.00
      -12345.00      -12345.00      -12345.00      -12345.00      -12345.00
      -12345.00      -12345.00      -12345.00      -12345.00      -12345.00
      -12345.00      -31.75110      -68.43510       640.0000       0.000000
      -31.54000      -68.94500       0.000000       103500.0       0.000000
      -12345.00      -12345.00      -12345.00      -12345.00      -12345.00
      -12345.00      -12345.00      -12345.00      -12345.00      -12345.00
       53.73301       115.9573       295.6910      0.4831329      -12345.00
      -12345.00       3.802055       0.000000       90.00000      -12345.00
      -12345.00      -12345.00      -12345.00      -12345.00      -12345.00
      -12345.00      -12345.00      -12345.00      -12345.00      -12345.00
      2008        49         8        51        20
       180         6    -12345    -12345      9823
    -12345    -12345    -12345    -12345    -12345
         1         7        13    -12345    -12345
    -12345    -12345    -12345    -12345    -12345
    -12345    -12345    -12345    -12345    -12345
    -12345    -12345    -12345    -12345    -12345
         1         1         1         1         1
BOZA    -12345          
        -12345  -12345  
-12345  -12345  -12345  
-12345  -12345  -12345  
-12345  -12345  -12345  
-12345  -12345  -12345  
-12345  -12345  BHN     
ZL      -12345  -12345  
[...]
       235.5043       99.54501       208.1729       73.35547       178.3224
       44.32126       151.7285       16.71048       126.1358      -9.851715
       93.13323      -41.60892       64.09499      -72.32352       30.22278
      -105.8216      -4.277954      -140.6246      -36.92932      -175.5508
      -75.16119      -211.3325      -113.7651      -254.1023      -149.3450
      -284.8065      -187.5291      -327.0454      -227.1790      -364.6918
      -267.4034      -407.8853      -309.3789      -444.9585      -350.4054
      -486.4662      -384.9160      -520.8401      -422.8438      -555.4382
      -456.6917      -587.4839      -487.0310      -617.8300      -515.2750
      -644.2482      -541.7111      -669.1301      -563.2239      -688.0155
      -583.8359      -709.7357      -602.2163      -723.7061      -618.8159
      -741.5544      -629.2852      -746.9150      -636.6982      -751.3290
      -636.8828      -748.9281      -632.7524      -745.3604      -629.4634
      -738.4258      -619.8743      -729.1206      -612.8418      -719.4226
      -601.2311      -704.2698      -586.1731      -688.2203      -565.6118
      -667.7893      -548.4238      -648.6868      -530.5374      -629.4404
      -506.9468      -606.1329      -485.8481      -584.6840      -464.0780
      -563.6810      -447.0861      -546.5420      -426.7749      -522.9073
      -406.3643      -506.4772      -387.7043      -486.5900      -370.1296
      -467.9189      -353.2931      -451.4850      -332.6851      -428.2773
      -313.7678      -410.7177      -294.9275      -390.9672      -278.7427
      -378.9919      -261.6862      -359.6973      -249.9902      -343.6453
      -225.5713      -324.5613      -211.8834      -307.0048      -193.8704
      -290.6359      -181.5103      -283.3007      -172.2957      -268.2800
      -158.1389      -257.5696      -146.4799      -245.9328      -135.5305
      -233.0320      -123.4668      -224.4769      -120.1063      -220.2546
      -108.5414      -208.6684      -98.95944      -195.3364      -87.23431
      -187.7893      -79.57971      -177.1550      -70.71985      -169.3671
      -61.66541      -158.3424      -51.37537      -150.6136      -43.56607
      -139.3902      -31.52051      -132.1527      -26.14885      -120.7920
      -12.68175      -111.3173      -4.547165      -102.0889       5.522934
      -89.17992       17.18265      -81.95122       25.14084      -74.26578
       30.87804      -66.40571       39.14325      -57.94300       48.77855
      -47.88089       56.46503      -42.22258       63.28326      -35.65824
       67.01465      -31.70995       72.28843      -26.41734       76.02593
      -22.55745       79.87225      -16.70294       86.32918      -10.77132
       91.55307      -5.185791       97.41789       1.617798       101.3677
       6.267654       108.1709       12.11444       110.1930       13.92596
       114.1780       19.82166       122.2077       29.47644       126.2871
       33.33026       132.9681       39.89908       140.6244       48.71783
       144.8136       54.31458       155.2822       61.10815       154.1374
       63.04398       158.2993       67.01883       164.0910       75.23950
       169.9143       76.52951       169.2549       79.78058       173.8569
       85.53931       177.1387       83.27853       176.6243       85.21280
       173.0936       82.44269       170.8923       79.59302       171.8735
       79.86285       167.4421       71.65341       159.6150       68.52451
       154.5806       58.32443       145.3122       53.26004       139.8742
       42.45398       128.6906       33.86101       115.1327       18.65825
       100.9307       3.772308       82.84801      -17.17815       64.46367
      -32.98591       47.53266      -52.15323       25.95358      -70.24163
       11.61150      -90.06226      -16.05066      -114.2768      -33.87634
      -130.5606      -48.83536      -148.1014      -68.72543      -169.6408
      -92.86377      -189.7108      -111.3162      -209.0427      -127.1398
      -223.9928      -143.8085      -236.6105      -159.2750      -259.4993
      -181.4820      -278.4995      -201.3874      -298.3036      -221.6423
      -316.9736      -241.5732      -337.9432      -258.0854      -356.0222
      -281.1438      -378.6465      -301.5946      -395.6746      -316.2930
      -413.6139      -337.0782      -430.2948      -350.2756      -446.7073
      -369.2661      -464.6162      -387.7078      -482.2842      -406.3243
      -500.0902      -419.1965      -511.8300      -431.8374      -521.7723
      -440.9490      -531.6659      -455.2769      -547.8221      -463.7861
      -554.5862      -479.0312      -568.0206      -485.2673      -574.7961
      -490.6915      -577.8884      -494.8458      -578.7208      -499.6447
      -586.9927      -500.1948      -585.0226      -496.9292      -569.0385
      -436.1671      -290.6807       431.3652       1803.523       4694.734
       8976.387       13572.39       15791.06       13512.57       6342.073
      -1625.323      -3372.207       3698.127       9387.027       6783.252
      -4781.457      -14979.65      -16939.71      -12827.24      -2662.387
       10494.23       15263.64       11966.00      -2773.898      -26494.19
      -16036.25       14613.48       22022.61       7865.738      -18106.77
      -18285.51      -4894.453      -12725.02      -18318.89       3479.102
       31098.17       21557.30      -5119.320      -13570.26      -4973.145
       12001.82       11908.09      -3436.018      -7554.768      -4792.164
      -4766.611      -2575.080      -1938.469       5651.387       15495.22
       3252.927      -8838.418       10328.72       24615.35       2871.344
      -25651.07      -30206.86      -12726.03       11166.81       9975.438
      -21477.73      -37747.74      -10204.66       11060.31      -1262.016
       10706.31       42077.43       20596.16      -22486.23      -27958.38
      -9152.871       5518.805       9446.703       17313.41       5006.273
      -22537.21      -17103.65      -27.95898       9559.812       12345.38
       8619.195       5761.355       6033.187       3927.213       441.1855
       4823.969      -13713.29      -32308.06      -9656.785       17220.35
       10667.77      -6004.982       4016.541       5637.514      -9816.465
      -1992.434       15179.93       14605.73       18257.58       3045.287
      -11027.37       5448.000      -8470.223      -20302.26      -2246.681
       168.1445      -8869.061      -2664.434       19315.00       6642.277
      -22726.72      -5234.887       16339.59       12432.05       12953.56
       15164.02       10016.23      -4229.719      -11251.85       71.49902
       4298.340      -9055.621      -14394.90      -5584.167      -833.6885
      -3433.535      -4413.184      -3226.488       3486.469       12742.68
       13999.61       11243.57       6799.879      -5051.404      -13646.94
      -3961.367       12566.04       5850.812      -5551.807       2638.961
      -6748.457      -15031.56       5777.863       10401.89       1024.142
       2025.497       1054.277      -9465.525      -11953.39      -2668.507
       5502.131      -5198.961      -23699.50      -15072.35       5670.154
       6442.816       9972.254       12095.61      -1249.633       585.9941
       8377.238       11753.77       12520.09       2121.866       258.6611
       5438.923       1670.891       2663.779       11868.22       5208.277
      -13762.74      -13336.59       4200.090       12607.23       13380.47
       2198.176      -11515.17      -7853.417      -2865.446       1678.404
       7469.022       5710.553      -4311.895      -21099.27      -11952.58
       13297.33       14199.02      -1660.613      -16013.08      -12154.77
       9138.082       14374.08       8906.531       226.2656      -18218.95
      -18825.44      -5196.575       370.8555       11953.44       16685.60
      -3292.383      -15443.79      -6544.137       7340.789       18025.90
       16792.33       2945.215      -6693.113       3988.428       10838.36
      -627.5371      -7602.250      -7994.672      -8526.281      -6835.671
      -1456.822       2209.070      -8149.843      -7286.305       10618.57
       3182.816      -6501.089       2381.812      -9817.658      -6433.258
       17433.16       13025.73      -4919.004      -14726.67      -4219.629
       12832.18       5926.694       1136.443       8213.679       3946.650
       6099.453       11006.26      -3124.251      -3838.398       8105.580
      -2677.750      -5428.742       4700.461      -3997.904      -7627.464
      -1229.432       4372.662       7360.342      -4024.188      -15831.69
      -7873.434       7931.629       7385.898      -4945.145      -10299.51
      -13790.82      -6821.261       1431.734       9585.789       21510.62
       10521.56       1063.552       3761.586      -5368.584      -10107.31
      -6380.346       4035.742       12274.73      -4092.570      -16436.89
      -4706.354      -1145.037      -7284.510      -5477.354       6785.898
       17006.72       12655.36      -514.0049      -4981.180       2810.301
       5194.422       8534.172       8696.541      -7041.568      -766.2188
       17420.59       3966.141      -22358.28      -30488.13      -22314.62
      -2298.670       9288.409       3982.785       5629.800       5611.921
      -3991.277       2493.266       10269.44       7740.389       8301.173
      -1354.789      -10317.37      -122.8594       10286.06       8905.557
      -7095.473      -13100.82       3857.932       11353.20       3951.939
      -3734.551      -12522.40      -13710.91      -6799.840       5418.373
       9494.436      -963.8857      -4314.433      -1.254883      -3629.230
      -1952.137       10405.71       18201.64       18549.84       13019.80
      -2830.703      -22759.48      -25257.25      -9244.794       1554.039
       9255.445       11784.47      -6677.988      -14860.11       1254.672
       19095.92       31526.56       12938.87      -5408.033       1675.753
       1341.371       13664.51       21021.41       12162.05       9887.686
      -6138.855      -9482.397       30.77539       1803.695       12169.83
       13284.12      -8066.594      -23830.95      -20348.46      -2427.340
       10966.63       9536.423       5069.367      -6732.215      -16004.77
       1938.219       13404.30       19651.52       18967.17      -21160.59
      -25445.14       2535.980      -10101.95      -14947.07       4253.938
       16314.95       4471.734      -13064.30      -6701.836      -7394.922
      -19041.96      -6185.867       14726.73       16231.79       9064.412
       8364.436      -39.52148      -7623.277       6651.992       13252.23
       4198.296       5190.406      -4257.031      -19958.32      -12187.88
      -4006.361      -9292.988      -3369.813       3588.930       4244.875
       10241.76       8731.331       318.8477      -8102.229      -6332.801
       12766.46       15557.12       3980.635      -2190.984      -11909.47
      -12664.47      -1056.697       703.7441       5906.717       11350.05
      -4409.667      -7409.582       12860.25       13738.99       10489.78
       5511.391      -11700.88      -9648.189      -987.5981      -3261.090
       5026.982       13438.17       2388.660      -12692.24      -11824.86
      -133.1680       1461.832       7723.148       28256.80       26609.35
       8218.303       1137.090       8297.494       10041.32       7029.277
       6797.064       5213.867       6123.423      -243.3398      -5364.469
      -4563.736      -4507.305       4688.516       9407.428       12018.07
       8254.412      -3726.688      -4053.881       1091.947       4907.098
       3981.699      -3551.176      -7073.938      -10511.01      -5020.161
      -1098.139      -2474.577       2609.771      -5352.379      -5542.516
       12247.46       18428.99       19887.02       16473.04       4524.115
      -1915.137       7934.352       30378.27       27459.60      -10132.48
      -33898.80      -28309.96      -11611.89      -736.7725       7345.652
       661.2598      -10822.31      -6602.297      -15844.27      -16046.99
       7617.113       8027.035       7105.578       25322.42       33293.37
       20451.69       12624.00       23241.12       46971.59       86195.22
       107826.9       118045.8       154008.7       159645.5       106438.1
       26678.66      -74635.62      -192333.6      -285706.0      -358562.8
      -440122.9      -491080.5      -477217.8      -426679.4      -361342.9
      -303781.7      -254472.2      -189880.1      -164474.3      -183322.4
      -125427.9       12944.25       131329.6       182073.3       160686.3
       87206.61       7782.078       19144.31       138470.8       258619.1
       321486.2       369750.2       490437.6       598333.5       555741.1
       403261.6       219439.0       99937.38       122484.4       122101.5
      -44019.94      -220350.4      -298608.8      -242912.7      -48575.85
       33382.22      -117015.5      -281796.1      -331872.3      -305544.6
      -258617.1      -165175.6       51395.03       170582.6       70493.69
      -3166.094       21286.40       49019.15       2380.547      -41798.00
       84431.69       251910.3       319329.0       364955.9       335929.4
       187828.2       48036.09      -11628.83       29208.12       131430.6
       160736.9       60213.44      -64614.88      -174027.0      -243069.6
      -175724.8      -17605.18       52673.62      -85335.75      -271220.9
      -250572.8      -116183.3      -80331.56      -79803.00      -48814.78
      -75979.94      -95579.97      -38119.19       40557.31       127470.2
       203580.7       199316.8       78772.95      -58821.69      -50398.09
       53887.56       61389.41       22863.06       39192.15       15047.38
       12464.08       74227.15       35102.55      -41845.92      -90.56250
       63229.70       57714.29       666.1875      -84383.47      -112395.9
      -66496.33      -45490.36      -61226.66      -31462.64      -1505.078
      -61466.81      -88294.50      -21356.94       69185.44       153840.6
       130881.1      -424.1250      -77210.73      -56992.35       19268.56
       61810.22       11118.30      -11192.98       68231.20       99494.35
      -1358.734      -83262.44      -79632.50      -69588.31      -42404.52
      -1070.523       26700.46       46112.64       4852.125      -78981.78
      -113594.7      -91416.92      -55031.54      -22732.62       34736.59
       82120.53       70776.95       55251.25       67929.09       92950.66
       92561.59       57679.12       39263.45       30708.19      -19712.44
      -98759.31      -125520.2      -110824.9      -118028.5      -119438.0
      -64567.82      -1986.695       30039.97       45172.30       33522.42
       15639.07       8091.445       12696.41       22625.03      -3694.164
      -6194.000       87079.25       147971.7       114387.7       106300.0
       121559.2       86088.75       30106.58       24146.50       60225.12
       58123.47       25464.71       2813.031      -55280.98      -78568.34
      -41047.77      -43637.84      -55798.84      -55072.19      -68775.94
      -59830.27      -14381.43       4376.047      -30377.69      -50519.25
      -39424.32      -20790.84      -6124.828      -17184.12      -25257.64
       29911.50       88607.22       81039.44       77712.59       111569.7
       91220.98       2142.234      -37598.10      -10018.91       21996.80
       39454.00       1816.875      -96964.62      -200535.2      -206678.1
      -81161.84       44094.97       73459.05       67815.17       68325.83
       39619.25      -3909.172      -556.2031       37844.92       40052.20
      -3936.838      -1292.969       32804.46       6091.725      -15060.39
      -1453.469      -45143.34      -122593.2      -101805.9       166.9844
       47068.34       50007.84       61423.17       50617.44      -23053.06
      -95846.55      -88742.12      -82301.06      -101253.3      -49863.38
       7314.918      -2083.051      -5991.039      -8245.562      -35281.91
      -37189.31      -9774.441       10038.44       31363.67       58900.39
       68033.38       59796.89       67875.66       96225.25       93723.50
       85986.44       96737.83       73685.04       11458.53      -44517.22
      -68626.12      -60826.71      -20948.56      -11620.91      -73304.88
      -104870.7      -94190.59      -96497.33      -74483.03      -20284.04
       3454.590      -16450.40      -27404.65      -14188.25       8128.242
       21514.72       9545.754       3671.203       33820.47       67889.66
       65370.25       52099.16       69219.56       103277.7       109262.9
       88916.97       79468.25       57813.68       4439.297      -23962.48
      -30974.39      -54455.08      -51107.73      -20184.70      -12502.75
      -2502.711      -4586.008      -25094.64      -14811.59      -24625.05
      -74669.44      -105216.5      -98945.47      -88015.12      -109314.5
      -109184.6      -51740.91      -16135.77      -37273.28      -28375.88
       33780.00       68307.70       62565.83       60125.27       70387.31
       46232.72      -10103.21      -9343.188       31380.20       27403.19
       16478.44       52063.59       79401.72       86718.38       92792.11
       74957.05       43479.27       9642.638      -12230.96       10462.06
       44697.95       41361.82       13887.30      -16498.21      -30810.69
      -22905.27      -35361.62      -81406.94      -119584.1      -99641.36
      -43832.85      -6243.399       7274.843       545.9727      -5695.457
      -7605.387      -18959.91      -19255.70      -10922.16      -6066.250
       16275.38       53366.50       71509.29       43620.11      -11341.53
      -38388.59      -46268.55      -53787.08      -39430.33      -7484.047
      -11223.80      -45578.00      -55913.68      -46334.43      -27036.54
      -401.9023       14346.27       1768.305      -20120.32      -4239.641
       40262.45       53157.14       26307.12       18679.17       38121.45
       32219.33       17413.47       18050.07       13111.52       24070.55
       48058.48       56598.22       44228.55       26193.02       27037.81
       22470.17       8325.297       19984.79       25275.28      -7860.483
