     0.02500000      -188246.8       201918.6      -12345.00      -12345.00
      -30.00502       215.5450      -16.48000      -12345.00      -12345.00
       0.000000       12.16000      -12345.00      -12345.00      -12345.00
      -12345.00      -12345.00      -12345.00      -12345.00      -12345.00
      -12345.00      -12345.00      -12345.00      -12345.00      -12345.00
      -12345.00      -12345.00      -12345.00      -12345.00      -12345.00
      -12345.00      -31.75110      -68.43510       640.0000       0.000000
      -31.54000      -68.94500       0.000000       103500.0       0.000000
      -12345.00      -12345.00      -12345.00      -12345.00      -12345.00
      -12345.00      -12345.00      -12345.00      -12345.00      -12345.00
       53.73301       115.9573       295.6910      0.4831329      -12345.00
      -12345.00     0.01680121       0.000000       0.000000      -12345.00
      -12345.00      -12345.00      -12345.00      -12345.00      -12345.00
      -12345.00      -12345.00      -12345.00      -12345.00      -12345.00
      2008        49         8        51        20
       180         6    -12345    -12345      9823
    -12345    -12345    -12345    -12345    -12345
         1         7        13    -12345    -12345
    -12345    -12345    -12345    -12345    -12345
    -12345    -12345    -12345    -12345    -12345
    -12345    -12345    -12345    -12345    -12345
         1         1         1         1         1
BOZA    -12345          
        -12345  -12345  
-12345  -12345  -12345  
-12345  -12345  -12345  
-12345  -12345  -12345  
-12345  -12345  -12345  
-12345  -12345  BHZ     
ZL      -12345  -12345  
[...]
      -146.6923      -255.7059      -137.7362      -249.0683      -127.5164
      -241.6275      -122.7327      -237.6553      -117.5457      -231.8917
      -113.3423      -230.4343      -109.9698      -226.4453      -108.4724
      -224.9302      -105.7494      -225.3593      -109.1332      -226.6802
      -107.8293      -227.6800      -110.4321      -228.3317      -116.3878
      -238.4539      -119.5925      -239.7771      -127.5172      -249.6895
      -135.7306      -257.6345      -142.6830      -266.1587      -152.2758
      -274.5616      -157.0001      -278.8260      -163.9857      -288.6558
      -174.2916      -299.9232      -182.1812      -306.0594      -190.2327
      -312.8079      -194.3044      -318.2522      -202.9979      -330.3232
      -213.6470      -333.9921      -216.9152      -343.9244      -226.8284
      -349.2339      -228.7198      -350.5082      -230.8197      -351.0059
      -228.4172      -348.7058      -227.6119      -347.6263      -223.1548
      -340.6570      -215.9277      -335.0334      -212.1873      -329.9321
      -199.6783      -315.9358      -189.9927      -305.6136      -179.5896
      -296.1081      -165.4440      -281.3914      -156.6355      -274.6096
      -142.4174      -259.7012      -129.6544      -245.7290      -112.2914
      -230.6103      -99.43066      -218.2836      -84.69345      -199.0585
      -63.03479      -182.2481      -49.87076      -168.0523      -35.29022
      -155.5024      -20.33420      -134.1540      0.6278992      -123.0563
       11.84164      -106.1935       26.52306      -92.63211       41.99649
      -81.00902       52.39347      -68.46109       62.70522      -62.17616
       70.61478      -47.14729       87.66238      -37.15584       94.52057
      -31.73431       102.0287      -21.54852       113.6576      -15.51503
       118.9301      -5.747162       126.8528      -2.787964       132.3271
       2.280090       137.2946       12.33032       148.7265       21.59756
       160.5439       36.66495       175.8820       49.31116       183.3901
       56.98389       191.9400       64.74194       200.8863       75.11023
       209.9992       84.19391       222.4249       99.73944       235.2855
       107.4856       247.1985       123.2151       256.2803       130.1381
       268.2354       140.8962       279.6692       156.3885       292.8848
       164.3899       304.8245       176.7888       310.2833       183.5363
       320.3533       190.8051       331.3896       202.6394       337.8251
       205.7984       343.0072       209.9144       343.2943       210.2013
       344.7743       210.1157       345.3594       215.0692       351.1281
       218.4672       354.3777       219.4150       353.7262       220.8307
       351.0009       212.7735       347.9482       210.0862       341.3024
       206.5959       337.6793       199.0921       331.3367       194.4214
       326.6301       189.4371       321.8983       184.8817       318.4923
       179.6106       310.8591       171.5919       304.6907       168.4528
       300.8054       158.5078       290.5749       153.3468       283.3513
       143.1466       276.4569       134.2578       264.7334       127.7282
       258.9509       118.5117       248.7430       107.2615       238.2945
       101.4592       231.7475       93.59888       222.5554       84.94781
       218.9496       82.57831       216.2582       83.09583       215.8015
       82.06750       217.9647       83.10889       216.2637       81.47931
       216.0544       86.36908       227.2358       95.83069       230.9252
       103.8935       242.5912       112.7144       252.8917       123.5668
       264.6453       137.5239       280.7501       154.3687       294.9756
       165.8527       309.9958       186.1691       328.7020       201.3979
       344.2640       215.5923       360.1702       234.2054       376.3771
       249.0458       392.0271       261.6592       404.8098       274.1709
       417.7180       286.5959       426.4781       297.0697       440.8347
       309.8364       449.8398       314.8579       455.2126       322.9463
       458.9865       324.9404       459.5129       321.9839       454.8306
       319.5972       454.2347       313.7192       444.1965       309.8129
       444.2119       303.3142       433.5465       291.1046       422.1721
       284.2133       409.2130       265.6344       400.4105       258.3105
       387.0900       245.3829       370.9039       229.0532       359.3168
       217.9248       344.7778       204.3075       331.0973       189.2102
       316.8874       173.0767       301.3896       158.0782       286.2579
       149.1688       275.4717       129.8760       261.9280       126.3787
       254.2935       111.6661       243.7093       110.5051       233.2929
       83.26471       220.1433       99.69669       192.4041      -98.27832
      -602.4414      -3194.707      -9601.422      -22827.86      -44377.38
      -73508.27      -92740.38      -75149.02      -22622.61       12655.48
      -446.3594      -28535.52      -39048.51      -25762.05       11689.50
       53644.41       72979.19       68758.86       43709.50      -7272.688
      -50655.04      -14271.86       65392.44       66389.72       6264.594
      -48244.12      -32729.42       43836.27       63298.31       4774.488
      -38117.61       17028.78       82923.59       26874.88      -36914.21
      -9129.891      -1841.607      -20674.92       15342.95       63455.93
       59917.38      -9098.719      -56544.16      -27870.24       9783.812
       21785.14       11649.38      -17038.56      -73143.22      -93933.78
      -26081.70       19678.27       27765.02       39461.67       32120.46
       276.3633      -12814.17       27957.72       52747.05       31834.20
       3592.364      -4460.227       19799.48       13236.03      -37639.36
      -50941.75      -50345.04      -49109.36       6703.578       38665.38
      -3856.938      -35972.67      -20682.27       3095.000       36194.16
       60111.39       29339.75      -20658.02      -14776.15       27250.80
       22949.81      -430.2646       3189.359       5889.223      -9036.836
      -26115.45      -7373.865       11884.43      -7071.133      -30343.04
      -10986.50       28490.84       33755.11       19285.05       3732.824
      -14553.52      -18442.92      -3748.688       2743.063      -4845.520
      -5517.891      -17249.22      -13546.90       6198.961      -4106.051
      -1371.438      -3057.262      -23694.96      -6134.555       14095.71
       11474.52       5329.295       6056.494       3664.570      -8986.898
      -18597.73      -33982.28      -30620.48       24820.75       60651.48
       26133.16      -12842.46      -29966.71      -29266.80       13417.67
       44699.12       10596.48      -27089.72      -11100.16      -4737.949
      -20812.85      -11183.74       5524.906       17988.56       22733.83
       6931.766       6237.244       10130.06      -1745.878      -4278.385
       5961.307       14662.86      -622.8203      -32199.21      -27141.98
      -17766.64      -40786.89      -13434.56       30181.07       6192.064
      -2810.992       24577.12       26673.53       33213.32       43529.03
       17141.48      -9148.850       304.2734       23896.27       25200.92
       9460.570      -15381.33      -38085.30      -43641.87      -23756.37
       9888.730       17814.45       2157.492      -12780.52      -17562.18
      -9968.567      -3336.441      -2868.953      -2364.340      -4406.363
      -10890.65      -12995.06      -23466.76      -19162.01       17274.34
       28511.04       6013.094      -2483.079       3381.969      -5564.748
      -16416.25       5028.305       26782.87       13110.38      -7627.852
      -16731.55      -22714.73      -15848.85       2359.857       3129.682
      -6958.891       9768.133       23468.73       5585.129      -127.7578
       20610.30       29390.64       8907.742      -19214.62      -22500.85
      -16914.80       1456.672       30074.61       22267.23       3669.805
      -15688.20      -54010.98      -33930.09       39565.44       54827.34
       28606.82       811.9062      -28681.23      -1715.812       31025.34
       11875.08      -8761.664      -23173.68      -14005.59       10798.52
      -16564.39      -41343.65      -15528.57      -6992.957      -17659.67
      -7206.072       1105.955       651.0078       18904.44       36270.73
       19837.59       1725.105       7626.742       14887.12       6812.160
       2470.785       4514.094      -16246.88      -22793.44       8833.594
       7493.123      -8395.906       16725.70       28101.54       10961.03
       5189.576       716.3789       2835.637       16638.02       803.4102
      -15678.83       915.0625       10456.63       19526.70       14969.52
      -13685.83      -23520.32      -4032.023       8315.010       1712.766
      -1786.312      -3565.879      -15221.16      -31585.76      -26251.80
       2678.867       19292.96       18510.82       2961.607      -2465.660
       16066.71       11374.33      -9721.082      -1842.144       5686.713
       3498.201       10842.72      -9713.062      -46044.55      -31926.60
       6020.902       12373.02       9773.672       14013.12       2589.609
       9688.367       33389.31       12132.30      -25768.01      -14790.98
       13620.74       24688.41       19239.85      -3782.617      -19669.12
      -26437.51      -4015.531       43059.82       44658.17       12089.95
      -6841.539      -10278.33      -18651.40      -22099.87       8255.922
       31254.55       10344.59      -4062.904       12821.10       1561.832
      -21160.54       7697.109       29328.33       8970.289      -17739.24
      -21293.59      -9993.570      -19989.57      -27686.87       537.8242
       15671.97      -12290.87      -26475.07      -1630.883       21526.19
       25675.72       20178.08       18611.39       16177.30       12866.57
       17845.44       7586.883      -15559.45      -25750.27      -25036.93
       2537.887       14758.08      -3763.156      -7292.797      -24858.55
      -43428.84      -23186.93      -659.2422       10607.13       26252.25
       14234.27      -17230.02      -8224.408       11092.41       709.0195
      -4574.297       17957.56       13597.24      -20104.59       3000.000
       32923.52       12553.97       7357.383       14389.74       747.9297
      -17408.71      -10945.35       915.4062      -16854.20      -25334.82
      -7963.835      -2420.369       171.4844       4091.101       5546.591
      -4000.035      -6664.508       21354.10       28953.89       19042.12
       26073.69       28521.43       22394.09       9433.562      -13039.08
      -24795.30      -16873.17      -9266.450       1020.771       9692.277
      -7607.289      -28614.03      -31746.59      -30541.80      -15105.04
       2926.072       3087.414       14140.12       29489.06       12626.08
      -5419.324      -6545.375      -12690.88      -13174.62       8442.312
       21016.56       8749.415       993.3066      -8229.612      -11842.87
       9992.469       26519.09       18418.50      -11746.70      -32825.11
      -26014.02      -25572.02      -27582.84       12568.54       39607.21
      -3470.906      -24220.32       2816.802       7570.416      -49.00635
      -1699.158       5655.067       7697.244      -3581.855       1951.263
       3789.492      -7626.125       7597.812       29771.11       7936.021
      -13914.62      -1372.242      -11800.73      -5628.734       30945.49
       24365.41      -10056.72      -30266.28      -13954.88       14158.37
       21768.56       19619.37       11385.63       3227.859      -6588.234
      -14311.40      -18709.98      -21449.55      -2111.461       23695.61
       12606.29      -6595.227      -8693.770      -18219.49      -25761.74
      -8765.094       10750.53       1467.348      -10524.89      -5085.383
      -15385.92      -30280.27      -26376.78      -15667.32      -8445.172
       4573.357       16303.19      -5559.012      -22756.48      -16942.23
      -24845.66      -28390.88      -20131.23      -13709.11      -25296.47
      -45315.17      -37277.70      -16880.97      -12424.77      -33543.34
      -49035.20      -20868.89       7943.393       8772.203      -11738.31
      -38638.89      -70411.12      -100633.9      -65649.12      -18193.78
      -66719.25      -143922.9      -169060.5      -183895.6      -188246.8
      -123639.6      -29854.44      -7573.797      -45029.22      -34829.61
       32159.11       79576.38       89093.78       87411.95       79976.00
       87982.12       135803.9       188884.4       193947.6       115157.4
       22780.41       44492.44       101264.8       109805.2       120975.5
       87304.78       49462.41       107863.8       194065.4       201918.6
       85963.75      -75873.16      -150579.6      -79580.19       58181.31
       121384.7       98852.59       55807.39       27290.72       12680.36
      -18404.88      -74488.56      -126611.1      -98467.86       17948.52
       58045.98      -41144.41      -153615.8      -151331.6      -22588.91
       46049.70      -47619.31      -138505.0      -105857.7      -34684.80
       32464.39       97954.50       52551.99      -32609.16       21670.39
       61098.06      -36715.19      -60461.27       25556.73       78796.16
       78261.12       10153.19      -85208.30      -88158.12      -905.9688
       88972.59       137253.9       69196.11      -50090.89      -67486.34
       18258.03       99802.72       65059.94      -34147.44      -83925.53
      -73773.36      -52696.73      -49423.25      -37701.39      -39080.20
      -77092.66      -65636.30      -29451.03      -31299.45       29085.06
       99430.00       64923.10       20294.44       38745.70       83381.25
       93593.59       56340.46       32006.83       44566.59       67023.95
       72945.97       33421.57      -27764.44      -64757.66      -76217.19
      -34102.98      -527.8359      -31529.00      -34903.38      -6798.582
       7428.922       19324.97       80856.75       151817.4       113972.0
       21907.36      -61273.41      -105186.5      -74051.78      -21409.79
       3641.938      -24315.53      -83476.62      -115850.7      -102419.4
      -41599.20       9595.691      -9527.254      -23662.13       7803.101
       11065.09      -9814.243      -641.2773       16539.41       4850.023
      -14401.29      -10184.30       28424.36       64462.67       57433.46
       27901.83       10568.13       9272.340       7420.750       16875.84
       63956.56       91128.78       42400.18      -29792.80      -47292.60
      -6536.777       19697.45       15762.48       1479.938      -41947.31
      -65987.11      -7703.719       55092.52       11201.86      -64748.66
      -90434.00      -89032.09      -33033.03       27724.88       10513.16
      -30099.03      -62463.64      -84215.73      -43691.19       20917.31
       53426.81       70339.03       66123.30       48384.51       18811.25
      -31767.39      -55356.68      -22219.65       7864.172      -18191.64
      -57883.91      -36511.96       10335.95       35235.70       55068.93
       49331.99       23333.55       17679.08       14537.27       1139.367
       5903.543      -6567.547      -54554.81      -66947.62      -31214.94
       3100.957       8968.110      -425.3125      -10559.03      -25936.46
      -36350.16      -14598.34       19594.25       42626.88       78953.00
       92977.30       47903.55      -1777.752      -15012.18       737.8594
       46292.06       89589.40       49441.52      -54046.47      -116428.2
      -93281.89      -22116.44       25130.33       24718.86       1898.055
      -21057.62      -29067.69      -36489.55      -41107.92      -23826.67
      -3724.078       14862.48       38558.50       39116.59       31281.89
       48145.72       64432.86       80597.53       100396.8       95087.97
       70609.86       46939.12       18157.73      -24695.79      -21855.33
       29537.04       37156.84       7966.484      -3622.828      -24462.25
      -42064.33      -17965.84       26972.25       63982.31       47455.06
      -21147.75      -73982.94      -97286.84      -87937.12      -51789.92
      -57459.44      -81319.30      -60994.59      -40540.70      -35833.77
      -26349.80      -21011.51      -19899.65      -7065.555       15770.34
       22459.49       15622.66       29462.41       64527.19       62301.60
       10865.54      -2292.689       11637.61       5274.359       23406.19
       52169.93       30837.36      -4005.328      -15216.88      -41662.75
      -54878.30      -30860.75      -32829.30      -55017.16      -46774.73
      -31318.47      -58756.88      -94592.97      -65859.16       1405.938
       48597.55       66766.67       53459.48       10407.87      -27029.06
      -25765.65      -14433.36      -1081.805       17683.40       18027.03
       15980.76       14143.75      -5736.952      -7346.016       12633.65
       1830.859      -24806.73      -29219.56      -22558.63      -10577.72
       1770.164      -1949.879      -14429.27      -27942.61      -40569.98
      -20685.04      -13116.80      -38976.41      -20994.27      -7704.164
      -35164.62      -25398.55      -9796.555      -23738.52      -15376.29
      -1972.234      -25382.67      -41904.48      -26332.16       21.71875
       45102.16       92488.38       102112.8       77427.52       49675.67
       31345.03       22937.67       39167.91       63811.81       56656.13
       30902.25       30204.12       34376.80       15459.36       2101.191
       5488.766       3900.697      -5188.289      -13018.43      -19839.93
      -19217.15       18310.44       62356.39       47579.71       839.9688
      -26920.84      -33677.76      -36375.22      -19242.38       22423.50
       26225.58      -8114.516      -23683.86      -10148.85      -5156.295
      -10671.25       993.5156      -5406.789      -28107.78      -22657.88
      -14789.13      -923.3047       33759.81       44496.97       30654.90
       21859.89       20368.71       16532.28       3563.968      -6535.163
       1027.877       3985.727      -17037.65      -11322.56       27896.83
       42706.62       30686.10       22281.17       13507.92       7108.281
