     0.02500000      -316676.2       319771.7      -12345.00      -12345.00
      -30.00502       215.5450      -16.48000      -12345.00      -12345.00
       0.000000       12.16000      -12345.00      -12345.00      -12345.00
      -12345.00      -12345.00      -12345.00      -12345.00      -12345.00
      -12345.00      -12345.00      -12345.00      -12345.00      -12345.00
      -12345.00      -12345.00      -12345.00      -12345.00      -12345.00
      -12345.00      -31.75110      -68.43510       640.0000       0.000000
      -31.54000      -68.94500       0.000000       103500.0       0.000000
      -12345.00      -12345.00      -12345.00      -12345.00      -12345.00
      -12345.00      -12345.00      -12345.00      -12345.00      -12345.00
       53.73301       115.9573       295.6910      0.4831329      -12345.00
      -12345.00       1.089792       90.00000       90.00000      -12345.00
      -12345.00      -12345.00      -12345.00      -12345.00      -12345.00
      -12345.00      -12345.00      -12345.00      -12345.00      -12345.00
      2008        49         8        51        20
       180         6    -12345    -12345      9823
    -12345    -12345    -12345    -12345    -12345
         1         7        13    -12345    -12345
    -12345    -12345    -12345    -12345    -12345
    -12345    -12345    -12345    -12345    -12345
    -12345    -12345    -12345    -12345    -12345
         1         1         1         1         1
BOZA    -12345          
        -12345  -12345  
-12345  -12345  -12345  
-12345  -12345  -12345  
-12345  -12345  -12345  
-12345  -12345  -12345  
-12345  -12345  BHE     
ZL      -12345  -12345  
[...]
      -659.5931      -521.1349      -655.8667      -514.4595      -649.1512
      -509.1755      -641.9727      -495.2789      -624.3218      -481.1509
      -611.3767      -459.5140      -587.6985      -439.1843      -564.2412
      -411.6479      -537.7708      -384.9045      -510.3562      -359.2214
      -480.0919      -323.2332      -443.6735      -289.1350      -409.7158
      -252.7571      -375.1730      -220.1667      -338.3201      -182.1205
      -304.8783      -151.1056      -270.7588      -115.8263      -236.4813
      -82.16272      -203.6470      -49.36322      -171.3446      -17.77356
      -138.4871       12.83626      -111.3930       41.35578      -82.03405
       66.73417      -58.45700       90.60491      -34.50403       115.9556
      -7.063843       143.8577       16.91644       166.5601       38.78955
       188.4102       64.38904       215.3141       88.85321       237.2766
       108.7770       257.0701       127.8282       274.0952       147.9281
       294.5308       166.7975       314.1554       186.0063       329.8787
       204.3953       347.5876       220.3697       365.6810       240.4717
       382.0636       252.4875       395.0735       269.1356       408.1936
       277.2504       417.0808       288.3840       431.3005       301.1431
       437.3361       306.3965       446.0255       314.2223       454.1134
       324.4182       463.7380       335.3804       473.7969       341.8760
       479.7635       348.0212       482.5752       349.4210       488.1875
       357.7355       490.7395       360.6179       498.9077       363.3135
       497.9570       365.9067       499.2148       364.4517       500.8109
       366.9255       498.9250       363.8987       496.9144       360.4368
       494.0630       359.9336       491.8171       357.3108       492.6775
       354.8479       484.9076       350.0956       484.7705       349.3049
       481.1823       347.9980       481.7865       346.0183       480.3829
       348.6211       481.0626       349.0146       487.2251       355.4128
       489.0240       360.1317       493.6096       359.2704       494.6534
       363.4646       499.8197       370.1069       504.1378       375.2720
       510.8258       381.7947       520.3430       394.9722       529.4902
       402.7365       538.2725       412.6111       546.4036       417.3732
       551.2048       424.6715       557.4506       432.2920       566.5847
       441.4268       573.8752       449.5900       582.4866       455.5568
       589.1344       464.1960       594.8082       467.7025       600.1099
       470.7930       601.3057       473.5745       606.4038       478.1853
       606.5706       479.5424       606.7253       477.0798       607.2202
       478.1432       603.2817       469.0950       596.1251       468.1985
       591.0536       455.5618       581.0203       448.1364       570.9160
       437.6050       560.3384       423.9519       545.1188       410.6450
       532.5294       395.1389       517.5974       384.3604       504.4233
       365.8325       487.8246       354.5669       475.1782       338.4403
       457.8323       325.0681       447.1145       310.8779       431.1956
       296.0510       417.1925       284.5210       403.3462       269.0493
       391.7056       260.2820       378.1755       243.6078       360.1566
       227.5805       344.5994       214.9374       335.3325       203.6718
       319.0976       188.1041       303.5183       173.9395       291.3740
       159.1271       277.7793       147.2423       266.9058       141.9445
       259.6276       132.4297       254.0947       125.7795       247.2639
       125.1636       247.0195       123.9673       249.5509       128.9976
       255.4593       132.9291       257.1653       136.1389       263.3402
       145.6795       277.3556       160.8020       289.7061       175.3063
       308.0829       192.1036       322.6478       209.1744       341.1461
       230.6213       365.2845       250.6506       385.1172       277.1294
       411.4958       301.0940       434.3237       321.9363       457.4073
       351.2506       485.5493       376.9961       510.0308       401.6176
       536.5641       424.5182       555.0919       448.4349       581.0392
       471.5551       604.3535       493.3198       622.2026       512.4170
       643.1582       534.6198       660.8113       548.4131       676.9393
       562.8899       681.7340       568.8628       694.1169       581.3054
       702.8948       589.6067       710.6390       595.2933       713.3506
       597.0403       712.8518       595.2531       710.5068       591.7444
       705.9551       589.2581       699.2655       579.0903       694.3562
       575.3170       683.9429       566.0945       676.0172       554.0322
       665.7682       549.7222       658.4788       538.6829       646.6240
       529.6367       640.6682       518.3101       623.9773       510.2905
       618.9038       497.8125       607.9747       493.6360       600.9431
       483.4822       595.3303       479.6625       587.3140       471.8125
       578.2625       463.0262       572.9863       454.4966       534.2786
       300.3357      -18.35059      -1172.258      -2913.387      -5565.727
      -7915.065      -6727.045       2371.434       14964.64       19397.42
       10624.53      -1821.500      -10456.50      -11087.30      -8862.703
      -8568.973      -10308.19      -17699.46      -28386.28      -36675.78
      -36163.35      -17022.95       4877.379       9756.559       436.8818
      -7144.899       342.9551       8237.245       3900.675       343.7109
       5161.080       11372.41       1120.172      -12514.25      -5747.472
       4711.734      -7525.164      -20832.99      -4367.992       34247.45
       45966.73       8173.047      -22208.65      -18477.08      -3018.818
       2586.023       16422.17       40721.66       21306.02      -14303.44
      -25969.41       6807.766       52932.67       35684.58      -4009.906
      -9487.039      -16938.83      -23326.13      -10135.67      -2328.543
      -4427.555      -15019.60      -12435.37       7865.645      -570.8418
      -2203.121       24098.13       7592.340      -18790.91       11730.32
       33902.56       7794.195      -21452.41      -28021.36      -8421.166
       692.3711      -18583.44      -9815.053       10503.43      -2405.551
      -19753.34      -13153.48       12120.75       28078.57       13917.19
      -5576.675      -2099.570       12187.78       20942.71       16710.69
       3412.303      -673.6289       4606.980       5149.822      -5342.930
      -13719.24      -22096.15      -23353.64      -7680.023       5353.049
       413.2012      -11437.32      -4510.305       5951.930       10941.98
       13957.92       3025.215       10474.62       15466.11       559.0654
      -3299.203      -396.0996       5502.359       3553.482      -7343.168
      -11337.64      -13232.04      -10898.92       3041.715       14186.63
       11104.21       4807.754      -6896.877      -9705.439       1030.844
       11460.71       12544.22      -7702.162      -14100.67      -748.2578
      -2281.088      -4049.768       4032.266       9320.699      -1455.359
      -15784.91      -6007.170      -1558.562      -25433.36      -29814.92
      -1386.301       18049.88       3225.586      -13936.76      -9203.439
       547.1582       6752.707       7695.617       15233.05       21455.54
      -5821.773      -15010.94       10385.20       13936.15      -1719.031
      -18600.40      -17737.38      -6224.158      -9699.240      -8493.694
      -1945.928       3777.048       3025.795      -11163.52      -2269.398
       25757.80       28799.48       8122.609      -7389.025       4055.102
       15670.50       7994.367      -5330.902      -9420.102      -9715.371
      -15194.18      -9916.606       3280.477       8956.956       6335.455
       3334.043       10191.08       11562.97      -3933.766      -13178.77
      -2639.348       3641.492      -1911.328      -8895.488      -18392.03
      -20373.95      -8045.620       5595.988       3173.140      -7410.786
       1318.183       8103.658      -670.6113      -8059.635      -9258.631
      -1754.230      -3718.966      -6831.148       11257.03       10142.54
      -9324.664      -12008.94      -5788.082       10584.96       17459.49
       4441.225       1330.287      -5469.913      -7239.410       11812.96
       12494.02      -3915.937      -816.8096       5164.047      -2801.305
      -5392.541       2449.953       11351.81       11935.41      -3150.328
      -6300.158       8112.527       5974.174       5242.816       17527.53
       7959.776       562.0371      -156.0547      -14841.77      -13786.89
      -6567.842      -7650.711      -12239.54      -17724.54      -3307.816
       9013.156       3951.797      -117.5254      -1472.528       115.7695
       6416.080       2958.887      -2725.295       5923.075       4508.719
      -10394.14      -18342.05      -14247.48      -227.6797       3677.388
       888.1006       1163.156       9953.848       15522.23       352.5234
      -12052.95      -5630.937       3526.699       36.13281      -6668.057
      -7968.270      -4904.027      -4422.004      -18940.84      -9189.781
       31020.15       44591.45       12505.84      -15095.15      -7365.100
      -2056.316      -10760.38      -15861.13      -8380.585      -26.54297
       1323.383       4768.769       463.7285      -8752.832      -7557.461
      -1918.704      -5179.775       2126.391       16411.58       14834.41
      -2205.594      -16606.79      -21999.64      -27532.91      -17842.55
      -890.7617       12903.77       29494.89       27569.63       6656.414
      -13582.80      -12865.13       3505.266       13268.59       7099.496
      -4913.059      -11825.08      -19773.39      -19036.50      -12993.82
      -6205.898       9492.156       15575.68       7386.279      -7035.582
      -9091.742       4883.281       12422.04       11005.00       12224.54
       9199.553      -2540.234      -14103.12      -19086.61      -6788.129
       16497.51       24942.94       16767.20       3166.309      -1219.351
       1385.527      -9295.082      -15754.97      -6529.832      -10119.79
      -15583.65      -14426.91      -17889.05      -11605.38      -8281.393
      -9280.543       115.2930       5525.559       7136.088       3510.553
      -1457.484       4078.447       9463.983      -521.4678      -5392.066
       4809.680       10870.52       11114.11       10481.38       3370.605
      -8100.217      -9529.750      -7358.074      -11098.81      -8877.332
      -374.3354       6017.266      -4300.203      -21657.71      -15559.19
       11403.47       22146.22       982.0625      -14513.70      -8265.803
      -7470.242      -9140.885       1151.391       18427.89       22351.42
      -3972.844      -23564.04      -6763.146       6418.533       5635.539
       12499.47       15575.43      -884.8984      -9725.426       1687.738
       3959.512      -6360.117      -10629.13      -11106.21      -9118.729
       5750.785       13261.91       2976.998       1211.712       1641.195
      -11050.91      -17305.02      -5116.569       4231.859      -4841.750
      -19077.65      -24982.57      -28374.26      -32351.99      -25038.21
      -6113.523       6958.189       5371.090      -10933.10      -5888.107
       11224.90       7896.640       1254.742      -10659.45      -21348.48
      -17597.99      -12700.73      -277.5156       29895.12       39494.63
       7283.125      -26208.35      -20325.51       12438.83       25836.84
       21893.23       10865.71      -4989.654      -76.91309       6939.311
      -2857.233      -976.4023      -1972.012      -18039.90      -22072.88
      -9724.435       1318.235       3495.985      -617.0391      -5961.479
      -4812.188      -7340.574      -9566.629       4707.410       13556.14
       5142.424      -6354.863      -12658.20      -11081.14      -8324.172
      -9291.287      -4493.738      -8260.846      -10929.03       371.7148
       4516.586       11339.21       10446.11      -16213.43      -27714.12
      -15486.74      -16695.09      -23094.96      -16300.62      -5090.655
       3713.556       2493.170      -113.6172       9618.617       24938.20
       30598.28       33603.30       37151.00       25651.59       2354.492
      -15417.69      -9690.000       12406.23       16308.56       8307.793
      -6961.227      -36336.12      -45981.00      -26769.20      -23723.16
      -25453.22      -4929.844       6586.891       20174.72       51834.53
       75379.75       89700.00       125658.8       180872.6       203367.1
       172530.1       107390.0       66627.31       107506.2       196866.0
       267868.6       311492.2       319771.7       290411.2       248762.0
       189354.4       136338.2       131643.8       137514.8       118617.4
       72553.77       4144.039      -30979.12      -62252.12      -187187.9
      -316676.2      -310453.5      -182022.2      -80155.22      -84137.53
      -108510.9      -126188.8      -118403.0      -32718.53       9663.156
      -102325.4      -216240.1      -185977.4      -66011.45       41519.00
       89311.81       72548.19      -35612.31      -170106.9      -184864.7
      -57637.62       107223.2       215810.9       154753.9      -32938.67
      -68119.63       38203.54       19223.12      -93137.50      -158116.6
      -229654.2      -283581.9      -187826.8      -44618.58      -27152.19
      -86075.56      -142360.4      -155524.6      -122474.5      -107335.7
      -139460.8      -171827.0      -103512.0       21877.61       56190.12
       4943.000      -36787.67      -38898.39      -10879.81       40290.62
       109755.0       190853.7       236823.6       189958.6       133077.7
       126648.1       90057.87       28319.53       19827.37       43037.18
       39866.61       4385.188      -47180.41      -95641.88      -132316.9
      -148453.9      -144463.9      -124912.2      -90245.83      -75155.12
      -22669.25       76221.31       92319.94       56931.18       30707.57
       5943.875       39135.94       133423.8       184485.8       102031.7
      -14118.78      -31574.74      -11166.67      -10696.77       39706.94
       90008.30       25281.62      -86194.84      -124983.5      -67038.12
       31723.41       87036.16       90700.88       58231.97      -41294.94
      -159465.2      -155367.9      -90325.11      -91694.55      -69305.52
      -2698.953      -15781.53      -99875.22      -136802.7      -96238.88
      -10767.62       82883.53       134650.1       130031.2       88930.33
       55085.17       41753.28       66448.91       124212.1       118785.6
       37514.79      -2579.375       28296.07       21045.87      -22428.10
      -17847.56      -21325.62      -55957.58      -71957.33      -40650.00
       20609.27       19358.98      -45644.47      -83035.02      -47575.70
       40647.19       107519.9       106133.7       57646.69       47535.84
       62949.45       17639.32      -25632.00      -28726.90      -33400.72
      -24254.73      -19838.58      -31716.27      -3597.930       47027.36
       16823.17      -45263.27      -36622.47       2922.219       37237.31
       56965.88       43509.16       11545.34      -29469.59      -86393.44
      -133079.8      -127453.2      -82561.84      -46572.73      -56078.34
      -87751.16      -125964.2      -123971.3      -15449.42       69839.89
       54379.90       44175.02       36451.27       14367.72       12667.82
       26253.12       57813.38       65611.06       24289.71      -434.7721
       1498.164      -1571.766      -18658.41      -70041.03      -122314.2
      -113058.5      -48896.79      -1376.008      -20446.08      -65176.97
      -75481.39      -49429.41      -26793.99      -3555.031       34070.75
       63710.83       83259.03       95552.16       80189.47       78802.50
       129891.4       164957.5       161266.1       157993.1       132480.5
       79416.19       49716.12       57950.05       51987.88       34860.72
       71541.95       98497.84       45719.55      -20902.62      -76603.25
      -108364.8      -88508.73      -57407.55      -47785.86      -35106.45
      -13364.34      -44603.50      -99649.56      -77494.77      -26172.80
      -22663.30      -51700.03      -88101.81      -123372.5      -133038.2
      -125759.9      -136492.6      -119734.3      -57749.12      -6601.785
       21803.62       15344.04       1604.719       23462.06       42126.09
       57423.44       85752.72       103354.8       100049.6       84810.05
       77217.91       43034.31      -7107.703      -1429.609       42196.61
       66800.95       59602.44       48299.40       32644.28      -12245.34
      -47047.84      -37053.25      -2877.366       3056.109      -11981.61
       1728.436       12819.27      -18111.42      -56291.59      -59245.62
      -34024.85      -6134.633       12079.72       6237.906      -23799.24
      -46292.67      -14291.53       42439.95       46609.50       44040.64
       77176.39       76352.22       33195.51      -14084.30      -58590.42
      -82919.91      -74226.61      -54007.04      -45108.27      -35184.52
      -5901.234       12294.91       9721.365      -2264.059      -17918.32
      -13297.15       5733.500       26001.72       60475.91       94727.03
       99635.39       65992.13       16882.32       7784.875       42980.27
       65950.16       59564.50       52865.38       29753.28      -23042.85
      -44192.04      -31968.52      -31127.05      -44373.24      -34720.60
       21444.84       87219.78       110293.9       88884.70       62679.67
       39376.64       13414.18       9325.949       6059.289      -19509.25
      -24643.95      -17756.56      -36846.56      -60304.97      -78623.00
      -89154.72      -90618.56      -96343.83      -77246.59      -37473.44
      -41645.00      -70010.31      -61356.80      -36274.34      -23702.56
      -9440.676      -1057.045      -7323.594      -16129.84      -6522.503
       5950.291      -2480.506      -14762.77      -3155.305       33119.86
       59677.17       67657.12       54192.12       33447.08       33896.50
       31951.20       36459.58       67426.97       91108.39       70576.76
