     0.02500000      -643258.5       789399.4      -12345.00      -12345.00
      -29.99002       215.5350      -16.94000      -12345.00      -12345.00
       0.000000       12.43000      -12345.00      -12345.00      -12345.00
      -12345.00      -12345.00      -12345.00      -12345.00      -12345.00
      -12345.00      -12345.00      -12345.00      -12345.00      -12345.00
      -12345.00      -12345.00      -12345.00      -12345.00      -12345.00
      -12345.00      -31.28310      -69.41950       1383.000       0.000000
      -31.54000      -68.94500       0.000000       103500.0       0.000000
      -12345.00      -12345.00      -12345.00      -12345.00      -12345.00
      -12345.00      -12345.00      -12345.00      -12345.00      -12345.00
       53.36000       302.1402       122.3863      0.4797730      -12345.00
      -12345.00     -0.2617190       90.00000       90.00000      -12345.00
      -12345.00      -12345.00      -12345.00      -12345.00      -12345.00
      -12345.00      -12345.00      -12345.00      -12345.00      -12345.00
      2008        49         8        51        20
       640         6    -12345    -12345      9822
    -12345    -12345    -12345    -12345    -12345
         1         7        13    -12345    -12345
    -12345    -12345    -12345    -12345    -12345
    -12345    -12345    -12345    -12345    -12345
    -12345    -12345    -12345    -12345    -12345
         1         1         1         1         1
CALI    -12345          
        -12345  -12345  
-12345  -12345  -12345  
-12345  -12345  -12345  
-12345  -12345  -12345  
-12345  -12345  -12345  
-12345  -12345  BHE     
ZL      -12345  -12345  
[...]
       157.6670       228.7161       127.9036       198.9476       103.4725
       172.3052       70.23761       139.8638       42.13675       112.0244
       18.59563       87.49811      -7.520020       57.56585      -34.48605
       27.72643      -70.24229      -5.676880      -97.44891      -38.27588
      -129.8303      -65.74384      -158.5470      -98.76370      -188.7943
      -128.8773      -222.4500      -165.3314      -257.3939      -198.6757
      -286.8263      -224.1141      -318.2875      -261.3979      -350.9224
      -295.8082      -384.3431      -324.4824      -414.1497      -363.8370
      -454.5096      -394.5193      -476.8059      -421.0775      -505.8198
      -449.2588      -532.7751      -475.9279      -557.0435      -501.0176
      -585.3090      -530.9799      -606.5760      -553.9240      -629.1465
      -569.2614      -647.2444      -596.8567      -671.3164      -614.1710
      -682.9360      -630.1348      -702.8130      -647.2510      -717.4187
      -660.1006      -726.3508      -675.0183      -740.3486      -686.0840
      -753.2615      -698.4023      -761.7549      -706.0425      -761.7993
      -705.1704      -764.3486      -704.0129      -756.8123      -702.0874
      -753.6438      -690.6252      -740.5957      -680.4678      -728.5061
      -671.1157      -723.1904      -666.9849      -716.2488      -660.4587
      -714.4683      -661.1672      -709.2522      -652.5137      -705.3661
      -646.9844      -688.8464      -634.1565      -678.2605      -621.5441
      -667.7996      -611.4543      -651.6216      -594.0957      -630.8125
      -575.1252      -616.2914      -562.4497      -593.9038      -537.7717
      -573.6654      -511.3125      -539.1143      -483.5449      -512.4725
      -453.7135      -484.2886      -428.3201      -454.4117      -400.5579
      -429.4766      -372.4507      -393.4441      -346.3097      -371.3413
      -316.7369      -343.1565      -296.3001      -321.6794      -271.3339
      -297.0742      -257.3047      -281.6288      -236.6905      -265.1013
      -220.2172      -245.5765      -202.9733      -223.6277      -178.8875
      -204.6897      -163.2490      -184.2885      -144.4866      -168.2152
      -126.5117      -150.2629      -117.2184      -141.2018      -105.2880
      -128.7640      -95.96832      -113.4612      -80.41367      -101.7787
      -69.20035      -91.37982      -64.30780      -83.58568      -56.19565
      -74.99710      -50.11821      -67.08279      -44.69655      -60.22279
      -33.94732      -46.85509      -22.75137      -32.22734      -9.242340
      -22.40315      0.4184685      -8.766573       11.97943       4.170940
       21.55402       6.086323       20.94935       8.726028       27.94316
       17.67225       37.28963       31.23624       52.21419       41.95215
       60.20892       53.81998       67.03271       55.36397       74.00500
       68.12010       79.58142       72.64276       92.58472       88.14929
       99.15579       90.31891       102.7936       91.01520       98.18939
       88.54193       98.00586       91.11575       98.24127       93.86099
       103.9422       94.36072       99.82507       90.86621       92.28207
       86.61566       88.58829       75.44897       66.48386       57.47003
       54.22805       40.20705       33.76764       25.86024       17.06603
       6.176662      -1.957893      -10.85269      -17.50878      -29.43379
      -38.60995      -44.53656      -54.02454      -66.25525      -75.75165
      -80.00943      -88.66772      -89.11978      -95.65182      -101.2725
      -113.0300      -116.2346      -129.0440      -132.0751      -145.8068
      -153.5151      -170.3716      -173.6336      -189.5430      -191.9803
      -208.4425      -210.4233      -226.4266      -221.7963      -240.8219
      -240.2867      -262.0729      -260.2224      -281.8194      -276.1941
      -298.3605      -291.3258      -315.0976      -311.9531      -336.8223
      -327.9780      -353.7527      -350.5271      -376.6920      -369.3533
      -397.9666      -392.0900      -420.8118      -416.7382      -447.5535
      -442.6028      -476.0526      -472.9808      -505.6118      -503.2908
      -539.3606      -535.6201      -573.2466      -568.6033      -606.8530
      -605.1106      -644.4468      -640.9255      -684.5291      -681.5393
      -721.7888      -714.9155      -760.2739      -756.3633      -796.3057
      -787.4373      -835.2664      -823.7930      -860.5229      -848.1226
      -892.0974      -872.3135      -912.7007      -896.5461      -935.9023
      -913.6206      -955.0081      -928.8169      -970.7480      -941.4497
      -976.2402      -946.6758      -988.2915      -954.7886      -991.6494
      -959.6948      -1008.887      -974.3284      -1008.784      -974.1494
      -1033.723      -991.1194      -1010.984      -980.3115      -955.2549
      -120.6113       3493.000       15266.86       39383.97       67149.78
       74987.03       58084.28       31598.08       5703.223       11819.61
       41124.89       46386.88       45831.99      -4488.250      -119663.7
      -140667.1      -41755.38       82483.59       151110.3       63577.34
      -103865.2      -204377.2      -178046.8      -49188.70       63497.09
       79045.75      -12030.47      -113156.3      -107946.4      -13058.28
       112967.2       199446.2       146231.8      -33741.31      -153952.2
      -89517.10       63147.41       81130.25      -738.7031      -17642.70
      -13874.11      -7565.040      -2065.149       235.1016       16515.47
       22775.24      -6136.594      -35226.88      -27929.94      -23778.94
      -19304.88       1945.297       33811.52       57129.99       38089.95
      -11261.59      -44088.47      -51931.23      -55986.21      -47990.14
      -11778.71       3137.160      -17569.67      -2003.047       26500.06
       33944.81       44814.86       26996.43      -20538.83      -33545.99
       23218.06       58738.11       27119.35      -649.2070      -20714.55
      -15122.56       20513.38       11662.08       1838.934       9105.477
      -19912.48      -54860.11      -67891.54      -33068.83       17477.09
       25796.48       17150.68       17326.34       10603.47       9062.688
       29555.95       36133.97       29672.12       16424.83      -11554.28
      -25116.08      -3579.277       229.6250      -47105.81      -57410.56
       12774.77       44283.01      -6333.246      -23348.04      -502.8242
       2531.289       26211.36       74821.13       62959.86      -6472.297
      -42826.91      -37159.99       2094.969       47545.96       18984.38
      -48484.26      -54931.25      -20776.70      -5487.119      -4802.598
      -4391.631      -1261.141       10024.36       16828.88      -309.1797
      -33547.98      -41381.42      -10974.90       10933.27       4825.211
       14018.29       21852.24      -2533.109       5411.812       37127.52
       25621.31       10037.44       4458.802      -1645.421       4613.126
       4523.552       278.8281      -12447.55      -31497.04      -24822.99
      -12288.04       1031.609       25524.79       22720.16       2097.074
       5047.432       10602.41       1773.990      -7548.514      -1367.211
       23655.90       30815.62       17818.01       15099.05      -3440.633
      -27312.90      -26658.95      -18275.13      -16521.95      -10239.69
       12345.78       15056.72      -3107.248       2701.668       13902.32
       13112.76       10999.20       3261.312      -18969.52      -44285.32
      -37020.77       1266.297       24433.52       28662.83       34729.94
       33943.67       24353.11       12901.78       4709.889       12080.38
       8050.812      -14914.31      -36694.00      -51695.53      -34561.81
       9251.789       22182.62       9009.609       14235.60       6929.734
      -8086.055      -6386.734      -10290.54       7988.789       25052.35
       1862.477      -14745.82      -9850.616      -7275.438       202.6094
       9936.484       19194.56       16191.68      -16427.91      -27276.29
      -8604.219      -5559.988      -379.8398      -8159.088      -15985.17
       4225.738       18272.26       20509.62       19351.71       29416.94
       31502.28       294.6562      -27051.23      -39557.97      -40956.55
      -27590.31      -13175.93       1446.248       12701.35       4654.256
       2007.600       4189.145      -9804.920      -2668.216       10807.37
      -3475.531      -12989.40      -15725.30      -9438.633       21080.47
       53871.62       57032.30       24026.41      -5802.910       10920.05
       34964.47       21833.30      -6975.203      -26410.69      -34850.53
      -25058.59      -23224.15      -39000.29      -27554.17      -6636.494
       2498.922       14267.15       14445.35       8864.626      -1157.398
       1723.539       31096.39       36081.48       10870.68       5899.680
       27588.63       17356.60      -16197.53      -9982.875      -7883.660
      -22657.02      -17019.27      -16860.65      -35716.70      -40156.38
      -29570.08      -30268.55      -14324.48       39801.70       54622.04
       8505.766      -18013.12      -3697.355       17917.54       16664.25
      -1369.324      -9385.602      -27393.48      -19257.81       26858.02
       37487.09       10116.79      -11323.36       2084.562       21783.33
       5186.770      -1310.506       8935.680      -14303.90      -12421.01
       32452.21       36274.36       9337.480       5377.049       12709.51
      -2605.328      -20794.15      -13645.04       285.9150       1006.609
       7835.916       13536.79      -1564.307      -10653.31      -2339.566
      -10865.82      -27991.18      -7215.490       5859.574      -537.6738
       11815.91      -2047.070      -14220.21      -11234.31      -18208.81
       3751.242       27145.25       4703.297      -37932.16      -49886.17
      -17300.93       14600.16       40469.05       40728.23       3987.734
      -19711.79       5214.594       43890.74       21211.16       1253.291
       13655.98       669.7910       5758.737       6417.205      -12172.06
       1359.016       15248.16       14959.62       26934.88       36328.91
       21036.44      -8553.812      -18204.62      -36350.14      -70267.68
      -52720.89      -7404.650       1415.182      -6391.552      -2261.316
       7688.148       21017.71       29482.31       12294.64      -8104.117
      -13709.56      -28288.94      -26361.00       23466.16       37947.49
      -4177.893      -1700.141       15713.91       9190.367       31342.27
       30800.65      -1342.633      -16353.39      -8441.479       4837.009
      -8126.686       408.8828       22245.32       3263.297      -18348.18
      -19033.90      -9273.004      -14443.84      -24787.06      -21372.16
      -21659.09      -12392.73       14568.92       37840.34       43367.64
       11491.96       4615.281       31460.94       16758.53      -1019.812
      -2189.172      -14092.38      -15264.97      -3876.975      -1325.760
      -696.5254      -8521.342      -14518.11       19302.77       22856.33
      -9130.336       6239.539       25052.30       24706.16       41086.30
       40291.59       23766.49       15147.94      -74.59375      -15309.40
      -25015.25      -23977.82       16.15723       6852.289      -18822.03
      -46346.25      -47670.13       3742.781       46096.66       28013.73
       18893.25       28079.28       8896.352      -12016.50      -9405.203
      -17120.67      -46056.04      -49171.76      -11697.93       8329.922
       18204.97       51839.04       55713.16       16975.58      -16654.41
      -18229.52       12381.64       34919.15       21193.38      -21534.60
      -32723.59       4405.891       27613.30       25589.52       21839.30
       16435.66      -5583.770       4017.070       35874.30      -24600.30
      -73180.63      -16522.63      -6633.938      -39761.96      -12746.46
       3520.988      -1258.984       28961.95       20660.37      -16177.08
      -10048.19      -105.1094       20104.24       45846.86       26718.06
      -3635.275      -2567.371       12806.56       17013.58      -10957.75
      -38425.71      -19913.22       18905.69       12337.36      -16314.16
      -25156.83      -48294.17      -20447.21       28775.12      -8290.969
      -26001.77       4587.758      -10127.17      -14945.98       17961.49
       28839.80       23744.46       28179.38       59839.37       46466.28
      -28121.84      -96268.62      -191814.8      -316864.8      -407919.1
      -484815.8      -581007.2      -643258.5      -611876.8      -482552.2
      -309398.5      -113617.9       66584.78       128643.8       67814.75
       10132.26       5582.805       3122.875       94356.94       202415.0
       216664.0       356013.1       623684.2       789399.4       720976.5
       537802.0       433567.5       300235.3       34584.00      -204032.8
      -276286.1      -145327.7       71403.28       133052.1      -1718.875
      -236784.6      -336364.6      -287522.1      -264645.8      -314198.8
      -330046.7      -27987.62       353863.0       459057.0       476378.0
       487248.8       384756.9       290191.6       190711.3      -118115.6
      -409644.1      -400797.4      -304822.6      -254728.1      -152589.4
      -38803.38       64850.25       215000.1       370256.9       280864.8
       11304.25      -151930.8      -330916.5      -394451.7      -155797.8
       194201.6       435884.8       452069.1       308898.8       135243.2
       95591.89      -381.5625      -171642.4      -124225.6      -39277.34
      -98106.22      -128768.6       23110.31       145413.7      -65199.44
      -335368.2      -254584.2      -106600.8      -203942.6      -240879.9
      -80082.44       34864.19       144437.8       307110.5       377693.9
       313223.8       203532.1       120623.3       12227.98      -60199.59
      -92730.62      -119679.8      -135856.6      -197653.6      -157662.8
      -35478.23       15015.16       38411.07      -7369.188      -71984.70
      -83423.55      -86905.75      -2237.500       109231.3       80750.69
      -40597.31      -141310.6      -146923.6      -61354.94       35057.00
       102438.1       77755.36       8758.625       47949.16       120464.2
       150040.7       139605.3       124797.0       106929.7       20261.51
       15344.55       10516.62      -117330.2      -183642.5      -196628.3
      -194632.2      -153680.7      -95048.23      -18102.70       28437.36
       44255.02       52090.69       7048.000      -52311.16      -92404.84
      -140998.4      -148652.4      -120921.1      -97473.02      -66510.30
      -31994.39       52483.12       138443.9       128233.4       123838.2
       127363.7       110508.4       157224.0       195065.3       186234.2
       137179.0       89507.72       70919.41      -19746.19      -112391.8
      -156383.8      -188520.1      -94685.35       18514.84      -18272.51
      -13447.55       58876.25       57719.27       26429.02      -12403.72
      -39649.83      -41274.14      -69528.19      -114064.7      -66266.93
       21043.16       60574.47       124623.9       167430.3       105607.1
       28914.23       29329.69       53912.75       97058.25       113383.8
       68630.03       81567.53       96397.97       44853.86       11415.75
      -57520.94      -169011.6      -220864.7      -219286.6      -196313.8
      -166385.6      -122322.6      -91965.97      -88819.05      -59111.28
      -27154.28      -3914.391       52962.25       137061.7       203095.4
       208461.8       234306.1       282973.1       228810.1       146418.8
       76569.28      -51693.44      -146878.7      -141530.8      -173883.4
      -245503.2      -197850.4      -113907.6      -101253.2      -67700.14
       25480.17       77981.06       77733.81       84946.05       71174.41
       63857.09       103405.4       112463.6       76393.77       72376.84
       79021.53       66066.16       46360.47       14007.83      -16197.94
      -69166.50      -156649.9      -221385.4      -265082.2      -303558.4
      -275999.6      -188170.4      -98984.12      -3937.875       59728.03
       79875.91       127685.8       172099.0       145005.5       118599.1
       129669.1       108454.1       78206.41       74542.25       91448.31
       94930.73       30721.07      -5516.828       28346.98       18740.58
      -25498.42      -32134.56      -57607.72      -96258.91      -90298.78
      -99747.20      -88984.91      -17220.07       22509.05      -17962.09
      -77729.75      -99066.00      -121459.6      -133636.1      -98314.50
      -46477.89       17402.28       75922.19       99826.66       114321.2
       123830.2       108681.0       104376.2       128933.7       118746.8
       72685.92       32640.39      -1897.966      -9926.225       8658.781
      -19483.81      -99431.69      -136091.0      -124187.3      -80014.75
      -48767.59      -97096.67      -91548.34      -12345.52       14849.65
       13120.82       13122.83       30785.20       39439.06       10092.78
       2435.656       26266.16       43703.22       43207.70       57417.08
       75652.62       46184.31       5036.734       17270.75       61441.05
       66231.84       53247.62       14252.94      -60283.48      -68528.19
      -62643.48      -85989.47      -68113.81      -55848.53      -85738.73
      -92460.80      -56636.16      -25055.54      -13040.30       17343.91
       66520.13       40198.09      -33774.70      -47308.27      -34738.16
      -21859.94       4917.391       27541.24       16354.78      -35266.50
      -59685.91      -19955.06       42361.67       69964.34       42216.16
       39010.69       66819.94       63827.48       62242.75       50973.63
       12069.24      -26805.63      -48665.67      -28488.23       12833.42
       13309.49       4403.227       29061.81       34938.59       61609.56
       120364.7       125891.1       104443.9       81015.27       35376.25
      -15567.72      -27673.54      -9520.375      -31391.23      -53719.38
      -54195.56      -106481.2      -158779.4      -153803.5      -124132.9
      -73359.57      -17796.83       23502.44       49703.09       44225.61
       44025.78       82063.00       101423.0       77777.91       63007.22
