     0.02500000      -499148.9       556413.6      -12345.00      -12345.00
      -29.99002       215.5350      -16.94000      -12345.00      -12345.00
       0.000000       12.43000      -12345.00      -12345.00      -12345.00
      -12345.00      -12345.00      -12345.00      -12345.00      -12345.00
      -12345.00      -12345.00      -12345.00      -12345.00      -12345.00
      -12345.00      -12345.00      -12345.00      -12345.00      -12345.00
      -12345.00      -31.28310      -69.41950       1383.000       0.000000
      -31.54000      -68.94500       0.000000       103500.0       0.000000
      -12345.00      -12345.00      -12345.00      -12345.00      -12345.00
      -12345.00      -12345.00      -12345.00      -12345.00      -12345.00
       53.36000       302.1402       122.3863      0.4797730      -12345.00
      -12345.00   -0.002860682       0.000000       0.000000      -12345.00
      -12345.00      -12345.00      -12345.00      -12345.00      -12345.00
      -12345.00      -12345.00      -12345.00      -12345.00      -12345.00
      2008        49         8        51        20
       640         6    -12345    -12345      9822
    -12345    -12345    -12345    -12345    -12345
         1         7        13    -12345    -12345
    -12345    -12345    -12345    -12345    -12345
    -12345    -12345    -12345    -12345    -12345
    -12345    -12345    -12345    -12345    -12345
         1         1         1         1         1
CALI    -12345          
        -12345  -12345  
-12345  -12345  -12345  
-12345  -12345  -12345  
-12345  -12345  -12345  
-12345  -12345  -12345  
-12345  -12345  BHZ     
ZL      -12345  -12345  
[...]
       198.4084       81.19891       204.1287       88.01526       213.7878
       96.49481       222.2397       105.2130       232.5369       121.1965
       249.3999       129.2115       259.0410       146.0548       278.6553
       160.9425       287.7965       169.3599       294.8344       175.6639
       305.0120       186.7744       317.7364       201.9098       330.9357
       214.4263       341.5534       225.9320       355.1856       235.6677
       362.8513       239.9733       368.2862       245.2709       368.4727
       246.9186       374.7246       250.7621       372.5728       250.0489
       373.5806       247.7241       373.5006       243.8763       363.9404
       237.1742       357.4427       231.8716       358.5353       231.0308
       354.2991       228.8782       350.8693       220.3324       343.5498
       215.6444       332.8961       203.0079       324.0593       191.7929
       309.9519       178.5458       297.7316       161.3514       278.6947
       146.5468       264.4245       128.7520       243.0418       105.7461
       224.1293       87.86877       205.2935       69.35040       184.6599
       41.51489       162.5482       25.13217       142.1449       1.717911
       121.1053      -20.44899       101.4179      -42.07988       77.02856
      -59.85111       58.75237      -84.55638       35.41505      -108.6441
       5.666168      -135.5392      -15.69821      -156.0543      -33.47522
      -179.6129      -65.47852      -208.0922      -91.94342      -232.6924
      -115.0042      -262.0818      -147.8235      -292.9512      -174.2537
      -319.2631      -205.4603      -351.3660      -233.3743      -380.3893
      -263.4932      -408.6783      -290.1195      -439.3751      -325.6001
      -470.7606      -350.7017      -492.6696      -367.3550      -509.6022
      -391.2185      -530.3110      -406.3478      -547.1863      -419.5649
      -554.0269      -427.8247      -564.5571      -436.2561      -574.1909
      -448.4756      -583.3158      -448.8879      -582.0459      -453.6086
      -585.4561      -443.9802      -574.0796      -439.9441      -572.5841
      -433.8544      -559.6217      -420.3983      -547.1199      -403.1199
      -529.8911      -386.0004      -507.2769      -359.9956      -486.0077
      -339.2598      -457.8754      -306.3900      -425.6219      -273.6984
      -388.8072      -233.9225      -353.9857      -206.6574      -320.8458
      -168.0059      -286.6733      -131.9003      -243.2268      -86.42822
      -201.5484      -50.11890      -158.1887      -4.871155      -122.1088
       33.66427      -81.51257       69.03348      -45.05896       110.1245
      -2.894562       155.1489       43.09161       195.5177       82.33685
       237.3505       119.0778       272.8665       156.4517       308.6566
       192.2323       346.4795       237.2159       390.0456       274.1655
       428.2856       312.9240       468.1815       353.8640       509.5103
       397.2787       551.2965       437.9084       591.2656       477.8523
       632.0970       516.7449       669.6396       553.0007       709.4832
       596.0591       753.7576       638.6919       797.1116       676.9126
       827.1953       703.9224       862.6646       741.1411       894.1975
       770.2563       921.9475       797.3665       951.5410       826.7776
       975.1982       844.1475       991.9236       865.3040       1012.449
       886.0225       1031.628       901.3435       1044.521       914.2222
       1053.833       916.7927       1054.852       919.0396       1060.883
       926.9766       1067.402       929.3281       1066.344       927.5806
       1067.850       926.0518       1063.620       923.5015       1058.820
       916.0852       1054.755       910.7754       1043.469       899.7871
       1037.432       891.2842       1025.862       880.2681       1014.603
       870.1934       1004.492       858.5288       991.6030       849.0703
       979.9729       835.7402       970.9014       826.8018       955.7803
       811.1196       938.0278       794.5901       927.5344       781.4443
       906.1099       758.5449       884.1016       733.9978       859.3657
       711.2854       834.2080       682.5869       810.4543       661.2871
       785.1570       635.0791       758.6628       609.2957       733.0593
       578.9207       699.6340       548.8685       674.6290       520.2283
       640.0281       488.1115       609.8540       453.9210       572.8118
       420.0999       540.4137       384.1127       500.9266       347.6976
       466.9773       305.9482       420.3098       269.2125       385.2719
       223.3365       338.2612       193.2446       310.8829       143.5573
       257.8067       123.9049       242.0223       70.31552       181.2320
       65.93719       171.7701      -17.84348       95.09375      -242.0039
      -2041.266      -10920.00      -37732.31      -91553.38      -150575.0
      -165583.3      -132852.2      -81917.12      -44867.84      -69990.14
      -85078.42      -46102.51      -29948.06       48755.44       219500.7
       264084.2       93356.69      -125756.0      -201406.8      -97548.06
       122963.1       296751.4       241047.5       35049.73      -77793.80
      -16586.47       120465.4       197809.1       156588.1       3718.875
      -155858.5      -215916.7      -157615.6      -20926.91       68453.78
      -1769.688      -111045.7      -48796.84       90276.22       148988.0
       106813.8       49639.73       62484.23       60055.29      -7262.547
      -64708.44      -46209.66      -27776.50      -46100.34      -47687.52
      -25081.28       11729.84       9037.645      -19237.72      -19176.25
       14061.16       69954.88       65869.16       8565.000      -20368.07
      -23655.39       5096.445       16812.41      -49972.06      -109397.4
      -85399.88      -6973.086       39845.44       54415.07       38684.09
      -31813.81      -69696.83      -65816.47      -10048.92       76185.01
       51365.87      -5236.570       13549.86       36762.80       3578.852
      -38923.23       7941.844       94772.00       88621.34      -1234.312
      -70662.80      -51765.90       10644.02       15235.02      -41721.97
      -74422.44      -62152.05      -23454.73      -8528.379      -17700.57
       2126.703       9855.141       20681.73       71058.52       81488.40
       34472.84      -8615.975      -13165.55      -1049.949      -20713.46
      -12171.38       3917.016      -61772.47      -96804.05      -43265.58
       26283.73       39843.30      -13860.02      -39387.06      -4658.773
       27909.48       36130.71       12817.84      -903.6758       10187.99
       17321.89       19198.88      -11272.87      -41942.20      -23722.80
       24131.17       75596.78       81507.98       46484.75       14719.69
      -3984.777       3352.133       18407.04       477.7656      -20101.87
      -25801.98      -42028.49      -41802.62      -30070.80      -36694.27
      -42641.84      -34343.04      -16515.41       10265.62       26486.94
       29640.31       47491.77       45341.88       11761.72      -565.2422
       13196.50       12318.32      -13473.35      -19121.35      -13926.99
      -37147.36      -48472.66      -48733.79      -35498.38       11262.05
       60968.47       60055.05       16026.78      -77.70312       6906.131
       6884.464      -1399.206       2006.774       3118.961      -16351.49
      -5398.180       14816.27       12057.40       16790.65       35938.28
       28979.84      -9200.406      -29308.20      -27516.36      -26824.49
      -13733.27       11986.77       23672.29       6729.508      -11993.93
      -6207.047       15468.59       22497.02       15163.10       16430.89
      -1607.203      -34355.91      -41464.43      -29492.94      -17544.15
      -8324.023       24054.40       42533.16       7505.879      -10745.18
       19935.34       42209.58       41338.70       21678.23      -10193.98
      -25261.63      -34452.55      -33019.26      -17790.46      -13168.62
      -682.8477       9380.672       28586.22       61357.64       60407.67
       37676.89       15402.68      -7418.422      -23855.23      -56166.12
      -97193.25      -94092.71      -51629.09      -14340.30       8070.781
       45331.73       86511.14       74100.25       37393.98       24016.97
       18639.99       15005.23      -8717.156      -43705.10      -29397.76
       185.0234       7081.770       18384.38       22783.80       7908.955
      -3302.328      -8479.293      -9408.805      -10353.48      -41114.69
      -72254.84      -50321.89      -29871.11      -40379.20      -17919.73
       26095.72       46440.06       72247.28       82691.42       61891.31
       44743.54       21070.20      -3311.164      -25831.73      -58433.41
      -71950.14      -70705.72      -69964.19      -34308.30       1780.607
       1890.719       29007.48       56018.09       35899.38       13922.95
       22993.96       24524.21       15264.16       21990.31       9758.598
      -3628.875       19390.91       41566.43       4675.156      -58421.80
      -64113.11      -24186.24       12382.00       5956.510       1959.039
       22060.31       29046.77       37906.58       37343.13       35726.48
       4189.219      -37582.34      -25274.63      -17852.81      -23770.69
      -45256.31      -76576.07      -44502.85       20322.59       49049.31
       30035.80       5364.422       9591.258      -6078.805      -21509.68
       7916.633       25465.51      -11654.14      -31881.07      -4171.171
       4672.210      -3650.207       4090.156       27563.26       35017.78
       44945.80       52637.82       25929.38      -3765.859      -72996.34
      -99011.32      -16080.32       39410.27       55470.73       74350.75
       51692.55       7010.047      -26371.27      -29826.50      -8865.180
      -17740.64      -46847.27      -34558.03      -33020.21      -52918.11
      -13024.98       19476.00       16113.34       30032.69       36719.34
       35050.23       14373.62      -30185.59      -20277.71       8610.031
      -42994.14      -88122.67      -39595.73       25439.74       16872.58
      -22151.98      -5689.555       4103.584      -23357.16       24145.44
       75027.83       37908.40       6791.156       23755.58       55990.95
       46546.39       7664.695      -6933.234      -23645.77      -13804.51
       13966.84      -6190.172      -51194.94      -63659.27      -11074.65
       44348.52       36876.36       8162.953      -29193.12      -68397.24
      -41654.87      -7112.254       9764.023       35129.83       7108.438
      -4752.430       29081.19       41786.65       29861.40       5941.301
       3088.160       16973.96       1998.750      -14365.62      -14158.60
      -21799.38      -17292.32       10693.02       18903.49       4177.258
       6602.324       21855.14       11037.86      -15307.95      -886.7285
       3322.793      -24107.87      -4259.250       27855.28       21071.35
       9124.391       47083.97       83800.33       60357.99       33890.43
       16216.06      -30606.47      -92603.81      -112213.6      -86812.53
      -76447.52      -85779.56      -88360.25      -79702.84      -14406.52
       78537.53       92274.73       58633.55       56158.78       71962.97
       65311.96       45544.05       12841.45      -29175.20      -49623.16
      -50574.15      -17207.54       33371.33       30053.39       7002.672
       24755.17       65131.00       65401.13       20176.07      -6360.750
      -40852.78      -74661.69      -72071.09      -81449.30      -46825.07
       9969.508      -12773.02      -34887.73       12996.30       84015.28
       85593.70      -4424.234      -80081.11      -84969.95      -39597.62
       9394.312       50127.05       65869.36       20775.14      -6742.105
       17982.99       20126.32       30850.00       40548.40       10405.29
       21758.13       21450.94      -43307.20      -51576.93      -23645.23
      -16787.59      -26693.34      -62848.33      -59916.03       16360.20
       85975.48       65838.42       2009.953      -28376.70      -15455.05
       8417.953      -10773.36      -60298.62      -61436.16      -6815.422
       44817.76       48711.04       15289.50      -5805.352       20008.20
       46607.30       9572.715      -10892.11      -23715.39      -65799.42
      -63727.31      -29253.91      -3632.711      -9520.172      -50772.09
      -66024.88      -87295.25      -165216.7      -238845.3      -285955.4
      -302352.8      -273331.2      -216411.4      -157432.4      -109842.8
      -73062.30      -33801.71       15360.95       45197.35       32805.76
      -11549.94      -74631.91      -75001.80       8521.656       80289.38
       179060.1       378848.6       556413.6       550580.5       430773.6
       327983.8       221676.8       116308.5       68081.19       68527.53
       136391.2       251774.7       264001.7       174522.9       133557.7
       41030.69      -205596.1      -462231.0      -499148.9      -300435.3
      -84608.75       85280.53       123169.0      -40465.94      -146518.2
      -94781.41      -98687.28      -158225.7      -117490.3      -89352.09
      -132039.6      -90256.25      -58164.66      -102689.7      -81265.50
       40801.50       98673.41       42054.50       36770.25       63032.19
       90880.44       135586.1       70613.32      -54920.61       14486.94
       179447.5       232341.3       248797.7       202877.3       32749.56
      -172118.4      -200970.3      -61379.06      -27865.62      -88791.31
      -97395.69      -96481.20      -70267.06      -806.6094      -18968.77
      -70870.59       6870.000       140755.3       165565.4       66495.44
      -46061.64      -23557.95       83561.06       115629.7       54539.31
      -70536.97      -136779.2      -105568.7      -28799.17       71071.50
       87031.22      -74725.88      -283777.6      -285381.2      -205309.6
      -179261.3      -69041.33       48690.91       85465.66       77391.06
       95497.19       188338.9       223919.4       134981.8       71417.77
       101776.7       56726.25      -71072.59      -84571.56       21419.50
       135273.1       187815.8       197529.0       201062.1       132487.2
       16130.61      -25486.04       8966.789       7622.312      -70679.00
      -149000.9      -224024.2      -291487.1      -247511.5      -112567.8
      -15369.00       29055.09       51669.34       87470.59       165710.8
       163003.7       73781.73       17583.73      -1253.020       27270.70
       6966.715      -42126.62       25693.19       85742.94       95493.06
       117125.7       82415.21      -2271.656      -89045.78      -143362.5
      -135207.0      -104214.1      -88760.86      -70060.83      -34838.65
      -3495.148       12757.65       32220.68       34753.92      -22577.47
      -55562.19      -25455.80       1617.965      -5613.836      -30672.50
      -16714.57       14425.54       27236.41       30773.55       19800.54
       858.5547      -27437.70      -72393.33      -53057.56       45020.31
       85941.25       93460.53       126449.1       112588.9       55262.28
      -14831.31      -100572.9      -153371.2      -164669.7      -187477.6
      -185209.0      -125658.0      -49062.00       24350.44       78785.06
       95437.62       79298.34       83887.31       98508.59       54869.95
       18888.81       58738.53       80887.09       37602.30       19097.11
       40363.16       44554.52       37458.24       38496.27       27936.72
      -10904.34      -33379.72      -54141.75      -103297.1      -91419.23
      -26464.07      -6621.090       3696.082       3098.516      -49399.70
      -76402.30      -42609.34       8724.148       40731.47       38648.62
       37760.53       64543.11       68699.64       46831.28       52414.79
       53659.38       17562.05      -25826.94      -41535.76      -32099.86
      -13165.38      -1416.891      -16981.00      -37331.95      -60571.59
      -78802.28      -74998.31      -72018.12      -52373.15      -8476.869
       7150.242      -21234.29      -24455.16       19406.03       39433.22
       24917.08       27424.08       10865.94      -29049.53      -29222.00
       2464.771       12554.52      -16831.53      -26466.73      -8364.945
       1974.961       10110.24       11728.66       9303.773       21141.27
       62379.66       103192.9       84131.36       30175.63       17655.46
       19944.27       7410.867      -5303.000      -30146.02      -40160.88
      -40355.80      -45632.08      -44761.39      -53642.63      -40845.05
       4874.516       49016.94       76769.08       67881.28       48267.42
       57304.94       46275.23       3293.141      -24483.70      -25193.77
      -6703.703      -26191.73      -67267.21      -50458.94      -17455.80
      -633.2891       17855.56       40297.22       53749.31       51532.52
       47982.81       35051.88      -2562.453      -36109.39      -36338.42
      -46167.05      -44640.95       12114.82       43499.34       23030.99
       8388.637      -2930.020       1192.141       32229.75       41500.91
       29758.59      -17077.59      -82991.88      -112048.2      -104715.8
      -101359.6      -119689.2      -101129.1      -62586.31      -52887.09
      -27133.22       21324.50       69037.88       98398.88       93451.16
       80885.20       72202.04       43606.77       19950.42       25167.00
       26282.04       12921.13      -14343.75      -32877.61      -39916.45
      -50832.59      -30592.97      -35513.22      -76313.77      -77931.28
      -59812.94      -28384.08       12175.99       17005.00       18725.03
       49454.62       86236.66       131052.0       152310.4       139710.3
       118397.0       62355.37       13972.66       11817.47       16389.80
       14691.16       12677.91       5433.156      -19551.25      -54295.02
      -62230.34      -67718.97      -89094.94      -88038.12      -95469.50
      -106513.2      -88022.97      -79747.94      -79721.06      -67164.76
      -45038.35      -25433.68       4688.656       66967.22       113898.7
       107026.9       90394.19       111753.6       141632.1       137800.1
       134993.2       126536.9       93369.08       54057.62       4926.375
