     0.02500000      -681485.6       520592.2      -12345.00      -12345.00
      -29.99002       215.5350      -16.94000      -12345.00      -12345.00
       0.000000       12.43000      -12345.00      -12345.00      -12345.00
      -12345.00      -12345.00      -12345.00      -12345.00      -12345.00
      -12345.00      -12345.00      -12345.00      -12345.00      -12345.00
      -12345.00      -12345.00      -12345.00      -12345.00      -12345.00
      -12345.00      -31.28310      -69.41950       1383.000       0.000000
      -31.54000      -68.94500       0.000000       103500.0       0.000000
      -12345.00      -12345.00      -12345.00      -12345.00      -12345.00
      -12345.00      -12345.00      -12345.00      -12345.00      -12345.00
       53.36000       302.1402       122.3863      0.4797730      -12345.00
      -12345.00     -0.3187012       0.000000       90.00000      -12345.00
      -12345.00      -12345.00      -12345.00      -12345.00      -12345.00
      -12345.00      -12345.00      -12345.00      -12345.00      -12345.00
      2008        49         8        51        20
       640         6    -12345    -12345      9822
    -12345    -12345    -12345    -12345    -12345
         1         7        13    -12345    -12345
    -12345    -12345    -12345    -12345    -12345
    -12345    -12345    -12345    -12345    -12345
    -12345    -12345    -12345    -12345    -12345
         1         1         1         1         1
CALI    -12345          
        -12345  -12345  
-12345  -12345  -12345  
-12345  -12345  -12345  
-12345  -12345  -12345  
-12345  -12345  -12345  
-12345  -12345  BHN     
ZL      -12345  -12345  
[...]
       814.8711       809.2632       810.4409       799.8901       801.1179
       792.4744       797.2024       796.5059       797.2581       784.6243
       787.3926       778.1782       774.5789       768.1836       771.1702
       762.9226       759.3843       749.1589       741.2595       725.4629
       714.7224       700.2415       689.8169       675.7322       667.4526
       654.9993       641.2953       626.8386       615.4259       601.8229
       579.5330       558.8452       544.1306       523.1870       501.9871
       486.5446       465.1830       446.1965       426.3481       405.3975
       381.5681       359.5759       331.8040       310.2675       283.8367
       266.8315       240.2283       221.9308       201.6774       188.8349
       161.0657       143.8474       121.2189       105.4775       82.33936
       71.16773       45.61691       29.22952       2.661072      -11.92616
      -38.80736      -48.89697      -72.65732      -81.19928      -102.4766
      -110.0888      -139.0016      -144.4016      -167.5762      -179.2482
      -203.0082      -206.9474      -234.8661      -242.4737      -268.1355
      -278.1672      -305.2800      -310.8088      -339.9146      -349.2428
      -375.8230      -382.4541      -415.2689      -424.7050      -444.6971
      -445.0897      -473.2467      -475.0607      -497.1301      -498.3463
      -522.8252      -519.4625      -540.4631      -541.0396      -559.9584
      -551.1692      -569.5422      -557.7039      -576.0264      -566.9888
      -585.1920      -570.5110      -586.4409      -571.4720      -592.5344
      -579.4839      -603.0863      -589.2378      -611.5894      -594.2327
      -609.9824      -591.8658      -614.2170      -593.8666      -616.8284
      -601.6166      -623.5265      -608.9049      -630.4114      -608.1372
      -628.0479      -608.2758      -629.6897      -604.6382      -626.6838
      -600.8713      -624.6189      -603.4043      -625.6494      -598.4315
      -620.4706      -594.6884      -616.3120      -583.7919      -601.3203
      -575.2863      -602.9703      -571.9890      -594.0728      -560.3569
      -581.6080      -548.4670      -566.7378      -526.2124      -544.3767
      -508.0305      -526.9475      -482.4226      -499.4111      -456.8105
      -466.8507      -419.8694      -430.7026      -380.5931      -389.9976
      -340.1693      -349.0056      -292.4958      -299.8137      -248.0511
      -253.9927      -194.4668      -201.9142      -141.8930      -139.9528
      -77.79755      -82.24029      -20.31224      -24.83644       35.19476
       25.65851       88.18146       85.36844       152.8738       143.5989
       207.1209       200.6344       265.7788       259.5654       324.9293
       311.8792       374.4309       363.8252       428.5988       410.6801
       470.8506       454.3264       516.3203       499.5210       560.6487
       538.8302       598.2609       576.2015       636.2827       615.6262
       679.6849       655.8877       713.1023       690.7903       754.5012
       726.4236       784.1912       757.0256       818.8311       790.6963
       853.5374       827.1416       886.4775       857.4941       921.6641
       885.0667       946.2607       913.4629       976.8267       946.1685
       1008.930       974.0923       1040.491       1003.515       1066.422
       1027.863       1091.523       1052.449       1119.119       1078.420
       1138.422       1097.945       1159.740       1115.734       1175.286
       1128.546       1183.874       1137.131       1197.256       1148.563
       1205.791       1159.118       1222.727       1169.490       1225.499
       1172.911       1227.231       1170.093       1232.525       1178.143
       1234.073       1171.035       1221.927       1154.798       1207.011
       1142.687       1199.836       1136.908       1190.548       1119.999
       1169.248       1096.999       1142.576       1066.417       1116.456
       1043.620       1090.915       1011.098       1059.478       981.6531
       1029.954       953.1956       1006.853       923.1401       969.4949
       887.5901       938.7917       857.2522       908.4634       825.6455
       877.6680       790.2761       842.9678       758.3215       811.7065
       726.2869       780.6353       689.7056       741.5405       646.6599
       697.3799       606.7991       656.3245       565.3281       619.1562
       525.9449       581.8059       493.4357       551.9941       460.9189
       516.5173       427.8468       489.0565       393.0508       448.6885
       354.5573       417.9991       324.2527       385.2085       300.4119
       379.5797       287.7072       347.4254       256.2704       336.3142
       244.5353       307.2618       227.4603       324.3549       205.6793
       214.0503       14.00659       69.88281       1392.497       5355.855
       5138.719      -7587.078      -22721.68      -26725.82      -16003.34
       694.1875      -18029.70      -53349.14      -51614.46      -41820.95
      -41468.43      -13816.88       30034.61       36643.36       9478.453
      -16133.53      -41656.11      -19692.38       86990.66       156893.7
       84267.57      -38340.52      -77859.92      -29251.45       49256.59
       103617.8       60784.78      -35323.28      -68226.48      -46557.84
      -26667.45       7537.551       24511.09      -11695.29      -44745.51
      -32029.36      -13734.98      -27905.02      -21100.49       14111.02
       26180.53       19245.20       19294.84       6414.664      -10244.83
      -23323.63      -14819.36       40203.51       49551.93       2035.812
      -27088.81      -39648.39      -25413.26       34185.14       51562.14
      -606.4453      -31913.45      -22425.07      -8436.578       11269.38
       26651.57       4642.979      -14226.23       29096.27       57956.85
       12481.83      -2602.324       21883.94       637.6211      -19331.56
      -3343.527       1005.203      -30463.24      -34851.32      -7919.195
      -24223.99      -35381.12       4983.008       40788.92       39431.30
       28855.08       29505.24       23819.48       14926.38      -4478.578
      -20528.63      -5796.516       16654.50       5898.141      -24665.19
      -42754.72      -55331.11      -43522.21      -5638.152       9498.176
      -4956.906      -13955.66      -20647.52      -44983.71      -35993.55
       27925.23       64570.94       32532.57       3119.857       8596.586
       3858.402       2186.484       30537.77       33099.94      -8575.277
      -21561.32      -2921.852      -8939.654      -3952.078       8765.844
      -6983.922      -21059.02      -19250.40      -3444.546       5426.984
      -14940.91      -33090.64      -27977.05      -5151.688       14901.89
       14518.04       15387.93       19369.66       5267.512       2996.195
       32195.43       41948.45       13737.74      -451.5254       6418.964
      -1725.504      -8669.459      -3812.137       6136.043       15482.97
      -4502.531      -21539.24      -29716.37      -34039.64      -8318.999
       3794.633      -11439.07      -14781.85      -3074.242       14820.83
       29885.50       28459.94       90.45312      -27791.68      -18033.54
       1415.506       521.3096      -1382.957      -11404.96      -27072.96
      -28730.79      -11174.37       20823.36       31221.68       13465.77
       5474.600       7059.878       3415.949       7162.156       19468.26
       22876.34       17509.71       15077.59       1394.094      -22544.28
      -25786.77      -25482.91      -22556.79      -8463.176       7038.679
       7988.281      -19806.38      -32116.98      -12336.26       7610.836
       26686.59       41225.26       19918.23      -21046.16      -21314.12
       988.0078       9597.977       17876.75       14716.80      -5961.574
      -10089.33      -10347.93      -13028.50      -10.78125       10390.58
       17163.32       17178.03      -9050.508      -38096.03      -26267.15
       3948.359       16082.76       12115.17      -18106.78      -35860.01
      -13843.49       20936.30       35959.99       13788.84      -6965.492
      -1712.395       16692.47       24266.83       3023.264      -8919.230
       1004.131       2294.520      -4246.562      -12135.96      -16473.80
      -6099.250       8806.008       24715.23       22763.66      -4820.422
      -26663.28      -30746.86      -26066.80      -20751.66      -22150.52
      -22271.77      -1589.570       31301.92       40998.35       32145.94
       42339.41       51203.80       19410.61      -14445.28      -10372.68
      -6638.578      -24895.39      -23768.59      -8854.766      -17250.90
      -27963.99      -8725.777       13460.10       3762.330      -12767.47
       7090.875       29393.80       23698.91       18303.00       7838.727
      -13918.36      -8581.264       8394.725      -5713.996      -20248.51
      -11913.40      -7662.527      -11065.18      -6332.586      -9891.098
      -25927.59      -10829.89       20186.11       22175.10       10271.79
       16581.01       25677.16       25462.36       29588.32       21173.59
      -4512.156      -35987.31      -36852.09       334.3125       9555.994
      -10363.07      -12444.95       16443.91       16292.72      -1977.695
       31127.86       26270.54      -27098.28      -37382.94      -34371.47
      -49912.80      -39401.68       6788.524       7087.277      -24936.62
      -12265.34       11216.73       2528.432      -389.8145       9166.427
      -2438.159      -6146.132       3754.305      -15090.73      -31557.55
      -1072.125       28965.79       9570.350      -7912.570       5902.854
       14996.72       746.3750      -30432.41      -27916.18       4449.977
       20698.37       26702.67       42658.23       48441.47       16683.38
       8693.172       36968.75       30663.12      -3450.180      -8931.227
      -16710.56      -55900.22      -69401.01      -34085.45      -9595.832
      -11538.93      -6641.686      -6515.285      -8985.461       3.312500
       7448.180       11988.61       30270.28       32798.53       6167.439
      -50.18262       3763.327      -1173.833      -1903.190      -2107.617
       5550.945       20619.02       7662.859      -32218.20      -52166.78
      -24930.16       14062.16       10861.98      -9041.156      -19087.52
      -25752.02      -9370.859       21183.70       29056.99       14225.35
      -7867.207      -9390.594       16851.62       24845.83       21384.87
       20211.55       16741.98       26911.47       24998.01      -859.4414
      -12674.84      -19123.38      -34776.32      -29013.78       5302.201
       9290.023      -28187.43      -15919.56       39288.44       40643.00
      -832.7344      -25101.95      -29948.25      -25468.10      -1604.140
       6704.719      -27313.79      -29689.04       7822.996      -4348.016
      -42621.02      -35441.95      -5330.323       725.8008      -10639.00
      -12374.82      -16320.16      -6220.594       28245.22       45115.60
       46258.63       26818.23      -8980.680      -15869.62      -9204.241
      -7338.917       2522.945      -3518.227      -23822.36      -20318.48
      -9881.570      -30122.80      -34447.77      -4090.809       7560.301
       4280.289       9628.125       31200.05       39630.01       26619.13
       32945.19       16812.17      -30577.66      -38810.66      -20757.62
      -14706.74      -5678.885       5724.600       7990.477       4967.705
       2451.312       4804.734       7081.363       11986.19       20548.95
       16585.20       545.9297      -10541.46      -16686.62      -25853.42
      -18715.28      -16846.78      -16270.86       1863.430      -6873.326
      -13074.04       3625.863       5247.721      -5041.695       7661.938
       35808.69       15631.50      -14212.57       4373.096       12697.71
       1969.523       4569.324       9449.902       18038.84       8613.709
      -8718.350      -1121.734      -13738.94      -29741.74       159.9609
      -85.75000      -52750.70      -40088.52       28194.54       36397.56
      -1688.492      -19191.71      -14075.10       8055.367       32951.72
       23635.26       8291.788      -1509.877      -11584.77      -6753.480
      -10232.98      -18838.95      -16839.56      -9289.008      -12478.59
      -49778.56      -87004.11      -53232.64       17716.41       40796.19
       36883.80       43703.03       54749.75       57679.55       53422.36
       64521.44       101444.2       150302.8       193775.8       262322.9
       360002.9       440033.0       457710.8       476196.2       520592.2
       450135.3       297158.3       173971.2       57636.53      -42273.56
      -83392.19      -125737.8      -108600.6      -153.3906      -17492.75
      -152836.8      -324437.8      -498398.0      -631458.2      -681485.6
      -489689.6      -268086.6      -85596.62       122684.1       76444.18
       10024.48       55296.44      -156910.8      -419128.8      -326137.8
       13265.12       331973.0       470502.8       375253.2       861.6250
      -413526.4      -310905.7       119603.1       160163.7      -139868.5
      -368823.8      -381996.5      -156412.0       54067.03       41229.44
       85777.44       261649.9       191847.0      -60171.69      -133630.8
      -139666.5      -69598.09       187517.7       112332.0      -231879.2
      -201890.1       37683.58       86477.52      -23252.69      -139429.1
      -183846.6      -104942.1       7365.055       47219.52      -14209.95
      -55787.12       121308.1       244166.7       171604.5       11904.50
      -239075.2      -319774.4      -234031.6      -26705.06       266991.1
       287234.6       170253.6       166194.3       202291.6       261093.9
       283707.5       191854.8       22715.10      -8852.094       120827.9
       101905.2       11735.06      -30174.00      -152214.9      -216183.5
      -160321.9      -97365.38      -181317.0      -336996.6      -302470.6
      -175299.3      -93482.66      -59309.46       8235.312       75932.52
       54622.44       146366.7       283743.0       258387.1       171351.1
       54964.78      -69072.00      -154824.2      -165475.4      -14688.37
       48576.84      -86670.00      -140809.2      -68534.27       14943.50
       107818.6       253371.3       308472.2       196309.9       119973.1
       123675.8       84279.21       23516.78      -39401.38      -93621.62
      -111196.5      -128512.0      -80728.56      -6056.902      -9261.977
       13611.75       46099.42      -17507.44      -97176.88      -141492.6
      -160064.6      -157623.5      -119819.7      -42742.60       7407.023
       9623.614      -6910.177       1355.500      -10780.70      -37622.28
      -13951.11      -18312.66      -30484.77       29382.69       71119.41
       75671.88       151275.4       224976.1       196477.2       157188.4
       130248.1       41171.66      -45767.71      -46131.97      -24610.59
      -49483.69      -121186.9      -182397.2      -197446.7      -148436.1
      -45062.30       12817.78       40530.42       53641.13       6573.945
      -29567.20      -27298.50      -12591.25       54896.97       143913.5
       144783.9       71134.16       10064.75      -16619.97      -19864.23
      -2381.867      -3243.344      -70068.50      -120106.2      -59603.41
       15438.60       24296.16       44414.20       58135.73       1221.500
      -81419.00      -151675.4      -174193.0      -161414.0      -129163.4
      -60750.12      -44665.13      -64889.20       2640.219       83019.75
       100016.4       83141.84       53143.69       58657.27       72330.83
       46662.65       26470.61       37774.50       86380.75       148650.1
       149411.8       134114.2       141716.1       107784.9       96302.00
       120223.7       40454.88      -105789.6      -182137.5      -230488.6
      -258681.6      -202847.3      -156049.0      -155718.1      -115117.0
      -48919.82      -12980.70      -4097.055       17473.31       82845.81
       151046.4       168228.9       119208.9       25555.87      -1791.188
       42201.27       71532.47       107053.6       97088.59       18858.39
       1728.562       48094.44       50688.53       29932.25       25067.02
       37857.75       86158.72       117040.0       97083.27       26445.75
      -83636.31      -132123.6      -102738.3      -85750.67      -84672.81
      -43038.45       15297.30      -2080.844      -90380.94      -159599.8
      -165729.3      -154236.4      -164482.0      -155757.3      -106966.4
      -13644.34       74258.88       130513.6       192092.8       190051.2
       137477.9       139016.3       185883.6       196470.6       156096.8
       98405.04       34645.88      -13563.12      -57250.50      -123887.2
      -198704.9      -221471.9      -201977.2      -172511.7      -119324.0
      -81951.66      -64016.47      -57032.16      -83750.58      -62340.88
       40557.93       56890.39      -11216.72       24399.09       95405.14
       67864.05       26322.62       44864.50       90741.84       142428.7
       156998.6       107693.8       56300.75       58214.72       93016.97
       93420.59       70660.28       79593.75       71043.89       15287.64
      -3500.977       21644.88       5720.438      -38908.67      -64001.55
      -65698.56      -53741.18      -24388.38       25745.18       5738.312
      -69309.58      -68841.98      -62329.44      -118204.8      -162408.2
      -159189.4      -94097.88      -614.6875       61496.25       92913.44
       97384.38       85118.19       86497.86       93979.77       66207.23
       14329.52      -23220.25      -75371.16      -119955.8      -87082.23
      -42774.33      -58602.14      -57439.78      -29666.57      -35273.21
      -22176.23       11214.20       21109.82       6550.000      -32056.84
      -53482.87      -29961.79      -228.2930       850.6172      -16092.55
      -21441.52      -9603.738       8399.301       15388.66      -20387.94
      -53900.92      -38959.08      -4192.000       62767.12       148697.8
       194842.6       199861.8       166397.2       123905.8       96435.31
       34935.39      -57285.91      -123286.4      -122516.3      -110838.2
      -123665.8      -86658.23      -35167.92      -58444.28      -74912.36
