     0.02500000      -453937.9       555183.3      -12345.00      -12345.00
      -29.99504       217.0299      -18.52000      -12345.00      -12345.00
       0.000000       13.75000      -12345.00      -12345.00      -12345.00
      -12345.00      -12345.00      -12345.00      -12345.00      -12345.00
      -12345.00      -12345.00      -12345.00      -12345.00      -12345.00
      -12345.00      -12345.00      -12345.00      -12345.00      -12345.00
      -12345.00      -31.20700      -69.62850       2369.000       0.000000
      -31.54000      -68.94500       0.000000       103500.0       0.000000
      -12345.00      -12345.00      -12345.00      -12345.00      -12345.00
      -12345.00      -12345.00      -12345.00      -12345.00      -12345.00
       74.77310       299.4120       119.7662      0.6723023      -12345.00
      -12345.00     -0.2303914       0.000000       0.000000      -12345.00
      -12345.00      -12345.00      -12345.00      -12345.00      -12345.00
      -12345.00      -12345.00      -12345.00      -12345.00      -12345.00
      2008        49         8        51        22
       220         6    -12345    -12345      9882
    -12345    -12345    -12345    -12345    -12345
         1         7        13    -12345    -12345
    -12345    -12345    -12345    -12345    -12345
    -12345    -12345    -12345    -12345    -12345
    -12345    -12345    -12345    -12345    -12345
         1         1         1         1         1
CASP    -12345          
        -12345  -12345  
-12345  -12345  -12345  
-12345  -12345  -12345  
-12345  -12345  -12345  
-12345  -12345  -12345  
-12345  -12345  BHZ     
ZL      -12345  -12345  
[...]
      -498.2635      -590.9253      -511.8811      -605.4473      -527.5729
      -618.4608      -542.7952      -636.6700      -558.3108      -649.8958
      -573.0948      -670.1155      -590.4688      -683.7791      -606.8901
      -701.0422      -621.1196      -714.4688      -634.3821      -731.8953
      -648.8022      -740.5332      -658.3721      -754.8708      -674.3672
      -772.2217      -687.4990      -781.1355      -698.7307      -793.4055
      -707.1201      -803.1396      -716.3828      -807.9807      -718.2524
      -811.7485      -720.8967      -810.9001      -719.2749      -809.6431
      -718.2910      -809.3809      -717.1340      -809.8037      -718.4299
      -808.5420      -713.1550      -801.4014      -707.0066      -794.7568
      -698.0435      -786.7571      -688.2827      -774.3938      -673.6057
      -758.9751      -659.6326      -747.5125      -646.7847      -729.3425
      -622.5684      -705.2268      -600.2290      -676.6705      -568.9253
      -644.6271      -533.5696      -612.0796      -498.4451      -573.4669
      -463.5309      -537.6285      -425.2428      -503.0662      -388.7582
      -458.7346      -340.5125      -415.2368      -300.6996      -374.0511
      -253.8357      -322.1666      -201.3729      -271.4783      -150.2178
      -220.1757      -99.32230      -169.6902      -42.90225      -110.6301
       13.67027      -58.01860       66.84550    -0.05676270       125.0992
       55.70300       179.9201       110.6119       238.9125       170.5906
       295.1434       224.3636       351.1733       283.0275       407.1677
       341.3118       471.6560       399.5591       528.0642       457.8947
       585.2339       516.0306       641.5421       568.2805       697.0037
       620.4587       747.9849       676.1079       804.0330       724.1880
       849.5571       771.5320       898.2993       814.6104       936.7151
       855.8494       979.1948       891.4634       1011.728       928.1248
       1045.649       952.2935       1068.449       974.0823       1084.948
       989.1094       1102.412       1003.592       1112.336       1010.045
       1116.364       1015.224       1123.744       1021.094       1124.010
       1020.897       1123.194       1012.065       1115.214       1010.191
       1110.889       1000.949       1101.817       991.7307       1093.068
       985.8630       1088.130       976.2852       1078.146       968.0835
       1066.826       951.1396       1049.489       934.2290       1033.987
       915.6890       1011.285       895.2734       991.6357       871.6636
       968.1184       849.1160       942.3291       820.2908       914.2209
       788.8589       877.5344       754.9082       847.1858       718.1978
       812.8430       687.0913       773.1543       643.7170       734.0400
       604.8516       691.3752       557.7080       642.8230       506.7299
       589.8818       454.7863       540.3455       404.1919       489.5657
       349.0701       431.4639       290.8863       370.6272       229.6080
       315.2994       170.5775       250.5638       105.1078       184.7016
       39.13837       119.0663      -29.87149       52.33548      -97.86884
      -19.76718      -170.1396      -91.82288      -243.7737      -163.5690
      -314.3962      -235.1230      -386.6294      -304.3096      -456.7083
      -377.1376      -526.6766      -441.4341      -589.4211      -509.4026
      -657.2350      -569.9912      -715.1265      -628.1045      -768.4724
      -676.1089      -813.9590      -720.6895      -858.6719      -765.6934
      -900.3276      -801.2659      -932.0264      -829.0701      -959.2422
      -856.2380      -981.8428      -874.8125      -1000.369      -891.4131
      -1014.434      -906.2544      -1031.348      -923.5312      -1044.092
      -929.1829      -1051.521      -939.9265      -1060.012      -945.6626
      -1064.371      -952.4648      -1072.570      -953.4185      -1068.595
      -956.8843      -1071.334      -945.4324      -1057.122      -950.1277
      -1058.725      -927.9382      -1047.987      -949.7686      -1040.417
      -889.5259      -1024.810      -973.2485      -967.5532      -776.9136
      -1217.166      -1311.617      -6119.984      -30529.78      -65380.84
      -69723.02      -42304.70      -24934.25      -30063.75      -5309.869
      -17.50391      -21238.87       24059.11       43267.22       55355.73
       104317.5       52181.78      -63309.30      -86352.54       24813.30
       51354.85      -13696.34      -22004.53      -39309.79       535.9219
       54015.20       29892.92      -11730.63      -1593.203       31499.35
       10027.00      -69578.72      -114577.0      -34528.94       32518.70
       66102.53       72480.72       47961.48       26614.74      -20347.44
       3918.625       92625.13       86796.92      -43942.72      -90218.48
      -37268.71      -10976.98       28231.34       50892.76       12847.73
      -31385.74      -27830.23      -13013.41      -11475.68       18550.45
       17025.80      -13982.26      -29767.38      -22818.11       14025.36
       15499.14       36322.73       67551.16       25768.21      -41212.11
      -34343.89      -5579.875      -19895.36      -35490.25       447.5039
       21763.42      -9456.219      -39577.22      -45918.91      -25234.49
       14011.69       37319.62       25396.96       43004.33       6371.789
      -44203.71      -4366.516       48414.27       42076.99      -7752.703
      -35934.77      -14999.68       6837.031       4960.664       26689.72
       28585.49      -1863.250      -35836.31      -20479.45      -13494.41
      -39652.27      -8073.523       36904.02       29603.20      -9671.609
       6627.844       47224.57       33348.19       1111.021       6954.992
      -14400.45      -69976.14      -24127.48       29002.02       20938.47
       11806.54       6483.656      -21330.52      -40405.66       16042.89
       31872.69      -3501.812      -10686.25      -11664.14       12540.95
       20821.76       1863.686       5019.098      -477.9180      -9210.250
       34088.73       20840.23      -74340.38      -74305.70      -7296.664
       30107.88       43218.02       34706.20       31731.56       7616.660
      -7039.895      -10996.47      -32555.38      -17501.38       14416.61
       20463.36      -17886.35      -20616.37       10555.99       5559.461
       20713.34       17464.61      -6732.288      -5443.376      -1372.168
      -9886.719      -31576.12      -21753.44       21992.89       12590.95
      -28400.32      -20385.94       643.7881       25.10352      -10733.42
      -1955.340       18124.23      -2158.996       7091.430       33979.33
       10419.15      -4168.922      -10954.99       724.1914       15464.37
       6245.535      -2370.105      -21257.72       1576.535       11133.40
      -7168.727       1582.297       15251.23       23444.62       4982.791
       4296.703       10308.42       12098.62      -4793.828      -49206.88
      -36267.32      -5736.055       5537.336      -2111.756      -9977.236
      -2816.383       4594.305       17557.94       22806.72       10340.44
      -11142.22      -13621.98       17462.75       61697.88       33931.70
      -35655.40      -39589.79      -21946.70       1370.852       32144.71
       6588.711      -40191.97      -13510.21       26822.88       14338.56
       5672.020      -12264.49      -32133.79      -12377.33      -13553.30
      -34211.36      -24075.33       22124.27       46277.44       21346.86
       9452.992       6353.967      -19189.25       39.09375       30338.04
       5106.172      -22843.45      -37426.82      -33153.38      -5937.391
       638.5312       5788.648       19445.39       19911.01       5081.909
      -10361.24       11500.16       23021.88       4468.203      -15885.83
      -21564.94      -21717.58      -40373.34      -11811.31       32739.48
       28847.84       23450.38       26054.86      -4510.527      -10462.74
       16810.19      -14747.07      -30610.89       10633.31       18725.92
      -11539.88      -10583.77       21846.59       7631.629      -13819.44
      -17683.74      -9301.266       237.1094       42241.25       53389.25
      -20698.59      -32156.28      -3480.602      -36932.79      -41151.65
       17038.45       7051.711      -11763.14      -16972.00       8267.375
       47455.11       29380.24       3267.828      -35578.82      -24042.85
      -4268.562      -21837.51      -10148.42       32532.51       40911.27
       11741.00      -4457.289       16405.70       40774.08       7391.971
      -3110.723      -4965.812      -37075.82      -20539.91       1801.838
       993.1562      -19334.24      -29235.00      -8836.145       14925.30
       28334.32       26504.40       11172.57       17230.98       36769.73
       2422.672      -37909.26       7059.039       54131.43       20480.03
      -10429.54      -23736.71      -46338.56      -24546.59      -14730.82
      -47214.12      -12659.45       6724.576      -9392.654      -3087.203
      -9470.436       570.0312       6628.883       26895.33       58257.95
       58837.75       18783.78       11179.07       21298.61      -3813.555
       5680.219      -3607.328      -25348.79      -21021.20      -43122.64
      -42301.29      -33661.98      -22295.27       11368.85       18367.39
       12001.28      -5328.027       6814.477       40738.20       29059.85
       7553.656       11007.79       1389.531      -22122.23       4314.381
       11720.62      -12969.43       15594.52       38538.88      -10.43164
      -15691.23       21571.52       51049.22       32580.47      -27703.38
      -46156.83      -10513.52       36621.61       63149.32       38797.09
      -33901.62      -97801.50      -68279.71      -18162.69      -11318.80
       2916.930       20359.35       11901.56       16307.88       22891.06
      -10836.17      -23748.79      -1262.891      -24096.97      -55791.95
      -28660.99       24883.70       64005.42       41953.64      -14824.64
      -9658.055       28783.94       25005.05       1837.484      -15759.93
      -18503.30      -17907.13      -3032.723       22139.56       18810.09
       31029.66       28398.39      -5984.570      -29803.66      -5510.783
       16130.70      -21115.05      -35205.58      -11312.52       28711.80
       16379.74      -27640.12       6611.266       45654.16       10340.36
      -6969.195       42359.07       32706.73       8346.297       26097.04
      -5432.531      -52482.19      -63196.91      -10901.75       35727.25
       9009.664      -20765.23      -41542.68      -36428.81       29243.66
       58218.23       314.1172      -36987.43       12233.50       40883.88
       34951.52       11169.22      -6243.461       28013.42       14346.40
       8646.910       9760.570      -27609.08      -53265.17      -77193.67
      -77973.27      -67005.00      -43541.48       42957.58       94329.79
       41413.55      -25078.05      -15122.53       49242.86       58632.22
       95492.81       92775.41      -48147.53      -79124.64       5801.069
       2802.266      -6095.828       72727.84       89654.34      -41421.56
      -152450.2      -84262.70      -34027.25      -46473.77      -3518.250
       72415.84       119799.7       59926.76       13332.02      -7620.344
      -55316.23      -85992.01      -53107.84       71084.69       131693.9
       81986.02       33078.82      -26322.00      -75827.19      -55154.33
      -58734.72      -47475.17       1025.734      -34203.78      -89701.19
      -66203.41       19763.38       31853.91       42241.28       94007.78
      -4000.254      -54909.95       48218.69       73507.22       24490.16
      -48789.62      -79815.42      -15334.53      -15189.57      -53719.46
      -6559.453       65924.04       47817.63      -4329.340       16848.54
       19756.31       19551.14       26179.30       23656.05      -8594.172
      -61327.07       4998.344       95872.70       80977.92       12752.35
      -23381.66      -25629.17      -31628.04      -21699.92      -4192.859
      -36756.14      -57412.36      -38854.66      -16790.98      -20319.66
      -20184.56       67612.58       54310.75      -51639.94      -75212.69
      -25034.41       6338.758      -38122.14      -5981.066       18145.42
      -27094.28       5514.812       34616.29       2258.992       10051.38
       58794.99       36710.50      -24418.83      -48762.63      -7859.023
       32164.92       4413.227       12933.12       11777.81      -77862.41
      -111586.1      -69483.25      -56242.56      -91093.62      -172696.2
      -332241.0      -453937.9      -383063.6      -198561.8      -127569.3
      -257874.9      -331336.2      -174645.5      -10200.62       139500.0
       432298.5       555183.3       283814.8      -30743.34       28243.31
       279416.6       281559.6       263284.6       219398.1      -134275.8
      -345792.0      -197028.0      -51965.73      -47475.53       27986.81
       190932.6       141481.1       9886.000       189261.6       435886.1
       298104.9       111163.6       118965.2       30731.75       48876.78
       83742.75      -182897.5      -302728.4      -286890.6      -345140.6
      -170534.0       51281.78      -42199.25      -333201.2      -309187.7
       97206.81       232480.0       28968.75       145090.4       452181.8
       332634.1       136359.6       228324.1       274421.8       191514.4
       164326.1       176110.0       48792.88      -274292.3      -340194.2
      -123397.2      -77219.88      -35358.02       29667.20      -27969.00
       14844.38      -76908.75      -172467.6       82371.97       86219.59
      -51819.38      -42226.22      -124867.5      -18481.78       145173.5
       145113.1       175975.4       96889.88      -97427.53      -176364.5
      -5428.125       233148.7       130390.9      -73571.56      -121592.9
      -256133.8      -341752.6      -229996.7      -105851.4      -163425.6
      -376685.5      -235637.4       165650.9       305071.1       342609.8
       212878.6      -138240.5      -220679.4       5521.250       243775.6
       342210.4       210663.5       24016.11      -99078.38      -43963.31
       226432.2       200433.2      -33087.62      -59732.19      -120307.7
      -211021.1      -91421.68       20505.75      -70322.41      -104157.1
      -6557.598       12647.71       275.8828      -2730.375      -103299.6
      -147760.3      -61905.66      -13710.25       18763.72       96484.69
       121609.6      -5800.828      -68455.94      -56378.91      -124382.2
      -65492.31       84834.19       203576.6       259314.3       208016.3
       168129.9       161534.4       168639.0       191256.6       165080.2
       19109.62      -209479.6      -309707.9      -221877.7      -168012.1
      -187424.8      -245693.2      -252905.5      -110352.6      -33183.66
       24913.22       126433.9       76660.53       19270.53       138031.9
       207458.2       127042.7       123787.9       190928.9       163117.2
       83469.41       83298.38       67199.31      -63807.00      -193217.7
      -238619.4      -217922.0      -110242.8      -22915.94      -75050.66
      -136009.8      -128539.2      -22033.72       97264.50       124465.3
       74467.07      -33730.51      -15936.11       40369.89       22374.91
      -6548.781      -57895.46      -13359.66       132097.1       244376.2
       221222.0       92119.55       10435.89       57907.69       97540.24
       30758.88      -76799.62      -159864.1      -174641.2      -77562.77
       20734.50      -54034.31      -163328.8      -211570.5      -140566.8
       49752.62       206236.6       193499.6       45778.87      -27337.19
       15601.89       44076.63       15717.61       2524.234      -56909.16
      -133905.3      -83616.40       30634.77       56065.73      -21906.12
      -85139.91      -67404.69      -44998.22      -67112.93      -53159.31
       14169.83       28681.31       48560.53       129760.9       102451.1
       76165.25       200053.2       231212.8       173586.1       173079.8
       82527.38       56.09375      -53913.06      -175430.9      -226802.8
      -176802.6      -162158.2      -241887.9      -205237.1      -119889.7
      -104686.0      -21896.84       7908.465      -23408.12       9412.281
       91395.44       158864.7       156112.3       168655.1       161499.4
       103929.6       14635.44      -143480.1      -187316.8      -197403.2
      -278800.0      -264838.5      -157122.1      -14192.41       80441.09
       94655.88       86670.41       126961.3       229874.2       210903.9
       106106.8       75918.20       22756.27       2616.516       51480.22
       48821.34       49131.11       38078.02      -45371.66      -74481.41
      -76677.34      -117870.9      -104735.1      -42756.02      -8764.176
      -18029.00       22123.69       41058.41       15159.63       37336.49
       20615.98      -28062.42      -65363.79      -37658.91       64831.94
       127707.2       130883.9       54240.86      -31481.37      -37723.56
      -20772.95      -10902.42       27537.45       19037.84       25067.50
       119224.9       56108.29      -11212.77       18917.98      -54964.09
      -42411.79       11103.81      -40687.38      -55176.50      -33503.98
      -34899.49      -5236.297       85902.44       92111.11       37385.21
       50022.85      -3266.062      -89837.25      -129944.9      -159726.9
      -144924.3      -97079.14      -72131.28      -101055.2      -112987.2
      -31746.62       47472.28       92545.38       173683.7       208837.1
       175028.8       182904.5       213406.8       167649.6       109685.0
       57602.62      -51385.56      -149281.2      -169301.7      -130810.9
      -111103.8      -108424.2      -90170.21      -53046.00      -21119.67
      -12644.28       2852.555      -106.2500      -107402.0      -228354.4
      -192219.2      -130585.0      -104636.5      -22891.72       49326.16
       56115.55       27863.69       52466.25       84763.50       109833.8
       155101.0       119356.1       58254.31       57909.26       39263.33
      -6141.969       16834.13       36442.29      -5771.703       12116.78
       89425.66       119492.2       81181.42       52022.52       70097.94
