     0.02500000      -1436395.       1864697.      -12345.00      -12345.00
      -29.99504       217.0299      -18.52000      -12345.00      -12345.00
       0.000000       13.75000      -12345.00      -12345.00      -12345.00
      -12345.00      -12345.00      -12345.00      -12345.00      -12345.00
      -12345.00      -12345.00      -12345.00      -12345.00      -12345.00
      -12345.00      -12345.00      -12345.00      -12345.00      -12345.00
      -12345.00      -31.20700      -69.62850       2369.000       0.000000
      -31.54000      -68.94500       0.000000       103500.0       0.000000
      -12345.00      -12345.00      -12345.00      -12345.00      -12345.00
      -12345.00      -12345.00      -12345.00      -12345.00      -12345.00
       74.77310       299.4120       119.7662      0.6723023      -12345.00
      -12345.00     -0.9372206       90.00000       90.00000      -12345.00
      -12345.00      -12345.00      -12345.00      -12345.00      -12345.00
      -12345.00      -12345.00      -12345.00      -12345.00      -12345.00
      2008        49         8        51        22
       220         6    -12345    -12345      9882
    -12345    -12345    -12345    -12345    -12345
         1         7        13    -12345    -12345
    -12345    -12345    -12345    -12345    -12345
    -12345    -12345    -12345    -12345    -12345
    -12345    -12345    -12345    -12345    -12345
         1         1         1         1         1
CASP    -12345          
        -12345  -12345  
-12345  -12345  -12345  
-12345  -12345  -12345  
-12345  -12345  -12345  
-12345  -12345  -12345  
-12345  -12345  BHE     
ZL      -12345  -12345  
[...]
      -34.14978       367.1430      -13.95422       391.6905       7.648804
       411.2076       25.38190       430.8370       42.52582       446.2235
       54.51007       457.5906       68.96472       475.5498       85.42212
       491.4888       96.87109       504.1830       110.7490       518.3918
       123.3052       530.4274       133.4644       542.4354       143.0464
       549.9872       147.9006       556.4962       154.1129       560.6682
       152.8480       560.6340       155.0488       566.4481       156.3788
       566.2547       157.0410       568.4111       150.3145       559.6228
       147.3530       560.9150       143.6293       556.1434       142.8361
       555.7891       130.2067       540.1337       119.5021       535.3447
       110.3044       520.6687       95.39526       509.7562       81.50879
       500.3487       75.73645       493.6769       65.67511       483.1735
       53.52325       473.9792       42.19556       462.2640       28.89661
       450.9079       18.80072       440.1473       2.383911       425.6989
      -9.302063       412.8485      -26.28693       398.5407      -44.60742
       381.3200      -58.83112       365.7278      -77.78113       347.4950
      -100.1120       327.8890      -119.6750       303.2467      -143.5579
       285.3266      -163.3582       264.5694      -186.9496       237.5502
      -214.4269       215.3487      -240.3503       185.5165      -265.9506
       166.5724      -290.9764       139.3424      -320.1502       111.6105
      -344.0529       87.93555      -373.7481       60.33478      -400.9948
       30.90131      -430.9381       6.699036      -456.0379      -20.64880
      -481.4109      -45.13892      -510.9742      -67.93005      -529.9518
      -89.33398      -554.6085      -112.9344      -576.5548      -126.8107
      -590.9850      -143.5944      -605.6999      -155.3600      -623.8589
      -172.0514      -635.9709      -181.2130      -646.8104      -190.3092
      -655.8252      -200.2639      -668.8848      -211.6898      -684.4158
      -228.4420      -699.8398      -240.8687      -713.7385      -255.5587
      -730.0060      -268.6086      -743.6267      -283.3052      -760.5660
      -298.7483      -775.1938      -314.0432      -791.2683      -330.0315
      -805.8926      -343.0293      -825.0684      -359.3462      -839.0212
      -368.4409      -847.8992      -379.5417      -862.3115      -394.2131
      -877.4358      -407.7319      -893.1223      -422.0432      -905.6704
      -434.0625      -919.3379      -446.1343      -935.3623      -463.5149
      -949.3276      -473.9031      -959.9478      -484.6631      -974.3806
      -498.7507      -983.9680      -507.7769      -996.3005      -520.0986
      -1008.109      -528.8911      -1018.055      -538.5369      -1024.168
      -542.8828      -1032.161      -547.5615      -1034.237      -553.7549
      -1044.051      -556.2734      -1045.680      -556.0903      -1045.196
      -558.0815      -1047.343      -554.3005      -1046.025      -552.4265
      -1041.306      -548.8396      -1042.003      -544.2476      -1037.620
      -540.5583      -1029.010      -525.7285      -1017.007      -515.4766
      -1010.520      -506.3599      -997.9740      -499.2456      -996.4656
      -490.9500      -984.7729      -481.5386      -975.7349      -469.0259
      -965.0592      -457.4895      -951.5005      -441.4482      -937.6331
      -430.4570      -929.8503      -418.1978      -912.7070      -400.3374
      -897.3262      -385.6377      -882.4189      -367.2822      -863.9539
      -350.6534      -847.1106      -329.0370      -825.0211      -305.6927
      -800.5353      -280.7795      -780.0283      -260.0870      -758.1875
      -236.2664      -733.4664      -206.7000      -705.3406      -180.2190
      -680.5452      -153.7515      -649.6406      -122.0497      -621.3529
      -85.15344      -583.2938      -54.49988      -556.2114      -19.40369
      -520.3898       12.42828      -495.9465       45.84625      -455.8563
       78.44299      -436.5050       111.2794      -391.6162       145.1437
      -388.7834       175.5854      -314.3360       188.4867      -388.7173
       329.5880      -127.8262       1935.680       10964.45       26848.90
       29961.73       21663.75       18266.59       27633.45       16265.78
       7394.924       15821.69      -2530.461      -22340.89      -22586.16
      -27022.89      -26331.69       4520.785       34900.84      -24235.02
      -38807.16       42295.29       24236.90      -10965.43      -349.3555
      -12658.66      -30738.52       144.4375       37360.15      -23500.79
      -27166.74       34737.60       39235.27       14103.81       4211.469
      -6715.453      -8278.441      -24853.73      -9564.486       26612.49
      -29176.08      -63541.52      -11721.30       30128.91       20966.66
      -17113.72      -15066.76      -3757.947      -3467.148       27452.33
       12744.68      -17294.76      -14207.65      -582.2539       9857.129
       5885.465       14929.89      -10842.61      -24642.72      -16408.80
       10518.15       12961.80      -15652.05      -20023.32      -8517.492
       21459.09       18731.12       10933.83       28062.51      -1898.692
      -10513.90       19981.82       21246.33       368.0005      -1083.527
      -5419.616      -11734.75       7752.635      -801.6328      -19018.88
      -5748.767      -3345.066       4212.391       20969.43       22255.16
      -16475.09      -16138.86       24778.50      -11306.60      -48294.98
      -22220.52      -7695.346      -919.0811      -1938.614      -6657.254
       12929.88       30978.12       26532.01       9845.586       7014.674
       7233.254      -4506.324       7546.438       5561.125      -28996.89
      -26858.62       16470.98       14667.96      -15983.17      -12888.43
      -1096.844      -18996.40       664.2012       8753.094      -20275.64
      -7393.828       33365.07       32093.60      -3705.123      -8238.381
      -8792.090       2253.594       22663.30      -12091.49      -30998.63
      -4291.789       14744.77       38931.90       50173.77       15284.11
      -7541.336      -6932.473      -17085.81      -15970.12       15228.55
      -9123.281      -59839.27      -37560.86       2476.416      -8093.379
      -1579.828       37883.88       27659.54      -3641.375       26336.53
       42087.16      -10037.09      -26845.97       6293.459      -12417.45
      -14079.37      -9393.055      -37308.66      -40412.37      -11970.74
       34277.20       27738.88       2492.555       4213.166      -733.4531
       24469.89       44572.27       18289.79       5524.993       3050.527
      -16691.59       863.7500      -6089.336      -18870.01       10962.56
       8742.324      -17741.15      -18020.42      -10546.28      -24110.45
      -7509.674       12839.73       2711.777      -8834.106      -6055.893
       6591.754      -19482.02       5406.086       29389.36       21130.93
       6546.477      -5779.652       5993.985      -759.8691       5174.070
       20938.69       7456.432      -8780.506       3930.906      -14126.09
      -27512.18      -16378.37      -20608.95      -21886.41      -42114.11
      -12769.40       22665.59       17973.78       17677.52       14917.52
       20869.87       23870.67       7670.812      -4061.662      -14306.28
       4637.938       10905.93      -20316.18      -4433.305       24875.78
      -12461.73       1483.197       7911.781      -33894.50      -9246.542
       5101.180      -8356.146      -6824.289      -15396.57      -16768.13
      -2149.047       23759.36       18426.51      -11622.31       8013.867
       35992.41       18033.10       1184.244       12524.55      -533.6953
      -8636.516       24627.29       11633.46      -4620.934      -12297.97
      -24870.25      -10393.19       12210.16       6670.496      -11804.15
      -14499.03      -13424.34      -12930.16      -13505.96      -9855.404
      -4978.512       3010.547       33926.34       10791.37      -49654.32
      -26081.99       31999.10       13193.85      -5576.535       5486.542
       1279.539      -1636.715       21450.90       10241.39      -12940.54
       4340.668       10733.02       1136.515      -3417.079       4866.311
      -3462.102       11215.66       47009.64       17736.80      -38189.90
      -50057.65      -2964.672       16489.61       21448.79       16417.00
      -10535.34       9383.312       18156.30      -8056.914       5357.016
       25592.46      -1504.234      -56092.25      -46266.19      -10026.22
       5284.156       20132.81       23733.34       11080.76       3501.238
      -10272.09      -11367.26       29636.57       14897.27      -7812.882
       8020.559      -16617.90      -27010.75      -7580.660       3117.250
      -23122.46      -23353.45       12633.61       21237.09       25537.45
       17407.90      -14826.73      -384.8047       27400.09      -9984.203
      -11718.88       27574.86       14715.23       5948.877       4032.773
      -114.2109      -36616.45      -8603.977       62967.55       13070.09
      -24864.04      -9167.469      -18773.58      -39642.34      -17586.64
       31894.82       1079.494      -16220.99       6115.127       13914.63
       2028.828       38579.36       76879.67       21513.85      -6702.574
      -1416.625       20861.72       18224.64      -4131.596       16607.59
      -5842.172      -25143.27      -32207.33      -26443.27      -12095.98
      -13346.97      -23894.38      -41456.93      -41319.62      -4185.602
       32490.09       23834.83       12579.40      -10923.24      -17851.82
      -358.3281      -9021.641      -44516.64      -50699.39       6016.430
       11786.59       21312.09       40985.52       36358.60       52588.38
       6998.994      -15932.45       20051.09      -16984.03      -44191.85
      -16114.91      -123.8906       20893.24       34149.75       13272.66
       3327.822      -7452.830       6585.242       19357.64       13286.23
      -2224.234      -24704.73      -34156.49      -19774.10      -9784.086
      -6659.988      -9002.297      -3368.427      -6996.020       662.9531
       65350.34       34330.47      -30289.12      -14968.52      -6475.441
      -9315.928      -5918.648      -15184.84      -27971.71      -9160.305
       24246.45       58075.09       38561.68      -1103.605      -18542.76
       1837.094       30042.60      -5265.977      -36757.21      -24746.10
      -23592.18       16670.38       52666.41       17750.44      -17241.57
       1247.664       9845.234       25057.49       44858.90      -30090.07
      -37753.97       47627.62       80722.08       22800.45      -50923.81
      -9686.769       6858.000      -22819.86      -41826.77      -48257.73
      -27004.88      -33716.29       14899.41       89311.74       53219.02
       17310.50       33644.17       9442.578      -50637.41      -36656.59
       35687.00      -28789.83      -96775.84      -28488.82      -27652.52
      -25165.82       24455.14       20776.02       1593.120      -3981.418
      -3058.961       25894.34       21081.32      -33562.84      -166.9453
       56583.26      -6644.980      -42398.92       41095.92       68339.72
       4333.989      -5798.430       1153.391       22787.49       21790.70
      -1801.754       3288.273      -29608.89      -14930.33       13499.21
      -26243.12      -76431.80      -69255.41       10671.38       16528.24
       6322.855       23434.46       3828.547       31708.45       61717.22
       15662.54       16207.59       87413.79       62525.24      -15405.84
      -17123.41      -49092.72      -77088.70      -40924.75      -5320.484
       12262.73       12742.38       33062.73       68726.02       17840.81
      -37998.84       1069.289       20918.82       45303.27       26662.98
      -62700.14      -30853.80       24326.57      -1896.435      -1901.523
      -7393.844      -23779.11      -22444.34      -40034.77       12403.51
       44456.32      -7303.188      -40718.23      -68334.30      -55322.30
      -690.7266       34332.91       58158.48       9780.926       1787.062
       29651.46       12549.98       18633.03       2452.004      -13721.13
      -14213.62       6214.504       23622.78       9873.500       57338.48
       98536.06       64782.39       10588.12      -13039.76       8698.480
      -390.5938      -35967.69      -29633.98      -47125.95      -13290.31
       60313.10       52368.85       4011.078      -33960.00       47595.30
       81368.62       16222.06       81628.25       141423.7       29228.75
      -307398.0      -898241.5      -1436395.      -1326246.      -813120.0
      -471005.4      -361741.4      -276065.2      -175814.9      -121928.5
       720740.5       1825842.       1864697.       974470.7       152344.5
       37675.29      -8754.047      -7437.812       191544.3       177008.5
      -411071.8      -842976.2      -370827.9      -193806.9      -389806.4
       40289.00       577036.8       460233.8       179803.2       584773.6
       726136.6       102575.4      -136617.9      -33589.25       203114.8
       341344.9       107305.9      -118022.9      -395895.8      -694062.4
      -558460.4      -116751.6      -59219.88      -322263.4      -448497.9
      -193365.7       31939.50      -141736.5       19550.12       465122.2
       887740.2       1142920.       705090.4      -28800.06      -337239.7
       86940.50       348382.6      -5795.750      -410978.0      -812730.0
      -925259.8      -731749.1      -86306.62       499107.3       247264.1
      -97388.50      -364086.0      -710277.1      -311941.9       358767.8
       421990.8       333210.8       225746.5       137627.3       26036.03
       68640.19       308567.8       199604.7      -53107.66      -34197.62
      -68032.28      -193003.9      -113668.2       26498.50       244965.6
       296223.2       88052.38       88775.94       57201.00       34987.06
       111854.4       137198.6       219678.4      -100007.6      -543674.2
      -469972.1      -347257.0      -444435.3      -205794.9       211281.3
       278808.6       313490.8       456986.4       423198.4       166102.2
       139952.2       277078.2       42997.41      -199807.6      -23067.75
      -51641.62      -422412.1      -306973.2      -15047.78      -62527.77
      -1839.938       113838.8      -147266.8      -160944.0       197444.9
       157410.9       56276.19      -97716.94      -387537.6      -230934.2
      -64181.50      -149450.4      -16350.88       148162.6       284143.0
       399938.0       305861.9       127193.4      -84840.73      -116629.1
       16881.01       44435.28      -35468.34      -125957.3      -246629.5
      -235972.8       131404.6       191801.4       63244.55      -547.0000
      -229106.7      -228076.9       5283.000       177642.9      -69106.81
      -307677.3      -107131.2       36274.09       90916.56       242515.0
       261316.6       180860.3      -33769.53      -158943.7      -12870.18
       26476.36       20805.80      -19255.69      -185699.2      -304742.4
      -248961.3      -22550.56       184000.8       96643.80      -54852.34
       114855.2       190501.3      -25308.41       62227.25       215269.3
       4457.719      -143052.9      -47396.93      -7675.227      -40673.05
      -28640.67      -37258.44      -113161.2      -151265.6       7642.625
       199005.8       119853.2      -184664.8      -256007.0       17841.62
       264946.9       266093.8       203775.9       199302.7       50263.12
      -53888.94      -87655.44      -131059.6      -108126.2      -94613.94
      -106193.8      -151782.1      -123972.4      -39607.56       64118.97
       68471.02      -4198.893       14597.47      -18302.88       90869.25
       219959.6       145886.4       257357.9       341853.3       69657.62
      -224573.3      -190154.7      -39436.16      -58609.94      -119963.0
      -54081.22       52524.91       38029.62       148226.7       196463.5
      -59206.22      -126259.4      -67664.42      -100746.2      -28738.75
       22032.04      -32452.57       11600.36       11647.05      -25394.72
       76655.73      -63592.94      -188574.9      -73629.91      -106125.5
      -134214.4      -60294.47      -75691.38      -216872.1      -213896.9
       46999.62       147487.2       155088.2       253149.2       203229.5
       88540.97      -33959.56       69522.12       289701.1       301804.7
       239206.8       78065.50      -47904.88      -155867.6      -211235.2
      -164702.8      -144527.9      -51009.91       60630.59       173972.9
       170703.8       91897.50       176096.3       174545.3       14711.06
      -44169.69      -68379.69      -181012.3      -229398.1      -238655.6
      -178732.4      -47626.55      -32019.88      -71542.39      -95020.28
       57935.06       132229.1      -110214.4      -136464.4       51677.53
       167387.0       40871.45      -10382.19       180736.5       277.3750
      -273491.5      -220187.2      -50606.09      -121368.2      -207323.5
      -70803.80      -4213.344      -42414.06      -130170.7       57604.75
       301934.9       80556.63      -54280.95       76182.81      -26146.00
      -161364.2      -104139.5       718.1406      -31193.77      -48945.36
       6230.547       44802.97       70136.69       104005.0       110601.8
       92016.25       141319.0       72004.46      -30870.83      -24095.88
       59923.91       108945.7       171022.1       176391.7       185884.2
       260552.6       186602.7       155047.8       95369.95       18563.59
      -17752.72      -69445.97      -60236.94      -63956.81      -151800.4
      -265722.9      -183786.4      -16407.98       35385.11      -28649.88
      -119434.8      -84718.36      -37914.12      -124920.5      -93162.16
       66093.31       108668.3       114512.0       47538.70      -19396.58
      -40148.20      -46711.75      -23542.25      -40777.86      -43271.80
      -34745.86       20402.94       116584.4       75471.09      -45907.78
      -134734.2      -200825.4      -207451.2      -69290.12       16735.47
       14084.69       89025.84       87935.20       40024.56      -77666.22
      -180545.2      -84197.79       9383.969       28594.22       70924.91
