     0.02500000      -1033984.       970913.8      -12345.00      -12345.00
      -29.99504       217.0299      -18.52000      -12345.00      -12345.00
       0.000000       13.75000      -12345.00      -12345.00      -12345.00
      -12345.00      -12345.00      -12345.00      -12345.00      -12345.00
      -12345.00      -12345.00      -12345.00      -12345.00      -12345.00
      -12345.00      -12345.00      -12345.00      -12345.00      -12345.00
      -12345.00      -31.20700      -69.62850       2369.000       0.000000
      -31.54000      -68.94500       0.000000       103500.0       0.000000
      -12345.00      -12345.00      -12345.00      -12345.00      -12345.00
      -12345.00      -12345.00      -12345.00      -12345.00      -12345.00
       74.77310       299.4120       119.7662      0.6723023      -12345.00
      -12345.00      0.1700277       0.000000       90.00000      -12345.00
      -12345.00      -12345.00      -12345.00      -12345.00      -12345.00
      -12345.00      -12345.00      -12345.00      -12345.00      -12345.00
      2008        49         8        51        22
       220         6    -12345    -12345      9882
    -12345    -12345    -12345    -12345    -12345
         1         7        13    -12345    -12345
    -12345    -12345    -12345    -12345    -12345
    -12345    -12345    -12345    -12345    -12345
    -12345    -12345    -12345    -12345    -12345
         1         1         1         1         1
CASP    -12345          
        -12345  -12345  
-12345  -12345  -12345  
-12345  -12345  -12345  
-12345  -12345  -12345  
-12345  -12345  -12345  
-12345  -12345  BHN     
ZL      -12345  -12345  
[...]
      -14.70837      -208.5403      -17.12305      -211.4172      -22.61853
      -214.3472      -28.00980      -219.9541      -29.39026      -219.7697
      -30.30466      -224.2677      -37.46481      -226.6707      -38.14142
      -228.2452      -41.46042      -234.0011      -43.67047      -232.9367
      -44.45239      -235.3658      -45.56616      -235.7411      -50.06744
      -237.3420      -52.51093      -243.7733      -53.75067      -243.0690
      -53.52393      -241.4276      -57.83435      -249.0906      -61.25452
      -250.5933      -63.92389      -246.3854      -61.71033      -251.7669
      -64.69391      -252.1957      -66.61688      -257.2532      -74.00360
      -257.3727      -71.12286      -259.3319      -75.14551      -261.4766
      -77.36804      -262.0213      -76.68213      -262.9850      -78.84930
      -261.4319      -75.86090      -259.7705      -71.97241      -254.6682
      -68.86499      -247.4653      -60.49133      -239.8878      -55.46185
      -233.4666      -44.81265      -218.3135      -31.80051      -203.5627
      -12.38907      -183.5700       4.553650      -164.9897       24.92645
      -141.3599       47.52386      -120.5430       69.28426      -94.96603
       95.54868      -69.70949       119.0170      -45.84836       142.6918
      -20.14352       169.5791       8.337341       198.3414       34.95154
       216.5227       53.27795       244.7699       79.37341       261.5038
       95.22211       274.2394       104.4188       285.4606       119.6975
       299.5348       129.2275       305.2876       137.7029       315.2352
       149.7576       325.5620       155.6269       330.6278       164.4999
       338.4343       167.7599       339.7979       174.4783       346.2010
       180.4101       351.9392       186.6750       359.8743       194.8591
       365.2300       201.8112       373.7076       211.7185       383.6733
       223.7176       392.1781       228.5953       398.8898       234.6492
       402.0988       243.1600       409.3042       248.3936       420.6936
       260.6147       426.5661       271.3417       442.1623       283.1003
       450.4164       293.8838       463.2665       307.3965       476.5360
       318.3790       484.1865       330.6013       496.4447       338.2407
       507.0994       356.5399       524.3047       370.5730       538.9719
       383.4769       550.3446       401.7905       571.1555       420.3229
       586.9067       432.7407       595.1550       440.5859       607.8972
       458.2351       623.0533       471.6769       630.8291       475.3418
       638.3496       486.9766       646.9779       494.8832       652.8379
       496.5322       655.7399       501.3242       655.4780       502.2767
       657.5349       503.7715       657.4419       503.6144       655.9146
       499.9440       650.3889       493.6078       642.3616       489.8354
       638.7363       483.0586       630.7983       476.4232       626.4871
       472.8927       619.1521       463.9679       609.6741       454.8885
       600.1083       442.7554       583.7875       425.7303       570.3278
       412.3391       551.1553       391.8667       529.7526       369.5959
       513.3112       353.4675       488.2650       326.6864       465.5032
       306.8442       444.1345       285.2758       424.8576       266.6553
       403.8622       242.5734       376.1680       217.5782       355.1252
       199.1069       333.6197       176.7590       311.4968       154.7089
       287.4064       132.7517       265.5734       124.7415       254.3790
       67.05804       188.5586      -761.6094      -4452.715      -9208.504
      -9556.236      -8088.623      -6513.654      -6445.438      -6539.260
      -10631.91      -1850.379       17711.98       3218.715       3267.457
       21881.21      -2458.035      -12607.82       2613.275      -484.7734
      -16757.74      -5525.211      -3971.023      -36302.61       4138.820
       43549.63      -19663.17      -24032.87       37582.80       28583.03
       489.6572      -1029.195      -7818.836      -21804.94      -16437.80
       29861.81       9329.705      -21125.66       5004.693      -8859.734
       5070.070       29065.87       21142.22      -10321.34      -32174.73
       4456.289       19639.63       5838.968      -5898.531       9239.335
       15872.88      -16120.94      -10595.66       21955.82       9683.641
      -28389.28      -27827.97      -5163.088       3411.594       22678.83
       901.6875      -20343.78       1687.199       11460.24       13474.38
       1736.348      -17514.20      -24589.37      -10170.39      -10526.86
      -28234.16       10072.25       27495.31      -4026.559       9238.414
       33630.05       33261.16       3248.471      -9709.990      -7418.660
      -10417.18      -11785.21      -22714.19      -13364.62      -1686.133
      -15090.72      -7381.438       20646.94       22821.37       24135.98
       17463.81       13016.82      -8978.771      -10068.36       11638.43
      -8858.156      -22895.32      -21213.12       10190.66       34855.36
      -4739.406      -33349.75      -5738.957       15591.05       16672.36
       7543.548       934.7949      -580.6875      -23542.86      -1405.301
       30278.17      -639.0547      -24701.16       9021.973       14098.29
      -16697.38      -3862.672       4471.879      -17684.64      -10900.77
       20775.55       22112.49       3285.084       1229.660      -6679.559
      -13047.21      -12906.59      -2746.552       14458.28      -12295.13
      -5112.117       42051.17       5298.539      -53087.84      -20900.16
       21060.47       6755.282       7837.918      -7284.688      -55601.49
      -37304.97       25439.06       39109.79       14229.46      -4734.749
       794.2051       9804.562       12011.75       15564.49       9351.419
      -6448.423      -484.8281       13365.98      -11877.31      -20618.75
       13533.34       11127.95      -12976.64      -19006.55      -25617.48
      -25236.99       3872.414       22808.25       20230.59      -1522.051
      -19284.18       962.7656       25260.24       26616.32       15389.24
       7285.551       7522.035       13850.64      -853.5371      -10708.98
       3564.465       8780.139       8484.867      -13133.73      -17768.12
      -20625.43      -26020.50      -2531.402      -8320.492      -14557.92
      -15865.97      -12262.40       9511.523      -4034.414       7258.703
       54301.48       37703.41      -18061.54      -21484.35      -14939.50
      -6156.900       11051.36      -7263.973      -10835.29      -8968.812
      -19795.12      -16576.20      -10245.79       3430.883       21198.56
       12482.45       4667.184       11749.15       8867.086       21440.77
       32707.72       8218.719      -32820.84      -29305.81      -7281.508
      -13060.72      -14035.21       92.17383       4646.138      -2654.422
       12352.41       22697.54      -5525.215      -3269.707       17281.38
       1067.057      -9383.375      -14023.86      -24686.82      -10104.78
      -9209.719      -16480.24      -638.0703       20666.03       19284.93
       1815.281       26463.27       48531.86       21757.30      -2876.078
      -20440.02      -26186.93      -24494.71      -14230.79      -4430.746
      -20703.27      -18061.68       9450.994       2102.264      -6848.000
       9874.445       8807.930       27969.44       45095.71       9528.688
      -4846.301      -7014.438      -27807.56      -3231.273       33005.81
      -8002.742      -44165.05      -10889.15       25509.66       23676.87
       2940.846      -9364.562      -9691.020       11526.59       43696.11
       4650.227      -53075.77      -14233.93      -4121.055      -37850.13
      -22842.59      -6500.633      -27608.18      -34235.91       19175.36
       37965.66       23434.87       21731.61       22249.52      -4723.438
      -34188.30      -19755.96       2484.469       13904.40       21171.78
       27981.32       6649.928       3460.711       16768.04       4006.156
       14047.56       8473.578      -2793.195      -19780.09      -24119.44
      -7197.688      -5775.687       1455.273      -10182.28      -2080.840
      -7315.531      -21186.57       9228.855       10464.61      -423.4258
       5525.848       20812.04       15322.24       1787.183       9601.386
      -2991.230       8926.070       193.9062      -58547.71      -45602.67
       1476.469       21958.14       9379.633       1908.941       12426.04
       5064.582       10335.43       18659.58      -652.4180      -23544.63
      -6119.127       12313.92       3083.613      -8158.250      -28905.84
      -31608.71       12978.05       58176.73       37629.21       6921.859
      -4511.469      -34816.49      -19694.50       34091.79       35296.37
       10555.68      -26222.14      -57692.43      -29932.97       20467.96
       20846.74       4058.516      -11425.57      -27264.24       5117.676
       17955.42      -2327.375       8296.336       23684.12       34630.55
       16157.73      -23084.24      -16824.82       16577.05       28504.64
      -1526.867      -30233.42      -45108.88      -30047.10       24152.31
       6313.438      -49110.63      -44194.48      -1671.670       5919.727
       14687.78       20036.89      -20330.43      -5062.594       46679.64
       48740.85       13662.16      -25110.89      -35219.68      -21029.81
      -5604.516      -13615.92      -10187.09       10282.34      -12256.30
       2032.094       41368.11       19627.15      -17360.23       4151.875
       35958.05      -15450.56      -14900.48       10794.01      -14310.70
      -2994.080       17456.18      -7592.879      -25976.56       20206.59
       25052.23      -9976.570      -22178.17      -20628.41      -21158.71
      -29213.49      -3371.586      -5526.691      -5916.906       58195.00
       74023.20       21278.70      -1589.211       28595.15       19931.70
      -27728.83      -36620.44      -48496.47      -43722.91       8490.020
       16918.34      -18262.95      -26167.83      -21782.90      -12405.00
       14227.31       5380.123      -7307.885      -4940.189      -6694.727
       17779.04       8641.500       17894.48       44887.13      -10419.77
      -41909.73      -10323.25       6597.680       14242.19      -2856.633
      -12745.30      -27326.91      -6855.938       64635.73       14750.13
      -27013.95       10676.56      -10458.41      -43808.27       6627.875
       30657.93      -27533.50      -3168.203       29652.19       45900.84
       20238.88      -54167.42      -50326.42       18570.63       38814.09
       6302.023       30687.59       32349.84      -25378.00      -53492.89
      -38669.95      -58541.27      -55291.88       36705.19       73932.09
       40972.03      -2361.023      -38906.32      -4699.469       24848.23
       3186.309       19640.36       4258.000      -32182.08       15903.81
       21377.51      -17368.45      -28978.81      -39379.23      -24974.49
      -36358.07      -29293.99      -8630.176      -8523.969       49516.11
       64290.91       11259.64      -1411.146      -3679.859       19271.96
       31690.28      -11823.95      -16639.08      -298.5312       19516.04
       34824.82      -2041.656      -62111.91      -77354.97      -2548.258
       26149.08       26420.34       33866.73      -46091.09      -71607.95
      -32475.56       16767.86       53349.70       6199.734      -34187.50
      -18241.41       12122.20       33729.08       60490.12       86371.11
       17771.66      -46262.34      -11480.93       28583.85      -18961.92
      -82570.35      -27745.52       3334.426       17692.91       2093.531
      -57043.16      -26495.17      -1628.312      -6350.969      -5798.986
      -4076.324       7202.812       40784.01       9986.031      -41067.96
      -30168.99      -27198.18      -15573.64      -16028.05      -6961.805
       22536.54       9937.094      -36244.09      -126815.8      -235656.7
      -242622.1      -19739.75       304143.5       625818.2       812631.5
       795645.4       691864.5       366615.5       497469.2       970913.8
       718600.8      -164418.5      -783511.0      -792893.8      -734605.8
      -718370.5      -641136.8      -564824.9      -638961.6      -336373.5
       108325.1       51037.88       198735.0       600031.9       645060.5
       306117.8       17498.25      -164080.9      -340798.8      -349283.9
      -256164.6      -358521.9      -526080.1      -170344.5       129309.8
       304.8750       100714.6       184786.9       22669.06      -176492.0
      -22147.88       343150.4       300021.7       165821.6       224799.3
       112047.9       30209.75       313287.2       574764.1       34881.50
      -850795.2      -1033984.      -552711.1      -22442.72       18024.50
       295404.3       528989.0      -59847.06      -241418.1       210454.8
       410058.2       507630.9       277827.2      -129811.2      -65453.62
      -439741.5      -739014.9      -190671.6       41409.88       33232.53
       92090.50       235839.8       222954.7      -32498.00       237861.2
       356709.7      -78706.14      -54903.88       300110.7       203478.2
       110977.4       173122.7      -74999.88      -260303.4      -160110.0
      -145867.0      -448900.0      -496345.7      -225817.0      -22058.69
       283229.2       261114.6      -125458.1      -340797.2      -448321.9
      -326157.2       5118.062       147644.4       391648.5       550044.2
       205063.4       83698.19       226309.3       71023.12      -175184.9
      -257764.4      -70163.94       256546.6       112412.8      -329571.9
      -348564.1      -221921.6      -46694.88       313115.6       291381.9
      -51004.62      -247421.8      -360407.4      -199771.5       223945.2
       318549.5       81339.56      -43944.81       134126.8       314009.6
       274590.7       228337.1       113634.1      -133532.8      -199539.2
      -118448.4      -106859.8      -165739.0      -321298.9      -365035.8
      -339679.2      -174029.2       105388.2       195369.9       112173.2
       78909.00       358644.1       321086.8       96309.88       206083.5
       195675.7       62521.13      -15416.72       65853.54       61440.68
      -51759.81      -7752.078      -37581.84      -123059.6      -161404.8
      -255191.5      -278795.3      -145480.7      -54268.19      -43367.25
      -100447.8      -122294.8       11468.75       222819.6       403907.0
       385885.9       276676.5       195675.8       93947.70      -44818.38
      -100154.4      -69477.75      -161038.1      -221603.6      -175073.6
      -177926.6      -176075.9      -93916.50       88547.25       243336.0
       238679.0       179665.5       76631.48       32231.97       112158.0
       102727.2       16010.78      -96237.56      -231604.5      -313882.4
      -154726.9       19851.03      -116956.5      -208195.8      -110407.6
      -62344.78      -92781.41      -6818.547       21595.06       20284.50
       148529.2       121093.1       32227.52       27490.47       55907.72
       91034.56       185344.0       228802.4       123951.4       148120.9
       96436.19      -143047.4      -119804.3       4143.824       6962.359
       31984.19       3146.750      -163086.0      -258375.1      -226964.2
      -196252.2      -218458.2      -266021.4      -128516.4       44078.38
       1503.891      -72840.44      -74063.54      -35084.81       80453.34
       149036.6       217598.2       187608.3       63334.56       185993.9
       331280.5       259773.3       208195.2       214730.7       49873.15
      -1654.055       36295.88      -156310.0      -196804.2      -92896.97
      -83023.81      -36175.89       16829.11      -52256.83      -100458.7
      -19973.86      -1531.844      -70414.03      -111256.3      -1850.562
       125454.3       59663.32       14093.23       72511.77       87190.06
       3105.109      -79001.81      -87138.03      -115207.6      -112605.2
      -225529.7      -335607.8      -124215.6       178659.7       210789.0
       25968.94      -50598.38      -161768.3      -194600.3      -50056.19
       68100.97       167757.8       157006.1       138517.8       35401.68
      -26449.12       93607.12       139133.1       153444.9       69086.93
       3909.984      -21854.06      -138047.1      -151980.3      -56876.38
       92288.75       171710.8       171473.3       118719.3       5407.578
      -69972.09       43308.64       124598.5      -8025.844       36922.09
       122267.0       48770.18       42023.44       44828.69       2105.594
      -52298.50      -151394.6      -149261.5      -102318.7      -59590.89
       39957.22       88120.86       65642.42       23908.87      -4352.344
      -93101.44      -160890.5      -151358.8      -221645.0      -288694.8
      -263757.6      -177979.3      -33163.94       25815.69      -13569.88
      -52632.62      -19830.94       134292.2       316276.5       318944.2
       179371.3       66813.12      -41846.36      -67255.72      -21378.39
      -52872.05       5668.422       76057.28      -52187.47      -147014.7
      -92119.57       15997.79       16582.98       31872.12       99863.34
       7845.422      -24217.69       135207.6       251842.1       223701.4
       137976.2       95151.01       38477.84      -29344.12      -105157.9
      -206084.8      -173875.9      -83126.33       17873.12       33022.51
      -31456.77       83894.72       72627.32      -1644.102       24682.00
      -3562.469       60430.12       41028.75      -49056.12      -75659.69
      -107422.2      -138098.4      -180895.3      -121057.0      -11360.78
      -1992.859      -47590.11      -53678.09      -56973.66      -84738.96
       94.68750       108346.9       68215.59       15525.73       35644.75
       74915.84       150899.3       191908.6       113758.8       24919.65
       12453.06       20791.91       99417.64       104733.3      -1489.625
      -71153.69      -238003.9      -250849.6      -20008.73       50642.16
       16420.73       27397.68       11992.28      -87427.88      -82677.84
       88367.48       72900.66       43778.94       123284.9       74762.84
       125693.9       179792.2       51883.50      -55863.38      -166749.6
