     0.02500000      -133491.8       115151.7      -12345.00      -12345.00
      -29.98999       228.2350      -29.09000      -12345.00      -12345.00
       0.000000       21.41000      -12345.00      -12345.00      -12345.00
      -12345.00      -12345.00      -12345.00      -12345.00      -12345.00
      -12345.00      -12345.00      -12345.00      -12345.00      -12345.00
      -12345.00      -12345.00      -12345.00      -12345.00      -12345.00
      -12345.00      -32.27420      -67.18850       649.0000       0.000000
      -31.54000      -68.94500       0.000000       103500.0       0.000000
      -12345.00      -12345.00      -12345.00      -12345.00      -12345.00
      -12345.00      -12345.00      -12345.00      -12345.00      -12345.00
       185.0153       116.5651       295.6411       1.663562      -12345.00
      -12345.00    -0.01775296       0.000000       0.000000      -12345.00
      -12345.00      -12345.00      -12345.00      -12345.00      -12345.00
      -12345.00      -12345.00      -12345.00      -12345.00      -12345.00
      2008        49         8        51        32
       790         6    -12345    -12345     10330
    -12345    -12345    -12345    -12345    -12345
         1         7        13    -12345    -12345
    -12345    -12345    -12345    -12345    -12345
    -12345    -12345    -12345    -12345    -12345
    -12345    -12345    -12345    -12345    -12345
         1         1         1         1         1
CATA    -12345          
        -12345  -12345  
-12345  -12345  -12345  
-12345  -12345  -12345  
-12345  -12345  -12345  
-12345  -12345  -12345  
-12345  -12345  BHZ     
ZL      -12345  -12345  
[...]
      -68297.05      -39954.89       4646.938       5600.500      -28727.51
      -29803.47      -16831.41      -71667.26      -68953.48       7104.458
       2702.781       10905.72       83959.16       81901.59       2759.531
      -54248.86      -78366.95      -70501.30       9136.062       98098.84
       65399.67      -39693.06      -83917.70      -90207.02      -56736.03
       35705.06       90150.48       72505.97       23714.98      -23253.47
      -48356.98      -36543.39       23341.95       54353.33       14562.71
      -24378.47      -42971.35      -41965.86      -12864.40       1920.893
      -3502.844      -6546.555      -10825.52       7694.188       47285.25
       48038.98       20109.92       18346.82       34055.86       29540.35
       6875.865      -7359.539      -6202.270      -2700.078       2029.477
       14240.23       5241.375      -28526.59      -34121.72      -12498.71
      -2804.942      -1795.338       7210.457       17141.90       6411.258
      -18893.45      -24333.42      -3219.703       25023.16       41535.37
       38719.57       12809.90      -30157.06      -47918.97      -19549.48
       16879.77       31134.77       21481.95      -376.3438      -21465.21
      -31086.75      -14661.85       14060.72       22626.26       12546.00
      -3527.521      -13188.82      -2967.475       7443.622      -2495.295
      -11165.69      -4682.053      -2757.898      -12996.45      -17059.65
      -13733.96      -13242.52      -1791.617       18555.18       22319.49
       6513.356      -8692.014       3911.359       24306.59       18331.91
       13751.96       15686.38      -6811.023      -28135.27      -21119.45
      -6191.906       7959.844       17149.40       9397.876      -2.308594
      -11464.37      -25208.32      -13510.32       12101.32       20389.83
       13439.81       4725.383      -6553.359      -22872.71      -25854.28
      -6716.680       18481.31       25242.82       6885.375      -8820.680
      -11285.96      -17304.42      -22726.00      -21250.64      -13028.82
      -4442.250      -7591.527      -10273.71      -2389.957       5682.711
       15926.86       29871.18       28929.33       7134.027      -9766.833
      -1293.711       16981.26       15764.03       1776.192      -1120.986
       3686.885       2777.207      -3763.205      -3431.766       12362.80
       18413.44       2442.207      -11204.18      -14005.29      -6268.476
       1422.914      -2273.517      -3730.375      -6522.035      -12369.46
      -10606.38      -10352.61      -7490.798      -145.7188      -6597.000
      -15608.47      -11727.71      -3473.731       305.8729      -518.5986
       54.61133       5426.463       9336.742       11263.42       18814.13
       18693.94       8202.230       14301.44       25936.40       21118.38
       21603.42       29606.37       10594.23      -20749.27      -27316.34
      -19987.83      -10565.11       3555.377       984.8984      -23404.44
      -34592.11      -22751.06      -14011.51      -8234.617       10396.12
       22719.89       7272.489      -9242.219       243.1152       13551.59
       4116.114      -5104.254      -3040.191      -11466.51      -19807.08
      -10992.25       5.147949      -654.5901      -2881.592       3686.592
       6256.410      -4898.470      -8542.262       9341.516       23213.67
       17929.54       8487.066       6789.765       1816.062      -11838.75
      -12919.32      -860.9355      -776.8164      -9142.484      -18479.05
      -30487.18      -26409.89      -7871.203       3674.285       12015.80
       8587.324      -7631.138      -6374.121       8782.453       22713.29
       27941.02       12860.84       2313.617       11798.36       16576.01
       3929.203      -15221.60      -23217.14      -16888.11      -11884.00
      -7218.014       84.38672       8898.867       22769.09       29098.48
       20108.54      -509.4902      -13189.07       3483.910       19774.13
       12438.13       2844.537      -3694.141      -10284.59      -13355.16
      -19713.06      -17433.64      -13272.55      -22591.78      -17406.43
      -1337.066      -3315.383      -17778.98      -24570.78      -9720.766
       6611.008       14403.96       32478.78       41693.71       23037.67
       5855.686       5700.540       4142.715      -5718.386       1270.914
       19520.56       13171.59      -7049.773      -21104.85      -24757.53
      -4050.504       17825.70       14397.08       8630.545       9541.674
       3955.997       2054.013       1350.639      -9616.898      -12002.81
      -4429.654      -6081.434      -7580.314      -6180.562      -12730.03
      -14367.89      -10145.39      -14133.55      -12884.87      -6047.654
      -1363.441       5589.906       11202.55       18448.32       24573.44
       14708.97       1726.581       4199.625       4697.727      -2314.332
       2283.066       8758.790       3061.371      -8046.945      -13354.70
      -12121.38      -13538.64      -14668.24      -12976.46      -13566.45
      -5110.289       12718.15       19074.60       12906.36       11083.21
       12577.60       7892.377      -398.9072      -4400.631      -3761.407
      -664.8750      -4565.047      -14804.73      -12429.08      -3081.967
      -5543.234      -11153.93      -5873.309       7026.996       14516.95
       15143.55       15433.51       13772.08       7184.768       1981.060
       1688.539      -196.4023      -4003.611      -1156.486       1564.648
      -8396.695      -19591.87      -21946.56      -23895.32      -20844.23
      -11854.73      -4157.285       1454.992       4154.545       8251.441
       15617.28       15668.50       10366.68       5691.746      -199.5078
       2136.609       17959.17       29981.30       23037.80       11432.93
       7881.865       239.9375      -5932.103      -2071.644       2263.120
       2561.626       2270.121       9133.418       18514.27       10881.73
      -273.8721       4207.079       3261.807      -6839.489      -5837.033
      -4580.648      -9744.914      -8915.633      -11190.34      -20242.25
      -18218.54      -1879.938       16188.10       21615.16       13720.50
       3088.916       3136.246       8267.515      -1910.230      -11456.87
      -2412.210       3586.902      -3604.504      -16112.85      -23053.59
      -16955.83      -5891.247      -711.4109       275.9199      -599.9355
      -4553.335      -4388.051       1670.690      -884.8750      -12797.62
      -16299.26      -13171.75      -17069.15      -14916.15       15.19922
       12842.32       15555.74       10564.40       2523.122      -6218.443
      -2928.500       17972.55       28848.87       22114.61       14721.95
       9418.955       7567.703       12218.35       13917.00       6623.802
      -2607.121      -10736.45      -15301.28      -11023.17      -4944.540
       1771.374       3418.086      -10302.56      -24365.41      -22862.34
      -17732.98      -20883.74      -19311.61      -3904.793       11068.19
       15232.87       8611.481      -473.8652      -1386.236      -3416.012
      -10630.42      -5528.969       10364.62       21581.53       20997.78
       16624.15       15589.64       7879.299      -2499.518      -1505.308
      -80.15576      -2933.266       847.2051       6583.846       6938.851
       2571.488      -966.2266      -2745.438      -15120.91      -24890.11
      -12404.89      -2351.809      -9816.607      -6574.248       6339.666
       4884.482       4346.883       19369.95       19031.17      -623.2148
      -4483.039      -2159.406      -9861.915       823.7188       19712.97
       10224.76      -3733.252       2180.840       277.1387      -12151.71
      -7891.891       3126.610       2704.711      -3415.289      -16378.20
      -18834.20       3042.102       15815.71       8777.066       841.7969
      -4667.359      -2221.418       475.8809      -7453.770      -8943.052
      -1692.652      -3652.877      -6507.355       5557.980       19515.46
       9276.777      -9790.926      -9491.470       385.5840       8339.777
       11543.18       9518.370       5300.293      -6673.062      -16635.29
      -7407.944       8237.222       6278.582      -9009.988      -19501.07
      -15562.10      -1875.944       2144.203      -5293.725      -7164.956
      -3844.332       3870.773       11596.17       11406.01       19070.53
       34676.41       27750.07      -1278.678      -13427.37      -1182.674
       211.1172      -11740.98      -12333.69      -1598.479       9190.941
       15335.94       14432.75       1686.195      -16223.89      -16603.14
      -6716.611      -8382.295      -11750.05      -875.0977       13435.96
       12476.88       3258.949       587.2012      -2694.516      -10812.03
      -10700.73       4460.996       16890.84       7085.773      -12153.80
      -16844.84      -11319.49      -7690.377      -2775.987       1414.704
      -493.5176      -3014.751      -3264.861      -555.9004       1617.369
       3951.633       18339.21       33775.34       28692.98       16360.71
       8001.169       693.7734      -3251.078      -9717.785      -17685.42
      -15541.74      -3878.766       5600.410       3862.711      -5129.020
      -13383.37      -14170.57      -6919.620      -2900.421      -2340.641
       6706.805       15366.21       9186.264      -2275.209      -7181.617
      -13068.59      -16909.79      -5026.365       7164.809      -471.3662
      -6741.609       5847.066       10338.97      -819.5020      -3433.885
      -515.4795       2855.283       8759.848       11635.35       13661.62
       13374.91       3124.129      -9765.633      -11089.29      -8193.504
      -10952.21      -8819.006      -2266.668      -5167.484      -12663.15
      -7359.383       4242.270       9830.938       13880.82       15172.44
       8605.777       3303.988       5551.297       7592.291       4783.910
       3318.184       7151.281       10551.46       4621.117      -4743.580
      -7919.979      -10090.95      -7958.858       715.4609      -3046.406
      -9322.555       2057.850       8755.752       3199.610       2157.936
       1059.049      -6178.648      -19661.52      -22905.98      -3523.049
       12160.27       10979.33       5410.674      -550.0342      -2810.272
      -2603.125      -5202.102      -1065.723       13420.23       18505.51
       11821.00       3681.811      -2614.114       1175.821       5568.347
       525.7910      -697.5663       1177.543      -1353.794       1008.987
       6443.646       208.8281      -14681.50      -23464.65      -19989.00
      -17277.38      -17634.90      -7864.623       8143.646       12839.86
      -1972.316      -15645.76      -5965.934       11712.21       18663.04
       19206.20       13807.15       2147.772      -5130.252      -3894.109
      -4616.180      -21744.80      -30037.76      -10809.35      -1127.555
      -3788.180       14243.35       37045.58       36749.16       29835.25
       26067.33       13373.03       3774.418       2068.938      -9803.656
      -26997.75      -23217.46      -232.8867       11968.13       6627.107
       2558.756       8359.002       12847.15      -5912.852      -31742.11
      -31384.12      -20748.45      -16890.37      -7048.397       2179.170
      -2451.699      -9862.965      -9563.885      -4047.208       302.3379
       3759.586       7226.893       2986.338       2794.629       15951.02
       29628.73       31108.81       18235.61       12998.08       14104.06
      -1726.207      -6506.621       16019.16       27155.35       14058.97
       426.7715      -4795.998      -5444.793      -12606.96      -32074.02
      -41803.51      -23215.74       1777.625       12859.32       19640.53
       20215.52       14090.35       14687.62       9325.389      -2024.170
      -2246.571      -2183.124      -2031.102       9182.547       21944.86
       30612.55       37353.47       36212.91       27110.27       17086.94
       2356.797      -13116.90      -19974.37      -19044.21      -15483.38
      -11316.71      -4912.451      -4638.328      -19523.08      -34001.59
      -29915.89      -21532.84      -23966.50      -17968.11      -3121.279
      -1231.008      -7493.922      -18620.17      -32856.44      -28769.73
      -13715.88      -5526.000       7563.430       21948.18       24036.35
       22773.47       16712.80       5284.775      -340.5098      -5207.898
      -2482.738       16576.23       32813.26       39156.59       34418.02
       12550.41      -23682.34      -65645.19      -87410.12      -73058.96
      -45018.02      -21761.60       2244.688       20307.74       16851.86
       4391.641      -7412.320      -29588.96      -45875.00      -26782.04
       20752.98       59612.83       50604.02       18602.88       744.6875
      -39719.75      -103789.2      -133491.8      -99668.98      -14963.22
       70422.84       114858.3       108046.2       52670.73      -19250.06
      -67351.25      -84973.55      -61566.99       11218.19       73904.27
       79462.16       67181.08       64087.38       42630.63      -18237.56
      -71537.61      -56895.76      -9162.562       7661.828      -4370.852
      -12267.76       5233.547       26584.10       23779.42       19779.72
       22424.04       12953.08       22668.56       55138.43       42048.00
      -7937.262      -17236.12       9698.273       21776.95       18622.47
       15464.27       664.2969      -19211.38      -24191.07      -27416.36
      -29619.44      -10324.04      -10692.25      -60113.38      -97105.20
      -88173.69      -61573.21      -35370.92      -5532.195       29019.05
       38050.28       17131.27       11168.87       23259.68       23012.46
       13102.78      -2365.051      -18570.57      -14800.72       660.2812
       15275.75       36430.34       56339.69       59640.76       34474.23
       995.6914      -6461.105      -4589.660      -12193.46       210.7344
       30418.70       39001.80       27120.73       23205.61       36192.17
       39525.44       30089.04       38173.73       39068.05       7489.117
      -21790.49      -25898.70      -14482.89       1470.262       11110.48
       16881.35       25022.47       20256.07      -707.2031      -14467.11
      -12376.96       5329.449       23221.56       8350.168      -18644.46
      -11768.93       11132.36       12372.11       5441.633       14367.76
       23516.52       9022.500      -18288.41      -20594.47       4117.613
       15233.33      -12214.36      -51636.95      -57147.08      -36293.81
      -23712.61      -22668.41      -22249.38      -22566.42      -46373.09
      -79664.38      -64968.66      -9671.477       22155.62       26328.55
       42225.97       53503.16       35538.05       4587.547      -16656.86
      -4341.500       23478.82       30268.36       20028.15       9180.176
       8576.457       8264.125      -16222.53      -50845.56      -56899.01
      -32622.80      -14095.79      -14975.66      -13033.17       384.2783
       4449.281      -11050.73      -24991.49      -21943.12      -13596.19
      -4632.703       11068.20       26209.73       31751.70       29029.05
       21733.11       10084.40      -9432.609      -19109.39      -4259.572
       6412.289      -1602.944      -4207.336       6236.016       20020.47
       21392.04      -1041.773      -28350.14      -42381.23      -44627.17
      -25597.82       9661.516       31233.95       23643.37      -7950.828
      -34077.79      -33425.50      -26403.19      -22208.59      -17588.05
      -11204.27       9435.926       21883.86      -981.0391      -26219.82
      -25064.25      -8981.781       14485.11       41255.88       50715.64
       33188.23       7798.758      -8871.680      -17285.35      -15150.85
       3635.016       25912.33       34652.50       38468.72       42544.14
       36400.39       24861.23       20091.12       15395.16       7750.750
       3536.938       9977.203       28322.30       34944.51       21394.76
       11996.44       6478.250      -4143.312      -5666.347      -3913.803
      -8542.875      -10628.05      -21918.64      -42730.38      -40261.26
      -18019.76      -8627.605      -12404.91      -14723.26      -11557.57
      -13705.00      -17929.38      -7192.883       7191.957       12610.44
       13538.21       13903.56       25773.16       47055.97       52754.52
       41987.88       28872.70       6791.270      -14704.12      -15000.21
      -4745.660       4323.324       12118.73       12118.51      -2464.961
      -23734.33      -37158.28      -47378.61      -52918.77      -44761.98
      -29837.57      -11292.45       8430.988       16009.28       8810.961
      -1590.133      -16934.75      -35818.48      -37037.91      -14715.22
       19465.70       46968.41       54428.00       41732.13       14772.16
      -10644.54      -19339.51      -7071.898       18944.17       31700.78
       11754.15      -15470.09      -17307.53      -10971.50      -9810.684
       2190.856       5665.195      -14293.68      -26862.14      -22987.91
      -20749.30      -9038.895       11371.79       15341.96       19964.28
       37536.20       47703.84       45434.00       38312.20       32381.07
       21269.30       636.5898      -10710.29       1610.188       25996.80
       42871.35       39585.15       10484.39      -23500.31      -44880.67
      -58001.92      -48554.70      -22458.76      -12166.51      -8049.174
       1852.994       3432.664       7852.625       21152.33       21840.81
       8295.549      -5756.968      -8164.345       378.0742      -1540.859
      -14375.52      -24529.83      -43156.16      -70544.03      -86245.64
      -81396.95      -66842.08      -59556.25      -55678.32      -41288.12
      -16007.38       10930.39       33902.80       44417.00       32385.94
       14505.46       7710.738       11175.06       21304.91       27013.24
       25262.59       29366.00       44941.09       50503.35       33110.52
       19775.16       25602.34       25690.71       16724.22       21576.25
       24075.98       10440.76       5406.590       8143.293       5089.254
       9732.555       19177.72       9709.039      -12975.80      -21875.61
      -15806.50      -13979.93      -21133.82      -23457.03      -10634.34
      -933.2012      -1365.977       13469.84       29434.18       20359.18
