     0.02500000      -271436.3       287225.4      -12345.00      -12345.00
      -29.98999       228.2350      -29.09000      -12345.00      -12345.00
       0.000000       21.41000      -12345.00      -12345.00      -12345.00
      -12345.00      -12345.00      -12345.00      -12345.00      -12345.00
      -12345.00      -12345.00      -12345.00      -12345.00      -12345.00
      -12345.00      -12345.00      -12345.00      -12345.00      -12345.00
      -12345.00      -32.27420      -67.18850       649.0000       0.000000
      -31.54000      -68.94500       0.000000       103500.0       0.000000
      -12345.00      -12345.00      -12345.00      -12345.00      -12345.00
      -12345.00      -12345.00      -12345.00      -12345.00      -12345.00
       185.0153       116.5651       295.6411       1.663562      -12345.00
      -12345.00      -2.142982       90.00000       90.00000      -12345.00
      -12345.00      -12345.00      -12345.00      -12345.00      -12345.00
      -12345.00      -12345.00      -12345.00      -12345.00      -12345.00
      2008        49         8        51        32
       790         6    -12345    -12345     10330
    -12345    -12345    -12345    -12345    -12345
         1         7        13    -12345    -12345
    -12345    -12345    -12345    -12345    -12345
    -12345    -12345    -12345    -12345    -12345
    -12345    -12345    -12345    -12345    -12345
         1         1         1         1         1
CATA    -12345          
        -12345  -12345  
-12345  -12345  -12345  
-12345  -12345  -12345  
-12345  -12345  -12345  
-12345  -12345  -12345  
-12345  -12345  BHE     
ZL      -12345  -12345  
[...]
      -9355.379      -16509.07      -6935.824       13099.86       11312.30
       5021.539       27708.25       48872.00       37591.28       23905.50
       7074.406      -29867.39      -37429.86      -9296.148       4838.320
       15080.46       23256.89       8314.484      -21168.66      -37384.32
      -24747.90      -7500.578       6660.230       19416.70       9646.840
      -9641.617      -27177.15      -41565.53      -39806.04      -21697.13
       809.9414       10994.07       4706.680      -7155.750      -12018.25
      -6080.924       114.5078       5594.594       9010.941       9607.297
       8388.256      -75.24609      -13038.49      -20990.10      -18065.24
      -238.2109       18334.73       20939.00       18714.23       20724.88
       17982.30       18325.13       26428.75       33884.76       33648.65
       23187.73       13460.11       5847.950      -1956.105       2236.318
       6217.850      -2334.875      -12681.40      -15973.45      -14839.70
      -14142.71      -12965.23      -14479.76      -19824.48      -20597.57
      -19524.77      -13701.90      -2207.691      -1036.895      -10211.51
      -17596.62      -20478.16      -16246.54      -6515.405       1604.231
      -328.3867      -7233.121      -7608.258      -5783.973      -6819.727
      -7390.223      -9974.012      -8792.961      -634.1250       8194.273
       14401.52       11526.07       5453.484       11756.58       20509.85
       20508.83       16151.66       8157.990      -1278.199       273.0195
       8930.512       12368.66       15794.88       16702.96       6588.339
      -4283.931      -6549.668       2039.238       11816.06       11791.97
       2922.723      -9050.828      -17873.54      -22226.12      -18262.58
      -7669.137      -6471.684      -11732.46      -16807.88      -20323.12
      -15325.25      -10532.98      -10302.50      -4631.000       326.7383
       2849.008       8615.508       12365.02       9402.725       1733.563
      -4183.948      -2172.285       6322.258       18589.18       30035.13
       32444.85       18328.67      -4667.486      -14401.61      -573.6641
       19294.73       24084.03       10436.88      -12533.81      -26533.07
      -22426.91      -11622.82       490.2832       7812.072       3302.025
      -7913.711      -19504.68      -23388.10      -17332.26      -10980.05
      -6241.128      -2598.094       1348.986       4575.465      -249.1641
      -6425.918      -2915.617       4569.281       10006.57       15025.46
       19649.17       21677.48       22428.06       21358.06       20630.70
       25899.87       29062.03       19381.35       5686.156      -4740.797
      -10032.76      -2749.607       6595.287       602.7070      -8107.463
      -7748.156      -8037.160      -13167.23      -16660.32      -17608.83
      -20099.05      -19302.46      -8384.125       4237.921       7398.312
      -659.9375      -13112.73      -22140.13      -21272.44      -7172.225
       7426.719       11964.73       11168.36       1184.738      -12552.91
      -12935.79      -5032.555       505.1719       8002.539       11086.82
       7168.555       9255.781       12993.12       9506.465       4170.081
       3141.092       6741.031       10854.94       17080.39       25903.29
       28908.41       20628.13       3562.391      -12484.07      -12451.27
      -788.5869       4110.660      -917.1875      -10225.41      -16984.44
      -17591.38      -18042.90      -17780.41      -14941.46      -12179.59
      -9678.270      -13681.37      -21872.32      -19333.97      -7503.396
       5349.688       18984.90       31594.62       40429.26       42203.18
       38429.80       34305.30       30982.56       31308.41       27585.84
       14977.16       2728.051      -9737.070      -20555.25      -25514.86
      -33064.89      -40364.34      -39615.94      -33318.45      -22457.89
      -14761.02      -12489.01      -6998.573      -207.8125       6476.441
       7858.389      -1045.492      -11005.02      -16799.34      -15802.84
      -9372.024      -5056.304      -1592.334      -1248.311      -6115.904
      -5912.770       3090.312       16295.12       26989.88       33150.53
       39398.70       34668.50       17599.19       10305.73       11311.86
       9121.789       8243.188       6301.990      -1539.367      -7626.666
      -8113.559      -9014.199      -10302.09      -11748.95      -16845.88
      -23093.48      -29697.16      -29335.65      -12860.59       2797.271
       4669.233       3683.394       625.8076      -4200.496      -5133.049
      -6657.465      -5162.267       2519.413       4289.256      -819.7588
      -3973.640      -3571.939       4892.156       17942.33       20588.57
       13187.82       4282.862      -1154.734      -123.7734       5279.082
       10520.19       9938.716       4833.116       2706.036       2160.750
      -1841.418      -5762.250      -4484.416      -3218.094      -4447.333
      -3497.818      -3512.295      -5710.891      -704.0469       7792.219
       9798.809       9340.555       10775.06       12857.32       11674.85
       4707.373      -574.3867      -638.4277      -1679.445      -7991.367
      -17392.25      -23681.47      -22608.64      -19564.52      -20943.67
      -20208.13      -14137.67      -9744.175      -5364.991      -884.3105
      -3804.023      -12140.92      -18190.56      -21061.13      -14450.11
       5289.117       23804.02       27990.33       19142.52       10366.09
       15297.60       27618.98       34227.80       32557.93       22473.93
       8277.872       468.3613       1498.262       4927.584       5758.189
       4913.242       958.0723      -2615.562       485.5447       2095.359
      -2242.043      -9628.680      -21057.84      -25950.75      -21073.06
      -16005.16      -10036.15      -3978.650      -5904.387      -11419.33
      -12566.25      -12297.44      -11938.09      -7227.596      -34.74609
       6602.574       13209.83       17370.96       14451.81       11559.70
       14885.34       18850.93       20129.52       17785.07       13277.53
       9316.094       1666.150      -8049.984      -13758.67      -12052.36
      -5476.920      -742.6567       1734.802       1856.322      -3515.297
      -10769.54      -17730.16      -22317.14      -17611.05      -7090.590
      -3717.547      -9595.555      -18978.21      -22167.68      -16632.88
      -9371.013      -3032.688       732.3242       3413.180       9560.641
       16623.96       25342.36       33428.72       31254.14       21480.42
       16436.53       14487.83       10348.25       7449.398       2061.320
      -9867.688      -20577.59      -27647.70      -26483.91      -18256.16
      -16503.89      -19018.64      -15647.43      -6829.672       4943.664
       15011.57       18740.76       15228.22       9426.749       3881.807
       1129.004       7998.352       19511.67       24518.29       21056.33
       11464.38       4134.269      -792.6992      -8270.637      -14655.12
      -16126.10      -11172.12      -3328.183      -166.0977       586.2324
       1256.627      -217.8047      -4286.750      -9580.637      -10597.72
      -4312.688       1917.594       5796.367       7132.918       2777.150
      -4454.551      -10570.64      -16528.43      -18143.01      -11607.69
      -1201.141       4367.711       8086.039       17345.27       21192.59
       14921.66       12316.00       9014.639      -1070.172      -6592.766
      -7274.758      -8997.638      -3822.347       3700.069       1088.301
      -1665.684       3211.272       518.6465      -7608.324      -8915.758
      -6062.367      -14.46436       3876.196       19.13367      -375.4280
       2041.369       14.80481      -581.0957       1754.711       3063.723
       4703.986       4501.990       2802.485       404.0283      -2438.213
      -3886.705      -1464.219       7377.453       14632.42       12466.36
       7818.479       5576.067       5106.209       3154.293       4378.268
       9640.676       9043.628       344.7031      -9620.680      -15173.77
      -14974.71      -12564.55      -11670.71      -11668.19      -6544.901
      -981.0234      -4363.398      -13879.68      -17982.18      -12361.56
      -4642.968      -1786.811       2939.895       14579.23       25033.64
       22804.81       11856.49       3199.686      -864.9277      -3452.531
      -5450.177      -3220.164       7795.406       20903.38       27567.52
       24323.12       13722.12       3673.852      -4200.859      -15812.52
      -26853.57      -27094.27      -15906.27      -6830.398      -6457.295
      -6596.736      -4919.039      -7943.680      -12471.57      -12840.03
      -7146.273       1.001953       2857.616       2521.596      -176.5527
      -3559.059      -2099.495      -3650.541      -8996.473      -3621.391
       10492.56       21651.90       29777.95       29037.57       18132.64
       6058.542      -1286.280      -1802.726       2059.291       5833.545
       7581.673       3930.473      -3135.477      -14160.12      -26361.34
      -28398.86      -19498.36      -11657.12      -10127.61      -10334.81
      -8235.346      -7367.951      -5598.182      -3125.009      -2787.364
      -222.8525       3764.175       1745.620      -1344.074      -2281.324
      -7054.242      -12670.73      -14774.20      -16245.82      -6684.625
       9844.668       15772.06       14941.66       12327.81       3124.877
      -5580.861      -5086.394       1971.344       8887.852       16136.20
       22353.06       25301.23       24544.81       19722.04       11206.21
       4627.675       2491.774       1790.545       796.8730       3619.729
       8912.387       9260.457       1172.949      -10707.78      -20813.20
      -25159.91      -24270.02      -19268.02      -12667.71      -8130.451
      -4232.318       39.74023      -4000.805      -10723.04      -11458.13
      -10685.70      -9056.482      -5563.183      -2346.884       2803.863
       4785.313       3525.229       1639.704      -1689.449      -1321.096
       1388.976       397.3086       4752.770       16528.29       23560.74
       21604.84       16794.87       9449.895       3302.706      -894.3379
      -3327.566      -564.4629       2214.756       5427.922       14746.46
       17911.87       11124.86       2991.773      -4118.926      -11371.04
      -15947.83      -14719.68      -7486.455      -2700.607      -5598.664
      -15062.05      -22721.50      -20360.09      -13440.38      -10386.26
      -7819.517      -4482.610      -549.4180       4366.412       9146.750
       10729.26       6821.233       624.4482      -2923.886      -6454.330
      -816.1484       13975.02       19329.02       12726.89       1271.242
      -10628.70      -11097.28      -157.8535       9099.984       11544.00
       16615.82       22649.84       20540.09       14651.21       12770.32
       9463.712       3205.936      -1428.910      -9826.016      -23938.94
      -28294.40      -23627.77      -20506.01      -16347.46      -9170.350
      -5008.883      -6038.129      -11606.71      -14948.51      -12389.98
      -7358.567      -1457.184       4165.295       5687.814       6020.160
       5427.696       4992.831       3182.503       1695.182       4969.812
       7502.082       9450.559       17175.61       24061.02       28269.15
       30106.64       30276.70       30432.54       25464.45       13760.70
       6743.473       8516.434       9732.081       2391.578      -7273.535
      -16943.02      -26361.56      -32740.29      -40342.35      -44887.19
      -35469.55      -22189.62      -11653.47      -4668.557      -2687.480
       607.9688       4794.387       6745.258       12570.64       17762.15
       20619.70       25921.30       30946.53       32377.32       34047.19
       33157.05       26691.75       16041.03       6430.172       2601.225
       1564.395      -2020.049      -5175.811      -7826.680      -9950.805
      -11754.70      -14843.81      -20695.59      -22660.41      -15299.10
      -7238.451      -5271.832      -1414.416       1030.516       75.43555
       1582.637       406.6526      -2180.206       2151.727       5545.016
       10795.48       21026.96       27886.58       33380.23       33479.60
       15782.68      -9183.641      -32024.97      -48196.66      -47904.76
      -30413.12      -7958.223       9378.463       14200.69       2455.055
      -19710.62      -42537.03      -60389.03      -61016.70      -45910.74
      -26193.98      -9765.516      -9750.227      -29201.72      -54026.00
      -85823.22      -115982.3      -117858.8      -80689.94      -13360.91
       58404.00       116309.5       163619.1       178760.1       137519.2
       56744.17      -20151.30      -62141.80      -59817.01      -4340.031
       107840.3       230790.2       287225.4       238477.5       114890.2
      -13871.22      -89080.12      -114673.5      -106732.4      -48057.75
       50180.78       124377.3       122959.3       51679.55      -35184.38
      -92879.00      -115599.6      -112856.8      -80401.69      -19273.19
       48825.66       90963.28       90518.48       54764.17      -10787.25
      -104656.8      -203984.6      -271436.3      -262476.3      -159576.7
       1779.844       144814.6       198536.4       156149.3       68554.86
      -20175.58      -76288.31      -88517.20      -79099.01      -54442.10
      -8847.703       29998.31       44431.56       53932.47       69376.47
       71303.98       47992.12       13006.33      -17570.09      -53560.75
      -91871.47      -100304.3      -62464.49       5885.281       65479.83
       79469.87       49642.97      -7925.531      -63298.42      -74110.33
      -32246.05       24327.70       54980.23       46199.59       17819.03
      -13037.06      -36937.58      -32003.62      -4956.461       4767.645
      -9236.305      -24025.81      -22723.08      -16680.55      -21133.40
      -25786.70      -12882.98       20507.97       59238.31       72099.14
       50668.29       10320.62      -30792.55      -42486.53       4486.062
       80793.88       123554.8       116381.1       86268.58       52913.03
       20321.41      -15032.03      -43114.95      -53979.66      -52884.11
      -44646.01      -29722.62      -15664.20      -8716.586      -23062.78
      -65734.09      -114965.2      -138579.2      -124355.0      -90971.61
      -60077.01      -26111.52       3494.327       5832.531      -15518.70
      -26474.75      -6778.555       32391.06       65154.44       73444.62
       66028.86       58308.06       49141.73       48225.94       62383.53
       84794.78       93911.42       68864.90       29468.19       9604.082
       10114.50       14238.83       2869.352      -17379.23      -29291.20
      -38140.38      -47130.93      -40048.47      -15863.06       1599.492
      -4313.633      -24586.22      -51462.12      -76214.62      -85501.50
      -76440.79      -52988.17      -16150.98       26970.39       62736.05
       73630.26       53788.21       9939.188      -34210.30      -46860.04
      -28060.33      -5314.500       17050.67       33917.34       26479.24
       4367.646      -8238.850      -9186.152      -1122.162       4240.666
      -2654.312      -9725.830      -6011.438       4361.723       14584.03
       25876.09       47709.59       60510.30       45126.12       21561.97
       5638.488      -5562.609      -7434.997      -1893.871       3654.431
       471.9297      -15569.27      -33837.05      -43340.31      -48919.47
      -49585.00      -37461.20      -11748.82       16185.91       26621.34
       13899.31      -3025.047      -18180.11      -31177.84      -28564.51
      -12350.59      -1045.211       9343.781       27100.62       47433.16
       62446.11       66270.86       58833.49       43809.50       25475.61
       15424.14       15090.71       12768.50       4679.479      -1803.801
      -8007.094      -18334.27      -33674.77      -49148.41      -56612.69
      -58660.84      -64936.34      -68464.41      -70620.00      -77381.19
      -81835.02      -75334.25      -48863.02      -6760.578       29932.69
       51657.72       59480.39       58044.59       50582.55       42926.87
       40223.25       44887.12       51828.12       52262.62       44927.58
       36388.59       30712.23       22567.13       3933.477      -18267.74
      -36270.84      -37402.53      -12595.78       24243.88       50232.45
       51027.69       21969.78      -23076.23      -57187.08      -63368.58
      -49257.27      -32580.25      -25660.68      -25804.62      -28422.25
      -34165.12      -44127.88      -53884.39      -59863.95      -65125.62
      -68067.31      -54210.64      -22558.07       12266.78       43137.34
       72458.94       90421.98       90768.20       80414.62       65172.58
       48690.07       35243.58       23164.04       15319.00       20774.05
       33565.04       39689.69       43382.86       45963.66       48446.77
       50847.91       44505.55       30199.55       12699.73      -6971.250
      -24428.30      -44932.28      -64440.67      -61147.98      -30210.27
       7471.781       42631.14       66451.55       63770.11       44374.59
       26993.50       15818.27       16720.22       25799.42       33460.29
       35877.33       26241.77       4505.977      -17436.88      -36140.47
      -49764.72      -57395.12      -62774.22      -68222.97      -72926.72
      -75072.75      -71493.84      -68215.56      -66605.73      -60766.38
      -52314.16      -46398.02      -40195.98      -29521.17      -13736.85
       6253.219       29280.91       44800.47       46632.20       38459.38
       29429.34       24885.76       21676.60       13322.77      -646.1172
      -12148.74      -16082.86      -15860.87      -7024.016       10136.31
       24069.10       29493.45       31011.72       28523.00       26663.80
       33722.11       49992.70       69745.56       84068.33       85499.44
       81201.19       73864.88       55631.01       31432.36       19351.57
       20864.84       25466.45       29847.63       28363.81       11170.27
      -19285.83      -50871.34      -60684.64      -47180.74      -35748.19
      -36179.41      -44420.09      -59505.88      -72758.02      -74781.09
      -63887.80      -47990.34      -38238.05      -42862.73      -57781.06
