     0.02500000      -153854.8       170037.5      -12345.00      -12345.00
      -29.98999       228.2350      -29.09000      -12345.00      -12345.00
       0.000000       21.41000      -12345.00      -12345.00      -12345.00
      -12345.00      -12345.00      -12345.00      -12345.00      -12345.00
      -12345.00      -12345.00      -12345.00      -12345.00      -12345.00
      -12345.00      -12345.00      -12345.00      -12345.00      -12345.00
      -12345.00      -32.27420      -67.18850       649.0000       0.000000
      -31.54000      -68.94500       0.000000       103500.0       0.000000
      -12345.00      -12345.00      -12345.00      -12345.00      -12345.00
      -12345.00      -12345.00      -12345.00      -12345.00      -12345.00
       185.0153       116.5651       295.6411       1.663562      -12345.00
      -12345.00      0.8142976       0.000000       90.00000      -12345.00
      -12345.00      -12345.00      -12345.00      -12345.00      -12345.00
      -12345.00      -12345.00      -12345.00      -12345.00      -12345.00
      2008        49         8        51        32
       790         6    -12345    -12345     10330
    -12345    -12345    -12345    -12345    -12345
         1         7        13    -12345    -12345
    -12345    -12345    -12345    -12345    -12345
    -12345    -12345    -12345    -12345    -12345
    -12345    -12345    -12345    -12345    -12345
         1         1         1         1         1
CATA    -12345          
        -12345  -12345  
-12345  -12345  -12345  
-12345  -12345  -12345  
-12345  -12345  -12345  
-12345  -12345  -12345  
-12345  -12345  BHN     
ZL      -12345  -12345  
[...]
       22705.08       23579.79       18873.09       16098.05       17206.80
       11423.01      -619.1982      -6090.992      -1404.801       5962.047
       10810.43       8632.682      -5313.533      -11594.18       5353.914
       22628.34       19636.72       7912.706       1204.265       978.7031
       5509.070       13199.75       13624.38       1191.629      -7812.958
      -6066.908      -3396.885       2192.006       7496.689       5507.099
      -398.8359      -5148.284      -4341.625      -2802.680      -9216.102
      -19285.94      -26075.54      -27707.14      -27142.56      -25548.33
      -23205.48      -21602.23      -18197.96      -7373.328       8277.797
       16586.00       10501.44      -124.6348      -3504.105       4285.492
       16946.14       22993.06       18988.88       9422.456      -365.3623
      -2513.805       4838.465       13979.25       15342.28       9730.801
       6713.270       9888.020       13412.36       13534.48       13317.38
       17094.07       16779.94       7350.723      -4161.266      -14737.03
      -25102.09      -28289.80      -17957.42      -4163.944      -2206.004
      -10064.71      -14793.53      -10055.91      -3121.850       3053.039
       8572.625       11107.80       10488.71       5669.897       80.86035
       446.3789       4987.317       4629.398      -4821.707      -10918.47
      -7192.700      -694.5825       13.75781      -6688.957      -10890.50
      -9583.961      -11482.35      -11379.17      -1131.078       7770.318
       3467.908      -1405.343       2467.822       7378.426       11160.55
       11605.57       366.3750      -15182.64      -15193.74       5259.438
       24288.55       24384.13       9073.086      -12007.01      -25673.58
      -18569.67      -1409.432       2549.690      -4539.906      -9542.859
      -16594.29      -17369.57       841.2656       17936.65       15110.41
       8863.859       11733.54       14363.03       13212.79       14692.96
       12862.91      -278.3438      -15425.23      -18079.70      -7978.817
       4111.270       7510.655       956.0254      -9190.088      -13184.17
      -3571.500       14308.31       22931.49       15736.64      -1518.648
      -16904.28      -20932.88      -15500.36      -4371.798       5860.905
       2342.289      -12445.07      -25277.75      -25113.18      -10235.83
       2460.560       543.7188      -5762.346      -8593.111      -9525.075
      -7050.986       3802.477       14926.04       14925.98       7767.102
       4027.641       9531.547       21683.82       29301.80       27414.08
       21745.98       17717.46       10793.17      -3225.891      -21945.31
      -40697.62      -53580.55      -52536.25      -39084.58      -22906.20
      -10601.19      -5772.227      -7018.627      -4567.520       10064.87
       35422.00       54983.19       54346.09       38754.80       20698.40
       4387.230      -6512.919      -6992.476      -519.3672      -3631.750
      -18182.02      -25116.83      -18216.11      -7794.281       3801.906
       14255.24       11452.62      -2000.164      -3169.676       12726.13
       23833.09       17395.88       6183.112      -271.8442      -2829.748
       1323.014       6877.081       3683.734      -2447.145      -7316.088
      -8921.355      -2361.427       5471.708       2355.605      -8844.805
      -17652.13      -20494.76      -17954.77      -12042.43      -12559.70
      -18664.01      -16052.54      -6223.983      -2102.014      -3970.906
      -8121.430      -11269.57      -9707.604      -5129.538      -1364.574
       3169.727       8580.539       11508.39       10973.05       14053.53
       24554.73       35697.92       38485.94       35493.25       34032.28
       31736.98       24163.13       15597.02       4672.109      -9951.430
      -17754.44      -17781.39      -21738.96      -27776.55      -27881.84
      -23557.04      -16937.09      -3812.111       8902.590       9469.073
       925.7070      -6789.189      -9934.477      -7742.233      -4007.927
      -2621.265      -2344.178      -1408.324      -4790.371      -11415.92
      -9091.385       1122.216       3797.001       975.6299       3112.855
       7271.529       6064.989       3955.785       5791.557       7115.395
       7854.051       12384.25       15817.29       15499.03       14112.55
       12750.22       8412.928       3027.082       2671.837       3136.943
      -198.0269      -1516.765      -1415.789      -1958.439      -567.7517
       1183.758      -1599.857      -7908.539      -13020.56      -13431.98
      -13250.27      -14168.43      -11423.99      -7024.732      -7437.734
      -10903.25      -11519.45      -9855.734      -14023.35      -20057.09
      -18292.78      -11095.06      -3284.600       6584.891       14922.10
       16294.98       12400.85       10756.64       14020.61       17009.40
       14175.82       5883.971      -6171.713      -12837.14      -5434.182
       8200.379       13639.51       7231.205      -3472.418      -6428.666
      -3620.136      -1886.359       2745.230       10655.92       12624.38
       5220.526      -3884.449      -5094.000      -837.3221       1825.169
      -1687.852      -9498.453      -15560.79      -16747.99      -12672.27
      -3654.184       5524.043       11334.41       12400.71       8022.132
       516.3125      -4506.695      -5152.407      -2924.764      -1364.247
      -532.6861       49.48291      -847.7668      -566.5244       3951.936
       6028.767      -42.23438      -9350.652      -14342.04      -13805.76
      -5991.363       6626.656       15394.97       14970.85       4666.840
      -9988.758      -15738.74      -10434.25      -618.2812       8569.777
       13898.25       14439.84       12792.65       8707.893       338.0039
      -6822.923      -5111.333      -1006.438      -3244.436      -8612.475
      -7917.414      -2054.527       242.8594      -4706.113      -9734.848
      -9991.725      -8585.340      -6268.224       267.8682       5523.466
       3565.036      -1552.235      -2529.014      -1133.835      -357.5869
       2024.330       4429.392       237.2178      -5996.603      -3602.376
       3465.974       2205.842      -810.9775       3771.299       7059.996
       5434.105       8308.961       11274.63       8294.461       8225.031
       13266.85       12091.44       5600.882       724.5605      -7589.152
      -17641.33      -16372.37      -7633.158      -995.2695       5685.680
       15236.00       17804.68       10029.31       3184.873       2362.552
       1179.967      -4028.871      -11287.98      -14670.91      -13193.37
      -10878.06      -10221.37      -6634.625       1164.850       3561.645
      -4834.914      -11874.32      -8434.875      -1373.920      -1358.981
      -5675.992      -4635.195       1428.180       5536.820       10745.80
       19544.59       25445.26       20447.75       8583.420      -823.2598
      -8169.078      -12746.89      -6402.752       6563.053       13013.93
       2951.754      -15354.56      -20954.88      -11031.03      -1970.898
       2233.844       7020.812       12482.07       16701.05       17852.21
       11046.26       743.7158       1080.160       12105.65       13118.83
      -1065.254      -13610.65      -15041.74      -14654.19      -17127.74
      -16342.50      -12334.48      -11694.36      -8794.092       1070.707
       9041.422       12523.58       16936.70       14583.11       1903.482
      -7761.617      -7377.404      -6248.854      -7982.049      -7882.353
      -4109.232      -1428.562      -760.7422       3249.887       12043.50
       14525.30       5222.721      -4347.398      -5369.062      -2917.413
       1291.869       5145.649       3970.914      -697.9365      -3159.582
      -2434.417       109.0488       4267.262       11080.27       16324.41
       15101.41       12311.41       13350.62       10200.50       2393.465
      -3336.094      -6297.201      -9301.301      -13972.23      -18099.89
      -16489.37      -10210.29      -3173.387      -23.99121      -672.7070
      -2473.599      -4390.205      -3816.652       4145.531       13493.18
       12808.42       5484.145       4918.998       8655.211       8043.728
       5043.405       3384.444      -1218.188      -4114.220       934.3320
       3329.226      -2433.633      -6581.090      -7838.867      -9133.801
      -13072.17      -14157.76      -2936.262       15360.06       27615.09
       28671.48       20300.72       7279.207      -4928.479      -7384.490
      -2018.230       761.7734      -2345.278      -5178.338      -1898.676
       4782.151       4443.387      -4276.492      -14983.21      -23571.89
      -27163.50      -22351.10      -13310.21      -4152.670       3908.428
       8062.096       6612.565       4372.185       3282.225       2124.795
       3314.019       5528.690       2466.809       112.1504       6262.277
       16910.64       20963.71       17464.24       10812.92       1299.427
      -5748.525      -3798.823       1307.286       520.5039      -10539.83
      -20923.86      -18370.69      -8562.379      -53.07715       4784.483
       1424.762      -6360.682      -9298.416      -6876.175      -6023.579
      -2474.602       3244.565       646.7275      -2940.642       2549.512
       4582.778      -594.1746      -1372.198      -607.0566      -5919.935
      -7365.550      -1373.369       3132.183       2113.058       491.3135
       951.8517       1461.597      -1977.064      -8040.424      -7791.846
       3989.156       16304.61       19800.32       15612.98       9053.481
       3396.010       1757.520       7693.578       14736.26       12545.56
       6505.947       58.16016      -10000.02      -17544.93      -13889.76
      -7743.234      -8157.249      -5252.328       5497.027       11902.59
       14438.51       13849.86       862.4023      -18210.61      -26409.16
      -23606.46      -18874.34      -17484.38      -16507.99      -6582.699
       11300.71       18465.11       13922.99       13720.43       11919.48
      -693.4453      -5598.563       1996.137       6226.990       6178.781
       7136.963       5535.229       3825.699       6353.936       7593.285
       3126.625       2269.477       10088.91       23216.47       30820.64
       23368.04       9042.990      -2014.656      -13695.71      -22394.24
      -22136.38      -23990.12      -36215.52      -41737.35      -26729.15
      -2843.383       13232.78       17497.58       12727.39       5247.086
      -3478.195      -11197.15      -11943.21      -5234.104       1753.611
       4643.686       6640.025       9899.801       11321.27       11675.51
       6522.695      -5792.641      -14404.29      -12488.16      -6630.031
      -1497.287       4329.773       9560.334       9696.889       4384.936
      -4721.395      -12740.00      -15913.08      -10782.15       1872.371
       10514.86       8052.321       3759.581       2731.316      -911.8477
      -11000.75      -20124.70      -20664.90      -12180.11       933.1016
       12104.79       18346.74       22587.76       20791.06       10787.52
       2387.486       1288.206      -1022.438      -7528.457      -8576.533
       2602.828       18162.11       28704.44       28918.99       15360.59
      -6956.867      -21207.23      -16510.93      -1356.324       9519.031
       13138.08       7547.189      -3897.596      -9835.633      -9474.012
      -9847.938      -11653.99      -10353.28      -9.761719       14487.00
       20881.83       12073.56      -6403.086      -25646.53      -47199.59
      -68693.78      -73110.97      -62594.84      -58425.02      -62287.58
      -55001.66      -35749.73      -19315.97      -7468.230       2364.753
       5858.686       4532.628       1925.659       1513.462       2916.258
      -7067.375      -41213.94      -81960.00      -88357.16      -45915.20
       8553.055       31059.78       14650.42      -11556.49      -17559.34
       139.7656       25931.98       47683.91       65327.81       84149.75
       102728.0       113487.5       98667.07       49114.53      -14593.73
      -52156.17      -38221.03       6267.359       39564.27       50039.69
       48791.11       49117.12       52630.62       49435.16       40167.29
       26101.83      -5081.000      -51162.83      -86091.75      -79541.57
      -29481.41       31165.44       68749.03       68366.34       25490.49
      -31964.05      -47492.61      -8022.688       41599.31       69001.73
       70144.42       47179.84       6019.594      -47220.25      -103429.4
      -143230.4      -153854.8      -129612.6      -63795.41       25280.03
       87426.91       83446.20       18772.89      -60562.12      -113711.0
      -122478.0      -77570.66       6473.500       83477.28       119879.6
       131245.6       151467.0       170037.5       147402.6       89442.36
       46126.22       32984.57       26497.09       23872.15       33719.19
       33982.63       7480.547      -22776.16      -36378.72      -51919.69
      -81960.50      -104984.1      -103072.4      -80588.14      -54767.12
      -47322.72      -56384.91      -59250.05      -46334.75      -24911.37
      -7183.763      -244.2109       7060.781       21137.45       33087.23
       43018.42       53899.19       52455.19       27514.04      -6152.839
      -14872.70       15748.41       67228.06       106667.7       106728.2
       63687.17      -4665.562      -71533.44      -100895.8      -72760.64
      -7911.547       47819.05       63395.66       40673.12       4595.125
      -23232.94      -39682.69      -37765.98      -16217.14      -5751.109
      -26005.94      -56514.84      -60770.00      -28083.81       9535.898
       22064.24       11877.73      -8016.281      -29068.62      -48709.91
      -54092.37      -26787.83       19044.12       46337.27       52091.73
       55543.84       46866.89       17265.79      -7418.945      -13542.20
      -16091.27      -22674.98      -25136.27      -22446.97      -24531.05
      -27768.43      -15227.70       9926.875       26526.46       21874.66
       2535.907      -7766.977       6316.906       28044.61       39241.31
       46542.59       52088.19       38883.25       5291.922      -26812.23
      -40782.33      -33055.91      -12513.08       3667.625       13717.34
       22190.75       21209.54       5309.461      -13124.89      -23023.73
      -34603.92      -55329.25      -69205.89      -59210.05      -30723.77
       4829.062       44661.36       68905.48       53607.67       12169.80
      -18747.54      -25339.85      -20673.59      -15405.87      -12323.35
      -10843.93      -2958.758       15730.28       39723.31       58067.95
       57805.44       41535.71       24965.96       10739.90       2224.402
       7942.389       12954.93      -3509.188      -30323.86      -43442.72
      -44573.09      -44756.69      -37360.35      -21617.41      -10289.86
      -6610.122      -910.6055       9635.043       14364.23       7197.954
      -3231.390      -862.7344       17295.31       40067.86       61022.94
       70883.95       58840.57       29340.69      -4431.000      -29008.01
      -33490.42      -21976.75      -11478.93      -5728.564       3409.168
       9352.344       6907.004       9022.797       22901.09       41917.59
       55533.66       50221.82       20466.61      -19435.62      -51742.36
      -71463.75      -77597.47      -74313.41      -71163.91      -67639.05
      -57438.95      -39197.70      -16123.61       5933.070       22102.66
       29667.46       32240.28       39090.58       51393.59       65002.08
       80131.69       88113.86       70980.23       30764.65      -7611.602
      -27948.89      -32443.45      -25785.15      -9810.086       9861.137
       19901.21       9961.844      -12722.44      -34116.08      -49611.34
      -57388.74      -47389.83      -15317.64       25693.66       61344.91
       78537.22       69657.30       49036.42       31587.24       8644.438
      -30900.59      -74194.00      -102077.4      -117062.5      -122937.3
      -108999.9      -73689.18      -28525.81       17030.80       50918.98
       62726.44       51773.81       21062.72      -14044.97      -34354.69
      -43517.72      -56929.11      -78353.84      -95526.50      -94967.97
      -77746.36      -51257.10      -20656.90       9526.719       41485.69
       78688.50       110543.3       123408.4       112824.2       82021.21
       48641.97       29997.80       25389.80       29004.13       34793.66
       35785.80       34711.06       38054.25       40539.86       30563.68
       5682.672      -24637.47      -45442.22      -47942.02      -36222.68
      -18968.21      -547.4609       13598.92       14008.71      -2378.211
      -26458.33      -46554.59      -59939.39      -64069.48      -52112.95
      -32736.09      -24024.55      -31161.42      -48239.53      -60061.73
      -52052.21      -31579.71      -15149.31      -5542.303      -1137.145
      -5997.838      -12213.66      -2974.891       14533.99       21425.84
       17020.55       10250.51       6927.675       4166.184       2063.020
       11294.87       30397.22       44837.86       50081.75       53016.84
       56679.73       60630.03       68260.41       79803.16       91022.19
       95695.09       86760.69       67749.38       49333.91       30721.80
       9300.363      -4172.895      -4947.076      -2608.047      -4463.141
      -11565.26      -19365.82      -21442.09      -21339.02      -28786.11
      -45270.25      -59163.08      -61999.23      -57787.17      -51088.45
      -47002.17      -50161.08      -59135.91      -68340.02      -69527.41
      -58792.83      -42597.00      -31127.08      -22631.46      -8664.500
       5923.307       9280.335       1696.355      -5535.292      -4675.375
       4062.504       13277.63       8785.211      -11212.88      -31396.34
      -41469.05      -33994.78      -4324.328       29067.44       45094.44
       50326.38       61406.41       81411.31       101360.4       111214.4
       109225.6       97592.36       73410.72       40317.27       14324.19
       4070.561       1656.855      -5654.164      -22433.75      -42289.45
      -53691.29      -48603.77      -29014.39      -8473.104      -1425.895
      -6812.141      -16257.29      -27440.39      -31744.04      -21598.51
