     0.02500000      -1666958.       1660218.      -12345.00      -12345.00
      -29.99504       214.9799      -16.42000      -12345.00      -12345.00
       0.000000       12.19000      -12345.00      -12345.00      -12345.00
      -12345.00      -12345.00      -12345.00      -12345.00      -12345.00
      -12345.00      -12345.00      -12345.00      -12345.00      -12345.00
      -12345.00      -12345.00      -12345.00      -12345.00      -12345.00
      -12345.00      -31.90580      -68.77510       1333.000       0.000000
      -31.54000      -68.94500       0.000000       103500.0       0.000000
      -12345.00      -12345.00      -12345.00      -12345.00      -12345.00
      -12345.00      -12345.00      -12345.00      -12345.00      -12345.00
       43.64004       158.3914       338.3025      0.3923838      -12345.00
      -12345.00      0.3174572       0.000000       90.00000      -12345.00
      -12345.00      -12345.00      -12345.00      -12345.00      -12345.00
      -12345.00      -12345.00      -12345.00      -12345.00      -12345.00
      2008        49         8        51        20
       120         6    -12345    -12345      9800
    -12345    -12345    -12345    -12345    -12345
         1         7        13    -12345    -12345
    -12345    -12345    -12345    -12345    -12345
    -12345    -12345    -12345    -12345    -12345
    -12345    -12345    -12345    -12345    -12345
         1         1         1         1         1
CHIL    -12345          
        -12345  -12345  
-12345  -12345  -12345  
-12345  -12345  -12345  
-12345  -12345  -12345  
-12345  -12345  -12345  
-12345  -12345  BHN     
ZL      -12345  -12345  
[...]
       106.8885      -213.9188       96.66425      -220.5298       89.04333
      -229.8418       81.32782      -236.6971       79.48120      -241.8564
       72.62759      -243.0989       75.25388      -250.4414       67.86130
      -250.6972       71.75308      -250.5678       72.60776      -248.9142
       73.77679      -250.5347       77.06641      -246.5676       78.36111
      -248.9747       78.39148      -244.9680       84.97873      -241.3564
       86.65295      -239.3136       92.71033      -231.3109       100.3209
      -225.0885       109.6945      -214.6898       119.7270      -205.4877
       126.6477      -201.5843       133.6064      -195.4818       141.7659
      -190.1657       145.1221      -184.8196       147.7298      -185.5042
       157.5630      -180.5788       160.0918      -174.5932       164.2433
      -173.4333       171.9450      -168.6119       175.2765      -159.6692
       189.6640      -146.4159       200.3904      -135.5318       212.5069
      -127.6218       224.4590      -114.2913       236.8309      -101.2678
       248.9575      -92.77313       259.6310      -86.66571       260.6210
      -86.33853       261.3841      -89.16144       255.7474      -96.87900
       252.7312      -108.8128       235.0341      -119.8463       222.5286
      -137.1591       210.9333      -153.1794       192.3488      -166.4729
       179.3760      -183.9915       164.8998      -196.4844       150.2455
      -214.3538       134.2331      -228.6725       118.0739      -245.4940
       104.8003      -256.2858       96.01422      -267.3181       81.56604
      -277.8480       76.88254      -287.3133       66.99078      -293.4355
       65.24100      -293.4353       66.36917      -292.9979       72.33179
      -287.7354       77.68365      -281.0680       85.33481      -274.4695
       99.40189      -259.5579       107.0832      -250.1982       119.3703
      -239.6435       130.0356      -232.1794       140.8515      -218.6959
       147.3290      -215.7468       154.9418      -209.9008       159.5624
      -205.3378       161.1591      -203.2581       165.9934      -203.8561
       164.9441      -202.1474       166.3573      -202.2548       162.8711
      -206.7444       162.5275      -207.9438       162.5902      -208.0011
       161.9506      -210.7222       161.8188      -211.7919       158.2354
      -221.2420       151.4977      -228.5299       142.1877      -237.2363
       130.3239      -250.7513       125.1505      -256.8751       110.9529
      -271.6769       100.3470      -279.4927       91.99207      -291.9229
       78.44940      -307.7410       60.68677      -326.8105       41.83539
      -342.4846       25.47382      -362.4735       8.355530      -377.9583
      -8.202271      -392.4774      -17.70782      -401.6469      -29.19360
      -415.3102      -40.44476      -426.1667      -52.42084      -441.2549
      -70.86560      -458.7867      -85.89685      -476.4219      -109.0319
      -499.5620      -125.7881      -516.9254      -146.3750      -535.9885
      -169.4814      -560.9849      -192.5901      -586.5276      -217.7991
      -617.2054      -247.1996      -639.4780      -273.3809      -669.2512
      -302.7151      -699.4980      -336.4674      -745.1584      -382.3787
      -781.7977      -422.6853      -832.9530      -473.7141      -882.5006
      -526.9155      -938.0923      -584.1077      -995.2488      -633.4585
      -1051.517      -697.8311      -1103.576      -745.8655      -1165.399
      -809.2502      -1222.284      -860.0762      -1269.316      -909.3794
      -1316.610      -955.0352      -1360.902      -991.5063      -1397.513
      -1030.150      -1425.136      -1051.386      -1452.337      -1078.922
      -1472.365      -1096.453      -1489.093      -1111.739      -1502.548
      -1115.836      -1503.374      -1120.181      -1505.864      -1115.670
      -1504.839      -1118.376      -1499.398      -1107.834      -1492.834
      -1098.881      -1478.017      -1079.361      -1458.479      -1063.244
      -1437.206      -1035.892      -1410.087      -1009.654      -1389.264
      -987.0378      -1357.804      -952.9629      -1324.061      -915.8960
      -1285.719      -881.2480      -1250.075      -840.8540      -1212.844
      -809.0874      -1180.156      -775.8840      -1141.637      -735.4424
      -1104.235      -699.1306      -1064.712      -658.5991      -1023.765
      -616.4412      -979.3711      -575.9683      -940.1355      -528.4893
      -889.7643      -487.1477      -852.2617      -442.4749      -805.5325
      -400.5679      -763.6294      -351.7681      -710.5868      -307.7778
      -673.7347      -264.1763      -629.1279      -229.1825      -591.9348
      -185.6409      -554.0219      -154.2292      -519.0499      -116.8594
      -486.0262      -96.30878      -464.7328      -65.87421      -437.9638
      -54.79962      -422.7276      -25.68671      -401.6221      -22.20496
      -386.6219       10.79590      -366.6734       4.359009      -367.2999
       35.81012      -337.8677       20.58289      -338.6262       110.3820
      -134.4260       627.2891       1309.840       3727.543       6518.301
       10417.34       13273.03       16393.50       16207.16       16618.59
       19549.82       20966.04       19619.14       29985.42       26677.45
      -28203.02      -74609.07      -12655.78       96430.22       92043.09
      -20962.50      -68130.28       3100.531       54233.55      -3241.641
      -60902.03      -28257.02       26174.42       18550.15      -5887.297
       8354.641       37286.59       59491.77       69361.84       45595.70
      -10125.75      -62847.02      -70066.55      -36174.85      -22234.41
      -57210.44      -79771.72      -54930.87      -9849.164       23386.62
       46212.69       23136.35      -32092.93      -20585.32       43843.74
       49208.38      -11710.71      -37106.61      -1234.562       22473.95
       16707.94       11520.91       13741.61      -2565.166      -10640.70
      -608.8516      -10772.29      -20059.09       2601.733       11615.68
      -14240.84      -24550.89       12500.86       49062.38       29388.20
      -19818.35      -31867.98      -21360.10      -21951.77      -21865.23
      -17674.76      -18240.93       6729.922       56649.97       68410.28
       27789.85       11745.30       29343.44       21887.44      -11598.07
      -28293.10      -19443.82      -7344.926      -11971.66      -29356.30
      -41329.41      -15674.79       24363.25       27798.06       14382.91
       17116.90       13154.46      -17740.55      -37728.18      -12923.00
      -1335.070      -29755.59      -57835.22      -61251.84      -47552.66
      -19833.60       9008.992       14976.04       5013.715       7683.094
       28110.19       51694.09       52193.38       35041.77       32701.06
       43318.84       33941.89       7379.934      -12488.25      -13611.68
      -21944.42      -45375.75      -60490.36      -53750.12      -31330.96
      -14370.13      -3944.070       22137.59       37819.85       16269.96
      -9109.117       3991.484       33474.16       48995.28       47292.26
       31798.98       8884.292      -5217.131      -2630.637      -5284.547
      -19615.03      -28347.62      -36462.87      -30675.22       636.5938
       29350.75       23621.36       3850.062      -18554.76      -31687.79
      -12552.30       21782.19       45208.88       42636.77       25071.77
       32167.75       66622.77       73719.95       22224.88      -16579.63
       5147.016       33727.30       10670.41      -35805.20      -46021.13
      -10852.86       14663.50      -2899.344      -34494.59      -38843.77
      -22799.27      -29899.92      -46684.52      -34749.80      -13919.97
      -18275.09      -48840.88      -52411.93      -22834.22      -8517.000
      -10714.38      -3458.422       8041.371       15843.50       30774.01
       46501.12       36256.76       17809.24       12138.05       13419.28
       6304.449      -14583.31      -38294.86      -44822.09      -28684.90
      -24947.09      -45773.91      -53428.23      -27825.87       9923.094
       27759.00       56010.28       100816.4       94851.50       31706.65
      -8330.781       17600.69       50729.63       23432.83      -24716.75
      -34450.67      -20948.96      -26496.47      -56224.94      -79456.09
      -66243.19      -28110.39       9994.305       33425.64       45045.61
       59042.05       66767.61       57980.25       49010.84       38306.26
       22539.67       14313.66       11605.34      -5053.688      -28992.32
      -40556.52      -39553.28      -40025.39      -53655.03      -63938.84
      -48158.30      -17159.01       7630.129       13950.61       13757.97
       29244.61       68698.61       88090.90       42842.77      -13925.59
      -13769.34       20190.75       38995.05       12477.28      -42941.36
      -74488.67      -68455.44      -47578.14      -37385.35      -42405.64
      -41573.41      -22223.61       11145.23       30485.06       27075.80
       30504.48       61638.03       94260.19       86602.99       44327.74
       24500.81       57470.12       98029.88       78046.91       8138.844
      -39797.16      -47523.95      -45919.95      -36916.41      -28413.66
      -59605.94      -104549.5      -84528.17      -19397.58       8981.359
      -21577.44      -56859.45      -47978.91      -17464.23       4771.906
       18789.27       34496.94       59303.03       71409.94       57547.61
       25919.38      -17397.41      -39795.95      -26025.36      -12226.12
      -9859.039       6271.242       26568.25       10584.18      -17698.01
      -9252.469       18586.88       16046.24      -10228.75      -23084.89
      -13384.03       16918.93       40518.24       33659.02      -404.9141
      -32204.65      -35435.01      -33624.05      -47093.62      -58110.36
      -28451.47       40737.31       83436.55       70738.19       40140.92
       15807.70      -1402.703      -15302.85      -16664.53       3204.836
       20515.55       16817.23       6149.004      -4639.875      -26924.67
      -58881.19      -81514.92      -63978.84      -16716.43       15912.36
       25133.80       22400.75       29920.28       51602.84       62753.56
       58640.20       42574.64       19022.63       3726.781       10605.33
       25287.32       23827.40       3472.570      -22158.64      -33365.68
      -19624.01      -4778.656      -28844.12      -60506.30      -46901.91
      -21991.19      -18499.75      -10948.05       13314.30       30851.13
       30877.69       31991.30       38080.70       24116.80      -1445.016
      -18247.55      -32321.77      -41514.94      -30563.90       6534.656
       44691.34       47486.66       14368.11      -26627.16      -45996.73
      -38315.24      -11996.07       7458.447       662.6738      -2636.844
       30199.88       70713.23       85893.88       88404.45       75516.52
       31524.16      -9815.965      -15595.23      -13478.39      -37057.70
      -56581.11      -41917.68      -15209.61      -8708.844      -23789.05
      -33655.75      -5799.969       36092.14       46190.61       32950.02
       25837.48       16243.88      -9295.051      -21490.41       4033.031
       36633.12       37993.46       4664.844      -14679.86       6131.926
       22072.65       2643.594      -29176.62      -50517.19      -57928.55
      -51995.37      -34083.88      -26409.80      -25086.68      -13648.79
      -6324.056      -4416.865       1191.473      -10101.73      -26162.20
      -18690.48      -294.5566       1602.574      -12717.09      -13905.44
       6847.582       15142.80       4890.246       4176.883       21329.69
       26000.23       12859.73       11561.74       24399.69       23140.97
       10459.74       6706.656       27500.19       52795.70       48195.73
       30670.38       33914.44       41897.85       30707.44       6617.110
      -5832.867       4121.211       18533.82       3905.500      -34739.69
      -70998.72      -74573.92      -44194.72      -23137.75      -44250.50
      -79827.67      -86690.12      -54011.55      -7626.398       24319.89
       45485.84       72493.69       87086.69       91841.09       114560.4
       135830.7       100103.5       44763.53       44450.16       59188.93
       12508.97      -56141.31      -64610.27      -21218.99       536.2344
      -8455.312      -27885.98      -32555.64      -4414.617       20820.92
       24873.16       46832.56       82184.33       88610.97       72357.20
       67601.28       58262.62       50716.16       75207.72       133851.4
       172286.8       126404.8      -25615.62      -250977.9      -495097.5
      -759508.8      -1047414.      -1256610.      -1336068.      -1418051.
      -1611009.      -1666958.      -1253420.      -453637.9       308859.5
       723482.2       864796.0       1026015.       1333065.       1643268.
       1660218.       1163858.       323537.2      -218721.2      -17686.38
       511093.0       594703.9       229555.0       52363.28       170399.5
       109713.8      -256679.9      -590474.2      -647189.3      -424302.6
       22050.12       423861.0       465444.2       237366.5       101834.4
       207254.9       439850.9       643373.4       603159.9       177633.9
      -293203.1      -369616.8      -169022.8      -104196.5      -230249.2
      -289025.0      -165556.2      -46344.56      -154587.6      -401439.0
      -491023.6      -320404.6      -40050.88       124913.4       137268.1
       178694.0       376072.9       540507.5       433192.9       186940.9
       93704.50       133141.9       127699.1       45864.06      -51892.06
      -105998.3      -50982.74       46884.25      -19884.12      -238911.8
      -364461.1      -350680.0      -332815.9      -347293.9      -272588.4
      -40204.12       255222.5       449252.5       477677.4       421698.8
       350348.5       268327.1       229262.6       239934.9       185997.7
      -27630.50      -297892.1      -438935.1      -370107.9      -208429.1
      -166573.9      -281924.2      -377384.0      -322173.8      -154406.5
       23134.97       134646.4       125181.1       56427.75       38526.89
       68999.86       63801.28      -13420.94      -131422.2      -216560.0
      -273825.2      -353252.2      -358810.7      -181795.1       90903.88
       343367.4       496544.1       500547.2       373018.5       228492.8
       201421.4       280947.2       339164.8       309311.1       226884.7
       160233.6       118396.5       83296.14       39370.03      -19842.25
      -120964.5      -258705.1      -355639.2      -369325.5      -349697.2
      -303417.5      -197247.3      -46871.84       79631.69       157522.9
       189826.1       149494.1       51732.47      -38582.19      -129657.8
      -203472.7      -189472.0      -107364.3      -18679.81       79010.62
       153369.3       153687.4       85445.38      -15878.25      -146545.4
      -284390.8      -360531.2      -344776.4      -268941.2      -157188.4
      -80170.50      -82806.44      -111940.4      -127955.8      -157953.5
      -208628.8      -249447.6      -213172.0      -85569.50       89881.75
       257209.9       342855.4       323093.2       257266.8       200102.2
       173091.1       135263.2       48815.28      -63670.53      -144526.6
      -130375.3       20458.94       237759.8       403150.8       468102.1
       475228.0       444430.0       340585.8       190144.1       108225.2
       104422.9       84724.80       20919.22      -43072.41      -102193.4
      -175148.8      -228926.8      -190626.2      -75586.50       19738.14
       7952.781      -76493.38      -136174.5      -134664.5      -100330.5
      -72078.86      -77750.56      -97910.92      -91583.71      -44030.20
       10285.00       55557.72       53492.75      -48698.25      -176782.2
      -212498.0      -187585.3      -172571.4      -177364.2      -177637.1
      -162927.1      -150503.6      -147546.3      -137135.0      -130190.1
      -122389.9      -89770.17      -5498.375       88720.91       138191.1
       162533.6       211635.1       269349.8       279643.6       249971.4
       243218.4       259637.6       250565.1       196695.5       156092.1
       176008.7       237243.5       284336.1       283058.0       227159.3
       132162.8      -6918.500      -172278.2      -307851.8      -373764.4
      -394477.2      -388510.8      -349864.8      -295830.5      -236846.2
      -152795.8      -63928.55      -13029.30      -10194.20      -17432.22
      -27785.05      -27246.53       863.1875       42774.16       83472.06
       106511.2       86930.06       27459.94      -32007.23      -44213.72
      -37802.62      -34557.01      -7957.500       26459.00       24617.13
       3373.309      -11494.54       2909.031       55947.53       113358.7
       122448.1       87955.37       41474.01      -874.5938      -49349.52
      -81688.97      -65590.78       5836.875       98074.25       151473.5
       132740.6       67216.26      -7417.562      -72756.69      -113975.9
      -110452.2      -85609.62      -64439.44      -50597.55      -18488.73
       31844.31       87432.06       141533.9       162041.2       133430.8
       78269.83       5306.281      -56069.66      -86633.78      -101259.6
      -111660.9      -101067.4      -88396.12      -98404.94      -115923.4
      -121791.9      -137893.8      -173559.3      -200175.4      -179876.9
      -136276.6      -104760.0      -53247.34       61042.94       206268.8
       344758.6       441969.2       477387.0       466711.5       440555.6
       411119.2       380133.1       323422.9       226922.7       119310.7
       40558.21      -3249.344      -46910.44      -127979.9      -222642.0
      -322183.2      -410898.1      -443013.4      -414851.2      -369201.2
      -304835.6      -209586.7      -132696.4      -115737.3      -102815.1
      -63946.70      -32920.84      -38121.00      -57138.27      -54031.36
      -26147.96       20908.78       78200.12       111911.7       119268.0
       116447.6       121609.6       119229.5       81785.81       24298.44
      -8160.473       2135.430       33671.13       16566.30      -44552.56
      -83064.97      -97747.38      -118253.3      -117209.7      -67859.50
