     0.02500000      -706964.6       559809.6      -12345.00      -12345.00
      -29.99504       214.9799      -16.42000      -12345.00      -12345.00
       0.000000       12.19000      -12345.00      -12345.00      -12345.00
      -12345.00      -12345.00      -12345.00      -12345.00      -12345.00
      -12345.00      -12345.00      -12345.00      -12345.00      -12345.00
      -12345.00      -12345.00      -12345.00      -12345.00      -12345.00
      -12345.00      -31.90580      -68.77510       1333.000       0.000000
      -31.54000      -68.94500       0.000000       103500.0       0.000000
      -12345.00      -12345.00      -12345.00      -12345.00      -12345.00
      -12345.00      -12345.00      -12345.00      -12345.00      -12345.00
       43.64004       158.3914       338.3025      0.3923838      -12345.00
      -12345.00      0.1126078       0.000000       0.000000      -12345.00
      -12345.00      -12345.00      -12345.00      -12345.00      -12345.00
      -12345.00      -12345.00      -12345.00      -12345.00      -12345.00
      2008        49         8        51        20
       120         6    -12345    -12345      9800
    -12345    -12345    -12345    -12345    -12345
         1         7        13    -12345    -12345
    -12345    -12345    -12345    -12345    -12345
    -12345    -12345    -12345    -12345    -12345
    -12345    -12345    -12345    -12345    -12345
         1         1         1         1         1
CHIL    -12345          
        -12345  -12345  
-12345  -12345  -12345  
-12345  -12345  -12345  
-12345  -12345  -12345  
-12345  -12345  -12345  
-12345  -12345  BHZ     
ZL      -12345  -12345  
[...]
       578.1379       438.0129       559.7736       420.7681       543.9998
       406.4343       527.5745       387.8000       511.1060       372.1807
       495.3257       359.4126       486.0059       344.4823       465.3643
       326.7114       452.2765       313.0803       433.4347       290.9050
       413.7498       276.7739       401.4014       257.2968       380.0330
       240.4839       363.4929       222.5660       346.6545       204.7516
       326.0142       188.5680       303.9578       156.7982       279.1279
       136.2877       255.3778       115.1564       230.0407       82.37540
       198.8560       54.65189       169.1297       23.42462       135.3329
      -8.813110       107.2075      -40.26295       77.08524      -66.83073
       41.35378      -100.5914       17.51764      -128.8878      -8.182709
      -146.8956      -29.48697      -168.1527      -45.70694      -183.3475
      -60.56723      -200.7327      -76.30618      -209.9890      -84.48407
      -217.9824      -89.66223      -217.5017      -83.73932      -214.9756
      -81.00006      -207.3290      -73.63339      -201.3773      -66.36511
      -195.1037      -58.20532      -185.5440      -47.80942      -176.0918
      -35.93448      -165.0634      -25.37018      -150.7342      -14.08099
      -142.9262      -6.578522      -134.1685       3.238892      -125.4526
       8.847427      -117.0442       21.71431      -104.7501       33.04256
      -92.70713       45.95862      -74.91502       59.69431      -59.26126
       84.78486      -35.60318       98.53352      -20.69502       120.9949
     -0.3196106       132.3866       10.20627       147.0161       25.90775
       153.4736       25.19064       155.2385       31.27185       162.1144
       34.64038       161.5055       35.41586       157.5425       25.87109
       148.3102       14.21841       140.9254       11.87790       129.3885
      0.6639252       126.1670      -11.32872       108.4242      -19.56660
       104.3179      -29.71590       94.43034      -36.26109       89.22576
      -40.03983       80.21243      -47.70467       78.81431      -44.37469
       80.61032      -47.79359       80.04679      -38.86009       84.12874
      -37.93123       90.76176      -27.27524       99.75656      -20.86832
       105.3813      -10.43120       116.7973      0.5404053       123.7204
       8.464722       139.2275       22.35764       151.6829       40.01627
       167.5504       52.12552       177.0818       68.21140       200.8654
       83.81317       209.8245       99.16846       228.3625       123.6588
       246.6241       134.4639       256.8326       148.7973       277.8725
       175.3268       298.2063       191.8185       318.1786       205.4055
       325.0408       226.1780       346.0516       227.1860       348.3428
       244.8605       362.5217       253.8721       371.5242       262.3867
       381.7695       278.0739       392.6919       278.5791       395.0291
       291.0636       410.9106       306.2419       419.0172       319.3885
       434.0389       332.2795       454.4725       354.5945       468.3892
       366.0786       480.4202       382.1843       489.8650       386.9098
       503.0759       404.0928       511.9418       411.8669       519.4313
       419.6582       526.5667       427.3657       530.9105       431.6124
       531.1096       425.8108       533.5822       436.6748       529.3070
       428.5829       528.5920       429.4333       525.7096       421.5275
       514.0972       415.5760       508.6183       407.4849       500.3650
       400.6953       489.9443       389.8113       484.7271       388.9169
       480.0920       384.9233       476.4341       383.1467       473.2952
       375.0906       467.0361       381.9792       470.4304       373.5608
       466.4856       385.6111       472.2017       382.2605       474.9194
       398.7469       487.7747       400.6396       498.2245       425.2771
       511.3986       429.0125       522.4059       455.5276       540.2705
       450.8057       544.2224       485.4937       566.3248       479.7889
       577.3035       526.2029       603.9746       511.7791       607.9487
       562.9143       631.7654       535.0249       638.7136       606.0171
       659.9236       546.7917       661.8259       652.0698       685.2878
       546.1917       688.0801       704.3895       543.5730      -239.3711
      -2139.227      -8268.383      -23518.50      -55396.78      -110439.1
      -186914.5      -281630.0      -364034.4      -374456.9      -303980.4
      -149969.7       100662.7       256004.4       92956.67      -68840.88
       196124.1       559809.6       475921.0       142813.7       17241.17
       52270.40       40759.81      -46958.95      -73858.75      -7456.656
       57575.55       86681.91       29179.00       3041.742       34783.50
       13030.81       22294.03       100284.4       66627.53      -85888.73
      -99765.64       15185.77       45229.83      -55798.30      -59606.82
       56642.48       11605.84      -109465.4      -64269.20       17133.88
      -22765.80      -14507.31       49848.20       53452.81      -20913.19
      -45799.09       66289.22       110551.4       64063.91       20621.70
      -6301.031      -25690.64      -48360.84      -39087.41       12134.00
       66097.31       56143.39      -5121.391      -48236.80      -60131.66
      -81249.59      -97594.30      -71724.01       1222.645       7888.688
      -80303.00      -82442.80      -873.6641       8575.109      -42772.63
      -3685.938       99205.48       76234.20      -15452.44       15393.47
       87608.65       53831.09      -3369.508      -30225.20      -63555.75
      -52465.77       29240.05       65379.96       16071.00      -2569.434
      -10303.93      -42774.69      -1108.328       54255.53       19395.29
      -31282.16      -11698.49       23032.81       26398.09       56878.50
       34708.67      -84012.03      -110374.5      -43511.84      -22103.70
       1459.320       44363.52       19116.28      -2924.203       48456.19
       98560.94       72968.49       10802.17      -5422.121       12720.37
      -8197.188      -77366.42      -81902.05       1439.199       20086.03
      -51159.53      -91420.72      -73625.95      -58923.98      -38753.09
       17398.84       41675.83       22616.27       16383.38       44123.08
       64828.95       62327.38       64892.14       31820.66      -940.7031
       15768.93       6976.215      -27213.53      -3751.365       14090.70
      -29213.09      -13042.15       32497.29       2513.500      -51219.34
      -65133.61      -22774.69       31021.52       59373.70       43568.55
       14751.06      -12119.52      -25254.65       6045.770       32419.37
      -5694.500      -58142.26      -38349.30       7885.544       10543.78
      -7264.184      -7026.229      -9321.430       7427.797       51532.01
       50331.31       26954.65       8435.898      -109.9336      -3874.676
      -4504.922       31108.00       60101.96       31171.31      -1180.449
      -6618.336      -13048.41      -25278.58      -34022.66      -33157.62
      -70575.19      -91228.28      -44638.09      -41631.94      -79150.19
      -83446.22      -75983.25      -60384.31      -3791.875       45245.41
       55609.48       67731.31       107221.6       123698.5       80222.59
       20337.03      -27276.66      -55130.95      -66413.28      -66063.91
      -20323.72       55478.69       85882.36       59672.50       43036.74
       40799.68       11169.40      -27017.61      -18834.07      -1572.648
      -32212.99      -19417.88       20155.95      -25127.78      -96974.84
      -111492.6      -87377.17      -65705.25      -15562.47       53084.73
       81371.45       56775.43       21599.88       14072.92       29745.34
       67283.92       70273.08       22773.21       10393.02       19277.14
       27677.80       39018.31       51353.25       56626.63       14777.58
      -50513.78      -76833.17      -68388.52      -70600.88      -71279.72
      -53206.55      -44272.13      -44699.08      -35187.16      -22781.06
       8437.969       53329.89       37512.09      -166.3672      -17531.53
      -24275.72      -781.5693       8668.125      -14102.88      -25326.50
      -6604.109       26689.02       42679.44       18057.40      -3382.875
       35638.62       87625.78       82314.66       45188.39       60100.06
       78620.05       21287.35      -19702.91       19101.11       29538.29
      -16735.50      -43263.76      -38182.25      -37722.59      -81807.47
      -103092.1      -60665.52      -1961.172       69638.81       89369.44
       82911.69       104223.3       87752.92       37503.70       504.9453
      -14454.53      -25716.43      -20384.87       18634.30       6389.234
      -63822.17      -81476.19      -45344.70      -32774.23       668.3203
       45058.36       11236.38       2974.734       66447.22       103549.7
       77808.73      -21292.56      -120604.7      -168484.1      -151623.8
      -77893.84      -14668.82      -9773.828      -27813.85      -13416.90
       8981.570      -13336.66      -44276.61      -46514.62      -42065.02
      -13790.50       23564.50       47477.31       68842.34       73795.12
       76383.28       102722.9       130037.0       110646.6       25657.08
      -34183.27      -11078.71      -1909.246      -1232.477      -14288.55
      -63681.58      -63575.12      -31608.29      -4221.867      -310.4062
      -49825.45      -66428.62       478.1562       70372.48       54757.17
      -10584.29      -29303.62       3945.766       21636.27       23083.89
       24532.61       17498.49       18695.12       39194.45       47517.96
      -1784.477      -46200.17      -9491.617       7593.375      -46077.73
      -65309.61      -43733.75      -42751.03      -55178.20      -56799.80
      -31891.40      -5977.107       3771.178       3022.031       17222.62
       27559.25       4432.879      -1373.527       15215.55       6403.176
      -11390.69      -11848.00      -2767.070      -11356.23      -8792.289
       29073.12       61006.09       77060.16       42275.38      -24774.12
      -42253.68      -9395.582       20091.05      -5753.016      -48817.67
      -64199.53      -58829.85      -6451.406       39408.36       2899.547
       8725.969       61590.41       62043.41       45974.95       25447.66
      -9541.453      -39737.27      -73411.45      -84070.42      -37756.20
      -19869.32      -45267.87      -1469.125       67738.06       83844.80
       70868.61       49364.88       34896.83       24183.34       28030.69
       50658.65       43908.09       15438.62      -8102.469      -46245.75
      -84211.66      -57625.97      -25912.35      -38564.85      -34753.68
      -13938.91      -13393.58      -13777.34       4551.312       44016.11
       64854.14       8046.891      -68567.59      -95351.12      -83209.06
      -54187.31      -41533.42      -30468.51      -6011.891       32696.19
       69717.12       60760.95       35672.62       48068.36       66979.28
       62732.28       50856.05       8332.000      -47732.75      -48011.96
      -18126.52      -12836.91      -57973.12      -109474.4      -98488.22
      -30454.79       9352.242      -11833.73      -54366.02      -51820.05
       16460.69       77964.06       109629.1       119139.0       122371.3
       144042.6       136639.7       88191.98       63591.08       52263.92
      -43981.34      -118835.0      -15969.36       91889.50      -36185.31
      -237769.7      -240728.9      -168668.4      -180074.1      -179481.7
      -169495.9      -170261.3      -130339.6      -78517.11      -20186.79
       24867.71       22188.84      -53818.78      -166441.2      -182164.4
      -112284.9      -56840.97      -29711.50       18214.06       70740.28
       105664.7       110330.3       73794.03       84198.06       169294.9
       218769.2       184904.6       132460.1       137624.0       178341.1
       154360.1       26679.31      -48301.77      -50947.44      -77132.45
      -66585.83      -43040.12      -13323.61       15227.02      -4512.012
      -21074.17      -30.31250       142163.1       352216.8       433211.3
       335084.4       128670.6      -108692.6      -263452.0      -290752.1
      -313410.6      -312841.3      -179157.6       9070.125       184982.0
       339039.8       425599.2       392532.9       231555.6      -14641.00
      -283459.9      -451074.2      -445694.5      -273299.2       92728.88
       390600.9       337575.3       165435.0       144573.8       170990.5
       107367.8       13586.81      -49736.17      -77780.11       5657.750
       192092.0       332519.4       306193.4       191443.7       142621.4
       119561.2      -16548.88      -288015.9      -586054.4      -706964.6
      -472654.1       39862.00       426344.2       462730.7       309466.1
       133887.7      -50653.12      -234783.5      -327855.5      -338485.6
      -406022.5      -546391.6      -581575.9      -422250.0      -265913.9
      -243628.6      -262030.2      -222912.6      -135973.3      -21137.62
       149207.8       301335.5       325182.4       257149.1       192696.8
       149231.5       67046.62       1095.484       24967.34       65091.70
       33257.50      -53909.61      -85960.36      -16517.31       89864.44
       158510.4       131478.9       40984.36      -39544.94      -102661.2
      -129766.7      -90814.62      -85292.00      -130040.2      -88690.30
       39338.72       118510.5       128514.6       129261.5       129646.8
       146142.4       194847.6       255259.5       346818.4       444863.5
       510334.4       505566.4       365188.9       143595.4      -33667.62
      -121037.4      -150348.5      -144994.6      -95542.23       8224.438
       112728.5       145723.8       157855.5       178334.4       166039.5
       67943.09      -99809.38      -240403.8      -328545.4      -381596.8
      -370036.3      -303416.8      -219198.4      -123456.9      -44544.94
      -20097.19      -26595.66      -56581.97      -119324.5      -153954.4
      -119217.3      -62233.73      -39847.06      -56258.23      -58418.78
      -30995.67       30462.31       88670.41       85071.88       46460.55
      -5287.375      -82861.44      -176060.3      -219944.3      -164350.3
      -23821.62       161599.9       279718.6       280684.1       194850.5
       70532.29      -1345.180      -15936.69      -37425.41      -61802.77
      -45670.23      -9000.791      -14632.09      -2315.891       42059.50
       49587.39       57262.59       80278.83       85881.97       58991.03
       29963.57       37769.81       45787.12       34037.91       11483.62
      -2168.359      -29710.31      -65277.12      -72437.19      -100497.3
      -147230.1      -149391.7      -89370.12      -29236.26      -18945.61
      -31243.91      -62803.06      -73047.25      -48954.29      -25918.41
      -4501.148       22987.47       50793.46       32177.19      -18494.53
      -29718.50      -7887.679      -24.97461       1845.844       19398.62
       46303.09       96382.81       155689.5       181222.5       168621.9
       148100.7       137688.3       101976.0       17168.75      -68958.62
      -152903.7      -230511.4      -280732.0      -308112.0      -307607.6
      -292341.6      -262171.4      -211073.6      -155822.4      -70817.16
       43849.12       107266.8       113459.1       119956.6       126554.8
       129708.8       105719.5       57682.54       33943.66       48314.56
       119436.9       213056.6       293838.2       381302.0       404710.9
       358437.0       306780.1       232865.3       140490.1       65619.53
      -4165.844      -76942.72      -126988.6      -161295.7      -175003.9
      -130105.7      -33855.88       56378.25       107347.9       142578.4
       136113.1       77697.81       28918.52      -8214.016      -49455.44
      -107188.3      -168265.7      -212762.5      -283787.9      -367429.6
      -395770.5      -382983.4      -379846.5      -398546.1      -394915.6
      -297826.5      -153104.0      -53932.31       16406.94       99577.69
       175382.8       246039.4       315686.5       380702.1       438994.5
       476366.5       480772.2       418717.6       292198.7       160945.8
       68947.66      -33746.38      -159743.9      -237178.1      -274277.8
      -308107.1      -312239.1      -258063.4      -181023.5      -111896.6
      -48428.42       2200.859       37559.91       43009.10       10596.02
      -35925.22      -64597.19      -71383.56      -90687.06      -120146.8
      -103876.8      -30883.06       45716.19       113779.9       159106.7
       127517.8       82293.62       89287.72       87710.38       52327.95
       635.2812      -75089.97      -148662.6      -135486.4      -45547.84
       36826.42       76564.72       86268.48       87886.44       78759.41
       81962.12       134567.4       210480.6       251785.1       262797.1
       272980.7       271811.9       252043.1       192139.0       89958.70
      -12673.12      -111217.6      -187238.3      -204047.2      -196139.0
      -199132.4      -211542.8      -225390.8      -228153.1      -212608.9
      -193183.3      -181193.5      -170936.0      -165875.0      -144674.4
      -85480.48      -7249.938       79211.94       132852.8       134435.3
       127016.4       83250.41      -19364.72      -140952.4      -218677.8
      -205529.3      -130893.4      -37395.00       48138.88       114487.5
       155970.9       177746.8       184757.2       161000.7       131915.8
       126073.8       128970.9       129736.3       114649.0       91006.86
       74359.30       38149.87      -2239.715      -2991.859       20998.62
       36641.25       36842.35       21921.36      -20859.56      -63095.41
      -60686.86      -39039.73      -33268.44      -42645.91      -67989.12
      -93030.59      -104105.3      -118661.8      -129983.7      -124455.3
      -114803.7      -97477.55      -58774.57      -2956.156       45754.06
       81639.19       87862.11       48464.78       14364.61       17003.63
       29917.84       42437.52       52713.34       53965.88       55174.89
       45461.95       22793.61       19742.19       19816.42       2610.591
