     0.02500000      -1359058.       1244418.      -12345.00      -12345.00
      -29.99504       214.9799      -16.42000      -12345.00      -12345.00
       0.000000       12.19000      -12345.00      -12345.00      -12345.00
      -12345.00      -12345.00      -12345.00      -12345.00      -12345.00
      -12345.00      -12345.00      -12345.00      -12345.00      -12345.00
      -12345.00      -12345.00      -12345.00      -12345.00      -12345.00
      -12345.00      -31.90580      -68.77510       1333.000       0.000000
      -31.54000      -68.94500       0.000000       103500.0       0.000000
      -12345.00      -12345.00      -12345.00      -12345.00      -12345.00
      -12345.00      -12345.00      -12345.00      -12345.00      -12345.00
       43.64004       158.3914       338.3025      0.3923838      -12345.00
      -12345.00      0.2723548       90.00000       90.00000      -12345.00
      -12345.00      -12345.00      -12345.00      -12345.00      -12345.00
      -12345.00      -12345.00      -12345.00      -12345.00      -12345.00
      2008        49         8        51        20
       120         6    -12345    -12345      9800
    -12345    -12345    -12345    -12345    -12345
         1         7        13    -12345    -12345
    -12345    -12345    -12345    -12345    -12345
    -12345    -12345    -12345    -12345    -12345
    -12345    -12345    -12345    -12345    -12345
         1         1         1         1         1
CHIL    -12345          
        -12345  -12345  
-12345  -12345  -12345  
-12345  -12345  -12345  
-12345  -12345  -12345  
-12345  -12345  -12345  
-12345  -12345  BHE     
ZL      -12345  -12345  
[...]
       872.6619       461.0911       912.2736       540.5564       885.1274
       455.5706       825.0638       483.9053       904.5032       449.1125
       823.0852       415.1440       830.2202       432.8662       796.0414
       324.5240       730.8691       357.0660       747.9010       303.9672
       697.6774       211.2109       569.2653       130.5641       562.8259
       107.3787       507.4238       108.6683       457.6550       8.158264
       453.5368      -52.06494       355.9994      -21.35358       421.2340
      -17.32349       387.0648      -103.0306       319.3282      -131.7747
       225.6904      -224.6788       238.1138      -226.3225       207.4213
      -240.1123       147.9946      -344.6263       96.25781      -352.7028
       115.4142      -316.0721       113.6699      -378.5313       79.90887
      -340.4478       67.80090      -431.3092       58.74615      -412.6581
      -32.10889      -528.1839      -28.13538      -514.8812      -89.31189
      -508.3508       7.260742      -513.2371      -93.72314      -492.1284
       3.852417      -542.1838      -63.05298      -473.5618       27.36346
      -441.4523       20.53766      -455.1788       76.65704      -414.3014
      -7.355713      -536.2329      -57.60242      -559.9042      -27.61212
      -452.2304      -6.775391      -563.5959      -47.92017      -568.1094
      -96.12195      -535.1673      -1.089600      -504.4172      -41.97998
      -594.2549      -108.3693      -582.3952      -67.13257      -598.6232
      -43.02441      -534.9872      -115.0703      -645.1191      -62.20996
      -581.6384      -112.3210      -607.8046      -94.24280      -672.0723
      -141.6311      -679.1296      -202.3717      -656.3527      -123.9390
      -664.6136      -73.32410      -574.4403      -45.31396      -539.3768
      -21.44043      -582.0847      -20.25787      -514.5309       15.36163
      -511.7965       36.86316      -429.3311       133.9505      -446.5793
       150.4247      -337.7268       157.3488      -370.7375       187.1967
      -379.4941       228.4446      -288.1378       243.9777      -253.1091
       329.1634      -196.6962       343.6624      -212.0117       398.0756
      -97.44470       458.9298      -108.2234       473.4269      -41.31995
       528.5756      -8.815308       597.2031       9.778564       556.7836
       59.79456       661.6906       68.96948       656.8517       168.6711
       767.7897       186.4998       725.7135       120.4923       712.0045
       169.0011       775.9336       261.4490       856.3385       238.8914
       830.4240       334.2163       863.9922       252.2720       940.8342
       386.7144       956.9283       435.0383       1028.955       400.6665
       998.0549       448.5681       1036.734       409.0869       1001.920
       409.0679       977.4429       455.7366       1099.083       512.1565
       1118.436       485.9844       1099.623       546.0557       1128.471
       535.9390       1135.701       491.0134       1065.868       413.8940
       1049.818       518.0088       1118.644       492.5483       1117.302
       534.1489       1131.754       507.4971       1136.978       579.3933
       1196.361       519.6152       1170.199       603.8987       1248.610
       641.1440       1190.656       596.8384       1287.577       632.7180
       1222.891       604.3623       1245.467       640.1733       1244.001
       599.8828       1256.969       638.3726       1209.825       547.1362
       1167.139       543.0698       1208.848       540.2371       1136.626
       541.0959       1134.384       432.0312       1062.504       447.1677
       1107.034       454.3005       1065.474       427.6987       1013.204
       355.0564       1045.266       345.5938       934.4607       296.3284
       920.2537       301.2310       961.3201       274.0952       913.4170
       282.6184       938.1042       288.3557       909.0310       225.1848
       837.3676       182.3192       842.7472       171.5977       782.6993
       72.10864       654.1263      -35.48828       605.1264      -48.99463
       599.2077      -38.55969       681.0867      -41.80566       540.2194
      -71.91479       612.7717      -65.82275       557.1103      -109.2858
       498.4798      -203.0976       486.7089      -123.2968       500.9321
      -285.0342       344.1663      -260.1321       413.6517      -314.2572
       324.2815      -278.2027       375.9065      -379.2440       281.7824
      -352.9796       278.4756      -394.7768       289.9293      -363.5757
       279.2581      -465.9810       210.4622      -489.9247       131.3936
      -478.1798       152.2858      -568.4729       137.8948      -496.9196
       200.8348      -502.6088       181.5915      -466.4150       200.3254
      -401.0829       265.5559      -427.2783       308.1230      -369.0497
       355.4360      -335.4040       263.9139      -296.1572       560.7292
       134.2773       1602.125       2678.934       6860.684       12196.40
       21641.94       33936.22       46298.39       47637.90       40091.17
       12951.56      -35148.17      -62906.73      -29933.39       6108.789
      -2800.516      -27831.69      -50047.98      -75075.56      -39598.08
       38820.67       39162.12      -20708.67      -21120.60       330.1406
      -44214.92      -58189.35       25867.54       52800.43      -11242.97
      -75506.17      -95250.93      -55834.78       3395.871      -2880.273
      -22312.96      -3953.547      -16116.55      -28380.39       10614.56
       43775.33       59824.66       92669.56       113760.7       56215.54
      -24746.41      -33630.47       19010.03       53468.33       63215.04
       15646.36      -64976.58      -50475.49       27805.41       44869.81
       29649.53       39090.47       26504.55      -31860.24      -54430.85
      -11231.29       19541.73      -20071.67      -53294.73      -42282.07
      -32670.32      -32382.41      -18713.90      -14704.95      -21673.91
      -14651.57       17967.92       42534.41       38592.47       20408.56
       2560.543      -10617.00      -860.1562       27966.45       34084.84
      -3201.059      -20523.30      -4395.380       852.5107      -7517.295
       3891.076       6355.406      -34592.36      -72206.34      -52805.00
      -18368.77      -694.1641      -571.8906      -32498.27      -66362.84
      -38716.62       2299.604       522.9141      -15467.50      -8114.875
       17694.25       54948.38       90011.62       105824.6       73857.52
       27528.81       39622.06       79298.83       58835.70       3382.664
      -35032.39      -27203.54       463.7969      -5192.508      -36328.28
      -41465.78      -38274.55      -51493.38      -51279.37      -14719.23
       12875.20       6381.840      -74.63672       9384.393       6744.148
       15476.77       43538.40       51042.93       27532.33       6541.316
      -1537.641      -21276.52      -48957.54      -29353.29       2151.391
      -24282.75      -86878.81      -102665.1      -42465.66       36173.80
       49939.22       30778.64       43115.16       54286.59       37755.31
       38072.11       60266.77       79908.25       65257.68       17205.82
      -31006.54      -40617.57      -17601.47      -2303.484      -30536.67
      -67644.34      -77617.59      -76640.31      -94283.86      -97562.84
      -57284.32      -6554.156       21643.42       33102.12       42691.28
       56243.95       61107.95       64697.86       60587.41       56802.05
       47907.28       28203.38       13348.32       2620.898      -15665.14
      -29214.16      -56593.25      -81374.14      -69753.91      -36334.05
      -13830.54      -2613.039       18048.56       60209.81       105705.2
       107355.2       43958.79      -22570.80      -48858.84      -36889.94
      -33497.95      -60139.36      -85445.66      -62497.97      -10820.32
       13394.43       2697.452      -962.3594       18324.75       37784.89
       24243.77      -8109.820      -21311.36       5353.656       34050.86
       28334.93       5934.430      -5572.625      -26331.75      -38855.95
      -24730.37      -11931.85      -14327.68      -10919.83       7902.375
       28452.05       26781.98       25701.72       48270.88       61608.43
       34827.48       19357.75       34696.59       38483.61       9260.562
      -15328.93      -13335.28      -10994.20      -1801.500       30753.94
       15997.97      -42093.80      -61217.35      -30009.01      -9460.234
      -16608.55      -34298.21      -42768.45      -33739.34      -10865.04
       9555.676       10535.09       1047.172       10420.14       27694.95
       29968.68      -2416.844      -54785.38      -72243.77      -19722.55
       26874.34       17770.41       4421.449       8553.598      -4875.398
      -16785.05      -6161.535      -9081.516      -36313.39      -41335.84
      -18044.73      -17254.91      -52811.45      -46003.12       11433.99
       38215.40       20865.45       21835.36       45978.47       59635.41
       54441.17       58997.66       61041.95       19778.20      -44759.38
      -53772.27       8854.094       39512.43      -12222.94      -46055.16
      -31278.09      -16390.19      -9408.375       8540.102       21179.20
       23714.53       20780.52      -5711.734      -49126.48      -49325.00
      -20945.45      -25701.52      -27385.30       19723.98       44169.21
       10774.45      -36233.02      -45855.69       838.8125       45940.45
       22535.25      -36239.87      -50419.09       18220.53       85793.03
       81371.38       36782.09      -987.5234      -21234.21      -18942.76
      -1525.797       17590.55       6078.055      -23109.09      -23493.32
      -7732.447      -7993.656      -5946.828       21055.33       43406.16
       32710.93       31723.82       42474.38       8291.219      -58353.97
      -81284.91      -64573.80      -57969.87      -55683.20      -17474.54
       32874.00       60770.55       62917.06       36243.90       12021.31
       28839.39       53705.91       49058.75       16278.48      -21950.22
      -48466.44      -53561.53      -56538.83      -63143.70      -53272.66
      -18094.57       5749.033       1550.555       6733.656       29374.13
       28912.64       9981.711       14757.14       35587.64       22682.84
      -6157.021      -3075.447       9836.648      -7503.984      -38523.47
      -57461.59      -55702.55      -41630.72      -21123.24      -13967.35
      -14984.33       1713.125       28572.12       36095.16       24073.85
       9687.691       4514.395       7213.277       9948.881       5676.125
       11076.51       16583.35       2235.195      -14718.17      -18186.99
      -9702.891      -7871.789      -21144.38      -23290.71      -12177.19
       8211.312       24376.17       24810.33       30867.01       34869.29
       14223.46      -1330.867      -15797.45      -37640.19      -44303.88
      -56151.41      -89405.30      -93499.88      -43807.84       5718.531
       11304.33      -4730.726      -4381.051       16178.89       29336.50
       39038.77       53329.89       61982.98       58851.89       37546.26
       12911.26       20163.82       32324.05       13222.02       9970.539
       40020.16       38143.81      -4992.430      -37895.70      -36382.41
      -31233.91      -32049.52      -18932.32      -10078.33      -23793.39
      -24318.03       9449.797       40965.98       39616.05       4318.469
      -45604.88      -75240.49      -57914.29      -12142.61      -6560.754
      -26933.31      -9879.156       16934.11       17871.88       25639.00
       45205.62       41338.81       15122.75      -10907.03      -17752.20
       179.8594       19150.27       17947.97       8510.686       9010.247
       4887.348      -13505.98      -26219.74      -23075.25      -25127.83
      -34849.27      -32794.36      -18547.30      -5184.633       814.1953
       26009.12       75067.19       96179.58       64752.82       23110.54
       15111.23       34989.55       40693.14      -3674.742      -48273.16
      -33020.06      -7890.125      -23452.55      -44016.72      -29866.35
       152.6562       28244.39       51183.60       30778.86      -19638.97
      -26158.02      -11639.96      -13116.77       1418.965       18088.23
      -16445.47      -80328.44      -114799.9      -105789.4      -50836.73
       18974.52       57847.94       87232.00       136095.4       195428.2
       242079.1       268343.4       270973.9       231144.6       136892.8
       50683.78       49570.88       108913.5       190644.8       324240.0
       590924.5       989877.5       1244418.       1060825.       551376.2
       140584.8       37544.78       42809.62      -163834.8      -705990.0
      -1286799.      -1359058.      -805474.1      -283181.5      -424914.2
      -904975.5      -938286.1      -369948.6       210256.0       362693.1
       215927.5       56248.88       66529.50       323408.5       739822.5
       999236.0       783638.2       233582.2      -203256.8      -409578.2
      -677241.8      -1057320.      -1163672.      -881787.2      -548116.2
      -247878.5       232328.0       797489.5       1073910.       812929.9
       2787.000      -870733.5      -1068226.      -493515.4       159195.9
       211878.0      -322057.2      -827147.9      -749591.5      -128583.9
       443712.9       425486.8      -74368.00      -486914.0      -414629.2
       82092.88       595548.5       829226.8       808027.1       676339.0
       525748.4       403256.6       326217.4       254121.5       167012.1
       111113.9       57609.67      -47095.38      -167247.4      -281282.5
      -411083.4      -458958.4      -334133.3      -162354.6      -113100.8
      -164188.0      -193887.6      -166560.5      -64428.78       115298.8
       200675.8       67656.41      -126049.2      -140653.6       42079.62
       245803.4       348698.0       355080.7       279974.3       159662.8
       52266.42      -32552.75      -123480.8      -208446.8      -252717.3
      -236133.8      -162006.0      -41283.50       110478.6       253158.9
       324322.9       265450.6       72432.38      -155729.6      -318719.2
      -430363.1      -503029.6      -462886.6      -352048.5      -274540.8
      -141221.2       129639.1       374864.5       447802.6       387816.4
       320547.8       312958.4       339863.4       318740.2       192758.1
      -66.75000      -175448.5      -260080.2      -286519.1      -380776.9
      -520342.5      -546765.2      -395160.0      -165447.0      -3538.375
       58010.19       124948.8       225536.4       269588.1       245177.9
       233904.9       263877.8       282200.2       223316.5       89757.86
      -53108.81      -161763.4      -205605.5      -121962.2       45792.41
       128372.2       81786.53       34729.44      -13501.16      -122748.0
      -187608.1      -108081.6       59774.56       224541.5       312413.6
       274293.8       177028.8       149563.5       197108.8       239270.6
       206011.4       74735.72      -57446.31      -63406.31       23799.72
       76835.41       56717.05       26618.46       17433.80       22343.30
       44646.11       61979.68       9550.781      -99190.06      -175392.9
      -206199.3      -234266.9      -282985.7      -333468.6      -300900.8
      -155965.8       20543.94       150887.1       214414.7       170212.8
       78036.62       72424.94       139902.0       193964.9       217059.0
       206920.4       128388.1      -4339.750      -144289.2      -309909.5
      -461588.5      -497213.2      -420651.4      -319199.6      -203301.1
      -97555.69      -58337.41      -55237.62      -88405.38      -196378.9
      -291014.2      -281570.1      -213700.4      -147906.7      -29843.75
       161102.1       315932.8       368172.5       359006.9       333429.0
       292552.9       219798.5       137480.3       67470.88       5524.750
      -47041.06      -78837.75      -114881.1      -145789.4      -139390.0
      -122713.7      -78920.12       55290.00       204816.2       217662.6
       111439.5       46073.59       53780.52       61812.69       47431.53
       58802.25       147181.9       280788.2       378324.9       424417.8
       439892.5       414352.7       331075.0       204833.7       89150.89
       19412.50      -52024.38      -161817.8      -274733.5      -346168.0
      -405508.8      -479080.0      -521775.8      -514515.4      -495988.5
      -453657.6      -372848.8      -300703.6      -270986.6      -232556.3
      -108924.3       89691.88       234973.9       261803.4       254592.6
       253553.3       218744.7       171107.4       133890.0       91326.38
       26310.25      -41310.80      -62064.69      -25046.50       45264.73
       81463.52       25049.06      -69127.73      -96184.09      -12918.97
       115397.1       218448.0       286869.9       332009.2       327188.6
       264572.9       198441.5       180242.6       178534.0       139251.6
       61026.55      -31626.78      -91086.28      -94615.44      -93790.25
      -112556.2      -135415.8      -182254.1      -261117.9      -298034.8
      -251449.5      -175589.5      -133632.8      -112335.3      -52408.00
       42507.72       110533.7       140245.5       160697.8       175412.2
       147592.6       90098.88       57180.90       44535.70       1050.406
      -85166.53      -153511.2      -178792.0      -213935.2      -269817.5
      -318089.6      -319872.6      -263960.3      -192576.0      -138014.3
      -92538.16      -40996.75       27633.56       109385.4       175721.7
       196590.4       180197.7       144699.3       112955.0       106615.9
       122439.0       165335.8       248139.4       341265.1       403042.2
       406206.0       340708.6       234460.9       137843.2       48194.06
      -52105.56      -132410.4      -172456.9      -204426.0      -256346.3
      -291467.5      -262761.1      -199627.3      -133808.3      -84587.50
      -89120.25      -143065.2      -183041.9      -175894.6      -147644.8
      -126468.1      -119747.1      -98791.06      -24672.28       51179.41
       51772.03       27862.25       81329.44       203756.6       311299.0
       330079.9       266308.7       185937.1       138103.2       124377.8
