     0.02500000      -167161.3       145204.7      -12345.00      -12345.00
      -29.99501       226.1050      -27.02000      -12345.00      -12345.00
       0.000000       20.26000      -12345.00      -12345.00      -12345.00
      -12345.00      -12345.00      -12345.00      -12345.00      -12345.00
      -12345.00      -12345.00      -12345.00      -12345.00      -12345.00
      -12345.00      -12345.00      -12345.00      -12345.00      -12345.00
      -12345.00      -31.06740      -67.28460       921.0000       0.000000
      -31.54000      -68.94500       0.000000       103500.0       0.000000
      -12345.00      -12345.00      -12345.00      -12345.00      -12345.00
      -12345.00      -12345.00      -12345.00      -12345.00      -12345.00
       166.5276       72.09052       251.2320       1.497284      -12345.00
      -12345.00    -0.04291134       0.000000       0.000000      -12345.00
      -12345.00      -12345.00      -12345.00      -12345.00      -12345.00
      -12345.00      -12345.00      -12345.00      -12345.00      -12345.00
      2008        49         8        51        30
       720         6    -12345    -12345     10245
    -12345    -12345    -12345    -12345    -12345
         1         7        13    -12345    -12345
    -12345    -12345    -12345    -12345    -12345
    -12345    -12345    -12345    -12345    -12345
    -12345    -12345    -12345    -12345    -12345
         1         1         1         1         1
CHUC    -12345          
        -12345  -12345  
-12345  -12345  -12345  
-12345  -12345  -12345  
-12345  -12345  -12345  
-12345  -12345  -12345  
-12345  -12345  BHZ     
ZL      -12345  -12345  
[...]
      -106.6621      -89.76239      -120.8820      -60.40347      -42.16235
       461.2773       2578.676       8670.281       21180.31       42269.11
       64761.97       61211.24       26707.85       12135.23       12221.38
      -25244.88      -63519.45      -66852.02      -41346.70       23782.78
       93263.50       65349.91      -45423.16      -91911.09      -74781.09
      -34143.28       31624.34       26191.75       2334.625      -19934.55
      -65775.80      -8858.547       19809.36      -12835.40      -17804.20
      -33673.79      -14797.73       10625.73      -7206.756      -6931.266
       29743.60       13514.25      -43691.56      -23524.81       16055.19
       13267.31       45401.16       25259.83       4693.051       30291.38
      -7406.754       6969.434       31596.72      -12852.18      -26458.68
       14158.26       37538.71       15183.50       6335.180      -17530.39
      -11527.52       20151.52      -16798.22      -21380.04      -11756.95
      -30819.76      -11304.56       5104.227       25811.61       15996.56
      -21772.67      -24907.54      -36185.49       3251.516       39034.99
       15787.05      -6889.051      -4545.914       37457.40       23604.39
      -4715.238      -1188.898      -22256.20      -24326.80       8500.781
       58019.12       40732.81      -14615.60       14455.70       2329.734
      -69329.44      -31243.14       11366.13      -7166.145       5088.992
       8401.565       6272.312      -24895.86      -59246.80       35624.21
       51309.05      -48522.36       6184.297       60070.74      -23507.12
      -69829.88      -15557.47       46142.23       7953.531      -8591.914
       50372.77       7757.125      -58542.32      -38859.20       14035.15
       13366.84      -32891.71      -21243.51       25010.95       43678.65
       5031.281       11727.04       39173.88      -17263.12      -43353.16
      -5398.850       18051.84      -8670.875      -17479.84       16716.32
       14054.73       8301.844       19144.41       4084.996      -13875.09
      -18118.74      -21359.88      -5813.688       29101.62      -2396.313
      -14506.13       35476.72       7703.299      -11054.68       4111.512
       6234.502       4912.578      -36473.27      -36071.34       12937.63
       8846.607      -10386.48       12371.55       13289.93      -34369.41
      -39582.06       19030.29       31861.37      -618.6328       424.3242
       18904.73       1182.117      -38673.19      -13945.43       35062.98
       16144.90      -5930.250       12424.53       30579.12      -535.2617
      -30238.27       15673.61       18709.90      -17374.96      -1001.938
       8863.994      -14050.86      -13116.79       9821.338       8561.523
      -3507.704       3707.451       7314.609      -11159.57      -15920.60
       11477.05       15031.75      -26250.55      -25700.34       32250.26
       16902.03      -21657.30      -7275.989       1505.592       15120.49
      -10773.46      -29512.46       23883.66       29138.09      -20949.79
      -1947.138       13715.09      -22953.85      -3432.070       18507.84
       619.0391       9618.836       5961.064      -7948.371      -2819.710
      -4876.492       25554.40       19930.26      -34612.23      -14785.91
       11125.51      -6413.936       7464.860       3089.578      -12763.23
       14245.01      -18299.65      -40556.34       24956.98       6810.117
      -32427.15       11298.75       33888.58      -7737.684      -29514.49
       20088.38       21122.24      -26319.32      -6531.479       22444.49
      -5821.791      -2804.262       29824.84       2259.225      -7184.481
       7828.375      -11594.75      -9104.121       4586.699       10310.93
       15239.90      -8088.422      -13514.33       9042.723       9573.162
       9563.309       2293.086      -10732.57       415.2812      -23196.84
      -41405.56       15631.64       27261.15      -21394.06       2459.715
       29938.09      -11818.00      -20865.77       12050.10       18501.60
      -2594.620      -3626.477       17999.12       10135.93      -3367.309
      -7897.945      -18736.04       2669.234       8875.492      -25804.47
       844.0312       34442.82       2359.895      -17150.76      -484.2910
       9682.402      -22978.21      -18606.78       18578.22      -7158.465
      -5551.324       26008.80       3454.601      -5200.358      -31.02148
      -11763.79       4073.852      -1591.278      -4109.098       17310.90
       7062.800       668.0762       42.04688      -8709.605      -15768.98
      -5327.805       8144.333      -6469.129       7126.502       20267.72
      -12862.77      -14932.08       8436.531       9354.997      -1464.039
       4274.323       9632.188      -12706.98       273.7119       7292.881
      -13188.72       10852.15       6131.371      -22023.75      -3818.548
      -2267.309      -11150.54      -1386.115       6875.813       9606.055
      -14016.17      -16476.83       31331.72       13480.89      -38033.49
       43.75000       25511.18      -13510.49      -9889.098       25666.37
       12481.82       605.1523       10732.69      -12032.47      -12568.63
       2217.671      -8401.105       13723.31       13826.45      -29025.77
      -4593.629       23890.14      -612.3281      -16214.21      -2893.053
       3729.398      -9443.699       390.6367       17183.68       4159.852
      -11996.23      -3112.465       14241.70       10482.35      -2917.632
      -4637.498       7943.052       7679.383      -10379.72      -3058.627
      -1702.658      -17018.95       12709.84       24674.78      -12180.58
      -13189.95      -3014.880      -2470.565       404.7617      -14447.11
      -14020.78       13219.42       32452.46       4941.312      -16596.44
       85.25781      -12181.87      -11824.41       11922.68      -1079.331
      -5187.344       12518.05       20297.05       5724.145      -17489.81
      -15397.32       5776.958       5260.819      -12346.19       7366.161
       15192.80      -26688.32       1327.484       41400.03      -17661.65
      -35836.55       10018.87       1335.236      -18043.37       10191.87
       25098.17      -1234.418      -18191.40      -12078.38       13912.02
       14684.75      -28104.67      -28661.17       12979.97       27523.60
       13109.29      -7026.695      -15107.63      -1397.195       16318.45
       10509.18      -3294.264      -10680.51      -2963.746       8878.686
      -145.1357      -6123.590       11833.32       3890.969      -17118.18
       13076.94       16661.76      -13946.80      -389.5352       1222.961
      -7601.156       8041.566      -936.8750      -15698.21      -5021.221
      -5812.809       1177.426       20443.15       3720.512      -17860.00
      -7251.955      -236.9238      -7231.047      -12547.23       6054.996
       20517.42      -797.2832       2398.355       16025.47      -6317.555
      -25351.19      -9687.211       18369.09       3694.609      -12767.13
       9531.922       25747.84       2155.695      -24659.12       10640.19
       29233.90      -2672.621      -2327.465      -703.4023      -21634.01
      -16068.48       10308.05       7265.067      -4383.836       9756.780
       3327.223      -21094.31      -13741.32       2412.513       4512.674
       855.9004       8388.133       1527.625      -11217.96       4235.734
       10414.46      -6781.043      -18369.05       10397.12       18430.47
      -12590.47       12500.02       35347.97      -5802.182      -13121.89
       7271.006      -5129.294      -5464.114       1718.265       1679.274
      -6500.215       7066.199       26606.34      -12800.80      -31884.31
      -4487.438       104.2256       2757.656       7664.397       1255.119
       279.5312      -2844.317      -7038.668       3442.266       9773.330
      -191.6895       317.8896       6302.418      -625.5840      -5319.207
      -4706.752      -8635.901      -5502.703       21657.61       16869.15
      -10260.39      -3093.952      -5003.823      -4947.578       7311.601
      -2490.078      -6080.348      -7409.942       201.2188       11773.15
      -6378.506      -6483.170       3171.018      -8421.077      -151.2480
      -3756.039      -1280.152       20932.06       17537.17      -40.76562
      -14915.91      -2713.318       2141.480      -13460.99       11037.10
       24606.61      -10626.60      -9332.785       20958.55       2202.551
      -16645.88       3917.881       4673.094      -1687.589      -2515.348
      -6953.654       4174.059      -2640.957      -5785.632       12117.90
      -5182.951      -16187.99       6859.765      -690.2070      -9910.635
       1720.286       1882.434       6030.666       5863.065      -8609.111
       4830.521       13730.97       2669.041      -1740.712      -4587.154
       10055.29      -3318.547      -30826.82       1726.870       10890.93
      -12561.22       10777.13       20250.26      -3340.768       994.1006
       8819.148      -8348.789      -12828.20      -6655.447       3827.964
       11768.87      -15496.59       1072.070       34084.32       9247.877
      -2367.594      -7368.183      -12415.12       10737.73       6674.807
      -5184.817       1226.391      -7383.154      -10602.85      -375.8389
      -2530.430      -5671.969      -5970.546      -9517.139       3571.828
       15948.24       13297.48      -5385.359      -23815.36      -7648.637
       9950.547       13200.78       21782.00       18278.53      -5998.820
      -19213.93      -237.6406       5192.904      -14896.44      -7213.915
      -1590.770       6980.801       22485.60      -1504.858      -12570.28
       16092.21       11167.86      -22148.88      -7764.883       17433.94
      -4197.277      -20397.12       2308.203       18595.85      -2869.402
      -3827.016       19619.10      -2038.570      -22698.20      -7332.449
      -20337.85      -23425.67       12487.33       17116.89       9634.727
       15026.94       7033.613      -9677.229      -4122.357       3879.438
      -19130.65      -7467.521       8778.493       2288.402       2571.107
      -5602.685      -2932.576      -6909.465      -14132.19       1024.883
       9334.172       11889.65       4571.138      -6242.309       6619.215
       6140.680      -5052.406       5992.762       8874.555       9441.598
       3878.093      -12503.53       10839.20       21480.77      -18797.66
      -1037.285       24391.06      -19369.86      -23670.29       10278.73
      -4729.887      -20364.39       15667.21       24261.32      -1388.357
       8821.800       6205.711      -23319.32      -22191.72      -6754.582
       14036.79       20332.11      -15149.45      -11714.98       9059.620
       3689.320      -12087.24      -16499.43       14701.73       12208.89
      -24453.66      -12463.92       17177.41      -3668.404      -15964.79
       12546.17       11855.85      -18735.95      -10540.57       29908.42
       24118.21      -9955.320      -16000.68      -7843.851       856.8770
      -2197.340      -12134.21       3688.953       5736.307       915.8984
       11579.86      -8873.364      -5318.756       18345.91      -2240.035
      -16402.77      -4003.797       17071.52       12510.27       3730.367
       13533.64       8725.680       3840.395       11965.17       11905.71
      -9249.883      -24708.99      -18820.98      -9110.506       8055.557
       14371.34      -5943.908      -11385.19       5230.911       1714.042
      -2896.629      -7981.836      -17111.81      -3076.031       7321.690
       6279.126       1107.988       7674.436       16876.39      -4084.816
       12606.41       40119.24       17051.41       11170.29       10580.50
      -3191.027       9532.861       10672.99      -21747.55      -25421.97
       19285.08       17276.54      -17195.59      -12220.22      -6616.797
      -12661.38      -28240.17      -16428.84       19758.32      -1569.621
      -26863.63       9776.414       38021.95       4478.160      -21620.30
      -6684.371      -4713.578      -18738.12       2747.242       24262.28
       1036.832       1000.928       16804.91      -4312.871      -23449.35
      -3920.686       5887.438      -40485.16      -53960.01      -9806.260
       10450.34      -18639.61      -37322.57      -9689.023      -26511.69
      -52958.12       2463.748       14616.06      -20440.59       27926.02
       74707.27       20673.79      -556.5312       57444.83       63550.12
       30136.59       48995.96       60107.73      -12769.71      -17465.08
       66799.88       38485.56       15018.45       75538.84       48568.52
      -40607.12      -107015.0      -133165.3      -111081.9      -105437.0
      -96100.39      -12096.53       32354.31      -26441.03      -78878.41
      -135753.6      -167161.3      -69269.16       19275.92       10266.72
       54123.77       94237.00       34690.97       19002.06       57886.58
       67523.66       23273.31      -28783.20       30185.02       50255.90
       15118.41       69754.84       44757.91      -17549.85      -10926.47
      -26664.88      -37334.49      -9308.828       65328.12       130775.1
       102904.5       40764.11      -37106.75      -115015.0      -50743.95
       48517.02       43513.11      -3973.867      -24260.37       16368.08
       38831.30       31015.75       79109.25       145204.7       97148.34
       13613.25       18730.67      -23017.84      -143486.8      -151878.8
      -1229.203       51147.30       23911.56       123700.8       121089.0
      -25305.00      -73027.31      -100484.7      -122896.0      -72393.23
      -38942.86      -28863.47      -65100.28      -107228.8      -65485.02
      -2792.812       33204.86       69953.84       75722.20       1566.676
      -26829.89       6286.469      -41445.78      -87182.84      -4835.281
       92240.69       85750.61       46348.33       33449.54       566.4062
      -71489.59      -53703.28       39462.63       7779.008      -21277.92
       39224.41       35395.49       10932.77       30152.80      -6677.113
      -31022.68       23165.41       14790.82       4025.688       48089.06
       51176.98       44542.11       25120.30      -61472.30      -67149.96
      -22962.72      -77770.95      -28989.83       82800.23       23309.83
      -41737.39       26775.74       4427.938      -77271.19       413.0312
       47646.36       4434.293       15262.83       20618.55      -48987.19
      -82984.66      -21067.12      -22216.44       9875.172       86166.02
       25911.41      -2481.258       23038.42      -10009.74      -10541.82
      -2169.980      -11793.20       19512.91       15659.96       11069.27
       35185.00      -24656.55      -62512.14      -30594.41      -61499.97
      -121878.0      -48444.62       60075.51       23163.57      -27376.09
      -9202.504      -2441.234      -40982.88      -53030.09      -19637.40
       18350.30       60287.42       61395.59       79509.88       88305.85
       40999.74       24468.95       31681.22       61789.58       55614.12
       2287.984       16451.97       53213.15      -419.2109      -62130.96
       2340.531       9180.922      -52126.49       26759.02       67939.70
      -18517.32      -33640.68       18840.41      -3857.906      -62584.41
      -38778.36       23487.07       4661.312      -39158.72      -21387.98
      -29260.45      -50589.12      -23502.99      -11447.43      -24901.06
      -25129.86      -33250.20      -42779.30      -17129.09      -12531.04
      -35958.54       4874.039       41050.62      -2531.074      -16574.78
       4848.174       5083.539       21181.56       57367.11       65297.52
       43715.75       77226.30       84635.09      -15013.82      -29748.48
       30990.93       20016.44       27556.97       61375.82       7677.820
      -50759.44      -21807.32      -8488.234      -45568.60      -50970.80
      -12115.45       25954.98       25502.32      -3991.359      -6213.141
      -19898.83      -59792.14      -59204.28      -25957.12      -13648.21
      -21861.44      -8408.309      -13919.76      -21292.93      -653.1953
      -12883.42      -26377.52       7138.301       4702.719      -38795.02
      -19856.95      -4067.922      -4852.094       29583.93       19514.13
       11651.48       17626.77      -29259.41      -32563.49      -5675.912
      -5091.625       27917.08       45522.17       17553.32       15382.23
       10373.45      -15909.16      -474.1523       21434.95       1595.664
       18557.14       70559.80       51641.79       11544.70       17129.56
      -766.9805      -23113.90      -6645.225       8486.580       9060.223
      -464.3125      -8650.004      -9132.191      -6358.848      -14647.31
      -11697.70       26546.76       10308.13      -10773.10       38047.32
       5527.406      -46039.66       15828.02       22962.75      -39610.55
       4660.984       57862.83       9032.328      -17042.44       3050.453
      -3704.578      -23215.82      -4657.957       24089.17      -3066.758
      -33855.84      -871.1602       18547.41      -14318.96      -7814.812
       18506.93      -4177.672      -25398.73       1621.133       5626.816
      -32629.00      -5209.133       34277.40      -8289.215      -26978.00
       4824.391      -9861.895      -2526.617       49640.73       22370.17
      -24442.98      -10965.46      -9671.016      -24346.65      -19135.00
      -7547.839       2473.873       3907.811       468.8027       386.3359
      -15290.19      -25292.48       10391.07       24835.88      -7118.320
       3232.754       20667.08       4199.703       18182.71       30387.37
      -2968.227      -25205.99       3352.438       33293.51       9692.066
      -527.3281       37572.16       15073.95      -23012.73       18229.34
       34843.46       150.0806      -3900.522       9277.098      -10757.72
      -23521.36       17028.93       31691.82      -16744.85      -33400.34
       9458.055       18012.21      -719.1719       44141.02       60965.73
      -6831.297      -27618.42      -2168.875      -13718.44      -18668.08
      -10332.78      -1591.414       29221.05       12028.08      -23286.15
       12280.17       11586.51      -33126.32      -22107.41       7630.229
       12218.55      -22972.63      -25197.81       14935.04       22808.60
