     0.02500000      -442520.9       530842.9      -12345.00      -12345.00
      -29.99501       226.1050      -27.02000      -12345.00      -12345.00
       0.000000       20.26000      -12345.00      -12345.00      -12345.00
      -12345.00      -12345.00      -12345.00      -12345.00      -12345.00
      -12345.00      -12345.00      -12345.00      -12345.00      -12345.00
      -12345.00      -12345.00      -12345.00      -12345.00      -12345.00
      -12345.00      -31.06740      -67.28460       921.0000       0.000000
      -31.54000      -68.94500       0.000000       103500.0       0.000000
      -12345.00      -12345.00      -12345.00      -12345.00      -12345.00
      -12345.00      -12345.00      -12345.00      -12345.00      -12345.00
       166.5276       72.09052       251.2320       1.497284      -12345.00
      -12345.00     -0.1810625       0.000000       90.00000      -12345.00
      -12345.00      -12345.00      -12345.00      -12345.00      -12345.00
      -12345.00      -12345.00      -12345.00      -12345.00      -12345.00
      2008        49         8        51        30
       720         6    -12345    -12345     10245
    -12345    -12345    -12345    -12345    -12345
         1         7        13    -12345    -12345
    -12345    -12345    -12345    -12345    -12345
    -12345    -12345    -12345    -12345    -12345
    -12345    -12345    -12345    -12345    -12345
         1         1         1         1         1
CHUC    -12345          
        -12345  -12345  
-12345  -12345  -12345  
-12345  -12345  -12345  
-12345  -12345  -12345  
-12345  -12345  -12345  
-12345  -12345  BHN     
ZL      -12345  -12345  
[...]
       217.8790      -76.29514       210.4894      -85.24506       186.5631
      -105.6987       174.6025      -112.9399       143.4343      -133.0800
       147.4981      -160.8726       120.7868      -150.5144       114.9892
      -96.16406       637.2578       1684.098       5193.934       11220.14
       19410.61       22312.75       18742.97       14840.92       7962.359
      -17023.55      -39892.28      -36284.18      -17991.69       12233.09
       54866.79       54777.22      -3314.031      -49408.95      -50337.30
      -29259.01       9865.609       30733.27       17811.69      -15095.28
      -42353.59      -13150.94       17178.34       17262.35       32952.88
      -1217.453      -40178.36      -1093.132       775.7559      -12852.85
       14691.24       9736.053       3403.671      -885.7812      -11729.38
      -17168.05      -11453.69       7372.047       25000.77       23386.36
      -10922.63      -22581.10      -9497.549      -11555.21       5053.586
       8116.672       22167.57       29254.50      -14203.48       10091.89
       15349.34      -37427.39      -16430.07      -4330.206      -8339.259
       9056.666       6194.555      -14807.75      -13587.18       27778.38
       24808.23       2421.629      -255.1641      -29604.09      -1450.398
       30972.97      -4667.250      -17796.36       13540.88       20203.24
       6018.273       26540.09      -10614.57      -44653.40       2516.571
       2515.646       2170.594       17165.13       14368.84       489.9062
      -25784.27      -32090.87      -16920.36       6386.875       9469.488
      -11482.66      -4747.715       1274.742      -20853.35       26379.41
       44781.70      -36635.87       6830.141       42910.23      -50548.45
      -39670.62       12223.40       22489.30       36028.54       11953.82
       14258.70      -11469.96      -41401.54       6989.264      -7068.844
      -24384.23      -18945.93      -24636.03       37160.88       27148.51
      -5207.871       27320.83       7049.859      -19624.20      -5078.635
      -3357.299      -4977.170       4849.674      -1347.609       14946.68
       20933.64      -15195.60       7665.633       15707.11      -23586.37
      -22439.05      -4281.496       12970.11       18774.66      -4690.902
      -21073.33      -9582.844       15948.78       20383.33      -2909.562
       9451.031       26899.66      -52267.42      -49862.55       40798.92
      -7102.252      -19036.60       26875.30      -24418.55       1079.477
       31509.15      -5220.076       11933.42      -2907.191      -16465.79
       14454.46       5909.074      -23482.86      -11253.91       26174.34
       7800.406      -21166.21      -4437.816       7231.015      -2306.945
      -3676.250       4568.126       3990.037      -12915.17      -8954.129
       12060.24       10175.39      -3206.083       601.7695       17200.44
       13654.36      -1705.351      -1219.131      -10031.25      -3526.399
       1754.273       9179.949       15291.59      -10176.66      -3568.927
       3198.330      -2896.225      -3289.854      -17722.54       8156.028
       9341.508      -20025.94       11361.88       10486.38      -12723.68
       2348.219      -4687.992      -5365.709       3943.495       3851.057
       1280.238      -11636.27      -16513.17       9716.699       5756.422
      -15794.02       6359.272       5975.035      -4088.176       23473.84
       2200.844      -41191.77      -137.4922       27032.32      -888.2900
       4879.055      -9459.160      -28742.62       269.4746       11574.07
      -5783.906       3370.389       10322.35      -1918.141       12879.84
       29710.28      -11896.84      -33987.27       13500.28       19507.77
      -14959.19       8149.975       21348.07      -16952.44      -4469.840
       13254.16      -16531.51      -14144.50       5684.996       18673.20
       4836.667      -11357.00       15738.01       2751.551      -24717.45
       13858.20       25798.27      -13878.50      -31461.45      -12771.56
      -2586.590       4593.750       27165.93       8279.205      -16730.25
       5801.006       6899.111      -6482.581      -7000.480       6682.740
       6448.196      -15845.20       11722.00       10369.86      -35605.70
      -790.7227       17007.59      -23442.89       1757.641       15236.64
      -21794.29       6757.104       14651.71      -9052.121       15620.61
       18238.00      -3628.633      -18539.11      -10833.20       12362.38
       3045.371       6758.545       14942.31       2664.721       2060.559
      -9228.609      -10357.65       3893.679      -2173.949      -5042.992
       4473.637       15359.05       2262.781      -21604.88      -8406.355
       9008.564      -5040.982       709.4316       9060.288      -2526.824
      -14056.34      -2509.564       20187.41      -11019.93      -23855.28
       15807.29       18674.51      -2235.824      -15999.45      -3180.127
      -1760.869      -9278.783       13736.26       5844.611      -4461.637
       15217.31      -1210.262      -27592.85      -1389.836       31524.35
      -1122.248      -23163.72       26916.75       20164.30      -35258.73
      -9168.947       12570.54      -18409.38      -9353.574       28939.57
       8380.713      -20037.88       8957.406       9664.723      -20954.92
      -4629.254       13376.10       4151.410      -4902.729      -10801.23
       1535.773       12882.73       7758.171       9183.770      -9470.297
      -14401.56       632.5381      -4623.332       9118.939       10396.51
       345.1738       14332.74      -12259.20      -14560.18       25534.75
       8531.982      -7763.607      -2153.657      -9494.522       3613.617
      -1050.898      -20274.70      -6628.569       1341.914      -7979.848
       3600.888       2413.467      -11189.36       3408.738      -1850.028
      -6147.977       17273.00      -1391.338      -5460.023       19892.48
       2306.320      -11849.82      -4694.617      -1937.475       6955.463
       12118.84       7658.340      -12584.07      -16191.33       2964.154
       6953.974       2864.097      -4831.844       6930.379       26592.48
      -1023.398      -30496.01      -8369.689       18471.51       3370.495
      -7937.656       12908.46       9353.484      -22695.91       10512.97
       43295.97      -9510.914      -27830.57       3089.418      -12206.77
      -22109.74       14578.38       27422.02      -9098.656      -21759.43
       11519.90       13273.57      -2077.300       2200.057      -9681.309
      -13949.69       4274.020       13820.72       3193.596      -3377.820
      -6801.136      -12007.99       8141.885       11948.02      -13357.65
      -8470.289      -910.2441      -9944.266      -1358.406       22835.94
      -1580.889      -20205.02       13812.41       10261.13      -4610.241
      -4041.223      -1185.301       20183.51       21514.96      -7651.859
      -21473.85      -7434.504       4072.849       2674.330       3698.628
       12506.54      -11822.43      -27389.26       21587.45       23078.33
      -25930.66      -19194.54       5297.457       8609.625      -5047.227
       4725.785       29987.17      -7264.301      -27234.92       14224.30
       2820.572      -16281.68       25764.22       21693.96      -28437.74
      -21454.28       15658.59       11862.22      -9775.418       9141.240
       17042.47      -19329.60      -22966.98       13323.30       11916.88
      -7794.652       6970.785       9371.281      -15303.31      -11578.00
       4149.102       5542.087       4527.289      -3461.660      -7666.581
      -2244.528       2280.140       1538.336      -14166.15      -7804.596
       16535.77       5622.682      -9948.421       713.8652       7128.000
      -7166.735      -11755.14       13706.65       6231.363      -18449.73
       12346.71       6783.641      -24898.86       6821.457       22984.40
       5109.333       752.8184       5508.818      -1935.351      -3449.682
       4181.965       7140.166       3839.384      -5595.652       11765.47
       3852.082      -24446.15       8685.332       8092.375      -24162.20
       2925.174       13655.48      -6702.222       2523.997       1226.119
      -17343.85       4482.496       15917.04      -19159.20      -11535.25
       7154.619      -9684.610       2350.148       11075.86      -5550.973
      -9750.823      -9382.051       3027.949       16322.08       8521.934
      -8037.904      -1974.659       8467.449      -13961.20      -7459.719
       32077.21       10422.52      -15953.66       8987.336       6940.512
      -13384.22      -7883.846       4398.086       8453.484       1317.503
       2887.019       1714.734      -13462.10      -13993.06      -3134.953
       11859.05       14738.11      -5422.865      -3224.027       15666.62
      -893.7402      -14987.93       22048.56       17832.09      -35028.36
      -6702.926       26766.62      -12921.35      -10405.55       18865.01
      -2218.562      -19177.87      -4222.889       2877.040       515.5488
       2013.533       12706.51       180.4297      -12792.22       11252.02
       4444.107      -5761.053       8947.555      -4661.846      -12221.40
       2048.881       1429.941       6518.301       8014.953      -6021.723
       15504.18      -274.3477      -38034.45       18700.88       20412.60
      -38542.06      -3982.312       19342.56      -6567.510      -10108.76
       4960.300       8010.134      -10264.25       4797.133       23968.46
      -5989.259      -644.1875       15264.12      -23398.16      -22799.18
       19545.37       21196.88       13903.00       27022.30       752.5781
      -41272.19      -14217.44       9066.910      -20258.54       1.996094
       19806.51      -11599.38       8193.895       14192.18      -24615.56
      -11694.27       16422.24       21485.81       6.851562       827.3652
       19401.97      -14514.00      -22264.03      -4014.934       1197.836
       19883.42       13082.00      -6475.018       3013.570       18066.42
      -327.2305      -22288.17      -4650.053       8429.048       22.50000
       8564.148       17607.88       3593.539      -13854.39      -9398.264
      -692.9727      -7726.371       6021.199       8558.129      -7217.785
      -2374.852      -15430.08      -18079.24       3454.070       18717.81
       7215.781      -13234.74       6565.266      -701.7852      -25903.89
       4568.379       25101.33       2193.545      -10568.34       911.0840
       9220.727       142.9651      -1402.376       2540.605      -5616.438
       8451.832       20697.73      -2009.641      -16271.32      -13001.85
      -5829.840      -1352.348       18422.74       25991.22      -3700.875
       10539.62       15762.77      -27341.50      -14650.36       18899.92
       8866.865      -410.7285      -5422.564      -12975.13      -1611.273
       11223.15       11380.19       3130.539      -9266.367      -19956.17
      -17774.74       2406.006       8276.525      -7793.715      -2822.176
       18514.52       4301.801      -20368.57      -4575.270       21003.54
       16419.80      -6122.430      -5069.266       17539.34       852.6719
      -22068.77      -7436.285       5833.896       3776.412      -242.0078
      -1110.395      -15788.94      -5371.311       13484.45      -16736.60
      -10779.56       25776.16       22283.26       4768.268      -7440.963
      -9831.570      -6593.409      -7106.641       8899.188       33690.77
       16297.05      -18609.59      -7655.710       7507.371      -17802.82
      -10155.36       12226.71      -15120.90       659.2070       28545.01
      -12008.08      -12593.13       31096.03       5614.938      -21964.82
       8293.058       5808.842      -3269.148       26262.96       2877.594
      -10436.29       42435.02       28875.03      -20530.39      -20636.44
      -4318.812       17720.83       15456.02      -3221.793      -14867.96
      -12462.59       12346.67       9465.545       2236.234       13405.41
      -10526.78      -22380.93       2599.283       2392.395      -11212.34
       10358.92       22687.02       7991.785       5614.922       13496.05
       23963.07      -870.3047      -36188.36      -24299.96       3015.594
       17445.76       18636.49       15669.44      -797.3906      -21897.24
      -31176.20      -22939.98      -13282.33      -27288.06      -24326.75
      -1657.980      -15000.18      -11017.94       7618.359      -24340.32
      -33182.54      -6960.781      -38877.19      -89523.62      -76830.47
      -76531.41      -127963.0      -136117.7      -122671.9      -167637.6
      -255073.1      -295705.2      -265202.0      -244630.9      -188820.7
      -91048.28      -123336.0      -151436.7      -20416.91       80508.12
       170716.4       387090.2       530842.9       482520.4       428860.9
       400780.5       294852.1       213371.0       254314.9       291173.2
       224412.3       138785.2       54132.41      -58227.50      -118742.9
      -115466.2      -206663.2      -325010.3      -222025.6      -87807.91
      -137038.5      -92255.16       83707.60       25300.84      -177679.5
      -157243.9      -6558.082       21037.34      -4158.812       77497.07
       44086.69      -137137.7      -15011.88       219267.7       158413.2
       119499.0       113003.6      -158118.2      -442520.9      -364685.9
      -92174.28      -44702.16       798.6250       270415.6       226997.2
      -63249.72      -69133.22      -44589.64      -67082.22       37162.90
       55143.08      -10580.84      -85552.31      -79795.78       131990.8
       230059.9       109940.0       110035.6       104163.4      -26553.88
       39949.25       232969.9       201783.5       60163.45       58065.08
       67759.78      -61503.09      -147754.3      -35758.50       53504.38
      -50852.44      -175857.1      -236881.6      -209228.2      -153162.6
      -142785.2      -25100.22       11086.64      -102810.7       13792.14
       124648.7      -41898.59      -142158.0      -60492.88       89718.38
       139648.0       66913.62       172579.8       293939.4       102860.5
      -70587.50      -19564.25      -31345.27      -71820.65      -30855.01
      -32193.43      -16388.05       25166.04      -19316.97      -54718.58
      -42723.84      -53093.69      -58626.03      -10716.97       56724.94
      -11617.95      -105931.4      -16499.91       12251.65      -60484.19
      -2275.578       69022.61       59932.13       14765.17      -17593.80
      -23445.45      -55961.66       10778.34       118951.4       69963.46
      -36467.19      -73078.91      -94228.17      -108096.6      -12325.66
       103176.7       77487.41       42153.83       67307.40       25078.46
      -7682.203       40036.80       39328.56       39995.95       78060.07
       13572.90      -42120.56       32976.16       54625.22       9568.969
       36294.40       54232.35       22809.83       16502.53       33002.55
       19424.69      -37993.38      -81195.48      -75223.81      -63727.58
      -75897.37      -23056.54       32657.76      -34347.85      -27354.44
       58165.44      -8455.688      -80443.91      -55703.95      -38506.46
      -11419.67       6213.492      -3092.492       36246.36       52997.63
      -29298.76      -18267.97       96127.86       96692.00       27209.49
       4078.281       14476.39      -2704.641      -32986.74      -3449.691
       8272.559       2797.785       31231.37      -30699.90      -43565.12
       41105.98      -10937.67      -75607.28       3095.047       51398.33
       12191.25       27923.40       41637.00      -29014.50      -57371.84
      -38340.78      -8720.039       46026.92       39435.41      -14018.16
      -9084.766       14773.34       3660.045      -2774.320      -12216.26
      -40262.62      -14344.60       26087.57      -28230.93      -47814.87
       37690.20      -9746.188      -85072.41       32887.99       55141.05
      -41472.84       9540.230       39599.75      -46591.34      -24807.66
       53836.76      -7090.082      -36463.48       63444.47       47847.69
      -59080.79      -48607.27      -20033.29      -26928.04       6981.789
      -12863.70      -45487.51       10895.79       16223.45      -14052.73
       23062.19       48256.10       14842.11       8829.812       57985.74
       28232.58      -2402.906       58544.42       29780.00      -17305.59
       6954.016      -18175.73      -28322.40       15747.10       4950.836
      -26326.58      -29239.28      -65435.63      -59460.30       22495.51
       39242.39       6670.578       1800.164       8889.078      -18035.62
      -48732.39       4041.000       56089.35       16635.68       6571.664
       44495.44       10203.65      -22074.85      -15881.29      -1285.787
       15281.67      -57967.22      -99839.19      -30998.06       15026.23
      -631.4219      -18235.13      -4812.531      -5865.062      -36658.20
      -3339.398       26799.54      -18771.85      -8166.391       23972.22
      -1694.812      -30170.41      -36254.02      -24161.06       28466.84
       75257.44       21055.02      -39203.91      -9658.969       42873.73
       63589.55       46019.70       10435.05      -13089.86      -50.03516
       7760.324      -25056.99      -6013.174       25086.94      -27212.33
      -60507.94      -44800.03      -44622.79       7671.250       87630.53
       69138.85       16171.46       1580.094      -23649.29      -29475.39
      -2467.264       4429.547       23299.88       51125.44       37180.30
       13049.34       7795.047      -3416.566      -16582.72       11725.64
       13483.24      -22971.35      -1212.195       6053.672      -32355.45
      -23241.21      -14020.02      -16179.27      -1990.062      -25838.55
      -24953.65       24187.21       13127.84      -13156.22       13492.28
       22533.31      -26321.73      -46223.46       21908.61       59686.73
       12660.42      -9781.891       42369.92       85922.46       31511.55
      -27924.51       332.2148       24908.79      -3208.367      -17027.95
       2384.391      -4565.047      -53516.50      -22340.16       81868.36
       52293.92      -30174.88       12772.52       19790.11      -37886.23
      -4742.938       36497.77      -30463.11      -75683.14      -23893.70
