     0.02500000      -305491.6       324671.0      -12345.00      -12345.00
      -29.99501       226.1050      -27.02000      -12345.00      -12345.00
       0.000000       20.26000      -12345.00      -12345.00      -12345.00
      -12345.00      -12345.00      -12345.00      -12345.00      -12345.00
      -12345.00      -12345.00      -12345.00      -12345.00      -12345.00
      -12345.00      -12345.00      -12345.00      -12345.00      -12345.00
      -12345.00      -31.06740      -67.28460       921.0000       0.000000
      -31.54000      -68.94500       0.000000       103500.0       0.000000
      -12345.00      -12345.00      -12345.00      -12345.00      -12345.00
      -12345.00      -12345.00      -12345.00      -12345.00      -12345.00
       166.5276       72.09052       251.2320       1.497284      -12345.00
      -12345.00     -0.2192949       90.00000       90.00000      -12345.00
      -12345.00      -12345.00      -12345.00      -12345.00      -12345.00
      -12345.00      -12345.00      -12345.00      -12345.00      -12345.00
      2008        49         8        51        30
       720         6    -12345    -12345     10245
    -12345    -12345    -12345    -12345    -12345
         1         7        13    -12345    -12345
    -12345    -12345    -12345    -12345    -12345
    -12345    -12345    -12345    -12345    -12345
    -12345    -12345    -12345    -12345    -12345
         1         1         1         1         1
CHUC    -12345          
        -12345  -12345  
-12345  -12345  -12345  
-12345  -12345  -12345  
-12345  -12345  -12345  
-12345  -12345  -12345  
-12345  -12345  BHE     
ZL      -12345  -12345  
[...]
       45.24819       16.05759       63.80757       6.770233       44.36658
       16.50711       40.87342       10.83740       46.37541       8.349777
       48.64883      -3.735909       37.96319       11.68201       100.2903
       274.9854       1437.801       5008.891       12923.09       26345.70
       43457.30       48755.98       31800.74       20724.74       25366.81
       9521.938      -32878.28      -66128.97      -50541.55     -0.2890625
       38211.46       32297.33      -22028.78      -66363.55      -40961.91
       18654.64       20386.19      -14350.81       12391.24       16328.25
      -16506.39      -3775.375      -27205.36      -30483.39       9383.516
      -1325.973      -11759.60      -3572.531      -30167.33      -42546.11
       3343.453       16981.88      -299.4414      -8554.227      -18904.37
      -5394.617       22864.48       32839.79       41013.57       20022.23
      -27332.56      -5176.049       14372.86      -5905.213       2319.219
       13790.31       7235.529      -3125.094       18456.83      -3173.854
      -11537.94       24893.12      -23095.53      -32232.26       33502.08
       25779.88      -8583.743       6210.531      -11701.00      -24627.51
       7541.633      -10440.84      -20902.23       17367.09       10132.93
      -22795.55       4548.168       27514.27       5372.211       22777.27
       40487.78      -3197.271       4666.043       3269.930      -59660.90
      -8747.359       50320.33       10303.37      -2600.520       1294.516
      -39861.84      -50124.79      -6764.512       22519.73       8275.059
      -17745.67       12237.00       7272.281      -43529.54       4086.234
       63480.37       11641.95      -17035.80       35126.82       33747.91
      -64175.92      -90285.62       32880.59       49543.09      -29940.52
      -4147.773       15635.14      -18473.53      -38067.64      -1568.039
       40278.36      -13256.32      -50070.58       40528.81       61798.07
      -21985.24       8396.648       31074.91      -27433.11      -36195.43
       8092.367       43691.86      -15393.44      -47377.08       10900.82
       28223.59       7707.201       8011.166      -2049.879      -20661.77
      -1126.809       22017.84       11756.72      -2105.662      -5474.348
      -9183.630      -938.6250       648.6465      -10357.75      -5104.738
       21680.05       5800.982      -20913.88       25265.14      -2665.070
      -53037.46       7434.793       24684.63      -14781.58       813.2275
       9870.229      -9135.018       3001.393       11171.53      -3611.918
       3046.357       18253.97      -17763.91      -19808.68       28506.44
       1154.367      -18951.52       2323.213       7572.336       2971.934
       4957.473       13754.47      -8881.891      -16986.26      -17112.75
      -9881.598       16439.46       5936.207      -522.0469       14158.96
      -12166.98      -33725.66       7480.291       19385.59      -7616.434
       8011.547       45037.38       18255.32      -31903.23      -11583.43
       3126.482      -5134.590       5858.219       16200.77       19120.22
      -17091.38      -42477.58      -7770.742       18735.76       420.7437
      -3300.938       7854.109      -730.8672      -11212.27      -18757.92
       6660.205       19769.20      -14049.06      -10597.96       13863.56
       5592.946      -2895.707       3847.693      -1512.105      -15555.78
      -19786.31      -7698.681      -1241.965       7587.246       17710.12
       1028.221      -5365.428       3986.084      -9428.580      -44.61328
       22391.90      -9939.423      -7427.250       24904.59      -2048.082
       3176.742       22713.37      -7973.113      -22040.69      -6766.402
       15708.81       29668.56       13263.61      -595.0840       1415.598
      -19020.52      -11354.58       11956.03      -14364.79      -12009.53
       14399.63       2698.762      -8735.942      -1601.141       12146.97
       6119.969      -19517.13      -1237.709       4407.680      -33310.59
      -37449.82      -7098.926       23669.13       2941.020      -10406.93
       22023.67       10878.05      -12164.46       13034.59       28354.99
      -10607.90      -4650.277       17080.76      -21187.28      -3267.473
       14689.46      -21317.78       383.2344       28977.93      -20187.46
      -37304.55       28718.91       30344.48      -18867.36      -8021.607
       12834.20      -9307.052      -10824.36       14413.23       13888.33
      -8811.394      -8161.668       8505.816      -6502.375      -24522.09
       183.2578       25387.87      -4392.113      -492.9609       41678.67
       13761.44      -27734.12      -22874.09       8764.695       9766.051
      -21875.14       3496.180       16772.99      -8018.354       5856.636
      -2314.166      -10356.25       9797.027      -2384.965      -12302.38
       11119.47       20442.94      -1076.336      -2240.959       13556.77
       4797.250      -1350.990      -11241.46      -7824.746       1158.131
      -12039.93      -2695.982      -4646.382      -9467.520       14706.56
       2168.051      -18165.04       20732.52       19418.90      -33024.73
      -15315.99       18813.96       4912.377      -12894.46       2501.344
       19936.66       11759.71      -12791.60      -30964.42       3635.652
       27815.33      -9855.639      -10760.65       3338.609      -22724.97
      -19740.99       8576.406       19507.66       4694.619      -11385.78
       4423.088      -1074.109      -21924.09       10710.31       30602.85
      -6305.986      -14891.63       6037.381       13299.67      -1876.160
      -15604.91       23507.55       27766.87      -11578.97      -9852.664
      -9644.689      -12562.48      -3445.453       5485.811       9571.633
       2024.783      -8387.412      -5462.588      -4181.850      -10325.31
      -8039.193       2024.863       18318.98       5682.339      -11318.86
       16265.46       23198.34      -5895.961      -24851.79      -3229.453
       25196.95       6436.234      -13747.26       11286.41       11568.47
      -16581.86       22559.89       16382.43      -33431.15       1350.703
       17223.63      -14994.98      -14452.80       19218.15       3979.281
      -33386.31      -1775.320       24861.34      -22939.90      -19918.47
       28374.96      -1338.182      -17253.69       8616.920       15442.71
      -6159.527      -25900.13      -11443.21      -983.3555       9762.609
       20795.32       1675.289      -23042.62      -2110.139       9327.473
      -13065.17       9507.443       17079.60      -10101.67       2933.841
       7433.213      -13280.34       3412.570       29504.12      -5379.930
      -32845.42       7574.379       23097.68      -9469.635      -6587.583
       2627.342      -2321.025       12725.28       6171.842      -8199.449
      -9016.090       9213.082       31313.07      -6895.984      -38826.37
       3141.715       20948.11      -26456.02      -14922.38       25022.23
      -15195.86      -28468.23       17282.52       15737.99      -4207.030
       1694.357      -1939.934       2020.885       12491.33       3148.019
       2190.426       4506.688      -12859.17      -19828.34       4286.750
       24640.18       16048.02      -236.6357       5361.617      -12030.83
      -26133.75      -1171.774       6544.363      -6515.885      -9253.855
       21114.07       11859.11      -27559.65      -3477.512       19483.58
      -6086.301      -17422.88       289.4629       5681.116      -1259.657
      -4778.902       3301.603       5360.295      -2260.219      -5082.000
      -17013.97      -10549.51       11411.96       11468.02       9812.998
       9285.200       9187.053      -5689.406      -19994.80       12140.36
       9374.625      -21373.26      -1320.360       2549.115      -10227.46
      -1440.055       12648.83       17658.23      -2744.227      -11374.74
       2365.235      -4582.037      -6876.633       15485.62       15052.73
      -7290.240       6177.105       19696.11      -5514.855      -15998.05
      -9402.652      -68.00000       9226.033       2237.115       2633.984
       16281.84       5561.652      -17294.59      -7996.482       139.6016
      -5131.572      -5941.102      -10664.53      -6614.299       7641.303
       3166.367      -10979.64       2142.258       15398.38       7687.012
      -6634.801      -14026.15      -1482.623       14196.87       1874.602
      -8418.359       21095.10       4226.594      -33466.76       10395.70
       27464.15      -22960.58      -18154.80       26229.52       10857.65
      -28853.25      -11988.61       19595.57       4804.408      -18502.10
       13791.63       26631.53      -32723.76      -21247.98       28223.90
      -16008.31      -22785.28       31554.08       8416.344      -18947.12
       15738.66       13859.64      -10998.97      -2130.838       6476.025
      -1405.229      -9055.914       14933.16       16254.40      -24611.35
      -6831.202       10393.55      -9174.354      -5637.141       1551.834
       3882.846      -396.2305       4263.383       14302.07      -1688.781
      -17163.78       5081.373       5924.107      -21382.73       6270.320
       15038.40      -12149.19      -2110.383       629.4175      -3225.775
       12530.48       6946.771      -9902.746      -1541.430       5733.064
       1159.721      -11631.87      -8639.525       15037.27      -9350.129
      -23054.36       8929.477       10933.00       9736.506       7614.498
      -659.3115       2554.852      -9162.320      -12108.89      -6459.738
      -13833.90      -5331.875       16606.93       12212.95      -2822.908
       2667.750      -4.203125      -25722.71      -17503.01       13399.76
       13831.90       13496.69       18286.67       13272.16      -6380.635
      -15228.07       9217.541       7383.900      -13386.12      -72.58203
       10054.18      -4055.106      -6861.789      -13.53711       10014.61
       7604.947      -3369.931       4636.393      -2533.159      -7690.709
       11201.82       5178.676      -13647.26      -10023.02       13506.19
       3136.938      -14421.00      -7153.787      -6167.309      -3469.299
      -9021.471       9484.230       7864.367      -10905.20       4650.555
      -28392.10      -38530.29       15633.14       14636.57      -3383.082
       15033.36       12885.60      -467.8359      -7409.844      -13049.75
       4592.012       21003.75       5519.537      -11732.76       2374.209
       3675.312      -20795.65      -5242.180       27265.87       7043.246
      -18759.75       1894.373       8847.625      -12810.26       869.9727
       22812.04      -7705.129      -5521.438       27858.79      -4195.750
      -25484.10       23745.16       35930.17      -17427.74      -25961.03
       10134.31       1202.457      -23132.76      -12721.78       4242.188
       20575.58       5562.773      -16412.92       3898.876       4690.980
      -15491.04      -13691.15      -1622.703      -10271.49      -16090.72
       12938.07       16573.91      -15321.58      -12128.57       22647.05
       15504.27      -16887.59      -7481.164       9255.639       2009.633
      -8368.594      -18953.70      -16802.74       6587.704       5063.580
      -7732.335      -4650.563       2570.391      -1703.842       3658.625
       19989.96      -4918.871       2466.914       23299.86      -6209.148
      -13496.50       10836.08       22725.48       22583.11       17761.58
       907.2930      -6139.789      -10499.27      -15777.86      -13327.62
      -2299.696       10146.14      -4997.505      -6411.207       19964.49
       21411.67      -5621.121      -22805.81      -5871.902      -6434.453
      -29793.54      -10888.67       23848.33       24087.71       17138.09
       31379.99       29609.56       11549.16       19844.24       18136.79
      -4037.309       1363.857       7275.994      -12162.40      -6307.742
       15792.91       14545.25       7168.055      -21346.69      -17615.96
       18082.58      -15773.45      -22342.43       21752.79       14556.14
      -8860.131       172.8789       23825.36      -4062.793      -32062.09
       16176.74       26490.84      -17255.41      -30897.52      -19239.37
       5107.578       8210.738       4989.703       24030.38       7340.898
      -22183.73       18053.09       42567.65       4312.016       24113.17
       87968.02       75431.47       35549.44       68478.53       97033.88
       33242.05      -36274.61      -32447.13      -39366.81      -46455.92
       1956.773      -10736.12      -51130.27       18063.22       77686.80
       16390.44      -22483.16       16776.22       57273.72       92056.23
       71880.17       18125.31      -49633.56      -203956.6      -243588.9
      -81525.45       42376.69       164357.9       324671.0       217380.9
      -35320.78      -15275.57       48220.59      -60416.72      -104034.2
      -58636.09      -79341.19      -185583.4      -165778.8       57108.31
       175865.6       87243.92       23166.27      -14598.25      -154919.2
      -149240.9       118592.3       226612.4      -26156.38      -305491.6
      -252293.8      -123256.9      -216692.1      -114052.6       189353.9
       158535.8      -119149.6      -210125.8      -88963.56       5189.531
       69935.47       167502.8       113134.7      -89287.12      -148557.7
      -197238.3      -260638.7      -17692.59       145041.0      -1823.188
       36038.12       180663.6       69842.34      -13620.59       154293.3
       224718.0       7362.062      -90663.42       31723.05       7649.203
       14792.78       137987.7       30771.44      -138092.3      -5597.062
       194088.0       80195.30      -57910.62       70517.66       54442.25
      -168501.3      -45626.88       177586.6      -23970.84      -207029.6
      -46880.04       24491.83      -98752.52       612.8125       194175.0
       82001.44      -110731.1      -44096.52       6649.062      -165414.8
      -99428.17       85066.25      -37169.26      -62277.36       60968.31
      -36706.27      -32638.75       148347.0       40184.73      -109027.5
      -42633.53      -75421.38      -114213.8       16393.97       101581.8
       111627.1       110695.0       34774.66       8895.828       56846.20
       23245.67      -77058.95      -71426.84       24941.52      -38577.66
      -83615.75       42885.08       5907.406      -38775.19       122563.6
       88350.16       11691.44       115844.7       46340.36      -73050.53
      -101470.8      -60416.62       78696.84       72444.87      -28354.11
      -4590.141       34834.54      -8050.344       10731.03       69342.25
       28578.92      -20565.50      -8586.516      -40486.45      -52886.55
       64702.38       72965.25       16517.27       41033.03      -55811.81
      -113204.3      -60175.02      -65050.28      -30394.17       10427.99
       20189.31       52093.89       15331.46      -25797.61      -28979.30
      -69538.80      -46497.07      -11659.54      -24806.64       21263.18
       48704.28       19929.08       41062.16       77949.20       21884.75
      -27582.25       36201.77       58219.73      -23603.77      -47966.52
       57629.70       68554.28      -57482.68      -34449.19       41143.45
      -28452.95      -91843.95      -48017.78      -24991.89      -79411.42
      -91109.44       11138.34       79309.73      -13149.80      -86828.50
      -32558.36       11354.15      -18920.79      -7454.312       32535.45
      -6522.188       4128.785       28538.55      -33035.78      -31324.14
       35428.75       63077.44       61299.06       75265.30       59168.00
      -7913.750       13995.28       67916.42      -15300.89      -59020.46
       25582.59       16381.81      -7131.156       42169.61       17679.50
       8801.891       45373.55      -14844.55      -34129.95       61328.60
       7792.891      -71393.20       20689.94       11836.18      -53690.98
       24794.59       49574.58      -72620.45      -112635.2       1993.133
       18307.05      -52199.08      -18107.98      -12064.80      -24520.57
       13333.73      -33792.22      -58518.48      -2182.623      -427.5938
       8931.547       62361.25       78006.62       58304.08       9992.102
       4864.062       31908.43       13099.56       13211.58      -6949.496
      -25156.78       6097.562      -11900.12      -48953.34       24602.33
       86996.30       10405.20      -7323.117       36718.77      -4879.615
      -11440.58       42807.38       24812.78       4716.195       33018.79
       20636.45      -2639.047       13601.16       45827.84       11768.81
      -67139.17      -57639.05      -7408.156      -31933.16      -62094.97
       290.2812       21691.66      -49427.96      -24484.25       30493.59
      -23692.16      -56936.11      -11223.41       57.21875      -34933.97
      -4671.984       41489.96       6436.484      -6850.672       25729.33
       2860.335      -10623.72       8572.783       8869.846       14929.38
      -17889.38      -34370.82       20381.34       50508.12       32414.83
       23004.71       2345.844      -24217.43      -18203.55      -14492.86
      -10807.50      -25199.48      -52865.07      -25656.28       38454.30
       17821.02      -29711.31       33538.04       39224.28      -37196.52
      -20900.62       7455.266      -32875.25      -28835.73       45773.63
       49868.82      -15571.11      -11087.53       32646.00      -7042.070
      -50773.63       19341.41       47122.41      -24835.23       7072.266
       65771.53       2808.516      -36800.25      -16149.66      -26005.35
      -25113.97       24592.61       54821.82       37598.09       26893.91
       29935.65      -11051.07      -50667.17       6763.047       50326.03
      -29399.19      -53652.17       39648.18       57129.56      -31530.98
      -67019.70      -10575.93      -4092.328      -42813.48      -11586.46
       2165.734      -33874.26      -5397.320       49112.91       30873.52
      -6520.961       12552.30       1635.742      -41747.47      -9718.109
       47200.01       28915.02      -35569.25      -39962.13       6704.631
       10764.28      -24066.28       3016.375       69492.00       23592.73
      -58969.54      -20352.33      -3961.656      -87710.30      -44512.47
