     0.02500000      -798599.8       1004095.      -12345.00      -12345.00
      -30.01003       216.2649      -18.11000      -12345.00      -12345.00
       0.000000       13.44000      -12345.00      -12345.00      -12345.00
      -12345.00      -12345.00      -12345.00      -12345.00      -12345.00
      -12345.00      -12345.00      -12345.00      -12345.00      -12345.00
      -12345.00      -12345.00      -12345.00      -12345.00      -12345.00
      -12345.00      -32.11960      -68.98490       1817.000       0.000000
      -31.54000      -68.94500       0.000000       103500.0       0.000000
      -12345.00      -12345.00      -12345.00      -12345.00      -12345.00
      -12345.00      -12345.00      -12345.00      -12345.00      -12345.00
       64.37913       183.3533       3.374224      0.5788594      -12345.00
      -12345.00    -0.03936460       0.000000       90.00000      -12345.00
      -12345.00      -12345.00      -12345.00      -12345.00      -12345.00
      -12345.00      -12345.00      -12345.00      -12345.00      -12345.00
      2008        49         8        51        21
       810         6    -12345    -12345      9852
    -12345    -12345    -12345    -12345    -12345
         1         7        13    -12345    -12345
    -12345    -12345    -12345    -12345    -12345
    -12345    -12345    -12345    -12345    -12345
    -12345    -12345    -12345    -12345    -12345
         1         1         1         1         1
CLAR    -12345          
        -12345  -12345  
-12345  -12345  -12345  
-12345  -12345  -12345  
-12345  -12345  -12345  
-12345  -12345  -12345  
-12345  -12345  BHN     
ZL      -12345  -12345  
[...]
      -784.8586      -510.8328      -853.4631      -572.9875      -908.9841
      -631.7705      -973.9202      -688.7349      -1021.907      -739.2156
      -1076.427      -785.1655      -1121.035      -835.1250      -1166.425
      -874.4199      -1206.480      -915.7676      -1242.525      -951.1621
      -1281.822      -977.5210      -1307.669      -1008.769      -1327.521
      -1026.030      -1352.825      -1046.666      -1363.426      -1061.292
      -1380.709      -1061.350      -1381.465      -1072.948      -1391.030
      -1077.276      -1390.418      -1073.984      -1390.015      -1068.159
      -1385.357      -1063.734      -1379.624      -1058.012      -1371.275
      -1046.091      -1363.159      -1040.396      -1344.777      -1021.921
      -1336.019      -1004.972      -1315.109      -990.1943      -1298.907
      -971.2368      -1282.400      -949.0239      -1259.470      -927.0598
      -1239.169      -907.2822      -1214.893      -882.4424      -1191.700
      -860.9651      -1169.510      -839.3484      -1151.081      -819.9060
      -1125.303      -792.9932      -1105.909      -773.8521      -1084.236
      -749.9365      -1061.221      -732.8364      -1040.953      -709.2827
      -1021.301      -684.1011      -996.6719      -661.3247      -970.4182
      -637.3064      -948.1445      -609.8687      -919.9135      -579.9043
      -884.5637      -549.1030      -854.3704      -513.0127      -820.5885
      -472.3022      -780.7922      -437.2869      -739.1077      -396.8003
      -698.5618      -354.4663      -656.0216      -306.2190      -612.5012
      -265.3796      -565.7040      -218.3694      -519.9088      -169.2181
      -474.2628      -125.1199      -428.8693      -79.06036      -383.3820
      -30.75214      -331.6096       16.30640      -289.8744       62.07034
      -239.7343       108.6427      -195.9131       152.7924      -154.2615
       195.7254      -113.7794       236.1018      -75.01129       270.5656
      -36.94989       306.9605      -7.688843       339.7234       26.81323
       372.2915       62.94446       404.5891       88.28363       436.7800
       108.4490       456.4286       138.9286       477.3135       156.6193
       493.4030       168.9491       512.9102       185.6554       525.7402
       196.4905       534.1552       205.5166       544.3374       214.8311
       556.1657       224.2810       555.5961       226.7883       556.8573
       218.2532       556.2413       217.9082       546.8080       209.9130
       539.0925       200.6807       528.5277       186.0554       511.1799
       168.5721       493.1255       153.4978       480.6158       129.7285
       450.7586       108.0315       429.3536       83.63214       408.7550
       61.11945       380.9988       32.32416       354.5604       6.101501
       323.7005      -21.61035       297.2723      -51.89413       263.0576
      -86.33313       237.6878      -117.5296       197.2192      -153.4846
       167.0547      -186.2110       126.4359      -227.2730       88.33966
      -264.5654       51.98669      -302.1801       11.35773      -346.0211
      -31.33990      -387.1294      -79.08966      -438.3947      -121.4873
      -485.1709      -169.1078      -525.4163      -217.7935      -573.7920
      -256.8601      -616.6848      -301.2061      -658.8430      -345.3721
      -703.1328      -389.1476      -748.0178      -435.7737      -796.4846
      -475.2817      -829.8379      -519.8711      -875.3093      -558.0034
      -911.4683      -591.3718      -950.0076      -628.8093      -984.5835
      -666.7661      -1022.564      -697.5317      -1051.883      -730.1914
      -1082.428      -759.8108      -1104.050      -774.9209      -1123.809
      -795.2925      -1135.627      -804.9409      -1154.274      -809.9971
      -1155.854      -820.3535      -1161.294      -824.4734      -1157.757
      -825.7188      -1158.889      -818.8022      -1155.529      -818.1299
      -1153.084      -807.4983      -1146.257      -803.2354      -1140.126
      -790.7837      -1126.083      -783.5566      -1121.875      -772.7812
      -1104.772      -763.3267      -1098.223      -753.6614      -1069.852
      -612.3263      -543.1904       1593.312       7748.086       22699.02
       46911.53       84771.75       114334.2       98884.45       50374.41
       12618.09      -11166.78      -30816.38      -54397.12      -105924.8
      -157779.3      -115143.6      -19741.03       8272.320       12326.84
       75196.00       128153.6       110131.0       53739.64       15340.51
       17090.76       324.6875      -66514.97      -81982.25      -25205.23
       14295.28       14317.12       15933.11       24187.70      -9904.188
      -89539.12      -118813.6      -41155.55       60382.44       41632.91
      -64564.66      -119943.8      -101893.1      -50762.44       4209.625
       44210.94       72943.69       88912.66       88250.67       57915.62
       25680.43       24362.65       9751.102      -36407.13      -33940.55
       4955.000      -10795.45      -58467.42      -48963.79       2123.672
       17891.39       7302.562       25134.19       33314.93      -6873.109
      -35220.09      -16215.09      -8342.832      -18501.92       4819.875
       71643.59       116505.8       92847.91       46045.51       2680.188
      -77333.31      -145385.4      -129320.6      -74647.69      -45483.18
      -20123.97       32449.73       79136.20       70928.47       54256.08
       65509.19       61472.52       7053.453      -64472.81      -92152.41
      -90000.09      -89761.80      -69008.66      -25597.85       1978.223
      -7718.984       1706.172       45396.94       73362.80       80321.92
       88102.23       76589.17       50746.20       41510.70       38944.46
       24529.55       12880.67      -14277.06      -49006.12      -48719.44
      -35234.19      -51227.06      -68950.52      -58593.78      -40225.72
      -24031.60       5902.672       43107.22       76915.38       100097.8
       105257.7       65636.84      -11211.83      -66440.00      -79218.81
      -72306.27      -56053.08      -50067.69      -45691.90      -24135.66
       8125.750       34863.92       43904.98       40386.44       36373.34
       37716.77       46572.51       28681.80      -13219.58      -32164.35
      -25055.97      -28554.76      -27307.53       1987.719       21208.78
      -5341.734      -42404.33      -62112.73      -65224.75      -51823.53
      -30623.54      -16882.90       4384.812       40923.16       71766.56
       81991.73       67529.97       42565.58       40984.34       46739.02
       27985.16      -11239.14      -48683.44      -62646.86      -50624.88
      -37810.66      -31835.56      -34484.61      -25935.63       6249.875
       36886.12       44738.80       41599.52       34002.37       24900.79
       14816.01       5250.734       6898.121       15934.02       13781.04
       12305.57       12618.91      -1100.375      -27097.84      -38703.48
      -39314.05      -41466.84      -33784.27      -14427.71       6011.652
       20434.06       22967.71       28634.70       40531.39       49671.55
       50817.92       46293.09       38618.30       29115.34       16640.05
       9256.243      -1161.922      -11579.09      -20584.20      -32331.92
      -33546.98      -28235.49      -33038.61      -30629.60      -27282.11
      -44014.36      -66299.91      -64083.71      -45898.71      -28117.25
      -5687.984       20673.02       38498.19       50329.97       54790.98
       41358.38       8113.492      -20965.38      -34168.57      -28575.01
      -16074.83      -12582.40      -3697.570       19161.05       25169.83
       8810.709      -8926.043      -12248.86      -7117.465      -907.2148
      -10641.95      -31590.58      -35818.93      -23059.22      -10350.82
       6570.531       25381.18       34716.76       32093.80       22970.16
       16968.73       24702.95       32701.84       36603.14       36249.15
       30959.38       20898.13       8641.203      -1306.595       1266.021
       4978.375       7133.601       4533.858      -4015.303      -6067.805
      -10967.33      -26677.87      -33348.39      -22584.81      -6793.370
      -2187.382      -760.8799      -1260.023      -4730.316      -10502.45
      -10192.81      -1961.382       479.1255      -1472.497       663.5771
      -3888.257      -2805.820       10036.73       23689.44       29426.09
       32905.73       32514.47       15137.99      -9284.020      -5879.617
       17657.95       31040.25       18156.97      -1515.836      -11713.49
      -25196.36      -40442.06      -44510.17      -38362.19      -36079.89
      -46956.20      -40795.21      -13916.10       7116.570       25367.98
       53791.75       72937.83       71816.69       57245.25       42372.87
       19346.51      -8086.352      -16895.15      -14026.44      -28532.73
      -43503.38      -40439.89      -33967.97      -42560.93      -48173.77
      -28881.62      -8826.117      -548.9922       18161.85       30260.20
       32667.76       30211.37       19939.21       15835.78       16933.68
       11508.47       12568.84       21175.16       14593.70       484.9282
       1362.703      -4576.898      -15636.51      -13716.11      -5147.754
      -6581.289      -12078.35      -11091.68      -6735.315      -3163.148
      -1411.344      -11804.18      -24291.65      -33310.62      -39136.17
      -28498.35      -7683.805       8066.934       20782.58       20775.18
       16789.52       19468.25       26605.91       29534.64       22209.14
       12142.87       15214.46       16282.41      -419.3359      -6324.096
       6268.318       10663.49       3865.648      -11977.55      -17626.68
      -14366.19      -12077.34      -4623.578       6786.254       11348.58
       11835.61       11094.73       22232.47       37627.38       35046.60
       15582.27      -8575.953      -29743.72      -40159.76      -41757.64
      -31271.82      -17160.98      -16404.11      -26939.36      -9362.797
       30046.91       44520.22       41327.48       36824.41       32654.88
       35080.73       26970.47       7146.863      -10017.12      -9154.275
       790.0332      -2013.711      -17286.16      -31746.06      -38176.90
      -26790.94      -11126.42      -10096.30      -14245.73      -2561.249
       5746.502      -4025.188      -22835.20      -28274.07      -15433.36
      -2299.828       7343.875       15645.96       12854.13       6513.426
       2981.962      -1060.100      -527.2734       13531.92       27225.81
       27854.75       22790.77       22524.94       18514.62       3787.359
      -17882.03      -32622.62      -35214.48      -26676.58      -11068.77
       9035.594       17502.45       15634.56       23889.48       33250.49
       19660.15      -2033.438      -13583.62      -18235.07      -18078.09
      -8667.730      -3437.121       3972.266       14873.26       8603.898
      -13771.45      -27868.36      -18010.05       7463.875       26011.67
       33662.55       32893.70       26378.95       14162.37       7649.367
       9964.008       10621.69       5838.605       4209.492       13540.94
       32136.45       49568.33       53403.95       33532.68       13099.96
      -1100.344      -21054.69      -45233.36      -61828.56      -58300.78
      -39749.93      -21292.41      -235.2188       14977.02       25236.92
       30974.08       22242.13       10884.17       14673.95       19561.27
       11388.40      -7035.742      -24998.80      -40601.02      -46435.64
      -39953.19      -33676.27      -33237.05      -28741.34      -28539.38
      -37008.67      -34412.68      -9982.410       15868.88       28228.86
       28780.98       33007.80       46282.80       36702.17       8955.986
      -356.1016      -8453.854      -10860.26      -2467.786      -1086.884
      -2423.344       6533.386       5717.602      -27204.14      -59335.06
      -66636.66      -66223.77      -47618.76      -17217.16      -2808.412
      -4926.885      -5185.379      -2190.078       3424.922       12288.04
       8566.596      -5626.636      -6389.459       1484.898       17520.03
       36935.20       49710.64       61240.17       68882.00       62524.91
       45004.77       24245.91       18761.02       27847.97       41818.69
       61788.03       76125.81       68676.52       48871.93       15779.77
      -27648.97      -71325.06      -150526.3      -285524.5      -448606.1
      -621611.0      -754911.2      -798599.8      -718978.8      -518097.7
      -284129.7      -123868.8      -51404.98      -14094.19       6763.078
      -8872.562      -57370.00      -89209.48      -41529.25       66776.06
       151364.7       173846.7       156801.8       116628.7       100715.1
       206035.0       471510.5       798116.5       1004095.       973654.2
       755618.6       438803.5       83218.62      -190962.9      -223164.3
      -28399.00       177985.0       257639.4       243030.1       167009.3
      -3148.125      -240151.1      -390554.8      -365862.8      -264537.0
      -204640.0      -173176.9      -125207.2      -56802.83       27407.41
       123541.1       202636.1       232331.9       218388.9       204660.6
       201479.5       170728.1       92540.70       31946.30       59661.84
       99692.36       44173.72      -76409.12      -190261.7      -241489.7
      -194381.6      -66583.62       94819.19       240908.3       317841.8
       264895.6       37145.00      -299224.5      -572413.1      -643437.6
      -521156.2      -303233.1      -65709.31       138596.8       269999.1
       329378.3       326515.1       242886.1       75952.00      -111186.3
      -237260.5      -258499.8      -166357.3       1927.250       166748.0
       254547.2       204662.3       31348.69      -157230.9      -286229.2
      -370377.8      -427347.4      -469648.5      -504849.9      -479662.1
      -306612.5       28896.62       434707.2       771741.8       926941.2
       891522.4       756512.8       582937.8       368995.6       120444.5
      -141569.5      -378487.6      -531775.9      -560645.4      -465651.9
      -322632.1      -214828.2      -168579.9      -161601.2      -129044.1
      -52892.25       20249.34       62635.12       71650.58       56157.26
       31520.21       7437.331      -7762.172       23676.38       107031.5
       185932.5       231183.9       228974.2       170234.7       101101.8
       67830.48       71644.31       86716.44       93855.34       105166.0
       101576.8       22241.88      -132709.6      -304611.1      -423378.4
      -457408.4      -427031.7      -355480.6      -262995.1      -142886.4
       21302.62       169729.2       220807.4       195716.1       178595.2
       181976.3       152460.2       82522.69       26959.91       39336.97
       130112.4       264756.9       389497.2       429577.5       379568.8
       327754.1       281718.8       179720.9       18932.00      -144832.1
      -242597.6      -262408.1      -242351.9      -217128.6      -208616.8
      -214786.2      -211685.4      -175777.3      -110539.3      -47581.12
      -11318.36      -17675.92      -67517.78      -125762.9      -151743.5
      -121865.9      -54965.93      -648.2656       29558.27       53841.06
       62470.72       41563.67       16562.55       1860.090      -9466.742
      -16401.52      -9273.211       10335.22       35378.44       82896.78
       149551.2       209266.2       231686.9       199601.0       141289.9
       66183.06      -37556.22      -145656.9      -213149.1      -215560.4
      -164545.5      -92915.14      -28154.40       26291.03       67710.12
       84244.05       73966.05       45059.16       4350.125      -40205.97
      -72476.00      -88283.50      -92668.28      -79749.05      -42794.41
       15311.55       70332.19       111786.6       149089.0       163929.5
       139600.0       82696.95       3153.469      -70456.73      -89952.25
      -61764.80      -48229.03      -66381.12      -104055.2      -156876.9
      -190616.2      -167358.1      -88629.17       11358.19       107004.8
       199066.9       271011.2       279240.1       216267.5       133889.9
       86835.25       83192.69       94340.34       99653.08       73854.09
       5333.984      -66658.31      -114336.2      -150630.9      -206470.0
      -288896.4      -356723.0      -387310.4      -377261.4      -319218.8
      -224733.1      -122536.7      -37293.62       23379.53       47166.38
       37703.86       30369.08       43655.39       69517.31       97619.91
       114971.2       106716.2       80264.92       38830.09      -18558.00
      -54703.39      -36253.91       21631.34       89152.41       155041.9
       211477.8       236891.7       226511.4       193329.1       162576.5
       158521.2       158525.8       133854.0       92858.73       37003.88
      -38014.19      -99253.62      -119890.3      -114671.9      -97520.70
      -59562.51       2610.422       51381.75       57219.09       38734.25
       22830.35       10436.79       320.1504      -3252.594      -14086.48
      -26143.59      -28321.03      -42793.06      -71194.00      -91203.31
      -90935.08      -75243.55      -51826.53      -38482.69      -51256.45
      -69341.03      -75197.53      -82580.31      -81841.80      -52021.07
      -17444.90       8476.297       45397.81       89495.88       128213.0
       142961.7       115066.9       61302.16      -4611.906      -83142.91
      -140492.8      -140216.0      -101016.1      -59825.70      -22414.32
       23039.59       66775.58       60045.61      -6375.219      -68666.56
      -76366.16      -47763.25      -30187.80      -46551.62      -81806.22
      -105608.7      -95344.31      -60294.84      -32497.27      -11644.03
       18698.25       48507.64       60979.59       50494.59       42959.38
       59995.28       79805.78       86312.34       87110.16       90025.84
       103058.8       114120.2       95081.41       53795.64       26077.06
       6965.273      -17922.63      -32848.45      -24590.59       8399.859
       45742.03       67450.34       75912.77       66958.05       45074.57
       24606.91       17459.29       33125.25       52467.85       46038.60
       15539.81      -17954.19      -43282.88      -68958.53      -93872.56
