     0.02500000      -486810.5       471646.0      -12345.00      -12345.00
      -30.01003       216.2649      -18.11000      -12345.00      -12345.00
       0.000000       13.44000      -12345.00      -12345.00      -12345.00
      -12345.00      -12345.00      -12345.00      -12345.00      -12345.00
      -12345.00      -12345.00      -12345.00      -12345.00      -12345.00
      -12345.00      -12345.00      -12345.00      -12345.00      -12345.00
      -12345.00      -32.11960      -68.98490       1817.000       0.000000
      -31.54000      -68.94500       0.000000       103500.0       0.000000
      -12345.00      -12345.00      -12345.00      -12345.00      -12345.00
      -12345.00      -12345.00      -12345.00      -12345.00      -12345.00
       64.37913       183.3533       3.374224      0.5788594      -12345.00
      -12345.00    -0.05861166       0.000000       0.000000      -12345.00
      -12345.00      -12345.00      -12345.00      -12345.00      -12345.00
      -12345.00      -12345.00      -12345.00      -12345.00      -12345.00
      2008        49         8        51        21
       810         6    -12345    -12345      9852
    -12345    -12345    -12345    -12345    -12345
         1         7        13    -12345    -12345
    -12345    -12345    -12345    -12345    -12345
    -12345    -12345    -12345    -12345    -12345
    -12345    -12345    -12345    -12345    -12345
         1         1         1         1         1
CLAR    -12345          
        -12345  -12345  
-12345  -12345  -12345  
-12345  -12345  -12345  
-12345  -12345  -12345  
-12345  -12345  -12345  
-12345  -12345  BHZ     
ZL      -12345  -12345  
[...]
      -666.0142      -563.7230      -659.7162      -559.4694      -655.6570
      -549.3755      -646.8384      -542.2380      -631.0079      -525.5938
      -616.5347      -513.7968      -601.5359      -491.6064      -578.8555
      -475.2985      -562.3868      -455.1367      -538.8159      -436.3252
      -520.2511      -408.9592      -489.3613      -383.0514      -462.0157
      -353.4619      -436.2646      -325.6600      -404.4740      -299.6881
      -379.0321      -271.2783      -352.2195      -246.0139      -323.7291
      -217.9975      -296.0988      -189.4319      -269.0662      -169.0384
      -247.8786      -140.6282      -214.0146      -112.0697      -192.3420
      -87.73056      -159.6839      -55.92554      -138.7365      -36.67273
      -110.0583      -9.115021      -83.93846       17.43567      -62.34034
       35.30320      -42.90128       55.76701      -22.63029       69.19490
      -10.56595       83.65666       4.324280       98.63779       18.06290
       106.8721       26.09433       119.0123       42.88577       130.8958
       52.35809       144.5801       67.47559       158.3657       80.70123
       171.6511       91.07117       180.0670       105.8546       193.3532
       116.2628       210.8627       135.2501       224.5947       154.0179
       248.4976       174.7966       265.9176       194.1635       282.6381
       214.3650       308.8601       238.3378       330.5673       261.1305
       355.4755       289.9741       378.3621       310.2755       404.7542
       337.2627       426.3920       360.8420       456.2427       388.8638
       479.3483       414.1874       503.4655       437.2368       525.4875
       460.8362       549.0265       480.2443       562.3444       495.8156
       582.2368       514.6243       593.9559       525.5073       606.8170
       538.0011       619.6052       549.9979       629.6460       556.5222
       636.1266       566.3384       644.0304       573.0114       651.0656
       575.6549       650.6132       575.0963       646.2341       575.8110
       647.5835       574.0625       642.0869       566.4885       633.8644
       560.1566       629.5441       553.1658       615.1981       540.6681
       601.3037       526.0526       584.6912       508.7695       568.5168
       491.9285       549.7976       475.1069       536.0947       463.8086
       523.7634       449.2913       504.5452       433.7615       497.4175
       423.9310       479.7356       407.3384       466.9160       394.5076
       451.0875       380.0677       433.4604       360.9637       414.7797
       346.9126       398.9840       331.3430       385.6631       314.3374
       366.9033       296.6791       346.1301       281.6588       330.5621
       263.4279       311.1428       243.6964       294.4508       228.6810
       276.3628       208.7778       257.2338       190.3927       235.1602
       170.8864       218.4030       147.5839       192.1996       127.8708
       167.7675       102.1974       143.1624       77.48883       116.4144
       46.85120       87.51107       20.54559       54.71754      -11.91114
       23.92860      -44.68587      -9.099609      -73.50282      -39.53119
      -106.9102      -75.34891      -142.2456      -108.5591      -175.2403
      -138.8790      -205.8998      -176.6965      -243.1277      -214.4376
      -280.8123      -249.4445      -314.4889      -286.2732      -353.1237
      -325.6472      -394.4631      -370.7434      -435.2506      -410.6617
      -477.8816      -457.1931      -521.0104      -496.2950      -560.6287
      -537.9932      -600.6912      -575.8805      -636.6814      -614.9333
      -674.0649      -648.6243      -707.2788      -679.5117      -736.0391
      -709.6614      -762.7048      -736.6797      -789.4985      -759.3833
      -808.7278      -777.0159      -826.2278      -794.9048      -842.6931
      -815.0166      -858.8340      -823.1533      -866.4878      -836.9419
      -878.5425      -842.5537      -888.7854      -856.3953      -894.1838
      -861.0938      -895.7380      -859.8062      -898.0269      -862.3567
      -895.2202      -862.2979      -894.2488      -859.9961      -891.4946
      -855.1348      -881.9336      -847.0198      -875.6812      -845.4746
      -870.7393      -832.9290      -856.1470      -821.9836      -844.1475
      -807.4409      -831.3325      -797.2812      -815.4734      -775.2407
      -794.0298      -755.9839      -772.4309      -732.8635      -750.2642
      -714.0305      -726.5833      -686.8513      -697.5493      -656.9666
      -666.9156      -624.2593      -631.0774      -587.3774      -592.3978
      -553.0002      -554.1327      -510.2039      -514.1099      -469.1703
      -465.5337      -423.0737      -415.5869      -367.5863      -365.1780
      -320.3820      -314.2971      -269.1456      -257.5251      -212.1586
      -202.6733      -156.0194      -145.1613      -98.88931      -84.54524
      -36.83319      -22.35849       21.86118       37.86401       84.10822
       98.69183       140.6396       159.5635       202.4315       218.7716
       264.6538       286.2684       328.1223       348.7075       389.4236
       407.1930       448.1162       470.8882       511.1978       524.7126
       561.8640       583.8977       613.8296       628.4363       663.8032
       678.9373       708.2200       725.7698       752.8684       763.1086
       792.4841       808.0020       828.0024       842.9209       867.0991
       879.2266       896.6172       906.5378       923.7871       929.3911
       940.8269       949.8796       960.2932       964.8201       971.6807
       981.5847       984.6609       989.8784       988.8088       993.3264
       992.9177       993.2427       989.9968       991.4983       982.3501
       984.6868       973.1162       974.1965       961.9661       963.2842
       945.8979       942.5688       925.0278       925.8440       908.4258
       907.4666       880.3616       873.6775       852.3750       848.0859
       820.1340       814.6958       783.9426       779.7271       749.6499
       742.2373       712.1421       708.8337       674.6284       665.1366
       629.3036       621.5165       589.4645       581.9752       543.3525
       537.5403       498.8186       491.8478       451.2522       443.4104
       401.8823       399.3400       355.4197       352.1304       307.7292
       302.7988       262.6136       261.5996       215.5789       219.7944
       176.7990       176.5895       134.8550       137.5962       92.04843
       99.55794       57.22009       64.49548       19.37599       25.68399
      -21.13698      -9.001358      -55.36331      -43.51974      -83.21469
      -62.61835      -106.9544      -89.59363      -134.8882      -112.2217
      -156.6238      -132.4354      -173.9290      -152.4696      -195.8176
      -165.9954      -203.8228      -174.8832      -219.1551      -187.5056
      -230.2875      -194.5068      -238.5836      -205.5240      -247.4984
      -213.1902      -257.1296      -223.0839      -267.8215      -229.2812
      -269.2806      -226.1608      -271.0076      -233.2983      -279.5549
      -240.9256      -285.5621      -243.0652      -291.2514      -253.5079
      -305.5219      -264.2257      -305.5267      -263.5824      -317.6777
      -274.5825      -328.7017      -287.2497      -338.1888      -293.1567
      -347.2670      -304.8627      -361.2558      -319.0381      -378.6366
      -330.6227      -393.9380      -353.4639      -408.9194      -365.7466
      -433.0229      -384.5728      -445.8903      -394.1180      -460.6473
      -412.6160      -474.2179      -425.6400      -487.1433      -435.9819
      -501.2700      -450.2336      -516.6672      -462.4139      -525.8630
      -467.2631      -527.4377      -473.3489      -534.5100      -471.2535
      -538.7195      -476.2229      -538.7219      -469.6942      -533.8290
      -466.1263      -527.6838      -455.2434      -514.7322      -442.7288
      -505.5133      -428.9670      -489.7755      -409.4468      -468.2111
      -391.1213      -456.6836      -378.5354      -443.0579      -359.3861
      -420.2168      -334.9387      -400.2761      -312.3228      -374.9445
      -286.0687      -353.4249      -267.6483      -326.9128      -233.2581
      -301.4791      -206.7068      -269.8937      -175.0208      -239.0467
      -144.8919      -209.5410      -109.8509      -176.6741      -78.15927
      -138.3834      -32.86177      -97.92661       5.307575      -53.91537
       54.13892      -11.41818       94.72406       26.54449       135.0226
       69.56241       174.0982       109.4973       218.1718       149.4716
       259.6398       185.3441       297.2649       225.2882       331.1316
       258.5278       365.5090       288.7441       397.1930       316.9116
       423.0925       341.4194       447.0818       366.0663       471.8287
       381.7205       487.5490       395.1156       500.4292       409.9818
       512.9065       415.7501       517.4456       420.3828       529.0083
       423.6951       530.5237       438.9642       546.9456       444.5583
       550.3572       448.1083       556.2659       450.8862       558.9443
       459.1957       567.7322       459.1428       566.5308       461.8376
       570.1265       457.7645       564.9480       450.5120       557.1554
       437.0529       542.3976       428.3766       540.1638       419.8965
       523.3469       397.1184       504.4663       379.6205       488.1313
       362.5449       473.2122       342.5920       449.1438       317.4178
       426.5746       292.8046       402.4222       269.0525       378.6146
       242.3357       358.7696       222.2693       333.7122       195.1410
       312.1997       173.2112       293.8181       159.6240       275.9469
       136.8161       258.7985       115.9982       239.8542       99.14001
       224.7542       78.65753       204.5606       66.66431       193.3843
       49.44720       181.1711       35.61282       162.5175       15.98334
       149.5583       9.854828       139.7831      -8.144516       128.6325
      -14.05765       119.6756      -26.41356       113.2900      -33.28970
       102.2275      -46.35847       90.10445      -56.82796       83.29994
      -68.39256       77.15493      -69.10080       67.28342      -78.47879
       69.39764      -80.44601       65.39587      -86.80215       56.37782
      -94.52488       52.69498      -98.20390       51.99658      -99.73221
       47.65648      -107.6412       45.48460      -107.1316       47.67621
      -108.2244       47.56128      -108.5984       49.44037      -105.0175
       52.56737      -104.7958       55.49442      -105.5489       59.71243
      -97.70078       61.03180      -99.45844       64.29462      -100.1251
       65.66800      -96.62074       69.38491      -97.11601       71.62845
      -96.56847       76.83778      -89.29143       81.28806      -86.96110
       86.71915      -84.80345       89.85922      -79.43533       96.19263
      -73.97122       107.7656      -68.86090       109.3939      -62.70532
       114.9689      -58.94867       125.0535      -52.05193       132.7764
      -47.30743       135.9155      -38.58099       143.9620      -37.27551
       151.0869      -27.79822       156.4528      -27.54965       161.1627
      -21.39362       163.6305      -24.71829       163.9400      -19.56314
       169.5507      -16.35544       176.9225      -7.909302       184.5840
      -4.090576       190.9669       7.122009       203.6030       13.31299
       217.0012       34.17114       238.3607       54.73499       259.5258
       73.57819       279.3724       89.87695       300.7954       115.3565
       321.2301       130.3525       345.1428       158.9138       368.8295
       175.3729       391.3218       203.7212       413.6196       221.6752
       439.0867       243.4945       459.3608       262.6749       481.6508
       285.1460       497.0598       295.6155       516.1726       316.1996
       531.5936       326.0264       549.7957       348.3976       564.6232
       349.8953       573.9253       366.0272       578.7913       358.2799
       583.2307       375.4062       590.5626       365.3425       594.9980
       385.3329       596.5819       361.9082       601.2697       390.3269
       596.7983       352.4154       594.1860       383.2191       585.2936
       334.9801       578.5671       378.4817       578.2673       312.5753
       575.3442       387.1763       575.5010       287.8650       574.6294
       411.1729       561.0082       229.8939       568.1194       465.8347
       554.5219       117.7358       569.6948       609.2152       385.1572
      -1017.377      -3165.531      -15151.09      -56449.69      -140911.2
      -263742.0      -421735.6      -486810.5      -251132.2       116328.2
       187402.3       67692.12       204575.9       418897.9       287448.6
       117142.9       247785.1       296808.9       6369.188      -237046.0
      -167712.8      -33551.09      -74994.09      -129415.0       3914.062
       160006.5       130027.7       22398.30      -33232.16      -84096.44
      -103288.0       4390.328       87987.70      -29965.28      -114093.6
       30105.00       157952.2       146478.5       127550.2       165297.5
       157262.2       21922.06      -144940.3      -240967.2      -226298.9
      -149388.0      -94195.11      -25354.12       60976.22       104272.0
       97524.98       39513.72      -16359.81       14111.12       20822.94
      -52254.44      -34821.62       60169.05       37354.66      -65419.45
      -45396.25       88664.28       148830.9       123554.7       120268.2
       75519.00      -62985.66      -128917.1      -111105.2      -147048.1
      -181952.9      -124970.8      -43296.82      -5208.250       38802.12
       117543.4       149488.1       99921.56       51622.41       34952.67
      -2450.609      -59626.59      -104956.1      -61740.95       36086.55
       42469.86      -15946.36      -25225.80       10170.30       45314.09
       64509.08       37497.11      -16128.03      -50104.64      -73068.09
      -65986.79      -37626.66      -21704.27       14565.31       81952.66
       103932.4       72079.97       45350.56       27129.65      -7525.836
      -29502.96      -13601.23       6370.842       865.3228      -1816.399
       5923.156      -5959.223      -20481.59      -24494.22      -54869.44
      -100267.3      -108883.5      -77506.03      -44173.64      -5556.969
       35849.78       63233.53       89055.50       96413.50       59364.22
       25160.67       35959.11       53797.49       34755.60       6808.352
      -6343.375      -38377.00      -73446.06      -67739.02      -65227.42
      -67809.39      -24613.57       34237.34       35141.29       13024.84
       36302.62       72594.72       53204.99       6817.385      -533.1484
       18638.75       25099.67       10921.70      -23189.83      -47010.85
      -29781.36       21810.52       63224.05       55421.89       22232.93
      -2180.531      -14819.93      -10339.20      -8089.906      -42475.66
      -81279.67      -68786.06      -19781.28       19808.44       16623.51
       2506.609       13270.60       32058.67       28862.49      -2929.109
      -34924.07      -36813.24      -20965.01      -966.1699       1286.891
      -20896.12      -41763.14      -48805.92      -45786.72      -37989.92
      -25254.61      -5774.688       9061.812       37349.97       52355.10
       13201.53      -18495.53       3980.211       36773.80       38794.22
       30885.66       39403.20       32047.33       9018.664      -5594.625
      -22313.11      -51997.16      -66086.04      -42090.95       1776.432
       13288.71      -4708.529      -1883.353       9608.201      -5034.016
      -14225.20       3338.227       27815.22       42542.83       38571.14
       20696.91       24047.02       39096.03       25843.25      -2380.211
      -29726.72      -58010.78      -58257.97      -33145.84      -28537.83
      -53816.98      -50993.34      -15964.24      -642.1367       6558.945
       22672.72       17449.89       4937.816       10163.39       22324.26
       23610.74       17600.09       15765.70       38398.18       51572.07
       15957.87      -7744.992       23581.11       51275.55       40128.08
       8488.922      -18948.23      -21865.36      -13772.00      -22244.33
      -30260.58      -15689.91      -4933.992      -22109.51      -7965.484
       41906.53       48010.08       5081.168      -12642.26      -11886.44
      -21653.07      -28632.67      -32351.00      -30868.21      -12605.44
       13556.00       16006.04       9626.406       31855.88       49869.80
       34267.49       290.2461      -22616.22      -18401.90      -8236.586
      -19722.11      -35034.18      -23891.63       12844.34       41877.80
       59568.83       48585.42       10075.77      -11425.94      -20405.62
      -28845.71      -22795.83      -12223.43      -3716.500      -7344.938
      -20004.09      -23244.19      -5478.661       4920.912       5012.535
       19351.02       26188.16       18657.31       19744.71       27213.89
       11784.52      -24255.59      -23039.91      -1831.988      -16499.04
      -29042.83      -3978.588       8821.668       12105.53       27672.40
       22586.26      -5324.445      -4740.547       7396.570      -2556.082
      -12221.41      -7674.467      -2184.430       19166.13       49409.75
       28435.14      -4336.172       34731.69       61775.86       14223.24
      -29375.48      -20515.07      -14124.41      -38722.06      -54067.09
      -50353.86      -33933.84      -7421.773       12772.91       34308.02
       54244.81       61523.31       51942.73       25341.55      -11554.45
      -26626.60      -12646.00      -3595.125      -14750.78      -23602.84
      -16418.36      -1386.133       14574.35       24466.05       11323.36
      -18266.65      -41143.41      -29797.30      -10681.31      -35411.72
      -73420.06      -66246.38      -37895.58      -9336.672       11093.21
       16935.56       27519.78       39998.36       64967.56       101633.7
       105344.5       72102.82       30195.76       12362.04       12329.70
       2469.422      -20089.43      -34869.43      -39308.01      -29178.62
