     0.02500000      -664966.2       771260.0      -12345.00      -12345.00
      -30.01003       216.2649      -18.11000      -12345.00      -12345.00
       0.000000       13.44000      -12345.00      -12345.00      -12345.00
      -12345.00      -12345.00      -12345.00      -12345.00      -12345.00
      -12345.00      -12345.00      -12345.00      -12345.00      -12345.00
      -12345.00      -12345.00      -12345.00      -12345.00      -12345.00
      -12345.00      -32.11960      -68.98490       1817.000       0.000000
      -31.54000      -68.94500       0.000000       103500.0       0.000000
      -12345.00      -12345.00      -12345.00      -12345.00      -12345.00
      -12345.00      -12345.00      -12345.00      -12345.00      -12345.00
       64.37913       183.3533       3.374224      0.5788594      -12345.00
      -12345.00      0.2532519       90.00000       90.00000      -12345.00
      -12345.00      -12345.00      -12345.00      -12345.00      -12345.00
      -12345.00      -12345.00      -12345.00      -12345.00      -12345.00
      2008        49         8        51        21
       810         6    -12345    -12345      9852
    -12345    -12345    -12345    -12345    -12345
         1         7        13    -12345    -12345
    -12345    -12345    -12345    -12345    -12345
    -12345    -12345    -12345    -12345    -12345
    -12345    -12345    -12345    -12345    -12345
         1         1         1         1         1
CLAR    -12345          
        -12345  -12345  
-12345  -12345  -12345  
-12345  -12345  -12345  
-12345  -12345  -12345  
-12345  -12345  -12345  
-12345  -12345  BHE     
ZL      -12345  -12345  
[...]
       627.8057       150.5515       646.5135       171.6659       662.1875
       182.7882       673.6803       197.2192       685.5746       205.9652
       693.0342       210.1400       696.7543       221.3260       700.1168
       219.0594       698.9242       224.3406       698.4596       222.7667
       695.7402       213.9614       690.9309       210.1798       683.3022
       206.7144       675.5149       200.2249       667.2042       192.2700
       666.1489       187.0673       654.8921       175.9042       642.4780
       171.9397       633.5659       163.0929       628.7345       152.1936
       617.3262       148.1989       610.1761       142.2782       603.0162
       130.8043       589.6377       121.0345       577.5255       105.9988
       565.6410       100.3916       554.6820       90.10510       547.2524
       85.04065       540.8852       80.23303       538.3934       74.32788
       528.6677       76.84717       530.2319       70.61169       527.0900
       74.38672       524.0551       74.10950       521.5113       70.85596
       521.4471       79.00745       528.2595       79.74902       532.0317
       88.66406       530.9169       89.76758       534.4984       89.91028
       531.4316       90.70312       538.3177       100.6909       535.2261
       97.15234       534.3509       95.56689       534.9253       96.89197
       532.3573       95.41382       529.6781       87.29321       519.7885
       81.91443       509.2450       70.02209       499.7298       61.13367
       485.4037       49.87347       473.7658       37.22192       457.8819
       18.24323       436.8846      0.6749878       419.9887      -19.73334
       398.4547      -31.16492       384.2815      -53.45380       367.8224
      -65.16431       341.5455      -87.24738       328.0063      -111.6136
       300.9101      -126.2346       285.8849      -146.5328       261.0083
      -165.5423       241.4836      -189.9623       217.7751      -209.5127
       192.4111      -236.1819       164.6746      -261.6942       135.8523
      -285.1733       119.2430      -307.9063       90.55200      -330.6357
       67.71802      -352.4185       41.47064      -377.4419       19.45654
      -399.8707      -5.120544      -418.2914      -23.22998      -442.4933
      -51.15308      -456.3790      -62.31641      -472.5035      -82.14099
      -488.2079      -93.77600      -497.2466      -109.9728      -509.1968
      -113.9218      -512.3536      -119.9475      -516.8633      -118.3481
      -513.4949      -124.0583      -512.6523      -117.5197      -504.3496
      -116.5667      -501.2497      -109.4047      -492.0128      -105.8942
      -486.0322      -93.50781      -474.1565      -87.07684      -458.2396
      -66.72473      -436.6806      -58.96918      -416.0786      -27.71582
      -405.0138      -18.37555      -381.2961       11.01447      -358.8975
       15.04858      -338.0931       54.74896      -321.9527       52.29980
      -294.8264       99.59479      -279.1609       81.16400      -254.7052
       142.5690      -251.0282       91.09735      -225.0389       191.6566
      -220.9485       77.40581      -201.2571       254.9314      -262.7292
      -231.5039      -1240.758      -4206.812      -16009.67      -38430.88
      -72237.44      -110900.9      -122187.0      -50513.97       67551.28
       102011.4       65295.25       92772.81       108648.1      -8301.250
      -86005.28       275.4219       26407.25      -71944.56      -38364.31
       153575.0       218146.9       63572.28      -91622.40      -44019.19
       93641.55       54850.50      -116514.0      -145323.3      -6545.141
       83907.96       24378.61      -53700.43      -27906.43       28617.73
       6834.508      -41426.34      -48235.62      -11943.92       14915.70
       847.5391       6449.312       27509.89       1025.172      -50258.88
      -78373.36      -68871.12      -12019.66       61709.31       70488.03
       59365.66       100660.7       121970.0       77083.29       18688.47
      -41826.44      -87692.47      -71011.78      -11604.77       21462.05
       4025.672      -33712.47      -40926.26      -3923.500       39204.26
       22402.83      -57789.41      -103334.1      -81271.75      -82553.16
      -85901.52      -43963.31      -22430.99      -46435.82      -33885.00
       64601.91       151169.7       137135.2       91547.92       67846.88
       41528.12       8518.496      -13728.87      -19497.85       2053.512
       15342.15      -13421.22      -43860.28      -48159.11      -48057.22
      -59625.03      -67942.25      -40424.85       6643.086       29555.59
       37098.03       73234.25       115124.6       122119.2       81980.18
       10142.83      -33493.85      -15919.52      -773.2266      -23041.78
      -48166.81      -45315.23      -35125.91      -55334.50      -88506.23
      -80413.92      -30766.29       3312.547       12044.38       14959.85
       9831.633       15186.73       14469.71      -11157.77      -44682.25
      -56262.54      -18687.64       33912.09       56230.53       71451.36
       85275.30       76460.79       35720.39       1954.984       8896.732
       15258.03      -1710.141      -29271.09      -56232.80      -55363.89
      -49336.16      -44565.53      -45075.23      -68067.91      -68110.33
      -31668.40      -8460.360      -6309.963      -1895.203       19103.94
       44634.95       66150.22       92797.03       107532.7       84846.92
       48643.98       22800.87      -8708.406      -57446.03      -102451.5
      -127304.0      -118728.6      -72615.84      -10305.73       44082.44
       77960.75       97981.75       113577.6       101118.7       69242.27
       38800.91       7897.406      -19207.36      -30042.91      -37465.38
      -45746.84      -33843.23      -11732.78      -3637.039      -8160.383
      -9852.801       802.3535      -3808.055      -22872.16      -20268.79
       8235.625       31268.98       32637.24       21021.94       698.1641
      -31433.39      -58612.86      -55136.44      -22894.85       10385.88
       33589.22       42520.48       31306.14       11486.97       10572.63
       18369.22       12760.70       15722.64       36611.42       33443.29
       9353.654      -4095.961      -12189.98      -22132.69      -29368.02
      -36550.62      -38668.30      -28113.54      -5225.543       9093.078
       12470.37       20721.10       26985.98       18076.61      -6691.078
      -31540.67      -37351.28      -37809.16      -40609.29      -30972.34
      -4258.100       11084.47      -6095.621      -23276.55      -12526.75
       7118.879       14819.86       11792.48       20850.22       36747.38
       41797.95       40331.84       39090.84       33505.07       17512.41
      -3962.141      -16142.11      -17106.91      -23698.47      -37241.38
      -47499.91      -51042.33      -30399.48      -4245.439      -1035.725
      -4800.219      -1598.461       6944.242       23759.42       41059.22
       59594.33       57926.82       27388.29       10054.74       11887.73
      -10677.25      -47962.48      -59277.33      -57550.05      -56913.62
      -51278.33      -43011.65      -31392.87      -5110.297       29222.38
       41491.08       38484.22       42274.02       50407.10       48516.07
       31720.38       10013.80      -3093.055      -17235.77      -30744.55
      -29621.56      -25327.72      -34412.20      -46120.80      -42312.66
      -20987.55       7186.918       18300.12       427.4355      -6356.141
       12170.31       19923.24       19879.98       38701.22       62154.12
       67130.22       58078.38       38522.86      -3594.469      -43479.48
      -43975.75      -25455.23      -24126.53      -40954.28      -58383.34
      -59151.86      -30040.17       3741.333      -480.7578      -7849.748
       5731.344       16943.21       33958.61       53115.08       49271.55
       35713.39       27597.86       8422.559      -12910.45      -16560.52
      -21336.29      -32842.81      -38696.41      -22811.07      -1202.920
       3412.887       12400.64       20709.48       8714.031      -8580.246
      -10416.40      -2699.113      -4051.416      -8939.850      -2271.203
       11018.04       16073.22       16180.02       15306.25       16631.57
       23404.23       24994.71       24744.16       22071.71      -2179.773
      -24778.91      -31314.84      -41755.43      -34210.63      -14830.11
      -17140.82      -20004.71      -5283.285       14848.37       14169.56
      -1485.555       9629.406       33727.20       16564.97      -21754.92
      -34772.86      -32559.23      -21005.80      -8873.164      -6610.262
      -8636.684      -14387.57      -8490.898       3742.742       11731.78
       16707.95       6626.385      -8686.014      -8252.449       5926.430
       23723.84       20857.49       6501.451       6977.696       3642.898
      -16881.05      -30133.13      -11602.74       10931.73       13259.06
       11139.33       6055.259      -423.8516      -4206.965      -8702.089
      -3972.215       8952.398       22842.72       26413.91       21176.17
       24501.39       21770.56      -2639.555      -24370.43      -22176.78
      -10453.10      -1412.981       931.7188      -9878.561      -16683.02
       3106.484       26724.09       19626.26      -5218.410      -10988.55
      -9187.008      -25263.76      -33791.85      -34874.42      -50311.83
      -59905.17      -37119.52      -1866.344       11645.86       15995.78
       28256.27       37213.40       36911.65       26939.33       11297.19
      -7113.207      -15848.60      -2995.406       14135.86       18904.03
       29839.30       49251.82       39192.77       5620.652      -15818.54
      -18109.68      -5983.812       5351.201       11075.60      -1635.906
      -29541.48      -41526.69      -35244.21      -21959.63      -11681.50
      -1124.164       11108.18       8778.891       2702.031      -1469.248
      -8079.625      -10202.14      -1396.926       13029.18       18745.96
       17653.90       20454.82       24213.50       25591.99       34749.62
       35978.68       8823.156      -26208.78      -56544.55      -64056.25
      -55657.47      -57028.71      -49439.86      -14585.45       22549.47
       42157.05       50822.64       55055.34       52818.42       40541.34
       35891.62       42052.19       44999.12       52650.23       60948.04
       51072.76       6658.984      -39383.77      -59915.31      -84578.19
      -106404.1      -103509.0      -85295.86      -57652.59      -34182.65
      -18612.11      -1122.133       28235.22       62680.38       82152.72
       74083.53       56504.66       38488.87       2633.719      -46283.67
      -59404.03      -31584.83      -9584.801       2613.695       15794.17
       19510.05       9637.617       4396.703       24611.28       50251.95
       51825.95       36421.27       38644.09       48238.23       41207.62
       8805.297      -45747.56      -88352.56      -96240.66      -73662.18
      -43396.66      -8206.547       48813.61       75282.75       43671.98
      -6851.016      -45221.42      -46680.07      -14318.55       17042.67
       27066.98       19516.99      -859.6562      -39709.34      -61786.47
      -48847.02      -21560.17       8658.688       28614.24       33445.71
       31486.10       15756.04      -7811.641      -19589.74      -12357.51
       9216.875       29127.58       36287.12       68305.75       150717.0
       253969.1       362516.9       469615.5       535449.9       530888.1
       429751.7       258865.5       74937.62      -83759.12      -157649.4
      -140343.8      -115549.7      -118389.8      -103355.3      -33352.62
       83016.94       207164.6       267092.6       190755.0      -43467.75
      -327710.6      -498833.9      -527494.8      -466447.1      -311247.1
      -68282.53       150996.1       169790.2      -38805.25      -306923.1
      -479063.9      -549113.5      -590855.2      -614626.2      -589476.8
      -549557.2      -465630.2      -234933.7       117635.0       438458.5
       616174.8       653561.5       601904.9       459849.2       249255.3
       97684.28       89352.75       143960.7       144727.0       79078.33
       18858.75      -5842.987      -5494.969       5994.923       13022.64
      -10257.78      -113227.3      -287768.9      -415128.5      -388331.3
      -204435.9       6599.938       108501.7       112031.4       93992.95
       57343.28      -26277.19      -149152.1      -264975.1      -320591.1
      -273754.4      -100015.6       172546.9       428622.8       584974.8
       638168.8       564182.4       309378.0      -87211.62      -466997.5
      -664966.2      -644819.4      -477792.4      -223393.6       96106.00
       429604.0       684946.5       771260.0       665078.6       416069.2
       113636.0      -158062.5      -339668.8      -395385.1      -335474.9
      -233479.0      -128378.2      -28160.49       20187.31      -18016.69
      -82194.21      -47232.03       111741.2       254249.4       296501.2
       265680.7       167287.0      -13054.00      -229670.9      -391375.1
      -424241.2      -343479.2      -221688.0      -110251.0      -43536.16
      -33025.97      -25312.34       29689.66       97286.69       109036.3
       80532.75       92439.00       177817.1       246934.1       235318.4
       174073.3       93022.36       8452.625      -68876.81      -106093.6
      -33813.94       134442.1       289376.6       341445.4       289719.7
       175216.1       28162.38      -136829.2      -287755.0      -392787.8
      -449695.4      -458963.9      -414354.2      -334054.9      -212646.3
      -50316.88       101893.2       172688.6       150130.5       97461.42
       59278.91       39073.50       52483.84       86074.72       116403.1
       152845.2       193361.8       197124.2       137247.5       6868.375
      -140029.5      -223893.2      -246903.1      -235356.6      -167488.4
      -55412.12       43754.09       74629.97       37926.19      -13715.94
      -38346.14      -46542.58      -60876.08      -60278.74      -7895.219
       85070.00       180104.1       241439.2       268427.6       279741.8
       282632.7       241350.0       142156.4       40290.75      -20205.28
      -52814.78      -73347.38      -105726.0      -157518.2      -196293.8
      -204398.3      -188090.5      -153751.5      -101731.9      -18949.12
       72169.09       138617.5       151540.6       88432.38      -26325.31
      -116376.4      -146257.2      -141780.4      -104208.6      -32495.94
       21561.77       39574.25       43577.88       46343.52       40318.00
       37953.67       46598.55       58593.52       63745.14       35508.72
      -22730.75      -78769.16      -131810.5      -161653.0      -143801.8
      -76522.25       20526.69       95914.09       110204.0       87457.89
       71015.09       62351.07       26714.33      -21214.84      -38520.80
      -18494.56       5030.561       9373.582       2934.352      -17284.31
      -69575.44      -141073.3      -193249.1      -191213.7      -121664.9
       6574.000       148315.2       257146.2       297402.2       281612.5
       246108.0       193263.7       131157.8       87240.83       48535.47
      -16222.97      -102121.2      -179579.5      -233970.6      -279411.6
      -350663.2      -411309.4      -402831.6      -316023.6      -181712.6
      -46979.19       56115.56       129425.6       182816.0       214108.5
       235302.3       246452.8       228271.7       196164.1       148968.0
       84341.39       19062.45      -36972.50      -73706.39      -83647.17
      -63962.08      -8767.469       61526.88       133269.6       196383.8
       233900.1       238377.2       199881.3       119416.4       42033.37
      -13706.50      -61293.44      -102793.2      -131593.4      -123639.6
      -71881.26      -11536.61       40818.64       67043.98       52577.00
       17160.68      -15877.22      -40103.44      -44230.98      -30663.26
      -11282.86       21998.27       71120.56       94633.84       86539.59
       69579.50       60414.41       51911.96       20213.75      -11054.74
       780.7969       45970.42       84042.23       84440.84       61162.23
       47095.91       43437.27       12260.88      -58557.44      -133972.8
      -177294.3      -201386.9      -214003.4      -206422.4      -187351.6
      -167880.6      -147671.5      -122152.8      -103852.6      -104811.8
      -100950.0      -69150.99      -3922.656       49226.88       56344.81
       49796.58       53309.98       47360.18       27104.64       11046.77
       25266.69       62154.59       91938.91       104259.4       121090.5
       153557.8       169651.6       142381.8       92543.48       51258.73
       29018.32       297.9219      -44902.84      -92093.97      -128524.8
      -139715.8      -115254.8      -85883.84      -86147.91      -107496.4
      -125091.7      -138958.2      -154096.6      -161559.3      -151433.3
      -143604.4      -143856.8      -134155.1      -112404.0      -78595.16
      -22586.97       38530.00       98205.94       150134.8       168746.0
       158287.9       136119.2       109515.4       101569.5       112035.1
       133345.9       165669.7       193987.3       201155.9       176689.6
       116432.5       38002.86      -38347.94      -87651.27      -96865.48
      -67745.24      -21533.44       19921.95       42132.72       31781.86
       6244.441       829.4062       19848.12       53433.33       70793.03
       51328.36       13091.38      -17775.78      -36019.55      -56678.38
      -87624.03      -105748.1      -121641.6      -164622.8      -214585.7
      -239194.5      -237912.6      -208772.2      -140335.7      -43931.19
       33777.17       76552.12       99911.31       106049.8       96135.94
       88948.59       86481.64       80898.48       76011.45       64613.38
       21735.27      -45998.88      -103066.5      -123828.3      -101965.9
      -35448.61       44402.25       105927.2       155861.4       201942.1
       224106.4       213923.8       194399.9       173869.8       134713.4
       78540.55       21091.81      -29071.88      -69780.44      -95968.91
      -115198.8      -126900.9      -117818.7      -72679.83      -6868.516
