     0.02500000      -15737.70       18843.53      -12345.00      -12345.00
      -30.01003       236.0900      -36.01000      -12345.00      -12345.00
       0.000000       27.36000      -12345.00      -12345.00      -12345.00
      -12345.00      -12345.00      -12345.00      -12345.00      -12345.00
      -12345.00      -12345.00      -12345.00      -12345.00      -12345.00
      -12345.00      -12345.00      -12345.00      -12345.00      -12345.00
      -12345.00      -29.93570      -67.10960       688.0000       0.000000
      -31.54000      -68.94500       0.000000       103500.0       0.000000
      -12345.00      -12345.00      -12345.00      -12345.00      -12345.00
      -12345.00      -12345.00      -12345.00      -12345.00      -12345.00
       250.0479       45.13095       224.1974       2.248163      -12345.00
      -12345.00    -0.05312408       0.000000       90.00000      -12345.00
      -12345.00      -12345.00      -12345.00      -12345.00      -12345.00
      -12345.00      -12345.00      -12345.00      -12345.00      -12345.00
      2008        49         8        51        39
       710         6    -12345    -12345     10645
    -12345    -12345    -12345    -12345    -12345
         1         7        13    -12345    -12345
    -12345    -12345    -12345    -12345    -12345
    -12345    -12345    -12345    -12345    -12345
    -12345    -12345    -12345    -12345    -12345
         1         1         1         1         1
COLO    -12345          
        -12345  -12345  
-12345  -12345  -12345  
-12345  -12345  -12345  
-12345  -12345  -12345  
-12345  -12345  -12345  
-12345  -12345  BHN     
ZL      -12345  -12345  
[...]
      -1208.709      -329.1323       1120.271       597.2490       1088.794
       1123.534       289.6011      -478.3311      -2930.737      -2376.654
       590.3079       1154.219       1728.033       831.1807      -1193.698
      -1112.138      -689.3242       79.76465       1770.996       2622.596
       2205.819       775.0676       198.6050      -68.39185      -1399.543
      -441.5425       1684.825       2372.017       2571.961       455.4292
      -2093.980      -1933.520      -1385.515      -1333.770      -555.7285
      -37.64404       12.26318       948.0891       1690.395      -985.3223
      -3240.060      -2147.287      -1304.031      -275.6222       691.0756
      -145.0226      -483.2020       269.8210       947.9868       1582.989
       1998.402       964.6499      -1292.785      -1845.600       399.3962
       1169.723       1389.472       3410.773       1240.066      -2405.391
      -1723.822      -1887.869      -3034.895      -1220.285       1741.362
       508.6011      -2263.191      -755.8087       72.31885      -1440.779
       36.09326       2209.206       1669.895       686.9412       824.2776
       928.8092      -219.4574      -478.7637       2539.782       3703.624
       786.2050      -577.2781      -471.8576      -254.4728       350.1777
      -950.3755      -750.8765       65.14453      -495.1472       465.4395
       810.5895      -205.6655      -1419.699      -1122.603       745.4447
       613.3687       769.6509       2201.223       830.9854      -1783.991
      -2645.185      -3157.119      -2751.367      -923.6741      -136.9439
      -63.30640       57.96313      -548.2911      -73.89148       165.2969
      -1584.349      -2497.057      -845.8931       1388.318       2233.491
       2218.491       889.8965      -2430.922      -3726.739      -2179.743
      -406.8685       680.3666      -124.2792      -838.8015       162.9199
       1078.619       1506.755       1438.593       1236.639       413.3037
      -1941.241      -2080.312       222.2649       111.0967      -1852.330
      -3615.897      -3018.137      -1126.397       207.0066       774.9265
      -984.4965      -964.5488       2172.290       2033.510       137.7529
       1660.986       1337.090      -345.7307       404.1279      -265.9214
       1569.769       3095.258       704.0718       668.2822       660.0579
      -326.2892       545.3000       831.1732       587.7578       690.3076
      -62.04883      -2326.250      -4038.315      -2352.501       982.4473
       1991.606       1365.390      -317.3049      -1917.156       203.6616
       1852.694      -363.7749      -1535.726      -1098.719      -869.5573
       141.2747       121.6523      -2436.407      -2766.025      -925.8618
      -1009.340      -811.4775      -938.6946      -1423.301       1636.336
       5445.431       6041.904       3341.507       164.5630      -1811.109
      -2065.737      -692.7544       596.6309       1551.058       1203.232
      -678.4919      -1602.262      -194.1577       442.5852      -742.6148
      -349.7054       47.13110      -1154.958      -1623.459      -346.3647
       1259.192       458.1877      -1486.105      -902.2532       500.5132
       497.3149       615.0034       1291.675      -192.7329      -2683.730
      -1433.267       1361.178       652.3839      -1044.315       55.77954
       1641.494      -702.9355      -2767.212      -732.5868       286.3342
       660.1941       1215.241       212.1677       359.6226       1664.486
       1789.869       566.6189      -704.2795      -114.8296       1887.705
       2089.385       1648.634       926.8848      -1614.040      -1951.917
      -456.2228       326.3267       153.7001      -1066.087       182.4714
       1199.875      -196.1934      -211.1931      -1104.553      -1859.194
       544.9082       1522.649       1333.236       927.6835      -244.8362
       468.4399       1170.888       683.9432       15.24854      -660.2991
      -632.1436      -1002.465      -1580.063      -1661.911      -1817.853
      -1196.073      -329.6264      -31.31177       179.5095       447.1802
       1713.829       1921.940       150.6412      -329.0789      -197.0881
      -108.2128       246.4283      -98.81836      -640.9519      -838.7866
       626.2095       1524.638       503.7627      -1178.717      -2407.950
      -1997.754      -771.1147       1511.123       3331.141       3388.050
       1246.815      -918.5957       445.9082       1673.123       489.1729
      -788.0729      -708.6481      -64.56786      -117.6884       434.2130
       654.3788      -499.4316      -1567.693      -1535.253      -395.3687
       128.8711       405.1027       251.3961      -165.5834       468.2678
       1255.221       1023.010       1139.026       1528.022      -798.9048
      -2329.045      -244.0845       2500.812       3213.341       2549.178
       1405.925       178.7549       1980.273       2566.710      -316.8545
      -2639.090      -3097.220      -2213.457      -2066.372      -484.8660
       1320.454       85.64209      -1864.214      -1469.131      -1442.845
      -2932.097      -631.0806       1883.755       1180.874       657.8483
      -534.6120      -471.7107       1360.875       607.2754      -1027.636
      -1983.826      -3006.402      -972.2832       1747.033       727.8843
      -1182.144      -2905.165      -3937.217      -2657.244      -1604.759
      -1554.565      -137.6226       1696.681       1753.015       545.6606
       255.8954       374.0256       870.9053       1758.812       1148.870
       1951.825       2893.372       1664.685       1084.737       1254.062
       1726.952       961.9625      -817.6887       237.1309       1573.829
       881.2212       894.0854      -1029.109      -3510.745      -1965.370
      -82.22867       215.7124       154.6709      -125.7488      -346.4058
      -2176.868      -2940.558      -781.5679       785.0742       2225.550
       2656.233       1572.819       289.8849      -447.4458       846.1881
       1263.452      -1531.917      -2203.440       987.2086       1529.839
      -1984.436      -4246.648      -2257.193      -1099.540      -1468.517
       1466.264       2648.985       432.5088      -880.5354      -1359.160
       50.11719       1970.353       1112.878       1552.853       2521.681
       988.0610       824.6470       716.4131      -834.0847      -942.7108
      -276.8638       8.748779      -920.1357      -1443.328      -774.8971
      -40.03394      -265.6674      -903.6765      -162.9189      -1472.589
      -3882.954      -2885.240       1286.885       4377.935       3513.657
       2668.261       1931.314       28.77527      -478.3462      -721.4731
      -1701.035      -870.9453       898.9041       921.0327       472.8633
      -358.0972      -2122.523      -2050.906      -1173.863      -601.8770
       1311.001       2297.068       1144.205       527.4978       672.2021
       722.9641       595.2074       36.52100      -2221.577      -3202.806
       119.4204       1694.987       1136.360       2613.890       1439.670
      -454.9570       92.10443      -238.9238       117.1712       186.6554
      -539.1052      -149.2285      -1172.488      -2667.546      -2867.899
      -2240.128      -2451.197      -2289.513      -225.3008      -1055.091
      -2978.473      -1045.478       373.0259       1117.286       2747.651
       2918.811       1371.603      -447.7152       56.71094       862.9771
       1132.016       2928.266       3972.256       3093.599       251.0559
      -1195.792      -1279.372      -2126.182      -1668.836      -1892.466
      -2759.237      -1757.054      -881.1738      -1858.646      -3640.633
      -3068.296      -338.9673       1334.784       666.8485      -39.81055
       1564.850       3261.800       3318.332       2392.391       724.6026
       204.9005      -432.8293       468.6069       2340.395       1258.614
       209.2827      -565.4131      -996.7754      -2028.620      -2458.437
       1193.266       2465.217       302.3080       54.74759       297.1516
      -312.2129      -556.2617      -2077.660      -3510.374      -2580.360
      -586.5063       1177.109       1037.387      -318.0840      -1202.638
      -2170.327      -1691.527      -321.4387      -13.08777      -701.3201
      -563.6047      -708.4131      -491.4434       1560.934       1977.093
       1116.433       34.60742      -1566.246      -1248.569       507.4854
       1360.346       1029.067       2208.289       3799.284       3257.353
       2323.917       1715.962       1571.545       381.2139      -1806.237
      -1184.430       1043.055       1581.267      -756.9424      -3007.418
      -3005.252      -1661.648      -229.3931      -992.5957      -3256.801
      -3946.285      -2636.345      -713.6709       1395.689       3244.677
       4003.394       3583.181       2197.512       1189.353      -230.9536
       452.8281       3051.410       2483.980       1088.419       1567.585
      -60.15527      -2559.399      -2067.890      -534.1709      -2162.487
      -4135.129      -1943.375       805.5596       1270.540       885.9135
       390.0557      -250.4648      -755.8601      -691.9051      -490.4053
       673.4688       2895.998       3189.444       1516.969       1364.417
       1110.571       402.1672       25.44531      -1617.516      -3003.737
      -1256.392       1067.208       2369.158       2313.074       573.7250
      -620.5092      -788.2122       131.9154      -76.20776      -1016.071
       332.5752       596.3066       1339.544       3249.294       1861.733
      -70.01514       1428.146       2585.418       598.5706      -1324.719
      -878.4521       1291.155       3961.124       4890.205       3236.306
       471.6001      -1454.934      -3619.814      -5211.026      -3818.753
      -545.0020       1587.165       1553.870       263.9492       365.9307
       2664.630       3387.820       1904.351       826.5479       962.8994
       3206.966       4923.734       4277.379       1919.745      -259.4644
      -769.4242      -322.1738      -257.7852      -1913.347      -2648.997
      -1943.032      -1305.004      -769.1594      -1452.679       30.28424
       453.8691      -1862.405      -2218.063      -2925.301      -4301.060
      -3633.465      -908.8594       1534.536       1927.363       3079.079
       2882.783      -864.7290      -1736.449       1187.743       2217.384
       3695.553       5720.182       5120.558       2345.549       212.1748
       2217.309       4402.481       2861.657       1086.586       37.10205
      -1040.723      -579.5977       865.0099       655.1272      -123.0405
      -875.9736      -1514.107      -2167.214      -2982.438      -3140.715
      -1753.483       461.0166       1057.525       679.2676       2500.276
       2536.444      -656.9429      -1378.256      -953.6440      -398.8397
       729.9072      -96.01807       973.3281       3543.254       2785.660
       497.7866      -1697.468      -3548.931      -2261.397      -808.7580
      -719.6128       644.6160       1245.996      -185.8906      -1105.717
      -571.9634       957.4629       2615.139       3873.984       2142.289
      -392.4521       885.7949       1642.843       525.3867       606.2122
       559.8833      -1261.668      -3987.478      -3859.658      -2213.955
      -1392.243      -1345.836      -2784.656      -4067.715      -3812.009
      -4121.854      -4570.188      -3182.194      -1287.805      -839.8887
       846.3096       2881.602       2415.547       2204.530       2568.516
       878.3700      -154.2445       21.46814      -188.3826      -601.4893
       366.2910       3407.347       3112.215      -288.5918      -1621.977
      -921.5042       628.6610       492.7744      -731.4630      -192.9009
       667.0098      -589.5957      -1670.790      -1445.357      -568.8805
      -289.8804      -847.8137      -1204.870      -510.3267       1192.786
       1599.297      -107.0068      -2237.576      -5982.805      -8473.334
      -7865.762      -6357.596      -3744.170      -868.3896       2682.187
       4551.354       171.4492      -5771.410      -7750.713      -5113.626
       320.0042       1684.312      -3345.199      -7718.826      -8764.736
      -9033.994      -9510.893      -8703.442      -6246.394      -2258.283
       884.9731       760.0605      -4468.891      -9220.896      -7763.104
      -4843.037      -1834.614       876.9058       890.7256      -1465.380
      -3530.514      -2460.357       1674.617       9126.516       13249.50
       11875.04       9695.387       2349.246      -8501.285      -12144.20
      -8848.906       559.8516       12394.82       16179.34       13991.31
       10623.48       2663.391      -7832.625      -12841.37      -8924.090
      -5115.304      -3257.273       8653.164       18843.53       13749.50
       9732.352       7175.994      -2527.513      -7684.347      -211.0107
       4888.587       3960.672       8469.227       9994.309       6642.196
       5270.986       2771.972      -920.9546      -2206.001      -1913.406
      -2607.752       3890.760       11101.15       9947.498       10211.46
       4769.533      -5944.555      -4831.309      -1121.612      -874.1387
       3770.643       7809.024       3797.325      -1255.100      -1718.404
      -6725.645      -15737.70      -10221.74       1422.643      -1180.797
      -6620.209      -5839.801      -8512.617      -14202.10      -11372.45
      -3498.766      -494.4541       852.4802      -1276.499       374.0352
       12034.12       10453.88      -2827.812      -7593.320      -12058.44
      -12612.59      -2934.615       5937.203       13383.46       14246.26
       3107.982      -6126.523      -11015.65      -12683.52      -7911.553
      -5902.733      -2429.109       9097.824       17763.86       18502.95
       8299.035      -420.8262       3132.272       5910.895       1620.050
      -2357.484      -228.9072      -1520.777      -8573.936      -7313.094
      -1451.426       4906.797       15715.20       15282.11       2457.528
       907.9424      -778.6016      -7998.426      -2461.696       2885.042
      -769.4841      -1559.442      -400.6104      -1170.296      -299.6514
       2299.707       3555.195      -265.7754      -6302.520      -9195.090
      -14940.36      -14678.61      -3283.523       6872.479       11126.75
       8151.953       483.5234      -3021.320      -4882.977      -10958.09
      -13046.77      -7411.934      -4224.162      -3357.184       551.2079
       1003.401      -1412.577      -3328.447      -7844.863      -8029.245
      -2953.370      -1557.177      -3847.683      -2210.607       2918.178
       2776.518      -155.2642      -834.8914      -1379.719       3554.912
       4880.371      -648.6255      -2449.133      -2000.137       4630.855
       11512.94       8756.021       5527.101       496.3525      -5038.738
      -2008.020       3628.258       6098.537       7672.854       7924.356
       3842.635      -252.6621      -1433.860      -2458.545       2011.190
       5206.564       4540.176       9444.988       10413.28       9786.312
       13633.83       7868.193      -3065.555      -11297.50      -14033.03
      -5957.322       3729.586       7324.820       7145.064       7748.621
       11501.85       7182.801      -4524.688      -8572.199      -8242.023
      -9065.386      -5613.939       1226.871       9400.871       13283.57
       7124.894      -1752.223      -8555.129      -11518.10      -7221.770
      -6102.395      -8301.411      -3786.887       2786.451       6727.764
       3950.742      -6855.062      -14007.00      -14331.04      -6996.514
       3086.104       6712.100       7425.469       8971.337       7429.702
      -63.06250      -5017.729      -2360.147       841.0474      -445.3154
      -1927.855       1598.960       1598.103      -1122.065      -106.9363
       163.2393       3431.902       5017.712       323.0327       2210.005
       1410.281      -5186.166      -4420.326      -2338.041      -886.8477
       3334.807       3175.990      -2217.686      -5087.617      -4660.229
      -5716.051      -2954.551       1462.501       1803.782       2153.098
      -462.3184      -4453.582      -3495.148      -1509.137       3754.117
       9305.441       7368.650       4512.449       5064.572       3683.688
       2445.854       3072.504       2054.914       1868.932       3260.014
       5304.156       8203.029       6120.491       3278.116       2970.938
       2516.797       5894.592       8000.979       5346.052       2382.139
      -781.9359      -528.2236       1906.910       2124.799       1539.447
       1195.786      -2363.809      -8414.012      -12458.35      -11079.09
      -5345.982       1.600586      -118.2999      -496.6980       1311.549
      -3686.609      -8798.629      -7786.490      -7618.372      -5301.577
      -1902.058      -2239.348      -1142.191      -946.8906      -2826.027
      -2971.683      -4654.037      -376.7231       4166.361      -1091.945
      -4825.035      -4427.501      -2015.938       3917.391       6047.890
       3364.969       2264.733       3839.365       2327.791      -825.2227
      -3799.898      -7577.229      -4664.906       2804.109       4306.857
       4040.830       6338.804       5336.754       2577.947       1081.674
      -1699.721       889.7119       3926.502       1313.017       787.0391
       2668.841       3971.495       897.2617      -3676.169      -3023.052
      -103.3916       3869.142       4341.309       1090.525       1291.408
       879.0674      -3798.453      -4017.128       595.6836       3478.934
       6016.823       3530.047      -3976.288      -4531.052      -1941.171
      -321.7877       37.24902      -329.2090       2437.996       3786.858
       1083.600       301.4514       245.7793      -4281.168      -10393.94
      -11339.33      -3338.614       4520.797       4331.531       1360.788
      -1516.853      -661.5825      -492.1133      -3920.126      -1899.205
       4493.832       6171.804       3710.801       769.8242      -5242.330
      -8577.582      -836.1572       5742.801       5169.164       6096.471
       7134.229       1618.429      -5293.984      -3993.784       2019.667
      -1513.664      -9968.311      -8570.504      -3838.653      -2139.710
