     0.02500000      -16221.18       16251.66      -12345.00      -12345.00
      -30.01003       236.0900      -36.01000      -12345.00      -12345.00
       0.000000       27.36000      -12345.00      -12345.00      -12345.00
      -12345.00      -12345.00      -12345.00      -12345.00      -12345.00
      -12345.00      -12345.00      -12345.00      -12345.00      -12345.00
      -12345.00      -12345.00      -12345.00      -12345.00      -12345.00
      -12345.00      -29.93570      -67.10960       688.0000       0.000000
      -31.54000      -68.94500       0.000000       103500.0       0.000000
      -12345.00      -12345.00      -12345.00      -12345.00      -12345.00
      -12345.00      -12345.00      -12345.00      -12345.00      -12345.00
       250.0479       45.13095       224.1974       2.248163      -12345.00
      -12345.00    -0.04172123       0.000000       0.000000      -12345.00
      -12345.00      -12345.00      -12345.00      -12345.00      -12345.00
      -12345.00      -12345.00      -12345.00      -12345.00      -12345.00
      2008        49         8        51        39
       710         6    -12345    -12345     10645
    -12345    -12345    -12345    -12345    -12345
         1         7        13    -12345    -12345
    -12345    -12345    -12345    -12345    -12345
    -12345    -12345    -12345    -12345    -12345
    -12345    -12345    -12345    -12345    -12345
         1         1         1         1         1
COLO    -12345          
        -12345  -12345  
-12345  -12345  -12345  
-12345  -12345  -12345  
-12345  -12345  -12345  
-12345  -12345  -12345  
-12345  -12345  BHZ     
ZL      -12345  -12345  
[...]
      -678.5547      -600.1255       1175.390       1750.134       519.8301
      -1798.835      -3031.758      -3596.028      -2511.255       1412.449
       3268.682       2906.454       1959.894      -715.4502      -2501.114
      -1134.003      -352.4968      -1351.942       46.61401       1523.866
      -278.2466      -1799.153      -496.5952      -748.2273      -1696.706
      -150.7446       1328.456       2448.029       3358.170       2007.876
      -2915.014      -6675.123      -4420.040       822.7168       3814.206
       2503.880       154.1094      -1181.829      -2744.739      -3704.133
      -515.8027       1971.865      -502.6158      -1047.906       1343.517
       1113.185       1033.331       2377.434       1960.532       1472.326
       1234.446       1342.760       2038.901       1505.724      -839.1426
      -4068.643      -4353.224      -2490.827      -945.7806       124.0902
       323.3546       119.8065      -24.13513       493.4257       319.3989
      -1480.507      -1200.207       1415.142       1291.350      -634.0706
       75.85498      -846.4902      -4046.235      -2724.038       785.8965
       1897.721       1776.520       42.67310      -41.01367       1833.688
       3197.227       4929.717       4989.857       3195.834      -552.7783
      -4229.337      -3255.622      -1013.565      -447.9202       868.5220
      -455.3594      -5693.132      -3891.682       2105.584       1786.947
       972.4707       3540.109       2865.854      -888.5107      -508.1377
       3102.800       3146.340       1189.980       995.8743       270.3501
       1614.005       3721.993       2210.765       2175.760       2192.363
      -915.8916      -820.2061       3138.317       3297.966       1080.611
       1298.173      -535.7500      -2903.224      -1815.953       294.0371
       3500.073       2951.827      -1135.255      -1732.147      -714.8762
       272.0281       1318.596      -848.8779      -3493.375      -2581.790
       92.90576       1216.983      -209.3853      -1921.362      -1559.616
       1341.340       3213.041       1716.258       1345.085       2359.658
       2483.172       1660.750      -734.8286      -1447.997       555.7678
       1422.957       768.9774       69.29395       170.7910       1561.917
       1552.834      -149.7830       473.7683       1413.942      -929.1465
      -2348.403      -808.0051       248.1787       920.7673       320.0654
      -929.1709      -1383.038      -2221.110      -2468.705      -252.1738
       1636.009       1570.361       2046.111       1393.897      -1706.093
      -3126.601      -29.02930       3269.051       2251.199       165.8486
       385.0920       1124.681      -969.6340      -1929.647       1152.558
       1298.851      -58.43506       1091.870       389.6450      -1063.272
      -395.5828      -412.4058      -1351.066      -2011.447      -1951.941
       58.28809       1655.446       1624.186      -66.11401      -1137.071
      -1146.817      -962.5178       768.7456      -1433.653      -3961.699
       165.6477       1330.076      -651.3379       399.8363       117.8740
      -1524.948      -1285.388       96.68750      -154.3882      -1075.138
      -550.6283       166.1827      -272.2258      -1272.197      -817.7915
      -378.0303      -1327.092      -2649.767      -3205.329      -2593.219
      -798.1727       763.1282       1159.597      -593.6614      -1838.715
       1279.668       4206.631       3610.309       1432.358      0.8447266
      -1272.871      -2151.054       442.6929       2697.414       1261.937
      -410.1377      -625.5000      -2091.854      -4150.721      -2923.561
      -635.6531       44.16357       1724.683       3463.662       2364.696
      -513.4204      -2479.030      -1996.422      -360.3608       801.5889
       981.3953      -791.7820      -1192.514       864.9620       585.3484
      -883.4863      -1910.400      -3342.039      -2825.839      -1672.450
      -2021.336      -1833.055       1073.058       2142.338      -647.4092
      -1844.652      -1240.562      -1084.041      -2219.588      -3043.035
      -1759.261      -979.8408       261.9141       4062.396       4418.052
       1746.156       1490.099       507.2480       286.8057       657.9836
      -279.2437      -845.9658      -1583.455      -2059.679      -1378.755
       340.0459       1800.371       1257.796      -376.5332      -1993.921
      -2397.140      -260.2803       1514.310       2453.754       3070.308
       2250.927       2169.661       2244.267       1104.499      -387.6018
      -1308.262      -1217.161      -1246.681      -1243.987       364.8027
       278.5977      -2456.814      -2147.677      -551.0747      -2102.434
      -3426.040      -1853.778      -154.7114       615.0190       1941.265
       2412.558       1614.479       235.0120      -723.3218      -195.6396
       2044.950       3063.321       306.8081      -1858.836      -3201.109
      -5019.892      -2838.069       999.7256       3221.212       3940.947
       1531.769      -1111.802      -1918.798      -1989.963       732.7095
       1951.446      -811.7710      -1259.517       466.8368       333.1465
      -1671.225      -2584.516      -429.6865       1787.856       3481.025
       3753.624       523.8894      -1712.965      -552.2314       1766.107
       3625.361       2880.930       1165.064       719.0298      -1208.752
      -4064.305      -3227.700       396.2119       2079.896       1505.804
       1847.660       2307.629       771.7402      -1359.745      -2002.260
      -68.62891       2718.437       2728.405       1686.286       801.0593
      -523.9187       98.69434       1670.190       1041.818      -249.9458
      -563.1768      -1328.628      -766.2793       1080.130      -504.8389
      -2384.495      -2144.578      -1703.598       668.4775       1526.475
      -1923.779      -4073.134      -2207.956       1746.567       4381.689
       5105.802       4734.215       1764.396      -1649.857      -3121.101
      -3257.231      -1093.236       2426.703       3235.967       1675.285
      -89.30859      -2553.611      -3305.742      -1933.610       92.86621
       1258.447      -112.8558      -478.5237       416.8760      -124.1592
       1377.843       3268.272       1320.035      -1643.307      -1927.913
      -596.4607      -718.1349      -519.5723       2184.652       4425.463
       3359.990       1078.563       1511.151       2658.530       1331.668
      -578.2676      -2331.636      -3813.207      -1405.625       1460.572
      -894.3379      -4490.739      -4109.138      -1880.618       399.1392
       1302.692      -363.5131      -314.9016       1137.677       331.2268
       384.7563       2472.430       2372.185       568.3867       2328.507
       4029.968       2997.021       4299.339       4612.078       1813.589
      -364.2717      -1099.813      -1734.175      -4788.746      -6581.404
      -5091.434      -4220.484      -4070.633      -5032.326      -6583.368
      -5136.991      -2438.740       2496.482       7319.525       5861.098
       2568.120       1530.533       1972.335       3518.362       3900.955
       2693.062       1022.766      -249.7001      -408.6753       248.6914
       2209.166       2755.949      -641.4707      -2942.819      -3156.634
      -2555.862      -205.0972       461.0205      -2922.203      -5276.424
      -2202.068       293.9287      -1890.324      -3874.834      -3808.130
      -3216.501      -1770.639       1577.695       4585.775       4388.565
       1857.299       74.25488      -671.1238      -1654.155       107.0234
       3834.561       2295.620      -375.6035       447.1271       626.3813
      -771.9980      -2008.598      -2308.100      -2631.856      -2837.654
      -713.5117       2841.217       5015.397       4762.926       2940.687
       501.8237       647.3936       3222.193       3398.788       1282.969
       113.3767      -272.7051       202.7695      -63.48242      -2969.811
      -4748.930      -4881.957      -4402.623      -3736.680      -4537.498
      -4486.272      -2306.196      -626.3335      -580.4692       746.5254
       3277.061       4795.080       5782.953       5922.625       2609.687
      -443.8853      -1157.556      -798.3206       175.9938      -374.1611
      -1095.918      -2492.633      -3727.000      -3653.184      -5826.762
      -6494.594      -1717.902       3760.816       7290.447       7170.527
       1626.144      -2694.368      -2696.616      -2176.104      -840.1016
       1802.619       4248.003       3759.238      -1446.396      -3550.715
      -273.9736       2167.970       2067.388       548.0181      -150.3258
      -379.8789      -1083.739      -335.0820       1159.030       2205.996
       2518.991       600.6348      -1660.907      -612.9507      -911.8291
      -5190.164      -5042.573       617.4424       3811.341       3006.211
       2779.900       4211.373       3526.384       931.9079      -599.2783
       636.4033       4023.795       6473.305       6477.576       6254.100
       3508.451      -2459.836      -8072.238      -11570.00      -9283.298
      -1556.141       5538.699       6092.235       1891.328      -393.1904
       72.76367       2285.711       3846.227       2941.741       2111.149
       4103.543       6611.652       6865.294       3972.893      -3303.441
      -10047.60      -10336.79      -6715.005      -2923.301      -714.2051
      -583.1396      -2417.971      -6217.291      -8509.921      -5835.689
      -555.5361       2537.209       1710.086      -1009.000      -2926.920
      -2694.091      -278.0840       1765.149       2257.051       2496.150
       343.9380      -2011.061      -386.6123       3160.707       4824.344
       5249.838       6188.676       6006.021       2904.637      -467.9270
      -247.2598       1340.921       2218.039       3535.164       3794.754
       1241.535      -1387.545      -166.0381       1358.903       1038.929
      -421.9229      -2956.205      -4018.224      -2609.915      -203.6328
       2332.292       2589.204      -610.6183      -1105.894       1629.116
       1025.553      -147.6477       205.5933       213.6849      -96.88574
      -1242.503      -1749.362      -1846.729      -1142.996      -1834.209
      -7131.959      -7646.328      -2415.348       739.1289       4988.205
       7601.536       2340.590      -2736.919      -3818.149      -2981.927
       1838.924       5179.100       4666.363       4801.095       1490.274
      -3295.917      -2192.890      -144.1890      -1097.727      -1142.094
      -812.8125      -3041.180      -6309.945      -7416.158      -6236.169
      -3985.126      -898.9206       33.18860      -675.7057       207.2284
      -169.4868      -660.1348      -918.1270      -4156.703      -4117.199
       1043.913       3753.066       4055.832       5379.956       4773.500
       492.4578      -1108.926       1824.569       1561.248      -1038.366
      -456.9824       1666.626       3717.277       1889.798      -222.3804
       1827.464       2608.407       1665.625       1544.479       1086.440
       661.0989       310.8792      -1214.249       242.1094       4362.298
       4435.929       508.2969      -4223.729      -4869.187      -1666.119
      -168.7695      -2174.011      -5043.584      -6326.312      -6880.099
      -5459.481      -1951.898      -243.4863      -1233.440      -2677.336
      -3831.945      -1990.634       3434.879       5538.753       4470.319
       4169.885       1592.951      -642.3457       1162.998       2117.979
       694.3271      -2308.559      -5968.271      -7643.027      -5996.887
      -4375.309      -4140.784      -3977.659      -1509.528       4821.688
       5520.883      -888.4766      -4958.459      -2446.588       3509.824
       5252.713       5866.637       7679.268       7258.727       7004.316
       6761.248       6786.381       10267.39       11508.68       6903.698
       262.8418      -4008.653      -4449.415      -3768.311      -3497.402
      -4750.737      -5518.998      -3266.332      -1074.980      -3385.555
      -7218.191      -9750.180      -13145.54      -16221.18      -15652.33
      -11208.27      -6548.816      -314.9609       7172.680       9134.023
       6400.922       6419.069       4364.975       122.3896      -775.0052
      -764.4609       2490.875       5117.217       4477.407       4026.115
       1999.681      -2431.441      -3459.231      -2215.923      -1368.953
       3159.857       3574.655      -1081.992      -3489.586      -4812.410
      -5462.245      -2500.297       2105.266       5084.958       3652.988
      -3218.514      -5591.194      -1274.988      -631.7188      -3306.257
      -4071.154      -1605.699       924.6675      -1192.950       1230.879
       11016.87       16251.66       13036.55       5345.989      -1659.842
      -7007.441      -6854.600       2695.328       11603.74       10383.16
       8855.711       8528.457       1906.422      -3545.309      -6781.984
      -11832.48      -12914.03      -7952.678      -6426.963      -5851.869
      -30.54688       1701.709       3670.793       11925.75       13824.97
       8951.854       8015.656       6811.883       806.3398      -6229.426
      -12281.15      -11321.12      -1178.012       8345.594       13525.26
       11123.31      -3639.699      -13834.66      -8512.051      -3013.026
      -2468.479      -2636.463      -5903.485      -6266.800      -1565.527
      -1707.424      -4401.224      -1719.125       2238.556       351.5891
      -2649.520       1502.098       6694.820       7567.098       9876.164
       8466.275       1178.580      -2338.701      -2237.938      -3443.188
      -5994.221      -6179.117      -4493.979      -2626.472      -1110.215
      -3015.671      -2984.246       4148.793       8867.031       3930.432
      -1228.409      -3238.252      -6262.125      -6409.766      -3094.668
       1558.576       4657.496       2210.756      -1.409790       562.1387
      -2906.894      -5131.543       759.6328       6490.088       6796.289
       8306.629       11287.48       11564.09       10516.66       4381.199
      -1157.648       952.0762       3016.393       3797.864       4085.406
      -497.2168      -5494.718      -5083.589      -3080.338      -431.6621
       365.3281      -3322.213      -6050.529      -8919.650      -10410.52
      -6478.718      -1419.693       105.3350       756.9902       3466.158
       6258.449       7789.070       9975.355       11070.37       5443.433
      -2172.833      -5039.222      -2611.735       1670.382       4541.274
       3763.358      -324.2104      -2416.829      -2533.853      -2480.993
      -3124.248      -3163.872      -590.2456      -230.6935      -1119.242
       1768.416       2193.124      -393.2500      -1864.584      -5595.156
      -7560.643      -3547.270      -4328.121      -9339.859      -9934.418
      -9688.450      -5024.566       2561.309       6278.181       5727.773
      -1298.918      -8641.564      -10624.06      -7844.699       1060.688
       9604.383       6312.084      -1506.958      -962.1191       1944.553
       1545.055       1287.747       65.72131      -1300.777       1609.322
       4842.206       3619.620       3470.056       3708.636       1415.245
       1266.433       612.2292      -1177.220      -551.8833      -1202.675
      -1535.384       22.09570       1899.055       3559.434       1416.660
       840.6084       3232.137       1951.013       1230.362       3377.377
       5337.855       7143.244       4848.471       3648.203       7404.293
       6481.459       3807.107       3219.485       1864.864       428.0625
       642.1533       1060.537      -848.8691      -3262.367      -3959.363
      -4420.552      -5757.234      -2566.102       4134.262       7801.379
       9354.430       7578.166       2663.885       549.5977       3800.469
       8913.893       8643.295       2486.112      -2766.373      -4222.429
      -1573.127       1528.973       892.3760      -2049.922      -4345.891
      -6202.135      -8101.490      -7884.629      -7873.945      -10519.59
      -11054.94      -7599.725      -4761.699      -3325.108      -4853.250
      -6690.153      -3469.175      -2974.113      -6614.428      -8593.535
      -8062.684      -6796.242      -4959.074      -495.1445       4961.527
       6891.156       6634.237       4948.263       73.55615      -262.7012
       4004.861       4109.146       3893.830       6414.084       6173.746
       5117.970       3400.493       34.65918       1916.458       4192.775
       587.6797      -2964.335      -2564.184      -1747.473       2006.187
       4753.372      -1496.586      -6152.576      -4539.045      -3873.811
      -5007.556      -3519.415      -698.6167      -1726.744      -3386.998
      -70.05859       4581.057       5902.658       4189.172       373.9617
      -28.88062       143.2080      -2572.034      -653.3965       5118.507
       4536.442      -1101.196      -4410.119      -7027.730      -9647.346
      -10186.64      -6703.595      -2503.850      -3294.470      -5053.566
      -3654.128      -1974.918      -1571.901       399.3086       3329.422
       5970.879       7576.451       6450.426       4854.641       5682.338
       7047.469       7539.195       9018.789       11302.51       6908.075
      -3027.805      -6019.309      -3470.737      -2535.810      -1231.747
       1295.005       2574.521       435.0732      -3722.033      -5596.194
      -3271.707      -1804.155      -1953.360      -2446.166      -5407.934
      -5635.806      -4104.598      -3847.797      -1867.084      -621.7388
      -1015.350       35.72070       4502.172       8498.227       7955.854
       4225.557       425.7083      -869.3942      -459.1855       122.3135
       3085.017       4946.821       2592.989       1930.432       3697.146
       3500.789       3597.885       6054.996       6739.022       4808.727
       2855.754       1339.724       800.8499      -51.88379      -3962.227
      -7748.104      -5959.673      -1222.196       1194.741       2425.305
       4946.564       3944.336       757.8409       111.4800      -1870.768
      -2978.366       409.5527       2939.932       2597.417       3376.041
       6026.445       5522.052       1546.063       514.0239      -392.6172
