     0.02500000      -19885.69       15999.72      -12345.00      -12345.00
      -30.01003       236.0900      -36.01000      -12345.00      -12345.00
       0.000000       27.36000      -12345.00      -12345.00      -12345.00
      -12345.00      -12345.00      -12345.00      -12345.00      -12345.00
      -12345.00      -12345.00      -12345.00      -12345.00      -12345.00
      -12345.00      -12345.00      -12345.00      -12345.00      -12345.00
      -12345.00      -29.93570      -67.10960       688.0000       0.000000
      -31.54000      -68.94500       0.000000       103500.0       0.000000
      -12345.00      -12345.00      -12345.00      -12345.00      -12345.00
      -12345.00      -12345.00      -12345.00      -12345.00      -12345.00
       250.0479       45.13095       224.1974       2.248163      -12345.00
      -12345.00    -0.02676208       90.00000       90.00000      -12345.00
      -12345.00      -12345.00      -12345.00      -12345.00      -12345.00
      -12345.00      -12345.00      -12345.00      -12345.00      -12345.00
      2008        49         8        51        39
       710         6    -12345    -12345     10645
    -12345    -12345    -12345    -12345    -12345
         1         7        13    -12345    -12345
    -12345    -12345    -12345    -12345    -12345
    -12345    -12345    -12345    -12345    -12345
    -12345    -12345    -12345    -12345    -12345
         1         1         1         1         1
COLO    -12345          
        -12345  -12345  
-12345  -12345  -12345  
-12345  -12345  -12345  
-12345  -12345  -12345  
-12345  -12345  -12345  
-12345  -12345  BHE     
ZL      -12345  -12345  
[...]
       368.7675      -942.9429       1397.129       2394.138      -2284.585
      -1727.451       1040.820       1070.872       2427.426       511.6399
      -1824.663      -730.3571       732.5166       1061.319       196.6299
      -845.7358      -2525.524      -1505.136      -198.6479      -1978.549
      -1698.882       797.3931       1200.929      -944.6313      -1544.109
      -996.3853      -1487.567      -106.5073       1246.464       1374.880
       631.4411      -293.6740      -182.9481      -134.2148       1259.232
       2645.691       923.4185       373.2480       1564.456       201.0947
       613.8823       2578.800       784.7067      -570.8220       631.7515
      -52.32983      -1529.474      -478.5203      -985.1587      -1373.196
       208.4937       1032.843       1220.982       929.1560       1158.935
       126.8323      -1335.036      -869.4951       138.2986       1374.577
       1161.555      -599.3346      -745.6897       915.4893       487.8496
      -1339.445      -1032.721       441.1008       1292.312       723.1426
      -765.8438      -1120.173      -566.8752       36.12885      -185.3535
      -148.2341       1133.555       898.5325      -1022.454      -1516.747
      -1078.030      -1582.096      -964.9659       335.8619       17.78613
      -671.1260      -1709.442      -2161.976      -1769.710      -1149.057
      -79.49933       684.1169      -796.4902      -1995.490      -422.7153
       730.6381       599.6136      -33.36115      -450.4697       1167.985
       2472.591       1536.096       813.1304       1069.102       1531.512
       2594.785       3298.952       2449.582       2275.159       2128.963
      -188.6386      -809.4255       999.1255       951.1743      -792.4648
      -1165.958      -2080.937      -1623.192       1697.885       1661.970
      -974.8347      -651.8260       403.8062      -544.0581      -1932.656
      -1483.288      -240.3707       543.6008       621.9057      -273.3948
       1000.688       1801.215       169.1281       673.9677       38.15796
      -1570.820      -25.77002       1882.755       1889.812       429.4551
      -882.7483      -517.9097      -629.9985      -1338.720       211.3557
       1413.547      -770.0488      -2487.421      -3161.232      -2200.033
       1442.375       3963.562       3452.562       808.9060      -933.5863
      -501.5209      -66.79883      -860.4778      -1413.739       77.45801
       869.1008       1288.076       681.4779      -898.9512       1071.080
       1715.273      -342.6860      -388.6619       837.6443       1204.735
      -720.2662      -783.4210       862.4897      -733.9846      -2092.855
       360.8999       1295.365       564.6570       998.0845       56.46790
      -823.3800       59.09988      -42.57837       444.8674       1130.726
       514.3301       761.6416       1032.983       618.5962       521.8428
       1297.364       1764.243      -694.4492      -2953.242      -2563.117
      -1571.269       733.4521       1966.762       625.3439       71.96777
      -907.7117      -1517.403      -131.8394       1001.638       58.40869
      -1342.611      -1673.573      -2038.651      -1258.160       1849.106
       3497.043       621.8315      -1928.190      -879.5730      -345.2083
      -793.8954      -174.8031       377.3647      -590.4709      -494.1230
       1161.499       1849.635       1196.119      -715.9580      -1811.375
      -467.7354       60.93640      -478.1416      -502.3071       300.7681
       2037.156       1836.330      -333.9812      -583.1204      -996.1720
      -889.7297       754.3168      -343.6274      -1212.867      -1435.901
      -3064.227      -2071.854      -350.9721       70.60767      -888.9341
      -1506.346      -593.4927      -1136.729      -1903.757      -575.2122
       404.1460      -588.0141      -503.3719       576.1815      -196.9814
      -209.8302       628.5435       176.9265       187.3515      0.5476074
      -253.7676       202.4212      -328.7961      -135.9779      -79.23853
      -1182.447      -407.3643       1931.429       2500.842       1367.526
      -1152.849      -1928.150      -461.3940      -290.8091      -242.7051
       264.3879       1186.339       1289.404      -215.4016      -1338.052
      -866.1431       1294.207       2461.376       1950.393       373.9546
      -1394.995      -2240.244      -1555.932      -494.6078       184.7321
       40.95840      -366.6193       278.8030       740.9868      -282.7021
      -2080.736      -710.2744       2085.614       2273.721       1605.422
       463.7953       236.6455       846.0518       1483.736       1356.185
       795.0953       393.7769      -352.7307      -698.5669      -1943.156
      -2134.756       1055.824       3223.310       2879.320       1634.256
       603.1265      -1045.671      -3687.990      -3386.683      -355.0723
       351.6343       1829.420       3805.730       1120.287      -2070.872
      -2298.806      -891.2473       634.4080       742.9404       599.1598
       638.4121      -871.8926      -2411.507      -1824.575      -291.1576
       483.2466       340.1206       1661.537       1836.413      -1211.594
      -2279.110      -526.8748      -988.4312      -1595.192       1057.467
       2214.532       136.7183      -1141.655      -1625.840      -751.6118
       1642.676       2027.966       1036.039       1283.480       1458.085
       924.7935       231.3367      -515.5425      -1216.887      -1331.084
      -213.3789       943.5569       374.4482      -1358.510      -2203.771
      -2478.495      -3261.138      -1308.495       2074.221       1783.420
      -383.2293       13.37268       674.0088      -1043.450      -486.1672
       1717.434       591.5659       336.8396       1793.968       339.1631
      -2543.484      -2469.713      -371.4786       92.05994       61.35254
       1023.897       1256.046      -282.4526      -2090.648      -2490.801
      -2192.024      -425.6794       967.0825       50.90918      -1500.803
      -1567.373      -811.2393       6.391113       1242.924       1061.428
       1142.318       2043.688       1151.474       1345.222       2668.828
       1461.454       51.26074       1524.557       1894.593      -565.6182
      -2685.875      -3141.495      -1463.660       627.7946      -166.6067
      -591.1727       171.5928      -1255.440      -1293.229       672.2358
       1140.004       1007.880       24.69501      -867.3955       830.3203
       3265.257       3751.449       1820.193      -1611.077      -1604.984
      -908.8496      -2117.938      -840.3374      -966.8115      -2998.630
      -2004.557       267.4125      -246.4414      -1302.221       1173.019
       2312.156      -1023.173      -2518.580      -11.15527       1487.960
       2086.379       1500.095       13.22595       672.9684       609.2561
      -1042.731      -842.3674      -778.0923      -998.5513       51.57227
      -992.0254      -2639.951      -1332.133      -806.0479      -1331.166
      -84.85889       1423.228       1103.829       47.25781      -496.7139
      -1561.521      -1420.221       140.2612       817.0811       1442.153
       1725.131       941.5094      -501.0215      -3.841309       2619.977
       2682.452       808.8252       866.5835       1070.285      -942.8701
      -2087.633       29.79053       825.9199      -566.3789      -1643.429
      -1861.911      -1594.064      -973.2617       657.6680       2373.423
       2439.597       1884.384       2070.724       2024.395       1557.383
       773.1448       566.3223       1428.558       1357.358       1039.364
       758.6342      -36.68018      -350.7573      -865.7603      -1903.477
      -932.0295      -688.8618      -1007.986      -771.6016      -2489.333
      -1778.113      -289.6650      -2620.923      -4236.096      -4169.516
      -4500.629      -2719.560       908.6372       1501.050       876.4233
       1313.300       830.6082       32.84790      -679.1383      -74.98169
       1082.624       1185.926       2134.324       2204.138       1015.628
       1114.802       433.6074      -2503.464      -2158.546       682.1123
       681.2734       742.6733       1931.344       1149.492      -256.0161
       144.2139       2352.790       1129.155      -2340.387      -1799.883
      -1898.052      -1986.735       838.7784       587.3066      -1118.712
      -2626.749      -2102.961       818.7100      -486.6348      -2421.744
      -400.1660       712.2920       645.3708       356.9517       301.9180
       1968.706       2875.296       1632.423       622.6011      -413.6433
       238.3345       2053.875       170.4457      -691.1782       1787.873
       1318.591       11.91602       1825.344       594.3564      -3153.488
      -2379.416      -323.9703       330.8112       512.2498       496.3096
      -728.4351      -1229.474       229.9167      -205.5164      -1472.223
       505.4014       3184.011       2726.123       775.3779       974.1680
       1961.023       2345.373       2700.410       2073.598       95.33496
      -2069.465      -3180.138      -2782.569      -1396.773      -433.1195
      -83.51257      -237.8438      -1410.632      -1925.848      -1007.454
      -201.2465      -501.8203       264.3772       1370.382       234.6641
       1336.230       4575.409       3760.075       1328.848      -970.5073
      -2062.728      -567.7905       1847.141       4550.650       3912.182
       1036.649      -509.1250      -3442.751      -4173.156      -642.0391
       2423.927       3182.492       1763.367       408.7874       17.63321
      -153.8979       299.3848       75.86719      -376.5120      -544.8901
       169.9854       2574.986       4171.004       1993.512      -2753.270
      -3956.123      -624.1586       684.3236       100.7929       60.07666
      -556.7158      -1486.160      -2208.192      -1730.150       983.1123
       3384.355       2200.181      -968.0312      -1677.924      -680.8535
       154.1140       520.9441       235.7297      -828.7822      -2418.453
      -2358.827       514.7583       2225.688       1951.953       1624.921
       683.8770       1058.838       2364.978       419.0571      -1858.847
      -1194.805      -1711.486      -2449.087       801.3301       2660.723
       1675.906       1835.876       1859.752       423.6807      -1491.293
      -1292.938       170.7610       197.9404       1106.909       1958.647
       836.9844       321.3594      -483.4730      -799.9082       1531.502
       1459.171      -553.1680      -1950.724      -1561.692      -34.12744
      -840.2578      -2360.628      -1414.708       1792.430       2612.802
       262.9578       70.11230       1815.988       1888.404       1153.636
       1049.311      -247.6699      -1699.405      -1148.114      -761.5847
      -1736.769      -530.8379       2116.207       3519.496       4135.022
       3316.885       1490.249      -477.8037      -1479.845      -1062.199
       200.7786       1177.623      -700.6890      -1541.817      -1999.270
      -4215.555      -4070.087      -2672.990      -1288.495       958.2192
       1817.188      -158.7139      -1080.300       462.7750       635.2485
      -42.66992      -1202.922      -2894.668      -2138.695       622.9497
       1463.676       1248.970       1412.019      -1583.221      -3399.290
       952.3965       3838.017       4278.084       3486.969       1216.730
       1444.906       2348.637       2248.538       1719.490      -943.7930
      -3967.178      -4101.545      -2713.926      -704.3633       2253.700
       4798.670       6166.387       4380.728       2737.005       1264.399
      -2256.395      -1741.406      -44.20679      -74.24219       2045.836
       3944.840       4753.858       3646.557      -216.4102      -3569.281
      -5053.124      -4988.429      -1844.087       1393.518       1726.293
       460.1133      -3858.996      -6054.434      -1725.339       1114.592
       1130.789       2314.920       2283.273      -42.53125      -318.6445
      -156.7500      -2281.114      -3821.252      -4040.094      -3565.320
      -4394.221      -5711.837      -1612.115       5691.906       9064.693
       8913.791       2956.512      -8666.270      -13522.12      -11430.19
      -7949.549      -1301.534       2834.815       4721.895       5453.023
       496.6058      -489.4753       1528.276      -2848.646      -5433.219
      -568.3613       3170.214       2698.684       1531.731       1461.055
       1542.145       309.0835       630.7949      -2704.975      -8960.012
      -6881.397       2470.668       10552.01       12422.61       7336.821
       813.9436      -388.2344      -2489.004      -9533.969      -15266.16
      -13161.53      -4950.748       5400.207       13182.42       12093.28
       6701.834      -2248.012      -14327.36      -19885.69      -15141.49
      -7501.398      -3254.666       3827.469       13982.51       12479.68
       1319.616      -1966.380      -1129.773      -2657.445      -3904.411
      -1046.532       3392.895       1361.944      -960.7341       1.992188
       3961.137       10458.69       5543.686      -9033.947      -9391.134
      -604.0336       453.8425      -381.7773      -2611.148      -6021.777
      -5854.586      -1883.930       787.9609      -2935.339      -2822.645
       2718.836       72.34375      -4466.111      -4203.146      -3355.752
      -985.9834       1237.422       5822.546       7551.621      -29.09570
      -4039.419      -3903.281      -7262.881      -4594.213       2245.871
       5456.248       8899.777       4883.439      -5535.189      -8584.567
      -4438.158       1765.641       9256.238       15497.49       9712.606
      -1493.186      -3296.709      -773.4404       1527.234       3322.139
       3660.021       569.9492      -4983.952      -695.0742       9376.279
       7693.379       5751.117       7622.030       2685.057      -3309.840
      -7141.788      -5970.676      -921.3975       1043.326       1426.792
       4316.484       7032.116       3786.746       86.52148      -1998.895
      -7073.948      -6060.844      -1348.240      -1504.252       844.0879
       5639.326       9775.496       11684.36       5809.926      -4644.637
      -12109.84      -17102.52      -19259.55      -9324.542       4565.277
       7000.839       3805.968       653.3640      -670.1143      -1954.539
      -3365.881       1933.844       8526.807       7027.833       2494.314
       3678.039       2870.848       386.1133       5270.459       8024.408
       6022.000       8478.523       8995.007       1886.207      -3483.727
      -7684.324      -10465.76      -6627.231      -1846.876      -1124.008
      -1550.432       157.1318       1471.918       1860.125       1858.055
       465.2773      -2436.910      -6596.338      -6655.717       225.0928
       3548.511       70.53650       178.7268       1430.793      -499.2646
      -1508.113      -1571.126      -599.6221      -138.5605      -3615.365
      -3583.926       3497.529       5596.044      -1099.578      -4307.073
      -2967.681      -525.3672       3800.107       3511.431       2865.303
      -1153.975      -8072.558      -3146.790       3738.421      -352.4316
      -3310.186      -1425.094      -6545.486      -11068.99      -7606.550
      -3107.271       3363.461       10426.10       13662.48       12091.41
       4816.890      -1917.732      -6242.659      -6321.470       759.1436
       4860.976       1839.659       446.3672       4674.100       9956.568
       10475.90       7878.227       6513.789       1156.587      -4218.014
      -2421.068      -1914.389      -724.0225       4903.971       4937.912
       1517.443      -180.3638      -539.8586      -14.52734      -1702.329
      -1271.823      -2219.602      -7924.311      -7346.412      -1723.786
      -1185.254      -989.6133      -2406.572      -7398.850      -6257.797
      -7982.834      -11208.22      -7396.815      -3868.243       1892.607
       6955.264       8325.699       8405.889       2691.417      -2359.473
      -2786.982      -3457.310      -3602.825      -1099.444       1318.883
      -132.8621      -1231.893      -80.63623      -262.7480      -2217.727
      -1543.645       140.7937      -60.29492       2747.602       6313.113
       4414.700      -160.1553      -2898.340      -4030.521      -2621.865
       2.240234       613.1191       1791.756       6387.020       8892.707
       594.7734      -8802.219      -5930.873      -1863.729      -4873.210
      -3113.602       4369.848       6601.549       2835.342      -1706.955
      -5854.514      -5961.667      -206.2607       167.4980      -2892.027
      -3536.613      -6176.553      -215.4668       8711.078       5803.885
       6165.641       11948.55       10330.28       5722.756       1981.138
       154.6348      -2278.684      -5778.403      -4198.794      -2979.960
      -1514.454       4646.525       6975.072       4513.767       3009.914
      -473.0342      -4953.433      -1448.444       1914.557       2102.656
       9960.754       15999.72       11602.44       3206.491      -2656.293
      -3923.799      -1871.794       1675.643       3975.270       6606.699
       7666.575       2192.492      -7467.078      -13020.85      -8383.902
      -1273.543      -193.2109      -3819.057      -9550.854      -11300.96
      -8255.341      -3887.688       2894.410       5718.172       2598.880
       1296.023      -99.85547      -5134.838      -9389.043      -6030.467
       578.5166      -774.6641      -3141.018      -3116.873      -6973.482
      -6246.158      -4028.613      -3991.609      -1088.976       1028.806
       2508.448       1389.333      -1881.439      -3371.949      -5617.656
      -4256.039       2421.853       4812.185       3674.133       5719.523
       8705.743       5736.333       644.6875       1136.688       2060.678
       5835.645       11008.09       5245.866      -1789.239       518.7188
       4394.753       5507.866       3472.200      -1885.525      -6889.184
      -8572.999      -6247.671      -1139.402       2745.709       3223.751
       2149.624       2373.818       4735.945       6637.510       3360.035
      -3649.552      -5978.867      -1751.154       2751.080       5023.466
       2945.258      -220.3926      -1758.162      -5651.142      -3738.843
