     0.02500000      -238005.9       243955.7      -12345.00      -12345.00
      -30.00501       218.7200      -19.28000      -12345.00      -12345.00
       0.000000       14.72000      -12345.00      -12345.00      -12345.00
      -12345.00      -12345.00      -12345.00      -12345.00      -12345.00
      -12345.00      -12345.00      -12345.00      -12345.00      -12345.00
      -12345.00      -12345.00      -12345.00      -12345.00      -12345.00
      -12345.00      -31.12380      -68.07400       912.0000       0.000000
      -31.54000      -68.94500       0.000000       103500.0       0.000000
      -12345.00      -12345.00      -12345.00      -12345.00      -12345.00
      -12345.00      -12345.00      -12345.00      -12345.00      -12345.00
       94.87369       61.12197       240.6713      0.8530295      -12345.00
      -12345.00     0.05956524       0.000000       0.000000      -12345.00
      -12345.00      -12345.00      -12345.00      -12345.00      -12345.00
      -12345.00      -12345.00      -12345.00      -12345.00      -12345.00
      2008        49         8        51        22
       980         6    -12345    -12345      9950
    -12345    -12345    -12345    -12345    -12345
         1         7        13    -12345    -12345
    -12345    -12345    -12345    -12345    -12345
    -12345    -12345    -12345    -12345    -12345
    -12345    -12345    -12345    -12345    -12345
         1         1         1         1         1
CONE    -12345          
        -12345  -12345  
-12345  -12345  -12345  
-12345  -12345  -12345  
-12345  -12345  -12345  
-12345  -12345  -12345  
-12345  -12345  BHZ     
ZL      -12345  -12345  
[...]
      -122.7450      -179.5956      -106.4243      -160.7198      -83.98923
      -139.4818      -65.58420      -121.6239      -46.35619      -98.71312
      -25.57506      -80.99938      -4.002785      -57.96075       16.00570
      -39.27232       36.52991      -19.76129       54.41433      -1.447922
       71.31876       15.11183       91.10625       32.08856       107.7695
       49.94211       122.1116       61.32550       136.2329       75.65903
       150.5775       87.91455       160.3541       97.53033       171.8446
       106.3360       177.2664       114.7699       187.9630       119.3343
       188.3674       121.3896       193.4403       126.2602       198.3181
       131.0493       201.7753       130.5239       199.7595       132.3278
       202.6356       133.1379       203.7506       131.8179       201.1497
       130.0577       200.4354       129.6094       197.5098       127.1943
       197.3284       125.5756       194.8760       123.7034       191.9324
       121.3082       191.4258       116.7089       187.5840       116.3831
       186.1037       111.9194       183.1178       110.5742       181.7690
       108.8505       180.8532       110.3467       180.6526       109.6111
       181.9759       111.4314       182.2147       111.2018       181.3703
       111.0900       179.7091       110.7876       182.0900       109.3402
       179.9314       112.5009       184.9688       115.4238       185.2368
       113.9681       186.2510       118.7845       190.6199       121.4870
       196.8406       123.9838       196.9151       126.7828       200.4298
       129.1227       205.0327       130.9491       205.7227       132.4551
       206.3287       130.9122       205.8318       132.2598       206.3420
       133.2038       207.1257       131.1174       207.8536       132.1279
       203.8901       129.5901       204.1157       128.2142       201.7678
       128.1324       200.6038       127.5430       201.7747       126.4982
       200.9027       126.4326       199.9830       123.0419       196.0555
       120.6522       195.9114       117.7039       191.7204       111.3493
       184.6441       107.0461       183.4398       103.7998       177.5417
       97.43542       170.2795       89.95157       164.0948       85.63367
       159.3147       76.00128       149.2772       71.47903       145.7029
       64.34528       139.1378       56.03885       129.2474       47.78445
       119.6867       37.09554       110.2955       27.76460       102.8312
       22.29530       93.16679       6.746826       78.91595      -3.988342
       69.08335      -18.66098       55.68766      -27.42331       44.23692
      -42.73944       32.86951      -53.21469       19.16225      -68.08943
       4.737167      -80.91620      -6.964325      -95.16794      -19.99274
      -107.3191      -32.37769      -118.5642      -41.17389      -129.2049
      -51.77509      -137.6789      -60.83148      -149.6648      -71.65839
      -159.7243      -82.22931      -169.8701      -90.54724      -179.7231
      -99.21759      -186.1102      -107.0664      -196.0203      -116.1908
      -201.6503      -119.7157      -206.7533      -125.9435      -211.3667
      -128.9406      -214.6406      -136.3387      -223.3848      -138.4269
      -223.1121      -144.9512      -227.4341      -145.5256      -233.1475
      -154.1362      -238.5936      -158.1178      -242.3062      -162.7568
      -248.8323      -169.1067      -251.2412      -173.5831      -258.9089
      -177.5902      -258.1857      -185.3292      -273.3528      -190.1989
      -263.3309      -192.1338      -280.2211      -197.3233      -257.5417
      -198.7148      -330.5178      -349.0928      -828.1162      -2497.310
      -4404.773      -3675.809      -3371.184      -5965.950      -5998.938
       7218.254       2867.281      -34518.94      -38528.48      -36776.67
      -57326.70      -7129.344       27521.68       527.3906      -15183.40
      -7555.484       32446.17       45496.28       56170.02       55706.13
       30063.07       27849.92       799.0625      -12310.27      -27133.84
      -63532.52      -60113.38      -41348.88      -10985.74       11240.76
      -12932.41      -27432.13       3329.074       5076.133       10538.64
       57685.73       54073.87       16244.79       21633.94       56836.61
       40987.14      -11669.36      -3758.836       21689.61       7849.535
       8907.414      -7781.109      -37782.98      -29351.63      -28418.89
      -24116.77      -21876.89      -45505.64      -48816.55      -5001.891
       32479.48       33403.88       28511.64       22007.39       35967.06
       44683.12       39372.43       5868.781      -36135.25      -2624.484
       25158.28       11181.25       8548.723      -3733.516      -10226.69
      -46977.09      -77683.52      -50901.61      -7156.758       16877.66
       23002.16       26996.10       7152.663       4743.188      -9183.727
       14062.66       37133.79      -15744.91      -25669.86      -6231.789
       18647.49       2220.988      -20211.62       375.2969      -4451.398
      -13414.89      -2515.590      -5899.312      -15560.33      -9200.941
      -656.9531       7617.016       6066.375       27660.11       34337.72
       34885.09       19172.41      -51925.62      -45095.76      -2228.887
       18538.07       26011.12       13877.27       3597.117      -24121.86
      -20993.60       3162.972       3884.184      -2394.848      -13864.75
      -11423.59       4436.875       25950.11       38818.05       23222.31
      -3253.320      -24864.15      -25025.09      -14050.90      -2578.082
       9844.854       4680.402      -9081.408      -8816.844      -4324.734
      -27293.79      -34156.77      -757.8320       23956.12       10783.30
      -4691.188       7671.539       33059.30       37971.24       20856.04
       3625.270      -14134.02      -36019.73      -24171.16       11530.84
       11496.86       10074.10       5482.961      -16869.24      -19199.46
      -7743.990      -881.0156       15639.57       9374.086      -13789.81
      -10391.87      -14089.27       12243.88       39737.48       29240.76
       691.1172      -34348.33      -24559.17      -7830.176      -3863.328
       6311.594       4674.668      -6893.477      -13352.57      -5685.992
      -5019.898      -12468.67      -9374.266       4305.779       2430.975
      -8783.883      -399.8906       7704.816       18273.88       24021.77
       11654.60       4073.100       3739.820       8520.727       3113.321
       1442.072       3662.990      -2798.914      -11678.38      -16608.79
      -7230.445      -8530.203      -13696.07      -3071.820       5324.695
       10730.42       17941.91       17109.22       2791.023      -23185.43
      -28559.86      -5779.648       21440.62       33856.03       24615.70
       14079.48      -7161.930      -25690.11      -21791.15       2067.600
       3940.031      -5156.789       4930.646       7810.262       7581.662
      -6338.230      -8341.543      -14500.48      -23590.30      -3501.215
       9128.648       21977.68       12511.65      -6646.067      -7217.063
       1150.730       13127.36       12186.29       19399.04      -6737.734
      -28385.71      -2614.990       6715.047       12689.19       13814.43
       21643.24       8120.473      -20766.81      -22758.94      -21462.12
      -16293.62      -8227.320       14026.77       34030.65       22585.91
       201.9961      -15211.60      -21823.15      -14983.24      -4177.527
       15399.72       22158.98       1947.515      -507.0527       10370.74
       923.7358      -5074.006       6571.102      -6367.686      -12325.03
      -1944.836       7610.820       18253.80       6126.357       2306.619
      -2678.488      -10228.07      -5097.043      -8439.348      -5309.939
      -6363.014      -12918.10      -1386.159       5859.512       731.0898
       20728.77       21508.98      -7958.795      -12161.90      -7775.414
      -15421.80      -5474.777       14306.75       8298.183      -1411.420
      -9348.017      -7826.501       828.6006       6290.695       2375.824
      -3838.975       6856.688       10367.15       9409.353      -1600.377
      -9442.790      -4308.965       5096.545       10508.89       1786.774
      -5331.994       1342.887       13172.85       11063.52       5529.609
      -2036.883      -11144.59      -7784.438      -2515.023      -5312.918
       2364.838       8269.486      -1470.533       2837.377       759.8398
      -7602.000      -8966.805      -20743.59      -15626.03       3628.526
       9720.389      -3960.394      -4979.887       16311.56       7650.211
      -1672.132      -2930.918       3052.918       20036.79       7039.189
      -2975.395      -3871.594      -6095.773      -11139.40      -14622.92
       15047.66       17376.32       1988.818       284.2031      -14348.36
      -11831.78       1262.881       3152.640      -4899.990       4613.875
       7868.051       4326.236       11997.95       6691.329       9061.661
      -2920.004      -5030.121      -2645.023      -20859.33      -7350.512
       16590.82       11658.27       5699.367       16835.77       16800.25
       5773.414      -11609.95      -36274.59      -36201.68      -17858.16
      -5863.273       17243.14       35086.68       12587.25      -12343.60
      -12696.52       9912.090       14365.09      -1046.810       1511.840
      -6480.123      -8820.172      -6187.010      -10349.67      -9724.893
      -5470.520       7751.295       9183.359       9129.084       7447.773
       13468.64       7214.059      -18197.41      -7493.720      -2251.123
       546.6963       991.9053      -13780.48       11659.49       26007.97
      -4893.461      -31554.99      -21858.30       16387.16       29672.10
       21468.43       3032.184      -23092.38      -17966.95       3148.664
       5670.953       7430.078       9869.898       5102.042       5672.129
      -4347.697      -11251.89       3980.520       9332.018      -9378.879
       105.3125       17516.67       10414.13       6759.414      -2105.688
      -19446.41      -28884.03      -22746.29      -9651.039       4157.613
       9354.086       16936.49       13367.87      -12032.00      -2802.861
       7606.021      -854.2964      -2198.441       6371.098       21965.21
      -2095.480      -22751.97      -7816.858      -4768.965       452.6934
       5988.507       2106.020       11854.94       137.7324      -13769.46
       2737.445       11931.39       8340.636       6377.402      -1288.043
      -14824.94      -14662.62      -958.9336       16078.92       21103.71
       11306.44       2668.486      -360.7500      -13603.02      -14554.65
      -6102.039       8631.398       30894.99       16021.98      -465.2697
       917.3218      -2477.643      -594.8984       687.8174       1808.734
       1755.453      -17003.90      -8164.564       11122.29      -3474.632
       3606.006       2337.055      -15968.35      -5414.055       12341.56
       11301.25      -256.6084       6564.967      -1433.094      -27227.82
      -14068.52      -6723.836       3213.711       37775.02       30755.48
       16524.04      -2656.867      -29341.25      -17586.17       5415.369
       11018.40      -900.7549      -589.5684       11917.34       4758.285
      -6946.617      -14108.24      -17331.66       759.9180       11438.99
       11850.33       10928.47       189.7812      -15370.65      -10918.18
       12710.57       14797.36       5175.914      -3318.219      -14032.39
      -20862.67      -8753.748       2281.547       7559.742       15187.55
       12026.41      -679.0957      -12655.00      -7154.133      -6772.766
      -13508.77      -466.1836      -7910.266      -22982.60      -19707.95
      -14951.40       12484.84       19275.95       10024.73       15862.44
       24168.92       24518.34       9876.555       7700.777       7605.797
       12860.36       19492.28       3568.492       5851.484       25178.32
       19839.18       735.7812      -27230.67      -46236.47      -46739.38
      -28317.50      -3594.866      -779.5430      -7760.055      -11090.43
      -20971.20      -32350.82      -22838.30      -4567.203       22304.23
       34881.40       27053.00       16206.91       6419.747      -2805.324
      -6151.953       15267.99       12268.62       11581.64       32192.64
       19994.89      -10800.09      -41314.34      -34376.41      -6171.719
       91.63281      -20680.12      -85343.45      -99128.30      -47256.68
      -11106.35       6962.312      -47505.72      -141393.3      -189747.3
      -164347.8      -91030.88      -23770.21       12550.48      -7733.375
      -97084.62      -188963.2      -166270.1      -93982.95       618.2500
       159637.9       243955.7       195327.2       120545.4       54563.32
       2372.625       16002.69       96758.06       168987.6       150435.7
       120026.8       103684.9       22706.70      -988.7656       64002.97
       73034.27       28058.16      -22825.22      -58679.53      -61699.62
      -86105.56      -92836.39      -34458.81       46455.00       94421.16
       129163.3       113215.8      -11572.27      -54741.42      -41783.81
      -73604.61      -87014.25      -60937.23       52266.16       126600.3
       98269.47       80530.36       20011.88      -128775.0      -238005.9
      -186091.8      -64099.63       12429.09       97809.72       174950.9
       146656.5       15638.62      -92726.41      -108593.2      -87393.47
      -64606.87      -27618.44       40442.38       113170.4       91490.88
       12584.23       28897.25       53393.75       3450.336      -31793.86
      -52468.25      -21721.09       40608.68       28404.01       10879.03
       22681.34       446.9688      -17107.20      -19180.55       25979.47
       106531.6       69722.41      -36761.36      -78358.52      -53163.84
      -61432.41      -114075.9      -75566.53      -5943.695       24938.58
       39229.48      -7410.977      -24894.14       18957.48       22295.30
       6902.219      -30687.27      -36776.41       45170.13       47381.72
      -36376.16      -57359.23      -1167.562       57546.20       73786.67
       51191.39       22168.58      -11403.38      -118534.8      -175052.0
      -71242.62       47287.97       98060.97       115925.3       99621.12
       38159.76      -26241.38      -22509.34       40631.16       94461.31
       109815.8       76607.17       52207.53       44094.16      -10929.62
      -79060.84      -137345.8      -146046.2      -80949.07      -45736.65
      -24880.72       33658.09       48162.62       21461.21       191.5156
      -44430.72      -94426.72      -75719.38      -35280.86       16034.05
       83671.20       74934.76       30135.77      -40686.34      -93572.94
      -16536.84       61205.77       25748.68       19058.61       64719.03
       60223.54       33688.59      -9738.707      -24295.31      -2401.258
       7036.656       49821.95       91144.42       69294.69       25924.53
      -2501.973      -12885.81      -12426.98       13198.28       23572.88
      -3789.648       23486.24       24529.50      -55611.69      -103233.2
      -108971.0      -97033.12      -89759.62      -87188.62      -66064.77
      -26050.54       4236.430       11896.56       41458.78       65523.38
       56073.26       47578.66       11931.72      -26812.77      -20813.13
       20550.95       66857.77       64315.46       30279.41       21509.16
       16369.22       13088.90       10954.78      -10599.02      -54866.12
      -72763.80      -16199.23      -652.8281      -19973.53      -22079.25
      -49125.09      -67529.09      -83383.78      -105418.9      -55903.30
       35807.66       51625.00       30756.45       49448.16       71686.58
       54020.56       49797.52       48836.41       17765.03      -11100.75
      -4271.172       49922.81       79077.78       95602.53       128230.8
       81532.53      -1389.172      -24857.88      -33035.53      -65976.89
      -94494.64      -65686.90      -22008.83      -18315.90      -1222.590
       773.8750      -52567.91      -91064.47      -80820.75      -45717.34
      -575.7031       30282.86       68239.58       93457.20       60318.44
       44314.98       17867.33      -52718.41      -64686.88      -7232.953
       60496.00       76964.47       50400.11       53001.42       67648.91
       34752.37      -627.7852       8311.719       18722.52       36440.27
       55893.48       28470.94      -16701.75      -45095.38      -81421.38
      -106134.9      -67412.76      -25724.03      -27479.36      -58729.45
      -92436.77      -72383.72      -22378.80      -13147.03      -24479.77
      -29062.56      -52072.33      -74082.00      -62550.64      -47979.62
      -4183.719       53009.91       46170.31       18687.92      -6566.906
       7325.266       75564.53       89330.69       69038.25       88352.16
       107113.3       69117.54       11190.58      -11906.37      -33590.31
      -26681.34       11946.64       31042.58       33098.69       23945.09
      -23285.44      -75687.03      -54445.53      -28851.98      -44982.28
      -81368.91      -89657.51      -44484.97      -6739.158      -2607.727
      -309.1289       6442.289       9279.250       18615.54       18452.95
       25875.56       19513.80       114.5312       24172.31       47915.61
       33424.56       12558.83       31214.30       41291.50       24054.30
       15588.24      -14957.61      -31652.30      -30966.49      -17107.57
       11169.26       4620.777      -61.99219      -21017.15      -30908.45
       3197.295       14424.58       3794.613      -1505.902       4789.014
       976.4961       8441.945       36802.52       38459.31       28971.43
       18342.76       10187.26       13943.34       22871.96       32922.60
       33890.59       32834.07       26207.08      -2964.875      -39184.92
      -58954.52      -45036.94      -15329.48      -847.2266       11643.82
       15369.81      -5654.438      -39309.06      -59988.69      -50499.66
      -34589.98      -8487.719       17020.70       22689.38       20318.51
      -20839.62      -66066.11      -57929.69      -53150.74      -50029.98
      -10613.25       18517.33       13748.11       11837.10       5474.828
