     0.02500000      -403436.0       346392.6      -12345.00      -12345.00
      -30.00501       218.7200      -19.28000      -12345.00      -12345.00
       0.000000       14.72000      -12345.00      -12345.00      -12345.00
      -12345.00      -12345.00      -12345.00      -12345.00      -12345.00
      -12345.00      -12345.00      -12345.00      -12345.00      -12345.00
      -12345.00      -12345.00      -12345.00      -12345.00      -12345.00
      -12345.00      -31.12380      -68.07400       912.0000       0.000000
      -31.54000      -68.94500       0.000000       103500.0       0.000000
      -12345.00      -12345.00      -12345.00      -12345.00      -12345.00
      -12345.00      -12345.00      -12345.00      -12345.00      -12345.00
       94.87369       61.12197       240.6713      0.8530295      -12345.00
      -12345.00      0.2831194       0.000000       90.00000      -12345.00
      -12345.00      -12345.00      -12345.00      -12345.00      -12345.00
      -12345.00      -12345.00      -12345.00      -12345.00      -12345.00
      2008        49         8        51        22
       980         6    -12345    -12345      9950
    -12345    -12345    -12345    -12345    -12345
         1         7        13    -12345    -12345
    -12345    -12345    -12345    -12345    -12345
    -12345    -12345    -12345    -12345    -12345
    -12345    -12345    -12345    -12345    -12345
         1         1         1         1         1
CONE    -12345          
        -12345  -12345  
-12345  -12345  -12345  
-12345  -12345  -12345  
-12345  -12345  -12345  
-12345  -12345  -12345  
-12345  -12345  BHN     
ZL      -12345  -12345  
[...]
       131.0723       74.82895       130.7362       76.36023       131.3650
       75.47916       129.6311       73.62317       131.9027       74.35294
       128.7278       74.78818       129.9854       71.03897       127.1945
       69.79355       124.6583       64.78787       119.5330       59.87958
       111.7192       49.87608       103.5757       41.07750       96.37256
       33.97601       88.15247       27.40179       79.94152       15.44588
       68.89310       4.443489       58.35993      -5.346497       47.27046
      -17.74252       38.04437      -26.13583       27.01200      -38.98236
       16.36805      -47.01879       9.761162      -53.20705       4.339798
      -61.39765      -4.966949      -69.89517      -12.51735      -75.01866
      -17.85135      -81.36014      -22.72189      -85.19000      -27.56271
      -88.36996      -30.14502      -93.06186      -33.39653      -95.59857
      -36.30443      -95.96773      -37.40491      -100.5528      -37.15057
      -95.19034      -34.50671      -95.56877      -33.20157      -92.57724
      -30.71204      -91.29166      -27.54646      -85.53180      -23.35768
      -82.60599      -18.76901      -76.89143      -16.10403      -75.37646
      -11.31485      -66.05247     -0.9072723      -56.90263       8.386490
      -47.97223       16.21626      -40.27606       25.51315      -31.00761
       34.64167      -23.25928       42.39664      -15.62257       50.49579
      -8.432297       57.33851      0.8279724       66.23383       5.631241
       68.96151       7.355850       70.70977       8.351105       73.09261
       14.30525       77.06120       14.93570       81.63966       20.94489
       82.82124       19.39301       85.15732       24.87988       86.65204
       25.03958       89.66548       30.16173       93.43915       32.26663
       98.30327       37.87253       100.1991       41.04102       106.7628
       48.50955       111.2997       51.98950       115.6322       57.37347
       121.3606       58.57397       122.4997       66.20865       131.9200
       70.35468       131.9816       70.83420       135.1498       72.13623
       135.4050       72.07730       135.2225       70.93781       134.9200
       67.12094       129.8500       64.52496       125.2743       58.49390
       117.8874       48.08765       110.1578       40.67973       97.79236
       27.94293       88.06918       16.42683       73.35887      0.6080399
       58.66420      -15.74845       41.21702      -32.24738       27.03208
      -45.88503       10.29977      -63.10287      -3.166122      -78.67316
      -22.24603      -95.12613      -37.57104      -113.2167      -53.81482
      -125.1147      -66.14221      -140.4047      -79.06470      -149.4325
      -90.18158      -162.5414      -98.79111      -170.7201      -110.5461
      -179.3116      -115.1556      -186.9478      -123.9611      -192.8296
      -130.0806      -201.9419      -136.9892      -205.0385      -139.6760
      -207.6479      -141.4453      -211.9250      -145.5161      -213.1526
      -145.1318      -215.0688      -148.9438      -216.1051      -147.3202
      -213.9245      -143.9857      -210.4539      -140.3580      -205.5229
      -135.2151      -200.2825      -130.3506      -197.0988      -125.8275
      -187.1345      -117.1866      -182.8909      -110.1356      -175.0959
      -104.6027      -166.4742      -95.41174      -160.4053      -86.98184
      -150.0408      -80.48639      -143.4917      -75.56232      -137.0508
      -64.52606      -127.6353      -57.73993      -118.2613      -42.28365
      -104.5316      -35.60544      -96.73880      -24.07100      -86.08595
      -16.40001      -80.66096      -25.29822      -163.4185      -383.9309
      -820.1406      -853.4141      -1304.896      -1607.642      -485.3074
       567.1643       131.1699      -2992.871      -7658.219      -9675.051
      -14421.68      -10194.25       3121.435      -1719.841      -3026.724
       2560.641      -294.4531       11968.17       15286.57       13531.42
       12315.22      -1272.246      -742.2283       1181.613      -5727.031
      -10864.82      -7464.754      -10044.83      -15870.91      -707.1924
      -1174.030      -2166.297       16235.70       16572.08       6430.225
      -1053.302      -3770.697      -121.9219       11125.26       20832.38
       10205.78      -2188.895      -11102.74      -13801.40      -2928.492
       8785.848       16341.77       10839.93      -7920.031      -24576.12
      -15354.50       7593.684       12861.69       8369.203      -1929.695
      -5573.047      -2896.332      -747.8164       5565.004       12887.95
       11435.46       464.4648      -7343.359      -20195.75      -21225.49
       4528.602       20875.55       19636.09       5998.809      -7456.561
      -7883.344      -14108.81      -12564.20       2012.043       14551.78
       25644.54       17792.52      -7245.383      -24293.17      -15701.82
       9250.926       26900.79       8519.551      -21209.30      -19751.48
      -16409.52      -18518.25      -7476.258       6725.353       6383.730
      -9450.796      -4881.742       11702.77       14959.41       19244.79
       14738.99      -4331.645      -10967.69      -9462.286       1500.418
       16232.23       10974.24       4188.430      -1479.309      -10850.16
      -18812.03      -13352.06       8497.730       14296.77       3515.771
      -4744.913      -2150.145       2524.356       3723.801      -498.3398
      -4253.699      -2250.657      -3120.651      -432.7656       5339.295
       7881.600       10067.63       967.2891      -7605.938      -1360.735
      -1921.035      -3576.622      -691.9131      -3719.139      -5074.850
      -10037.30      -5511.654      -4833.430      -16783.16      -4355.074
       10035.96       10563.44       12963.40       3793.440      -2830.621
       58.52148      -8085.616      -8995.400       5377.957       14680.99
       11831.50       3188.758       13860.17       11330.97      -13410.43
      -28703.82      -27249.11      -1651.855       16242.80       19871.51
       15182.83      -3957.258      -17805.03      -15293.07      -1553.102
       10536.30       11459.96      -4548.504      -5035.230      -14.36426
      -6761.218      -454.8770       2912.199       5060.206       7871.422
      -9931.989      -10396.77       12132.71       13638.14       1987.844
      -11589.71      -16576.20      -3198.066       8721.152       20597.05
       21079.45      -2490.664      -14360.62      -10297.15      -7911.800
      -389.7422       9107.150       9752.883      -378.5938      -2926.482
      -3398.416      -7432.887      -7076.956      -1436.883       12962.08
       16573.10       4293.800      -977.9043      -4157.646      -4319.794
       2035.478       4325.880      -4378.424      -10760.05      -3880.988
       7475.811       11302.81       6216.309      -1522.711      -9821.305
      -11836.59      -12161.25      -8750.766      -2913.229      -1774.781
       8398.984       1724.455      -12010.09      -3987.049      -4212.346
      -4073.570       13137.11       19736.37       9461.757       30.59448
      -659.8389      -2059.645      -10275.05      -13908.17      -3359.373
       3373.164       4898.664       6780.689       6349.692       5709.454
      -1130.363      -4521.812      -9060.141      -6380.922       12478.88
       10811.28       7529.777       8949.973       87.72607      -308.7842
      -1028.957      -5896.891      -14062.12      -17811.45      -4669.736
       5078.824       10270.60       3402.533      -8167.635      -7257.466
      -2590.546      -837.4678      -2944.550       1735.812      -774.6836
       3341.809       20743.21       19448.42       15368.61       6396.000
      -11107.33      -15404.09      -18135.60      -15431.38       8272.602
       15295.37       5749.565       2375.518      -8892.195      -16576.48
      -7125.643       1601.801       5486.896       2055.396      -3554.184
       5920.225       8732.273       118.0173       1758.828      -6750.801
      -13890.03      -898.4688       4205.054      -2571.233       959.9211
       2719.771      -2811.560      -3878.801       1925.953       10089.56
       6657.558      -204.9858      -1356.413      -3266.783       1158.656
       7622.512       6754.471       7126.416      -3827.789      -15113.57
      -3355.878       2736.496       5711.254       10909.35       3037.975
      -7297.938      -2992.063      -1926.345      -6780.600       920.8457
       6896.402       18840.17       20400.98      -4545.605      -15002.46
      -16780.98      -7669.787       2637.997      -4756.137       3248.826
       12865.34       6182.061       876.4746      -3767.084      -6544.644
      -7528.782       417.8535       7831.085       4314.996       4461.421
       3570.922      -6715.678      -10462.80      -351.5859       11788.37
       12963.86       5684.007       2154.836      -242.3379      -6321.718
      -3242.717       5789.363       17054.40       6853.793      -11174.93
      -8297.742      -13009.97      -12520.88      -4095.497       2993.469
       13308.20       6522.108       2222.144      -162.6177      -6290.371
       4421.088       9027.132       162.7910      -3895.107      -8397.869
      -10418.46      -4837.773       5291.590       11371.97       1172.117
      -11127.84      -12898.82      -2689.832       12979.81       12905.54
       5409.524       1459.188       2371.352      -5800.965      -10147.07
       4826.863       16715.78       8573.961      -7465.095      -8034.997
       540.0518       4897.378       1722.230      -1209.293       80.55859
      -11346.71      -16363.66      -3164.848       6796.261       6865.090
      -1972.662      -8527.899      -1517.105       10222.50       10934.71
       1328.570      -1851.816      -8225.266      -12310.97      -4290.757
       2316.480       9049.715       7078.885      -11837.78      -10709.32
       9977.680       13654.04       10706.82       49.43750      -10871.80
       2323.551       8391.439      -2674.573      -4248.283      -3029.637
      -5143.390      -2220.550      -3459.718       208.6230       4633.262
       12335.42       22889.42       8381.496      -5430.250      -9289.039
      -19127.55      -15731.12      -6394.093      -4940.196      -2217.068
       4558.871       7732.572      -1366.859      -19905.63      -15881.94
       5998.699       16040.57       17421.64       7202.514      -7396.384
       896.6934       6635.322       2404.571       4059.296       1759.235
       963.1112       529.3855      -986.1107      -752.5645       2169.649
       5199.354      -2988.891      -12015.88      -10688.17      -2595.047
       1932.852       9634.391       17703.62       4789.299      -9107.618
      -5676.640      -3059.945       3397.172       10985.61       4016.853
      -2030.098      -4181.914      -13005.50      -7524.863       4288.252
      -2429.971      -3620.643       1221.373      -3864.099       1123.253
       3477.408       2289.614       1375.525      -10980.92      -4015.759
       2866.336      -1502.075       5262.113      -935.1284      -3810.473
       5448.191       15353.64       12635.85       1013.527      -7162.391
      -19686.51      -4427.289       18562.93       2059.801      -10494.79
      -2421.915       5012.036       3166.957      -4761.312      -878.8301
       4579.879       4759.738      -499.8936      -6784.797       2476.936
       10550.10       3922.489      -3480.958      -1991.848      -1347.027
       3489.451       6839.809      -3248.730      -11369.42      -7320.430
       5461.531       11275.40       4532.918      -5988.018      -9702.860
      -622.2930      -2204.047      -15145.06      -24457.15      -31054.09
      -19878.47       1315.688       6006.758       8052.657       5364.845
       1211.771       4941.886       2707.840       10693.03       12544.51
      -4325.488       7595.906       31475.76       33568.71       27049.77
       3970.891      -16263.87      -9219.734       2267.432       13631.20
      -1766.258      -21291.51      -16068.16      -27200.36      -29540.21
      -21759.61      -20270.39       739.5703       16364.33       9685.692
       2333.746      -10315.21      -13699.66       10996.47       21699.07
       10526.47      -866.1855       4904.555       23821.55       31562.73
       22341.28       3818.094      -13338.52      -31038.54      -32040.55
      -2613.359       41188.45       79304.25       100880.4       109006.2
       94829.56       76523.44       73323.38       74384.17       73823.20
       33078.28      -86934.25      -235974.2      -347037.1      -378453.4
      -246248.6       345.7500       126970.0       110262.6      -4991.000
      -275855.2      -403436.0      -220871.4      -47980.81       102492.6
       300074.9       346392.6       225892.6       24575.25      -173348.6
      -275543.3      -193015.9       75148.62       217037.0       146849.1
       89038.70      -7345.938      -115657.2      -52488.67       38918.50
       73970.97       163220.8       186569.5       106298.0       51182.50
      -62834.75      -149880.1      -28049.16       143798.1       196386.4
       220418.2       259525.9       131599.7      -46908.88      -112674.4
      -159426.2      -158617.4      -77241.52       38883.84       41360.23
      -36550.59      -47787.09      -86797.47      -134630.1      -53510.19
       54789.44       49990.99      -16632.66      -113608.6      -133616.7
      -38206.62       29430.66       65435.01       53112.09       4391.619
      -466.9141       3878.422       44387.88       123814.2       74836.30
      -60825.53      -119479.6      -82745.92       3726.828       69855.47
       115564.0       84147.23      -25652.16      -69769.44      -110328.7
      -153255.5      -87434.30       165.0547       25386.71      -5445.434
      -20183.50       40307.89       81243.84       61941.03       51811.25
       83488.91       111858.6       57405.34      -37321.75      -61863.12
       13636.81       97356.69       109614.0       80620.22      -6846.719
      -112705.7      -153693.4      -164847.2      -99378.48       17081.24
       9168.312      -64996.64      -50056.95       36813.84       65468.22
      -23174.09      -109175.4      -86043.83       17456.41       95786.47
       89999.95       76635.81       76273.03       71525.25       85759.32
       54289.11      -1417.195      -18481.73      -47872.33      -65434.59
      -5699.547       49505.03       55243.56       54877.38       7943.297
      -56442.16      -99156.41      -138481.3      -139437.2      -73559.53
       24287.19       72884.81       97259.19       132842.9       101577.4
       7466.984      -82388.34      -77455.52      -11955.83       5202.406
       27485.12       64384.86       96069.05       65156.31      -38223.44
      -74890.80      -26948.11       15007.38       42060.78       91652.16
       93976.42       24197.12      -73934.88      -126837.0      -84374.97
      -9014.117       40179.41       25015.30       5214.977       19912.45
      -16454.09      -84404.58      -94725.35      -39133.32      -475.6914
      -8164.078      -25329.00      -75879.00      -107969.3      -100984.1
      -53404.67       48072.80       64096.55      -10043.03      -90045.56
      -130290.5      -61150.19       70855.88       161036.2       163393.5
       104405.5       53527.71       20864.55       5939.453       42054.02
       74644.87       39592.80       14660.08       30609.67       8085.258
      -39912.40      -20031.26       44678.32       32056.59      -31904.62
      -49432.17       4541.812       77572.83       72693.64      -26317.03
      -92791.78      -76532.09      -97707.64      -99684.68      -22104.37
       32728.39       49824.48       50014.57       20718.96      -4210.516
       18139.53       34087.94       5470.398      -17490.26      -9826.922
      -7530.062      -45920.83      -39523.01       24697.12       31968.41
       15055.55       25542.69       14154.47      -23437.51      -46169.48
      -38246.09       20309.84       63724.66       25572.13      -7227.664
      -142.3770       10653.93      -9701.219      -42965.00      -47093.98
      -38718.23      -12312.97       20311.88       16329.82      -9168.469
      -24285.11      -32691.63      -4518.086       35476.00       15054.52
      -14389.72      -8516.430      -19640.83      -31791.35       19923.25
       99016.28       136862.5       113963.3       38096.91      -29854.27
      -51825.43      -44547.25       2747.844       40013.80       19362.34
      -1792.402       6609.479       12458.41      -7117.156      -41381.88
      -58143.98      -47514.52      -43443.25      -55210.42      -51758.57
      -18313.23       8234.625      -23282.61      -63543.83      -57713.90
      -28258.65       5169.812       26074.26       16496.59      -1814.766
       4371.094       55739.22       103869.6       91802.70       47964.70
      -1852.875      -15237.11      -22301.19      -34314.25      -2830.273
       21624.76       13647.08      -21020.44      -38711.79      -1062.453
       43496.86       35523.42       5478.998       2559.781       21964.67
       50336.14       61276.26       58955.85       10524.38      -59714.06
      -82383.88      -66183.91      -21567.09       10539.11       19312.38
      -3514.391      -47823.38      -59287.94      -58352.64      -47871.79
      -21882.66      -17385.22      -30483.22      -44346.64      -58578.29
      -44083.34       7501.781       42784.58       59322.50       68920.42
       57397.41       26623.06      -15663.90      -19589.67       35039.41
       93619.81       106244.3       88539.73       68210.62       21141.58
      -16442.59      -13453.02      -21621.34      -23566.07       1203.072
       10489.43       2089.945      -9948.500      -38625.98      -63404.58
      -49713.30      -39091.30      -24453.71      -132.9375      -25601.59
      -72145.86      -69267.27       3359.094       42114.34      -10366.06
      -63466.73      -78583.10      -57340.87      -10113.06       21476.40
       25980.41       10548.58      -23892.27      -41071.73       8015.953
       83931.11       86172.73       56798.80       58906.41       62112.39
