     0.02500000      -632757.2       448860.4      -12345.00      -12345.00
      -30.00501       218.7200      -19.28000      -12345.00      -12345.00
       0.000000       14.72000      -12345.00      -12345.00      -12345.00
      -12345.00      -12345.00      -12345.00      -12345.00      -12345.00
      -12345.00      -12345.00      -12345.00      -12345.00      -12345.00
      -12345.00      -12345.00      -12345.00      -12345.00      -12345.00
      -12345.00      -31.12380      -68.07400       912.0000       0.000000
      -31.54000      -68.94500       0.000000       103500.0       0.000000
      -12345.00      -12345.00      -12345.00      -12345.00      -12345.00
      -12345.00      -12345.00      -12345.00      -12345.00      -12345.00
       94.87369       61.12197       240.6713      0.8530295      -12345.00
      -12345.00     -0.3635966       90.00000       90.00000      -12345.00
      -12345.00      -12345.00      -12345.00      -12345.00      -12345.00
      -12345.00      -12345.00      -12345.00      -12345.00      -12345.00
      2008        49         8        51        22
       980         6    -12345    -12345      9950
    -12345    -12345    -12345    -12345    -12345
         1         7        13    -12345    -12345
    -12345    -12345    -12345    -12345    -12345
    -12345    -12345    -12345    -12345    -12345
    -12345    -12345    -12345    -12345    -12345
         1         1         1         1         1
CONE    -12345          
        -12345  -12345  
-12345  -12345  -12345  
-12345  -12345  -12345  
-12345  -12345  -12345  
-12345  -12345  -12345  
-12345  -12345  BHE     
ZL      -12345  -12345  
[...]
       12.25024       9.262718       13.24269       10.50630       13.37252
       11.46519       15.01997       12.53571       12.90033       7.927139
       11.37556       11.21731       13.42924       7.788471       10.92502
       10.36266       12.23941       10.22757       13.72450       13.33352
       16.38407       16.80707       20.48295       18.13783       22.65260
       25.82249       30.07344       28.72844       33.65248       36.67830
       41.02478       41.75824       49.14218       52.63136       58.75491
       60.16255       67.33452       71.44673       77.80725       80.22308
       90.89600       91.88885       98.38672       103.6079       113.7474
       115.3173       127.1216       130.8142       140.6699       143.7448
       155.4569       160.5338       174.6797       178.3020       191.3427
       196.2124       209.5642       210.4149       220.3157       224.4874
       238.0720       239.4777       251.8463       254.4887       267.1936
       269.5880       282.3688       281.2513       289.9037       289.0343
       302.3516       302.6257       312.3193       310.7026       323.1373
       318.6761       325.2101       323.0485       330.8973       326.2556
       333.3219       329.4893       337.6920       331.8475       335.8556
       330.3478       339.2278       335.7031       342.1803       336.8605
       341.3340       334.3210       340.4901       332.5005       339.2023
       333.0703       337.7464       330.7960       336.3143       330.2793
       332.1149       322.8918       326.7544       318.0391       323.4922
       315.7067       318.2155       307.5125       314.0186       308.0527
       311.9606       302.9788       306.5736       298.3661       304.6299
       295.8004       299.6968       290.7266       295.9825       287.4334
       295.6635       286.2333       290.8006       282.8364       292.1075
       281.3885       283.6910       272.0182       278.2311       265.0790
       268.0901       253.2523       258.9999       245.2921       247.4069
       232.4963       236.4952       219.6403       222.9370       203.9813
       207.7198       190.7264       191.3922       172.8969       175.2177
       155.6308       159.2813       136.7821       140.5052       121.8352
       126.0469       107.3375       110.3859       90.78641       95.99292
       77.43369       84.62906       64.84312       72.71629       52.90100
       61.28148       42.78699       48.13078       30.13541       42.75502
       23.05318       32.74177       17.76598       27.66266       10.05323
       21.18864       5.228134       18.20034       4.942192       15.72518
     -0.9277496       12.45670      -1.414557       13.08200      0.7672806
       14.51366       4.592838       19.28001       4.870293       21.32877
       9.875141       23.52949       14.62572       30.42778       17.82660
       33.69728       23.91071       39.59901       30.49686       50.78352
       40.22339       55.94693       46.48050       65.16965       56.47429
       76.96393       65.56969       87.71606       80.16068       100.2316
       89.95480       112.8294       104.4224       128.1092       116.7527
       140.4474       131.5081       154.7609       144.7800       166.8521
       154.7882       181.1862       170.4331       194.0081       184.0451
       207.1099       195.7234       219.6515       207.2896       232.1293
       223.8520       246.3502       229.6244       251.4167       245.7414
       266.1862       237.4009       218.8974       55.68262      -500.2344
      -1324.479      -1576.553      -1669.717      -2659.791      -3634.652
      -774.0615       356.2852      -10700.94      -19070.42      -17354.88
      -25283.61      -17729.60       9447.633      -1950.527      -19022.00
      -1464.961       4882.258       15041.88       28794.17       11226.48
       7641.383       22935.24       20352.05       4595.121      -14903.44
      -24462.84      -19284.82      -4602.949      -2777.267      -2934.909
       3325.412      -8960.135      -7484.618      -2123.640      -3186.104
       10210.31       2948.911      -13013.07       11265.27       43797.41
       19966.47      -6300.195       9050.551       15663.53       23591.30
       31439.58      -908.3828      -33734.95      -21478.85       5412.328
       11097.57      -1518.148      -32855.70      -44034.40      -5076.555
       10098.02       770.6719       6985.931       1842.035       8477.359
       19470.43       9156.188      -985.4082      -6823.820       1963.016
       25196.45       27459.93       9085.340       6868.995       7583.523
      -6960.859      -26637.50      -38815.44      -18523.12       6185.282
      -2311.570      -10667.75      -3991.877      -3003.170      -1120.732
      -3576.922       6362.988       21470.41      -2355.324      -9626.502
       5719.287      -4385.054       1022.316       14960.70       6286.531
       6042.838       11050.63      -4059.266      -21943.10      -23242.18
      -12774.71       4982.933       8103.275      -616.3789       10167.30
       6412.083      -4276.105      -5124.199      -13963.66      -6121.342
       381.3633       1448.258       21199.12       34878.41       21634.59
      -2971.566      -4184.950       2301.709      -7693.674      -6821.287
      -2374.730      -5436.880      -4313.928      -5774.949      -12728.70
      -10901.76       3600.349       5146.654       2357.551       2370.775
      -7030.358      -8890.252       3250.281       14922.68       23354.30
       16296.77      -10860.61      -23376.51      -26034.66      -18387.78
       2498.461       5587.254       13405.39       24249.75       13155.04
       5842.953       785.4766      -9635.395      -9938.793      -15773.83
      -11657.46       10959.61       27051.86       23052.82      -5921.508
      -26269.77      -29143.60      -13940.68       17562.75       25507.22
       20731.08       12111.46      -3012.283      -5308.189      -4724.723
      -7229.660      -7599.965      -7836.937      -2338.008      -2894.438
      -13219.03      -6173.006       3812.802       1307.618       1862.611
      -6947.873      -11887.57       6659.532       7802.711      -7263.751
       26.57520      -804.5977      -12452.60      -5397.414       7661.078
       10624.39       7080.408       9526.254       12901.29       11887.27
       7245.723      -587.5703      -3649.902      -16467.69      -18401.41
       8349.516       20085.28       16147.02       7011.113      -6737.508
      -9176.418      -16181.04      -17484.82      -2780.334       2532.459
      -690.9648       1244.746       12835.60       17599.87       6721.057
      -6462.799      -7502.773       1038.125       8108.575       9212.148
      -5129.930      -18732.64      -21790.35      -12201.53       9396.465
       14859.17       3228.991      -908.2734      -7213.117      -10325.99
      -4571.256       1525.008       13691.90       10042.42      -1263.937
       2650.807       5190.334      -2835.842      -10718.06      -9027.934
      -3028.410       8956.062       16073.25       9091.657       3384.176
      -966.0518      -3949.809      -1862.219      -5797.875      -6400.449
      -9779.910      -14768.83       2310.781       14824.43       13139.86
       14430.68       10642.34      -5635.047      -22881.54      -22632.54
      -4990.857       13657.37       10062.08       498.2544       3462.745
      -272.9570      -8713.768      -1343.467      -166.2773      -17888.35
      -6168.004       19493.04       12882.28       1337.242      -3208.342
      -5745.615       1646.447       9500.215       4319.097       616.1016
      -5656.953      -15650.34      -7528.258      -3737.079      -5006.432
       7838.178       8697.905      -36.25854       1727.347       112.5059
      -5367.458      -3726.548      -3883.894      -1947.530       1176.254
      -5814.892      -177.3154       7346.066      -2881.000      -8992.791
      -12954.54      -5037.242       13922.29       15334.63       2891.359
      -8634.117      -9081.893       3960.400       11443.14       3797.269
      -2961.164      -1420.932       2956.859       13179.88       6521.611
      -12101.84      -5688.757       2098.017      -3572.725       2945.333
       4420.789      -3536.193      -6977.710      -4092.551       8046.123
      -133.0195      -20926.00      -18373.71      -6305.075       1500.081
      -2976.855      -6980.350       2486.084       4372.102       4334.611
       8876.425       227.3008      -8366.158       1157.597       3512.234
      -5170.574       125.7891       7700.457       6220.250       6321.543
      -3478.887      -20369.09      -10496.68       7223.273       15469.80
       16677.05       2647.281      -10659.45      -17545.01      -14499.96
       9447.805       17106.98       3020.654      -6001.006      -4207.789
       12365.14       12042.12      -1233.441      -8948.449      -18064.69
      -5570.170       9715.504       12544.18       20571.35       8737.012
      -9919.008      -14275.55      -28930.11      -26133.80       3153.287
       10094.22      -2329.424       784.0156       12115.60       10762.76
      -4744.916      -10997.24       1165.498       10871.35       1697.270
      -8714.578      -3689.409       994.4844      -3559.130      -7411.416
       3644.582       11954.43       3313.246       7018.539       10744.61
       3128.244       195.0254      -6107.836      -8720.695       2021.636
       7736.763      -2413.826      -10396.01      -5627.196       3321.067
       2834.910      -12878.52      -12762.70       6275.531       11278.04
       6484.233       1853.153       1338.840       8489.848       10852.07
       1146.417      -8190.083       93.54004       2214.426      -15041.73
      -16370.38      -4324.265      -345.2854       1838.905      -1116.020
       3325.902       9880.346      -3710.425      -7201.628       4545.371
       5925.984       14971.43       14689.27      -9643.977      -17961.76
      -9775.382      -6567.944       446.3184       7482.779       4468.957
       48.98047      -7037.428      -7211.630       3661.461      -1646.224
      -6822.842       4221.806       6933.851      -213.7266      -4263.654
      -5191.445      -40.80176       6674.868       1716.979      -5284.551
       1627.246       3220.675      -3631.324       3903.691       10227.97
       2760.016      -8327.562      -9624.230       492.7246      -962.1953
      -9990.953      -12908.50      -5391.369       4041.849       4076.975
       2566.308       175.0327      -680.0234       3974.732       3512.578
       4468.719       15262.96       14195.03       725.9688      -3672.777
      -6854.861      -4034.928       1095.258      -9413.605      -14177.05
       1404.812       7144.219      -10341.07      -21890.48      -14957.08
       2404.527       14064.57       6721.338      -3093.857      -10557.54
      -11704.82      -9283.399      -7297.520       9427.641       27499.21
       24756.57       9357.953      -8702.816      -16131.39      -6767.992
       1713.805       11109.25       13823.84      -914.2148      -11833.41
      -12696.79      -13193.39      -13765.67      -6309.441       4229.715
       8859.547       664.6406      -8593.820      -13571.55      -12050.36
       5844.539       20592.94       12275.08       3029.584       2159.855
      -4796.117      -6496.561      -5467.371      -5897.066       12454.41
       23191.96       11489.47       1544.703      -8809.680      -12491.17
      -13819.16      -25060.70      -29040.50      -19262.09      -14716.36
      -11319.78      -7403.910      -22113.59      -15710.46       5145.375
       11086.63       29494.74       26859.65       4866.273       13657.09
       17855.00       15742.48       22684.57       13737.96       10241.80
       16189.74       15793.59       14643.09      -3688.969      -29826.35
      -38288.28      -45337.30      -40216.82      -21891.23      -13448.05
       667.8867      -6688.672      -35304.44      -38343.19      -21449.11
      -3296.344       11425.79       19891.55       22970.82       18237.55
       12200.34       13395.82       20444.93       24514.46       9803.804
      -1295.266      -3424.547      -16090.33      -19188.88      -4556.328
       23099.52       64773.28       114520.1       125060.6       50902.28
      -74724.31      -152274.2      -98701.31       85900.50       310074.4
       423353.1       341815.3       166674.2       9113.828      -66751.88
       107815.8       377949.4       441765.9       448860.4       336162.6
      -9624.500      -231312.4      -304796.4      -383075.8      -263545.4
       64800.97       220583.2       11301.50      -279556.8      -457550.5
      -632757.2      -623242.8      -279978.8      -57706.42      -85882.93
       12459.86       100866.7      -419.2812      -41910.70      -54210.16
      -80625.98      -24865.47       55838.75       192404.0       213800.8
       100197.4       176487.2       212884.8      -18751.28      -151498.4
      -85224.75      -82740.15      -69940.66       44900.81       88409.88
       68819.76       18001.83      -70568.34      -115104.1      -128007.7
      -125009.4       4538.656       160752.1       103861.1      -47701.91
      -116265.5      -107834.1      -47906.31       37820.47       113062.8
       132746.6       41563.09      -85474.20      -64243.68       27736.33
       38859.23       54868.00       43796.82      -2364.688       73270.72
       168397.4       107675.0      -34913.36      -80593.39       146.7578
       48818.40       22662.71      -7711.812      -72373.44      -133843.8
      -124879.3      -56146.15       42583.48       89094.45       65513.62
       52354.20      -15741.06      -111196.6      -100731.9      -96107.23
      -77992.16       1123.172       47860.77       66283.04      -1320.094
      -104958.4      -94286.62      -72673.11      -56129.09       75982.19
       185542.3       147446.3      -9655.000      -170810.6      -157327.2
       26385.88       210511.0       270301.2       187097.7       15900.81
      -131010.5      -181785.4      -148511.7      -74376.09       7266.234
       59997.25       57773.72       75105.34       108179.3       67096.66
       34565.98       28651.59      -34970.41      -95078.91      -81414.86
      -22560.66       68134.88       119936.8       51138.17      -22869.47
      -40148.25      -63138.95      -56374.13      -3710.859       20203.93
       21788.92       25824.38      -49015.94      -157255.7      -152278.2
      -62836.39       3018.766       11933.82       3531.570      -9797.734
      -53551.83      -48598.77       16596.00       41237.34       62455.59
       129745.8       114202.6      -5166.969      -60706.13      -33030.69
       18908.53       67646.45       75643.94       99069.28       103289.1
       22612.59      -25288.16      -42528.88      -77154.62      -112257.7
      -120426.0      -29054.28       84177.59       77351.48      -1492.766
      -30375.97      -77834.84      -130598.5      -107616.0      -50077.14
      -27024.02      -59245.14      -69216.75      -65581.72      -47975.75
       41030.22       96801.97       69774.12       83156.45       102174.4
       43127.95      -7646.094       32950.61       81261.69       55529.61
       18532.88       7912.568      -10580.74       16602.19       88342.14
       95183.50       63618.79       14878.61      -73887.41      -119542.4
      -78810.98      -2099.797       58210.06       84222.53       62572.18
      -6225.125      -32998.89      -43700.60      -44510.66      -3739.988
      -16269.52      -14937.99       3801.996      -20890.98      -22031.12
      -26526.63      -15134.78       25989.50       28887.88       20422.47
       45026.27       64859.91       28829.46      -792.6641       27988.62
       27247.25      -25093.63      -11000.81       62025.97       44167.71
      -3364.664       7674.820      -18596.73      -69293.50      -63810.62
      -22407.41      -24623.00      -52632.19      -25797.98       10962.03
       221.9639       1566.410       7496.172      -42104.38      -95552.06
      -90648.23      -13421.95       72090.91       75835.47       18500.79
      -4852.183       5658.170       4625.894      -3099.318       1092.545
       10422.00       4054.484       19586.95       44097.97       51586.76
       45106.09       5275.891      -42225.78      -66992.55      -58396.70
      -32777.08      -20761.68      -5595.515       6619.980      -9860.289
      -30726.20      -26031.59      -4037.234      -11699.21      -24286.08
       5197.160       19570.11      -2622.783      -1230.875       27241.22
       44685.50       50332.98       56858.70       48114.14       9425.832
      -10980.39       36751.12       72988.10       39629.52       960.4219
      -33865.91      -36066.61       24182.59       66919.30       63924.87
       36399.23      -32242.92      -92532.94      -60888.65       4146.188
      -6726.062      -61690.28      -95713.22      -68694.97       22237.11
       63810.02      -1920.844      -92279.94      -134518.0      -116009.1
      -34457.08       25880.59       21234.06       16990.99      -1201.301
      -11173.38       18708.42       33586.44       34882.52       35755.03
       49242.33       59050.83       33225.88       23466.16       21080.57
       2855.484      -9818.578      -33160.38      -28232.62       7873.781
      -17987.52      -50048.38      -3785.383       23694.20       17839.12
       23517.14       20606.19       12820.84       20134.44       56276.67
       67573.11       34331.31      -11892.44      -25479.23      -3086.039
       4142.391       38220.08       62073.64       15432.92      -6935.973
       13198.94       21354.26       26790.36       8226.125      -48316.14
      -65709.56      -29939.15       5225.828       22862.31       21006.36
       17116.95       518.9219      -26056.30      -37355.38      -25230.86
       8886.988       19400.00      -1038.305      -17227.71      -19044.92
      -19642.52      -19555.98       1290.779       9514.812      -35485.06
      -75607.06      -76824.98      -77722.76      -56886.81      -13282.61
       12444.50      -792.0312      -37292.55      -4063.609       52792.91
