     0.02500000      -154159.2       165999.6      -12345.00      -12345.00
      -29.98997       228.6100      -30.89000      -12345.00      -12345.00
       0.000000       22.78000      -12345.00      -12345.00      -12345.00
      -12345.00      -12345.00      -12345.00      -12345.00      -12345.00
      -12345.00      -12345.00      -12345.00      -12345.00      -12345.00
      -12345.00      -12345.00      -12345.00      -12345.00      -12345.00
      -12345.00      -29.95960      -69.63990       5051.000       0.000000
      -31.54000      -68.94500       0.000000       103500.0       0.000000
      -12345.00      -12345.00      -12345.00      -12345.00      -12345.00
      -12345.00      -12345.00      -12345.00      -12345.00      -12345.00
       187.4195       339.0274       159.3810       1.685074      -12345.00
      -12345.00     0.04404287       0.000000       0.000000      -12345.00
      -12345.00      -12345.00      -12345.00      -12345.00      -12345.00
      -12345.00      -12345.00      -12345.00      -12345.00      -12345.00
      2008        49         8        51        34
       590         6    -12345    -12345     10345
    -12345    -12345    -12345    -12345    -12345
         1         7        13    -12345    -12345
    -12345    -12345    -12345    -12345    -12345
    -12345    -12345    -12345    -12345    -12345
    -12345    -12345    -12345    -12345    -12345
         1         1         1         1         1
CORT    -12345          
        -12345  -12345  
-12345  -12345  -12345  
-12345  -12345  -12345  
-12345  -12345  -12345  
-12345  -12345  -12345  
-12345  -12345  BHZ     
ZL      -12345  -12345  
[...]
      -25030.72       1515.281       42582.55       24354.48      -7995.494
      -7043.293      -9676.234      -959.6758       19040.86       27249.03
       18179.51      -11460.75      -29929.54      -9635.143       6055.336
      -1795.995       1333.199       5033.727       5550.998       9349.867
       1345.805      -19211.39      -24206.88      -6717.387      -3625.813
      -7003.559       12770.04       19736.38       4030.459      -3056.211
      -15681.46      -25512.79      -3873.273       19473.59       21058.65
       8095.074      -6831.998      -10121.74      -4718.109       2710.932
       3315.311      -6915.575      -1697.469       16929.43       18161.59
       4896.398      -11941.91      -18907.13      -4777.763       1612.273
       2491.730       18602.18       18317.64      -8809.562      -22168.01
      -10678.29       6612.441       11569.32      -6932.322      -10338.13
       16871.36       21083.61      -1289.801      -13073.85       1953.320
       17965.20       101.0156      -26843.02      -20324.65       4465.342
       9786.480       811.6621      -8072.469      -10759.58      -9930.070
      -13579.68      -2228.195       9722.109       1518.691      -15843.18
      -12597.59       12283.85       10695.25       823.2793       7733.187
       2273.430      -3091.965       4795.711       11580.85       6631.948
      -4548.093       489.3438       12142.83       1055.145      -17244.10
      -18655.98      -5961.777       2772.404       6741.123       4087.725
      -6137.772      -5767.916       5201.910       20073.74       19435.31
       397.7329      -1970.592       8788.571       5525.984       1108.089
       2830.104      -5844.078      -12032.16      -12960.91      -11920.44
      -200.0801       6852.805       7238.612       9075.684      -4592.156
      -20283.69      -12479.74       4893.934       15305.92       19913.23
       14632.18      -4948.938      -28984.78      -36809.12      -15536.19
       7771.781       9760.844       19037.91       12663.81      -12371.45
      -14933.42      -10653.74       553.0078       16195.53       16106.96
       10318.65       4248.043      -632.2812      -13272.52      -21425.80
      -7850.091      -398.9062       4846.933       5818.645      -15256.68
      -22088.32      -2704.568       5660.646      -4416.408      -4498.041
       2351.861       6548.469       11394.62       14916.78       9804.715
      -3206.955      -10685.42      -7605.916       3526.250       10967.59
       7880.450      -678.1582      -8978.554      -3784.605       5446.043
       11146.86       17387.73       14663.39       866.4238      -2069.192
       1728.686      -7108.453      -9291.839      -740.8599       280.1514
      -2288.012      -10611.18      -22194.03      -20301.27      -7593.906
       6265.148       12450.98       10633.19       6947.011      -3379.195
      -7802.312       3662.656       15033.35       7708.289      -5249.707
      -12912.20      -16127.46      -4594.362       2814.516      -7270.505
      -5164.754       6278.360       4026.074       4528.863       12969.88
       9468.938       10452.81       18142.96       6318.227       680.8750
       16617.40       15348.44       2437.281       11199.38       22829.60
       1811.617      -25733.23      -24672.50      -16702.46      -22379.16
      -19689.76       107.6562       13358.97       12104.04       7211.457
       1192.140       571.4414       12600.18       16107.78      -796.8340
      -3117.755       90.19141      -13423.23      -19206.52      -12712.14
      -4052.381      -846.3262      -4440.759      -5700.422      -2411.453
      -1104.107       1150.197       4866.288      -269.0078       1034.383
       11603.75       10119.59      -3816.502      -9217.650       114.6582
       6053.342       3111.341       5259.708       1196.845      -5986.994
       6209.760       16944.38      -1557.805      -21981.99      -17646.62
      -3888.446      -969.6919      -1855.696       3103.924       4377.004
       3832.400       2097.228      -1768.676       1864.918       9151.656
       12874.50       7758.539      -2035.444      -4703.740      -3071.240
      -7349.008      -6702.141       4887.730       13930.88       7662.484
      -6097.725      -8937.619      -1986.579      -574.3555      -3290.104
      -1059.080      -6672.408      -12581.30       5611.715       13693.24
       30.81445       3240.258       15444.34       15968.92       9500.492
      -9759.344      -24503.89      -4370.461       18541.31       17393.08
       8724.379      -12407.03      -26240.55      -10436.41       3101.223
       396.5625       9515.992       17317.41       8407.850       7489.999
       8359.985      -326.5605      -3323.725      -1080.034      -619.4170
      -1293.364       2750.600       3061.867      -8173.201      -10869.33
      -1024.805       1301.668      -8149.223      -19583.95      -16481.13
      -3642.652       705.9277      -530.0906       425.5742      -3941.637
      -12476.25      -12087.99       1814.941       15543.01       14206.58
       6807.503       86.66406      -3687.342      -1164.049      -4035.383
      -4017.990       3364.307       9278.010       9837.863       1402.668
      -9347.879      -8273.541       4544.586       18501.48       21074.26
       4669.801      -11893.02      -15306.99      -15128.33      -12653.37
      -2937.373       9533.061       10926.20       5439.938      -3890.438
      -13044.72      -6791.527       9996.254       19026.98       15169.27
       8894.770       3859.719      -10480.96      -13755.35       9280.699
       20576.58       8912.178       2287.197      -5601.178      -11484.86
      -7228.592      -7274.310      -5676.274      -949.1543      -3694.289
      -11930.72      -14325.24      -15249.36      -20292.34      -10859.47
       7917.172       14305.90       11231.17       7928.026      -1271.887
      -6288.086       513.2031       9759.008       17260.54       11742.98
       2777.422       7651.514       11948.01       8229.178      -4157.469
      -15774.24      -11689.49       334.0312       8662.941       4825.879
      -3669.739       575.8281       4091.344      -8357.486      -11664.66
       6321.434       6771.503      -6484.987      -4862.871       1214.722
      -504.4766      -11564.75      -15644.69      -3117.926       2803.234
       5467.682       10725.33       3100.904      -5808.770      -8392.439
      -9721.011      -6128.252       147.7070       5421.227       12004.99
       11922.01       2531.798       727.4326      -1239.277      -7408.381
      -7182.232      -1185.668       7154.189       10861.66       5650.153
      -3439.895      -7921.391      -9705.955      -5472.488       3783.977
       3870.308       3069.579       3641.284       2135.229       1520.594
      -9623.543      -18282.89      -5700.929      -753.2368      -3957.900
       5321.840       10865.07       6627.824       5102.801       11803.05
       17347.32       9281.242      -7142.148      -18685.52      -10187.50
       6068.941       7729.034       3207.416      -1365.668      -7928.123
      -9618.152      -7192.049      -3052.083       1059.168       1346.883
      -1570.171       85.40234       2819.405       300.1270       2087.773
       6492.585       3480.459      -3711.629      -5188.548      -1043.307
       2125.833       1436.760      -117.5527       2776.529       1931.559
       2107.855       9633.977       15560.28       12147.06       3422.255
       905.5459      -3039.560      -4808.016       2946.359       2852.942
      -688.0996       268.3086      -7883.848      -15596.06      -9117.781
      -2549.868       2751.421       3257.392      -3860.863      -10863.31
      -10763.87       2052.580       9213.375       9111.453       16899.22
       13168.99      -504.1230       634.0469       6705.746       6042.941
       8974.977       649.6289      -20212.96      -21430.66      -15194.04
      -14754.29      -5556.971       4087.059       9551.594       10544.72
       1811.887      -6628.655      -6251.488       2059.723       9638.236
       9113.755       4575.969      -10618.92      -25676.80      -18947.82
      -5928.574      -842.9404       1658.512       6314.902       13875.98
       15660.80       8869.278      -1337.975      -9463.725      -9096.953
      -2350.988       7307.984       17962.24       10683.70      -1642.179
       4815.923       5660.962      -608.9102       3022.090       7449.145
       17986.24       21164.43       1183.168      -8677.724       763.7705
       3858.635      -1185.934      -5868.879      -10592.91      -13878.53
      -14107.31      -14430.82      -13724.29      -6803.225       944.2300
       2170.477      -5917.164      -13889.94      -10310.89       4148.539
       19082.80       18526.27       6582.941      -10291.04      -24048.67
      -16859.89       10586.64       30323.07       29150.05       25074.41
       11920.64      -6801.816      -9808.273      -10096.97      -7828.765
      -4956.689       4220.910       17898.81       1150.344      -15957.00
      -9651.598      -10072.85      -15603.61      -13455.76      -1116.264
       10834.42       4884.666      -10890.07      -13430.47      -10787.92
      -18542.17      -13643.43       7422.199       17505.54       14918.08
       13435.89       11808.72       3477.266      -3644.570      -594.9297
       9893.445       16923.98       18423.48       13618.34       9255.461
       1902.184      -14489.57      -10469.97      -6308.109      -21272.75
      -19811.46      -598.2305       13345.56       12981.34       7038.541
      -645.9727      -12717.94      -14646.80       3490.473       20104.13
       16542.83       8454.141       8015.797       9511.963       3602.164
      -9050.807      -10201.73      -4091.926      -52.16992       678.2441
      -4656.070      -4131.780      -140.8975      -4708.576      -2649.656
       3602.805      -7834.227      -10962.11       1786.467       3950.736
       2179.191       5356.738       15575.12       17369.82       1450.512
      -4520.409       1621.912      -1703.852      -14860.64      -17269.60
      -6765.461       7218.535       13369.80       557.9712      -2194.123
       5520.895      -2070.293      -15998.59      -19617.00      -10785.03
      -5032.033      -3005.034      -2084.475       3984.461       9600.191
       9324.240       4696.357      -6023.269       798.9375       20034.11
       20650.67       4020.656       2593.227       12689.14       5110.687
      -3277.390       2293.836       3248.425      -5145.331      -4710.422
       2514.166      -1947.410      -6831.588       4255.212       7514.141
      -4834.592      -5250.828       6919.211       15290.74       12116.47
       3465.082       5726.354       9730.472      -1664.711      -7282.043
       4031.297       11972.65       16685.14       25214.30       31000.08
       26696.63       14073.90       4070.588       5934.363       13558.06
       12214.92       5522.934       6936.737       3910.105      -7298.695
      -12721.25      -17067.82      -18506.68      -14236.60      -9730.805
      -8831.391      -18241.70      -27248.26      -21002.64      -5546.026
       101.6992       3562.465       6565.245       1281.488       4821.938
       18904.48       30771.72       31314.95       22910.16       12622.16
       8487.195       8924.336       8438.000       12785.12       8303.146
       244.5022       1840.455      -2283.316      -12674.99      -11754.53
      -10877.06      -22505.61      -27853.18      -21599.91      -15225.86
      -11109.47      -7972.770      -9073.188      -11635.61      -11555.04
      -8765.842      -3719.834      -6766.811      -8877.898      -8688.320
      -10682.74      -5614.273      -4866.250      -18630.05      -37031.46
      -43273.78      -34435.70      -16120.63       9703.516       37127.12
       52890.34       41139.33       18187.63       2816.375       4229.516
       30414.09       55102.62       44921.66      -12575.66      -88089.16
      -125500.9      -125300.4      -114183.9      -86599.73      -71155.75
      -89842.69      -92391.12      -67114.59      -48461.78      -43127.25
      -34567.10      -11008.58       27702.11       65541.02       84182.28
       82434.47       67094.88       50546.36       47793.45       69465.91
       95638.95       80628.52       29981.63      -23144.70      -42089.52
      -9417.531       41113.72       53228.82      -4861.094      -65877.66
      -67729.16      -52276.28      -44841.25      -55136.69      -104154.1
      -154159.2      -148537.5      -69622.52       15394.86       34764.83
       44406.88       84048.53       98638.55       58244.12       37416.38
       100170.2       165999.6       150447.8       98666.58       66666.14
       54203.89       27802.38      -14337.23      -19015.62      -3327.805
      -18457.38      -38923.04      -17488.64       28930.84       70304.34
       85298.16       76085.25       69341.87       31153.59      -30286.66
      -71933.53      -83456.27      -78151.09      -69110.40      -43913.47
      -19502.14      -22111.56      -59876.91      -83841.39      -26929.04
       45729.15       39436.64      -12685.61      -22560.31       17235.61
       57213.09       66889.84       54788.68       45749.30       28835.03
      -22026.97      -70449.80      -64084.44      -27043.51       2189.387
       17092.16       12975.56      -31636.59      -84219.16      -98555.06
      -87799.61      -57681.82      -31086.51      -19683.62      -158.2344
       37701.64       64218.78       40873.06       15392.66       43431.12
       61564.31       52488.73       67276.95       72326.32       30017.09
      -20899.75      -33213.34      -9023.449       100.3125      -44651.31
      -85641.38      -75430.30      -44870.16      -2081.672       32151.23
       42686.38       46589.02       47832.75       56521.94       76220.41
       71327.09       26195.81      -21955.25      -46839.33      -40972.15
      -19441.08      -32848.47      -73275.59      -81284.27      -59541.42
      -56029.42      -66261.73      -38174.61       28884.12       102602.0
       134944.1       106367.1       91847.59       90508.56       79617.75
       69484.43       33691.24       4816.453      -7986.320      -31518.44
      -53890.95      -69934.09      -78794.75      -79331.59      -75731.41
      -50414.76      -13690.82      -9176.422      -23267.39      -51103.62
      -51732.33      -10586.83      -10798.99      -12809.02       34245.73
       49350.42      -14444.77      -50801.05      -6560.319       11972.86
      -13895.64      -16699.19       8233.758       22248.84       32984.27
       74542.03       104608.1       62966.37      -3669.555      -31752.58
      -11268.34       22587.46       24216.16       7824.541      -1028.914
      -3460.836      -27759.67      -58245.03      -50868.77      -21027.35
       5521.660       17127.52       21230.04       33161.59       40419.65
       29167.97      -1723.570      -32983.95      -33520.09      -11711.73
       15146.11       56877.94       94232.94       82529.07       39426.20
       3847.438       1459.031       42310.56       86980.78       74460.18
       23367.30      -4962.641      -13385.02      -13690.82      -3370.375
       27365.29       46883.40       17642.70      -35727.59      -58244.36
      -26665.83       11061.48       4091.625      -29994.59      -45340.70
      -42558.72      -33885.37      -24566.09      -28222.75      -44201.30
      -57398.23      -62695.83      -45675.60      -7030.516       21849.38
       8981.562      -36145.23      -43201.62      -25000.77      -30586.52
      -21479.84       20085.98       44325.56       11944.21      -36248.60
      -41018.30      -11921.46       8970.453       21487.03       37749.14
       38460.85       8346.516      -32126.31      -55291.95      -67970.78
      -61590.42      -29518.87      -12259.49      -29573.19      -67641.48
      -83803.51      -43566.88       9961.406       49449.64       74823.89
       59120.36       30539.61       24577.50       26395.63       29109.37
       20740.32       15827.55       45676.19       61476.71       25308.61
       395.7344       14869.32       11005.35      -33.81250       18657.42
       37319.01       24512.64       5050.117       22571.66       36168.04
       7006.965      -13101.71      -744.8701       5727.383      -9267.453
      -24143.79      -31366.45      -51504.34      -74449.06      -66276.70
      -44547.72      -42018.14      -38733.73      -24189.07      -12398.25
      -13471.62      -20591.04      -24557.76      -27643.03      -10723.38
       25183.09       57893.31       72374.20       67179.86       53057.75
       41795.08       46037.03       47597.18       22765.95      -1680.257
       702.3828       10404.59       20026.34       42649.86       64786.69
       71268.11       60008.45       38326.31       29784.40       23904.67
      -1401.719      -34459.28      -51445.88      -34045.27      -16391.51
      -30592.97      -38809.16      -30024.60      -24396.36      -20779.98
      -10147.18       11411.51       20721.40       9382.475      -3133.877
      -8637.779      -3675.770       11427.49       18087.19       10553.96
      -1924.289      -19262.72      -38394.59      -56804.69      -65232.84
      -64031.22      -51204.00      -36722.83      -41923.66      -45069.27
      -32377.72      -14837.48      -9241.486      -14799.93      -2683.102
       26939.17       41819.45       44680.84       51091.02       49046.84
       45656.67       45393.08       36428.27       31948.98       37717.48
       36715.92       35051.31       41707.23       21013.58      -18395.48
      -23923.27      -11942.50      -17025.86      -34713.55      -41912.47
      -34421.20      -17834.42      -2344.047      -3066.707      -10807.27
      -1336.609       20309.58       17772.98       3537.479       4403.281
       1688.889      -2244.886       6480.730       1035.707      -15614.52
      -15408.70      -14043.61      -21952.61      -26004.39      -22745.13
      -17535.71      -17470.58      -19492.81      -10898.67      -3929.516
      -9520.707      -11263.21       2788.848       14040.74       3117.062
