     0.02500000      -344327.9       307746.7      -12345.00      -12345.00
      -29.98997       228.6100      -30.89000      -12345.00      -12345.00
       0.000000       22.78000      -12345.00      -12345.00      -12345.00
      -12345.00      -12345.00      -12345.00      -12345.00      -12345.00
      -12345.00      -12345.00      -12345.00      -12345.00      -12345.00
      -12345.00      -12345.00      -12345.00      -12345.00      -12345.00
      -12345.00      -29.95960      -69.63990       5051.000       0.000000
      -31.54000      -68.94500       0.000000       103500.0       0.000000
      -12345.00      -12345.00      -12345.00      -12345.00      -12345.00
      -12345.00      -12345.00      -12345.00      -12345.00      -12345.00
       187.4195       339.0274       159.3810       1.685074      -12345.00
      -12345.00     -0.1029354       0.000000       90.00000      -12345.00
      -12345.00      -12345.00      -12345.00      -12345.00      -12345.00
      -12345.00      -12345.00      -12345.00      -12345.00      -12345.00
      2008        49         8        51        34
       590         6    -12345    -12345     10345
    -12345    -12345    -12345    -12345    -12345
         1         7        13    -12345    -12345
    -12345    -12345    -12345    -12345    -12345
    -12345    -12345    -12345    -12345    -12345
    -12345    -12345    -12345    -12345    -12345
         1         1         1         1         1
CORT    -12345          
        -12345  -12345  
-12345  -12345  -12345  
-12345  -12345  -12345  
-12345  -12345  -12345  
-12345  -12345  -12345  
-12345  -12345  BHN     
ZL      -12345  -12345  
[...]
      -9049.756      -7670.031      -14545.13      -22282.41      -23246.39
      -8551.074       6946.507       287.8223      -2747.897       1676.063
      -719.7188       4370.711       10489.98       18368.43       23243.78
       9513.887      -5593.684      -14568.66      -20949.48      -11310.78
       6067.737      -1727.832      -17580.25      -9170.141      -617.8809
      -5987.037       562.9609       16339.29       22411.52       22853.75
       11652.64      -13291.37      -11135.95       18038.78       26378.22
       10274.43      -8443.887      -18502.49      -14491.03      -7432.216
       53.69141       7379.182       7053.146       815.2275      -2941.730
      -5965.355      -8850.622      -3813.803      -2851.473      -12143.14
      -9735.293      -497.5381      -1853.182      -3307.924       10.08105
       2180.807       5528.699       6595.086       3721.285       1508.339
       2156.608       315.8076      -396.2715       4426.096       8409.701
      -1634.570      -17952.65      -13910.79      -3358.883      -4881.523
      -8458.133      -11906.08      -10152.09       2664.664       21834.05
       25838.46       11261.99       7495.523       16768.29       20164.97
       22659.22       13899.71      -4806.230      -12682.00      -14455.89
      -15325.48      -16252.57      -15242.64      -10084.29      -15478.25
      -23675.45      -9969.883       11209.57       15355.11       10755.46
       9836.928       9363.441       7328.820       11695.85       13771.95
       2522.172      -7569.883      -9712.064      -8803.736      -3524.049
      -4937.227      -15438.55      -19784.70      -8428.988       603.8535
      -1696.579      -2580.672       689.6172       3486.142       1585.805
      -4021.643      -5672.857       3547.129       15145.11       9737.896
      -2125.717      -2410.371       2372.911       4191.413       3711.109
      -446.1758      -3113.520       185.6914       7800.789       12984.40
       11869.33       6562.082      -4025.117      -16041.50      -9906.292
       6313.742       8821.389       4330.237       1477.458      -4397.346
      -7839.714      -2702.180      -5120.059      -17113.58      -13405.13
      -3020.409      -490.8008       664.1914      -5299.012      -13020.82
      -2191.617       12454.18       11169.06      -4511.760      -12283.26
       5981.391       27239.12       28410.91       11702.71      -7630.129
      -16287.79      -12262.53      -1052.644      -2278.552      -1559.709
       11514.45       10236.11      -5857.484      -11953.51      -10093.75
      -10422.60      -3422.111       9007.453       13198.47       12732.62
       10376.31      -4206.625      -20351.25      -10239.45       7023.330
       2627.838       1131.301       12346.47       12342.79       5616.300
       2186.371      -6015.453      -14953.87      -9725.438      -4830.051
      -8200.936      -7319.035      -5239.891      -10836.88      -14555.20
      -10675.53      -6577.625      -891.0703       9070.670       11136.83
       7235.012       6413.938       3652.000       2081.350       6572.666
       7093.924      -1993.434      -11049.85      -9831.301       2843.289
       25252.27       35264.49       20390.52      -1026.623      -10734.53
      -3524.766       10269.08       10279.85      -175.7344      -9622.332
      -11225.85      -5756.168      -3802.352      -4648.145      -4087.451
      -6316.894      -5291.718      -994.3184      -1675.400      -5842.456
      -1045.848       11551.01       12570.43      -4200.115      -10765.65
      -2962.566      -6245.385      -6835.771       7178.988       14512.34
       8002.686      -4204.426      -12619.93      -14146.45      -8480.092
      -1447.504       4987.746       8302.176       4501.102      -4517.160
      -10479.66      -4804.352       11888.30       23758.45       14090.91
      -1922.506      -5136.240      -6195.179      -2856.707       5624.014
       8165.486       7864.389       7067.770       3370.480      -16.26660
      -1670.268      -1018.482      -1959.570      -2257.328      -4242.057
      -9465.401      -8433.006       3727.480       9423.706       2319.842
      -4926.039      -9857.223      -12745.12      -9675.909      -186.0820
       9580.755       6457.819      -3759.840      -7844.648      -8775.645
      -4167.621       9611.645       11776.81       1518.342      -2621.070
      -6488.732      -8855.591       1622.801       9916.371       8691.100
       3484.158      -7049.578      -11679.62       669.3281       12969.81
       14220.76       8182.367      -349.2207      -11013.91      -8906.575
       133.0508      -4494.129      -5974.646       2459.207       2634.594
      -6142.766      -14385.18      -14074.29      -5681.445       4287.391
       13097.50       17236.18       11533.43       6987.914       11474.28
       16426.73       14749.66       7913.248       1342.891       1681.089
       3796.348      -4198.934      -14103.92      -6406.875      -1799.803
      -1520.047       6682.933      -96.37500      -13501.79      -7107.730
       8243.676       13082.79       8730.459       4655.879       3689.432
       8320.477       6975.854      -2321.186      -6404.242      -1062.828
       6450.799       10768.88       7240.410      -6976.930      -23382.90
      -27355.21      -21728.71      -14631.79      -6591.473       100.9023
       10935.82       16941.36       4304.353      -4490.885      -5207.374
      -5428.286       221.4473       4736.330       4538.352       7673.732
       6736.729       3310.363       2586.078       2164.398      -4132.988
      -14155.93      -14866.08      -5244.977       4930.488       10435.41
       5872.162      -6330.623      -11080.14      -6231.729      -4082.359
      -2863.131       194.8979       1870.137       1717.656       5043.414
       8876.244       7147.438       7044.406       13961.19       13373.27
       5753.508       1285.742      -1797.025      -1939.235      -1023.213
      -1015.484       5927.688       9106.629      -1453.330      -9194.038
      -3229.901      -2117.711      -1791.439       6482.963       3293.242
      -9903.062      -16128.36      -25848.71      -27131.36      -9304.670
       826.3125      -3044.953      -7566.000      -10455.67      -8576.340
      -262.1016       11472.92       19262.45       20598.09       14099.89
      -4316.082      -11152.01       5535.168       14548.52       15061.29
       15313.06       6611.855      -3687.273      -4322.709      -3862.410
      -2828.498       1907.868       3825.781       352.3906      -3597.316
      -7142.637      -12764.01      -17490.38      -16373.82      -9112.941
       5277.367       11692.48       1394.188      -10574.24      -11714.75
      -7087.176      -4308.686      -6920.756      -6251.625      -4755.008
      -15210.50      -19053.24      -9639.006      -2660.012       5450.312
       4531.294      -1898.259       788.9102       7715.602       15355.78
       24291.73       27537.43       23309.20       13532.54       7008.496
       7219.336       7940.855       7678.523       13042.70       15885.29
       8205.518      -2423.506      -7743.381      -7948.789      -720.7617
       9712.258       8101.175       801.2031      -857.1943      -1855.498
      -6494.434      -18770.99      -18023.88       3231.379       16804.98
       7517.824      -4167.166      -9368.539      -13684.90      -12099.25
      -8437.289      -12639.72      -19417.09      -22687.09      -19575.29
      -9762.300       2778.609       7531.779       4148.683      -1249.546
      -3726.969       2541.508       12707.00       22663.39       31060.93
       21981.52       10308.48       11841.79       11598.80       2775.316
      -7960.613      -11451.33      -4682.362       1000.099      -206.6348
      -7517.346      -6438.447      -2557.527      -5099.152      -7030.695
      -18353.02      -33552.27      -32294.45      -14502.18       5655.629
       14220.47       14004.04       9149.110       4626.102       4564.879
       7883.139       8269.492       13038.04       15800.90       8127.613
      -1148.996      -9858.406      -13957.60      -11010.05      -3178.948
      -1337.111      -8449.878      -5757.195      -309.0361       4024.934
       8281.294       440.3828      -8667.518       4023.109       20719.88
       22047.48       18469.76       14425.95       17507.55       27706.22
       25950.88       14034.56       3671.383      -1238.379      -5877.844
      -5379.555      -5941.383      -24098.70      -42819.78      -36776.53
      -30122.22      -32556.34      -19430.71      -6826.465      -10505.48
      -11122.04      -7845.127      -2117.258       7825.602       16700.23
       23074.09       24734.15       16855.78       7745.121       12927.88
       36378.66       50436.53       40453.78       18948.15       804.6665
      -2834.879       6491.055       12002.88       9995.967       4131.434
      -9228.219      -22414.97      -25425.08      -27990.03      -33068.18
      -36018.41      -32761.40      -25936.45      -23512.80      -25493.49
      -24247.57      -21468.06      -15195.09      -4920.334       4674.852
       13042.05       19955.12       21805.43       22012.30       26247.91
       28230.12       20678.88       13450.90       11401.49       12218.62
       6113.246      -3688.943      -5234.838       1343.023       8255.352
       6572.270      -8459.352      -21279.99      -21862.03      -21187.79
      -21607.95      -17452.96      -9393.090      -1529.422      -8407.711
      -16314.13      -3619.648       14405.00       17979.04       10543.08
       5502.633       7490.203       10621.07       15389.72       15789.79
       8670.637      -153.5645      -3024.806       1611.592       10399.86
       9769.668       59.69482      -2306.005      -1488.950      -4354.031
      -4589.051      -7229.961      -11274.31      -11745.06      -9178.789
      -8753.586      -7406.488      -6832.641      -10806.50      -17668.11
      -18676.20      -3512.730       11416.76       8835.400       3143.535
      -4236.818      -11000.74      -8152.878       750.6484       10425.11
       20704.98       20034.96       3160.906      -9241.242      -10013.61
      -6388.494       26.73047       4400.691       10153.79       11508.89
       7337.273       5787.090       7758.984       3473.773      -6116.650
      -5668.389       1104.222      -973.3809      -3548.285      -6980.742
      -13999.52      -13741.99      -5387.582       4041.977       12771.64
       8933.854       1081.570       8239.504       19033.51       21064.71
       24100.94       22506.02       5499.957      -9419.129      -6663.555
      -3350.976      -3361.148      -2117.178      -6125.908      -9731.410
      -11276.96      -16472.25      -16062.53      -9670.358      -2471.235
       2750.445       2716.594       1887.646       2045.821      -3995.967
      -5382.599       119.1807       2715.946       2558.648       8781.117
       14341.17       8737.898       10221.23       19739.41       10860.11
      -711.9492       3690.678       8455.496       1284.443      -3943.624
      -1784.029       409.8828       6089.090       14266.23       11094.63
       7034.086       15476.73       26429.11       30468.89       29127.16
       24741.47       19316.85       17041.08       21448.07       22730.64
       21601.52       18742.36       8000.186      -3567.051      -7962.881
      -5992.586      -1951.232      -3955.258      -8978.367      -11044.87
      -8899.848      -9558.449      -8355.062       2529.609       17496.26
       19944.60       3461.102      -8004.214      -258.5752       4225.860
       2912.865       2724.942       1011.836      -709.0469       4111.930
       14180.27       13286.72       7804.941       16493.77       22187.35
       19706.05       19194.52       19593.93       20683.63       19984.39
       9152.320      -7782.477      -19477.70      -14814.43      -9052.207
      -8349.794       1596.078       10698.33       3886.988      -15058.11
      -23384.96      -20653.52      -25976.81      -29302.68      -34222.23
      -30115.95      -15317.86      -9041.049      -6356.684      -5214.727
      -14960.53      -31167.92      -29875.86      -3773.453       28915.52
       31195.88      -19569.25      -81888.34      -110016.0      -91482.81
      -51433.13      -34650.09      -52885.25      -72280.16      -69367.00
      -32252.12       55097.88       156897.2       172027.7       63350.31
      -61234.20      -84627.76      -3652.031       97279.44       126596.1
       95548.25       72042.31       75359.59       60469.26      -7858.375
      -84159.69      -123335.1      -145152.7      -146712.8      -84960.88
       31568.98       82700.28      -49024.25      -266377.6      -344327.9
      -259817.6      -141353.5      -59105.72      -39972.94      -77599.72
      -107311.2      -77761.55      -2374.656       60472.97       120136.5
       225259.2       307746.7       262350.2       111525.4       44228.25
       90503.19       102602.8       67247.84       15839.02      -9531.766
      -35424.72      -75507.22      -74698.16      -59443.27      -44660.64
      -33036.47      -31079.43      -3683.547       49433.91       125700.1
       213398.9       226844.7       109860.2      -33958.47      -80034.30
      -53600.84      -11040.11       9868.984      -7597.469      -51893.31
      -127273.6      -177707.8      -125638.6       26896.19       155653.3
       169008.7       100882.0       37470.89       34843.07       28720.21
       13544.54       7126.125      -53802.12      -131696.3      -132826.0
      -64622.44      -14107.00       3780.451       3757.016      -24239.02
      -47094.89      -38423.45      -25195.10      -2551.500       79922.94
       174215.3       163152.8       81010.16       6120.332      -18390.34
       21035.80       17801.45       4449.094       77561.22       123564.0
       77601.06       31071.16       48905.47       72744.73       7217.469
      -94956.28      -108170.0      -80588.88      -88261.53      -117429.9
      -133914.9      -105610.1      -63040.00      -49611.95      -35372.47
       21250.19       44275.12       56071.62       121520.2       149631.8
       119784.8       59149.12       41462.41       93247.09       83270.55
      -10511.28      -92724.88      -133294.8      -136896.6      -127629.1
      -157577.7      -170969.1      -102876.4      -40794.35      -13473.95
      -24518.38      -58938.39      -31115.02       39493.25       88010.61
       76632.24       40171.96       21472.33       25872.07       29058.18
      -15278.78      -31087.50       3564.969       26754.40       38283.36
       24791.54      -375.9062      -10453.05      -33535.09      -59435.30
      -46663.77      -19469.16       4723.922       25946.77       31157.22
       19427.83      -21134.60      -17618.75       22521.94      -1152.531
      -56369.95      -58148.94      -17147.21      -5353.398      -1111.117
       30796.41       64356.38       77847.84       65072.61       48982.31
       59224.03       88123.72       97924.81       83381.42       63649.89
       26973.21      -22823.34      -23574.25      -4110.594      -15804.75
      -36391.42      -58735.19      -55470.41      -39355.02      -35889.10
      -22486.09      -552.7656       33402.97       50220.08       39452.23
       55462.48       84052.91       76611.19       72977.62       102993.1
       103895.4       58168.40       4687.492      -28945.05      -32308.10
       2726.438       57787.59       58659.33      -974.8281      -50223.55
      -52161.53      -63223.02      -91185.88      -75577.72      -32846.52
      -1364.766      -16542.78      -80341.84      -116968.8      -107494.5
      -83993.03      -57029.29      -39942.18      -16926.29      -1726.562
      -21676.07      -31819.72      -3907.250       35048.93       39900.09
       5647.113      -18462.03      -6945.820       17006.28       21859.15
       5814.066       3347.715       8793.352      -13557.73      -20603.85
       10856.20       24623.38       10748.55       2044.406       19754.97
       43793.88       31758.90      -847.2979      -9908.270       8439.137
       19586.25      -3042.445      -33140.59      -31437.31      -483.8164
       44.89844      -24113.76      -8071.387       16994.97       3248.817
      -8033.977       15736.55       45032.41       46131.64       22755.01
       12582.71       11001.84      -6961.141      -25787.93      -28951.68
      -13438.64       820.7344      -18201.73      -40732.72      -36979.50
      -38317.86      -62068.33      -55800.70      -9107.348       4520.148
       5142.094       26521.91       30672.80       13155.91       22642.42
       71050.12       99748.12       81336.07       45648.02       30058.94
       43680.97       44054.88       12778.79      -9363.594      -16420.06
      -43853.30      -71762.06      -71079.70      -58482.44      -58750.79
      -45034.66      -3829.850       8908.023      -6166.059      -8663.820
       23759.08       66192.98       57785.65       14437.10       551.2383
       15627.16       21294.84       25640.68       32398.53       23521.72
       26635.08       45027.90       36653.91       10277.11       4137.617
       14527.51       8122.594      -17027.36      -49477.08      -63808.02
      -40082.25      -34951.98      -63056.08      -60237.79      -37911.40
      -21306.61      -10243.38      -17172.04      -25933.58      -29109.45
      -30779.81      -19434.48       7460.629       16129.70      -897.5391
      -3347.991       1569.484      -19522.66      -49456.95      -64154.48
      -57123.78      -29708.91      -20902.45      -24247.96       4344.438
       29934.43       33490.02       38610.69       56721.03       85730.66
       107317.1       124668.3       140504.5       135574.3       111032.2
       85788.34       65779.79       41835.85       22588.18       23725.06
       10823.38      -18636.44      -27175.31      -32548.58      -63687.38
      -92075.59      -81719.44      -55412.06      -43359.19      -47388.53
      -54607.66      -57614.81      -58292.33      -51308.16      -38478.05
      -18495.54      -15171.80      -38854.56      -50973.09      -50342.56
