     0.02500000      -226159.5       438151.2      -12345.00      -12345.00
      -29.98997       228.6100      -30.89000      -12345.00      -12345.00
       0.000000       22.78000      -12345.00      -12345.00      -12345.00
      -12345.00      -12345.00      -12345.00      -12345.00      -12345.00
      -12345.00      -12345.00      -12345.00      -12345.00      -12345.00
      -12345.00      -12345.00      -12345.00      -12345.00      -12345.00
      -12345.00      -29.95960      -69.63990       5051.000       0.000000
      -31.54000      -68.94500       0.000000       103500.0       0.000000
      -12345.00      -12345.00      -12345.00      -12345.00      -12345.00
      -12345.00      -12345.00      -12345.00      -12345.00      -12345.00
       187.4195       339.0274       159.3810       1.685074      -12345.00
      -12345.00     0.09294781       90.00000       90.00000      -12345.00
      -12345.00      -12345.00      -12345.00      -12345.00      -12345.00
      -12345.00      -12345.00      -12345.00      -12345.00      -12345.00
      2008        49         8        51        34
       590         6    -12345    -12345     10345
    -12345    -12345    -12345    -12345    -12345
         1         7        13    -12345    -12345
    -12345    -12345    -12345    -12345    -12345
    -12345    -12345    -12345    -12345    -12345
    -12345    -12345    -12345    -12345    -12345
         1         1         1         1         1
CORT    -12345          
        -12345  -12345  
-12345  -12345  -12345  
-12345  -12345  -12345  
-12345  -12345  -12345  
-12345  -12345  -12345  
-12345  -12345  BHE     
ZL      -12345  -12345  
[...]
       11067.85       16830.97       13836.78       2873.336      -3895.066
      -6090.211      -12558.66      -21410.52      -25268.46      -16916.87
       3868.730       11907.14      -2220.969      -13111.26      -16203.25
      -9719.230       8490.285       18204.17       9789.734       10141.78
       17648.93       6721.391      -8501.537      -2292.046       4306.527
      -5827.598      -12145.43      -14668.17      -12040.00      -5216.438
      -16626.16      -21133.54      -8333.388      -1603.507      -4385.748
      -1567.965       11939.79       8506.636      -1467.646       1457.200
       1243.506       580.7344       9248.715       19062.58       5268.903
      -7057.871       3223.957       10152.60       9706.240       9826.750
       12289.27       11003.66      -798.4824      -9064.365      -7825.510
      -5908.535      -5588.457      -5149.680      -6918.668      -3942.382
      -194.4824      -2280.551      -10523.25      -15969.08       245.0508
       19512.28       13429.89       7413.309       8870.096       3742.636
      -2739.097       841.5039       10431.67       11654.33       2379.338
      -8722.369      -6677.621       3234.473       100.2773      -12535.87
      -21488.00      -17908.00      -5708.455       4568.994       6594.470
       2933.576       3728.543       8295.309       7178.074       6662.018
       8677.902       8447.316       6236.738       7595.425       6027.738
      -1102.195      -9863.477      -15870.88      -13868.83      -9527.229
      -5756.812      -7264.340      -15206.35      -11829.39       1759.992
       13911.75       15700.77       11980.07       5119.230      -4300.739
       1859.523       13511.50       10269.28      -6614.691      -16477.81
      -8349.239      -524.1670       3274.306      -880.7461      -8690.562
      -14001.79      -11809.56       654.6836       13442.07       17977.99
       13306.63       1216.824      -9630.877      -5361.271       8092.328
       15340.48       17295.58       9250.109      -7087.133      -15155.60
      -9165.080      -1294.251       1748.309      -2956.066      -9251.881
      -6325.592      -2192.852      -7453.555      -10661.22      -7540.269
      -1459.781       9751.074       17493.34       7551.949      -11739.40
      -21561.25      -8096.934       13615.12       17647.40       12678.92
       6296.166      -1268.849      -2864.053      -3945.779      -4422.681
      -5167.204      -1473.527       8340.855       11334.85      -1367.535
      -10770.84      -3967.498      -2969.078      -9003.055      -9051.475
      -5202.102       9252.359       26674.62       20613.67      -151.2422
       1505.484       7400.369       5456.605       12902.77       9334.129
      -10584.37      -9807.342       7744.544       7793.449      -5393.492
      -11511.44      -18829.10      -28020.64      -16560.96       11113.77
       22232.62       13488.44       5564.787      -4642.100      -9340.221
       3538.980       11986.34       9853.149       6913.447       222.5156
      -12156.88      -10415.66       1458.229       383.5977      -6012.164
      -3518.974      -1228.400      -1943.699       6823.719       14291.16
       6265.191      -2897.827      -3499.098      -2651.094      -5530.290
      -1241.767      -763.8086      -6759.173      -2081.047       483.1709
       1040.102       4160.428      -4430.150      -8693.562      -3221.817
       1076.857       8230.375       13816.56       11796.75       5315.027
      -2072.570      -6024.184      -9198.240      -8402.926      -3133.605
      -2815.789      -8441.035      -12045.87      -11629.72      -7689.513
      -2984.211       5788.742       12776.22       11615.15       7823.103
       3284.524       173.9375       10940.27       22136.66       12385.81
      -2702.740      -5195.138      -772.2578      -2193.349      -5117.705
      -3440.520      -6658.832      -15350.83      -14747.58      -8018.534
      -7922.826      -253.7148       8587.914       7081.795       5975.051
       10301.02       11668.17       2906.521      -1700.668       6592.847
       4917.845      -1977.645       564.5918       1271.914      -8035.016
      -15484.08      -7536.051      -541.3784      -3175.070       2574.105
       8538.324       3216.871       2927.816       6372.470      -259.6689
      -3704.068       2573.504       4690.801      -3038.768      -3805.008
       5226.338       6529.379       1765.907       271.5312      -3448.876
      -4295.057       4123.764       9559.657       5998.050       1623.137
      -7176.992      -17219.88      -10886.97       4468.886       3164.062
      -10165.57      -16911.18      -15400.30      -9063.676      -3832.408
      -879.4492       5682.504       4760.867      -6129.584      -9660.096
      -837.1455      -2192.387      -7591.408      -1499.275       3759.012
       8324.168       12857.53       7262.377      -4273.409      -5881.199
       6219.480       15480.24       9213.284      -544.7144      -733.3164
       4522.398       14864.03       21189.00       12206.96      -1873.288
      -5857.716      -2018.314      -879.5200      -248.4326       4105.265
      -103.0820      -11252.37      -20398.04      -15743.02      -873.2078
       1559.939       968.6064       4962.395       5030.626       3654.799
       2227.590      -1006.796      -5939.966      -3968.615      -5183.098
      -14259.14      -13468.34      -6946.633      -8853.410      -11523.31
      -7980.191      -829.0098       2315.250      -616.3594      -4981.819
      -1984.688       11284.92       18884.57       15387.43       9780.058
       4540.153       2486.627       3600.965       6573.514       4710.385
       6057.805       13698.89       13471.20       2314.797      -15294.71
      -21096.93      -9841.439       1783.676       12215.80       14556.99
       2655.379      -9247.219      -19176.36      -22235.89      -1625.594
       17376.28       13244.76       608.4883      -9699.992      -14409.15
      -16482.57      -9307.719       6913.383       13923.68       12619.44
       10102.88       1328.906      -10650.97      -7505.433       1677.253
      -210.2275      -2346.501      -281.5332      -964.0156      -2787.924
      -4566.992      -6689.141      -1844.230       8995.673       6468.054
      -1211.594       3454.302       7414.256      -1355.775      -9972.920
      -8786.587      -1377.723       4745.437       933.4082      -5576.440
      -1455.281       7676.332       9905.156       6721.781       6093.645
       6591.282       4116.295      -4902.221      -11445.71      -1330.023
       12638.98       12431.67       624.0859      -13759.46      -16180.48
      -8135.324       8044.660       20828.78       12518.34       2623.189
      -131.9502      -3071.569      -1054.064       3686.899      -1397.926
      -16360.15      -20340.24      -6181.151       723.3066      -9734.555
      -11770.62      -4574.774      -1787.374       2809.088       7715.337
       3806.811       4794.352       14911.95       21591.55       24066.62
       17682.92       6132.423      -175.9727       4580.262       14271.21
       10027.88      -4031.105      -9205.958       390.2080       5220.553
      -4826.934      -11613.15      -8073.293      -10506.90      -15208.93
      -11683.79      -9185.002      -9041.012      -7248.645      -7804.723
      -9089.048      -5131.625       742.0879       3173.188       1736.257
       834.6443      -406.2629      -2052.667       2145.368       4118.095
      -21.42188      -4158.191      -4902.027      -8160.542      -3864.844
       11260.80       12533.55       10346.18       9968.687       937.9580
       470.0781       10575.43       15583.02       12552.02       4155.675
      -4762.950      -4826.678      -651.1116       1549.793       466.7920
       245.0820       4828.180       3724.429      -238.0977       4131.031
       8976.420       7237.426      -4306.809      -17395.24      -15379.07
      -5138.117      -4245.586      -10622.46      -13008.42      -9366.674
      -2980.890       589.8770      -4716.850      -6372.227       2168.037
       3728.076       1791.334       3558.393       6330.547       11367.47
       13005.52       8576.868       995.5786      -1798.400      -652.8662
       3659.344       9066.586       7209.992       487.0449      -2194.917
       1785.691       2096.625       1077.418      -3138.070      -16868.43
      -20232.28      -8673.148      -3442.950      -3284.099       1809.719
      -5079.148      -11024.84       1758.969       7132.051       6090.988
       12857.04       15989.53       8117.336       2939.512       636.7695
      -5616.598      -6104.793      -10390.70      -12921.84      -9107.693
      -7312.293       3687.846       12498.40       7776.482       6194.395
       12149.55       19880.63       21094.89       10470.26       1777.579
      -1952.073      -3370.487       4698.121       5093.961      -10952.30
      -20667.23      -19113.26      -15566.63      -9293.765      -3788.039
      -5451.355      -10310.82      -8028.092       2330.191       10914.71
       11816.36       9792.812       9713.797       12487.23       14281.93
       15014.02       20587.01       19703.08       5114.488      -6383.705
      -5550.160      -4959.805      -9995.723      -12502.10      -13450.33
      -14633.40      -17877.36      -18452.57      -9500.925       1678.074
       11568.11       8719.088      -3668.803      -4334.258       6001.316
       17123.17       19075.99       7625.961      -6017.933      -4962.000
      -965.7109      -12232.54      -20891.79      -16879.34      -12329.83
      -5424.492       2180.930       2603.855       6491.731       5788.146
      -1703.117       8081.855       19744.78       10611.31       1204.277
       8342.781       12413.14       8782.727       7815.479       1397.746
      -5618.707      -7090.881      -6125.709      -3501.443      -3810.854
      -4089.198       1019.014      -1268.762      -13698.46      -19291.13
      -12630.55      -5283.944       377.7109       9121.887       14524.45
       19740.33       28994.99       29874.15       11024.64      -9642.143
      -7282.188       7681.047       17495.79       13489.77      -6461.000
      -23452.06      -22848.58      -13660.66      -8865.305      -14966.88
      -20603.06      -11454.95      -481.2188       7191.451       13705.90
       2573.711      -8895.379      -9952.707      -8195.096       6145.211
       19381.44       16513.75       6274.260       3727.395       9504.398
       14485.23       13698.37       1338.738      -11952.21      -12104.81
      -4276.836       4435.633       9784.486       8213.418       2276.331
      -1337.009      -90.09277       1786.485       576.5527      -2592.635
      -6364.496      -11772.38      -7397.926       2628.326       3942.956
      -702.5488      -7500.906      -6113.759      -2404.754      -4588.105
       3760.336       13546.68       9172.056       3231.039       8299.695
       16760.68       22593.06       20597.36       6310.769      -4308.630
      -611.0581       692.4492      -8132.180      -15258.79      -12956.63
      -4911.283      -6307.969      -18637.77      -25122.71      -23142.01
      -17691.71      -11174.31      -1669.551       8515.346       8032.512
       4232.359       9458.844       17424.36       22120.38       24916.66
       26400.87       23491.74       17643.60       7831.990      -7017.828
      -14707.06      -18339.45      -23764.34      -13246.79       1656.836
      -3789.609      -19726.02      -24508.80      -22573.29      -24162.72
      -15284.98       514.0850       3927.910      -2621.410      -10704.76
      -9412.867      -2693.066       7025.250       13416.40       6264.017
      -789.6992      -5014.715      -4485.768      -442.3320       6252.992
       17015.36       10333.32      -4597.511      -6003.441       2206.700
       4255.266      -1968.833      -2009.550       5009.141       3264.332
      -10398.01      -19709.79      -20542.98      -16125.35      -5597.276
       2221.242      -2911.570      -12653.61      -8716.398       376.2656
       8248.158       12297.07       6873.445       2323.719       8601.047
       15805.35       9248.133       2355.615       6642.547       12539.09
       12539.04       6857.358       684.3652      -7647.602      -17504.55
      -21437.49      -17639.04      -7894.006       4320.916       2088.477
      -16743.98      -38889.94      -56112.97      -57204.80      -29793.04
       3850.457       16638.36      -9313.281      -65197.47      -90324.69
      -66707.62      -41273.52      -59940.31      -128423.6      -198323.8
      -213036.6      -163364.6      -84658.87      -18760.28       6515.148
       8733.188       36818.00       137688.1       306135.2       438151.2
       428204.3       299112.0       155520.0       68825.50       54137.88
       88921.02       100926.2       20828.88      -115125.4      -186760.5
      -155285.5      -109420.7      -96079.34      -82422.41      -67174.88
      -82437.69      -105489.9      -39284.72       106635.9       202256.1
       173190.3       44981.28      -79840.47      -135042.6      -134345.0
      -76768.73       10903.41       76644.88       60346.68      -27516.62
      -98496.19      -93302.76      -16121.62       51685.59       106403.0
       149743.2       138673.8       112797.8       84422.80       43828.75
       16445.91       33923.06       92741.19       131413.7       97329.64
      -9298.625      -124879.8      -168707.9      -168498.2      -180555.8
      -180379.6      -139013.6      -106708.2      -104707.6      -93506.25
      -95078.78      -99936.12      -77748.11      -36128.23       14682.45
       34064.88       49279.78       87789.91       97519.88       59204.11
      -10347.44      -85865.89      -102009.2      -34683.92       34604.41
       46248.75       41482.08       72998.06       91762.12       61533.78
       52644.28       70859.84       97815.31       120513.2       115669.1
       111549.2       96066.06       54702.70       27144.16       28925.08
       26575.64      -9870.828      -55645.44      -103706.2      -128872.2
      -84484.84      -13788.92       15470.95      -11040.99      -27728.97
       9742.188       78825.62       154592.2       155775.1       91322.19
       49992.00       22047.64       10805.23       8953.938      -52684.56
      -150239.5      -226159.5      -214328.1      -120405.0      -71809.59
      -94814.19      -117572.0      -91771.98      -24928.78       49766.16
       114479.1       156405.2       158970.7       120626.5       75974.55
       50187.04       32450.26      -4722.250      -38531.65      -34627.38
      -31713.84      -57628.50      -80462.84      -107671.6      -118461.8
      -80759.91      -41804.97      -23557.86      -24431.00      -25914.34
      -8347.980      -36.76904      -4540.621       1639.906       49733.06
       118063.1       133909.7       91397.39       55925.25       68487.41
       93538.47       97837.28       121606.3       158207.0       125662.5
       15921.53      -84306.22      -94862.76      -45000.06      -3395.598
      -1640.781      -29707.69      -62099.03      -101371.1      -100296.4
      -38590.11       5567.156      -30017.62      -86430.88      -61453.35
       23919.02       46222.61       24416.58       38582.84       60587.25
       79757.64       80935.91       65008.56       23654.02      -35203.62
      -51040.97      -80346.12      -123754.2      -96149.97      -39824.48
      -31635.66      -57977.47      -57054.02      -28826.13      -28509.13
      -35243.17      -28128.25      -3570.906       49526.86       81146.56
       85060.12       87980.94       61972.14       20952.95       7653.797
       9360.176       2552.883       8108.398       32454.80       36589.45
       49527.11       66180.29       21512.89      -36863.00      -44370.32
      -9479.201       10897.94      -6609.125      -42073.88      -86766.12
      -109677.6      -100093.8      -87129.17      -57252.72      -10616.12
       28552.53       43253.40       36997.72       49345.42       57825.62
       51850.38       65063.28       71475.33       63591.58       48548.13
       8731.703      -34109.34      -68408.31      -112869.6      -126038.7
      -112429.3      -102631.6      -83951.89      -54131.98      -21997.21
      -11566.73      -15541.28      -23232.42      -12556.72       34476.84
       72252.84       89565.20       71666.65      -14752.52      -85395.06
      -66503.56      -7256.547       48123.75       72834.51       41567.69
      -7731.315      -6330.484       25362.14       32873.25       37584.69
       68517.16       90520.53       83455.87       49422.29       31243.59
       58953.78       76535.08       63315.34       37239.90       13744.57
       15021.92       14331.07      -10058.52      -31576.78      -49214.69
      -71423.38      -80291.14      -65529.62      -32484.06      -17708.28
      -42999.48      -60161.95      -49500.92      -44127.59      -34244.24
      -21315.17      -22850.87      -5208.031       28647.84       44640.30
       51667.17       44180.37       17028.08      -983.8232      -2473.688
       20671.59       46148.02       19285.35      -22395.22      -45347.22
      -52735.02      -41379.56      -24259.61       1417.336       27717.81
       31229.38       19652.97       10752.14       14504.27       18785.68
       6208.705       1578.230       13985.46       10665.49      -2435.594
       298.6172       13563.34       29222.23       41247.70       32553.68
       8809.648       12915.28       50995.50       74777.19       90536.86
       91314.25       59839.21       34640.64       13991.46      -10079.82
      -22217.45      -20177.70      -23654.84      -50650.25      -77936.91
      -92515.41      -90843.69      -79756.98      -65029.34      -34192.93
      -32481.11      -58707.34      -53510.64      -40095.35      -21415.12
       3567.180      -5826.375      -44196.34      -68821.50      -67940.42
      -68435.61      -59051.41      -25875.96      -9874.465      -18548.00
      -25725.52      -12323.30       27953.50       60369.19       56390.75
       41952.56       44550.53       56193.25       63942.75       87907.78
