     0.02500000      -236892.6       154828.4      -12345.00      -12345.00
      -30.00500       217.3450      -18.63000      -12345.00      -12345.00
       0.000000       14.11000      -12345.00      -12345.00      -12345.00
      -12345.00      -12345.00      -12345.00      -12345.00      -12345.00
      -12345.00      -12345.00      -12345.00      -12345.00      -12345.00
      -12345.00      -12345.00      -12345.00      -12345.00      -12345.00
      -12345.00      -30.83090      -68.94810       1673.000       0.000000
      -31.54000      -68.94500       0.000000       103500.0       0.000000
      -12345.00      -12345.00      -12345.00      -12345.00      -12345.00
      -12345.00      -12345.00      -12345.00      -12345.00      -12345.00
       78.62071       359.7840       179.7856      0.7068878      -12345.00
      -12345.00    -0.03052612       0.000000       0.000000      -12345.00
      -12345.00      -12345.00      -12345.00      -12345.00      -12345.00
      -12345.00      -12345.00      -12345.00      -12345.00      -12345.00
      2008        49         8        51        22
       330         6    -12345    -12345      9895
    -12345    -12345    -12345    -12345    -12345
         1         7        13    -12345    -12345
    -12345    -12345    -12345    -12345    -12345
    -12345    -12345    -12345    -12345    -12345
    -12345    -12345    -12345    -12345    -12345
         1         1         1         1         1
GUAL    -12345          
        -12345  -12345  
-12345  -12345  -12345  
-12345  -12345  -12345  
-12345  -12345  -12345  
-12345  -12345  -12345  
-12345  -12345  BHZ     
ZL      -12345  -12345  
[...]
       1035.130       1056.787       1041.083       1064.346       1047.674
       1069.051       1053.268       1074.641       1055.797       1077.681
       1059.524       1078.798       1057.417       1076.719       1055.731
       1075.995       1051.686       1069.729       1046.217       1064.797
       1038.944       1052.958       1024.692       1039.832       1011.381
       1025.343       996.1104       1007.565       976.4326       988.0967
       956.8799       966.3481       931.0066       940.5176       904.5024
       913.3179       876.1748       884.1313       844.9661       851.2917
       809.1785       815.4912       772.9678       779.8799       736.0737
       740.7776       694.9556       697.7083       649.4475       653.3926
       602.4708       601.5393       551.5670       553.5696       503.6559
       503.3428       448.8881       447.7698       395.6270       392.5582
       337.7175       338.2555       284.6007       280.1178       226.6329
       225.4191       168.2014       166.7351       110.4994       111.7620
       58.61899       60.57212       3.351864       2.820175      -52.29182
      -49.49255      -107.5063      -103.6931      -158.8608      -155.2460
      -207.5662      -200.4216      -255.1065      -247.9489      -300.0610
      -290.5790      -340.4541      -331.0377      -380.2748      -368.4036
      -417.8616      -406.8738      -453.8628      -440.9872      -486.5551
      -472.5505      -517.7539      -502.1016      -548.5186      -532.7305
      -575.1073      -559.5319      -607.2428      -586.2239      -632.4519
      -613.3826      -655.8297      -635.7258      -679.7981      -656.8108
      -699.2695      -676.6782      -721.9758      -699.6714      -744.5010
      -719.0227      -765.6877      -742.2627      -786.2964      -764.1082
      -810.2156      -784.7959      -831.8052      -806.1040      -850.9197
      -822.5254      -867.3740      -841.2075      -887.6450      -860.3828
      -906.0305      -874.3076      -917.8311      -884.7678      -926.3840
      -894.8223      -938.7207      -902.7861      -944.0063      -909.3398
      -950.7065      -914.2417      -954.4854      -917.3179      -957.0767
      -920.6838      -958.6055      -920.2417      -960.2615      -920.7542
      -959.3528      -919.2092      -959.2322      -920.7078      -959.9080
      -921.4316      -961.7192      -920.3777      -959.3401      -917.5603
      -957.1387      -914.9058      -954.5684      -910.6067      -950.8462
      -906.0090      -943.6592      -895.2549      -931.8604      -883.4966
      -919.3342      -866.3792      -899.9580      -847.4663      -880.3374
      -825.0454      -851.9746      -793.0637      -821.8181      -761.7388
      -787.1909      -723.4346      -748.7786      -686.0823      -707.7266
      -642.0576      -664.1873      -596.3123      -617.7510      -548.3517
      -570.2026      -499.2068      -517.9225      -448.2103      -468.9486
      -398.3131      -420.9762      -350.2478      -367.6329      -298.9269
      -321.4408      -249.8244      -269.2316      -198.6393      -220.8819
      -153.9297      -177.1795      -105.3782      -126.3178      -56.42223
      -80.37099      -7.884727      -32.90748       38.37169       15.37463
       87.83051       65.15009       137.9933       114.9912       190.4604
       168.3625       244.1940       221.7800       298.7354       274.7870
       352.6072       331.0393       405.7784       382.3214       460.1578
       435.4673       510.8110       485.9607       563.5994       539.5309
       614.3911       586.5750       660.9897       634.7881       709.6050
       679.9250       756.2908       728.4385       796.8755       766.5425
       845.6782       816.3296       875.2776       842.9912       923.7485
       891.9907       922.9243       926.0894       1006.253       928.5532
       988.8164      -796.7500      -9805.750      -24678.48      -29553.11
      -18446.69      -6416.277      -3332.494      -3823.590      -11677.96
      -28555.22      -45549.72      -46309.75      -17035.28       27522.66
       37207.02       4371.031      -25248.42      -34488.30      -16953.11
       15728.05       39387.55       34379.43      -4093.191      -20101.64
      -9697.367       16099.62       58373.88       46017.70       3344.781
      -7107.984      -25802.72      -31170.69      -8009.438       16624.76
       33517.85       20696.53      -66.28320      -5080.555       11753.77
       28686.61       33633.51       23415.98       6114.758       13425.95
       37845.09       50015.00       27317.68      -5000.336      -25543.03
      -18173.35       4667.684       4048.311      -2597.513      -1481.597
      -2162.938      -10625.72      -19106.29      -7681.648       12961.16
       15518.15      -3645.312      -16812.57      -6913.586       19999.37
       35888.48       28947.50       16461.51      -15889.38      -44075.27
      -36091.41      -12725.24       24697.48       27486.18      -14660.44
      -36364.06      -35255.71      -12633.04       10880.28       11891.34
       20401.31       10838.60      -23457.16      -25749.39       1401.875
       23132.43       23739.42      -4249.234      -21080.23      -18584.54
      -13756.15       988.2734       4258.826      -4251.438      -10342.98
      -24479.22      -23786.81      -1277.883       7778.906       6268.398
       5877.658       6606.830       9594.201       13126.81       5990.715
       1704.043       19075.18       18623.48      -7637.406      -19090.78
      -11540.59      -6970.757       3152.305       14362.90       9251.280
       2390.237      -327.9248      -7459.751      -323.1016       6152.061
       6603.680       12354.41       8215.814      -1254.602      -11848.45
      -16303.28       4377.969       24846.45       22574.21       13138.15
      -6990.219      -21921.56      -24402.69      -17651.75      -3993.494
      -3771.531      -3013.000      -6560.055      -16488.52      -11239.79
      -9154.191      -10208.66       180.6602       2163.990      -40.13672
       7078.367       18331.45       24951.38       18627.14       4758.095
      -3584.381       538.6758       7321.896      -1435.144      -3535.336
       8666.316       11277.07       8619.995       5694.559      -2657.453
      -12826.80      -23178.41      -23765.71      -3567.449       14484.97
       13520.88       4192.471       190.0156       7363.203       1623.995
      -3672.634       3600.782       4973.559      -3572.770      -15864.00
      -17697.47      -8540.736      -285.4082      -5237.301      -15412.60
      -13327.08      -5755.170      -600.9746       3267.086       6451.294
       5916.621      -3866.941      -12125.31      -8340.347       1773.352
       9431.055       3485.344      -2979.839       1867.604       9073.656
       9202.553      -1087.715      -7692.742      -6030.111      -7874.460
      -3537.214       2273.389       3925.625       4704.004      -5801.230
      -12935.40      -10436.90      -6746.844      -3338.277       3063.250
       14133.09       13325.70       3827.545      -7804.445      -15748.96
      -15869.61      -12136.35      -7409.426       3846.574       14915.17
       9454.757       4591.386       2570.895       2374.852       20669.57
       25080.26       17469.17       14485.86      -2261.432      -11366.36
      -2577.367       1290.014      -1634.031      -1516.762      -7390.496
      -7322.727      -2835.292      -5244.177       1798.730      -3763.242
      -19639.66      -28009.65      -23909.95      -5964.934       11357.68
       9025.930       7812.996       14173.34       11697.31       26005.94
       26820.01       13866.62       13507.20      -1153.766      -13739.98
      -8903.732      -3125.006       373.6704       3552.844       15.95703
      -4614.176      -14745.66      -29501.88      -29538.66      -7757.570
       15115.43       19628.02       15226.42       16888.70       11523.19
       8288.159       7254.098      -10692.31      -15021.13      -4264.873
       4075.254       12623.62       14859.35       9064.594       7122.184
      -2267.439      -13991.61       1373.053       12724.87       3712.059
      -6379.892      -2294.854       6817.961       726.5469       3377.301
       18520.05       21894.96       10402.72      -21534.35      -43000.19
      -16499.70       18342.32       25142.27       14549.18      -4645.400
      -7521.113      -4594.359      -10182.90      -4422.303       4240.801
       13176.00       16467.00       10295.25       3500.871      -9106.418
      -18514.70      -18600.51      -1492.793       14200.28       16496.41
      -634.5078      -15619.84      -12067.34      -4661.510       2645.463
      -4609.759       2725.227       2252.232      -4617.733       2224.536
      -6288.744      -3138.750       10898.89       9159.833       4768.235
       4607.366      -371.6582      -2996.381      -288.5195       5863.098
      -2394.250      -16033.33      -7099.160       14830.66       24222.45
       17385.90       2173.312      -8863.047      -9659.141      -17429.01
      -10364.25       6293.723       13607.19       17463.15      -439.1016
      -18188.26      -15819.12      -14452.67      -13904.37      -1608.285
       4598.266       11664.21       14612.23       3315.887       712.1719
       6249.617       6710.057       6135.880       1197.473      -4952.650
       2436.320       1665.605      -8043.635      -3146.900       7775.380
       3616.641      -4804.031      -10955.01      -21260.07      -6149.256
       10049.43       3452.195       11095.76       8453.469      -10922.40
      -7951.001       4899.449       4316.658       2473.258       1437.823
      -2755.885       3584.316       216.5410      -8239.703      -6817.704
      -1342.416       1181.441      -1827.598      -1906.363       2159.401
       1209.869      -5589.387      -30.47266       15399.84       10018.10
      -3514.307      -5792.594      -1411.662       7438.631       3386.485
       555.5730       2088.164      -1711.664      -8992.672      -25985.62
      -18678.70       598.9824       5493.512       12914.41       15099.37
       13655.29       10847.57       2422.197      -491.6484       9871.672
       26440.01       26340.74       10634.16      -7932.852      -18572.01
      -15316.24      -7484.771      -4056.835      -5018.540      -4065.861
       4086.625       11780.68       7201.172       1726.551      -11661.01
      -14134.04       5535.251       4339.012      -908.4160      -2093.287
      -5124.635      -6678.331      -4858.424      -786.9883      -209.2539
       8113.840       8685.223       6368.297       6814.762       6123.237
       6266.840       746.6406      -8291.719      -14582.46      -12405.11
      -9632.703      -6315.206      -4383.905      -2821.171       1682.291
       6452.832      -964.2363      -10861.27      -7714.219       7520.371
       14838.62       3640.253      -3398.546      -3425.225       3971.586
       17037.30       33831.59       35697.30       23585.94       11895.20
      -30.33594      -2719.625      -2849.121      -5639.238      -10236.27
      -8869.530      -693.9414       8574.248       4662.859      -11159.31
      -26662.15      -31641.74      -25293.58      -20316.52      -3431.961
       19040.31       23669.28       23392.06       23909.97       13769.05
       2958.371       4751.777       15741.91       21806.71       13056.49
      -4726.586      -19266.33      -38099.39      -48769.70      -29304.30
       5704.281       40358.27       57325.31       50177.09       27166.38
      -3233.688      -36020.62      -20061.78       25274.95       47522.23
       56668.41       30125.75      -9233.656      -41285.80      -64173.81
      -62832.28      -30501.34       3582.406       20310.12       26934.85
       15142.03       249.1367      -10323.91      -4554.625       8052.719
       24901.08       29253.34       15210.23      -670.7500      -34441.45
      -59384.17      -75955.56      -76555.73      -46512.35      -28264.76
      -15889.27       1845.719       20017.44       27438.92       10480.80
      -6519.789      -8051.867       10435.20       30189.75       24342.28
       12924.26       14436.01       12116.85      -13493.16      -21862.67
       2696.430       17341.99       15161.02      -10785.74      -45574.66
      -25373.64       20160.77       40933.91       28711.64      -29263.94
      -78276.94      -79197.28      -54220.68      -25835.70       3048.609
       25337.62       43192.42       47811.47       41006.55       49647.62
       51269.99       5718.594      -96192.38      -192422.4      -197109.4
      -134111.9      -81771.45      -51718.56      -65893.50      -154203.3
      -236892.6      -208947.4      -87516.69       61948.00       147582.3
       154828.4       114624.0      -1854.344      -82706.25      -56375.91
       31597.38       105953.6       120762.8       137025.6       109561.6
       8153.297      -50227.23      -12720.62       56183.66       73859.56
       52724.36       44050.17       40350.55       51680.72       44953.42
       37806.53       77163.16       70201.02       15733.73      -10888.36
       28197.38       93096.16       83324.48       25052.11       4496.016
       32503.75       63858.47       74455.66       68517.03       30996.38
      -21777.31      -27577.46      -10732.73      -3740.862       5719.430
      -24489.06      -60705.38      -56150.69      -23477.92      -2634.547
      -26128.25      -42202.06      -34201.15      -30634.50      -50795.61
      -56181.80      -23872.13      -359.8828       9214.738       16657.73
       772.1641      -24315.07      -12045.27      -5544.906      -50214.78
      -93452.00      -79115.50      -27991.30       23096.98       57137.84
       60511.09       34138.34      -39335.16      -88220.59      -33872.34
       42191.62       85324.75       97568.84       72585.16       32788.31
      -15542.63      -48011.91      -31025.76      -6648.136      -6110.328
       6203.156       31585.15       25291.99      -15657.22      -53291.30
      -53857.42      -24144.99       8474.109       34472.16       13338.91
      -25582.35       6091.219       66778.25       90120.34       82060.97
       35572.55      -11101.29      -16843.73       2772.609       62036.00
       111104.2       90043.57       33046.42      -26413.68      -49208.21
      -17080.92       38383.12       65717.19       32927.97      -30511.30
      -73395.88      -79804.91      -91498.03      -111226.0      -98678.09
      -67539.22      -46885.42      -50161.81      -53946.44      -47105.31
      -49408.03      -18948.53       46505.97       90108.92       83399.36
       33953.58      -7961.914      -17189.25      -7228.344       27820.03
       88101.59       119654.7       99539.38       65517.25       20952.38
      -12144.59       1589.273       31882.80       45330.38       38837.92
       13723.12      -45390.28      -94508.53      -102594.0      -90785.28
      -67680.69      -73784.22      -81221.91      -42554.30       19609.48
       64803.53       72470.16       53423.70       12858.18      -18412.59
       1801.625       52328.41       81818.93       57644.39      -5787.531
      -71100.00      -105376.5      -96490.06      -70586.66      -40405.52
      -10247.77       14756.78       23661.10       6569.897      -5816.887
       4106.844       23713.36       47362.59       62198.31       66092.05
       63086.56       59637.98       50674.26       22132.28      -15328.27
      -42850.79      -39976.95      -11302.74       19261.73       13850.78
      -22446.66      -28644.49      -8237.945       298.8203       2151.609
      -11586.31      -45984.91      -79757.97      -101072.8      -80022.92
      -38227.32      -8044.219       19180.13       35040.81       52520.95
       60304.44       59354.48       61514.55       42857.02       14560.87
      -1079.246       268.0781       18310.40       37669.82       34110.25
       2360.094      -27765.93      -24325.99      -10532.96      -7614.258
      -14071.59      -30679.99      -28216.78      -4259.211       12384.56
       7639.131      -6469.524      -10937.95       7955.938       43554.38
       63387.47       64156.77       47454.34       23073.82       10752.72
       12429.38       26181.81       40198.05       41647.31       31528.92
       32560.46       37700.66       44576.56       49916.98       28699.78
       1122.062      -30571.88      -53896.17      -55793.41      -61273.97
      -65964.03      -66804.44      -45989.24      -6284.176      -3602.602
      -21769.16      -36426.00      -54763.16      -56750.19      -54715.75
      -47135.00      -38428.36      -41807.36      -40048.77      -38431.16
      -26492.14      -7734.812      -5499.172       5504.062       36331.80
       62320.56       71484.45       59848.04       39325.74       23642.04
       5206.484      -10810.79      -22488.14      -33117.33      -33133.58
      -28023.82      -26927.54      -21991.77      -16220.32      -9787.609
       15641.48       47614.09       65480.38       64818.18       34627.28
      -14095.36      -40080.46      -32042.65      -14252.93       152.0000
      -3530.773      -29609.48      -56150.28      -63698.03      -40803.23
      -2017.992       22000.65       16956.39      -1650.289      -12167.36
      -14645.59      -628.2188       19894.55       27464.61       30566.38
       19678.91      -9318.148      -30414.70      -30301.49      -21477.58
      -9492.708       1975.160       6996.736       11190.94       4024.418
       4568.766       18239.75       17833.94       15983.56       13167.75
       6188.908      -1760.024      -6551.152      -886.9619      -599.5938
      -4833.221      -1673.020       12907.56       31726.51       34682.10
       25613.91       11711.45      -4528.234      -12130.92      -15456.64
      -12799.74      -1389.847       2498.691      -5046.734      -15630.59
      -8469.195       6593.566       817.0234      -10951.64      -18182.29
      -22040.79      -9970.672       23266.14       60769.19       89265.19
       92139.28       61526.84       19691.04      -4912.648       826.1523
       11341.07       7444.352      -4567.516      -19987.64      -14536.83
