     0.02500000      -531618.8       457155.2      -12345.00      -12345.00
      -30.00500       217.3450      -18.63000      -12345.00      -12345.00
       0.000000       14.11000      -12345.00      -12345.00      -12345.00
      -12345.00      -12345.00      -12345.00      -12345.00      -12345.00
      -12345.00      -12345.00      -12345.00      -12345.00      -12345.00
      -12345.00      -12345.00      -12345.00      -12345.00      -12345.00
      -12345.00      -30.83090      -68.94810       1673.000       0.000000
      -31.54000      -68.94500       0.000000       103500.0       0.000000
      -12345.00      -12345.00      -12345.00      -12345.00      -12345.00
      -12345.00      -12345.00      -12345.00      -12345.00      -12345.00
       78.62071       359.7840       179.7856      0.7068878      -12345.00
      -12345.00     -0.2650517       90.00000       90.00000      -12345.00
      -12345.00      -12345.00      -12345.00      -12345.00      -12345.00
      -12345.00      -12345.00      -12345.00      -12345.00      -12345.00
      2008        49         8        51        22
       330         6    -12345    -12345      9895
    -12345    -12345    -12345    -12345    -12345
         1         7        13    -12345    -12345
    -12345    -12345    -12345    -12345    -12345
    -12345    -12345    -12345    -12345    -12345
    -12345    -12345    -12345    -12345    -12345
         1         1         1         1         1
GUAL    -12345          
        -12345  -12345  
-12345  -12345  -12345  
-12345  -12345  -12345  
-12345  -12345  -12345  
-12345  -12345  -12345  
-12345  -12345  BHE     
ZL      -12345  -12345  
[...]
       156.7882       255.2316       110.3242       209.3592       63.98441
       167.3347       24.15158       123.1955      -21.12147       82.38116
      -59.16714       42.55325      -100.2157       2.924164      -134.5923
      -27.77301      -167.3099      -64.04361      -201.0431      -96.27136
      -232.9309      -127.5762      -264.8746      -160.4625      -298.6327
      -192.7672      -330.2866      -226.5082      -365.2090      -262.0486
      -397.5355      -292.8195      -431.6445      -327.6711      -466.5577
      -359.9457      -495.7659      -392.2222      -532.0238      -427.2537
      -567.5559      -463.5537      -601.3613      -497.8676      -639.8228
      -534.5989      -672.3495      -567.2061      -708.6873      -602.1731
      -738.1528      -631.2021      -770.1616      -659.6355      -797.3186
      -687.0190      -823.6360      -715.0332      -848.2476      -734.8701
      -870.5806      -760.4082      -894.2632      -779.1982      -907.0374
      -787.5110      -914.3000      -793.7864      -919.8901      -802.9399
      -928.1587      -802.3164      -927.8022      -805.0955      -925.5457
      -800.7478      -923.1733      -799.6875      -918.3562      -790.8994
      -909.4673      -783.8826      -901.4116      -773.7170      -892.5498
      -763.9280      -879.4294      -749.6848      -862.0220      -732.6318
      -848.7144      -717.0791      -832.7583      -703.3254      -814.6643
      -685.0142      -796.3569      -664.3899      -778.8638      -648.4641
      -760.4133      -628.9287      -740.4686      -608.1182      -714.6259
      -580.7490      -696.2186      -565.3816      -671.6688      -534.3398
      -642.9199      -505.6779      -616.7988      -480.2920      -584.8887
      -447.8468      -558.4404      -420.6931      -531.3826      -395.6866
      -504.1732      -368.2385      -479.9806      -346.8420      -456.6255
      -320.7743      -432.5488      -301.0088      -411.7812      -274.9669
      -383.8041      -245.1704      -355.4008      -221.5015      -331.9506
      -196.8611      -311.8723      -179.7847      -292.4351      -156.6199
      -272.4832      -140.7173      -256.9615      -122.7067      -235.0020
      -102.8864      -220.7220      -87.93967      -198.1185      -63.19827
      -177.4834      -44.09473      -152.4790      -14.25121      -126.3402
       7.790787      -102.8450       26.70953      -83.02237       56.68053
      -52.75688       81.05573      -28.44411       105.8693      -5.710999
       129.4778       25.96402       164.4703       55.21671       191.1541
       87.02386       223.3188       113.5380       250.9509       148.1158
       283.4630       177.1256       315.1973       210.0300       344.0050
       237.3290       368.9500       262.7432       401.4226       294.9541
       426.3853       323.2771       457.5271       348.3214       482.2614
       375.8116       507.2103       398.7850       530.6719       423.8771
       557.1522       452.3116       584.5859       476.0917       608.5314
       502.7041       631.8534       521.7540       653.4165       550.3875
       679.3776       570.0032       700.8452       593.4220       718.2795
       609.2231       738.9031       628.6562       753.5356       639.9785
       764.7927       652.6567       772.7468       657.9253       780.7805
       665.0454       784.7056       667.1765       782.7395       664.6082
       780.5898       662.6211       772.4219       649.8765       760.4445
       636.5232       740.5640       614.8550       719.6731       591.6405
       691.8032       565.8760       667.5474       535.9962       638.0709
       509.8727       611.0574       479.9570       578.0264       448.0677
       546.3313       410.0797       505.7875       369.3123       462.1880
       322.3854       418.7896       283.9440       378.6455       239.0442
       325.6473       190.0314       285.4514       142.8546       227.5813
       92.77695       189.4348       44.09320       124.5023      -14.63253
       113.0519      -108.5869      -1131.719      -5022.547      -10870.86
      -14829.65      -9510.613       3773.020       11854.14       5891.027
      -1048.405      -2111.336      -10833.13      -21024.82      -2886.477
       31395.50       37202.14       16054.96      -9681.508      -27884.46
      -13229.22       15855.31       20375.65       10318.23      -11872.89
      -37931.35      -19012.91       21536.23       37594.64       24207.44
      -6843.281      -38458.97      -39705.40      -8428.699       15241.35
       27171.54       17768.52       3529.838      -3321.303      -18920.73
       13190.22       64506.60       27062.95      -43384.04      -42599.93
      -5288.453       31771.48       59735.41       18598.31      -63768.50
      -73836.77      -20197.10       30337.00       26497.28      -24271.80
      -41865.02      -5323.234       29239.54       32173.24       30510.23
       5279.121      -18634.80       2704.480      -2821.736      -16342.76
       3972.012       10390.89       8719.396       13404.08       301.6875
      -22252.70      -36517.88      -34344.50       2644.898       30563.24
       6970.390      -6526.009       3322.835       2194.867      -7072.375
      -10722.68       6261.254       19591.68      -2992.213      -6474.570
       15726.50       11074.35       13954.20       25939.23      -5488.977
      -34256.27      -25221.85      -648.9453       23693.63       19164.11
       1657.718       137.9766      -12663.58      -40897.98      -13309.75
       25786.90       11187.96      -6299.672      -20376.50      -26118.06
      -19062.48       8378.297       39698.78       20432.61      -9122.008
      -13126.87      -36200.88      -18404.55       35547.92       33103.82
       13807.28      -8775.285      -25073.83      -6964.421      -2842.100
      -772.7295       2752.156       2384.078       2903.654      -7429.988
       164.5225       5346.477      -662.6699       845.2266       7990.237
       5399.672      -11654.39      -8165.375       14102.71      -1659.070
      -25423.37       1618.961       22548.39       23853.80       13874.35
      -15073.41      -28497.02      -20145.96      -6362.859       27784.48
       42313.89       6652.723      -12293.12      -12921.26      -16922.04
      -1148.164      -3707.156      -17097.19      -9732.111      -6361.100
       513.5146       4822.042      -653.9062      -8582.678      -11162.78
       6208.022       1454.421      -5562.609       13306.92       28509.20
       42156.14       25928.09      -10120.59      -10873.48       4906.125
       11777.42       9593.227      -5808.219      -21270.84      -27394.68
      -25530.17      -1706.688       22289.34       10045.53      -15482.41
      -15403.55      -13687.61      -10768.07       578.9043       1837.555
       21487.86       28261.95      -2202.281      -14393.48      -13840.22
      -9027.387       15010.34       19588.24       9395.078       7209.598
      -17203.83      -26471.47      -4716.473       10390.18       19978.50
       22622.73       8669.031      -12253.95      -14202.07       4516.016
       16529.07       19434.59       9620.156      -4891.199      -5011.906
      -3634.812       5078.521      -780.5625      -11520.47       3517.779
      -7054.093      -3231.988       15237.98      -7806.395      -17335.57
       1595.250       15541.69       8731.281      -6974.287      -8940.077
       53.53906       15434.58       20916.65      -330.2109      -20523.59
      -20340.70      -22921.88      -9975.484       21723.68       19864.54
      -8791.990      -11606.18       4972.598       17216.20       9451.846
      -10086.43      -12108.40      -19392.19      -19875.14       11924.70
       12519.88      -2822.477      -10381.01      -22676.17      -12456.27
      -9277.027       474.2344       31040.80       19718.37      -11169.74
      -6938.141      -9472.168      -14520.55       7231.441       10855.32
       7390.437       1872.496      -8547.823      -4201.782       2929.025
       1120.090       5460.438       21064.65       17078.74      -2706.479
      -2515.383       1256.727      -8711.148      -14486.60      -32835.63
      -38457.16       1747.555       36084.08       37720.76       39663.84
       21147.52      -23093.93      -26229.68      -4516.295       9463.514
       10604.08       4994.820       2732.602       10902.56      -162.6016
      -33111.91      -31795.06      -9861.909       5030.143       2022.088
      -3509.625       14534.22       21023.66       1159.176       12048.54
       31600.74       12076.27      -1926.979       7012.989       3074.029
      -11828.06       1307.707       9891.389      -2364.914      -13173.19
      -26252.64      -24077.82      -17325.33      -10890.64       8386.385
       12202.84      -6571.811      -16623.92       24155.75       34002.34
      -3357.303       3412.592       5309.258       5354.111       9693.801
       4629.220       9678.695      -14058.01      -25273.24       414.5625
      -7360.523      -24751.92      -9046.525      -8694.965      -561.1875
       18563.27      -9915.992      -35370.62      -24512.71      -10920.89
       28796.06       52886.02       30096.44       27421.70       15746.06
      -5987.098      -8594.600      -11123.69       19019.91       45296.52
       28313.42       10437.16      -32912.62      -65240.67      -42218.22
      -25131.19       2957.906       30551.03       33319.04       15229.46
      -5616.642       2543.394       5253.573      -2614.371       2787.367
       32422.30       39680.24      -2719.000      -36100.71      -37259.31
      -16501.37       6036.758       12576.74      -5607.703      -29196.84
      -24906.56      -14375.53       16296.15       34342.32      -9130.570
      -16761.68      -8801.398      -10610.63       34063.47       27506.16
      -18917.53      -5723.089       1530.426      -8203.080       7047.598
       10062.39      -2669.710       8119.996      -1338.133      -12794.65
       2164.245      -8827.546       5438.989       5011.988      -23451.48
       8313.004      -990.4766      -30502.13       18074.16       30745.46
      -2416.746      -12400.56      -2280.031       24047.64       22151.42
      -1205.293      -15752.04      -22200.69      -8690.732      -2048.070
      -5737.898       16267.87       29708.71       2875.879      -18804.55
      -9764.820       5901.523       23641.07       22371.97      -5979.027
      -17293.43      -13604.67       6830.891       18108.91       3037.271
       7343.789      -4889.523      -29642.94      -8884.906       10034.36
       5458.641       16190.48       20153.76      -5614.039      -9987.488
       3251.941      -1856.594       30255.49       38106.26      -3232.578
      -18018.37      -17212.72       1131.414       16142.48       16885.87
       5235.312      -27016.05      -37944.80      -16109.80      -2298.918
      -8145.871      -10353.68      -3322.606      -3169.080      -8993.816
      -13160.76      -25888.70      -6149.566       26299.15       9371.715
       8972.676       21253.68      -8345.381      -6765.070       18975.78
       14264.05       8621.645      -12086.12      -15352.84       8721.852
       15089.41       17257.87       1523.734      -34825.41      -37434.63
      -18566.34      -20989.85      -2123.688       15320.29       8769.656
      -10057.43      -34935.62      -26008.01      -3554.398       11400.31
       33039.53       45796.20       26971.06       17366.89       38606.33
       51290.65       28170.55      -5574.023      -5839.064       1343.328
      -16906.06      -45603.28      -53696.69      -35110.94      -26127.48
      -37120.29      -8565.477       38000.09       44477.52       47387.11
       48168.96       42226.77       22326.11      -16668.68       5112.578
       47259.21       25437.84      -28943.19      -89698.50      -103195.3
      -74885.31      -27550.48       50154.09       102112.8       97348.23
       50267.99       8323.502       3387.867       19800.28       27744.50
       22572.04       10865.47      -8382.891      -41817.19      -68836.34
      -57568.08      -41227.98      -61878.09      -89321.98      -49998.62
       14836.44       65151.08       93103.80       75743.83       60032.80
       28851.43      -17515.68      -26485.44      -1812.730       24143.86
       11429.66      -37454.38      -90115.62      -98872.29      -42557.01
       9229.402       21530.71       9829.266       20313.09       38074.94
       18165.02       31144.69       51200.88       35147.88       14674.41
       4834.531       82788.75       210931.0       272136.1       262393.2
       104119.3      -142337.4      -305125.2      -345221.1      -210898.4
      -30132.39       44224.94      -38679.25      -306846.8      -531618.8
      -492927.5      -199721.9       200602.9       382509.1       207493.9
      -60904.44      -231252.1      -317090.8      -226307.6       115015.0
       457155.2       374393.2      -10030.06      -186876.9      -158697.1
      -58132.92       56855.94       133105.8       211377.9       105671.6
      -167533.6      -190422.5       21087.72       71925.50       66442.44
       170125.2       77757.38      -135639.8      -117077.9      -62245.53
       18315.12       231254.9       240563.8      -48879.81      -297006.5
      -139495.7       195403.0       355358.2       334293.0       209225.9
       93734.50      -139210.9      -361374.8      -202040.0       141641.9
       331674.8       288028.9       65301.95      -26484.44      -19037.19
      -215422.0      -358685.8      -212176.8      -21752.03       89776.00
       224817.9       271536.9       132573.1      -78468.16      -200183.3
      -89835.09       48596.76       42540.87       26166.41      -20355.84
      -108217.6      -115833.5      -14287.94       79237.23       46497.02
      -7464.201       6218.867      -32554.49      -17886.11       80793.64
       72557.20       16819.06      -51384.77      -81185.14      -32554.22
      -5883.625       87066.25       167729.9       17520.56      -172395.3
      -177460.4      -71975.48       20508.86       48101.21       45267.95
       26732.43      -35067.84      -37615.66       52875.30       66766.59
      -37747.59      -109270.0      -37209.84       55105.00       67694.97
       137520.6       207640.4       150907.8       20550.06      -135171.8
      -221931.3      -151308.9       8821.812       115310.3       96612.41
      -27606.75      -134547.1      -210992.2      -249745.8      -135443.2
       19128.78       104995.3       87439.95      -18046.12      -83889.84
      -97339.25      -38479.30       59938.75       112867.0       136333.9
       117158.4      -579.2969      -83518.56      -10049.75       34893.00
       43235.59       84068.66       28738.52      -42312.09      -56645.06
      -18113.67       87523.52       104286.6       42876.30       29789.55
       24528.61       22068.00       49166.28       82300.22       117243.3
       112716.7       32691.56      -62933.59      -89380.23      -36408.77
      -31320.55      -82471.73      -48761.77       3165.754       3415.021
      -3167.008       15588.98       57628.12      -7743.031      -99972.11
      -83849.78      -63116.48      -74098.14      -88776.81      -28664.44
       77243.33       59922.27      -15709.49      -28958.84       12427.75
       82189.78       91150.84       50179.34       74476.33       95680.11
       58776.47       49537.67       36649.52      -19972.47      -58516.64
      -60902.20      -51533.75      -47075.56      -71653.75      -153859.5
      -236053.7      -200346.9      -50118.97       92341.02       120028.9
       9201.469      -121627.6      -145346.9      -55689.06       88869.72
       183209.6       141946.4       775.5938      -113871.9      -147225.1
      -149154.9      -129713.1      -53923.12       78808.81       142447.5
       89607.85       29704.95      -38475.41      -18053.22       81342.66
       111141.0       121577.6       101168.4       45150.66      -23616.67
      -86577.43      -56397.16       1990.035      -13546.90      -21761.66
      -19842.25      -28052.16       17626.25       49583.59       50476.81
       23194.32      -8206.031       50971.94       160781.9       204847.1
       147958.5       78395.66      -34499.19      -152547.2      -139317.2
      -70646.36      -36375.98      -50526.25      -60751.66      -14860.37
       27760.22       30784.91       49007.28       79954.94       132700.6
       174749.8       121283.4       36046.94      -71641.09      -141560.0
      -115722.0      -64763.11       46740.47       103434.1       33007.86
      -24653.41      -74452.81      -97739.52      -71398.81      -8681.688
       103909.4       117687.5       24965.72      -38273.45      -58829.36
      -45632.44      -48797.97      -38013.28       9737.938       35723.42
       38045.77       29219.39       13914.32      -10743.56      -33695.38
      -68212.59      -79524.65      -52361.31      -22621.28       11486.83
       17046.56       19961.76       27265.37      -8133.125      -38744.71
      -14669.68       17007.83       10858.81      -49378.75      -132842.2
      -161841.9      -119375.2      -28127.10       13805.38      -32681.15
      -33795.94       28070.28       62207.06       81154.56       136788.4
       173136.1       124676.3       48191.40       24381.39       38697.49
       6241.453      -48996.62      -81243.59      -124499.5      -181725.3
      -196392.0      -127501.5      -69782.91      -51910.25      -22658.69
      -19190.08      -32575.84       21189.06       118967.4       137513.2
       122386.9       98028.36       44345.39       39706.11       56235.95
       59823.44       27641.74       2350.320       32391.22       44552.05
       56838.67       73545.84       43755.41      -17881.41      -69540.80
      -68519.31      -52705.52      -60657.05      -68313.58      -65947.45
      -57303.98      -64625.27      -78518.43      -41819.61       22407.61
       71105.69       106973.0       113648.1       87651.58       54470.00
       65342.66       89984.78       77928.94       65615.23       36695.12
      -12216.12      -35330.62      -50694.06      -87160.06      -132686.8
