     0.02500000      -644139.3       426873.4      -12345.00      -12345.00
      -30.00500       217.3450      -18.63000      -12345.00      -12345.00
       0.000000       14.11000      -12345.00      -12345.00      -12345.00
      -12345.00      -12345.00      -12345.00      -12345.00      -12345.00
      -12345.00      -12345.00      -12345.00      -12345.00      -12345.00
      -12345.00      -12345.00      -12345.00      -12345.00      -12345.00
      -12345.00      -30.83090      -68.94810       1673.000       0.000000
      -31.54000      -68.94500       0.000000       103500.0       0.000000
      -12345.00      -12345.00      -12345.00      -12345.00      -12345.00
      -12345.00      -12345.00      -12345.00      -12345.00      -12345.00
       78.62071       359.7840       179.7856      0.7068878      -12345.00
      -12345.00     -0.1580432       0.000000       90.00000      -12345.00
      -12345.00      -12345.00      -12345.00      -12345.00      -12345.00
      -12345.00      -12345.00      -12345.00      -12345.00      -12345.00
      2008        49         8        51        22
       330         6    -12345    -12345      9895
    -12345    -12345    -12345    -12345    -12345
         1         7        13    -12345    -12345
    -12345    -12345    -12345    -12345    -12345
    -12345    -12345    -12345    -12345    -12345
    -12345    -12345    -12345    -12345    -12345
         1         1         1         1         1
GUAL    -12345          
        -12345  -12345  
-12345  -12345  -12345  
-12345  -12345  -12345  
-12345  -12345  -12345  
-12345  -12345  -12345  
-12345  -12345  BHN     
ZL      -12345  -12345  
[...]
      -163.9493      -3.247864      -166.3619      -11.19458      -171.7459
      -14.76962      -176.7171      -19.27182      -180.5733      -19.54666
      -181.7096      -19.12250      -184.3000      -23.80481      -186.3802
      -22.77771      -185.1259      -20.71487      -183.3286      -17.50912
      -179.3046      -9.703369      -174.8313      -5.155060      -167.5319
       4.113953      -158.7428       14.99466      -144.3479       30.54880
      -132.2533       43.07993      -124.2863       53.14169      -110.9183
       65.43781      -99.26028       79.93862      -89.61551       85.76344
      -84.63836       93.75826      -75.02481       102.2979      -69.72644
       109.8648      -63.47401       112.3222      -62.40248       118.0305
      -57.48666       122.7471      -52.98466       127.4536      -47.70866
       134.5728      -42.32745       142.1085      -33.92819       150.9414
      -27.07773       160.3659      -17.44550       169.6831      -7.185608
       183.6360       5.696136       196.4109       20.66229       213.2049
       35.94629       230.4284       52.08545       246.7443       70.38458
       266.8477       89.15240       289.0511       110.0942       308.7136
       131.7420       332.2714       150.2178       350.2937       172.3597
       377.6338       196.5262       397.2263       215.5024       420.1486
       235.3035       436.6602       251.6914       457.5219       270.9521
       478.9215       290.7588       496.0994       304.4375       510.3120
       320.6343       528.0681       335.4028       544.8828       351.0973
       556.7854       361.2804       572.7893       376.0306       582.4269
       386.3629       595.2417       393.7693       604.1929       403.6831
       615.2207       413.0032       624.9126       422.6660       635.9844
       434.3220       649.5410       448.1927       664.3494       457.9719
       672.5427       468.0132       681.7327       472.9651       689.0063
       484.3794       697.2620       489.7531       707.2174       492.8345
       707.0138       497.7207       711.0293       496.1504       715.7103
       502.6450       716.7455       496.8750       710.6104       491.2600
       707.6028       488.3965       702.2472       479.7941       695.6699
       474.0623       690.6953       467.8477       684.0188       458.9169
       673.6299       447.3665       666.8242       441.0096       658.7156
       431.1488       649.2046       421.8208       638.5559       408.2588
       628.4238       398.8956       619.8788       389.1709       611.1479
       378.1674       600.8788       368.7537       597.3833       366.2346
       591.7056       356.3452       583.0615       348.5610       578.8563
       343.2515       570.8844       330.7424       560.5112       320.3282
       550.4502       309.9302       539.9971       300.1522       533.5371
       291.8464       523.9160       280.3645       514.4794       272.1216
       508.3524       262.1813       494.8859       250.5365       484.8290
       237.4231       473.0483       226.0308       463.4592       216.5696
       457.6216       213.3829       452.3470       204.4761       446.9407
       202.7373       447.2971       197.6870       441.1259       192.7665
       436.5795       187.7991       432.1584       182.9097       429.1401
       174.7017       419.2720       167.7064       414.5106       160.2985
       407.7108       155.4129       399.5800       145.3433       395.2849
       138.9485       380.0959       129.5092       393.0801       92.86475
       383.2422      -164.0176      -3112.695      -11227.69      -18871.59
      -21465.58      -18831.41      -10542.02       2542.948       2552.891
      -9994.758      -19277.96      -28809.62      -35961.29      -14406.79
       17806.89       23514.28       11409.41      -5826.812      -26211.02
      -17798.08       10837.16       25950.00       12459.54      -16938.72
      -15100.29       2200.789       20449.72       49064.25       24184.05
      -6121.609      -14655.44      -41148.17      -30151.61       2312.180
       18597.19       16133.63       2884.896       5422.334      -7750.281
      -2224.016       28125.75       30381.96       8776.369      -26.35938
       17837.43       42286.96       33636.61      -9909.195      -25128.21
      -23193.95      -12141.29       24662.29       9482.023      -31027.36
      -32870.74      -4741.281       20486.85       18849.38       16873.40
       2234.969      -17630.72      -4410.062      -942.2383      -6729.430
       16802.61       41520.30       35339.26       9860.406      -25071.28
      -37381.52      -33122.05      -18981.03       28900.70       33408.47
      -9088.648      -11040.85      -14828.12      -13001.52       11323.09
       13567.08       8060.912      -1988.035      -15622.27      -2213.626
       3283.523       6968.516       27095.81       10448.77      -2398.336
      -21598.38      -64627.46      -28180.92       21599.58       28105.26
       27122.80       5584.211      -29537.73      -50720.09      -32277.79
       24944.84       60993.01       46079.56      -2427.234      -41937.42
      -28442.86       1398.172       26031.60       36512.79      -860.8906
      -42247.38      -58200.23      -30138.65       14424.59       36576.86
       29704.32      -15107.62      -29450.76      -9496.363       5153.422
       25220.81       16652.91       3947.129      -9502.828      -18340.39
       1556.836       15704.54       20353.64       34003.53       31162.20
       2951.512      -20496.30      -18958.95      -9141.141      -22967.58
      -43870.23      -40494.70      -4062.117       36227.23       28312.75
       5554.191      -8899.023      -23989.51      -9205.914       26333.31
       44687.23       53010.95       41994.38       4558.242      -23982.63
      -6738.338       1010.656      -19285.30      -16214.59      -8872.081
      -9681.932       6503.490       8951.551      -8703.656      -6089.402
      -10339.39      -30090.25      -12805.82       3956.590       2017.602
       20129.23       36866.95       22406.47       7251.716       6615.172
       1393.086       1739.754       15794.36       17992.59       4818.094
      -14311.88      -19025.41      -14050.52      -14979.50      -16398.76
      -20048.67      -29292.03      -30823.69      -16223.00       4809.516
       19599.50       21736.05       4230.991      -1960.373      -9141.799
      -4202.852       34295.30       33061.11       8712.995       8440.535
      -10112.62      -11271.22       5782.317      -2616.685      -3782.875
      -5292.734      -12307.16      -10826.58      -19427.69      -11078.68
      -680.4727      -12310.83      -20063.42      -3463.572       10819.17
       5557.846       11334.34       175.4082      -5232.703       28801.19
       17904.07      -4615.942      -1323.954      -4797.796      -4924.762
       9897.621       22593.89       14717.16      -8959.977      -28840.41
      -15486.87       10812.69       20798.73       16722.47      -12060.91
      -27917.90      -22327.00      -9254.870       7130.859      -978.3262
      -10698.52       8372.133       17043.38       12927.44       1569.352
      -26297.49      -30921.45      -15137.63      -9860.176       15907.61
       30335.65       8740.729      -253.3765       3638.351      -6047.439
       1465.293       19708.95       15720.88       2880.031      -20401.52
      -44869.27      -37501.72      -12024.98       15088.23       35067.23
       24174.28      -10051.42      -22610.76      -31830.67      -30703.99
       390.9062       22083.05       39883.12       45574.22       28172.88
       16234.54       336.7148      -15141.72      -18568.81      -13547.65
      -13802.87      -3399.459       12014.44       8343.049      -2370.625
      -13132.25      -34950.00      -48644.57      -33893.70      -6442.500
       19962.68       29192.01       26637.31       26542.57       5283.410
      -13870.68      -6908.555       13145.27       26490.16       20629.26
      -577.5449      -7507.605      -9716.688      -9689.398       1310.664
      -13796.53      -22831.16      -5380.344      -2268.555      -10045.58
      -16678.71       10850.03       29761.18       22407.94       23159.14
      -4471.711      -20522.22       6106.977       22347.16       28560.45
       39097.07       27833.30      -19218.23      -44467.97      -34764.84
      -15132.38      -10633.45      -5440.935       4263.055      -13032.59
      -25494.30      -19216.52      -17967.45      -2801.914       29379.29
       21160.58      -6324.758       14469.41       30463.06       20980.28
       10624.80      -13581.39      -14225.70      -9848.590      -25256.45
      -6567.574       6251.456       4937.768       999.4766      -13486.83
      -15309.94      -24177.88      -33547.31      -2680.523       31675.11
       47839.72       42441.39       3112.812      -20164.47      -32972.79
      -35384.09       13670.11       44301.19       39264.42       18613.26
      -13329.09      -29367.53      -26885.34      -22884.90      -13359.52
       15099.52       27707.80       8134.884      -3819.430       1095.957
       14327.00       6649.858      -5861.810       1946.831      -2905.293
       6045.375       22881.12       14788.87       8193.879      -16074.39
      -23146.73      -13265.61      -2354.359       26131.34       12283.26
      -17562.34      -13712.93      -16401.08      -19526.72      -841.4375
       6877.176       8555.520       21733.91       9441.414      -1783.203
      -13335.31      -14968.55       22167.50       14903.01      -15296.57
      -5396.887      -12643.49      -10808.12       5697.268       8131.543
      -5.542969      -20527.39      -11617.70       5952.078       821.8223
      -2450.715      -8738.824      -14876.96      -4530.797       10742.84
       11855.42       22229.24       26912.91       648.4531      -30344.12
      -27830.83       4305.406       24559.15       16471.54      -3296.758
      -24388.49      -30016.06      -6527.734       10582.06       4856.100
       8472.660      -8662.496      -25283.52      -6702.260       1693.488
      -16543.79      -3339.641       28440.61       14878.33       11006.01
       1107.406      -30927.61      -15846.48      -438.6721      -2726.273
       2954.922       15268.44       4675.320      -22283.29      -13866.11
       3848.260       3438.998       1478.189       4279.531      -9484.043
      -29125.80      -2525.879       24314.31       12087.30       6360.593
       8259.320      -10408.63      -3324.402       20730.79      -958.3281
      -23325.30      -19284.06      -24922.80      -19478.44      -10555.31
      -3929.699      -5268.586      -21424.37      -8061.891       12340.72
       17292.83       43397.42       36496.50       510.3555      -5081.172
      -24791.06      -33576.38       2270.859       22452.59       29385.60
       12541.56      -46474.28      -64376.88      -29860.04      -14112.25
       17317.42       48230.94       38342.86       41076.50       51788.76
       31468.66      -3246.699      -18637.11      -6326.787      -4137.721
      -4882.547      -10895.81      -48192.94      -70233.86      -68257.69
      -57237.89      -10111.28       42795.39       63130.77       55985.92
       41755.24       31411.82       4352.383      -16913.38      -1066.188
       21769.70       39109.96       1471.234      -51255.50      -53854.92
      -69137.91      -61145.59      -2706.359       30357.49       43602.15
       41070.29       13758.33       2739.809       17626.89       12211.54
      -12189.22      -14252.31      -17139.41      -22663.45      -25860.98
      -54902.81      -37698.47      -17840.91      -49212.75      -30378.49
       8429.855       13407.89       15621.64       34105.53       56312.91
       48943.44       23260.48      -29255.22      -67336.75      -41321.45
      -25523.34      -24318.25      -4778.910       5004.090       11750.11
       3377.312      -25961.80      -48797.30      -23554.89       16263.02
       20798.92       33376.62       19561.88      -14074.75      -23231.91
      -68829.53      -69205.66      -9563.781       58971.12       142004.5
       121163.4       10221.67      -60260.78      -60501.66       6051.156
       108843.5       197365.5       284559.6       396078.8       426873.4
       330163.2       231135.6       144042.9       33013.31       65729.69
       271717.4       405915.4       310326.6       32580.38      -199636.9
      -309606.4      -461660.2      -414306.6       13484.62       311684.2
       206775.2      -25971.12      -207080.6      -338452.5      -375863.7
      -252264.5      -4576.875       276817.1       337015.0       107081.4
      -121145.2      -415998.5      -644139.3      -429524.9       17535.38
       358820.2       398828.2       171391.1      -165447.2      -348765.3
      -180196.7       164434.4       409009.2       335968.1       5273.750
      -326242.2      -436313.2      -229226.3      -384.4688       91182.31
       150207.3      -13481.06      -224641.3      -201211.3      -116013.0
       40889.44       214633.2       266248.2       201966.0       44649.00
      -82135.75      -178042.6      -307519.3      -311580.5      -113323.6
       47732.30       27667.66      -35913.25      -176307.1      -355026.4
      -264611.9       11870.31       230000.0       339656.4       285061.3
       165698.5       42685.09      -88659.48      -80454.62       32993.19
       96991.52       79151.12       70466.00       105105.9      -17332.12
      -171356.0      -111124.4      -36314.06      -22962.84       64315.50
       169934.6       195968.3       91669.16      -97922.09      -177625.2
      -124897.9      -61170.91      -31212.72      -29217.23       27932.83
       41217.10      -8491.438       54903.22       45671.69      -42467.86
       42707.91       135553.6       140048.3       127699.2       61020.05
       15233.01       11125.98      -27815.75      -87316.12      -163824.9
      -186338.3      -46728.66       83129.62       58922.99      -5508.422
      -63072.38      -89763.50      -92928.73      -91059.02      -46708.84
      -13734.06      -15821.22       5751.969      -14901.53      -50316.12
      -33609.25      -82785.88      -71766.88       71579.28       146246.7
       156866.7       91229.88      -16351.98      -21451.61       37987.62
       147011.2       228622.0       160064.4       61214.50       4186.383
      -28234.50      -19555.56      -15766.60       12680.97       61637.94
       63816.75       59125.25       37789.88       25437.13       33048.79
      -18851.86      -15564.09       21167.38      -36240.16      -57351.12
      -67951.47      -63273.38       28084.15       31259.98      -58030.75
      -135514.8      -205697.8      -212139.2      -136619.6      -52687.88
      -42095.28      -112686.4      -118825.9      -30996.87       22557.23
       55645.71       30488.47      -73401.43      -79450.61       30812.38
       116698.5       130684.8       88174.88       24836.09      -37307.64
      -57838.62       35881.56       171919.2       201375.1       104382.1
      -37043.44      -97363.70      -67984.27       17365.56       108402.6
       105661.6       75987.80       36551.22      -62294.19      -102470.3
      -42739.11       1188.633       8468.086       27671.66       21987.73
       718.8203      -23771.08      -23937.58       43997.22       63502.62
       27343.25       14532.43      -8695.344      -39837.53      -76732.22
      -84536.68      -52431.68      -4275.766       65618.21       50845.27
      -37890.53      -56444.05      -34386.95       9920.375       80603.48
       80777.20       31274.77      -6959.992      -30677.48      -34453.44
      -38974.09      -51212.59      -95038.94      -126397.9      -133365.4
      -132240.3      -64415.91      -35803.56      -93334.16      -101092.0
      -45121.77       2463.455       3905.195       8665.969       48633.31
       68848.61       54418.11       26667.66       20667.68       23904.45
      -4945.332       6017.180       36422.35       8424.170      -11007.78
      -2389.453       25251.94       74899.06       95886.23       87166.67
       47552.31       13945.88       3992.727      -40773.51       2308.500
       107270.4       128062.8       168965.2       166979.3       68689.45
      -13440.34      -36370.84       40438.34       128504.3       146549.9
       73033.83      -68330.33      -103589.6      -23005.30       34359.89
       14589.84      -40026.12      -88163.12      -144661.3      -129326.7
      -9724.250       76119.36       48631.22      -38627.81      -89781.80
      -68140.20       22386.64       95063.28       47766.59      -47980.09
      -97246.31      -110657.9      -80694.62      -34447.00      -17672.69
       12853.35       12552.88      -64958.66      -104351.0      -70844.92
      -16598.77       32097.91       35847.56       38399.22       70772.53
       84998.47       69348.22       37276.62       7121.982      -8577.875
       22711.98       70763.75       80946.58       64010.37       17557.28
      -49924.66      -95395.61      -62804.04       13560.16       51481.09
       34225.89      -10550.34      -18590.29      -23003.88      -25610.17
       29835.72       56158.14       17781.26      -17401.03      -24643.14
      -9753.770       13333.00       10860.98      -44327.23      -71132.14
      -37813.28      -23983.93      -24375.22      -24220.11      -37641.87
      -47035.82      -37229.95       6049.672       61665.03       102402.8
       128568.4       111294.5       36476.91      -45771.64      -80829.16
      -64565.34      -46357.29      -41244.87      -34202.41      -42274.44
      -53034.17      -41915.24      -14345.39       12434.04       2127.229
      -17859.33       6166.031       47008.12       71744.86       66323.89
       39587.30       3498.879      -26280.49       9555.352       48860.97
       30803.09       36571.90       30863.05      -24240.60      -25243.56
       8722.297       33645.84       72467.46       44148.13      -31405.47
      -63547.56      -85561.36      -77554.17      -15568.51       11525.75
      -22659.67      -55722.03      -72594.50      -35375.03       33041.95
