     0.02500000      -5094305.       4907361.      -12345.00      -12345.00
      -30.01001       221.6150      -24.06000      -12345.00      -12345.00
       0.000000       17.78000      -12345.00      -12345.00      -12345.00
      -12345.00      -12345.00      -12345.00      -12345.00      -12345.00
      -12345.00      -12345.00      -12345.00      -12345.00      -12345.00
      -12345.00      -12345.00      -12345.00      -12345.00      -12345.00
      -12345.00      -31.89390      -70.19730       4105.000       0.000000
      -31.54000      -68.94500       0.000000       103500.0       0.000000
      -12345.00      -12345.00      -12345.00      -12345.00      -12345.00
      -12345.00      -12345.00      -12345.00      -12345.00      -12345.00
       125.0140       251.3793       72.03449       1.124051      -12345.00
      -12345.00    -0.06697652       0.000000       90.00000      -12345.00
      -12345.00      -12345.00      -12345.00      -12345.00      -12345.00
      -12345.00      -12345.00      -12345.00      -12345.00      -12345.00
      2008        49         8        51        27
       760         6    -12345    -12345     10066
    -12345    -12345    -12345    -12345    -12345
         1         7        13    -12345    -12345
    -12345    -12345    -12345    -12345    -12345
    -12345    -12345    -12345    -12345    -12345
    -12345    -12345    -12345    -12345    -12345
         1         1         1         1         1
GUAR    -12345          
        -12345  -12345  
-12345  -12345  -12345  
-12345  -12345  -12345  
-12345  -12345  -12345  
-12345  -12345  -12345  
-12345  -12345  BHN     
ZL      -12345  -12345  
[...]
      -925.9654       303.2328      -907.4164       298.6128      -937.5605
       271.5936      -925.6847       285.8999      -933.0513       255.1970
      -940.2972       257.3937      -939.8143       246.2300      -962.5358
       205.7373      -975.5031       214.8362      -967.7684       204.8035
      -973.6281       194.1477      -978.4734       180.5861      -993.9925
       159.8717      -1007.092       149.8247      -988.2279       175.9359
      -982.7908       137.6952      -1010.938       147.4895      -982.0436
       147.8419      -997.9746       129.2925      -988.9548       133.8143
      -1014.355       84.07458      -1026.336       105.9059      -990.4491
       126.9974      -971.5280       142.4486      -941.1718       175.9799
      -900.9020       185.6064      -913.8251       179.8129      -887.5406
       201.1326      -872.4370       198.7205      -859.4808       243.8202
      -803.1412       252.3798      -816.1813       252.7993      -775.4136
       296.9167      -739.6514       327.2399      -677.8044       401.4493
      -580.7300       577.2217      -68.70312       1900.285       2645.328
       6254.922       8005.531       10931.85       11289.34       11914.30
       12972.44       14374.15       1885.453      -8841.500      -26506.16
      -19891.20       4740.217       1612.947       7471.760      -4249.957
      -24177.10       16069.10       23800.16      -31075.16      -64686.34
      -21641.49       4260.691      -6758.602      -21862.12      -25769.89
       38049.41       86738.59       47442.39       21675.42       1278.609
      -26393.38      -22497.20      -45989.26      -50553.68       23810.38
       41177.47       18261.95       21304.66       6910.453      -38061.25
      -47731.21       6784.609       63162.45       60580.71       15620.77
      -23747.67      -32539.53      -18753.76       19084.92       24804.64
      -15996.11      -24249.23       449.9180      -8754.104      -9012.422
      -1819.484      -13410.60      -16172.56      -18002.25      -55167.77
      -82023.62      -55369.48       35186.72       125455.0       145745.8
       129331.7       75724.66      -10206.19      -65429.06      -100441.3
      -72786.28      -2851.188       17825.78       7318.824       12447.90
       9377.031      -53007.78      -145649.7      -149948.1      -65209.38
       56901.38       140769.1       148604.9       143743.6       118378.2
       18120.38      -87346.81      -153506.9      -186692.5      -183842.7
      -81187.00       101388.2       215599.6       232918.1       206245.2
       130675.9       4344.562      -123621.8      -167271.8      -121508.0
      -74779.62      -106191.3      -145642.6      -101670.2      -3699.727
       34888.12       3362.844       21090.69       124704.1       185751.6
       155320.0       118766.3       76470.54      -16913.72      -83994.31
      -103748.9      -123254.3      -125034.4      -74529.71      -20076.50
      -15637.64       10430.50       114395.6       174057.8       119173.7
       63243.58       67701.80       3727.938      -115776.6      -155599.6
      -143125.2      -144746.2      -120646.1      -67362.09      -4009.438
       75173.12       148478.1       183470.4       171905.2       122332.7
       45665.05      -48793.48      -91795.52      -59724.64      -50086.62
      -96871.34      -95434.00      -57021.89      -34701.47       18722.84
       87134.12       100969.5       78641.39       50572.73      -6321.484
      -67945.70      -45481.45       6618.996       10211.95      -3223.797
      -34475.59      -88853.44      -110922.4      -71336.86      -20863.89
       748.3594       20943.09       59416.19       135596.3       220430.8
       249998.7       183120.5       28351.62      -121859.4      -182056.9
      -194166.1      -189101.6      -142112.7      -60014.97       28658.56
       91218.31       116912.4       115577.8       75964.41       17575.88
      -36865.84      -79562.84      -108224.6      -83916.91      -9673.938
       34162.50       46204.27       68386.69       68476.38       29679.60
       6670.074       7864.453       3714.609       21658.63       45431.49
       7703.156      -62395.75      -57228.39       11306.55       29691.93
      -7229.742      -31971.25      -43670.69      -44390.95      -42235.95
      -39895.54      -34124.09      -15212.34       58519.19       127387.2
       107646.9       71272.98       52634.88      -7863.297      -77179.66
      -105836.6      -126952.5      -131019.9      -82384.56      -19998.97
       43654.12       136429.3       199517.5       165979.9       90833.20
       37506.00      -21431.09      -94300.25      -148408.3      -144636.4
      -113036.7      -105314.8      -78029.17      -8564.500       63057.75
       117839.0       127925.2       82714.59       27863.81      -3331.047
      -21870.54      -45782.38      -36738.12       2083.387       839.9219
      -24203.83      -2300.641       63865.75       102516.6       82831.09
       29982.21      -21519.70      -56743.28      -87892.56      -89028.36
      -49714.09      -11098.80       17466.09       45601.93       42039.52
       18709.58       18391.68      -19391.41      -96494.06      -110387.3
      -50943.45       18682.70       45224.31       54416.06       86927.80
       88522.57       7654.531      -72637.48      -48581.95       28568.30
       46016.05       3767.875      -25311.23       2320.875       67186.12
       85080.09       21295.98      -36713.73      -41519.44      -38616.28
      -57426.14      -61425.06      -48813.14      -47927.92      -56314.01
      -38540.40       4095.609       44785.66       85844.59       76378.61
       48788.28       94081.09       110211.5       29390.88      -61435.19
      -130262.0      -163140.2      -98726.55       12398.72       101339.6
       160573.3       151616.1       74931.00      -2109.953      -61964.53
      -113480.9      -142493.3      -125933.7      -65814.62      -4043.021
       3101.516       5574.953       55676.72       72808.48       30487.90
       9018.449       19955.59       13630.38       10579.44       52314.98
       53470.56      -14190.08      -62895.83      -57227.67      -35117.46
      -21172.91      -1917.930       27732.25       60511.56       81344.26
       27078.59      -69510.44      -119724.6      -105006.4      -52027.11
       9664.766       71813.41       114873.9       71401.42      -28595.45
      -58381.42      -9203.826       299.1055      -27524.23      -199.5312
       60148.77       64402.79       27011.46       1774.781      -1378.797
      -28994.50      -55146.70      -33100.31      -6756.980       2184.584
       6145.089      -3371.804      -5795.203       4368.984       8241.273
       17657.94       70746.66       91033.31       11308.77      -70825.53
      -63267.78      -19370.56       4326.233       5063.432      -1495.523
      -27001.11      -52772.80      -40016.78       3154.531       31334.92
       54769.41       86414.70       61072.23      -15153.79      -36592.04
      -33394.46      -37718.12      -11224.98       33482.28       50643.95
       50088.36       68637.64       75592.44      -5278.688      -102487.2
      -134656.6      -124861.9      -69971.75       19480.40       33074.52
      -1208.359       12691.10       34185.31       25343.11       45576.81
       88178.59       81814.95       33573.71      -2210.766      -28055.70
      -49981.36      -71126.48      -49029.23      -18856.52      -32226.02
      -46548.04      -29558.66      -19688.94       5433.281       58949.30
       75473.40       40781.98       21715.19       42134.23       64959.80
       30795.62      -49850.19      -134787.3      -166410.8      -127301.9
      -28914.09       68390.09       107883.0       94887.84       44397.53
      -9627.410       7776.391       43517.91       35334.14       12709.82
       9578.680      -701.0352      -5385.891       15894.27       15832.41
      -22896.58      -52998.12      -73808.86      -70484.00      -64147.33
      -40583.48       24524.98       53615.54       5677.305      -30442.95
       4451.422       69022.44       78175.66       61242.86       25546.62
      -45444.61      -72641.95      -6283.633       35829.29       4972.359
      -52939.08      -84194.50      -52255.92       4198.281       28409.45
       49506.31       64707.77       54538.68       8558.531      -30475.76
      -16440.77       22782.44       7784.021      -14849.51       1046.266
      -26409.97      -83249.15      -47165.59      -13880.95      -17640.72
       42398.38       102953.7       70507.39       503.2656      -34971.56
       1358.922       32599.52       8609.789      -27743.44      -41795.91
      -50764.39      -28144.51       6145.426       19716.80       21713.81
       21329.27       2209.930      -12507.56      -16851.64       12778.16
       40051.28      -11450.78      -111074.9      -136178.7      -79955.69
       8704.250       90710.56       151212.7       169367.8       133334.4
       40425.77      -43512.66      -81993.02      -78653.23      -60818.20
      -23429.41       9497.285       8651.910      -22222.34      -25308.89
       6731.457       24848.43      -265.0547      -20653.16      -31385.05
      -36569.17      -30425.61      -12746.23       9706.734       71347.12
       117265.3       85423.09       25490.13       6501.703      -8218.766
      -23094.31      -42861.84      -56704.33      -42088.20      -26547.88
      -45210.29      -30684.97       9474.172       34406.77       48292.14
       52076.18       10282.83      -29811.39      -57565.16      -67316.02
      -29323.64       25485.28       41589.42       59738.62       80411.05
       78946.91       65087.98       61323.50      -5448.938      -126828.6
      -205042.0      -202177.7      -149554.7      -32500.94       102955.2
       198959.4       204661.6       125699.2       29102.74      -14163.09
      -28293.88      -38685.12      -68109.03      -82994.91      -44343.54
      -3582.211      -25884.67      -31958.59      -7781.441       14322.47
       17216.88       25861.86       25260.61       1286.828      -18776.59
       13367.21       36744.11       6039.805      -6871.359       64887.23
       100101.6       18315.33      -68480.80      -51096.12      -28283.08
      -40210.11      -39426.42       15541.25       42142.84      -50.08594
      -45307.79      -30348.62       8972.068       15392.71      -24645.09
      -36339.70      -13140.43       18062.64       31341.39       46714.58
       65374.23       71102.05       40513.70      -670.1250      -55894.20
      -60132.48      -17111.62      -19843.16      -90890.62      -112790.9
      -46221.23       9682.367      -15862.02      -11352.55       54780.44
       105526.8       86226.61       53491.88       22327.65       9501.180
       25588.32       33597.39      -22668.47      -80632.16      -92039.47
      -63460.61      -45500.23      -37263.39      -26478.92       7434.109
       29854.75       41453.64       51531.53       84003.12       127501.8
       143449.4       74378.84      -12749.38      -58262.72      -93718.22
      -140055.5      -127195.2      -95261.53      -77836.09      -65214.65
      -18115.19       65914.38       162931.8       183276.7       124598.5
       25467.36      -66906.62      -96832.96      -32977.89       31246.30
       47911.81       18176.98      -29770.62      -86436.44      -73924.56
       1142.688       61965.18       32246.55      -41513.03      -48487.16
       29230.81       64379.83       66910.03       57676.34       4072.109
      -71924.47      -61091.52       23094.73       89269.55       82192.55
       34525.42      -55191.34      -118663.3      -103298.5      -27727.26
       18754.70       26863.08       34322.78       75635.09       116097.2
       170596.9       190344.2       115393.3      -97633.75      -423327.0
      -764303.8      -974266.8      -1058245.      -957145.5      -587632.2
      -57744.75       549793.5       1359473.       2207688.       2847674.
       3184761.       2945000.       1928530.       541580.2      -911257.0
      -2348515.      -3495542.      -4108841.      -4090772.      -3168237.
      -1709642.      -676670.8      -60387.25       866242.5       1972927.
       2767894.       3130214.       3172054.       2813562.       1799526.
       281819.8      -1094192.      -1894540.      -1909000.      -1242782.
      -321740.5       348877.2       497791.2       70360.25      -758607.5
      -1499020.      -1817974.      -1786316.      -1222782.      -128639.2
       988158.0       1751322.       2239978.       2512339.       2655140.
       2501500.       1506566.      -518513.0      -2887186.      -4629124.
      -5094305.      -4333621.      -2827987.      -894515.5       1311735.
       3353472.       4688225.       4907361.       4068720.       2645957.
       1129043.      -299858.5      -1543709.      -2524634.      -3134727.
      -3190006.      -2454345.      -1102609.       358623.5       1294831.
       1288698.       602569.8      -143675.8      -760133.5      -1098071.
      -929878.7      -285510.0       641455.0       1740840.       2576291.
       2570422.       1689609.       444711.0      -701283.5      -1549277.
      -2107270.      -2169599.      -1660650.      -955403.9      -271284.0
       543814.0       1259479.       1523310.       1339817.       865119.4
       239543.6      -258909.4      -460762.2      -360386.9      -261956.2
      -339497.5      -309604.4      -54506.56       61149.16      -69147.62
      -302179.6      -566540.6      -705555.4      -458679.8       60283.00
       526624.0       674582.8       501994.2       186199.9      -108390.6
      -266246.4      -149402.1       209768.8       667926.8       893401.1
       666525.9       158849.5      -316662.1      -559871.1      -396162.1
       71311.50       551068.1       718157.4       479414.8      -25442.25
      -628769.5      -1137213.      -1269361.      -1104689.      -841633.4
      -451666.5       44927.62       391972.0       511137.5       552487.5
       681993.8       923401.0       1122387.       1029136.       679159.4
       177261.2      -380966.8      -847794.0      -1070396.      -1127176.
      -1077344.      -812618.2      -360127.3       57285.50       409366.2
       637450.2       637080.0       497573.9       446306.9       519092.8
       568067.0       494764.4       315514.6      -51244.75      -517540.5
      -870817.5      -1020808.      -981725.4      -649850.4      -132191.8
       272176.5       455147.6       529587.5       573324.0       606230.8
       574098.5       504827.6       354964.2       134023.7      -64615.75
      -263188.2      -488589.8      -583480.6      -498157.4      -366253.8
      -292336.0      -135607.3       96127.19       243467.6       287720.8
       372752.1       480870.5       468327.6       286009.2       71589.31
      -110264.5      -362195.5      -683243.5      -794414.5      -655103.6
      -422538.4      -173930.7       83492.25       292856.2       409655.8
       449746.6       506743.4       494453.5       347241.0       201329.3
       162412.3       108342.4      -25299.12      -126226.8      -100729.7
      -84266.00      -144421.8      -189009.4      -173094.4      -190713.7
      -221248.8      -269920.2      -337221.5      -321731.5      -191792.6
      -73919.38       49195.50       171526.6       194616.1       147152.3
       197548.4       337308.1       395670.6       315568.8       227533.8
       119611.3      -18448.66      -90540.78      -63884.12      -73131.69
      -138826.3      -157151.9      -122934.8      -187814.6      -330857.0
      -436776.8      -416490.0      -279767.2      -81494.38       128705.1
       348976.2       511725.6       548910.5       491808.9       432192.6
       353270.8       201352.5      -1280.812      -162394.0      -319305.2
      -458445.8      -529969.8      -510350.3      -350500.1      -26274.94
       256167.8       358084.4       332290.2       236032.3       35406.50
      -177427.4      -279698.6      -264767.1      -214976.0      -153658.4
      -90049.75      -65768.88      -102775.1      -92244.75       11677.25
       181229.1       325807.5       389784.7       339263.8       207152.3
       110476.6       119447.6       142758.6       153658.4       130397.5
       68822.25      -47683.88      -290284.2      -619279.2      -778360.0
      -707956.5      -561080.1      -385477.9      -109223.9       189711.2
       407390.2       588242.2       766869.0       838549.5       789582.2
       605440.9       316778.5      -26316.88      -347252.1      -550244.9
      -607378.6      -586364.2      -479777.6      -308241.8      -135092.5
       39355.62       193051.0       228460.7       190299.8       150268.2
       151139.1       164130.3       134053.8       49439.13       9762.188
       79541.50       186138.9       188670.6       77636.62      -105546.6
      -283949.0      -405905.0      -459142.2      -426303.3      -292282.3
      -97310.75       97373.28       148169.0       131444.0       189292.6
       201946.7       114041.9       104852.8       187016.6       256932.2
       278613.7       290908.9       221089.9       25554.69      -157257.8
      -209716.0      -250819.4      -311720.3      -250218.1      -97797.62
      -25019.03       39321.56       157956.1       203215.9       84268.47
      -57815.72      -96893.48      -64487.00      -84092.81      -166542.1
      -199674.2      -160602.4      -159364.6      -167451.0      -96828.69
      -8229.781       15441.12       115923.1       324871.2       472532.4
       426389.4       282566.8       193845.4       158189.3       116083.3
       48608.66      -64059.25      -157346.9      -215638.0      -275193.0
      -359327.9      -404820.3      -368518.4      -265945.8      -123908.9
       17120.69       97434.53       130724.4       128093.9       134776.8
       146314.3       147824.1       144736.6       116560.1       32163.03
      -51047.61      -65176.47      -13641.95       43243.47       92598.00
       121842.3       91696.08      -4478.828      -60176.48      -37210.41
       16827.20       25648.14      -21999.62      -106971.2      -233351.6
