     0.02500000      -4108512.       3099372.      -12345.00      -12345.00
      -30.01001       221.6150      -24.06000      -12345.00      -12345.00
       0.000000       17.78000      -12345.00      -12345.00      -12345.00
      -12345.00      -12345.00      -12345.00      -12345.00      -12345.00
      -12345.00      -12345.00      -12345.00      -12345.00      -12345.00
      -12345.00      -12345.00      -12345.00      -12345.00      -12345.00
      -12345.00      -31.89390      -70.19730       4105.000       0.000000
      -31.54000      -68.94500       0.000000       103500.0       0.000000
      -12345.00      -12345.00      -12345.00      -12345.00      -12345.00
      -12345.00      -12345.00      -12345.00      -12345.00      -12345.00
       125.0140       251.3793       72.03449       1.124051      -12345.00
      -12345.00      -7.365870       90.00000       90.00000      -12345.00
      -12345.00      -12345.00      -12345.00      -12345.00      -12345.00
      -12345.00      -12345.00      -12345.00      -12345.00      -12345.00
      2008        49         8        51        27
       760         6    -12345    -12345     10066
    -12345    -12345    -12345    -12345    -12345
         1         7        13    -12345    -12345
    -12345    -12345    -12345    -12345    -12345
    -12345    -12345    -12345    -12345    -12345
    -12345    -12345    -12345    -12345    -12345
         1         1         1         1         1
GUAR    -12345          
        -12345  -12345  
-12345  -12345  -12345  
-12345  -12345  -12345  
-12345  -12345  -12345  
-12345  -12345  -12345  
-12345  -12345  BHE     
ZL      -12345  -12345  
[...]
       375.6675      -140.0524       403.6853      -105.3589       456.7773
      -54.00385       486.6403      -4.808838       545.2310       8.680054
       537.6014       34.26001       582.5881       67.45667       624.9819
       144.0126       693.3496       183.0797       725.4916       224.2616
       762.9247       248.6191       803.3392       308.4183       835.6951
       345.0215       898.0996       392.4824       942.2969       442.4468
       967.9839       480.4492       1046.744       555.4001       1087.656
       583.6646       1112.917       599.5212       1124.150       592.7344
       1109.683       619.1348       1146.145       633.5562       1154.735
       640.9922       1168.620       653.4148       1157.480       647.6365
       1169.912       650.4673       1149.241       623.6321       1131.248
       610.3386       1105.551       591.2229       1094.638       560.6919
       1056.567       537.3611       1025.944       508.5967       1007.661
       468.7910       926.9487       406.6667       911.7588       382.3650
       846.6528       302.2333       774.4884       258.5911       739.0059
       222.7660       714.2745       183.2113       650.4634       125.7952
       592.3544       56.25793       518.4339      -1.685608       472.0680
      -70.22620       392.1325      -121.6466       340.5760      -184.4468
       284.7963      -248.3942       211.6222      -311.7541       144.6041
      -360.5306       113.7214      -423.5393       34.39355      -445.3497
       89.58929      -148.3789       1093.580       2281.285       5721.414
       9810.828       16402.70       23758.23       33759.34       39292.44
       42914.33       42633.39       34870.62       20930.14      -5396.828
      -33874.48      -46639.05      -63594.80      -60993.58      -34734.72
      -46246.39      -56316.96      -10822.18      -27132.84      -60010.69
      -18182.62       5752.984       28456.33       35505.62       26410.47
       103706.0       130345.5       59589.09       30172.84       64799.86
       44798.42      -35579.45      -41164.02      -13298.55      -7664.266
      -38790.41      -56949.40       1540.906      -40769.50      -136507.0
      -135719.8      -127095.6      -90945.33       9349.938       72095.25
       89143.44       98740.39       90729.30       43514.22       8386.422
       27865.00       51649.36       45824.52       55933.96       53774.31
      -23350.16      -100739.6      -104096.1      -54675.19      -12973.92
      -23478.77      -7863.891       41911.69       54545.24      -8380.906
      -91930.84      -89744.94      -54318.04      -31433.64       40546.44
       61926.70       11734.73       48950.97       123575.3       101100.7
       37370.88      -5863.219      -82545.25      -190261.0      -169367.8
      -70278.23      -40171.09       27290.44       178879.5       255178.9
       183481.9       79047.56       7325.844      -86538.28      -117517.0
      -45225.02      -10638.92      -51825.91      -121715.2      -176420.8
      -144365.8      -47597.48       32882.23       60062.62       94086.94
       124813.4       79319.42       38157.92       41791.97       32078.66
       30750.94       45410.63       45675.36      -27434.03      -117203.2
      -121229.7      -108416.9      -74013.44       89723.75       252509.9
       233196.9       86258.69      -59980.62      -173006.0      -238855.5
      -214434.3      -115533.3      -54468.78       1655.281       132935.9
       222974.5       171254.0       50556.34      -31753.98      -33481.44
      -4567.000       20407.30       40355.66       11742.22      -55500.22
      -72321.16      -49784.84      -30533.09       6042.406       43986.69
       39628.82       7867.305      -25490.67      -49044.24      -50729.84
      -2711.406       80583.38       152064.3       149492.8       26965.69
      -126313.1      -179124.8      -132775.7      -78088.72      -41120.68
       9472.609       1827.547      -27968.67       36484.50       120940.2
       148359.0       148377.0       133399.3       87985.11      -11608.94
      -105958.3      -145843.0      -142133.8      -72065.80       50918.38
       120070.5       71226.06      -52707.44      -172285.9      -205900.6
      -129122.0      -255.6562       120409.8       179957.4       178203.6
       124448.1       25916.80      -58063.06      -82470.78      -85386.95
      -70427.94      -36800.95      -13327.17       5447.023       28732.20
       51510.97       72468.56       78997.05       47827.91       3694.734
      -20568.17      -55404.66      -102161.1      -117646.2      -92997.41
      -49456.61       29441.41       133575.2       169138.1       91974.41
       7832.078      -32391.30      -47759.30      -22526.21       18878.29
      -2687.484      -68714.59      -87540.06      -76037.16      -75630.82
      -56725.89      -9419.000       64988.88       155574.3       227459.9
       219690.4       108699.6      -19348.97      -93658.38      -120918.5
      -87843.67      -32441.58      -25105.30      -62645.44      -73855.40
      -40154.43       9044.602       46874.88       26838.43      -16415.66
      -21357.91      -40352.62      -58752.84      -16806.58       44843.66
       92992.84       116514.4       81368.34       30431.56      -9170.469
      -62056.84      -98145.33      -90835.05      -35888.90       30628.89
       67414.50       109665.2       137552.6       112032.3       42925.45
      -59291.50      -129472.8      -138099.7      -140160.1      -136359.6
      -97308.78      -21635.89       42034.81       54938.11       35787.81
       38907.88       65762.88       76629.36       64365.38       48717.93
       45626.28       36243.83       22316.67       18663.09      -12760.53
      -65368.88      -121272.3      -153578.8      -89067.05       4214.219
       37335.78       57371.06       80278.48       80557.16       29569.88
      -42888.90      -58885.15       1386.234       56481.36       66402.44
       64491.30       39508.17      -1133.172      -54170.97      -125572.2
      -174137.8      -161037.6      -69030.03       49722.09       104168.2
       65497.38       20512.99       7304.703      -11978.45       18582.77
       76054.12       63927.28       49869.57       43615.12       13760.07
       29575.38       27773.18      -16846.23      -13039.38      -9272.148
      -38923.68      -32677.37       13708.50       33722.96      -11818.84
      -105556.7      -157317.0      -123950.5      -56790.01       8161.469
       60455.88       80341.75       54254.81       45161.56       89763.08
       94314.56       33825.99       7309.594       50325.00       94017.86
       99565.72       48468.28      -58430.91      -140275.2      -166439.3
      -154070.2      -94504.05      -20511.70      -6894.000      -50900.39
      -40516.08       40866.91       101122.3       96254.12       68300.28
       68106.69       44039.55      -29190.77      -83394.60      -61430.45
      -2059.539       389.8438      -1902.438       42162.69       58850.62
       41534.41       25003.85       35627.44       50300.38      -18403.25
      -102605.0      -85668.72      -47697.50      -54212.25      -62000.18
      -29180.03       45036.28       68937.41       31041.08       25401.70
       52631.73       65387.77       40603.38       909.4688      -33104.11
      -67154.97      -77140.39      -52871.58      -18734.30       4561.648
       26410.92       32384.73      -7785.508      -36577.14      -25164.06
      -21667.37       1849.656       63801.06       79041.05       52962.29
       21417.78      -44720.48      -71023.36      -19542.33      -6847.992
      -14755.15      -4208.609      -34034.39      -57287.02      -40660.22
       22871.19       102338.8       110079.0       76582.34       26174.05
      -62577.03      -109171.0      -69915.83      -9024.734       69292.91
       121990.6       88801.78       5737.484      -61283.61      -59819.56
      -22850.61      -12789.45      -34803.50      -51923.70      -28454.11
      -25829.16      -40978.89      -9037.438       13627.73       12684.03
       50827.72       93446.47       95226.88       62722.77       38534.06
       55949.73       62576.36       19029.50      -44791.03      -99530.25
      -136127.2      -154572.9      -120498.9      -52215.67       2927.750
       50433.81       83822.97       69386.88       24967.21       10833.92
       35298.50       53680.59       39013.22      -11012.00      -62051.94
      -87892.56      -54286.81       30931.97       76268.30       72351.92
       73010.41       46063.35       11165.31       6730.195      -7474.250
      -36962.55      -51266.41      -41788.55      -16671.44      -10309.77
      -18903.48      -39288.86      -54471.88      -62323.03      -87347.41
      -59699.19       38030.00       93938.59       96310.16       81286.53
       51891.13       43465.43       35788.18      -6708.797      -40059.45
      -47982.98      -8421.633       45193.12       45466.63       26956.72
       17645.95      -46474.12      -136750.0      -141781.2      -97766.76
      -62886.73       20933.50       81097.00       98382.81       145469.6
       168578.9       144240.3       65074.19      -66871.06      -145957.8
      -174373.3      -161177.5      -59662.12       26712.79       16797.92
      -22825.28      -51617.17      -39369.39       11101.31       87101.50
       173121.9       212291.9       203614.3       154036.1      -9575.000
      -188420.6      -237273.9      -203684.5      -117590.1       10609.44
       76182.50       82765.88       82551.38       64523.50       37873.96
       30034.50      -7751.031      -105101.6      -170707.0      -108953.7
       3115.297       66930.59       108056.1       124771.9       79731.95
       36162.29       18714.05      -15334.38      -56948.44      -69994.72
      -72052.11      -62041.11      -56809.24      -46158.34      -22042.75
      -17499.77       8423.875       72636.97       84190.84       57457.09
       48665.30       45693.82       36138.48       29030.62       15743.95
      -29260.53      -111231.4      -144563.6      -102515.0      -31001.61
       23240.92       61384.41       92723.30       79092.18       10894.85
      -44092.52      -49199.36      -22176.38       13991.95       42191.55
       50611.11       44074.39      -11298.27      -61480.09      -28101.54
       29928.48       38519.97       35994.88       13587.84      -27594.30
      -58056.72      -77080.48      -50718.73       36741.19       102949.8
       101284.8       35456.45      -44785.72      -87307.88      -102797.8
      -84188.89       12000.25       97417.00       109598.2       83557.94
       28056.12      -74361.50      -158485.2      -143889.8      -26248.25
       90967.25       130226.0       125922.2       118268.6       64105.58
      -20900.56      -96834.66      -135235.0      -133264.3      -104902.4
      -35345.34       76278.75       137070.3       118202.1       80391.82
       46796.05      -12863.69      -80862.75      -115225.1      -85267.98
      -17365.45       65440.97       85979.37       12780.89      -38235.89
      -13602.95      -10293.59      -39263.16      -51894.46      -16942.20
       41959.56       108365.3       138860.3       92474.56       31680.36
      -10571.03      -73502.72      -94194.82      -59280.23      -6988.359
       31231.80       33373.30      -813.4688      -43404.56      -73947.97
      -76392.84      -72734.88      -56032.07      -12464.47       70579.81
       152151.6       200010.4       216514.3       179561.7       33691.78
      -124858.4      -177470.2      -155447.9      -116790.5      -41741.12
       22899.08       39108.20       41999.33       49315.67       15058.50
      -51115.91      -97767.83      -80450.12      -13594.19       91801.94
       173631.8       178212.9       124444.9       46907.78      -43908.75
      -93947.19      -100388.4      -94968.94      -101296.7      -63435.23
       18760.39       50127.63       20365.40       9837.977      -6792.477
       7010.812       88079.50       151483.2       172924.1       172121.3
       106207.4       23703.50      -49014.31      -114917.2      -171834.6
      -156211.2      -55060.52       54898.50       97907.09       101935.2
       122719.9       177052.5       234926.8       244470.1       84262.38
      -270130.5      -673287.5      -932175.0      -982399.0      -894523.8
      -928769.0      -1239467.      -1601386.      -1648600.      -1150261.
      -6431.000       1348250.       2201578.       2321100.       1939854.
       1378528.       918955.2       635433.5       589332.0       945189.5
       1490037.       1457569.       514965.5      -909678.0      -2390114.
      -3677781.      -4108512.      -3103642.      -954752.0       1274972.
       2676986.       3099372.       2648529.       1471522.      -98461.00
      -1610008.      -2346124.      -2009404.      -1175657.      -647257.3
      -422938.0       115376.0       1196861.       2290227.       2737322.
       2195491.       740031.5      -873278.0      -1543205.      -949781.9
       175687.2       956976.0       1266816.       1397779.       1269214.
       540751.0      -559392.5      -1533384.      -2178434.      -2289782.
      -1815150.      -1219721.      -823297.5      -611751.9      -320582.9
       222354.2       808426.0       1251062.       1530292.       1559400.
       1363504.       944989.9       222584.8      -542664.5      -914731.1
      -836222.1      -320577.0       319950.6       564969.9       525504.5
       640639.2       893180.0       999459.9       753279.4       100449.8
      -927055.0      -2036119.      -2696059.      -2545859.      -1816459.
      -855829.2       282777.5       1514198.       2524176.       2970936.
       2650012.       1731365.       460887.5      -894267.0      -1895027.
      -2212548.      -1895380.      -1243952.      -593012.1       22902.00
       587570.2       987853.5       1292226.       1491027.       1324815.
       747847.1      -195532.0      -1288250.      -1994431.      -1941234.
      -1203287.      -192537.5       656225.0       1294760.       1671055.
       1532604.       766513.0      -297921.5      -1115476.      -1359719.
      -1160876.      -749096.0      -212863.5       314148.0       650139.0
       719566.3       469538.6       100873.2      -134163.2      -224833.9
      -274386.1      -314036.5      -329311.9      -293710.6      -164098.0
       81993.25       325034.8       454573.6       391659.6       183397.4
      -11279.27      -29553.62       100678.4       174667.2       153329.2
       151593.4      -583.1250      -368948.0      -642711.2      -601185.4
      -364940.0      -90637.31       125424.2       248028.8       342721.4
       512689.0       687008.5       774479.0       759226.5       587377.5
       205209.5      -225908.0      -534091.0      -707171.2      -762426.0
      -655451.5      -531596.5      -559650.8      -607871.0      -460327.8
      -210450.8      -43228.31       104369.0       423401.5       823348.8
       1116604.       1220959.       1079898.       706380.8       213531.6
      -317388.5      -779107.0      -1043372.      -1064291.      -985649.5
      -821913.2      -519317.4      -201908.7       56824.38       293481.2
       439043.1       449725.9       381320.2       358076.8       409520.5
       460117.4       450848.5       387040.4       326868.0       295653.9
       204592.0       100475.9      -17485.25      -294578.2      -692883.5
      -951526.8      -916917.6      -651974.2      -349913.9      -37148.25
       305654.9       542051.0       630026.5       718371.4       745071.5
       540896.1       232152.4       48157.45      -11761.97      -36231.62
      -114761.4      -240391.2      -392688.8      -575503.2      -717494.9
      -711839.9      -514323.9      -158451.0       191989.2       435018.2
       545638.9       503742.1       323617.9       144618.6       54725.25
       31594.09       96378.12       235923.9       286941.7       170772.0
      -42546.75      -250806.8      -461805.0      -590581.2      -522362.9
      -411732.8      -393417.6      -308534.6      -42043.12       296578.6
       570158.0       749598.5       739657.5       512034.6       204460.1
      -33345.38      -229403.4      -425026.9      -505255.2      -404844.6
      -264253.9      -142642.3      -8829.188       134634.2       249337.4
       264637.5       185860.4       129014.2       34857.88      -153342.0
      -302580.6      -311138.2      -218170.1      -100150.7       2952.094
       110017.0       162292.3       127979.1       42237.34      -36542.45
      -26114.23       79706.72       119012.9       24757.78      -68076.53
      -52441.55       13022.97       115042.4       254075.9       351719.7
       320927.4       195804.8       34240.00      -155584.6      -312461.8
      -361992.8      -378468.8      -406571.9      -382428.9      -283765.9
      -112894.0       132050.2       379369.6       569779.5       569311.0
       400935.1       250431.4       137514.2      -15009.25      -185980.7
      -302929.2      -323186.0      -274631.1      -199823.9      -148197.8
      -106020.8      -73934.78      -100123.3      -133014.4      -58156.06
       62815.50       163161.1       250437.9       244320.6       89878.70
      -60515.64      -95387.27      -14435.81       106676.4       185388.9
       191643.9       134310.2       54451.54       7397.725      -7878.859
       436.1562      -18935.81      -108326.1      -189578.1      -184528.1
      -205946.9      -302800.9      -323330.1      -212744.6      -86585.11
       33114.44       156051.0       243276.8       195969.4       8549.250
      -176606.4      -279986.1      -272417.3      -117073.4       80575.50
       242191.0       388830.4       536108.5       597288.9       496965.3
       316581.4       156210.8       21681.25      -74130.19      -180252.2
      -287397.7      -328630.1      -313763.1      -267343.9      -216064.3
      -168344.0      -67336.59       53043.38       143692.2       156323.2
       74053.34      -17903.17      -28505.97       17497.58       39303.68
      -11424.00      -112316.7      -197193.2      -192713.2      -108442.1
