     0.02500000      -1712746.       1752158.      -12345.00      -12345.00
      -30.01001       221.6150      -24.06000      -12345.00      -12345.00
       0.000000       17.78000      -12345.00      -12345.00      -12345.00
      -12345.00      -12345.00      -12345.00      -12345.00      -12345.00
      -12345.00      -12345.00      -12345.00      -12345.00      -12345.00
      -12345.00      -12345.00      -12345.00      -12345.00      -12345.00
      -12345.00      -31.89390      -70.19730       4105.000       0.000000
      -31.54000      -68.94500       0.000000       103500.0       0.000000
      -12345.00      -12345.00      -12345.00      -12345.00      -12345.00
      -12345.00      -12345.00      -12345.00      -12345.00      -12345.00
       125.0140       251.3793       72.03449       1.124051      -12345.00
      -12345.00     -0.8611612       0.000000       0.000000      -12345.00
      -12345.00      -12345.00      -12345.00      -12345.00      -12345.00
      -12345.00      -12345.00      -12345.00      -12345.00      -12345.00
      2008        49         8        51        27
       760         6    -12345    -12345     10066
    -12345    -12345    -12345    -12345    -12345
         1         7        13    -12345    -12345
    -12345    -12345    -12345    -12345    -12345
    -12345    -12345    -12345    -12345    -12345
    -12345    -12345    -12345    -12345    -12345
         1         1         1         1         1
GUAR    -12345          
        -12345  -12345  
-12345  -12345  -12345  
-12345  -12345  -12345  
-12345  -12345  -12345  
-12345  -12345  -12345  
-12345  -12345  BHZ     
ZL      -12345  -12345  
[...]
      -208.0849      -237.3065      -213.8876      -253.6898      -206.3399
      -240.2101      -198.1025      -222.6348      -178.4529      -207.2670
      -174.1324      -195.0814      -147.0934      -176.7920      -121.3257
      -137.8626      -100.4897      -118.5176      -77.70035      -105.4819
      -57.96405      -78.54628      -40.74240      -53.59199       3.376438
      -3.232727       40.54283       26.92471       75.22218       58.94962
       105.8132       98.47125       136.2234       118.9506       167.1521
       161.9905       191.0741       174.8461       230.9531       235.6943
       280.5023       261.3896       295.9397       291.6259       334.7926
       324.5795       381.0159       383.1667       418.2632       409.4606
       450.9780       444.7858       484.3472       480.0336       519.1689
       507.8472       554.0571       551.2998       574.1108       553.9756
       592.2709       587.9727       617.7471       598.2158       640.4895
       638.7198       651.2205       637.0750       676.3210       660.9343
       681.0789       662.6912       679.9014       648.9294       661.0659
       652.9534       677.1658       647.1609       656.8201       638.7832
       649.2588       629.4807       647.2468       618.8564       621.7405
       595.6274       607.7571       592.9762       581.7783       331.4119
      -504.7422      -2921.451      -8047.605      -16352.45      -26133.38
      -35122.56      -41287.30      -53491.22      -65883.44      -58956.16
      -40370.01       7232.109       38427.31       45421.47       77214.67
       51165.56       79225.47       118160.3       22458.78      -8277.406
       24963.22       27122.10      -18746.07      -21003.84       9816.715
      -25299.58      -882.1221       8762.875      -11824.04      -24360.56
      -79303.76      -49403.28       2441.703      -27158.73      -24331.23
       21048.47       23768.30       28524.46       39232.27      -13322.96
      -26490.89       47546.19       86777.98       43611.89      -18102.77
      -54073.33      -72903.67      -39626.60       13535.60       26931.76
       31887.45      -18361.91      -49216.97      -2432.578      -16281.79
      -14494.16       56869.22       76535.65       29008.73      -3725.832
       13862.78       34682.53       53288.81       71621.74       12931.34
      -62151.19      -49514.41      -69654.94      -75491.59       5313.367
       27595.27       13489.07       17617.88       12248.02      -6976.177
      -5939.160       22535.94      -11721.63      -42842.73      -9921.189
      -15111.12       4156.164       48888.23       19581.53      -46543.78
      -94147.70      -63641.27       8158.434       14846.29      -9905.484
      -22877.36       11168.72       71139.06       96548.30       99362.49
       38223.58      -12554.81      -22157.23      -51140.84      -63448.05
      -51825.88      -19623.20       22567.88       58317.02       69825.97
       36306.47      -49742.75      -102032.5      -89993.84      -66998.17
       8776.938       98696.78       119139.6       69376.09       9634.141
      -37870.31      -93336.64      -82248.56      -29031.10      -11922.70
       32979.97       109248.3       131102.8       77406.43       7243.172
      -27083.12      -48170.03      -86733.94      -128399.7      -130643.1
      -90956.20      -19672.92       63994.19       97036.20       71549.17
       45113.02       45029.53       64362.16       74098.72       22771.36
      -70584.50      -115554.7      -82755.91      -9840.562       46420.67
       35466.60       5484.270      -5721.320      -27193.64      -21871.80
       15845.39       42975.81       28641.94      -28415.89      -61373.47
      -31903.88       7078.469       21260.50       32605.72       30071.35
      -15951.92      -61553.31      -47018.97      -34430.28      -41408.62
      -4507.418       20369.63       14451.70       48741.00       96912.91
       104137.2       70271.08      -1671.500      -80437.44      -108668.8
      -69625.87      -21660.42       9513.934       21800.63      -5395.824
      -16239.30       8228.477       27364.33       47434.31       52338.94
       50513.36       62878.25       44432.46      -19034.56      -65231.55
      -77271.38      -88128.14      -62880.86      -5523.633       12293.32
      -7728.633      -1960.406       22456.05       28971.45       27048.97
       3067.359      -21263.41      -14530.33       8030.875       47940.47
       81690.03       71531.58       31169.85      -12880.44      -49889.34
      -72713.23      -80474.48      -86451.36      -67133.33      -443.0938
       57386.34       65446.27       70679.33       87450.22       52426.87
      -33298.72      -91276.06      -102619.4      -86781.30      -45180.34
      -2980.984       52450.00       78668.68       42248.33       36920.32
       47484.88       30236.95       30705.69       39699.69       15710.52
      -20496.02      -69292.72      -94936.36      -50268.49      -6830.211
       4623.561       9593.127       3973.994      -8728.211      -13770.64
      -9722.613      -14746.85       4265.875       54342.58       43089.64
       1026.672       18023.52       45835.89       45370.59       31627.28
      -14950.94      -71069.58      -71681.07      -48032.91      -21617.66
       19094.23       33700.74       28032.72       22140.38       37021.86
       64848.23       53346.49       14511.03      -43031.41      -55995.71
      -17171.59      -28487.65      -34241.64      -1946.484       19039.40
       30727.62       26867.78       13041.98       13302.05       38010.42
       25430.45      -39647.97      -95857.19      -99805.41      -54878.26
      -3264.609       57407.31       92652.97       57793.19       17078.30
       9363.654       1690.953      -33003.06      -79339.34      -78886.97
      -34473.98       20671.19       38945.27       22612.09       34610.25
       15595.98       10489.57       28454.02      -26920.95      -43104.49
      -6683.719      -17601.17      -8232.758       47309.40       44948.27
      -3586.953      -45124.83      -77225.07      -54413.89       5293.781
       31641.84       34007.67       54018.74       43994.62      -3501.648
      -9394.739      -660.8047      -10368.96      -12675.66      -28366.90
      -21180.26       11191.02       7205.996       8358.344       44594.81
       52809.62       5066.569      -7970.047       20126.79       2846.797
      -29293.59      -31681.71      -14123.20       1784.310       3888.863
      -15911.66      -21815.26       5132.891       4037.488       7150.062
       42391.48       41203.81      -6349.922      -40146.76      -25537.83
      -10442.70      -16804.44      -24763.02      -18097.09       6825.377
       9810.482      -12141.81      -104.5234       30542.63       29852.32
       42372.38       33760.65      -12008.34      -21084.32      -39754.89
      -43188.02      -13080.24      -11099.14      -14655.57      -6968.798
       1058.881       3532.266       19862.38       23969.01       15904.41
       42422.52       33797.04      -23244.14      -39968.03      -39444.43
      -43863.47       16470.97       88954.80       68094.39       15344.57
      -17100.05      -58097.73      -65893.97      -36891.00      -10771.22
      -4109.375       4639.219       46856.54       51771.30       22417.26
       5020.188      -9603.203       11121.79       13553.07      -22588.30
      -24935.87       10092.66       46074.67       46929.70       25088.67
      -15112.72      -57077.45      -74230.75      -82032.95      -54764.64
      -15306.66       7780.078       32833.06       55525.12       38588.51
       7030.262       7684.311       1874.148       14869.87       18526.80
      -20995.89      -28773.23      -303.8125       49679.09       89935.88
       71328.82       23788.42      -10272.62      -41059.33      -53557.12
      -37045.42      -20040.52      -25131.88      -35773.68      -19975.42
      -9733.133       1073.094       34789.55       41890.22       5602.375
      -40542.96      -40820.81       9929.766       54449.59       61030.02
       27312.45      -14058.41      -42500.27      -50387.59      -9092.764
       8146.793      -21868.80      -25497.91       4366.875       47431.59
       69962.59       78781.84       54401.03      -27275.56      -97046.84
      -129575.8      -127252.0      -86153.12      -27908.25       13034.17
       19823.66       60180.00       143673.6       190273.5       160799.1
       68440.11      -51184.12      -124355.4      -93847.75      -51331.69
      -22684.78       8104.316      -16014.91      -19940.32       16630.73
       14284.75      -2660.791      -3458.348      -7218.192      -10184.77
       6361.649      -1981.604      -9498.453       24042.62       27016.11
       24601.51       10749.84      -32401.69      -36201.38      -38585.19
      -32619.21       17731.03       47459.14       29732.63      -24337.06
      -91648.00      -106619.4      -62841.98       15701.53       112397.4
       147707.1       105786.4       63295.56       29463.79      -13670.95
      -21836.47      -19970.22      -52343.27      -74696.91      -55110.30
      -23813.07      -11931.47       14823.16       24065.59      -7634.779
      -14165.94       179.0400      -1337.816      -9064.148       26790.39
       62964.70       48251.00       39044.72       30657.95      -2843.922
      -27547.82      -19187.74       5831.344       30559.62       28220.06
      -28552.03      -90849.94      -109579.4      -106974.5      -74957.64
      -6990.906       24459.59       27346.03       60411.62       67683.66
       51712.94       67389.67       76876.85       52940.01       1112.453
      -58349.56      -69962.66      -24163.10       4289.316       10337.10
       37646.34       14717.14      -62127.27      -71616.02      -51524.36
      -48536.55      -13335.37       31593.22       61374.52       66273.12
       70518.44       74574.48       55157.84       19798.23      -26188.41
      -50697.52      -64930.08      -62440.57      -12805.51       20618.66
       24325.52       52922.39       66225.36       45736.93       30289.66
      -19048.97      -93255.81      -119238.7      -100988.0      -67599.38
      -23227.39       24625.03       85884.72       129868.7       97732.21
       47606.72       29186.45      -7243.781      -71952.09      -104395.9
      -93459.42      -54859.91      -6030.492       10725.22       42679.98
       54419.30       20957.30       31330.16       57751.52       50457.38
       7607.797      -20986.53      -27286.11      -23817.16      -22370.31
      -27766.17       13011.62       46895.09       34706.67      -4245.688
      -28240.23      -7276.977      -14605.39      -50653.44      -75380.05
      -81735.15      -54323.33      -9616.344       31244.23       55462.78
       65714.25       69478.53       51964.85       41947.34       31231.59
      -17686.77      -55667.00      -67218.46      -50516.39      -6019.086
       20023.51       36969.23       44015.96       6001.578      -54119.59
      -80830.94      -54078.24       12540.03       78119.88       93518.56
       77222.66       38254.83      -19885.22      -58574.12      -71974.09
      -62188.72      -42325.45       5470.594       53210.80       68884.47
       78396.94       39637.16      -14716.70      -36061.38      -76876.09
      -101040.4      -48920.80      -3377.262      -8744.234       17908.44
       60465.78       68066.34       51565.67       1894.656      -53894.97
      -58521.39      -17250.21       14336.47       43026.22       91137.52
       100253.4       57321.90       6057.281      -42493.44      -51272.20
      -5587.963       11695.22      -23737.41      -75062.09      -94254.53
      -54304.08      -6550.297       44078.78       71494.69       36071.10
       2703.375       22643.61       63868.00       50803.64      -26994.47
      -111146.8      -145836.9      -108603.2      -21798.47       75594.69
       126816.8       83259.27      -3314.688      -30830.44       18557.25
       76731.39       79884.32       25880.97      -40614.05      -69677.19
      -22732.11       64426.37       70690.88      -65458.62      -222922.4
      -337627.8      -472042.1      -583016.4      -630490.5      -554485.1
      -259566.8       251195.2       828741.0       1229610.       1349215.
       1153581.       719435.4       230224.9      -299208.0      -778682.8
      -1020383.      -1007493.      -717042.2      -295829.9      -125715.3
      -288824.3      -425720.7      -143038.2       475400.0       976221.5
       1177666.       1179832.       856283.6       78518.00      -743166.2
      -1247426.      -1595034.      -1712746.      -1295104.      -433152.5
       663323.5       1576175.       1752158.       1322299.       738984.7
       210952.1      -166991.4      -370208.8      -370143.2      -286687.8
      -210084.2      -9537.500       269979.9       428534.1       344013.4
       127716.4       19413.75      -58932.38      -331477.0      -635631.9
      -597437.7      -223216.1       142204.0       273717.1       122893.8
      -248006.5      -526063.0      -496944.9      -425745.8      -501431.9
      -518037.8      -279645.0       243294.2       850023.0       1205397.
       1158414.       801647.6       374181.1       52174.69      -191773.1
      -376297.9      -469953.6      -468932.2      -250916.4       166938.2
       459080.8       456190.7       283363.8      -5310.750      -421617.5
      -816102.2      -1067109.      -1121515.      -880177.0      -341887.2
       375489.5       1032819.       1316062.       1171440.       818250.6
       376379.1      -123127.0      -598954.2      -934644.5      -966988.5
      -700859.6      -293474.6       107275.8       386475.2       487001.5
       388635.2       200460.9       32744.12      -28665.69       78584.38
       196974.4       219440.8       238431.8       258175.3       170042.9
      -19788.44      -181616.0      -217812.6      -181154.4      -230384.8
      -375412.4      -452341.1      -401281.1      -295087.2      -115101.1
       157415.8       359445.2       365786.2       249971.3       185004.2
       235487.6       308800.8       366813.4       296010.2       5652.500
      -267148.9      -359943.0      -357689.4      -298224.0      -187441.7
      -72565.73       36482.16       139266.9       199747.1       237769.9
       234460.8       133006.5      -2550.812      -105239.2      -186456.6
      -305329.0      -390664.5      -312982.2      -143561.1       68365.38
       331366.5       545233.2       598067.2       466590.6       183455.1
      -168016.1      -380659.7      -343772.2      -185313.8      -3008.625
       199587.5       319865.4       225665.1      -2527.750      -208005.1
      -360795.9      -414962.2      -355113.1      -271684.9      -196347.3
      -94944.47       63417.31       256442.3       339400.9       285269.4
       244476.9       215271.7       135048.3       9302.312      -147698.9
      -265187.1      -257267.4      -161565.8      -138367.0      -143139.5
      -12511.69       164081.4       257013.1       291287.1       259072.4
       116864.0      -89266.94      -265065.3      -325384.4      -287485.8
      -242956.3      -178719.5      -59125.41       62425.62       180448.1
       300276.2       344351.5       283200.2       155173.1       31940.11
      -40738.97      -111885.3      -192491.6      -204552.8      -148469.3
      -112635.4      -91625.91      -40843.17      -3715.793       1569.719
       26979.78       91542.31       153490.7       168693.1       85273.47
      -64858.94      -164529.9      -214306.5      -216436.0      -117243.3
       43003.62       175787.3       211844.8       185362.6       171086.6
       169696.7       162867.3       131712.1       91690.24       29561.94
      -87281.81      -191658.5      -238541.3      -249167.4      -217638.4
      -139943.2      -4933.875       145580.0       183826.9       143875.4
       152822.8       201002.8       192161.4       109929.8       45143.42
      -18375.38      -99177.75      -148709.5      -144972.6      -98118.11
      -56462.34      -26711.38      -20824.04      -32105.12      -57260.28
      -114192.3      -151364.4      -157318.7      -160564.7      -155370.4
      -144164.2      -85774.44       33124.56       111825.1       141804.9
       163665.4       152036.8       107146.5       77023.72       90261.04
       64316.13      -33747.19      -118362.8      -147181.6      -123708.3
      -70551.14      -23322.14       5716.031       51319.12       130936.4
       215103.4       283219.6       292130.9       209512.2       83065.19
      -30076.41      -133162.0      -205394.1      -190671.5      -126009.7
      -58464.47       37373.62       161540.8       247059.1       264050.6
       249149.9       189974.9       60796.72      -84330.12      -192356.5
      -255817.1      -276363.8      -270007.4      -210100.0      -89345.59
       23905.05       82574.63       51780.87      -12661.73      -39772.73
      -48775.17      -27293.59       20794.33       52452.20       31052.51
      -10737.67      -47011.88      -124960.8      -162991.2      -96924.97
      -18810.31       19696.05       34994.38       33877.48       8191.961
      -8889.344       9351.418       15203.50       7615.555      -5464.422
      -54453.61      -80494.50      -33790.03       44622.88       103513.3
       146210.6       217799.8       267390.4       245445.3       173083.7
       66139.12      -50610.44      -186754.1      -292551.5      -304062.2
      -284813.2      -251856.8      -164984.6      -52749.06       40765.59
       118151.6       190924.8       209387.6       144680.0       78371.86
       54227.09       35383.34      -1302.320      -41453.48      -46251.53
      -11022.00       15570.36       10030.00      -12353.59      -47891.61
      -68734.66      -43447.63      -1498.500       1476.375      -49879.92
      -69644.52      -11467.84       50143.69       87874.56       121420.6
       170194.8       216128.9       178038.9       65768.77      -49356.50
      -116321.2      -107845.7      -65779.16      -38242.59      -28297.42
      -13694.71       7616.307       7923.211      -21707.77      -62339.72
