     0.02500000      -741259.5       710659.9      -12345.00      -12345.00
      -29.99998       215.3500      -16.30000      -12345.00      -12345.00
       0.000000       12.45000      -12345.00      -12345.00      -12345.00
      -12345.00      -12345.00      -12345.00      -12345.00      -12345.00
      -12345.00      -12345.00      -12345.00      -12345.00      -12345.00
      -12345.00      -12345.00      -12345.00      -12345.00      -12345.00
      -12345.00      -31.32870      -68.47560       746.0000       0.000000
      -31.54000      -68.94500       0.000000       103500.0       0.000000
      -12345.00      -12345.00      -12345.00      -12345.00      -12345.00
      -12345.00      -12345.00      -12345.00      -12345.00      -12345.00
       50.40142       62.42225       242.1786      0.4531723      -12345.00
      -12345.00       8.626342       90.00000       90.00000      -12345.00
      -12345.00      -12345.00      -12345.00      -12345.00      -12345.00
      -12345.00      -12345.00      -12345.00      -12345.00      -12345.00
      2008        49         8        51        20
         0         6    -12345    -12345      9815
    -12345    -12345    -12345    -12345    -12345
         1         7        13    -12345    -12345
    -12345    -12345    -12345    -12345    -12345
    -12345    -12345    -12345    -12345    -12345
    -12345    -12345    -12345    -12345    -12345
         1         1         1         1         1
LAJA    -12345          
        -12345  -12345  
-12345  -12345  -12345  
-12345  -12345  -12345  
-12345  -12345  -12345  
-12345  -12345  -12345  
-12345  -12345  BHE     
ZL      -12345  -12345  
[...]
       661.4438       136.6390       714.7378       182.0485       719.4580
       195.0586       743.6533       177.7794       716.7085       190.9396
       741.1531       196.5908       764.2902       224.2932       752.3997
       220.3925       786.4368       228.7169       774.1182       245.8364
       805.8746       246.0310       811.8562       286.2847       802.3000
       243.6521       799.7638       226.4877       778.9642       241.0574
       789.4509       242.6038       796.1512       246.9917       776.1885
       221.1309       782.9738       230.0212       796.3708       265.8210
       806.3057       270.8356       824.4890       258.5967       775.5886
       221.2124       773.6161       208.1102       757.1066       226.8022
       747.0344       190.2668       755.0017       210.3103       754.0978
       214.1848       767.1876       209.1241       744.3408       197.4644
       731.7092       187.5123       735.3837       178.1383       730.7686
       191.1803       737.4812       184.5574       715.7808       176.9987
       699.1848       126.3871       664.9552       96.46582       635.2759
       118.0840       678.1010       141.5677       700.9036       161.2424
       713.2203       167.7006       699.1703       136.8451       664.8302
       124.5297       675.4329       116.8513       649.4957       105.7988
       654.9532       101.7980       649.9420       98.74109       642.1646
       105.8628       658.5558       129.7727       667.3830       103.8699
       632.4292       94.36963       642.8060       95.26440       630.0682
       91.29663       645.7833       93.07642       625.4863       72.66321
       595.2402       60.25342       597.5930       58.72180       605.7445
       81.60278       614.5441       55.30640       598.2019       53.95068
       575.4944       36.93054       603.1127       77.79150       628.1471
       91.38379       618.7725       75.33826       585.9637       23.89758
       553.1400       21.43799       567.2604       44.35022       617.1946
       107.7064       653.5167       127.2430       641.4203       85.66553
       626.8214       80.08948       596.3116       90.00415       643.8891
       98.14697       628.8772       108.9375       631.9341       80.95703
       613.7316       88.72632       628.3197       94.39038       609.9487
       77.81604       602.1398       71.51428       598.5078       65.09766
       604.0565       83.36096       613.9377       90.90137       611.4670
       78.48572       587.2487       26.42163       547.6185       37.52271
       553.4707       10.75037       541.7547       33.09497       559.0997
       27.65735       532.6077      -11.13361       513.3101      -5.584229
       501.5300      -37.09735       484.2730      -40.99890       475.3036
      -42.81470       473.7151      -56.57733       456.3088      -65.88422
       460.9481      -63.67206       437.7299      -93.49213       404.8909
      -131.7472       373.0994      -156.2206       370.1803      -133.6645
       384.8999      -134.0167       365.4366      -149.2683       367.8659
      -183.0285       300.2648      -222.5956       289.3067      -238.2441
       263.1672      -249.7461       261.9300      -273.0439       217.1279
      -299.1365       227.4914      -265.1972       212.3821      -306.1978
       208.8635      -311.7800       191.6445      -330.5751       153.2803
      -347.4305       167.7858      -315.1223       201.7076      -314.2043
       189.6362      -304.9956       183.8313      -336.5309       148.0978
      -358.4927       137.5904      -364.3605       149.2173      -344.5225
       149.5430      -340.7031       147.8817      -365.3699       142.6179
      -332.6272       164.1788      -323.9586       176.5997      -310.4251
       170.2184      -333.6882       155.7666      -345.6370       149.2734
      -303.2620       221.4502      -261.7860       247.1412      -235.7911
       244.3872      -250.3202       243.6395      -232.4571       257.0485
      -211.3270       308.6840      -149.5479       352.3114      -102.7728
       383.4066      -101.6292       384.2721      -85.74426       394.1960
      -79.43787       413.4913      -42.93085       436.6754      -31.52594
       459.5152      -6.761536       472.7254       33.58386       535.9528
       71.28723       556.8793       124.3046       602.0543       118.7552
       596.9078       142.0955       638.3743       211.2290       691.3621
       239.3629       727.6212       281.3907       739.5645       271.9917
       755.9395       320.6260       773.1118       348.4258       853.7400
       394.6907       846.0221       413.8008       893.9954       455.6140
       902.3928       472.8457       969.6909       532.7461       1017.083
       589.1357       1030.097       571.4463       1025.138       576.4910
       1036.963       619.3545       1093.998       675.5300       1156.471
       748.1279       1209.275       760.4700       1190.848       733.0850
       1156.538       708.7153       1066.239       452.3666       660.7078
      -483.7051      -2390.879      -7903.609      -16532.70      -30900.89
      -46136.12      -56141.67      -52505.49      -39634.04      -27079.97
      -28386.92      -49189.91      -85297.34      -101380.7      -60344.86
       24131.39       81742.39       77243.06       37659.84      -9717.500
      -43437.47       2356.969       108064.1       153115.8       127828.1
       103992.7       55184.58      -10081.00      -30872.09      -26440.91
      -16600.05       29082.59       90365.34       120418.7       105356.5
       44165.12      -53124.12      -108822.1      -101825.3      -70266.81
      -6105.586       42897.09       6271.266      -44062.19      -90093.31
      -174806.8      -187850.7      -60333.19       100852.8       196652.5
       157743.6       21928.88      -90986.88      -126194.1      -74113.72
       46863.88       138980.9       116790.7       9229.406      -109802.9
      -174132.2      -139675.5      -29245.22       91270.78       129268.3
       101949.8       76938.98       31873.24      -10136.29       10370.95
       39295.99       29912.00      -26812.25      -102888.3      -95703.38
      -4433.242       41125.48       26350.02       14972.80       44151.09
       88137.14       91798.14       61779.82       21827.93      -22300.44
      -56392.91      -90337.50      -88642.69      -51378.83      -39308.03
      -33031.03      -32953.41      -71705.78      -84571.41      -46692.57
      -7363.203       30130.03       45153.31       10120.42      -912.4062
       50844.34       99332.47       79527.35       29495.12      -7483.078
       5284.125       79950.00       142874.7       107143.4      -19125.00
      -133121.7      -164986.5      -109544.1      -1250.438       66960.21
       45108.77      -24195.42      -73452.27      -62492.08      -5677.723
       24220.47       7715.305      -22712.77      -27607.77       6800.750
       32151.42       2637.234      -52502.69      -80380.06      -52479.74
       14340.05       67986.67       67979.28       52388.09       60264.62
       71528.34       81593.22       82853.48       43876.64      -2804.789
      -7436.375       21814.69       20411.36      -34652.25      -112206.5
      -150764.3      -109744.9      -15282.70       50846.22       35628.13
      -15805.16      -33906.54      -7874.328       41745.50       65046.33
       30313.78      -8657.500      -2940.125       10027.41      -25742.50
      -92068.72      -106661.6      -66095.77      -13521.94       10255.81
      -14731.09      -50902.70      -39265.67       12245.49       46347.83
       32176.89      -347.2383      -5174.828       12222.12       13931.82
       5080.625      -7321.051      -17985.09       848.0312       39831.92
       69601.47       84937.78       69363.91       37028.99       22896.62
       27698.73       36745.41       47414.05       42788.95       21686.75
       11258.36       25859.59       29104.99      -6645.984      -64360.75
      -107619.9      -109356.9      -69668.83      -8790.832       22374.47
      -29803.19      -111566.5      -144294.1      -114552.8      -40249.30
       18915.73       19235.44      -963.1074      -12707.96      -4472.406
       32310.25       94043.22       132901.1       125290.8       96219.12
       53135.48       19570.24       11026.37       8527.680       13730.36
       27753.13       42435.00       41427.38       21201.53      -11385.00
      -57917.14      -86238.89      -68992.89      -40321.01      -17821.64
      -12047.94      -37347.67      -60858.58      -45588.68      -21501.86
       3137.891       25137.93       1810.055      -39642.14      -33295.33
      -430.8594       22663.26       36957.46       26856.78      -19820.00
      -47370.04      -23073.74       19677.19       64825.73       83012.32
       49572.17       24985.08       32895.81       49144.91       74772.39
       68575.11      -1640.688      -72372.69      -99598.03      -87226.12
      -59069.25      -37762.62      -28473.03      -27602.85      -21685.90
      -17869.41      -32000.35      -41179.26      -30324.25       5203.859
       44757.64       45359.27       12430.11      -13036.18      -15125.23
       2837.992       32661.56       52684.13       45574.25       37208.25
       35649.50       29028.23       31158.77       45998.78       67343.12
       72999.79       20044.97      -53628.84      -81335.03      -72538.17
      -40261.44       3605.529       3675.781      -42945.41      -90929.02
      -98838.88      -53660.34       13000.50       63004.78       75870.32
       51653.63       20692.80      -8349.109      -34694.23      -34993.55
      -22874.91      -18157.86       1137.883       17179.30       14152.79
       17602.12       19375.19      -6142.305      -22845.43      -2117.039
       26197.72       44832.90       39781.88       12656.68      -1630.420
       3867.496       15786.06       11863.36      -19426.64      -48760.73
      -42381.34      -3339.703       37068.05       20362.98      -49786.61
      -81008.72      -40979.73       31319.84       83492.53       47911.66
      -34047.45      -69837.25      -55458.84       1096.516       63332.52
       55766.20       4626.180      -26209.50      -29079.83      -9418.141
       18460.95       35204.89       21922.30      -15847.27      -38007.38
      -24688.01       1524.695       10446.13       2741.914      -11156.96
      -24506.43      -32188.13      -24296.69      -1417.023       11671.17
       3967.344      -22567.44      -53865.90      -52651.46      -12342.91
       37254.25       71973.91       93740.91       91133.20       50056.84
       3687.633      -15814.32      -8161.109      -8414.062      -26016.80
      -29945.47      -43616.89      -65887.50      -63225.84      -55692.58
      -34596.75       1618.047       14171.10       15919.23       31518.62
       55420.72       66441.21       46895.25       15801.89       10554.52
       28682.22       33936.91       12694.66      -8877.359      -8534.428
      -4662.820      -12192.72      -25494.14      -50681.14      -70018.51
      -45238.97      -11832.09      -14116.55      -20630.38      -19327.41
      -27284.86      -25652.53      -7886.836       2229.979       4735.946
      -1008.182      -13727.35      -395.1406       16865.67       20399.52
       47799.73       66737.86       44407.68       21473.03       5816.739
      -5912.870      -2677.062       10720.30       20895.96       12137.79
      -5944.074      -13776.52      -20642.33      -26751.78      -15664.20
       1477.455       5908.316      -6075.902      -21940.65      -2860.875
       39318.77       45173.73       13530.80      -25109.59      -58606.91
      -74344.45      -68195.49      -39979.34      -24099.05      -42078.46
      -49500.07      -19725.44       19268.70       56444.55       70067.02
       30520.64      -17947.98      -16080.96       14747.30       36050.97
       56708.91       65071.38       42578.48       26699.34       25540.57
       19053.89       17918.66       29835.79       36311.66       27361.55
       18637.86       10976.84      -41855.50      -129291.4      -171078.6
      -164316.9      -152351.3      -103371.9      -32330.62      -17055.53
      -49173.91      -65705.20      -39493.72       42457.38       165061.1
       259947.1       284220.1       263962.8       230388.8       211014.7
       225839.7       276544.4       351109.5       423024.2       446894.5
       438875.0       443398.2       414522.2       319049.2       216902.4
       131946.5       78693.75       76215.55       46238.19      -53192.97
      -101809.6      -68568.91      -63518.06      -82426.56      -76754.81
      -187489.2      -475174.5      -712782.0      -741259.5      -615006.4
      -448861.2      -429570.6      -614084.8      -698019.8      -370202.0
       184465.0       581935.0       688568.6       494845.9       164276.1
      -19783.78      -80549.12      -166683.8      -302515.8      -461756.4
      -562440.1      -481182.7      -261971.2      -155464.5      -301286.8
      -527789.9      -513276.4      -159031.4       236768.0       384394.0
       365456.5       421873.5       573567.5       586008.2       295724.7
      -154287.5      -477055.9      -437742.8      -60600.38       334959.8
       504074.2       396168.4      -17443.06      -396812.9      -225976.1
       351527.8       710659.9       559095.1       152842.6      -147873.7
      -177066.4       58294.19       296690.9       210276.6      -233003.8
      -663480.1      -654003.9      -168574.0       319261.8       433750.7
       285640.7       44181.56      -107951.6       30594.69       272799.4
       273115.8      -14438.00      -348716.5      -478616.6      -372935.9
      -207421.6      -128108.5      -127154.2      -160899.7      -160102.4
       1418.250       248869.9       327568.7       123792.9      -129789.3
      -89049.88       196803.4       379939.6       331986.9       147584.0
      -89437.00      -291544.4      -334146.9      -205740.4      -35281.44
       106619.0       227602.7       239420.9       114322.7      -53281.00
      -121392.4      -73357.91      -34990.73      -40465.25      -54905.45
      -55495.88      -57577.80      -39995.86       33593.62       76299.22
       41650.06      -39302.16      -89611.75      -67809.34       47918.31
       282282.9       478856.8       485197.7       325317.8       56386.50
      -207555.2      -334367.1      -325409.0      -295980.2      -275110.1
      -209787.6      -62587.00       105570.3       185429.9       141198.3
       74587.56       95082.06       163208.5       211807.8       225600.8
       183426.7       134246.4       81278.25      -60920.19      -220809.9
      -250588.1      -189690.4      -151131.9      -195965.5      -264171.4
      -240620.0      -159300.2      -82919.03       41488.94       206963.5
       272116.3       144185.5      -37060.59      -124813.9      -160307.1
      -193436.3      -189022.8      -96463.06       67268.94       241315.9
       399998.9       429960.9       275363.6       76194.12      -27632.06
      -82269.94      -206085.2      -328993.6      -299633.0      -145887.1
      -19171.78       5841.203      -19455.00      -78354.50      -178597.2
      -264872.2      -249270.8      -126913.4      -13158.70      -16820.09
      -86985.47      -118277.3      -99760.65      -62071.16       12942.44
       167126.4       367324.0       462597.2       383549.4       215321.9
       55794.95      -244.2500       97766.38       246178.0       310424.9
       274133.2       173832.2       35149.69      -64524.27      -81769.38
      -60857.12      -74838.00      -155039.1      -266573.6      -330525.0
      -300163.2      -214152.2      -140522.1      -105822.2      -124657.6
      -138838.2      -69527.47       45069.50       136069.0       181996.6
       152454.8       80182.56       56089.41       112948.6       182870.7
       205245.8       176485.9       91003.70       2888.793       1361.094
       58134.25       98391.84       68132.50      -52304.81      -194570.7
      -236927.7      -178846.5      -126920.9      -124049.4      -148469.2
      -158473.4      -127104.6      -98628.66      -23208.31       121670.2
       181345.9       102814.1       9766.562       8905.562       78726.59
       120854.5       83155.84      -6634.562      -60746.75      -41795.70
       32407.12       123526.2       162120.4       114067.2       76194.06
       99202.75       103695.4       43953.16      -52189.06      -151908.8
      -217150.8      -207321.0      -157058.7      -125329.6      -74062.61
       30545.75       155688.6       232395.1       217215.4       158066.0
       130392.9       139893.2       142562.6       116948.5       84414.16
       14658.00      -100776.8      -211556.1      -273099.3      -262503.1
      -210763.2      -172042.9      -142360.0      -87062.00      -42929.41
      -59255.42      -78766.44      -68519.97      -51503.99      -37009.05
      -18504.11       23817.38       90916.66       142539.8       166284.6
       189501.4       199839.9       146587.0       87399.91       73321.09
       61864.88       49125.06       46838.20       55217.77       29448.25
      -64588.78      -141537.4      -165070.5      -144788.1      -66179.48
       44588.38       129897.3       151991.9       90089.22      -34890.03
      -133115.8      -170467.6      -181013.2      -136125.0      -63407.19
      -37026.91      -49873.36      -53768.04      -22046.47       27274.13
       35817.66       19393.38       31417.31       73881.22       122642.5
       104316.0       3381.719      -68614.83      -72961.81      -42829.25
       24123.44       81378.39       44956.57      -25094.68      -33896.51
      -9115.969       20314.56       59446.25       85450.81       104945.8
       136768.0       167059.4       139853.8       56750.72      -4684.469
      -46867.19      -90775.72      -81624.12      -38692.33      -29569.19
      -76285.28      -140172.8      -155843.2      -127528.7      -96176.92
      -68909.23      -56501.62      -36860.04      -2197.203       13926.87
       25375.40       43481.00       40302.19       23437.37      -13679.97
