     0.02500000      -568928.4       494543.1      -12345.00      -12345.00
      -29.99998       215.3500      -16.30000      -12345.00      -12345.00
       0.000000       12.45000      -12345.00      -12345.00      -12345.00
      -12345.00      -12345.00      -12345.00      -12345.00      -12345.00
      -12345.00      -12345.00      -12345.00      -12345.00      -12345.00
      -12345.00      -12345.00      -12345.00      -12345.00      -12345.00
      -12345.00      -31.32870      -68.47560       746.0000       0.000000
      -31.54000      -68.94500       0.000000       103500.0       0.000000
      -12345.00      -12345.00      -12345.00      -12345.00      -12345.00
      -12345.00      -12345.00      -12345.00      -12345.00      -12345.00
       50.40142       62.42225       242.1786      0.4531723      -12345.00
      -12345.00      0.4187674       0.000000       0.000000      -12345.00
      -12345.00      -12345.00      -12345.00      -12345.00      -12345.00
      -12345.00      -12345.00      -12345.00      -12345.00      -12345.00
      2008        49         8        51        20
         0         6    -12345    -12345      9815
    -12345    -12345    -12345    -12345    -12345
         1         7        13    -12345    -12345
    -12345    -12345    -12345    -12345    -12345
    -12345    -12345    -12345    -12345    -12345
    -12345    -12345    -12345    -12345    -12345
         1         1         1         1         1
LAJA    -12345          
        -12345  -12345  
-12345  -12345  -12345  
-12345  -12345  -12345  
-12345  -12345  -12345  
-12345  -12345  -12345  
-12345  -12345  BHZ     
ZL      -12345  -12345  
[...]
       463.8188       283.5537       436.0935       278.8967       451.5566
       296.5300       489.6584       337.9294       526.0261       394.7621
       572.0317       390.0126       557.0342       415.6885       582.0183
       405.4250       592.9976       439.3307       601.0583       445.6558
       643.6953       467.9559       637.7427       481.3728       663.3678
       487.4282       674.0623       518.5591       670.9116       502.3240
       684.6167       496.4548       659.6443       510.6746       718.3115
       550.7339       706.4380       538.1461       726.0356       525.0652
       690.7139       533.6016       708.9204       546.7118       727.2908
       550.2524       720.0745       530.8564       695.1770       512.9211
       705.9850       531.9598       707.4657       529.0728       727.2104
       529.4995       697.4530       528.2379       694.3577       504.5110
       680.0623       503.9653       687.5510       506.1670       709.6904
       521.7960       679.4891       490.2422       671.9189       481.7296
       660.9736       468.6648       644.6743       461.1340       634.6326
       435.8296       598.2411       417.2223       608.1853       389.6831
       569.1185       388.2384       565.5798       344.8784       516.1124
       334.8640       496.9420       280.1731       461.1812       267.4326
       438.3668       227.5928       407.7346       210.6686       392.0190
       181.9028       351.1267       133.3815       296.8183       99.42786
       271.2128       55.61780       218.0636       21.88840       209.2749
      -4.594482       177.6891      -32.85583       151.8047      -41.11203
       126.8318      -97.25456       105.8034      -89.79787       77.60046
      -143.9937       33.14349      -166.0534       18.90356      -185.9174
       15.14685      -202.8656      -23.50189      -232.5916      -40.13708
      -233.2312      -47.69952      -255.6395      -46.05261      -266.7791
      -89.52386      -283.0813      -77.99341      -277.9636      -80.62701
      -282.2482      -62.95581      -278.5801      -75.93542      -279.0780
      -90.78577      -281.4841      -68.16614      -312.5605      -131.4770
      -319.1354      -76.90057      -282.2528      -91.63116      -290.0286
      -86.94385      -297.0718      -88.08807      -320.1815      -112.0718
      -284.5902      -59.84827      -270.9337      -62.57562      -259.3206
      -45.26404      -272.3296      -50.32898      -262.8538      -63.02570
      -253.0540      -35.50403      -254.3209      -28.42413      -227.3259
      -15.39359      -239.4223      -16.95853      -211.6631       8.739105
      -190.9055       28.86749      -188.6597       31.51553      -169.1256
       45.11407      -159.8764       57.91324      -146.0608       83.44455
      -107.7305       141.6692      -64.33273       155.0598      -43.26324
       193.3978      -20.16263       199.9994      -6.693420       218.5287
       23.80762       285.9334       65.48907       286.0213       86.84650
       299.0723       86.73315       327.7448       126.6849       363.9521
       146.7981       368.4530       157.9081       377.2821       172.9043
       424.9235       215.6687       445.8638       242.5842       478.7776
       267.9005       489.6721       278.1064       511.0588       296.8840
       530.4150       301.2441       541.6259       337.7961       562.7361
       336.5735       578.9897       339.4851       567.1760       354.6167
       591.8107       375.6372       607.0840       396.5266       636.2865
       395.9480       629.1720       422.0999       661.1592       413.2673
       640.9795       434.1018       681.6293       442.7590       688.6011
       464.1937       704.8771       468.2896       692.4399       462.0293
       712.1318       488.1088       722.6057       510.6147       788.9164
       528.0507       717.2721       507.2837       740.9509       117.7188
      -1238.730      -5955.578      -16629.58      -39043.91      -71177.59
      -103305.6      -124327.3      -119885.0      -70121.09      -16932.94
      -44066.59      -140359.8      -193435.6      -154440.0      -30463.00
       160081.1       284454.9       185111.4      -94146.00      -250042.8
      -29550.88       254184.1       217211.5       126189.5       149756.7
       10661.91      -101589.5       79934.97       162948.6      -8468.359
      -80547.66      -58889.20      -54576.94       99972.06       293315.6
       225184.6      -133626.5      -392435.3      -166328.3       192399.4
       228728.8       113867.6       18936.38      -135682.2      -168866.5
      -74554.71      -2659.250       160180.5       191343.6      -29310.28
      -135699.3      -74551.39       66460.83       124425.2      -81698.44
      -230773.6      -123765.3       19611.66       85485.00       67332.45
       28648.35       43448.35       12644.28      -83989.44      -126328.8
      -68303.47       74438.38       123430.5       84241.98       52698.25
      -69506.39      -114341.2      -14599.48       29183.43       24362.82
      -22266.35      -61388.93       15143.31       92226.22       73940.32
      -4207.477      -24400.60       8575.797      -37032.29      -31913.19
       74226.75       127253.1       22365.59      -110952.1      -119733.8
      -143907.6      -152441.7       38786.84       172686.2       55870.11
      -66269.75      -87938.67      -31875.55       60989.30       89341.03
       29827.96      -42083.71      -20316.88       28555.28       33447.56
       94203.72       137538.3       8205.188      -89910.19      -56874.89
      -23986.63       24180.69       85408.64       55799.66      -74798.25
      -137710.8      -54788.90       29214.23       47163.18       49030.88
       11005.25      -81966.28      -125539.4      -33104.44       85648.22
       81042.92       23228.52      -44501.56      -85607.20      -17957.05
       62739.95       70244.64       51215.13       32187.03      -19611.52
      -56289.63      -11331.05       8737.438      -35854.52      -13625.91
       49458.76       13416.68      -2430.312       49194.50       26703.20
      -17614.66      -38567.23      -28570.86       53195.41       100959.5
       74156.88       17451.47      -46976.83      -70431.45      -70779.03
      -53586.37       1884.797       48024.97       58514.00       30680.58
      -2883.203      -46217.09      -73809.02      -14912.00       24772.08
      -37740.38      -56184.32      -12752.28      -22446.91      -24075.31
       14724.19      -6493.250      -59381.85      -47067.36       17214.25
       30650.67       16701.17       19715.16      -2625.191       5397.254
       24643.94      -14392.92      -29392.96       11014.59       29548.07
       28372.05       46420.77       33441.30      -10371.58      -20169.68
       12719.46       12830.29      -29025.41      -31097.49       15564.42
       46448.00       53662.50       79083.61       61275.45      -9445.797
      -43107.42      -60184.09      -29948.28       50404.05       45122.81
      -10067.64      -11295.78      -42547.19      -99249.79      -56449.12
       2903.619      -13700.23      -1314.979       9389.062      -33849.27
      -47710.51      -27661.64      -347.9375       54658.41       76025.13
       8128.125      -27062.36       56188.84       116045.1       71467.43
       38994.03       24231.17      -38406.08      -60718.33      -53067.33
      -57292.98      -19970.02      -21921.02      -58767.85       7336.605
       47012.48      -36176.87      -49079.69      -8341.531      -33709.25
      -20438.55       53457.06       84759.94       29558.88      -13858.41
       17402.22       41098.88       19624.12      -16851.66      -31234.92
      -17055.70       11521.94       79763.25       119347.5       14530.31
      -109914.0      -81488.55      -9895.875      -18696.45      -38951.95
       4075.422       35126.23      -17085.36      -39351.08       8368.164
      -7122.781      -19870.20       38291.05       59631.80       34844.99
      -2002.516      -35709.03      -55652.56      -70802.20      -13708.53
       73255.87       46998.88       18940.52       48578.34       9965.738
      -16106.18       2781.727      -28322.32      -37174.87       22096.63
       30037.87       7758.609      -10647.47      -72765.23      -57374.37
       43341.16       96257.33       79451.59       7747.312      -59789.42
      -64501.37      -6674.082       34127.61      -3288.109      -46577.69
      -9928.242       37833.59       28522.15       8265.820      -15904.06
      -20720.64      -5896.531      -42206.13      -29142.89       74667.42
       69951.73      -54525.66      -86006.06       2251.516       37776.52
       4282.172       23980.52       27712.07      -17810.91      -34258.42
      -43261.31      -18918.55       27925.30       32006.06       22563.91
       38954.79       51206.38      -29646.39      -81307.36      -25182.36
       12355.30       36140.33       46816.14       25302.34       8461.158
       349.1191       1879.516       6190.678      -3001.160      -12805.58
      -19842.07      -28458.89       1964.906       23680.73       3237.832
      -2230.479       1895.980      -17799.30      -21709.84      -395.3203
       7039.680       27896.64       32635.48      -26040.77      -50364.38
      -7292.410      -140.1953      -43552.73      -42601.86       24133.89
       40927.77      -20363.03      -16129.22       17859.61      -3675.624
      -8028.406       23197.66       38443.17       28068.34       34070.26
       30740.45      -27684.77      -55479.00       10716.41       51434.18
      -4261.240      -10095.03       30401.95       2400.195      -23904.23
      -17424.61      -14611.77       2067.492       5913.713      -3038.070
       10458.28       15323.87      -17352.62      -54545.30      -58540.41
      -42076.38      -11274.64       46973.93       55382.99       2049.980
      -16419.50       6122.078       11258.27       29638.42       71524.80
       46207.66      -18882.45      -6074.004       20160.95      -32331.84
      -60567.11      -32615.09      -19155.80      -14147.10      -7270.887
       22635.13       8893.734      -40573.91       23585.69       75625.19
      -2219.297      -29926.30       18484.51       9336.461      -41440.17
      -41082.28       7248.104       20118.27      -20837.58      -10499.31
       43486.66       40453.82       23929.88       35798.72       33052.56
       4149.797      -26717.77      -26379.14       12236.12       45488.48
       15155.03      -40069.09      -47037.49      -9209.438       20004.89
       25260.96      -13544.12      -65225.98      -44768.41      -20105.44
      -68023.25      -88016.83      -11414.79       37347.16      -11223.51
      -38261.54      -10727.54      -2548.016      -16524.40      -37993.00
      -33766.69       53002.81       165038.1       194269.8       109395.7
       9440.979      -6044.189       839.8965      -11313.83       25681.40
       53342.97      -52860.81      -175113.0      -149871.2      -95273.53
      -61820.81       45946.42       100682.6       38440.38      -7198.562
      -82591.41      -150642.6      -14577.00       132818.3       53485.41
      -40483.25      -10768.36       46679.73       60908.62      -8951.938
      -122538.5      -208715.6      -235975.7      -207861.2      -141725.6
      -33647.05       25908.30      -8656.375      -48308.41      -68307.75
      -92664.62      -134983.2      -140972.3      -35644.66       101025.2
       126079.6       63269.38       74348.38       176159.1       245070.4
       262453.0       274234.1       262429.5       194255.2       6895.375
      -206199.2      -155437.7       79752.94       85442.78      -121264.3
      -167395.8      -81998.84      -145844.1      -146640.9       103608.9
       225261.4       144806.9       97539.12       135162.6       264657.4
       274129.8       135277.9       128044.9       81484.81      -148236.7
      -259805.5      -213682.1      -128035.3      -27867.47       47532.56
       139588.7       229855.4       178529.5       7927.188      -188546.1
      -395471.8      -460329.1      -333878.1      -124558.0       232092.8
       494543.1       302159.1       80680.47       115897.3      -96376.25
      -503321.1      -470325.3      -157288.2      -48410.00       51260.00
       302984.0       475289.3       281138.7      -126036.9      -197306.5
      -10291.34       34472.50       91378.38       263810.6       227676.4
      -30870.69      -201375.0      -175160.6      -17200.62       165699.6
       147814.1      -101157.8      -309799.1      -371459.2      -255546.0
       58708.12       401365.0       446776.7       55419.25      -395596.1
      -568928.4      -529362.6      -265832.6       66676.16       115686.7
       71907.88       185471.1       303568.1       337753.8       266198.4
       145651.1       80880.66      -39892.19      -200310.2      -49872.53
       214092.0       127127.9      -33481.62      -65284.59      -87971.34
      -84161.36      -64629.09       43413.06       128312.9       76568.33
       36199.69      -32989.69      -163988.8      -286259.4      -284004.3
      -114556.6      -27091.91      -4632.188       149106.8       266436.7
       161333.9       38342.66       119762.9       134126.3      -70220.66
      -185706.1      -129784.9      -57774.58      -11395.34       56081.95
       77403.44      -40413.41      -165070.7      -132128.6      -18516.68
       247.0938       46706.75       241276.9       276824.4       95683.42
      -59457.94      -169876.2      -214694.6      -104666.9       150716.6
       365342.4       306188.8       80935.94      -62839.31      -148168.2
      -163719.7       44110.00       328376.3       345455.1       121810.5
      -72410.81      -160492.8      -184104.7      -163573.6      -106683.1
      -68566.94      -100204.8      -140281.0      -98339.38      -23860.05
      -22609.18      -37423.73      -19638.50      -45150.98      -59663.75
       42166.31       239240.6       352335.0       224396.5       15746.75
      -95089.12      -181129.7      -243506.7      -199585.7      -88157.77
       24047.41       111210.4       140897.8       122959.8       147600.6
       120268.9      -104328.0      -321882.6      -294443.6      -95248.28
       15101.29       1543.031       33574.80       5517.812      -87816.16
      -48482.20       61824.36       99116.84       18096.14      -52652.91
      -12478.91       103469.4       261183.3       300837.9       135030.4
      -12539.61      -20860.06      -68686.12      -150984.1      -139133.4
      -75226.63       13692.16       76994.11       27153.03      -58263.97
      -112536.8      -218840.8      -271661.3      -190735.8      -119049.0
      -5475.312       151857.0       181590.9       119474.3       55709.42
       3641.160      -4075.367       21517.55       51546.69       100904.5
       165849.9       185003.1       108702.7       45234.31       111580.0
       150672.1       55978.38      -52442.75      -147095.2      -220893.2
      -232182.0      -160313.0      -10728.99       60685.48       6283.016
       11346.93       53652.39       7396.859      -58872.56      -101274.9
      -83587.02       24074.03       73468.93       12391.57       7227.172
       64043.66       48872.77       13037.91      -8500.188      -70192.73
      -82668.48       15139.38       114951.1       109362.3       44605.00
      -17220.64      -86574.75      -80149.19      -31890.77      -63964.12
      -57081.02       18598.25       13571.76      -2729.594       65420.00
       146201.2       202874.4       191090.1       103833.8      -14390.56
      -169102.6      -248370.2      -149462.5      -6050.328       55664.09
       86971.34       95511.18       57632.77       682.3438      -72046.11
      -87412.94      -50496.19      -34298.06       14922.62       83458.11
       59898.97      -79787.31      -195978.8      -165543.7      -73607.64
      -31049.41       26313.41       94589.53       72012.81       42200.97
       66877.25       104102.6       126497.7       107199.8       59318.37
      -10516.78      -81795.41      -99555.34      -49725.12       15397.73
       42519.14       33777.45       10131.00       28255.19       100791.4
       124585.5       65547.66      -45367.69      -156410.2      -184067.0
      -102696.6       7975.059       32310.26      -5848.594      -21834.59
      -19964.97      -40292.75      -54365.48      -25137.53      -29557.73
      -47947.02       26244.12       109190.0       132926.7       130578.8
       82549.50       31263.36       30360.00       13204.91      -51293.16
      -78851.69      -56233.80      -45944.59      -60763.30      -68982.58
      -62166.41      -65084.97      -61324.65      -27873.99      -14891.83
      -23935.21       18497.69       79766.95       98999.09       63632.69
       28901.97       49417.31       31418.03      -34868.38      -51372.12
      -39060.90      -28188.03       19560.00       77259.83       95867.78
       65644.70       5310.086      -35357.75      -53985.58      -28159.28
       56625.16       99328.42       65451.59       12658.53      -32306.50
      -67577.00      -103461.9      -81952.21      -20343.95      -20138.94
      -17387.46       29118.22       23414.44      -26667.29      -38944.02
      -21833.16       15096.47       63966.41       48665.52      -17025.78
      -67023.62      -102203.7      -101522.8      -65463.14      -13484.56
       31877.97       53186.94       54179.49       12486.90      -5910.930
       11652.27      -8828.144      -6983.605       27620.31      -907.2266
      -35447.95      -7990.834      -11654.55      -7958.531       53784.11
       51009.29       6854.332      -14291.80      -16431.26       5882.648
       16760.70       39336.44       67982.78       43272.82      -12988.04
      -24098.40      -13271.09      -49773.22      -72198.34      -54437.33
      -44400.62      -61369.81      -60107.75      -5251.281       46568.91
       83043.25       79019.92       33029.13       23113.02       18833.75
       19482.27       36189.25       15202.92      -20304.02      -46717.50
      -41695.09      -23290.28      -29869.59      -9834.707       21682.38
