     0.02500000      -1233472.       1071958.      -12345.00      -12345.00
      -29.99998       215.3500      -16.30000      -12345.00      -12345.00
       0.000000       12.45000      -12345.00      -12345.00      -12345.00
      -12345.00      -12345.00      -12345.00      -12345.00      -12345.00
      -12345.00      -12345.00      -12345.00      -12345.00      -12345.00
      -12345.00      -12345.00      -12345.00      -12345.00      -12345.00
      -12345.00      -31.32870      -68.47560       746.0000       0.000000
      -31.54000      -68.94500       0.000000       103500.0       0.000000
      -12345.00      -12345.00      -12345.00      -12345.00      -12345.00
      -12345.00      -12345.00      -12345.00      -12345.00      -12345.00
       50.40142       62.42225       242.1786      0.4531723      -12345.00
      -12345.00      -1.211386       0.000000       90.00000      -12345.00
      -12345.00      -12345.00      -12345.00      -12345.00      -12345.00
      -12345.00      -12345.00      -12345.00      -12345.00      -12345.00
      2008        49         8        51        20
         0         6    -12345    -12345      9815
    -12345    -12345    -12345    -12345    -12345
         1         7        13    -12345    -12345
    -12345    -12345    -12345    -12345    -12345
    -12345    -12345    -12345    -12345    -12345
    -12345    -12345    -12345    -12345    -12345
         1         1         1         1         1
LAJA    -12345          
        -12345  -12345  
-12345  -12345  -12345  
-12345  -12345  -12345  
-12345  -12345  -12345  
-12345  -12345  -12345  
-12345  -12345  BHN     
ZL      -12345  -12345  
[...]
      -551.0564      -442.3125      -518.3418      -386.9470      -520.3152
      -433.2419      -549.6343      -437.0895      -525.8524      -405.2196
      -479.2295      -362.1573      -472.0657      -366.9779      -482.1707
      -426.1404      -560.2969      -440.6309      -502.5272      -380.9366
      -454.2512      -337.9966      -436.3129      -341.5802      -441.2023
      -349.2034      -420.8010      -315.5737      -414.9506      -327.5784
      -412.5226      -332.4152      -433.1947      -337.2769      -428.0797
      -331.7158      -381.5016      -267.8943      -345.2059      -247.9017
      -330.0527      -278.9890      -372.5063      -282.6870      -381.2318
      -305.8179      -342.4962      -244.4695      -307.1913      -195.0063
      -270.2228      -203.6838      -275.4548      -183.2208      -253.1459
      -187.9146      -244.8342      -152.1306      -221.5309      -151.7062
      -197.6554      -127.0534      -211.5671      -118.5705      -142.3531
      -53.34937      -97.82780       5.353920      -45.13202       28.02842
      -20.97854       25.48463      -54.75518       9.566513      -29.67438
       43.99554       9.968689       120.3314       96.42657       167.8158
       130.4315       208.1464       151.9681       201.7787       156.4270
       231.4135       197.2545       252.4907       218.6848       278.4442
       221.3329       254.1748       228.2239       316.4171       285.9147
       343.2534       323.5430       370.3716       317.0465       350.2551
       297.8066       329.6422       294.5076       360.9303       352.4854
       396.2932       369.7468       430.3804       399.2571       425.3907
       387.1766       431.3594       399.3333       437.4763       428.8193
       470.4647       448.1763       484.8525       463.8867       492.7822
       457.7949       499.0522       506.1575       539.2827       531.8140
       582.9207       574.2424       598.1379       568.4087       555.5845
       521.4678       563.5591       553.0576       553.3860       564.4561
       600.3757       568.3096       580.5840       586.1638       595.4995
       574.2473       603.7375       620.9128       625.9321       613.3025
       622.9226       595.5782       572.3354       566.4773       587.6285
       591.4050       576.3263       571.1920       590.5316       593.3440
       561.4614       536.2056       528.1193       507.9492       488.1837
       518.3768       539.0090       549.2112       543.0398       548.3517
       528.3000       510.8186       463.4615       455.9061       455.4033
       460.9733       450.9757       482.3828       478.6974       480.2877
       458.1921       464.2993       424.2932       454.0238       441.3488
       432.6328       398.2947       402.5645       361.1539       369.2765
       328.9502       350.4764       334.5085       373.8608       368.8684
       381.0374       335.2821       349.8260       309.2737       306.6624
       261.4236       298.7158       278.5997       300.3412       267.9788
       300.1530       241.2342       267.8546       241.1613       253.8634
       186.8937       228.9141       194.4157       224.5120       181.7656
       240.5522       197.9130       215.3003       161.5909       185.3049
       114.3401       144.3392       102.8271       154.1617       111.5769
       162.2949       123.5489       159.2946       83.55444       130.3299
       83.13519       140.4385       88.69910       130.1611       72.82904
       127.8720       62.66693       120.7242       59.47363       118.4224
       68.62634       145.6766       96.22174       164.9808       119.0150
       201.5003       109.9852       144.5211       87.03473       148.8785
       72.23218       178.3914       137.2438       193.0472       135.8968
       220.8810       121.7565       156.8198       95.45258       184.9708
       97.84778       180.3981       124.1923       208.4550       125.0835
       195.6281       94.64270       182.0057       104.1914       186.3444
       123.2597       223.9709       140.2138       226.0461       111.4774
       190.8051       107.1044       178.5565       89.51312       207.5283
       130.9350       205.0131       115.9930       218.3685       104.9966
       162.4527       58.50433       153.0503       57.16873       164.7398
       54.94958       135.4206       43.94803       152.1188       40.67029
       91.78394      -242.8711      -768.3008      -2347.496      -5041.562
      -8716.496      -11225.86      -11429.05      -6579.732       3539.348
       11203.99       4785.109      -14113.98      -31621.82      -37374.07
      -30106.59      -10242.26       8114.293       602.1250      -34038.08
      -53721.96      -40284.79      -25205.32      -10882.88       35708.98
       89626.80       83346.47       26595.16      -12564.11      -14827.71
       12255.31       40825.50       31780.16       30134.16       83329.67
       100899.7       6020.625      -119702.6      -154932.7      -116296.0
      -45024.02       52550.33       74514.00      -8306.469      -54429.64
      -39912.20      -47805.24      -19332.66       75490.31       120660.0
       111441.2       108698.5       85828.83       21612.25      -81559.69
      -148316.7      -59145.22       103815.0       175511.8       113808.3
      -43323.44      -167969.2      -169374.8      -92438.11       37735.44
       130009.2       87689.77       8678.688      -42253.45      -54495.99
      -22505.28      -21474.04      -39356.67      -44385.91      -54975.62
      -56090.34      -41180.57      -11632.46       23295.55       10815.92
      -29995.39      -41684.90      -18251.28       40610.97       87053.94
       97442.98       76189.98      -2435.734      -35628.68       6491.766
       8587.227      -7487.031       22071.56       57863.19       62538.54
       24049.48      -30364.53      -40418.41      -9335.633       10554.04
       6945.141       1432.641       18952.84       57372.73       62946.53
      -11589.22      -102500.6      -148456.0      -143440.5      -67258.44
       25842.51       43631.16      -8361.758      -48139.89      -17619.61
       31176.92       62444.81       98522.19       93464.15       23473.08
      -42310.47      -82399.44      -92445.03      -49679.25       15401.75
       64970.58       78552.15       31052.49      -30274.01      -27516.89
       30174.12       82394.09       92477.94       48471.00      -20134.61
      -76990.92      -84877.95      -39302.77       4041.031       9091.637
      -6425.414      -24268.73      -24095.04       18956.66       83706.84
       85344.86      -11283.91      -108820.2      -100636.2      -16236.30
       44405.41       26623.80      -45666.09      -111978.0      -115725.6
      -55084.00       28164.12       91809.88       121170.3       112618.5
       90972.72       71673.29       34425.57      -1566.273      -10523.62
      -12836.77      -8625.660       398.5391      -16823.80      -30523.02
       7444.469       44460.03       40087.73       12479.62      -19904.55
      -36840.58      -20210.50      -135.8438      -17941.94      -48690.62
      -56535.92      -46324.94      -18696.80       15615.73       41945.78
       39768.12       7137.547      -30981.38      -53177.64      -55323.59
      -44457.59      -27698.86      -12197.90      -17678.64      -17466.03
       20064.44       47114.23       32105.16       22439.75       41079.66
       63954.59       63918.91       46735.63       14591.22      -26378.97
      -34757.20       10407.41       56514.12       44830.96      -11327.25
      -60872.97      -88934.56      -69854.80      -15735.89       14854.56
       17563.90      -7844.453      -53040.60      -55401.27      -4236.312
       50719.62       53014.14       19002.08      -5914.406      -33029.80
      -72149.47      -88354.58      -66969.03      -32151.40      -8912.914
       27283.44       74197.50       86211.19       85736.81       98777.22
       108748.1       103486.7       60423.36       22079.53       11409.99
      -11785.77      -35429.69      -25865.94      -2758.629       1813.266
      -30328.34      -79903.75      -99908.59      -81846.30      -65567.38
      -42376.88      -4439.602      -557.4062      -31108.18      -27632.56
       5894.605       12110.95      -21072.91      -55977.44      -47314.80
       3609.625       53058.06       80794.77       69648.36       44518.50
       54007.16       86155.94       91937.62       55384.04       8728.162
      -8872.422       7633.570       32342.43       15570.12      -42437.50
      -90371.48      -89857.29      -51563.37      -11464.99      -17142.38
      -55177.56      -75737.56      -71919.53      -58243.25      -36693.26
      -5060.469       28859.59       54013.42       68919.51       47955.27
       13788.68       23829.00       52052.62       58354.38       49436.02
       69.87500      -43002.08      -25137.99       1687.961       21478.16
       41254.83       22544.34      -30898.97      -79465.64      -78328.13
      -38424.20      -7964.191      -8509.006      -15025.35       3171.281
       27228.50       27137.47       11758.80       6128.031       36699.89
       53382.66       31225.41       27863.51       28766.83      -1625.480
      -16921.61      -7975.107       3467.864       4131.863      -13940.29
      -8808.391       40312.48       50732.80       15062.58       3257.953
      -8917.469      -48424.11      -56593.37      -19905.71       21224.16
       4801.094      -76150.59      -147988.1      -171698.2      -149558.9
      -77774.25       27358.69       117331.9       119136.1       62521.33
       22332.77       16824.27       37897.45       67950.84       101108.3
       110480.1       63010.27       4044.766      -28137.68      -16408.98
       15662.16       24569.14       28641.26       20833.89      -22003.41
      -52918.50      -67973.81      -70742.75      -55030.84      -46062.64
      -45536.01      -36661.31      -18229.16      -5882.016      -18952.89
      -38608.97      -47408.70      -33433.34       6122.844       56577.44
       65255.10       11854.64      -40090.30      -36199.97       11944.52
       61642.66       77406.59       79491.55       82483.33       64001.16
       24530.72       10019.89       29558.94       40226.04       21998.86
       4288.861      -6102.918      -4665.621       6020.324       4061.328
      -29024.84      -73174.34      -112346.0      -142453.5      -122196.3
      -53381.45      -11036.84      -15377.67      -27238.73      -24676.69
      -26701.46      -17744.88       10823.19       26546.58       32999.41
       56858.66       85305.28       95165.48       77133.28       59523.70
       62984.05       76624.73       61716.82       9921.312      -40068.03
      -69566.00      -78404.30      -43616.62       11659.76       24625.57
      -17366.45      -56739.78      -60589.00      -57304.00      -62714.41
      -54051.00      -41000.02      -24358.65       1962.930       24701.20
       31612.68       27983.66       31429.67       55501.14       61494.04
       39040.72       38597.16       60611.22       65358.38       56821.36
       31105.48      -14702.58      -42642.88      -28000.11       822.4844
       18043.62       3518.516      -38348.16      -70786.66      -72044.12
      -61114.41      -44873.79      -22247.86      -13629.84      -49603.08
      -88351.95      -58173.37       22128.45       75738.62       85879.38
       73315.38       49606.16       25338.05       32818.81       61663.18
       57591.57       10480.73      -37475.02      -61488.67      -53671.39
      -45159.53      -68524.94      -100235.3      -117804.0      -130193.3
      -113366.6      -25758.44       112731.9       210764.8       212888.5
       131061.9       33211.46      -6435.688       44936.25       150893.8
       266138.9       346046.1       339497.2       285904.8       275693.1
       292909.4       288471.0       260809.3       219387.1       148753.4
       21918.12      -180115.0      -450651.0      -731505.8      -902155.5
      -873023.8      -630144.0      -297194.1      -121730.9      -225859.5
      -539812.2      -863673.2      -850049.9      -404306.6       179365.8
       664577.8       963854.0       918152.8       533788.6       197134.9
       180397.9       348047.0       449038.0       268487.4      -135082.5
      -452676.5      -503724.9      -284231.6       85924.88       318306.7
       247944.8       13581.62      -186173.0      -227305.3      -94218.88
       114241.5       339599.8       522049.5       623811.8       687786.1
       616061.6       226360.6      -413536.0      -971984.8      -1004914.
      -384749.5       440625.0       929131.4       874165.9       286625.2
      -620831.2      -1233472.      -983722.2      -224584.8       303590.2
       533464.2       643222.0       528393.3       186201.2      -184145.0
      -516012.8      -877806.5      -1128294.      -992957.8      -504078.7
      -7260.125       251850.8       255637.4       138299.6       145984.2
       426160.2       836199.8       1071958.       897481.1       409688.8
      -45058.38      -238004.2      -187424.9      -100798.4      -76668.81
       24119.92       115303.3      -25279.00      -346892.0      -694677.8
      -840820.5      -538466.4       60119.50       530505.4       592033.5
       250021.3      -202168.6      -425563.4      -375916.6      -209635.0
       618.5000       174630.9       197173.4       147349.1       197212.6
       336465.2       354094.3       216165.9       118767.7       105921.7
       60703.47      -66263.25      -195127.5      -237189.4      -173060.1
      -18477.81       165217.1       270778.6       207195.7       81492.16
       35172.81      -14099.75      -165133.6      -351950.9      -463964.0
      -405837.2      -145305.2       164590.2       292721.1       173684.2
      -70356.38      -217385.8      -168153.3      -35899.84       84875.06
       218468.1       301498.9       215108.6      -29234.81      -257809.9
      -300065.8      -238189.9      -190110.9      -98384.31       14398.89
       57267.88       67996.75       131178.6       285332.6       510301.4
       669801.4       571348.8       161757.8      -364700.5      -747477.2
      -825982.1      -600234.2      -255488.2      -7424.266       61703.88
       23225.28      -14029.98      -8859.188       120031.4       370018.5
       538650.2       527078.8       408409.3       236495.6       40446.00
      -156746.4      -298565.1      -304730.2      -171100.9      -18761.31
       80705.56       133382.3       59255.00      -145802.3      -329168.6
      -355465.4      -204607.2      -15195.34       116447.3       228585.1
       294416.7       229290.0       47882.72      -88104.75      -64824.30
       44424.22       143404.5       159222.9       90477.64       17859.03
      -47199.31      -127787.5      -191299.9      -198111.0      -179445.9
      -188262.4      -225875.8      -260444.5      -218071.2      -107795.9
      -54923.12      -46254.05       12689.59       103333.4       223830.1
       344065.8       393224.2       397938.9       334763.1       165041.3
       4454.484      -50071.18      -23162.34       56396.25       150081.7
       176910.9       111944.0      -37709.88      -224379.9      -285384.8
      -179889.7      -72126.31      -48068.88      -97383.31      -216442.9
      -313217.6      -307890.4      -257327.6      -180787.6      -86044.70
      -17665.09       39762.50       82349.81       133877.8       244841.9
       344715.5       361610.1       298218.7       179521.6       56987.16
      -53444.12      -137343.9      -177893.4      -222416.1      -271178.9
      -234924.9      -75100.94       113180.7       194571.6       172423.4
       158309.2       174164.8       179180.5       147686.3       48149.72
      -104443.6      -248017.3      -329581.1      -315646.8      -209356.2
      -35449.44       156712.2       273166.8       276679.2       215163.8
       147538.5       92153.28       11932.50      -99192.25      -184340.5
      -210777.8      -196671.2      -153680.2      -76750.45      -32216.88
      -80805.09      -115571.1      -57871.53       32096.75       114482.1
       161694.8       169243.2       151753.8       97633.26       37514.00
       8450.766      -11052.19      -44306.36      -65547.86      -34618.46
       25235.88       35448.88      -19138.59      -52250.45      -25087.41
       12852.70       52262.66       116722.3       145217.1       64584.16
      -93437.56      -231282.5      -263835.5      -221513.0      -192991.1
      -164233.6      -117898.7      -74738.02      -10849.38       90610.25
       194019.3       259274.1       297753.8       341663.2       372542.5
       316066.4       171455.5       44053.22      -37012.75      -122221.2
      -207826.6      -243511.2      -214176.5      -159431.7      -129876.3
      -125489.8      -117254.2      -118174.0      -123900.5      -90803.48
      -16298.22       81561.38       129471.0       69874.01       382.4102
      -1076.648       16704.61       30677.53       49656.64       43991.62
       10115.55       5059.688       58187.94       130083.3       166815.6
       159438.4       131646.8       108790.9       95724.11       68523.07
       12019.06      -25291.50      -1807.410       5668.500      -68542.41
      -149930.0      -161628.1      -100291.7       9194.031       111363.6
       140750.5       110062.5       60436.19      -1488.625      -66145.06
      -134931.3      -195187.3      -204636.4      -159101.1      -88047.36
      -45771.84      -72997.69      -130187.8      -156272.5      -127976.1
      -48523.31       40682.62       91276.81       90821.06       64159.77
       23102.25       9084.250       67991.44       140391.8       166021.8
       150413.6       125735.9       121656.8       110386.9       92352.56
       122403.8       157675.6       104054.6      -14939.47      -117316.3
      -167774.0      -171149.2      -132741.5      -94030.44      -98222.00
      -106169.6      -85831.47      -63551.64      -31751.16       8560.594
      -11083.12      -88128.75      -124075.4      -98382.88      -40178.08
       17597.19       42409.27       54724.48       65438.94       80811.56
