     0.02500000      -557947.6       494541.2      -12345.00      -12345.00
      -30.01006       215.1149      -16.86000      -12345.00      -12345.00
       0.000000       12.27000      -12345.00      -12345.00      -12345.00
      -12345.00      -12345.00      -12345.00      -12345.00      -12345.00
      -12345.00      -12345.00      -12345.00      -12345.00      -12345.00
      -12345.00      -12345.00      -12345.00      -12345.00      -12345.00
      -12345.00      -31.80160      -69.32410       2472.000       0.000000
      -31.54000      -68.94500       0.000000       103500.0       0.000000
      -12345.00      -12345.00      -12345.00      -12345.00      -12345.00
      -12345.00      -12345.00      -12345.00      -12345.00      -12345.00
       46.19243       231.0024       51.20048      0.4153329      -12345.00
      -12345.00      0.1880329       0.000000       0.000000      -12345.00
      -12345.00      -12345.00      -12345.00      -12345.00      -12345.00
      -12345.00      -12345.00      -12345.00      -12345.00      -12345.00
      2008        49         8        51        20
       560         6    -12345    -12345      9806
    -12345    -12345    -12345    -12345    -12345
         1         7        13    -12345    -12345
    -12345    -12345    -12345    -12345    -12345
    -12345    -12345    -12345    -12345    -12345
    -12345    -12345    -12345    -12345    -12345
         1         1         1         1         1
LEON    -12345          
        -12345  -12345  
-12345  -12345  -12345  
-12345  -12345  -12345  
-12345  -12345  -12345  
-12345  -12345  -12345  
-12345  -12345  BHZ     
ZL      -12345  -12345  
[...]
       45.22206       38.37296       71.17586       64.00037       94.71823
       87.80835       119.6025       110.3381       141.1606       131.3723
       162.1824       152.5065       182.9130       175.1317       206.8464
       194.8483       226.9105       214.9783       244.7992       233.2168
       263.0222       249.8228       279.6681       262.7359       291.0927
       273.3010       298.0756       283.1683       310.1572       288.3420
       314.0653       294.0263       319.6859       301.7217       326.6925
       302.3286       326.2438       305.6133       331.5477       307.9875
       329.1435       306.4127       329.9802       302.5375       324.9927
       297.1859       319.3728       295.7322       316.7628       289.9862
       316.4336       285.5634       304.5720       277.6737       300.0372
       272.0770       294.5554       264.7075       288.7831       260.7183
       282.7000       250.8491       270.1127       239.1857       261.5421
       227.6233       247.9498       217.5869       237.9963       204.3987
       221.8035       186.7437       204.3022       172.2028       190.5787
       155.5793       174.4894       141.7810       158.9065       122.3115
       140.2359       105.8602       126.6497       88.76801       104.4097
       70.22186       86.13126       47.44016       67.59155       32.35609
       48.58527       11.73428       29.06838      -10.57713       6.854362
      -28.09354      -8.041641      -46.95332      -28.09555      -62.07602
      -43.72528      -81.05594      -58.97327      -94.54230      -74.16776
      -109.7414      -85.43106      -119.6670      -98.79236      -133.1318
      -111.4288      -146.0013      -120.5995      -153.6554      -129.4536
      -162.9278      -138.3497      -170.1424      -144.3499      -176.2537
      -149.7053      -179.2565      -154.4135      -182.4247      -153.0559
      -182.2347      -153.3033      -179.4166      -152.8682      -179.7040
      -150.0179      -175.1681      -143.4548      -170.8337      -141.8334
      -164.0026      -134.0052      -160.0106      -132.2803      -159.2244
      -133.3392      -159.9595      -134.6617      -162.4185      -138.9878
      -168.3204      -147.8244      -175.3841      -153.7536      -185.0953
      -170.6187      -201.1722      -181.5422      -211.5718      -194.6211
      -228.3776      -211.6010      -245.6322      -230.1708      -262.5807
      -243.9993      -273.7889      -256.3333      -286.7866      -270.1937
      -295.2774      -276.2157      -303.9520      -284.1973      -310.7734
      -291.2374      -316.0260      -299.7557      -325.8217      -303.0917
      -326.0150      -304.3881      -328.3036      -308.8893      -330.8330
      -307.5913      -331.0865      -308.6486      -329.4752      -305.6982
      -325.4670      -298.2322      -319.3175      -292.5685      -312.3545
      -286.8480      -307.7109      -284.2046      -302.2505      -270.8617
      -293.2352      -266.1241      -284.3463      -257.3773      -275.9565
      -247.8960      -267.2935      -239.7395      -256.8454      -226.8024
      -245.5857      -216.2778      -230.5001      -196.6934      -211.1122
      -178.7618      -192.6287      -159.3101      -172.5612      -137.8035
      -151.6889      -120.7945      -133.0383      -99.18323      -113.2503
      -84.39517      -94.42908      -59.03944      -74.97441      -47.47823
      -61.56308      -34.49845      -47.32573      -21.27563      -37.47304
      -14.06058      -28.73302      -3.643478      -21.11626       1.389071
      -13.13146       8.937841      -8.502699       12.51471      -2.350746
       17.01248       1.330173       19.37352       2.078773       22.79103
       8.014458       26.08360       9.625038       29.61407       16.30539
       37.13322       21.24788       40.12711       23.11298       42.21529
       24.26255       42.98391       27.82461       43.48381       22.64959
       42.63483       26.97209       43.14384       25.21584       42.23335
       27.41203       43.10410       25.17155       43.55482       28.49612
       47.17822       33.71211       53.33160       37.34077       57.19458
       43.82280       64.19180       50.19173       67.55133       52.81642
       72.76398       59.66077       79.54669       66.63464       84.25439
       69.33130       89.94528       77.38257       93.49411       78.16415
       94.36737       80.56940       98.35843       87.90823       102.6512
       85.88116       102.5901       90.97855       104.7705       90.40195
       105.4369       91.44565       106.2706       94.02966       112.1548
       100.7842       117.8835       106.5507       123.1264       109.3610
       129.4281       119.4088       136.3868       120.3758       137.8125
       126.7949       146.2508       130.6295       148.0551       136.6161
       153.4886       139.7386       158.0649       147.2084       163.9255
       153.5938       169.2195       157.0364       172.0448       161.4868
       177.0817       168.9862       182.7942       174.3675       189.9952
       182.7092       199.1909       191.7488       205.8386       195.8729
       207.6274       199.8279       211.1601       197.1958       210.3886
       203.3176       215.0120       201.1029       209.2833       198.4977
       209.1068       197.1207       205.6318       190.8787       199.9280
       187.7918       196.4073       181.8774       191.7929       176.6741
       182.5381       163.7238       166.8849       150.3012       157.1113
       136.8823       138.6797       121.2827       125.5900       105.5030
       107.7339       86.56082       88.68544       67.16435       69.89824
       49.25975       50.33936       28.99768       32.21878       11.51975
       12.50817      -9.694412      -7.473335      -26.92937      -30.35750
      -52.06828      -53.68910      -73.70761      -73.93567      -93.16687
      -89.53729      -105.8949      -106.2673      -121.3021      -117.2952
      -136.7633      -134.2212      -147.4697      -146.6481      -161.1143
      -152.6350      -163.5937      -156.1989      -168.5795      -164.4630
      -173.1672      -164.3086      -175.5999      -167.8215      -174.6636
      -167.5033      -178.4290      -171.0126      -181.1855      -174.2769
      -181.4297      -174.6001      -185.9666      -176.6023      -187.5920
      -182.8602      -192.9576      -186.7673      -196.3014      -187.3255
      -197.5828      -194.4193      -203.3303      -193.9335      -204.3101
      -196.9685      -205.4914      -199.0344      -207.0413      -198.5779
      -209.1141      -200.3442      -206.1957      -198.5945      -209.6252
      -199.8865      -206.1326      -200.1358      -208.1401      -200.5103
      -202.9342      -190.3459      -194.0895      -186.5771      -190.4708
      -178.9550      -185.4827      -178.2555      -181.1560      -170.5267
      -175.0075      -166.8990      -172.5460      -161.0643      -168.4978
      -158.8033      -166.4208      -160.1910      -167.4637      -157.4331
      -164.6353      -155.4022      -163.9650      -160.6150      -166.8896
      -155.1883      -166.2931      -158.5798      -161.9045      -152.5643
      -160.2550      -149.3979      -155.5052      -148.3264      -156.3604
      -143.1632      -149.1844      -139.6670      -145.8722      -135.1067
      -142.4087      -131.6754      -139.5661      -131.3257      -137.4154
      -126.6425      -136.1359      -129.6279      -138.6677      -133.2903
      -145.9286      -137.1167      -144.8804      -138.2208      -148.1569
      -143.1599      -153.5948      -148.2406      -161.4628      -156.9761
      -167.9883      -162.9288      -173.9905      -169.8922      -182.8144
      -173.7788      -183.5667      -178.5051      -187.3474      -177.1815
      -187.6445      -177.7728      -183.1142      -175.0923      -181.8301
      -169.0504      -175.8859      -166.3774      -171.3190      -161.5632
      -161.5620      -146.7460      -154.0449      -145.3333      -145.7499
      -133.7117      -135.9643      -123.7066      -122.3517      -107.7613
      -107.1553      -93.61588      -93.38181      -72.52356      -67.24203
      -49.21684      -42.06165      -22.69533      -21.66070       1.603069
       10.12137       31.35257       36.89093       58.67786       64.65790
       92.08588       99.77753       124.4742       134.4115       157.1460
       163.7584       191.0106       201.2682       224.9508       235.2507
       261.1592       273.4500       304.1940       314.4169       342.2986
       356.2461       384.0553       393.8367       421.5892       430.9926
       456.6992       467.1671       494.0627       504.0688       531.5000
       538.8124       565.1921       573.3395       599.1836       606.3539
       629.3054       634.0115       656.4648       661.7646       685.2678
       687.0427       704.9697       709.4194       731.6714       731.8315
       750.9512       753.8528       769.1497       771.3608       788.0850
       788.8376       804.3164       803.7380       817.0508       817.0601
       828.9531       829.7644       844.1145       843.2380       854.5137
       856.1125       869.4609       866.2590       877.5908       878.4448
       889.5591       888.0923       899.4639       897.6135       908.9309
       907.7188       916.8525       914.7256       921.6782       919.4802
       924.7683       922.4771       929.7625       921.3115       924.4321
       918.1875       914.4568       904.7373       905.2434       895.0161
       892.1455       881.5046       875.5227       859.7988       852.1255
       840.2214       831.1694       815.0264       810.0374       796.2605
       787.9893       771.6826       761.1924       740.2637       730.9141
       712.5552       696.3271       679.4915       673.4418       657.0852
       646.9430       634.9651       627.0995       608.7639       594.1033
       577.2860       568.5071       558.6875       552.8964       538.9441
       530.0813       515.7231       506.6874       494.2109       482.6299
       465.6074       453.2419       436.3949       425.5070       412.9917
       404.2704       390.7654       374.6843       357.5677       347.0831
       333.0039       318.9247       304.1725       286.8192       272.5144
       259.5936       238.4459       217.7518       199.8790       182.6230
       165.9483       148.9482       133.9757       114.8767       95.53729
       77.00221       56.84648       35.00874       22.47462       7.010345
      -9.690567      -19.31488      -28.49017      -45.37209      -58.80997
      -72.59216      -79.95590      -90.58435      -96.89566      -104.4974
      -107.8424      -115.3948      -116.3213      -118.3307      -114.6617
      -123.2467      -118.1465      -120.9740      -117.8716      -120.1685
      -110.6014      -112.0087      -100.7639      -99.57581      -92.46960
      -96.93268      -86.08644      -86.91179      -73.30463      -69.23608
      -51.10349      -47.17792      -34.48063      -35.78334      -26.76691
      -28.13894      -15.52717      -16.01539      -7.431941      -8.354011
      0.8995829     -0.7572403       11.80317       8.702568       19.29475
       18.81846       27.06075       23.78564       35.86125       35.40948
       51.83841       51.67484       68.06540       68.37912       85.50543
       84.34479       100.3798       96.95233       117.4937       114.0285
       130.0085       134.9730       162.5255       165.8893       189.9857
       188.8708       217.0200       220.4124       241.6281       237.6747
       269.0076       274.0883       300.9758       303.3925       332.4895
       332.7609       361.1339       359.6711       389.7910       389.5852
       413.8608       409.0483       436.9568       432.3091       456.9414
       452.3357       479.9502       473.0590       494.9893       484.6002
       512.3420       506.3418       530.2462       516.6864       544.1449
       534.9658       557.4509       537.0564       562.8918       551.7048
       573.0854       553.4069       585.0587       572.9590       595.5684
       573.6545       607.7988       593.4503       614.1777       590.3438
       630.5503       618.1301       638.4900       607.7070       647.6584
       637.2023       659.0557       621.0864       664.4058       659.8018
       675.4098       632.3589       678.9409       680.2949       692.7166
       638.7271       693.0667       708.7832       712.9901       644.5957
       717.5186       758.1311       739.5156       631.2192       732.7043
       832.1917       762.8193       557.3109       625.0032       270.8594
      -2213.133      -8990.953      -23068.95      -49350.88      -95020.50
      -170086.5      -292851.4      -462978.2      -557947.6      -373746.7
      -7320.844       156716.7       129592.1       205888.8       431888.2
       494541.2       245991.5       136983.7       105604.4      -108445.1
      -232311.1      -99920.10       55353.06      -90622.00      -200423.1
       80092.81       241003.8       1462.949      -20606.35       59601.30
      -26834.69       60554.06       104580.9       13510.53       88001.44
       221903.1       242426.8       164212.4       5566.281      -55807.89
      -69971.44      -59203.38      -145072.7      -250678.0      -43454.14
       78372.88      -97878.34      -154349.1       137330.4       384997.4
       172720.5      -141399.1      -70320.16       130047.1       71818.22
      -78725.28      -128486.0      -92543.11       40834.60       39194.22
      -82724.01      -33069.16       80745.22       11143.36      -122428.1
      -14789.54       92729.64      -57334.42      -93988.70       41771.90
       39511.59      -23223.47      -7919.573       10327.02      -13827.46
       26613.11       36673.70      -74450.21      -50251.27       85140.47
       109243.8      -5351.375      -128372.7      -111179.9      -11595.00
       60296.23       56251.53       12811.34      -18046.09      -7727.947
       30253.27      -27792.70      -98942.77      -13459.24       53841.94
      -6801.625       39810.09       119567.0       22818.99      -38062.22
       30218.02       47480.54       14924.62      -73910.97      -136916.1
      -17489.83       75390.78       2882.227      -56393.27       11335.26
       24041.66      -2851.828       56504.60       62491.27      -16948.84
      -57931.13       9243.523       46555.73       16596.49       3567.789
      -18921.12      -54016.56      -75406.14      -74510.69      -76803.55
      -74024.09      -8634.406       43901.15       28269.39       26526.64
       46923.28       56245.38       9144.523      -43058.06      -1190.109
       60608.09       74948.59       82569.22       68184.41       49198.28
       53901.18       16109.59      -10140.01       3183.059       7245.760
       11184.62      -301.0391      -29380.52      -28945.83      -18336.93
      -39455.67      -48262.83      -51028.95      -50912.02      -25206.44
      -38836.12      -64648.97      -26920.27       24793.16       42413.08
       24843.95       30151.58       32498.29       17834.07      -4516.000
      -61679.70      -54454.97       1526.727      -17309.78      -36778.55
       16213.23      -3611.062      -74560.20      -78143.30      -49221.31
       6882.324       16583.45      -5575.719       79270.84       117753.2
       55166.16       36555.38       19902.14      -3622.578       40578.84
       97110.48       70183.32       29152.95      -25791.00      -131649.4
      -101998.5       16025.77       16622.32       27260.48       29935.87
      -24103.59       19582.40       28888.44      -21927.61      -14392.17
      -10053.02       31876.39       73159.72       44056.09       12583.42
      -20010.09      -52215.97      -111011.1      -136727.7      -64345.84
       42002.77       74455.16      -2099.090       1574.965       34638.57
      -15613.30      -12926.99       31490.52       47474.41       43070.14
       34371.02       30195.01       25767.72       1010.328      -45671.72
      -78434.03      -39368.57       9644.253      -3564.195       1309.758
       33715.17       23107.03      -41291.70      -78057.34      -75419.73
      -26915.38       50500.55       30369.06       12351.62       41692.16
       40225.36       29995.31      -20900.45      -44637.80       22969.06
       37238.36      -31997.98      -57530.81      -44846.75      -59166.05
      -86989.92      -78068.43      -34237.44       21711.22       61643.06
       85598.69       153647.4       180358.4       79681.01      -6727.938
       44774.61       63339.89      -15419.95      -39124.08      -23405.19
      -34630.19      -91857.80      -103748.2      -40871.59      -62633.92
      -89974.48      -6093.328       32323.08       49213.07       29623.18
      -53091.43      -24696.91       37843.83      -4923.625      -74177.63
      -11697.41       73054.73       30009.54       1600.406       44043.21
       3948.883      -41092.92       34554.25       74211.56       62148.84
       79673.81       64719.48      -5327.549      -20095.50       18343.64
      -32201.69      -84274.39       7211.500       30772.98      -64649.72
      -47026.67      -5811.359      -15235.11       9741.137       17845.58
      -42523.12      -73085.25      -55962.42      -41435.71       7665.844
       18769.05       27578.79       45105.55       12321.70       34191.69
       63204.73       30799.66       5325.480      -4850.789      -35368.52
      -30671.75       9332.734       36918.94       52193.01       28682.77
       9766.789      -25746.30      -59637.26      -23516.71      -11210.52
      -36766.16       20256.23       62714.34      -4858.199      -16145.45
       27061.06      -24452.84      -79535.28      -28995.06       4816.531
       3314.789       32514.16       53034.73       27952.86       10179.97
       18578.73       45564.80       49839.36      -16001.58      -60460.11
      -51379.71      -10157.10       24631.77       33592.13       36001.35
      -1022.578      -53510.22      -90996.38      -81085.47      -44165.34
      -59001.39      -18500.17       74206.20       80566.27       20492.69
      -19471.83      -13400.41      -5536.818      -8045.688      -11136.87
