     0.02500000      -1284900.       1722968.      -12345.00      -12345.00
      -30.01006       215.1149      -16.86000      -12345.00      -12345.00
       0.000000       12.27000      -12345.00      -12345.00      -12345.00
      -12345.00      -12345.00      -12345.00      -12345.00      -12345.00
      -12345.00      -12345.00      -12345.00      -12345.00      -12345.00
      -12345.00      -12345.00      -12345.00      -12345.00      -12345.00
      -12345.00      -31.80160      -69.32410       2472.000       0.000000
      -31.54000      -68.94500       0.000000       103500.0       0.000000
      -12345.00      -12345.00      -12345.00      -12345.00      -12345.00
      -12345.00      -12345.00      -12345.00      -12345.00      -12345.00
       46.19243       231.0024       51.20048      0.4153329      -12345.00
      -12345.00     -0.1745023       0.000000       90.00000      -12345.00
      -12345.00      -12345.00      -12345.00      -12345.00      -12345.00
      -12345.00      -12345.00      -12345.00      -12345.00      -12345.00
      2008        49         8        51        20
       560         6    -12345    -12345      9806
    -12345    -12345    -12345    -12345    -12345
         1         7        13    -12345    -12345
    -12345    -12345    -12345    -12345    -12345
    -12345    -12345    -12345    -12345    -12345
    -12345    -12345    -12345    -12345    -12345
         1         1         1         1         1
LEON    -12345          
        -12345  -12345  
-12345  -12345  -12345  
-12345  -12345  -12345  
-12345  -12345  -12345  
-12345  -12345  -12345  
-12345  -12345  BHN     
ZL      -12345  -12345  
[...]
      -108.1850       101.1914      -93.04105       118.8461      -75.12085
       137.2934      -56.48032       154.2307      -40.24704       168.8715
      -28.42035       180.8358      -16.76837       190.9705      -6.073730
       204.0859       3.800049       211.7533       13.78802       222.1897
       20.40753       226.4649       28.12393       237.8944       36.74139
       243.1961       40.76831       245.5760       39.59454       244.3413
       43.06433       248.2339       43.79938       243.2104       32.59955
       234.9580       28.53394       228.9373       17.92871       219.1739
       10.15057       208.7416      -3.867401       191.8644      -20.12866
       179.8187      -31.12805       165.6064      -46.04449       153.0387
      -62.31247       131.6465      -80.66241       119.5879      -92.37750
       103.6821      -109.1409       87.15289      -129.6962       65.43179
      -152.7778       39.09082      -178.2583       14.86572      -205.1556
      -8.745422      -222.9020      -27.36011      -250.8386      -56.72412
      -275.6201      -80.93323      -301.3954      -103.8793      -324.4473
      -128.5577      -350.5374      -152.7551      -374.2010      -175.1099
      -392.7295      -192.3018      -412.9229      -214.2163      -434.2043
      -232.5031      -451.9197      -250.6112      -467.3940      -264.8613
      -484.8169      -283.5215      -501.5190      -297.7822      -515.7256
      -309.8521      -527.2334      -324.0216      -539.1179      -330.4343
      -547.7947      -340.3422      -551.0603      -344.7988      -560.8456
      -349.5298      -563.3003      -355.0688      -566.5940      -356.8110
      -567.8491      -355.3719      -566.5603      -358.7366      -570.9868
      -358.2858      -566.0292      -354.2429      -564.2598      -352.4834
      -565.0532      -354.2719      -562.1592      -355.8242      -569.5143
      -356.0974      -568.8853      -359.4124      -567.7834      -355.9009
      -564.3882      -351.6006      -558.6106      -344.2422      -551.9844
      -337.6211      -542.2212      -323.8077      -529.7517      -317.9894
      -518.3412      -298.6196      -499.4995      -278.0977      -483.0082
      -264.4446      -462.4722      -242.4760      -440.9208      -212.4369
      -412.9760      -191.6619      -391.9002      -169.9055      -368.3103
      -142.4045      -345.6317      -128.6218      -329.0807      -99.96527
      -294.9463      -68.76758      -265.4564      -38.60809      -233.3425
      -7.679688      -206.5794       18.29224      -177.6662       46.72263
      -150.2627       75.31161      -121.0280       102.4403      -97.23175
       124.1165      -70.51743       154.6856      -43.95038       174.5820
      -21.31573       199.7659      -3.455170       212.0968       10.80267
       227.4651       23.87128       242.1260       42.39746       256.3632
       50.59467       266.7307       59.80127       271.5689       65.20197
       281.9321       82.46753       298.2210       92.84198       305.7977
       99.71149       307.7654       96.62213       308.5949       98.57617
       304.1078       93.79218       299.5891       83.88818       291.5748
       79.87964       285.2363       69.81451       274.9115       62.36823
       262.6577       44.57880       243.9705       23.79602       223.3101
       4.483032       200.7132      -20.28833       174.8818      -45.31020
       148.8159      -69.92448       128.0021      -85.76554       108.5088
      -110.0256       83.48093      -137.2050       54.97559      -159.3376
       34.81088      -181.6198       11.38403      -199.5139      0.4763794
      -209.5058      -13.57300      -223.5944      -25.68011      -233.3001
      -36.33789      -246.9000      -54.71759      -259.7915      -59.53583
      -263.1622      -62.26727      -259.4038      -57.95117      -261.9064
      -64.74615      -266.7225      -74.07861      -277.1699      -82.21790
      -284.2303      -87.22717      -281.9443      -83.66736      -278.2390
      -81.78967      -278.7818      -83.04395      -277.1434      -83.58289
      -285.8283      -91.31543      -287.3066      -94.67157      -291.3759
      -96.52612      -292.1089      -100.1282      -302.7010      -109.4895
      -305.2961      -115.8352      -315.2875      -128.8351      -331.7842
      -152.4738      -357.5597      -167.4884      -363.9302      -177.0876
      -372.4333      -179.3924      -374.6971      -191.3708      -393.3896
      -207.0015      -405.0580      -225.6141      -423.5414      -233.7173
      -423.2376      -237.4778      -438.4426      -253.6288      -444.7821
      -271.0747      -474.8486      -292.4731      -486.6753      -316.7799
      -517.8101      -340.5348      -532.3938      -361.1128      -566.5942
      -394.6820      -588.4316      -422.9036      -634.7815      -466.4460
      -655.4939      -494.0173      -713.5514      -544.6461      -719.3296
      -555.2664      -780.7463      -611.3564      -764.5308      -601.5283
      -850.9136      -684.6841      -792.7998      -612.8633      -819.1889
      -299.5430       689.4277       3068.936       6661.078       13544.05
       25665.73       47552.38       79436.69       99161.73       51429.00
      -57585.42      -104389.8      -17543.75       64428.40       29552.36
      -15862.91       49829.62       136307.8       49278.48      -59148.64
      -50398.47      -67047.69      -76908.36      -97304.58      -52225.38
      -32552.97      -120348.6       18627.44       132240.7       3644.363
      -43770.52       36513.95       72252.35      -43120.59      -84413.86
       67810.03       107325.4      -13585.92      -70991.18      -44634.52
      -9618.000      -40796.22      -136507.3      -98777.34      -24364.81
      -122621.6      -19716.38       291734.0       269222.5      -23484.34
      -86214.19       128982.9       161027.7      -67537.41      -157808.4
      -54918.47      -36209.94      -110133.7      -55301.03       60982.97
       87590.03       76468.68       46797.25      -25548.80      -85005.31
       24120.41       116851.6       2287.656      -49932.18      -34022.68
       14258.12       73012.05       4313.430      -46132.72      -31552.53
      -50658.90      -54260.46      -1372.250       37936.30      -43083.92
      -106153.6      -15272.48       67577.34       77059.22       13404.87
      -57761.67      -14721.89       89985.30       90857.66      -24180.40
      -35533.67       24882.84       34130.39       20531.02       31227.87
       53303.66       18006.18       12299.50       27784.60      -8775.594
      -46772.77      -57799.12      -4551.664       21159.72      -75588.91
      -141167.7      -75439.80       4131.176       26623.49      -616.8477
      -27273.74      -4479.488       30949.44      -7694.648      -31444.21
       28223.94       41688.48       12052.00       7101.375       9242.896
       2678.602       27244.34       57984.87       11321.00      -64398.36
      -85379.50      -55378.27      -57287.95      -67931.55      -7396.344
       45567.94       75000.56       104284.6       68424.01      -805.2031
      -25217.28      -17897.26      -5492.984       31640.84       41562.37
       23417.22       38050.97       61040.35       13246.23      -34375.85
      -30156.22      -48090.64      -40243.91      -23581.91      -6884.328
       30505.14       23162.29       6515.906       19933.48       29770.77
       32196.65       15299.21      -34148.17      -58600.37      -20421.12
       6980.679      -2485.047      -14707.55      -37028.56       17001.44
       98926.06       49803.41      -50820.78      -75815.83      -40823.16
      -6399.465      -14640.48      -28621.40      -2538.418       20659.70
       7003.514      -5267.145       5931.156       47621.47       88584.38
       79852.89       13770.70       2542.484       56269.57       18218.41
      -51663.83      -71802.32      -46215.92      -575.3594      -18220.62
      -64452.60      -59032.43      -6548.775       11466.79       2311.618
       3785.729      -8684.211       7112.812       39184.53       22212.58
       17024.34       23317.27      -1295.950      -196.0020       2284.021
      -4107.094       22762.57       30719.48       42612.84       17842.41
      -89095.75      -107122.9      -6899.504       37413.92      -31172.16
      -36643.57       51598.19       47841.68       13756.95      -3723.547
      -29755.84      -40764.55      -46959.53      -20016.81      -15059.05
       7290.469       66163.47       45466.08       5272.471      -1830.203
      -14289.03      -10650.16      -1898.984       21303.58       51445.61
       19996.10      -29163.38      -55963.48      -19682.12       14743.35
      -18251.05      -8291.094       27190.50       53983.17       37270.26
      -16740.39       15589.98       66827.88       50519.99      -3851.367
      -37589.30      -13081.97      -10831.47      -58946.53      -65284.02
      -36062.42      -25041.98      -18068.28       15192.58       61012.05
       56463.41      -8085.805      -32857.30      -11129.77      -25463.09
      -40293.03      -9776.625       66521.48       65208.90      -28666.65
      -44600.47      -12440.42      -4781.648      -2159.945       24267.22
       46514.30       21378.63      -16013.53       10622.15       38501.05
       21989.59      -15753.34      -42011.95       3698.156       35626.18
       21766.54      -4349.602      -33117.39      -38790.72      -11256.71
      -549.2500      -26875.98      -40589.59      -22088.32       13432.06
       4366.609       16766.45       31936.56      -10757.95       14425.47
       52139.76       7672.172      -29188.04      -24665.09       14296.33
       26798.72       2867.414       15929.89       18278.39       4922.941
      -5205.000      -43925.66      -78193.60      -37896.46       17341.68
       4509.945       16511.47       28917.19       33612.95       54602.66
      -433.5000      -61243.23      -38135.23      -57.78125      -15313.61
      -37225.09      -9889.266       51291.48       79106.69       26166.60
      -9132.422       20857.33       47701.44       50309.26       52922.11
       19229.03      -30530.82      -24647.84      -16041.28      -28677.95
      -44370.80      -45746.91      -50602.41      -90176.19      -34295.77
       52922.13       19563.62       10320.03       62984.00       80738.83
       40822.12      -32323.52      -79643.59      -60121.28      -26679.12
      -61629.75      -49994.02       39310.84       57585.31      -11507.29
      -62710.84      -2107.516       75555.81       96538.91       98474.74
       50876.42       23143.02       23253.44       5402.418      -7892.164
      -27143.55      -42950.00      -16422.35       20418.28       14934.92
      -25316.90      -49878.30      -19360.70      -17230.36      -34224.73
      -13063.12       2179.516       33805.99       49621.17       29544.32
       3559.047      -44304.47      -60502.28      -37312.66      -38381.20
      -52285.72      -50377.90      -35008.24      -8941.859       24168.55
       45554.00       51808.84       66761.88       51756.00      -13150.92
      -33557.88       10359.82       46164.75       25112.26       11428.73
       56145.88       73112.52       23129.59      -36572.09      -50531.89
      -24830.22       10991.29       16970.48      -39838.09      -57329.59
      -10933.41       12748.70       12834.05      -16103.65      -24105.79
       21439.31       28277.58       10828.35       14042.95       23738.56
       58924.70       40897.56      -57875.56      -64365.78      -16665.20
      -25295.61      -6825.812       38805.53       69426.83       14681.08
      -62568.67      -13205.78       531.9062      -66521.88      -46957.89
       5323.047      -11281.54      -30162.21       14405.15       48930.29
       2149.121      -30021.26       28690.62       17721.77      -70131.62
      -38271.66       75537.00       80318.84      -9735.078       668.5977
       22859.21      -39161.88      -20506.47       42446.76       31781.59
       16964.78       33439.14       33765.14      -29610.39      -64091.09
      -39424.06      -113354.0      -127235.6      -13369.41       10837.88
       15488.17       25210.07       19729.22       78538.53       117492.5
       117602.5       89586.64       47791.62       82986.67       92101.59
       24217.20       157.8516       13952.25       26715.83      -4926.422
      -78070.59      -91540.44      -87159.28      -100650.2      -88111.02
      -50428.99       8324.688      -19432.06      -126956.9      -188922.9
      -255171.5      -353703.4      -463998.0      -572104.5      -603664.0
      -536708.0      -432046.1      -306071.7      -67998.25       280676.0
       535788.2       767571.0       1269021.       1722968.       1669254.
       1298690.       778310.9       24911.75      -770093.5      -1270196.
      -1284900.      -899274.2      -560777.4      -535927.8      -520048.0
      -401614.2      -431904.1      -507428.8      -115937.5       630271.5
       894519.5       788916.2       820300.8       710469.8       370672.8
      -34795.50      -341031.4      -323442.1      -235685.1      -379817.8
      -551596.9      -472876.1      -242194.2       39278.00       398118.8
       598916.2       506288.7       184895.4      -96021.75      -263051.4
      -453441.1      -328614.8       46742.88       317641.5       433500.0
       260925.2      -19359.50      -102842.0      -36737.25       41308.00
       97651.28       173606.9       116662.9      -162023.5      -359414.8
      -369350.7      -294488.2      -150145.8      -144210.4      -180064.2
       63697.62       339669.6       439093.9       343110.8       55975.81
      -182500.4      -258649.6      -233451.2      -169183.3      -175201.0
      -152256.3       113100.0       357696.8       466230.5       510736.4
       223520.9      -165418.5      -215537.1      -57936.09       108987.9
       94094.06      -81243.00      -170361.2      -238369.4      -322473.4
      -241764.6      -38143.03      -46325.81      -183644.3      -105970.6
       116938.3       298397.8       367220.6       298291.6       166891.0
       17547.19      -113328.2      -40240.19       101410.4       68681.11
       10913.84      -55009.66      -146188.5      -116976.8       8032.844
       93120.01       60920.25      -7037.570      -44387.89      -37052.43
      -38194.28      -51558.72       76580.81       149953.8      -3199.406
      -114738.4      -119630.9      -135069.0      -135572.3      -55325.27
       53229.88       30988.53      -81352.95      -103068.4      -26949.89
       59446.98       32578.81      -74515.47      -50573.07       17412.30
       25274.38       39119.48       29441.12       47689.27       23084.91
      -107098.6      -100083.2       70986.81       210778.5       174232.6
      -9418.836      -36189.97       116973.8       70036.53      -127935.0
      -130939.7       8279.156       88575.50       120010.2       139432.7
       56904.09      -93304.53      -134985.2      -59230.75      -77224.69
      -166840.9      -152876.6      -85965.50      -25890.81       28990.11
       64095.62       92847.12       132199.7       179628.2       229866.8
       173592.5      -19955.88      -142835.0      -84408.48      -10441.62
      -10385.25      -50500.12      -146077.6      -214072.1      -172347.0
      -68792.44       51284.97       127134.0       88049.40       1967.078
      -52240.34       11228.56       171024.1       191488.0       149956.8
       192365.2       111715.4      -40770.84      -51605.73      -32258.86
      -54694.75      -149086.3      -239247.6      -167051.3      -102370.2
      -47914.67       47482.23       40785.49       32450.47       39429.42
       31699.80       40531.56       20308.11       21914.58       48616.81
       34540.99      -34096.77      -61768.66       9058.969       108897.2
       180196.0       144078.8       48482.59       20083.90       12932.56
      -76044.50      -203100.5      -270086.8      -208039.9      -42537.95
       50037.36       55145.52       67849.50       82381.97       109014.0
       107555.6       59519.58       75502.16       100510.7      -21114.38
      -177476.6      -165193.5      -48946.63      -22667.06       9032.672
       89239.63       13709.50      -185036.8      -256069.2      -122848.2
       4360.016       34949.03       83090.75       166324.8       205120.3
       96502.09      -81034.69      -160915.4      -195572.1      -177016.1
      -34466.44       145995.2       259080.5       259357.8       204561.7
       94299.93      -21842.59      -26681.79      -17469.33      -43439.04
      -12821.17       40646.38       4552.531      -100973.1      -137436.2
      -88062.12      -19340.70       3190.844      -72634.84      -153328.2
      -68183.95       80599.94       72092.84       8733.125       52887.87
       54051.71      -6526.828       49157.97       99736.80       33902.31
      -109582.4      -205822.8      -144872.6      -49654.44       51257.53
       142129.5       159408.2       185453.4       206004.9       156839.6
       48509.38      -80369.69      -130351.1      -123367.6      -123474.3
      -121654.4      -113571.4      -38434.86       50270.50       104748.8
       170034.7       88546.38      -76372.78      -85187.69      -64510.19
      -114993.8      -167398.6      -158971.0      -66936.34       11427.47
       82599.62       134502.6       62888.12      -10610.06       57633.67
       100290.4       15380.55      -55008.19      -87688.71      -61883.94
       18452.20       57355.02       75189.97       20215.24      -63353.89
      -10266.73       52414.75       54104.75       77561.41       59429.23
       31959.25       54623.70       29736.16      -67961.25      -152247.6
      -157670.9      -79907.17       13938.28       47410.89       31467.54
       17788.23       7083.969       54072.97       87474.00       23934.60
      -1243.375      -28316.06      -86428.20      -47919.34       23769.54
       36041.89      -21159.98      -44409.89       38725.78       103576.0
       131591.6       187777.4       198113.7       96262.53      -20030.22
      -94791.73      -104145.6      -10204.66       10315.78      -92105.22
