     0.02500000      -1176771.       2661800.      -12345.00      -12345.00
      -30.01006       215.1149      -16.86000      -12345.00      -12345.00
       0.000000       12.27000      -12345.00      -12345.00      -12345.00
      -12345.00      -12345.00      -12345.00      -12345.00      -12345.00
      -12345.00      -12345.00      -12345.00      -12345.00      -12345.00
      -12345.00      -12345.00      -12345.00      -12345.00      -12345.00
      -12345.00      -31.80160      -69.32410       2472.000       0.000000
      -31.54000      -68.94500       0.000000       103500.0       0.000000
      -12345.00      -12345.00      -12345.00      -12345.00      -12345.00
      -12345.00      -12345.00      -12345.00      -12345.00      -12345.00
       46.19243       231.0024       51.20048      0.4153329      -12345.00
      -12345.00      0.3420179       90.00000       90.00000      -12345.00
      -12345.00      -12345.00      -12345.00      -12345.00      -12345.00
      -12345.00      -12345.00      -12345.00      -12345.00      -12345.00
      2008        49         8        51        20
       560         6    -12345    -12345      9806
    -12345    -12345    -12345    -12345    -12345
         1         7        13    -12345    -12345
    -12345    -12345    -12345    -12345    -12345
    -12345    -12345    -12345    -12345    -12345
    -12345    -12345    -12345    -12345    -12345
         1         1         1         1         1
LEON    -12345          
        -12345  -12345  
-12345  -12345  -12345  
-12345  -12345  -12345  
-12345  -12345  -12345  
-12345  -12345  -12345  
-12345  -12345  BHE     
ZL      -12345  -12345  
[...]
       499.2018       545.2014       497.7540       544.8669       499.8093
       544.1415       497.1248       546.9004       495.4470       539.7917
       490.0774       535.8451       484.2533       535.3199       480.8702
       526.6309       473.4011       520.0886       463.0305       508.7349
       453.2114       501.9561       443.9753       490.6083       432.2423
       480.2996       418.5975       467.5753       407.8689       459.6088
       399.6987       449.5269       387.6443       439.3602       376.8813
       429.0933       366.2544       416.6371       345.2983       395.0265
       329.4216       379.2635       305.7136       352.7696       279.3383
       329.8557       252.5889       297.6324       223.0391       275.3832
       196.7748       243.6961       163.3573       212.1940       128.8141
       178.2715       99.66782       150.2974       67.58807       121.5671
       38.94644       87.93135     -0.7201843       48.45207      -34.33041
       21.83650      -66.73833      -16.89151      -102.0109      -43.40698
      -131.6436      -77.04379      -163.7325      -108.5073      -198.9335
      -143.0944      -234.1436      -179.7799      -272.1697      -213.1085
      -304.6696      -248.1714      -344.4796      -284.5413      -372.8325
      -316.5352      -414.1967      -353.5167      -448.4431      -389.4607
      -486.1552      -422.9358      -520.3572      -459.3788      -555.7667
      -493.7722      -589.6628      -522.7729      -618.0684      -549.3510
      -648.0851      -583.1550      -682.4077      -615.8884      -713.9648
      -641.7073      -736.2456      -663.3018      -768.3064      -697.8647
      -795.2278      -721.9314      -822.4819      -746.9668      -850.2007
      -774.0669      -876.7205      -796.0977      -894.1226      -810.7227
      -913.8945      -832.6277      -930.7129      -846.9006      -948.5776
      -856.4749      -952.4402      -863.8198      -962.7126      -867.6953
      -966.3271      -872.3999      -969.6292      -870.9448      -966.5183
      -871.2256      -971.3481      -868.2473      -966.1379      -866.2695
      -964.5620      -862.0942      -958.4863      -850.8818      -948.1821
      -838.0396      -939.0308      -833.4963      -930.0085      -823.1177
      -926.3354      -810.0205      -909.8416      -795.8213      -891.0681
      -772.4844      -873.7920      -757.9529      -860.9033      -736.1809
      -841.7444      -724.9873      -826.3384      -699.5112      -804.3362
      -679.3655      -785.3250      -656.2710      -764.2368      -633.6807
      -740.7783      -613.8438      -725.8333      -598.1969      -716.1862
      -585.1345      -695.1560      -559.1992      -675.7534      -542.9849
      -661.7078      -530.6044      -652.0131      -522.0088      -649.3114
      -517.3143      -641.4202      -507.6936      -636.8319      -504.0686
      -628.2285      -490.3591      -617.7588      -477.7615      -603.6433
      -465.0044      -596.5906      -458.6641      -589.4645      -448.8872
      -580.4022      -433.4598      -560.3491      -417.9526      -553.7117
      -411.9403      -549.3046      -400.5256      -531.0801      -381.0298
      -516.8391      -367.2937      -499.6656      -343.8528      -481.9061
      -327.4950      -463.0134      -303.5530      -438.8929      -280.5759
      -416.2493      -249.8026      -393.0095      -234.1223      -372.2072
      -203.1241      -345.8473      -176.9398      -319.4155      -149.8167
      -294.2935      -121.5995      -269.7751      -98.38696      -243.7712
      -70.28629      -225.2396      -51.93695      -208.7830      -30.21381
      -177.0387       2.205811      -153.0837       27.98145      -138.5747
       39.12146      -121.4458       56.48787      -110.9062       75.51081
      -89.15473       97.49448      -68.72714       113.5740      -60.78320
       127.5060      -46.51707       139.6261      -34.30447       159.3923
      -10.74408       177.3366      -5.446045       188.3905       2.876221
       192.2900       13.45312       209.9279       20.89203       204.5432
       11.76636       205.9772       13.22766       208.4366       16.52045
       216.3538       23.96127       219.0218       20.73758       218.8304
       13.65109       207.7828       4.829865       206.2867       5.437653
       201.7433      -7.242767       202.1431      -2.182037       194.2308
      -18.48050       193.3934      -12.46112       189.3070      -29.10214
       183.6342      -26.42883       181.6813      -38.43988       181.5429
      -30.37921       175.4798      -52.60657       172.6437      -44.02623
       160.4101      -70.57227       163.9502      -52.91998       152.3654
      -87.00375       151.7280      -67.16760       131.3008      -123.6223
       122.5107      -93.76849       96.30688      -174.2350       84.65297
      -126.0423       42.52509      -244.6406       70.73572       10.49072
       700.4453       2062.262       6425.461       13791.05       25229.09
       40043.17       63081.25       94656.81       123083.6       108552.7
       29540.81      -76031.78      -125543.4      -50428.02       24277.42
      -59061.00      -142951.7      -21625.78       189886.5       153329.6
      -100120.2      -115049.0       80469.14       96336.27      -62956.30
      -82224.68       54531.83      -6498.852      -88953.00       118967.8
       204873.6      -153719.1      -266056.3       58679.73       60506.75
      -157729.8      -138676.1      -55230.48      -11520.94       141359.9
       216693.6       15043.91      -139903.1      -57283.88       27581.68
      -5577.656      -147390.3      -130034.4       84622.22       104285.0
      -44116.48      -37297.50       224086.8       288787.6      -27647.56
      -225356.8      -86263.86       107747.9       53345.53      -159401.0
      -174656.5      -36290.59       44790.00       69227.36       45506.97
      -13608.62       15912.47       57151.70      -67676.47      -110631.7
      -21942.41      -47947.55       10612.06       129898.1       22063.74
      -31405.72       109192.6       98676.19      -47155.23      -46482.28
       5135.164      -22472.98      -31142.30       49055.02       120937.8
      -23673.72      -163727.6      -26162.81       192705.0       178708.7
      -12765.80      -63782.20       52.28125       61689.27       66067.53
      -51999.00      -159452.1      -142854.0      -20211.09      -11470.66
      -85165.91      -14860.28       51224.63      -24648.84      -13172.64
       71678.05       10936.23       13899.44       111190.5       114757.1
       70091.04       37149.47       46934.05       73503.20       8402.844
      -94992.00      -88567.69      -82477.91      -126944.2      -137344.0
      -66165.93       13574.47      -17909.66      -41149.92       23363.97
       102036.3       109683.7       8292.000      -75577.19      -41025.88
       44596.87       29511.12      -35298.20      -14660.69       55240.09
       45102.45      -20918.89      -53835.73      -43449.78      -14286.50
      -54498.79      -45387.42       29088.49       19534.11      -30751.70
       5167.438       109616.1       76628.97      -57836.75      -107415.0
      -33941.82       47374.54       34507.78      -16945.29      -13787.45
       40041.30       91489.02       70438.64       6693.195       14348.95
       40599.94      -30330.75      -58944.10       19188.41       10288.73
      -44649.12      -16713.82       24407.34       29287.27       17539.80
       29706.62       32687.92       13656.78       4047.711       22270.73
       610.9062      -87023.75      -109869.7      -35230.80       3332.141
      -32332.07      -17757.09       9543.312       16495.81       16326.34
      -74230.94      -108487.7      -30314.59       39062.50       98456.00
       85849.09      -23609.75      -67994.76      -26074.08       19054.98
       35853.20       2633.105      -24176.64       6915.359       49622.11
       54510.12       28084.62       28242.05       46787.78       99899.83
       118180.7       15592.17      -36607.48      -9665.906       10424.28
      -3307.875      -89734.84      -100217.0       38109.66       109754.6
      -20370.53      -130234.0      -62131.68       18202.97      -29134.05
      -68155.05       596.6113       22051.91      -27649.47      -59587.17
      -24105.40       39545.13       16103.87      -10557.38       14002.53
       50551.69       48697.79      -4426.582      -15824.60       23226.28
       83185.83       69579.66      -47562.67      -69565.48       32221.33
       83352.16       35311.21      -1862.955       4711.512       21840.57
      -8202.562      -62465.35      -58010.98      -7738.305       21848.42
      -42040.00      -88743.07      -23648.50       31816.30       5158.297
      -44409.31      -39714.73      -45989.50      -55991.75       930.7031
       48468.26       41493.12      -25568.05      -20826.19       81228.23
       31305.80      -58296.83       20258.16       129574.1       116326.2
       20489.70       9744.109       71088.12       1806.172      -102623.6
      -27810.57       24887.66      -89299.00      -148893.9      -42393.41
       83942.11       60898.08      -41849.08      -34571.55       41582.76
       46692.21       2334.508      -26026.74       9652.574      -8889.775
      -37182.61       51419.20       55072.63      -38451.92      -20860.55
       73682.23       63465.40       5107.031       57482.46       16842.67
      -109583.4      -36985.40       58865.45      -24975.21      -72593.29
       30698.81       61327.91       15682.27       28460.85       23241.10
      -1493.391      -32107.07      -8278.559       36196.12      -26333.79
      -36197.16       51021.15       45911.95      -18410.12      -40231.71
      -26720.35      -10060.59      -27553.99      -36231.13      -1956.764
       461.2891      -27463.07      -49375.62      -15944.00       43140.18
      -4297.891      -71834.04      -32565.43       19369.80      -1645.953
       36521.22       138753.4       115593.0       17979.16      -36024.17
      -30415.97      -15983.25      -21524.21      -3098.359       1754.180
       2093.000       37715.97       19388.06      -18144.76       21780.41
       59026.04       519.7969      -73484.67      -53669.42       12641.55
       37988.91       5142.414      -6077.812       56557.25       40279.91
      -44089.59      -61851.77      -20350.52      -50372.72      -132978.6
      -99941.19      -25453.46      -2238.250      -24796.29      -43525.50
       16890.66       95279.67       75952.52       41707.69       70473.25
       87824.03       94261.12       57827.03      -25975.67      -57563.82
      -9654.174       19251.47      -24260.58      -66001.09      -35545.58
       26564.05       49795.56       29665.44       45166.53       98405.86
       55638.44      -52048.62      -73392.13      -32730.23      -30772.25
      -49724.97      -43228.61      -27404.68      -2533.529      -194.6094
      -25809.05      -26019.41      -15363.32      -27121.26      -35625.28
      -54525.69      -48553.20       38769.98       84132.34       48888.11
       64961.20       74865.94       41573.06       53390.92       58080.71
       37992.98       37152.12       25962.64      -36330.70      -81310.28
      -20568.01       12860.54      -43407.96      -44001.01      -944.2637
      -8730.508       24130.05       70157.94      -18000.50      -102676.7
      -86430.63      -57954.63      -902.1016       29128.38       27604.68
       26609.84      -57519.55      -78071.66       48575.75       55666.94
      -54382.12      -28364.55       22482.50      -2312.625       29882.00
       99183.69       95005.38      -1629.145      -2971.586       52666.87
      -8045.352      -44489.16       11457.30       21836.16      -58669.52
      -85163.21       15360.35       53460.23      -12840.31      -8203.996
       13818.90      -29226.59      -19650.42       46884.42       63606.42
       53106.06       66606.36       33074.34      -68835.56      -73301.16
      -4816.109      -48614.83      -92926.88      -46523.71      -8315.328
       54362.00       108182.1       66138.59       12383.81       45970.09
       136631.6       120964.2       47688.20       23448.21       33207.17
       32844.75      -37688.38      -97117.50      -117774.3      -131668.4
      -134501.2      -144449.0      -98051.39      -52357.69      -97491.66
      -120527.1      -82489.56      -105472.3      -160735.7      -105483.2
      -80159.38      -185108.8      -201438.8      -182554.8      -398543.5
      -659121.8      -801605.2      -976805.0      -1113491.      -1060992.
      -642968.2       165746.0       1071274.       1852946.       2455688.
       2661800.       2080443.       891321.5      -186040.5      -832746.2
      -1103028.      -1176771.      -1067938.      -645015.3      -310360.4
      -341962.0      -224901.6       129355.4       245807.8       207179.9
       201025.1       245550.2       445696.6       576867.1       381286.0
       251858.1       351617.8       235688.2      -153326.2      -451916.9
      -409852.6      -219375.3      -113395.9      -89412.16      -53992.00
      -25253.88      -71485.69      -162653.2      -267955.1      -30791.38
       432005.4       441718.6       72780.69       17356.38       273554.8
       156217.0      -49291.02       71811.80       17567.81      -218907.0
      -153397.3       40644.16      -81643.25      -275789.5      -216805.1
      -236717.0      -225224.2       78929.80       97955.17      -71218.70
       35657.28       85864.12      -172214.8      -379577.4      -93453.00
       211129.5       61070.67      -37414.25       171026.9       289591.6
       195595.2       139888.4       114057.9      -90139.75      -303271.7
      -217210.2      -72939.72      -74147.41      -2555.438       145365.8
       157735.3       135552.3       214943.8       212680.6       56288.22
      -124570.4      -139415.9       38469.81       180358.9       55583.20
      -85652.56       28605.41       109176.1      -64109.50      -218151.2
      -85509.81       163408.8       181222.2      -72091.75      -201342.8
      -133630.3      -143382.2      -235953.1      -198678.8      -33960.31
       101263.1       131525.5       22590.80       37408.22       159291.5
       103241.8      -21273.23      -46201.43       15792.53       66790.91
       71309.98       76746.17       75441.50       55598.09      -4860.375
      -149193.0      -264629.6      -183394.5      -12412.53       21339.55
       51862.62       155799.1       82909.78       3094.250       195290.2
       266518.0       67963.56      -30890.95       32175.36       95796.66
      -22081.12      -197419.0      -209587.3      -142151.4      -5683.570
       77874.01      -27034.59      -78992.27      -24221.21      -19542.74
      -32858.82      -4567.953       46850.98      -6237.844      -82447.41
      -30983.95      -14863.66      -81951.66      -129825.5      -71165.99
      -876.8906       18496.34       116397.0       146924.3       17141.12
      -88599.00      -60949.42       28457.81       73212.50       138396.1
       177922.8       157918.5       196270.8       169379.5      -2300.500
      -234292.2      -272980.5       21824.69       250711.1       87184.62
      -124180.1      -47668.24       41537.23      -14578.03      -108860.8
      -151418.7      -81326.73      -31129.47       3861.156       134919.3
       185471.1       53101.26      -46207.97       16227.91       110683.5
      -1026.812      -225219.6      -144632.6       70585.48       38831.50
      -100742.5      -108120.1      -17433.50      -75297.50      -286448.8
      -332665.2      -175227.9      -105181.3      -62107.56       110052.9
       241573.9       161882.9       122252.1       288244.8       284759.0
       130834.6       80918.98       81693.29       51265.88       28127.74
       57942.41      -30806.88      -203558.0      -207292.4      -134094.6
      -169536.8      -129856.9       53579.88       104933.7       33636.62
       67462.56       230241.0       294791.8       176760.3       30233.88
      -131985.9      -214683.7      -144193.1      -118655.5      -169039.1
      -109052.1       21196.78       29800.55      -33111.99      -39740.77
      -1598.434      -9028.547      -44265.73       61429.34       111027.5
      -26543.84      -76124.41      -47815.69      -46193.56      -61227.61
      -15357.81       147392.2       245053.5       221686.1       222561.6
       195663.9       66073.43      -29410.47      -59332.19      -64418.53
      -66794.03      -92335.00      -94276.09      -123866.9      -129742.1
      -127130.1      -238769.9      -220721.2       25190.03       151598.9
       76995.58       11251.66      -16553.43      -11454.71      -2998.375
       46695.00       243917.5       327494.2       130145.4      -80061.22
      -53215.27       59090.48      -27001.41      -153775.3      -122640.3
       5078.324       57701.25      -57950.97      -127560.6      -64646.02
      -42675.09      -24307.75       83880.12       184415.3       135164.0
       28076.25       124239.8       252262.0       115124.9      -111764.0
      -201645.4      -100044.2       21950.45      -28711.66      -122807.2
      -76337.12       45757.66       20376.48      -46067.79      -9166.848
       26983.86      -5092.281      -77776.00      -88152.12      -88549.62
      -140941.5      -144258.6      -70358.62       29705.22       51766.69
      -33522.88      -45575.92       37645.25       74657.75       99983.94
       164192.3       138273.2       59162.62       64937.88       91409.77
       51110.92      -49458.34      -96609.06      -115896.2      -186312.9
      -151152.4      -51024.03      -95769.98      -52712.97       100815.0
       52332.84      -26417.39       37034.41       101908.0       77066.38
      -8601.680      -32639.40       21320.28      -1053.266      -65264.34
      -28247.21       1631.338      -24993.69       22911.62       98703.28
       128978.7       108976.9       49809.45       27842.81       50720.20
       42290.62      -8611.203      -21501.65       9688.672       55985.20
       50807.98      -27941.38      -51822.45      -46611.34      -114399.4
