     0.02500000      -66020.62       56224.47      -12345.00      -12345.00
      -30.00498       237.7200      -37.68000      -12345.00      -12345.00
       0.000000       28.21000      -12345.00      -12345.00      -12345.00
      -12345.00      -12345.00      -12345.00      -12345.00      -12345.00
      -12345.00      -12345.00      -12345.00      -12345.00      -12345.00
      -12345.00      -12345.00      -12345.00      -12345.00      -12345.00
      -12345.00      -30.39490      -66.52800       752.0000       0.000000
      -31.54000      -68.94500       0.000000       103500.0       0.000000
      -12345.00      -12345.00      -12345.00      -12345.00      -12345.00
      -12345.00      -12345.00      -12345.00      -12345.00      -12345.00
       263.5014       61.82083       240.5831       2.369153      -12345.00
      -12345.00      0.1554917       90.00000       90.00000      -12345.00
      -12345.00      -12345.00      -12345.00      -12345.00      -12345.00
      -12345.00      -12345.00      -12345.00      -12345.00      -12345.00
      2008        49         8        51        41
       380         6    -12345    -12345     10710
    -12345    -12345    -12345    -12345    -12345
         1         7        13    -12345    -12345
    -12345    -12345    -12345    -12345    -12345
    -12345    -12345    -12345    -12345    -12345
    -12345    -12345    -12345    -12345    -12345
         1         1         1         1         1
LLAN    -12345          
        -12345  -12345  
-12345  -12345  -12345  
-12345  -12345  -12345  
-12345  -12345  -12345  
-12345  -12345  -12345  
-12345  -12345  BHE     
ZL      -12345  -12345  
[...]
      -3503.635      -1544.700      -1609.235      -2438.895      -1536.281
       2048.303       3265.929      -1445.492       3752.096       8941.645
       266.1328      -2402.428      -212.8984      -5201.677      -6123.936
       2371.976       5958.357      -4604.828      -5537.513       2353.587
       4441.494       4912.194       2654.243       1519.297      -1569.100
      -6783.257      -1169.246       4184.617       2044.225       5637.541
       2941.061      -85.52710       1744.935      -3494.523      -1254.748
       183.0405      -3482.929      -225.4926       734.5566      -2468.275
      -1074.618       1944.122       3290.852       6501.496       4744.027
      -1850.271      -3988.895      -3706.124       121.6521       1257.144
       865.1851       1346.746       568.6600       1171.360      -1341.574
      -3707.411      -2310.674      -2295.478      -3003.145       1638.834
       5972.468       2628.785      -3155.284      -2685.650      -1493.732
      -3215.577       2579.100       3711.148       50.20605      -66.48779
      -1991.824      -3093.927      -2002.619       235.3889       335.7065
       2089.077       2779.153      -165.2803      -2929.790      -5417.579
       1083.035       639.2275      -3835.404       4079.075       1870.393
      -1055.087       4453.051      -2043.046      -3513.258       2124.103
       1298.459       3232.036       4661.239      -2067.504      -4656.615
      -1524.216      -2091.964       875.2354       3967.470      -815.4724
      -830.6646       539.4604      -3995.871       4366.408       8387.510
      -5035.827      -3759.074       1855.641      -5987.965      -6533.420
      -204.1892       776.7773       2709.043       3227.653       3327.071
       2910.317      -1998.259      -2201.675       1292.575      -972.0205
       1309.133       6351.224       1591.863      -2246.172       168.4368
      -425.5890      -1174.060       1909.312      -2320.984      -4005.478
       4011.190       2995.416       147.0005       570.4932      -4974.392
      -4241.552       702.8545       2360.879       8174.893       3003.580
      -6120.130      -2824.637      -1344.603      -2061.540       4218.572
       4324.452      -4407.586      -2896.812       1328.809       1378.590
       1390.396      -2678.768      -2768.252      -3206.380      -916.6494
       3983.993      -1104.914      -5191.780      -1429.186       2927.736
       1628.599      -555.3755      -395.4824      -5109.630      -4590.354
       3120.469       2498.531      -2523.843      -237.3427       628.0122
      -1134.139       5.966797      -1147.537      -3480.379      -4443.615
      -51.87646       3146.108       1682.432      -1342.471      -5671.824
      -1467.946       1590.945      -78.90234       4548.879       4879.957
      -1836.268      -526.9409      -2191.306      -2266.093       4173.749
       226.4395       285.8184       5332.760      -703.7793      -4632.944
       1790.667      -2462.264      -8366.627       2600.213       8462.064
       3340.032      -502.9551      -4221.700      -5769.715      -1332.642
       1519.306       4372.920       5163.115      -214.9956      -2131.751
      -2236.727       768.3672       3611.785      -1711.525       2021.515
       5176.224      -3126.602      -2052.071      -553.1738      -5002.072
      -4306.909      -2343.841       1897.981       4299.429       2268.717
       3954.851       2415.450      -4672.983      -1216.593       2801.164
      -1552.533      -709.2625       1707.386      -2857.764      -4328.256
       4936.460       5770.613      -4911.804      -4959.535      -3196.410
      -7063.162       1328.781       9781.542       3357.957      -527.8823
      -448.7407      -1634.862       347.7227       1087.673      -1256.896
      -1135.371      -5377.142      -4313.903       1326.119      -5259.132
      -4694.843       1093.259      -4040.181      -4190.541       2014.661
       2184.996      -4143.236      -2809.949       3823.973       3106.331
       3986.521       6557.496       6545.070       6042.095       1469.582
      -3227.121      -1026.678       185.7749      -117.1191       5735.655
       5149.190      -1263.965      -2717.612      -3221.323      -2902.321
      -433.3672       3244.807       8962.086       9752.168       7.004883
      -5438.079      -1112.104      -2710.372      -2432.741       2247.764
       1868.213       1199.914       649.1045      -1980.575      -4965.361
      -3071.295      -2914.854      -5407.106       124.2793       6727.721
       5168.092       434.5356       1659.843       919.9663      -2372.179
      -1205.978       842.1221       1872.805       3169.096       2565.430
      -237.2031       431.4688       3422.389       3484.067      -1513.158
      -6567.835      -4295.721      -40.46387       2591.489       1953.921
      -892.3149      -925.5806      -2381.112      -1708.031       1590.637
      -1936.488      -3618.307       509.1895       4270.084       8121.019
       5281.927      -1978.898      -6747.771      -10433.14      -829.7285
       10911.07       8845.969       2041.091      -5135.523      -6343.480
      -5262.886      -4628.629      -1226.758      -2394.482      -892.6230
       3852.203       5420.782       5274.958      -2423.869      -5802.481
       3984.227       8496.321       4114.524       2393.856       311.2920
      -5240.368      -4577.713       1228.818       6299.195       4477.583
       214.1882      -195.3717      -70.19922      -949.0156      -4423.111
      -5107.576      -2971.961      -25.54883       3583.300       2324.337
      -442.7527       211.0093       2056.090      -1305.948      -3562.787
       121.0342      -585.1768      -2254.755      -1183.389      -3984.259
      -1584.593       2812.035      -396.3594       627.6641       5502.946
       1950.304      -3266.762       2354.530       2665.164      -6431.827
      -5392.644      -2655.532       1460.800       5191.068      -17.85449
      -2814.932      -4530.959      -4585.284       181.7041       1634.867
       1451.172       5050.098       5678.460      -2878.778      -2381.659
       2611.898      -2699.518      -2115.230       4177.215       2624.366
      -3181.915       104.5830       6304.126       3472.969      -388.7656
      -2046.087      -2543.452      -2776.572      -1422.970       2587.113
       8752.992       6974.795      -1446.157      -157.6730       661.0825
      -2109.015      -818.2402       362.6985       1136.732      -2317.755
      -2047.689       6765.788       3918.646      -4167.317      -2627.740
       431.6436       2615.801       1886.698      -468.9277      -5565.197
      -7933.135      -7049.349      -5970.102       1256.822       3098.331
       340.5398      -301.8765      -1655.427       1132.499      -573.4404
      -2465.763       1662.905       2176.003      -2545.999      -5518.860
      -1553.040      -472.4170       326.8921       3686.320      -4101.494
      -7204.855       2945.419       4860.817       2979.326       3647.000
      -2856.467      -4479.704      -785.0010      -3385.983      -305.1467
       2038.954      -4537.963      -627.1101       1803.204      -2315.053
       249.9951      -1856.490      -5078.283       1900.660       6807.226
       3821.766       921.8579       81.36133      -3601.432      -5703.926
       121.4414       2834.144       4116.731       2985.309      -5567.758
      -9649.982      -4833.482       6179.739       6490.396       2775.840
       932.0625      -7895.062      -7208.225      -2285.235      -5171.847
       669.7129       8436.836       3449.971       2049.402       5564.587
       1138.938      -5514.958      -4639.592       3675.661       3514.702
      -1259.152       1771.765       2577.077      -3822.005      -3489.699
       4048.771      -2016.226      -6414.715       4770.484       3339.100
      -6486.805      -3518.728       1983.713       210.2661      -537.0745
       540.5752      -3051.143      -2159.996       2585.704       1279.668
       4199.274       5532.645      -3904.609      -3560.930       6117.736
       4447.684       2124.288       6214.575       1131.060      -3126.782
       5022.134       2268.528      -5793.050      -3079.362      -1992.212
       544.0469       7070.529       5775.435      -3328.920      -8769.602
      -5479.393      -1906.004       653.9541       2296.507       1212.923
      -2476.394      -5007.940      -4210.252      -4642.760      -5349.795
      -1724.598      -2065.841      -651.3809       10746.52       9182.036
      -1329.118       687.5918      -606.3047      -6487.545      -2726.394
       2025.873       4279.495       4703.053      -6.652344      -8166.990
      -8344.180       362.9229       2004.539       2641.938       5664.950
       3206.392      -3276.931      -1273.797       6783.821       3234.101
      -2860.444      -2262.417       1103.594       5288.784       4621.471
       3773.268       3623.932      -2833.119      -5381.764      -1531.273
      -3292.256       146.8145       6237.445       2076.957      -1422.768
       524.2461       2704.053       6584.916       6976.627       978.8110
      -1659.660       3647.162       6431.434       3898.471       4336.859
       10721.48       11080.74      -1507.378      -4012.902      -2930.158
      -9598.502      -2994.759       2094.983       225.4673      -165.7793
      -7556.350      -8480.254       853.2129       5979.734       6065.009
      -1824.742      -6904.658       2600.251       5421.092      -2033.762
      -5196.307      -7077.949      -7905.248      -2024.877       3450.934
       1844.802       2260.864      -662.8799      -6352.300      -3213.456
       1824.907       1892.848       2432.024      -1348.408      -599.2891
       7551.476       3918.091       372.5156       6610.715       3953.553
       2151.158       7511.721      -1033.503      -5859.639      -1440.887
      -228.6719       6444.474       6539.182       1420.680       2657.084
       6072.864       3481.030      -314.1360      -463.3242      -2694.414
      -1502.227       151.0264       282.2188       5073.377       7366.998
       5408.566       5182.379       6279.037       3214.998      -3659.501
      -4018.834       1307.881      -2362.731      -5973.410       468.7007
       3958.730      -3574.092      -6741.943      -3658.412      -3850.683
       1543.754       8584.843       7613.210       138.0625      -9924.656
      -11857.58      -9351.163      -5248.553       3181.410       2873.890
      -313.7676       7060.822       5101.182      -4558.005      -3651.262
      -1301.488      -1231.762      -390.3560      -461.9189       922.4648
       4391.438       6533.611       7057.484       7886.517       2701.850
      -3232.748       226.1758       5628.426       7923.258       7712.781
       1685.779      -4865.520      -10811.93      -13427.99      -8009.473
      -6274.018      -8377.639      -2005.104      -1712.459      -2027.598
       7868.235       2167.881      -7829.461      -2672.584       2732.859
       6479.146       4050.012       304.3350       2160.963      -379.1555
      -490.0156       4766.289      -694.0312      -10414.04      -9252.565
      -5516.497      -2297.195      -3740.795      -7888.958      -2571.638
       324.2246       3484.369       10030.89       4854.691       941.5527
      -249.4297      -10885.11      -15918.32      -18274.84      -18737.84
      -10531.91      -5295.902      -5044.818      -4282.872      -3145.280
       281.4768       2656.294      -2261.790      -6578.235      -490.5371
      -1174.062      -7257.133       3634.406       14529.75       13580.98
       11659.16      -2240.469      -13902.08      -9663.425      -6030.510
       1334.180       8981.564       7980.846       5252.174      -331.1631
      -4042.296       199.3828       2880.676       4635.695       12518.59
       21942.75       27813.81       19763.46       5194.901      -1582.166
      -3444.476      -4082.155       1910.914       10761.92       10643.34
       3808.830      -6951.139      -10076.16      -608.2949       3455.715
       7366.047       15240.11       5338.797      -10222.36      -13021.23
      -21570.80      -19537.22       6138.031       25811.52       35642.86
       44821.29       28221.44      -14463.44      -33435.17      -24776.97
      -18647.68      -9074.684       6147.418       11190.97       8586.520
       10005.86      -2634.891      -29931.74      -30244.53      -4615.826
       6993.258       14237.22       25948.27       14638.57      -6189.781
      -20549.11      -30852.91      -30499.38      -25653.30      -3090.703
       33672.31       52435.35       41592.19       15833.70      -23787.77
      -66020.62      -63577.08      -36512.62      -29245.13      -4224.797
       39967.16       38064.78       22255.39       26143.34      -8007.242
      -40583.03      -15333.91       1887.671      -5564.930       8376.525
       7614.828      -19964.44      -14449.80       23976.80       29464.42
       4905.099       2624.223      -4725.469      -26494.16      -15712.09
       8106.508       16060.34       21497.43       10928.54       868.0264
       5865.027      -14015.06      -27747.07      -18964.58      -26850.68
      -11477.83       23861.81       22693.89       7336.422      -8743.570
      -15658.16       970.6230       3928.578      -13319.81      -25560.44
      -38216.20      -39159.83       4866.484       56224.47       51392.55
       33222.24       27460.85      -3638.828      -31982.98      -28140.74
      -11928.11      -4190.559       4639.016       16246.55       6408.266
      -22183.92      -26707.89       3175.062       22218.76       17641.20
       11536.08       25713.93       21824.93      -4393.773      -21312.07
      -29308.59       997.9609       19436.02       13373.89       25584.49
       6145.250      -25098.76      -17276.38       3467.309       1674.904
      -5198.543       329.6367      -13528.91      -22339.59      -1891.562
       2596.321      -4794.742       8775.531       24421.72       13542.42
      -4173.988      -4936.445       3761.277       7227.502      -141.7070
      -8251.787      -12374.14      -7105.805       7223.938       23012.44
       28482.59       11940.17      -5784.816      -14337.41      -15981.96
      -8227.250      -6389.023      -23449.10      -21621.76       18587.30
       35233.09       15955.28       2467.512      -9401.875      -20867.04
      -6553.664       16857.66       10091.99      -2025.824      -8211.267
      -10457.91       14465.88       34576.05       24325.25      -517.0234
      -17584.94      -19361.43      -16839.94       465.3789       14483.64
       10369.50       11732.72       5420.309      -15296.35      -24224.73
      -14386.60      -9818.113      -10777.59       9734.156       19568.80
       8082.637       13277.15       12589.69      -5695.684      -12590.12
      -6068.265       2636.062       13764.91       25340.94       13182.31
      -1466.822       1822.875      -14281.43      -21785.75       3245.174
       7043.723      -4722.092       177.2148       10786.91       11267.21
      -6456.750      -3954.790       9717.051      -10290.35      -6790.852
       22513.06       12339.90      -11473.52      -5497.381      -4798.105
      -16877.19      -2228.732       8998.561       1190.074       10794.36
       7801.262      -10692.21      -5242.695      -5062.225      -12845.72
      -1557.008       13889.85       17126.93       11776.39       2328.535
      -16568.76      -28194.86      -10694.36       9491.908       5864.436
       5755.133       15788.60       8642.195      -6953.055      -11409.16
      -5112.690      -3906.572      -378.7617       12207.35       5816.392
      -1819.223      -3311.365      -8335.188      -11664.44      -17406.71
      -14097.98      -8370.953       9104.547       33351.30       27579.82
       13287.04       5066.809      -19182.52      -32106.91      -8963.945
       5419.121       11489.00       21333.49       4176.348      -11701.28
      -3333.416      -975.5469      -14433.55      -15299.43       319.5625
       8405.406       10917.90       13070.22       6418.668      -9173.949
      -3060.178       12035.80       584.7578      -8980.445       4604.029
       10202.94      -656.0039       8809.472       11447.24      -10121.31
      -13263.87      -9671.332      -6604.918       9095.883       7314.326
      -8274.088       756.1211       8015.105      -4949.867      -16238.09
      -8388.555       3704.193       4552.676       11647.27       14715.92
       3481.722      -4831.055      -4340.758      -10722.10      -21031.62
      -11276.19       12010.13       21432.49       16219.12       13895.42
       2211.977      -22025.59      -27678.02      -19272.99      -8087.322
       6577.828       3835.176       8271.543       18495.68      -1410.559
      -16694.66      -16996.34      -29506.23      -34200.38      -9061.562
       15980.73       26022.47       25775.96       9320.097       3186.075
       4023.406      -9332.221      -6309.982       4392.690      -6755.990
      -1836.486       12789.23       2470.736      -2489.400      -1791.746
      -7401.168       1970.910       7839.082       5471.666       8599.088
      -3285.609      -20070.78      -15869.69       2708.078       13099.48
       1681.333      -2725.968       6316.795       2855.035       9111.215
       16406.80       1344.910      -2086.971       5230.662       5150.168
       6308.221       4821.468      -784.2930       4162.762       11843.02
      -6865.367      -22571.71      -499.2227       10659.33       129.3099
       893.2959      -2109.467      -10167.17      -6221.575       576.2314
      -1132.076      -11465.66      -7786.613       6418.969      -6867.191
      -17892.37       6497.129       16555.46      -3345.605      -10919.01
      -328.8564       6337.241       233.3164       2353.488       19940.12
       17790.60      -197.5020      -1566.671       3004.945      -5607.281
      -11438.02      -4028.610       667.8062      -1779.672      -4639.365
      -4781.676      -9551.398      -16020.59       110.5430       18425.55
       5304.613      -7111.396      -2219.449      -11612.70      -15584.37
