     0.02500000      -40706.84       39750.50      -12345.00      -12345.00
      -30.00498       237.7200      -37.68000      -12345.00      -12345.00
       0.000000       28.21000      -12345.00      -12345.00      -12345.00
      -12345.00      -12345.00      -12345.00      -12345.00      -12345.00
      -12345.00      -12345.00      -12345.00      -12345.00      -12345.00
      -12345.00      -12345.00      -12345.00      -12345.00      -12345.00
      -12345.00      -30.39490      -66.52800       752.0000       0.000000
      -31.54000      -68.94500       0.000000       103500.0       0.000000
      -12345.00      -12345.00      -12345.00      -12345.00      -12345.00
      -12345.00      -12345.00      -12345.00      -12345.00      -12345.00
       263.5014       61.82083       240.5831       2.369153      -12345.00
      -12345.00    0.006992013       0.000000       0.000000      -12345.00
      -12345.00      -12345.00      -12345.00      -12345.00      -12345.00
      -12345.00      -12345.00      -12345.00      -12345.00      -12345.00
      2008        49         8        51        41
       380         6    -12345    -12345     10710
    -12345    -12345    -12345    -12345    -12345
         1         7        13    -12345    -12345
    -12345    -12345    -12345    -12345    -12345
    -12345    -12345    -12345    -12345    -12345
    -12345    -12345    -12345    -12345    -12345
         1         1         1         1         1
LLAN    -12345          
        -12345  -12345  
-12345  -12345  -12345  
-12345  -12345  -12345  
-12345  -12345  -12345  
-12345  -12345  -12345  
-12345  -12345  BHZ     
ZL      -12345  -12345  
[...]
       5203.011       536.0059      -4853.262      -2529.886      -2598.499
       443.2546       1806.744      -2014.529      -1753.976      -257.4312
      -335.5957      -667.5332       2779.639       6244.106       4449.226
       434.4912      -2960.363      -6059.621      -6911.464      -3982.386
       1886.551       2375.505      -2087.006      -4332.328      -4435.658
       2678.235       5931.159       1735.096      -179.3154      -3760.395
      -4367.126       2569.738      -393.7288      -1721.184       5199.562
       2901.219       3164.511       2080.725      -4280.354      -4412.593
      -1924.010       3180.611       1848.969      -4283.685      -2946.722
       2536.832       3701.995       1395.304       2124.630       83.02197
      -1131.911      -765.8452      -2560.650      -286.6260       571.7803
       2650.428       6460.607       3503.804      -4168.928      -5735.367
      -4466.604      -2172.007       3657.013       4982.730       3974.951
       3679.691      -2734.283      -5011.815       434.6967       790.5025
       391.5657      -348.8666      -890.4346       3679.129       969.1504
      -7396.205      -5189.069       2321.237       2670.937       4898.327
       3019.799      -3973.132      -3372.566      -3566.573      -4848.108
      -1092.144       2338.223      -264.8813      -1399.777       16.89746
       2193.697       1512.003      -2059.118       2185.793       2268.111
      -1212.377       2353.466       3084.886      -770.1169       831.6566
       525.8883      -649.8066       3269.456       1720.724      -3459.857
       300.8809       5349.065       957.9698      -144.2050       1449.578
      -1758.616      -3077.823      -3561.604      -435.5654       874.1301
      -756.8960       1675.253       3182.538       4855.423       2620.573
      -744.8203       2491.901       3512.543       1280.197       83.82239
       467.8540       487.0034       895.0557       3603.821       5079.719
      -1497.878      -5243.551       104.2832       2005.362       2266.511
       767.1560      -1060.288       969.4946      -1754.691       153.6709
       5296.917       1322.091       282.4331       2274.516      -2562.281
      -5382.146       982.3633       6228.047       2055.227      -943.9702
      -2679.562      -2657.287       2801.905       3205.126       627.9629
      -1995.674      -5668.087       329.0576       6524.726      -1255.877
      -5931.334      -1742.756      -23.50000       1766.490       2009.603
       330.4604      -1928.153      -3206.437       1491.588       3296.111
      -3632.190      -4055.063       2009.630       3201.766       950.8446
      -748.6169       496.7161       1733.125      -1456.789      -4631.096
      -3141.552       919.0146       3475.905       2808.309       1431.930
      -644.8525      -5147.914      -4027.109       2863.984       5929.469
       3194.811      -590.9668      -4575.460      -2489.088       1335.708
       81.30762       3363.640       4032.821      -2158.556      -2427.223
      -1169.745      -2114.794      -1218.601       309.7139       3393.311
       2970.552      -1017.358       474.7855       1247.588      -1715.244
      -664.4419       839.5830       636.6143       4455.748       1923.535
      -5673.932      -4792.622       574.8989       1977.684       669.7188
       1094.387       483.2852      -4970.299      -8757.533      -3186.735
      -599.3623      -2567.079       4855.749       5485.015      -1840.500
       646.3865       1461.486      -2383.293       2265.572       3551.482
      -4123.383      -5682.403       208.0544       997.4395      -1500.487
      -1209.039      -3181.883      -5065.756      -3598.562      -1075.563
       2189.858       3811.276       4162.182       3691.373       416.4033
      -5796.429      -1895.025       7243.073       4619.852      -281.0742
      -4163.473      -7669.494      -6528.467      -6198.785      -3823.659
       412.0791       2598.449      -308.7920      -3869.012      -5594.043
      -3356.827       1545.577       639.5635       4082.865       7195.960
       3122.827       616.7745       91.80933       175.2188      -3097.902
      -1892.586       3722.142       1044.313      -3333.312       42.68823
       1301.910      -4564.111      -5845.917      -2646.715       433.8770
       6639.883       8464.122       6283.260       2684.353      -456.2881
      -3601.677      -6335.575      -422.9121       3795.375       1095.520
      -899.1642       198.2668       644.1797      -4718.772      -6078.762
      -3187.378      -1585.888      -1332.067      -2090.180      -1379.316
       3429.289       12418.46       11106.29      -446.0098      -3473.566
      -2625.739      -2195.395       3643.233       5773.557       4633.204
       5319.749       1699.381      -3103.465      -4733.364      -4514.906
      -6704.723      -3527.303       2398.475       1404.948      -92.80273
      -2663.566      -7779.105      -4997.405      -1528.055      -3465.925
       1322.043       6059.883       5419.021       6556.686       7383.199
       131.4180      -8987.803      -8672.166      -1375.621       7300.275
       8702.521       2035.442      -5691.575      -4176.492       173.2891
      -3512.287      -4860.878      -2045.464      -1258.343       1607.377
       6554.750       4275.396      -4973.843      -7743.652      -677.1230
       6632.209       8284.400       7252.739      -1384.229      -8384.823
      -2733.091       1130.161       1299.365       3270.053       3129.804
      -289.5032      -1806.794      -48.76172       955.7031       5005.854
       2671.171      -2361.364      -3911.820      -5412.248      -491.9062
       4784.949       5174.049       2956.870      -96.13867      -2346.634
      -4097.523      -5115.929      -2237.779      -438.1814      -1758.083
       108.2812       2615.765       3070.499      -757.7217      -2217.820
       1752.628       5816.831       3958.855      -4152.758      -5763.914
      -2274.011       671.4326       4450.713       1108.758      -3490.200
      -2010.444      -1821.004      -808.9150       2391.420       1211.490
      -971.0952       825.2305       2335.340       795.0490       497.8886
      -260.1634       488.6289      -1470.860      -2029.381       5697.124
       7052.651       429.0527      -3292.113      -3352.721      -2157.522
       737.8662       3197.572       1701.936       8.186523       1509.396
       6671.809       8017.773       968.0762      -2532.388      -218.5200
      -1630.834      -2134.334       1597.026       796.0952      -2359.646
      -1065.777      -350.6953      -1320.566       99.55859       2435.788
       3075.855       2055.421      -314.3750      -4384.076      -6541.946
      -3524.739      -75.28516       3973.332       6262.417       2421.423
      -3010.623      -6375.712      -5168.689       431.3418       7163.795
       8445.773       600.5840      -4097.187      -4608.721      -3596.759
       820.5078       2112.978       1332.432       1324.804      -631.8599
       1770.045       1713.243      -4889.489      -991.1367       4160.365
       3023.997       4307.129      -1703.670      -7461.437      -3460.854
      -3769.791      -3352.604       3440.071       2411.727       401.3955
      -875.5352      -6430.861      -1231.689       7130.896       3529.561
      -349.6484      -1276.827      -1888.460      -889.3213       2267.747
       4829.063       745.6809      -25.10986       2712.626       824.8877
      -2398.630      -2874.533      -1819.501       342.0767       4346.365
      -3031.613      -9716.379      -4866.418      -4192.236      -3589.107
       4202.891       6119.839       4234.789       5661.226       941.5225
      -1879.264      -2580.439      -4939.596       2351.850       5434.834
       3289.330       7363.755       2977.865      -8804.441      -7606.275
      -2095.218       2603.773       9670.945       5436.482      -2809.625
      -4237.660      -4520.533      -4641.378      -1895.539       2338.461
       2824.943      -224.7178       970.2656       1616.775      -3045.253
      -1937.067      -1661.875      -3142.962       3351.605       8757.603
       6632.396       1279.569      -1870.345      -2624.730      -1093.202
      -108.6958      -501.3036       109.7257      -487.1044      -19.97388
      -183.6003      -245.3992      -966.2686      -984.1851      -2360.548
      -2120.837       1829.979      -2868.520      -5515.314      -4397.697
      -4220.582       714.8534       718.5566      -3214.783      -3018.235
      -224.3164      -3311.386      -3856.280       3813.094       4603.893
       2717.984       4620.165       1228.641      -5884.434      -8202.693
      -677.1611       5471.764       1237.073      -1270.763      -3689.366
      -6140.688       1111.090       6194.581       3819.334       5183.075
       7449.446       826.3860      -1486.240       2360.498      -1161.834
      -1376.390       2863.053      -846.3057      -5522.658      -2207.820
       3524.561       3474.419      -176.0508      -1159.926       645.1178
       11.07959       13.39453       5129.028       3578.673      -2240.121
       1199.400       3677.271       2753.246       1570.517       1137.789
       3990.682       3909.005       1817.407       969.6401      -1398.702
       492.8584       4508.488       541.4980      -1980.834      -2897.061
      -3968.192       2891.130       2857.555      -4797.941      -6110.266
      -6664.468      -6153.934      -840.7246       2285.864       5168.040
       2832.349      -5806.523      -7501.451      -2186.020       3356.593
       2985.816      -78.18994      -2118.333      -360.8928       1425.260
      -3328.883      -5447.589      -4402.160       385.1943       5872.941
       3776.348       323.6094       420.6519      -1346.610      -69.44775
       2774.738      -21.58936       248.6611       4185.441       6893.643
       8145.501       2672.410      -5619.580      -7210.416      -8488.590
      -5571.055       7438.725       11709.91       4144.064      -2375.088
      -2823.793       1134.647       6916.894       1751.921      -5716.528
      -300.9199       4960.797       7734.387       7724.324       5376.358
       1716.250      -1802.126       1259.166       2371.341      -2337.737
      -2077.637      -1331.381      -2968.448      -881.6221      -2493.811
      -4292.738      -4001.799      -4806.516      -7697.143      -3850.789
       7382.043       9919.627       2134.613      -8355.439      -10170.25
      -4438.346      -354.7324       4407.463       8998.637       4682.565
       239.0752       5417.553       2499.396      -6962.798      -6352.533
      -594.4824       2914.446       4171.812       6213.107       6610.890
       5265.111       3120.225       1532.156       3770.349       2204.071
       1253.973       4787.557       6222.018       5675.597       4517.286
       408.1465      -5961.578      -9229.504      -7376.223      -5884.678
      -5455.973      -2769.579      -2781.588      -6438.079      -5495.312
      -4274.614      -4631.234       3783.027       8203.945       3665.342
       5724.482       2984.791      -5669.580      -2419.435       3746.280
       2423.023       471.0352      -3265.855      -8899.689      -7121.058
      -3449.094      -5515.286      -4011.905       3591.367       7713.833
       5200.188       1932.480       1752.562       3078.226       2615.990
      -1658.645      -9457.172      -16994.17      -18141.18      -15391.13
      -13434.58      -9584.115      -4845.796      -134.1504       3651.445
       1915.801      -4492.109      -6300.658      -7411.772      -6201.115
       2340.613       7843.078       10432.79       10744.39       5900.082
      -1761.154      -6557.454      -4712.966      -973.0718       603.6455
       1779.085       3572.493      -1459.040      -5751.077       361.5059
       5693.777       9621.836       13710.15       12625.10       8301.207
       5702.025       4649.629       3545.336       4925.152      -69.27832
      -5024.510      -4928.418      -9887.787      -7314.379      -3545.773
      -11168.75      -14942.16      -8990.283      -5558.356      -2682.063
       1846.727      -3691.748      -5779.758       1941.885       7291.289
       10304.70       17717.01       22525.95       16116.31       10757.78
       8397.117       7109.036       3815.715      -2374.550       957.6318
       3905.083       204.9336       2488.206       3749.182      -2209.026
      -2358.911      -1137.070      -106.4219       9269.859       14316.02
       9044.805      -8236.699      -22264.61      -13720.46      -2526.785
       4188.957       15317.65       28078.45       39750.50       33504.48
       4958.547      -23584.35      -40706.84      -38818.72      -32224.04
      -28388.57      -8002.260       12237.91       12306.88       13610.17
       17568.59       10100.85      -2716.156      -26662.87      -39803.97
      -32022.88      -20001.80       4334.871       19030.34       9161.762
       5704.387       12250.39       5749.289      -14614.06      -31066.99
      -13883.20       11092.62       5558.839       1295.083       684.4141
      -10095.34      -5098.715       11025.22       17210.36       11676.76
      -14107.70      -27440.68      -8621.016       11185.08       27904.39
       37997.09       34837.45       15646.30      -9685.516      -21808.83
      -30033.62      -36201.80      -21763.09       2031.125       17830.52
       29173.58       16751.82      -15714.00      -17268.72       278.0303
      -910.4170      -987.7773      -4498.202      -8146.010       6999.316
       15928.02       15153.84       16867.57       17002.45       3663.641
      -13769.88      -25134.12      -33404.38      -20200.73       10730.48
       33973.77       32988.59       15945.48       5197.999       2216.002
      -4586.613      -14550.13      -11105.13      -3382.223      -4273.506
       213.0732       4607.684      -566.1309      -6338.814       2813.465
       19752.81       13256.61      -5916.965      -14649.79      -13138.24
      -4465.178      -4176.133      -8086.840      -2289.499       678.3555
       3939.441       14786.16       11382.29      -1196.547      -8526.512
      -16832.94      -9963.432       3703.297       10391.34       15167.53
       6701.428      -9514.562      -19721.95      -17465.21      -15288.97
      -10873.93       2632.336       4973.176      -1681.715      -6127.208
      -755.6738       11753.72       8855.936      -4458.822       2978.682
       11987.92      -2247.837      -8351.879       7085.781       21471.36
       18778.09       7928.213       2611.756      -2193.648      -13509.65
      -18913.32      -11107.97      -115.2559       7965.609       10740.06
       4880.973       1404.270      -1045.590      -10440.82      -10229.27
      -2074.812       7287.906       12468.30       7419.956      -842.0137
      -2764.936       6352.542       5159.390      -2565.771      -1490.854
      -4572.119       787.5352       15364.13       10433.72      -8825.410
      -14394.35      -11060.46      -4975.135       8600.852       14994.18
       13096.58       6821.918      -2973.285      -10905.49      -11877.88
      -2190.375       13341.20       19073.28       10828.24       3944.440
       975.5537      -3504.844      -3922.121      -1704.809      -1461.174
       1231.645       4078.087      -300.3694      -1345.557       4213.431
       4145.981       612.6414      -1229.574       65.30078      -977.7031
      -8360.686      -7928.823       3734.412       4753.594       1895.102
       8818.383       3947.903      -4538.022       1216.105       3099.484
      -5883.000      -9834.539      -10255.74      -10523.72      -4077.698
       1935.715       5563.056       1457.781      -14262.54      -11552.96
      -681.8320      -8037.160      -5851.176       991.5830      -217.6821
       2507.499      -720.7485      -4744.168       2407.301       8206.455
       3207.944      -1418.005      -551.1289       3936.010       7643.348
       9640.611       9911.038       1427.548      -2115.574       2407.473
       3471.068       1743.867       2197.535       9068.967       10498.81
       624.2539      -5996.449      -3521.664      -3036.181      -1925.803
       2613.514      -1494.322      -8639.513      -4610.423      -473.6680
      -4952.230      -2207.899      -2978.941      -6497.781       389.3672
      -5165.578      -16526.40      -8776.055       14807.22       24571.50
       17120.54       8885.457      -4103.629      -14041.13      -12277.06
      -9284.258      -6441.225       6973.377       10782.69       3131.916
       7484.154       3286.625      -10518.28      -9002.818      -3296.871
      -959.6016       8754.146       11950.14       215.4336      -10157.79
      -13130.06      -6316.298       3865.980       8043.395       9992.307
       4428.529      -1851.413      -835.1650      -3712.153      -2520.497
      -1456.504      -4879.619      -1410.994      -5064.230      -10764.94
      -8329.650      -1399.932       4333.763       115.1299       179.5781
       4434.778       69.30469      -5298.023      -7480.556      -4243.269
      -801.5918       3927.125       13086.84       9172.281      -66.92773
       2376.092       1193.118      -1608.156       3339.810       4736.358
       3672.052       955.8518      -3374.054       2304.495       4565.344
       3903.137       10500.24       6929.891       138.0391      -4554.490
      -8828.741      -1798.539       1870.905       1808.836       10496.86
       15240.49       7111.986      -5068.770      -11460.98      -9372.625
       567.1572       4693.283      -3816.084      -6991.597       3427.295
       9003.559       2841.529      -4420.926      -9382.918      -10630.38
      -7260.067      -1961.544      -210.4023       2207.376       5149.741
      -167.0977      -7053.562      -4140.605       1930.115      -460.7544
      -792.0195       6478.853       6051.887      -772.8398      -3670.383
      -9960.092      -11595.27       3279.545       10145.88       3499.960
      -875.1992      -3811.438      -8066.015      -6794.971       4027.049
       11299.70       5427.773       2609.484       8096.516       12187.42
