     0.02500000      -45949.42       52900.35      -12345.00      -12345.00
      -30.00498       237.7200      -37.68000      -12345.00      -12345.00
       0.000000       28.21000      -12345.00      -12345.00      -12345.00
      -12345.00      -12345.00      -12345.00      -12345.00      -12345.00
      -12345.00      -12345.00      -12345.00      -12345.00      -12345.00
      -12345.00      -12345.00      -12345.00      -12345.00      -12345.00
      -12345.00      -30.39490      -66.52800       752.0000       0.000000
      -31.54000      -68.94500       0.000000       103500.0       0.000000
      -12345.00      -12345.00      -12345.00      -12345.00      -12345.00
      -12345.00      -12345.00      -12345.00      -12345.00      -12345.00
       263.5014       61.82083       240.5831       2.369153      -12345.00
      -12345.00     -0.1191987       0.000000       90.00000      -12345.00
      -12345.00      -12345.00      -12345.00      -12345.00      -12345.00
      -12345.00      -12345.00      -12345.00      -12345.00      -12345.00
      2008        49         8        51        41
       380         6    -12345    -12345     10710
    -12345    -12345    -12345    -12345    -12345
         1         7        13    -12345    -12345
    -12345    -12345    -12345    -12345    -12345
    -12345    -12345    -12345    -12345    -12345
    -12345    -12345    -12345    -12345    -12345
         1         1         1         1         1
LLAN    -12345          
        -12345  -12345  
-12345  -12345  -12345  
-12345  -12345  -12345  
-12345  -12345  -12345  
-12345  -12345  -12345  
-12345  -12345  BHN     
ZL      -12345  -12345  
[...]
      -2875.370      -1704.372      -2072.572      -879.9370       84.09033
       2222.301       1337.860      -2763.367      -2132.890      -806.8632
      -513.2799       269.5044       355.5088       3782.242       7525.898
       4696.364      -3102.079      -3206.862      -1382.536      -3874.005
       2948.718       5223.949      -1811.646      -4039.476      -873.8047
       4141.096       6578.699       1117.352      -4096.442      -719.8738
      -21.21045      -814.7578       2902.442       1309.221      -2969.019
       1578.524       3143.404      -2335.955      -2665.614      -2657.146
      -1004.896       2614.552       4374.792      -250.4053      -6799.333
      -1904.972       2280.136       1801.078       2036.430      -2106.527
      -1630.554       2411.432       686.6014      -654.5933       217.1904
       908.5288       336.0566      -5075.066      -7370.037      -106.0273
       7682.742       6928.263       831.1504      -4283.977      -8050.378
      -2649.435       6341.279      -285.8943      -3342.225       2995.639
       324.8589      -3394.115      -760.8447       2979.262      -970.4131
      -4983.695      -1875.744       2211.214       1744.528      -2033.765
       1088.951       3771.909      -97.28076      -1534.991      -1356.760
      -4296.147      -769.6006       6086.005       4666.168      -1294.548
      -1710.053       2484.448      -2468.707      -5182.873       3230.585
       3846.611      -453.2915       2154.457       2513.736      -2377.145
      -1819.586      -364.7329      -2578.978      -1245.423       1633.728
       2030.945       1321.566       1741.735       579.2734      -3968.892
      -2540.925      -1637.566      -5738.833       70.80859       7654.436
       4087.691      -2136.249      -2589.537       127.6523      -1166.596
       2912.535       5838.972      -3096.339      -2238.948       1988.389
      -903.6067       1277.344       408.3605      -767.5730       1910.020
       187.4287      -1846.510      -1013.699      -13.51172       1214.066
       4384.375       541.7246      -4203.264       3280.584       4709.270
       953.1140       1287.650      -2639.304       1252.141       4531.939
      -1860.248      -1743.319      -1334.318      -3620.082      -1900.485
       895.9287       1245.302       1774.323      -670.5791      -4117.420
      -3585.532      -3012.669       975.0645       8012.826       5901.707
      -4820.898      -8577.754      -508.4951       5572.498       74.33618
      -2284.308       400.8242       653.1558       3276.693       974.0156
      -1804.743      -3568.018      -6305.245       1293.770       7775.191
       4108.504      -1278.125      -3617.550      -920.5195      -2478.319
      -3990.185       2232.305       2774.936       1514.945       1206.506
       852.0171       3027.790      -4264.853      -4346.691       4619.783
       3556.790       3266.656      -1277.253      -2679.109       5079.516
      -2798.438      -6465.335       2466.157       1900.461      -2282.511
      -2373.954       1477.823      -919.4297      -6094.496       2223.921
       5023.159      -1297.316       70.05713       2494.264       1392.552
      -1525.742      -1738.610       2452.831       2732.562      -1004.282
      -433.6226       840.8718       523.2041       1936.630      -1223.862
      -5047.903       1296.664       6106.051      -1115.023      -4073.493
      -2426.067      -3745.745      -2750.094      -457.7876       703.1685
       1200.604       3972.985       1847.411      -3432.703      -436.7473
       1281.097      -1601.531      -2147.672      -2051.088      -1351.401
       1344.825       1720.692      -1599.655      -3726.208      -3938.689
      -1513.526       4304.600       3130.388      -711.9108       783.1982
      -2765.309      -1784.461       6783.646       4482.087      -1215.487
      -2711.656      -2029.244      -1310.585      -38.01001       1579.812
      -3271.579      -2680.907       558.0430      -4877.470      -4976.753
       2754.896       3620.182      -2512.873       28.62402       4982.222
       1512.359      -2132.934      -1142.920      -33.53931      -540.0254
       1733.350       5915.721       5910.083      -1907.067      -6549.132
      -1922.311       2110.722       563.8945      -3636.843      -1868.473
       2019.344       3712.864       4255.569       725.4429      -1791.829
       1432.433       382.6860      -3062.201       2783.886       3594.362
      -2318.229      -718.3027       1816.453       1214.238       427.3955
      -4729.733      -6248.581      -880.3428      -652.6780      -2378.838
       2477.119       8672.732       2567.252      -7086.482      -5252.535
       530.6367       3137.667       2940.017       349.4712      -2238.552
      -1425.425       1170.724       455.0045      -29.66382       1204.825
      -3623.930      -4232.667       4774.454       4705.032      -557.4014
      -3969.417      -6560.690      -1799.500       3518.315       2701.175
       1069.521       2468.709       1146.382      -2104.177       3216.959
       4116.413      -4390.290      -3174.181       949.7227       1593.395
       3298.550       2952.704      -1275.954      -5155.483       2675.231
       5545.168      -5034.623      -6919.376      -2025.246       1386.801
       4210.667       85.21680      -5057.939      -2200.385       3075.727
       7034.492       7395.210       2707.354      -2537.877      -5240.257
      -1610.024       5901.690       1032.906      -6478.945      -1124.520
       1948.039       1663.488       3697.553       2378.332      -2375.487
      -3473.565      -416.8716      -359.1376      -1129.506       1162.296
      -505.6802      -3745.958       2089.304       4452.047      -3255.485
      -2318.437       2460.034      -577.1738      -2703.396      -2840.151
      -1413.295       2572.271       3719.840       2889.584       1075.621
      -154.5991       2092.150       2047.430      -2953.628      -4323.836
      -630.0449       1981.442       2162.041      -2450.121      -5189.759
      -3485.402       1968.579       5186.835      -1662.687      -1605.917
       186.2959      -2644.777       953.8853       2956.024      -936.1816
      -3733.560       4184.830       7702.793       20.40820       922.0593
       1003.807      -4093.525      -2609.792       2275.780       4044.599
       2605.670       64.29150      -2505.268      -2927.660       999.0293
       6355.000       4485.527      -2279.378      -4312.874      -2251.355
       1988.887       3591.271       682.3333       1730.269      -1159.086
      -7648.284      -4972.854       1439.604       2171.605      -195.3066
       3692.022       6033.921       1828.438      -4902.281      -8483.373
      -1526.064       5777.080       5896.333       2169.915      -4379.021
      -6897.706      -2433.479       1629.702       2665.871      -893.6562
      -4179.836      -3254.105      -5374.515      -3406.749       4846.354
       7109.784       1032.515      -3975.108      -652.9968       33.81958
      -1225.545       5537.763       4895.473      -3652.836      -1919.359
      -1616.574      -1961.185       884.5966      -1208.986       1303.856
      -754.7949      -4334.620      -3733.644      -3879.826      -3583.375
      -3780.486       2555.186       5284.199       3443.563       4087.947
      -1438.227      -3541.793       2962.355       6215.630       4545.241
       190.0327      -505.7532       1663.519       265.4951      -2118.982
      -6149.988      -5671.512       1134.869       6606.425       2798.875
      -5128.745      -5453.170      -4029.248      -520.9631       2028.902
      -3551.538      -2620.604       5012.749       4499.609       5752.611
       3370.508      -6386.281      -6969.288      -3720.939       2262.847
       3803.252      -5096.072      -4433.403       1960.832       304.8838
      -957.5645       2335.321       4681.184       1923.269       747.6426
       2529.049       4022.405       669.0371      -7373.277      -2729.950
       1934.556      -768.9180       4609.278       6782.982      -496.4609
      -6480.252      -5309.389      -2430.715       2253.749       5007.223
       5896.768       5306.390      -3290.808      -1539.319       3004.012
      -1052.247      -2161.880       1879.984       5210.233       2750.304
      -2087.670      -6663.317      -4944.924       44.18018       2523.115
       1341.910      -659.3445       1890.007      -305.1387      -4266.529
      -376.1865      -1065.540      -3663.892       453.6890      -1619.098
      -532.3232       6591.120      -253.8789      -2944.788       5502.338
       1152.916      -6190.881      -1066.183       1137.538      -2258.760
       3.697266       3575.797       1924.959      -1714.944       194.9316
      -614.1318      -5997.613      -2494.090       4593.172       5125.588
       4814.349       5529.225      -1780.140      -7357.056      -249.1191
       4020.228       5282.578       4027.907      -2426.627      -3348.527
      -3901.493      -712.9580       5402.483       1246.990      -2044.775
       2098.457       2776.075       2131.432       4557.963       1639.679
      -1240.630      -1614.879      -490.9521       3642.323       4009.219
       6609.901       6850.844      -737.3945      -4408.222      -2941.185
       1880.902       7634.138       7119.450      -1743.782      -6767.798
       468.4307      -1336.269      -5868.742       525.2961      -1985.906
       2400.479       10326.83      -199.5244      -6500.459      -1648.873
       492.4873      -199.6774      -1.501221       945.4465       38.48535
      -3772.699      -2467.021       2336.769       894.9169      -907.3984
      -1.995850       905.9746      -3021.617      -6264.024      -533.2500
       3944.275       1301.606       926.1504       3198.768       2929.088
       6533.471       6539.617      -1761.930      -5015.229       1444.231
       5855.009       519.2524      -472.5488       5372.928       3692.516
      -4677.202      -2618.859       3876.826       364.6575      -2837.783
       1712.328       6675.854       5398.033      -756.5342      -5659.764
      -3276.912       2589.479       6181.512       4238.186       435.2798
      -2246.799      -1515.826       3731.799       1682.155      -1165.740
      -968.9814      -2095.477      -223.2266       6553.971       5568.055
      -6634.885      -5679.611       1906.150      -2466.222      -5823.745
       43.17188       5397.754       3313.523      -2804.051      -7634.632
      -3529.110       2755.938       61.72644      -1006.151       427.0747
      -265.8818       3745.060       5588.068      -1515.326      -10134.71
      -5000.349       6143.906       1781.512       1215.996       9596.669
       4471.169       990.6677       2207.297      -2154.259      -947.6641
       3022.598       4357.785       4184.002       1842.356       1585.034
       3003.783       1840.836      -3143.100      -6930.321      -3458.460
       69.14453      -6040.320      -5779.522      -779.1631      -3441.823
      -701.4722       2479.229       1866.958       1281.852      -3378.585
      -4185.734       3882.297       9107.826       4683.219       219.1494
      -4291.459      -5756.392      -4786.119      -6020.543      -2159.985
      -2222.457       52.00244       880.8428      -6656.940      -1471.910
      -2376.692      -6625.384       448.6001       205.9609       3732.031
       10968.72       5236.136      -2846.619      -6333.469      -10034.10
      -13488.38      -12600.73      -4670.622       5418.525       8992.901
       6190.671      -1297.020      -4853.693      -3408.637      -2854.928
       6235.690       7526.229      -4095.797      -4229.446       1823.071
       3157.154      -292.1030      -1266.191      -2662.506      -7318.054
      -5914.333       254.6572       3396.079      -1042.463      -975.2344
       4352.407       1305.054       797.3516       5843.839       2843.995
       2212.084       10474.46       9671.952       1897.078      -3898.012
      -11662.32      -15422.23      -11343.36      -10078.32      -12245.14
      -14163.99      -24436.77      -30832.29      -25898.86      -26255.96
      -15786.54       6534.555       11006.09       6932.458       6493.695
      -3928.211      -22399.27      -36721.55      -29495.03      -10212.69
      -7751.361      -3125.032       7373.386      -1019.715       4590.984
       29875.95       28972.09       16761.50       11221.51      -1904.578
      -15189.36      -22395.62      -24231.07      -17950.78      -12065.43
      -10836.85      -673.6562       14449.55       27661.18       40443.86
       43171.48       26421.16      -3370.086      -31906.31      -37725.88
      -22862.78      -18796.81      -1774.594       37934.62       52900.35
       43519.19       26251.34       10050.94       5398.482       3965.787
       3641.044       3942.539      -5896.788      -11194.89       8852.469
       30321.88       26200.62       5613.744      -11977.12      -3166.203
       24632.58       29142.13       10648.28      -875.7266      -9828.836
      -30151.83      -36872.91      -34668.40      -37777.77      -11413.13
       25155.94       48826.88       38121.30      -3465.922      -18178.20
      -16914.14      -10276.14       4314.084       4305.256      -9590.613
       43.76562       23893.46       16874.96       5876.195       12466.17
       9826.867      -11338.86      -12563.59       6733.828       11217.80
       19606.33       26087.19      -871.8594      -18709.22      -20749.88
      -45949.42      -43452.05      -4125.203       16222.27       28535.69
       35275.08       17249.39      -6857.555      -21513.02      -25765.65
      -22896.88      -27286.90      -17960.51       16507.33       13476.44
      -5933.746       14009.03       17293.91       24875.95       45387.82
       22297.86      -11332.72      -26328.83      -20649.79      -9729.627
      -2100.941       14239.14       14285.69      -1452.889       5816.606
       6953.070      -16054.44      -19143.05      -8078.545      -3550.129
       6098.340       13516.45      -1150.805      -13659.57      -29644.36
      -36201.72      -1544.984       23516.01       28097.81       25118.84
       16955.08       11488.94      -11196.13      -15864.45      -5594.703
      -19051.91      -16912.53       8231.439       14512.73      -1126.785
      -9945.990      -11510.85      -6636.125       7377.559       12647.58
       8976.785      -6067.625      -19246.73      -10482.16       5609.102
       10952.36       14535.48       26952.79       15370.70      -5718.256
      -1539.238      -10730.84      -26128.70      -17191.38      -2535.227
       11412.00       26043.95       23388.52       6109.008      -17637.63
      -28611.63      -2041.041       13994.03       2772.186       4591.818
       7192.795      -5378.836      -12474.18      -4448.816       8545.852
       16284.58       8441.869       3854.292       1154.691      -6867.215
       3207.577       2449.537      -13760.02      -3913.439       4787.502
      -1441.620       4160.926       687.7788      -1295.172       4710.479
      -1070.683       5274.613      -204.9141      -23498.86      -18863.16
       598.6240       3592.979       2414.193       10256.64       9883.752
       1349.279       3150.111      -6881.309      -13750.26       4907.169
       3733.684      -14127.72      -17573.16      -5874.212       4759.680
       781.8164       6100.363       10645.52       6337.351       9031.469
      -2362.020      -12714.96      -5104.680      -10221.66      -18133.98
      -3168.867       10594.51       7920.812       7032.223       12690.11
       2668.125      -12918.88      -6816.723      -9142.895      -22206.28
      -5654.793       16703.99       10196.12       10496.11       15233.83
       3162.727       709.3477       661.0742      -10008.42      -16041.34
      -11272.67      -4806.199       6529.008       25657.23       25117.88
       7032.726       2155.322      -2496.187      -7070.003       2442.270
       4415.678       7165.730       3880.902      -6420.624      -2034.477
       2383.631       7964.035       10741.23      -2743.379      -9026.268
       1518.086       12784.18       18174.76       5434.895      -10019.15
      -2376.352       4311.875       10119.84       5731.625      -13503.29
      -10229.39      -9013.749      -6869.148       12022.93       8401.914
      -1836.120       2506.648       3802.441      -4888.481      -7367.007
      -667.8140      -1290.220      -1947.475       2079.273       5625.887
       12450.76       13981.48       11757.02      -6333.160      -26474.12
      -12647.60      -4773.549      -2600.945       17438.57       14762.12
      -3751.135      -823.3125      -3452.234      -21064.82      -18751.05
      -3750.686       5204.560       3420.620      -1003.346       4004.019
       1430.258      -10360.64      -7629.578      -6833.012      -18763.71
      -14726.71       2134.859       3966.988       11820.68       19715.98
       10405.47       7550.752      -7360.414      -20857.49      -12985.59
      -5712.873       1867.504       6497.043       8327.578       9284.152
       13410.16       15932.44       5472.039      -8081.434      -14577.27
      -13991.90      -11938.34      -2187.209       7455.080       5865.609
       10960.54       13348.10      -169.9307      -4079.443       2519.643
      -7190.543      -12639.47       2614.648      -6288.516      -20943.62
       499.5684       11352.86       2458.527       8842.006       11381.76
      -8559.357      -9806.300       2863.544       1657.735       1989.309
      -35.50391      -5086.629      -6729.671      -1695.007       5176.498
      -3246.809      -17702.00      -13675.50       2454.965       13136.44
       18715.03       10702.24      -455.2402      -4418.283      -7752.215
      -12061.78      -13341.65      -930.5156       4851.818       2450.059
       15642.09       17112.53      -9038.129      -17831.19       5019.379
       7501.986      -3597.791       3599.891      -4829.428      -14040.40
       2710.346       7795.183      -1470.705       5348.574       8400.518
      -5624.805      -5010.214       2448.000      -87.02832      -433.2578
