     0.02500000      -56847.38       51755.35      -12345.00      -12345.00
      -30.00001       228.4250      -29.15000      -12345.00      -12345.00
       0.000000       21.89000      -12345.00      -12345.00      -12345.00
      -12345.00      -12345.00      -12345.00      -12345.00      -12345.00
      -12345.00      -12345.00      -12345.00      -12345.00      -12345.00
      -12345.00      -12345.00      -12345.00      -12345.00      -12345.00
      -12345.00      -30.16080      -67.83630       1442.000       0.000000
      -31.54000      -68.94500       0.000000       103500.0       0.000000
      -12345.00      -12345.00      -12345.00      -12345.00      -12345.00
      -12345.00      -12345.00      -12345.00      -12345.00      -12345.00
       186.0817       35.02798       214.4622       1.673056      -12345.00
      -12345.00    -0.03346824       0.000000       0.000000      -12345.00
      -12345.00      -12345.00      -12345.00      -12345.00      -12345.00
      -12345.00      -12345.00      -12345.00      -12345.00      -12345.00
      2008        49         8        51        32
       850         6    -12345    -12345     10338
    -12345    -12345    -12345    -12345    -12345
         1         7        13    -12345    -12345
    -12345    -12345    -12345    -12345    -12345
    -12345    -12345    -12345    -12345    -12345
    -12345    -12345    -12345    -12345    -12345
         1         1         1         1         1
LUNA    -12345          
        -12345  -12345  
-12345  -12345  -12345  
-12345  -12345  -12345  
-12345  -12345  -12345  
-12345  -12345  -12345  
-12345  -12345  BHZ     
ZL      -12345  -12345  
[...]
      -9497.104       611.4033       834.6602       7438.207       5812.281
       4107.045       7872.723      -13760.12      -6911.469       9701.848
       3073.422       6342.857       2571.555      -6783.102      -9730.869
      -11654.18      -5559.174      -6888.659      -3089.664       13451.02
       5843.353      -4298.031       5265.961       9023.271       4978.335
       133.6719      -6524.807      -6203.992      -669.9180       6062.320
       13442.40       524.9805      -16310.39      -9677.762       1012.035
       2895.408       5653.083       2801.616      -1670.178      -2755.812
      -1767.901       3747.055      -1097.329      -6465.241       4354.945
       5293.062       539.9922       7045.583       950.9648      -7908.723
      -6964.785      -7615.089      -8259.492       2403.004       20251.84
       10376.96      -5003.427      -2466.188      -4698.660      -7828.357
      -6506.822       768.1641       18013.57       17818.98      -6027.508
      -13363.46      -4609.590      -9015.158      -10941.01       1290.820
       13357.21       18315.21       12486.93      -184.7939      -4503.594
      -6547.752      -6770.768      -1727.859      -2369.787       7227.791
       14254.04      -650.0947      -5162.947      -2465.779      -5930.857
      -9853.764      -9836.004      -2186.236      -4325.281      -5676.050
       2392.327       880.2324       7871.518       13799.02       3523.660
      -6133.074      -15048.52      -5913.896       11738.67       8449.014
       2147.855       4378.204       5648.111      -2431.829      -5145.814
       1601.714       4084.521       7623.479       2741.511      -6595.257
      -1603.738      -2037.158      -2982.453      -5836.383      -10181.84
       4639.064       8035.375       1210.188       4190.956       1850.836
      -709.6346       1111.385      -904.1250       2645.676       13360.42
       7882.865      -1126.056       2175.520      -3654.945      -5870.186
       6283.132       170.1973      -2332.154       7538.576       1763.045
      -768.3340      -7545.938      -14669.82      -4029.119      -2568.541
       752.9961       7905.198       973.5908       1207.228       5128.824
      -681.9697      -1632.613      -4489.535      -9668.951      -9392.219
       1260.363       15538.42       9239.966      -3422.688      -1943.557
      -3565.936      -9419.999      -5142.831       386.1143      -2379.491
      -3363.929       2194.918       9105.211       9599.430       3827.143
      -3889.066      -11557.52      -5464.184       11054.89       13757.56
       5441.269       3066.134       2118.785      -11848.05      -12251.72
       1834.219       5179.418       12370.12       9650.041      -1150.055
      -4916.840      -10932.78      -7051.235      -2185.637       4940.195
       15472.26       3490.648      -10847.61      -3743.708      -82.24219
      -7056.260      -9468.290       119.2119       6816.642      -477.0146
      -2130.552       1042.628      -1838.725      -1491.018       1337.884
       3078.424      -343.9761      -387.6450       5349.333      -2441.312
      -4654.211       9449.307       11359.72       3353.902      -5685.506
      -7834.866       687.2783       4148.521      -1665.122      -5142.119
      -811.5354       920.5073       706.2764       3809.223      -3324.604
      -5192.638      -645.4258      -6104.095      -5833.703      -3128.257
      -1521.387       7963.154       8963.548       1813.543      -2153.715
      -8800.781      -15055.44      -5915.562       6993.874       4155.678
      -887.4629      -2065.580      -764.7294       677.3340      -2406.910
       6127.895       11694.44      -3850.205      -9769.019      -1275.814
      -9064.803      -13266.99      -5393.000      -10748.89      -5463.635
       11243.71       2579.368      -1320.340      -134.1172      -18227.51
      -8413.430       14236.63       12202.55       14319.14       9568.952
      -2520.963      -3171.650      -2391.902      -220.7285       6892.062
       16095.82       4483.219      -12867.12      -5265.353      -3942.038
      -3255.188       8572.670       4902.441      -3807.986      -4208.792
      -4734.098      -1480.953       11408.66       13375.74       1975.609
       4820.938       6729.054      -5539.282      -1239.933       6739.583
      -634.0195       7387.691       10642.83      -1711.311      -5483.516
      -15255.97      -16009.23       7606.836       15357.31       2203.838
      -6431.777      -10657.70      -15512.57      -13441.69      -2652.717
       7549.148       7023.137       4224.617       68.71338      -2910.623
       7291.459       6682.119      -3717.676      -8227.254      -8259.703
       3309.695       7199.604       3945.258       8002.766       4856.218
       1946.042       1182.237      -3656.104       1089.564      -5334.963
      -10896.60      -4692.748      -8258.736      -3983.018      -4409.548
      -4243.199       12176.46       10604.12       744.8438      -5235.482
      -8599.567      -77.61084       3019.486       1465.342       8655.816
       11888.01       3422.344      -11326.05      -12638.41       4460.859
       18445.50       13362.04      -2211.855      -8463.457      -10725.64
      -7760.680       6923.590       7431.635       3482.885       8394.132
       616.6035      -5258.046       2104.771      -672.2500      -6895.799
      -4486.136       4233.219       12346.25       8496.144      -3178.023
      -18547.62      -22662.67      -5501.451       7371.566       13981.18
       19505.78       4996.926      -8587.625      -3720.556      -4493.487
      -3700.365      -2725.420      -9994.252      -3935.781       7365.033
       9461.475       7364.312       2853.424       4979.262       4050.215
      -5846.617      -6603.410      -6615.557      -7493.590       1064.344
      -878.1152       763.1953       8933.170       4286.340       2133.522
      -2157.749      -4066.299       9069.453       8212.070      -161.9775
       2823.355       1188.176      -5771.031      -7167.262       4322.867
       15353.16       8883.941       187.2207      -7347.589      -8389.372
       1194.733      -1264.425       2076.006       3118.793      -14919.08
      -5711.519       945.9355      -4592.574       10825.32       6864.078
      -4285.981      -4181.093      -7936.990       4167.562       11727.29
       5342.477       8414.302       2209.300      -6229.758       8604.434
       12186.03      -1257.688      -6074.035      -9570.650      -7913.205
      -3951.804      -3773.693       7645.115       8752.281      -6534.664
      -4269.001       4067.176      -4562.984      -6522.864       4534.508
       1541.709      -3835.639       7278.008       9623.409       1473.445
      -2604.829      -5295.763      -124.7764       6398.598       1054.782
      -2243.009      -4083.882      -5949.113       6689.258       7917.799
      -11442.59      -13404.95      -2833.312       1490.990       4777.822
       6882.174       4588.417       1525.694      -618.2964      -2382.138
       1696.599       5816.733       1111.994      -8212.988      -14755.21
      -10458.06      -5750.380      -2880.538       1859.364       242.2363
       6243.937       4984.426      -13566.07      -14382.95      -4630.905
       1469.692       3746.594       5343.770       15589.39       15580.38
      -1713.688      -9209.049      -11059.58      -10110.08       1392.463
       7255.887       12338.49       13732.28      -1549.846      -4317.583
       2129.301      -5349.371      -2247.880       3393.109      -4611.118
      -2616.730       5636.273       10218.60       8761.936       854.9722
      -265.8145      -2064.758      -10827.45      -5552.686       1886.930
       292.1348       5610.090       3882.233       194.0986       4557.342
      -4323.613      -8667.354      -2980.174      -5968.073       526.0410
       6057.295      -3951.297       2135.219       4041.604      -7497.987
       1375.377       9794.650       1476.246      -10554.40      -13966.33
      -10760.59      -9411.779       6399.441       17027.86       13658.27
       19027.48       10673.84      -6870.285      -8670.789      -13351.16
      -11063.29       3813.604       8849.656       8229.263       3786.117
      -7041.477      -21947.72      -28079.26      -10927.42       9842.090
       19120.50       22735.71       13184.36      -7999.746      -12230.87
      -3579.814      -4971.095      -4770.375       1187.473       14.14429
      -2549.625       2055.012       13694.99       15958.27       933.3281
      -14875.92      -21027.87      -14373.59      -7086.598      -2488.379
       10379.87       15749.65       8981.555       3951.008      -3012.688
      -10654.34      -8069.537      -767.1836       10406.14       20409.40
       9851.719      -10337.81      -14146.29      -9919.653      -4383.838
       5663.697       5972.303       5775.887       8682.887      -2911.512
      -14822.79      -15307.24      -6699.895       6919.723       12858.76
       7740.684       9097.723       15789.95       3756.773      -11937.07
      -5158.931       2259.939       3741.094       13149.01       18758.56
       11225.07      -6364.914      -16418.18      -10480.65       85.70801
       7087.848       905.2217       754.2266       7883.076      -4757.215
      -10690.17      -8342.963      -11867.22       8560.227       13343.40
      -9970.480      -1446.199       13739.30       9735.950       3099.336
      -12048.05      -13088.61       7472.617       13218.91       3711.588
      -2849.708      -4944.704       2057.910       8776.094       9423.258
       5820.020      -6194.752      -4725.521       1140.323      -4800.596
       2602.354       5401.668       756.2861       6105.537      -4232.645
      -11987.65       2800.543       13605.34       11123.35      -5160.355
      -9554.564      -1903.297      -14253.53      -23796.11      -15428.25
      -2680.457       9576.736       4395.547      -1361.633       17443.98
       23935.56       3676.320      -12593.25      -15539.85      -6269.821
      -1781.717      -2050.486       7777.946       9157.770      -3610.930
      -13842.23      -13360.50       184.8555       10682.09       1261.371
      -9243.281      -20745.02      -42766.22      -42536.09      -18131.41
       5664.531       23664.63       16863.96       2203.727       16896.29
       24645.15       7669.324      -438.1528       1853.559      -6805.023
      -20681.88      -15613.68       471.9141       10472.27       15483.09
       17503.04       10725.77       6044.356       9513.698      -5242.582
      -14812.82      -1897.373       3045.664       11409.83       24755.69
       17385.42      -3696.264      -11503.89      -5230.090      -15240.65
      -22027.88       11021.47       51755.35       48945.61       1671.875
      -44798.80      -49096.98      -14430.14       13659.38       32107.68
       45824.38       25490.35      -5750.836      -27448.09      -44061.20
      -35744.66      -5053.328       23254.48       24645.82       4006.449
      -6833.359      -19205.78      -24906.26       6152.984       27792.11
       16966.22       18427.46       15928.79      -16774.77      -36380.88
      -34198.23      -23426.09       2971.336       22208.54       31388.35
       24160.12      -3947.891      -9697.191      -11114.20      -23960.13
      -25119.79      -28684.45      -27294.80      -17838.15       8216.594
       47578.83       49121.32       19099.13      -13278.97      -45515.50
      -52135.02      -13696.44       25413.01       34329.97       32665.52
       24123.74       10102.48      -18521.45      -41057.99      -16641.46
       755.1699      -9062.289       4732.793       20725.85       23915.66
       25584.30       20687.39       12297.84       5962.363      -12298.68
      -34118.69      -21764.63       3812.625       25894.73       44046.61
       43534.03       22982.67      -11717.31      -30118.25      -24792.24
      -6557.312       23629.39       32572.02       12648.35      -4767.812
      -24512.21      -36938.09      -18349.16       7184.172       19544.59
       12511.96      -15188.25      -46601.64      -50053.76      -17110.97
       19162.41       45592.12       41121.99      -407.7266      -32845.81
      -39631.92      -32960.34      -19588.35       7220.312       35023.72
       34067.96       19744.69      -1668.516      -33911.99      -40680.16
      -22431.89      -1716.105       12528.27       14679.28       19343.23
       13490.27      -4113.887      -8739.273      -17288.61      -17623.80
       12607.38       29074.74       20294.68       11499.22      -10450.42
      -29962.53      -20849.62       2525.609       29345.61       50486.41
       45843.91       11959.88      -25428.72      -51136.67      -56847.38
      -27871.40       11218.84       29326.71       23062.33       7631.307
       5903.189       2102.883      -17244.98      -34341.78      -27231.52
       1299.125       21989.97       25645.07       13408.84      -7283.320
      -27121.16      -26285.15       1431.016       12005.19       3280.566
       8282.453       13787.57       6181.448       287.6191       4646.319
       2541.536      -3115.580       707.0830      -838.3120      -3897.012
       2171.082       9028.414      -561.1445      -11723.83      -7577.891
      -189.6172       11064.96       14915.29       15267.19       6297.801
      -19705.61      -25377.91      -3305.156       19711.34       28698.75
       19743.42       7752.188       17376.62       17085.33       8216.598
       15733.73      -4577.950      -11340.98       11767.13       7192.922
       8728.969       15542.59      -383.7578      -17841.19      -25344.66
      -23926.71      -23815.33      -19337.92      -1704.211       7598.645
       1680.039      -8556.680      -17468.98      -11228.32      -9880.624
      -13721.84       11352.12       24988.04      -1869.715      -18394.68
      -9572.388      -5196.747      -2487.900       2944.191      -5412.496
      -13914.88       260.5156       26403.62       36845.40       29786.79
       21447.40       1992.164      -15105.23      -7306.078       7323.258
       16693.48       12572.02      -2591.008      -11112.66      -14826.33
      -9071.360      -1708.373       1073.219       13221.25       6944.609
      -11783.11      -9009.590      -5382.021      -7490.211      -10489.94
      -10780.48       8431.381       2676.738      -20694.24      -8574.727
      -2577.186       1034.480       18445.40       17884.52       10115.57
      -4879.828      -28513.28      -29659.77      -8339.656       8853.406
       20269.43       20910.79       9749.878       6753.403      -907.9531
      -18532.91      -19230.03      -12680.79      -18946.66      -16942.84
      -4485.168       3428.198       6416.293      -9603.270      -9274.906
       22844.68       33932.92       29480.61       21098.46       3285.756
      -5448.770      -17573.67      -13601.73       15734.36       15277.21
      -773.9863      -7776.453      -10794.12      -592.7954       3968.803
      -2053.088      -3999.328      -7855.801      -15717.38      -6217.641
       11697.88       16235.41       20245.92       13335.56       277.0703
       5284.757       4034.883      -1926.990       9869.500       12885.22
      -1337.814      -6520.258      -9173.094      -16951.09      -16935.38
      -14876.23      -8965.969      -7953.469      -18567.54      -13847.85
      -4239.779       1473.180       8088.547       8148.630       7034.509
      -2259.613      -8333.541       3849.016       19213.14       24459.68
       15554.04       1757.201      -4350.398      -7085.777      -3351.828
       12388.74       18431.28       14790.94      -996.2891      -22996.01
      -14187.54       3791.490       7035.514       4229.336       5320.520
       17859.75       22560.27       13638.63       4148.888      -1886.289
      -6777.844      -10646.86      -4229.438       2817.670      -6903.125
      -18713.27      -25880.02      -35017.18      -24064.82      -744.6406
       4297.721       7742.676      -5865.750      -30893.48      -24694.87
      -13916.60       526.8047       23616.77       21386.42       8267.082
       10146.77       14052.03       14623.34       8314.453      -5938.301
      -4727.564      -3191.781      -10098.23      -12392.85      -12683.75
       950.0020       5720.242       680.8750       14795.83       17676.68
       4598.648      -388.6758      -9243.547      -15304.26      -7445.653
       1837.617       9469.104       7843.094       15903.23       29634.22
       15139.12       206.9575       962.5371       403.2882       1083.603
      -1970.389      -10747.54      -1577.609       14072.23       17188.78
       9963.230      -12367.70      -27250.01      -30462.31      -24038.11
      -630.5723       7059.750      -5376.203      -6706.078      -4856.629
      -12461.35      -9874.104       5238.645       11568.58       8036.168
       7278.383       9021.068       5001.140      -4468.378      -2059.422
       7118.941      -666.2598      -3737.122       3189.980      -2749.669
      -4133.367      -289.2871      -2909.768      -1819.064       709.1904
      -194.5938      -6629.564      -8328.947      -1287.859      -4184.125
      -13240.36      -15504.45      -9603.654       6372.637       13778.48
       12104.29       13742.10       1945.312      -11428.92      -18403.01
      -22413.86      -8490.945       10924.42       20781.64       19311.97
       8261.648      -5408.141      -16914.56      -29262.50      -26518.69
       2059.031       24335.58       31064.95       27960.18       12395.92
       13278.85       22745.44       8311.139       1855.945       8038.289
       6813.973       12705.70       17302.61       14795.41       3690.648
      -13083.35      -14446.54      -9913.215      -14669.53      -16951.54
      -13987.91      -12567.01      -11531.07      -8846.477       3481.203
       22199.16       28934.87       30825.52       22060.95      -5790.301
      -20275.43      -14070.81      -5823.432       1457.973       2331.143
      -6572.387      -9434.855      -4797.232      -4980.704      -3671.679
       5260.153       5134.984       2317.055       7749.643       4888.707
