     0.02500000      -92739.62       87743.03      -12345.00      -12345.00
      -30.00001       228.4250      -29.15000      -12345.00      -12345.00
       0.000000       21.89000      -12345.00      -12345.00      -12345.00
      -12345.00      -12345.00      -12345.00      -12345.00      -12345.00
      -12345.00      -12345.00      -12345.00      -12345.00      -12345.00
      -12345.00      -12345.00      -12345.00      -12345.00      -12345.00
      -12345.00      -30.16080      -67.83630       1442.000       0.000000
      -31.54000      -68.94500       0.000000       103500.0       0.000000
      -12345.00      -12345.00      -12345.00      -12345.00      -12345.00
      -12345.00      -12345.00      -12345.00      -12345.00      -12345.00
       186.0817       35.02798       214.4622       1.673056      -12345.00
      -12345.00     0.03450770       90.00000       90.00000      -12345.00
      -12345.00      -12345.00      -12345.00      -12345.00      -12345.00
      -12345.00      -12345.00      -12345.00      -12345.00      -12345.00
      2008        49         8        51        32
       850         6    -12345    -12345     10338
    -12345    -12345    -12345    -12345    -12345
         1         7        13    -12345    -12345
    -12345    -12345    -12345    -12345    -12345
    -12345    -12345    -12345    -12345    -12345
    -12345    -12345    -12345    -12345    -12345
         1         1         1         1         1
LUNA    -12345          
        -12345  -12345  
-12345  -12345  -12345  
-12345  -12345  -12345  
-12345  -12345  -12345  
-12345  -12345  -12345  
-12345  -12345  BHE     
ZL      -12345  -12345  
[...]
      -404.8359      -2962.882      -3298.429      -2569.878      -3538.564
       1253.033       5986.293       6408.128       2998.574      -2144.326
      -840.3096       2245.676      -240.7705      -4807.441      -3836.789
       691.7012       2931.188      -1085.678      -7787.149      -1976.807
       3272.863      -2919.438      -6127.262      -5588.544      -5670.419
      -95.06445       4538.735       857.1841      -2439.464      -798.8447
      -1159.058      -3721.299      -2428.086       7087.273       13125.93
       8009.904      -911.9106      -2683.912       1603.896       3008.851
       1125.013      -715.5957      -5969.969      -7909.263      -1310.146
       2446.455       3833.796       6380.586      -5231.562      -19798.58
      -11081.20       1906.541       5037.033       9735.742       8374.997
       2069.625       2403.042       2667.907      -3416.968      -2639.736
       4821.171       3818.787      -2958.538      -2603.327      -2238.988
      -1912.438       1078.066      -1047.714      -4048.958      -696.8223
       5088.672       3335.115      -1008.492       1175.452       3384.005
       2080.792      -4251.601      -5229.787      -570.1426       1977.581
       4548.678      -593.0410      -7676.845      -6445.554      -3461.535
       1969.541       3050.384       223.8525       4099.392       3115.177
      -5570.989      -762.6934       8225.345       6555.522       436.2363
      -3646.544      -2069.232       4793.343       5776.457       3537.287
       3736.177      -687.0039      -4428.898      -4145.592      -4842.745
      -3261.681      -575.6631      -1148.353      -3386.048      -4556.674
      -867.4043       9110.438       5744.828      -6427.817      -4376.960
      -857.4941      -3659.791      -2067.406      -570.3340       1819.724
       3126.153      -3294.678      -2527.684       2349.203      -5649.866
      -4670.830       6304.105       8319.351       4462.109       2053.487
       2043.750       2627.148      -1577.256      -2238.764       3827.051
       644.5371      -5271.313      -2658.198      -2597.359      -7501.576
      -4320.885       4121.356       3490.021       333.5713      -4107.467
      -7513.892      -1222.602       5673.475       5525.980       199.5698
      -2994.185      -285.8716       913.5645       3446.423       2648.536
       125.2930       5304.271       5375.439      -2690.265      -4408.181
      -1662.553      -96.31885      -1931.985      -2788.327       1589.162
       4006.898      -2015.486      -5875.529      -1786.816      -982.6504
      -1412.216       1536.427      -1207.388      -656.5791       1244.026
       271.7188       4798.021       6972.230       2579.383       1689.741
       1654.930      -1926.191      -556.6050       2821.033       770.3409
      -283.4916       1058.229      -989.5195      -7102.554      -4458.662
       3778.976       2343.702      -3724.936      -3698.990      -125.1914
      -1969.266      -4450.608      -2402.281      -1169.180       3786.000
       6364.000       6667.123       9156.672       5407.363      -2738.208
      -3570.316       2323.213       5317.551       2818.307       510.8115
       1581.168       2346.766      -5197.940      -7452.468       1989.217
       4558.542       195.6572       2285.256       4678.368       2858.854
      -3183.478      -5009.540      -1580.384      -5639.455      -5077.121
       1892.856      -320.9446      -1431.350       3909.412       2861.819
      -2145.995      -2305.798      -1166.211       115.7300      -777.5703
      -4605.940      -3563.179       4073.572       2594.935      -697.3662
       2468.593      -3287.145      -10030.19      -6115.861      -4081.504
      -641.6875       5816.604       6633.171       2350.563      -1820.048
      -3156.851       813.8477       4217.015       3037.667       3638.350
       4584.930       2128.057      -698.0693      -4098.123      -4445.394
       159.7773      -174.0039      -6245.270      -4493.229      -4652.251
      -4879.595       4340.691       4231.537      -958.1831       2204.115
      -149.5811      -2998.657       1276.178       2751.638       3419.265
       5761.642       769.0835       879.0093       3935.847       41.53613
       1350.788       2325.027       422.8491       2402.033      -269.6060
      -2669.327      -271.4004      -2963.999      -6666.238      -1207.726
       3319.900       457.7217      -1078.114       2885.010      -407.7168
      -5323.021       556.5615       4983.123       4320.463       4371.116
       1426.448      -3134.377      -4267.866      -1240.456       1490.772
       3769.313       2324.516      -1516.320       949.9028       4417.920
      -912.3799      -4746.227      -6150.307      -6628.287      -3447.002
      -3132.018      -1546.706      -30.00244       255.9006       1281.229
      -4568.263      -3948.906       3120.934       4860.420       7763.002
       8713.451      -906.1465      -8290.789      -3800.845       1606.219
       1163.776       40.16089      -705.0205       389.4395      -1022.881
       702.3389       3317.825      -956.2329      -2657.138       3282.445
       4196.011      -1341.201      -2262.846       2007.730       3095.241
       490.1133       1695.765       3961.994       3114.838      -2591.906
      -9686.973      -4283.458       432.3145      -3833.881      -1409.604
       3666.416       3037.235       3153.137       521.5527      -6325.861
      -6210.295      -838.0996       2389.135       4862.858       1750.726
      -3376.833      -5172.273      -1847.329       2241.623       4404.218
       4631.678       70.68262       441.4961       6402.334       3691.820
       131.7704       224.3438      -1864.000      -4780.828      -3314.256
      -2018.194       188.4175       3441.229      -232.1843      -1893.493
       859.4023      -3886.696      -3544.957       6220.725       572.4707
      -10877.37      -4949.911       1132.265      -2304.575      -3343.025
       4270.217       7591.760       2625.930       1530.479      -2132.607
      -10488.96      -5749.212      -740.0454      -1079.789       5719.512
       5231.532      -2860.709      -4782.848      -6117.246      -10004.91
      -7542.180      -2296.690      -5660.442      -2692.238       5658.484
       4722.594       2830.729       4234.649       2544.825       704.9685
       34.92725       2161.625       2957.708       314.6108      -2043.803
       2143.082       8240.877       5274.525       2256.649       4015.660
       4496.574       7535.918       6365.777       3819.209       4061.660
      -2908.525      -7520.342      -3120.446       1636.112       713.0063
      -1718.341       1047.085      -418.3301      -3708.328      -5879.436
      -3455.186       6416.764       6117.420      -2288.947      -909.7808
       1335.392      -1052.400      -3318.438      -1347.469       4269.878
       5671.731       1718.394      -2847.071       97.14746       3381.558
      -2302.242      -827.1567       3718.038       172.8906      -12495.95
      -13207.53       4705.770       5736.763      -2440.747       827.3818
      -1312.421      -4535.575      -856.7292      -1101.649       2707.707
       9897.902       2693.925      -961.3740       4252.636       2239.926
       3992.713       7493.793      -377.8604      -980.9736       5252.598
       384.7363      -8616.840      -4618.252       5679.472       5244.275
      -5060.805      -7138.779      -857.5273      -1271.133      -2687.074
      -1042.151       161.8276       3930.387      -1448.678      -8897.486
      -3343.955       3108.875       4333.984       3208.113       1144.911
      -8.348633      -1249.668       1937.174       5094.117       1009.124
       1424.609       5134.722       579.7572      -116.8545      -543.7480
      -7971.013      -5646.008      -449.2268      -1695.089       4592.733
       2981.982      -4983.535      -6262.511      -6369.412      -3205.756
       599.6125       1661.736      -206.8489      -1703.121       2834.102
       1839.972      -2654.385       3395.123       4477.846      -1991.287
       2588.129       8641.568       5682.613      -2103.104      -6801.325
      -1315.147       3742.868      -1388.266      -3299.708       349.9583
      -631.9601      -992.9937       2564.176       1444.001      -1874.415
      -3862.847      -4069.332      -1246.136       3015.181       3719.715
      -644.9043      -3203.264      -2410.233      -1017.914       3204.977
       2041.290      -1652.950       2235.398       5517.882       2657.038
       782.4873       634.6494      -1048.652      -3101.107      -2605.152
      -1505.371      -78.52979      -1333.988      -5455.018      -7839.438
      -5220.271       282.4297       4227.501       3475.707      -1227.241
      -1889.059       2210.794       381.7075      -539.7852       5484.229
       6250.892       1696.437      -1892.293      -3717.021       1998.502
       7822.131       3370.621       227.6113      -1466.096      -7280.905
      -2355.874       3930.966       437.3286      -721.4324      -139.3066
      -2137.114      -405.2422       4307.827       3084.795      -6619.963
      -9165.852      -2015.310       223.9851       73.17383       2143.999
       2140.636      -512.3538      -2080.388       93.79883       4374.314
       8672.614       5913.624      -458.1543      -3376.439      -5337.565
      -4754.486       645.6001      -1387.309      -4477.890      -1635.451
      -5125.145      -9382.732      -4124.270       4658.043       7430.994
       4502.211      -3392.359      -7427.103      -2424.523      -750.6597
       636.3379       5673.055       9161.352       6912.602       2378.144
       519.7495      -1980.251      -2553.113      -3872.145      -6494.184
       2202.604       8186.292      -729.9390      -4198.705       380.3576
       570.5610      -279.9741       73.64404       1880.308      -1210.812
      -3336.126       1844.090       5648.829       5229.499       200.3573
      -429.1230       2602.010       2502.973      -1862.391      -4613.200
       1377.345       3007.260       1144.466      -448.2249      -1838.718
       3440.086       7178.217       76.71387      -3412.215       131.7051
      -708.0037      -1068.832       2090.211       4237.972       398.0410
      -8334.485      -6826.757       494.5908      -3280.768      -8685.975
      -5856.729      -4243.957      -2589.703      -549.9458      -3104.125
      -383.1553       3535.171       100.3895      -855.5127       2984.961
       5581.830       5815.582       5871.570       4383.653      -996.4751
      -2771.950       902.1719      -5345.742      -12034.93      -1775.638
       4798.892       1152.218       2767.585       2210.403       1105.026
       97.27734      -4120.031      -4292.713      -2324.351       2908.100
       8000.826       5809.984       4522.633       5189.454       746.5234
      -1415.077       3910.687       5981.210      -2371.078      -6883.076
      -1035.977       2128.797       698.8516      -3308.006      -7180.863
      -6146.082      -4232.485      -3075.147       729.8865       2495.764
      -1388.312      -3996.558      -42.94727       1188.840       3389.135
       9763.077       5892.830      -2619.521      -6669.293      -5212.643
       52.96509      -1564.147      -190.8203       9501.113       12032.80
       5005.690      -4259.527      -5426.659       738.0157       911.6392
      -607.8467       537.4399       853.1875       3925.329       1093.642
      -3294.676       2754.697       2249.689      -1886.680       1046.307
      -3098.182      -7574.023      -1803.009       2098.926       400.4150
      -507.0029      -1194.390      -2507.747      -4416.301      -4505.985
      -793.0107       1059.490       4970.043       11367.90       9427.400
       3906.578       2371.670       4189.004       8151.477       9467.633
       9860.977       11645.31       11279.81       10128.63       2599.273
      -10584.25      -18641.05      -26174.03      -31461.23      -33216.77
      -32053.23      -19182.11      -6216.930       2384.305       15731.20
       11731.48      -16735.52      -39162.27      -46216.81      -40294.65
      -22802.47      -9216.547      -2219.570       8276.453       27924.88
       44704.53       42252.86       34394.88       31217.15       27230.03
       26354.07       20909.15       6504.557       5443.680       21280.90
       29968.77       15708.30       2980.547       26543.44       64431.94
       80342.19       68354.42       25178.97      -24061.19      -58370.03
      -80562.88      -72080.64      -47128.04      -15768.25       22037.91
       30408.51       22904.24       15697.71      -3938.980      -12565.43
      -9761.641      -42754.33      -92739.62      -71190.52       9329.531
       41257.65       20397.77       1605.320      -23692.70      -43616.42
      -41892.53      -32389.57      -2573.984       36605.41       34839.96
       5058.900      -7802.059      -9993.027      -11497.70      -18062.46
      -21746.19      -13029.41       6540.164       24032.97       21538.33
       46229.78       87743.03       69491.34       35696.54       29710.78
       22425.21       8136.418      -13370.16      -20900.18       113.9619
       7480.205      -813.9727       6834.561       8105.758      -10782.41
      -27049.67      -46061.00      -63438.84      -38397.10       5719.933
       4178.516      -22535.86      -26410.56      -18167.85      -17254.75
      -20748.35      -5952.273       29123.32       30333.58       1230.460
      -5717.883       9049.195       29125.33       26942.90      -2586.188
      -6704.047       37496.11       61162.04       21962.25      -17626.23
      -37243.58      -63365.67      -63945.14      -14823.82       29862.12
       24651.92      -11201.84      -41364.72      -50868.98      -56371.14
      -47032.97       9713.844       55888.45       47995.05       27214.07
      -7220.172      -43559.73      -47105.43      -28211.31       8138.625
       41971.95       51235.16       39263.25       15646.40       12537.37
       32494.06       44621.08       62565.59       69480.88       27012.78
      -3952.758       13545.88       14239.15      -5190.612       1353.219
      -4805.953      -33863.60      -34595.06      -16867.65       3235.689
       10713.80      -11805.89      -28325.86      -26255.12      -37874.73
      -53524.59      -43139.18      -23627.97      -14016.42       1346.227
       15029.62       26987.27       45933.95       32194.26      -10239.37
      -34752.53      -30745.81      -2308.250       38123.75       55965.94
       28443.95      -9996.898      -32307.98      -43115.57      -32647.95
      -4501.619       9112.422       11960.96       19325.83       6510.750
      -18719.97      -29153.36      -27106.83      -1174.281       25016.85
       16513.84       7989.799       1766.828      -22707.00      -25520.42
      -10002.05      -885.6797       15472.63       13645.89      -6762.184
      -3990.523       17151.36       18656.61      -3902.637       390.7344
       14917.56      -10877.77      -32694.63      -7291.297       30344.47
       36831.73       33107.98       33501.61       14735.79      -3275.039
      -3662.863       7058.848       16110.72       2910.703      -25515.61
      -37581.12      -20502.76      -5440.516       10697.24       32219.35
       17684.31      -6946.500      -15699.85      -19005.08      -14123.11
      -14876.54      -8880.617       8569.615       8894.705       4250.656
       10101.72       5725.422      -16118.48      -27060.91      -16910.85
      -15071.83      -23689.41      -3421.430       28108.23       27944.34
       18799.97       15056.91       13283.81       5867.801      -17539.88
      -26382.38      -11675.99       7759.492       9158.430      -11502.45
      -13194.93      -1534.699      -15644.52      -24575.11      -8641.135
       726.3320      -8083.129      -15134.30       3084.428       10538.48
       3748.391       25194.80       28591.26      -3454.715      -19877.36
      -7085.355       17737.00       23686.00       14729.75       13300.07
       2787.934      -15519.97      -14266.18       5167.211       24582.02
       21912.40      -307.0000      -21047.22      -20402.46       16714.76
       30816.07      -616.1465      -13637.49       1517.586       8695.396
      -96.47607      -2677.639       1326.176      -4335.586      -20257.41
      -26956.29      -13710.74       10868.76       17609.35      -17494.45
      -31836.74      -200.2422       9654.031      -3035.438      -7226.863
       1407.117       21998.77       30933.08       31701.01       28309.75
       16464.06      -318.9336      -19377.55      -18266.54      -1638.457
       12008.22       7994.699      -8029.074      -13210.89      -8228.752
      -2212.047      -15214.30      -39144.92      -49084.72      -42317.19
      -19143.74       6637.312       20769.68       21065.47       16001.00
       4975.016      -10684.78      -15932.63      -16138.88      -7060.773
       6350.074       11631.55       25730.02       38816.75       26029.87
       6483.555       585.4219       3029.148       13695.01       19820.68
       1748.883      -18849.75      -24753.62      -25524.09      -11936.35
       2556.199       9807.703       19774.12       8381.318      -10263.09
      -10352.44      -10019.50      -11722.54      -9688.816       5121.031
       20261.65       10855.69       1629.244       853.1113      -5351.618
       303.4238       10433.93       4668.720       3039.875      -4029.684
      -18135.62      -12544.47      -10678.25      -10393.93       8892.086
       9898.971      -1244.603       6771.787      -4452.609      -21242.89
      -4332.738       13830.92       15047.82       8419.660       8247.021
       9561.331       802.0547       6119.373       8221.826      -12022.45
      -14028.78       1542.496       13848.17       9422.192      -1275.579
       3542.285      -1892.508      -8044.191      -4323.301      -7652.359
      -2435.420       8146.501       5067.237      -2553.184      -11394.64
      -15125.90      -5988.591      -3816.068      -6630.367      -8515.150
      -6823.781       9566.348       11959.30      -2939.446      -4287.484
