     0.02500000      -182986.6       133791.9      -12345.00      -12345.00
      -30.00001       228.4250      -29.15000      -12345.00      -12345.00
       0.000000       21.89000      -12345.00      -12345.00      -12345.00
      -12345.00      -12345.00      -12345.00      -12345.00      -12345.00
      -12345.00      -12345.00      -12345.00      -12345.00      -12345.00
      -12345.00      -12345.00      -12345.00      -12345.00      -12345.00
      -12345.00      -30.16080      -67.83630       1442.000       0.000000
      -31.54000      -68.94500       0.000000       103500.0       0.000000
      -12345.00      -12345.00      -12345.00      -12345.00      -12345.00
      -12345.00      -12345.00      -12345.00      -12345.00      -12345.00
       186.0817       35.02798       214.4622       1.673056      -12345.00
      -12345.00     0.01970586       0.000000       90.00000      -12345.00
      -12345.00      -12345.00      -12345.00      -12345.00      -12345.00
      -12345.00      -12345.00      -12345.00      -12345.00      -12345.00
      2008        49         8        51        32
       850         6    -12345    -12345     10338
    -12345    -12345    -12345    -12345    -12345
         1         7        13    -12345    -12345
    -12345    -12345    -12345    -12345    -12345
    -12345    -12345    -12345    -12345    -12345
    -12345    -12345    -12345    -12345    -12345
         1         1         1         1         1
LUNA    -12345          
        -12345  -12345  
-12345  -12345  -12345  
-12345  -12345  -12345  
-12345  -12345  -12345  
-12345  -12345  -12345  
-12345  -12345  BHN     
ZL      -12345  -12345  
[...]
       2491.324      -4223.223       1292.430       2633.699       7598.457
       17529.64       4994.396      -10449.09      -2993.129       8532.488
       11961.63       9857.670       2554.629      -5467.559      -12724.91
      -14049.02       2769.324       18545.35       10644.83      -1671.357
      -6706.344      -13197.70      -15300.42      -2373.895       10814.27
       8125.751      -4790.990      -11063.04      -3207.464       3938.039
       2556.537       1929.297       12213.60       8487.623      -8338.781
      -6213.439       197.3262       1453.417       500.9697      -3939.394
      -4704.976      -3778.045      -6589.255      -197.3633       15820.98
       9206.262      -6221.297      -2474.130       326.1777      -6181.578
      -6072.192       223.2090       9537.075       6382.137      -12832.24
      -10912.88       9541.738       11570.44       6310.313       6589.248
      -6986.762      -15898.69      -6809.731      -1095.660       4726.731
       6656.701      -2407.445      -7891.308      -6086.049      -2695.324
       3427.732       8268.678       2824.770      -4482.147       1015.826
       8524.019       652.0347      -1843.617       7411.647      -2537.990
      -13194.77      -1177.633       6505.713       6368.897       6103.835
       686.3906      -4903.313      -5162.348       383.1631       307.1660
       6278.994       12002.66      -3305.217      -8292.451       6236.414
       7597.894      -1980.649       3134.945       6292.016      -4896.867
      -8091.624      -2643.854      -616.7324      -3157.722      -780.0586
       5469.937       573.6855      -8911.104      -5341.126       456.4351
      -1025.917      -1948.287      -4982.168      -7061.446      -1632.915
      -426.1436       324.6426       7200.738       2796.711      -6434.779
      -6506.726      -3604.334       5715.824       11220.79       7242.936
       5928.801       2538.365      -9932.168      -12523.50       6026.457
       13718.25       4577.119      -327.8496      -2859.156      -8009.607
      -10685.87      -2234.875       5989.112       1118.359      -8742.689
      -6852.890      -2282.050      -4858.622      -3030.621       975.3994
       3998.143       1642.776      -1225.463       2617.924       3809.543
       7006.734       7210.557      -1725.828      -2011.498       9527.020
       6982.811      -8326.490      -5554.980       3919.502      -4185.255
      -6607.366       4258.801       4270.666      -3135.238      -10196.21
      -6779.238       826.9971      -5204.130       411.7852       6867.602
      -1125.708       480.3301      -4760.082      -10290.95      -2724.423
       606.5391       9441.586       14664.64       5422.784       1546.811
       1242.792      -3610.808      -1251.367       7565.541       9700.347
       416.2930      -5898.092      -5995.516      -8216.733      -1940.508
       6757.768      -710.3652      -11936.07      -7467.144       3338.896
       3049.639      -956.1577       2632.556       2882.127      -3724.292
      -4556.804       3170.803       8831.027       3654.185      -1923.974
       78.00024      -162.0938      -1973.842       8101.809       14977.66
       1161.604      -9040.833      -3984.381      -2392.072       2970.059
       6828.856      -4376.593      -6514.469       2831.190      -569.1914
      -9040.716       1470.955       8962.405      -4244.602      -11074.84
      -3889.264       5998.541       1197.348      -13344.03      -9464.495
       485.3047       3418.293       10444.42       11117.29       6830.963
       3942.284      -2375.814      -2927.918      -2854.673       1438.100
       6850.182      -1222.455       2120.309       6676.455      -3126.988
      -5711.841      -3573.470      -852.6431       1964.606       179.5999
       942.6458       1406.102      -3119.439      -6040.738      -5562.953
      -3723.613      -547.2266       4940.583       5596.223       24.48242
      -6169.729      -9471.994      -6033.789      -1471.134       260.2445
      -728.8213       1111.732       7075.271       6316.217       3367.376
       1504.125      -3261.798      -2412.828      -5968.430      -10016.61
       5715.992       15196.82       4570.816       310.8965       2450.903
       1434.394      -739.9741      -2338.727       1131.979       6943.147
       6307.082       251.6250      -2857.156      -3927.524      -3908.961
       6.700653       431.5513      -504.3643       2768.004       6488.375
       6299.281      -5775.828      -11593.11      -999.1104       2278.172
       4770.043       8553.867       1365.568      -1874.929       3381.878
       1100.862      -667.8848       6481.429       6095.229      -1868.395
      -6780.430      -5335.096       3089.528       4750.834       445.1475
       4225.258      -1452.336      -11801.80      -6030.602      -2482.547
      -2683.804       4464.670       6207.388       2072.555      -343.5898
      -6827.354      -5674.222       1120.745       628.8569       2682.931
       1470.858      -32.38403       1263.939      -5958.308      -6392.867
       4484.979       5724.630      -2887.921      -847.6992       6900.989
       5895.662       1082.682      -2332.849      -2350.299      -119.9033
       2251.137       3157.256       2336.393       1273.453      -4363.951
      -9145.158      -5339.719       1260.846       5435.402       6722.820
       2483.581       286.7012       538.0366      -3527.624      -461.8525
       6193.285       1911.000       1338.387       4829.236      -3821.666
      -9207.883      -3168.799      -3006.714      -4867.712      -91.88184
       2083.407       1793.979      -1385.202      -5676.109      -3173.682
       5486.189       9820.779       4429.709       792.2849       1578.703
      -820.5957      -6731.336      -4515.792       1748.564      -322.5219
      -1412.949       1501.187       285.1396      -2074.415      -1823.696
       569.9175       765.2671       45.01562       5410.942       4987.268
      -3434.657      -4202.088      -2713.689      -1137.191       4187.142
       3276.931       632.1953      -1088.854      -6331.298      -2905.171
       340.4023      -8252.744      -10072.15      -5357.459      -8335.087
      -5189.181       5158.299       4272.397       537.4961       56.19141
      -8438.357      -12667.05      -2889.764       5951.408       7523.464
       2529.051      -5068.764      -7351.485      -5469.916      -2542.994
       5742.412       10952.92       2387.679      -775.5005       2297.915
      -3842.002      -5032.309       1213.106       2427.485       4851.143
       6177.988       607.3481      -2034.279       1114.105      -3710.473
      -10425.76      -6796.785      -5859.332      -4595.629       7919.516
       13065.05       4536.349       618.8672      -1229.730      -6456.931
      -4548.504       9140.508       15794.67       7513.634      -1906.752
      -7560.586      -3323.159       4204.102       4951.379       8305.953
       10862.62       1118.072      -4434.431      -180.8145       1909.866
       3616.779       6481.239       5848.084      -3238.334      -10522.16
      -5027.859      -3575.572      -3412.945       8934.332       7459.451
      -5068.201      -3128.654      -5859.666      -8781.602       2175.639
       7995.058       6904.855       356.5254      -6595.256      -8404.133
      -4483.506       1395.978      -933.2501      -199.1543       1304.962
       3707.310       6107.952      -199.4182      -344.5845      -319.4604
       1587.903       3626.476      -6810.099      -5995.041       5299.598
       9110.971       10358.76       7680.417      -2231.309      -7604.974
      -4735.807       1834.385       7485.735       4357.583      -1973.115
      -3588.134      -2728.711      -975.4349      -134.2231       2109.817
       2483.597      -270.5098      -2281.709      -8048.679      -3678.266
       4751.062      -3880.687      -4850.711       2720.388       526.3311
       3687.859       8291.867       1934.251      -5392.228      -4453.780
      -1085.284      -64.03906       5033.711       5709.454       4587.943
       6588.408       4638.842       6272.775       8481.332       4934.671
      -1730.572      -4990.398      -5271.694      -5264.470      -1822.683
      -3941.887      -6902.668      -7765.156      -12264.75      -7248.029
      -1853.081      -5889.046       1328.078       7411.571      -45.61133
      -4324.895      -9492.795      -11934.47      -7797.726      -3452.422
       4454.473       10617.40       10119.43       3079.310      -1181.192
       1879.862      -614.0703      -6357.496      -4904.541      -4612.916
      -2793.253       2741.750       5887.137       7945.525       4173.174
       5640.739       7098.941      -959.8105       1094.360       3828.876
       1289.036      -625.3494      -1198.115       6336.216       6025.443
      -1120.123      -1795.592      -3770.322      -4226.623       265.6375
       870.6433      -1419.556       194.5513       1272.897      -3099.279
      -6620.069      -1409.799      -725.5173      -1863.434       6868.046
       4000.602      -8912.402      -2829.528       4627.573      -6957.993
      -5964.891       5734.420       6296.062       4776.617       5820.024
       7593.118       640.2773      -4799.958       982.0527      -2724.104
      -8691.169      -4664.053       45.66113       6161.034       3160.863
      -6652.810      -1390.063       3806.499      -3353.041      -5938.514
       480.4629       5138.850       3728.587       712.9590      -5901.958
      -5721.159       549.8179       1508.465       5150.611       7858.889
       3246.434      -1419.150      -7333.908      -13680.66      -4625.738
       9021.731       4422.564      -2576.160      -2029.859      -10494.05
      -15242.79      -3464.071       8.108887      -3080.354       1765.094
       6652.823       6859.155       1568.736      -4947.446      -3846.097
       2296.786       586.7500       2119.021       9950.924       6052.908
      -2905.973      -10748.36      -10153.95      -716.8408       597.6045
       1281.320       7674.207       3064.498      -7572.489      -3586.297
       6526.736       5759.711       1379.537       5535.061       7778.653
       3452.143       3645.085      -1058.904      -8255.088      -1480.677
       3550.488      -374.8823       2230.891      -27.26367      -4282.051
       176.7778      -914.5430      -4437.215      -5771.654      -2318.370
       113.9102      -5311.927      -2876.403       4903.347       3277.195
       81.00391       1278.049       2340.587       5159.016       4708.078
       3456.978       4642.034       212.0874      -2175.333      -1713.883
      -1354.816      -4671.689      -11944.78      -1283.401       7044.153
      -538.8320       3406.613       8596.417       2866.439      -6464.088
      -8029.099      -1966.781      -6708.566      -9655.986       2364.949
       6599.646       5772.520       11752.96       6500.145      -2711.963
      -4674.762      -6744.061      -4479.371       823.7441       5327.691
       9450.998       9488.953       4771.859      -4020.285      -13570.89
      -9782.199       307.5469       3796.871       9519.797       9005.807
      -4269.393      -12515.07      -3558.210       4804.765      -754.2681
      -2399.570      -31.82227       604.8003       1373.511      -1694.283
      -3788.396      -4619.206      -2953.603      -74.17822       182.5430
       3077.450       4623.424       4401.777       6560.226       2650.070
      -3742.820       906.6279       3564.573      -1373.738       4951.873
       7538.067      -1563.942      -847.4023       3465.102       2653.965
      -3515.891      -11911.73      -7558.817      -1721.486      -10305.56
      -3618.566       13943.76       5456.860      -478.9614       3564.064
      -8007.949      -9835.401       711.1797       6935.297       16280.27
       12921.85      -3077.571      -4066.042      -1872.181      -6305.466
       907.4844       10466.79       9092.521       4625.348       6947.439
       10181.29       4115.998       2993.074       8553.220       3040.691
      -9252.268      -10917.09      -6164.271      -4016.771      -5771.875
      -6848.104      -3514.398      -7501.422      -18564.70      -31453.97
      -26971.27       272.9258       11957.28       16182.06       36605.75
       51204.48       49159.80       32945.48       13672.34      -770.3281
      -26987.81      -47421.28      -32663.22       7988.844       62459.16
       107424.7       106324.7       59346.71      -3249.234      -55975.50
      -78335.06      -69700.34      -41927.50       12278.97       81712.97
       130049.8       133791.9       82626.04      -2874.625      -99920.31
      -182986.6      -182015.6      -86027.11       28999.14       91658.50
       79311.29       33426.70      -29054.41      -105408.9      -137097.8
      -100063.9      -383.0000       100864.7       97755.83       11723.55
      -62556.78      -78103.91      -28137.91       54486.44       102464.5
       84724.09       36448.48      -10644.52      -52421.48      -64050.37
      -34033.17      -1965.434       12665.79       3621.461      -21255.41
      -25513.53      -13223.12      -16501.38      -28534.25      -42413.72
      -77838.22      -101020.8      -82758.56      -56304.30      -32933.27
       23258.09       101008.6       99482.66       22514.66      -14243.34
      -5211.266       17595.16       54291.31       75633.72       78627.78
       74505.42       62423.90       36942.42      -9985.250      -46864.38
      -30726.43       22884.70       61366.92       51491.48       23052.01
       11522.31      -12973.19      -52019.09      -69777.11      -48628.71
      -2844.789       14769.49       11332.17       14166.84      -3695.172
      -36125.91      -55159.47      -46184.16      -44053.05      -58616.54
      -26501.62       22262.78       31721.01       27765.67       29149.06
       35134.73       18695.35      -19668.73      -31432.78      -29197.73
      -30113.89      -7270.328       43848.66       89560.17       84812.99
       28734.26      -40463.80      -77864.84      -55492.75      -23947.81
      -16991.11       7919.873       16137.81      -24247.62      -44303.95
      -29881.85      -24730.62      -16391.31       20783.50       46782.88
       38311.70       5548.297      -46684.95      -49178.35      -7081.180
      -1626.477       12343.69       56965.48       51122.10       19255.96
       11544.00      -10096.30      -11447.30       21396.20       23034.94
       8552.422       15481.88       42329.47       64919.29       31431.75
      -36287.64      -57022.85      -39500.07      -13095.68       20826.55
       19191.89      -6892.664      -16307.91      -39180.94      -45330.74
       661.2578       40995.41       43481.20       14777.40      -19090.69
      -30291.41      -26100.82      -12749.11       22403.59       50214.92
       41110.22       27863.19       2459.016      -38214.44      -41919.56
      -19390.44       7630.203       52134.88       83350.27       60479.07
       2232.234      -44606.52      -61430.31      -54093.48      -31214.61
      -6011.227       13508.86       23265.75       15537.55       13250.83
       14353.80      -16671.53      -48142.03      -42535.11      -10384.30
       29178.01       31969.20       1245.011       1685.909       6865.773
      -27020.71      -29545.59       5539.082       15261.88       9343.869
      -7327.574      -13051.82       7327.965      -298.4961      -22813.85
      -13761.31      -7894.375      -25628.93      -16845.29       20717.61
       24365.55       15252.35       20197.03       3691.953      -15765.59
      -23291.09      -15891.91      -817.0117       333.8945       6908.492
       14422.62       4380.711      -15828.41      -32272.32      -28838.07
      -19383.65      -20999.50      -11829.02       12299.15       24971.95
       15667.44      -4293.396      -1301.906       15132.57       17248.62
       30768.14       32521.32       4188.762      -8642.432      -10456.57
      -11587.49       7161.500       31134.94       38126.45       16070.70
      -28875.88      -34639.50       7053.227       18641.12       4433.992
       15135.50       20255.85       8948.250       3856.049      -3206.762
      -5066.398      -18907.98      -47308.68      -34679.92       7255.617
       36071.41       43368.32       17741.49      -35106.88      -61648.60
      -28615.47       13143.53       32489.18       25369.75      -4424.328
      -24478.23      -31859.20      -21333.05       13498.00       47775.02
       52984.05       31245.34       11098.15      -452.1172      -16273.28
      -29586.02      -23407.00      -4060.053       9034.195       7601.313
       7983.582      -1299.953      -28369.54      -20551.84       1490.101
      -1227.049       1074.289      -13327.66      -31648.79      -4022.230
       16316.25       5295.883       6403.186       8290.562      -3159.609
      -10461.71      -2122.383       17365.45       25453.04       19149.01
       10775.73       310.9180      -11511.70      -24001.96      -19746.93
       8291.492       26929.79       22573.74       5795.477      -6733.750
      -23281.38      -49496.99      -41301.78      -678.5469       21478.75
       9304.359      -14545.19      -16041.26      -4938.352       1819.879
       11499.16       15696.71       7774.281      -9955.121      -17979.84
      -3654.867       11786.52       15367.35       1889.930      -23805.37
      -25048.24      -2994.867       14587.42       14492.94      -6709.271
      -10144.60       8158.906       19947.37       15248.75      -1530.523
       8975.750       33545.06       30078.52       22728.82       18852.05
      -992.4062      -12343.68      -7448.422       8680.227       34402.95
       31975.71       2605.789      -19329.32      -24697.20      -20982.04
      -10915.81      -9207.727      -19476.45      -19814.21      -8226.498
       9289.727       9080.049      -9016.344      -19191.75      -10609.12
       3983.691       5391.344       15365.10       25054.87       22350.79
       21891.46       12672.85       2753.770      -359.8359       4896.109
       19705.76       23604.58       19731.91       6597.652      -13856.59
