     0.02500000      -180300.9       181380.9      -12345.00      -12345.00
      -30.01006       226.1399      -26.76000      -12345.00      -12345.00
       0.000000       20.18000      -12345.00      -12345.00      -12345.00
      -12345.00      -12345.00      -12345.00      -12345.00      -12345.00
      -12345.00      -12345.00      -12345.00      -12345.00      -12345.00
      -12345.00      -12345.00      -12345.00      -12345.00      -12345.00
      -12345.00      -30.68660      -67.50870       990.0000       0.000000
      -31.54000      -68.94500       0.000000       103500.0       0.000000
      -12345.00      -12345.00      -12345.00      -12345.00      -12345.00
      -12345.00      -12345.00      -12345.00      -12345.00      -12345.00
       166.5041       55.74257       235.0040       1.497057      -12345.00
      -12345.00     0.06361207       90.00000       90.00000      -12345.00
      -12345.00      -12345.00      -12345.00      -12345.00      -12345.00
      -12345.00      -12345.00      -12345.00      -12345.00      -12345.00
      2008        49         8        51        30
       460         6    -12345    -12345     10247
    -12345    -12345    -12345    -12345    -12345
         1         7        13    -12345    -12345
    -12345    -12345    -12345    -12345    -12345
    -12345    -12345    -12345    -12345    -12345
    -12345    -12345    -12345    -12345    -12345
         1         1         1         1         1
MAJA    -12345          
        -12345  -12345  
-12345  -12345  -12345  
-12345  -12345  -12345  
-12345  -12345  -12345  
-12345  -12345  -12345  
-12345  -12345  BHE     
ZL      -12345  -12345  
[...]
      -5323.156      -1968.421       5443.697       760.0273      -8455.287
       2568.564      -1365.496      -7274.481      -3960.039      -7354.840
       4096.014       7059.982      -3523.159      -361.5625      -5244.293
      -6957.379       2775.689      -2005.126       2290.451       9696.951
      -3360.408      -3159.259       6908.185      -4188.795       1382.732
       9981.119      -8120.424      -5062.382       2547.633       1125.264
       11419.82       6956.187      -5167.980      -2270.278      -340.8223
      -9096.190      -3605.337       4482.195      -3028.789       4856.590
       11447.22       5325.303       11565.70       1910.860      -5728.145
      -196.2158      -8214.412       637.3887       11506.88       1768.895
       4173.431       8719.137      -7262.217      -13524.15       4660.510
       5028.726      -4688.751       6585.168       287.8159      -3808.686
       9966.878       654.0283       1305.721       462.7812      -15056.29
      -4042.260       6583.421       1608.676       2636.116       5451.410
       2836.841       1547.107       2833.914      -8269.818      -14039.78
      -4425.903       1083.671       1621.053       5325.160       7348.354
       2988.685      -390.8770      -5607.672      -14198.72      -5855.773
       6089.012       2703.821       5017.418       2685.295      -6378.516
      -4182.101      -3992.615      -1016.075       604.5557       3314.031
       8966.465       3400.088       5391.860       591.5693      -4488.838
      -659.8535      -8116.417       868.9297       7297.289       647.4072
      -1149.058      -2496.777      -618.9456       547.8770       2981.389
       2342.727       7340.554       3682.771      -12961.90      -4366.838
       4057.649       2080.408       3039.957      -4394.773      -9215.514
      -9016.509      -5369.691       8409.531       14933.63       5540.770
      -3648.938      -2980.758       97.23242      -3949.471      -11708.83
      -2643.125       11224.14       5436.042      -1393.107      -649.7871
      -8090.955      -8651.910      -5783.941      -6227.973       5480.528
       718.8340      -2694.584       12879.68       4360.033      -4548.997
       304.0330       110.0303      -2963.007      -4820.475       4996.951
       7661.611      -3576.850      -8733.551       1752.212       9564.938
      -7111.283      -9438.132       6946.963       7637.952      -4345.834
      -11571.44      -5051.578       2106.404       6559.740       7144.114
      -3193.148      -5318.241       727.3848      -4543.886      -4383.031
       3593.124       2173.887       5363.412       5907.979      -1236.308
      -1034.686       4946.931       7272.717       1576.527      -421.6904
       3237.732      -4043.246      -12018.46      -4024.182       4311.688
       5753.233       1343.387      -4535.466       1387.623      -1913.449
      -3053.281       4529.531      -3743.046      -6955.463       6707.885
       12698.25      -329.8242      -11447.98      -11400.74      -329.6836
       9320.105       214.7354      -2451.901       4150.707      -2462.762
      -8428.226      -993.1074       166.3440      -1070.490       3970.178
       3434.761       205.7490      -2991.733      -2698.153       1487.702
       5991.226       2333.996      -7213.588      -1364.486       1324.367
      -5996.144      -2823.321       2380.212      -3967.601      -1232.136
       4581.285      -1924.671       405.6836      -6555.785      -11714.33
      -2789.560      -3047.391       2156.893       7853.982       4359.105
       2304.972       5341.510       2063.820      -5224.820      -8115.239
      -1994.506       10408.05       5439.107       2938.539       15648.20
       7168.532      -5248.181      -3344.447      -2884.857       1369.025
       5176.366       3871.476      -676.8694      -3441.503       3174.547
       1644.629      -4595.071      -5913.034      -2174.848       8590.641
       7956.483      -2577.847      -1293.640       1883.047      -4852.223
      -1945.728       5328.012      -1156.914       787.0889       6919.043
      -843.1309      -7955.351      -1110.727       3548.615       274.9873
       4237.322       4868.646      -200.1719      -4026.889      -3919.264
       8817.543       7417.029      -6090.041      -2759.855      -576.1094
      -6396.234      -10353.68      -7999.907      -152.3994       4625.584
       2444.109       4174.041       10717.25       322.2139      -6282.609
      -3889.720      -7106.609       7485.434       18575.43       9312.651
      -851.9062      -14264.50      -6273.847       5973.237      -2635.058
       3904.385       5511.277      -14262.88      -13572.03      -3120.358
       961.1206       1667.309      -1155.182       11045.47       9624.104
      -7332.227      -4056.829      -1011.689      -2985.694      -1815.099
       2068.409      -347.6836      -2686.817       1197.305      -2459.446
      -8.759766       7917.235       2466.371      -5873.842      -2285.044
       139.5342      -2412.665       970.4258       4063.577       4667.459
       5730.371       7357.697      -2711.389      -11660.44      -1019.309
       1988.976      -4090.438       4308.033       14382.31       3442.549
      -9956.046      -3548.014       3140.389      -1072.607       2221.131
       7241.705      -7594.172      -15485.98      -6592.020      -17.12500
       10184.41       10977.13       2694.894       2906.042      -2904.752
      -6722.553      -3798.580      -4389.298      -5123.211       3732.746
       9669.355       3224.564       1733.892      -4572.840      -5355.438
       4154.688       1245.893      -1648.639      -4350.013      -7823.401
       462.8262       6148.612       390.5684       2707.688       6652.450
      -4663.684      -959.8145       12425.04       4549.207      -1652.785
       42.33496       5720.383       875.7656      -13601.39      -11352.52
      -5637.094       3731.004       18484.05       7945.958       55.32422
       8193.986      -7205.031      -24183.21      -15900.39       2492.393
       7130.686       5649.049       9989.004       4460.676       2090.943
      -3886.793      -13479.02      -7661.349       922.7188       8021.247
       2574.546      -4847.241       1553.795       3579.789       2462.260
      -5637.486      -14103.02      -3829.997       2197.668      -7623.758
       2664.066       20669.91       12951.76      -2038.619      -4418.133
      -10335.62      -11729.03       6773.504       8607.152       4630.227
       14337.95       4329.402      -7327.623      -8680.770      -14029.72
      -10083.18      -2213.822       888.6748      -297.4424      -4686.183
      -4554.916       595.7559       6556.658       7672.111       3616.885
      -53.25000      -669.1992      -8168.835      -1762.590       18932.42
       13235.27       1570.682      -2321.770      -2305.545      -1899.521
      -10818.06      -7118.850       4180.113       8820.258       2217.030
      -5003.350      -5207.053       2779.172       12574.04      -842.9414
      -16928.45      -7883.952      -2418.855      -3622.361       6080.100
       5802.457       5864.101       8653.513      -4967.285      -7849.160
       725.9180      -5249.441      -17386.45      -11557.93       10787.95
       21905.86       13035.90       2156.230       99.85840      -2613.557
      -8381.527      -1169.477      -2336.996      -4688.734       9028.613
      -328.2793      -9269.167       1667.432      -3170.657      -5745.987
       7336.045       5757.895       695.5449      -3127.668      -11716.55
      -4259.396       1975.990       348.0996       3499.285       11034.61
       10375.59       3302.363      -4784.219      -10790.41      -8768.607
      -1586.738       6416.459       9504.854       6985.744       3261.376
       885.2344      -8702.973      -18051.89      -8393.963      -373.4629
      -1207.602       12915.42       9921.852      -13861.28      -12894.95
      -8776.960      -6425.314       5506.637       5452.855       7742.941
       16941.78       6347.426      -6630.678      -5009.202      -2306.426
      -2722.488       2547.553       8058.983       549.2051      -3674.428
      -41.22363      -1552.832      -3557.971       2656.554       6715.758
      -4171.574      -10166.57      -3433.492       8179.971       9059.615
      -2584.698      -3292.688       882.6016      -2892.917      -4986.326
      -3667.850      -2485.257       3503.811       6365.171      -1038.112
      -5346.061       2589.232       9778.340       2511.311      -759.4150
       6.117188      -8367.135      -6471.662       6952.990       11249.34
       8929.839       6855.624      -1223.113      -9059.984      -2663.369
       7420.740       8273.633      -2054.077      -5536.240       3636.035
       3388.361      -4467.141      -11483.69      -5800.238       7922.055
       7814.850       4422.986      -6197.328      -14788.48      -11300.10
      -6944.801       10716.74       15353.93       2086.812       4625.265
       1094.748      -7936.281      -6507.547      -7796.352      -9210.223
       577.2910       10019.13       6413.775       8297.164       2378.408
      -13441.33      -6130.031      -3447.266      -8396.823      -1542.738
       5634.556       4606.586       1838.694       7998.770      -157.3281
      -11391.34      -4344.167      -1985.967       8122.031       17781.60
      -1464.296      -8198.285       2055.382      -6114.513      -2635.863
       4242.530      -2111.423       3152.896      -909.9177      -1986.122
       7872.709      -3798.006      -12271.20      -3388.907       1170.883
      -600.0454      -1408.052      -907.1230       3737.141       6277.676
       4318.005       1274.283      -3932.312      -11220.38      -2083.504
       11335.29      -3540.684      -7914.080       5213.582      -2088.810
      -4812.434       15289.27       11526.96      -10556.65      -6876.030
      -974.1084      -3190.037      -4614.778      -2836.091       2563.130
       4423.959      -1615.325      -808.4482       7312.656      -10056.90
      -13506.75       1774.708      -4389.580      -5709.436      -5543.895
      -4810.250       9958.635       15451.36       1579.670      -2328.587
       3044.660      -4971.452      -4430.234       4757.867       699.2773
       1712.062       9709.398       14635.92       14247.49      -3946.273
      -14721.71      -7647.677      -7111.761       2276.519       3547.572
      -8406.944      -1657.214       4844.302      -1591.347      -6566.879
      -3051.184      -6865.893      -4428.100      -255.3242      -9156.333
       1464.781       9761.982       8479.643       10748.69       618.6406
      -13532.78      -13160.74      -7436.812       2474.148       15849.66
       10890.64       1287.951      -3860.211      -5467.492      -6984.604
      -10916.91      -8088.087       901.0234       7751.797       12055.53
       10113.12      -7958.703      -14062.68      -3378.791       5555.317
       5618.694      -2490.037      -1401.196       2519.589       3016.306
       1177.260       2695.591       1632.588      -9619.822      -5869.430
       1281.838       1215.168       4128.898       9215.266       15072.47
       8736.609      -2070.978       1102.035       9220.094       15228.48
       9854.084      -573.9600      -1613.559      -10474.56      -8606.174
      -3382.164      -9043.227      -447.8984       5371.264       7009.779
       4597.879       5402.773       13573.62       8651.508       11902.81
       28787.03       40220.95       37823.88       27088.41       20650.87
       9238.238      -3746.966      -4857.854       1510.363       3949.614
       352.9839      -3437.836       14188.44       37966.84       27934.26
       5288.516      -20080.53      -44104.22      -55231.79      -51645.37
      -12640.85       18468.16       19485.66       32334.89       28952.88
       20470.42       50021.86       52084.29       22674.81       14084.64
      -11823.94      -29736.33      -21095.45      -41701.52      -41286.34
      -4241.844       46039.31       89634.08       61932.71       27954.65
      -442.4375      -90902.88      -133765.3      -76567.88      -30564.64
       14001.23       82372.64       47090.56      -48431.44      -67746.22
      -68855.82      -52957.70       26972.89       72963.41       47813.02
       30301.00       11700.66      -31089.91      -48002.05      -62319.94
      -99951.57      -75164.42       44897.53       135893.8       112008.2
       50491.67       16346.16      -51953.25      -155018.8      -169009.7
      -95350.39      -11248.69       80915.81       145783.7       166106.7
       119937.0      -21971.88      -104983.6      -93722.47      -150967.9
      -180300.9      -34642.16       135245.8       181380.9       117940.3
       21159.73      -54685.95      -80411.94      -49625.98      -44269.14
      -23854.45       36591.53       50228.05       35568.05       47268.30
       79786.25       7993.375      -114927.4      -89379.11      -16761.20
      -6395.250       63440.44       131014.3       92278.48       22613.30
      -59639.44      -99683.47      -63051.24      -32387.41      -15645.88
       30817.05       35438.10       1190.555       27715.97       45943.47
       302.3125      -36185.48      -36296.44      -44456.62      -43966.35
      -20755.80       28552.11       79853.12       10567.16      -61719.44
      -18439.93       2962.430      -24473.98      -19295.96       3373.705
       12911.52       2228.156      -19332.08       8075.859       37471.04
       36060.16       24846.79       6816.893      -4559.215      -16652.07
      -21214.21       5490.211       26352.28       7026.656       29034.62
       15476.94      -56283.12      -8329.266       41016.02      -8302.973
      -15772.02       4730.242       18998.12       19566.60       12978.64
       24267.34      -36440.95      -59928.04       10477.08       5419.387
       5600.809       18923.18       6754.281       43849.77       15955.36
      -36835.28      -25070.32      -21720.08      -27414.33      -49898.88
      -56070.83      -7664.484       26858.41       20789.27       31275.76
       36996.63      -11347.80      -46483.71      -24431.38      -10522.04
      -10446.09       19076.89       38211.26       38842.68       1046.312
      -49022.62      -42815.52      -30173.52      -12428.16       27709.55
       44317.52       62136.66       63475.23      -8029.281      -67048.23
      -48745.91      -22340.02      -9752.875       46702.31       64081.20
       19204.85       846.4141      -23281.93      -32034.62      -10984.77
      -12154.13      -18442.54      -1590.125       34257.46       44734.38
      -6051.891      -55660.23      -21619.41       3868.008      -13244.24
      -8678.760      -10494.07       27.18750       43361.27       50080.45
      -4157.961      -25997.36       9674.164       33065.52       18755.98
      -18871.48      -48491.34       25.43750       69524.07       38487.22
       1964.338      -69.64062      -31262.50      -55650.92      -44072.00
       2592.562       21552.99      -6509.158      -10458.66       12957.34
       18619.53       2752.922       8091.713       2809.688      -18461.59
      -23982.98      -34225.46      -8571.129       19695.53       1110.672
       11486.62       34884.52       16014.41      -25886.75      -53061.79
      -32232.70       12835.50       51617.23       58409.48       7185.406
      -61514.44      -52643.80       9624.562       3238.332      -16881.00
       42979.41       53745.44      -14075.99      -13106.41      -10765.34
      -32491.73      -5269.156       18567.78       35208.64       42785.43
      -2413.906      -35331.34      -16141.61       12116.30       48632.55
       25033.43      -15550.08       16886.00       19609.48      -13106.53
      -5230.859       10970.27      -2501.141      -9309.023       7794.148
       24132.75       31177.52       16877.57      -21662.95      -36787.34
      -28905.97      -34102.84      -37619.43      -10422.19       16935.76
       9440.559       17958.06       10428.45      -22168.83      -17838.38
      -4166.361      -4029.922      -24059.82      -26559.64       5817.355
       18307.70       23852.70       45759.42       19678.48      -17453.72
       439.6484      -2819.359      -35364.99      -30693.86      -8153.688
       12617.34       39954.36       20561.79      -7729.268       6830.152
      -13718.52      -41478.09      -1380.773       39207.05       36811.43
       17667.46       12047.72       22207.19       3998.312      -16329.70
      -38563.78      -38490.98       6655.430       31912.28       47253.37
       21945.27      -38655.14      -31972.22      -13669.45      -35071.48
      -10882.16       34203.96       37618.84       34685.12       3181.531
      -47340.28      -47916.06      -14663.61       1876.238      -3293.439
       207.4531       18648.04       18467.57      -10519.91      -10798.61
       9087.930       17750.91       32445.79       22747.30      -10263.27
      -20122.25      -20304.06      -21497.01       16168.88       65746.95
       50275.06       5910.387       6332.125       10786.00       13587.79
       14313.46      -16392.27      -6061.633       30801.21      -1105.875
      -34316.52       11984.65       43085.45       1814.303      -15571.40
       4133.905       11407.56      -9986.789      -34355.30      -11990.57
       16785.67       24110.30       25228.04       5670.984      -34786.70
      -45767.02      -10183.36       3422.336      -8040.926      -4946.700
      -93.37500       6685.434       18391.59       6110.766      -20347.51
      -15542.61      -945.9102      -12736.80      -5830.281       24371.11
       28207.73       18624.15       3201.109      -23625.82      -27621.93
      -15587.23      -9948.758      -12986.18      -9022.949      -1251.586
      -22433.46      -26908.20       27141.35       60821.28       7606.359
      -50604.27      -40115.84      -21929.19      -16527.90      -3365.664
       6304.332       14805.59      -3219.609      -34087.68      -16085.49
      -1747.180      -13933.54      -1928.141      -3752.295       2764.953
       12925.55      -12613.65      -9562.430       15217.19       30425.15
