     0.02500000      -74676.61       72573.67      -12345.00      -12345.00
      -30.01006       226.1399      -26.76000      -12345.00      -12345.00
       0.000000       20.18000      -12345.00      -12345.00      -12345.00
      -12345.00      -12345.00      -12345.00      -12345.00      -12345.00
      -12345.00      -12345.00      -12345.00      -12345.00      -12345.00
      -12345.00      -12345.00      -12345.00      -12345.00      -12345.00
      -12345.00      -30.68660      -67.50870       990.0000       0.000000
      -31.54000      -68.94500       0.000000       103500.0       0.000000
      -12345.00      -12345.00      -12345.00      -12345.00      -12345.00
      -12345.00      -12345.00      -12345.00      -12345.00      -12345.00
       166.5041       55.74257       235.0040       1.497057      -12345.00
      -12345.00    -0.09591760       0.000000       0.000000      -12345.00
      -12345.00      -12345.00      -12345.00      -12345.00      -12345.00
      -12345.00      -12345.00      -12345.00      -12345.00      -12345.00
      2008        49         8        51        30
       460         6    -12345    -12345     10247
    -12345    -12345    -12345    -12345    -12345
         1         7        13    -12345    -12345
    -12345    -12345    -12345    -12345    -12345
    -12345    -12345    -12345    -12345    -12345
    -12345    -12345    -12345    -12345    -12345
         1         1         1         1         1
MAJA    -12345          
        -12345  -12345  
-12345  -12345  -12345  
-12345  -12345  -12345  
-12345  -12345  -12345  
-12345  -12345  -12345  
-12345  -12345  BHZ     
ZL      -12345  -12345  
[...]
       114.3416       121.9203       110.1614       116.6945       104.7108
       108.5721       98.72055       104.4074       90.95184       94.80722
       88.21255       92.46474       72.22231       78.59393       76.57230
       80.74579       62.54163       224.7461       780.2051       1989.779
       4859.779       9521.006       9956.197       1836.850      -3988.759
      -1288.310      -1278.608      -1582.623       4665.752       5048.435
       1525.483       2669.678      -4201.750      -7059.605       4451.645
       4301.565      -4211.711      -809.5303       4062.590       2826.859
       6722.561      -3221.785      -16981.08      -715.5271       2557.995
      -4048.661       2003.105      -3620.734      -8833.492      -2862.971
       225.7058      -1688.118       3214.843      -292.0078      -9475.908
      -8122.059      -3595.059      -5571.941      -7876.900       2829.957
       9409.975       6578.999       2835.679      -3415.168      -11212.35
      -7232.367      -1933.222      -1408.502       10170.29       9359.527
      -2547.502       6995.357       6158.865      -15810.20       290.0176
       13447.70      -8181.991       528.1279       8169.430      -2914.862
       4411.154      -327.0771      -10693.49       5368.205       7798.221
      -12105.55      -6811.505       144.8877      -8641.562       13393.57
       23426.23       2706.436       4525.922      -3228.029      -8091.906
       11405.73       3109.807      -3359.406       10255.73       2400.932
      -3752.091      -874.8398      -10817.29      -7166.012       6042.125
      -2682.968      -6027.015       4952.680      -537.8779       773.3818
       3223.150      -4423.878       2816.410       119.3906      -6418.956
       4203.766       4019.923       1810.158       9515.199       2527.252
      -3270.727       7185.338      -1257.074      -21585.95      -16976.93
      -1594.522       2728.802      -2066.459      -658.9141       9758.988
       5050.744      -11498.89      -12843.54      -6563.542      -2013.023
       8959.180       8683.064       961.9707       8156.917       10699.57
      -9470.145      -13770.79       4522.775       7214.652       10244.53
       10069.54      -974.4194      -1220.810      -2384.105      -168.3125
       657.8320      -7932.226      -4268.212       1909.259      -200.8599
       435.9221       1484.483      -236.2959      -2044.945      -5771.213
      -7892.240       3433.383       9057.512       6525.773       7238.331
       4017.381       938.5000      -15238.66      -18300.12       3174.176
       5635.957       6562.662       11375.54      -4299.488      -13475.35
      -2219.902       10989.75       13182.28      -1196.691      -13647.70
      -14344.47      -3908.594       8266.910       5829.969       4525.169
      -1201.904      -12423.75      -6116.420       3900.459       4357.496
       847.9307       3161.837       4813.971       764.8995       338.5757
      -2027.104      -1734.849      -628.7859      -1411.869       7389.316
       4703.156      -14405.00      -13980.79       8432.836       10734.26
      -2342.744      -854.8359      -5161.289      -15811.29      -4981.543
       13376.47       7955.137       3140.000       6459.305      -7229.947
      -9647.537       283.8535       5159.916       4274.804       3897.009
      -2601.092      -6123.197       10393.22       8724.182      -749.3730
       7403.096       6206.544      -2514.883      -2193.621      -7236.174
      -8728.410      -3540.377      -5191.121       3349.352       7477.449
      -5275.373      -8527.857      -1449.133      -2358.583      -4796.566
       1106.906       4483.563       3335.164       5181.455       2588.966
      -3068.007      -5589.862      -3582.198       2454.987      -729.6675
      -1992.802       4888.590       1580.986      -4985.557      -9026.938
      -5053.902       6247.326       8085.221       720.3574      -6096.207
      -12292.11      -7304.641       7809.133       10757.98       11411.86
       7793.785      -8635.248      -10834.15      -861.3762      -830.3184
      -806.6562       3341.512       2644.406       1340.844       5910.493
       4968.909      -2627.854      -5717.594      -12485.83      -14879.27
      -7695.633       4693.980       16649.76       16392.12      -2979.117
      -17554.46      -312.8926       5074.920      -3875.133       5128.994
       6952.232      -4051.784      -5794.307       6216.387       10947.01
       7334.024       2057.977      -7423.703      -6411.496       2351.284
       224.9990       1545.871       8703.566       3296.027       201.2090
      -3919.010      -12672.23      -770.1758       11137.96       5583.503
       6278.348       3685.623      -4078.023      -4804.924      -7536.298
       2059.848       13101.05       5250.919      -3100.832      -2825.906
      -8039.677      -12165.02       10600.61       18167.51      -269.0244
       718.6543      -4930.707      -14897.06      -9895.662       3127.379
       19338.86       12575.42      -1575.011      -2998.910      -6479.477
      -12081.89      -12331.62      -2298.340       10656.07       6011.209
      -4954.614      -1178.726       1963.146      -2554.779      -1499.663
      -3221.228      -5068.098       12070.20       13812.11      -5269.943
      -8847.408      -2363.362       2442.549       3263.541       5108.275
       5890.409      -1025.947      -7679.158      -8634.564      -4956.799
      -1088.764       5334.270       12790.07       17481.15       10459.13
      -3697.160      -5703.879      -7956.648      -13981.67      -9259.781
       2726.408       6932.113       5474.664       8568.518       7305.586
      -1586.875      -13714.76      -15028.67       2080.912       4322.225
      -6791.910      -3038.929       254.8716      -3502.065      -812.6152
       2974.903      -984.6094       6306.344       12422.58       2093.020
      -4499.848      -5741.324      -6742.991      -4733.939       3355.012
       8939.319       4877.414       1561.070       263.5508       8466.982
       16304.79       62.55859      -16847.50      -18561.58      -7580.298
       3896.824       2992.201       2276.607       6329.308       4471.550
      -3019.047      -883.3965       2739.158      -7049.975      -11542.20
      -2819.327      -755.9609      -8065.389      -2992.199       15850.87
       13833.19      -3149.129      -4640.283       1420.178       3690.230
      -1504.645      -4885.361       4804.300       8426.012      -2219.814
      -11427.76      -5432.185       3863.380       3140.083       3261.895
       1181.637       1471.645      -18.69922      -12017.87      -9363.903
       2172.287       8120.654       8485.041       1094.432      -2299.829
      -635.0742      -1720.710       1864.915       2649.852      -5066.133
      -3835.975       748.8350       3399.209       7141.235       2418.551
      -9566.965      -16653.25      -11790.92       1957.750       8724.521
       3501.059       7141.236       5949.920      -2756.832       1196.234
      -8561.316      -18089.97      -1845.883       12137.13       13123.73
       6402.088       2321.584       7763.103       2202.229      -8701.586
      -2434.408       5544.382       7278.004      -2045.434      -14820.45
      -10869.86      -4597.875      -745.7109       7069.541       6237.291
      -2672.012      -10114.90      -9591.801      -9937.349      -8522.805
       12739.25       20709.37       3434.405      -5087.121      -2626.088
      -3933.789      -4438.148       2495.141       12122.25       23409.30
       16102.90      -5330.585      -5378.982       2494.359      -13485.04
      -22580.68      -4037.276       2128.852       161.4595       845.0540
      -206.0449       4488.512       7252.076       6083.065      -4151.898
      -12503.28      -14343.74      -8591.374       4796.330       6271.090
       9893.406       18342.41       7005.070      -4707.805      -3913.141
      -7022.990      -7984.594      -4460.168      -5114.309      -3333.928
       3588.656       8172.174       4987.299      -1145.329      -2904.967
       2567.520       12153.97       2308.396      -9748.848      -3182.496
      -15803.66      -18311.35       13027.38       18355.82       5941.438
       9370.419       4490.064      -9670.262      -15417.06      -10045.23
       8283.680       20364.93       11717.66       2558.352      -1668.213
      -3523.549       3570.193      -2387.992      -17369.30      -5481.527
       14607.98       12100.54      -1771.402      -6291.484      -9702.281
      -12625.36      -10660.82      -9665.867       4535.189       12105.16
       4568.084       6833.108       6732.406       1504.129      -2064.144
      -2696.648      -1954.943      -5436.334       1842.977       17560.47
       14999.11      -523.9102      -8544.227      -9602.356      -5328.353
      -427.5986       3822.701       6027.123      -1812.904      -5232.046
      -98.69531       4984.289       9968.095       8177.956      -6761.658
      -9942.234       3318.550       2412.156       6180.684       12251.51
       1319.910      -5072.826      -8171.194      -3942.204      -544.2114
      -6605.225       6296.252       13766.24      -2974.123      -4429.010
       4123.551       2725.248       8910.051       2914.023      -20038.59
      -13247.72       4284.098       10971.56       19719.04       13424.41
       108.7012      -3436.074      -9228.994      -9992.741      -859.9150
       1485.586       3146.475       2101.250      -8525.828      -4818.442
      -444.1836      -6193.076       3322.000       13466.98       6284.869
      -3673.762      -4421.141      -10479.80      -13755.78       3144.695
       9082.736       7402.118       5020.140       903.3926       11791.74
       7004.555      -14578.65      -15219.65      -13129.62      -10165.86
       9628.701       10296.08      -522.7930       2337.283       6715.664
       3908.648      -3364.840      -5500.188      -2935.879      -2401.851
      -3652.330       431.0762       1179.886       4488.090       5506.957
      -4639.383      -2828.955       5874.611       5438.944       4015.484
      -2490.407      -6827.375       1723.912      -179.4287       1486.045
       5185.557      -1286.730       3977.874       4570.383      -2079.043
      -7451.076      -9849.748      -10685.57      -8516.808       3225.937
       4427.035       120.1211      -2454.850      -2763.123       7157.131
       408.8086      -12627.60      -3729.621       2260.734       8152.473
       18695.93       6951.920      -2229.812      -2976.643      -13425.80
       232.5332       14107.19      -3.214966      -795.4907       245.6787
      -5385.562       4041.572       2805.119      -6900.688      -3232.158
      -4421.123      -4025.463       4615.883       1240.406      -7786.902
      -5653.688      -8779.227      -15053.07      -4521.047       7957.312
       17404.44       18210.73       6376.526       1629.402      -2598.629
      -11951.50      -9538.512      -158.0898       11077.57       17005.10
       5016.323      -1493.305       603.0029      -934.7039      -853.3630
      -484.0938      -1844.615      -8385.664      -6786.050      -3363.116
      -5255.174       5160.080       9716.674      -191.7852      -3548.172
       2353.034      -440.7480      -8329.639      -5742.713       1439.000
       637.1812      -855.8589       3965.436       957.8120       1453.185
       2830.562      -6724.224      -5587.538       183.2397      -3781.823
       1335.061       11506.65       1908.511      -1161.010       5199.228
       3606.072       1486.068      -7781.045      -5828.223       10932.24
       5892.178      -9490.988      -826.8457       5777.364      -5105.730
      -10242.65      -2778.817       1736.796      -4359.589      -1162.014
       5812.266       10840.88       4748.967      -11852.25      -751.6230
       12118.75       1811.857       1542.160       8065.211       4629.417
       2419.992       5085.831       1302.572      -595.7520       7301.501
       2328.738      -9450.602      -7835.662      -6548.164      -7432.529
      -3831.543      -1093.303      -4025.195       3874.234       14959.08
       6442.147       1476.355      -4980.250      -26548.38      -21697.23
      -608.5313       8.640381      -179.9727      -2884.242      -14904.79
      -14341.43      -9715.520      -14742.36      -11780.60      -2490.160
       5334.359       20947.73       37523.70       41407.10       24474.89
      -6297.797      -33144.24      -38005.94      -36932.91      -37549.37
      -12933.42       13195.41       28879.75       55493.44       58530.67
       38339.91       27848.44      -1937.688      -42635.56      -62438.33
      -74676.61      -42848.40       35855.03       64283.94       55719.47
       61476.41       26154.31      -36650.25      -63602.53      -60871.12
      -36792.05       12184.33       46889.20       46883.93       28900.25
       2470.945      -20943.60      -27049.00      -19234.84      -12299.46
       374.3691       134.4141      -30285.34      -40710.59       5880.812
       58569.77       59498.46       22133.88      -6437.312      -24759.83
      -58450.52      -65891.94      -38914.71      -20308.69       23626.92
       72573.67       58408.34       22958.05       3479.469      -14226.70
      -21246.71      -15357.13      -704.3516       16175.35       1035.188
      -19449.69      -17988.26      -19216.87      -850.2500       27314.24
       20105.77       9094.293       22507.21      -3166.164      -51573.83
      -17704.88       40024.42       23755.53      -10349.62      -12546.20
      -17698.35      -20889.23       13276.42       48353.27       43278.77
       14754.05      -14065.56      -18969.90       4718.695       31266.12
       25019.31      -9855.246      -19869.01      -14560.78      -13489.35
       15832.45       55228.70       43320.52      -9828.141      -47176.69
      -63956.10      -50547.53      -13481.08       7581.102       19610.34
       27567.95       3848.461      -23622.70      -16657.20      -3201.457
       14356.08       14882.91      -9104.560      -1453.711       8315.738
       5784.227       10395.50      -12784.01      -32197.23      -8716.641
       15458.80       31090.43       32963.54       4424.578      -15732.37
      -24693.22      -36509.73      -19229.25       17726.12       34132.38
       25022.64       3879.273       8872.305       17969.95      -5469.248
      -11037.00      -2475.575      -4267.141      -574.0898      -4810.250
      -10806.12       1705.914       10584.73       19096.46       23295.21
       7683.645      -13115.07      -31284.11      -25137.37      -11818.55
      -24771.35      -27975.05      -2438.859       13595.24       20336.95
       27292.42       29118.85       24695.58      -14253.20      -47282.66
      -25943.47      -34739.34      -51084.78       13182.59       40697.72
       6439.078       11009.47       18612.91      -2133.224      -177.0664
       8444.435       365.6990       165.2109      -3989.688      -18816.93
      -23236.74       10890.78       49285.47       45293.31       16875.31
      -5861.160      -12495.26      -16682.20      -13942.96      -386.4453
       4065.500       18948.46       36002.09       8954.719      -26399.94
      -16919.76       18850.28       10100.83      -20171.14      -9233.160
      -9350.656      -41453.49      -41015.88       10705.91       40082.89
       36918.29       25634.55      -10770.61      -23747.50      -27925.22
      -57982.29      -41160.49       6893.398       14684.00       14680.13
       2361.265      -7605.932       12825.76       729.5625       2905.344
       49031.38       40712.57      -11907.83      -35271.43      -28797.04
      -4938.855       17251.57       10863.57       6497.711       14746.69
      -5770.617      -35967.62      -24142.95       8488.308       6188.906
      -21393.69      -27734.51       5248.453       41130.12       31607.51
       9633.312       3051.123      -690.5249      -650.6914      -6757.044
      -6734.214       3075.047       5011.746       11754.95       27059.01
       17619.11      -11514.47      -12160.91       3461.811       4422.941
       45.17969      -16626.34      -23543.62      -7876.871      -7666.180
      -12500.20      -3802.102       13123.75       23151.73       12120.33
       2876.391       1383.375      -9470.832      -9873.967      -2341.139
      -2541.040       2569.447       3993.880      -2818.110      -427.1094
       10818.81       23646.72       28554.87       9556.432      -11609.40
       727.7012       10108.23       1411.029       4043.428      -3198.746
      -17441.91      -15339.19      -5310.606      -461.2324      -6707.800
      -8262.922       9932.266       20942.43       9443.650      -3517.244
       456.4961       12040.25      -5106.018      -16115.20       6532.938
       11364.81       4319.466       3056.840      -6811.711      -6916.238
       3184.719      -8766.129      -22459.48      -7086.174      -3422.602
      -17883.21      -10954.78       2958.979      -432.3989      -907.2456
       4092.480      -10240.73      -17610.61       375.9736       7310.462
       755.2437       261.5234       6103.098       12780.37       11246.50
       3642.338      -6299.646      -2995.094       19088.59       29556.07
       23282.41       14195.75       39.08203      -16118.67      -7802.725
       1101.500      -16151.32      -15048.68      -6490.859      -6191.840
      -6998.828      -30684.19      -44845.07      -16385.12       19469.30
       28312.54       14251.67       1716.764       1334.415      -552.1616
      -1903.473       1118.045      -1697.277      -10764.40      -8132.555
      -3491.248      -7087.875       4498.012       9774.681      -295.4492
       7641.480       15835.35       9662.932       9001.531      -5457.508
      -32238.61      -24242.28      -908.5391       6968.383       15099.79
       11634.17       5120.748       4373.805      -4229.122      -5895.718
      -4122.513       771.9736       4021.627       1136.305       18115.82
       15728.90      -11323.69      -2906.902       13771.24       11909.72
       8082.188       10265.89       4310.100      -11193.57      -13773.76
