     0.02500000      -102469.0       114437.2      -12345.00      -12345.00
      -30.01006       226.1399      -26.76000      -12345.00      -12345.00
       0.000000       20.18000      -12345.00      -12345.00      -12345.00
      -12345.00      -12345.00      -12345.00      -12345.00      -12345.00
      -12345.00      -12345.00      -12345.00      -12345.00      -12345.00
      -12345.00      -12345.00      -12345.00      -12345.00      -12345.00
      -12345.00      -30.68660      -67.50870       990.0000       0.000000
      -31.54000      -68.94500       0.000000       103500.0       0.000000
      -12345.00      -12345.00      -12345.00      -12345.00      -12345.00
      -12345.00      -12345.00      -12345.00      -12345.00      -12345.00
       166.5041       55.74257       235.0040       1.497057      -12345.00
      -12345.00    -0.02434708       0.000000       90.00000      -12345.00
      -12345.00      -12345.00      -12345.00      -12345.00      -12345.00
      -12345.00      -12345.00      -12345.00      -12345.00      -12345.00
      2008        49         8        51        30
       460         6    -12345    -12345     10247
    -12345    -12345    -12345    -12345    -12345
         1         7        13    -12345    -12345
    -12345    -12345    -12345    -12345    -12345
    -12345    -12345    -12345    -12345    -12345
    -12345    -12345    -12345    -12345    -12345
         1         1         1         1         1
MAJA    -12345          
        -12345  -12345  
-12345  -12345  -12345  
-12345  -12345  -12345  
-12345  -12345  -12345  
-12345  -12345  -12345  
-12345  -12345  BHN     
ZL      -12345  -12345  
[...]
      -631.6162      -7452.230      -1207.832       6428.557       3232.959
       2835.292      -2599.889      -10189.82       1907.310       3336.056
      -1144.107       610.0430      -4845.828      -4458.519      -2473.384
      -37.04150      -2808.986      -1816.447       288.5718      -593.3779
       3965.472      -2846.992      -10183.96      -6074.620      -1225.633
       4837.370       5620.448      -670.7148      -1759.322      -4174.632
      -3052.494       1114.758      -1441.859       3001.467       5511.039
       550.4141       6346.486       7734.351      -4558.841      -696.2656
      -1637.119      -6681.336       8740.357       10348.88       2216.648
       695.7910      -8762.729      -10385.80       1472.481       4589.424
       3262.923       6369.036      -1388.574      -11493.00      -3356.852
       2871.281       5907.004       14870.80       6049.330      -2664.270
      -5214.691      -8203.859      -803.4941       8687.918       12088.19
       10310.25       2499.988      -9593.490      -10397.73      -3888.965
      -5082.053       239.1289       6292.915      -2685.666       331.4727
       6234.779       682.9316      -1378.094      -9885.402      -6321.489
       4454.389       4033.116       4536.882       1702.752       1293.773
       2252.116      -45.48633      -7195.160      -14918.60      -1210.137
       11855.06       2167.861      -8622.285      -2739.646       1744.192
       687.9632       423.3218       52.93408      -57.01807      -1033.429
       693.1973      -5893.105      -9061.985       1892.239       4224.447
      -3976.440      -1462.164       7853.149       2729.917      -2277.898
       6030.051       8115.868      -1913.619      -4706.879       2123.646
      -914.1523      -7163.490       198.2676       3572.050      -2184.978
      -4744.534       359.1543       6223.221       6081.044       2712.822
      -4822.842      -5197.018      -2321.689       1406.613       11312.52
       10274.34       1929.996      -15824.41      -16401.64       116.5371
      -2355.309       7991.258       19459.41       2276.391      -10698.75
      -6013.001       771.2734      -1675.744      -2876.587      -1516.888
      -1649.094       4492.882       4488.823      -2728.926       756.9019
      -1304.854      -5675.719      -2812.133      -694.3000       854.7876
      -2221.186       4646.030       5662.382      -5385.831       1139.939
       3093.903      -3270.580      -1540.036       321.1797       5006.302
       3025.487      -4634.491      -4280.258       406.1826      -4256.846
      -5725.467       9880.355       8345.383      -3877.707      -7517.729
      -8963.070      -3972.965       7759.152       11963.35       1578.473
      -5745.518      -4904.592      -2100.850      -3999.141       1280.680
       5367.498      -3156.549       4626.698       6257.771      -1801.871
      -1484.271      -3257.306      -334.7715       6440.980       6946.666
      -432.7305      -6204.691      -4259.458      -621.2991       1198.899
      -2425.186       697.8496       8416.674       2283.525      -5961.922
      -6085.999      -4369.749      -1419.348       2806.133       6360.080
       3969.562      -6857.691      -11357.24      -5787.019      -4063.223
       2320.985       5990.758       269.5791      -48.85742       2849.279
       3202.665      -710.9199      -4123.162      -3422.055      -732.6038
       650.9150       2039.124       5683.737       1540.199       2104.065
       3364.523      -3797.758      -1528.153       859.6221      -5749.786
      -4577.219       3295.549       5601.652      -4364.469      -8696.896
      -1701.468      -225.8737       549.8726      -2885.218      -1625.457
       4278.153       4740.664       3554.989      -762.1387      -2382.074
      -3103.370       2197.137       1127.286      -3503.273       5138.907
       6493.465       364.6455       1109.250       4362.302       264.2090
      -6408.302       774.1562       5899.425      -1326.304       1360.787
       6044.415       3620.293       7057.134       2580.329      -3905.068
      -4022.312      -7674.854      -6124.791      -200.3486       1177.848
       6788.008       12895.23       8594.766      -677.4141      -10390.62
      -14387.17      -8234.935       1752.544       5105.391       629.3789
      -4088.256      -1922.377       8786.994       4131.896      -6062.100
      -5380.364      -361.9395       5972.725      -793.8311      -2286.672
       3377.639      -498.3105       3644.661       3848.457      -4346.441
      -6966.021      -5921.964       3611.039       7837.548      -2826.308
      -5644.050      -1779.955       925.2783       3831.784       1091.201
      -2905.169      -5804.535      -2655.584       5320.785       6692.570
      -1760.468      -5191.998       852.2231      -2245.920       1284.239
       5044.196      -3524.868       225.8848       9400.260      -2365.473
      -14732.26      -3428.803       9790.170       7837.181      -2394.699
      -848.4209       7572.254       130.3122      -674.0245       2178.465
      -5671.896      -2350.452       5001.849       2266.059       950.2156
      -786.6357      -3323.013       4151.313       9929.302      -4575.262
      -15552.35      -5646.906       6838.836       6625.799      -2278.272
       3505.788       2940.967      -13386.08      -6756.043       7096.221
       5769.957       8636.963       11061.73      -4286.076      -12530.87
      -2503.409       3561.450       2561.953      -1814.290      -2897.625
      -1845.547      -5151.475       433.5684       2633.779       6867.690
       6770.590      -13253.91      -18030.14      -1718.938       11949.39
       16144.66       10017.61      -5105.340      -13746.80      -7424.547
       2367.887       8526.145       8497.172       6672.802       6558.229
      -219.3984      -5680.195      -12035.68      -13268.52       7840.749
       5112.911      -6438.619       7930.693       6800.757      -6505.232
      -6365.557      -1712.285      -3001.823      -684.2109       9350.190
       6773.785       441.0078      -1721.075      -5032.070       1568.317
       4699.803       2484.420       2322.989      -2412.449       995.0938
       222.2090      -10546.93      -7097.093       5316.720       6733.141
       1315.292       89.02539      -5140.402      -12683.98       961.2773
       10553.16       2049.148       1803.381       7625.773       1186.016
      -11580.34      -5222.323       1433.217       5442.906       10564.64
      -7922.312      -8390.637       9366.051       2294.521      -6388.439
      -5954.030      -2784.494       8718.498       4160.178      -9490.387
      -7141.170       1976.624       5994.016       430.3188      -1132.640
       29.67188      -8884.373      -6796.193      -1779.955      -3720.270
       8177.652       14153.49       4889.244      -3146.546      -6437.158
      -3286.361       1568.273       9347.022       4066.892      -3155.664
      -4311.707      -13120.25      -5929.520       6894.359       9953.684
       11191.66       6613.188       450.4648      -3361.387      -12901.08
      -16131.05      -855.6816       5717.822       6870.246       6246.052
      -508.9854      -3238.555       6751.947       11207.75      -7820.578
      -17043.46      -6585.412       3957.123      -1380.801      -9844.951
       1334.922       9248.302       6201.459       2887.043      -6686.178
      -7506.622      -2638.379      -5237.953       5357.145       10725.92
       8302.816       14876.89       4234.836      -15091.29      -12922.07
       234.1250       7558.379       2895.781       7212.039       3442.469
      -17113.48      -9041.676      -316.3350      -7462.554      -256.8594
       11770.70       15298.39       9499.813       11.01367      -5322.000
      -10126.04      -11551.88       450.8828       12640.17       12519.89
       1125.984      -8946.699      -13414.51      -8956.914       4276.045
       8083.336       10123.29       13665.68       2298.930      -8563.393
      -8463.074      -5027.995      -3149.908       4037.285       6308.223
       5652.162       13057.58      -1159.629      -16562.20      -11218.31
      -1691.674       8603.846       2092.599      -5170.129       3134.139
       6582.226       1348.179      -2353.779      -7270.338      -10122.55
      -3863.844       14695.26       20765.02       3738.377      -6539.418
      -12609.91      -8641.635       2933.846       3771.601       3320.366
      -146.7217      -5766.056      -2205.619       2100.309      -4845.955
      -1107.548       2149.635      -2236.707       1551.429      -4044.675
      -8369.090       6730.801       17441.84       7822.090      -6016.469
      -14171.54      -10187.21       11825.92       11452.43      -4445.101
       4222.227       12267.00       8525.699       2524.354      -5746.110
      -7605.295       3713.109       10363.17       4480.673       1664.636
      -2699.135      -5175.865      -3189.326      -1950.515       2738.200
       4471.732      -3727.850      -4499.521       2978.164       1535.573
      -6915.488      -960.9385       1365.943      -10947.12      -958.4868
       4988.448      -6592.601      -5022.332       6282.896       10993.70
      -1749.877      -964.8906       9573.901      -942.3789      -11616.75
      -6438.918      -3075.540       506.4395       8583.410       13352.55
       9509.529      -4727.662      -8195.820      -4394.131      -1434.207
       7160.825       2554.557      -3622.085      -2254.302      -5752.962
      -277.7246       4939.569       612.8711       2519.669       4846.832
      -5512.359      -15334.35      -5929.534       2733.855       4928.736
       7457.225       6403.867       7151.605       6014.242      -3853.980
      -14278.16      -11223.77      -2202.295       137.4385       2005.410
       4802.813       6821.406      -595.0723      -2572.623       8845.457
       4295.932      -9738.998      -5448.376      -684.1682      -1167.221
       4970.875       6241.988       4947.760       5940.752       897.3438
      -5682.292      -5771.276      -4300.068      -2227.783       1030.580
       5823.098       5300.322      -6203.500      -3131.590      -3259.617
      -14236.08      -4614.308       4733.333      -932.6797      -3630.309
       2672.608       5557.454       1835.036      -3923.120      -7795.082
       957.7734       7871.586       11932.62       17319.65       7678.496
      -9097.098      -8974.396      -2853.328       1997.628       5595.886
       1973.721       2146.495      -212.1580      -426.2218       915.0605
      -2495.557       1851.026       1049.707       1560.319      -1184.926
      -5078.659       995.1396       2690.123       2114.693      -3385.795
      -5844.392      -1644.297       1139.393       6377.864       1802.879
      -9192.668      -8633.587      -609.5566       8261.678       10296.60
      -4143.221      -7839.535       3765.355       808.5537      -4078.565
      -547.5320       231.3750       3614.697       5356.182       1497.573
       3411.362       6484.988      -1291.134      -2761.527       840.6357
      -1322.553      -2002.115       2487.732       1714.596      -8392.206
      -3195.051       5751.162      -3749.391      -892.4863       7940.805
      -3421.275      -3584.387       6365.625      -1515.841       1553.748
       9870.395       1835.295      -6339.882      -7831.416       1423.141
       10478.53       7196.752       5401.020       7323.045       6867.771
       6224.961       9248.536       438.7734      -16424.70      -10538.58
       2112.779       490.8525      -2760.680       545.0305       2580.211
      -2295.637       1033.508      -4745.449      -13996.35      -6425.277
      -6546.483      -6916.508       6440.629       18173.00       17701.42
       10265.09       2945.268      -4357.758      -10228.83      -23555.52
      -41104.41      -44808.43      -31896.79      -20517.63       756.2422
       28481.27       27460.16       11065.58      -8541.695      -22807.38
      -17337.53      -16112.38      -15475.94      -24023.56      -51392.31
      -55164.78      -46057.22      -29346.44       18386.06       56826.45
       63005.86       57635.11       27702.68      -28733.76      -36763.05
      -8034.083      -3461.751      -4101.348      -7875.031      -18577.32
      -16703.55       3457.859       28382.89       57770.17       63317.69
       23420.38       15170.28       32212.74      -8165.172      -52546.93
      -30661.21       19489.12       63239.20       58151.71      -2145.777
      -9295.852       24446.06      -14925.10      -30705.27       52287.73
       79370.30       12960.12      -26756.56      -54322.28      -94602.56
      -80698.10      -14128.88       71998.28       114437.2       49069.84
      -26134.65      -26714.17      -44128.81      -96727.52      -88352.27
      -5366.969       72557.03       93125.88       49228.34      -38151.97
      -41898.85       23254.16      -11818.53      -73992.02      -67853.28
      -35306.81       40990.38       107799.7       80138.85      -10871.80
      -68958.36      -49577.33      -15559.95      -18277.32      -14622.63
       2994.469       30452.53       67897.59       37107.18      -23259.56
      -40043.69      -54729.14      -42419.30       2472.672       16630.50
       20536.17       37138.19       32282.88       13035.08       13165.77
       30140.24       10055.39      -36662.06      -32465.88      -4196.758
       6855.141       19284.12       46192.07       55073.34       9302.625
      -19322.45      -34188.39      -59553.08      -19654.48       39151.47
       38541.30       20324.60      -2078.844      -23416.96      -11768.26
       1024.121       5475.184       15133.66       12465.33      -11058.55
      -31558.67      -13476.16      -2958.414      -27474.46      -12740.80
       19451.84       16777.35       36900.52       49559.12      -9378.641
      -50384.98      -30455.52      -23091.85      -24816.93       30435.28
       83683.59       47423.33       1630.809      -7169.766      -43988.28
      -76167.48      -32450.52       30808.47       69307.69       79992.84
       42985.05      -14640.33      -62139.47      -91786.50      -102469.0
      -89144.23      -19041.73       76911.22       108481.8       72648.81
       962.1719      -53392.23      -53271.69      -55739.39      -45012.19
       4879.379       7039.617       5988.984       70501.62       78771.72
       45603.12       58914.66       16499.59      -67260.58      -43276.77
       33823.25       50843.23       36519.94       16353.48      -19554.30
      -38869.30      -28798.30      -19410.99      -7541.348       15920.54
       25233.68       3298.824      -8811.824       14306.04       6366.359
      -37946.24      -48146.90      -22893.68       2294.082       5947.234
       10517.27       56267.12       79202.52       15549.81      -43606.92
      -47056.63      -48229.21      -29486.33       6407.352       29600.48
       41754.43       26087.30       7458.453      -182.4766      -22504.72
      -36269.43      -17959.77      -19948.97      -37524.70      -4347.479
       8854.656      -16796.81       4899.453       23183.46       6169.625
       9692.663       10729.38      -11815.59      -24132.16       6618.379
       33559.91      -3690.875      -23439.43      -123.7734       12318.82
       21816.45       20200.62       10174.50       10890.49       13682.73
      -7939.766      -53733.61      -46696.01       11835.89       22267.70
       16435.47       28631.02       11320.80      -12806.32      -11566.94
      -10669.05      -40964.84      -56998.64      -17158.91       22343.60
       29619.48       22508.21       9748.230       4850.438      -4468.922
      -22896.96      -26713.38       276.7109       27041.80       20789.58
       26706.75       22655.26      -4767.426      -3558.160      -8134.450
      -6273.812       24209.47       32422.15       11209.16      -31062.80
      -57911.21      -35745.66      -2827.539       12649.89       29402.02
       41716.94       25921.75      -5727.773      -39342.81      -52166.71
      -24139.18       5085.344       6787.199       9313.242       27690.11
       26920.10       2618.221      -10890.26       1330.495       8724.844
      -30349.53      -39675.30       13818.90       35519.55       23661.18
       24576.17       20163.96      -371.2812      -27043.55      -52244.73
      -46962.58      -28523.70      -16667.09       6545.820       33798.58
       42798.22       5770.484      -12242.07      -4210.336      -31204.63
      -17736.46       31246.09       33931.51       12375.55       1046.539
       2347.252       3551.121      -3584.125       8266.992       31788.12
       29013.71       18125.57       3394.492      -30218.08      -37395.96
      -10501.36      -4318.723      -1545.141       35960.74       38881.07
      -5788.023      -22695.16      -28451.34      -30376.77      -14017.25
      -6764.236      -4174.610      -2301.400      -3196.242      -11322.09
      -10463.45       19056.68       31928.76      -4355.852      -41028.20
      -34139.91      -25984.06      -18637.23       34279.67       76920.13
       50775.27       10003.39      -9963.750      -38466.36      -48338.62
      -12864.84       12320.19       21697.24       32752.08       36442.14
       25861.89      -6592.305      -34415.17      -31952.54       1132.605
       20600.30       11651.46      -5300.123      -13095.28       1605.607
       860.4912      -8184.757       1712.391       13595.24       18841.72
      -4871.754      -25054.75      -3734.791      -629.7871      -17630.76
       7560.152       28959.51       3831.936       3591.357       9230.711
      -29579.22      -49212.50      -26677.20       8648.734       35267.43
       35534.10       14966.74      -11938.52      -31837.03      -24850.89
      -17766.60      -19837.06      -751.1582       11244.14       7399.395
       7081.461       17050.58       23922.13       13171.30       8336.455
       2928.510      -12858.95      -8659.857       7460.676       4493.328
       10777.62       43615.19       35957.62       529.2788      -3221.254
       6738.244       9058.840       14067.81       13040.56      -15896.46
