     0.02500000      -64373.05       71288.70      -12345.00      -12345.00
      -29.99999       234.4000      -34.60000      -12345.00      -12345.00
       0.000000       25.98000      -12345.00      -12345.00      -12345.00
      -12345.00      -12345.00      -12345.00      -12345.00      -12345.00
      -12345.00      -12345.00      -12345.00      -12345.00      -12345.00
      -12345.00      -12345.00      -12345.00      -12345.00      -12345.00
      -12345.00      -30.81820      -66.60730       966.0000       0.000000
      -31.54000      -68.94500       0.000000       103500.0       0.000000
      -12345.00      -12345.00      -12345.00      -12345.00      -12345.00
      -12345.00      -12345.00      -12345.00      -12345.00      -12345.00
       236.7704       70.85050       249.6460       2.128837      -12345.00
      -12345.00    -0.06399569       90.00000       90.00000      -12345.00
      -12345.00      -12345.00      -12345.00      -12345.00      -12345.00
      -12345.00      -12345.00      -12345.00      -12345.00      -12345.00
      2008        49         8        51        38
       300         6    -12345    -12345     10577
    -12345    -12345    -12345    -12345    -12345
         1         7        13    -12345    -12345
    -12345    -12345    -12345    -12345    -12345
    -12345    -12345    -12345    -12345    -12345
    -12345    -12345    -12345    -12345    -12345
         1         1         1         1         1
MALA    -12345          
        -12345  -12345  
-12345  -12345  -12345  
-12345  -12345  -12345  
-12345  -12345  -12345  
-12345  -12345  -12345  
-12345  -12345  BHE     
ZL      -12345  -12345  
[...]
       6355.754       3579.348       3460.949      -3205.553      -5235.470
       721.2491      -157.5889       497.0251       1787.492      -5998.756
      -13075.80      -5151.322       5665.744       7608.545       6069.962
       3224.630       96.01855      -2002.563      -3536.492      -319.3975
       3969.595      -2040.332      -2210.453       8119.113       5697.316
      -2604.237      -3429.160      -4067.888      -2465.536       462.5742
      -1992.545      -1269.100      -1099.297      -5122.127      -6052.137
      -7302.012      -3241.211       5840.873       3327.154      -6766.726
      -2939.107       5608.567      -1609.318      -7725.616       1940.117
       10054.16       3468.525      -6423.213      -902.8301       5431.441
      -623.7129       2171.253       3436.333      -2183.205       3979.994
       533.3789      -8461.321      -2511.062       122.7776       1167.525
      -1198.549      -5144.004       217.4480       314.9170      -3272.502
      -4058.285       1076.785       5572.774      -765.2827       1130.466
       4154.054      -1408.594       1299.768       7159.178       6072.625
      -4518.225      -7173.600       9858.727       13218.73       1379.028
       253.3438      -5064.129      -9814.798       2068.738       7515.777
      -2233.423      -4280.314       465.4591      -152.9390       522.4580
       3163.647      -1772.988      -4399.359       3394.059      -4816.708
      -9359.018       3307.535       716.5156      -7935.129      -10609.56
      -5375.665       5776.108       4493.461      -5082.320      -431.2002
       6937.165      -1441.884      -8359.335       1523.629       9211.334
       3768.972      -770.3289      -1131.467       2260.777       1042.908
      -1498.475       1650.916      -3108.538      -4853.397      -2503.191
      -1909.306       3099.711      -1210.229      -1345.127       5370.249
      -215.1914      -5432.381      -422.8555       1916.529       2347.520
       4301.089      -232.4697      -5243.296      -4064.029       5183.750
       8303.869       1376.645       4587.602       4610.598      -4543.082
      -8203.023      -4707.561       740.8750       8681.195       9684.199
      -9243.276      -10203.46       9587.689       8399.751      -5544.168
      -7142.193       4431.320       7431.623      -6214.969      -7317.623
       3979.120       2615.840      -2118.552       2951.274       5062.952
      -3352.002      -8843.436      -3425.605       5655.026       6762.990
       783.1641       385.3926      -6681.830      -12937.08       4574.618
       3709.999      -6459.384       6204.756       6199.569      -2396.728
       1444.570       3124.765      -1361.020      -4001.160      -289.8633
       3890.452      -554.8838      -5090.091      -2093.705       3491.074
       6858.312       7967.285       5472.232      -1896.689      -4553.877
      -298.9717       4475.092       2370.151      -1098.771       6403.725
       626.4023      -6369.053       3706.326      -227.9482      -4055.758
       574.6421      -1177.052      -776.0312      -3209.284      -4563.579
       4200.521       1511.240      -6930.004      -1847.353      -357.2676
      -3255.334      -7667.372      -4793.338       10344.77       5210.868
      -1730.659       4180.666      -1884.677      -5905.933      -1272.604
      -942.2539       199.3301       9592.586       5666.591      -8822.877
      -1215.915       7689.484      -708.7651      -2666.441      -664.8257
      -541.0000       7836.647       4623.831      -7094.031      -870.4346
       36.53320      -9312.770      -2314.006       8242.960       5563.224
      -3241.406      -4522.396       6331.944       2412.730      -10667.63
      -3729.477      -4262.982      -10407.57       4809.641       15744.66
       4022.413      -5947.574      -5819.449      -743.2432       5102.145
       3472.293       2871.234       2086.096      -821.9443      -191.9902
       7085.195       8633.434      -221.6064       657.1465       5272.381
      -727.2524      -3029.719       694.7676      -3894.752      -6535.523
       140.4207       1482.087      -3207.430       4247.287       5505.112
      -3210.718      -352.4551      -3000.402      -3918.823       3958.184
      -1784.082      -2602.289       8004.964       479.2695      -7121.893
       869.3438      -2768.392      -7844.986       154.5527       4710.162
       2826.260      -4130.252      -3373.704       5360.980      -131.4707
      -8888.310       243.0670       4210.235      -7046.436      -6309.981
       1954.929       2462.647      -3448.414      -4254.199      -1386.180
      -4201.578      -2474.211       2380.112      -2609.097      -6339.087
       2669.708       3537.150      -1100.285       4633.352       6195.727
      -240.0913      -988.0176       5812.384       7062.246       1800.715
      -3538.443       1893.775       10933.86      -2016.641      -11217.20
       2502.708       3368.100      -10456.21      -5244.295       6774.564
       4071.923      -874.7500      -4480.152       312.4209       6236.712
       1605.174      -1260.757       2662.694       1093.628      -6870.045
      -1232.297       7570.281       3988.562       2743.484       2194.686
      -8193.302      -4591.366       8283.598       952.1680      -10910.79
      -8718.434      -6015.709      -7921.789       462.0117       2221.845
      -3824.685       1345.084      -390.0723      -5714.891       134.7041
       5353.900       3363.658      -428.6211      -2504.840      -460.3604
       1752.672       1429.058       84.23462      -2031.780       899.6724
       243.4492      -5179.719       1581.372       8153.428      -2007.304
      -6581.383       2555.664       7930.445       2590.043       67.36914
       5840.121       5965.651       1840.822       1416.803       4442.347
       5404.775      -2385.527      -7893.816      -1704.909       2710.186
      -446.4116      -2997.565       1587.396       6104.992      -1652.799
      -6235.512       362.0057       392.5986      -1786.237      -1822.683
      -2665.537       6417.225       11567.03       2825.766      -2862.671
      -2317.528      -2319.469      -6599.023      -5356.887      -1246.565
      -5135.482      -2844.676       3646.459       6102.299       2108.898
      -4217.572       665.3447       1559.693       4485.475       10597.57
       99.39062      -4392.710      -3157.245      -3449.793       1021.411
      -2838.521      -4381.295       1964.767      -2794.366      -8138.934
       1372.276       5123.688      -6393.195      -6847.949       6451.408
       6551.263      -2152.645      -643.6494       331.1377      -2874.903
      -2906.452       2081.021       7854.605       3947.057      -2070.347
      -3769.379      -4781.752      -3076.664      -289.4543      -639.7363
       2728.192       5605.509      -1142.752      -4737.729      -3833.791
      -2213.312       7712.859       16724.64       7715.523      -7729.091
      -2745.420       6496.686       2174.790       3683.119       7852.772
       2772.201      -7659.182      -8822.320      -1159.751      -3114.768
      -10116.37      -10350.65      -2207.490       3823.979       252.0996
       1869.856       5033.199      -1187.209      -493.6221       5832.845
       3514.486      -2035.145      -7446.426      -7796.413       2602.660
       9093.521       3423.824       1792.139       2898.715      -8536.111
      -12945.86       2427.074       7041.319      -1072.223       638.1787
       1624.369       784.7266       5357.261       5118.401       915.5464
      -3039.365      -2005.635       3807.819      -654.1641      -8605.410
      -5183.572      -4733.625      -3826.201       2592.106       780.2007
       644.9443      -1291.665      -6351.607      -1628.454       3257.747
       1287.142      -1047.180       9084.973       14855.92       1203.209
      -4293.042       1531.375       3525.232       2622.635      -1471.960
      -2847.839       932.8672       1538.893      -8057.562      -15317.82
      -2675.000       7768.882       2926.856       1053.778      -264.4481
      -994.2837      -61.60938      -4943.996      -2056.156       7718.680
       5935.624       1294.763       3406.649       2770.706      -3796.635
      -7726.979      -6544.633      -4320.316       152.3638       3116.166
      -3277.061      -9389.529      -2391.035       8673.354       9020.000
       2774.271       1563.180      -632.0303      -5971.832       1779.067
       2450.677      -2399.109       12516.71       11727.25      -6231.113
      -8028.068      -3276.875      -4696.786       129.9277       6188.460
       666.0593      -316.2607      -1354.000      -7342.659      -4995.745
      -4975.990      -6162.158       2610.382       6920.188       892.3691
       3627.322       12237.38       5464.600      -1945.107       1824.575
      -526.3398      -7181.445      -3299.702       439.2178      -2227.164
      -4333.105      -6336.681      -3698.686       2504.594      -857.3711
      -9519.357      -4804.607       4934.158       554.2246      -1838.758
       8564.206       5593.896       194.5254       11658.58       6034.223
      -8709.182      -7892.746      -4273.252      -2928.364      -4819.957
      -206.3613       8735.035       10860.74       5607.361      -6208.359
      -9734.762      -4624.246      -10181.95      -15282.12      -582.9707
       11161.86       7289.928       1337.808      -3078.992      -5409.163
      -3467.065       2177.502       4509.163       72.32715      -3454.776
      -2068.932       2278.068       4562.014       2057.826      -3002.955
      -3348.509      -457.3770       6062.270       7132.253      -4084.904
       3946.660       15212.16       856.5264      -1813.205       8449.119
      -1716.674      -11278.83      -223.7070       2060.685      -1897.346
       2328.795       1903.668      -1943.390      -2496.471       4537.051
       7100.668      -2865.757      -4646.151       294.9570       3242.293
       10664.97       9853.736      -3853.166      -7156.946       4936.824
       9347.174      -2410.456      -9324.648       2885.027       16628.44
       15239.24       4238.843       1155.539       10004.28       8757.762
      -1089.891       3192.038       8109.676      -5952.149      -8257.148
       9296.539       8759.316      -2095.833      -304.7515       469.6729
      -5082.899      -2331.890       3092.917       440.1289      -1215.421
      -2779.461      -6805.770      -10571.03      -7873.161       1179.027
       2712.691      -3815.709      -2977.969       6332.243       6477.158
      -5113.584      -5717.734       2678.857      -1857.978      -2411.043
       8935.630       3083.824      -9392.467      -1502.878       6418.001
       3298.518       1737.268      -4459.946      -6153.533       5506.411
       7656.173      -2237.520      -1963.446      -2182.506      -5712.215
      -5277.488      -5269.197      -3939.150      -10131.05      -6127.723
       8285.141       4122.301      -482.7754       8027.076       2351.469
      -11294.13      -3738.693       4831.810      -1350.652       1788.320
       13827.96       5992.975      -2493.357       5570.440       3432.745
      -5408.225      -4978.721       5943.560       6893.050      -346.6951
       757.4207      -726.4922      -433.9102       5820.680       10978.06
       10826.39       6173.640       1470.385       503.6746      -354.2683
       1.667480       2579.053      -137.8330      -3878.887      -2645.121
       1937.055       4895.081       932.9023      -3791.919      -805.0205
      -434.7441      -5427.465      -6329.395      -12138.77      -17489.77
      -5725.324       9481.258       8690.586      -3495.707      -8562.225
      -5391.387      -6237.855      -10353.13      -10695.05      -4666.363
      -7139.598      -11204.86       1436.330       9514.988       4787.137
       5070.854       4974.785      -3997.722      -5772.171       1119.282
      -3487.629      -9852.689      -2770.183      -884.7373      -5310.863
       3268.766       11452.44       5003.646      -5713.242      -7650.356
      -4062.225      -5724.536      -5005.120       1781.172       12240.42
       17377.50       16395.32       18632.33       26030.85       29178.73
       14049.55       2331.625      -6456.547      -31712.30      -37187.73
      -13527.53      -1492.732       3699.578       17533.30       33325.14
       40255.85       22354.86      -4324.336      -1445.398       25049.03
       16149.01      -9777.885       9128.891       1104.594      -52224.91
      -39632.59       5105.477       9507.973       17965.62       11585.95
      -15667.06      -25855.36      -51458.08      -60018.93      -15915.39
       20163.22       31512.33       54691.48       71288.70       35601.64
      -3554.719       21849.05       22112.69      -36665.83      -33422.95
      -18369.48      -61786.64      -64373.05      -7895.250       42506.33
       47958.82      -3074.648      -35360.47      -7315.092       9412.834
       328.0742      -2698.688      -18643.78      -58267.69      -57293.59
       1066.641       6569.781      -18453.45       8022.006       8586.371
      -6922.968       3731.125       1187.057      -4353.161      -5743.082
       8512.430       28155.13       19915.49       25645.96       37226.58
      -3349.875      -41968.34      -31888.48      -27599.66      -33094.97
       7693.969       59865.62       51544.25       22476.91       32453.95
       20541.72      -37359.30      -57810.81      -45564.61      -42698.09
      -21433.54       10237.14       12740.62       17223.61       14217.16
      -19932.53      -8762.887       23889.35       17662.58       11614.68
      -7477.906      -34083.79      -20158.13      -3574.531       8994.781
       24219.96       16334.80       6975.906      -33.31250       12301.15
       30111.11       1472.570      -27873.57      -22410.52      -13928.78
      -32625.88      -40818.79       1088.156       31812.23       21444.75
       23612.93       33514.95       13145.69      -9250.633      -21662.74
      -21705.48      -9506.637      -15522.91      -30904.98       6193.281
       49052.89       19927.16       7019.836       21234.25      -5855.820
      -25632.58      -3059.274       6226.750      -26834.32      -44337.68
      -18152.08       2517.254       8737.008       32447.93       38886.62
       15621.91       18364.35       29348.93      -2267.977      -28506.88
      -16586.16      -20059.66      -20483.82       2564.020       3526.938
       17558.56       53051.28       43874.23       16865.82       24940.11
       11585.52      -33739.50      -27164.36      -1688.602       299.3164
       8737.186       3866.484      -12259.79      -21350.16      -18989.86
      -522.4121      -115.6445      -19603.05      -14538.36       11295.82
       10209.27      -18423.34      -23907.97      -9637.785      -12240.40
      -22016.93       550.0703       31741.88       37551.28       43601.14
       24312.77      -31443.33      -41640.04      -2985.738       12759.02
       19057.86       23339.48       11567.20       4737.984      -7002.434
      -18866.17      -5189.975       2872.605      -16675.73      -12712.92
      -599.4736      -6563.195       10124.03       25343.96       7134.406
      -21817.41      -44082.66      -42627.20      -10790.55       31320.23
       41437.43       11001.11      -20291.02      -28084.46      -19215.71
      -9354.957       5199.016       20886.50       29241.60       20852.70
       6670.906      -7248.883      -28400.89      -18950.33       7335.430
       20907.43       35784.73       28662.01      -10955.27      -11811.22
       26773.36       23501.54       3930.691       11069.25       5973.430
      -18754.13      -22779.00      -992.8281       14044.59       15862.12
       27965.65       31748.87       22150.37       9484.000      -21895.65
      -17479.29       17728.49       2043.399      -14891.28       14526.60
       25558.14       13446.03       4890.051      -12715.36      -38200.49
      -38594.90      -6297.293      -6339.969      -32837.34      -9204.295
       15688.56      -3088.088       3314.217       10087.63      -18853.40
      -5372.891       32257.49       7743.195      -20345.41       2652.066
       12113.44       5822.278       5752.988       2567.958      -1792.385
      -9492.254      -12148.33      -18270.19      -20048.64      -10925.24
      -17018.47      -8519.375       35624.31       40826.00       7519.908
       9376.718       6986.410      -15980.00      -10670.73      -2798.754
      -16099.97      -15951.24       4374.031       21521.16       24040.05
       19651.01       15847.34      -3574.328      -36194.01      -31236.29
       6227.875       20034.28       27405.82       24037.22      -1960.214
      -4265.084      -1527.900      -3396.984       15306.84       16560.61
      -8916.033      -13104.37       1425.825       4144.086       3484.182
       2833.570      -12494.47      -17404.34       1433.445       8279.680
       9037.727       14988.50      -9358.594      -39807.80      -37915.72
      -25339.48      -8579.017      -103.5059      -2616.859       11700.87
       13421.70      -8997.863      -16167.98      -5269.305       13434.38
       23781.17       11532.40      -6647.867      -10196.25      -2521.905
       4159.666       6780.379       10111.06       20904.36       15531.25
       7216.012       16159.50       13086.99      -1119.982      -2185.434
       4436.477      -7552.492      -24267.89      -9224.648       18782.32
       23030.92       10276.53       586.1475       929.0654       4273.175
       233.9373      -1555.409       1757.792       348.8555      -6691.383
      -14484.41      -15556.28      -16859.45      -20134.10      -14554.71
      -2579.737       18.80322      -5028.496       5868.103       10369.03
      -14515.66      -27883.12      -9376.727       6840.105       13644.45
       21151.64       15285.10       6239.969       13028.70       6828.316
      -14275.70      -22561.41      -22195.96      -16365.00      -10748.85
      -10269.15      -1312.330       8177.910       6340.168      -2675.070
      -16751.08      -14687.31       1351.367      -7236.797      -9782.000
