     0.02500000      -110695.5       137779.2      -12345.00      -12345.00
      -29.99999       234.4000      -34.60000      -12345.00      -12345.00
       0.000000       25.98000      -12345.00      -12345.00      -12345.00
      -12345.00      -12345.00      -12345.00      -12345.00      -12345.00
      -12345.00      -12345.00      -12345.00      -12345.00      -12345.00
      -12345.00      -12345.00      -12345.00      -12345.00      -12345.00
      -12345.00      -30.81820      -66.60730       966.0000       0.000000
      -31.54000      -68.94500       0.000000       103500.0       0.000000
      -12345.00      -12345.00      -12345.00      -12345.00      -12345.00
      -12345.00      -12345.00      -12345.00      -12345.00      -12345.00
       236.7704       70.85050       249.6460       2.128837      -12345.00
      -12345.00      0.4479855       0.000000       90.00000      -12345.00
      -12345.00      -12345.00      -12345.00      -12345.00      -12345.00
      -12345.00      -12345.00      -12345.00      -12345.00      -12345.00
      2008        49         8        51        38
       300         6    -12345    -12345     10577
    -12345    -12345    -12345    -12345    -12345
         1         7        13    -12345    -12345
    -12345    -12345    -12345    -12345    -12345
    -12345    -12345    -12345    -12345    -12345
    -12345    -12345    -12345    -12345    -12345
         1         1         1         1         1
MALA    -12345          
        -12345  -12345  
-12345  -12345  -12345  
-12345  -12345  -12345  
-12345  -12345  -12345  
-12345  -12345  -12345  
-12345  -12345  BHN     
ZL      -12345  -12345  
[...]
      -2696.974       3232.363       4487.504       2423.221       1687.103
       841.6523      -3420.659      -6761.457      -1150.588       1563.746
      -19.70508       3049.937       4102.867       1061.744      -5997.719
      -12429.28      -3020.650       5871.108       3972.280       3895.454
       2754.054      -1267.617      -1808.834       1966.560       482.0996
      -456.7373       4406.780       1554.312       7175.971       13360.71
      -6927.999      -6141.111       8662.043      -4526.867      -7410.985
      -2266.716      -2503.733       4088.898       2589.054      -716.3149
       1337.570      -5352.330      -9470.737      -2261.601       3757.835
       3789.981       874.4980      -5243.490      -7282.556       1642.479
       493.8496      -7500.421      -294.8474       1093.226      -390.3984
       6950.234       2621.965       4518.461       10458.75      -7050.597
      -7476.469       10857.77       2628.935      -5266.770       6095.980
       6583.945      -2004.724       1212.868       3068.863      -6574.187
      -3440.494       3752.580      -2403.190      -4616.145      -1972.199
      -360.5928      -1431.087      -2940.520       346.5925      -1479.538
       322.5254       4037.138      -3549.485      -917.2339       3678.709
      -1530.969       2570.533       5161.271       2556.679      -85.09961
       1684.451       8895.623       1500.044      -4078.605      -3367.940
      -3945.229       3395.611       5672.683       5825.231       357.2905
      -2774.390       289.9434      -3766.873      -966.1426       3258.792
      -1028.140      -1774.076       2208.272       1314.429       1717.636
       1547.084      -5543.550      -5677.668      -2608.984      -8639.729
      -5457.067       7687.302       2462.994      -6578.568      -6136.321
      -5642.110      -372.8838       6554.230       1043.299      -3869.527
       3200.253      -3145.414      -10192.56      -93.80518       3098.671
       1005.723       2803.470       2626.788       397.4651      -174.9312
      -1249.135      -1361.493       2578.664      -640.1646      -2108.805
       2385.208      -2040.416      -1652.787       11222.62       6965.544
      -2860.265       5117.952       92.97070      -7289.009       3265.107
       5964.908      -2941.990       177.7778       1883.004      -8306.231
      -4210.047       2072.199       880.6914       2107.169       2142.259
       1991.037      -2888.558       1546.235       8033.779      -3238.666
      -5709.812       1167.469       6485.324       7998.825      -1637.252
      -6409.010      -5208.000       156.3706       1253.018      -2439.631
       1305.741      -1795.758      -4923.091      -43.34082       3395.975
       2486.680      -3051.932      -6346.454      -5152.173      -446.2676
       3565.005       4580.661       2229.074       2496.116       5955.940
       1236.591      -1768.636      -1502.551      -2415.188      -3731.379
      -4340.194       246.4990      -4572.776      -6385.212       5049.328
       7779.950       3208.949      -728.1611      -1670.823      -3262.773
      -3957.021       2890.532       5333.509       375.1216      -4049.099
       3681.318       10452.83      -14.97119       184.0571       1443.954
      -7347.282      -853.2153       2940.762       529.2686       5658.999
       3161.307      -7199.892      -6964.360      -1930.689      -4497.007
      -2291.445       3957.614       3410.479       2963.373       1273.686
      -4226.908      -3539.109       462.7988       3026.232       4154.471
      -75.95361      -1365.437      -1732.687      -3249.954       1932.499
       1407.262      -5833.183      -3397.472       712.5449      -3324.683
      -1965.223       2656.779      -2090.058      -2479.612       1435.737
      -2443.535       1488.996       1865.670      -8746.654       1820.134
       6587.672      -6824.110       290.6846       4942.979      -3903.739
      -4753.201       1442.849       7392.083       167.7363      -5200.888
      -372.7485      -1940.926      -695.1328       8504.275       7587.804
       1517.179      -74.74072      -1609.843      -2483.371      -1221.405
       5317.606       3607.652      -530.5991       702.7891      -7721.904
      -6304.197       1917.667      -891.5889       1125.340       1995.420
      -5716.343      -6468.868       732.9316       4672.205       2147.755
       2311.163       3992.175       17.97534      -126.1709       3525.455
       1630.697      -887.3730       2723.646       7245.243       2156.143
      -3041.225      -5215.865      -8741.197      -3283.868       2108.716
       1956.137       1579.249      -2894.351      -4366.950      -1650.839
       3382.602       1432.106      -7302.050       318.6533       5910.727
      -6379.250      -6589.945       1214.700      -3204.699      -1520.221
       4433.485       2977.396       1709.276      -2176.834      -3556.744
      -2948.206      -806.4629       2753.393       3205.609       4405.219
      -5678.107      -10946.51       322.9512       5054.653       4548.133
       1897.951       3641.075       6494.712       1707.827      -2549.252
      -7347.223      -2330.494       5407.257       2800.096       3106.541
       1976.173      -1713.667      -729.5186      -2227.140       1327.520
       5600.967      -3052.016      -4298.633       3406.117       4736.885
       2187.562       2224.478       5519.058       4846.592      -375.4854
      -3216.198      -3761.651      -3559.020      -5077.514       420.1343
       4083.242      -5862.727      -5612.616      -336.6699      -2478.269
      -1544.529      -2007.678      -2473.497       4147.697       4058.190
       275.9583       999.1031       47.44482       142.0251      -2601.086
       2115.495       5287.695      -5821.112      -2510.552       4560.157
      -1813.693      -3267.932       786.6836       4568.523       9643.920
       9672.704       1155.248      -7058.368      -1943.068       4015.205
      -3052.060      -5006.976       2710.687       4077.831      -21.29297
       6941.735       8498.770      -8382.918      -11777.17       1090.104
       4454.979       43.24854      -1999.661      -2415.181      -358.3555
       2941.364       2603.387      -1269.364      -2916.085       543.4991
       589.4795      -2210.364       4751.514       6894.217      -3525.077
      -4223.314      -1342.657      -2935.809      -6048.456      -5402.581
       533.3428       870.0029       2757.897       1348.588       1673.148
       6539.309       103.7900       1048.657       1532.597      -3689.637
       6672.248       9781.851       2823.043      -604.4287      -4105.998
      -4893.766      -6107.743      -1960.937       2911.514      -347.0137
      -3262.377      -1773.374       2613.116      -1978.221      -8738.835
      -752.2681       4036.168      -3682.267      -3843.066       4067.497
       3103.565      -3541.787      -3950.179       3450.738       9248.264
      -521.8398      -6059.982       2502.522      -4445.965      -7953.521
       79.92346      -518.0430       2731.353       5184.022       2711.834
      -2123.769      -4940.550       2633.340       6907.661       3814.188
       242.1455      -1549.718      -2739.040       260.1797       5199.579
      -579.7100      -4696.010      -3404.641      -6316.810      -6719.417
       651.5581       3107.355      -3134.189       4134.830       11769.25
      -2788.188      -8390.007       2381.425       4058.127       1449.282
       843.6147       2257.022       2250.796      -421.8555       952.6318
       4380.337       3202.718      -1306.997      -2644.478      -1216.703
       617.0195      -3662.078      -2670.981       3729.474      -1652.438
       2999.723       11739.08       517.4507      -2782.620       3883.759
      -4629.671      -7051.319      -434.0205      -5129.527      -2773.228
       4938.346      -2236.086      -7577.035      -2707.963      -6902.539
      -9667.723       590.2227       5531.742       5913.604       7836.330
       5949.766      -581.2148      -6631.714      -1413.483       5258.465
       2009.524       1795.051       8954.758       7829.835      -255.1338
      -1854.609      -7376.792      -6522.711       3115.259       1.050781
       879.3862       4518.619      -3855.387      -5635.544      -473.6816
      -2847.661      -3494.021       2109.657       4085.865       575.0156
       5087.574       9378.174      -3763.253      -5982.068      -319.4663
      -2203.830       4885.204       4417.790      -4207.107      -3267.504
       2790.691       46.48779      -823.5117       8995.123       638.8862
      -5289.267       7305.600       2717.308      -2579.670       3236.051
       4851.611       5476.939      -1190.883      -4382.761       1468.123
       1944.000      -7228.221      -12966.37      -4027.551       2017.637
       3277.095       2733.642      -3506.563      -3107.295      -5320.363
      -11747.62      -5221.292      -1742.241      -6710.996       5282.699
       18085.96       11653.52       6436.425       3125.595      -4318.495
      -2737.312      -802.2031      -9142.947      -4723.029       3776.320
       3180.494       6766.313       4796.206      -3661.701      -6787.934
      -5161.378      -3280.223       1725.570       6128.062       3283.339
       492.0220       2634.709       912.0876      -1572.022       385.8654
      -572.5264       1187.693      -851.5874      -2856.782       1213.524
       1328.529       4013.031       4679.193      -1081.004      -5389.744
      -6165.961      -4821.582      -6940.254      -10059.93      -4484.567
      -1417.277       990.9102       9433.141       7843.831       5002.271
       3323.304      -2729.800      -4286.112       1140.482       6536.207
      -445.6296      -1680.864       4581.562       310.4204       2409.855
       804.7681      -2727.922       7254.859       9986.008       5777.574
       6211.934       8220.038       2016.301      -8337.344      -7740.438
      -3811.994      -5303.671      -3073.688       5961.090       10003.93
       552.3262      -7146.094      -2600.839       529.3643       3353.924
       3675.205       2837.439       2194.814      -7774.439      -3936.129
       5271.546       1148.396       5532.854       7762.764      -888.0732
      -2320.104       623.0537      -569.9102      -3884.252       2026.020
       8677.643       1614.604      -3337.449       2444.684       8831.938
       6144.715       1131.186       1382.340      -1059.121      -6050.610
      -1947.320       4694.269       2203.738      -1115.508      -5107.008
      -10225.09      -275.4561       7049.674      -411.9839      -412.1660
      -4163.014      -4360.666       5063.215       6151.123       7378.121
      -381.2422      -9302.316      -7826.661      -3727.184       7031.086
       8793.200      -1123.331      -1158.897       3443.454      -2424.063
      -3554.486       7223.520       3696.791      -3866.350      -1031.428
      -4521.569      -1850.293       6192.061       5500.352       8452.480
       8074.077       1636.559      -8408.377      -11084.17       7.922729
      -1173.755       903.0889       7050.958      -3250.592       748.1689
       8358.082      -3489.531      -7160.125      -1683.763      -2268.126
      -2246.464       1627.528       5831.072       3934.406      -2864.705
      -1743.060       2216.003      -1555.386       1674.375       8419.846
       2577.134      -3686.103      -403.3047       9417.756       9785.481
       1281.391      -1658.838      -4904.662       572.9863       3722.764
      -3315.121       5313.041       12189.81       1274.285      -7129.953
      -6835.304      -4442.826      -3118.718      -5388.133      -4312.846
       5362.496       10304.28       6821.405       1983.236       1847.590
      -5028.566      -12697.07      -4073.638      -611.0337      -2770.987
       590.5576      -4285.083       271.0117       14734.73       4360.471
      -10036.49      -9506.262      -9541.713      -3525.554       1586.326
      -2247.368      -760.2715       4156.062       6673.508       12842.11
       9170.717      -6133.629      -12414.91      -12002.96      -10417.12
      -7160.121      -10473.57      -19712.16      -14699.92      -4092.672
      -11432.89      -13652.27      -7242.336      -12854.67      -18780.79
      -20883.69      -36199.09      -52682.45      -60243.55      -64120.88
      -49714.00      -39296.32      -40424.11      -37399.90      -37636.33
      -21279.58      -16412.61      -34083.01      -26897.30      -19534.64
      -22873.12      -5464.180       15769.33       26300.60       18050.68
      -2763.121       3446.156       33033.28       56865.25       78033.28
       115880.6       137779.2       72677.34       4439.312       42049.72
       80121.50       63497.20       59861.58       51457.57       39014.95
       51947.22       58854.23       54000.31       37624.98       9479.078
      -23072.12      -69770.50      -88772.75      -97535.05      -110695.5
      -28903.14       61364.75       54372.44       56583.43       48578.31
      -16724.84      -58376.33      -66391.50      -81119.16      -94652.30
      -55301.43       3799.117       13897.38       34302.56       34399.75
      -12878.17       9657.818       9498.219      -50919.49      -34504.59
      -26785.39      -27590.49       28059.70       11278.92      -24242.77
       12732.04       41514.49       19985.66      -28395.39      -44308.51
      -44445.22      -23592.59       31835.33       34528.55       34827.84
       84701.75       53544.01      -30271.67      -54906.17      -56570.92
      -36406.91      -5968.391       20692.16       64770.91       85485.81
       84334.29       50342.43      -2847.672      -25313.00      -63249.71
      -59148.92       4335.984       19199.91       36288.36       49866.55
      -14054.40      -53627.62      -23805.62      -112.6406       9351.359
       46705.91       76635.48       4575.812      -51381.23      -21078.38
      -59397.97      -62515.27       22315.31       15257.74      -10925.08
       5819.779      -9174.365      -4349.547       35751.03       40556.76
       2848.680      -22108.02      -36900.67      -57090.67      -22351.95
       11924.36       7675.375       35868.34       42888.38       9631.250
      -25553.47      -54119.24      -35691.39      -9283.645       3222.094
       44875.03       50525.86      -4660.000      -19201.61      -6493.691
      -25853.68      -1041.312       46808.59       42812.33       40658.62
       30298.84      -6183.293      -25719.30      -9235.117      -10536.48
      -40301.00      -3305.820       27329.05      -11536.02      -11882.83
      -9330.453      -31518.08      -3013.852       8102.828      -15749.82
      -10485.64      -4811.453       9022.668       18916.11      -4724.076
      -11558.84       17656.86       19013.61      -28067.30      -38684.52
      -7652.371       7077.430       20638.97       19377.54      -16291.89
      -29202.12      -2279.281       26089.63       46859.64       20146.99
      -22368.96      -1789.289       12790.00       420.9609       8489.852
       10934.38      -4094.864      -5624.806       7363.678      -6969.863
      -20386.13       3844.821       8223.145      -8711.499       1773.225
       9938.080       1514.594       16241.01       40716.80       18174.82
      -1492.470       7029.414      -24032.99      -26447.97       5014.793
      -3790.180       16664.59       48987.42       32853.30       932.4199
      -16606.04       9069.535       10494.09      -25928.16      -30558.62
      -28476.45      -7052.404       13502.99      -3966.430       8124.625
       30900.47      -3152.602      -30640.28      -24308.82      -31534.68
      -30203.98       511.9375       26674.43       23908.99       447.5117
      -14198.87      -15414.80      -29789.45      -28388.89      -15735.08
      -23348.04       6271.375       45204.91       27051.04       7535.246
      -6930.992      -25574.81      -12968.55      -14989.51      -16361.37
       10405.70       18453.96       35307.52       58374.22       38024.70
       8973.855      -624.3281      -14056.98      -21701.10      -15451.64
      -3446.422       6458.070       14405.55       19502.63       2763.887
      -12123.02      -19003.85      -21739.43      -872.8252       11156.69
      -6596.551      -14952.12       7297.133       20449.65       4843.707
       3009.242       18804.42       14430.70      -3816.629       1302.691
       22131.05       8844.023      -25011.80      -30454.09      -24685.82
      -19445.54       5486.949       22320.39       9747.241       792.8789
      -7859.887      -16328.87      -2681.237       3072.438      -3402.727
      -8697.961      -27628.23      -31314.44       8475.781       45353.88
       32847.34       18215.43       19991.42      -22958.52      -41544.95
       11283.04       22740.75      -702.6816       6114.094       13073.43
      -1450.660      -3358.773       15016.47       11959.52       5355.404
       6978.646      -3093.594      -17490.10      -38043.32      -29501.57
       8647.512       17120.26       2526.660       3414.906       17534.63
       14587.74       1821.507       179.0352      -6778.773      -12338.38
      -8471.270       8089.145       23647.38       6023.664      -13113.25
      -15499.23      -8859.639       5944.311      -2219.620      -5343.023
       9818.263       5004.570      -11574.32      -20340.30      -22613.98
      -34177.45      -33325.46      -5004.766       14847.80       11411.75
       5875.523       16245.32       4262.984      -30107.95      -18513.24
       1026.820      -22773.48      -28073.16       3723.246       7080.003
      -6160.555       18660.80       29525.65       1416.461      -15383.06
      -23271.64      -23428.90      -10309.35      -15513.44      -8055.328
       22215.96       12652.51      -13800.65      -12153.39       4085.303
       10989.07      -2134.762       7065.703       30810.70       18063.20
       8067.430       15149.03       113.3633      -8376.738      -8997.898
      -20987.59      -3713.062       26310.55       22452.52       13090.84
       21028.93       11339.86      -4190.352      -363.3184       4294.277
