     0.02500000      -70373.86       70768.95      -12345.00      -12345.00
      -29.99999       234.4000      -34.60000      -12345.00      -12345.00
       0.000000       25.98000      -12345.00      -12345.00      -12345.00
      -12345.00      -12345.00      -12345.00      -12345.00      -12345.00
      -12345.00      -12345.00      -12345.00      -12345.00      -12345.00
      -12345.00      -12345.00      -12345.00      -12345.00      -12345.00
      -12345.00      -30.81820      -66.60730       966.0000       0.000000
      -31.54000      -68.94500       0.000000       103500.0       0.000000
      -12345.00      -12345.00      -12345.00      -12345.00      -12345.00
      -12345.00      -12345.00      -12345.00      -12345.00      -12345.00
       236.7704       70.85050       249.6460       2.128837      -12345.00
      -12345.00     0.06448881       0.000000       0.000000      -12345.00
      -12345.00      -12345.00      -12345.00      -12345.00      -12345.00
      -12345.00      -12345.00      -12345.00      -12345.00      -12345.00
      2008        49         8        51        38
       300         6    -12345    -12345     10577
    -12345    -12345    -12345    -12345    -12345
         1         7        13    -12345    -12345
    -12345    -12345    -12345    -12345    -12345
    -12345    -12345    -12345    -12345    -12345
    -12345    -12345    -12345    -12345    -12345
         1         1         1         1         1
MALA    -12345          
        -12345  -12345  
-12345  -12345  -12345  
-12345  -12345  -12345  
-12345  -12345  -12345  
-12345  -12345  -12345  
-12345  -12345  BHZ     
ZL      -12345  -12345  
[...]
      -2150.683       7257.932       2806.344      -7271.069      -1804.068
       2414.078       5919.027       7797.083      -2609.976      -1930.648
      -1762.102      -10610.42      -2644.213       11038.29       9554.076
      -1725.910      -6906.330      -7241.312       1055.015       6042.167
       915.1558      -489.6553      -2457.385      -7317.512      -7735.615
      -3613.533       641.2510       5116.078      -707.6416      -2324.490
       5984.542       2268.693       775.5415      -1026.072      -5236.202
       5505.882       5364.410      -3164.472       1120.156      -5209.375
      -2228.412       10761.21       3575.944       2491.333       31.76660
      -4864.725       1372.305      -3003.344      -3121.214       3337.347
       1378.446      -950.8398      -598.8730      -5995.852      -6318.084
       3087.275       1181.100       547.0190       3619.395      -3155.178
      -4404.832       6374.639       7542.686       934.8535       2451.674
      -4135.606      -5448.674      -1432.668      -4014.217       811.9824
       3891.145       3408.856      -4066.168      -3444.799      -1364.891
      -11006.12      -3624.094       5512.518       5783.538       5564.580
       166.8137      -2878.594       3909.969       4472.422      -2849.579
      -2425.676      -2141.295      -11658.53      -7871.965       6893.266
       8401.186       10714.96       1206.457      -7508.434      -421.4326
      -4642.502      -1124.266       13966.46       7508.270      -7147.846
      -1952.914      -7399.347      -7521.836       488.1069      -6362.502
       7285.766       10903.34      -3122.217      -8907.547      -14268.12
      -8530.469       5620.715       6140.067       1590.169       6383.540
      -3300.224      -5399.090       6909.237       2615.821       2133.674
       920.7842      -2073.176      -620.8987       294.4414       2187.173
       1096.458       3108.143      -3511.008      -1298.473      -1258.562
      -5780.522       5150.016       9698.477       11778.26      -2540.965
      -15994.62      -3327.523       2715.709      -4164.646      -8093.336
       2228.102       9620.404       2381.934       1802.549      -1856.121
      -7765.229      -1136.157       5633.307       6223.856      -4443.918
      -10609.77      -10789.67      -1626.637       17227.38       10360.94
      -3796.783      -4380.268      -9456.232      -8852.624       2150.625
       2727.441       7301.002       6620.938       617.0771       5046.527
      -1231.893      -4323.947      -1353.058      -1700.698       2871.582
      -2879.805      -13735.21      -951.4883       3778.143       3099.252
       10841.67       4883.146      -5007.426      -3487.722       3759.131
       7520.480       6057.947      -4644.027       1696.044      -293.5059
      -10153.09       3893.017       1773.186      -6947.628       1393.752
       2834.326       2589.611       6736.396      -4430.146      -8465.310
      -2648.205       5544.835       7483.766      -5365.905      -6280.897
      -3770.500       771.1621       5519.107       5916.516       3843.229
      -2681.336      -350.5244       5739.843       2936.430      -1121.416
       2271.745      -275.6338       1204.177       3560.313       1349.881
       3192.480      -2595.355      -5575.425       795.4209       2372.948
       3836.013      -76.74951       1554.945       4096.811      -9739.059
      -11307.11       357.5293       7106.833       4593.921       1484.308
      -2783.133       1548.122       4691.488      -1689.747       33.76172
      -3042.160      -6830.875      -1217.300       6433.384      -41.23340
      -3563.769       2015.096      -2789.379       6484.996       15429.10
      -1746.387      -7175.201      -5897.277      -8020.111       2628.959
       8379.680       3717.416      -1636.443      -3665.783      -3202.077
      -2967.251       516.0918       7623.440       1130.706      -4035.366
       5870.808       1101.975       1704.738       14390.03      -45.85938
      -16180.94      -5464.267      -845.2031       5826.148       10772.48
      -5281.998      -2040.008      -3901.482      -11243.62       2062.399
      -1032.015      -3426.136       5211.217       5843.246      -2909.335
      -5818.386      -3380.364      -1853.506       6932.951       7146.648
       814.0576      -4593.873      -3145.158      -6915.507      -8139.689
       9505.992       6297.916      -6403.946      -5452.910      -930.3184
      -109.2988       5386.045       9005.910      -2437.958       215.9404
       257.8213      -8011.780       4343.877       9969.027      -2132.604
      -5773.727       3562.904       8765.299       6589.045      -4238.502
      -8869.196      -875.3025       164.1069      -3072.409       1410.805
       5997.285      -3564.125      -10781.61      -3007.563       4356.999
      -3263.327      -5676.397       3132.029       2626.418       334.5947
      -2028.932       1118.014       4491.690      -3580.026      -5470.878
       4528.430       4909.318      -1521.999       1180.870      -1880.751
      -7055.576      -1704.941       5460.064      -4395.090      -14662.58
      -5711.800      -6633.563       54.68066       7131.641      -635.9639
       103.7939       5491.654      -307.6206      -3170.227       5897.191
      -475.8052      -1952.682       4145.730       726.9873      -3429.748
      -3771.429      -230.8750       4004.309       6197.166      -3792.773
      -13596.52      -8199.082       9454.887       16211.40       4255.215
      -10907.64      -10582.86      -5173.033       86.38281       17311.01
       10318.74      -2898.640       328.3281      -2624.795      -1439.189
      -2368.178      -5301.213       3121.450       5749.981       3186.004
       3936.473      -6950.826      -13651.14      -2388.520       8176.246
       11223.94       5473.626      -4996.978      -6706.697      -2630.895
       8033.051       14066.03       4289.995      -3120.877      -7426.436
      -9940.770      -5056.760      -3103.795      -4645.641      -694.1821
       2020.252      -6310.652      -6068.262      -4534.158       3456.875
       16108.38       2178.939       860.1440       6121.797      -6534.439
      -4977.090       293.9316       1412.622       5474.627      -6254.278
      -3347.458       3776.879      -7036.033       145.8662       2050.090
       1354.238      -3582.438      -6924.141       8840.322       6543.062
      -2996.157      -545.1240       2562.793       2890.393      -556.9630
      -1711.695       1806.977       1325.633       470.2310       2307.977
       1976.044      -3610.194      -2969.640       3602.729      -2105.471
      -3410.949       2333.156       1838.243      -2212.769       1018.896
       3699.531       11021.68       21039.39       5278.793      -5486.377
      -8393.400      -8697.105       725.2812       4626.914       9088.854
       2420.684      -5877.715      -6368.424      -6625.941      -7785.190
      -4548.451      -865.3203       180.8662       4186.169       849.5524
       167.2437      -139.0386      -5133.179       2343.539       12247.29
       10389.21      -4153.785      -12423.87      -1180.690       3799.999
      -868.0811       992.4238       7021.411       4988.946      -5864.027
      -809.4375       751.5127      -7035.877       3987.258       7603.492
       5257.339       7358.249      -2062.682      -3995.082      -2344.379
      -7873.865      -4274.785       4608.339       2279.398       1167.045
      -2668.113      -17342.19      -13298.66       4323.127       9698.925
       5982.139       2954.452       2993.415       911.9321       2842.900
       885.6484      -412.4570       11803.78       11836.96       3111.633
      -4390.600      -8239.559      -4443.430      -487.1846       2571.888
      -1324.863      -6190.438      -7380.511      -2826.729       817.0322
       2830.273       8449.922       1362.211      -6990.869      -4221.227
      -6101.768      -1429.463       2666.131      -1242.992       10485.62
       15693.86       2918.611      -3481.424      -8606.000      -11844.24
      -2521.654       2738.619      -1637.897      -525.3906      -4514.687
      -7230.311       6646.383       12925.66       7697.621       4859.822
       1179.430       45.73828      -5384.601      -5095.507       3786.168
       2291.541       6718.102       13854.81       8409.830      -5495.797
      -14404.09      -10043.69      -1389.180       9004.918       1910.541
      -231.7383       3530.891      -16771.79      -18192.10      -10779.46
      -9835.492       1430.600       3478.754       4884.523       13088.20
       12643.25      -2343.590      -9262.421       1119.400       8311.659
       5050.607      -4291.201      -9645.027      -5481.642      -1702.726
       6247.843       5312.801      -4733.868      -4073.596       1208.947
       2733.579       957.4727       1790.699      -3372.688       11884.66
       16004.01      -3792.532       1927.764      -4240.184      -11018.52
      -10308.37      -6639.126       3392.283       2293.148       3808.475
       10518.77       5150.990      -10345.27      -6828.419      -1718.348
      -3511.055      -3542.465      -8183.990      -9975.507      -2769.229
       5016.597       3362.302       1560.537      -191.2686       4005.314
       4186.540      -1572.018       212.5996      -5271.203      -12113.87
      -2211.453       12402.58       8815.476      -1579.233       237.1221
       1559.445       3646.133       8667.008       6861.644       2467.496
      -1154.143      -3116.202       1230.577       1544.203      -2361.303
      -5017.577      -4651.936       4599.848       5361.834      -2379.905
      -3963.518      -7413.623      -8675.159      -1546.317       2105.449
      -5109.375      -9286.206      -5236.046      -910.9922       8534.566
       17147.05       12696.58       5001.756      -2828.476      -6146.461
       930.7305      -3093.759      -2968.831       4853.915      -870.0713
      -1331.875       7647.590       13610.32       9001.572       4510.298
       1245.137      -983.8711      -5593.152      -11955.62      -4133.076
       7565.720       4829.664       2395.464       1929.243      -4486.348
      -1147.717       873.5508       4453.786      -893.0234      -7875.488
      -3159.846      -4601.154       5647.473       9575.196       55.27344
      -10426.49      -8839.002       1867.299       5586.361       7493.457
      -3688.994      -8071.112      -2672.184      -3753.001       3364.201
       4829.114      -7127.303      -4348.487      -2074.797      -2555.078
       11334.49       7289.747      -649.3828       4995.420       4203.467
      -4090.414      -1084.089      -985.5039      -6115.656       2694.929
       1957.957       3758.101       3865.346      -8593.498      -10283.64
      -2762.656       6474.092       10702.24       10201.79       2726.790
       1282.039      -3070.227      -14119.04      -7847.787      -401.4788
      -1094.406       2592.318       5564.796      -2037.879      -5016.277
      -5918.767      -715.9141       12494.53       1509.691      -1151.367
       6763.727       3225.304       4570.717       3793.043       5210.332
       9172.668       10745.19       6535.850      -2253.363      -4251.457
       1382.529      -1824.223      -12318.92      -8831.811      -3380.201
      -308.0820       3308.285       4629.849       2291.955      -6542.219
      -13878.55      -12881.79      -4907.962      -1389.842      -3572.303
       1954.609       7154.543       10375.03       10520.92      -6174.359
      -12009.65      -3582.243      -3560.522       854.4756      -4584.501
      -8098.242       3795.516       7047.201       10034.73       6851.386
      -5951.168      -6981.194       5023.829       722.5981      -2289.429
      -890.2695      -10880.27      -7872.005      -5045.344       2833.141
       1351.432      -6292.492      -5438.945      -14549.34      -15493.40
      -7402.656      -5158.133      -5925.640       1768.648      -1449.117
      -7279.070       10159.13       18637.19       24653.67       25977.89
       11340.94       13678.94       21704.52       27006.22       44358.08
       54726.58       41097.49       21355.23       19441.85       17977.55
       13830.68       22123.50       22033.77       18455.41       14929.46
      -1407.664      -17744.57      -24359.75      -20944.15      -8249.098
      -9052.750      -29037.05      -39619.84      -37634.50      -28361.38
      -34753.08      -43269.63      -41054.75      -44946.05      -53896.83
      -64513.22      -51635.50      -44008.49      -46861.59      -29762.18
      -18590.11      -11905.32       2298.578       16740.22       38365.97
       70768.95       68370.22       43885.45       44472.26       20222.90
       1294.795       14230.02       2946.734      -14811.80      -8490.652
       16203.20       21173.41       24603.93       34806.98       2653.961
      -36674.75      -49900.05      -70373.86      -63858.70       3984.641
       38754.14       26076.16       26706.38       11914.54      -6111.086
      -11186.80      -9348.756       5779.219       2269.266       16079.92
       31300.55       5087.825      -1507.505      -2754.004      -3487.009
       5544.719      -1372.093      -7287.969       9312.250       31766.46
       24509.66      -2270.500      -40661.16      -68228.80      -42706.89
       3597.625       29345.06       27717.96       20209.94       25457.20
       18808.89       22516.02       11355.79      -34297.24      -32722.00
      -11668.34      -15128.91      -7095.664       22604.27       20278.14
      -4111.812      -8631.773      -22695.25      -24856.40      -3219.508
       9062.242       18168.75       34058.92       15910.16      -5541.700
      -2016.382      -7329.029       5780.047       23574.84       16066.68
       7841.762       10718.54       2668.768      -5041.098      -12182.17
      -18821.51      -16341.32      -6661.014       11157.72       3566.938
       4309.105       15822.11       2184.682      -4871.258      -14701.57
      -22594.01      -9365.824      -9997.215      -18620.95       714.1953
       14410.96       21191.10       19830.93      -11846.40      -28633.67
      -46846.28      -45796.98      -16538.94      -765.9375       26235.75
       33096.80       11893.25       242.5547       10256.91       21407.96
       16456.35       9928.240       2412.186      -2108.938       19037.32
       31730.57       2670.988      -1891.236       11741.11      -14293.63
      -28523.68      -6854.105      -4060.174      -13501.12       3687.750
       19022.27       2731.371      -21737.70      -20820.85      -7535.855
      -11517.34      -8419.590      -3026.715      -10186.37      -1893.730
       6782.151       6327.075       367.2383       1858.854       9593.184
      -1525.811      -9670.419      -3736.781       15387.35       37977.80
       39673.63       28742.77       4452.449      -17616.16      -4649.508
      -10278.11      -24442.77       2423.484       14888.22       3751.156
      -12581.69      -25060.53      -39274.73      -39102.45      -1555.312
       23100.38       19856.25       11598.23      -1483.367      -13746.71
      -6403.542       1353.296      -3628.922       15776.81       26893.09
       16755.29       25437.77       12423.41      -7661.284       4172.037
      -2024.412      -15015.09      -946.1094      -3604.463      -4284.848
       7374.906       5264.943       12863.79       1849.777       385.9102
       18439.44      -332.3711      -8562.312      -3004.883      -6880.961
       11475.26       25103.09       8423.753      -6082.889       4557.730
       16788.66       2111.609      -11521.38      -12980.67      -20752.57
      -11139.87       2145.027      -2131.959      -6019.217      -7017.762
      -9427.324      -15928.48      -14715.42      -3491.773      -3106.713
      -9469.111      -5348.438       738.1875       2931.707       15645.58
       30733.45       29064.12       21339.83       7873.883      -14202.18
      -21570.52      -24073.70      -25878.44      -12072.56       3221.936
       3919.208      -3076.414       1171.852      -186.1016      -8786.487
      -69.02539       2747.868       454.5771       4178.895      -3024.926
      -14769.87      -16253.93      -8015.246       5668.977       29665.02
       43313.94       30433.26       11630.61      -3338.066      -7600.352
      -7064.850      -7842.680       3276.500       20219.58       27446.99
       14093.98      -7715.383      -16525.56      -11539.98      -1774.203
       8938.895       7359.910      -7782.555      -13575.78      -5011.987
      -1729.328      -11924.47      -7853.869      -6327.070      -9747.424
      -7358.834      -9489.666      -5397.835      -6024.316       1660.285
       11728.77       14099.94       13881.73       786.1777      -7462.137
      -10578.98      -17288.12      -14148.61       3441.715       17496.78
       15809.88       5706.225       2601.863      -12465.74      -23098.60
      -5967.654      -1149.234       12971.10       20041.48       9931.574
       14885.78       8600.641       1219.597      -3928.823      -42.80566
       4502.664      -1383.988       6802.441       9767.773      -6694.668
      -17020.72      -4214.144       3688.850      -4972.332      -4093.380
      -1047.773      -3507.742      -5964.045      -7354.637      -3179.521
       6770.947       10431.22       6714.497      -479.5137      -10540.06
      -4064.012      -1736.908      -9512.772      -5310.162      -3003.854
       1866.711       14128.47       13549.61       4690.145      -5440.863
      -18751.60      -13194.77       4291.883       13351.10       15814.41
       14940.63       13221.71      -994.3008      -20473.45      -20177.71
      -19289.05      -18630.37      -5495.539       1230.859       14050.98
       22176.33       14961.77       6344.789      -15597.30      -24910.75
      -13017.21      -2431.391       6817.117       13176.55       13143.78
       18124.28       25243.82       6219.395      -14398.48      -17828.96
      -16818.33      -201.2988       9642.998      -1731.269      -1333.312
       13532.24       12216.66       4975.547       9601.634       549.1172
