     0.02500000      -282069.9       514895.7      -12345.00      -12345.00
      -30.01001       219.3650      -20.16000      -12345.00      -12345.00
       0.000000       15.08000      -12345.00      -12345.00      -12345.00
      -12345.00      -12345.00      -12345.00      -12345.00      -12345.00
      -12345.00      -12345.00      -12345.00      -12345.00      -12345.00
      -12345.00      -12345.00      -12345.00      -12345.00      -12345.00
      -12345.00      -31.57700      -67.87020       833.0000       0.000000
      -31.54000      -68.94500       0.000000       103500.0       0.000000
      -12345.00      -12345.00      -12345.00      -12345.00      -12345.00
      -12345.00      -12345.00      -12345.00      -12345.00      -12345.00
       102.1271       92.58197       272.0222      0.9182584      -12345.00
      -12345.00     -0.6911601       90.00000       90.00000      -12345.00
      -12345.00      -12345.00      -12345.00      -12345.00      -12345.00
      -12345.00      -12345.00      -12345.00      -12345.00      -12345.00
      2008        49         8        51        23
       860         6    -12345    -12345      9976
    -12345    -12345    -12345    -12345    -12345
         1         7        13    -12345    -12345
    -12345    -12345    -12345    -12345    -12345
    -12345    -12345    -12345    -12345    -12345
    -12345    -12345    -12345    -12345    -12345
         1         1         1         1         1
NIKI    -12345          
        -12345  -12345  
-12345  -12345  -12345  
-12345  -12345  -12345  
-12345  -12345  -12345  
-12345  -12345  -12345  
-12345  -12345  BHE     
ZL      -12345  -12345  
[...]
      -354.8232      -209.9825      -334.9789      -191.0417      -314.0541
      -166.1370      -286.9111      -137.9721      -260.3541      -114.1048
      -234.4075      -85.79773      -207.3585      -60.08118      -178.3108
      -31.67181      -152.6219      -5.225739      -120.4235       26.40555
      -90.58128       56.26279      -60.53075       86.99243      -32.01726
       112.6546      -2.484100       141.1804       23.45233       168.7885
       49.50992       193.1685       81.17523       224.9426       106.8822
       252.1188       138.0937       280.5127       167.2730       309.6284
       191.4542       334.3859       223.1757       364.1567       247.5070
       386.3386       272.6483       413.4983       296.0608       432.2493
       319.4247       455.4524       338.5978       476.7195       360.9231
       493.8538       375.6051       505.7019       387.2245       518.2004
       398.6500       532.0022       413.1953       541.3040       422.2325
       552.1376       434.6248       562.1902       444.4702       572.4326
       453.6355       580.2976       462.7034       587.6140       469.5164
       594.4357       472.5692       594.4038       474.0627       597.6989
       480.2400       603.4883       483.1791       603.1240       485.5652
       608.9185       489.8921       610.6519       492.9213       609.7012
       487.2307       604.8037       483.9231       600.3301       480.5021
       596.9987       477.6373       592.9044       471.9382       589.6445
       471.8141       587.5994       466.8005       579.4939       459.0444
       573.2703       455.7981       567.7052       448.1636       559.4229
       440.1975       551.3330       434.0011       541.9492       420.4318
       528.9846       406.8807       513.9958       400.6484       510.9790
       392.7638       498.8027       382.1262       490.5470       372.9572
       476.1918       360.2974       463.8723       346.2051       450.4841
       334.6676       438.8959       324.7273       430.0094       314.9020
       417.4582       300.4584       404.3597       287.9465       388.0468
       271.3248       369.1172       252.8102       353.0891       234.1283
       330.6588       215.5166       311.8563       194.0853       285.9623
       167.1163       262.4840       144.6038       236.1582       119.7328
       211.7159       95.52698       188.7377       69.89987       158.9579
       42.69873       133.7263       20.68321       109.8011      -5.522003
       85.43150      -26.60391       64.59729      -44.91628       42.76017
      -66.58706       23.81326      -88.39845      -3.431152      -108.8185
      -17.99893      -125.3531      -38.44180      -144.9825      -55.11877
      -159.0962      -72.34821      -173.4394      -80.61908      -183.1848
      -99.64392      -202.7281      -111.6278      -209.3060      -121.4733
      -219.2508      -130.9703      -232.9182      -144.4007      -241.3832
      -153.8892      -251.2629      -165.1204      -261.5065      -176.6958
      -274.8837      -187.4828      -283.9313      -200.3164      -293.7432
      -208.4698      -301.3068      -217.3932      -311.9255      -226.4299
      -319.5631      -237.4886      -328.0601      -242.7885      -333.7532
      -249.5017      -336.5087      -252.2466      -343.8982      -261.0508
      -346.7270      -262.2119      -348.6944      -264.8030      -345.3668
      -256.7148      -317.7125       16.64746       1197.941       4709.500
       10005.86       14355.50       13683.68       8438.547       4874.605
       7623.260       10628.71       7392.164      -241.0293      -4069.504
      -4885.361      -6873.832      -8716.703      -10750.37      -10768.55
      -9595.044      -3833.035       8998.668       12312.79       3547.508
      -6751.570      -12789.20      -10630.80      -1377.175      -141.7788
      -1355.066      -2012.809      -12636.37      -17352.50      -11912.15
      -5660.557       4011.148       11826.90       10101.58       664.0405
       1079.449    -0.02343750       1874.949       14485.50       4991.820
      -6606.457      -9934.090      -13877.30      -6159.737      -1962.018
       146.5410      -3841.434      -15490.50      -15223.35      -1950.586
       9831.703       11523.18       9762.466       1998.221      -1289.281
       9223.074       12840.81       8343.541       192.6094      -10671.13
      -10744.25       375.3770       3847.902       1687.393       3414.207
       7908.291       11693.88       8765.645       8713.906       20944.74
       21438.62      -5909.391      -31088.90      -26027.71      -5704.781
       2571.371      -762.0156      -9721.758      -20587.76      -17397.20
      -3950.059       18259.53       26114.82       7108.298      -935.7893
      -294.6309       1911.662       11935.64       6664.547      -8091.874
      -8567.676       5184.737       3905.186      -8388.160      -6332.625
      -12741.82      -9854.578       9075.751       4641.879       938.6367
       7423.213       5900.445       9285.207       10614.64      -4875.965
      -16784.33      -13225.43       6324.184       19083.13      -1368.500
      -20444.64      -21825.59      -21862.10      -10050.30       11664.38
       28301.91       21276.03      -1087.417      -5285.751      -516.5225
       918.0117      -472.9629      -9048.009      -7236.632       3576.809
       8513.781       10463.34       12579.78       8325.646      -3673.299
      -8715.762      -7938.799      -7544.838       5826.605       14163.46
       4858.797      -2058.750      -10356.61      -22164.11      -20480.19
      -610.9453       18711.45       18623.80       12772.52       6986.634
      -1591.628       1482.156       5176.506       779.8711      -1262.434
      -10830.12      -15622.40      -7648.446      -6370.229       1341.900
       8766.092       3672.541       7964.543       13223.12       14876.97
       11930.83      -1311.977      -6303.586      -5409.027      -9284.492
      -5666.502      -4000.227      -14641.90      -13392.46      -2235.760
       7954.434       14908.93       5631.885      -4802.484      -5840.907
      -4266.764      -689.0801       6114.486       11439.83       8667.447
       3821.195      -6234.055      -12567.66      -7025.250      -7519.730
       1044.953       13690.58       12825.76       6832.850      -6092.759
      -5275.113       8033.247       5790.374       2792.312       8251.716
       8215.850      -1814.141      -20383.23      -25147.35      -6628.167
       4055.223      -4434.594      -13155.26      -12135.81      -194.4785
       7422.434       8393.113       12697.68       10480.46       1210.613
      -1920.383       4346.844       9817.205       3911.574      -12919.96
      -13877.70      -1659.501      -2732.219      -3601.625      -9365.684
      -18373.06      -3268.787       8862.369       9075.568       7287.219
      -12249.30      -18730.47       6332.234       24539.55       16588.78
      -4024.629      -19231.91      -18387.07      -5387.727       14459.43
       17651.91      -260.4375      -12744.74      -15518.37      -330.5352
       18846.82       14297.05      -5037.031      -18808.36      -11097.67
       6015.426       14882.59       9743.414      -8337.684      -17547.08
      -9102.224       3129.277       9370.031       8501.141      -5029.262
      -20407.50      -18768.00      -13453.01      -2945.844       9246.043
       3070.268      -9423.920      -9691.016       4909.039       14484.56
       9342.227       2696.588       529.4922       9046.375       20530.42
       27061.37       25691.37       7928.824      -5068.090      -7366.172
      -12886.95      -7555.510      -1240.281      -4538.499      -1165.047
      -2162.121      -14493.83      -16534.16      -7282.244       6511.340
       15628.29       10395.36      -881.8008      -14390.70      -20564.54
      -8306.482       6033.051       14818.05       16209.49       9801.075
      -90.02734      -14719.78      -17840.45      -2775.613       13660.24
       20043.46       7989.570      -1017.266      -2414.672      -12939.17
      -12010.91      -1296.386      -1002.137      -5914.523      -10734.60
      -13055.17      -10404.03      -3566.457      -3888.164      -7821.752
      -2292.629       1870.531      -1574.807       4966.359       18490.97
       19507.56       8597.209      -6230.379      -17077.95      -14166.10
       509.6797       16039.08       15224.77      -472.9785      -7529.156
       3396.398       14956.97       18440.32       19390.53       7985.301
      -9802.694      -6943.185       2971.991      -1649.852      -11884.08
      -16562.94      -17914.49      -15397.97      -5809.581       4473.684
      -2832.668      -6017.807       3164.137       2030.047       6339.717
       9562.345       3861.651       928.4863      -5844.500      -6130.742
       4740.535       10650.35       5858.753       246.9316      -6865.663
      -6444.123       3850.784       5985.671      -343.3164      -2540.192
      -3178.871      -7629.081      -4350.881       4500.438       6726.725
       9525.070       2423.338      -3047.284       4325.238       7449.797
       14728.45       13378.05      -1254.357      -4790.982      -7813.053
      -7600.011      -216.0840       388.9883      -10390.29      -19365.48
      -20313.35      -11067.87       1987.131      -3767.285      -8515.320
       5091.703       16735.59       24016.73       14284.94       1130.633
      -5797.070      -17021.77      -5255.367       15214.77       13682.75
       6418.734      -9247.570      -21584.45      -9635.148       13354.45
       26521.78       18908.16      -4419.672      -23270.76      -29718.07
      -18732.98       5491.902       16658.86       4757.264      -7470.988
      -5889.750       8993.492       14128.61       6856.961       8545.453
       11910.72       7345.250      -2331.309      -7590.371      -10823.20
      -14943.50       1537.504       15707.04       16216.79       10801.81
      -9682.195      -24462.37      -18801.87      -2699.836       12661.09
       11871.64       8748.504       8947.924      -282.8301      -12085.16
      -5956.288       6529.660       490.7305      -11180.10      -10612.01
      -11411.62      -12521.41      -6033.547      -3495.957      -4750.272
      -1060.051       5824.318       10311.96       255.8564      -1843.849
       3735.553       1744.398       13476.08       23747.68       8233.850
      -2969.139      -2590.057      -3769.673      -4628.725       1224.398
       10045.61       12258.36       12373.34       7144.652      -15482.70
      -29828.47      -26415.15      -25855.59      -22150.09      -2166.839
       5853.740      -3345.500      -9220.492      -11279.59      -4942.104
       6207.576       2361.926       2093.098       9291.359       7861.523
       9047.411       7459.904      -5449.344      -11212.88      -16634.21
      -14170.62       1209.156       15527.02       25015.54       23157.08
       15388.18       11030.00       3627.199       4046.536       4115.336
      -3469.201      -7285.852      -6490.238      -6399.988      -12599.04
      -23716.43      -24456.93      -18114.95      -15170.91      -14488.98
      -10221.93      -9172.912      -3346.639       3239.435      -2429.500
      -5748.766      -1884.196       812.1406       9816.154       11151.21
       1969.912      -3907.364       360.1836       9565.293       16558.33
       11999.78       2026.945       4747.344       15185.12       12086.43
       4732.270       8744.051       19612.20       19993.44       9741.555
      -4932.680      -16350.32      -22823.12      -21306.48      -9344.742
       5414.488       8365.054       3671.650      -6701.156      -17073.06
      -18378.69      -12712.05      -1911.344       7357.168       2526.732
      -2788.448      -3210.415       417.9902       7969.648       14931.25
       7863.248      -5381.898      -11245.27      -17499.37      -19925.18
      -4404.268       5237.178       4536.467      -3959.836      -21237.67
      -23618.06      -5726.372       2203.861      -2022.758      -9397.477
      -17170.15      -11099.63       10416.55       26467.15       25719.16
       3052.469      -17354.98      -17766.34       53.11719       15529.45
       10559.54       8049.586       16351.21       10798.78       11148.86
       15872.83       5782.109      -7604.633      -17014.68      -14972.13
      -4234.703      -12236.99      -19316.62      -24107.39      -45371.12
      -60603.83      -61122.34      -64710.22      -68045.02      -69356.36
      -56216.39      -20543.94       29657.00       93313.12       173442.2
       216313.9       184402.1       90241.42      -52148.41      -152486.6
      -89110.19       98307.00       308153.6       479214.9       514895.7
       388800.8       239597.8       122564.9       47653.69       60103.36
       68332.18       2142.172      -57729.61      -64154.55      -10965.88
       108999.6       212802.7       148350.6      -26251.25      -151433.1
      -178476.9      -142930.9      -123379.9      -91439.41      -16731.47
       42707.83       53859.52      -16156.97      -83461.80      -61040.62
       3587.404       14666.22      -39503.53      -91343.19      -130972.3
      -182860.2      -241873.6      -282069.9      -235174.3      -93598.47
       24280.19       20831.12      -67455.44      -160382.4      -191134.2
      -176301.4      -156225.2      -123976.4      -77726.61      -31530.49
      -2882.840      -10943.16      -42027.00      -85531.09      -119287.7
      -122501.0      -92121.80      -24482.41       52369.86       40112.81
      -66583.97      -119144.0      -54589.25       24573.16       79305.78
       106015.5       43486.16      -72302.75      -117128.3      -111766.3
      -116012.0      -61733.68       34436.81       49880.24       10699.14
      -16420.32      -26448.77       12179.19       111127.0       190583.7
       211075.4       201585.2       175310.8       154562.0       161434.3
       138225.4       75559.90       5204.953      -47124.43      -21288.36
       37197.61       47352.94       56668.85       47005.69      -4533.840
      -24224.20      -636.4531       24943.89       41433.75       15503.34
      -39942.31      -64487.81      -32240.41       83802.62       239435.5
       287183.2       173626.7      -17829.06      -157203.0      -224840.9
      -214988.1      -118556.9      -68082.78      -102756.8      -116289.2
      -108755.4      -83731.23      -5149.531       111345.4       187997.4
       183616.6       142939.2       81744.84       4095.984      -41079.09
      -48362.84      -36783.97      -40145.78      -67777.22      -81488.35
      -49633.53      -11562.81      -12134.70      -29585.64      -25127.45
      -31917.20      -71807.81      -118122.8      -180073.7      -211471.4
      -140681.2      -15257.16       108457.3       128076.6       12076.69
      -92845.34      -108444.0      -63533.23       1763.203       28712.27
       18662.12       31731.19       76597.25       93958.38       96310.88
       114713.2       127502.6       111445.4       118426.8       194233.8
       267157.6       251278.4       166001.7       66065.33      -18885.30
      -49531.03      -18254.45       13251.88       23125.39       1088.562
      -55108.69      -123466.1      -157709.7      -132761.1      -85600.94
      -39425.84       11790.31       45361.80       38621.31       11407.09
      -4904.109      -19800.34      -40445.84      -76738.16      -94526.72
      -68853.31      -70747.22      -124304.9      -144327.5      -88277.64
       6272.953       36853.85      -8767.422      -40071.88      -52172.81
      -83670.86      -79239.27      -18433.04       15846.00       14983.17
       37860.95       47598.43       27030.83       5881.352      -15699.72
      -18480.88       16613.52       71898.06       106812.8       49693.89
      -63533.34      -115895.5      -49957.12       122239.2       278803.8
       261133.1       83912.84      -115005.5      -224414.2      -193221.8
      -38449.44       123921.9       185702.4       112815.0      -30054.62
      -127444.1      -139529.2      -87910.44       4416.203       69082.53
       70329.98       56676.14       61373.98       42400.38      -19369.75
      -43571.35       17578.12       67098.50       51983.58       36004.97
       61006.66       84778.91       73357.36       39264.55       2795.781
      -26911.86      -24779.42       3355.992       27138.81       31542.44
      -2873.219      -72705.47      -132952.9      -156821.2      -133447.8
      -77074.18      -16513.16       15890.69      -8529.578      -71335.72
      -99391.69      -92544.59      -93067.41      -77622.89      -46528.09
      -47481.22      -59994.55      -79126.25      -92525.71      -52788.80
      -5916.703       9884.688       39469.75       60300.78       50187.52
       58300.20       73032.56       62546.50       79623.97       135610.8
       176635.3       158277.7       80341.61       5816.656       13440.02
       69036.52       82353.28       52155.33       31793.75       28906.53
       14732.91      -3510.162       7651.911       12842.44      -11811.08
      -41192.28      -44395.30      -25102.58      -30375.53      -64262.41
      -77910.53      -66870.51      -37639.92       17216.03       66975.13
       57157.77       9458.039      -18392.70      -29436.38      -46102.88
      -58633.22      -67985.94      -65740.12      -46587.48      -33795.37
      -12903.62       37833.36       75263.14       68404.83       31377.41
       14626.66       37848.75       70826.83       84407.41       83598.84
       74405.03       26824.22      -54496.69      -99283.41      -80102.45
      -28748.64       11710.16       22939.16      -4479.094      -54225.62
      -68899.05      -25166.83       8221.326      -6549.486      -10493.16
      -2161.500      -21892.25      -25401.65      -9400.000      -19498.76
      -42189.41      -42051.12      -29053.81      -19452.95      -18110.19
      -30159.16      -39799.93      -33875.47      -16614.91       15313.47
       59510.47       115124.4       141735.5       112129.6       62249.41
       27681.78      -1895.672      -37810.93      -46762.29      -17463.66
