     0.02500000      -409729.8       385298.5      -12345.00      -12345.00
      -30.01001       219.3650      -20.16000      -12345.00      -12345.00
       0.000000       15.08000      -12345.00      -12345.00      -12345.00
      -12345.00      -12345.00      -12345.00      -12345.00      -12345.00
      -12345.00      -12345.00      -12345.00      -12345.00      -12345.00
      -12345.00      -12345.00      -12345.00      -12345.00      -12345.00
      -12345.00      -31.57700      -67.87020       833.0000       0.000000
      -31.54000      -68.94500       0.000000       103500.0       0.000000
      -12345.00      -12345.00      -12345.00      -12345.00      -12345.00
      -12345.00      -12345.00      -12345.00      -12345.00      -12345.00
       102.1271       92.58197       272.0222      0.9182584      -12345.00
      -12345.00      -1.840769       0.000000       90.00000      -12345.00
      -12345.00      -12345.00      -12345.00      -12345.00      -12345.00
      -12345.00      -12345.00      -12345.00      -12345.00      -12345.00
      2008        49         8        51        23
       860         6    -12345    -12345      9976
    -12345    -12345    -12345    -12345    -12345
         1         7        13    -12345    -12345
    -12345    -12345    -12345    -12345    -12345
    -12345    -12345    -12345    -12345    -12345
    -12345    -12345    -12345    -12345    -12345
         1         1         1         1         1
NIKI    -12345          
        -12345  -12345  
-12345  -12345  -12345  
-12345  -12345  -12345  
-12345  -12345  -12345  
-12345  -12345  -12345  
-12345  -12345  BHN     
ZL      -12345  -12345  
[...]
      -152.2588      -1.035706      -142.3711       9.117401      -133.6634
       19.40596      -125.6684       27.57637      -116.2373       34.63271
      -111.7495       41.54053      -106.2749       49.74213      -93.56769
       59.90436      -91.67328       59.98050      -87.32923       68.98495
      -80.75957       73.38419      -74.69456       83.66600      -67.87614
       86.32905      -67.08241       91.96680      -57.71362       99.64285
      -52.02562       105.0791      -50.89082       108.4297      -43.49747
       117.1692      -37.77420       125.4089      -31.84006       127.7828
      -25.64211       137.6729      -21.00476       142.2521      -15.49475
       147.3174      -11.91351       149.1167      -10.78387       152.3603
      -4.492279       159.4718      -1.898315       161.4194      0.5199585
       160.9669      -2.360168       160.8322      -5.074371       157.2663
      -4.378632       156.5941      -10.51596       153.3645      -10.67792
       154.9073      -11.78857       150.3188      -18.57016       147.9541
      -15.98096       150.4000      -19.57208       145.7149      -22.96716
       146.2031      -22.49783       144.6489      -24.04266       145.8732
      -26.33647       141.4446      -29.85934       137.9956      -34.62178
       134.9023      -38.80008       129.2092      -40.55353       128.4513
      -45.42865       123.8713      -47.42288       122.3353      -49.50723
       120.7038      -53.20441       115.8332      -57.82288       112.0220
      -66.19885       105.0697      -68.76047       103.7465      -70.72202
       101.5095      -75.48984       98.58357      -78.04038       94.14548
      -83.35359       89.36333      -90.08197       82.95355      -96.45757
       75.85281      -103.8828       74.62219      -106.0087       66.24661
      -113.0163       61.00739      -118.5006       56.18108      -126.0311
       52.14502      -128.0802       46.98505      -130.2224       46.00949
      -134.4481       43.80357      -136.3483       42.45557      -137.1861
       40.80330      -140.6903       39.37137      -141.2975       37.58627
      -144.7972       34.35211      -150.2602       26.42422      -158.1830
       19.79691      -166.6113       12.30350      -172.2052       3.998596
      -185.3762      -8.554779      -194.9145      -17.22479      -208.3982
      -31.10645      -220.1322      -42.66180      -233.1177      -54.27362
      -246.7536      -69.95654      -264.0632      -88.81244      -281.9133
      -105.7937      -302.9724      -126.9923      -322.3601      -143.2694
      -339.9451      -162.2628      -358.6123      -182.1362      -380.0256
      -199.9332      -397.3707      -219.9258      -414.9863      -230.7257
      -429.4956      -246.4784      -438.8575      -254.3546      -452.6165
      -267.7668      -463.8182      -277.6057      -473.4395      -288.5803
      -485.0664      -298.2886      -497.2642      -307.8495      -503.1926
      -316.2329      -512.2646      -322.5430      -517.8552      -327.6609
      -526.9351      -336.0297      -532.3158      -339.5522      -533.6383
      -337.5839      -532.4446      -337.2047      -531.1025      -332.7472
      -527.9568      -328.5609      -523.1874      -322.1716      -513.1799
      -314.0505      -505.8772      -303.7144      -497.9320      -293.9363
      -482.8143      -280.9583      -469.3113      -263.5206      -455.6384
      -255.6477      -445.6068      -237.2397      -425.8320      -222.0687
      -410.7126      -194.1466      -369.3777      -318.6357      -1219.344
      -2355.504      -3142.183      -762.4141       3516.286       6209.398
       2036.363      -4349.468      -4803.071      -110.3589       161.4292
      -2126.369      -960.0820       1744.049       1021.201      -962.0547
      -4433.805      -4055.318      -456.2051       2905.254       8525.148
       9840.208       2495.943       4214.359       11488.59       7153.669
       1216.331       5720.303       1142.061      -9818.264      -7584.244
       2281.264      -2417.492      -15340.33      -16453.56      -10595.36
      -8554.741      -170.2852       10035.30       5499.053       840.9844
       6834.920       3922.100       1370.497       5684.706       2045.761
      -4617.053      -1607.350       2947.796       2262.335       488.4395
       3654.598       7427.840       7283.603       604.0566      -2234.500
       6543.594       15032.93       6904.344      -10119.42      -19378.44
      -10600.35       4067.132       831.5449      -10082.31      -7925.773
      -7880.453      -5118.039       9389.703       17270.10       5778.145
      -3239.696       4430.051       973.4648      -14603.31      -11098.76
       1975.118       3470.780      -4421.390      -4559.745       1184.333
      -1929.484       4243.430       28564.93       25644.70      -4975.469
      -24242.51      -11920.31       15981.40       25180.80       15577.05
       1078.227      -19582.02      -22948.58      -9141.523      -5831.070
      -7717.394       1408.196       4498.406       661.2983       324.2256
      -2657.949      -2310.310       2577.446       1923.412      -248.5244
      -1416.474      -2244.434      -6382.638      -5890.191       3806.758
       8396.169      -4314.893      -4171.205       9015.785      -1733.988
      -14813.56       3984.852       28919.23       28270.05       13290.14
      -172.6250      -13175.04      -9253.074       6471.202       6473.746
      -5671.231      -3600.420       5575.340       9091.782       1946.590
      -15513.63      -26291.39      -14548.13      -5333.936      -12255.19
      -363.9141       24287.08       14609.80      -8108.074      -6332.254
      -7855.141      -23259.89      -4725.047       23984.34       25122.38
       25451.07       20323.54       361.2188      -10883.84      -11442.14
      -2823.443       6544.064       7545.469       2976.336      -8354.426
      -22333.11      -20052.00      -7796.314      -2387.734      -8262.739
      -4132.008       13533.04       21125.23       22372.02       16818.46
      -7341.141      -20645.49      -2823.162       10322.82       3569.197
       860.5000      -9309.461      -16212.68      -4579.969       1842.461
      -1998.000       326.0859       11670.20       19909.87       13903.83
       4458.930      -2864.855      -11166.14      -15721.33      -7087.740
       2104.538       3749.646       2004.018       1465.721       849.5547
       4661.549       11953.36       7605.938      -3943.395      -3082.135
      -3179.094      -12944.54      -7406.705       6392.896       2562.866
      -2684.153      -1195.498      -2795.148      -8276.371      -5894.598
      -3392.208      -6049.137      -2314.725       7628.569       6357.307
      -8640.961      -7200.619       7040.490       7276.074       9704.189
       10433.54       1654.810      -884.4817       2802.759      -2341.284
      -2118.429       1900.043      -2496.434       79.27441       4872.462
       2974.953       2322.984      -8816.715      -19069.43      -9033.656
       7281.020       11234.82       6955.605       4165.252      -4724.086
      -15524.46      -5364.553       5103.131      -1275.003      -3664.965
       1332.907       2403.406       5800.143       8861.131       3553.219
      -7873.893      -11065.84      -4655.333       2089.658       8336.490
       10991.96       4167.969      -1477.494      -7241.305      -10154.56
      -1838.646       6503.680       8298.393       6620.954      -36.37500
      -3839.969      -3690.504      -3520.895      -7409.531      -11174.36
      -2086.756       10494.97       4640.898      -2225.713      -416.6875
      -2097.926      -14512.16      -21566.48      -8147.422       5556.863
       10253.83       16448.58       13716.02       1816.996      -4040.484
      -631.0936      -569.0684       2248.109       12061.92       9326.952
       1392.986       2786.369      -5781.387      -12681.70      -2561.053
       2255.588      -3255.930       3450.738       15543.25       7394.236
      -6774.113      -5320.648      -2297.819      -1423.774      -943.8438
      -2608.883      -10830.76      -16102.59      -7489.690       3576.297
       3697.912       3862.590       11902.41       9239.326      -1817.502
       403.3867       5291.588       7576.875       6468.548       4774.294
       1108.396      -6452.986      -4829.839       1017.468      -134.7076
      -1244.842       528.1074       2145.987      -521.8340      -4238.508
      -9842.137      -15768.41      -9923.660       4560.596       10119.12
       6313.387       6827.318       12860.38       5116.275      -2213.648
      -5034.457      -11789.99      -6554.518       7575.635       10796.11
       1815.811      -5073.332      -6839.447      -7989.113      -6372.977
      -6265.733      -2580.857       5028.781       13421.89       18778.20
       8872.953      -9720.156      -11723.56      -892.0078       8810.207
       18094.79       10258.74      -16170.88      -17518.60       941.0156
       179.2656      -16337.61      -14522.98       3965.980       12077.97
       12825.76       12999.00       4820.213      -653.3210       398.7324
       2757.605       8367.733       10003.56      -6068.121      -20159.16
      -8889.378       2430.256       3673.438       12619.60       10319.75
      -6280.730      -12348.41      -4777.479       4322.209       6500.247
       1432.043      -6948.633      -17789.15      -13363.35       9769.510
       15781.14      -170.0059      -915.9668       11210.36       10064.62
       3253.436       6149.484      -4379.252      -14928.68       3687.318
       13114.31       3323.862       1246.407      -741.1934      -7047.633
      -13621.41      -13008.67      -1687.729       9923.083       4532.872
      -1189.906       6998.642       5965.847       1554.319       2332.289
      -10971.04      -19501.80      -4859.570       11985.38       14212.36
       8322.303       1231.918      -4357.812      -1391.671       5007.260
       476.5620      -5817.822       3904.523       23517.34       20948.93
       1606.867      -5998.781      -9098.320      -15206.09      -13394.44
       5099.969       26147.68       20427.27       1599.037      -2824.172
      -4654.152      -15138.03      -12339.53      -3766.957      -12326.39
      -8331.227       15554.16       19059.90       3921.713      -7372.246
      -14235.84      -11029.46       9303.922       17511.25       1202.361
      -2541.170       5801.201      -2040.822      -4053.145       12415.80
       21245.06       8446.410      -3330.914      -9249.375      -25346.13
      -15908.24       22382.48       30843.26       11206.56       410.9531
      -7390.914      -23905.64      -19148.61       3270.964       2703.000
      -3239.888       4685.974       1862.068      -6826.241       797.3320
       11366.22       7818.965       2659.752       2041.426      -1323.174
      -3436.296       3379.139       6973.998      -1333.992      -13765.10
      -21534.02      -16662.38      -2084.320       7229.738       7676.551
       7023.340       4488.594       633.9219       2504.565       3223.459
       1882.227       9664.648       14670.77       4387.466      -3588.722
      -1703.101       1961.715       6022.297       9019.469       1657.119
      -6246.722      -752.9761       1256.772      -3339.523      -7071.843
      -5295.695       9313.223       20089.50       11014.12      -9345.758
      -18516.78      -18233.87      -15669.37       782.0938       16986.27
       14742.02       3808.208      -3071.258      -3332.758       1181.516
       6036.444       2637.403      -5365.666       1121.930       16969.31
       15299.36       1670.391      -1295.232      -3746.445      -15106.21
      -15586.50      -1121.158       8896.500       13405.20       14875.71
       4070.359      -10686.00      -15200.47      -11288.96      -6310.967
       3104.590       14723.66       6071.979      -10028.57      -7397.502
       469.7461      -2120.633      -15488.67      -14214.69       10977.11
       23093.38       8996.531      -12797.24      -17288.69      -4057.741
       2568.516       3212.219       15284.80       23778.32       14328.44
       5240.773       664.5742      -8395.668      -4512.039       10758.96
       6255.570      -8682.214      -6380.093       347.3086       1836.211
       11291.19       16992.87       7909.062       321.9458       67.26953
       7171.336       20988.78       25991.12       9295.055      -17901.90
      -29343.94      -9431.419       6861.961      -1720.900      -5993.049
      -233.2461       4667.234       16891.95       35571.27       38964.88
       18038.86       1606.562      -17528.69      -75454.88      -167239.2
      -267536.4      -360332.4      -409729.8      -370786.2      -274943.3
      -193810.3      -109324.8       9126.781       73402.93       40982.26
      -9084.156      -31839.81       57822.75       266166.6       379352.6
       277915.1       88896.59      -11036.72       28695.00       165050.5
       267933.2       212548.5       97908.67      -18957.00      -205591.9
      -382068.1      -310460.0       25133.38       240234.4       214160.8
       147229.9       59671.19      -66280.50      -150670.9      -120497.9
      -33013.81       89010.25       207875.1       159465.6      -52157.38
      -227904.8      -199561.3       11865.62       262992.1       385298.5
       286024.0       67328.94      -147704.9      -299709.2      -291124.1
      -73463.81       194798.4       326458.8       261175.0       47674.41
      -114770.1      -97291.86       3937.875       129363.1       232342.3
       173065.7       2727.750      -100421.8      -120612.8      -50784.54
       28757.91      -17030.16      -81739.05      -45914.20       16185.00
      -14079.09      -97021.75      -93678.67      -62941.06      -79894.00
      -87024.72      -86046.77      -58773.89       14951.72       76824.86
       86772.56       51758.99      -12794.95      -81856.14      -77024.78
       16777.72       100339.1       95239.39       23521.93      -38643.01
      -48849.61      -31535.59       1171.328       30382.17       27735.44
       45891.92       77097.19       48821.90       27576.06       37961.06
       12099.33      -31989.92      -48583.78      -25892.25       6793.219
       38857.91       91983.42       97530.17       19374.00      -52672.94
      -72550.84      -54708.17      -34974.75      -73700.44      -135545.0
      -190161.4      -219301.2      -125707.3       54281.25       168324.7
       161076.4       91326.85       29390.02      -42654.94      -98260.70
      -64042.73       20137.12       88818.50       108275.7       52474.17
      -42143.28      -101815.1      -74758.38       26845.03       140522.4
       156985.2       27720.44      -94032.38      -99113.78      -69454.62
      -14137.03       41777.07      -888.1172      -53585.38      -12148.03
       52365.77       50621.82      -13178.58      -41269.84      -35123.91
      -48680.57      -14862.55       60222.27       83926.11       71564.27
       70303.19       73290.09       98920.22       157425.0       162020.5
       82884.72      -5152.312      -49403.83      -54144.48      -44899.05
      -48600.48      -40604.61      -13189.84      -59993.19      -173960.6
      -232508.2      -191999.9      -76309.92       43780.55       87485.86
       62626.62       24657.75      -26572.67      -61874.25      -11899.97
       120554.2       215893.6       194884.1       151852.1       140110.0
       122334.8       86161.74       16902.84      -79141.62      -164531.2
      -187899.3      -133508.3      -65240.91      -48221.22      -73678.06
      -103040.7      -102570.2      -70933.19      -30382.23      -18387.88
       4623.812       70406.20       94911.97       68232.88       37241.11
       11714.57       1659.344      -16180.36      -20671.26       21728.09
       29627.17      -21457.48      -68067.27      -75525.04      -33171.58
      -13517.98      -42913.23      -57488.04      -43484.15       1601.984
       66142.38       72234.88       8601.984      -38559.10      -26997.82
       24209.69       77144.06       85054.48       69427.88       49584.16
       11660.78      -4489.766       21208.68       43949.27       40947.72
       35145.53      -252.7344      -67656.89      -39705.03       68296.55
       68970.03      -34623.20      -70980.70      -607.2188       60418.59
       54346.48       38155.60       38828.28       34167.28       15816.89
       9929.016      -672.4531      -35496.36      -35533.94       7665.453
       44331.92       60632.68       48613.27       7107.562      -35749.50
      -75045.28      -131478.4      -156456.7      -99243.19      -48370.16
      -87594.88      -124984.3      -107381.6      -87368.86      -61321.52
      -35642.25      -46119.70      -58412.64      -36642.86       3119.500
       50708.11       78872.66       46798.57       4148.512       1940.688
       27360.97       82589.19       130763.9       104763.4       16236.62
      -51938.41      -58367.09      -42248.26      -29278.40      -19098.70
       5116.859       44188.62       69200.41       81983.44       100628.7
       134255.9       147812.0       108873.2       67196.05       57616.80
       52910.98       25035.00      -915.5195       5139.656       38642.34
       44057.66      -25448.50      -95083.39      -71734.01      -501.5898
       24503.74       13929.48       7161.766      -9776.320      -30364.35
      -12843.59       19771.06      -21488.84      -91180.31      -84524.12
      -57476.28      -75413.27      -87872.75      -54418.05      -4422.352
       13761.16      -9251.609      -49220.94      -61901.11      -21756.44
       43370.28       75909.05       64260.94       35070.47      -2500.086
      -36701.34      -53684.02      -57555.98      -34933.75       17877.23
       49087.34       24706.04      -5516.070      -11775.11      -11549.05
       13259.59       62780.47       92995.31       78441.29       43299.55
       20640.39      -1546.602      -30630.62      -51010.88      -52632.98
      -51493.97      -55516.45      -46972.33      -38136.50      -43393.16
      -53341.94      -55801.51      -38043.33      -10801.88       10839.16
