     0.02500000      -227619.1       217140.2      -12345.00      -12345.00
      -30.01001       219.3650      -20.16000      -12345.00      -12345.00
       0.000000       15.08000      -12345.00      -12345.00      -12345.00
      -12345.00      -12345.00      -12345.00      -12345.00      -12345.00
      -12345.00      -12345.00      -12345.00      -12345.00      -12345.00
      -12345.00      -12345.00      -12345.00      -12345.00      -12345.00
      -12345.00      -31.57700      -67.87020       833.0000       0.000000
      -31.54000      -68.94500       0.000000       103500.0       0.000000
      -12345.00      -12345.00      -12345.00      -12345.00      -12345.00
      -12345.00      -12345.00      -12345.00      -12345.00      -12345.00
       102.1271       92.58197       272.0222      0.9182584      -12345.00
      -12345.00      -1.016164       0.000000       0.000000      -12345.00
      -12345.00      -12345.00      -12345.00      -12345.00      -12345.00
      -12345.00      -12345.00      -12345.00      -12345.00      -12345.00
      2008        49         8        51        23
       860         6    -12345    -12345      9976
    -12345    -12345    -12345    -12345    -12345
         1         7        13    -12345    -12345
    -12345    -12345    -12345    -12345    -12345
    -12345    -12345    -12345    -12345    -12345
    -12345    -12345    -12345    -12345    -12345
         1         1         1         1         1
NIKI    -12345          
        -12345  -12345  
-12345  -12345  -12345  
-12345  -12345  -12345  
-12345  -12345  -12345  
-12345  -12345  -12345  
-12345  -12345  BHZ     
ZL      -12345  -12345  
[...]
      -567.4568      -593.7849      -578.0446      -598.8807      -582.1095
      -608.0896      -592.0951      -612.9246      -596.2224      -615.7046
      -597.8986      -616.6797      -597.6121      -614.8750      -594.0745
      -607.7102      -587.0842      -603.4224      -576.5330      -588.6005
      -567.8414      -580.0720      -553.0417      -560.0616      -534.9805
      -546.4250      -517.8055      -524.5090      -499.8062      -505.7118
      -475.8230      -481.1157      -453.0171      -456.3928      -424.8772
      -425.7133      -395.6675      -397.5131      -366.1062      -366.1475
      -333.2947      -333.1954      -302.3367      -302.7683      -267.2167
      -265.5537      -233.8621      -233.9260      -200.0911      -196.9296
      -162.6940      -160.9880      -126.5151      -125.5485      -90.32242
      -88.21101      -55.43768      -49.25621      -17.74417      -19.60591
       12.27454       18.55637       50.10472       48.23413       84.55414
       89.88989       119.7739       119.4041       156.1855       154.8571
       185.5872       186.3593       217.2158       211.9338       239.6437
       236.7772       266.6951       264.5367       295.7463       290.9332
       315.9944       312.7446       337.7773       330.1606       354.2880
       348.4728       373.2063       367.5160       386.7061       380.6755
       402.9060       394.2571       412.1364       403.4597       420.9945
       411.3628       428.0298       416.0286       430.8252       416.7157
       428.0010       414.9058       427.7888       414.5544       423.5634
       409.2725       421.0234       403.5380       410.5420       393.2513
       397.5350       379.2882       385.7550       368.5684       375.4313
       356.5957       359.5022       338.8444       341.8450       324.3030
       328.6039       307.9431       308.8401       292.5010       298.4590
       276.9023       276.2502       257.0958       258.4298       238.0533
       237.5895       215.7881       218.2988       197.2634       197.1635
       176.9052       177.9554       157.1605       155.7102       134.6099
       133.7616       110.6454       110.5229       87.84283       85.24095
       65.33398       63.83128       42.06245       41.08271       20.27473
       17.58354      -2.295902      -5.669609      -23.80774      -23.06956
      -45.33099      -48.22914      -64.72519      -63.33383      -82.27829
      -83.83777      -99.62149      -100.3804      -117.4812      -114.7622
      -130.5416      -130.8437      -145.1464      -140.5242      -153.3034
      -155.4320      -169.6569      -164.4415      -178.2876      -180.8232
      -191.3040      -179.6912      -193.6253      -200.0520      -206.2014
      -194.6918      -207.6293      -216.4892      -216.5972      -207.6294
      -212.5340      -101.9097       1037.547       5945.336       17558.17
       32627.54       40051.47       31531.69       15262.62       13488.91
       26699.49       24860.35      -1340.125      -20808.26      -9510.555
       5060.793      -6739.102      -33462.80      -54150.52      -51829.39
      -36782.07      -12729.63       8068.891      -4881.672      -26176.59
      -15930.77      -10199.71      -22635.05       2006.977       31394.60
       31032.93       19018.02      -3070.045      -8149.953       10747.66
       15282.72      -4813.170      -3119.504       9317.441       7282.067
       10476.56      -11851.39      -9302.656       24406.05       9785.797
      -12542.78      -14240.37      -3705.223       19324.92       21356.81
      -17230.27      -43971.19      -22740.42       11237.00       22073.88
      -4130.586      -34103.47      -19476.34       7072.299       8288.172
       11806.10       21681.72       26603.12       20998.66      -10476.88
      -22995.50       20871.50       41064.50       10206.22      -7461.068
      -2705.597      -806.2031       3997.750       20760.05       22274.39
      -10964.23      -54093.97      -61293.21      -23161.01       16943.71
       14185.85       1950.910      -7568.852      -30068.13      -14857.05
       9229.226       3378.613      -1684.723       4372.641       15777.81
       15381.84       5253.854      -5573.758      -7769.415      -31.14844
       1562.616       7322.521      -1509.614      -12168.97       10882.37
       12911.97      -6484.105      -10316.32      -13361.89      -929.2422
       21117.94       11828.11       5851.562       18101.71       12415.74
       1903.938      -3051.992       7047.594       13067.75      -12822.47
      -30616.95      -34484.05      -36542.20      -19637.66       11563.75
       25131.39       1174.750      -26231.51      -28659.89      -4692.936
       17654.20      -5459.891      -18773.48       20983.77       38427.31
       33458.14       26950.26      -2188.363      -16585.72      -3485.488
       13494.56       9043.434      -3906.686       1348.594      -9117.227
      -31591.63      -19163.32      -3723.275      -11315.62      -7527.777
       7174.668       11906.98       20499.67       35779.12       7408.203
      -32054.63      -25720.50      -12964.94       1462.254       19344.17
       4015.604      -5441.221       6066.111      -7623.626      -8046.828
       15421.16       25783.10       34129.37       24222.54      -8493.984
      -18734.26      -13047.99      -17016.27      -19013.60      -8229.918
       7445.258       9872.629       8730.461       3351.531      -12791.90
      -9856.598      -11109.80      -18789.72       677.8672       19568.81
       7101.541      -13429.92      -1754.281       12738.36       10282.78
       2618.467      -3810.727       16641.39       26987.56      -1493.473
      -11346.81       1197.316       9217.779       12069.98      -5175.945
      -21698.25      -17437.07      -5607.644       3223.969       6325.926
       15570.74       5654.184      -23399.78      -15475.11       14691.29
       19327.95       7397.223      -5137.008      -15291.17      -13399.20
      -17205.41      -17963.31       8886.672       31556.88       20959.07
       1684.275      -4095.234       2747.920       7915.726      -7720.185
      -1260.202       10577.30      -4359.514       7879.969       3231.109
      -17960.89       4813.092       11532.63       452.2422      -6194.109
      -34180.25      -33990.99       5469.645       21344.90       11110.83
      -3743.508      -17079.90      -12950.53      -655.6035       8979.257
       7615.327       807.7871       1799.344       4905.660       13856.08
       13580.33       2820.867      -10469.10      -12661.76       1320.232
       719.4580       524.6855       4513.852      -10693.20      -29485.30
      -25539.70      -8897.031       15867.92       41543.18       20775.86
      -6381.840      -1957.456      -136.5088       5809.075       4401.098
      -7669.844      -12664.49      -4326.484       20399.90       26916.27
       20485.41       1670.406      -32454.93      -26268.56      -4012.039
       4589.391       22409.14       20308.72       1363.223      -9768.715
      -23832.43      -10208.26       22098.34       17804.71      -2448.652
      -6294.273      -9641.199      -16921.40      -9326.863       885.6875
      -9628.117      -14756.91      -6452.135      -5830.316      -9349.204
      -2410.164       10627.63       14423.57       15479.53       15600.82
       11382.90      -3623.957      -14060.87      -6452.882       957.6055
       5109.658      -1005.559      -7860.083      -4556.629       3493.992
      -5320.617      -24687.41      -6813.377       12049.13      -1745.675
      -5200.018       7519.074       13436.36       3093.258      -1403.836
       8416.279       9125.935      -760.0898       4006.863       20850.98
       8717.416      -13038.51      -9931.412       640.5493       636.5945
       1073.459      -2215.213      -13957.83      -4489.213       5409.566
      -9191.512      -10951.86       3229.743       522.2295      -3369.107
       5420.375       11434.58       13240.80       13327.73       1904.254
      -19081.48      -12287.10       11953.34       19658.99       19207.91
      -6231.477      -18134.00       7086.928       11600.83      -6148.240
      -11257.66       3908.635       11438.39       888.0195      -14207.11
      -4887.539       21874.78       17281.15      -16187.77      -37260.38
      -25400.32      -11624.46       3473.125       22759.44       23439.13
       13647.94      -1986.432      -11207.82      -5968.188       17681.71
       26493.36      -9511.508      -14365.46       10474.06       3927.178
       3785.407       4832.335      -4781.053       1953.424       2764.996
      -4024.787      -3110.449      -10667.94      -21975.37      -12221.05
       365.6562       14837.63       24085.93       931.9121      -1418.898
       24080.72       12483.48      -15626.22      -14314.83       3633.062
       5177.750       4249.375       14704.71       6949.160      -6364.391
      -17435.01      -24686.80       33.03711       10507.60      -8550.152
      -9118.746       600.4648       10070.68       18430.54       3839.977
      -10201.59       10296.20       16467.02       4228.066       13855.18
       15596.77      -1532.078      -13950.34      -9025.509       2279.758
       6552.869       3692.148      -9170.133      -8391.995       3187.184
       5993.969       12143.21       8252.535       5594.207       12264.85
       4218.701      -7758.141      -15116.20      -12094.85       5275.078
       9295.020      -232.7852      -174.1445      -3302.047      -9848.363
       2002.512       3823.635      -11065.35      -8498.215      -7453.812
      -4293.559       17200.05       15796.68       2402.529       4089.187
      -1554.265      -8805.088       3349.391       9337.863      -3584.875
      -9779.336      -5586.914       5750.547       14033.17       8087.932
       4881.152       1420.663      -3782.819       787.0508       5021.600
       7326.578       15282.28       18424.45       4053.184      -12746.94
      -14535.17      -7033.423      -3466.457      -1905.725       7215.602
       6538.053      -4346.936      -1590.084      -809.8081      -3422.379
       14772.32       7625.301      -17426.06      -4273.438       11363.14
       20202.64       19971.52      -1406.609      -6540.237      -4245.595
      -6107.649      -2037.570       3629.680       12159.41       11424.21
       9770.555       586.2812      -20825.20      -9554.717       9180.434
      -752.0156      -10254.36       1654.293       12729.71       1727.611
      -9056.734      -11527.19      -9960.652       4735.705       11449.31
      -79.48047       9205.344       19333.08       2610.697      -2549.887
      -2973.844      -12664.25      -18011.93      -3893.008       16585.69
       7190.795      -5924.152      -6453.531      -19094.93      -22937.19
      -2848.748       8617.555       1294.055      -5225.836      -15847.73
      -22970.42      -7694.121       8469.410       6572.348       10073.70
       13546.38       5777.195       10216.46       17969.35       13071.50
       4979.713       524.9453       4733.637       12586.86       8929.965
      -11193.58      -22432.06      -12823.59       4557.191       15871.86
       2285.938      -9352.519      -5125.095      -3267.875       719.4219
      -8473.594      -19985.62      -9934.690      -1183.354      -5259.213
       2683.129       10335.00      -7026.344      -28069.36      -25926.96
      -6124.450       2625.262      -5660.543       1094.633       12935.22
       13459.65       28649.20       24618.73      -2537.203      -8346.838
      -9802.738      -7642.672      -1454.441       4650.484       17903.33
       11782.44       215.9121       2005.781       6553.867       20233.30
       16140.96      -9353.984      -29391.08      -43825.36      -38933.48
      -23265.09      -22414.12      -28596.53      -36216.75      -46097.67
      -52890.73      -47877.41      -43876.31      -44176.71      -34367.86
      -32544.00      -38760.61      -30778.96      -19593.52      -14992.91
      -17172.29      -19132.88      -26130.22      -38167.63      -34002.44
      -44821.62      -105126.2      -148917.9      -133756.3      -105012.7
      -46933.44       14524.02       22568.94       54098.09       114644.4
       123215.0       92239.69       72436.56       68874.62       88741.25
       114275.1       85180.02       49851.81       80022.94       103395.8
       118467.6       160925.1       150443.4       60780.52      -29989.12
      -22160.91       26514.33       37102.80       39746.61       16195.26
       2571.930       20585.94       17858.47      -35160.41      -104047.5
      -101785.6      -40192.93      -11948.44      -46129.34      -121051.9
      -195820.7      -227619.1      -212827.4      -150076.6      -73875.66
      -37649.07      -18691.68      -22740.55      -25913.39       16168.91
       40490.81       32597.24       22528.78       27292.50       48640.84
       35633.54       3268.156       31746.38       128393.8       217140.2
       210355.0       71553.78      -99379.88      -167117.9      -121450.9
      -29126.94       72127.12       146066.9       142067.5       56324.19
      -49998.77      -80805.32      -18508.59       66664.38       122375.9
       115888.1       55435.69       13506.33      -1349.242      -32813.60
      -49421.82      -31205.99      -2073.504       12044.04       17650.80
       30906.78       34642.52       13265.09      -30254.26      -52387.84
      -16621.02       30465.52       46847.28       49856.88       60329.00
       66374.16       67429.61       57976.63       15329.95      -28086.53
      -42651.95      -25291.24       17041.59       26151.40      -2104.949
      -12617.17      -9372.725       1603.453       29034.98       48711.39
       27474.27      -17231.92      -35017.62      -24657.47      -11692.58
      -29427.62      -61847.81      -99400.50      -144554.1      -144510.3
      -77499.70      -6186.382       10372.27      -11011.79      -30446.86
      -23850.17       5466.484       39492.44       80756.91       112462.5
       109132.6       49536.87      -10691.64       58.00781       17714.38
       9348.488       3900.062      -34328.69      -71810.78      -42979.73
      -30572.94      -79979.94      -90522.14      -39307.37      -8458.227
      -19626.87      -21955.37      -6413.562      -11038.16      -28306.98
      -57860.19      -98779.08      -71917.32       8982.719       78116.19
       112525.6       99721.41       59191.46       8906.133      -32227.73
      -35645.92       14460.19       102577.3       139969.8       98412.12
       46924.63       3304.422      -20017.43      -4236.984       37434.19
       86356.75       87366.98       11632.50      -80101.75      -94790.77
      -44041.89      -5130.297      -12185.58      -46902.91      -39122.22
       1470.344       22786.88       29587.87       15271.64      -5613.500
      -10888.57       6648.609       34801.05       41253.31       16997.02
       8610.783       8809.859      -30713.23      -60162.75      -56465.04
      -49538.41      -14577.84       27526.03       33645.55       21981.04
       18143.77       7996.969      -22694.48      -52950.20      -53566.63
      -26717.58      -18038.27      -42292.92      -43272.06       1749.234
       42598.47       24292.64      -17649.15      -32057.65      -24814.09
       15278.38       55429.44       41385.15       2074.703      -34692.00
      -51495.88      -40173.80      -13488.73       28667.44       54600.23
       32325.42      -5129.516      -34221.63      -35154.21      -7788.925
       3717.137      -6564.371      -8369.547       23458.89       76032.88
       78448.97       14536.12      -44477.97      -53824.36      -32448.92
      -9050.820       2741.820       9525.094       16055.29       16661.95
      -471.7188      -33556.27      -64592.80      -60920.27      -13500.82
       16424.31       12135.72       14259.17       7455.586      -13010.45
      -26427.34      -39022.38      -50158.06      -39959.49      -25335.24
      -24186.67      -6537.961       28406.82       35146.25       39330.09
       60969.81       66351.09       64043.89       56305.84       42915.45
       56831.75       86750.41       99233.42       82893.38       54122.81
       26082.12      -1093.459       3425.861       17520.76      -6130.953
      -27026.20      -23370.88      -24240.14      -36678.19      -55542.14
      -73382.28      -59693.21      -21374.26       12877.08       31238.60
       9380.156      -39244.22      -79426.66      -91821.24      -53900.09
      -3003.266       24180.55       40612.95       44307.90       19084.89
      -19981.87      -44524.31      -39948.36      -26624.26      -27245.35
      -19583.11       4450.516       10535.52       5326.516       16156.61
       34384.69       44966.38       33012.85       18096.14       31469.94
       27479.77      -8956.148      -11481.08       9239.391      -198.8252
      -9490.867       3558.156       23729.11       22077.74       8576.875
       24939.22       47382.75       47801.80       26359.45      -7613.711
      -18397.51       2512.504       19194.61       8385.225       5027.648
       18515.84       26051.23       34919.70       38056.95       24555.71
       3737.125      -13342.54      -17801.96      -17143.10      -16870.64
      -22660.47      -56531.03      -107064.1      -107968.3      -63709.59
      -32769.72      -31587.41      -43889.47      -45878.29      -36080.89
      -30577.41      -39806.94      -50528.23      -47739.40      -35782.95
      -21028.43      -18734.79      -15646.92      -6528.480      -4098.680
      -10507.06      -23454.27      -13962.95       17952.02       41602.36
       43440.51       19925.17       17944.06       55493.25       87212.81
       103376.5       104606.7       83333.34       53795.39       25823.45
       23088.81       44844.56       51627.92       44799.88       38837.38
       28627.23       26309.01       22574.22      -3691.242      -30693.83
      -32369.80      -20244.43      -10286.12      -15387.83      -28560.69
      -18554.90       5844.367       13414.24       10555.45      -1885.750
      -18564.09      -26192.72      -43547.92      -69598.55      -67958.34
