     0.02500000      -79688.14       104084.3      -12345.00      -12345.00
      -30.00497       231.4700      -32.03000      -12345.00      -12345.00
       0.000000       23.52000      -12345.00      -12345.00      -12345.00
      -12345.00      -12345.00      -12345.00      -12345.00      -12345.00
      -12345.00      -12345.00      -12345.00      -12345.00      -12345.00
      -12345.00      -12345.00      -12345.00      -12345.00      -12345.00
      -12345.00      -31.19940      -66.74700       697.0000       0.000000
      -31.54000      -68.94500       0.000000       103500.0       0.000000
      -12345.00      -12345.00      -12345.00      -12345.00      -12345.00
      -12345.00      -12345.00      -12345.00      -12345.00      -12345.00
       212.4835       80.33331       259.1946       1.910490      -12345.00
      -12345.00     0.02021281       0.000000       90.00000      -12345.00
      -12345.00      -12345.00      -12345.00      -12345.00      -12345.00
      -12345.00      -12345.00      -12345.00      -12345.00      -12345.00
      2008        49         8        51        35
       730         6    -12345    -12345     10460
    -12345    -12345    -12345    -12345    -12345
         1         7        13    -12345    -12345
    -12345    -12345    -12345    -12345    -12345
    -12345    -12345    -12345    -12345    -12345
    -12345    -12345    -12345    -12345    -12345
         1         1         1         1         1
NOQE    -12345          
        -12345  -12345  
-12345  -12345  -12345  
-12345  -12345  -12345  
-12345  -12345  -12345  
-12345  -12345  -12345  
-12345  -12345  BHN     
ZL      -12345  -12345  
[...]
       1670.172      -1351.653       473.1987       3559.302      -1101.590
      -1556.100      -481.9834      -2658.634      -2593.259       1752.762
       3008.972      -1238.057      -2182.800      -1389.094      -1466.084
       57.03711       3000.312       3060.318      -1128.646      -2828.067
      -977.8103      -416.9402      -127.0273      -2079.750      -4990.639
      -7580.463      -9452.219      -4918.856       2439.541       5379.711
       3386.442      -102.9961      -3827.613      -3069.998       1073.894
      -245.1216      -2506.147       916.4736      -244.4263      -3316.333
       2189.106       5519.838       1188.532      -2000.032       2950.900
       7109.006       3575.437       3707.722       3627.922      -1571.231
      -797.5000       3576.744       3180.483       3401.643       3045.956
      -1787.184      -1969.809      -1357.217      -6445.474      -5660.048
       1937.652       3147.393      -196.0098       1751.000       3720.552
       1376.612       183.0183      -333.7002      -1271.848      -3593.185
      -4767.619       78.76343       1607.644       662.8623       3768.160
       2314.604       921.9238       2942.755       1278.857      -2094.589
      -5359.575      -5578.542      -1636.494      -512.5664      -3912.805
      -7487.393      -8669.755      -3022.783       4153.951       3781.763
       1091.052      -136.6670      -1452.752      -1975.872      -327.0059
       4721.264       7595.151       4992.381       2117.250       1847.868
       2076.041       2627.134       4287.284       2466.111      -653.6038
       1479.555       379.9727      -7283.078      -8365.943      -5329.033
      -5809.738      -3715.078       455.6270       2178.888      -1293.000
      -6144.322      -4982.160       1611.709       6553.835       5505.166
       2997.237       1364.455      -366.2190      -185.3345      -768.1279
      -4241.928      -3878.762       1841.530       4755.516       3434.500
       2397.235       714.0183      -641.1655       1602.628       2110.655
       813.7529       2269.073       1715.465      -455.3252      -2377.928
      -5241.584      -3562.362       1517.435       2773.324      -438.4824
      -1657.827      -1112.278      -3769.261      -3560.811      -462.6781
      -575.6575      -212.6814      -338.7246      -1601.448      -908.7344
      -2109.056      -3187.740      -905.4261       760.0789      -132.6184
      -1446.802      -197.9495       774.0342      -1455.506      -3781.119
      -1626.941       2791.623       4607.859       6184.801       8423.744
       6421.195       921.2876      -1445.839      -1835.613      -4325.172
      -3519.168       1638.244       5464.268       5405.144       3889.862
       2224.777      -1761.239      -2753.560       699.6226      -727.9036
      -2044.252       2315.303       1756.938      -5181.398      -8965.519
      -5713.234      -763.0967       1167.321       1881.890       1024.494
      -396.2153      -716.1631      -1301.569      -1891.255      -2893.938
      -3750.719      -1713.685       438.4722       533.0850       2156.822
       5181.616       3768.521       720.2559       1964.646       2925.579
       1127.220      -645.5620      -1717.833      -2192.419      -47.27295
       1921.400      -493.6689      -731.4392       1464.573       899.4429
      -1698.135      -5139.974      -5337.438      -2124.583       319.5747
       1974.252      -1845.691      -5384.598       124.6719       5379.376
       3985.943       23.52039      -1063.979       1458.456       3323.256
       2550.826       2903.686       2323.740      -1207.458      -576.9253
      -604.5713      -3946.071      -2353.537       981.8975       1161.131
       1868.787       824.4531      -3934.278      -4024.903      -298.4185
       15.44501      -4.790161       32.74365       1600.922       3488.817
       809.5127      -1497.394      -1580.974      -2846.522      -3037.003
      -2144.531       1812.429       5063.130       384.2393      -2494.953
      -3253.600      -6571.192      -3577.650       3139.798       2721.869
      -139.8818       2543.078       2452.357       10.02930      -286.0518
      -2048.508      -682.1431       1434.328       690.4250       1097.857
       1311.123       1184.855      -327.6514      -749.3267       890.9692
       859.8271       3013.619       5210.365       2966.363       2619.417
       3208.414      -1213.167      -1718.992       3189.431       1988.083
      -1032.879      -355.4976       1428.999       2085.787       859.0669
      -1489.313      -3791.339      -3278.457      -1636.555      -1507.705
      -915.3354       965.2549       3045.271       3874.766       3410.525
       547.6719      -3429.230      -4410.137      -2854.028      -2337.093
      -907.4639       2669.468       4386.743       2646.007       1095.411
       1386.781       2064.554       695.9552      -187.6018       1351.047
      -353.0586      -4293.150      -4375.252      -2321.118      -58.97510
       2372.992       2913.281      -1342.703      -6196.685      -3429.046
       1205.170       1679.346       961.0369      -1539.442      -739.6016
       3658.689       4503.765       4454.166       4585.682      -374.3379
      -5852.481      -5827.825      -2052.011       1278.384       1741.754
       1448.768       556.8852      -618.2729       902.7761       1434.029
       563.0410      -2163.283      -4748.404      -2377.779       578.3992
       1228.782       100.6411      -1146.146      -1996.082      -4476.176
      -6474.241      -2044.314       5125.199       6947.573       5796.148
       3567.781      -216.2461      -4816.906      -4867.534       399.6025
       4362.199       3190.037       956.0055       67.65479       376.3853
       1874.751       2082.435       3254.222       2965.049      -2672.609
      -6742.274      -5859.620       349.6797       8494.385       8533.062
       344.5000      -4852.039      -5029.648      -4666.572      -2720.255
       1844.858       3944.059       3450.013       3164.918      -1824.650
      -8181.752      -9555.055      -6358.007       1162.638       4543.001
       3951.824       4195.185       2743.956      -739.7373      -3417.216
      -3550.643      -4047.267      -4291.577       1316.249       5851.205
       3087.219       736.8242      -662.7764      -4513.441      -4524.260
      -244.2637       1713.251       1951.164       4397.996       4336.234
      -98.30823      -1266.077       577.5442       198.6704       318.7051
       2107.367       2860.720       416.2007      -1965.043      -1234.339
      -456.3057       1432.531       4317.332       469.1328      -4200.175
      -3174.814      -1171.898       466.5986       1215.569       173.1256
       106.5397       366.9702      -1565.967      -1696.537      -844.8228
      -2066.846      -265.2222       2117.992       2389.959       2680.557
       1008.896      -2436.123      -4034.633      -2588.562       1761.990
       5007.329       3105.361      -1281.411      -2432.677      -735.3945
       1082.462       2223.426       2669.379       2155.337       1118.679
       1.467773      -3085.445      -6321.356      -4415.405       2764.194
       5766.824       3216.303       2389.771      -619.2559      -3752.889
      -4143.392      -2253.966       3831.509       6773.716       1377.303
      -2113.995      -1037.847      -2127.805      -1806.453       2625.087
       2897.560      -1710.931      -3645.049      -5919.961      -10741.63
      -9781.613      -3958.497       299.0234       4308.627       7581.302
       5008.287      -338.3584      -2689.248      -2109.280       136.1309
       5090.844       8311.149       4183.447      -2070.248      -2502.832
      -110.6405      -398.7593       787.8604       4814.911       4187.982
       1614.475       745.4844      -3155.037      -5816.720      -1799.819
       1985.075       1213.935      -1880.771      -2468.818      -2387.208
      -3729.197      -2105.266       1219.394       4014.515       4648.328
      -512.5518      -4250.863      -3195.290       118.5176       4869.051
       5425.542       1751.187      -58.12695       314.0317      -769.0596
      -2218.541      -1508.150       1396.010       3920.481       2857.136
       2075.290       1164.582       205.5830       1380.855       1833.270
       3598.253       1754.727      -3538.987      -628.9072       2778.815
       1432.783       1309.447       1716.626      -362.3682      -3170.488
      -1992.329       824.1562      -1314.155      -4696.940      -4261.372
      -1952.696      -1639.603       67.44824       1495.418      -3617.680
      -4150.460       882.7404       1177.668      -468.3848      -1536.274
      -1119.985       1251.270       5723.147       6212.202       333.7070
      -5001.324      -8457.969      -8064.808       384.9805       7857.738
       5356.527      -752.5352      -3063.844      -2274.003       1362.330
       4693.207       3648.200       2674.738       2327.195      -207.0020
      -1247.021      -1602.968      -1826.053       980.9922       4598.632
       4741.562       3781.485       1248.687      -2714.400      -958.5137
       3864.585       2507.142      -410.3647       774.7832       1989.083
       1086.856       1176.756       1473.503       397.6521       622.0078
       1560.808       535.7920      -2478.850      -4484.783      -2723.086
      -2174.123      -150.4141       4337.106       2356.758      -3684.797
      -6929.690      -5927.193      -3778.380      -2905.834       425.7246
       4516.668       7363.091       5153.102      -4224.988      -9636.992
      -8522.756      -6437.891      -927.0625       4736.672       6993.799
       7800.804       6215.726       3719.057       1565.724      -490.7268
      -326.9424       1094.131       2149.305      -975.4512      -4630.404
      -3369.575      -328.3909      -210.9861       136.9448       3098.490
       1940.213       3.980469       2024.995       3287.931       3975.666
       2251.633      -2127.605      -3165.979      -1698.523      -1343.400
       1295.741       4743.480       5313.270       3181.454       164.5943
      -219.1357       1235.191       1848.191       1502.296       3621.710
       5303.736       1516.383       1560.448       2753.162      -4094.402
      -7380.613      -2288.105      -430.1309      -2144.494      -2543.683
      -2176.826      -3879.283      -3529.525       994.5055       227.2759
      -1998.216      -18.92090      -1484.612      -1803.752       3568.178
       7429.561       5809.648       1993.809      -1365.010      -4592.322
      -5132.483      -563.0254       3106.693       3778.435       2656.743
       652.6436       1313.552       1466.625       522.0811       3534.289
       4990.271       1137.876      -1004.416      -806.8979      -475.9453
       2271.953       4637.137       3127.246       1658.843       2477.473
       1278.046       2184.316       5969.315       1716.027      -6676.350
      -7829.898      -3265.818       2009.127       4059.421       2772.974
       487.2820       77.47510       2162.196       1496.271      -1318.438
      -1272.265      -1620.340      -2933.334      -2341.144      -1411.493
      -702.6479       1709.941       1443.886       143.1074       2425.201
       3877.056       3496.643       815.0371      -3931.229      -4365.725
      -1527.833       21.97607       1508.315       1873.024       1025.604
       2698.423       3139.694       2435.462       2709.015      -1147.633
      -4476.817       725.2754       7841.406       9705.469       8451.077
       5187.280      -439.3965      -5838.133      -6900.627      -2811.807
      -949.8859      -1195.955       1071.918       3060.676       2524.172
       675.0693       355.1133       2991.889       4685.020       1789.095
      -3366.573      -4327.190      -2482.855      -2395.461      -2237.122
      -1750.920      -1108.234       389.7722       844.4863       1678.741
       3148.681       2996.102       1872.136      -773.8904      -1889.686
       2246.196       4212.187      -1561.973      -8515.699      -10972.06
      -13704.01      -16432.70      -20789.17      -30735.47      -38096.14
      -43427.16      -50842.66      -54657.55      -58421.94      -69976.41
      -79688.14      -72809.11      -60516.88      -61624.62      -68312.77
      -61722.34      -44074.29      -26307.39      -7378.730       5424.801
       3084.301       8412.672       30305.20       45428.34       55351.27
       60339.39       45265.27       32023.30       24535.44      -1030.688
      -19166.66      -12738.69      -868.2422       20651.31       54258.44
       64817.07       34688.38       8722.129       11834.71       29592.66
       66331.53       102878.0       104084.3       81177.95       59387.92
       42143.88       24142.23       17558.27       28694.10       33145.88
       18384.27       3681.817      -298.2812      -10790.83      -20250.67
      -9918.909      -3077.168      -8970.457      -12466.62      -20726.89
      -37752.27      -43475.66      -25215.92      -344.7930       11588.64
       9725.452      -465.1055      -11124.56      -14591.40       4135.445
       32426.09       27694.38       6766.023       8266.783       10558.14
       2897.331      -687.5469      -7569.730      -17820.96      -19766.46
      -12386.01      -4562.872      -2148.859      -5324.023      -13354.64
      -19962.92      -23127.73      -23746.52      -21078.38      -20546.95
      -24828.05      -23829.92      -10849.20       1162.516       9744.316
       18183.57       13107.05      -3286.324      -13314.26      -15034.97
      -11022.80       5818.266       27738.87       33462.34       14590.89
      -1743.127      -3038.084      -10834.04      -7578.664       16964.77
       27865.86       16286.90       1867.496      -9553.258      -24482.56
      -27815.39      -9200.880       3258.572      -1775.506      -999.0312
       8632.590       9974.542       1870.166       5849.699       17576.91
       9077.980      -2097.855       2004.453      -5488.969      -26625.61
      -32140.41      -19300.03      -831.4180       16776.30       29399.88
       38363.52       24674.50      -6362.812      -16633.86      -9412.631
      -3325.971       4832.320       17219.64       18651.01       8523.512
       2571.911      -1626.619      -3975.458       515.9062       8088.629
       10213.32       3479.601      -2888.688      -6264.367      -19621.52
      -34967.73      -31584.25      -24428.73      -24144.55      -7601.871
       20093.05       27499.35       16659.45       14698.02       11619.21
      -6743.645      -13801.02      -6575.154      -7998.910      -13983.35
      -8229.980       3640.955       7742.117       7630.434       4564.180
       1553.891       5537.180       11289.69       10911.57       1737.525
      -7325.047      -9779.031      -7516.568      -3509.766      -10107.80
      -20654.28      -14914.35      -345.9697       6639.884       768.7188
      -14973.61      -22541.07      -14860.80      -3381.566       9888.207
       19011.43       14066.76       10178.16       12677.67       10249.92
       4782.450      -2142.859      -8334.235      -5442.105       242.5835
      -204.6426      -3825.689      -7106.250      -6347.189      -2036.330
       2137.427       3824.791      -175.6270      -2624.918       317.0820
       1804.826       3296.938       9115.637       11330.51       6234.537
       4638.918       11014.42       17847.51       18731.69       14100.84
       12891.02       13351.58       7847.574       6176.961       12668.57
       15860.14       13487.29       6256.203      -3442.699      -7979.789
      -7466.395      -1326.703       10891.44       17151.21       13678.05
       8209.590       5690.574       665.4141      -9067.594      -14982.73
      -12365.65      -5453.457       899.1016       5682.736       4225.058
      -1039.705      -49.40063       1612.410      -5132.680      -14901.78
      -17649.75      -15106.61      -14660.92      -15573.97      -12191.20
      -7184.945      -8421.469      -15416.88      -17974.45      -12272.06
      -8343.617      -8886.725      -6460.807      -8257.436      -9905.626
      -2136.061       2834.171       3994.664       6757.717       3590.492
      -4868.514      -8520.277      -5088.498       118.0430       6790.934
       10521.56       8651.525       7164.265       4251.792       1601.135
       1390.659      -594.5845       1409.977       3787.758       6974.984
       12899.87       7886.978      -3113.801      -8028.793      -8639.317
      -5771.364      -3486.065      -1994.411       277.1836       3669.288
       4710.383      -6294.531      -25138.48      -36377.44      -31868.85
      -16458.73      -2057.975       5455.336       8581.760       8533.734
       1856.432      -5804.535      -7102.904      -8784.070      -12536.09
      -7524.121      -5216.812      -10829.27      -3025.172       12446.72
       11291.71       4587.184       7585.285       5215.266      -1494.051
       7046.250       26338.20       38284.63       36142.97       27969.98
       20375.98       14843.81       10878.62       8207.572       9871.652
       12065.44       10682.33       12299.39       12257.85       4874.459
      -3612.711      -11177.28      -19072.30      -27028.02      -30536.09
      -27057.70      -21429.70      -11262.83      -2332.660      -2999.674
      -7258.516      -10756.48      -16954.41      -23696.98      -22453.68
      -12886.08      -1587.035       4244.180       7563.576       11622.29
       6699.363       2604.777       7816.648       14529.41       20395.47
       23436.41       20257.12       11515.64       6613.941       3246.350
      -6090.561      -7731.288      -2161.359       1951.888       4989.570
       4310.287       4507.743       5109.094       173.1191      -5087.723
      -7189.596      -6734.963      -8643.512      -11187.05      -4056.928
       7135.324       11858.86       11711.23       6787.415       3295.668
       7690.332       11363.17       7531.383       3048.498      -1074.150
      -7328.002      -9725.346      -7243.019      -4899.221      -4790.641
      -3229.746       3637.691       6111.588       2216.631       223.4102
