     0.02500000      -166181.6       153498.5      -12345.00      -12345.00
      -30.00497       231.4700      -32.03000      -12345.00      -12345.00
       0.000000       23.52000      -12345.00      -12345.00      -12345.00
      -12345.00      -12345.00      -12345.00      -12345.00      -12345.00
      -12345.00      -12345.00      -12345.00      -12345.00      -12345.00
      -12345.00      -12345.00      -12345.00      -12345.00      -12345.00
      -12345.00      -31.19940      -66.74700       697.0000       0.000000
      -31.54000      -68.94500       0.000000       103500.0       0.000000
      -12345.00      -12345.00      -12345.00      -12345.00      -12345.00
      -12345.00      -12345.00      -12345.00      -12345.00      -12345.00
       212.4835       80.33331       259.1946       1.910490      -12345.00
      -12345.00   -0.009946438       0.000000       0.000000      -12345.00
      -12345.00      -12345.00      -12345.00      -12345.00      -12345.00
      -12345.00      -12345.00      -12345.00      -12345.00      -12345.00
      2008        49         8        51        35
       730         6    -12345    -12345     10460
    -12345    -12345    -12345    -12345    -12345
         1         7        13    -12345    -12345
    -12345    -12345    -12345    -12345    -12345
    -12345    -12345    -12345    -12345    -12345
    -12345    -12345    -12345    -12345    -12345
         1         1         1         1         1
NOQE    -12345          
        -12345  -12345  
-12345  -12345  -12345  
-12345  -12345  -12345  
-12345  -12345  -12345  
-12345  -12345  -12345  
-12345  -12345  BHZ     
ZL      -12345  -12345  
[...]
      -12029.34      -12169.47      -5762.067      -299.3732       322.9614
       407.8247       2302.367      -1194.732      -7875.430      -8759.773
      -9214.653      -6062.438       3347.646       8569.156       6553.797
       6081.326       5461.222      -1574.553      -1719.717       5990.002
       5135.871       1148.057       760.4354       634.4893      -1053.936
      -5994.135      -5079.227       1883.304       2693.614       1340.955
       2813.692       4222.729       6713.402       4255.443      -841.1865
      -2901.844      -6902.909      -7221.276      -1899.811       5490.359
       8211.243       2575.438      -5325.233      -3662.822       3377.615
       1924.867       4267.879       8535.256       1442.375      -8249.971
      -8343.767      -124.3054      -158.6890      -2463.545       6275.615
       9633.470      -343.2500      -7964.750      -10206.17      -12572.08
      -12202.72      -4638.664       7332.535       11235.44       3883.559
      -407.3047       2115.684       1021.178      -1733.907       1418.679
       4836.149       1265.184      -3598.800      -3036.733      -3416.409
      -872.1719       6995.725       8905.994       6456.057       2779.386
      -537.7339      -1269.793      -133.3696       2585.040       2960.608
       2362.560       855.4636      -1139.552       1472.378       4577.214
       1620.006      -3621.679      -3269.948       1005.767       3251.416
       693.6816      -6868.727      -10239.85      -6482.664      -3431.375
      -2531.178       2147.893       4062.089      -1769.042      -4625.121
      -3262.161      -2238.947      -4669.113      -7081.823      -4897.642
      -3300.425      -1809.818       1420.578       1363.774       1483.793
       5326.406       6397.405       4260.959       1473.947       4075.650
       6911.400       4567.392       3033.255       341.9917      -1765.473
      -4011.514      -7916.070      -4263.778       2695.285       3212.494
       1151.739       479.2781       703.1880       2093.425       2843.318
       2285.153       791.2710      -1066.397      -626.3320       1817.003
       4124.395       2920.480       1465.637       2574.240       480.4512
      -2373.888      -3698.094      -3324.694       1152.528       5061.308
       3382.540       314.6979       165.4783       197.0352      -3260.561
      -5337.048      -3220.261      -2840.299      -5009.506      -8366.414
      -10393.75      -7136.420      -2980.559      -671.8706       1540.503
       119.7031      -4378.665      -4490.241       1251.203       5983.836
       6556.814       8901.484       10525.31       4251.046      -3780.817
      -4642.021      -1423.801       499.7148       3081.420       7009.943
       8469.393       5989.041       6619.189       10329.31       5391.773
      -3669.588      -5830.834      -3842.541      -1903.138       2281.823
       4374.595       694.5576      -1557.044      -2566.869      -4963.284
      -5784.855      -165.3691       6872.185       2389.763      -5495.674
      -4253.419       625.1797       3386.054       2757.586      -182.1309
      -2219.392      -4129.441      -5442.053      -6217.506      -7913.365
      -8821.150      -7007.970      -2941.276      -430.8945      -3172.645
      -7031.975      -5331.885      -2158.562      -1405.607       5085.688
       13652.63       13681.25       6792.850       860.7217      -104.4766
      -674.7124      -2572.769      -1349.100       2626.211       3858.768
       1572.479       554.7015       256.4532      -1187.095       1295.658
       4388.611       409.4668      -3710.461      -107.8467       3784.362
       241.5801      -3455.811      -2186.046       281.7856       1309.154
       1450.196       3220.707       2722.347       1305.262       3468.637
       3775.960       391.3572      -1482.784       568.3301       3090.064
       5570.631       5914.213       4219.348       1012.301      -2896.204
      -2146.588      -2420.662      -7486.730      -8029.081      -4031.719
      -1556.653      -1572.762      -2190.158      -22.94238      -2580.850
      -5244.656       1184.299       7141.590       7812.277       4226.544
       1897.942       3238.537       3201.161       612.7402      -3047.391
      -4015.569      -771.2559       2802.173       3702.851      -1389.865
      -7750.414      -8085.244      -7709.500      -6600.940      -1294.041
       3045.232       3893.590       2855.452       2139.282       1154.236
       786.3828       3724.964       3406.691      -95.80566       2847.574
       7115.137       2488.979      -3314.672      -1935.359       744.3438
       2168.127       2192.196       828.4479       375.1328      -2082.104
      -4545.981      -2239.334       1949.181       1893.642      -679.8652
      -3470.830      -9025.986      -9142.192      -3550.030      -799.9761
      -643.1680      -1524.365      -1259.134      -1178.800      -1311.254
       634.9941       1650.906       2435.345       1924.657      -879.9453
      -3235.711      -4440.822      -2881.666       2063.955       6981.203
       7069.190       5194.191       2657.716      -391.4866       233.9839
       2453.207       2576.567       455.6562      -2034.906      -1818.123
       2449.726       4796.897       229.4297      -5815.980      -9794.582
      -9824.633      -6431.359      -1854.233       3640.416       6536.927
       5121.508       1145.611       519.9688       2709.062       2913.209
       2317.069       1975.613       74.90332      -3792.413      -4191.422
      -566.2301       685.6028      -1364.008      -1036.481       907.6743
      -883.4727      -4919.055      -3802.210       645.5542      -61.05469
      -3228.783      -2939.443      -2381.966      -3534.060      -1232.823
       2838.172       2722.594      -807.2202      -2914.479      -1490.210
      -677.1191       272.6851       1825.263      -367.8108      -190.7373
       3133.371       3584.224       3826.354       5775.981       5313.658
      -1880.064      -9235.734      -7451.699       68.53320       5739.707
       6856.367       6160.868       5442.065       965.5222      -1597.433
       679.0439       1779.201       1339.343       190.9258       3051.283
       5826.367      -251.3516      -4032.534      -1638.906      -3321.496
      -5727.556      -2740.579       1277.475       2634.382       4191.105
       6213.447       2624.829      -4375.216      -2681.264       3905.584
       1963.390      -2612.864      -815.3413       2107.457       1063.379
       1989.267       1823.786      -3812.673      -5335.405      -3496.123
      -5897.129      -7290.502      -4199.305      -1807.349       86.93066
       1541.012       452.6914      -1622.244      -3936.180      -3350.243
       194.8467       1842.000       2859.156       2984.785       384.5951
      -507.2871       809.7842       1924.817       931.2277      -668.0840
       539.1548       1957.344       2333.036       3453.994       5868.561
       6247.416       1923.141      -2406.396      -4765.301      -6201.683
      -5308.016      -1884.009      -887.6301      -1500.688       311.7889
       1102.124      -544.3652      -3063.426      -4592.121      -4083.907
      -4160.532      -1487.019       3437.343       4710.488       5442.717
       5741.982       2065.348      -1596.369      -2572.537      -1649.582
       923.5322       3141.396       3685.419       2754.200       512.2324
      -4880.604      -10105.70      -5821.566       2766.215       4177.794
       2505.409       2517.374       146.0117      -4667.960      -3894.291
       4823.361       9627.430       8742.957       7742.658       4606.586
      -718.8359      -3534.484      -3158.280      -3616.772      -2762.524
       1235.852       56.44336      -5386.686      -7623.895      -6601.491
      -2151.813       1612.278      -730.4365      -3217.261      -2424.517
      -2570.695      -3246.159      -4251.950      -6091.182      -3986.311
       1250.177       2462.727       764.2576       828.6416       796.8906
       4774.436       9012.738       7969.914       10446.31       13207.93
       7780.328       751.2871       2915.186       9275.150       8214.920
       4292.968       1237.220      -3448.931      -6183.021      -3528.219
      -1935.019      -2989.155      -3997.746      -5686.936      -4855.373
      -5148.045      -9214.717      -8479.115      -3770.557      -1256.420
      -849.9287      -3048.973      -6209.569      -5642.763      -270.1367
       8018.102       9689.063       3010.635      -3807.373      -6537.797
      -6202.219      -5785.696      -2292.043       2163.160       4821.258
       9519.441       12672.45       8111.722      -644.9115      -1897.914
       1854.402       3719.471       6793.375       8271.907       2905.092
      -1316.373       287.3682       1797.445       1072.787      -2661.511
      -6185.173      -3697.746       2645.027       8929.801       11120.00
       7466.862      -518.7930      -8880.916      -8483.006      -310.6152
       4769.422       4916.179       1478.182      -833.3689      -573.5935
      -1073.982      -140.3281       2345.708       300.7307      -771.8740
       3429.565       2625.530      -484.8613      -1512.762      -4516.403
      -3620.578       1142.341       2329.283       784.4966       137.2637
      -2976.035      -7484.322      -8520.791      -5774.480      -2548.772
      -2256.719      -3309.787      -351.8828       2083.302      -1147.374
       1482.482       10147.24       7912.021       731.7559      -1067.361
      -6215.543      -10425.15      -5910.135      -324.4297       3012.415
       4149.844       4984.849       3430.951      -956.7192      -3089.118
      -463.3184       6371.641       9943.449       7157.042       3070.406
       131.4336      -22.68384       1158.374       1238.409       493.3774
       155.0762      -2170.221      -5122.520      -6009.301      -7916.461
      -8120.093      -3676.980      -351.2856      -170.3608      -2388.460
      -2607.985       1155.312       2242.009       212.1887       910.4453
       1778.277       1265.763       45.73975      -1531.757       29.74512
       2328.262       2516.823       3049.962       1560.236      -1952.348
      -3929.316      -2658.894      -1090.798      -3294.875      -5774.180
      -4133.605      -4117.010      -7713.184      -8687.160      -5935.713
      -4936.499      -4572.345      -1577.309       102.8335      -1565.104
       423.8438       8571.352       12865.82       10327.15       10510.59
       8720.740      -142.5132      -3900.055       1235.273       5100.097
       3798.250       1133.928      -329.6621      -3144.647      -4908.443
      -796.4795       5197.346       5360.725       1167.557      -644.9629
      -1551.527      -6561.004      -9672.547      -8784.398      -10779.13
      -10746.62      -1972.792       4234.080       4317.138       4427.320
       1426.933      -1797.636      -795.8578      -704.3262       2525.195
       7901.830       7143.492       3495.302       3255.152       1130.746
      -3310.412      -176.3359       7646.371       7822.472       2933.022
       214.5791      -1506.979      -1276.850       3081.809       5857.054
       3666.578       1215.674       4050.439       6342.441       5843.676
       7486.100       9165.153       6876.894       1007.323      -1802.411
       916.2549      -195.4609      -4672.448      -5298.988      -3390.339
      -1571.854       1206.108       1686.304      -1972.627      -3388.920
       1530.612       5276.504       3514.008       1727.178       2956.417
       3243.674       4344.891       7851.188       9076.842       5789.781
       2745.344       1508.349       837.4785       1256.499       1104.448
      -427.3662      -2554.169      -5492.950      -4970.563      -2681.438
      -2820.606      -2055.910      -1983.487      -4279.787      -2425.177
       872.8398       1858.900       2534.204       4513.543       3853.797
      -1596.492      -6626.756      -7633.492      -6791.511      -3959.833
      -1343.154      -1366.309      -3683.115      -5278.581      -4724.340
      -5169.328      -7991.641      -11958.99      -18166.42      -21265.51
      -17431.91      -12711.36      -10021.70      -10540.72      -17074.29
      -21389.96      -20485.30      -20308.12      -22917.30      -23874.49
      -19884.36      -12453.23      -3957.789       5007.344       11322.31
       11632.36       16885.17       37950.81       58656.22       68938.09
       81525.75       96562.62       106511.2       114087.4       108242.6
       85065.78       55225.61       24863.92      -1749.648      -23931.30
      -38237.85      -40569.09      -44875.98      -61162.34      -81232.56
      -102695.8      -135275.7      -163734.0      -166181.6      -150495.7
      -116216.6      -63012.36      -28729.87      -30300.36      -35027.80
      -24854.78      -10142.75       22080.34       78815.25       131519.4
       153498.5       143834.8       113304.1       72715.97       40056.76
       23157.75       14045.47       18478.55       37343.86       48730.10
       38258.77       18302.78       1525.473      -12406.56      -26763.70
      -35307.47      -44466.78      -58239.42      -59278.50      -48426.52
      -36235.07      -14308.81       2564.945      -12773.98      -43680.62
      -68377.81      -84858.30      -82891.47      -59207.77      -22199.12
       12021.84       38122.91       54359.12       53011.25       39689.27
       19633.66       8068.211       17623.98       26261.23       28857.36
       40044.25       58306.41       64626.19       55518.64       46933.73
       44033.04       39729.48       25105.89       6286.959       3380.406
       6290.137       2668.893       2203.078      -8846.859      -32436.08
      -45297.48      -54490.81      -71145.78      -73064.20      -45874.89
      -25908.36      -28810.88      -24196.60      -14002.88      -24096.95
      -31072.46      -14822.73      -6222.733      -9134.730       4950.703
       21854.23       29654.91       41460.67       48366.12       42247.46
       27664.71       9895.082      -3918.148      -13111.60      -14899.59
      -6881.223       8249.922       26860.75       42836.66       41901.24
       15080.80      -25906.92      -59650.72      -73858.14      -65464.61
      -43158.11      -12738.52       15973.47       28749.16       30325.59
       22758.63       7608.881      -792.8291       449.7656       9837.109
       25143.99       35446.63       30662.22       16345.97       4688.605
       1907.973       4168.176       7898.031       9979.688       12290.62
       14922.11       14311.44       7830.016      -4961.125      -18340.73
      -27654.58      -25527.45      -21197.12      -23447.24      -18975.72
      -15132.34      -12100.84       509.4805       16801.25       22017.38
       8590.508      -10139.56      -19280.55      -19257.59      -15841.74
      -13623.65      -9080.572       2655.336       17884.80       24323.46
       20427.01       10343.01      -1229.514      -5851.307      -4232.508
      -2105.743      -1126.777       2568.418       6207.551       5429.900
       9918.617       7687.811      -8438.492      -17226.84      -14413.86
      -13553.57      -11701.98       2029.961       17390.04       20511.36
       15869.00       12056.47       8192.951      -631.4111       73.64355
       8073.049      -685.3242      -18574.47      -24510.75      -16038.47
      -1818.926       5475.816       11117.74       19963.71       18585.99
       6569.833       650.8428      -739.4258      -10267.63      -18991.96
      -12531.98       5742.508       26123.78       33955.35       23741.40
       3901.543      -15414.70      -28480.30      -30812.83      -22922.81
      -12636.27      -1670.246       13244.43       28337.27       39567.25
       43091.99       34432.87       12765.89      -9607.113      -18475.34
      -14480.44      -6469.250       5073.375       18070.32       17045.27
       1310.129      -10673.79      -16101.60      -18781.74      -14677.05
      -3625.123       3124.037       5117.957       3683.262      -6452.293
      -16590.09      -18056.23      -14507.13      -4597.217       8148.820
       10847.99       8971.627       6765.309      -6106.086      -20045.38
      -23222.96      -14914.48      -5748.129      -6191.406      -8494.696
      -4307.531       3817.297       11549.25       12367.97       6197.240
       40.75000      -3781.922      -10121.51      -14133.79      -3108.453
       14680.29       22313.73       23788.98       27468.86       25129.75
       12283.17       5136.027       2740.144      -2558.155      -4871.839
      -2104.488       4809.086       8196.393       4959.148       4941.796
       4118.088      -4546.547      -11683.62      -16000.77      -21513.55
      -19509.38      -12493.10      -10260.41      -14124.73      -13206.56
      -10195.63      -12793.17      -12539.14      -7484.508       578.4922
       12109.23       19956.38       15603.03       3857.145      -695.2859
       637.3242      -380.0176       1283.457       4522.633       667.5527
       704.2227       9758.992       15263.04       12563.74       5804.791
      -2390.157      -4380.051       5323.086       18643.71       27796.04
       35885.45       36901.10       26273.55       11980.74      -2210.039
      -13691.00      -22544.50      -31724.16      -34069.57      -28645.74
      -21819.70      -14341.54      -9840.953      -15370.20      -27787.73
      -37535.74      -33417.61      -16241.98       3561.984       25262.11
       45239.44       52854.83       50290.39       43342.24       30789.60
       13707.57       5125.225       9078.715       12438.97       8897.042
       3691.852      -1011.375      -7272.297      -16839.23      -24245.34
      -28413.99      -33424.95      -33175.51      -24591.94      -15975.12
      -9757.242      -8419.922      -10630.11      -8414.344      -6990.719
      -11582.59      -11170.10      -4102.324       4535.012       10363.65
       9262.193       4672.873      -1249.414      -9443.418      -15766.41
      -15661.71      -8868.779      -1959.482       835.2773       3722.262
       12313.37       19793.81       17326.04       12408.19       14517.48
