     0.02500000      -115391.9       119849.9      -12345.00      -12345.00
      -30.00497       231.4700      -32.03000      -12345.00      -12345.00
       0.000000       23.52000      -12345.00      -12345.00      -12345.00
      -12345.00      -12345.00      -12345.00      -12345.00      -12345.00
      -12345.00      -12345.00      -12345.00      -12345.00      -12345.00
      -12345.00      -12345.00      -12345.00      -12345.00      -12345.00
      -12345.00      -31.19940      -66.74700       697.0000       0.000000
      -31.54000      -68.94500       0.000000       103500.0       0.000000
      -12345.00      -12345.00      -12345.00      -12345.00      -12345.00
      -12345.00      -12345.00      -12345.00      -12345.00      -12345.00
       212.4835       80.33331       259.1946       1.910490      -12345.00
      -12345.00   -0.006527976       90.00000       90.00000      -12345.00
      -12345.00      -12345.00      -12345.00      -12345.00      -12345.00
      -12345.00      -12345.00      -12345.00      -12345.00      -12345.00
      2008        49         8        51        35
       730         6    -12345    -12345     10460
    -12345    -12345    -12345    -12345    -12345
         1         7        13    -12345    -12345
    -12345    -12345    -12345    -12345    -12345
    -12345    -12345    -12345    -12345    -12345
    -12345    -12345    -12345    -12345    -12345
         1         1         1         1         1
NOQE    -12345          
        -12345  -12345  
-12345  -12345  -12345  
-12345  -12345  -12345  
-12345  -12345  -12345  
-12345  -12345  -12345  
-12345  -12345  BHE     
ZL      -12345  -12345  
[...]
      -1175.335      -2833.844      -1723.124      -80.23438       3593.473
       4295.567       1699.861      -4484.504      -13500.64      -8982.480
       4793.238       9529.565       3980.457      -4820.650      -5464.709
      -3164.671      -2406.445       2460.619       4625.169       2671.160
      -2108.085      -4025.187      -1034.217      -35.76331      -1684.437
       1911.752       9266.002       7869.518      -2931.064      -5500.403
       2964.352       9894.145       12508.80       9332.303       6070.428
      -2781.332      -14227.41      -4467.418       13315.59       13788.88
       2756.957       772.6797       1644.307      -6935.055      -9129.182
      -2302.676      -2014.918      -6812.596      -5521.188       788.0474
       1395.275      -1024.278      -2188.478      -1241.983       1289.716
      -1238.262      -4784.908      -5352.607      -4413.516      -2046.295
      -1680.398       2332.934       8127.187       5059.670      -848.6082
      -1771.411       1621.159       3712.145       5927.859       10067.93
       5609.705      -3178.728      -5642.348      -4358.800      -580.4805
       8176.906       12409.39       1496.264      -11378.55      -9479.462
       1831.055       11861.60       10718.46      -4282.777      -16344.01
      -11797.62      -5052.360      -2065.283       5379.749       7741.553
      -509.5820      -6950.188      -3744.293      -99.81494      -1813.859
      -2359.508      -2456.953      -1848.090       2803.422       3459.687
      -390.1982      -2630.094       1018.848       4974.497      -554.0010
      -2926.558      -1422.381      -1019.631       209.6445      -2498.323
      -2775.188       1666.324      -22.28320      -6460.139      -6397.740
       591.5410       4330.709       4792.769       4428.697       2637.837
       2012.783       4904.286       6801.670       1449.849      -4436.348
      -3881.692       2325.326       7791.183       5546.750      -862.2617
      -6320.848      -5959.036      -1539.010      -1111.539      -6.251953
       6419.521       9753.080       3989.523      -2724.994       2205.297
       6335.818      -198.0410      -3873.806      -56.93164       2174.748
       547.1541       813.5060       886.8965      -765.5898      -3332.301
      -5050.885      -1713.894       548.7461      -2223.964      -2061.405
       3272.836       1785.491      -2493.029       2442.941       11800.79
       13506.92       2420.107      -8084.422      -7675.685      -5278.954
      -4335.692       37.43848       3900.939       3319.758       6924.043
       12231.61       6563.447      -5626.520      -12226.87      -11903.55
      -6445.694      -325.1396      -426.2344      -5429.281      -6842.703
      -4026.410      -5594.014      -8350.590      -625.9746       9059.328
       6647.306      -5054.715      -10234.88      -2685.090       3688.835
       4816.796       4276.137       1348.642      -1178.814      -3271.252
      -6099.330      -9321.982      -5256.039       4160.381       8395.242
       6046.680      -2200.479      -6739.487      -3249.932      -1462.918
      -40.75977       5688.523       13001.02       11898.98       2887.193
      -5191.664      -9067.043      -6496.417      -3572.813      -4265.512
      -69.68750       6233.354       4358.442      -1987.383      -7638.984
      -9961.443      -1989.687       6372.129       1276.371      -7643.875
      -7904.264      -2093.917       2109.318      -384.1909      -503.5332
       5974.156       8009.976       5484.521       2956.613      -1127.466
      -2126.715       7310.930       16067.92       8365.654      -3238.844
      -6537.518      -5946.698      -1472.137       4791.031       2849.268
      -3172.831      -4334.136      -1766.613      -2706.421      -5361.892
      -3139.570       1287.586      -62.80469      -5964.973      -1585.521
       5065.164       1659.744      -4107.511      -5225.145       2832.164
       10663.68       11608.71       8065.108       3510.359       1495.407
      -426.0830      -2276.537      -2119.876      -418.4014       3792.633
       5951.951       1392.602      -5232.980      -4980.732      -2097.248
      -3333.780      -4654.343      -4361.663      -2628.775       2744.377
       6705.348       3342.382      -80.78125      -61.21973      -2022.793
      -3305.188       3154.049       10316.06       4359.820      -4531.764
      -5213.529      -2554.367       241.5449       3107.812       2636.186
       593.3906       213.9585      -2460.566      -3116.181       2307.405
       3357.449      -964.3296      -1159.059      -2001.071      -6322.229
      -3116.048       4434.476       5904.867       1909.940       1717.311
       5015.889       3893.981       2454.087       3656.269       1775.520
       1741.177       1475.665      -2806.101      -5159.688      -4515.258
      -1798.634       470.1914       5321.088       8632.591       1630.102
      -6843.785      -8874.267      -4890.685       2116.017       4807.226
      -1490.770      -4316.625       1832.291       2168.516      -4380.584
      -6630.135      -6525.179      -6270.495      -1712.533       2171.389
       4034.429       6779.688       1835.083      -2117.247       2818.820
       5857.080       3521.721       840.3062      -527.4229      -4029.773
      -7366.088      -3089.432       5784.648       4932.837      -3446.937
      -4071.250       598.4282      -1033.354      -3818.186       2458.746
       7222.390       6119.642       2822.979      -5340.791      -10071.07
      -7270.396      -3415.777       4472.102       11009.33       3890.813
      -6794.493      -5237.743       1320.543       3581.132       2432.131
      -977.6719      -2996.824      -648.7510      -1087.311      -4120.950
      -570.7676       5378.070       860.8359      -11694.25      -15433.97
      -6410.424       2667.676       6147.539       7246.454       7145.686
       1910.982      -5529.094      -6199.668      -4129.154      -4243.893
       3382.695       13873.04       14463.53       5811.104      -6648.242
      -12488.33      -10153.13      -6530.957       1123.168       7173.871
       6631.166       6805.803       5956.282      -1741.677      -5539.012
       1113.860       5989.788       1779.752      -3569.925      -425.8262
       5355.375       6549.064       5878.388       2339.229      -3584.488
      -5878.814      -535.0312       3784.086      -429.5303      -4923.093
      -4481.993      -3552.774      -2095.130       333.9722      -573.5020
      -5996.061      -8470.208      -4691.901       14.37305       4381.934
       6456.568       3316.457       265.8888       537.0234      -230.9663
      -2793.181      -256.2471       3620.043       3714.933       2648.535
       3884.484       6070.374       5035.103       1023.419      -4249.488
      -8694.312      -6232.530       327.5210       1297.352      -2362.314
      -5432.105      -5668.003      -679.4551       4100.014       4032.083
      -576.9844      -5985.277      -7367.957      -6771.585      -2606.217
       2657.168       5666.896       8846.047       5581.333      -1087.102
      -4656.701      -6115.850      -5387.107      -2053.117       4537.141
       12071.90       10751.57      -3244.367      -16161.21      -11052.90
       3359.355       8481.854       6937.998       6000.688      -407.1191
      -10034.09      -10976.30      -5220.330       1909.438       11645.97
       15702.30       6264.676      -5238.529      -8347.943      -7614.195
      -3679.409       3265.223       7770.421       6775.901       1819.490
      -4280.739      -5637.300      -854.4443       3871.677       4575.315
       2875.918       867.5361      -1702.375      -7511.203      -14555.98
      -13915.32      -3591.738       6792.035       13342.52       9572.498
      -4362.225      -10401.43      -5466.097      -170.4863       4421.129
       10574.47       11432.77       950.8682      -6277.477      -3088.369
       3814.645       9447.385       8878.502       2646.104      -3737.976
      -2649.959       2457.175       3616.611      -448.1299      -5707.832
      -1739.971       5769.029       4594.675      -4644.229      -10878.49
      -7667.319      -3118.405      -2018.312      -2692.602      -6198.629
      -8303.451      -2715.316       6741.738       9662.162      -6.847656
      -8603.928      -4359.964      -2094.207      -3960.364      -3864.500
      -4043.578      -4072.805       3917.164       15177.65       12879.13
       1985.903      -3596.452      -1067.164       3403.164       4844.233
       5374.892       3798.304       3326.859       5542.175       6172.749
       224.9805      -10478.77      -14717.87      -7993.263       1575.684
       5899.594       6605.536       6264.089      -424.0879      -7042.100
      -3876.454       3179.928       9301.543       10910.04       6374.066
       2943.174       4611.650       6628.543       1434.553      -4142.488
      -3580.149      -1758.295       1400.373       3438.007      -1700.793
      -9372.836      -13022.74      -7673.126       1484.497       4052.808
       63.30762      -2433.473      -3196.385      -6321.851      -6608.510
      -1383.728       1882.684      -385.2666      -2396.439      -2629.012
      -6930.668      -9015.283      -1593.344       7957.068       8878.953
       3226.541      -602.9678      -3560.336      -8844.305      -8126.633
      -1595.278       597.2310       1089.871       3509.256       4454.180
       939.7500      -6986.059      -11326.96      -5601.760       3858.145
       8597.654       11041.46       9732.057       4837.193      -1097.375
      -6689.911      -5298.873      -334.0068       2670.207       5881.647
       1618.736      -4478.113      -4000.254      -3735.112      -495.4932
       3618.859      -416.0330      -2187.088       3133.908       3327.065
       608.2175       1664.678      -1721.734      -9558.527      -11733.75
      -6440.161      -692.3027       3870.938       8928.600       9302.586
       2060.276      -4468.863      -4963.155      -960.7546       1493.613
       443.0044       95.94141       2120.019       2433.887       336.2373
      -2721.115      -4947.498      -5068.943      -8033.605      -8540.027
      -852.4463       1344.492      -542.3428       3690.840       5439.482
       585.7866      -2128.000      -3951.033      -7930.673      -7194.205
       2122.297       9159.623       6858.744       5169.865       5933.378
       719.5469      -2273.113       4377.727       10931.01       10854.60
       9417.863       9091.629       6361.326      -1370.570      -7233.590
      -7634.930      -8452.990      -11142.20      -10028.70      -3663.630
       1913.896       4509.902       7520.117       8441.039       3902.459
      -4923.959      -8847.215      -2895.177       319.1047      -1234.199
       2933.410       4141.475      -2754.627      -5459.681      -674.2773
       3643.369       6136.139       6320.937       2097.846      -426.1621
       5095.328       8302.333       3831.801       3076.824       7188.791
       7884.674       6209.869       5826.273       7123.141       4114.287
       1646.273       6453.910       9263.399       6128.104      -598.0918
      -5626.226      -3053.585       2348.854       6599.840       7198.743
      -693.4414      -7837.083      -791.1504       6928.637       3271.234
      -2250.123      -3381.628      -1341.012       4727.305       15055.28
       22173.40       17983.63       8742.786       1097.504      -5465.402
      -6877.747      -378.1641       5752.853       5712.889       3786.443
       5061.970       3843.813      -1627.227      -8680.234      -15242.81
      -13731.21      -1759.613       7834.524       5566.011       237.0815
       418.9937       2804.148       2019.556      -391.1289      -2012.969
      -4995.139      -5309.486      -4472.734      -3757.156      -1655.148
      -985.2202       1404.049       2800.528      -211.3773      -807.3516
      -422.7832      -2102.041      -872.4014       4545.814       7056.233
       4869.766       378.0171       223.2871       5958.730       10553.38
       14580.38       14208.71       4230.083      -2126.076       5147.727
       14016.86       9312.004       140.2012       4108.438       20910.53
       30923.23       26744.54       13625.40      -1581.219      -1654.972
       6425.358       891.9766      -8018.523      -12762.42      -20868.56
      -30604.33      -51110.19      -81752.36      -89190.58      -61169.09
      -28190.75      -22112.41      -44726.97      -84996.56      -115391.9
      -106363.5      -54780.64       25391.47       93438.31       108360.2
       84161.09       58068.98       46392.58       56591.94       89576.19
       119849.9       116233.5       72693.75       12441.98      -37071.12
      -62877.59      -52774.80      -17906.20       5377.059       15075.02
       14690.42      -13834.72      -55755.47      -66493.38      -38213.63
      -15183.61      -14866.04      -6415.637       6495.231       2026.139
       1798.031       21739.40       40514.41       43153.51       25380.78
      -6005.438      -34121.14      -45586.52      -33217.51      -13116.29
       1643.641       18921.43       21443.71       4572.252      -1848.812
      -5716.211      -30881.83      -48699.57      -34405.77      -5006.672
       10680.99       12209.77       26498.45       39662.69       30857.67
       20092.68       17260.48       10750.08       1616.477       4733.039
       15281.77       12421.38      -1312.504      -10984.45      -22916.39
      -35444.27      -47696.80      -63440.59      -72380.14      -68366.10
      -39711.95       5539.836       32853.55       32515.96       15714.31
      -7148.203      -27653.99      -33538.32      -12334.00       15133.25
       26975.22       33618.16       41918.98       44718.03       29007.43
       8599.512       9902.328       23696.46       20303.50      -3126.742
      -28407.03      -44192.34      -31454.58       3974.633       23077.00
       16555.40      -3730.117      -26629.12      -47280.53      -57346.66
      -48257.40      -32807.08      -12081.05       17648.30       34999.11
       24514.40      -833.6016      -15992.09      -22082.51      -20282.13
       3394.844       40338.91       62009.06       55690.49       31173.86
      -4526.434      -23589.14      -10680.92       3894.427       6326.180
       374.6250      -1860.406       11370.46       25477.95       25473.25
       14178.85      -4977.172      -27346.45      -46843.41      -48870.19
      -28451.81      -5586.141       14015.43       28293.06       27515.96
       16374.58      -244.8203      -18271.51      -28775.60      -28293.63
      -18787.33      -5065.066       2131.041       5240.320       15425.12
       29411.70       36471.34       32634.67       21155.67       370.2812
      -25635.81      -33672.41      -21905.38      -6689.188       9570.641
       24863.94       29487.73       12240.12      -14769.34      -23751.85
      -16011.23      -9233.656      -9215.596      -7396.299      -5181.164
      -10752.03      -17203.85      -14020.87       3613.938       20586.98
       20310.23       11679.42       2728.102      -10301.55      -22384.46
      -18470.69       2972.305       27655.84       38157.66       31020.91
       12567.45      -10670.84      -23582.10      -14984.61       1032.123
       5840.016       8124.422       17226.34       25819.25       27386.72
       15632.38      -4998.594      -23076.14      -36188.08      -35120.83
      -12693.93       6511.883       13108.70       25743.91       39664.88
       38828.79       22888.58       3157.316      -10887.79      -22697.79
      -27463.17      -19620.69      -9440.446       599.3047       11477.32
       12955.31       3700.607      -7906.432      -12034.34      -3605.914
       8305.352       16271.50       15820.12       5406.193      -4217.555
      -8213.605      -8761.568      -1258.508       19870.71       34582.82
       24082.53       8051.042       2106.926      -5528.945      -17465.27
      -21563.07      -14972.81      -2194.687       4361.086      -4406.312
      -17377.42      -22987.51      -18486.76      -9830.854      -4568.536
      -3517.628      -4992.629      -5902.262      -2165.430       7501.141
       14448.34       13854.48       15862.32       21873.00       31065.24
       36527.82       24979.80       5947.374      -3813.149      -5226.766
      -1293.742       9352.820       18930.35       16807.59       6268.855
      -4191.797      -9204.219      -10430.00      -15099.62      -21940.50
      -25137.56      -21973.49      -15458.40      -12236.40      -12035.70
      -11003.81      -12365.43      -14442.62      -11340.01      -6484.615
       2484.754       15358.06       21239.87       16705.65       5187.017
      -4276.356      -794.8203       7152.355       11373.81       14525.70
       14404.76       9144.485       410.8794      -3485.536       3497.406
       8842.288       3757.365      -168.6172       1692.613       2826.412
       4862.688       14483.70       27695.91       30807.47       19720.09
       2693.180      -9653.047      -15419.36      -15557.31      -13101.18
      -9134.943      -4459.995      -2533.656      -2574.518      -3885.270
      -7882.586      -15491.12      -17889.50      -6893.910       9171.344
       22035.95       31005.60       32884.85       26035.97       17012.63
       10182.24       729.8789      -11682.11      -14272.97      -5561.562
       2023.072       5140.588       3483.475      -6506.570      -15991.27
      -15422.82      -12371.58      -15050.21      -16286.03      -7588.008
       5076.440       8045.195       151.0342      -3963.828      -4027.953
      -11461.74      -16992.43      -17368.27      -21492.84      -19190.07
      -8596.453      -3058.075      -1824.883      -6578.516      -19318.06
      -28755.76      -30180.69      -25816.84      -14285.95       2800.918
       15881.78       15575.12       11882.21       15891.54       22466.95
       29676.16       35496.42       38098.12       36949.52       27587.54
       13830.02       1353.228      -4269.151      -160.3809       6174.513
       6361.041      -3446.430      -20508.27      -29975.13      -24575.53
