     0.02500000      -793539.5       1225878.      -12345.00      -12345.00
      -30.00503       217.3199      -18.88000      -12345.00      -12345.00
       0.000000       13.88000      -12345.00      -12345.00      -12345.00
      -12345.00      -12345.00      -12345.00      -12345.00      -12345.00
      -12345.00      -12345.00      -12345.00      -12345.00      -12345.00
      -12345.00      -12345.00      -12345.00      -12345.00      -12345.00
      -12345.00      -31.03680      -69.52500       1657.000       0.000000
      -31.54000      -68.94500       0.000000       103500.0       0.000000
      -12345.00      -12345.00      -12345.00      -12345.00      -12345.00
      -12345.00      -12345.00      -12345.00      -12345.00      -12345.00
       78.50209       315.1422       135.4420      0.7058266      -12345.00
      -12345.00      0.3908530       0.000000       90.00000      -12345.00
      -12345.00      -12345.00      -12345.00      -12345.00      -12345.00
      -12345.00      -12345.00      -12345.00      -12345.00      -12345.00
      2008        49         8        51        22
       580         6    -12345    -12345      9894
    -12345    -12345    -12345    -12345    -12345
         1         7        13    -12345    -12345
    -12345    -12345    -12345    -12345    -12345
    -12345    -12345    -12345    -12345    -12345
    -12345    -12345    -12345    -12345    -12345
         1         1         1         1         1
NUEV    -12345          
        -12345  -12345  
-12345  -12345  -12345  
-12345  -12345  -12345  
-12345  -12345  -12345  
-12345  -12345  -12345  
-12345  -12345  BHN     
ZL      -12345  -12345  
[...]
      -656.3699       64.09497      -635.8856       87.82043      -618.3163
       114.1792      -592.1852       133.7907      -572.9775       153.0042
      -551.6234       180.7130      -528.9169       205.0283      -507.5670
       225.6035      -485.5492       242.6332      -471.1408       266.6835
      -456.2280       281.4092      -428.6689       306.4561      -404.9147
       336.8938      -386.6335       350.9915      -367.3414       368.3926
      -346.8883       398.2195      -323.5912       423.1961      -300.9965
       437.9078      -287.5305       462.7581      -262.4391       481.7669
      -238.5917       511.6802      -217.1910       530.2103      -204.7849
       539.7283      -196.3625       553.5434      -179.3374       567.5571
      -167.4359       581.2913      -159.6495       589.8168      -153.1034
       596.0623      -150.4858       596.7789      -153.1732       596.5536
      -144.8418       602.7696      -148.5198       605.7062      -151.3102
       594.1702      -148.3967       605.4419      -150.3029       608.5955
      -145.1838       608.5193      -138.6395       613.0487      -142.6748
       616.6315      -137.8000       617.1155      -137.5842       627.1750
      -130.5551       635.5236      -114.5938       651.3308      -104.6847
       658.4424      -103.8171       658.5908      -103.1688       664.6564
      -94.11548       676.0003      -92.53687       678.0782      -87.33997
       679.6985      -85.15906       689.3777      -85.96545       684.0446
      -83.28772       683.7831      -91.07629       687.4192      -85.15759
       692.0834      -80.22302       694.0687      -78.76318       698.7922
      -79.33215       697.1604      -81.04968       694.4007      -86.06006
       693.3090      -80.49475       700.5159      -80.60193       703.7200
      -78.72803       701.7256      -78.76599       703.6471      -82.37390
       701.0497      -83.41138       702.3987      -88.39600       694.7494
      -88.57617       696.8839      -92.61194       696.2322      -99.58203
       690.0289      -98.25281       688.8810      -103.6890       693.0518
      -99.10632       692.9778      -93.31238       702.0951      -99.39453
       698.9473      -92.24353       704.6448      -86.05969       720.8007
      -72.74731       732.7848      -62.89612       741.9406      -49.72852
       755.6721      -38.21375       765.3338      -30.57202       777.2187
      -19.52051       784.4106      -13.20776       797.8085     -0.6354980
       809.2773       8.267334       810.6283       8.309082       820.2335
       18.11328       822.4141       22.77637       833.3040       29.18445
       838.5810       29.50806       839.5786       32.41162       840.5076
       30.47510       845.4447       35.65271       845.9893       38.36401
       850.2258       40.74194       862.6044       52.90063       864.0808
       53.00854       864.4838       50.14624       868.3669       55.03711
       870.6055       56.41394       875.8199       55.83276       876.1461
       61.76025       879.4996       62.74756       879.8472       57.13965
       878.9073       56.14893       880.0557       61.00122       880.3584
       52.60583       873.7874       45.11804       864.9115       32.69434
       856.5668       32.23511       852.9979       23.93042       848.1302
       14.60913       840.8658       11.56213       833.6633      -5.423218
       819.5823      -12.79907       809.2073      -23.82910       802.5598
      -34.29565       794.3284      -36.44348       793.5266      -43.33142
       782.3488      -58.70386       766.8694      -73.03735       759.2333
      -80.16980       748.4418      -91.17371       737.3175      -104.1318
       723.4521      -126.0388       707.9527      -139.1222       685.6647
      -159.4144       668.4910      -176.1309       655.5428      -195.6512
       634.4687      -219.0569       614.7212      -234.7513       594.4485
      -251.9325       580.7597      -272.1753       561.7264      -288.7819
       541.0601      -313.1058       524.6545      -321.7466       515.5245
      -344.0071       497.2221      -315.5106       484.2170      -300.9221
       489.0547      -3884.020      -10939.65      -15931.04      -14120.20
      -15364.86      -14191.50      -15680.44      -19312.73      -17050.22
      -3162.775       2145.777       6384.281       15342.42       16174.03
       3346.020       9459.566       24903.39       14085.00      -9879.758
      -12097.80       664.7383      -1930.012      -9752.585       11106.95
      -818.4805      -21443.17       3172.461       32642.74       16437.12
      -32064.02      -41421.18      -5366.139       2256.684       15482.14
       28452.02      -8144.738      -29373.62       5157.898       34725.59
       38276.93       27904.74       17322.59      -3623.069      -12453.00
       9842.219       16349.21      -12274.27      -29317.30      -27471.49
      -7223.166       3649.702       3824.258      -8374.605      -25177.65
      -3140.805       38401.46       37845.54       16790.61      -8390.836
      -22644.83      -15485.65       12224.02       28989.46       5464.129
      -19025.70      -5709.391       14430.03       12788.03      -15752.00
      -20506.88      -4819.668      -7176.699      -12418.34      -3873.320
      -11029.33      -24488.43      -10349.45       25766.21       22253.38
       8746.885       1440.376      -1607.254       15268.21       18272.53
      -4090.672      -20159.16      -26439.54      -11078.47       11072.98
       7408.834      -11425.05      -9803.691       3950.594       17201.62
       15396.69       7317.227      -8952.191      -16481.21      -2877.845
       2561.473      -16949.37      -17504.23       2541.049       11719.98
       3446.676      -1778.578       4136.818       10905.83       8275.918
       10122.32       2148.045      -2971.758      -7402.500      -10610.21
      -8848.396      -7303.372      -3501.106       164.5488      -3835.823
      -150.2188       6871.523       21164.07       16754.99      -447.2097
      -133.6406      -3752.109      -22000.02      -18974.38      -2637.481
       5574.909      -354.0986      -1585.102      -2725.683      -2714.709
       1774.912       10981.31       6905.206       3701.250      -1843.170
      -12092.89      -4235.453       10678.92      -1579.359      -22468.68
      -21764.60       3020.211       26676.74       27569.18       7094.642
      -4120.707       3734.555       14329.56       8518.057       8434.883
       1243.207      -520.9888       5942.281      -5630.758      -20776.17
      -13214.57      -1790.297       5531.612      -1282.153      -2751.764
      -5784.172      -15445.39      -15156.99       4561.094       24251.24
       17472.36      -11555.06      -31826.52      -26183.96       2328.859
       13897.15       8560.346      -3186.492      -1244.930       11463.30
       32693.30       45302.74       22284.09      -1302.270      -7936.195
      -21139.54      -11118.61       1598.023      -11241.77      -27788.00
      -19652.09      -2170.504       4893.354      -2021.614       2149.979
      -883.9531      -12356.27      -5341.697       11665.25       13157.88
       3633.580      -6258.578      -10867.01      -12139.20      -891.7305
       4275.047       9164.826       10982.90      -2665.301      -15918.67
      -3655.976       1060.969      -9366.512      -2853.053       11360.02
      -1185.196      -6807.233       1042.768       113.1602       4159.258
       21164.01       32963.70       27147.66      -4263.266      -24790.51
      -30673.54      -20023.39      -1944.584       12518.54       5263.008
      -9111.949      -5860.109      -12586.93      -20193.23      -5621.938
       12554.34       26805.74       20036.29       6979.565       565.6895
       10350.44       9802.402       2460.567       2124.982       11193.85
       1764.508      -12162.69      -7967.332      -5957.105      -10876.13
      -10969.59       60.97070      -61.04297      -6222.377       8964.395
       9278.657       2819.541      -2082.092      -10738.36      -10029.96
       835.4395       1952.683       3482.300      -2993.684      -3327.049
       2543.810       5481.482      -3506.042      -3478.627      -82.56641
      -6554.070      -4639.941      -9413.480      -25396.80      -13138.41
       12628.79       17665.40       12832.29       12176.16       2891.387
      -5842.160      -12669.02      -2533.680       1730.031       5565.309
       13737.99       5638.869      -7407.716      -2697.691       7352.872
       5763.553      -8438.807      -3672.494       9214.082      -3042.184
      -14264.85      -2410.047      -1391.098      -6955.797      -6768.899
       2090.518       1674.502      -738.2104      -596.7500       4748.479
       8185.736       1717.326      -8318.348      -781.7227       12207.77
       9713.025      -2078.473      -6495.686      -7700.641      -17082.93
      -22618.56       51.37109       17477.84       13815.31       2766.456
       4652.027       3723.765      -88.31836       5091.358       5362.500
      -9639.148      -20244.07      -18992.16      -1210.832       15668.16
       26305.72       25430.61       12639.36      -7500.867      -10441.00
      -8837.148      -14055.86      -6028.559      -2837.000      -21353.16
      -24649.22      -4462.344       13163.27       12957.49       14996.85
       5993.028      -4370.419      -4152.156       6021.844       18077.35
       13557.61       6224.553       9346.115      -1118.883      -17192.58
      -10356.68       12009.53       12217.60       4338.356      -2145.184
      -6095.238      -18559.45      -16936.88       2139.984       897.1875
      -13864.13      -19747.22      -14957.07       1323.687       3475.107
      -3371.750      -15923.05      -12529.84       10424.85       25241.48
       24461.30       16403.15       16211.27       14367.29      -7069.502
      -10335.66      -5434.200      -883.9609      -651.6758      -7122.922
      -13057.97      -26745.51      -21875.29       8994.016       16353.16
       1383.094      -11256.31       4649.320       21138.22       25529.84
       17356.18      -6983.918      -18735.16      -15653.32      -9228.309
       8013.610       6250.177      -6493.512      -1123.201       4510.402
       6685.322       9746.414      -11861.13      -17711.76       5184.621
      -5208.383      -30002.52      -12385.93       5310.348       1827.125
      -5250.298      -745.1562       9243.195       21873.74       24834.40
       14556.96       18736.90       37227.88       22527.33      -9226.086
      -23633.57      -20783.12      -8513.955       2443.923       978.5444
       1473.388      -351.6621       8553.529       11961.54      -8876.340
      -16288.89      -10593.41      -15862.74      -27778.21      -31289.39
      -9164.305      -8193.602      -20695.41      -8655.941       8284.011
       144.6562      -10921.06      -5117.147      -2332.910       7481.762
       25185.13       13003.27       1269.709       3371.945       10835.50
       25717.48       22592.56      -3903.555      -34848.73      -52955.99
      -11561.14       30750.81       13804.68       5741.855       12954.18
      -4218.875      -8724.992       18486.02       25292.85      -10887.29
      -24018.05      -13401.32      -6920.613      -7234.602      -10337.12
      -20575.85      -34524.64      -25320.59       11266.64       23374.62
      -24611.23      -59473.34      -26810.51      -1347.422       12817.23
       31476.21       27313.82       1957.881      -11520.86       22518.28
       68468.54       52242.48       5761.559      -12868.49      -26362.09
      -51863.79      -27157.67       24486.82       18216.56      -1927.590
      -11596.44      -36056.64      -19415.37       20698.13       31891.16
       15153.53      -863.7891      -10558.03      -18281.37      -20159.84
      -14936.69      -15619.59      -24224.14      -6499.249       6664.822
      -2825.688      -15931.70      -41624.85      -33643.82      -6909.703
       10897.90       16409.91       108.2715      -4060.219       29943.25
       61572.52       49182.05       5863.426      -21463.79      -20649.50
       3723.152       26427.64       5729.758      -31786.02      -30123.61
      -3238.609       24844.95       30144.35       15033.29      -26.82812
      -14402.59      -15859.67      -9659.031      -17578.72      -42527.81
      -52240.53      -19309.17       220.9863      -6346.055      -4083.000
      -3593.082      -10570.59      -4194.562      -17318.84      -56122.81
      -61495.62      -76692.50      -144404.9      -198612.6      -228859.2
      -241686.8      -224577.3      -165943.8      -9159.250       342538.5
       853374.0       1225878.       1195376.       825754.5       435192.7
       323408.2       389767.0       439056.4       493522.7       341011.8
      -165487.5      -571574.8      -665728.8      -793539.5      -779990.0
      -257757.9       365047.6       458001.2       52060.75      -296539.2
      -547441.5      -689669.4      -408954.1      -117646.8       21435.00
      -47730.88      -420527.8      -469732.9      -400867.4      -394674.7
      -77412.19       170034.9       316509.5       338915.9      -89918.50
      -546561.8      -643014.2      -254084.4       453328.6       784015.9
       342739.5      -241498.3      -254806.2       92136.50       422383.8
       602558.8       427566.9      -12133.75      -266390.2      -164307.5
       63841.34       183479.3       90089.81      -205102.5      -306267.8
      -162089.0      -79980.20      -19018.18       39058.31       4771.000
      -142040.6      -230880.2      -62357.03       185151.6       214722.6
       218826.1       282542.6       242631.0       201170.9       174604.3
       72691.81      -138027.4      -390452.6      -487370.9      -392362.8
      -264651.2      -106324.0       17197.56      -55307.91      -152223.9
      -73928.19       77152.78       153190.4       158651.3       120312.0
       94348.00       69807.77       34745.22       52786.44       84846.75
       106671.4       80616.38      -5682.875      -75016.78      -134236.6
      -172822.2      -91536.09       86378.00       248831.0       292916.2
       108757.9      -63936.66      -96097.27      -45001.28       127079.9
       167168.5       20517.22      -84689.19      -113076.4      -60208.92
       11699.34      -42601.47      -119048.1      -110465.1      -76127.56
      -15624.02      -7114.906      -90589.44      -137640.4      -62564.41
       74280.50       140893.3       97842.61       36886.20       40580.43
      -10526.17      -66579.77      -48169.25      -41047.77      -12398.25
      -76595.17      -105240.6       16029.70       51587.03       79654.31
       160098.8       210102.2       291705.8       251961.0       49480.50
      -90928.03      -160519.3      -182455.8      -129314.4      -44554.29
       10950.19      -35873.92      -76692.73       13581.73       83261.75
       53053.12       32548.22       65500.00       140845.3       182377.8
       138118.9       34435.16      -64101.09      -113015.3      -170700.3
      -209031.6      -222012.8      -218720.8      -162110.0      -85991.34
       70566.34       175487.0       154298.2       123866.8       45733.75
      -22738.66       14118.52       73534.71       64026.17       627.8438
      -44289.41      -45341.06      -43377.38      -45506.50      -94934.16
      -135084.0      -151767.9      -147480.5      -66328.89      -45870.36
       12744.97       122348.6       139709.9       189310.4       210736.3
       150326.4       106676.0       48667.13       5202.832       6452.188
      -32604.56      -121038.1      -193382.6      -229307.1      -189222.1
      -93833.48      -30988.05       24407.11       55080.81       60679.53
       112919.1       164204.9       181438.7       152662.6       124937.9
       113966.0       44968.75      -77935.56      -145904.2      -92157.62
      -33003.19      -12240.53      -14586.80      -55007.62      -79298.98
      -54942.64       23430.16       28613.06      -80805.88      -141101.0
      -114890.6      -47857.77       18125.39       27762.43       19267.27
       18100.72       10032.70       18866.05       48271.94       60363.27
       72153.08       93211.81       74490.48       77737.66       98819.49
       45427.96      -13149.54      -19480.97       10643.34       78229.25
       118498.6       58001.12       7997.041       16056.23      -46752.20
      -105721.7      -46813.80       23143.80      -26102.38      -165673.3
      -232828.3      -169609.8      -106169.0      -98097.73      -35147.58
       32978.58       41124.37       22846.78      -16911.67       3849.906
       59950.88       109412.2       166747.6       135858.2       38099.58
      -25282.77      -24090.79      -3355.781       25576.91       61352.52
       33803.77      -26136.28      -97025.41      -119059.0      -20347.22
       70058.18       49043.54      -38487.75      -102786.8      -102422.4
      -13794.19       87173.73       55212.48      -19777.06      -46132.27
      -63957.16       3057.531       122819.6       171693.4       85327.19
      -83381.38      -144170.2      -99906.91      -62315.56      -10450.31
       1925.562      -41489.41      -92158.66      -111735.9      -65802.09
      -26461.62       6129.391       32660.55       53838.66       93421.84
       83299.55       74499.00       111952.0       151082.8       158561.1
       149776.6       127504.3       51460.67      -6999.422      -21798.95
      -67316.31      -117692.7      -150079.5      -146674.2      -96025.20
      -62020.75      -31397.99      -1416.852      -22534.02      -47380.58
       5091.719       81787.34       91797.62       123950.9       194672.7
       194467.4       137279.0       104006.9       80775.94       62873.84
       68446.08       7087.250      -93287.81      -124155.3      -133990.9
      -129934.7      -137912.2      -165898.8      -161986.4      -145812.2
      -118979.8      -119584.6      -130856.5      -113888.3      -51154.17
       8199.281       35632.06       96532.06       116130.9       59480.92
      -27933.06      -73537.63      -42936.93       6068.887       22323.73
