     0.02500000      -916484.4       1196939.      -12345.00      -12345.00
      -30.00503       217.3199      -18.88000      -12345.00      -12345.00
       0.000000       13.88000      -12345.00      -12345.00      -12345.00
      -12345.00      -12345.00      -12345.00      -12345.00      -12345.00
      -12345.00      -12345.00      -12345.00      -12345.00      -12345.00
      -12345.00      -12345.00      -12345.00      -12345.00      -12345.00
      -12345.00      -31.03680      -69.52500       1657.000       0.000000
      -31.54000      -68.94500       0.000000       103500.0       0.000000
      -12345.00      -12345.00      -12345.00      -12345.00      -12345.00
      -12345.00      -12345.00      -12345.00      -12345.00      -12345.00
       78.50209       315.1422       135.4420      0.7058266      -12345.00
      -12345.00     -0.1786459       90.00000       90.00000      -12345.00
      -12345.00      -12345.00      -12345.00      -12345.00      -12345.00
      -12345.00      -12345.00      -12345.00      -12345.00      -12345.00
      2008        49         8        51        22
       580         6    -12345    -12345      9894
    -12345    -12345    -12345    -12345    -12345
         1         7        13    -12345    -12345
    -12345    -12345    -12345    -12345    -12345
    -12345    -12345    -12345    -12345    -12345
    -12345    -12345    -12345    -12345    -12345
         1         1         1         1         1
NUEV    -12345          
        -12345  -12345  
-12345  -12345  -12345  
-12345  -12345  -12345  
-12345  -12345  -12345  
-12345  -12345  -12345  
-12345  -12345  BHE     
ZL      -12345  -12345  
[...]
      -8.588013      -548.5573       3.943726      -534.8296       14.88257
      -518.8716       26.40735      -509.5678       45.07190      -495.8719
       65.62280      -466.7590       88.91785      -449.5966       109.7403
      -425.0203       133.5578      -400.9502       156.0428      -378.8728
       182.0913      -355.7219       207.7420      -334.6294       222.4515
      -317.3303       238.8117      -297.0611       262.9373      -286.2329
       274.1010      -265.5492       288.1599      -255.8902       307.1874
      -235.4508       323.6695      -216.1108       343.7359      -205.2536
       355.1967      -199.4540       358.8966      -186.0992       373.5596
      -175.4615       392.0474      -162.4345       398.7181      -149.1728
       410.3119      -149.9510       406.6122      -145.9503       422.2541
      -131.2777       433.2692      -121.7413       449.5627      -100.7215
       459.4864      -98.55347       469.0909      -90.90491       472.7886
      -87.20959       477.0559      -79.97894       486.9482      -73.30701
       483.9513      -82.23157       477.3937      -85.98822       474.0908
      -95.00787       468.6069      -100.5139       455.6631      -112.2684
       449.3051      -121.6090       431.2699      -141.6713       415.8052
      -160.1445       396.4452      -177.0433       380.7168      -199.1423
       358.2220      -220.4754       333.1511      -250.8548       303.6109
      -277.0546       279.6436      -303.6930       248.2640      -334.5981
       222.1167      -368.3456       186.8110      -391.9180       168.2994
      -415.5161       139.2426      -444.1795       108.6205      -484.1216
       77.80304      -506.2240       54.72900      -523.6702       30.74829
      -552.7620       12.46277      -574.0071      -10.49707      -587.4827
      -24.72876      -604.8087      -40.22644      -619.0031      -49.68250
      -627.7252      -61.83398      -635.4731      -64.46436      -642.5786
      -68.71838      -647.3349      -72.01416      -643.1182      -67.70520
      -642.4492      -67.79468      -645.4491      -75.85278      -647.2052
      -67.14917      -643.1200      -64.63672      -642.3142      -66.75281
      -636.3611      -53.89868      -636.4248      -54.88025      -631.0807
      -57.53809      -634.6800      -51.79077      -632.7562      -57.10254
      -631.7604      -54.51611      -636.5742      -51.53308      -626.4756
      -48.08398      -625.1225      -47.02344      -620.5079      -30.96790
      -606.4706      -24.86389      -603.6980      -20.69604      -592.6646
      -7.614868      -583.9299      -1.967529      -579.0930       6.578247
      -565.7313       22.42908      -559.1201       32.09058      -537.9649
       45.60205      -532.7175       55.37769      -527.8096       59.14716
      -517.8260       68.84271      -507.9250       80.28992      -506.1077
       83.77026      -491.8382       88.65405      -497.4085       88.71924
      -490.6715       95.05774      -492.6667       92.01532      -485.9118
       92.63971      -495.8017       90.80402      -493.1796       81.03497
      -507.5524       72.45172      -508.8856       76.22406      -506.0858
       74.74670      -508.2422       72.54761      -511.6022       68.81720
      -518.3156       63.06323      -524.7507       61.82922      -520.2834
       59.80780      -520.5504       61.01825      -527.3298       54.85254
      -531.6165       55.33057      -532.5568       42.53687      -546.6266
       38.69568      -544.2066       34.77856      -555.2968       32.37598
      -560.1725       13.83716      -572.7626       14.00439      -576.1727
       9.861938      -577.2820       3.310181      -583.5438       3.500854
      -592.3602      -4.856812      -591.8121      -8.424561      -606.0654
      -14.54199      -591.2003      -21.04456      -651.1357      -8.143677
      -615.4941       61.82227       2785.400       9476.766       7976.195
       5131.242       9210.359       10690.16       11729.02       18534.33
       8860.445       346.1250       7608.184       6156.866      -2937.779
       6735.264       5213.664      -17202.11      -16881.81       9282.899
       12129.44      -9676.445      -16499.28       12415.02       3174.531
      -26971.99       7838.156       24670.75      -33090.86      -29671.35
       38439.15       25594.79      -11234.56      -1993.938      -28068.16
      -24864.22       23517.47       24961.59      -3463.945      -30629.82
      -25374.07       10929.85       15738.25       7049.559      -19838.98
      -29899.71      -7932.876       274.2148       10208.80       11120.41
      -18552.14      -32074.89      -7317.227       27562.48       15827.98
      -10239.50      -11603.28      -14139.42      -10567.05       12182.76
       16672.05       832.3193      -3617.648       10608.96       5809.768
      -2770.225       3032.804      -1704.861      -4685.791       6672.840
       12552.66      -5858.262      -10051.94       8746.252      -5929.221
       3323.833       5052.210      -4648.532       6793.112      -8040.949
       2850.078       28245.60       6638.645      -16296.04      -13913.48
       10763.15       23612.70       16270.67       8146.188      -85.48047
      -14789.70      -16864.84      -5777.547      -2585.900      -10439.22
      -3023.625      -1842.404      -11076.67      -9525.709      -5613.305
       8041.875       20734.88       6110.669       544.5576       1430.250
       5742.516       13036.72       14810.90       8287.732       225.2842
       2559.176      -4739.223      -16649.88      -4837.040       102.3477
      -7275.457      -6121.945      -2304.977      -15621.27      -16919.13
      -8259.322      -11401.47      -7223.883       12313.80       14621.73
       5356.983      -1720.133       8147.629       19266.34       16380.06
       25636.38       20526.93      -3109.766      -6443.809      -9149.406
      -12547.24      -1533.749       2531.758      -18607.06      -21857.38
      -12990.51      -1973.361      -1704.465      -10617.90      -5729.200
      -3522.193       5164.879       15278.65       14058.44       34174.66
       29499.75      -2835.826      -11488.73      -1804.719      -800.8984
       14730.25       18204.36      -4544.228      -3850.236       7677.520
       2928.578      -7328.619      -6580.727      -10251.84      -16903.01
       9345.999       1651.680      -16482.78      -2918.121      -7606.014
      -2925.605       10435.66       3756.749      -1756.035      -11837.60
      -3193.977       6449.617       4970.496       11689.02       5635.088
      -2429.257       615.3184      -7703.188      -5951.973       4458.539
       1440.288      -6258.330      -4131.750      -9229.330       5881.871
       19780.04       10839.50       4436.551      -2385.039      -13512.63
      -3765.762       11984.28       13588.40       1742.514      -10829.95
      -5175.711       8356.801       10208.96       5012.389      -9380.356
      -3618.994       13462.75      -4611.936      -11411.15      -1062.512
      -9686.053      -285.3760       3018.527      -4801.605      -10563.46
      -8424.781      -8078.117      -5938.703       15332.35       17605.67
      -6339.685      -4351.648       11121.96       4878.621      -15678.65
      -8150.689       5492.393      -4416.550      -1534.412       11134.33
      -4200.645      -11785.07       3027.703       11328.92       13854.48
       8764.006      -8342.846      -5878.060      -6084.270      -1123.051
       8408.427      -3742.609      -9589.202       2871.717       5951.851
      -1984.674       5580.473      -1287.168      -14810.86       7252.047
       14317.27       11962.24       2801.207       6998.692       11403.27
      -16145.18      -26716.47      -9733.406      -11080.08      -16041.49
       6735.219       20353.77       2933.945       880.9395      -6152.535
      -5901.125       9002.934       16491.82       27116.49       11941.79
       104.4648      -4678.357      -17241.64       10888.70       27458.13
       13628.73      -18157.01      -37207.59      -19414.12       4993.188
       17323.39       8363.902      -8124.071      -2037.493       4678.803
       3634.388       8267.793      -9123.926      -22087.49      -10349.44
      -14107.93      -4765.160       8594.238       16467.92       11375.08
      -3166.574       536.0410      -685.7295      -8721.329       2801.765
       130.7344      -5901.223      -9406.056      -8687.910       9897.174
       11975.61      -876.3057       3138.448       4057.392       1216.806
       1943.402      -4467.324      -11517.72      -8781.293       1640.508
       17379.96       17342.89       3542.164       3409.836       22321.57
       7170.209      -10043.98       4588.164       5097.119      -4008.664
      -4789.148      -12896.12      -10316.77      -18713.00      -17929.95
       5095.098       5279.165       4335.010       2861.254      -10348.50
      -7554.621       12094.29       20022.14       1090.814      -5316.859
      -12036.52      -7751.174       7586.312       1454.686      -7040.362
      -3962.102       11278.99       31612.79       15887.09      -4425.547
      -590.7109      -10610.69      -11358.84       1543.375      -19596.75
      -26560.42      -19396.31      -16661.88       13912.86       25417.60
      -549.9922       14781.75       33191.34       8456.395      -21132.54
      -25814.22       963.4512       13482.46      -6011.863      -14889.66
      -13974.04      -7429.947       3532.734       22115.93       33036.88
       13766.87      -3207.727       17776.17       12185.86       4966.359
       23247.22       1918.172      -24078.14      -22363.43      -4102.695
       8639.262       1281.961       16134.53       713.8828      -29429.22
      -26174.04      -13601.00       10903.12       14049.55      -6318.295
      -11492.79       2946.336       23423.93       14330.83       8023.453
       18566.73       11312.57       2460.300       4414.547      -8889.559
      -15855.24      -8613.256       336.7251       2195.867      -7432.195
      -16270.95      -11107.28       2661.776       1509.284      -7058.043
       11479.05       13130.58       5167.104       10607.62      -1059.102
      -611.0703       13151.69      -4424.693       3544.166       13525.71
      -5220.718       2767.396       1987.859       5500.504       9962.125
      -25404.93      -28963.33      -7233.655       1172.861       3198.436
       4036.875       3372.357       3257.309       4773.109       32844.48
       40164.59       9211.486      -7347.391      -11251.11      -5587.203
       10863.14       13042.73      -6759.562      -19799.86      -12135.06
      -1930.336       15430.00       12722.87      -2499.781      -21087.12
      -36262.18      -20690.45       10754.62       25692.66       20590.89
      -17.57031      -25243.14      -15143.03       6359.805       7409.535
       18598.02       6893.259      -6193.709       3223.502       6699.023
      -6159.469      -4982.258       17759.53       7383.025      -5759.241
       6469.502       385.8750      -5656.906      -25870.52      -31734.52
       15962.67       63006.41       45392.63       2053.550      -4704.125
       1456.336       9430.391       27573.39       35931.17       28777.78
       4462.484      -13870.01      -2092.406       18064.11       21323.84
      -5930.062      -47393.37      -49891.42      -15068.59       19941.13
       19507.20       15757.40       16231.37      -4645.945      -20532.91
      -16836.10      -332.9727       21760.91       10501.20      -17543.44
      -21098.34      -11924.10      -4199.520       5007.184       8041.960
       5179.149      -2189.484       7780.490       10827.56      -17585.86
      -25143.34      -28940.67      -31605.34       18705.59       23754.98
      -3440.094       20599.54       40884.04       12876.48      -8822.934
       13313.20       12321.79       1531.352       5456.330      -4807.366
       4981.646       6010.324      -10993.73       362.0938       13496.96
       14481.68       16037.38       7770.629       9104.492       11115.34
       25710.43       38611.77       31054.27       27606.38       45760.09
       74946.95       67077.45       35107.53       40756.88       112190.1
       175379.9       134596.8       59689.30      -20587.12      -111931.5
      -173125.9      -289518.1      -494715.5      -705606.8      -888581.0
      -916484.4      -709801.1      -379619.3       8670.500       399002.6
       478242.2       72737.50      -411846.0      -554424.0      -425399.7
      -80508.25       361585.2       535914.9       293369.2      -311875.8
      -604118.4      -153864.2       349803.5       695124.2       1098777.
       1196939.       722590.6       288067.4       306069.3       237302.8
       45227.22       50434.81       97231.59       116621.1       96519.00
      -75163.50      -307508.0      -352957.2      -314257.5      -213407.4
       67971.50       288791.0       294563.0       115459.0      -225892.1
      -348471.1      -82436.88       31175.89      -6421.328      -4335.812
      -106811.9      -220704.1      -280263.7      -81339.34       21179.00
      -188845.3      -128970.8       36581.80       18467.94       19680.33
       44953.06      -58257.16      -151906.6       102650.9       392058.3
       250358.8       5776.812      -12623.56       134014.2       196852.5
      -27207.50      -248613.9      -188899.4      -38189.10      -34302.81
       111032.7       313687.5       94555.62      -103856.6       80586.25
       316246.3       271067.1      -17043.12      -153030.6      -117446.3
      -135855.0      -157421.8      -55862.55       28230.06      -27765.50
      -169614.7      -306623.9      -327721.1      -143566.7       141990.1
       311473.6       305055.7       170810.9      -6121.938      -169157.5
      -118895.6       146882.1       305976.2       251804.7       133519.5
       21472.47      -128091.7      -205771.2      -150706.1      -25607.59
       36364.23      -37171.38      -147651.2      -228879.2      -220820.8
      -74302.33       41832.81       41253.03       38216.84       99009.67
       99240.69       52995.56       88476.23       73062.53       54915.66
       64974.47       35727.70       60009.08       41535.70      -30033.16
      -48363.21      -5356.572       3303.516      -38965.70       37846.55
       114512.1       29353.56      -86541.19      -145658.8      -176679.1
      -177807.1      -103018.8      -22952.86       13036.36       33346.50
       38038.53       79857.03       131183.0       81285.41      -3158.273
      -18187.06      -38366.50      -72336.84      -68056.88      -88635.08
      -53381.05       34917.42       59297.91       95930.13       43280.72
      -110308.4      -126910.0      -27242.22       61605.84       119139.0
       162464.1       156032.7       91074.31       33785.95       70485.44
       83014.56      -2757.402      -28574.16       23533.16       86814.34
       79653.17       25431.25      -10774.75      -114116.2      -183536.7
      -163101.5      -150275.8      -85123.64      -45202.19      -85379.50
      -122003.2      -137381.8      -62458.21       24327.67       32427.95
       25296.20       44338.31       73154.31       101647.6       129662.4
       114405.2       31839.58      -9272.312       47857.97       80233.09
       73972.50       53774.47      -29791.03      -108709.0      -112305.5
      -85552.12      -60695.48      -25216.88      -19781.67       343.1250
       49731.16       97435.25       131185.5       130261.7       129108.3
       114037.9       38487.94      -87070.88      -151309.2      -106541.4
      -60548.17      -17395.71       1954.766      -58842.81      -131792.8
      -204845.9      -211898.5      -93545.75       29187.77       68857.56
       56593.63       36219.04       836.1719       23280.84       111619.0
       115274.5       52318.00       21937.22      -2897.414      -432.4375
       66830.16       134429.9       131309.4       98772.39       73026.49
      -1348.219      -47877.12      -65416.00      -135496.6      -125872.7
      -42257.73       16842.58      -12543.78      -136209.1      -174667.5
      -76030.83      -26431.70      -53145.27      -37034.62      -24409.81
      -55169.00      -28340.28       56446.78       143443.2       156758.4
       114441.3       80358.50       8031.484       19230.19       98446.66
       82379.53       87199.44       101669.8       37741.20      -27851.21
      -22853.82      -15174.88      -59311.64      -51439.72      -23223.20
      -37604.73      -20321.00       41027.17       89114.96       55637.11
      -26586.08      -50008.55       5988.625       38280.77      -19836.34
      -68494.19      -86276.56      -145058.2      -167284.2      -110733.8
      -34452.00      -3197.949      -18995.01      -16753.84       10938.78
       39258.94       62972.64       85712.05       69376.30       20741.52
       13995.04       31338.02       58825.75       102166.8       153206.6
       148605.9       105169.3       69711.09       20829.80      -8432.703
      -39236.72      -102063.9      -143774.7      -154462.3      -178570.1
      -183562.2      -140960.8      -106085.2      -69928.33       932.2500
       71603.09       116729.3       145686.2       146093.9       116105.1
       85639.33       69817.42       50239.37      -4562.375      -66608.06
      -114005.1      -134356.2      -78046.16      -36272.73      -52675.41
      -75265.64      -69081.73      -36150.78      -45132.11      -72323.55
      -17788.76       33821.75       22539.16       17446.47       44751.81
       83793.95       76177.41       106184.9       156866.3       142229.3
       109860.5       66611.78       72453.14       68548.91       21214.90
      -17441.16      -71742.09      -124183.4      -143665.1      -97922.34
      -59343.48      -64388.73      -52155.16      -47680.45      -48042.32
      -21293.35      -1613.812      -38166.50      -96847.81      -121471.0
      -92064.81      -23150.42       38695.97       53417.59       33439.77
       3856.062      -6747.453       18336.73       46130.47       50460.81
       31379.09       398.6494      -7631.664       10965.51       13060.38
