     0.02500000      -575148.4       864174.1      -12345.00      -12345.00
      -30.00503       217.3199      -18.88000      -12345.00      -12345.00
       0.000000       13.88000      -12345.00      -12345.00      -12345.00
      -12345.00      -12345.00      -12345.00      -12345.00      -12345.00
      -12345.00      -12345.00      -12345.00      -12345.00      -12345.00
      -12345.00      -12345.00      -12345.00      -12345.00      -12345.00
      -12345.00      -31.03680      -69.52500       1657.000       0.000000
      -31.54000      -68.94500       0.000000       103500.0       0.000000
      -12345.00      -12345.00      -12345.00      -12345.00      -12345.00
      -12345.00      -12345.00      -12345.00      -12345.00      -12345.00
       78.50209       315.1422       135.4420      0.7058266      -12345.00
      -12345.00       4.891338       0.000000       0.000000      -12345.00
      -12345.00      -12345.00      -12345.00      -12345.00      -12345.00
      -12345.00      -12345.00      -12345.00      -12345.00      -12345.00
      2008        49         8        51        22
       580         6    -12345    -12345      9894
    -12345    -12345    -12345    -12345    -12345
         1         7        13    -12345    -12345
    -12345    -12345    -12345    -12345    -12345
    -12345    -12345    -12345    -12345    -12345
    -12345    -12345    -12345    -12345    -12345
         1         1         1         1         1
NUEV    -12345          
        -12345  -12345  
-12345  -12345  -12345  
-12345  -12345  -12345  
-12345  -12345  -12345  
-12345  -12345  -12345  
-12345  -12345  BHZ     
ZL      -12345  -12345  
[...]
      -139.3908      -52.48019      -149.8448      -65.46936      -165.2840
      -80.11395      -172.3207      -85.40729      -184.1816      -98.19113
      -198.7375      -107.1428      -206.0294      -119.4778      -216.6018
      -124.2848      -235.3117      -136.8694      -233.0690      -138.8546
      -241.9658      -148.9648      -252.3042      -150.7128      -252.5234
      -157.3098      -261.6519      -157.6666      -261.3995      -159.0002
      -264.3986      -157.7928      -259.6251      -151.5916      -251.4136
      -138.3190      -242.7864      -128.6328      -230.5397      -118.3273
      -222.1430      -108.3881      -218.1248      -100.8959      -210.3795
      -95.53455      -203.0096      -85.31244      -196.5974      -76.03073
      -181.6984      -59.08536      -172.7294      -53.51797      -170.8867
      -48.96460      -164.5399      -48.44336      -164.9532      -42.90802
      -157.0569      -35.09799      -152.1670      -27.10123      -146.2794
      -25.82742      -142.3859      -15.91446      -130.5655      -3.363800
      -119.4023       7.133270      -110.6577       19.85757      -102.3554
       25.36169      -92.21162       40.99733      -78.53824       52.58625
      -63.58348       75.63012      -47.52087       91.32071      -27.99582
       105.8467      -20.92142       116.2842      -7.799774       128.9443
       3.435333       142.8118       12.90201       154.8502       28.20258
       173.4384       40.92557       185.3803       56.79614       198.9419
       61.80750       213.5622       78.78119       222.5127       85.77637
       230.6490       89.41571       242.1910       104.1286       254.7795
       117.1871       268.2784       125.9753       276.6890       125.1082
       276.2491       130.8941       281.7605       137.8425       298.8887
       149.1940       295.9321       140.9723       298.8616       148.6886
       307.1195       154.8943       307.7972       153.5142       314.9115
       158.5242       322.9547       166.2695       326.0656       164.7357
       325.2940       159.7158       322.3773       160.6660       323.0175
       155.9079       319.1947       149.1373       310.5669       140.1202
       304.0588       126.8089       292.2632       118.2480       280.2810
       102.6758       268.6218       88.25848       254.2900       71.17584
       237.8950       55.12241       222.1190       38.06616       207.9462
       21.53326       186.8100      -5.000732       160.3782      -33.11487
       136.9611      -57.97443       114.6852      -76.89758       95.20380
      -104.9110       69.57011      -125.9590       45.97501      -156.6026
       16.66995      -191.0474      -19.43774      -223.8567      -51.12708
      -258.9542      -81.77899      -288.7241      -108.0918      -315.4943
      -137.0370      -348.5898      -170.2648      -382.7106      -197.6223
      -415.1379      -232.9180      -446.4982      -261.7834      -475.1450
      -287.8887      -507.6785      -316.7549      -536.8770      -347.1205
      -561.7305      -369.7373      -590.5654      -393.4055      -617.5861
      -422.9309      -640.4896      -444.3732      -663.7249      -462.1941
      -688.6962      -485.4978      -707.7543      -508.1263      -723.5919
      -508.4761      -729.9877      -524.1616      -743.7202      -526.8984
      -746.0992      -533.9387      -752.4332      -531.5331      -754.5269
      -533.4514      -752.5673      -532.8982      -754.0657      -526.9827
      -749.8611      -520.7068      -744.3391      -515.9108      -742.3770
      -514.0105      -739.2715      -503.5354      -728.1475      -488.9888
      -716.6525      -485.8893      -714.5540      -474.0321      -701.8738
      -463.1814      -688.2507      -448.1207      -684.7108      -448.6510
      -666.9292      -424.1355      -659.4497      -418.4547      -633.6683
      -394.7030      -623.1154      -388.5591      -583.7344      -349.1936
      -602.7638      -350.1285      -448.3022      -353.4398      -258.4561
      -494.7031      -12002.88      -34017.72      -45135.36      -43727.34
      -40084.88      -33387.62      -41439.77      -52729.77      -30748.31
       6268.797       17888.89       40068.03       60911.99       36724.41
       18895.44       55119.81       68120.58       26187.28      -11710.04
      -3279.494       24174.89      -20219.32      -38968.26       23189.12
       3479.422      -38744.25       33219.22       94114.41      -479.9062
      -107125.9      -83630.45      -28082.03       35694.06       78420.48
       17761.86      -38249.08      -44046.27       9924.781       97274.98
       95486.42       35687.22       4425.508       20623.48       52597.79
       26561.77      -27763.27      -57574.47      -57294.52      -23648.12
      -4898.000      -25041.42      -49745.72      -29459.19       29512.23
       56087.02       45456.47       15177.10      -13786.39      -25176.99
       829.3438       20700.93      -5665.535      -24018.73      -2194.207
       15716.88       10956.31       4638.266      -10996.54      -27460.86
      -17091.38      -23924.73      -45110.38      -36506.82      -16860.36
       10388.28       13966.20       4082.344       36815.11       58004.71
       29901.43       3815.891       4187.158       3309.715       8099.861
       878.2891      -21698.20      -33192.90      -22611.77      -9072.702
      -3348.910      -4929.797       2520.594       38741.37       57629.24
       14129.77      -38228.41      -31964.69       10975.01       17803.16
      -13596.79      -18715.79       8478.254       11160.95      -8065.219
      -3701.050       7000.792       5207.090      -3814.930      -20077.50
      -10443.30      -2261.335      -5787.037       425.2305       23295.36
       13858.42      -33132.35      -40563.39      -23164.43      -3780.016
       31318.17       42635.41       27468.43       9000.098      -7915.439
      -13213.42      -551.5801       13025.66      -667.1172      -25707.97
      -19427.80      -5753.789      -9654.398      -1166.508       30629.89
       30092.89      -8074.543      -21069.71       2689.133       25552.48
       27184.13      -7035.812      -37364.67      -39889.48      -20327.16
       5983.312       23034.95       25988.10       3747.633      -25576.85
      -18746.02       9238.789       22138.58       18865.88      -6505.406
      -32236.32      -17035.14       6403.193       1398.938       13011.15
       24585.02      -7398.227       5678.035       33103.70      -7312.750
      -36536.88      -13869.87      -2265.979      -1382.505       3236.070
      -3351.102      -13953.38      -5044.777       1439.740       5812.064
       4131.853       115.3407       68.85156       481.1836       15028.22
       30094.91       31531.75       35943.55       16253.19      -18619.75
      -26834.01      -16334.07       5135.657       3850.307      -8015.064
      -3117.965      -11821.91      -14222.81      -5397.984      -7954.980
      -17504.32      -20897.61      -4112.367       26239.60       27620.37
      -1996.680      -32514.41      -30074.62      -7955.068       3874.270
       6930.312       16198.07       10862.43       6439.461       22740.65
       13890.91      -16328.55      -26491.63      -26787.10      -7356.078
       14249.19       7988.007      -213.4678      -1528.065      -3191.289
       6557.777       19762.01       23157.31       18488.73       12885.22
      -1522.514       7737.773       18197.55       18393.87       27108.98
       20645.88      -8562.242      -27596.56      -34525.93      -38836.50
      -16832.90       5175.436       10405.68      -2563.029      -18013.45
       9127.953       29875.95       5930.164      -27320.44      -19866.19
      -380.6172       16229.02       35427.43       27689.20      -7306.301
      -22703.82       3925.195       17908.29      -779.2188       8576.547
       15769.28      -10177.55      -16948.19      -2794.414      -9988.645
      -5874.164       19013.53       13977.28      -21256.45      -53532.17
      -36603.57       1710.242       11670.87       17968.49      -3214.258
      -17836.65      -18262.20      -36376.98      -37955.02      -16669.95
       13913.62       54499.64       71411.94       45509.36       14673.18
       9436.529       8909.012      -15358.52      -35666.77      -13032.91
       3721.137       14044.32       7854.359      -33858.84      -50165.20
      -12373.23       22218.43       36776.55       34615.90       20393.80
       10427.24      -1438.309       8074.995       10850.66      -15688.23
      -18918.22       1732.141       8192.672      -5498.090       5683.414
       20206.02       2925.008      -20980.88      -21047.05      -21180.64
      -22379.61      -973.9043       13569.84      -4344.930      -24797.05
      -17995.98       26270.17       57085.08       47786.45       45472.64
       57823.00       39611.12       447.1250      -23813.92      -32669.45
      -40262.08      -43725.17      -26849.28       9918.102       33571.30
       28146.82       4269.220      -6254.318      -248.6992       13799.25
      -5531.527      -8650.801       18908.00      -2801.297      -39838.14
      -50164.57      -34581.86      -4371.773       33939.64       57587.13
       30283.25      -4631.641      -21216.84      -15821.56      -4176.258
       15964.96       31943.47       2899.969      -21735.14      -24235.44
      -26311.48       2623.223       21431.70       17565.07       28761.76
       27666.60      -21227.51      -31717.67       25003.45       61037.90
       56169.34       13931.39      -45896.88      -66702.54      -34683.85
       14310.67       9843.867      -27957.34      -61329.83      -57289.47
      -15751.89      -6159.627       2725.625       26563.41       21500.05
       38096.47       68889.72       52672.83      -832.5312      -18364.98
      -9762.246      -14416.30      -7420.716      -161.6134      -1706.191
       1939.574      -7526.664      -19387.41      -11716.14       15599.27
       15604.16      -17208.46      -37107.16      -29265.13      -12422.63
       5786.559       18761.69       9121.312      -10325.50       6765.594
       23840.70       4311.759      -5292.812       12096.06       20952.61
       4769.125      -31957.20      -44551.30       1865.867       42200.09
       39022.97       18888.71      -17645.21      -10482.89       13769.70
       9467.160       7310.723      -7663.234      -13381.78       10159.45
       15396.87       15692.72      -786.8184      -16132.35       10150.17
       37565.85       41713.89       26027.09      -16288.50      -67691.95
      -81833.32      -35727.99       9941.270      -4482.984      -37618.88
      -16869.55       40996.97       64089.30       44286.71       20485.85
      -3719.939       5580.727       2558.438      -37879.77      -44226.07
      -24030.59       2306.016       18947.06       12729.76       14224.92
       48944.41       90929.62       50805.88      -35691.75      -62753.31
       1123.719       53531.09       48733.83       47089.70       18532.93
      -11392.50       4954.814       11055.66      -13153.20      -32750.56
      -29194.58      -6423.043       10662.44      -30910.19      -64501.59
      -42966.26      -19595.54      -25396.83       9508.414       38207.75
      -43972.38      -85655.12      -66091.51      -53409.93      -6764.926
       7933.801      -9935.521      -13653.22       12097.08       69193.72
       106317.6       108143.5       109524.6       60605.55      -24542.49
      -35531.28       19287.44       36512.39       20273.17       2261.578
      -48052.62      -92578.42      -78516.80      -19672.03       35968.68
       40885.39      -7517.562      -45092.60      -18679.71       5290.781
       18211.73       35585.35       43994.94       28751.60      -15812.97
      -41515.77      -43241.42      -30376.21      -22599.80      -49327.95
      -30584.42       10453.45      -15191.56      -34634.35       10136.09
       32111.45      -1037.041      -12992.45       6532.305       24773.70
       44316.21       29186.24       1125.051      -8016.719      -31583.87
      -41008.55       5463.795       15218.09      -23910.31      -38599.66
      -55739.48      -65565.41      -28340.88      -7578.223      -9924.602
      -7401.982      -14908.06       22289.98       76788.38       49988.97
      -14953.33      -47484.00      -27468.94      -36656.97      -95410.97
      -122391.9      -115880.3      -80577.00      -37120.11      -70373.97
      -121548.0      -92449.25      -81540.12      -146635.5      -285668.0
      -442008.9      -372381.4      -111692.5       56396.78      -10966.75
      -312772.8      -547990.1      -430156.3      -25770.50       533932.8
       864174.1       630249.2       169912.1      -3688.500       139136.2
       316092.0       506162.8       747403.9       587617.4       5644.062
      -333485.5      -359221.4      -397445.3      -275136.8       153436.0
       499396.4       395457.4      -184279.0      -575148.4      -351458.7
      -100632.6       109369.9       345948.1       435447.5       407717.4
       193688.0      -92358.88      -268865.0      -217600.4      -14924.41
       131871.7       57045.75      -265009.7      -402786.7      -185205.3
       116289.2       274768.9       257675.6       180925.1       149347.2
       136424.2       23088.31      -77865.44      -247788.9      -445105.5
      -333680.4      -132021.5      -62822.02      -43762.75       35642.69
       112836.4       60520.11       50417.39       71730.31       42863.00
       104986.5       139085.6       11068.16      -83602.52      -63886.69
      -110904.1      -119690.6       128199.8       314026.9       144906.0
      -128295.7      -212370.7      -95675.42      -6359.047       50391.88
       158382.0       169886.8       67861.38      -17896.50      -710.0000
       66300.23       67054.42       34177.92      -22409.31      -62915.44
      -101598.2      -222515.5      -309944.6      -247697.6      -109112.7
      -19646.94       45488.44       70733.72       59301.38       108508.1
       207620.4       219655.7       174424.9       205368.4       145956.2
       31038.02      -1769.203      -54249.12      -139344.6      -178839.8
      -107718.3      -9133.000      -27302.84      -122131.0      -174379.4
      -62788.97       140391.8       226729.2       138011.1      -44288.06
      -175740.9      -228186.8      -223480.3      -141475.8      -56440.50
       1230.828       39723.81       100802.1       195132.8       226032.2
       253225.8       306937.1       295467.0       237972.5       119411.0
      -12344.94      -97616.38      -170748.6      -191991.7      -182428.5
      -176966.8      -169072.1      -126214.5      -19793.68       13921.00
      -8632.078       58597.62       106159.8       34199.24      -25441.62
       10881.40       36056.86       23579.66       37760.32       43482.52
       40892.30       25634.46       18493.47      -4397.734      -68852.03
      -93811.28      -94046.03      -102980.9      -129257.9      -146947.9
      -118596.0      -108999.9      -94917.73      -52127.16      -5651.312
       53432.78       67068.69       57362.16       75121.06       71841.88
       79063.62       116390.4       142812.6       146708.6       132259.6
       72142.58       13362.62       41181.25       100054.8       108725.4
      -6995.375      -137094.4      -168402.5      -194224.7      -186331.0
      -124051.2      -80551.12      -59206.86      -30217.88       13379.67
       41015.25       45315.75       78603.56       140600.8       158247.5
       96591.05      -7909.844      -95224.28      -131991.6      -117159.0
      -58990.48      -23926.41      -54139.31      -119137.8      -102023.7
       40234.59       128400.4       120203.3       112553.7       63568.05
      -25944.11      -46975.94       15069.55       35610.28      -7072.477
      -31631.91      -17121.72       39800.05       90695.80       64488.84
       20037.91       21913.00       32751.36       35627.64       47526.62
       56166.06       53765.68       26356.16      -19646.11      -18317.23
       7188.695      -20144.33      -69538.81      -96251.97      -129045.3
      -158515.1      -126857.8      -73025.06       5867.094       102134.0
       122035.1       89666.41       99995.19       127346.7       95151.39
       64665.49       52788.45      -18404.66      -124391.6      -191046.8
      -209550.9      -186667.1      -129916.2      -82852.28      -55284.08
       4125.938       99831.12       159123.4       164042.5       136089.9
       110001.8       92886.64       77196.84       65705.45       58297.75
       61209.44       67681.16       59557.62       46703.08       39274.20
       21863.10       6178.578       20087.03       21305.03      -51617.28
      -114923.1      -108749.5      -102505.8      -100321.3      -60169.91
      -32985.41      -41093.88      -37241.17      -54330.16      -69546.16
      -53042.19      -47152.58      -52288.56      -84184.38      -120878.2
      -93421.35      -38729.06      -48419.69      -69507.23      -36949.61
       15996.12       93469.84       136683.2       108800.4       51731.37
       10806.84       19920.80       61582.97       98250.38       92394.53
       82104.50       99712.50       87164.35       44130.79      -531.2500
      -58054.69      -98069.00      -99699.69      -97862.47      -110090.5
      -111671.7      -69705.38      -30776.52       17866.44       63886.80
       38022.42       14850.91       31960.59       66436.34       63094.22
       38708.43       32953.32      -6391.141      -38581.87      -25127.70
      -7462.008      -21738.16      -48619.77      -17543.48       49700.08
       55628.05       26559.44       18225.32       33509.70       59498.69
       96072.77       81760.64      -13770.09      -73046.22      -83866.33
      -73103.59      -51114.47      -63936.67      -63321.62      -18415.43
       12355.67       10885.94      -6992.867      -16093.25      -4518.562
       21214.72       21853.31      -30130.41      -55295.37      -47591.79
      -36064.84       3120.719       50586.38       88907.00       102872.8
       108317.9       113068.0       102758.6       108753.2       112547.8
