     0.02500000      -171429.5       136091.6      -12345.00      -12345.00
      -30.00004       224.3249      -25.65000      -12345.00      -12345.00
       0.000000       19.26000      -12345.00      -12345.00      -12345.00
      -12345.00      -12345.00      -12345.00      -12345.00      -12345.00
      -12345.00      -12345.00      -12345.00      -12345.00      -12345.00
      -12345.00      -12345.00      -12345.00      -12345.00      -12345.00
      -12345.00      -30.19290      -68.82820       1323.000       0.000000
      -31.54000      -68.94500       0.000000       103500.0       0.000000
      -12345.00      -12345.00      -12345.00      -12345.00      -12345.00
      -12345.00      -12345.00      -12345.00      -12345.00      -12345.00
       149.7670       4.307281       184.2477       1.346550      -12345.00
      -12345.00     0.04136569       0.000000       0.000000      -12345.00
      -12345.00      -12345.00      -12345.00      -12345.00      -12345.00
      -12345.00      -12345.00      -12345.00      -12345.00      -12345.00
      2008        49         8        51        29
       350         6    -12345    -12345     10174
    -12345    -12345    -12345    -12345    -12345
         1         7        13    -12345    -12345
    -12345    -12345    -12345    -12345    -12345
    -12345    -12345    -12345    -12345    -12345
    -12345    -12345    -12345    -12345    -12345
         1         1         1         1         1
PACH    -12345          
        -12345  -12345  
-12345  -12345  -12345  
-12345  -12345  -12345  
-12345  -12345  -12345  
-12345  -12345  -12345  
-12345  -12345  BHZ     
ZL      -12345  -12345  
[...]
       553.7427       565.6638       562.7861       570.3645       556.5576
       565.1033       557.7819       561.7664       557.6173       565.3308
       555.8217       564.0642       548.1423       551.3252       541.1296
       542.1733       537.1455       541.1195       528.2557       524.5310
       507.5646       511.5991       498.4016       493.5251       479.0934
       470.4374       458.4053       456.8281       438.0787       435.9026
       425.3462       423.5681       399.6492       386.0214       372.9468
       371.4059       353.1161       344.5904       332.8729       328.5898
       310.2161       307.7917       293.8633       289.1471       278.1969
       273.0734       252.0444       244.2810       231.7036       229.3716
       223.6659       219.2373       191.3060       202.6702       358.8687
       1138.986       3839.676       10037.27       19610.41       31338.78
       40277.23       35937.47       12354.12      -20886.33      -41692.65
      -37556.93      -21166.35      -11408.76      -5950.902       9319.662
       11510.16      -611.6016       8333.924       4617.594      -13974.16
      -10018.82      -2277.006       4187.189       7526.703      -1877.984
      -19738.97      -26835.73      -9511.889       9559.152       12082.21
       3288.428      -3919.664      -7837.395      -10094.73      -9746.418
      -15744.91      -20790.84      -14792.13       1844.359       18698.82
       17434.32       10455.70       13474.50       15931.08       11034.77
       4814.025       3186.754       4408.828       6467.465       6708.477
       5070.109       6032.078       8941.662       9887.885       4976.525
      -5090.691      -11659.59      -9659.113      -10294.74      -18087.06
      -20886.21      -15621.07      -10425.92      -6245.246       2618.273
       9264.113       9553.625       7397.785       4009.687      -9.837891
      -4075.237      -405.6660       9109.443       10658.59       154.2148
      -10828.41      -8804.301      -3051.398      -2159.848      -2526.133
      -3696.119      -2230.682      -1327.740       3406.283       10641.43
       7600.863       493.6172      -5519.746      -7038.149      -5631.059
      -1652.526       182.0020      -5080.366      -3446.741      -1191.707
       708.1680       10275.64       13787.30       4296.425      -5121.460
      -2500.436       2331.693       1510.351      -4678.459      -7198.894
      -942.7439       62.62695      -3575.580      -3560.114       897.7207
       5987.178       9451.697       9338.436       506.6748      -7114.832
      -2012.722       7248.493       3715.473      -10060.71      -16058.80
      -10712.15      -8208.498      -8934.643       3859.988       17817.98
       9594.801      -13880.44      -26837.84      -18064.51      -1351.660
       9395.332       8231.250       2906.520      -399.3516      -3002.116
      -1535.374       2796.406       10553.05       14855.57       8462.363
       4504.004       8752.388       7397.637      -7345.820      -19984.65
      -15745.14      -4710.199       5307.926       9476.084       4857.010
       320.9106       1048.119       1804.691      -1998.162       1783.432
       8878.828       697.5820      -11757.70      -8037.561       3565.600
       4404.345       1998.438       4112.972       723.6743      -1322.175
       1603.386       1105.379       6133.366       7396.234      -2758.625
      -10572.62      -11476.78      -1173.039       12530.61       12698.08
       1655.974      -4315.067      -2551.405       387.7019       868.6523
      -5667.664      -12509.03      -12384.26      -6194.012       5894.062
       14560.79       10101.22       4177.554       5546.712       5240.942
      -222.4746      -6302.916      -7970.541      -1801.190       3487.888
       4042.250       5939.893       3800.987      -15.89417       6.305664
      -833.5742      -2511.062      -2853.518      -270.8342       1060.177
      -4231.621      -6978.527      -5443.021      -9838.957      -9991.332
      -1184.742       5557.016       10223.93       11638.98       7388.366
       3086.758       7786.848       16763.79       14281.53       5691.838
       2165.604       617.7930      -2679.102      -6213.602      -9847.533
      -10501.38      -8626.402      -9232.094      -8892.316      -8932.504
      -7920.156      -3272.718       2061.564       5551.773       4223.380
       2561.277       4776.895       7773.092       7620.578       6855.269
       3701.170       36.65479      -554.2178      -2579.719      -2417.574
       5450.707       11986.70       7561.576       1388.342      -5330.402
      -10126.81      -4303.488      -952.1504      -3851.841      -4398.298
      -1945.652      -555.6997      -1256.129      -2186.464      -3126.180
      -1262.208       1240.604       1214.697       4278.980       7438.206
       4042.744      -2823.023      -7354.326      -7240.643      -3809.060
      -466.2993      -67.29004      -2861.322      -5257.926      -3476.129
      -1720.286      -1284.437      -227.2500       2668.184       4310.882
       2189.696       3733.143       6747.074       7256.339       4328.813
      -1382.424      -3347.007      -2338.256      -5914.543      -11733.62
      -8144.153       601.2578       6182.691       4764.674      -6102.391
      -14176.79      -9973.259      -143.3340       4400.008       5615.651
       5604.450       1799.217       1128.391       2348.892      -2653.242
      -6413.917      -3139.148       3197.562       12164.54       19962.89
       18804.33       9881.242       1916.981      -1207.895       2083.672
       7720.837       3725.180      -6695.297      -11179.00      -10548.56
      -11054.30      -12471.90      -10039.99      -3746.949      -2446.203
      -5242.141      -9490.211      -16926.57      -16890.84      -4931.934
       6109.121       11105.26       11719.80       4763.422      -5088.148
      -8437.895      -2281.398       6732.902       8012.464       4535.393
       3948.088       2572.714       734.3779       1299.913      -351.5576
      -2205.309      -2554.676       1194.648       11999.49       18469.75
       10092.81      -4416.336      -7546.123      -1105.058       4227.201
       5279.779       672.4805      -3097.983      -3761.748      -4009.197
      -6807.305      -10635.16      -13196.62      -14276.89      -10706.98
      -4743.274       2442.393       9418.770       12686.47       10970.24
       5771.572       1499.535      -2113.959      -5088.062      -1547.188
       9150.262       18413.45       16350.91       1362.559      -8476.999
      -5653.848      -4192.836      -5042.896      -2842.684       1004.457
       5401.022       4053.232      -4373.287      -8617.070      -7470.352
      -6568.679      -3723.943       1324.923       4899.229       1613.701
      -4183.832      -3219.074      -588.4678      -185.1719       2798.520
       7044.607       7705.431       2954.645      -3860.879      -9388.768
      -7319.325      -247.3623       1178.067       2044.247       1785.087
      -556.7266      -1439.523      -5923.159      -7111.619      -1732.672
       4115.318       6032.305       4251.562       5394.010       6093.258
       4617.308       4239.908       1725.722       497.6680       4393.852
       9978.988       13937.48       10972.38      -393.0449      -6602.657
      -4194.028      -3554.324      -3729.565      -23.33789       3366.494
       2784.511       2424.356      -1315.020      -7006.831      -4974.728
      -367.6475       1677.642      -293.3829      -316.2778       1686.927
      -3330.873      -8777.471      -9462.256      -4966.293       4670.107
       11141.98       6306.327      -5677.236      -6939.629       3086.668
       12482.25       18645.37       17858.04       12273.87       6199.459
      -3271.115      -9803.340      -6062.801      -792.7578      -1082.387
      -542.4082      -568.7930      -6210.863      -11100.01      -11102.24
      -6012.464       1065.743       4571.637       6893.598       4687.902
       360.4940      -467.7043      -273.9277       2942.862       3717.420
      -593.4141      -5094.703      -6462.361      -5213.573      -3973.350
       743.8125       5254.115       5176.760      -130.3145      -7257.307
      -8852.639      -4765.914       4742.145       12143.75       5050.900
      -7268.180      -7495.446       601.2480       5403.244       7771.953
       8594.414       7437.779       6456.248       1583.754      -7434.814
      -9903.179      -2825.564       1965.068       1796.243       1511.104
      -2730.865      -8524.445      -8749.527      -576.6270       8371.283
       9686.713       4232.714      -1788.615      -4318.531      -9639.047
      -13516.69      -7439.977       875.6377       3867.633       3814.098
       5616.867       5994.185       3183.891      -688.4023      -6646.859
      -11479.99      -7810.339       2507.682       9410.393       6985.623
       153.8330      -2412.445       142.1118       2437.986       2594.852
       3793.840       5548.824       6930.793       10268.97       9994.922
       10.98828      -12370.57      -15703.71      -11340.89      -6230.894
       1209.277       9693.174       11839.53       7316.227      -1087.119
      -7819.818      -10010.71      -9242.828      -6952.825      -255.4531
       8974.404       11406.18       5966.947      -3257.832      -9139.209
      -8541.557      -3653.075       1262.526       779.1772       1152.379
       1662.245      -638.6478      -379.5994      -1060.136      -1257.857
       3247.643       8568.559       12639.08       10560.58       2629.248
      -4912.814      -7718.074      -3973.413       2234.646       4277.836
       1359.176      -4690.004      -10001.01      -11704.23      -7803.201
      -1715.344      -1689.358      -727.6406       4289.762       1079.926
      -6186.822      -8292.742      -7937.489      -5585.512      -802.0020
       4109.652       6521.463       6146.794       4762.219       3577.812
       2280.640      -1225.212       106.1133       4344.323       945.3809
      -5090.139      -6830.559      -4839.474      -2315.779       2315.473
       12675.39       18170.84       11163.89      -2957.949      -15539.96
      -15168.73      -847.2227       11047.41       14674.86       13146.68
       5724.334      -2320.070      -7691.498      -7778.082      -813.1953
       9745.285       16461.93       11690.22       4890.494       1536.836
      -2514.967      -5341.699      -6235.787      -7208.512      -9778.316
      -9364.268      -5365.057      -3904.671      -1252.305       1186.342
       682.3909      -136.7705      -3478.469      -6057.095      -2924.127
      -1392.835      -2367.014       1604.785       1607.720      -4120.154
      -3742.765      -1778.088      -661.5273       2190.156       7071.562
       11282.57       7551.279      -474.9766      -4025.894      -859.0625
       7074.242       9658.189       4579.773       2169.387       5325.273
       8805.754       7131.981       3086.980       221.6973      -6143.008
      -11968.54      -10275.96      -1554.680       5882.373       4658.461
       2629.460       4332.119      -995.4922      -9875.203      -10416.06
      -6569.860      -1840.029       4832.840       7832.732       5447.720
       1838.342       600.4082      -2864.016      -6980.786      -1953.082
       9358.012       15456.39       13887.34       9275.600       2406.109
      -3948.455      -4499.417      -2710.231       525.7427       2749.789
       1047.365       3610.485       5261.893      -596.9062      -4777.191
      -8559.117      -14057.98      -18922.01      -17262.14      -5573.290
       4923.909       4580.375      -799.7715      -3074.193      -6148.270
      -11806.34      -14309.34      -8967.781       30.98047       4946.189
       7834.592       9532.666       11181.94       10124.75       2344.283
      -7713.363      -8099.090       975.0332       7245.098       9956.227
       13638.39       18444.11       16477.88       6295.797      -618.9429
      -1859.222      -434.2354       1323.253       1461.070      -2446.151
      -4434.046       587.8030       2150.317      -2364.192      -489.2734
       5990.732       7973.099       5127.207      -3234.764      -8537.125
      -3513.331      -720.4180      -5736.506      -7424.714       906.8184
       9818.490       9716.494       1217.570      -5295.187      -2254.926
      -3405.094      -19721.48      -24680.53      -1919.301       18527.57
       18455.24       3587.062      -22216.06      -39331.12      -31263.77
      -1286.102       29602.29       36891.71       22305.10      -1286.641
      -25709.31      -32770.64      -11109.69       21180.82       20716.14
      -34082.44      -109367.3      -162382.2      -171429.5      -122884.6
      -37119.09       41251.27       84482.27       85853.62       57960.91
       27270.97       13175.66       25277.09       58969.56       87448.59
       97464.12       102253.0       109039.7       114318.0       95930.40
       50435.50       2184.062      -43860.94      -85535.59      -101437.8
      -73883.77      -20589.03       25577.93       42774.83       17680.61
      -37828.38      -88789.47      -95783.31      -56483.46      -10297.34
       9191.570       12157.28       25185.84       43069.02       42028.54
       19290.75      -8802.875      -18559.39       4749.938       43851.06
       81190.72       102046.4       84490.88       37000.55      -14466.44
      -53247.44      -77502.09      -80662.59      -71401.66      -74013.38
      -79759.00      -59696.39      -9971.760       16733.67      -18007.47
      -68512.25      -84922.81      -76238.39      -60315.66      -23228.62
       37587.16       104018.8       136091.6       111517.8       58203.77
       8143.762      -16798.33      -16888.88      -9133.311       5128.008
       25180.52       29230.78       9827.305      -10824.87      -23295.76
      -25043.82      -14930.04       1675.883       13048.52       20040.88
       27507.98       26110.40       23204.14       23458.04       14223.95
      -6351.266      -29768.31      -43121.22      -44754.72      -37935.53
      -29403.21      -19838.48      -9510.469      -15612.91      -32463.83
      -41136.97      -44534.59      -47530.56      -51748.09      -45192.38
      -20315.79       13637.24       37696.52       39604.45       28821.60
       10698.42      -11582.67      -24896.23      -22553.24      -7169.016
       13842.34       28758.35       22077.20       9414.844       12929.00
       27494.68       39157.45       39634.04       36964.81       30847.41
       15142.31       4540.955       7996.098       16285.54       16102.16
       14113.43       12044.57       3595.787      -3578.633      -10861.60
      -20826.07      -32053.23      -44717.34      -51743.39      -53683.35
      -42478.17      -12216.53       19162.52       34737.09       35866.63
       21300.76      -4147.602      -19558.26      -24135.38      -26756.36
      -11553.88       29233.36       65984.12       70531.27       46627.67
       2863.188      -43735.11      -64454.65      -37330.88       16038.64
       51561.36       44928.48      -7026.203      -69604.12      -101823.8
      -91932.15      -40827.42       24756.62       51488.02       26060.40
      -5308.409      -8893.824       11916.55       39792.31       60607.88
       61536.72       42912.76       19574.27       10106.94       16812.12
       26377.64       31545.00       31030.39       14422.53      -15269.71
      -26538.08      -8404.703       21631.88       47612.62       55772.00
       50723.45       45479.19       44254.03       44268.55       47230.28
       50534.28       44920.87       31027.25       16353.37       6926.979
       2131.703      -9638.266      -32111.34      -59802.62      -79731.17
      -75931.22      -53797.02      -41266.89      -48557.28      -62925.19
      -70369.98      -67826.64      -58046.16      -37590.55      -8420.531
       17660.20       32946.07       31462.77       17747.93       4069.693
      -1495.496      -130.2383       6384.477       20755.84       42005.89
       52852.00       48289.14       33662.44       15051.91       6626.220
       2548.797      -7983.875      -22816.48      -33956.46      -32683.62
      -24258.85      -13250.95      -9065.086      -14704.06      -23710.16
      -32441.48      -40044.78      -44958.17      -34889.70      -12293.32
       7367.695       25000.91       41591.20       50940.50       48535.55
       48904.27       54180.74       44281.71       24507.00       9522.688
      -3203.316      -7119.801       2581.650       8446.851       12.03516
      -4993.580      -2695.082      -4826.316      -10678.43      -9164.278
      -3514.320      -8903.211      -16229.86      -13894.58      -7096.754
       520.1807       2668.795       5459.580       9807.393       9692.295
       662.2617      -17637.52      -27725.35      -19216.90       1427.020
       19136.92       20057.22       9464.275       2571.105       5659.535
       7947.579       6446.160       2382.819      -1822.575      -1853.862
      -3570.711      -6466.665      -3734.124       1473.789       6358.582
       9598.852       10759.72      -211.0703      -19966.83      -26388.00
      -21966.30      -15946.38      -9223.367      -9246.148      -17271.12
      -29545.43      -40606.61      -44662.73      -38483.13      -32227.30
      -30271.02      -27001.81      -20678.82      -14467.64      -12674.77
      -12264.54      -10699.08      -9251.025       1812.172       23559.48
       33552.41       25744.27       15503.03       6013.484       9173.133
       29262.19       51271.38       62433.61       56905.58       38984.59
       21509.18       12016.45       11298.04       23307.47       40107.00
       46735.89       44944.50       39158.55       28734.61       14988.91
       1896.992      -16202.86      -31218.41      -34374.55      -38513.41
      -44675.39      -48136.28      -56565.77      -65642.05      -62776.48
      -48746.64      -34376.95      -28733.20      -27739.44      -21244.05
      -10276.04       3662.969       18869.40       31658.09       37709.48
       39908.31       43193.44       44425.93       38521.13       28645.64
