     0.02500000      -369063.3       326168.0      -12345.00      -12345.00
      -30.00004       224.3249      -25.65000      -12345.00      -12345.00
       0.000000       19.26000      -12345.00      -12345.00      -12345.00
      -12345.00      -12345.00      -12345.00      -12345.00      -12345.00
      -12345.00      -12345.00      -12345.00      -12345.00      -12345.00
      -12345.00      -12345.00      -12345.00      -12345.00      -12345.00
      -12345.00      -30.19290      -68.82820       1323.000       0.000000
      -31.54000      -68.94500       0.000000       103500.0       0.000000
      -12345.00      -12345.00      -12345.00      -12345.00      -12345.00
      -12345.00      -12345.00      -12345.00      -12345.00      -12345.00
       149.7670       4.307281       184.2477       1.346550      -12345.00
      -12345.00   -0.005737003       0.000000       90.00000      -12345.00
      -12345.00      -12345.00      -12345.00      -12345.00      -12345.00
      -12345.00      -12345.00      -12345.00      -12345.00      -12345.00
      2008        49         8        51        29
       350         6    -12345    -12345     10174
    -12345    -12345    -12345    -12345    -12345
         1         7        13    -12345    -12345
    -12345    -12345    -12345    -12345    -12345
    -12345    -12345    -12345    -12345    -12345
    -12345    -12345    -12345    -12345    -12345
         1         1         1         1         1
PACH    -12345          
        -12345  -12345  
-12345  -12345  -12345  
-12345  -12345  -12345  
-12345  -12345  -12345  
-12345  -12345  -12345  
-12345  -12345  BHN     
ZL      -12345  -12345  
[...]
       211.3352       133.4795       233.4358       143.2904       244.3281
       165.0179       276.1321       190.9868       295.1575       221.1154
       333.7892       252.8180       349.1681       266.7806       371.8237
       286.8828       388.1299       298.3778       393.0237       305.7595
       404.5326       317.7466       415.2366       326.5919       422.7703
       331.5865       422.6913       335.6110       428.0298       329.8135
       420.1382       335.7743       436.8927       346.9186       436.9917
       348.1299       439.9225       346.9263       443.0735       386.6333
       650.7251       1208.689       2916.510       5673.770       9890.492
       14406.57       16756.74       13722.44       6055.176      -3216.176
      -9879.020      -12129.43      -9971.347      -4788.338       2722.832
       4780.076      -2013.057      -4825.651      -2578.699      -5339.605
      -3059.502       659.8293      -1920.873       1218.830       7166.422
       8509.908       6808.838       1396.943      -3643.742      -7789.086
      -8924.559      -6880.851      -3152.953      -1911.026      -3827.838
      -5873.898      -5992.352      -2765.393      -2494.287      -6439.396
      -5870.314      -1942.008       4619.176       10107.40       10193.09
       8732.844       7156.992       5592.608       4622.223       4292.902
       9142.438       12573.49       8415.268       3031.267      -1113.453
      -8601.055      -12313.21      -10038.47      -9034.352      -8280.423
      -5126.381      -188.3203       4866.167       4584.271       1859.654
       1551.875       2510.517       2225.769       1026.762       117.8865
       126.3723      -35.41797       2233.684       4909.125       6956.770
       10652.15       10228.48       1664.184      -5637.564      -8657.328
      -13516.34      -16643.08      -15572.93      -16176.15      -11730.02
      -164.3164       9231.311       11354.49       8936.014       6492.609
       3872.804      -608.3457      -3572.666      -4669.079      -5096.822
      -4447.801      -314.3325       1481.700      -2149.682      -3897.734
      -4543.762      -4996.843      -963.9434       5550.094       11957.32
       10893.67       3515.270      -1950.729      -3341.866      -1242.475
       4814.145       10233.67       10238.96       8602.689       8089.949
       7640.799       7914.274       5243.235      -1748.555      -8522.334
      -8785.078      -6720.433      -6354.937      -2082.238       6737.614
       6884.295      -4469.797      -12721.30      -10846.54      -7610.918
      -9740.609      -11954.33      -8168.058      -2317.252       1616.815
       984.6484      -2249.612      -2657.080       498.8716       2356.870
       2341.538       599.5073      -2564.231      -633.6460       3681.286
       560.3916      -1900.630      -594.4000      -585.4895       566.2554
       883.4092       508.3223       3943.119       4657.881       4966.898
       10313.88       11090.91       4701.653       245.7246      -3996.479
      -6348.356      -2450.170       1954.882       1590.315      -2877.100
      -3663.224      -726.4785      -211.1016       3689.668       6640.178
       5902.843       2713.729      -5098.727      -6884.588      -3038.022
      -4409.346      -6572.234      -5557.473      -6666.400      -9216.148
      -4804.308       2721.832       7413.817       5026.959      -3077.769
      -4088.822       3587.137       10404.80       12306.11       7358.813
       1826.803      -1576.773      -6533.533      -4035.457       5597.936
       6979.192       2496.207      -2848.518      -7204.330      -3723.300
       3452.197       5782.469       4850.765       1271.189      -4503.318
      -8343.860      -7081.737      -1876.869       830.1445      -3137.461
      -5284.018      -1073.695       1952.175      -298.9307      -3896.672
      -4332.316      -1516.920       1254.386       2961.209       1191.195
      -1717.614      -2401.317      -1639.520       506.6865       2547.543
       3380.537       4161.748       1524.769      -3066.859      -3944.331
      -1310.451       1128.251       48.26758      -3325.941      -5789.216
      -6374.198      -1486.707       6256.090       8662.927       3887.436
      -459.8203       733.3359       7774.115       11686.47       5418.067
       1225.438       3686.750       5631.463       8576.082       12189.97
       9205.170       458.3926      -5040.674      -8421.340      -10550.64
      -10011.46      -10508.46      -11674.72      -9767.936      -5430.314
      -2415.094      -3941.725      -5198.979      -2926.000      -1943.970
      -2384.135      -1560.854       820.1523       3250.351       3421.773
       2469.055       3344.021       5759.041       6034.303       6354.727
       4829.046      -574.4043      -2427.652       516.9526       1175.839
      -1892.777      -3978.453      -3044.593       642.4268       4025.023
       2157.693      -1013.899      -2225.049      -2279.485       1378.186
       6902.906       10098.26       9921.540       5776.546       227.7881
      -4142.082      -6535.803      -6455.659      -4093.232      -4247.479
      -6376.752      -5404.797      -2949.399       1710.698       4343.908
       5.953125      -3992.176      -4826.313      -1811.963       6702.660
       13561.77       12872.53       7595.599       2211.575      -1677.990
      -3486.578      -4844.766      -6032.725      -4376.855      -2711.322
      -2301.239      -1490.253      -1464.257      -2911.227      -5756.910
      -9006.244      -9604.930      -9304.160      -10424.35      -7791.433
      -2666.123       1623.008       7500.605       9758.831       5676.837
      -81.26172      -4383.491      -3006.926       4919.566       11946.02
       13412.23       13609.07       13619.97       9822.648       4387.148
       3099.311       4064.498       2498.683      -950.3721      -3406.586
      -2935.027      -1173.599      -1.795898      -2012.367      -7755.098
      -9738.432      -5239.474      -875.9771       476.0981       2100.321
       3237.169      -485.5156      -6134.494      -7339.293      -3163.987
       3012.814       5302.197       2876.621      -526.4590      -2522.161
      -3374.010      -2674.993      -982.4387      -1224.853      -977.3306
       1108.534       3016.126       4749.742       4836.367       2972.594
       1478.004       482.6743      -1042.043      -760.9234       138.2656
      -319.4766      -2476.359      -6067.146      -5186.744       774.3650
       1168.762      -3548.543      -4030.538      -998.7549       1383.052
       2696.737       1722.979      -2544.374      -3714.806       1396.754
       4661.469       6284.129       7295.874       5447.696       2342.248
      -1850.189      -5702.555      -7649.386      -6197.301      -765.9814
       3323.389       3990.749       820.8799      -4229.622      -5114.217
      -3930.453      -6466.301      -8483.477      -4164.162       1687.332
       1168.154      -102.0156       334.3198      -161.7871       1676.391
       5625.047       9459.398       10886.94       8417.826       7247.035
       8712.197       6830.035       452.7012      -3923.031      -4439.479
      -4220.652      -3636.651      -1800.779      -496.4292      -1092.756
      -5712.805      -7896.161      -5047.096      -4849.781      -3969.866
       589.7354       2760.891       1994.513      -164.4094      -1113.495
      -667.5171      -1027.997      -3385.469      -5050.213      -2936.180
       1370.088       6669.488       12380.02       14306.12       12207.00
       5404.438      -2470.114      -3784.405       1183.504       7175.201
       10892.89       7551.121      -1684.869      -7898.143      -7430.625
      -6741.799      -8061.648      -9640.094      -9879.824      -5657.955
      -1797.000      -3015.482      -1743.010       762.2446       510.0273
       1364.852       5408.646       8791.248       7584.749       1636.716
      -1205.765       3884.693       7174.213       3525.386      -944.3516
      -4431.256      -6434.107      -9429.547      -9810.604      -5376.545
       979.9785       6569.745       6477.354       2800.598       737.7383
       1460.391       5131.859       8413.637       8630.546       3490.333
      -109.0107       44.86157      -452.3584      -1287.545      -2831.766
      -7578.625      -10465.11      -5130.305       2876.352       5737.130
       5489.497       2432.515      -1533.917      -3549.445      -4397.313
      -5060.935      -2058.780       1120.098      -1130.181      -3725.315
      -2977.004      -2930.278      -2375.275       981.6221       5528.853
       4559.578       456.9956      -748.4219      -1423.454      -1347.130
       1618.479       3603.738       2435.636      -1173.072      -2613.414
      -1796.154      -1139.496      -3138.105      -6485.608      -4612.639
       1920.204       3988.628       2940.824       5.809570      -4272.014
      -4945.840      -1454.132      -95.61182       762.5469       5941.236
       8170.559       3901.615       1776.584      -1201.544      -2506.229
       2466.585       4367.304       1375.633      -56.90674      -1283.517
      -1810.619      -2224.432      -1272.387      -279.9111      -2382.283
      -3673.097      -2605.778      -2610.619      -390.1826       1667.197
       1903.915       364.8105      -3329.119      -6007.191      -5705.442
      -4067.750      -1116.876      -189.9268      -761.1963       2200.012
       8687.160       10598.56       8535.345       5333.933      -325.1035
      -7300.293      -11670.03      -12237.41      -8163.936      -2991.072
       465.0938       4196.908       5776.849       1348.870      -1270.996
      -1944.468      -434.7637       4337.389       7726.730       7315.907
       6392.361       2537.058      -2924.582      -2446.518      -1339.086
      -6074.564      -8531.348      -7174.730      -3479.734       212.3907
       1730.691      -1579.178      -5401.561      -4250.594      -727.2002
      -2418.580      -3927.143       2076.287       4702.867      -1233.460
      -3545.789      -2358.305      -3052.730      -6829.326      -6271.564
       1183.746       8379.955       9072.385       5597.512       3029.559
       1201.039      -4512.711      -9116.678      -8430.057      -2880.063
       123.0508      -2355.235      -4794.539      -3752.678       3.376953
       7074.316       12024.54       10946.49       4912.833       686.2920
      -2462.619      -3848.746      -1805.867       622.7031      -1491.141
      -6069.428      -8054.242      -7694.174      -8270.074      -6880.531
      -3375.675      -933.6973      -1442.085      -2711.771      -4787.932
      -3837.616      -3241.821      -2978.094       1895.848       7405.992
       9850.961       14068.23       16281.44       14395.83       7859.508
      -1639.014      -8044.031      -7093.849      -4812.068      -3335.566
      -3030.041      -4207.072      -5796.574      -6407.883      -6898.356
      -4512.704      -605.9141       3939.381       6175.906       5813.405
       2956.313      -721.1379      -1462.509       1236.607       4923.342
       8894.582       7137.451       4083.624       1352.429      -1429.529
      -4114.719      -5697.863      -5254.146      -2962.411      -48.38379
       2390.672      -305.1191      -4630.586      -9161.012      -10908.82
      -6869.101      -1703.096      -700.2090      -1254.184      -1746.876
      -274.7732      -404.8613      -1673.593      -3334.381      -2632.122
       1313.844       4080.794       451.4512      -4351.219      -8165.762
      -7207.654      -3944.637      -3301.211      -2459.194       231.7461
      -3641.432      -9548.926      -7741.771      -3087.851      -1401.329
       2636.305       4056.534       3018.898       1633.915      -448.0684
      -2880.710      -2967.502      -1408.008       2507.984       4152.634
       2238.754       2686.484       8479.371       6212.195      -3723.109
      -9000.994      -6256.387      -264.2109       5149.470       4531.035
       112.9023      -7865.562      -14898.72      -15777.86      -9847.973
      -207.9629       8673.971       9751.580       7271.584       2382.002
      -4174.184      -11598.49      -18259.85      -23749.57      -23608.45
      -11794.59       18828.84       53359.91       71205.12       61074.04
       13628.03      -62771.91      -131485.5      -150904.9      -90478.66
       18046.75       96350.38       100959.2       70046.94       79814.19
       155177.6       240953.4       300675.1       326168.0       289940.1
       179901.5       55359.30       18121.78       92872.19       139438.0
       38050.44      -134929.4      -253268.8      -317396.4      -362882.2
      -369063.3      -306232.9      -213607.5      -158955.2      -127517.0
      -47390.91       87343.31       183802.1       154431.6       66903.50
       41021.45       76062.50       104164.1       145888.3       240849.5
       306111.2       243249.2       91075.50      -60553.47      -152044.1
      -156448.2      -83847.48       8556.406       49411.10       17532.20
      -53250.62      -141582.8      -217900.8      -222196.2      -125439.4
       25545.03       145496.4       162216.4       87251.42      -11353.25
      -90138.91      -137190.5      -129331.1      -53693.78       41428.56
       82575.98       50134.22      -13080.58      -46814.56      -50037.91
      -46432.77      -34528.50      -2038.762       21304.99       12820.72
      -1348.969      -9684.266      -30262.53      -51350.64      -43288.24
      -22700.75      -14836.71       8252.406       50366.58       83082.39
       75250.29       18467.80      -34845.59      -40161.10      -20925.55
       390.6875       21596.00       52676.97       74293.52       50702.14
      -195.2031      -48664.84      -72944.85      -47047.18       2749.312
       49496.67       76294.98       51884.80      -4247.090      -16893.14
       1564.578      -5440.594      -21257.67      -32187.58      -42228.34
      -36382.37      -27196.26      -18852.30       2865.820       27257.19
       19207.35      -31767.84      -78056.48      -77227.50      -54274.94
      -28273.45       5088.453       38039.95       35764.70      -13701.70
      -69617.66      -77332.20      -38471.45       23851.75       94617.41
       126375.6       98213.65       31072.50      -46992.03      -72916.84
      -45318.01      -20277.71       5450.578       45849.52       50793.52
      -9501.688      -104713.2      -185463.6      -202217.2      -139925.6
      -42473.94       32361.58       55729.72       47016.46       23836.61
      -17971.37      -50951.21      -19650.25       61313.94       126498.3
       131195.9       78316.75       20250.36      -9845.912      -16009.67
       6753.281       40265.27       60325.25       54903.51       28067.33
       3057.703      -8471.852      -19409.80      -28374.06      -27822.02
      -19166.66      -4349.225       8279.988       14233.22       20905.22
       17128.34      -10616.11      -41058.56      -45519.39      -38401.50
      -25333.61      -1322.641       30193.08       64352.03       72229.80
       29825.02      -24764.61      -48631.82      -44613.08      -16539.50
       28879.88       53672.81       51455.48       33265.06      -7006.719
      -54029.22      -79199.75      -74695.03      -28496.16       44288.73
       90945.41       78889.47       20227.25      -39699.50      -69799.19
      -79549.88      -66548.96      -37217.58      -18383.09      -4942.477
       17778.30       37905.47       57729.66       70973.17       64326.42
       51895.01       44094.64       26193.64      -4687.008      -20157.77
       4473.266       48143.12       77144.89       68698.09       23175.59
      -22720.16      -39173.22      -41144.52      -40558.13      -27183.91
      -5187.487       5184.748       3592.574      -6347.639      -13479.02
      -1.609375       27017.80       43645.91       39286.66       19303.13
      -13001.97      -61529.41      -91258.80      -80676.16      -60121.42
      -41053.38      -24180.39      -23873.51      -32320.39      -32001.75
      -25875.27      -26392.40      -9764.672       23084.34       40165.41
       45371.91       43538.78       41867.41       50807.00       47633.98
       38364.78       46316.08       64938.19       84209.41       95120.38
       84431.94       66646.75       57157.48       48765.91       30372.54
       414.7188      -31183.16      -40489.17      -27056.77      -25895.80
      -37993.97      -51690.66      -91063.03      -131871.5      -140337.2
      -119098.0      -73974.89      -31568.71      -10643.44       552.7891
       11545.69       21855.91       25665.03       29362.70       34251.80
       35560.31       37438.09       43957.36       46168.59       33474.29
       11571.31      -6003.188      -20517.38      -33011.53      -44923.56
      -54941.67      -58829.99      -48705.22      -23910.44       1867.609
       14562.95       14520.44       10264.84       9907.719       20009.03
       36554.27       48938.56       54704.38       47912.08       35506.78
       35142.50       47317.16       52063.52       35990.28       5786.273
      -21165.05      -39700.73      -48195.19      -44366.31      -35204.41
      -25068.56      -14366.41      -20124.02      -45131.61      -65139.12
      -69056.75      -63375.36      -40979.67      -4339.367       29245.66
       46448.90       40007.16       21520.18       11563.60       1494.477
      -14228.58      -13549.18       2316.469       4065.309      -2978.676
       881.8633       7485.801       10347.22       14781.32       19305.08
       23321.80       25946.59       29842.19       31583.02       30946.48
       33886.62       46874.52       62107.34       60337.77       43150.75
       21564.83      -2044.750      -15050.96      -4452.031       12948.58
       12874.46       5024.746      -3481.461      -13991.80      -23610.86
      -34250.24      -40470.05      -34698.37      -28431.08      -36400.83
      -48558.80      -40561.66      -25703.34      -22241.93      -21862.42
      -30395.70      -48345.72      -51446.28      -39170.86      -24817.61
      -7381.471       9122.832       14063.39       9197.579       822.2439
