     0.02500000      -238285.2       220423.1      -12345.00      -12345.00
      -30.00004       224.3249      -25.65000      -12345.00      -12345.00
       0.000000       19.26000      -12345.00      -12345.00      -12345.00
      -12345.00      -12345.00      -12345.00      -12345.00      -12345.00
      -12345.00      -12345.00      -12345.00      -12345.00      -12345.00
      -12345.00      -12345.00      -12345.00      -12345.00      -12345.00
      -12345.00      -30.19290      -68.82820       1323.000       0.000000
      -31.54000      -68.94500       0.000000       103500.0       0.000000
      -12345.00      -12345.00      -12345.00      -12345.00      -12345.00
      -12345.00      -12345.00      -12345.00      -12345.00      -12345.00
       149.7670       4.307281       184.2477       1.346550      -12345.00
      -12345.00     0.07887606       90.00000       90.00000      -12345.00
      -12345.00      -12345.00      -12345.00      -12345.00      -12345.00
      -12345.00      -12345.00      -12345.00      -12345.00      -12345.00
      2008        49         8        51        29
       350         6    -12345    -12345     10174
    -12345    -12345    -12345    -12345    -12345
         1         7        13    -12345    -12345
    -12345    -12345    -12345    -12345    -12345
    -12345    -12345    -12345    -12345    -12345
    -12345    -12345    -12345    -12345    -12345
         1         1         1         1         1
PACH    -12345          
        -12345  -12345  
-12345  -12345  -12345  
-12345  -12345  -12345  
-12345  -12345  -12345  
-12345  -12345  -12345  
-12345  -12345  BHE     
ZL      -12345  -12345  
[...]
      -257.3918      -140.1981      -285.4070      -172.5800      -300.6237
      -194.1801      -326.0149      -211.8677      -352.5425      -235.6693
      -358.4570      -239.6827      -361.3423      -248.4462      -382.4993
      -258.9077      -381.3387      -262.1121      -388.6436      -269.1875
      -382.9017      -259.9359      -391.1222      -264.8824      -385.7898
      -264.3542      -382.2606      -258.8611      -375.7927      -249.8225
      -365.5421      -234.6490      -351.0967      -224.9837      -332.6060
      -216.3380      -348.0712      -209.6470      -317.1852      -196.7213
      -315.6687      -192.4393      -313.0432      -193.1923      -318.7633
      -202.3243      -329.2697      -220.0999      -341.5364      -220.3514
      -365.8626      -250.8463      -367.7341      -261.2219      -392.0362
      -272.0547      -402.7433      -290.9270      -427.0452      -318.6385
      -434.3525      -306.7854      -439.0060      -328.7996      -431.8497
      -208.3971       27.53516       983.9209       2058.369       3536.144
       4299.465       3449.981       343.8730      -2606.400      -2715.684
       1584.229       4882.627       2537.859      -3155.371      -4257.435
      -3759.565      -4676.242      -1817.557      -4064.795      -10360.39
      -8366.012      -6888.713       2714.785       8606.162       602.0264
       4679.534       5129.771       316.4023       9072.479       3166.453
      -10761.06      -8535.304      -4285.580      -3882.294       1791.509
       244.6211      -6463.316      -5161.695      -415.5527       6755.498
       6637.444       1172.739       1664.959      -3385.508      -3472.111
       653.5122      -1727.744       2888.277       10018.73       8167.781
       9058.293       5883.120      -6864.164      -7252.925       2554.875
       1078.820      -52.99023       5661.168       1542.910      -9157.555
      -8220.072      -2447.034      -1810.126      -2547.035      -1100.410
       1619.145       1784.021      -781.5605       1691.506       6859.748
       7127.754       6028.891       6774.967       2063.392      -1581.979
      -791.7832      -940.0630      -1097.262      -1278.923      -4099.590
      -3707.758       1541.615       4034.551       3836.720       4465.252
      -2214.320      -9539.617      -12749.78      -11980.81      -3346.797
       4219.391       4971.991      -1015.375      -9624.713      -6431.995
       3650.186       6920.761       1542.441      -4781.533      -8374.691
      -1028.797       13656.34       15781.01       9187.070       3258.062
      -4447.706      -3822.891       5831.844       13391.50       12952.17
       7687.820      -534.3711      -3920.756      -2964.673      -3262.696
      -347.2476       1670.581      -3094.887      -6916.704      -5803.609
      -3030.846      -811.4385       4205.242       7948.532       6645.723
       116.1309      -9124.434      -10905.95      -679.3438       4697.889
       2297.462       201.0986      -3292.417      -2251.727       3872.750
       2046.918      -2149.325       305.2729       1450.217      -5593.199
      -9129.295      -6047.247       215.2227       4163.548       1050.923
       1651.383       6497.226       4951.498       3576.945       6676.852
       10089.82       8808.276       3549.479      -3065.078      -5778.560
      -4721.787      -6368.139      -8124.353      -3606.650       510.4691
      -189.2759      -1406.891      -1478.779      -3982.591      -3688.639
      -642.9688      -3517.210      -6278.485      -3331.854      -3761.991
      -1275.854       5061.156       9264.406       10123.91       5925.151
       1648.389       2585.051       6694.590       10510.29       8320.042
       4303.876       855.1016      -3735.160      -5192.208      -3694.338
      -7402.520      -10941.24      -9797.375      -8678.803      -4577.256
       1905.919       2951.418       540.3848      -3015.451      -5849.338
      -7625.625      -4315.920      -1199.464      -2466.568      -318.4209
       1665.615       325.9570       1927.359       4687.136       6149.759
       606.7168      -5506.916      -2412.493       893.0537       524.1328
       7546.273       15160.90       11638.00      -453.4043      -9875.590
      -9925.688      -3845.424       6088.818       12121.99       5578.209
      -486.7749       179.3647       2319.976       1627.603      -668.3203
      -2944.908      -5658.404      -8820.000      -7906.077      -2881.571
       3069.553       7314.388       5947.423       373.5146      -4211.392
      -6195.299      -3104.668       612.0898       1917.141       1397.177
      -549.0830      -3758.825      -3179.382      -1401.886      -499.4656
       94.84863      -3074.566      -4671.230      -1156.245      -1119.254
      -3097.286      -2421.861      -1635.768      -2374.870      -3991.696
      -4001.392       2874.766       6267.393       4458.035       7412.918
       10653.43       9243.650       6269.514       1995.327      -3212.240
      -5607.304      -2204.204       623.6003       750.2793      -1123.659
      -4160.609      -6887.887      -5560.340      -4072.379      -4217.533
      -2933.914      -1147.486      -987.9712       404.9077       2854.778
      -910.9932      -4884.719      -873.6870       2687.556       2445.774
      -515.7618       205.6694       1639.221      -1931.854      -4668.210
      -5107.905      -3288.951       4279.381       9299.391       6903.553
       3918.486       4000.157       3999.121       4428.689       3584.293
       1527.041       1311.027       2337.696       4441.867       5781.854
       1517.802      -2309.370      -226.3242       5171.062       6553.943
       5022.359       3482.520      -3113.551      -10585.94      -8500.500
      -2995.666      -2920.939      -8692.840      -12615.61      -10663.24
      -4384.542      -1127.973      -3607.893      -6885.317      -6419.840
       288.2695       7730.820       8531.008       5995.457       4945.752
       7155.127       8694.343       4916.183      -1027.383      -1081.661
      -1261.882      -2346.242       1606.920       2767.584      -984.4902
      -2277.362      -4285.625      -4781.394       550.7109       3894.006
       1764.131      -2307.073      -4490.116     -0.8569336       1974.234
      -1491.258      -2169.244       949.4668       4671.282       5088.691
       657.5605      -3828.312      -6236.669      -5191.616      -318.6553
       3584.463       1345.117      -1537.432      -1819.199       855.2109
       4829.168       8248.418       10903.25       10119.44       4772.941
       387.0229      -1367.559      -3470.949      -2885.558       92.49902
       1774.061       4251.406       1781.643      -7791.027      -15977.78
      -14387.41      -6051.738       2668.948       4789.638       111.3066
       688.5791       3742.646       1532.382       1501.283       2132.158
       4631.664       11001.82       11189.66       6809.357       3789.441
      -672.5898      -3083.648      -4046.059      -5150.982      -7126.475
      -7141.521      -2485.405      -1038.938      -4513.053      -5991.900
      -3949.086       1426.480       4675.887       1995.035      -1738.661
      -779.8574       1139.694      -1901.385      -1878.849       3257.306
       1870.503      -786.9199       3097.344       10437.18       13225.61
       6824.465      -1593.057      -3857.363      -809.2278       2213.242
      -462.7930      -4288.371      -4254.288      -1900.761       1956.014
       6154.476       4215.564      -3416.924      -9081.182      -7177.170
      -1834.109      -3619.941      -7648.418      -6337.479      -5928.398
      -4972.957       1733.598       6235.543       4422.380       1822.213
      -3916.271      -5431.101       2451.652       7767.460       4234.280
      -1952.958      -353.0664       6096.789       9773.410       15754.05
       18083.76       10997.91      -549.6016      -7781.715      -4440.496
       3919.961       11053.26       10910.85       3516.078      -4160.672
      -12073.36      -19660.32      -21691.84      -14544.95      -7038.687
      -3453.219      -2353.355      -3987.624      -1358.487       3003.480
       2478.064       3734.520       5895.902       7244.129       9686.676
       7315.983       2392.738       443.9084       1070.528       1618.740
      -627.2673       156.3376       768.5234      -4469.012      -8211.299
      -6460.082      -4331.757      -1831.291       1709.603       1792.586
       1715.108       3297.210       3084.794       2620.965       2978.607
       3326.253       2233.736       1589.570       2649.475       1619.052
      -3748.670      -7142.888      -4414.369       902.2324       7639.094
       12783.02       8047.957      -4461.016      -13372.75      -13356.27
      -7185.570       3400.883       11313.95       8126.125       768.6348
      -4354.984      -9836.553      -11821.24      -7299.814      -1289.538
       1752.195       2829.371       1046.938      -3439.658      -3556.021
       1743.031       6119.781       8594.734       9508.788       6314.602
       1455.026       1048.561       3398.258       4584.977       4745.266
       5207.336       5776.427       3980.318      -826.9434      -7305.367
      -14210.45      -18993.80      -14534.00      -1499.802       4639.356
       1778.560       1199.760      -338.0254      -6901.684      -9687.803
      -2133.078       9755.305       12804.13       9751.936       8369.267
       4782.484      -3374.986      -9707.748      -9182.078      -3609.778
       3642.582       5672.940       675.6367      -7096.855      -11441.17
      -8631.424      -4966.100      -711.6592       3545.694       2165.746
       1428.477       4287.793       6348.236       6403.777       4165.613
       4806.178       7616.977       6163.989       2872.813      -1258.891
      -4663.539      -3095.673       42.12769       790.0020      -3872.938
      -9392.727      -9065.094      -4525.803       651.4038       834.7695
      -2562.695      -3218.575      -608.1064       1942.581       2758.414
       4127.602       6690.018       7365.457       7654.328       6871.236
       3933.539       2370.968       1500.422      -1229.456      -2181.122
       2106.521       5739.355       4532.386       1363.467      -4617.350
      -9922.436      -5863.695       2769.051       6594.518       3824.484
      -104.2271      -1544.811      -3517.408      -5443.714      -4589.159
      -1035.354       1524.642      -2463.213      -9066.447      -7863.203
      -3682.438      -390.4482       3679.689       7530.781       10793.05
       11732.50       12046.23       8558.356       960.2070      -4932.047
      -7944.201      -2700.082       5784.017       6446.479       271.1328
      -7074.473      -9492.699      -4778.776       3059.182       5007.229
       410.3613      -593.9912      -475.2456      -3073.368      -1656.918
       2669.640       1412.307      -4536.129      -8668.385      -7438.115
      -4185.013      -4493.643      -6228.564      -5950.037      -3052.067
       1197.545       1449.587       1789.646       6702.008       13514.20
       19251.68       18321.21       10836.89       3124.398      -2741.134
      -4331.438       1472.492       12567.36       17347.18       9281.768
      -1438.562      -5499.854      -5945.799      -4841.867      -2874.473
      -4705.746      -8202.654      -8002.730      -5955.821      -2050.546
     -0.6704102      -37.20703       3099.367       6897.844       6720.549
       4314.821       4301.883       6094.922       5834.684       2881.852
       349.6895       2270.490       5672.094       5132.846       1319.713
      -3923.629      -7717.162      -6267.716      -4099.255      -291.1519
       2554.651       357.1406      -1583.580      -3208.563      -2820.011
      -254.6619      -1073.406       398.6250       6834.562       11130.80
       11357.14       9214.979       3764.488      -2656.955      -6736.659
      -4109.937       1530.671       229.4355      -5398.338      -6698.183
      -4370.431      -1716.564       1779.707       9091.293       14577.20
       11030.82       3972.154      -905.1377      -4890.117      -6205.194
      -1066.496       6290.279       9414.994       8042.268       70.38281
      -6993.728      -4533.986       3516.615       9077.961       11501.14
       12359.45       9319.607       1838.168      -4213.637      -4264.262
      -3973.387      -6762.533      -6043.029      -3800.176      -2622.120
      -1758.037      -3595.234      -6669.697      -4535.055       2570.429
       5968.770       3865.383       3107.062      -1211.754      -9142.008
      -10506.37      -9594.773      -25165.00      -69341.69      -140295.4
      -210024.7      -238285.2      -213730.0      -134859.7      -15933.81
       84084.42       110161.6       38646.19      -96241.50      -181094.6
      -124513.3       33483.00       174366.7       220423.1       187985.1
       122395.7       47797.97       18526.97       88485.25       195019.7
       207876.4       93783.34      -36449.31      -53012.08       40975.03
       112388.3       68229.28      -54219.31      -164930.4      -208064.6
      -188215.4      -135902.8      -56150.94       37380.89       78325.86
       24553.53      -56648.27      -65649.43       8169.469       83446.28
       123325.4       149114.8       136747.5       65649.73      -30925.22
      -88464.80      -49733.38       53824.72       113645.2       75285.56
      -19658.72      -119732.8      -167847.9      -129706.9      -37554.28
       68715.62       153493.2       171508.9       106115.4      -21700.75
      -150923.4      -213854.8      -210505.0      -156613.6      -49680.00
       59117.81       116547.6       121552.8       82310.07      -496.6250
      -99649.66      -152470.7      -109401.9      -4872.906       92571.31
       144452.6       136690.0       84939.36       37710.96       29137.53
       53820.44       93302.09       107289.4       71603.42       17168.68
      -27285.44      -52761.60      -47208.35      -6911.828       38654.82
       39716.09      -2758.469      -45987.34      -83025.94      -100433.2
      -86093.68      -51593.37      -13551.58       11004.98       23757.75
       21010.98      -3937.238      -20681.88      -7999.547       1028.785
      -15704.30      -24779.67      -2599.234       39312.05       53563.21
       3275.547      -51411.26      -48526.19      -10908.52       27892.00
       49488.86       52086.27       36973.47       12485.58      -9253.390
      -7381.781       17128.61       19387.41       7897.141       9804.906
       11827.56       21958.73       39176.27       27885.61      -10053.53
      -13658.24       29333.33       55900.96       28164.84      -34455.88
      -93431.38      -123767.2      -124560.1      -96261.19      -50320.45
      -9834.594      -1100.216      -5625.160       11524.97       27401.88
       31060.32       26113.39       5303.188      -21475.41      -35454.25
      -9826.969       44268.09       78207.22       70779.43       45605.49
       10121.88      -34459.86      -58916.32      -48302.12      -8055.688
       38200.86       46976.23       26613.50       19027.70       27046.83
       22423.32      -7797.289      -29865.05      -26818.97      -21485.65
      -13436.76       7921.898       23832.02       6608.266      -38089.25
      -85265.78      -101642.8      -74268.03      -20223.05       39660.80
       73216.20       60386.59       19540.67      -25262.80      -50619.82
      -47565.93      -27998.89      -2682.898       19648.08       31493.45
       26938.43       13632.74       9638.893       7336.988       2512.233
      -825.6846      -5662.299       457.0859       27505.88       58995.25
       64934.04       29299.23      -30993.08      -76922.34      -77272.95
      -49615.99      -20861.37       419.3594       8224.053       6533.178
      -184.9893      -4838.136      -1256.606       3020.333       3949.465
      -4767.719      -17736.15      -10166.03       24730.22       54641.17
       54324.31       40661.22       35647.65       23245.83      -12037.69
      -44381.66      -41427.49       2889.438       54709.81       68131.72
       54649.88       40234.13       18630.00      -7975.797      -29254.49
      -27495.37       9811.297       53296.78       77114.22       78218.94
       64825.14       49853.50       35259.02       16940.79      -1501.000
      -19374.50      -30048.19      -29017.17      -22804.63      -14400.54
      -15262.63      -23464.62      -30608.86      -51749.06      -75213.22
      -72273.09      -53662.03      -41661.27      -21714.86       10435.64
       33952.21       35321.88       12655.23      -21093.06      -48857.03
      -54511.35      -30985.88      -2861.688       12531.77       32735.30
       58059.92       56038.04       22736.28      -7160.293      -7878.086
       14885.31       42524.16       63326.25       73528.31       70900.03
       67740.69       64721.43       47880.77       14887.98      -27006.89
      -57905.86      -60202.03      -54142.94      -58971.19      -63963.17
      -62567.83      -49797.59      -32039.12      -27330.73      -22122.54
      -13594.52      -14265.87      -14305.65      -10208.02      -4311.820
       13511.84       37578.70       52228.46       49749.08       31226.58
       3774.500      -22999.77      -29657.42      -14303.76       1638.711
       9199.984       8664.238       3486.391      -7495.773      -13690.25
      -9135.727       2913.883       23109.26       35965.18       36591.56
       41390.69       48461.83       46086.11       31355.12       7721.887
      -16891.08      -31816.97      -38290.52      -46182.59      -56789.16
      -59064.02      -52645.47      -49608.39      -52526.73      -47901.03
      -40674.72      -36968.42      -24077.31      -2167.406       21233.45
       38016.69       36991.30       25377.60       7949.281      -21283.58
      -50717.25      -56807.43      -38800.93      -17518.39      -2407.766
       11648.39       16746.02       7928.143      -6083.531      -17972.27
      -16862.18       578.8203       10787.49       7717.059       9752.805
       19916.39       23734.40       15458.04      -285.3594      -21585.34
