     0.02500000      -35027.60       30431.14      -12345.00      -12345.00
      -29.99498       232.0300      -32.67000      -12345.00      -12345.00
       0.000000       24.46000      -12345.00      -12345.00      -12345.00
      -12345.00      -12345.00      -12345.00      -12345.00      -12345.00
      -12345.00      -12345.00      -12345.00      -12345.00      -12345.00
      -12345.00      -12345.00      -12345.00      -12345.00      -12345.00
      -12345.00      -30.20850      -67.28640       945.0000       0.000000
      -31.54000      -68.94500       0.000000       103500.0       0.000000
      -12345.00      -12345.00      -12345.00      -12345.00      -12345.00
      -12345.00      -12345.00      -12345.00      -12345.00      -12345.00
       216.6716       47.48177       226.6348       1.948093      -12345.00
      -12345.00     0.04137187       0.000000       0.000000      -12345.00
      -12345.00      -12345.00      -12345.00      -12345.00      -12345.00
      -12345.00      -12345.00      -12345.00      -12345.00      -12345.00
      2008        49         8        51        36
       370         6    -12345    -12345     10482
    -12345    -12345    -12345    -12345    -12345
         1         7        13    -12345    -12345
    -12345    -12345    -12345    -12345    -12345
    -12345    -12345    -12345    -12345    -12345
    -12345    -12345    -12345    -12345    -12345
         1         1         1         1         1
PAGA    -12345          
        -12345  -12345  
-12345  -12345  -12345  
-12345  -12345  -12345  
-12345  -12345  -12345  
-12345  -12345  -12345  
-12345  -12345  BHZ     
ZL      -12345  -12345  
[...]
       1979.787       118.8716       2026.116       1904.298      -1043.742
      -1226.354      -2842.744      -5381.889      -2395.462      -663.2451
      -3741.134      -4976.420      -2071.929      -1172.033      -3960.757
      -2062.329       3438.083       3255.031      -192.3300      -18.53552
       984.3267      -880.3806      -324.6357       4453.150       6366.208
       3123.157       2824.835       3733.396      -335.2751      -842.5156
       3119.312       5600.504       6664.523       5813.691       3580.534
      -1370.162      -5484.257      -4126.188      -3150.088      -3039.721
      -2217.345      -1592.344      -688.7671      -115.7812       1574.373
       2339.186       965.1506       96.67676      -1438.237      -3853.409
      -2358.473       493.5938       3046.857       5051.144       1484.858
      -844.8750      -59.99023      -2095.510      -2259.286      -681.3030
       473.2559       2762.866       2008.852      -741.3398      -4009.486
      -7568.758      -3881.035       3973.809       6881.698       5681.473
       2882.696      -1524.287      -3790.026      -625.8838       2937.250
       2559.956       730.1187      -1660.094      -3681.250      -4816.269
      -5435.339      -3227.184      -1268.893       178.4644       2189.400
       1897.471       2097.616       2762.155       1764.768       1465.187
       39.98340      -3195.427      -2783.596       377.2280       2378.935
       1834.772       764.0103       2041.976       854.3311      -4465.305
      -5559.994      -1873.301      -771.8711      -699.0923       1485.008
       2649.071       675.7549      -3000.683      -3564.526      -910.9617
      -131.2116      -421.5713       1381.139       2972.841       1948.470
       177.2075      -511.9521      -1990.737      -4401.006      -2593.249
       532.8105       1258.296       2180.141      -990.6738      -5238.031
      -4787.449      -4789.472      -4172.397       569.1348       3575.045
       2883.421       2569.785       2018.966       658.3510       129.2505
      -383.2087       97.13379       364.8093       374.8892       1448.149
       1567.975       1661.974       1062.045      -104.6631      -191.1996
      -72.10352       1207.867       2877.192       3817.418       4215.948
       3816.438       2553.658      -318.7646      -2080.151      -1435.303
      -586.7451       3399.777       7733.139       5993.116       1754.188
      -1911.225      -7432.223      -10806.44      -7859.811      -4128.553
      -2131.695      -651.3677       147.4971       3.353516      -2759.398
      -3065.425      -585.5963      -398.8262       1024.432       2677.691
       1277.535      -677.9434      -4804.158      -9116.358      -6359.164
      -1388.277      -1648.115      -391.9507       3060.789       748.9556
      -2125.853      -1372.244      -914.6885       1381.612       4359.107
       4835.755       2605.662      -1721.746      -3275.688      -5038.316
      -7327.662      -3218.165       792.8459       479.0203       752.5352
       2554.746       3067.852       1076.483      -284.1123       567.9346
       3071.851       2879.152      -1795.426      -2461.956       1032.266
       2030.427       397.8562       55.50000       2748.484       4046.715
       4475.568       6511.889       5733.944       3514.211      -15.83789
      -4711.740      -4430.179      -435.1401       2341.129       1532.330
      -644.6787      -2785.838      -4493.553      -2255.517       484.4115
       510.1456       125.2080       773.2925       1915.893       2376.494
       483.2717      -1608.533       353.4524       1761.102       345.6919
      -743.0322      -1920.605      -443.1787       2007.617       2657.664
       3959.463       2331.864      -1469.378      -366.2329       1875.780
       851.6964       339.7190       221.7930      -1486.778      -1901.127
      -1006.291      -1102.128      -785.1511       731.1489       754.6306
       16.01660       1573.852       4133.790       2502.691      -2573.523
      -3615.496      -178.4658       2870.464       3424.447       2305.418
       2432.384       2053.661      -515.6348      -2047.747      -2612.733
      -4256.828      -3894.102      -588.9072       2770.906       5978.891
       8324.485       5977.194      -438.3828      -4156.781      -2738.516
      -776.8279      -110.3032       1061.478       2330.959       2448.661
       2326.125       405.8442      -2563.029      -2640.470      -2486.928
      -2140.479       43.01111       336.3154      -1411.481      -3127.837
      -2265.664       2177.713       6702.656       6694.774       3158.239
      -1184.631      -4481.952      -2679.827       1242.070       1682.042
       1435.292       1333.521      -474.1299      -2874.576      -5106.615
      -5590.270      -3108.436       1594.777       5422.095       5561.102
       4568.153       4456.180       4179.320       1305.580      -2709.154
      -5523.139      -7349.562      -6029.453      -2314.431       1663.375
       5379.939       6319.231       3957.131      -1320.295      -7008.297
      -8660.196      -3234.035       4760.242       6753.666       4087.540
       2168.408       942.2617      -1963.212      -4458.135      -3383.477
      -1304.799      -713.1572      -2036.766      -2489.637      -2238.827
      -3092.148      -1921.609      -794.2507      -763.7256       2830.537
       6088.143       4560.292       63.62891      -2965.457      -3269.140
      -3397.902      -2764.384      -2340.240      -2043.326      -1287.801
      -1593.865      -569.9138       970.8517       419.5693      -1984.164
      -3069.692      -478.1348       2730.621       4353.916       3827.340
      -390.9336      -5021.499      -4747.831      -1840.472      -1870.557
      -1918.589      -586.0271      -25.15625       2882.217       6159.022
       5051.322       2171.657      -137.0654      -1394.407      -596.2261
       1686.550       2318.134       968.8706      -811.1104      -2511.077
      -2515.998      -2344.281      -2967.139      -2328.105      -1120.807
      -586.8800      -176.2236       1893.943       2791.531      -16.59082
      -3102.525      -4886.617      -5663.198      -3824.604      -2503.458
      -4167.024      -3231.323       655.8462       1434.447       1293.445
       1686.563       1449.639       3387.082       5993.162       4910.324
       2239.279       442.5176      -3784.418      -8564.938      -6204.062
       482.0576       2304.229      -316.0933      -496.2417      -960.3096
      -3937.339      -1292.828       3878.030       3568.289       1277.125
      -577.0264      -2440.999      -1839.186       1673.193       4650.774
       2969.173      -1372.920      -1618.466       1.102051      -602.3204
      -1138.335       888.4158       1778.715       451.3789       1226.837
       3503.471       4222.063       2671.520       1491.336       2552.421
       2918.535       2430.693       1671.621      -882.2344      -3209.031
      -3444.867      -2163.271      -203.5298      -421.0273      -1622.603
      -1900.876      -2460.354      -2042.432       1514.340       4768.621
       3938.326       2029.735       1575.593       1601.185       1847.525
       2167.037       2289.994       204.7407      -2444.186      -1491.636
       1256.234       2310.976       1431.208       933.2056       2097.404
       2966.018       4725.023       7006.073       5663.238       388.0713
      -3671.065      -3587.292      -1850.833      -992.3481      -2122.339
      -3764.622      -2602.084      -216.2031       1595.019       1926.883
      -237.8130      -2402.309      -2824.165      -2067.616      -233.4365
       3203.417       5155.412       352.9951      -4623.586      -3233.804
      -694.6162       1883.128       5299.552       3230.367      -3068.581
      -4738.812      -1976.334       1126.724       2659.690       1448.163
       195.0503      -732.6941      -1128.871      -1026.455      -2183.893
      -44.88965       3202.828       542.1387      -2146.755      -2304.183
      -1124.393       2280.407       4742.161       4996.095       3664.086
       1687.710       1524.192       1855.740       538.0244      -735.1904
      -2069.774      -3010.728      -430.0889       3109.932       2241.067
      -1263.224      -2475.003      -2235.780      -1113.536      -142.2195
       303.1953       2626.727       4320.423       2519.987      -1095.835
      -3648.698      -4374.669      -4585.748      -3027.685      -595.9077
       510.8660       717.4182      -218.2051      -2483.849      -3583.703
      -3183.265      -2904.425      -2878.889      -2454.547      -2001.000
      -3143.114      -4285.698      -1094.918       4967.402       6896.431
       3310.900      -1131.364      -3531.073      -4048.120      -2989.860
      -311.6667       555.7571       422.8826       12.22998      -1132.840
      -79.16504       1213.531       1109.515       688.8831      -78.95557
      -650.9918      -299.3770       2445.372       5514.823       4333.744
      -490.9414      -5109.100      -7611.043      -8199.941      -7464.869
      -4090.998      -569.0199      -90.90332      -989.0454      -1946.053
      -1374.734       1900.832       5132.270       7320.428       6747.128
       3803.061       1857.532       886.7788       1131.686       1658.075
       1181.341       1702.555       3180.787       2268.207      -1837.514
      -4530.896      -3645.935      -1947.370      -1169.984      -1533.569
      -2304.013      -2225.821      -1557.565      -824.3311      -1360.513
      -1923.065      -2082.807      -1750.603       1448.900       4039.551
       3582.217       2895.559       1792.395       1046.994       1136.761
       1944.390       1939.057      -329.5557      -147.7466       1861.114
       1775.430       742.8123       153.6245      -672.7705      -3182.130
      -2661.654       1514.385       2568.236       1131.689      -187.8933
      -1174.659      -871.4756      -2113.841      -2950.820      -1313.595
      -1256.011      -1067.701       319.3406      -239.8960      -1952.798
      -2863.125      -2412.896      -1547.389       228.1005       922.7578
      -394.8221      -611.1782       179.7080       2218.639       5486.596
       6736.143       5342.616       2471.222       455.4733       559.8911
       55.59082      -632.6763      -1068.603      -2162.169      -2165.003
      -1945.568      -1946.405      -2132.186      -3384.681      -3429.555
       192.0732       4140.621       5277.960       5119.635       4717.781
       3862.445       1464.686      -1570.467      -1698.278      -1110.014
      -1846.645      -286.5000       2585.032       2973.299       2027.139
       1333.349       1369.881       2505.523       5102.984       7004.277
       6263.423       4530.305       3001.950       784.1046      -915.2958
       1.759277       997.4463      -471.0537      -2822.588      -3445.465
      -2178.966      -1756.967      -3697.195      -4968.471      -3384.973
      -2076.216      -675.7227       2109.990       2533.902       2576.086
       6042.054       5534.216      -320.4346      -4343.387      -4793.633
      -2896.536       1017.789       5675.000       7523.372       5406.730
       1493.431      -2023.327      -3061.580      -2656.583      -1277.270
       4909.465       11204.04       8007.891       1505.070       142.2070
      -786.0137      -3724.119      -3957.094      -2487.127      -2491.028
      -2639.252      -3172.888      -4391.629      -4517.719      -3492.982
      -2151.236      -1857.479      -2886.471      -4238.628      -3223.124
      -513.8447       905.7285       2642.332       4172.230      -108.8047
      -6835.431      -5695.877       830.2539       4037.762       4042.423
       2718.600       948.9976       1079.631       1610.621      -903.8320
      -2396.080      -1151.956       1484.551       5464.602       6724.055
       5795.524       4054.753      -355.8242      -2420.110       313.9043
       2857.078       3214.542       1662.589      -1978.373      -3999.812
      -4811.703      -7221.591      -6457.517      -807.5469       3399.671
       2771.876      -643.4707      -3831.521      -5862.311      -7799.607
      -9179.969      -9498.281      -9638.640      -5154.064       3907.631
       8589.329       6230.135       232.3906      -6637.926      -11186.74
      -11303.77      -8542.872      -5590.276      -1830.061       881.3785
       671.0625      -1815.475      -5635.945      -10160.66      -12898.62
      -8197.932       2643.801       13178.17       22902.18       30300.68
       30431.14       22049.22       7935.208      -3532.435      -4521.719
       2648.801       13454.02       23413.27       28607.96       29679.59
       22171.98       1971.852      -22009.22      -35027.60      -29312.55
      -14265.43      -2268.876       3311.003       2812.828       904.8018
      -2026.500      -11411.70      -23056.43      -31494.38      -33546.54
      -22522.95      -7189.298       324.7344       10016.12       20613.09
       18540.29       8952.541      -2442.562      -16125.08      -24378.77
      -20667.04      -8247.484       3891.664       11480.32       14882.61
       9530.547      -2984.398      -12409.08      -18070.73      -20422.91
      -12545.24       4744.055       18130.03       18124.48       9107.169
      -973.0547      -11784.22      -20527.60      -15901.44       1893.664
       17319.20       22331.25       21116.43       15438.42       3230.582
      -5761.412      -5327.539      -4681.717      -7643.898      -12002.20
      -8843.848       7514.219       23486.30       29831.30       23484.82
       5967.625      -7347.027      -11085.08      -10383.07      -3427.742
       9055.574       20728.02       19811.17       2714.977      -12506.73
      -14475.08      -10795.00      -4918.630      -220.3691      -3025.992
      -3459.374       4081.781       6922.669       3541.849      -1898.863
      -10397.55      -16594.07      -13677.82      -5674.540      -1989.157
      -424.3477       6358.164       13014.04       10048.47       1942.424
       2656.098       8921.181       2319.492      -13199.79      -14871.57
      -5128.396       655.7227       5439.914       13311.27       18001.78
       17537.55       15769.01       12183.45       6426.088       3828.519
       2902.882       486.8203      -1036.113      -6946.957      -16384.65
      -12480.13       2407.629       9707.512       7683.653       2437.297
      -4994.824      -12411.31      -17505.52      -18607.94      -14781.46
      -9836.291      -4131.977       6518.199       19005.80       24992.35
       20088.01       8702.307      -4496.199      -16645.66      -18199.46
      -5463.330       5788.185       6434.037       3404.304      -1273.868
      -4720.165      -2799.530      -1356.836      -2698.006       757.7383
       10193.46       16627.89       17268.24       12503.63       6037.347
       1375.645      -4862.871      -9147.242      -8589.449      -8182.352
      -8226.125      -5095.030       2896.635       9971.312       9054.563
       5231.800       1069.148      -7443.410      -12804.36      -12383.92
      -16548.92      -22645.97      -17222.36      -2723.064       7183.391
       7343.582       2003.535      -6070.891      -13222.40      -12717.94
      -5319.387       2900.779       6541.182       4601.727       5147.488
       9187.373       8194.785       3038.814       347.9305       153.8069
      -7.941406       53.84961       2825.982       6792.119       6588.345
       2578.632      -3098.523      -8678.473      -8641.546      -4815.739
       848.4297       9811.383       14549.47       9151.054      -2398.762
      -12734.06      -14840.60      -9693.830      -2053.713       5303.406
       7484.871       4324.295      -1485.270      -10035.32      -15412.26
      -12950.82      -5479.295       5238.617       14990.31       20306.13
       21717.48       15634.27       3321.136      -5125.487      -1580.551
       8947.918       15177.48       13853.16       9152.606       5749.069
       1060.111      -5938.262      -9084.535      -8834.037      -8194.156
      -5581.359       173.0879       5959.322       7400.364       1974.875
      -7129.242      -11560.47      -6865.781       2454.926       7756.081
       3905.400      -7122.812      -16146.09      -16679.74      -12353.34
      -5523.785       4714.074       12068.25       12939.24       10307.60
       4618.628      -1688.155      -5006.433      -3738.836      -332.5352
       3545.496       8309.664       11537.39       11713.32       11237.05
       13502.93       14061.09       6484.289      -3669.746      -10107.51
      -13949.99      -14157.98      -9835.576      -5996.730      -4268.208
      -2211.080      -1949.295      -5266.325      -6174.408       1615.441
       11645.11       12371.63       6013.546       505.5664      -3265.292
      -3944.172      -2624.734      -6596.969      -12842.86      -16427.16
      -16249.75      -6360.012       8338.652       13720.13       7963.245
       213.6172      -3687.634      -4351.667      -3206.528      -1688.965
      -2691.113      -5348.192      -3815.519       2369.389       8099.840
       10746.97       9074.467       3928.499      -106.2080       721.7793
       5754.945       9430.098       8736.482       4688.289      -2428.461
      -14027.90      -23363.40      -21758.21      -12454.50       667.4492
       12037.46       13667.55       8373.571       1981.057      -3708.783
      -7456.258      -9187.736      -8224.771      -1177.828       10446.52
       19269.38       17161.10       3011.773      -13552.53      -21311.67
      -16548.07      -7997.877      -3129.496       1086.652       6047.266
       8079.993       4834.890       1570.939       277.5264      -2139.484
      -4005.146      -4718.674      -5195.095      -5138.235      -2724.525
       3905.945       11080.95       15155.74       15885.55       12087.14
       6365.703       3487.674       1637.022      -1224.132      -3231.804
      -2032.289       2789.842       7003.602       5023.125      -1537.844
      -8006.941      -13842.24      -17355.28      -12896.55      -2709.112
       1584.493      -675.3594      -1869.181      -2098.811      -2859.251
