     0.02500000      -59253.87       44085.15      -12345.00      -12345.00
      -29.99498       232.0300      -32.67000      -12345.00      -12345.00
       0.000000       24.46000      -12345.00      -12345.00      -12345.00
      -12345.00      -12345.00      -12345.00      -12345.00      -12345.00
      -12345.00      -12345.00      -12345.00      -12345.00      -12345.00
      -12345.00      -12345.00      -12345.00      -12345.00      -12345.00
      -12345.00      -30.20850      -67.28640       945.0000       0.000000
      -31.54000      -68.94500       0.000000       103500.0       0.000000
      -12345.00      -12345.00      -12345.00      -12345.00      -12345.00
      -12345.00      -12345.00      -12345.00      -12345.00      -12345.00
       216.6716       47.48177       226.6348       1.948093      -12345.00
      -12345.00    0.001871857       90.00000       90.00000      -12345.00
      -12345.00      -12345.00      -12345.00      -12345.00      -12345.00
      -12345.00      -12345.00      -12345.00      -12345.00      -12345.00
      2008        49         8        51        36
       370         6    -12345    -12345     10482
    -12345    -12345    -12345    -12345    -12345
         1         7        13    -12345    -12345
    -12345    -12345    -12345    -12345    -12345
    -12345    -12345    -12345    -12345    -12345
    -12345    -12345    -12345    -12345    -12345
         1         1         1         1         1
PAGA    -12345          
        -12345  -12345  
-12345  -12345  -12345  
-12345  -12345  -12345  
-12345  -12345  -12345  
-12345  -12345  -12345  
-12345  -12345  BHE     
ZL      -12345  -12345  
[...]
      -2362.380      -2761.871      -3676.500      -4523.012      -1826.141
       1108.805      -372.0322      -3568.637      -4092.797      -2209.076
       1647.801       4449.662       2775.445      -365.7593      -1647.770
      -1364.780      -1226.603      -482.6942       561.9863      -552.6514
      -2968.065      -4583.135      -3523.758      -237.2520       2059.245
       3273.585       1333.152      -3353.891      -3976.961      -1139.022
       1349.382       2097.771      -17.95361      -1266.104      -119.8774
      -269.0771      -840.2109       598.6172       1757.470       1504.897
       383.4575      -1539.874      -1211.719      -23.69238      -1807.229
      -2310.031       342.8242       1884.945       1393.889       1314.691
       2395.270       2119.883       687.7497       410.8710       107.1903
       93.43945       1075.614       2014.057       2181.008       467.4443
      -1509.355      -2914.789      -4928.445      -5486.709      -3262.303
      -1338.879      -1101.299       380.8552       1348.476      -270.5312
      -1275.598      -1103.319      -104.0155       625.7720      -135.9277
       1306.193       5070.025       5917.939       4087.459       3154.675
       3323.042       4331.777       6103.467       6415.256       4115.158
       1938.559       702.8032      -1281.195      -2340.242      -2357.647
      -3653.319      -3667.307      -568.1499       1216.114       696.2739
       1122.573       354.3877      -2978.142      -3829.040      -722.4365
       1964.637       1567.396      -599.6946      -987.2550      -161.3083
      -610.8184      -909.2041      -1627.911      -2414.072      -1171.418
      -407.7554       823.9395       4174.785       5121.792       3098.544
       1216.683      -481.9958      -1065.511      -95.96289      -732.7124
      -2372.334      -2430.511      -3238.036      -3249.469       1165.449
       3383.735      -473.5957      -2769.158      -2903.585      -3844.471
      -1227.174       2958.214       2407.620       245.2314       868.4805
       1282.002       889.4775       2915.337       4172.012       3449.952
       3260.905       2191.097       985.6050      -779.9297      -3458.567
      -2547.562      -154.9832      -461.0400      -1608.933      -1205.138
       93.94202      -209.9553      -789.5876      -815.7363      -916.2466
       861.6084       3633.858       5146.004       4673.712       2825.996
       1601.678       1599.190       846.2231      -714.8907      -332.5295
       81.04834      -1484.113      -1830.399      -1683.376      -2284.784
      -442.7041       2205.296       1226.189      -1309.525      -2351.896
      -3075.964      -3588.788      -2835.465      -927.9756       1013.127
       544.9492      -1790.579      -2873.132      -1471.518       30.01270
      -814.0491      -981.5083      -168.9886      -612.4282       1076.076
       3232.586       1952.356       357.5358      -141.6748      -53.10840
       1723.254       3834.780       2365.169      -560.7000      -385.7109
      -1228.073      -3671.571      -2582.337      -2.499023       2129.819
       4773.366       4721.030       1956.197      -14.65723      -1571.459
      -3120.657      -2926.262      -20.99609       2003.833       674.5859
      -262.5763       302.3962       463.0967       1503.752       3526.247
       2959.144      -150.0127      -2026.850      -1925.230      -1364.823
      -106.7490       1561.474       1238.628      -250.2617       484.7695
       2948.086       3475.113       1019.048      -628.4268      -1335.188
      -4140.680      -6054.566      -4524.523      -2471.912      -2099.597
      -3204.787      -4821.347      -4190.177      -1903.283      -1627.743
      -1688.629      -1446.487      -3282.140      -3190.758      -12.27246
       2141.939       4524.232       6376.566       5213.790       3251.919
       1595.525      -389.4264      -977.5505       158.9189       1415.088
       1369.091       186.0342       706.6335       1565.198       764.6833
      -270.9453      -2204.948      -2333.557       843.1172       2559.679
       1234.548      -371.7715      -321.4067      -291.2596      -343.5659
       706.5098       767.5796      -1385.604      -3672.395      -2602.582
       600.8052       1928.078       533.0459      -1460.109      -2043.059
      -1169.240      -142.1770      -1251.496      -1083.088       997.5513
      -532.3051      -732.2236       2824.558       2789.846      -312.2227
      -1317.844      -1405.031      -2634.269      -2500.990      -1968.261
      -3419.884      -1814.597       1507.831      -477.7812      -3282.973
      -2381.578      -2032.436      -1005.554       2421.312       1423.111
      -2180.715      -19.39453       3369.423       2569.596       1856.999
       2205.639       796.9702      -1026.105      -1443.031      -1150.788
      -748.0210      -415.9570      -1167.375      -2064.268      -1044.411
       853.9258       3266.609       6204.892       6248.107       1737.966
      -2321.398      -2041.111      -52.45410       1423.205       1961.297
       1192.214       19.80762       385.5077       850.1077       349.5433
       433.8401      -565.4253      -1963.514      -1936.030      -2230.491
      -2328.938      -2206.859      -4256.836      -5498.443      -2437.387
      -498.6890      -319.0557       3074.660       5977.683       4416.652
       1791.655       2096.692       2927.997       1389.116      -509.2959
      -2898.404      -5704.250      -6915.854      -5571.633      -1022.822
       3629.090       3570.143      -99.19824      -3016.667      -3677.682
      -2971.968      -2171.789      -2069.219      -2117.098      -154.8027
       3582.602       5191.202       3899.104       2111.148       1170.865
       1302.136       1288.709       616.6543       1625.532       2817.083
       3289.253       4377.679       2262.719      -1785.485      -3005.096
      -3300.749      -3466.047      -896.9268       2201.699       2488.001
       2214.029       2267.456      -236.5381      -3399.330      -1539.566
       2327.696       1588.094       103.1465       2125.505       2368.464
       491.8872       746.6233       1190.724       690.6447       696.7948
       220.8677      -867.6118      -1805.487      -2786.639      -2583.875
      -580.2744       1115.301       492.6143      -1074.303      -2514.910
      -3577.850      -1201.484       2557.592       4770.531       7229.408
       7204.331       3426.235       958.5490       579.9229       305.2324
       1521.481       2660.953       972.3672      -2288.852      -4830.566
      -5437.804      -4756.295      -2119.919       1301.233       2056.330
       184.5527      -2853.945      -3935.589      -1305.703       221.7959
      -912.9714      -704.7129       2505.567       5774.378       3526.502
      -2194.284      -4261.524      -2404.646      -57.42773       1243.256
       2049.491       2518.473       1232.043      -2015.403      -3900.021
      -2775.420      -354.9565       2110.102       2435.253      -598.1968
      -2600.429      -922.6221       290.1036      -134.5220       213.4943
       344.7117      -954.8350      -1878.285      -1354.962      -1033.592
      -997.7549      -1195.740      -1454.006      -82.61816       3358.229
       6792.067       5261.623      -500.0283      -3653.752      -3613.742
      -1654.490       2711.631       4358.891       1365.588      -658.3311
      -753.8528      -33.55469       1861.804       3682.637       4156.728
       1933.020      -1420.933      -2062.279      -1080.731      -1647.806
      -2531.169      -1783.294      -432.5298      -1215.893      -3577.875
      -4342.930      -5062.316      -6523.619      -5758.977      -1928.180
       3265.100       5772.950       4396.621       2113.988       677.8577
       1042.021       1835.897       1882.595       1535.001       627.7495
      -371.8862      -1797.284      -1521.978       444.3713       947.8409
       696.0625      -1303.520      -5103.459      -6427.934      -5319.506
      -5115.325      -4958.370      -3058.390      -373.6982       2012.731
       2436.251       920.5396      -741.3438      -3073.934      -5262.662
      -5210.974      -2299.974       1788.104       3517.717       2749.092
       1631.731       837.5986       1154.088       3567.466       5214.623
       3162.189       1068.183       1390.883       2605.163       3211.606
       2077.118      -722.4160      -3705.188      -4116.262      -1683.839
       639.4399       1502.727       1243.271      -744.7695      -3059.363
      -2219.682       8.606567       280.5372       311.2651       536.0410
      -1120.399      -2077.788       977.4990       3786.014       1874.535
      -816.7676      -999.2955      -446.5879       785.7617       3117.225
       4059.223       2794.807       2351.438       2839.333       1789.349
       1932.033       3955.334       2872.912       161.8055      -227.6929
      -289.9414      -1806.608      -3141.893      -3882.260      -5649.320
      -6444.100      -4595.581      -2882.053      -421.5117       4463.472
       5554.748       97.24414      -4066.155      -2179.444       1384.233
       2020.543       1703.669       2276.800       1009.708      -1852.141
      -2574.143      -2663.653      -4852.984      -4626.908      -1403.573
      -79.40332       268.9951       1639.785       2720.512       2870.122
       1851.449       275.8561      -206.0088      -1170.202      -3430.563
      -2765.260       2127.094       6370.782       5788.829       2129.535
       1270.387       3606.292       2814.005       77.53125      -1010.703
      -2316.958      -3287.730      -1949.268       460.8022       1345.737
       631.0823       428.0107       2613.017       4727.720       3073.893
       635.5297      -504.4800      -1190.829      -47.44824       3186.646
       4745.823       2723.811       1829.858       2375.888       284.9336
      -2238.083      -2635.901      -2227.215      -3004.879      -5413.290
      -5838.939      -1919.802       1722.165       2480.063       1715.777
       970.2104       1859.716       2883.321       1742.735      -1173.731
      -3016.673      -2373.629      -1784.611      -1152.099       1196.785
       3049.119       3493.271       4423.812       5567.818       5150.477
       4339.761       5090.091       5268.196       4743.111       2413.159
      -2045.437      -2488.211       313.8477       1076.976       183.0020
      -1745.829      -4866.977      -5643.916      -3591.284      -3591.629
      -3901.925      -2066.578      -1544.642      -2898.246      -2514.077
       160.6929       1890.740       1719.557       1860.696       1209.952
      -1274.258      -759.3926       3759.678       6966.844       6862.400
       4116.309       108.3525      -1794.701      -1108.560      -1085.274
      -231.0654       2464.184       2553.745       994.8301       1687.123
       2786.031       2021.496       1128.556       1584.554       917.4102
      -1154.042      -2268.449      -1551.932      -576.0840      -1256.368
      -1551.680      -682.6104      -1658.871      -3373.046      -2824.583
      -866.7378       1085.288       2468.930       1204.045      -662.8477
       1481.059       6586.543       8483.756       5014.528       987.1938
      -1494.783      -3740.858      -5009.484      -5147.079      -4377.895
      -3843.601      -3995.208      -3020.128       1816.586       11339.75
       22888.40       34578.20       43495.31       44085.15       36104.73
       25560.64       15540.35       4394.162      -4394.128      -6209.583
      -977.0156       9264.691       15493.53       6770.625      -11884.33
      -23902.39      -23694.34      -23403.25      -34829.44      -49557.38
      -51087.02      -41278.78      -32806.70      -25042.35      -10212.89
       4004.516       7143.327       2222.316      -4476.369      -9599.285
      -7467.754       3228.207       15223.64       25133.30       29999.31
       21924.62       2250.312      -16822.84      -28512.23      -34199.25
      -31794.69      -18056.29       3305.297       21553.18       27746.24
       21792.16       11344.10       4636.452       3584.231       1957.503
      -3457.766      -450.4727       15569.03       25235.82       18550.33
       3505.824      -13834.29      -28542.70      -32145.84      -19036.30
      -1176.750      -1176.734      -14752.42      -15033.95       2063.969
       11393.80       6629.008       5630.191       9225.214       6746.854
      -3186.109      -12142.89      -11590.44      -6793.246      -7882.287
      -8095.062       2832.055       13309.78       17450.56       26867.66
       36011.09       25928.49      -229.8047      -30946.16      -58733.80
      -59253.87      -27156.27       1301.000       13785.66       25020.43
       30997.86       26629.18       13806.14      -4714.547      -16321.92
      -20786.02      -26084.05      -24721.92      -16424.45      -8939.623
       1827.277       10172.77       8574.771       7232.078       11473.42
       20810.96       29086.22       22506.32       5477.801      -3845.127
      -5836.430      -8617.759      -6217.838      -1533.188       4132.633
       17382.60       31063.17       33442.69       15353.13      -12112.94
      -26666.38      -27123.88      -11282.48       16705.10       26934.01
       18174.29       13417.87       1048.469      -22486.79      -31003.59
      -20551.83      -3989.906       13968.03       27090.34       27915.23
       18608.48       5207.703      -6972.875      -14389.41      -19301.02
      -20333.35      -15426.33      -4941.387       12875.70       28628.59
       29570.94       19682.33       6226.012      -6191.242      -12699.47
      -11831.67      -1479.887       14473.36       20589.38       15072.43
       5259.098      -9185.805      -22411.48      -27767.46      -22335.07
      -7999.716       2683.146       2740.084      -4375.613      -13940.33
      -22092.22      -29808.64      -32542.34      -19892.91      -1644.957
       9953.195       13127.90       2762.891      -12043.77      -15916.02
      -13175.04      -7970.961       3765.531       17507.24       22569.81
       14128.04       3491.694       451.5132      -2018.479      -3869.225
      -3674.435      -1357.678       7505.195       13321.71       7875.675
       2017.379       8057.938       19585.71       17794.96       4175.256
      -3412.888      -2804.900      -1691.368       230.1377       1023.730
      -5784.602      -13287.45      -10898.69      -7582.941      -12539.32
      -16536.85      -14051.20      -11072.24      -6078.044       426.8545
       2504.252       5475.961       10443.69       8346.840      -454.2520
      -9486.613      -12705.86      -7564.260      -2277.969      -674.6445
       1933.577       1214.415      -687.0625       7540.758       16285.88
       12396.55       5504.889       3671.304       3467.168       4063.270
       5320.402       6583.266       8946.668       8083.580       4507.123
       7550.338       9817.361      -1711.098      -17383.47      -22371.64
      -16228.39      -3641.938       11167.69       17275.04       11625.58
       3186.598      -5830.934      -14852.10      -17262.90      -13379.20
      -6419.934       6013.969       16850.11       18317.45       15108.18
       6004.980      -8180.574      -14258.48      -10121.49      -2117.387
       9347.598       19284.45       17992.75       6608.005      -1755.487
      -1347.262       3733.465       11014.20       16656.43       12488.98
      -538.0547      -10580.82      -11996.51      -10655.09      -12610.43
      -16245.04      -13543.07      -3917.492      -2764.059      -11512.73
      -12246.20      -3924.662       3338.648       6098.338       4346.827
       1864.079       1178.594       1329.348       4820.254       9549.777
       9160.232       5597.873       121.5996      -5467.306      -3551.458
       1769.512      -197.1211      -7620.211      -8542.615      -2334.654
       2508.539       10354.81       21873.54       22704.10       12370.87
       1776.871      -6839.123      -11234.88      -6981.273       2985.979
       10335.98       9961.806       5571.090       2880.857       450.3008
      -4779.621      -10260.00      -11832.01      -9813.801      -8217.613
      -5617.919       1599.621       9614.648       12592.73       8822.041
       3553.260       3156.097       1467.420      -5572.549      -8263.674
      -2594.346       1684.061      -41.59399      -117.5332      -1133.340
      -12733.99      -27697.65      -33329.94      -28760.65      -16637.86
       2519.188       22122.40       31579.90       27065.24       16004.21
       5759.753      -3279.562      -11137.75      -15975.88      -13981.15
      -5045.283       3997.564       10040.30       11588.61       5627.545
      -917.9395      -2606.682      -5095.318      -4665.158       5608.562
       16817.75       16747.95       7140.491      -728.0889      -2658.261
      -4070.254      -4683.562       2264.539       12432.75       15314.22
       11754.98       6697.953      -1813.672      -13661.96      -18497.07
      -14180.85      -11973.87      -13121.13      -10094.00      -3247.481
       1657.572       3166.058       2958.995       337.2808      -1517.374
       182.4863       2243.879       5619.996       8513.296       5949.401
      -88.63086      -6834.121      -7344.153       622.7910       5722.623
       5625.580       6469.202       5378.633       766.0024      -1792.098
      -693.3716       1056.669      -34.94336      -4002.986      -6280.334
      -2267.997       4772.252       6554.984       8607.727       14451.04
       11382.68      -2227.754      -9650.436      -4371.996       2488.639
       6810.172       10121.82       8622.510       3163.773       1396.314
       3147.197       2586.979       3523.960       5313.266       954.3555
      -6918.430      -12975.81      -12549.95      -5078.527       3405.875
       9614.275       8291.557       1888.116       157.0879      -3278.172
      -13408.63      -24222.62      -32097.53      -29757.42      -17512.20
      -6274.637      -193.3442       1739.493       2218.481       1716.477
      -3660.016      -11969.98      -16000.54      -11072.96       1129.297
