     0.02500000      -83278.73       88371.39      -12345.00      -12345.00
      -29.99498       232.0300      -32.67000      -12345.00      -12345.00
       0.000000       24.46000      -12345.00      -12345.00      -12345.00
      -12345.00      -12345.00      -12345.00      -12345.00      -12345.00
      -12345.00      -12345.00      -12345.00      -12345.00      -12345.00
      -12345.00      -12345.00      -12345.00      -12345.00      -12345.00
      -12345.00      -30.20850      -67.28640       945.0000       0.000000
      -31.54000      -68.94500       0.000000       103500.0       0.000000
      -12345.00      -12345.00      -12345.00      -12345.00      -12345.00
      -12345.00      -12345.00      -12345.00      -12345.00      -12345.00
       216.6716       47.48177       226.6348       1.948093      -12345.00
      -12345.00   -0.007986465       0.000000       90.00000      -12345.00
      -12345.00      -12345.00      -12345.00      -12345.00      -12345.00
      -12345.00      -12345.00      -12345.00      -12345.00      -12345.00
      2008        49         8        51        36
       370         6    -12345    -12345     10482
    -12345    -12345    -12345    -12345    -12345
         1         7        13    -12345    -12345
    -12345    -12345    -12345    -12345    -12345
    -12345    -12345    -12345    -12345    -12345
    -12345    -12345    -12345    -12345    -12345
         1         1         1         1         1
PAGA    -12345          
        -12345  -12345  
-12345  -12345  -12345  
-12345  -12345  -12345  
-12345  -12345  -12345  
-12345  -12345  -12345  
-12345  -12345  BHN     
ZL      -12345  -12345  
[...]
      -1115.445       978.1552       1308.924      -1901.494      -890.0913
       3376.945       802.9048      -2865.878       840.3442       2565.268
      -657.2451      -3244.782      -3068.503      -302.7334       2256.350
       1425.615      -155.9073      -523.0020       1970.058       4850.280
       3835.206       1416.725       2424.806       3705.220       2490.820
       586.7825      -378.6890      -2298.901      -2222.117       2056.163
       4287.889       2000.440      -191.5403       668.3347       1591.715
      -2262.670      -4341.429      -2810.651      -2368.357      -1859.239
      -1064.529      -2395.963      -3662.616      -1960.526       1447.451
       2939.512       5684.078       7359.800       3481.018      -3390.021
      -7311.941      -7493.373      -6745.778      -2600.282       2725.948
       2933.768       2177.533       118.7539      -4277.779      -4953.499
      -666.8545       1410.910      -1123.785      -2148.510       1521.018
       4550.812       5535.653       4401.077       820.8076      -3530.724
      -4351.888      -1223.848       1105.366       1046.467       2355.003
       4266.674       5474.362       4166.779      -719.7168      -4796.785
      -4582.504      -2520.051      -503.7925       985.4116       415.4766
      -2676.895      -3034.088      -925.5422       461.7808       1735.384
       2545.248       921.7102      -275.2229      -372.2305      -391.0669
      -604.0125      -184.3423       498.3733       753.8428      -1789.970
      -3893.910      -542.5715       1242.797      -585.2876       672.4480
      -78.73535      -2165.942      -838.5430      -702.6895      -3782.008
      -4235.785      -2195.293      -32.81494       1457.704       1667.482
       2185.538       4354.230       5034.823       2678.350      -48.83215
       281.6880       1240.294       108.7976      -1376.174      -364.0210
      -1333.078      -4307.147      -3988.410      -972.4824       1049.429
       1600.236       226.3960      -1254.885      -668.7344       1259.362
       1975.970       1470.500       892.3696      -192.0049      -2830.107
      -3082.738      -1669.946       103.1104       2558.493       2815.513
       1080.349       976.8014       817.1143      -1146.630      -2838.148
      -1648.389       1753.543       5305.109       6054.673       4916.753
       1592.570      -2348.105      -2120.547       1560.353       4264.441
       5988.373       4994.156       708.0186      -4335.145      -6708.102
      -6175.854      -4310.566      -3263.069      -3062.325      -2551.717
      -557.0820       1381.072       1892.150       1653.308       1074.169
       419.1758       1767.819       3287.299       2460.565       739.8229
       608.3858       280.8286      -804.8901      -2277.060      -2321.449
      -1716.426      -2231.150      -3261.483      -1817.706       396.3960
       1498.464       2263.478       2707.547       1097.412      -1816.984
      -4212.300      -4177.939      -2151.346      -365.6807       1541.846
       4601.098       5205.997       4222.534       3202.693       157.1821
      -2777.466      -1826.405       477.7112       1766.954       191.8760
      -2582.243      -4489.439      -5593.627      -6322.650      -3512.341
       2612.053       6683.592       6583.435       4395.663      -848.7734
      -6767.502      -8628.726      -5542.622      -1968.282       607.9229
       2902.122       1852.812      -1247.135      -1007.762      -832.7134
      -1681.321      -175.8389       1785.487       466.8525       549.4102
       3765.458       4245.761       595.5996      -1099.391      -592.5264
      -2084.070      -4334.560      -1769.483       3782.714       5637.581
       3072.296       578.5068      -1782.432      -2829.962      -1432.965
       863.1943       1196.896       339.1240       1542.705       2893.033
       397.3638      -840.0950      -17.76636      -176.0591      -725.0093
       119.5391       2390.452       3666.426       1400.704      -2101.234
      -2651.661      -556.0190      -520.8675      -71.88440       929.7162
      -171.1111       526.0703       2638.810       500.8818      -2458.113
      -993.1543       3296.559       4718.289       2277.145      -2204.037
      -3620.348      -921.3037       1970.294       4006.932       5989.728
       3760.226      -2988.717      -5535.888      -2303.131      -1644.081
      -2095.524      -1498.953      -1847.322      -2789.079      -3256.229
      -2276.659       1623.824       4598.255       2929.180      -209.9775
       58.16943       1879.339       3648.181       4928.094       4876.862
       3275.858       1755.698      -1763.771      -5811.017      -4674.304
      -1063.469       36.21460       1245.642       521.0723      -3523.155
      -5885.195      -4483.759      -1395.914       1968.407       2606.509
       2550.755       2637.635       1644.578       421.2418       38.42899
       231.3647      -411.7539      -1644.726      -1494.582      -1268.167
       1029.317       4718.604       6523.353       4891.411       1446.927
       105.3019       460.3706      -1430.220      -3883.023      -4514.120
      -4402.012      -4439.401      -2480.462      -16.86993       453.4786
       82.22864       912.7778       75.79688      -1994.414      -2843.847
      -1958.104       1870.365       6327.381       6205.899       3456.100
       1200.520       980.0273       1559.365       2202.484       3098.076
       2694.088       1071.612      -729.9883      -3679.541      -5027.448
      -5260.468      -5293.459      -2635.626       863.9780       837.0552
      -901.5298      -1724.962      -525.7830      -195.0522      -1732.727
      -1265.637       334.2043       155.3706       768.4634       1053.583
      -46.40015      -987.1194      -855.1039      -393.0168       384.0139
       824.4861       257.1753      -778.4414      -1763.511      -3281.072
      -2609.054      -109.8057       1494.970       2749.711       4664.361
       4915.025       2515.626       280.5905       731.6580       181.3594
      -1915.063      -3028.104      -2121.071      -413.6372       1740.134
       1269.231      -2101.693      -3005.519      -2838.937      -2865.501
      -295.7241      -335.2388      -2196.385      -203.9946       2555.650
       463.9531      -2959.825      -3378.639      -2284.710      -1014.045
       1084.210       2829.263       2260.082      -1140.981      -2444.148
      -63.05078       377.5435      -2342.301      -827.5898       2229.220
       846.4521      -20.30078       2202.634       2215.083       749.0942
       1711.643       3506.332       3251.785       1322.917      -1407.313
      -2914.208      -3320.799      -2474.761      -1264.442       244.6135
       817.7568      -312.3657      -1701.182      -3308.903      -4953.029
      -5436.676      -5547.193      -4398.699      -1037.666       3473.729
       5925.863       5442.791       2404.328      -2662.479      -5925.906
      -2779.009       2659.324       5377.928       5735.145       4646.810
       1550.388      -1198.951      -1742.157      -579.7861       323.1133
       643.9409       830.9857       370.5092      -505.8425       22.55933
       1111.365       531.5417      -990.9745      -108.7390       1272.495
       1414.336       2274.625       4521.805       5566.342       4081.481
       1366.143      -590.8496      -2668.065      -3972.997      -1883.617
       608.6277      -696.4111      -2850.598      -3638.706      -4163.604
      -4093.798      -1504.743       1652.283       2502.174       1772.355
       2243.183       3254.302       3010.244       1570.217       425.5322
      -1372.619      -2888.994      -1712.519       1234.898       3153.659
       1883.338      -834.9463      -579.0786       1395.163       2730.526
       3137.007       2511.396       1657.301       2345.326       2778.269
       1608.530       258.8059      -18.53711      -2456.545      -6910.170
      -5831.718       9.025635       1093.733      -1117.548      -1535.633
      -1486.397      -1020.526       1198.526       3151.967       2436.911
      -2147.902      -6529.808      -5219.845       125.8760       4129.591
       4187.900       402.0312      -3617.807      -5845.849      -4810.470
       223.2188       5097.889       6454.967       4795.503       1437.429
      -182.1167      -653.3254      -246.9546       2082.427       3699.774
       2387.998      -391.6531      -1371.887      -41.00317       1012.115
       817.2617      -1134.461      -2164.104      -468.5010      -411.3145
      -2629.036      -2731.925      -192.0857       1569.908      -1601.532
      -5445.259      -3263.842       3333.740       8265.273       7661.855
       5490.098       6053.794       4892.571       498.1704      -1699.259
      -1367.016      -2994.686      -4296.527      -4668.190      -4531.545
      -1743.765      -917.7520      -5090.152      -8511.904      -6248.138
      -609.4082       3064.725       5213.004       6219.310       3467.812
      -916.6875      -1919.440      -444.0283       1028.337       3717.332
       3907.739      -366.2622      -1935.541      -951.4702      -1127.927
       50.84375       2947.125       2757.202      -1002.292      -4036.943
      -3850.383      -1618.499      -1172.823      -3007.099      -3151.575
      -746.9995       1486.448       1876.661       2648.876       3814.646
       2208.380      -722.3618      -2330.238      -1995.051      -350.4498
       523.0526       508.1482      -363.2236      -2452.279      -4037.329
      -2485.122       892.3096       3432.939       3885.031       3257.924
       2961.181       2043.400       1894.608       2573.598       421.8125
      -3922.652      -5409.265      -4048.324      -2599.505       648.1768
       3088.073       2169.105       987.0707       131.5752       1010.721
       3420.712       1347.107      -4660.754      -5453.581      -1341.325
      -135.1584      -565.8044      -295.9854      -1135.688      -1521.203
       481.4170       3305.915       3771.667       3005.783       2142.559
       167.7341      -49.33496       1650.130       2354.752       956.7388
      -1816.799      -3403.481      -3307.753      -2532.427      -2243.307
      -1312.623       1480.252       3325.897       2683.481       3049.345
       3918.774       2062.617      -402.7495      -1049.146      -1164.155
      -2369.484      -3501.514      -2614.680      -1746.182      -2688.014
      -4798.038      -5863.761      -3378.447      -11.33984       863.1455
       2731.139       5736.364       5259.880       2179.202      -557.5273
      -2609.406      -1865.004      -76.74707       318.6221       1684.140
       3769.763       3394.898       2151.300       1117.514       434.1016
       2001.617       2114.231      -1522.968      -1868.650       956.8916
       1601.633       1361.864       1480.417       676.9507       525.0588
       449.0410      -530.0659      -1676.077      -4298.173      -5755.566
      -2808.573      -801.6326      -223.8408       1510.528       2947.979
       4384.131       4816.821       2177.621      -187.7783      -827.0137
      -479.4199       1342.533       5125.791       7669.631       6802.750
       5939.801       5518.744       1810.652      -1322.567      -579.6661
       315.6096      -409.6371       31.90503       291.2637      -3076.777
      -5337.561      -1462.374       1628.418       1756.616       1452.717
      -611.6641      -2412.106      -2182.318      -3214.754      -4302.798
      -2472.016       1996.543       4963.342       4281.632       2463.694
       2586.810       2896.748       2210.651       3476.350       6062.935
       4624.353       631.4136      -1541.660      -1697.688      -2950.736
      -3486.502      -3470.680      -4997.390      -4564.779      -2166.312
      -944.9393       344.4323       237.3789      -919.2671      -2261.424
      -2907.863      -272.1816       4155.229       4010.805      -369.6992
      -4206.803      -2287.607       2920.883       3775.282       825.8611
      -974.9261      -789.1938       1035.063       3681.394       5729.704
       3982.475       810.0654      -1565.088      -2529.657      -1000.968
       2464.080       4107.772       2394.330      -1854.895      -6472.693
      -8899.540      -5614.685       739.5508       4897.115       5560.198
       3586.172      -539.5400      -2981.077      -2876.711      -310.8623
       3085.773       6111.805       11550.51       18253.73       16505.98
       3515.570      -18190.38      -43490.72      -63547.23      -69659.38
      -57367.73      -28657.62       6534.266       40207.66       59772.36
       52702.65       20479.01      -26596.27      -70689.12      -82532.55
      -50135.92       12522.48       70198.30       88371.39       64297.95
       18301.14      -26660.00      -53518.41      -62429.88      -54244.26
      -27586.91       10164.88       43104.31       54649.24       35939.58
       3261.203      -17432.94      -24558.65      -29360.89      -31932.73
      -29306.33      -7910.406       27640.23       51378.69       62191.77
       66465.83       51226.05       10410.33      -44080.78      -71792.12
      -42723.31       18790.12       67196.17       84918.23       78652.30
       44335.67      -12055.12      -52046.84      -57813.75      -32710.98
       15856.03       60753.91       71401.56       47821.89       5285.328
      -40847.62      -76566.81      -83278.73      -53503.19      -4704.117
       36755.55       52402.84       34547.96       1479.398      -23141.42
      -45080.38      -65079.62      -52862.03      -5593.875       37484.53
       50663.48       40636.42       18077.73      -4151.703      -27705.75
      -55088.57      -54578.39      -10433.77       33587.77       42976.45
       34454.59       30283.81       22202.59       4104.453      -23394.89
      -54579.00      -59755.07      -28733.39      -988.5781       12704.41
       31492.53       38793.54       24291.41       10805.29      -534.2188
      -20106.59      -37186.58      -31676.33      -1105.031       32983.45
       33784.53       2624.938      -22854.92      -45250.27      -68839.16
      -47518.47       8918.312       42871.27       50860.71       45320.30
       21887.88      -5263.797      -22911.23      -26376.27      -18980.92
      -9545.547       6099.047       27136.42       37572.82       26512.95
      -9878.766      -42087.76      -36644.30      -11415.30       7979.680
       26436.68       31850.62       11448.43      -8254.006      -5151.080
       3884.849       1499.079      -5717.937      -3915.092       5054.805
       12418.85       18324.72       20217.74       9882.770      -4300.312
      -9116.975      -3307.235      -289.8145      -4187.726      -1320.617
       10361.23       12136.00       1855.848      -6000.824      -9185.652
      -13560.14      -12322.12      -1892.328       3040.900      -4524.754
      -10479.45      -10434.32      -13510.67      -21892.95      -23170.20
      -8459.383       9809.242       15333.27       17206.17       18795.40
       10973.14       816.0059      -6027.105      -13777.41      -14304.39
      -4601.754       8118.096       10141.91      -3768.766      -15906.75
      -16754.43      -9870.773       4743.742       17652.75       26373.62
       28185.02       17304.08       6466.951      -434.1133      -15249.56
      -21165.25      -9421.364      -4293.711      -7182.614      -3410.680
      -7644.086      -21133.56      -16487.24       4988.309       15680.78
       16418.18       14826.74       1527.820      -12964.87      -10525.29
      -890.0781       10594.59       25474.53       28739.41       12743.54
      -5636.824      -15883.95      -19653.22      -16638.66      -4453.219
       8521.469       12167.80       8174.198       4421.183       3589.632
       45.97266      -11387.34      -16812.23      -11945.57      -11289.52
      -11162.05      -2005.829       3301.230      -5420.531      -19207.73
      -22363.12      -11581.86       5129.320       16871.62       15521.15
       5517.223       1068.249      -832.6602      -4027.562      -7401.266
      -14463.82      -13815.47       2937.281       16370.27       14915.83
       10418.46       12669.40       12581.02       6107.465       6968.613
       17617.17       18523.60       11619.19       9105.648       4283.592
      -4124.904      -7168.235      -5837.324       361.3516       10367.99
       11750.11       6600.830       8404.127       3652.539      -13887.31
      -24702.89      -15075.20       11343.75       32218.98       30012.09
       13027.88      -9008.328      -28040.06      -36993.33      -28946.63
      -5698.180       15154.02       24903.78       27943.93       20775.45
       5876.039      -3376.930      -2221.427      -1654.595      -5294.643
      -2382.262       6856.486       7766.448       1142.164      -4704.777
      -10587.40      -14299.10      -4729.207       9437.641       15159.46
       12710.41      -3826.969      -22027.45      -16703.19       1206.928
       6816.641      -7991.445      -27523.20      -33622.77      -25199.10
      -5362.758       17003.12       22176.30       11276.03      -98.01367
      -5496.430      -2097.232       7568.191       12832.67       11178.14
       6061.240       1449.672      -317.5508       2527.039       8609.160
       14245.29       16009.88       13367.97       6478.561       1862.395
       4340.851       4805.498      -1664.044      -4494.183      -4675.707
      -5487.461      -4561.930      -7312.352      -12187.21      -9995.074
      -10493.83      -19779.55      -20968.04      -9475.454      -1530.309
      -1828.531      -3623.946      -2520.916      -2306.624      -4986.469
      -5018.468       1652.281       9057.406       13273.13       14587.56
       13616.52       12362.47       15326.91       18914.48       14535.52
       3104.242      -5491.873      -6342.272       1099.898       11129.46
       13500.97       3840.217      -7498.305      -11642.23      -13729.97
      -14552.14      -8852.943      -4417.651      -4841.550      -1932.418
       9276.551       19805.95       15942.84      -1906.395      -15578.72
      -14244.13      -6631.022      -1836.789       301.2715      -2126.362
