     0.02500000      -888019.9       1056003.      -12345.00      -12345.00
      -30.00504       217.5199      -19.18000      -12345.00      -12345.00
       0.000000       14.13000      -12345.00      -12345.00      -12345.00
      -12345.00      -12345.00      -12345.00      -12345.00      -12345.00
      -12345.00      -12345.00      -12345.00      -12345.00      -12345.00
      -12345.00      -12345.00      -12345.00      -12345.00      -12345.00
      -12345.00      -31.89650      -69.69230       1971.000       0.000000
      -31.54000      -68.94500       0.000000       103500.0       0.000000
      -12345.00      -12345.00      -12345.00      -12345.00      -12345.00
      -12345.00      -12345.00      -12345.00      -12345.00      -12345.00
       81.11353       240.6396       61.03061      0.7293237      -12345.00
      -12345.00     -0.5766328       0.000000       90.00000      -12345.00
      -12345.00      -12345.00      -12345.00      -12345.00      -12345.00
      -12345.00      -12345.00      -12345.00      -12345.00      -12345.00
      2008        49         8        51        22
       880         6    -12345    -12345      9902
    -12345    -12345    -12345    -12345    -12345
         1         7        13    -12345    -12345
    -12345    -12345    -12345    -12345    -12345
    -12345    -12345    -12345    -12345    -12345
    -12345    -12345    -12345    -12345    -12345
         1         1         1         1         1
PATO    -12345          
        -12345  -12345  
-12345  -12345  -12345  
-12345  -12345  -12345  
-12345  -12345  -12345  
-12345  -12345  -12345  
-12345  -12345  BHN     
ZL      -12345  -12345  
[...]
      -237.4869      -253.4247      -217.4948      -245.6529      -228.4508
      -251.9417      -221.7849      -227.6689      -214.7192      -245.5643
      -216.8497      -229.3143      -198.5055      -208.5387      -211.0911
      -197.0673      -171.2360      -224.1561      -184.2241      -174.7140
      -172.1331      -179.6024      -163.5989      -181.8442      -171.1075
      -174.5605      -163.9388      -170.7170      -153.7243      -168.3465
      -165.1965      -157.1896      -152.1535      -166.9816      -152.3856
      -144.0130      -141.2536      -154.6935      -141.3311      -128.7165
      -120.3215      -125.0024      -112.3483      -100.0615      -111.6799
      -95.76041      -98.11545      -100.9512      -90.49431      -71.47128
      -68.26134      -60.01282      -59.77722      -56.71197      -50.74524
      -21.46011      -21.96438      -17.97305      -26.05509      -2.611259
       7.250038       28.42360       16.10418       33.55109       36.81020
       65.85866       49.83340       60.73071       51.44261       88.79071
       75.27209       94.11725       78.57825       105.1693       90.04785
       105.4328       88.63571       106.2672       102.9777       150.9141
       126.6124       139.2239       110.7507       142.4504       113.0407
       124.5517       118.4179       151.1285       105.7203       125.2020
       94.43448       119.6534       81.43964       102.1012       84.95129
       120.7500       80.95703       104.2187       80.55463       113.5847
       56.79361       84.81393       66.52625       83.69420       40.05856
       87.36969       42.54274       75.41225       33.51610       61.60482
       26.00592       58.33394      -12.66138       41.95751       10.15437
       15.69445      -36.64595       26.54856      -16.97902       10.20328
      -46.31735       4.540672      -42.30118      -14.18321      -74.44873
      -26.25049      -79.14005      -37.92126      -104.7132      -67.05670
      -104.5695      -62.93665      -126.7195      -68.25540      -123.3223
      -80.00510      -136.1076      -78.33917      -148.1285      -100.0836
      -146.6208      -93.87036      -157.3611      -108.0188      -164.9671
      -100.8924      -181.1892      -122.5320      -175.5977      -122.5574
      -189.5638      -118.4486      -177.6711      -132.0175      -204.9194
      -128.6287      -195.9069      -116.9630      -186.8645      -135.4478
      -204.4403      -132.4808      -192.6464      -122.9915      -200.4805
      -130.1353      -196.2148      -112.6317      -194.1320      -140.3380
      -184.9478      -107.1801      -195.8344      -108.0443      -181.4438
      -111.8934      -177.5540      -90.68488      -177.0695      -113.9636
      -179.8593      -98.77057      -177.2496      -93.21591      -190.6162
      -104.5092      -156.9713      -93.96945      -193.0157      -89.38266
      -164.2062      -105.7672      -188.9578      -86.28360      -177.5722
      -102.9893      -172.4863      -76.93347      -173.9406      -84.73248
      -171.9363      -94.60550      -184.8113      -84.61188      -179.0928
      -97.36758      -178.9302      -83.51370      -174.8580      -84.73816
      -187.3335      -86.74921      -180.6779      -91.54388      -180.6642
      -92.85846      -187.5961      -84.37488      -189.2169      -90.50256
      -186.1583      -98.62408      -202.8075      -102.9917      -204.0408
      -119.8974      -218.4031      -100.2950      -200.1555      -103.1879
      -202.6288      -104.6605      -201.4926      -92.71545      -211.1803
      -119.0106      -217.1758      -106.1538      -212.1348      -110.2969
      -217.1349      -100.7381      -201.6249      -101.8022      -214.0967
      -113.1488      -228.2793      -112.1394      -227.1680      -120.9562
      -241.0630      -130.9263      -222.5273      -129.2817      -260.9705
      -135.3878      -237.8558      -133.8381      -271.6985      -90.29529
       52.96191       1269.447       3834.355       11567.03       25477.73
       44151.34       67479.81       73368.14       45473.52       12445.98
      -8673.543      -17334.49      -14601.72      -40874.48      -72370.59
      -27518.80       12262.68       22014.11       9987.570      -37838.29
      -40709.27      -42546.92      -54034.42      -32966.97      -31216.58
      -13140.91       26367.59       32177.98       63271.58       37376.62
      -27089.45       18062.62       35072.00       50335.34       81719.78
       4637.746      -24336.39       13423.06       29427.61       25011.31
      -83347.84      -122717.6      -49688.66      -25657.03      -21035.25
      -61085.52      -86799.51      -47032.70       15489.08       65050.65
       44957.78       2217.500       38864.12       76027.42       55818.04
       40063.46       19672.11       10153.12       35159.16       51326.02
       13794.07      -8874.797      -57143.72      -92986.72      -54154.18
      -34512.00      -21558.35      -5174.378      -4817.938       15860.27
       47333.66       11731.34      -24976.82      -13609.45      -17820.43
      -30613.47      -4375.906       22491.36       7839.535      -3598.516
       32189.66       43884.52       6003.105       14266.34      -2133.914
      -37455.25      -17149.23       31953.98       44850.87       21403.48
       1480.246      -165.2969       44645.85       6118.344      -85672.41
      -71911.00      -56336.45      -20128.38       30875.50       46326.34
       81069.56       75791.13       45065.00       13022.06      -41443.58
      -70270.27      -44987.78      -35951.62      -71440.02      -49303.89
      -9580.768      -10428.51       6175.867       23748.39       13471.59
       30468.73       44862.50       43132.64       52674.64       4449.343
      -6977.279       16880.69      -22883.34      -41285.55      -16488.80
      -30646.94      -29823.54       16111.12      -8683.955      -5189.674
       18214.32      -11638.27      -12684.54       11613.34       16979.06
       10423.69      -9785.117      -28773.39       1092.516       53917.52
       61488.23       25769.01       27479.57       32206.83      -76.31250
      -20550.45      -44101.66      -63225.89      -63192.15      -45648.98
       6056.785       28169.42       2747.523       25338.20       44950.94
       40953.14       41379.56       3060.871      -4175.289       2493.367
      -29319.53      -54835.09      -44084.64      -20205.80      -23313.78
       437.6758       24948.62       12877.21       1610.207       9600.704
       8551.664      -1956.714      -19.85352       1501.811       1219.645
      -21261.99      -18857.92       6489.271       241.5195       5683.938
       17711.55       31032.39       31004.27       12128.91       24154.90
       38108.73       12431.05      -34406.52      -53272.70      -30910.35
      -16540.00      -20427.58      -20110.62       23430.16       42896.54
       19066.59       21649.62      -3861.688      -21629.55      -4540.609
      -29883.45      -33962.18      -11890.88      -14562.64       14585.13
       22114.59      -10253.79       10858.09       4422.596       1658.230
       22797.52      -16794.49      -13144.85       17753.63       31359.38
       17592.67      -16148.88       2594.342       3009.441      -12173.98
      -16769.63      -35679.05      -16478.89       27275.84       30165.56
       24872.78       21938.03      -19996.88       8932.500       37310.05
      -8418.117      -4992.766      -7258.918      -13586.96      -23763.92
      -23525.70       1288.531      -19691.68      -27504.62       1750.613
       17389.16       16026.41      -10007.09      -18147.14       4854.257
      -1662.848       3895.461       22227.71       2817.695       17269.22
       44050.27       33990.87       1698.297      -30238.45      -13315.20
      -8913.961      -23871.31      -6445.885       134.2441      -1872.406
      -24601.93      -120.9219       28103.36      -21306.67      -5289.291
       10491.80      -38222.62       6209.609       22333.55      -38056.18
      -14461.25       2219.953      -1176.500       34432.42       19032.38
       27612.20       73815.19       57576.71       1118.250      -46336.00
      -48367.55      -41481.83      -43895.44      -34061.35      -37827.07
      -25457.44      -14569.61      -28505.52       5161.852       37461.52
       46584.83       51073.74       24392.64       3048.395       18608.69
       5207.816      -25586.61      -12970.07      -14934.28      -20901.83
      -7762.922       29084.29       38238.45       21833.38       30937.47
       60738.55       70183.77       7960.016      -40513.39      -42444.14
      -32576.69      -22850.95      -11974.27      -29858.01      -28707.23
       13738.97       14937.36       11071.68      -3263.953      -15123.60
      -5268.127      -2989.604      -5707.664      -6061.984      -23519.80
      -35990.60       6047.941       24396.63       7489.707       1810.107
      -5456.824       10934.02       11591.51       899.0391       3035.168
       17186.72       2182.969      -31511.10       8850.828       23721.74
       8484.312       37370.74       5545.988      -16255.87      -767.2969
      -23683.74      -17994.61       2417.789      -17105.33      -35150.51
       7615.203       30949.25       38413.55       40927.30       5689.992
       12228.76       36360.84       28381.63       10258.27      -13908.31
      -47915.96      -15297.48       27397.77      -4631.562      -52828.84
      -56927.98      -30029.46      -4891.797       17059.05      -6085.446
      -12619.05       12320.87      -2467.219       27091.62       62556.80
       35415.90       11942.17      -21966.83      -27949.15       29333.52
       18243.29      -19937.41       8772.082       5859.384      -3454.473
       9502.883      -12491.67      -19123.63      -25671.91      -35844.39
      -32443.11      -36396.91      -28424.97      -23434.40      -4836.312
       26331.33       19570.19       9736.090       13377.37       7283.680
       18237.80       16073.48      -2751.160       16234.53       19265.92
      -1207.938       17167.09       21920.88       11300.86       27485.96
       12772.13       14836.82       19647.03      -10427.29       1010.398
      -2579.109      -39167.72      -43736.89      -28377.04      -25488.01
      -28006.08      -17668.95       25493.58       46732.38       11143.33
      -18786.91      -19273.96       10537.93       9768.377      -5629.874
       6799.910      -5510.867      -20042.22       514.0859       13932.19
      -4559.569      -6206.730       19295.47       13057.44      -6473.332
       5030.469       14565.25       30522.70       19106.70      -39237.95
      -24476.82      -4764.898      -19216.88       4425.693       8287.648
      -25268.12      -24276.33       9125.914       21455.72       8213.179
      -13124.61       9069.562       19305.74      -11891.11      -9631.904
       1506.002       7248.006      -7968.013      -16551.10       39827.89
       38644.91      -14672.15      -1730.230       6428.852      -31397.49
      -33575.36      -12322.55      -17264.07      -4310.297      -8825.188
      -45834.89      -29390.77       8986.625       17775.73       39476.55
       36914.82       15599.57       16328.44       12803.26       256.5625
      -27653.82      -17436.71       12318.60      -20252.23      -23872.95
       21448.40       19865.86       46911.30       56274.32      -21099.30
      -34353.95       8581.617       19287.66       29826.12       30884.98
       11393.70      -2540.046      -2218.441      -2333.961      -27761.37
      -29948.61      -17388.74      -15608.72       13213.58       6379.135
      -4804.801       9515.297       6640.242       41658.10       18752.81
      -41151.45      -21521.26      -15158.12      -45285.16      -16261.59
       17033.60      -1748.924      -13004.67       282.2480       10467.14
      -6039.562      -29550.04      -30396.91      -4677.562       9260.691
       10986.18       11165.61       8150.625      -9460.234       9498.070
       39975.59       10446.09       12215.48       21734.79      -2399.070
       34049.14       44098.50       16017.73       33163.28      -2360.637
      -15973.38       12835.04       2011.656       18357.98       2967.992
      -49067.97      -25236.92      -14853.88      -50816.12      -11869.73
       37660.00       35260.97       43976.91       52590.66       49950.45
       37771.21      -4053.344      -45124.34      -98475.94      -243896.2
      -408377.1      -501497.4      -543408.1      -462857.6      -245380.0
      -28011.12       258396.0       657313.0       870879.0       882017.9
       597202.4       270176.7       122108.5      -248704.1      -439078.0
      -637635.6      -888019.9      -161779.0       769188.2       1056003.
       905772.6       48570.25      -736874.8      -783736.5      -632296.3
      -256409.7       59575.75      -194953.8      -180575.8       112211.6
       354201.5       532949.3       159218.8      -66627.88       72818.81
       68384.81       144118.5       127262.8      -404441.0      -396370.4
       128309.0       51790.88       316048.4       349866.6      -102184.0
       81965.00       187141.5       154085.1      -157180.6      -416482.7
      -273381.3      -339691.8      -105539.9       228324.6       237995.9
       247060.9       153584.2       38555.59      -110541.3      -247257.7
      -191991.4      -68905.33       52718.81      -140732.8      -334773.2
      -116546.3       9813.590       11272.68      -10027.69      -6352.688
       207911.1       317069.3       251608.8       102019.1      -76968.78
      -124828.9      -21992.69       133269.1       103751.8      -104687.1
      -156058.5      -134138.9      -147119.1       167273.2       264912.7
      -95556.44      -172487.6      -169227.1      -195998.6       108719.5
       363421.8       346968.8       262051.3       92767.00      -128798.8
      -260561.2      -242461.0      -140240.0      -103247.4      -59230.30
       50939.56       35835.59       49104.62       133220.7       86810.65
       61927.95      -48869.75      -198710.1      -205479.8      -227916.3
      -207050.8      -7489.062       224963.3       160026.8       57601.28
       175884.9       52436.50      -89474.05       57900.80       18147.72
      -154550.2      -142319.0      -60517.45      -64812.19       83059.56
       277336.4       183658.5       155945.6       159412.6       70433.58
       74360.25       48604.50      -77579.44      -127665.9      -9059.312
      -46296.19      -168912.3      -67738.57       7643.594      -141401.5
      -149862.8       80695.91       67883.16       62400.72       172674.9
       126320.7       183125.1       162685.2      -69005.31      -203983.1
      -280993.6      -371462.1      -232308.8      -31275.54      -40745.94
       93742.50       272154.1       221113.1       145548.7       39484.66
      -88964.06      -206887.6      -110513.1       68454.75      -52818.03
      -62958.66      -25459.91      -154501.7      -24751.09       171956.7
       94594.47       62248.88       200955.8       207014.2       120428.1
       27307.38      -39711.44      -69513.66      -124724.8      -103736.6
      -89417.48      -62882.77      -15229.08      -44834.89      -61764.53
      -62236.67      -28953.38       29490.88       61490.47       103501.0
       111063.7       123638.8       78483.48       24715.77       51376.09
      -62808.25      -180430.7      -9960.531       98577.27       14993.09
       53794.47       134618.2       78071.48      -30392.02      -51442.81
      -158043.5      -199029.4      -92086.64      -76492.09      -104158.4
      -116173.5      -90976.91      -99363.03      -40824.91       44427.19
       96660.62       212869.5       203108.9       178653.2       190568.8
       86984.12       40289.93       12986.50      -74167.81      -172699.8
      -222204.7      -169053.3      -112830.4      -68921.09      -36879.89
      -28572.27       21794.97       76141.79       61613.47      -23461.29
      -53323.41       69063.28       130038.7       93647.22       138340.1
       49464.39      -109500.0      -20046.95       96608.38       27654.14
      -31491.56       25691.41       58879.28       13309.24      -10071.78
      -36945.91      -102241.1      -86843.91       24832.00       105438.4
      -5566.984      -97863.03      -36667.38      -50294.58      -85358.88
      -84604.83      -22190.27       68511.11       16713.26      -33085.86
       71973.48       78759.98      -25988.73       25643.73       92068.11
       54608.03       57944.89       61539.66       69609.98       70161.61
       25673.03       3142.867      -4442.898       46158.78       8475.078
      -52692.91      -41885.25      -84886.91      -111024.9      -58686.65
      -29733.33      -71517.92      -16561.75      -14094.47      -116479.2
      -102549.2      -951.0625       41043.44       89999.88       122050.7
       65475.48       52129.05       36555.78       25458.83      -19574.56
      -123763.0      -117522.4      -22970.64       69146.78       117391.6
       61657.25      -31549.06      -60971.04      -64071.01       27638.91
       84456.37       12903.02      -38997.95      -67035.81      -26638.19
       85744.91       142559.4       62965.38       23781.59      -49727.62
      -126146.2      -76771.53      -79480.52      -7023.703       80332.31
       86906.42       100424.3       19181.99      -58261.20      -3502.078
       47852.50       73132.46       62031.55      -75241.47      -85918.31
      -5553.734      -38312.46      -8481.789       35501.23       47742.69
       49979.98       36785.77       29776.52      -50171.54      -50254.74
       16389.50      -72327.38      -135085.0      -75105.80      -69541.60
      -45526.44       66847.50       86603.94       38920.88       87097.94
       140728.7       104752.7      -13694.19      -147230.0      -192880.5
      -74659.98       82332.11       33724.76      -15894.50      -26368.17
      -72907.86      -58463.60      -20040.27       7653.082      -956.8438
       46883.77       47278.99       12949.98       41161.27       42310.19
       88745.78       119138.2       65464.04       27643.99       1781.901
