     0.02500000      -1428562.       975864.0      -12345.00      -12345.00
      -30.00504       217.5199      -19.18000      -12345.00      -12345.00
       0.000000       14.13000      -12345.00      -12345.00      -12345.00
      -12345.00      -12345.00      -12345.00      -12345.00      -12345.00
      -12345.00      -12345.00      -12345.00      -12345.00      -12345.00
      -12345.00      -12345.00      -12345.00      -12345.00      -12345.00
      -12345.00      -31.89650      -69.69230       1971.000       0.000000
      -31.54000      -68.94500       0.000000       103500.0       0.000000
      -12345.00      -12345.00      -12345.00      -12345.00      -12345.00
      -12345.00      -12345.00      -12345.00      -12345.00      -12345.00
       81.11353       240.6396       61.03061      0.7293237      -12345.00
      -12345.00      -1.312717       90.00000       90.00000      -12345.00
      -12345.00      -12345.00      -12345.00      -12345.00      -12345.00
      -12345.00      -12345.00      -12345.00      -12345.00      -12345.00
      2008        49         8        51        22
       880         6    -12345    -12345      9902
    -12345    -12345    -12345    -12345    -12345
         1         7        13    -12345    -12345
    -12345    -12345    -12345    -12345    -12345
    -12345    -12345    -12345    -12345    -12345
    -12345    -12345    -12345    -12345    -12345
         1         1         1         1         1
PATO    -12345          
        -12345  -12345  
-12345  -12345  -12345  
-12345  -12345  -12345  
-12345  -12345  -12345  
-12345  -12345  -12345  
-12345  -12345  BHE     
ZL      -12345  -12345  
[...]
      -301.1658      -48.95148      -310.4086      -57.13739      -329.1083
      -55.25714      -333.4810      -86.77332      -343.5344      -65.86694
      -344.4604      -73.23645      -324.6245      -58.62823      -322.1174
      -46.10364      -318.4353      -54.62750      -319.0454      -38.37128
      -302.1269      -41.46539      -319.2086      -35.08270      -315.2980
      -39.94073      -288.9037      -15.04767      -301.2274      -31.36090
      -295.8951      -5.465454      -286.8368      -18.64569      -285.2460
      -8.185364      -304.4184      -23.12537      -284.9467      -6.543823
      -297.5219      -34.55243      -306.3204      -21.04950      -312.3234
      -31.67566      -320.1489      -43.45142      -317.3419      -46.62970
      -335.7274      -48.83136      -344.1324      -58.23602      -339.1820
      -57.61017      -341.2981      -60.90961      -356.4232      -81.13251
      -370.5146      -84.27673      -371.7700      -91.61432      -369.4989
      -58.89374      -351.6417      -75.90320      -365.7548      -79.25946
      -381.2363      -86.65265      -379.8372      -95.68915      -374.1010
      -75.12512      -375.9534      -69.38708      -367.5916      -95.73260
      -380.7757      -68.60260      -380.9332      -91.65527      -374.0527
      -86.80957      -397.1233      -85.35809      -389.4453      -92.47247
      -377.4008      -88.16443      -400.8082      -94.80927      -397.9032
      -96.38849      -386.5883      -83.36963      -393.8765      -90.86169
      -383.3658      -81.13885      -390.1604      -81.12720      -381.0364
      -81.21021      -389.8317      -82.58087      -380.2430      -92.13354
      -408.4863      -94.80310      -418.5032      -121.3523      -413.7108
      -110.9983      -423.6827      -105.0685      -420.6636      -126.5804
      -438.4603      -117.8998      -432.3392      -136.6444      -449.4600
      -143.7579      -461.9698      -160.6161      -471.3608      -148.8108
      -472.9609      -173.2825      -479.3959      -176.7274      -512.7284
      -194.3492      -498.7390      -195.0680      -511.9680      -186.5612
      -497.5690      -195.5769      -526.1393      -206.1122      -512.9791
      -199.6294      -542.4685      -235.4321      -548.5812      -239.3080
      -555.8350      -227.0939      -555.7080      -242.5320      -553.9554
      -239.0134      -580.8088      -250.4950      -562.6880      -258.5894
      -595.1597      -276.0558      -584.6385      -252.4937      -596.6958
      -291.1431      -613.0266      -295.7012      -634.4518      -302.8678
      -640.1760      -324.5979      -635.1808      -312.3983      -651.3640
      -320.8536      -653.8801      -327.5922      -651.5717      -337.1008
      -687.8784      -345.5381      -651.9220      -331.2274      -661.5801
      -322.7644      -663.4932      -339.4552      -662.7212      -338.1146
      -672.0569      -322.8213      -643.2268      -325.1589      -652.4775
      -314.8872      -649.4583      -311.7734      -646.0457      -308.7954
      -636.1974      -309.8271      -632.1688      -284.0004      -618.3140
      -295.8357      -629.8315      -287.7174      -620.4059      -276.8468
      -613.5134      -277.0768      -606.1439      -268.9236      -602.9510
      -260.4521      -601.5269      -269.4736      -604.5210      -260.0154
      -595.9614      -259.9663      -596.7463      -238.8632      -580.6144
      -241.5115      -565.9775      -236.3059      -585.5906      -233.1534
      -566.4287      -227.8634      -584.9043      -239.2028      -562.7655
      -209.7101      -553.7703      -216.0684      -545.6924      -194.7572
      -551.2218      -215.8209      -554.5027      -207.6107      -561.0436
      -206.6619      -528.3734      -183.7587      -530.3752      -186.5862
      -536.2357      -178.1240      -530.0853      -200.7784      -539.4415
      -176.3679      -523.3357      -183.1191      -518.6639      -161.1343
      -516.9084      -156.1261      -496.3248      -162.9491      -519.0043
      -155.2794      -483.1473      -140.9080      -510.4879      -142.2598
      -442.4221      -95.55029      -488.2010      -109.1242      -287.5288
       621.2422       3257.336       13907.23       34890.22       72711.38
       110909.9       112275.5       80281.18       42252.04      -66.23438
      -8003.898      -408.8750      -65099.75      -79986.06       16978.16
      -14761.12      -135568.3      -68777.69       114688.5       88876.06
      -91713.22      -121968.7      -67722.09      -65544.53       65347.75
       145681.9      -48287.88      -106649.8       9419.719       37612.15
       34479.53       1469.750      -38601.66      -82096.69      -40370.34
       91766.47       75795.89      -2082.750      -13926.77      -24114.15
      -4959.684      -3637.562      -36495.08      -83468.05      -61176.12
       46062.38       86355.23       33920.73      -45083.54      -35934.21
       15449.50       42600.45       65051.59      -4666.281      -63585.57
       19454.66       70766.08       16920.55       28069.05       32399.23
      -44081.57      -46491.47      -21563.91      -41725.72      -363.6953
       29034.55       19816.50       12874.30       19041.58       23834.19
      -21832.72      -50262.34      -42660.56      -47205.38      -29946.13
       15838.89       22134.48       4909.570       30574.08       63071.23
       10550.19      -67193.56      -44812.25       29634.39       35380.28
       11391.40       26686.64      -41017.69      -57473.72       61950.98
       69000.73      -24245.01      -42256.61       43576.20       68340.48
      -23125.36      -45053.14      -7402.000       1280.516       49569.66
       68118.62      -14547.08      -38269.43      -19735.74      -35128.53
      -34205.60      -28688.84      -13150.57       27410.42       39501.14
       26358.71       26741.75       7805.484      -51458.31      -63278.80
      -47516.88      -30709.86       383.4131       4967.980      -645.7852
       6378.676       9806.102       18377.00       17718.87      -20929.70
      -41450.42      -1408.281       35652.55       50336.66       63219.34
       54814.03       33994.71       21492.52      -24182.09      -59921.27
      -10914.52       2271.766      -56414.12      -44439.45      -26257.14
      -16149.52       40105.19       48619.09      -11211.92      -49551.28
      -43744.71      -29335.93       5907.828       49050.15       42480.91
       11024.39       16533.76       43834.56       30584.96      -17573.89
      -44507.08      -28747.20      -31538.94      -49110.73      -12835.13
       34409.69       27689.08       33363.78       63695.91       77343.21
       46903.06      -11754.42      -10495.25      -33256.88      -110272.3
      -64711.30       8368.922      -17463.15      -28835.09      -2223.828
       30265.44       56958.29       22793.87      -18605.11      -10412.72
      -4246.250      -26735.21      -27829.94       11961.60       29516.42
       36188.87       35734.62      -5367.777       13110.18       18870.42
      -36239.07      -16532.11       40746.83       22231.43      -22363.14
      -7318.616       5014.844      -15520.20      -24945.28      -21235.09
       24616.49       43910.53       22417.21      -10436.49      -44632.21
       1124.807       26459.02      -21533.01      -34463.97      -27383.94
       1663.656       38346.57       47378.30       25745.54      -3224.267
      -2014.469      -5134.125      -43340.99      -39007.55       24421.11
       14482.76      -25296.15       21238.97       10813.39      -15374.10
       13635.35       19877.64       12802.34      -9564.590      -6187.773
      -14717.85      -26267.08      -4368.930      -25706.12      -25786.29
      -193.1328      -20158.35      -21040.49       32543.11       38293.05
      -19574.42      -3542.234       48127.27      -21601.65      -35594.74
       30626.16      -10366.78      -42841.97       39587.50       36441.98
      -57905.59       5192.836       56479.09      -33059.86      -22809.41
       52328.50       16697.09      -31766.98      -14748.90      -21074.12
      -20385.35       26730.84       39120.85       12665.87       21479.20
       27683.15       20351.29      -19626.43      -38814.94      -5881.552
      -2733.457       5204.836      -14166.11      -44223.24       28241.52
       48300.96      -26320.19      -32642.90       4508.637       15708.51
       15169.49      -46.49219      -15683.51      -4265.344       32427.66
       19094.48      -30757.37      -44271.61       5294.701       17308.23
      -19688.30       3179.652       26729.92      -9936.707      -31896.59
       36726.84       51835.36      -12662.41      -5848.402      -7124.516
      -49771.26      -26343.30       41826.02       23421.24      -16299.27
       26303.01       11063.59      -45077.36       15262.02       43080.21
      -4099.836      -22640.66      -12434.40       21216.73       8701.770
      -18721.36      -14581.39      -21857.70      -3635.547       52320.91
       27564.30      -74918.97      -45749.03       15577.25      -4781.498
       298.4141       28705.78       9082.520      -30619.66       25664.11
       26667.72      -39086.41       33013.80       73966.71       1983.398
      -44615.66      -10510.94       16839.37      -15761.73      -22810.37
       2494.641      -25733.50      -30257.19       32608.85       45877.24
       5847.380      -4740.744      -6138.703       12918.97       51386.85
       30635.75      -24405.17      -12292.23       14544.19      -7659.133
       11818.88       35628.34      -19059.38      -56247.49      -3269.406
       49490.30       27338.98      -14818.86      -33085.96      -20619.06
       14500.79       10747.03      -20869.95      -26462.42      -26687.69
       2622.836       16562.95      -579.5273      -12589.93      -26746.40
      -6215.047       41112.09       57155.86       39481.16       17946.58
       10279.53      -6887.525      -855.8516      -9681.570      -26942.16
       5034.449      -117.5000      -39059.27      -37652.98      -8414.805
      -16551.77      -36899.46       9844.133       29240.91       5273.755
      -7540.098       2554.992       25933.14       20496.53       13835.68
       23915.69       15585.97       11299.77       31001.07       36454.21
       20896.28       3621.137      -5693.578      -10681.37      -10010.60
       32624.79       19755.79      -16101.55       5385.763      -139.1602
      -15231.44      -4833.232       4037.645      -2827.445      -35535.19
      -17440.99       10097.72      -23222.75      -11019.55       12849.40
      -14288.62      -31495.98       2513.016       48125.77       14143.70
      -19490.07       12335.87       11258.54      -14641.55       679.1328
       17895.13       19221.53      -20345.90      -47833.36       9002.027
       34453.23      -5606.914       16542.03       35905.99       4433.977
      -13178.66       9867.578       16802.84      -22134.79      -1802.672
       37076.88       21459.80      -15543.41      -31065.75      -17274.52
      -30850.86      -45509.95      -12244.24      -381.5391      -47707.86
      -34577.34       5734.164       9540.266       19901.28       28678.02
       21933.41       23334.55       17861.60      -16034.30      -26648.36
      -7523.340      -15095.52      -2085.984       36319.70       13179.95
      -21582.61       5538.309       2346.141      -19064.58       4487.887
       24511.93       8207.938      -3909.115       11058.54       2550.014
      -5464.102       26662.59       46435.00       34564.26       11848.92
      -40534.07      -54156.59       16650.52       32164.66      -19459.05
      -37034.81      -31175.68      -11819.06       33264.91       25197.36
      -23262.05      -34997.82       320.7188       34545.86       22322.14
      -15891.86       3906.699       23483.15       21.85742       7835.914
       7078.443       194.5820       26066.83       12682.93      -29978.64
      -17259.22      -32243.90      -56361.38       20649.25       33272.75
       6943.453       49927.50       40882.00      -20865.40      -22387.51
       9737.844      -17908.94      -43752.64      -15335.65      -4312.906
      -9592.016       20041.11       31871.96       1464.469       26649.10
       44214.72       4729.477      -10701.29      -12197.33      -10076.96
      -1830.234       21101.00       66199.45       22021.81      -13791.73
       36119.58       16063.37      -34969.70      -15810.00       19500.17
       32198.12       43348.47       49659.53       63245.64       80387.52
       84419.84       82951.18       41418.41       19803.69       58845.38
       85019.75       65548.94       34133.25      -79289.25      -324292.2
      -603183.0      -919123.5      -1278856.      -1428562.      -1221446.
      -801763.2      -237575.4       207810.1       437755.0       683271.6
       693130.4       570110.2       506027.6       396327.0       285540.5
       314887.8       794965.5       975864.0       614610.0       694058.6
       470273.0      -220345.6      -496314.2      -553919.2      -641783.9
      -564761.1      -155515.8       102771.6       206963.7       123127.5
      -134640.2       58165.12       453819.4       465831.1       216822.4
      -35341.00      -297613.8      -471827.9      -382016.8       144853.2
       717470.9       668696.4       368376.3       213485.5      -281944.0
      -541899.8      -274397.2      -290653.4      -58413.81       129489.6
      -194812.6      -158311.2      -43250.81       26670.75       375904.6
       519939.9       247234.2      -101237.0      -295956.8      -510181.0
      -644732.3      -397976.1      -74850.93       6157.781       17734.52
       32178.05       71548.53       88106.38       72260.94       212152.5
       293303.6       327607.1       298925.3       164367.4       17842.72
      -124182.0      -85891.81      -176650.2      -349558.8      -168504.0
      -19976.12      -66176.62      -135959.6      -158207.5       37973.56
       157173.3       13981.59       34193.62       185168.1       157188.4
       101942.3       50449.64       47301.82       22584.62      -126663.1
      -201598.0      -153906.2       60689.09       163474.9       93019.00
       277047.6       416883.6       193082.2       72312.62      -29932.75
      -260672.0      -322344.9      -408942.8      -312224.8       86312.53
       75190.16      -134181.5      -21403.97       101045.2       25048.16
      -50576.33       44767.66      -35378.69      -262566.5      -86574.88
       177231.7       148835.8       122889.3       128028.1       80847.91
       122225.7       123809.4       106823.2       109040.1      -142625.4
      -162127.9       66946.44      -24290.27      -23218.15       4026.688
      -95087.72      -75169.00      -75882.69      -73079.34      -93573.50
      -156615.1      -76863.88       115755.6       216123.1       211599.6
       136895.9       48111.45      -25940.00      -100119.0      -47739.28
       54617.03       925.0156      -82085.14       21211.11       63337.81
       65817.69       172899.1       139716.3      -49804.25      -166099.9
      -197444.6      -254015.2      -235725.5      -157147.8      -120349.9
      -60485.25       66377.62       186076.4       220654.7       137112.1
       40916.87       14919.73       49084.56       127864.5       26615.47
      -106018.5      -90019.53      -42437.50       161104.0       280178.4
       178698.3       42849.44      -132464.9      -192230.6      -126091.4
      -49362.69       69860.30       95304.75       22129.72      -61798.41
      -135162.5      -44684.47      -83848.56      -243587.3      -144892.7
      -23313.19      -22748.34       20620.72       103951.4       190893.3
       133206.0      -18744.81       65323.50       171440.8       142457.2
       199208.6       165660.0      -79147.88      -204018.4      -143045.2
      -120410.3      -53530.47       43817.88      -6694.320      -46896.69
       20679.06       114285.2       127633.7      -37768.72      -167134.8
      -160947.5      -169569.9      -104401.1       19592.59       54712.31
       71892.87       57859.75      -18735.64      -89140.86      -38507.78
       51851.03      -56036.41      -102981.2       61703.53       107460.8
       68210.62       180565.6       255106.6       120200.0       93743.93
       82691.12      -114500.2      -202064.2      -205095.4      -200323.8
      -173826.0      -156851.9      -97111.84      -73772.30      -68297.27
      -13379.59       86214.56       211688.3       169624.3       18570.07
       14125.84       87340.20       68997.08       23952.08      -26515.67
      -66881.72      -72832.08      -102297.7       33156.88       174438.6
       124557.2       55350.75       86641.91       138037.2       55581.28
       56420.06       188433.7       181785.1       74771.25      -31390.94
      -128034.3      -165525.3      -92783.98      -35074.66      -112244.8
      -113880.4      -37166.34      -131410.4      -173848.4      -15746.95
       46460.36       3654.500      -102695.8      -125423.5      -12685.40
      -44008.16      -28158.72       147655.0       116724.4      -28259.19
       35807.88       111353.3       105236.6       130671.0       86141.38
       15419.34      -51630.06      -138792.8      -157309.2      -85064.77
       2445.781       29143.12       85799.62       169663.8       167518.5
       110399.4       104777.1       52934.48      -41905.19      -54467.58
      -68882.69      -113986.1      -163975.7      -89486.91       52687.98
      -15095.18      -73367.55       26851.34       40735.20       50186.39
       60620.64      -34306.83      -49024.22      -33979.62      -159018.6
      -175812.8      -66540.02      -60978.20      -49584.41       20707.70
       78506.66       34346.92      -70226.88       33910.62       155222.7
       84539.23       57939.91       31807.78      -60277.19      -103202.2
      -38162.47      -14560.88      -96076.09      -113335.8      -31520.99
       36890.15       27799.56       66608.03       141120.5       105292.6
       47514.84      -21112.99      -31972.62       87794.53       7669.453
      -89541.45       8690.297       62646.55       74285.74       50736.06
