     0.02500000      -462856.6       475763.1      -12345.00      -12345.00
      -30.00504       217.5199      -19.18000      -12345.00      -12345.00
       0.000000       14.13000      -12345.00      -12345.00      -12345.00
      -12345.00      -12345.00      -12345.00      -12345.00      -12345.00
      -12345.00      -12345.00      -12345.00      -12345.00      -12345.00
      -12345.00      -12345.00      -12345.00      -12345.00      -12345.00
      -12345.00      -31.89650      -69.69230       1971.000       0.000000
      -31.54000      -68.94500       0.000000       103500.0       0.000000
      -12345.00      -12345.00      -12345.00      -12345.00      -12345.00
      -12345.00      -12345.00      -12345.00      -12345.00      -12345.00
       81.11353       240.6396       61.03061      0.7293237      -12345.00
      -12345.00     0.08219828       0.000000       0.000000      -12345.00
      -12345.00      -12345.00      -12345.00      -12345.00      -12345.00
      -12345.00      -12345.00      -12345.00      -12345.00      -12345.00
      2008        49         8        51        22
       880         6    -12345    -12345      9902
    -12345    -12345    -12345    -12345    -12345
         1         7        13    -12345    -12345
    -12345    -12345    -12345    -12345    -12345
    -12345    -12345    -12345    -12345    -12345
    -12345    -12345    -12345    -12345    -12345
         1         1         1         1         1
PATO    -12345          
        -12345  -12345  
-12345  -12345  -12345  
-12345  -12345  -12345  
-12345  -12345  -12345  
-12345  -12345  -12345  
-12345  -12345  BHZ     
ZL      -12345  -12345  
[...]
       48.19041      -2.615150       44.85667      -4.906090       50.89447
      -6.310135       44.85313      -4.654495       44.08479      -7.646652
       51.39586       1.795387       58.09029      0.6436691       58.96510
       3.174774       64.67697       17.49284       71.09418       11.14233
       69.79134       11.27286       74.77276       12.64420       69.48555
       15.61496       78.43024       25.01898       89.99808       20.20004
       82.85080       26.59552       90.95035       33.28113       99.99687
       41.03262       108.2829       45.06506       114.4048       60.98758
       129.2654       69.81873       146.9698       84.31863       153.0264
       89.26483       156.2476       94.82556       163.7377       93.63882
       169.4741       102.1245       167.3943       107.1154       182.4136
       112.2675       184.5860       115.8557       182.8618       116.9759
       190.5273       115.3606       193.2930       122.1636       191.6041
       118.7784       188.7406       115.2510       194.5659       122.7054
       196.2647       113.6935       193.9690       127.3278       204.1512
       132.9277       214.4344       134.1384       214.7615       133.5206
       219.2456       139.6933       215.2153       144.5092       237.9260
       158.6248       244.6226       169.7223       255.0885       174.0171
       263.7542       183.0125       266.6302       175.8423       263.5373
       181.1619       267.6005       185.7920       275.3638       200.4620
       295.2277       208.8335       294.1812       211.5287       307.6577
       212.5946       295.5172       210.0991       303.1675       209.8350
       292.3845       203.8744       304.3170       213.4269       301.7490
       204.7355       292.8479       200.4800       293.3702       194.0682
       290.2103       187.3965       272.0792       171.0860       266.8234
       166.5280       259.6885       158.8988       256.5075       157.1296
       249.8156       144.5117       240.5001       133.7964       231.1606
       131.9982       230.4605       122.0839       212.2632       108.1551
       200.6424       94.98798       188.5985       79.76529       184.2027
       73.43991       164.7292       63.44717       164.2045       56.99640
       155.4343       46.93695       152.1793       37.66528       144.7142
       40.37289       132.2084       13.15553       116.8340     -0.5525208
       107.4364      0.6535339       111.7425      -5.278931       96.81503
      -20.68098       88.30933      -25.16457       91.39532      -33.88493
       76.55281      -45.36055       56.54043      -74.82395       39.37563
      -85.65511       25.05165      -92.13870       18.21828      -110.0915
       13.20699      -112.3246       1.942337      -121.1752      -4.910858
      -126.5561      -5.876862      -139.8784      -21.22046      -141.5981
      -15.40610      -144.0599      -14.45749      -133.3090      -13.85141
      -139.5109      -12.01953      -146.5347      -23.79193      -150.0848
      -15.82062      -143.3056      -15.36832      -142.2115      -5.958954
      -131.8365      -4.642914      -134.5311       4.809265      -118.7771
       16.77325      -111.5676       27.37140      -105.4014       37.28441
      -95.28861       34.05257      -97.64139       44.12169      -89.27182
       53.88947      -85.88490       57.53621      -77.97318       57.35410
      -78.23289       66.18594      -79.15298       66.98297      -73.46832
       62.11198      -77.29166       75.72443      -68.72266       72.10943
      -68.70882       72.76119      -71.73228       77.17208      -69.28021
       80.89841      -61.47182       88.07139      -60.81438       90.72595
      -46.50520       114.2738      -37.12698       110.6385      -27.75717
       132.9110      -31.98294       114.1484      -11.49649       170.8925
      -5.077026       128.7058       8.884888       175.8059      -354.2988
      -1857.625      -10437.52      -37230.34      -99262.19      -212723.2
      -338783.2      -386511.1      -293043.9      -53934.12       195579.6
       249942.3       169572.2       178570.2       213104.5       218759.9
       180418.9       100217.5       68550.42      -9733.391       6862.328
       84329.19       54454.04       48061.59      -57026.91      -147488.0
      -79515.16      -43959.16      -52793.84      -84317.84      -101119.9
      -61701.67      -25487.02      -3952.812       44170.03       83732.75
       116344.8       155063.2       62734.31      -39907.12      -60324.05
      -49391.16       44035.02       80342.91       58001.93      -4246.484
      -80486.50      -52368.78      -48320.75      -56430.56      -39258.21
      -22232.70       9307.438       8830.898       17654.41       69736.41
       104511.8       89537.27       34582.39      -16185.84      -28447.59
      -38115.91      -67389.66      -64296.30      -22966.89      -53049.73
      -75670.07      -867.5312       46282.00       55754.03       49507.36
      -616.5469      -63988.30      -59827.14       24266.98       78164.72
       62713.59       32743.17       13183.33       811.7344      -18865.46
      -16628.73      -42213.86      -71697.92      -22315.85       4402.023
      -17350.94      -24197.97       8791.047       41402.59       16769.57
      -10237.59      -2879.484       26423.03       14593.27       10640.80
       45629.00       30455.37      -552.1484      -33292.44      -60679.80
      -49312.38      -24481.68      -10564.06      -4918.489      -3091.445
       5658.109       34420.19       45777.52       47374.65       31452.87
      -1032.756      -3749.555       16732.88       18165.01      -3421.719
      -11449.34      -17262.42       5838.791       9719.836      -5880.441
      -1873.914      -27650.36      -42898.67      -47540.64      -35958.21
      -10842.08       31260.73       43345.57      -9932.992      -33807.33
      -1116.672       47089.17       82210.06       67791.45       7567.730
      -18326.32      -7346.975      -5656.965       6704.912       15811.90
      -19343.09      -58277.03      -62262.62      -51799.83      -29141.89
      -12463.45       2709.711       20036.50       25667.25       55764.86
       72756.27       49624.30       38777.31       11927.12      -6762.340
       7959.734      -21532.05      -69269.78      -70183.34      -35794.22
      -18525.41      -39838.91      -40363.72      -30336.00      -10199.34
       15028.83       14805.42       27191.80       43745.94       43374.02
       49074.47       42341.88       9815.188      -7223.535      -9662.844
      -13295.68      -14895.28      -14474.12       22952.17       32512.98
      -18948.96      -47140.69      -25665.58       1184.121      -9422.219
      -22118.82       10387.05       36144.02       1893.732      -10884.89
       24757.92       36527.41       25394.39      -3465.379      -23718.33
      -12588.02      -8683.977      -27779.80      -25386.10       2418.633
      -8883.820      -24066.86      -3089.484       23866.58       52817.09
       34191.98       14024.19       6371.271      -10857.05       491.5688
      -1657.864       7488.879      -12825.33      -39365.64      -866.6953
       6243.438       23462.72       26630.88      -38795.81      -74045.61
      -70966.90      -50833.72      -25769.65       12736.73       44590.58
       66643.38       67014.19       12849.29      -18400.30      -22962.81
      -5184.326      -1073.961       12413.94       55325.53       39998.24
       35645.98       41164.66      -11695.34      -21231.68       1358.900
       3003.430      -8829.344      -41439.33      -6120.066       5033.027
      -31185.54      -3200.016      -24170.36      -45961.88       258.8818
       7242.877      -13754.09      -703.1797       35824.11       23538.55
      -9044.211       14617.66       5192.711       22971.23       72023.66
       64933.67       55505.73      -6680.859      -66923.11      -57445.41
      -59372.78      -74177.17      -60389.97      -36659.63       11705.49
       47009.10       569.1523       10513.58       43455.66       8216.139
       1636.907      -6124.887      -2714.289       35985.64       42575.94
       42918.14       11582.59      -20303.66      -9573.172      -44120.71
      -33589.80       15329.91       18229.93      -7867.414      -32060.25
      -14406.49      -21647.04      -22658.90       473.6836       7681.102
       13712.91       15077.56       10556.02       20903.56       58126.55
       65335.77       22317.09      -17045.02      -44686.52      -36343.30
      -16035.18      -22483.43      -7655.859      -21833.89      -40873.61
      -23275.47      -22458.34      -21431.67      -8948.707       23202.62
       17132.72       33144.94       83090.06       60655.81       17661.26
      -946.5312       2450.926       2586.742       31397.61       44118.84
      -4500.203      -31515.03      -35948.12      -7395.609       15723.90
       9023.359      -13662.36      -44667.66      -59381.69      -7268.820
       44125.21      -6577.898      -20493.42       9943.430       16026.38
       29193.51       23949.34      -16045.84      -35806.34      -10180.11
      -9166.188       6156.188       32752.16      -14782.66      -33489.59
       8436.297       23223.68      -2360.227      -33697.02      -18641.78
       9908.926       24528.41       3712.000      -31688.48      -28658.72
      -21209.18      -3439.727       24839.04       25254.62       32965.55
       22711.25       244.8672       30840.91       42406.39       15977.89
      -5663.281      -33663.11      -37573.70      -26462.63      -18302.20
      -13808.12      -15707.28      -31641.76      -28867.73       21622.39
       46088.39       51203.60       31504.22       6021.812       1440.445
      -33477.91      -21568.36       11815.16       37713.95       65087.22
       18646.71      -15430.68      -8688.312      -5785.458       8878.305
      -10154.08      -44296.75      -33528.31      -14671.32      -14886.98
       946.1396       4474.246      -1735.047      -17364.72      -35347.88
      -28345.18      -24588.38      -20088.13      -3411.689       11081.82
       5900.094       30166.92       57096.08       24167.59       15682.79
       9462.420      -14186.65       6366.383       19077.66       31006.90
       13112.96      -11701.58      -12856.54      -24611.94       19687.82
       26221.10       3545.742       3351.250      -24577.58      -27052.84
      -6297.289      -4780.535      -20753.45      -19367.08      -3461.281
      -12845.16      -27352.76      -15308.85       21235.98       48453.30
       13649.48      -17931.52      -16686.73      -39821.12      -13964.32
       30155.76       21570.83      -9167.492      -31973.74      -14886.25
       7390.500       11941.20       41214.10       53575.20       17002.28
       8720.891       29816.27       37803.00       58489.24       47368.09
      -18799.09      -36647.95      -20337.45      -23149.38      -4484.296
       3603.500      -11217.36      -20137.48      -35241.81      -25928.30
       15387.45       28457.70       29629.41       36440.66       6783.131
       1309.117       25856.51       11711.45      -12188.80      -27164.83
      -52176.51      -45883.18      -8208.152       12379.66       15433.64
      -14342.40      -27877.53      -21209.93      -3806.375       35636.12
       42738.15       18965.78       19077.06      -1248.328      -61858.25
      -61897.23      -9619.297       31147.89       29084.44      -9979.750
      -40734.22      -54157.69      -42489.52       1842.844       40887.30
       46489.55       42602.66       26885.38      -21303.96      -4244.547
       39034.80      -4159.275      -902.0938       32049.91       3795.207
      -16084.47      -13893.51      -21282.08      -15848.39       17588.18
       38101.87       35942.95       14430.44      -20432.81      -41888.46
      -39429.23      -26263.45      -40110.32      -41329.19      -617.0781
       32996.35       42214.30       30936.62      -6487.133      -24928.95
      -8916.174      -5911.236       3965.594       19447.81       41743.65
       52803.66       4657.203      -39545.11      -55911.39      -51455.98
      -14163.54      -6904.748      -17782.54       26107.80       31554.41
       2987.033       13821.78      -3195.965      -14190.57      -6344.438
      -30640.53      -47144.80      -35608.86      -41583.53      -53594.75
      -46144.00      -77037.00      -112735.4      -97066.62      -115666.8
      -176409.0      -259513.8      -357355.9      -366692.2      -305753.5
      -192715.9      -83513.61      -19852.20       41210.88       159238.6
       263155.0       178748.2       221961.0       258817.2       161733.8
       395848.1       453676.9       290465.4       475763.1       437414.6
       193051.0       68028.00      -279374.9      -452031.6      -206411.2
       52612.88       171062.1       43965.03      -117983.0      -102642.4
      -110271.7      -64193.19      -55478.34      -142460.3       74911.88
       299426.6       185052.0       111497.8       36196.31      -16631.98
       55806.03      -79671.12      -246956.4      -350570.2      -462856.6
      -264567.0      -11687.22      -62368.88      -150506.7      -10580.77
       85032.87      -3101.625       49036.91       135461.0       146365.8
       213821.7       242389.5       120404.6       129620.6       300779.3
       242331.7       38274.45      -51004.00      -107676.9      -207367.5
      -97917.31       21405.94      -92457.69      -154326.7      -127847.0
      -132003.9      -200340.3      -164665.5      -20603.88       57088.62
       193608.0       273077.1       114981.6       20179.79       16306.72
      -23554.13       26600.50       34083.56       84544.62       274270.4
       215370.8       33166.12      -118931.2      -241946.3      -243862.4
      -292540.9      -282484.9      -162324.8      -32005.12       111436.2
       209379.4       285160.5       325390.8       193190.0       36437.28
       118334.8       118263.6      -72601.22      -106543.3       5593.156
       119619.3       32590.56      -117991.4      -162190.9      -212506.8
      -163898.7      -118008.0      -98492.69      -23717.39      -7251.473
      -20284.98       10310.18       33927.85       18674.69      -36103.77
      -81381.48       5268.656       66518.50       89211.91       152580.3
       114024.2       27851.66      -62074.44      -61438.42       14070.61
       21282.66       7808.148      -14759.83      -47767.19      -41319.15
      -25620.92      -71467.75      -107363.7      -56772.97      -12896.57
      -15645.11      -2530.918       7091.594       31360.05       45000.80
      -9337.372      -6256.875       15906.14       33929.41       115870.6
       135104.8       132270.3       146500.5       95808.01       35175.00
      -75889.06      -174624.2      -126831.0      -61774.20      -49547.05
      -76461.45      -45307.91       112049.1       181505.0       116703.8
       25325.31      -74001.34      -87533.48      -58070.44      -110261.8
      -181459.2      -148285.7      -31942.83       17730.84       870.7461
      -17661.62       13913.22       107373.6       134816.6       82591.23
       30495.72       10580.23       63815.39       89297.02       6193.883
      -30902.46      -19708.75      -45600.47      -89271.78      -120505.5
      -70978.73       12937.45       25851.17       35793.19       130429.5
       148288.3       67461.84       101828.2       165240.0       77566.56
      -55381.28      -120309.6      -187478.9      -235016.3      -193060.8
      -108833.9      -70739.73      -9998.375       146147.0       196495.7
       140639.2       91600.09       48843.92       5052.719      -51904.41
      -27658.67       12465.58      -63111.09      -144018.9      -125199.7
      -59169.38       60390.03       144210.7       152659.9       154709.3
       116511.7       66823.84       31591.62       47210.35       33273.28
      -16613.03      -70468.12      -106355.0      -102604.4      -156404.1
      -138264.4      -29131.50      -3958.203      -23142.52      -36042.30
      -32655.93      -20669.91       13721.30       86521.77       60459.24
       572.2773      -5623.342      -8378.220       13616.23      -12625.23
      -41723.36       23254.75       91179.11       69911.98      -3674.896
      -3618.938      -7491.664      -37772.79      -22552.39      -2263.258
       4725.297      -48596.70      -64373.73      -32106.75      -36079.29
      -35630.77      -27890.36      -31778.34      -33703.62      -16906.16
       33288.28       77792.41       78871.12       95572.28       101329.4
       77364.25       52095.52       12709.11       5918.600      -1293.578
      -28553.91      -23237.98      -37984.05      -52322.62      -30774.50
      -35420.25      -75936.97      -101174.3      -81546.97      -84581.12
      -27380.03       100554.7       106872.7       41520.66      -16429.85
      -43484.40       34788.81       91049.84       92900.66       121485.8
       101732.3       51860.22       28293.39       35945.85       25135.19
      -69299.94      -156814.2      -165688.0      -112456.5      -14773.68
       15798.41      -22001.38      -30136.08      -14374.45       9163.820
       11542.89       7072.836       19622.52       36647.03       24877.75
      -41001.59      -107604.0      -100820.2      -77449.56      -124416.7
      -137364.2      -80228.06       8504.062       109177.1       132248.8
       116287.6       110530.9       92033.92       74002.56       83924.75
       100393.6       42731.02      -24806.05      -6553.250       46889.94
       79217.97       68088.28       28897.82      -3455.156       36780.53
       85397.36       65604.38       30100.67      -9687.844      -66222.69
      -114642.6      -115776.3      -137123.1      -124370.0      -46817.75
      -53496.59      -66054.19      -38148.53      -82395.28      -115436.2
      -67267.37      -5879.367       33303.77       18035.79      -549.5000
       16648.88       44364.59       93670.44       110987.9       46802.86
      -32246.95      -78179.03      -69012.99      -31859.85      -17297.44
      -70.08594      -7296.051      -2820.469       25449.20       26134.59
