     0.02500000      -2188676.       1659260.      -12345.00      -12345.00
      -30.00003       220.1249      -22.25000      -12345.00      -12345.00
       0.000000       16.59000      -12345.00      -12345.00      -12345.00
      -12345.00      -12345.00      -12345.00      -12345.00      -12345.00
      -12345.00      -12345.00      -12345.00      -12345.00      -12345.00
      -12345.00      -12345.00      -12345.00      -12345.00      -12345.00
      -12345.00      -31.89930      -70.02770       3885.000       0.000000
      -31.54000      -68.94500       0.000000       103500.0       0.000000
      -12345.00      -12345.00      -12345.00      -12345.00      -12345.00
      -12345.00      -12345.00      -12345.00      -12345.00      -12345.00
       110.0799       248.4996       69.06608      0.9897727      -12345.00
      -12345.00      -3.209297       0.000000       90.00000      -12345.00
      -12345.00      -12345.00      -12345.00      -12345.00      -12345.00
      -12345.00      -12345.00      -12345.00      -12345.00      -12345.00
      2008        49         8        51        25
       950         6    -12345    -12345     10006
    -12345    -12345    -12345    -12345    -12345
         1         7        13    -12345    -12345
    -12345    -12345    -12345    -12345    -12345
    -12345    -12345    -12345    -12345    -12345
    -12345    -12345    -12345    -12345    -12345
         1         1         1         1         1
REGU    -12345          
        -12345  -12345  
-12345  -12345  -12345  
-12345  -12345  -12345  
-12345  -12345  -12345  
-12345  -12345  -12345  
-12345  -12345  BHN     
ZL      -12345  -12345  
[...]
      -790.6187      -54.55408      -792.1183      -61.53162      -789.0754
      -36.82300      -751.4387      -13.09973      -750.5051      0.4906006
      -718.2579       33.12146      -712.4659       27.00122      -705.7814
       62.34509      -656.0671       106.1505      -653.0259       98.79700
      -624.8662       144.8196      -597.0013       151.1901      -588.1569
       178.2896      -571.3033       190.1992      -552.3201       227.0280
      -517.1348       253.8951      -499.3626       259.7279      -508.7010
       268.6371      -462.3528       328.3939      -431.1696       324.5297
      -447.7617       325.4310      -426.7722       358.1673      -405.4564
       373.0803      -387.4990       403.2084      -370.2274       406.8007
      -360.3868       442.5266      -317.7607       465.5904      -321.4543
       464.8620      -302.7125       507.9033      -265.1351       519.1103
      -271.0056       548.6544      -208.8323       608.7040      -188.6926
       602.0823      -169.2939       659.9391      -114.8660       675.3273
      -124.7339       693.6409      -75.45337       740.1730      -62.23035
       741.8396      -46.24109       783.5219      -8.828613       790.9768
      -25.39783       791.2341       13.59668       845.5905       23.68774
       806.0546      -8.114624       822.7646       27.66199       835.7502
       5.600830       814.8228       5.234253       836.8764       16.39087
       822.8391      -4.750244       823.4849       8.950439       827.3500
      -12.30420       792.5103      -31.44189       798.3445      -37.07251
       760.1896      -93.41479       744.0502      -79.85217       733.3500
      -118.4968       704.7284      -133.9133       692.0834      -156.6547
       666.7742      -185.8164       636.6196      -187.5505       677.3914
      -181.2784       595.5453      -317.1608       408.2321      -674.7697
      -74.16602      -384.0371       2826.473       7326.406       16864.76
       25169.53       26186.23       10441.58       793.3672       10225.95
       19100.86       3947.547      -22083.76      -19506.41       9153.000
      -3274.992      -32198.27      -27464.42      -7623.430      -21136.44
      -19529.17       26390.23       28485.94      -2254.773       25447.71
       53624.84       6732.484      -59067.16       4347.750       82589.70
      -15656.14      -94064.11      -2879.117       60590.69      -33121.66
      -126315.5      -3282.781       107064.7       28190.70      -59585.27
      -68354.54      -20576.15       25513.66       53455.66       54097.88
       2434.932      -18691.97       13461.74       22165.68      -28953.95
      -19464.72       54066.74       62538.89       2495.312      -28718.73
      -10564.08       13857.55      -44280.97      -105082.1      -37467.00
       16148.61       5014.203       43955.71       34842.62      -35127.83
      -27263.68       5014.703      -7397.039      -26578.79      -45617.55
      -12517.67       24998.64       14339.80       13677.11       32217.27
       8037.164      -34165.86      -38609.84      -26886.47      -46042.69
      -42098.47       16615.24       37082.93       8255.625       41826.61
       62770.09       29674.27       20700.28       34068.25       31480.59
       33208.56       27833.66      -19033.05      -43299.77      -12044.44
      -21605.36      -23607.75       26661.33       12402.41      -46740.41
      -24136.51      -5350.877      -14239.69       32938.01       37459.45
      -22051.38       6695.113       29509.46      -24172.11      -21629.89
      -5272.170      -10056.95       43882.77       27392.72      -60128.14
      -62074.76       7092.875       46871.12       55578.28       59349.57
       54466.61       10921.14      -65598.53      -82359.95      -48268.22
      -25898.20       21183.24       16860.59       7311.398       46330.81
       11338.34      -68070.16      -51958.04       24870.20       61464.56
       31618.20      -28203.39      -46252.75       3930.773       29092.94
       14583.52       832.6641       3847.989       15403.52      -15544.95
      -64494.94      -47128.96      -18221.66      -4985.781       27913.99
       40683.66       44975.70       61216.57       3827.430      -30879.02
       481.6406       20465.52       39289.19       38015.67      -35536.98
      -76009.06      -46585.09      -44900.85      -44836.35       8224.875
       45231.06       75784.41       107736.9       50870.64      -53619.86
      -80253.22      -60058.21      -34717.69       7490.438       47106.50
       49649.75       54251.02       38203.20      -8430.367       7347.469
       48197.21       14654.55      -20583.77      -49680.16      -58536.37
      -17344.53      -15644.48      -39132.12      -25259.30      -20749.04
      -19947.29      -26577.68      -2997.438       38398.50       33310.90
       17720.03       9233.453       15113.86       56438.66       31848.25
      -60246.75      -106983.7      -84811.98      -34115.95       13637.92
       28721.62       29311.55       33033.20       38211.56       26510.19
       19174.08       9272.367      -12833.97      -34109.97      -11521.13
       27468.39       42668.22       38360.09       27462.98       16227.36
      -397.0859      -28099.72      -49030.03      -43792.47      -20062.01
       12317.31       45082.29       22493.98      -24504.60      -44584.11
      -11560.91       13611.63       11482.95       31717.26       26187.66
      -25338.05      -29371.44       6339.359       43297.95       61320.88
       49753.02      -2825.633      -49214.54      -17169.05       12073.23
      -20121.16      -45774.22      -65867.79      -49705.30       7480.016
       40672.23       30909.59       18294.19      -4329.938      -45519.73
      -54459.20      -13405.59       30729.56       70962.71       54334.30
       5812.307      -3560.195      -2138.875      -42848.12      -81146.58
      -80786.62      -18585.72       60984.94       104038.9       106336.5
       28271.57      -51436.96      -25846.57       15198.62       33345.69
       49148.12       40196.30       4209.934      -8210.875      -14255.23
      -50822.25      -69351.16      -70470.92      -84632.79      -31484.85
       9652.336      -20865.37       7883.906       66014.88       18429.17
      -25045.20       3582.279       3679.824      -15610.50      -7556.871
      -20703.05      -3503.250       39207.96       13049.34       10816.91
       86975.04       72983.02      -22330.60      -41619.53      -24235.55
      -35229.52       8677.277       28762.01      -8265.359      -32463.09
      -62895.75      -80926.38      -36284.14       2369.453       35192.56
       106427.2       123914.4       50588.63      -9791.297      -13545.26
      -21630.89      -65288.23      -50352.84      -12022.94       32463.47
       67708.95       52053.52       34316.77       15488.82      -16744.94
      -29765.63      -25493.29      -9268.352       13331.27       11982.77
      -11136.46      -27102.22      -36134.00      -29765.63      -32479.95
      -17358.00      -10535.83      -33232.89      -3544.703       61207.66
       52393.09       12504.92       2679.938      -10228.84      -30634.86
       6791.562       48614.07       32484.52      -10409.89      -24366.66
      -10960.20       20133.08       58197.08       44864.16      -38041.41
      -94168.03      -74193.06      -17844.46       27690.16       54060.43
       41649.65       2641.234      -40690.45      -56351.46       2849.047
       76716.07       46071.73      -18776.61      -34197.62      -47224.17
      -52357.23      -21493.17      -4872.469       28244.88       50788.84
       20802.68      -5951.059      -12569.30      -25227.40      -23376.02
      -5929.945       32135.07       23470.09      -43989.82      -46383.70
       6054.883       21563.62       23984.14       24067.67       50065.38
       87978.95       64743.90       18072.21      -6002.006      -8999.641
       38273.81       32568.12      -27778.81      -76068.31      -101613.5
      -70011.33      -8283.312       32204.08       10841.02      -55852.51
      -60844.00      -3430.375       56531.16       96581.31       87344.19
      -1267.078      -75276.59      -72469.40      -38737.93      -3367.969
       7185.766      -53880.95      -69325.68       4021.344       47038.61
       66641.69       89940.83       62352.87       28519.45       12402.12
      -17995.52      -20071.15       2619.938      -58276.31      -117705.3
      -94953.94      -89771.88      -46744.25       92253.38       139104.3
       73251.74       33040.04       23483.37      -9373.262       1544.031
       40969.82       45014.72       2879.000      -80289.53      -124759.3
      -74234.17       27339.66       87615.25       47379.79      -23620.81
      -73141.31      -74486.34      -21776.48       33530.28       60564.14
       73238.50       25319.73      -68668.66      -95966.19      -26382.38
       41017.58       87435.28       82404.72      -8693.328      -77510.78
      -94205.98      -100767.9      -38760.09       73859.12       153942.4
       146346.9       77184.78      -1699.172      -59489.50      -104689.5
      -120464.6      -55823.42       53773.69       111185.8       107987.5
       64593.07      -19.48438      -63604.16      -101181.2      -81329.32
      -10963.17       45992.47       57445.15       4964.828      -59488.30
      -56799.70      -7497.500       23612.39       50722.33       47510.38
      -2643.441      -17155.78      -6287.578      -29858.16       5564.094
       49960.88       5189.109      -28087.21      -13604.09       4839.195
       26705.50       1213.562      -57395.83      -62902.61       1614.266
       43601.47       52603.41       74957.00       37369.32      -33835.42
      -34010.97      -40489.73      -33718.28       24323.26       26725.80
      -18433.97      -8638.903       4789.875      -14693.92      -11555.77
       28633.12       56903.69       47701.00      -16975.75      -126006.6
      -141508.6      -8065.750       111545.6       130870.5       85595.55
       32370.13      -6990.008      -27183.77      -25133.80       3234.336
      -11527.34      -85263.43      -58364.20       64051.39       80960.01
       18675.73      -22564.61      -71301.67      -97364.22      -38065.15
       5473.325      -4490.524       4006.686       2746.082      -18752.27
       2669.094       39952.34       66206.52       66291.55      -10462.47
      -97988.62      -121215.5      -79786.70       40521.34       126165.8
       113220.6       54259.27      -7639.500      -46936.41      -54315.62
      -46256.40       14579.25       99907.91       111797.8       61470.70
      -11110.78      -85421.94      -116595.6      -120584.3      -96374.11
      -24855.47       44427.22       89023.56       120769.2       67572.02
      -46843.03      -88360.14      -83069.28      -92018.84      -25955.19
       66347.70       92809.83       71208.89       3262.344      -18286.65
       36604.36       40023.95       23935.89      -1694.227      -43949.17
      -27334.05       10391.21       9099.457      -14613.73      -10196.68
       9466.320      -4185.285       9716.391       45388.62       15135.27
      -33831.39      -13660.49       3579.648      -16719.91      -31830.77
      -50867.97      -60444.84      -39175.95       2173.234       68356.62
       122710.3       122032.3       64350.16       13730.45      -33103.16
      -101728.7      -102916.5      -47208.69       19759.03       132923.8
       174456.3       85847.33      -28964.97      -137110.1      -190431.8
      -117698.7       493.7188       58493.22       73801.48       82458.22
       44510.72      -25717.73      -67176.16      -80323.93      -67042.46
       5845.719       76986.62       70931.33       17062.70      -26583.80
      -36933.50      -55091.50      -167479.5      -342146.5      -480858.2
      -514545.0      -421629.0      -223499.9       93389.62       431682.5
       650684.2       797967.5       863037.0       780784.8       612715.5
       415695.9       241549.5       127147.9      -7392.875      -197247.4
      -400803.5      -476684.8      -299569.8      -32832.55       64616.25
      -158348.0      -590384.5      -814630.8      -620025.6      -142745.2
       319238.4       540701.4       555240.9       400729.1       212660.3
       117887.5      -97195.19      -277279.2      -234389.9      -355920.5
      -499828.4      -419719.8      -483200.5      -617071.4      -668609.8
      -734011.5      -394359.8       405906.5       1175694.       1659260.
       1450430.       537202.6      -443018.0      -1022170.      -1019038.
      -604675.1       95738.25       929371.5       1457289.       1550315.
       1171017.       147053.5      -1297155.      -2188676.      -1998858.
      -991441.2       522221.5       1546124.       1298391.       336591.1
      -606713.8      -1145770.      -890952.2      -246924.4       176382.2
       638910.5       1066568.       1072076.       751977.5       102167.5
      -739255.0      -1157110.      -1084129.      -888036.9      -485123.2
       136853.5       688821.0       1021488.       1043698.       650082.9
       34326.12      -486940.2      -893569.8      -913684.3      -357704.9
       349064.5       901565.0       1072980.       729787.2       129244.4
      -433616.5      -775681.0      -709350.6      -386925.4      -189917.2
      -114943.2      -67455.34      -37141.94      -96105.38      -334140.9
      -501549.7      -321898.0       171874.2       808309.2       1246758.
       1061748.       376758.0      -242784.0      -558417.6      -583037.9
      -213562.7       289130.5       435154.6       260220.6       36633.81
      -201845.8      -396697.5      -455053.1      -314639.9       118281.1
       618389.5       781132.9       566405.5       79746.25      -478595.0
      -634095.1      -554370.2      -662002.0      -607930.6      -245525.5
       139135.5       514771.8       885191.0       949008.9       448419.2
      -319247.0      -735140.1      -640295.1      -363030.1      -89170.06
       113407.9       187870.0       142818.3      -49056.12      -263954.9
      -377659.9      -353038.4      -83887.50       210601.2       258488.8
       289034.0       381835.8       335459.4       251742.1       227816.9
       173821.0       4125.125      -241877.9      -248777.9      -73316.88
       22698.19       191270.8       347516.8       148339.6      -257416.9
      -456075.9      -380259.4      -270911.8      -359476.9      -481589.6
      -404582.6      -183754.0       256567.8       773810.5       906862.8
       682002.3       340386.6      -42660.62      -206894.0      -133260.8
      -148469.5      -252210.5      -285265.5      -270621.0      -174464.4
       87121.25       352980.8       374569.5       186174.9      -14432.97
      -94166.06      -98677.10      -75710.75       108726.8       382590.4
       520640.0       448273.6       187310.5      -216066.0      -752605.8
      -1034211.      -722775.1      -231360.1       90447.73       113458.3
      -170457.8      -271193.4       3925.500       286815.4       378022.8
       253964.3      -2994.875      -188239.4      -271591.1      -272785.3
      -140049.2       67407.50       315502.1       474321.3       404497.6
       236455.4      -75261.38      -482455.0      -650186.4      -564948.8
      -291335.2       122858.8       352496.4       285910.8       162593.6
       132692.6       221294.6       428221.1       647216.2       659625.2
       470956.2       336953.0       188596.9      -135117.2      -447021.8
      -685616.2      -871257.2      -785161.5      -358464.8       194896.0
       655099.8       768851.6       390374.2      -200960.5      -541470.1
      -447073.0      -144272.9       53112.88       171191.4       265321.0
       186145.7       79386.53       41413.22      -92624.56      -224440.2
      -270085.6      -237298.8      -96084.00      -27785.34      -89624.17
      -80163.28       53889.69       207305.8       328246.7       289267.1
      -977.3750      -260334.7      -316126.6      -314068.8      -300674.0
      -168015.3       107954.1       376480.6       502445.1       467016.2
       214966.9      -202915.4      -404630.9      -282042.5      -45741.38
       207173.1       298275.0       183189.7       19386.81      -187395.0
      -399558.8      -454057.0      -254504.9       143929.4       412443.6
       367783.7       211155.9       107649.9       60761.00      -10718.44
      -113506.4      -153673.1      -136301.8      -112617.0      -33869.06
       96632.50       194508.2       268431.1       306694.1       211131.6
       40275.88      -84814.56      -193701.1      -220306.1      -39258.19
       180214.6       222256.3       126002.8       12256.72      -47163.00
      -73353.06      -116806.9      -179940.6      -283224.9      -393375.9
      -421988.8      -295277.3      -54359.69       76902.38       159348.4
       368494.4       455703.9       319066.2       142677.5      -4714.250
      -132037.9      -197729.8      -151453.3      -97633.66      -99280.06
      -91638.34      -8136.531       137247.6       249883.0       276545.4
       120229.7      -150583.2      -266015.2      -240643.2      -197534.5
      -135765.8      -146280.6      -163965.5      -28806.78       91770.77
       75503.12       8589.844       31167.84       153781.9       176970.0
       184111.6       203838.0       73604.81      -54248.70      -60408.34
      -1798.918       28678.72      -34276.28      -113996.8      -140829.9
      -108792.7      -44926.34       35515.41       149262.1       207392.9
       152013.8       72360.27      -39992.44      -179680.4      -181761.3
      -31044.20       79531.41       91055.06       105378.2       93286.56
       62900.88       102388.5       95920.91      -34994.06      -175870.9
      -246307.6      -196400.4      -67401.20      -41237.88      -79492.97
       42879.25       219309.8       276605.7       301134.1       240590.9
       87716.42       6750.906      -41735.00      -124621.6      -234077.5
      -309721.5      -206123.6      -61011.68      -48649.30       13900.47
       156754.8       168088.6       28098.59      -115765.1      -169583.9
