     0.02500000      -1482482.       1454898.      -12345.00      -12345.00
      -30.00003       220.1249      -22.25000      -12345.00      -12345.00
       0.000000       16.59000      -12345.00      -12345.00      -12345.00
      -12345.00      -12345.00      -12345.00      -12345.00      -12345.00
      -12345.00      -12345.00      -12345.00      -12345.00      -12345.00
      -12345.00      -12345.00      -12345.00      -12345.00      -12345.00
      -12345.00      -31.89930      -70.02770       3885.000       0.000000
      -31.54000      -68.94500       0.000000       103500.0       0.000000
      -12345.00      -12345.00      -12345.00      -12345.00      -12345.00
      -12345.00      -12345.00      -12345.00      -12345.00      -12345.00
       110.0799       248.4996       69.06608      0.9897727      -12345.00
      -12345.00      -2.543771       90.00000       90.00000      -12345.00
      -12345.00      -12345.00      -12345.00      -12345.00      -12345.00
      -12345.00      -12345.00      -12345.00      -12345.00      -12345.00
      2008        49         8        51        25
       950         6    -12345    -12345     10006
    -12345    -12345    -12345    -12345    -12345
         1         7        13    -12345    -12345
    -12345    -12345    -12345    -12345    -12345
    -12345    -12345    -12345    -12345    -12345
    -12345    -12345    -12345    -12345    -12345
         1         1         1         1         1
REGU    -12345          
        -12345  -12345  
-12345  -12345  -12345  
-12345  -12345  -12345  
-12345  -12345  -12345  
-12345  -12345  -12345  
-12345  -12345  BHE     
ZL      -12345  -12345  
[...]
       277.8425      -111.3351       281.2123      -75.94412       274.7814
      -150.6106       239.6222      -100.2888       292.4900      -123.5414
       244.8680      -124.5347       260.9049      -136.9415       240.5144
      -147.0784       211.5076      -186.1253       218.0999      -157.9964
       211.7123      -223.3481       165.7891      -226.7315       170.8581
      -248.9685       143.0290      -265.0757       100.6981      -309.9775
       95.13538      -307.6042       51.61835      -373.5656       45.98230
      -366.8300       13.47858      -391.9303       25.38983      -413.6094
      -43.88293      -461.2943      -34.34918      -461.5759      -77.44067
      -488.2600      -73.24438      -517.3737      -119.4122      -517.2630
      -101.4189      -562.2255      -154.7784      -543.7743      -116.6904
      -576.7479      -174.8358      -602.3103      -177.7065      -618.6931
      -179.4060      -590.6652      -201.3403      -655.3529      -208.4008
      -615.3728      -210.3014      -676.4882      -230.8658      -648.9679
      -216.2197      -673.2537      -224.2593      -654.9724      -232.2130
      -682.5939      -227.9436      -659.7686      -238.1708      -679.7898
      -219.5459      -675.1422      -256.9945      -686.3148      -211.6838
      -662.7122      -241.6948      -709.1904      -226.8544      -659.7144
      -212.0229      -670.0825      -216.1875      -673.3560      -223.4127
      -658.0541      -173.2930      -648.9275      -222.2776      -661.4547
      -152.2124      -618.0883      -155.9619      -623.6271      -145.8871
      -604.8770      -125.9478      -581.9597      -99.87659      -586.0571
      -122.2201      -581.9271      -91.51221      -582.6123      -121.6733
      -596.2083      -95.86316      -596.5338      -140.5905      -612.5941
      -88.92065      -507.9513       245.7886       651.7656       3280.996
       6929.398       14047.39       22644.63       31904.36       35088.58
       35916.05       34627.38       28407.78       16255.97       7677.266
       10523.28       18926.75       7445.959      -7586.718      -1694.164
       1310.523      -20614.05      -39048.01      -33290.09      -30739.14
      -52474.25      -39118.68       4412.883       3705.578      -40736.50
      -31184.59       36867.39       29619.03      -25252.99       1598.750
       46547.73       4178.086      -53519.72       19377.33       84133.83
      -8327.820      -58556.73       37105.69       56857.94      -74129.25
      -120340.8      -4396.352       31042.77      -21031.58       6676.859
       59121.54       29849.12      -40393.37      -52744.68      -8929.891
       38392.02       49175.56      -4645.812      -18130.64       17572.06
      -219.6641      -33093.73      -8290.336       21035.54       321.2734
      -32635.27      -25656.30      -35066.51      -40002.35       43803.33
       79509.27      -32461.00      -79822.20       5614.492       49582.60
       1941.365      -13379.55       38400.96       50688.71       16031.85
      -25048.77      -61805.34      -46272.24       7346.805       29499.71
       5876.188       14947.11       11839.80      -37119.80      -57696.81
      -25675.61       40117.66       45869.91      -14783.88      -15503.52
       33517.05       37445.54      -3112.902       9078.133       41610.10
       29720.75      -9235.836      -34198.39      -29315.89      -8537.500
       10489.92      -37.10156      -4993.609       37943.81       75789.95
       81872.22       35677.19      -38897.12      -66476.64      -40918.52
      -42032.97      -27362.29       38699.61       28237.67      -73167.73
      -105654.1      -38914.98       39175.05       63256.62       37285.56
       23761.88       9014.305      -33360.61      -49476.59      -36368.32
       579.5312       49003.02       71415.59       37608.02      -13549.77
      -20371.04      -8510.645      -19351.27       24478.05       98098.91
       52328.33      -58893.30      -72890.45      -32644.48      -13033.52
       27229.19       52865.10       4215.984      -31066.56      -40186.27
      -42432.32      -6943.199       14655.58       8793.113       21010.30
       3117.242      -42237.91      -43340.52      -16248.52       8653.023
       30282.53       26516.98       61538.55       77353.40       3494.688
      -48026.22      -16495.40       22068.14       12052.65       11522.36
       46614.73       25064.12      -36422.22      -69550.75      -62839.95
      -13077.72       50427.45       59733.30       21687.55      -19391.86
      -40071.12      -34555.51      -14009.86      -5257.451       7661.256
       11752.26      -127.4805      -12219.81      -25446.12      -24143.33
       17818.31       68693.41       70985.76       20218.07      -27072.80
      -50886.02      -56580.43      -21589.70       30384.79       7298.055
      -39816.48      -45797.70      -43059.33      -23881.70       16861.55
       32077.20       42515.47       56920.89       31231.32       12529.70
       36059.00       15819.80      -25697.95      -45949.28      -56293.42
      -40118.22      -20094.97      -11890.93       5668.266       11777.03
       49163.91       73467.95       25965.36      -10153.41      -10012.94
       3073.578       37600.84       39736.47       10240.09       1087.266
       5116.642       6542.777      -1968.969      -30954.22      -51169.50
      -66923.97      -77351.90      -43798.15       18111.54       21449.31
      -2148.404      -7125.919      -9159.516       6900.379       24375.56
       207.5039      -20771.29      -1545.711       31280.38       25237.76
       10013.34       23498.29       23980.41       23764.34       65174.08
       92396.59       75809.20       29849.94      -15153.33      -42674.95
      -52398.22      -44927.72      -13339.16       17058.19       17535.52
      -15225.09      -26978.91      -20983.53      -52145.42      -86163.77
      -45336.98       48010.28       96291.39       77360.81       67268.06
       18821.45      -61289.16      -82326.61      -58087.05      -25463.81
       14889.72       51543.80       44704.67      -13773.25      -54112.31
      -57858.59      -30877.72      -2323.634       5223.219      -3759.438
      -29249.16      -47385.77      -4518.359       44751.64       55112.92
       58889.41       23202.62      -52030.92      -60624.64      -54384.05
      -73832.28      -11889.09       66687.54       27991.91      -24262.36
       585.3125       1696.070      -36809.48      -6707.469       31243.16
       46365.09       70586.64       58953.88       23538.11       6188.727
      -24584.06      -49831.66      -49556.27      -21411.50       24756.34
       53672.98       43186.29       7868.918      -16690.77      -6854.377
      -366.8438       8990.836       18551.71      -5779.332      -10924.45
       24828.56       18539.20       11518.52       11607.25      -17447.17
      -51724.88      -67637.84      -42552.39       5571.234       26402.52
       47716.91       59129.34       28655.62      -2216.273      -19628.62
      -29383.89      -16587.14      -22182.21      -25125.23      -2513.840
       13641.73       831.3359      -18121.29      -6655.484       17343.82
       1604.697      -7001.703       11680.51       21493.91       31412.39
       45137.42       19810.37      -8141.141      -6872.523      -10499.14
      -45529.98      -46324.97       3808.652       18218.20      -19159.06
      -23595.73       12169.57       17714.88      -21653.44       941.3125
       57541.13       23542.20      -36503.59      -65806.86      -75561.42
      -9940.359       57849.78       82936.66       111563.9       95128.45
      -11807.41      -95893.44      -97322.36      -68237.52      -30107.53
       21049.98       44332.22       19685.04      -17475.95      -17311.12
      -9732.160       8979.109       35153.23       11729.82      -12454.96
      -3181.188      -24645.34      -44706.36      -8349.812       70291.16
       100805.7       69871.10       3877.969      -69670.47      -80266.88
      -30475.99       5280.773       14780.27       5745.191      -14046.50
      -27567.21       3168.562       49787.53       69733.66       50969.64
       9379.906      -49054.22      -79388.30      -66214.68      -46045.68
      -5179.922       46257.88       71524.07       50612.73      -19280.11
      -31500.23       21733.91       36846.57       9039.703      -13997.29
      -38834.84      -32366.44       22150.17       74933.61       64061.11
       26819.88      -15367.81      -79727.00      -106582.4      -43900.41
       29508.10       37663.11       1665.160      -8617.266      -17301.17
      -24690.86       14085.59       60938.39       46453.25      -16759.00
      -61295.41      -51603.45      -51689.88      -51240.82       1005.750
       43171.95       54755.31       80556.77       64100.13       17094.95
      -21517.62      -73814.44      -140488.6      -127669.2       13075.44
       159312.9       196613.0       118775.7      -31987.41      -152244.6
      -195157.8      -119538.5       25796.50       129509.0       173419.4
       133983.7       14377.63      -51960.41      -16342.20       23087.81
       11674.90       8786.574      -6887.555      -43294.42      -27382.43
       17282.69       4596.094      -23577.27      -22886.69      -22947.06
      -22482.72       4562.180       31861.91       43858.51       26211.11
      -6884.562      -31552.31      -26743.61      -13273.47      -22923.95
      -9139.781       50008.66       67662.89       24986.73      -22550.61
      -56044.70      -66806.16      -32431.47       4131.805       32145.53
       32320.04       16515.56      -43836.38      -141019.1      -133520.4
      -26270.28       55734.98       85532.98       56029.44       29807.17
       62171.36       69803.33       35586.57       9969.125      -15571.94
      -9224.500      -9875.078      -40207.86      -58215.64      -23517.78
       43862.97       94487.69       94705.99       51173.94      -34445.81
      -120944.1      -115958.3      -40000.64       4661.352       10998.14
       19993.50       39625.14       19317.33      -10538.32      -21366.07
      -22652.43      -14369.72       16708.66       73158.56       111549.0
       69484.48      -11497.01      -33448.41      -3051.086       8546.758
      -17957.06      -55279.32      -37336.33      -3143.125      -1738.859
      -31980.61      -60033.73      -8159.344       68908.95       44988.84
      -9325.246      -16798.77      -7738.738      -12390.46      -16417.32
       3141.281       33138.12       40574.48       58360.07       53523.14
       8655.812      -12073.90      -7616.055       5837.461       36146.10
       12535.55      -42901.50      -62888.09      -93992.44      -112153.1
      -38444.52       38322.05       64003.19       70897.06       54687.75
      -6885.984      -50900.62      -43132.39      -31463.69      -2256.891
       45959.12       73558.53       70169.92       18466.85      -21330.03
      -31128.85      -29806.27      -22911.91      -17507.29       2119.488
       16946.53       4605.208       1684.051      -3287.422      -20012.70
      -37412.41      -28786.80       14154.05       42455.55       9453.313
      -6609.766       26920.85       8034.375      -41973.85      -36517.56
      -11263.84       13890.12       38946.69       80979.44       128748.6
       136863.9       40039.25      -93804.22      -126523.7      -76034.50
       8817.547       88068.59       69441.80       16657.78       15779.45
      -4171.250      -54168.77      -33521.30       15946.27       35522.75
       66077.47       93388.56       51965.13      -15480.12      -29905.00
       6669.617       16053.77      -11953.68      -17286.02      -4180.172
       9619.375       67415.00       147391.5       171892.3       91036.93
       5701.090      -6843.281      -49716.00      -197943.2      -402608.4
      -584600.6      -641422.1      -548422.1      -342786.8      -110271.1
       34964.59       73057.87       37306.53      -18746.79      -39175.16
      -35105.56       43348.84       147750.9       198764.2       194656.2
      -70839.62      -498749.5      -566785.6      -292553.4       40770.00
       287563.8       350696.4       248185.5       35866.50      -1112.625
       259714.6       522314.2       634428.2       439621.8      -26303.12
      -337371.7      -229538.8       402195.8       1104864.       949555.5
       91194.25      -605869.8      -803990.8      -656487.8      -546039.2
      -626184.0      -692400.1      -506907.9       2620.250       560058.5
       974309.8       1182723.       910557.8       211156.8      -598739.2
      -1325076.      -1465078.      -813320.5       91749.50       891595.2
       1454898.       1230006.       174491.8      -924005.0      -1482482.
      -1034531.       371362.0       1417168.       1206482.       451623.6
      -178675.9      -625478.1      -638112.6      -324644.2      -86023.03
       110154.4       274811.9       255545.0       236075.2       364681.1
       546470.1       525138.8       329201.8       238393.5      -17888.50
      -388333.4      -402587.5      -338834.6      -395423.5      -329996.0
      -146604.2       139668.9       517703.8       723550.3       489663.4
      -180207.2      -655479.4      -526670.1      -372956.5      -334144.9
       314.6250       182653.5      -82014.72      -208913.7      -71736.30
       27004.38       252682.0       674601.8       821557.9       417525.5
      -209203.2      -609553.5      -671948.9      -478726.8      -62351.75
       358875.4       449921.7       257152.3      -12490.38      -348835.0
      -485665.9      -315881.8      -159437.0      -19997.12       218103.7
       221117.3      -39007.44      -187629.3      -217551.0      -100308.4
       186850.9       317630.9       215839.8       28438.00      -310262.8
      -649187.5      -659715.4      -317711.8       302340.5       836827.8
       883266.5       491299.1      -72200.88      -485516.9      -541650.9
      -266779.3       114152.0       362521.9       389131.8       131897.9
      -311640.5      -645419.2      -614902.2      -323117.8      -57934.67
       57398.89       11876.09      -81584.38      -105771.4      -50947.38
       163912.2       464054.9       640075.1       630344.6       443245.4
       152314.2      -85534.25      -277772.1      -345930.0      -177129.1
      -18354.80       25609.55       68359.55       61242.52       9038.828
       19928.69       120854.4       104521.4      -179075.6      -411297.4
      -396501.1      -279646.7      -15355.12       354456.2       499711.0
       367677.9       258288.7       90727.92      -78348.62      -7073.000
      -45591.31      -286145.3      -311069.4      -129699.3       30170.31
       173167.4       330299.4       350220.6       83585.25      -210431.1
      -278977.8      -275592.1      -275932.2      -255820.4      -266373.4
      -253159.2      -168960.1      -38903.94       76930.31       111898.9
       220232.5       393879.5       473926.0       470937.4       292813.5
      -57868.56      -196286.3      -20637.44       161803.3       255333.9
       277061.4       176019.2      -17378.44      -187499.5      -245657.4
      -273880.8      -246021.2      -37970.00       220246.9       326340.7
       203986.5      -156319.1      -498903.4      -519559.2      -297120.0
      -35423.12       170745.2       190335.9      -55100.12      -354732.1
      -309153.2       3860.562       133041.8       73518.23       22309.91
      -127419.1      -249111.6      -113068.3       107269.6       263163.4
       292303.8       111081.9      -128372.5      -166570.3       26781.22
       183555.9       121635.9      -54394.81      -175589.2      -89597.12
       167834.2       292675.2       203544.7       90176.89      -22674.59
      -157408.3      -103675.8       95863.59       155469.5       89018.09
      -8143.969      -119348.0      -106033.9       11821.28       53436.45
       40811.88       35196.67       29421.31       50733.23       21364.80
      -73330.84      -115672.6      -56265.47       1754.469      -41983.11
      -77887.55      -22746.07      -4398.875       46689.94       250477.4
       325751.5       94443.75      -176930.6      -343293.6      -429438.5
      -326959.6      -66914.12       165964.3       280453.8       209814.0
       73057.03       23237.09       32261.12       98850.00       189462.0
       222688.9       184110.2       88167.03      -39032.25      -204471.4
      -344642.8      -298957.9      -69691.70       74539.66       72053.50
       13811.31      -106615.6      -135033.2      -31439.19       51590.12
       121402.0       158733.6       121211.1       49154.72      -90894.62
      -185661.8      -109174.5      -74728.25      -103320.7       11432.31
       171911.1       183642.4       84538.74      -3121.766      -76006.94
      -107002.0       61035.88       250599.5       179189.4       5685.594
      -61420.59      -46905.84       78587.62       209293.1       85965.75
      -133291.7      -171105.4      -127796.6      -96912.00      -59390.74
      -29381.80       28861.78       98953.57       63633.69      -80988.88
      -191057.1      -159393.7      -38738.62       37954.65       31632.81
      -47369.50      -207548.1      -290095.1      -155235.4       102815.8
       250085.4       157560.9       34844.30       28113.12       35194.03
       89318.00       138876.6       109156.8       78463.46       29499.97
      -35819.27      -31019.06      -11152.25      -68774.84      -145159.8
      -161091.2      -119354.3      -58156.72       22368.58       60701.98
      -36979.66      -129743.8      -185389.8      -256770.4      -187694.5
      -11793.52       64853.91       27007.78      -34447.22      -79817.78
      -81389.47      -1085.938       99026.00       142939.9       163953.6
       187541.1       135371.4      -8616.000      -129900.1      -111589.8
       19201.56       130861.1       141125.9       102016.6       55201.84
       20222.59       52268.38       102247.9       125826.6       132788.7
       108447.5       81289.02       44122.93       10641.30       32607.69
       121862.2       248721.8       273545.7       142702.0      -35908.19
