     0.02500000      -908749.5       1032920.      -12345.00      -12345.00
      -30.00003       220.1249      -22.25000      -12345.00      -12345.00
       0.000000       16.59000      -12345.00      -12345.00      -12345.00
      -12345.00      -12345.00      -12345.00      -12345.00      -12345.00
      -12345.00      -12345.00      -12345.00      -12345.00      -12345.00
      -12345.00      -12345.00      -12345.00      -12345.00      -12345.00
      -12345.00      -31.89930      -70.02770       3885.000       0.000000
      -31.54000      -68.94500       0.000000       103500.0       0.000000
      -12345.00      -12345.00      -12345.00      -12345.00      -12345.00
      -12345.00      -12345.00      -12345.00      -12345.00      -12345.00
       110.0799       248.4996       69.06608      0.9897727      -12345.00
      -12345.00     -0.3109518       0.000000       0.000000      -12345.00
      -12345.00      -12345.00      -12345.00      -12345.00      -12345.00
      -12345.00      -12345.00      -12345.00      -12345.00      -12345.00
      2008        49         8        51        25
       950         6    -12345    -12345     10006
    -12345    -12345    -12345    -12345    -12345
         1         7        13    -12345    -12345
    -12345    -12345    -12345    -12345    -12345
    -12345    -12345    -12345    -12345    -12345
    -12345    -12345    -12345    -12345    -12345
         1         1         1         1         1
REGU    -12345          
        -12345  -12345  
-12345  -12345  -12345  
-12345  -12345  -12345  
-12345  -12345  -12345  
-12345  -12345  -12345  
-12345  -12345  BHZ     
ZL      -12345  -12345  
[...]
       88.68903      -278.2368       88.05844      -279.1606       87.59668
      -287.8752       105.7918      -259.0318       108.3532      -269.9860
       112.3857      -242.6044       119.4203      -247.9142       120.9020
      -238.2805       137.2116      -227.2281       152.2319      -215.0547
       160.4549      -217.5650       182.6748      -177.2063       188.0910
      -181.4876       199.8685      -169.4000       208.9961      -157.7054
       217.8161      -148.7253       226.5792      -141.7328       244.9473
      -132.1047       251.8331      -114.3886       259.2230      -135.4813
       238.9644      -114.8033       276.7265      -109.6515       269.7345
      -98.96780       278.8069      -93.72900       287.1431      -79.06079
       300.7993      -79.99048       326.7889      -41.56323       343.9062
      -41.09375       358.2675      -2.495178       392.9338       11.35175
       400.6645       46.97437       431.6238       51.64868       455.6368
       81.69208       465.7517       88.23877       492.6776       116.7540
       507.6138       131.9596       534.9965       152.2129       537.6081
       156.0695       559.3184       190.3463       574.8062       197.6571
       587.0670       206.0330       603.0078       216.9254       606.1725
       208.8613       596.1382       220.5751       624.9875       232.7032
       607.0505       218.8922       606.0138       223.1963       610.5461
       218.0270       610.2605       219.0332       601.9637       220.4541
       607.8461       202.3759       586.5099       216.9467       613.0698
       209.3383       574.1621       202.8099       596.1987       193.5796
       460.7346      -259.1548      -1064.168      -4608.977      -10875.19
      -22370.37      -37264.72      -54252.12      -60685.31      -55499.52
      -53342.62      -53727.69      -44422.12      -18388.32       12640.73
       13041.70       15849.45       39254.36       55571.12       54820.56
       59271.50       76594.02       52728.97       21689.20       42551.39
       28893.89      -26683.70      -50084.70      -4967.645       18448.94
      -57901.73      -62559.23       26628.78       26662.49      -12619.07
       3697.438       69415.67       54137.48      -40716.33      -24723.88
       13419.79      -12178.88       14961.96       53165.12       14912.92
      -46690.62      -44328.45       10247.31       14542.12      -35603.52
      -1815.945       44519.84       29071.23       29750.84       36064.78
       24847.12       19062.95       13997.31      -3647.312      -11011.18
      -24018.04      -16341.83       49914.83       42969.25      -25797.03
      -11094.44       9235.680      -19220.25      -57175.38      -100080.1
      -60124.71       17698.73       33777.61       12450.53      -5899.490
      -14083.11       3970.656       27409.34       35074.75       26697.96
       4485.672      -10063.97      -15301.44      -7997.691       12460.01
      -2202.293      -18833.73      -7390.188      -18993.54      -29023.93
      -3196.125      -9354.633      -29049.80      -10292.92       22895.91
       41031.46       31070.54       5909.438      -40908.16      -50143.20
       28359.63       38230.79      -24161.79      -14914.68       21504.51
       2187.586      -15523.20      -18029.46      -37099.57      -23103.93
       22909.72       30881.28       21587.00       14217.96       6813.481
       5732.013       1794.035       11709.58       11313.84      -3370.266
       17025.51       19473.84      -13763.98      -30311.89      -39723.73
      -25799.80       22495.82       8444.121      -22816.70       5214.056
       6688.547      -9525.117       26724.82       35518.18      -7446.465
      -17625.29      -4864.156      -25149.20      -31028.57      -3842.211
       19112.33       14422.82      -7222.410      -11688.65      -3522.113
       6253.574      -9424.312      -42979.43      -20325.53       32719.88
       46703.87       18600.39      -1829.355      -5978.328       35297.86
       68432.87       40443.49       16596.88       2335.656      -29186.63
      -33246.90      -6556.477      -25007.70      -62919.52      -57104.12
      -52669.79      -45064.48      -21186.50      -13113.72      -6938.125
       15826.84       35774.28       47008.38       53662.69       52420.24
       12530.87      -16506.08       2054.197       6090.934      -5863.477
      -10172.96      -22503.21      -18652.14       5387.062       37999.16
       62143.73       45249.90       1190.398      -34621.45      -42142.35
      -14327.97      -1886.887       3279.982       12327.62      -8841.889
      -8256.645      -1140.305      -31806.64      -31284.78      -10875.29
       2783.566       8951.084      -5017.010      -1629.594       31537.53
       36231.15       13178.31      -7679.384      -8681.441       10821.60
       11827.04      -25374.50      -40186.38      -27400.30      -7219.875
      -3967.398      -25380.76      -2232.746       30597.56       2685.182
      -11454.87      -353.1685      -3610.879       9713.891       11836.45
       16968.00       57407.88       50569.49       13842.55      -13029.45
      -18880.00      -9067.195      -17874.01      -29208.31      -34473.91
      -54810.46      -43919.08      -5856.359       19436.24       23495.38
       17944.20       11936.45      -5620.779       3183.926       10178.62
      -25434.45      -49559.09      -60582.59      -32436.47       39738.80
       79270.47       66031.48       44699.14       26840.48       16481.81
       17098.00       26974.05       40146.94       53371.42       37403.30
       3979.328      -27261.16      -69613.28      -104852.0      -90810.48
      -43041.18       8658.719       45238.31       62650.52       65605.49
       26779.04      -8866.004      -7448.773      -9217.592       1741.340
      -4356.359      -32653.81      -36875.12      -6562.672       26100.96
       20259.64      -3200.422      -2180.680       19779.41       46349.58
       17619.42      -29710.50      -21403.78      -5268.789      -25131.82
      -34036.65      -13746.78      -23329.48      -42426.35      -15758.53
       3195.969       20733.55       74135.47       93504.62       53094.29
       10445.20      -31845.20      -29718.18       14001.37       4612.609
      -18944.26       4466.083       713.0273      -11516.23      -4264.324
      -16784.73      -12096.91       21369.79       11901.73      -8599.715
       5793.797       1157.756      -12339.56      -5380.308      -1220.102
       1322.547      -15019.80      -11605.56      -4538.133      -16929.55
       4197.211       40559.78       35617.94      -3002.844      -32447.24
      -41925.21      -22526.50      -14.43359       6884.734       19422.51
       25652.62       29983.32       26579.39      -1337.516      -42885.03
      -46355.00      -34107.61      -21703.05       5563.725       12424.37
      -11493.89      -20991.35       3823.883       27889.59       41222.27
       49881.14      -415.8828      -44759.03      -31101.37      -4379.547
       28281.73       39042.23       19951.53      -22175.19      -58897.19
      -25161.27       26368.64       36107.93       18953.62      -2862.287
      -2807.408       1626.846       1993.297       26465.36       41933.20
       15767.27      -30131.94      -55201.39      -55190.02      -30301.49
      -4109.941       15151.55       34478.60       30513.50      -469.5410
      -9914.547      -3694.988      -12820.52      -25347.98      -12563.50
       20529.03       33288.91       22739.33       30187.66       26797.29
       4090.628      -102.1265       986.4219      -4766.156      -14726.34
      -38260.20      -39812.95      -26936.45      -29138.14      -28127.89
      -3629.312      -8356.578      -29093.02       6136.188       31035.71
       28749.05       46546.77       29028.04      -816.0088      -4536.693
       2297.969       14387.89       10118.23      -3893.180      -23147.92
      -47413.89      -18679.43       21935.05       27582.03       54604.62
       81210.41       47931.23       27456.30       14906.03      -28509.01
      -35532.58      -21067.69      -33126.92      -40026.31      -60338.59
      -73031.30      -28337.03       13504.89       17318.26       15287.02
      -8142.406      -42486.93      -16068.59       58969.83       74113.42
       56805.06       63447.94       64466.58       37436.24       5798.391
      -20035.56      -44234.59      -68300.08      -71547.17      -44204.79
      -32693.26      -303.4922       47435.33       16489.02      -26211.54
      -28306.62      -4454.469       38317.27       45623.83      -2195.875
      -47539.17      -75183.52      -63595.99       6228.234       78793.12
       98440.20       79751.89       22423.88      -50708.56      -68688.91
      -46776.30      -4773.906       64699.06       90389.34       53010.60
       4647.438      -22836.62      -40816.27      -63499.00      -74157.52
      -53916.17      -37179.18      -15572.45       27014.62       71470.09
       94450.91       71302.81       21584.08      -37790.92      -86723.53
      -71802.67      -38134.96      -20782.95       7682.336       18377.23
       11092.30       17805.10       13991.19       21490.35       25319.35
       5848.324       14170.25       18601.20      -34046.42      -61185.50
      -40571.29       516.1094       53475.36       61497.83       38505.17
       36287.81       33262.09       11637.47      -4801.699      -6209.500
      -7345.641       17173.00       50592.49       43744.61       22970.48
       1728.047      -37860.19      -47516.07      -37823.16      -26943.12
      -21298.66      -19751.81      -24476.60      -38436.05      -13756.95
       25428.90       36346.64       25727.33      -11605.04      -34002.18
      -16884.20       3326.711       17738.47       54732.81       83324.28
       76888.94       37508.39      -8092.016      -39068.72      -63173.88
      -70458.83      -55797.62      -6266.750       59849.95       42490.09
      -7027.453      -17955.53      -53557.48      -53485.07       23465.32
       33090.52      -15964.57      -27042.28      -12274.77       3951.188
       19239.09       41400.11       36451.51      -13672.85      -28908.95
       7662.355       17267.92       1443.840       8161.498       7006.434
       13706.37       3701.453      -30836.39      -34873.67      -20240.52
      -19209.37      -29078.54      -21794.66       15122.55       44075.88
       45204.21       26731.49      -8545.359      -32763.76      -27720.68
      -19171.99       8137.531       56392.22       77832.58       41819.48
      -23612.78      -45809.31      -22167.71      -17516.78      -9264.711
      -7360.469      -26479.83      -36612.36      -29592.21      -7401.344
      -5605.957      -15182.81       9521.793       9371.428      -8693.500
       19053.26       32942.66      -1227.812      -34141.89      -44933.86
      -26316.15       6616.172       28823.48       49959.00       70958.48
       61382.79       33436.42      -14010.31      -68149.19      -94977.66
      -85854.30      -36291.31       24314.41       58586.72       77929.28
       74019.25       44425.56       15517.97      -11020.27      -49507.70
      -77100.27      -65216.95      -16481.60       5261.956      -1654.303
       4021.648      -13710.35      -43434.93      -27396.56       6832.688
       42356.55       79400.05       73739.60       34688.48       21097.90
       12584.88      -15149.28      -27930.55      -45907.66      -82420.10
      -57652.64       4390.492       24142.68       12553.06       12606.04
       20448.10       23546.12       7759.789      -14130.97      -33219.67
      -69189.33      -86021.08      -43216.28       39871.84       95359.78
       69867.51      -7684.938      -96536.81      -164721.8      -187788.1
      -200844.9      -258081.7      -309852.3      -319332.0      -259327.4
      -87516.25       84747.69       155588.8       224306.4       285990.4
       236727.8       128461.7       21906.55      -32440.02       17103.81
       139770.6       287089.2       301887.0       189767.4       144800.0
       107188.0       38191.91       50679.75       133932.4       216122.9
       174584.6       40249.56      -63624.91      -128634.0      -109751.1
      -66534.31      -155144.8      -306728.4      -330456.6      -138947.0
       90084.86       49121.62      -195564.4      -364672.5      -402247.9
      -332633.0      -180986.9       104415.8       547775.0       807815.9
       630915.2       215580.0      -334941.2      -748280.2      -603752.4
      -180051.2       172132.4       495495.6       580677.9       235654.2
      -243550.5      -479926.2      -316626.2       266488.5       898536.5
       1032920.       655344.8       41124.75      -518229.2      -793668.5
      -908749.5      -838349.8      -484831.9      -7564.750       475707.5
       751309.2       580622.4       139949.2      -248228.5      -442461.8
      -361655.8      -98271.06       184679.1       379731.9       309040.7
       38156.31      -230051.2      -385788.8      -287666.2      -23343.25
       183559.8       291018.0       197211.8      -135896.5      -337286.5
      -211161.2      -4371.188       187992.9       355229.4       365162.9
       255787.3       202255.8       193978.7       137794.8      -8138.125
      -209616.0      -369161.0      -455080.2      -445077.8      -300022.6
      -69778.88       113463.6       188760.1       118327.0      -6051.727
       14767.19       90238.22       110967.3       125468.8       131743.6
       125984.0       109463.6       49072.69      -8262.928       5516.000
       17991.27       4677.398      -1102.570      -31051.66      -27331.62
       45843.62       125566.9       206931.2       245330.3       92904.69
      -134376.1      -248098.8      -347755.6      -404442.8      -233020.0
       51880.69       200479.9       213460.7       178062.2       80403.12
      -88696.25      -271296.8      -376089.1      -319439.6      -102066.3
       97249.50       180220.5       172824.3       48982.55      -44587.83
      -26082.30      -25774.39       425.7305       9271.043      -48873.09
       39335.25       259300.1       346766.8       184678.7      -113728.9
      -292875.5      -183190.1       62495.31       182679.0       126824.0
      -3305.031      -91247.06      -147932.7      -167148.9      -73469.97
       72989.19       164828.3       124226.6      -12315.88      -87176.00
      -76036.83      -61301.31      -78829.25      -87554.75      -45602.88
       77345.56       237057.3       234342.9       61069.88      -85461.56
      -167017.2      -158067.1      -59609.27       15355.36       62376.78
       74632.38      -10692.00      -143468.2      -221298.8      -203128.1
      -78897.94       105311.4       267034.2       318821.5       241727.9
       145330.6       20234.09      -73295.42      -23144.56       48998.75
       65914.92       10973.58      -74256.38      -97857.19      -107902.8
      -91390.55      -37503.12      -67770.97      -129665.6      -141894.4
      -139857.6      -79107.22       38840.31       121342.1       90683.03
      -64714.34      -182546.3      -124425.8      -21647.46       26217.66
       57934.91       75510.00       98567.47       129497.8       165974.6
       189707.2       120086.7       21837.60       11908.96       16796.31
      -43872.00      -75152.52      -50640.88      -47094.04      -32613.03
       10792.95       55155.59       81292.19       34864.69      -107721.2
      -249350.6      -217202.1      -48714.19       89746.25       213905.7
       301740.1       247114.0       92382.72      -24189.95      -39337.41
      -1006.969       48567.78       113805.7       157091.9       154418.4
       167481.4       143453.3       9427.688      -90891.31      -97982.28
      -121963.5      -150769.9      -162382.7      -228256.1      -290484.2
      -221033.3      -70632.83       30914.88       31959.63      -17726.67
      -25098.12      -30726.28      -71150.88      -77405.48      -63044.98
      -61783.56      -58384.20      -28021.52       14668.15      -2527.297
      -57319.55      -31488.81       61135.03       107653.8       131322.5
       172807.5       182995.9       176025.5       149867.3       94685.88
       87182.65       75508.66      -40466.00      -130838.3      -72850.20
      -5916.969      -48781.75      -124616.5      -172130.4      -175161.1
      -161140.4      -167243.7      -114436.9       3350.438       108176.0
       139798.2       98646.59       106689.6       126445.0       40597.46
      -15438.95       22699.60       17504.27      -37989.47      -89578.62
      -104089.5      -51762.69       19253.72       95744.06       151316.0
       155519.9       122256.8       40480.10       7537.320       35338.51
       27481.23       12495.41      -9444.812      -32401.05      -12493.80
       10076.05      -15650.12      -43072.14      -27228.31      -48528.34
      -131214.0      -174912.6      -147388.2      -92703.50      -50350.50
      -14635.76       10648.87       5903.918      -2842.812       22803.44
       87622.53       124883.1       69556.34      -2199.594       1257.984
      -6410.941      -34586.57       5456.461       37814.45       36994.65
       41818.38       37728.05       50036.55       49751.09       36356.25
       67176.19       78217.84       48678.45       34300.87       26189.00
       16131.12       9712.082       13204.29       26785.48      -5163.562
      -85004.19      -120249.2      -106561.3      -70499.70      -41814.91
      -57861.41      -53107.38      -64885.52      -90073.40      -49812.41
      -19802.54      -17533.20       706.2031       28046.17       37429.64
       42476.27       65856.78       59694.35       41013.67       7756.500
      -36058.70      -56208.91      -90404.94      -124794.5      -126314.3
      -76467.88      -9494.672       30961.55       65321.45       52416.27
       54.87109      -20796.02      -10878.96      -14121.50      -55428.56
      -67461.42      -2282.062       76212.34       116004.0       116786.3
       96550.09       62665.89       40969.05       54439.81       48043.63
       32566.34       44930.00       40077.56       51530.06       55588.37
