     0.02500000      -39650.13       46508.11      -12345.00      -12345.00
      -29.99999       228.0250      -28.85000      -12345.00      -12345.00
       0.000000       21.22000      -12345.00      -12345.00      -12345.00
      -12345.00      -12345.00      -12345.00      -12345.00      -12345.00
      -12345.00      -12345.00      -12345.00      -12345.00      -12345.00
      -12345.00      -12345.00      -12345.00      -12345.00      -12345.00
      -12345.00      -30.27030      -67.72450       1286.000       0.000000
      -31.54000      -68.94500       0.000000       103500.0       0.000000
      -12345.00      -12345.00      -12345.00      -12345.00      -12345.00
      -12345.00      -12345.00      -12345.00      -12345.00      -12345.00
       182.8349       39.96766       219.3438       1.643869      -12345.00
      -12345.00    -0.01390805       0.000000       0.000000      -12345.00
      -12345.00      -12345.00      -12345.00      -12345.00      -12345.00
      -12345.00      -12345.00      -12345.00      -12345.00      -12345.00
      2008        49         8        51        32
       550         6    -12345    -12345     10322
    -12345    -12345    -12345    -12345    -12345
         1         7        13    -12345    -12345
    -12345    -12345    -12345    -12345    -12345
    -12345    -12345    -12345    -12345    -12345
    -12345    -12345    -12345    -12345    -12345
         1         1         1         1         1
RINC    -12345          
        -12345  -12345  
-12345  -12345  -12345  
-12345  -12345  -12345  
-12345  -12345  -12345  
-12345  -12345  -12345  
-12345  -12345  BHZ     
ZL      -12345  -12345  
[...]
       9867.094       21275.91       5188.134       1383.030       3637.585
      -1552.834       5410.936       10620.46       3374.631      -5127.595
      -3036.198       1654.157       1456.096      -2377.609      -9040.025
      -11209.50      -9100.162      -2724.638       2686.801      -471.6909
      -3703.753       1898.991       5680.979       1597.729       109.5068
      -2994.701      -9035.062      -4252.878       2805.617       8448.672
       16021.70       8708.229      -4272.469      -7437.164      -5150.104
       1916.801       10477.94       7594.968      -2698.493      -3756.221
      -7373.688      -14960.19      -7218.996       6465.480       12228.12
       4226.145      -13844.28      -14546.10      -1654.521       5198.008
       11811.50       7543.598      -5920.543      -10662.28      -11861.71
      -2467.023       10514.15       8602.289       3381.732       956.7100
      -3457.702      -4793.396       163.5278       2589.542       1116.555
      -889.2422      -3544.429      -1471.290      -1590.627      -6596.363
      -1242.741       2959.418      -5395.176      -2591.579       2866.646
       2092.587       4959.868       274.3633       2178.314       9154.549
      -1525.480      -10603.74      -3102.206       6786.991       5574.228
      -329.9280      -941.0988      -1543.685       2972.871       5605.924
       3111.555       5314.416       1339.290      -1050.232      -2732.077
      -5456.601      -457.6812      -724.0358      -657.8464       402.9454
      -1481.473       1558.860       1431.520      -3026.023      -4403.300
      -2810.648      -211.6191       2759.641       4543.445      -703.2949
      -5589.727      -1713.547      -1819.704      -2314.001       444.8389
      -2891.443      -3364.185       2031.355       3503.608       1116.547
      -909.7795      -303.2485      -216.9670      -2085.102       1924.772
       4600.094      -1782.926      -1277.198       4121.146       2783.777
      -1554.761      -1625.716       2327.861      -1277.498      -4068.615
       2303.163      -447.2188      -7246.265      -2152.443       2301.738
      -104.1641      -3163.052      -2840.244      -1114.780       664.1816
       2985.822       5135.403       6550.934      -1567.622      -5879.919
       2863.977       4979.722       1879.463       3150.700       2442.196
      -1822.062      -147.8477       7466.926       1770.074      -6102.688
       2521.838       8693.338       4677.777      -1061.020      -4904.199
      -6781.440      -6693.674      -2489.302       2824.446       1088.719
      -6367.511      -4474.370      -226.7354      -4500.773      -2226.876
      -781.1738      -8145.038      -5832.977      -2644.814      -2573.971
       3579.029       5726.850       4756.545       3029.001      -1948.323
      -1020.805       5193.428       6392.641       5438.229       1137.510
      -4850.035      -1294.666       3964.750       6001.301       5719.021
       6582.202       5357.678      -6655.838      -11903.44      -5294.514
       507.5894       2319.558       2442.673       3691.579       1939.746
      -3282.846      -7721.666      -6682.834      -935.0410       4637.816
       5693.309       6401.478       7524.280       531.0439      -2667.626
      -1191.534      -2290.665       852.0469       1588.064       558.5669
      -1215.914      -477.5908       5808.901       2214.309      -4608.232
      -3844.268       57.38672       51.15723      -4740.264      -2720.486
      -254.8811      -876.7803       434.3040      -460.0317       1231.627
       2731.822       1088.492       2446.795       4377.851       1608.730
      -784.5125       1382.436      -3787.223      -7772.845      -3417.478
      -2389.447       150.2461       2718.947       2452.520      -282.6699
      -4738.200       318.2583      -759.7422      -5876.963       2837.027
       6282.749       5174.425       4972.750       1354.025       487.7979
      -1913.573      -3351.519      -2135.198       407.1685       3480.523
      -339.1211      -7347.894      -4994.755      -524.5566      -5825.801
      -2014.177       4215.584      -1235.062       1075.189       6952.720
       4989.480      -1223.438      -1865.136       190.3496      -3845.689
       2218.045       9724.477       2734.698       2505.680       3577.711
      -7966.859      -14593.50      -7411.154       812.1543       2510.539
       5502.604       5591.015       3395.065       2536.478      -3883.090
      -4794.937      -3685.621      -2255.097       1470.897      -620.7739
       581.4199       4895.601       2349.614      -2545.449      -539.0508
      -1053.880      -5253.539      -880.3320       2127.057      -3891.340
      -1242.638       5161.858       388.1562       4981.434       11503.48
      -635.1797      -11964.05      -9251.851      -4875.418       1220.180
       9779.287       6648.668       1817.341      -1078.238      -8014.289
      -11103.86      -7105.449       1995.201       7212.912       7872.924
       7646.490       2920.796      -645.1641      -1042.467      -5814.420
      -3415.065      -446.7070      -4973.746      -2066.747       3613.062
       7020.605       7441.953       2375.136      -2840.958      -2530.510
       407.3955       2886.108       3955.669      -1788.415      -4644.937
       3017.517       4047.526      -695.2222       2308.459       1631.865
      -6857.418      -11091.14      -5047.569      -196.7686       2545.326
       2591.827      -3509.203      -3204.227      -2280.691       209.8408
       3506.021       3225.701       2397.775       3769.662       8110.098
       1385.892      -4902.786      -4434.952      -3809.482       651.0632
       1239.186      -1005.748      -3313.025      -1005.374       7539.957
       1848.456      -5835.060       3225.029       6192.383       2667.814
       5665.719       1005.704      -6026.131       500.7393       3570.925
      -456.1395       1417.874      -1198.266      -4791.447      -4910.926
      -8060.525      -8166.211      -6760.003      -4693.294      -994.6541
       2023.068      -1239.543      -4217.256      -1252.623      -4554.255
      -2746.441       5025.125       7599.240       6487.508       1504.357
      -1536.699       1121.534       2690.568       302.8154       2196.070
       6170.757       4379.137      -152.5479      -3027.928      -3469.116
      -2730.133      -5483.989      -2650.617       3864.659       3756.224
       6324.230       1634.943      -3585.378       891.9521      -2321.333
      -6219.498       601.7422       6581.238       5442.676       5147.083
      -129.2212      -4321.607       704.7715      -1943.821      -2638.781
       5336.378       3528.644      -5592.525      -4992.465      -2053.013
      -709.7959       3856.740       2402.781      -90.42651       658.4094
       880.6621      -2060.666      -2569.716       3210.550       2669.164
       2238.519       4594.293       3403.832       1215.053      -1253.517
      -737.2288       64.15820      -910.4305      -1222.902       1440.178
       2367.171      -2694.174      -5296.559      -3506.467       418.2529
       5349.633       3268.104      -2732.405      -2211.032       2998.341
       5748.839       258.4600      -3153.586       48.57227      -2599.064
      -3686.772       2263.648       6963.990       7946.375       2985.594
      -120.0811      -1565.309      -8471.123      -11803.03      -5924.072
       2089.592       7564.391       6559.573      -72.05859      -572.1943
       3769.518       1378.568       193.4844       5693.700       2027.102
      -7250.079      -5267.561       5338.643       9235.663       4412.101
       1049.661      -2118.271      -5301.786      -5097.672      -2200.432
      -1864.703      -5072.108      -4196.312      -3126.136      -5368.789
      -1353.066       4164.150       5862.854       6675.520       4424.615
      -866.3115      -2965.395      -1852.027      -2470.152      -1163.432
      -1076.136      -3560.761      -4781.086      -4676.060      -4248.458
      -3945.021       3336.658       5733.535      -465.9390       1263.859
       3636.880      -1824.416      -4004.434       1764.003       5189.732
       1622.496      -1001.708      -86.09436       1747.709      -1745.040
      -3945.821       4808.994       5872.802      -1344.170      -3062.455
      -5120.422      -3859.959      -2.997803      -921.0430       518.8691
       5830.922       7798.979       5899.688       2325.283      -2063.635
      -7701.775      -6204.805       1954.604       3060.971       3496.969
       6573.385       4169.010      -393.8730      -5356.729      -8748.406
      -6224.730      -6034.973      -8815.549      -2169.912       7197.389
       8842.325       6067.311      -2963.764      -8850.631      -2430.484
       1668.188       5427.281       9630.199       1904.521      -5279.206
      -2357.207      -1194.700      -1697.040       1054.694      -473.7432
      -4325.182      -2239.374       1276.308       938.6125      -4.920898
       3411.543       3948.784       2222.478       4383.076       2588.845
      -3763.866      -5389.777      -4494.795      -7464.087      -4029.758
       4684.110       810.1191      -4097.479      -1087.354      -3155.243
      -2432.964       3703.934       5058.338       4366.217       1480.629
      -1436.066      -3913.725      -2903.262       4907.244       9125.660
       7398.770       1679.126      -4246.561      -5872.808      -1361.718
       2803.435       1243.703       3743.582       3148.731      -3407.277
      -5889.973      -2417.367       2700.482       2712.042       3011.864
       2420.212      -2315.582      -5052.248      -832.6299       4404.580
       1666.516      -551.9307      -1668.912      -3943.899      -4300.634
      -4753.602      -4673.972      -4093.600      -3087.270       164.4082
       4818.562       5279.869       2215.193       1868.791       3710.735
       2040.365      -3806.408      -5503.397      -3826.056      -2482.777
       4808.498       9551.245       4554.316       1520.310       1561.218
      -104.9160      -5902.693      -8033.547      -3564.977       1301.326
       5654.822       7083.480       5493.567       2993.525      -589.5264
      -3126.598      -2068.474       300.8555       4277.504       3669.062
       3247.207       4544.666       1159.154      -496.0645      -3481.837
      -3347.589      -1271.858       1612.260       4478.746       2922.017
       2394.183      -164.2732      -981.8916       2334.489       3315.475
       775.3647      -587.5337      -1154.872      -2887.667       627.7441
      -1184.785      -5495.042      -2587.377       1559.996       6649.822
       3908.465      -766.0420       1206.010      -150.7598      -557.5978
       1600.288      -2012.634      -2865.536      -483.2947      -1304.099
       136.3193       1166.376       2095.795       5529.724       4429.680
      -2975.824      -5928.475      -6840.447      -5984.620      -3635.095
      -2162.775       8079.188       10523.09       3050.376       18.36719
      -3917.237      -4517.090      -1375.462       1955.834       1945.647
      -414.8013      -2272.247      -2885.979       3037.939       4874.487
       1701.770       3756.938       2856.475      -3730.232      -4853.496
      -52.16113       3129.074       3830.231       2782.813       1177.328
       1608.231       2197.211      -2216.798      -3183.129       2225.859
       2253.670       3539.611       3714.843      -4866.327      -2693.178
       6314.812       3185.898      -6237.170      -8067.129      -4476.402
      -2343.105       4348.768       8209.843       2952.151      -125.5396
      -2143.491      -2764.824      -1521.256      -2334.939       1755.705
       5049.548       297.7744      -4222.250      -6275.351      -5708.751
      -3336.114       1305.310       4576.120      -2346.096      -9402.556
      -5630.318       1057.125       5810.441       6113.899       3657.047
       3094.436      -896.4561      -2208.281       4111.105       4385.642
      -987.1035      -2046.991      -1180.926      -189.1621       2507.898
       6936.957       8146.588       4915.686      -2206.957      -11365.82
      -12433.17      -8782.132      -4160.214       534.7598       4381.830
       9575.044       5441.912      -6330.352      -8138.389       5177.234
       19205.10       19404.66       12135.07      -2844.328      -26906.22
      -39650.13      -31235.69      -22024.89      -13472.65       4018.922
       13860.23       19864.38       26892.45       24675.92       5843.797
      -24364.62      -36351.11      -32256.45      -27361.45      -20357.99
      -11404.05      -2304.438       12950.15       30558.27       38923.97
       46508.11       29518.24      -5511.355      -12024.85      -16216.62
      -34517.85      -26734.16       6553.562       20820.38       18206.45
       19627.24       3456.328      -21213.34      -25287.25      -22619.30
      -14708.26       9870.586       33844.95       32730.03       16684.52
       4139.016      -13464.73      -20584.80      -11329.21      -14982.36
      -26722.22      -27921.27      -17118.25       8223.156       33883.82
       35380.87       22192.14       16398.62       17631.42       8686.178
      -7148.766      -12884.51      -19561.91      -20658.74      -3578.984
       12595.25       15084.78       12851.50       10938.08      -7096.961
      -29010.88      -30235.27      -23514.07      -22298.35      -20985.21
      -8046.871       8875.207       13631.36       20084.33       29498.53
       26346.09       6707.469      -17005.19      -11392.06       5376.163
       2769.752       1055.495       2601.264      -696.3008      -8688.846
      -2763.758       17128.98       13781.05       6073.273       10485.84
       7355.039      -4121.722      -8281.537       3988.303       6268.262
      -1774.688      -9712.887      -17553.68      -11225.07       409.2241
       3468.947      -3325.733      -328.6211       13948.87       9832.275
      -3257.507      -1428.419      -2168.453      -11909.32      -9583.092
       5492.430       16850.15       12340.93       7289.957       14743.64
       16924.36       8665.711      -2957.516      -11130.22      -6260.156
      -932.5066       183.0107      -954.3396      -2695.324       3872.925
       4296.199      -6348.346      -9900.278      -6562.857      -2794.655
       5262.080       5320.038       1238.064       3889.605      -513.3496
      -5104.758      -5625.387      -10441.33      -7034.058       5557.170
       9009.051       1739.883      -4025.102      -972.2148       3517.236
      -1354.398      -9486.402      -10208.86      -7491.471      -9393.297
      -11446.91      -4152.938       7712.188       15656.09       20672.98
       17995.39       7024.564       3165.141       6800.734       4719.455
      -627.2266      -12233.68      -19017.69      -5521.766       15246.80
       20240.77       9230.617       11616.55       12105.43      -1312.551
      -7692.062      -13674.31      -16984.67      -15546.96      -17240.79
      -21631.95      -27628.60      -25162.28      -6676.211       6198.632
       886.3379       3794.086       13430.43       11072.59       4608.820
       3108.625       5407.279       2545.469       6807.984       21704.78
       24196.07       13544.47       5244.267       4965.410      -956.4023
      -6774.418      -5849.752      -10384.33      -5880.328       4638.305
       4344.706       167.6367       2044.071       5403.938      -1844.910
      -12225.86      -13672.98      -4594.414       3248.588      -3663.980
      -10465.64      -4684.521       222.7002       1651.698       3194.079
       918.9833      -80.26709       642.0771      -3314.074      -6627.087
       2157.336       9664.734       3658.360       2714.921       2890.700
      -2240.759      -1830.437       1546.049       10066.97       10295.44
      -2559.223      -8432.662      -7909.220      -5028.102       3050.223
       12046.92       12532.28       5750.084      -5567.078      -14191.17
      -5706.318       9348.922       10895.78      -1084.928      -5878.062
      -4306.930      -11413.10      -13237.76      -3907.658       1965.145
       5327.449       4981.941       2975.781       6721.716       5006.070
      -767.6299      -4113.383      -7038.098      -4217.386      -3010.392
      -3502.090       8739.441       15560.89       8884.264      -1531.465
      -16574.43      -14188.85      -311.4922       4851.254       12637.48
       17273.29       6237.893      -8701.844      -13689.24      -6559.854
       4099.404       3474.299       842.2861      -1134.688      -10449.26
      -13208.81      -6277.094      -579.7817       530.6777       4145.424
       264.8594      -11000.40      -11902.61      -6966.000       2632.773
       8142.475       6111.981       7221.545      -124.1025      -6892.533
      -2582.055       1090.298       4966.134       5520.512       2845.770
       7683.375       14003.68       10056.30      -873.3457      -6770.439
      -6986.918      -5029.304      -1339.600       180.7973       142.7461
      -149.4531       6913.906       20469.31       21057.97       9581.045
       1515.855      -4452.881      -9390.691      -9282.646      -10870.89
      -6846.090       5604.294       4953.824      -4652.312      -9568.543
      -13717.49      -12699.44      -5885.098      -795.9814       1323.016
       8047.820       17205.56       16898.98       10316.38      -269.7500
      -13006.89      -15125.09      -4892.045       5343.318       8098.777
       7106.096       3944.110      -2606.893      -6601.729      -5742.268
      -1607.099       6194.099       964.4414      -10484.09      -8375.540
      -3924.942       2099.412       4153.643       4723.145       10798.85
       9579.887       4755.722      -2772.251      -6867.358      -944.5137
       7004.652       7665.660       6037.916       9773.862       4755.998
      -2873.219      -9269.201      -11544.40       1512.871       6442.163
       867.6152      -3233.999      -5388.930      -1649.207       7232.465
       11454.55       1687.531      -7781.240      -10779.43      -9990.840
      -3476.272       462.3879       304.8575      -61.66602       1419.478
