     0.02500000      -76620.36       88330.12      -12345.00      -12345.00
      -29.99999       228.0250      -28.85000      -12345.00      -12345.00
       0.000000       21.22000      -12345.00      -12345.00      -12345.00
      -12345.00      -12345.00      -12345.00      -12345.00      -12345.00
      -12345.00      -12345.00      -12345.00      -12345.00      -12345.00
      -12345.00      -12345.00      -12345.00      -12345.00      -12345.00
      -12345.00      -30.27030      -67.72450       1286.000       0.000000
      -31.54000      -68.94500       0.000000       103500.0       0.000000
      -12345.00      -12345.00      -12345.00      -12345.00      -12345.00
      -12345.00      -12345.00      -12345.00      -12345.00      -12345.00
       182.8349       39.96766       219.3438       1.643869      -12345.00
      -12345.00     0.06108063       180.0000       90.00000      -12345.00
      -12345.00      -12345.00      -12345.00      -12345.00      -12345.00
      -12345.00      -12345.00      -12345.00      -12345.00      -12345.00
      2008        49         8        51        32
       550         6    -12345    -12345     10322
    -12345    -12345    -12345    -12345    -12345
         1         7        13    -12345    -12345
    -12345    -12345    -12345    -12345    -12345
    -12345    -12345    -12345    -12345    -12345
    -12345    -12345    -12345    -12345    -12345
         1         1         1         1         1
RINC    -12345          
        -12345  -12345  
-12345  -12345  -12345  
-12345  -12345  -12345  
-12345  -12345  -12345  
-12345  -12345  -12345  
-12345  -12345  BHN     
ZL      -12345  -12345  
[...]
       1140.049      -3003.107       2660.486       3815.258      -2388.421
      -1103.268       3036.522      -5903.094      -2308.354       8341.607
       6951.615       7184.777      -7.990234      -6370.613      -4485.732
      -7610.251      -3800.927       3900.229       3173.358       688.3789
      -6545.543      -7026.140       4074.756       1537.033      -3538.994
      -283.2466       748.9180       4057.427       213.4707      -8460.372
      -6167.600       4847.617       10378.63       3093.822      -3123.768
      -1197.450       1146.893       242.2744       1455.420       3757.402
       993.5764      -1569.889      -166.8828       4536.307       1068.405
      -6537.359       868.4688       7726.656       5867.369       5071.974
       481.1279      -4025.691      -3133.689      -4413.062      -663.7471
       5487.487       1696.811       2306.038       5467.644      -360.5918
      -6668.471      -4260.396       2954.229       2076.562      -3166.413
      -2870.500       3100.120       3256.799      -7290.128      -5725.717
       5408.114       4374.029      -206.5889      -4352.676      -5459.350
      -731.7090      -2513.021      -1862.436       3282.727       3700.618
       2766.166       892.3560      -1654.097      -4031.405      -1812.548
      -650.6968       176.7754       6423.831       6242.848       1476.562
      -203.9781       209.8083       1003.718       274.5042       877.2134
       1836.764       1203.148      -117.2788      -1740.401       1066.545
       2992.181       710.0131       949.2266      -941.5139      -2315.998
       857.8740      -750.6968      -1481.365       681.1484      -1821.257
      -973.5264       1187.559      -3627.280      -2387.927       1288.841
      -217.0723       3662.735       896.7192      -4911.655       1792.359
       3452.506      -3050.029      -940.7090       7542.300       3867.954
      -4079.159       2387.528       3900.287      -2037.343       1988.344
       1102.752      -3818.502       258.7793       3307.880       2308.683
       480.3594      -2876.630      -1241.625       3452.315       1393.878
       498.2383      -168.3877      -4889.213      -1952.045       4551.721
       1927.625      -3011.451      -2176.152       1857.893       7659.558
       2601.242      -6262.623      -5382.774      -3845.871       2184.227
       7306.229       1132.453      -4464.569      -2221.597       568.1982
       4569.647       3845.593      -4352.329      -550.7471       1035.226
      -4204.659       1966.033       1930.555      -2446.047       2355.835
      -7.656738      -4021.736       733.9795       4404.876       4204.122
       1170.390      -1899.982      -3064.211       617.7451      -501.1270
      -7906.882      -1224.371       6478.729       5137.931       5565.357
       556.3984      -6793.030      -4577.708      -936.4292      -1715.582
       563.3511       1945.293      -51.93262      -2085.392      -5380.250
      -2461.293       1715.543      -3215.349      -1292.145       3579.953
      -2246.701      -2718.316       1026.143      -1179.600      -46.07471
       3854.077      -1319.405      -4379.006       1090.995      -463.7560
      -1535.286       3377.280      -437.2925      -3309.060      -1523.265
       1015.094       3573.548      -3636.457      -3304.117       2596.741
      -681.2219      -719.4702      -527.2480      -2686.197      -1472.084
       2995.604       4894.568       4132.006       2915.891       1614.828
       4080.488      -254.6670      -4409.944      -471.0518       39.53418
       1995.705       824.8796      -1395.029       3455.665       2173.907
      -4056.023      -7172.436      -8252.947      -3415.416       34.31445
      -492.2295       4774.790       5966.819      -101.3245      -360.8452
       2457.464       474.6732      -848.4795       1944.889       7261.246
       5552.537      -1353.306       1233.594      -5549.250      -13738.49
      -386.4912       4780.030       276.1509       3754.321      -766.6250
      -8701.785      -6739.338      -3883.983      -4068.794      -1296.301
       5136.639       7502.087       3425.622      -151.6064      -2484.423
      -3202.338      -3863.428      -5583.686      -1326.498       3549.206
       4931.107       4409.048       184.5747      -1260.262      -1963.816
      -3107.933      -2718.615      -812.9390       1920.836       727.4590
       3542.606       4281.933      -4374.270      -6641.195      -4208.910
       1823.614       4998.068       2238.351       4508.594       800.8896
      -2612.586      -291.7295       323.4434       3418.353       1867.225
       658.8682       5018.471       2148.640      -1533.964      -1186.095
      -3676.897      -380.9043       4017.277      -1985.465      -7912.392
      -4015.891       720.8838      -2078.771      -3226.565       2054.135
       5027.957       5810.862       2936.818      -2152.696      -1679.107
      -4804.012      -5448.490      -964.0295      -1897.029       2736.610
       4979.147       1485.031       3413.364       2508.298      -1806.574
      -5265.846      -7184.534      -1552.775       4654.857       4869.333
       1444.933       932.2222       2285.569      -1375.538      -214.9625
       716.6514      -1356.018      -458.5762      -1389.012      -230.3157
       185.9189       1374.728       1990.555      -6153.703      -10259.17
      -1623.023       5099.641       4086.477       3010.144      -2488.626
      -7020.479       1361.632       5085.763      -552.5547      -3922.157
      -2337.648       4823.563       703.5010      -7311.572       1647.661
       6041.258       3201.660       7567.547       6254.699      -615.7578
      -5170.117      -1258.506       7172.365       2265.900       63.03223
       3542.984       1436.297       5253.756       3953.166      -5271.965
      -2349.640       3889.447       458.4399       1323.573       4772.526
       22.50586      -3018.403      -3151.038      -196.2407       4475.864
      -993.7378      -5981.678       4430.649       5117.346      -5807.400
      -1837.212       2880.635       521.6973       3507.353       6291.641
       3278.866       820.2839       505.4141      -1440.391      -4186.771
      -6997.864      -5851.122       2118.660       7535.164       2579.666
      -1335.273      -877.0723      -6868.381      -9314.437      -1952.329
       3653.271       4977.787       4206.140      -165.4004      -7066.968
      -2942.285       7418.113       8930.145       6839.859       3365.775
      -820.1016       814.7388       1777.639      -1789.413      -2406.844
      -1400.661       1882.407       3677.108       175.0068      -991.8398
      -5787.667      -6199.354       1449.307       2444.165       708.0674
      -1701.928      -6337.455      -6482.197      -3025.300      -1880.239
       948.3857       1947.653       44.18750       2589.797       1178.401
      -2751.150       1132.912       8751.312       2713.834      -9483.286
      -4832.397       1713.386      -1404.283       3424.498       8508.357
       733.8516      -4075.532      -692.8740      -4971.001      -6418.613
       998.0249      -2816.854      -2738.318       7542.636       6041.204
      -3830.674      -7503.027      -1758.786      -371.8516      -5335.537
      -6291.823      -2092.844       2716.759       3117.199       3023.964
       4189.931       2221.068      -5129.725      -10187.54      -4073.901
       3850.328       7644.861       4842.157      -2093.423      -343.0195
       5764.900       2178.401      -5859.755      -5513.786       1570.219
       5849.767       1807.694      -3529.825      -3905.966      -4618.215
      -5630.290      -4237.117       3418.941       7643.202       2258.860
      -1930.536      -1703.402       4415.030       6364.899      -2404.994
      -6443.172      -1296.039       3792.729       3811.689      -572.0068
      -4225.478      -3129.416       861.8733       1950.649      -3774.230
      -4578.430       1392.017      -898.7588      -4737.152       1594.703
       5766.665       1213.836      -6063.197      -5387.680       3699.680
       7588.906       5532.253       2936.374       102.1987      -2173.645
      -873.3131       270.9937      -318.4390       1297.987       1262.684
       3740.306       4345.395      -1597.996      -3495.377      -5713.562
      -5394.070       2090.151       1740.008      -1694.352       1046.040
       2758.854       4067.136       6149.634       326.3867      -7262.521
      -6828.073      -4028.892      -194.6362       3016.543      -726.1055
      -3608.957      -660.6217       1074.512      -128.6875      -718.9292
      -1524.845      -1187.264       1180.377      -1541.297      -1002.843
       4608.774      -204.8633      -2275.317       1937.608       1528.027
      -189.5410      -1556.129      -1983.847      -1581.021       693.8544
       750.2612      -1943.624      -562.2871       3263.989       2878.768
      -560.8560      -1096.466       1201.713       4639.075       3080.244
      -947.4261      -720.0396       1094.143       91.00256      -1187.411
       330.4719       649.0835       2162.592       285.5947      -4885.320
      -2265.561      -1442.672      -1341.581       2578.297      -2263.223
      -7074.329      -2652.590       500.9961       2215.393       1962.424
      -1047.702      -1042.830       3177.781       6928.066       3946.864
      -1760.145       993.7109       6948.157       5751.101      -1045.758
      -3970.061       718.6973       2745.396       3246.620       4256.803
       3446.736       4576.127      -322.7388      -4082.157       1273.682
       1207.079      -3750.857      -4524.915      -3144.383       33.43018
       1202.725      -1070.459       1974.994       7066.262       2532.950
      -4121.668      -6655.482      -5176.868      -1079.676      -294.3848
       1424.781       3423.570       1168.722      -1383.837      -710.2813
      -22.84351       143.6543       3255.170       4430.529       5315.854
       2540.705      -4026.820      -1880.135       3545.884       2166.965
       976.2957       2281.860      -2097.124      -5547.592      -90.25488
       3893.925       801.9678      -508.1555       2146.527      -490.4150
      -5501.477      -5000.947      -1448.316      -884.1725      -196.8550
       2111.898      -1130.632      -2627.799      -3195.934      -4701.427
       295.2217       3785.187       5124.569       2509.224      -2323.639
      -3867.662      -6471.674      -5483.509       1211.279       5150.174
       2419.976       1276.950       3691.396       3559.145       5092.085
       3921.855      -3448.393      -3598.403      -269.5874      -2346.681
       1386.996       7878.623       4252.733      -2182.513       152.7261
       3414.191      -240.3867      -5295.989      -4275.299       2965.271
       6816.697       101.8496      -3951.090       483.5958       95.21704
      -898.6353      -211.1882      -1335.099       867.9270      -414.4624
      -1238.673       1475.836       241.3750       943.6846       1886.232
       493.6112       520.7397      -683.8746      -640.7959       1763.269
       2731.711       2695.286       1595.655       91.06104       1781.532
       738.5449      -6802.635      -8145.341      -2323.254      -1213.047
      -93.39453       3304.730      -1056.703      -3501.618       1170.050
      -234.3584      -3381.378       1703.216       4468.353       715.3403
       75.62238      -22.00366       1001.920      -1358.543      -5415.924
      -2118.336       270.3748      -1090.097      -1843.086      -1696.957
      -101.0854      -1639.375      -2358.199       92.13525      -1527.474
      -2590.924      -2393.074      -1478.247       689.4231       245.2090
      -3835.602      -5975.096       473.9324       2177.120      -2037.851
       794.8770       5298.554       7634.122      -266.2031      -11726.75
      -2418.277       10228.61       10735.80       14874.07       23580.95
       20492.18      -61.31250      -21017.70      -33039.22      -39950.37
      -40274.88      -22176.89       6213.125       25708.80       34236.55
       24524.73       5585.621      -10797.33      -35113.14      -62567.12
      -75344.33      -60622.49      -22886.28       19900.16       51720.76
       46360.05       21109.90       13002.85       6470.410      -8266.828
      -23269.96      -27347.98      -4950.781       21668.76       30535.79
       33578.70       34717.98       28752.71       14668.85       9173.783
       5653.422      -22961.19      -50087.97      -44302.29      -13808.51
       5731.122      -1528.914       5208.930       38207.74       43986.50
       13407.41      -7177.383      -19835.77      -46964.91      -76620.36
      -66209.91      -2217.375       59446.44       87288.72       88330.12
       50589.83      -5798.688      -45693.73      -55585.92      -35178.41
      -10579.66       27993.33       62885.94       44411.90       24727.53
       29139.57      -544.7031      -28057.00      -11130.61       6527.547
       12833.32       10273.55      -4472.723      -17531.28      -13048.79
      -440.7656      -12503.82      -20885.01       6511.801       15679.29
      -8691.359      -13134.56      -464.7803       1953.602      -13394.48
      -31774.80      -28295.86      -15453.83       12961.11       28523.51
       15140.20       27571.20       25517.99      -14952.67      -17231.48
       17078.17       20202.98       560.7881      -353.2266      -11217.59
      -31450.07      -23837.92       8661.773       34289.33       31031.67
       28287.74       20409.56      -18395.38      -43667.43      -29826.74
      -1951.688       19290.84       26598.14       22057.18       13337.89
       5205.133      -10790.38      -30759.27      -37617.84      -28206.30
      -8725.781       24472.62       29544.57      -3951.541      -1013.039
       20300.80       10488.16      -5574.465      -11298.81      -10366.00
      -2417.254      -6157.723      -16646.93       9971.117       40893.32
       12103.76      -23408.25      -9724.953      -5896.824      -25974.03
      -6410.789       27180.38       29860.91       30257.18       24930.36
      -11177.11      -49191.93      -46428.07      -20716.50      -250.1719
       21550.52       27235.95       8316.328      -11419.34      -19756.13
      -23935.90      -24459.91      -15412.61      -11180.94      -1887.529
       5602.824       7307.887       20854.25       20740.57       9916.555
      -8104.555      -19053.29       3624.711       25107.95       16265.92
       2227.512       5350.768       9376.434       8059.105       10273.68
       1940.008      -22828.78      -19170.12      -1115.334      -9437.697
      -4970.495       5235.549       2723.771      -10895.23      -13377.03
       8326.912       3708.941       4590.609       23576.29       19044.20
       1318.969      -23540.47      -36694.68      -13037.51       15995.90
       11968.03       1759.213       8332.377       7295.815      -6190.869
       3135.324       17647.33       13834.75       21376.99       33331.00
       23106.48       2589.062      -16798.74      -33745.33      -36324.07
      -16584.30       11719.97       19018.02       15407.79       4387.398
      -14063.36      -15173.83      -3709.207      -3371.699      -18937.17
      -16958.10       3322.590       15056.73       12775.82       3022.582
      -5614.277      -12928.01      -7381.541       2386.268       2536.738
       12173.96       19882.13       485.3926      -12013.62      -7884.328
      -9377.434      -2959.680       13357.44       26189.56       20643.62
       2165.396      -999.7715      -3314.992      -24336.37      -19667.14
       7775.844       18289.22       13919.10      -5836.859      -15315.95
      -5300.998      -5061.176      -11582.86      -9971.447      -6511.527
      -8944.864      -2719.492       19208.78       17555.60      -18693.65
      -27043.78      -2132.789       9122.711       10403.00       13043.46
       8849.376      -5036.703      -11965.29       1395.422       19329.55
       12686.70      -5368.657      -4618.248       6569.535       14295.20
       5552.688       757.2246       1159.371      -15716.26      -14390.06
      -1531.969      -3060.592       2220.709       10921.98       8703.138
      -746.9355      -6963.664      -3220.320      -8571.188      -25857.26
      -20458.78       5205.289       21702.52       15913.36      -4796.547
      -21808.88      -12983.45       9536.879       13610.94       25307.25
       45347.26       27554.58      -11469.90      -20009.05      -280.7422
      -3189.148      -16356.92      -3296.307       8114.297       12156.92
       18278.34       7569.568      -6458.884      -1934.609      -6653.916
      -13751.67      -723.5957       9689.607       6407.969      -8182.484
      -14059.44      -3758.349      -898.1260      -1411.141      -932.7949
      -10233.58      -12362.13       1843.031       13217.23       7689.083
       1440.053       5131.131       5428.572       9561.984       9448.424
      -5598.848      -11858.55      -12792.27      -14518.89       883.3730
       15354.47      -1961.117      -15800.68      -9296.426      -17734.99
      -24490.73      -18560.10      -12794.64       8136.949       22952.89
       3313.152      -12616.08      -8036.554      -2117.621       5522.078
       7753.746       6548.556       2324.293       8305.305       23832.92
       8901.296      -7854.721      -277.1895       7885.969       8062.366
       2642.992       1125.805      -3181.775      -9771.393      -5574.351
       1276.660       7044.178       5960.508      -9156.945      -12675.20
       2431.620       5901.436      -7590.299      -9789.551      -745.6914
      -6028.990      -10181.95      -5988.881      -3303.109       12250.07
       19946.21       4831.556      -6419.971      -4912.894       2957.048
       729.3677      -4627.045       6653.262       8985.415       205.6439
       246.8608      -1274.387      -5083.287      -9968.922      -10486.24
      -8006.205      -11197.71      -3747.835       6720.076      -1152.730
      -18809.78      -20496.60      -1759.482       3369.464      -1279.381
       4887.391       10047.34       15183.54       14354.10       16683.47
