     0.02500000      -231115.1       179468.1      -12345.00      -12345.00
      -29.99999       228.0250      -28.85000      -12345.00      -12345.00
       0.000000       21.22000      -12345.00      -12345.00      -12345.00
      -12345.00      -12345.00      -12345.00      -12345.00      -12345.00
      -12345.00      -12345.00      -12345.00      -12345.00      -12345.00
      -12345.00      -12345.00      -12345.00      -12345.00      -12345.00
      -12345.00      -30.27030      -67.72450       1286.000       0.000000
      -31.54000      -68.94500       0.000000       103500.0       0.000000
      -12345.00      -12345.00      -12345.00      -12345.00      -12345.00
      -12345.00      -12345.00      -12345.00      -12345.00      -12345.00
       182.8349       39.96766       219.3438       1.643869      -12345.00
      -12345.00  -0.0001645417       270.0000       90.00000      -12345.00
      -12345.00      -12345.00      -12345.00      -12345.00      -12345.00
      -12345.00      -12345.00      -12345.00      -12345.00      -12345.00
      2008        49         8        51        32
       550         6    -12345    -12345     10322
    -12345    -12345    -12345    -12345    -12345
         1         7        13    -12345    -12345
    -12345    -12345    -12345    -12345    -12345
    -12345    -12345    -12345    -12345    -12345
    -12345    -12345    -12345    -12345    -12345
         1         1         1         1         1
RINC    -12345          
        -12345  -12345  
-12345  -12345  -12345  
-12345  -12345  -12345  
-12345  -12345  -12345  
-12345  -12345  -12345  
-12345  -12345  BHE     
ZL      -12345  -12345  
[...]
       4583.203       5764.194       5226.680       83.15527      -1821.755
       580.1191      -4194.863      -7596.797      -6192.061      -3874.691
       2528.920       719.6211      -8987.345      -6844.401       2818.990
      -3791.676      -10882.82      -3359.895       4911.514       6632.725
      -2241.842      -7974.155      -3265.898       35.62891       3533.326
       2448.684      -3961.027      -565.9648       7829.896       6364.412
      -2540.283      -4797.156      -1834.718      -3504.226       378.1191
       8356.512       9501.724       4163.891      -1407.945      -1746.847
      -443.7544       333.5205      -2246.158      -3331.024       1381.222
      -3448.057      -3794.719       5730.653       4622.648       858.1973
      -4595.965      -9018.426       740.8359       10984.16       5194.941
      -3419.519       294.5345       1626.217      -5303.156      -7801.440
      -4602.848       5772.672       13319.66       5759.299      -2690.020
      -7928.334      -5154.560       5320.633       7639.959       5575.739
       1768.375      -6928.156      -4519.980       4341.199       1703.174
      -1323.422       292.7095       522.4902       2575.851       2791.931
      -641.7690      -1706.345       1260.961       2025.767      -989.4414
      -3164.714      -3283.620      -1469.688       2773.090       1168.614
      -1694.489       39.71103       244.4985      -350.1562      -3169.330
      -2103.846       5442.612       4106.041      -3445.741      -4719.862
      -2730.100      -2305.114       412.3132       2101.150      -2211.702
      -2920.439      -1189.141      -2138.803       1226.115       2233.645
       1258.257       662.3989       706.7920       4250.162       3820.877
       725.3018       957.1592       3327.441       858.6953      -4717.573
      -3419.214       270.8154       2658.008       2455.489      -839.5940
      -362.1211      -841.8667      -3059.842      -1476.708      -427.9043
       1332.886       1563.045      -1990.681      -4538.292      -1881.746
      -461.2886       1240.850       4917.401       2083.455      -215.1929
      -1665.208      -3307.759       2206.227       1288.177      -3691.460
       4083.373       5167.830      -5522.438      -3537.542       3326.483
       1443.823      -1502.258      -1410.680      -1741.740      -1172.616
      -1268.772      -3763.960       131.7871       6307.981       394.5518
      -6385.934      -1532.274       1201.575      -2965.115      -2060.439
       2051.068       2620.423      -1315.710      -2702.371      -585.1206
       662.8774       804.6279       1573.878       2073.082       685.4763
       1577.379       934.2666      -2126.736      -2115.365      -1471.497
      -389.1968       2878.321       1952.458      -966.4810       1586.463
       947.7653      -783.5900       455.6367      -2038.246      -3414.393
      -2544.922      -1813.696       1205.260       1136.107       745.1562
      -888.5562      -3374.261      -1067.433       1190.996       1905.533
       1495.309       1032.634       984.0703      -1617.848      -966.6482
       2679.022      -1291.411      -4763.743       1045.819       4691.596
       2203.874       272.3821      -384.0927      -602.5874      -76.91406
      -4098.160      -5288.771       993.8730       3870.059       1251.464
       588.0068      -339.3340      -4440.899      -4183.508      -1577.635
      -2399.761       757.5674       2808.200      -2606.535      -1832.057
       5198.631       6120.202       1197.129      -4172.982      -3286.140
      -1175.090       1.219727       3939.657       3612.456       844.7031
       1616.672       2919.954      -3822.203      -8657.539       1213.540
       6021.669      -1482.207      -4232.000       1127.847       1776.416
      -2593.171      -771.1426       6776.319       6858.430      -248.5170
      -579.2451       2806.286       865.4526      -1004.371      -176.8486
      -1138.618       1347.687       5104.380      -1199.403      -1696.924
       3279.087      -1880.499      -3928.095      -2118.402      -3409.823
       2655.855       4453.348      -4620.309      -1262.846       7179.119
       6064.813       162.1816      -4961.054       1769.919       4835.995
       316.7488       1835.018      -1883.604      -2636.587       2061.634
       297.0569       1535.896      -1403.957      -6292.062      -3154.482
      -2108.121       2528.522       4457.369      -2285.439       3399.918
       3817.782      -5600.769       2009.408       7657.580       2082.296
       2374.527       151.0791      -5636.801      -4369.320      -4000.116
      -6400.618       584.7617       9127.337       5572.668       170.3040
       690.3418      -850.2090      -3715.926      -6826.524      -868.6309
       7834.012       5207.857       4064.307       4701.102      -1110.940
      -6581.112      -1693.900      -1030.235      -6507.429       2566.938
       5867.635      -191.2871       3241.902       1153.057      -5657.661
       32.30469       4793.474       1333.809       279.1230       868.1611
      -2045.727      -1253.876       1270.692       1231.832       1499.593
      -2784.073      -1645.927       1025.445      -4112.965      -5694.668
       1108.412       7271.393       1915.454      -1544.398      -1942.406
      -5315.111      -4887.551      -2438.884       396.6260       3297.703
       2077.617      -321.6406       3308.287       4445.822       1033.227
      -3496.201      -6419.330      -3509.305      -1546.841       53.63281
       3879.955       4614.900       2109.533       2030.640      -640.8301
      -5193.037      -4747.119      -810.0433      -739.4155       55.96875
       3825.963       4166.525       3556.186      -2799.119      -8951.046
      -3396.174       610.8799      -4776.095      -4823.652       834.1597
       2763.425       2457.626       1294.028       1843.904      -2586.213
      -7588.709      -2225.041       2247.786       3147.652       4675.868
       4092.355       3102.789      -827.9600      -4024.515      -3926.680
      -1056.617       3900.647       4744.848       2640.794      -2208.657
      -5198.390       1120.355       4043.347       3312.577       3169.475
      -1553.881      -5576.156      -6403.322       2861.506       9723.309
       3249.014      -1236.077      -4498.176      -3539.063       1993.837
      -722.7773      -6329.012       93.04785       5889.458      -948.8079
      -2507.754       2149.540       1363.741       1502.059       2069.842
       3115.883       5608.508      -1430.459      -8375.642      -2727.152
       3461.113       2196.476      -1030.587      -2791.011      -3968.379
      -4252.778      -3406.281       1114.286       3562.174      -506.5488
      -5678.897      -5915.575      -1826.148       5247.174       7430.589
      -849.2645      -661.7598       2830.327       1135.844       1731.779
      -1701.368      -4270.104      -682.3203       8662.232       7047.421
      -4711.619      -8259.229      -6159.364      -516.4346       2784.061
       3548.596       500.1128      -3838.400      -214.3177       170.9482
      -1875.200      -2375.070      -370.7534       3980.467      -625.2480
      -5956.988       540.9585       4615.214      -1760.557      -3108.990
       2264.681       3630.629       644.7832      -1570.819      -2481.673
      -2705.578       2299.343       4348.938       959.1605       725.0005
      -549.2089      -560.7302       48.58801      -994.5640       2992.198
       1322.470      -5572.186      -2652.663       2232.829       1809.587
       874.2578      -1663.630      -845.1660       2484.839      -1443.327
      -6179.442      -911.5969       841.0840      -3869.053       1318.711
       8508.262       7350.038       2890.085      -2764.148      -3145.431
       3368.010       3198.007      -2209.582      -2124.591      -718.5391
       2720.239       5150.329       324.1289      -1348.030      -3208.305
      -6099.162      -384.8909       99.40820      -4240.900      -3630.453
      -4667.604      -3765.025       1841.713       2488.402       2234.010
       5630.207       4798.939       3204.377       4032.772      -1293.333
      -3966.759       949.1729       3528.946       3967.596       3738.337
       4644.223       3936.684      -3583.504      -6209.381      -1069.468
       146.1465      -2671.933      -4461.822      -27.77051       5990.047
       2012.917      -819.5400       1154.047      -2402.986      -2621.025
       2545.529       2578.944       3256.928       5585.307      -103.7432
      -4040.372      -723.7949      -54.17773       3347.142       4400.056
      -1231.286      -523.1323       1402.175       1939.034       920.9004
      -6605.678      -6042.362       1236.929       4342.221       6395.411
       5812.928       2647.182       1220.183      -41.97119      -1251.959
      -1670.249      -4460.497      -565.5332       3474.754      -4986.076
      -6430.547       1548.584       5570.768       2830.666      -4453.174
      -4593.178      -2424.128      -6210.967      -1317.566       8878.088
       9688.770       5035.916      -3171.205      -6453.985      -671.4310
       640.3018      -1273.823      -1766.132      -3060.142      -4189.979
      -4034.731      -423.3555       5994.314       3176.510      -4957.122
      -2884.866       3190.059       3321.408       651.5723       1578.927
       3815.493       358.8999      -3077.295      -1361.799      -1774.946
       127.9888       4600.858      -2104.319      -5559.750      -272.5615
      -3272.306      -2286.394       5533.108       1528.322      -4313.399
      -1932.027      -2112.919      -1475.072       5445.808       7150.244
      -925.1553      -5655.995      -760.7207       5497.840       6073.249
       114.4946      -3234.459       2328.077       3198.847      -2915.593
       954.9082       4418.816       1248.181       1433.286       903.3098
       896.9773       1749.634       204.8054      -1459.733      -646.4548
       798.0645      -1452.083      -3464.920      -614.0142       2039.939
       98.90967      -1061.700       1846.102      -292.4688      -5306.781
      -1448.938       1477.545      -3607.967      -5189.877      -3738.918
      -1248.432       2049.273       5094.663       6992.753       1034.492
       371.3003       311.3203      -6102.794      -2645.016       1009.199
       2301.865       6234.611       4357.789       873.1299      -1644.050
      -3181.318      -3135.553      -4445.749      -1220.901       1782.423
       1256.655       155.3125      -3538.480      -6472.430      -6402.776
      -705.8480       2069.951      -1529.812      -2919.918      -813.4331
       1483.483       1721.415       2732.625       852.5098      -3686.328
      -638.2363       7861.025       5502.689      -2118.502      -2188.633
      -2583.090      -1908.237       327.3545       2414.110       2848.730
      -2011.064      -3253.607       1859.459       8517.312       4959.115
      -6750.322      -8577.069      -5983.493      -1844.762       6685.000
       6926.027       3608.147      -959.1953      -7272.692      -4840.738
      -2335.915      -1718.432       2516.135       4072.210       1472.690
       350.2394      -97.93433      -261.0039       2315.122       810.9670
      -1980.520       435.1455       2291.920       1549.208       1509.017
       617.9248       661.0859       2209.956       2076.700       1530.895
       790.0386       2673.261       2374.903      -419.6487       1160.756
      -2244.270      -7051.932      -3552.581       3091.682       4530.119
       1149.540      -3008.545      -5614.717      -2092.167       3879.465
       3941.171      -230.1714      -1421.400       2106.137       9020.682
       10070.46      -1131.434      -11694.29      -12314.74      -4239.502
       4669.688       6130.456       188.9414      -6856.210      -6057.716
      -2538.220      -902.3364       1119.306       305.0142       2118.374
       1643.681      -916.3604       3969.351       6312.538       1894.395
      -518.6416      -1637.373      -2906.742       1122.183       2686.549
      -1886.021      -3670.453      -3788.277      -3165.877      -3204.153
      -1998.664      -2041.363      -7575.229      -8528.884      -4137.077
      -2902.246      -3767.352      -5712.148      -11942.95      -18300.41
      -26377.64      -38901.78      -45217.42      -42646.08      -24247.28
       14281.05       51314.50       73830.45       80405.61       61253.54
       25842.98      -18019.92      -69428.50      -103785.9      -102207.8
      -67015.73      -4090.750       71218.16       137081.0       176016.4
       179468.1       135718.4       30958.19      -99944.06      -195257.2
      -231115.1      -185520.1      -73668.16       36126.56       121792.8
       164940.9       121087.8       34752.89      -9205.203      -35021.36
      -74394.72      -89303.17      -53808.08       22645.58       64128.43
       40232.71       13495.51      -283.3594      -20999.45      -32259.61
      -22591.38      -9551.797       7370.496       20153.52       4157.779
      -1003.883       25565.23       26932.24      -8915.078      -38959.19
      -37146.58      -23494.86      -22479.14      -25614.80      -15891.01
       7250.719       11506.89       4709.875       34310.83       64064.03
       49877.11       23247.87      -17614.73      -48198.78      -32965.12
      -6992.125       17448.05       39390.16       42774.90       13152.10
      -25692.99      -33160.35      -22999.21      -3660.156       13914.32
       12836.30       11185.63       19160.47       16762.99      -23408.77
      -44181.91       1183.891       25163.52       17347.78       32647.66
       39043.94       18994.21      -10219.07      -30271.38      -32595.54
      -25249.88      -5990.789       585.6953      -10111.61      -4337.312
       27434.55       40508.35       2737.875      -37561.09      -48180.75
      -16327.76       17043.56       4394.895       5387.859       24661.63
       22077.72       19678.74       16357.76      -2709.697      -3961.977
       10498.83       2666.127      -5900.917      -1754.211      -8799.742
      -16810.62      -19311.04      -7161.781       25237.18       30747.02
      -2422.621      -23212.58      -16246.56      -9673.711      -12880.01
      -16011.20      -178.2148       19686.70       18283.01       9228.055
      -8594.824      -22920.82      -12001.47       8171.758       5988.715
      -12834.52      -14886.08       10600.79       25856.54       4516.055
      -5990.118       7868.100       5716.758      -7681.430      -11540.20
      -9357.652      -14190.16      -26079.04      -17136.52       3913.737
      -2881.757      -412.5898       15971.62       1483.939       2253.047
       19593.34       22495.37       22947.10      -3573.348      -21470.13
      -5914.499      -5769.738       7670.211       32742.04       26655.26
       18893.47       13867.86       380.9707      -8212.930      -15813.50
      -19946.94      -14771.13      -14077.61      -3269.078       25846.42
       24757.38      -12271.69      -30556.27      -31504.73      -30634.83
      -22891.53      -7018.797       14898.44       13719.85      -1732.199
       5135.836       14587.44       6805.787       5774.016       10098.26
       4539.602      -5754.750      -2097.875       19111.99       23956.49
       13518.07       1046.473      -7869.578      -10666.18      -23347.27
      -4476.727       36916.45       18208.24      -9837.284       1472.599
       1801.352      -8714.820      -11243.48      -4087.910      -7847.117
      -18494.20      -7772.153       3801.710       1649.262       9460.852
       25017.75       13641.47      -1560.246      -606.5914      -4.539062
      -817.5645      -7189.941      -16733.85      -4605.812       21928.31
       26901.84       32388.84       26521.91      -8258.320      -24403.86
      -21256.36      -15754.98      -2583.492       10663.51       11640.37
       3975.211       2915.736       7416.483       229.4180      -10997.24
      -18063.24      -23837.74      -10697.90       13364.12       14200.14
       7655.742       12364.08       5017.574      -7684.328      -7801.837
      -1483.252       1975.027      -2191.621      -8509.176      -15234.06
      -15075.83       1822.461       14428.98       5001.600      -8954.617
      -13628.83      -13193.01      -8323.398       8157.156       25713.32
       18169.06      -11231.31      -26911.56      -15877.57       5929.797
       11568.71       348.3862      -2969.004       82.20312       8834.695
       16312.54       11546.69      -747.9375      -12652.18      -16010.55
      -14927.27       258.5391       12872.24       4848.547       6336.477
       17843.68       9405.416      -6269.539      -851.0625      -6947.438
      -28229.91      -21389.10       2989.837       7372.341       468.6113
       3361.635       6858.578       11811.82       14302.82       14870.79
       6769.766      -12912.24      -16484.99      -2769.145       12730.91
       13667.09       7421.391       8692.107       5788.772       652.3945
      -5341.453      -12685.20      -20378.80      -25654.53      -20682.22
      -6896.734       9706.957       17130.49       8837.676       2939.336
       2109.189      -10346.24      -10958.60      -217.8330       1922.443
       3561.191       5579.762       6351.051      -2347.922      -18358.99
      -20679.48      -7001.762       10404.02       22489.10       15858.84
      -2581.965      -13045.49      -12852.25      -1067.859       16125.25
       12158.72      -4540.225       3503.768       14348.46      -7316.029
      -18192.67       4973.398       9707.217      -1205.379      -7062.229
      -11439.99       3961.246       9432.554      -4749.740      -6186.735
      -4046.322       6510.922       19511.73       511.2031      -18655.52
      -13015.46      -5437.043       10169.91       24782.27       18972.21
       3755.012      -4190.586      -9830.597      -6635.937       4086.217
      -2370.008      -7391.625      -1522.049      -1350.897      -2832.281
       9586.244       13209.79      -10266.56      -7958.456       5427.469
       827.6602       11011.49       7817.136      -3409.648       6643.398
