     0.02500000      -469290.6       508156.6      -12345.00      -12345.00
      -30.00999       213.8150      -15.21000      -12345.00      -12345.00
       0.000000       11.27000      -12345.00      -12345.00      -12345.00
      -12345.00      -12345.00      -12345.00      -12345.00      -12345.00
      -12345.00      -12345.00      -12345.00      -12345.00      -12345.00
      -12345.00      -12345.00      -12345.00      -12345.00      -12345.00
      -12345.00      -31.51150      -68.98430       1231.000       0.000000
      -31.54000      -68.94500       0.000000       103500.0       0.000000
      -12345.00      -12345.00      -12345.00      -12345.00      -12345.00
      -12345.00      -12345.00      -12345.00      -12345.00      -12345.00
       4.890647       310.2435       130.2640     0.04397326      -12345.00
      -12345.00     -0.4001586       0.000000       90.00000      -12345.00
      -12345.00      -12345.00      -12345.00      -12345.00      -12345.00
      -12345.00      -12345.00      -12345.00      -12345.00      -12345.00
      2008        49         8        51        18
       910         6    -12345    -12345      9754
    -12345    -12345    -12345    -12345    -12345
         1         7        13    -12345    -12345
    -12345    -12345    -12345    -12345    -12345
    -12345    -12345    -12345    -12345    -12345
    -12345    -12345    -12345    -12345    -12345
         1         1         1         1         1
SASO    -12345          
        -12345  -12345  
-12345  -12345  -12345  
-12345  -12345  -12345  
-12345  -12345  -12345  
-12345  -12345  -12345  
-12345  -12345  BHN     
ZL      -12345  -12345  
[...]
       164.8333      -2.610031       129.7278      -4.828979       150.4694
       26.87906       175.6387       19.75980       152.5109       12.39001
       179.7993       81.09119       231.9893       69.65549       183.1689
       5.343536       166.7845       119.3987       311.3013       124.3400
       191.4693       45.66394       226.4828       138.6499       333.0809
       191.8912       249.9342       72.89240       257.5013       183.9258
       348.0328       211.2404       314.4026       130.2720       265.3007
       196.4087       382.5117       226.2999       327.1960       199.6078
       329.8702       182.9703       330.7404       228.3665       362.1400
       203.8072       319.8188       190.7724       330.3184       219.2894
       369.7845       242.1843       333.4214       166.7697       330.3222
       233.7215       363.3274       219.7087       331.7595       199.6479
       337.2656       230.3777       377.0013       231.0491       338.1281
       202.4153       336.4969       216.2334       347.2860       218.6783
       327.6785       195.0908       313.2551       183.9001       346.1481
       219.3358       318.2926       160.2419       262.9327       145.8416
       276.2092       145.9366       268.1510       112.8779       203.2400
       60.40073       201.0934       103.4047       226.8846       66.80466
       141.5534       14.72534       188.2247       59.24210       163.8029
       38.30469       114.0704      -25.73228       129.8129      -7.852203
       94.86635      -25.75616       89.72974      -51.04412       61.48433
      -66.81875       47.20554      -71.53773       56.21204      -64.83896
       49.92445      -104.6743      -3.614426      -97.81457       46.56355
      -92.24559      -2.003937      -131.1872      -17.59219      -145.9833
      -8.835449      -109.6187      -11.89862      -148.4452      -39.58044
      -167.6155      -39.78796      -133.8430      -7.376892      -159.4158
      -67.85278      -154.1177      -9.619049      -141.5354      -32.71201
      -153.8156      -45.44940      -164.7444      -58.01825      -182.3729
      -29.55762      -122.7972      -39.53549      -180.7468      -48.64581
      -150.0511      -4.201233      -113.0542      -55.04797      -199.5928
      -39.08839      -120.4017      -11.15976      -149.0870      -46.27576
      -169.4663      -79.33533      -183.4333      -32.52490      -137.4304
      -63.43018      -210.4641      -62.33499      -130.6705      -31.95184
      -194.1926      -104.2598      -202.5473      -57.82645      -163.7458
      -93.48346      -228.1953      -86.19873      -174.7800      -104.5865
      -256.7281      -124.9948      -210.7742      -87.22028      -194.0791
      -118.2683      -249.8889      -121.4711      -235.6304      -119.6230
      -194.5437      -106.7570      -282.4479      -184.8574      -262.2521
      -117.7241      -212.8848      -126.2744      -266.0311      -152.5463
      -248.7770      -126.6349      -217.0742      -122.7903      -271.7056
      -176.9849      -271.1230      -142.9819      -226.4142      -91.83405
      -208.7106      -159.0607      -283.4298      -128.0327      -203.4864
      -117.6364      -256.7617      -165.0486      -247.9901      -124.4099
      -233.3874      -127.9200      -220.0038      -107.9152      -222.4716
      -145.2782      -253.7621      -126.5391      -223.9095      -139.3690
      -236.9698      -102.1415      -205.9156      -134.7690      -232.3292
      -80.36203      -139.1553      -49.64142      -207.7904      -127.0367
      -187.5306      -31.23480      -119.9654      -38.04071      -131.3171
      -21.10394      -137.6323      -36.83563      -99.58504       49.41281
      -68.90730      -17.61180      -124.7779       27.28899      -30.23731
       59.23639      -77.40222       23.95008      -33.26511       89.76135
      -39.95190       46.39737      -15.49046       107.7542      -20.58441
       73.00691      -6.427704       102.4245       13.96208       113.7970
       17.77966       124.8050       10.15114       94.94633       15.21512
       150.6902       86.12924       170.3514       30.72070       122.6693
       59.29251       196.8465       98.91895       150.9462       39.59766
       175.7394       93.33942       168.6743       94.11310       205.9126
       75.95233       153.0389       85.46014       196.2078       83.43610
       168.9191       86.53378       166.0193       63.10852       164.8261
       99.78082       209.0039       75.21089       112.5762       16.72891
       125.6643       58.84030       161.4323       36.83348       107.8788
       28.14513       102.0988      -12.73663       109.6751       53.13438
       91.67758      -73.68742       15.16862      -21.36255       82.57831
      -26.45717       44.63939      -58.58849       20.60730      -76.76953
      -5.770264      -77.48885       47.37315      -36.66797      -18.82288
      -160.9549      -52.97613      -75.44441       23.58167      -76.51778
      -10.92126      -131.8738      -77.18478      -142.1551      -23.16415
      -85.84036      -28.49936      -148.9540      -87.56641      -142.5646
      -19.95238      -93.86635      -37.05295      -113.0429      -7.354004
      -104.9554      -70.80037      -124.6466       9.595306      -58.76802
      -10.29617      -82.30009      -6.726593      -91.54079       12.63249
      -6.797592       66.72276      -57.85645      -22.33420      -67.98990
       57.16528       14.39125       75.67752      -33.38135       13.02708
      -6.198898       97.37123     0.01231384       59.69464      -7.579041
       53.68150      -7.773834       75.09053       11.75233       73.93733
      -11.71603       70.17290       46.42999       106.1535       13.60336
       85.26270       25.36000       95.89317       24.99866       87.66751
       46.92572       128.8269       62.65295       115.6531       40.32227
       103.8571       75.38406       164.2123       87.13098       123.8385
       61.94196       126.4676       77.08542       143.8007       95.16052
       169.5829       93.03644       127.1826       100.7904       164.5926
       73.22052       119.7764       97.35809       152.4241       68.34312
       98.65875       47.16739       132.7239       120.0791       154.7289
       52.52426       66.21991       23.16403       107.2596       65.34082
       90.60818       11.64237       28.50212      -5.155914       93.61316
       76.68286       91.16420      -7.909180       14.74084      -11.13439
       50.46074       7.039589       33.62335      -48.32711      -14.80637
      -11.93357       46.62485      -40.41251      -55.54530      -82.33030
       1.066277      -32.42841      -16.87744      -91.22156      -88.83353
      -103.1578      -22.48750      -51.41806      -51.28137      -137.9723
      -105.6606      -83.68240      -42.35739      -114.1393      -105.2460
      -148.9240      -102.9266      -116.3937      -68.29742      -96.48758
      -129.3141      -175.0587      -84.45615      -79.12976      -77.00824
      -125.2749      -77.27563      -76.62466      -89.71948      -137.4727
      -77.85745      -94.59802      -81.90524      -93.50897      -81.79648
      -104.5334      -53.67937      -45.14532      -40.41867      -112.5917
      -95.94196      -64.31912      -29.65322      -41.42864      -12.54689
      -50.82483      -56.54686      -39.73366       19.30596      -3.182556
      -38.10200      -55.25273      -13.16077      -7.607048       27.14240
      -12.01469      -52.77540      -30.77785       27.87681       26.14227
      -12.00262      -66.48070      -32.04922       6.004068       6.224973
     0.09997559      -9.826157      -57.69658      -58.27217      -27.08324
      -9.035721      -22.24899      -47.32568      -66.20758      -85.62460
      -75.29930      -43.69310      -30.29807      -81.76117      -92.76613
      -50.80939      -47.53156      -89.11786      -94.98813      -97.73315
      -73.39133      -81.10690      -91.70544      -106.8341      -71.15112
      -74.57320      -76.24911      -85.21600      -48.74930      -78.28354
      -100.9150      -105.9274      -46.11428      -35.52895      -23.28351
      -82.32538      -77.81418      -59.93098      -9.184448      -52.51762
      -62.48578      -83.09300      -49.19223      -60.47719      -24.16621
      -62.77051      -47.77049      -58.67874      -31.65935      -74.53304
      -51.39458      -59.00862      -16.44762      -57.72226      -50.71913
      -74.01553      -26.51985      -48.00846      -17.80054      -50.44276
      -42.89018      -90.09399      -34.41569      -37.65956       3.675293
      -51.57690      -29.07760      -48.53585     -0.4517632      -13.73651
       25.96507      -38.06064      -1.279167      -1.227158       46.38975
       9.190872       68.29781      -2.587112       8.820251       18.68944
       107.1255       28.15405       47.24887       44.08272       106.2715
       21.48987       60.00058       57.78894       138.5346       66.25626
       59.61865       11.09137       105.8951       74.63113       120.7616
       55.62169       90.51138       28.09988       99.85699       70.80301
       122.5232       53.73984       115.4152       56.31543       101.4729
       60.48969       124.5813       67.77655       129.9005       62.62808
       119.5462       70.59552       138.8524       90.10187       171.7763
       116.1423       165.7867       91.33002       149.6806       111.2298
       205.5157       139.8533       204.5107       142.8315       188.5399
       110.6506       219.7994       176.3391       217.3277       157.0793
       239.6495       173.9749       253.8267       192.5983       256.7439
       167.9061       247.5558       198.6645       271.0530       185.1031
       252.7986       186.1860       265.5214       199.7019       289.6307
       210.2966       271.5822       212.1064       296.5394       191.6370
       253.9310       192.3599       299.1016       215.5013       274.0171
       205.5978       295.1305       207.4069       293.2954       225.4565
       330.7418       257.6780       310.0735       215.2910       306.2539
       229.8972       336.8485       263.0875       337.1716       240.1052
       333.4163       265.2491       354.7931       267.0692       362.5872
       256.0108       323.1189       256.6099       371.2489       283.2841
       371.7419       275.0486       355.2184       264.3422       354.2088
       265.8172       363.5497       272.6428       379.2498       273.2279
       324.6664       222.9351       337.6431       290.2280       393.5804
       258.3098       308.1550       201.7197       321.7981       270.1738
       346.9519       215.1146       299.4513       172.3704       262.2043
       211.2067       333.2692       208.1490       237.6550       110.7466
       237.2903       159.2444       268.6058       171.5938       218.7914
       69.05646       183.7268       119.5999       219.0081       75.94617
       143.2075       54.66580       162.9080       36.96503       125.4765
       11.85910       124.4542       27.56000       104.3942      -14.91302
       78.46757      -25.39546       86.39851      -31.43349       52.90953
      -78.47907       2.613724      -79.46326       44.55127      -94.79259
      -17.25980      -147.4425      -70.38132      -151.1205      -17.49158
      -144.2792      -69.73462      -204.3154      -97.25504      -193.2588
      -82.51138      -182.5688      -67.00037      -192.7968      -130.9659
      -256.6332      -127.2597      -212.4415      -87.99799      -227.4652
      -188.0341      -308.2843      -131.9394      -205.4987      -115.9053
      -248.2972      -164.5685      -290.0438      -162.9385      -255.6206
      -127.1215      -214.2510      -126.8499      -279.4340      -158.3524
      -249.2067      -121.7472      -220.8545      -126.3807      -239.1175
      -125.3533      -262.6914      -158.0737      -213.7527      -40.44315
      -170.4625      -117.0573      -245.5659      -111.8415      -182.5989
      -34.30267      -171.1902      -117.2490      -218.9720      -65.08572
      -183.5048      -39.80814      -68.75417       11.48041      -229.6083
      -70.29956      -93.20605      -808.0781      -4693.148      -12852.82
      -22240.12      -13630.45       34874.70       67442.83       25948.67
      -39936.62      -86808.74       19446.24       120710.2      -118901.7
      -287839.2      -185356.9      -32725.62       319797.5       358128.8
      -27846.11      -66703.02       20924.12       141114.7       345871.6
       14607.50      -354943.9      -211322.0      -33959.27       85547.00
       10882.00      -362496.4      -469290.6      -97147.12       350181.4
       508156.6       267001.7      -133574.4      -216344.9       75833.94
       340678.7       299412.4      -115712.5      -372932.1      -76021.38
       66688.53      -122569.0      -143349.5      -41077.84       146003.0
       145914.2      -180990.7      -170511.0       162134.8       147153.9
      -88307.91      -142878.3      -4349.688       165766.1       134658.4
       3048.469       37077.04       33064.41      -146056.0      -118499.1
       117950.2       119302.4      -100086.8      -149439.4      -17154.94
       78361.06       48684.02      -84025.78      -119787.7       80153.61
       136742.8      -70019.14      -63267.42       5451.938       34706.44
       156474.4       32669.55      -94638.36      -3126.742       38688.52
      -16821.72      -120858.1      -84809.89       17197.12      -133471.6
      -273531.0      -45884.16       177173.3       81819.96      -13451.44
       74680.31       143619.9       79386.00       111561.1       237578.8
       122428.7      -53338.55      -65170.86      -70169.84      -89870.56
      -86528.48      -85169.56      -67766.66      -15076.47       5300.789
       11611.19       74639.09       129592.9       103873.6       38915.46
       41779.75       8321.766      -71486.06      -10975.46       19583.22
      -119064.2      -163857.5      -39705.53      -61051.54      -94178.77
       83269.30       90752.44      -69069.14      -18119.47       14379.93
      -55688.30       2315.500      -18315.50      -93513.61      -70269.92
      -17100.79       42675.76       33300.17      -7317.344       60621.62
       148145.9       90155.59       63576.58       85648.52       19274.84
      -9327.805      -16043.71      -42782.04      -7896.445       25579.64
      -56726.06      -114610.7      -64734.31      -15927.43       44351.91
       32093.44      -22413.74       15064.31       51394.47       52732.09
       42120.69      -2915.500      -75279.84      -96663.41      -66302.16
      -50375.50      -39778.94      -60044.32      -57970.88       24489.72
       102865.0       108630.3       94563.28       43027.91       15145.45
       85794.52       57149.95      -4684.217       10868.30      -34489.30
      -37620.97       17651.38      -28828.08      -88142.02      -76481.13
      -29867.76       20063.96       6235.676      -10306.20       22355.99
       12229.42      -29200.91      -50046.09      -24708.82       39009.15
       15247.82      -49182.17       17632.09       108220.5       70932.95
      -13935.13      -20917.63       34608.52       42535.40       38687.73
       5920.812      -73612.68      -48900.19      -21011.96      -6134.000
       81564.27       41693.46      -45849.34      -22663.01       22130.75
       78020.69       58317.37      -20179.66       4298.852       16346.36
      -62053.39      -71406.55      -18885.17      -49703.75      -63031.98
      -13662.54      -34032.20      -22157.52      -6424.398      -45443.37
       17820.55       8501.430      -57042.16       67202.91       52839.52
      -50474.42       70946.93       39347.05      -74775.09       4868.098
       8929.344      -63301.59      -40078.28       56664.69       135452.7
       81858.52       8791.062       53321.53       102404.9       41899.33
      -44579.27       17426.31       36082.25      -109653.1      -45102.64
       81602.91      -20304.34      -39122.13      -21325.47      -83712.67
      -50981.62      -45626.02      -86284.12      -29182.23       7435.641
      -43638.22      -24304.73       49649.27       35672.48      -32485.29
      -18848.72       63870.18       59815.88       2901.012       16644.07
       7759.455      -15531.82       18001.15      -1892.268      -23318.87
       24383.73       68675.08       43117.69      -56629.36      -69619.67
      -49251.14      -60350.61       38137.30       88448.37      -15881.70
      -42244.12       71853.39       75293.16      -42221.77      -74919.55
      -23909.21       14505.42      -33770.86      -79157.71       8617.570
       68004.38      -5313.971      -18877.14       26131.00       12278.77
       17449.05       21839.72      -48420.61      -65549.77      -34763.18
      -6312.883       58442.06      -30207.78      -159400.5      -22954.47
       129373.0       91184.12       31365.50       9896.908       13666.64
      -4098.828      -18714.16       42003.96       41495.40      -25691.10
       8457.766       70781.48       20820.90      -42639.73       6886.641
       69975.32       12096.48      -21698.15       15749.28      -5403.578
      -24964.84      -30785.48      -38374.51       8800.141       42061.48
      -5481.742      -38105.52      -12659.21      -4460.239      -6148.672
      -3305.938      -34594.59      -40562.04       2110.562       8099.410
       20372.24       10789.11      -21369.56      -243.3125       32750.95
       48363.71      -18885.23      -65424.83       21299.02       62607.80
      -9055.320      -33432.03      -22130.31      -17377.94      -17979.34
      -46770.77      -31828.41       10604.42       39036.61       30112.51
      -15101.55       8867.652       20735.13      -51922.73       5920.359
       49574.08      -17497.06       45969.20       67839.66      -977.0469
       23993.47       12081.02      -18957.87       16819.79      -18594.30
       10132.70       59400.13      -22754.84       1651.289       25618.74
      -51888.43      -35671.98      -29464.71      -51758.70       42446.16
       66580.81      -41636.06      -74305.83      -35877.20      -18496.30
