     0.02500000      -559520.0       762336.1      -12345.00      -12345.00
      -30.00999       213.8150      -15.21000      -12345.00      -12345.00
       0.000000       11.27000      -12345.00      -12345.00      -12345.00
      -12345.00      -12345.00      -12345.00      -12345.00      -12345.00
      -12345.00      -12345.00      -12345.00      -12345.00      -12345.00
      -12345.00      -12345.00      -12345.00      -12345.00      -12345.00
      -12345.00      -31.51150      -68.98430       1231.000       0.000000
      -31.54000      -68.94500       0.000000       103500.0       0.000000
      -12345.00      -12345.00      -12345.00      -12345.00      -12345.00
      -12345.00      -12345.00      -12345.00      -12345.00      -12345.00
       4.890647       310.2435       130.2640     0.04397326      -12345.00
      -12345.00      0.3612681       0.000000       0.000000      -12345.00
      -12345.00      -12345.00      -12345.00      -12345.00      -12345.00
      -12345.00      -12345.00      -12345.00      -12345.00      -12345.00
      2008        49         8        51        18
       910         6    -12345    -12345      9754
    -12345    -12345    -12345    -12345    -12345
         1         7        13    -12345    -12345
    -12345    -12345    -12345    -12345    -12345
    -12345    -12345    -12345    -12345    -12345
    -12345    -12345    -12345    -12345    -12345
         1         1         1         1         1
SASO    -12345          
        -12345  -12345  
-12345  -12345  -12345  
-12345  -12345  -12345  
-12345  -12345  -12345  
-12345  -12345  -12345  
-12345  -12345  BHZ     
ZL      -12345  -12345  
[...]
       41.91327       148.7999       94.86719       190.7507       69.55328
       143.6803       57.42950       181.2227       128.7131       225.8025
       98.21805       172.9733       107.0349       250.1994       180.1313
       257.4490       126.7840       214.2989       151.7038       277.5143
       199.5394       298.1779       198.8839       299.3453       217.3698
       311.1729       210.8302       311.9351       245.2686       378.0182
       283.2902       353.3154       230.8019       331.9818       268.9750
       397.7883       305.8008       384.4119       271.3040       381.9678
       299.7057       397.8951       299.7769       412.8593       319.3091
       415.4319       306.6316       397.7473       299.1560       420.8483
       341.7472       446.8733       331.7931       425.0510       332.7864
       425.5747       312.3247       425.8064       323.1520       421.9285
       320.4834       410.3248       289.2507       386.3784       284.9780
       401.2173       286.0723       363.5643       241.6279       336.5748
       214.1278       321.7465       223.3347       312.6145       177.2943
       286.0071       180.4698       273.9448       147.5581       244.1174
       115.4176       198.9078       87.57410       205.6416       80.03357
       155.8853       35.65366       140.8581       17.45654       116.2727
      -11.72993       86.77573      -28.57452       68.48500      -66.91418
       11.78500      -108.7963       11.95247      -101.2306      -9.386292
      -155.9447      -69.97314      -184.7379      -78.59186      -208.2535
      -119.2099      -256.7563      -160.0524      -287.2284      -198.3165
      -331.4712      -230.0566      -351.1786      -247.3411      -391.4246
      -316.0798      -451.5708      -336.2659      -452.6140      -351.5839
      -486.6169      -388.5791      -512.0193      -404.4652      -547.0392
      -458.1442      -576.4335      -461.6627      -587.3329      -494.7698
      -627.7764      -502.1038      -617.0281      -525.0320      -671.5527
      -564.9023      -688.3245      -580.7708      -698.9827      -585.0688
      -712.3694      -590.6401      -709.4277      -612.3257      -746.7565
      -621.8619      -723.3433      -598.9570      -733.1475      -640.4785
      -766.8774      -631.1035      -736.1338      -600.0598      -716.7375
      -616.4482      -748.1443      -611.4625      -716.4360      -593.7217
      -721.5625      -593.7622      -687.2759      -548.5519      -681.6926
      -583.4202      -701.0845      -538.4324      -639.8750      -518.8547
      -651.0669      -540.5306      -639.7996      -477.8019      -569.9800
      -448.4193      -585.2600      -468.5515      -564.9789      -395.2180
      -504.7880      -395.1139      -514.2083      -357.9592      -472.7542
      -352.7070      -457.1483      -307.9176      -410.4388      -276.9281
      -405.5074      -271.4103      -379.6373      -233.3893      -341.5829
      -192.4543      -307.6691      -185.8962      -302.4540      -150.8146
      -246.0320      -107.2904      -249.5543      -129.5909      -230.2875
      -77.64105      -197.0313      -66.70569      -185.1702      -32.67151
      -143.8734      -22.53296      -167.7214      -25.94131      -124.9897
       29.47559      -92.83646       20.64807      -100.6798       45.91985
      -66.79446       76.43905      -45.92471       84.91387      -56.60987
       77.13866      -28.16205       137.3142       13.56891       127.1433
      -9.863007       123.8975       7.464569       161.1464       37.94897
       168.4955       40.44339       167.6506       25.11130       165.0451
       44.89166       186.3222       58.88983       199.0207       75.82669
       202.7310       56.94083       185.5316       72.13385       243.8862
       127.1422       233.6566       64.57745       190.8272       76.52380
       229.6924       102.8172       241.1389       96.01935       203.0330
       56.83615       206.0527       77.48602       200.6682       62.48758
       201.2383       70.20190       195.9615       29.45074       136.8652
       18.15521       173.8927       32.44684       153.9727      -8.466248
       119.6335      -14.88365       120.3730      -1.760605       133.7572
      -24.64046       86.26079      -62.24100       79.86196      -47.72162
       90.63521      -53.19006       73.44409      -73.17764       50.68960
      -74.79472       87.89857      -50.57764       67.81044      -76.48618
       55.24472      -76.90965       74.12492      -53.45587       80.54880
      -63.04000       77.38904      -65.46505       59.19070      -80.36036
       79.75463      -42.35281       82.76723      -61.43604       79.88472
      -61.92178       80.16390      -26.83331       137.1152      -17.28391
       72.16238      -71.26071       96.65512      -8.520447       147.0489
       5.278442       136.7159       2.506134       148.8276       11.24817
       144.9020       26.25470       194.6096       72.05725       193.3774
       32.49338       173.2889       71.94647       252.7005       136.9150
       252.8179       81.79834       225.1058       128.5701       289.3912
       147.4120       270.1123       132.6367       273.1010       157.8268
       307.3027       162.7589       293.2847       152.0999       291.2480
       175.7933       319.0470       174.8239       291.6613       161.2625
       322.4993       188.3041       296.0310       145.3062       288.6556
       172.2913       321.5624       171.3118       275.5978       110.0621
       255.6232       159.0128       305.2007       153.9268       274.1866
       120.9736       251.5044       120.3076       249.7343       105.5343
       239.2797       110.7847       253.2951       106.9675       233.7467
       107.0154       247.7401       110.8411       246.3701       101.7397
       212.6722       71.63092       222.1911       97.69476       230.7513
       86.92194       224.8510       88.82626       203.9595       57.32397
       192.8472       53.81366       177.4967       34.58917       162.8028
       15.74200       141.9613       29.84543       187.3108       35.83398
       138.3969      -2.886566       131.9700      -4.550629       124.5358
      -18.71742       109.9481      -15.02614       123.3733      -18.49719
       97.17673      -46.68677       102.4763      -22.76552       97.74659
      -47.31738       75.58813      -68.71500       61.57247      -58.23531
       81.43961      -56.55352       63.35571      -84.88959       38.31955
      -95.94033       40.21555      -84.73786       57.89041      -90.15341
       16.65535      -129.1037       3.216003      -113.6527       16.87363
      -138.4926      -13.62720      -141.7803      -10.21786      -163.3323
      -45.43427      -162.9044      -17.49631      -170.2188      -64.49481
      -206.3364      -55.05328      -167.4564      -48.02597      -194.3847
      -68.89972      -200.1445      -70.15417      -231.2224      -115.8889
      -229.0583      -72.60846      -216.0115      -127.9773      -293.5605
      -160.7199      -264.4373      -91.24261      -233.7529      -161.4834
      -349.6682      -200.5715      -286.0879      -140.7727      -320.3528
      -239.3760      -373.1660      -182.2590      -297.3803      -207.8417
      -390.8711      -263.0582      -368.5348      -207.4779      -344.3669
      -253.7175      -427.6595      -266.2859      -353.1542      -227.7795
      -397.1804      -301.9099      -438.9424      -274.5473      -380.6279
      -255.5238      -454.0181      -349.3416      -424.0625      -232.4037
      -383.5876      -293.1233      -448.5697      -301.7036      -414.6642
      -257.0640      -385.5786      -263.2499      -399.0408      -239.2732
      -377.0236      -253.7427      -382.7422      -221.6541      -355.0627
      -217.3566      -342.7931      -208.0919      -359.0068      -220.3907
      -325.4934      -164.3396      -301.3962      -168.1435      -303.9196
      -167.9323      -314.7048      -155.8860      -251.1366      -102.1699
      -254.5067      -122.2569      -249.3850      -82.00439      -200.2055
      -71.97540      -232.3273      -68.22205      -154.4287       15.32050
      -146.0285      -36.39011      -164.7077       21.98921      -99.39339
       45.70033      -88.76084       68.84938      -42.61563       114.5943
      -37.64259       104.7133      -16.12863       162.8597       48.35367
       202.7192       49.36078       184.4949       57.79736       235.5184
       114.3013       272.0457       132.7027       266.6361       113.9841
       267.9519       140.2958       308.5976       182.0997       349.7642
       207.2956       342.0496       198.4067       357.1146       231.1556
       406.7827       277.7676       422.4032       277.2201       444.5536
       317.3309       495.7783       370.5460       513.8027       375.9987
       556.2697       408.1293       558.5632       434.7903       628.3640
       499.1414       644.2324       499.7830       703.2889       597.4729
       767.3684       614.7212       769.9377       652.7390       848.8984
       717.0042       892.9941       760.3057       940.7000       807.2783
       978.3359       822.2532       973.5247       835.2046       1029.984
       905.1475       1073.221       907.8970       1058.828       917.9666
       1108.214       963.7083       1124.679       966.4551       1124.258
       956.0774       1131.120       999.0830       1153.793       974.1135
       1144.659       1004.754       1186.591       1021.297       1166.533
       975.6567       1129.859       979.8940       1160.233       997.2739
       1150.747       960.9834       1111.788       950.3105       1137.781
       976.4829       1135.963       951.5425       1112.812       928.3215
       1089.998       940.4451       1128.227       945.4028       1099.654
       913.5393       1084.685       913.7988       1093.247       934.9316
       1120.646       948.3296       1105.500       912.4888       1089.239
       932.6526       1124.310       963.7822       1126.639       915.8220
       1075.866       917.8831       1134.490       990.3997       1157.492
       953.2742       1121.999       960.7427       1141.869       955.0203
       1134.899       972.0559       1156.065       976.2307       1151.094
       953.9031       1137.209       990.9897       1181.265       969.6379
       1109.894       915.5874       1121.995       971.3831       1162.410
       943.6379       1096.056       909.5493       1106.471       929.8340
       1114.553       918.3755       1101.552       915.7134       1097.357
       898.0757       1074.804       890.3726       1085.726       890.3730
       1069.757       864.9089       1048.002       846.9097       1021.235
       824.5806       1024.088       816.7368       991.6655       780.8838
       961.1797       771.4990       972.4561       765.5967       930.4392
       693.6868       882.0679       697.5854       890.9602       664.3628
       823.8473       609.8181       819.8955       617.7622       786.7925
       552.7866       730.0720       528.0295       725.2051       496.3834
       665.2708       449.8708       650.5212       424.2810       601.8290
       388.4949       584.9093       364.6427       550.0037       326.7201
       518.8198       301.8479       504.5094       284.7969       475.8204
       239.2294       430.7253       225.6293       446.1039       229.6692
       419.0632       182.5112       387.0340       186.3019       404.3868
       166.4233       355.7803       138.4805       355.5343       125.7841
       319.9082       85.32465       313.9749       116.9439       336.8276
       99.57269       295.2966       61.02368       298.1032       91.46210
       300.2956       63.09430       289.3812       80.99866       310.6630
       93.44104       329.0232       123.2302       349.2296       112.1799
       357.5848       162.4709       381.7383       163.0383       416.9913
       223.5552       440.8242       210.5288       471.5327       297.4791
       524.9243       303.4177       551.6877       357.4678       588.2432
       391.6056       647.4012       472.9338       695.2426       504.9985
       743.7867       571.7422       782.2791       638.6631       896.4072
       721.6511       861.6619       738.8843       946.2046       771.7812
       542.3555      -3473.234      -23468.00      -89972.38      -235165.4
      -432547.2      -506313.9      -264223.9       146804.8       405350.9
       174821.5      -366794.3      -340628.0       143938.0       424972.5
       347856.6      -227479.8      -559520.0      -175426.8      -10938.19
      -78762.50      -139411.0      -387161.3      -276810.5       31884.38
       337741.0       762336.1       654734.0       169460.4       60313.75
       386211.0       688293.8       441053.1      -146440.4      -349166.0
      -193685.8      -50108.70       31317.09       37054.34      -67472.22
      -16822.91       133845.1      -1462.617      -76716.75       64553.81
       111648.3       31970.00      -238732.6      -461167.4      -299735.9
      -66493.50       125435.1       303053.5       33110.31      -351500.0
      -204433.8       165689.5       286261.9       151029.4       68660.20
       2707.969      -147236.7      -114777.5      -13843.81      -13418.97
       78771.55       79599.94      -223575.2      -240937.8       205173.9
       386720.8       98624.19      -223462.9      -184553.0      -23880.19
       144.2500       181539.1       155312.4      -152075.0      -85977.18
       73955.69      -17648.94      -53945.19       42269.62       149817.0
       20295.50      -265758.6      -219441.8       7891.625       75976.89
       56536.01      -43103.87      -38721.38       98141.53       127318.4
       154335.4       126245.6      -44052.70      -14575.75       147398.1
       127580.0       39250.45       30774.03      -35089.06      -131124.3
      -48887.98       60109.03      -27089.75      -170177.8      -192281.7
      -150961.9      -104005.5      -26268.05      -29745.92      -51444.00
       61919.47       85223.81       29238.16       37964.18       31249.24
      -3666.938       28335.41       92587.14       40894.23      -6150.684
       4502.625      -42463.22      -65948.16      -57799.53      -72939.70
       30197.94       160713.2       142179.8       97782.02       10164.09
      -52909.25       83657.20       98120.37      -23592.23      -2770.734
       24715.98      -33147.09      -55921.42      -25265.66      -55207.78
      -101732.7      -132803.0      -78517.58       15014.67      -73865.53
      -126357.5      -40027.39      -10061.17      -179.2812       77310.69
       115876.5       80235.29       46116.81       23141.41       60163.91
       127517.1       137788.0       67518.69      -65078.41      -116812.6
      -51401.08      -29338.49      -38970.94      -31975.94      -79294.62
      -110325.1      -24351.34       44966.35       29199.59       7491.906
      -1891.816       8557.828       29868.89       26256.19      -8622.457
      -6441.084       2722.043       12411.57       22132.76       2513.855
       4163.273      -33766.88      -50594.05       47528.22       98041.11
       63086.12       17172.78      -18166.93       14289.83       22149.28
      -59959.66      -77451.76      -11378.78       79202.53       120296.2
       50661.66       28108.37       13764.45      -22424.52      -13757.25
      -59699.38      -11655.09       47474.78      -78248.19      -139664.0
      -104432.9      -76202.36      -12781.23      -26357.56      -88875.95
      -47189.64       2475.602      -17599.45      -10068.18       20471.11
      -10434.47      -65603.30      -34598.73       50196.69       78520.49
       4426.328       7482.688       144850.1       83609.91       16676.38
       127477.9       73675.27      -15415.20       28579.33       69741.19
       117838.4       70834.70      -58509.88      -56954.06      -9852.359
      -17766.28      -49675.25      -89582.95      -96283.45      -69281.29
       9366.160       23539.09      -10929.34       64206.19       9872.219
      -119041.0      -35711.30      -2424.219      -85816.34      -24206.16
       27841.26      -13546.02      -11571.48       43671.58       80802.73
       64233.64       51978.21       24031.33       8099.375       47262.70
       49637.66      -28947.90      -38170.08       33574.52       9351.266
      -38545.63      -26569.86      -31397.89      -16452.36      -22994.72
      -46228.89      -20983.01      -9499.828      -22130.61      -71607.86
      -77736.16       8950.359       50084.83       49938.09       71438.94
       3259.844      -66052.56      -4766.836       50043.66      -4889.953
      -59134.39      -28156.14       9935.555      -4631.406      -59115.86
      -85801.82      -19595.08       42691.58       2968.500      -26149.59
       18095.41       44944.58       48757.84       56769.58       42696.84
       63328.11       70029.55       24433.07       19438.89       12410.75
      -4812.891       21747.38       28514.60       24645.08       20755.34
      -12625.55      -7215.266      -5332.172      -46635.59      -79569.50
      -95286.86      -58375.68      -5068.656      -16583.33      -83606.34
      -71946.38       32584.16       41564.08       16955.47       76822.66
       96922.34       57142.11       53507.86      -19018.27      -91417.88
      -34085.68       4979.258      -28766.38      -58848.73      -14311.63
       26200.39       22488.43       8642.152      -9781.719       43490.38
       94256.63       42208.07      -4660.320      -15367.56      -20142.17
      -36663.77      -71136.92      -55582.16      -40021.70      -16523.97
       22218.70       27366.59       51349.28       58590.47       63228.12
       76843.98       43002.64      -16225.31      -55689.05      -65096.02
      -60913.38      -85503.88      -88817.53      -37508.05      -43732.58
      -35788.28       28979.51       6168.500      -37113.86       8353.852
       26551.08       37148.68       33164.56      -24885.33      -5547.496
       22411.84       15554.69       9713.555      -32326.93      -7531.281
       67972.88       10332.18      -35958.61       34396.79       7482.633
