     0.02500000      -584289.4       474354.5      -12345.00      -12345.00
      -30.00999       213.8150      -15.21000      -12345.00      -12345.00
       0.000000       11.27000      -12345.00      -12345.00      -12345.00
      -12345.00      -12345.00      -12345.00      -12345.00      -12345.00
      -12345.00      -12345.00      -12345.00      -12345.00      -12345.00
      -12345.00      -12345.00      -12345.00      -12345.00      -12345.00
      -12345.00      -31.51150      -68.98430       1231.000       0.000000
      -31.54000      -68.94500       0.000000       103500.0       0.000000
      -12345.00      -12345.00      -12345.00      -12345.00      -12345.00
      -12345.00      -12345.00      -12345.00      -12345.00      -12345.00
       4.890647       310.2435       130.2640     0.04397326      -12345.00
      -12345.00      -1.580021       90.00000       90.00000      -12345.00
      -12345.00      -12345.00      -12345.00      -12345.00      -12345.00
      -12345.00      -12345.00      -12345.00      -12345.00      -12345.00
      2008        49         8        51        18
       910         6    -12345    -12345      9754
    -12345    -12345    -12345    -12345    -12345
         1         7        13    -12345    -12345
    -12345    -12345    -12345    -12345    -12345
    -12345    -12345    -12345    -12345    -12345
    -12345    -12345    -12345    -12345    -12345
         1         1         1         1         1
SASO    -12345          
        -12345  -12345  
-12345  -12345  -12345  
-12345  -12345  -12345  
-12345  -12345  -12345  
-12345  -12345  -12345  
-12345  -12345  BHE     
ZL      -12345  -12345  
[...]
       206.0804       271.0441       176.9076       221.0836       183.1440
       285.3086       253.2964       304.3186       217.2681       266.2501
       233.4597       313.0907       235.6119       315.7880       282.1630
       320.7374       276.4549       346.0284       264.3928       295.4066
       253.1755       351.3365       299.4424       342.9829       296.8609
       331.1942       228.8823       282.2045       266.6398       345.8032
       305.0236       339.6829       248.0354       299.5613       276.2280
       327.7844       264.1684       320.3330       284.2279       346.3311
       264.2042       287.3203       254.6150       313.4363       277.7027
       355.4850       293.8357       305.0201       274.9843       357.0991
       313.8330       344.8809       287.2473       357.0367       335.4441
       355.3027       278.4637       326.2636       297.9050       342.5281
       302.5613       359.1083       302.1199       320.0042       284.3300
       329.4829       257.8398       319.4130       313.9178       353.3439
       284.6145       311.5441       266.4448       313.9335       262.4923
       303.4697       287.3544       355.6368       293.7793       287.1362
       215.8079       283.0125       265.2949       304.3030       275.6957
       324.8052       229.8196       225.1609       210.2097       300.6633
       278.3219       296.5901       194.5312       206.5630       221.5507
       312.7654       236.1290       226.6660       184.7671       249.5237
       211.5261       241.0937       168.5719       204.3652       175.2770
       195.3741       167.4113       232.3764       164.8842       153.1952
       123.1202       192.6223       136.8620       133.6175       77.59351
       132.4352       122.2080       167.0597       105.6097       106.2747
       79.70831       123.0821       53.07568       68.90723       70.27313
       120.6840       54.58188       61.83934       13.37946       72.83717
       48.40319       47.62900       20.20151       91.85330       53.04718
       45.82139      -5.843536       52.75748       34.24490       60.32373
       21.14661       52.44401       9.621925       39.31335       1.859070
       46.69712       14.59630       20.63428      -27.47253       40.72018
       35.85181       34.69673      -41.56001      -33.57189      -59.90704
       10.31828       13.19410       35.51086      -48.56020      -48.33348
      -68.88021      -13.49459      -35.67548      -19.41576      -74.14505
      -62.26971      -94.59644      -55.68018      -91.79691      -81.59592
      -136.5753      -109.3100      -116.3886      -75.58459      -140.2201
      -156.8305      -212.4139      -166.6458      -171.0000      -143.5552
      -202.3826      -216.8540      -257.5778      -214.1061      -235.0806
      -216.7065      -249.4201      -250.8861      -343.8952      -328.1390
      -308.6142      -260.3290      -307.4990      -316.0374      -373.3525
      -347.2981      -369.5103      -353.3767      -372.2228      -360.0684
      -427.4235      -407.8021      -415.2471      -383.8446      -428.1511
      -408.5818      -443.4386      -430.4740      -462.5559      -444.8085
      -486.9395      -487.3746      -503.6948      -467.9388      -498.5348
      -489.6127      -522.5453      -511.5028      -532.2747      -497.1306
      -534.7466      -527.5046      -577.0609      -557.9807      -544.0701
      -526.3182      -575.3877      -571.6595      -591.5503      -556.8672
      -589.2617      -569.8330      -562.6631      -542.1689      -597.5630
      -599.3528      -595.0476      -526.6165      -533.8152      -543.1351
      -585.3660      -566.1334      -569.1918      -518.0864      -531.5496
      -530.0308      -530.5183      -520.0447      -564.4465      -532.0812
      -517.7786      -471.0605      -463.1525      -465.6201      -513.2185
      -494.6069      -461.9268      -400.7007      -412.5413      -423.3981
      -432.4524      -410.1909      -417.1425      -363.7960      -314.1137
      -295.2236      -346.7180      -337.2177      -298.2985      -250.6636
      -247.8469      -246.6779      -243.1746      -205.4338      -176.8553
      -142.2496      -131.0903      -109.8152      -87.66447      -60.39847
      -60.44361      -52.61240      -22.05984       21.58220       44.58333
       51.82361       68.14850       96.12515       116.7653       100.2274
       127.1580       191.2665       210.6930       168.7601       188.5061
       233.6586       264.7192       259.6772       306.8579       324.3314
       318.1701       274.9072       331.5156       386.7649       436.1057
       374.1189       386.9449       368.5957       408.2290       423.4198
       533.5573       465.9690       442.0553       351.9215       475.5630
       487.4436       576.2742       436.2484       530.7863       402.0242
       529.4438       713.6685       1583.881       1275.531      -5232.758
      -28112.86      -67439.41      -75937.06      -5431.656       70835.23
       115857.1       19759.77      -117816.6       16751.62       123265.5
       75706.41      -37374.56      -268316.6      -148239.1       189729.9
       193739.6       74178.12      -162999.8      -282838.0       74771.12
       340670.9       354073.2       100783.9      -323788.2      -267480.0
       21297.12       256192.0       340556.3       4990.375      -310677.2
      -324613.4      -166544.2       71703.75       165274.7       62190.39
      -71163.08      -35777.20       43359.53       113691.1       202726.6
       194276.7       96085.09      -53778.14      -97791.55       1888.094
       106315.6       170871.7      -61085.50      -488030.9      -469602.6
      -52496.53       230219.0       31017.94      -285494.1      -214769.9
       56484.70       55616.25       58757.38       276261.2       235774.8
      -45486.56      -177379.4      -176413.6      -91151.91       110452.7
       60641.09      -112957.0      -169880.9      -170379.4       70870.31
       183215.8       132002.7       209163.7       112625.6       59142.59
       93427.17      -67341.95      -103838.1       36991.45       33688.47
      -33356.88      -113270.5      -70281.19       166795.2       170507.2
       59875.15       11733.97      -50027.47       34177.44       110238.5
       38.53125      -117475.8      -190859.5      -129559.4       27821.90
      -27533.09      -47908.38       6824.289       4286.438       74444.67
       82401.97       96032.19       122390.5       9976.000      -61171.50
      -21636.97      -46951.22      -48741.68      -4671.141      -69536.12
      -106801.2      -52257.74       19676.56       78751.19      -24932.07
      -43808.58       55609.91       43921.38       67206.27       27018.86
      -21289.41       156.3438      -38747.44      -77547.78      -115238.1
      -82863.88       19127.79      -9879.984      -88493.92      -20487.16
       38442.34       79365.27       113982.5      -649.5625      -43258.56
       61849.22       152862.6       100475.1      -22290.86      -46272.90
      -42177.84       29769.13       55283.50      -55974.61      -84590.84
      -5962.312       68144.20       12285.59      -77603.61      -31451.45
       35198.84       40235.08       39948.52      -6338.344      -62524.73
      -33704.07      -20385.58      -44721.12      -57615.34      -36726.95
      -35422.54      -18698.58       48297.87       33194.43       12154.36
      -3529.191      -15562.50       41368.41       59141.80       38982.93
       27633.41       61728.95       47972.99      -45329.92      -39242.38
       5565.516      -20570.22      -59317.88      -59935.86      -43446.48
      -39969.79      -7873.625       37996.19       11367.36      -23934.11
      -8780.469       48471.61       79431.84      -10862.90      -42208.40
       3590.738       5728.109      -2858.471      -24916.51       25554.10
       50598.02      -1561.844       28098.57       23713.27       19711.31
       29185.73      -29209.51       20936.22       74911.45       37098.44
      -15937.91      -104497.9      -100359.9      -40917.91      -20341.73
       8456.035      -919.5312      -26810.66      -47977.40      -31155.94
       50400.16       87935.58       93138.61       73885.14       5309.068
      -13871.00       17036.11       15067.88      -32005.44      -49017.32
       10320.64       7520.508      -45231.73      -30071.06      -2648.543
       18488.88       26759.84       36734.31       101130.5       73625.81
      -34015.87      -13879.52       38157.69      -1049.922      -53109.49
      -38982.98       14389.84      -50323.12      -92626.42       23724.34
      -38292.17      -93992.16       50166.73       27989.78      -57973.52
      -5943.695       42591.49       44927.84       24478.42      -17383.59
      -37597.32      -31001.08      -47490.81      -108649.4      -43378.25
       45751.44      -26523.42      -32409.22      -7149.797      -60677.52
      -40782.84       35246.44       77459.28       93193.55       91248.55
       31990.97      -23528.10      -26731.84       30083.45       74996.02
       25805.21       2514.758      -10693.04      -16257.33       14912.31
       33477.44       69895.14       75385.44       52344.70       46617.36
      -1383.086      -18831.02       8391.705       8805.594      -11319.41
      -76088.73      -60015.45       29103.75       1811.453      -74847.15
      -42816.16       14687.41       2198.910      -10651.21      -6540.562
       5431.414       23431.39       52610.72       60587.35       3952.859
      -45127.12      -47845.59      -38295.04      -9170.133       49544.34
       26353.16      -87406.72      -116008.2      -40990.55      -5034.328
      -20258.95      -11398.91       45189.22       63458.59       30152.28
      -27673.43      -50950.63      -11084.72      -38432.62      -45217.23
       10077.20       29460.05       33918.72       20614.33      -22974.73
       5401.500       67774.77       75468.29       37149.61       18254.19
       85027.20       63803.96       901.6328      -30922.22      -33264.24
       41466.90       26381.88      -23895.90      -14985.91      -16196.86
      -654.1680      -5733.156      -44570.91      -38285.36      -56503.00
      -64617.45      -15576.77       6643.785      -2826.516      -53473.03
      -40430.18       2419.078       20522.62       46325.85      -8739.844
      -71938.23      -27397.88      -3595.398      -14095.34      -34062.35
      -48427.99       16030.89       43168.24       40504.40       26783.21
       8406.094       12433.72       41503.32       31965.08       24860.00
       73536.70       15091.61       18810.99       30553.89      -36398.63
       13601.36       30295.75       31997.81       37584.12       13519.66
       39716.55       9902.531       12440.50       13596.52      -70988.47
      -58252.84      -17894.50      -41330.41      -32021.26      -434.3359
      -20516.36      -79528.46      -48769.47      -15417.18      -40028.10
       261.6875       65439.97       78835.50       15443.27      -36451.48
      -60796.64      -86061.48      -1214.836       61095.70      -5032.328
       20027.86       55148.65      -30361.56      -55035.47      -5532.781
       40295.57       49112.67      -1948.756      -7561.820       18778.32
       46082.90       15173.36      -57162.90      -7195.277       22269.31
      -498.5469       52802.26       18671.95      -29491.31       60766.70
       62368.12      -13531.11      -46507.03       3609.816       31182.70
      -33735.92      -19880.92      -24881.45      -60602.23      -21278.55
       26707.23       81356.25       98778.61       50501.28      -41371.44
      -57770.97       45487.42       72675.44       62119.56       117964.5
       95108.56      -73780.38      -218863.0      -187542.5      -55400.38
      -27504.00      -152141.3      -260310.3      -172223.2       48604.25
       165245.3       86653.16       59211.67       115248.3      -29286.31
      -209581.8      -216649.4      -218057.8      -113314.7       251721.9
       339369.2       52093.56      -167324.7      -85777.81       250849.0
       307658.2       98698.25       34332.02      -17949.00      -102337.8
      -247055.3      -198737.8       263248.5       300959.3      -93371.33
      -100420.2       378043.5       450429.7      -358946.1      -521510.4
       201036.3       300843.5       77888.98       114913.5      -50738.59
      -257788.4       38850.25       474354.5       264961.3      -339307.4
      -438798.7       109228.4       258762.2      -107278.1      -214009.8
      -113411.6      -6241.406      -87316.11      -49817.44       117124.2
       110422.6       156988.9       234603.4       101694.1      -411293.9
      -584289.4      -192032.5       56339.38       183119.0       80178.21
      -89846.45       66270.01       74308.02      -90860.34      -483.0000
       269674.8       345193.0       155613.0      -63308.38      -170343.6
      -117071.8      -227297.1      -382423.9      -154845.9       39354.31
      -49221.34      -114876.5      -93034.88       75950.94       168212.0
      -40291.41       60311.44       302344.8       143335.0      -102721.0
      -227362.3      -47689.30      -12674.62      -196811.6       37740.06
       139877.2       28762.16       104171.4       271942.2       371421.2
       154504.9      -100726.6      -73823.00       96033.05       64633.98
      -68556.42      -5967.844      -43292.03      -168316.3      -49036.84
      -60651.69      -262359.1      -148315.0       131412.0       70656.80
      -98975.25       106773.2       221565.7      -18558.62      -180015.9
      -184496.5      -172987.7      -16781.94       247005.8       268034.8
       69941.02      -71547.05      -50964.38      -77273.38      -180231.6
       17690.38       257408.9       60827.12      -234767.1      -295899.0
      -128831.2       123743.8       181420.8       98090.78       94908.42
       59131.62       49875.73       77565.67      -12373.54       11883.06
      -9986.594      -150482.6      -137636.5      -110173.3      -21020.47
       104793.4       101890.6       93670.38      -8142.633      -52982.56
       75879.61       32764.80       26215.89       90762.02       49357.12
       67839.86       25175.72      -102360.2      -221319.7      -22616.34
       218075.7      -15277.57      -81056.61       71032.66       29543.97
      -60067.27      -117567.9       18835.21       106723.0      -120241.8
      -184479.4      -55464.25      -12790.66       102424.3       107783.3
       32601.54      -24366.41      -107723.3       68219.28       95888.20
      -55950.75       6575.344       63205.38       122021.3      -19323.50
      -285916.0      -213898.4      -38326.93      -2577.227      -51029.41
       17618.59       101506.9      -93011.95      -43280.72       105957.7
       37557.38       171886.4       154483.4       7958.062       82485.56
       215931.7       191305.3      -44144.05      -53793.76       46056.77
      -45715.31       23505.12       91796.56      -56204.75      -168322.0
      -115461.0       17876.38      -35992.62      -178597.7      -65584.41
      -14114.44      -192023.7      -215581.0      -41633.91       167721.0
       69034.97      -79234.66       128465.4       227747.7       127909.2
       120503.9       175269.6       58185.00      -125741.6      -106404.6
      -39288.34      -100837.3      -90726.16       36473.88      -53149.59
      -136167.5      -64785.03      -85337.50      -82065.80      -70666.98
      -68239.25      -33566.46      -16870.12       35514.39       85682.91
       57638.72       72739.06       129921.0       54777.64      -61265.50
      -26031.55       15578.50      -91448.59      -78181.88       102253.4
       167305.0       86934.75       75825.34       110675.9       126555.0
       90846.89       6759.877       17944.40      -21132.30      -40805.27
       3642.734      -21962.91      -46113.25      -96561.31      -142449.4
      -124747.4      -119845.0      -72640.00       1394.547      -26811.84
      -45502.80      -51632.61      -25806.41       77736.34       103574.5
      -2424.219      -70872.34       20209.67       79911.19       8382.293
      -214.0781       60422.78      -20816.28      -93560.95       18962.12
       155126.8       150380.3       55373.89       19128.62      -37902.89
      -61524.25      -34601.64      -18651.37       25092.07      -53160.12
      -245.0625       134127.5       66314.34       92034.09       148596.5
       116499.7       2296.312      -138401.1      -85607.84      -56439.69
      -96448.63       18511.83       6821.469      -145385.3      -96908.38
      -9770.094      -44992.94      -47693.53       26939.93       63216.81
      -74039.91      -187030.7      -27089.81       141171.2       81277.23
      -21985.94       41215.81       138330.7       56159.78      -46696.15
      -17590.28      -40469.73      -65308.06      -25752.31      -89099.41
      -72685.41       87684.48       92308.16       44477.14       93562.30
       43230.44      -27133.42      -5511.391      -44.65625      -42226.20
      -60354.11      -6514.961      -7620.625      -115523.4      -122850.2
      -3346.625       37232.05       54881.59       79514.72      -2107.572
      -12931.28       43993.63       44120.47       42474.11       29435.63
       40959.71       11915.48      -43275.67      -1786.707       1061.727
      -38270.70       255.9609       35027.97       40213.45       53254.26
       41953.41      -23395.31      -40312.99       6984.359      -25501.01
      -26877.26       25601.05      -40108.67      -58911.00      -33849.93
      -52167.66       44214.06       92193.85       60889.66       9440.609
      -74483.06      -45422.84      -39393.18      -18740.88       63970.20
       3308.422      -55117.56      -5269.969       39793.87      -15967.61
      -58496.74       25048.84      -9414.422      -89924.02      -16118.44
       75433.31       137209.1       141287.7       125373.3       103860.5
      -1195.891      -61929.95      -16733.14      -21968.09      -75245.12
      -61134.73      -48433.77      -74068.37      -50984.07      -10045.30
       24184.49       46403.55       13770.29       9461.867       14289.99
