     0.02500000      -1872756.       2418564.      -12345.00      -12345.00
      -29.99999       214.9250      -16.60000      -12345.00      -12345.00
       0.000000       12.23000      -12345.00      -12345.00      -12345.00
      -12345.00      -12345.00      -12345.00      -12345.00      -12345.00
      -12345.00      -12345.00      -12345.00      -12345.00      -12345.00
      -12345.00      -12345.00      -12345.00      -12345.00      -12345.00
      -12345.00      -31.91720      -69.02180       2396.000       0.000000
      -31.54000      -68.94500       0.000000       103500.0       0.000000
      -12345.00      -12345.00      -12345.00      -12345.00      -12345.00
      -12345.00      -12345.00      -12345.00      -12345.00      -12345.00
       42.45330       189.8515       9.891660      0.3817133      -12345.00
      -12345.00     -0.6315898       0.000000       90.00000      -12345.00
      -12345.00      -12345.00      -12345.00      -12345.00      -12345.00
      -12345.00      -12345.00      -12345.00      -12345.00      -12345.00
      2008        49         8        51        20
       300         6    -12345    -12345      9798
    -12345    -12345    -12345    -12345    -12345
         1         7        13    -12345    -12345
    -12345    -12345    -12345    -12345    -12345
    -12345    -12345    -12345    -12345    -12345
    -12345    -12345    -12345    -12345    -12345
         1         1         1         1         1
SOMB    -12345          
        -12345  -12345  
-12345  -12345  -12345  
-12345  -12345  -12345  
-12345  -12345  -12345  
-12345  -12345  -12345  
-12345  -12345  BHN     
ZL      -12345  -12345  
[...]
       316.5300      -281.6085       307.6642      -285.9589       300.7783
      -296.6592       291.0211      -299.2206       283.7004      -306.9874
       275.1951      -311.5896       272.2306      -319.8743       261.0518
      -326.0910       250.6060      -337.0623       238.6309      -347.3030
       230.6949      -359.0304       209.8918      -371.2007       199.9773
      -388.1366       182.3685      -403.8141       158.7594      -424.4274
       142.3608      -441.6300       118.3616      -462.6611       96.54297
      -481.4130       79.27264      -500.4092       53.70703      -520.2454
       35.22461      -538.8154       15.13928      -551.7153       1.341553
      -569.8575      -18.40503      -584.7444      -34.11768      -594.5707
      -47.52893      -607.0615      -56.12695      -614.9498      -66.48669
      -616.2234      -65.08533      -618.5619      -72.44727      -619.4414
      -73.36084      -620.0085      -69.80322      -611.5266      -65.66711
      -601.9339      -55.23669      -591.4327      -46.58374      -579.2678
      -31.89966      -562.9946      -20.95398      -545.3551      -2.324951
      -526.8363       12.45160      -512.5813       26.77893      -494.7179
       41.74933      -479.0458       54.05664      -461.0546       69.92932
      -443.8688       83.68512      -429.8209       95.20667      -416.2910
       107.0464      -399.0904       122.4273      -384.9573       132.3035
      -377.0756       134.5585      -368.6496       139.4669      -363.0978
       145.1221      -358.2440       147.6312      -355.2177       144.5048
      -357.3428       139.8367      -359.7091       139.9888      -361.0397
       132.2421      -362.0163       131.6601      -364.7427       122.4789
      -368.3237       121.7244      -370.0142       119.9878      -367.5740
       115.4404      -367.9063       116.7460      -364.0178       117.4912
      -367.8109       111.7234      -364.4561       110.5281      -367.4606
       105.4043      -370.2010       101.1115      -376.6689       85.34802
      -386.5551       78.16431      -391.6467       68.14764      -400.7197
       58.61768      -412.6763       42.36395      -420.8769       36.18024
      -429.8783       19.05859      -442.7244       8.942688      -452.7165
      -12.84247      -471.2162      -27.50348      -483.8897      -43.90601
      -498.8086      -60.65784      -512.7935      -79.33752      -529.6695
      -97.84839      -544.6796      -115.8348      -558.8053      -129.2197
      -572.5294      -146.2120      -585.0332      -161.9775      -596.3954
      -170.1655      -603.0263      -182.2034      -608.5778      -187.8256
      -615.5881      -197.8179      -620.4174      -201.6139      -625.5140
      -213.4823      -632.9983      -221.3579      -635.3315      -225.1538
      -641.1884      -236.3383      -644.3794      -239.1406      -651.6597
      -253.4301      -660.5945      -260.1172      -660.8760      -265.5280
      -665.9438      -276.6731      -677.7421      -281.1193      -673.6150
      -287.7039      -682.1871      -295.6558      -686.4731      -303.4088
      -686.5515      -304.9764      -692.1907      -315.4780      -694.5466
      -318.8436      -699.4130      -331.6404      -706.2601      -336.7386
      -712.9773      -343.6909      -709.5062      -344.0155      -708.9995
      -347.1102      -709.4678      -350.5983      -708.4290      -352.7065
      -707.6849      -354.4878      -709.3843      -356.5610      -706.5754
      -362.3719      -708.6917      -365.7429      -707.7781      -365.5005
      -710.5432      -377.3800      -714.1499      -378.9897      -717.8313
      -385.2179      -719.9600      -395.3381      -721.1313      -395.2063
      -724.5065      -401.0599      -726.8071      -407.3252      -729.2434
      -411.8168      -726.1013      -410.4871      -729.3536      -421.9407
      -733.5442      -424.4065      -733.5621      -427.5859      -732.9270
      -432.8621      -734.8118      -434.1694      -730.9691      -428.0341
      -722.3757      -429.7502      -720.3484      -427.2554      -714.3564
      -421.1052      -704.3518      -419.2145      -695.7795      -408.4595
      -685.9897      -402.5767      -674.8552      -397.8230      -664.6097
      -388.5894      -656.2874      -382.7549      -641.5785      -370.7421
      -632.8779      -369.2045      -622.0867      -357.5564      -611.8765
      -354.1949      -604.7634      -348.1505      -593.9478      -340.4131
      -577.6060      -329.8029      -572.4507      -330.2568      -564.5671
      -316.4446      -548.0027      -315.0681      -541.0146      -302.7083
      -533.3362      -304.2355      -525.1597      -297.8942      -521.1606
      -301.7174      -522.1208      -301.0996      -519.1829      -311.5371
      -521.7678      -304.7612      -516.1675      -313.4656      -518.7043
      -309.7778      -512.2949      -318.9331      -519.2061      -322.3291
      -517.5078      -325.6311      -523.7860      -327.2957      -433.3589
       115.6699       1731.121       9252.312       28810.03       69592.97
       133852.7       190760.1       201827.6       153636.9       35957.44
      -51496.75      -79590.06      -144743.6      -194250.4      -175305.6
      -102168.2      -97404.84      -83428.75      -12206.00      -171232.2
      -181847.0       81017.97       91651.98       30253.12       163788.9
       215634.2       54751.16       33059.75       185966.7       102121.0
      -76320.22       10610.28       136855.5       54577.00      -78678.88
      -175699.8      -143610.0       12097.80      -16382.81      -167579.6
      -128999.7       35707.03       49771.84      -83491.31      -161024.3
      -149844.6       4960.188       206669.5       213461.4       94207.55
       15921.30       7901.562       46384.28       114387.2       51645.31
      -196809.4      -258641.0       3486.500       184443.3       66446.69
      -96504.09      -71223.63       36252.84       33644.30      -54666.42
      -100710.2      -37923.95       76694.91       138191.7       112323.9
       51294.35       26443.60       2820.047      -72720.41      -117277.7
      -84094.72      -40985.10      -4593.453       60991.69       112390.0
       100581.9       34688.98      -38869.80      -54773.66      -85844.12
      -148819.2      -114293.6       11960.81       102177.2       101016.4
       71848.81       21006.02      -11517.35       5348.219      -19724.23
      -50122.99      -6330.344       52716.89       71949.00       79248.06
       61351.39       13484.21      -7610.688      -6524.656      -33173.81
      -66732.14      -42889.55      -9200.750      -54028.66      -88153.58
      -54324.45      -27447.47      -66292.12      -141205.1      -111753.9
      -32892.73       3685.219       60286.56       128019.2       180622.2
       182971.8       120710.4       88706.44       69081.72       15975.34
      -23828.56      -84579.81      -133197.1      -101722.0      -14623.42
       22212.70      -23130.02      -54388.80      -46059.18      -6128.375
       22849.36       42586.72       65090.19       27250.22      -12163.91
       12447.92       51897.42       30448.49      -29861.88      -47173.12
       309.9219       51421.06       39624.77       6969.076       3069.848
       16886.82       182.1719      -31851.62      -48643.41      -78111.72
      -94882.17      -96074.07      -56317.80       11653.59       23237.72
       14284.95       27977.98       31728.47       19324.55       39683.25
       73510.64       73973.69       83194.94       98776.50       80743.84
       26568.00      -14805.44      -44231.56      -91385.00      -83845.98
      -52095.28      -54770.00      -45854.70      -58724.62      -56110.07
      -8519.209      -1879.688      -24581.35      -19860.89       10342.56
       40449.58       39761.52       21499.02       49832.84       75983.92
       29924.25      -29382.34      -63415.89      -46784.58      -26299.56
      -37362.05      -12177.07       15894.33       21378.11       41076.91
       57277.45       38469.04       14462.66       24475.03       122.1719
      -34584.43      -18982.10       13441.38       32864.65       19761.59
      -8726.844      -46698.61      -70686.28      -72894.47      -73200.69
      -57262.29      -30977.84       18445.27       51357.61       59651.11
       76101.80       74950.72       61788.22       68878.53       90596.33
       66161.75      -18709.00      -61021.44      -54475.72      -48219.54
      -34047.73      -51650.86      -83820.59      -69344.23      -18615.80
       8798.066      -8010.656      -7703.906       21092.88       54285.11
       67751.24       47285.63       32791.73       18526.56      -11467.42
      -13482.37      -6529.434       5276.903       11335.99      -12327.97
      -32803.65      -23796.50      -8860.469       2925.664       22514.21
       29896.62       46799.92       53304.15       3175.766      -39843.62
      -46743.70      -19608.38      -1815.875      -40497.94      -71990.22
      -41891.00       5092.188       15695.70       22793.00       38205.79
       29961.98       24521.09       7767.242       19062.12       69105.06
       68743.34       31403.53      -24355.06      -67932.53      -49054.75
      -60432.23      -87200.81      -44717.45       938.2188       19780.82
       14014.67      -13779.74       20163.97       99219.80       92051.16
       17816.22      -3429.922       15212.60       9171.266      -50380.41
      -69324.75      -11571.91       29117.57       25897.85      -7135.672
      -34126.12       7381.312       72110.14       84816.80       62428.49
       6925.344      -53791.07      -32829.95       30779.35       22374.17
      -19396.32      -7716.125      -18283.70      -37208.55      -4201.773
       8100.381      -11545.89       8187.234       36441.68       28873.34
       19657.54       10541.91      -6306.297      -32293.09      -82445.47
      -95304.16      -81954.39      -60627.36      -27333.05      -27819.40
      -15747.95       35163.44       57485.72       72751.50       94257.03
       85130.47       79590.86       77149.16       63915.70       41178.91
      -19708.94      -46905.88      -36681.03      -26566.19      -25043.34
      -60881.34      -112169.3      -110557.0      -47719.82      -1528.426
      -2502.805      -25471.80      -40789.44       9025.094       84751.34
       108822.7       78330.16       57068.22       54487.83       63173.62
       70290.66       62586.00       56292.24       20604.94      -49417.31
      -90555.25      -54522.01       12484.81      -5025.844      -63468.06
      -71974.91      -60285.86      -28101.73       3202.336      -33585.66
      -49497.19       11228.44       74506.34       63492.87      -6698.859
      -59240.84      -51621.90      -21700.79      -2281.445       14927.85
       18351.91       7450.742       26417.23       51247.31       45491.83
       4495.438      -32578.98      -33936.55      -10291.57       26755.03
       49826.94       37715.25       34398.36       48014.91       60442.37
       49116.81       5926.266      -44256.91      -66728.81      -58576.31
      -45903.41      -64370.08      -77016.81      -61775.31      -49362.75
      -14354.75       23090.93       21801.78       12190.43      -19135.01
      -23039.14       27301.16       69639.59       56114.77       22717.10
       29844.00       44545.52       33126.34       36755.08       27812.11
       2460.621       5940.688       27333.70       39947.34       44981.64
       31654.51       5243.406      -38134.56      -68443.80      -76437.98
      -59607.48      -29385.66      -39786.76      -55480.06      -17835.88
       13175.63       6497.015      -6039.039       10163.34       18145.02
      -561.0469      -25647.41      -36345.73      -26133.69      -12053.71
       1944.266       31952.25       49433.50       40184.26       19281.48
       25230.91       67339.66       68980.98      -13456.66      -82359.25
      -90958.97      -71359.39      -43322.11      -4852.766       8975.635
       2815.398       3324.047       20009.00       49864.75       85130.00
       98815.58       85492.31       58194.84       32140.56       15478.42
       10933.29      -7763.297      -29040.12      -18299.54       14058.73
       26597.23       19909.95       325.1123      -2129.029      -1336.477
      -15521.12      -9418.338       11738.50      -25021.25      -108693.5
      -142447.6      -117017.8      -129836.1      -180210.4      -223737.5
      -204634.6      -149312.1      -134521.1      -146111.6      -190280.8
      -346021.8      -640552.0      -995097.5      -1248507.      -1344104.
      -1225148.      -812425.5      -44147.00       967951.5       1885654.
       2418564.       2376630.       1593455.       247047.0      -860621.8
      -1118631.      -881021.5      -631543.6      -295705.8       432227.0
       1373794.       1917598.       1697219.       934233.1       80348.00
      -763979.5      -1570304.      -1872756.      -1295556.      -222626.2
       580297.6       794554.8       467671.9      -114074.6      -430430.8
      -285407.9      -4485.500       300574.2       680979.0       852720.7
       430345.8      -472837.0      -1203830.      -1335803.      -869702.2
       46659.75       948357.5       1411222.       1331288.       745317.4
      -146079.2      -969289.0      -1440629.      -1425524.      -964818.9
      -276284.0       417959.5       977070.0       1305289.       1323440.
       963309.6       317940.6      -399000.0      -947186.5      -1142170.
      -1026350.      -750915.8      -297591.1       195725.6       474842.9
       497313.2       382873.0       334270.6       424854.4       490731.2
       448302.0       282991.4       60791.31      -84326.56      -176419.8
      -315057.9      -462194.8      -461818.2      -217782.0       106504.5
       320611.2       415510.0       459613.4       429941.7       296904.9
       106865.5      -107843.5      -337649.2      -474493.4      -499529.6
      -479137.9      -476002.2      -534915.8      -566760.5      -446059.7
      -142765.3       158508.6       264289.7       202118.6       4656.625
      -133694.5      -78571.78       56637.06       179466.8       243734.1
       221029.3       184650.5       216282.6       265228.6       277607.4
       337347.9       337430.8       195893.2       46882.06      -76347.62
      -167540.0      -213007.7      -206631.6      -76698.38       117025.0
       261742.1       315581.3       272175.1       166502.8       103613.1
       138130.4       127122.1      -66691.12      -306178.8      -399303.0
      -335817.2      -270840.5      -229733.8      -147931.8       23414.62
       254120.3       304362.2       63057.38      -224180.5      -322119.1
      -240375.6      -131488.2      -65381.15      -28159.25       18210.00
       110420.1       207003.6       243129.8       200875.0       54482.91
      -121823.8      -252098.0      -244889.7      -33604.03       165353.0
       207252.6       179250.0       74921.66      -2593.438      -5779.812
      -63002.81      -87424.27       1405.000       64601.94       60834.47
       50110.59       73928.70       67589.05      -16018.50      -70063.11
      -59531.56      -44343.87       5712.457       20330.00      -75595.31
      -145438.3      -112735.8      -120346.6      -191435.5      -172571.7
      -52586.03       11084.91      -28844.09      -120083.5      -163738.4
      -108577.1       36331.44       258914.0       397350.8       313309.9
       135981.1       11192.81      -36549.84      -17728.62       74357.56
       171179.4       149411.9       9353.375      -141910.8      -273915.6
      -310180.6      -197278.2      -65191.72       12381.22       57732.31
       77796.92       66165.67       19497.70      -10344.62       34318.19
       149911.3       219962.7       174775.9       75783.20       19714.93
      -5585.062      -73263.19      -123814.0      -79259.59      -46708.23
      -39528.62      -11839.42      -169.2969      -3051.961      -34424.46
      -48701.06       25330.00       91421.38       96422.31       89870.28
       77438.50       103600.5       175629.2       217458.9       259656.6
       290158.8       228457.3       116521.3       66533.86       60937.56
      -34510.50      -238873.4      -438996.5      -513082.1      -439371.9
      -320299.8      -219947.8      -144763.2      -68020.31      -14671.69
      -28450.69      -77224.88      -123460.0      -113310.7      -34252.09
       12385.28       26944.03       79847.69       163631.8       198415.0
       206832.6       227160.8       143812.5      -9994.141      -78926.23
      -34690.55       58091.45       80046.59       12255.64      -24208.84
       20752.73       58592.77       31894.92      -56775.55      -93599.22
       22896.75       190410.2       284357.4       255062.0       133535.6
       28166.02      -16930.16      -38098.59      -65660.56      -117855.1
      -218346.2      -293923.9      -267685.1      -177258.4      -109864.2
      -113327.3      -170629.8      -152351.6      -23491.62       81344.31
       121444.0       113373.1       73457.94       83163.38       155799.7
       187038.6       154397.5       115744.8       71939.08       50037.23
       62252.92       64848.97       36441.89      -255.2930       1983.078
       34743.20       38911.43       16875.33      -10000.62      -46825.66
      -89750.72      -111575.6      -120500.2      -136792.8      -137714.8
      -116521.5      -106403.2      -114409.4      -91960.88      -9142.594
       66744.78       94624.69       84502.98       38557.36      -12994.25
      -54617.80      -89358.45      -67161.12       1416.100       9062.918
      -23102.79      -1283.068       16396.84      -43350.19      -106157.5
      -86645.97      -47032.75      -26071.50      -6691.891       16705.78
       48558.88       87911.06       145655.1       139685.3       41369.16
      -42020.58      -73668.76      -23361.41       91855.69       167130.6
       169415.8       133978.8       89047.89       45064.50      -14551.36
      -59817.84      -29911.20      -28432.91      -116694.2      -187571.3
      -204994.6      -164397.8      -119608.4      -116989.8      -89172.73
