     0.02500000      -1033115.       1170767.      -12345.00      -12345.00
      -29.99999       214.9250      -16.60000      -12345.00      -12345.00
       0.000000       12.23000      -12345.00      -12345.00      -12345.00
      -12345.00      -12345.00      -12345.00      -12345.00      -12345.00
      -12345.00      -12345.00      -12345.00      -12345.00      -12345.00
      -12345.00      -12345.00      -12345.00      -12345.00      -12345.00
      -12345.00      -31.91720      -69.02180       2396.000       0.000000
      -31.54000      -68.94500       0.000000       103500.0       0.000000
      -12345.00      -12345.00      -12345.00      -12345.00      -12345.00
      -12345.00      -12345.00      -12345.00      -12345.00      -12345.00
       42.45330       189.8515       9.891660      0.3817133      -12345.00
      -12345.00      0.1221812       0.000000       0.000000      -12345.00
      -12345.00      -12345.00      -12345.00      -12345.00      -12345.00
      -12345.00      -12345.00      -12345.00      -12345.00      -12345.00
      2008        49         8        51        20
       300         6    -12345    -12345      9798
    -12345    -12345    -12345    -12345    -12345
         1         7        13    -12345    -12345
    -12345    -12345    -12345    -12345    -12345
    -12345    -12345    -12345    -12345    -12345
    -12345    -12345    -12345    -12345    -12345
         1         1         1         1         1
SOMB    -12345          
        -12345  -12345  
-12345  -12345  -12345  
-12345  -12345  -12345  
-12345  -12345  -12345  
-12345  -12345  -12345  
-12345  -12345  BHZ     
ZL      -12345  -12345  
[...]
       141.4652       30.20001       122.4650       12.60941       109.0423
      -1.929230       90.34287      -20.44632       79.01828      -27.72166
       68.64465      -39.30325       58.76227      -46.09558       53.41581
      -50.06653       45.66042      -57.24969       41.12706      -63.09190
       35.62005      -61.23748       34.07536      -65.12913       33.61288
      -66.45247       31.24504      -67.61266       29.82910      -68.86416
       24.17480      -73.12676       26.27087      -68.62311       26.25571
      -70.41319       27.94154      -65.48390       29.18997      -62.66827
       36.29509      -52.99806       43.58915      -51.23745       46.37643
      -43.58092       57.56068      -31.16400       69.17035      -17.71834
       76.82430      -14.93234       85.49777      -4.044235       92.93324
       3.318741       106.5382       21.15686       116.1035       25.27460
       125.1862       36.17740       132.9850       45.46194       143.7686
       58.77527       155.0066       64.96945       162.6434       83.82452
       180.6490       96.63370       191.3040       110.4936       208.0354
       128.2416       223.3071       141.3744       236.2448       155.2672
       245.9874       163.6928       255.7599       176.9570       267.6716
       186.0720       275.0427       191.0946       281.1381       202.1418
       288.6436       206.2716       293.2535       211.9636       300.0772
       219.4136       301.7881       221.0926       305.8434       223.1470
       306.7406       226.2982       306.8865       227.4174       309.3955
       228.7288       310.9811       231.9751       311.3058       234.7367
       315.7933       237.8345       314.7568       240.4393       315.4781
       236.2842       309.6179       236.0562       310.4126       235.0262
       307.2906       230.6298       303.3690       232.5767       302.0901
       226.5492       300.5779       227.3256       296.9314       228.1309
       298.8658       227.7228       296.6423       223.3909       293.3317
       229.1480       297.6651       230.6630       297.6029       230.6158
       302.7587       239.9717       307.5414       246.6263       317.3447
       258.1809       326.5668       267.9365       334.3413       277.7258
       349.8272       295.1343       364.1554       308.9126       378.1675
       321.8287       389.8789       335.6537       402.3164       347.0933
       416.4058       366.8975       431.2068       379.7080       447.1141
       393.0072       454.3945       406.4182       470.5654       420.6833
       483.2393       435.6035       498.2689       449.6616       507.3385
       457.3723       521.7319       475.5002       532.3613       485.4545
       546.8396       498.0676       559.5835       520.1458       577.2754
       530.3350       583.3538       540.0190       597.6172       557.0551
       606.8422       567.1094       619.8489       577.1396       627.2698
       594.0334       645.4207       606.9514       654.2783       618.6276
       667.0139       636.4360       684.2788       645.9487       696.4891
       664.8242       711.7673       679.5420       725.9265       692.3105
       737.1826       706.0708       751.8555       717.6741       757.4792
       730.9797       779.1973       749.3542       789.2109       757.5361
       795.0383       768.1926       808.8594       777.9624       812.9060
       785.0928       821.2529       791.1543       822.0999       792.4204
       819.7488       787.1470       819.8662       791.6050       815.1914
       785.7788       816.3020       790.0869       813.5796       783.8853
       810.3657       783.0342       804.0576       777.4043       800.4111
       774.8091       792.3892       765.0842       787.4902       763.4631
       781.0144       759.7563       779.0122       759.9934       775.5464
       754.4434       772.9639       759.4780       774.4177       759.4460
       777.1919       764.4834       774.9448       760.0615       779.9592
       772.0820       776.0681       766.3003       785.3296       774.2336
       774.2080       762.1953       776.4246       770.2678       770.5693
       754.5776       767.6887       762.8101       752.1770       734.4741
       748.5493       744.2080       731.1401       710.8328       719.2153
       723.3250       706.4517       680.4487       694.6060       709.8955
       685.0535       643.3333       654.9502       702.5457       691.4373
       616.0110       611.1924       697.7113       628.5426       85.55566
      -1865.719      -11242.59      -45577.06      -130406.4      -295098.6
      -515324.8      -655188.8      -597175.5      -269369.6       161592.4
       319346.2       269841.2       292906.0       419199.4       367395.0
       252348.8       383532.6       254857.9       75117.25       287070.3
       281342.5      -126847.8      -247607.7       87483.00      -18356.88
      -530230.2      -545737.6      -157731.6      -27093.73      -122536.5
       22024.34       178475.7       89262.91       32305.78       96159.27
       101849.3       21426.78       58561.69       201848.2       217958.8
       89053.25      -13946.17      -22923.16      -37452.28      -104673.6
      -147440.2      -161040.8      -182536.4      -167878.1      -96339.44
       29013.97       155166.8       181639.1       136469.9       149956.6
       209088.1       130018.8      -11006.12       18999.19       117023.2
       42349.97      -70556.06       9835.148       73143.38      -40025.75
      -122674.1      -119731.3      -166633.9      -211994.6      -167505.7
      -95614.09      -58893.08      -41392.58       13524.25       83434.16
       87060.82       31946.33       2823.016       44837.92       66996.82
       13464.70       33038.62       92157.31       55136.20       10409.91
      -972.5469       4359.250       57351.08       96844.92      -1307.766
      -95030.42      -20232.05       30821.38      -33182.19      -68685.89
      -61324.75      -83176.27      -83513.03      -44560.74      -9568.258
       10896.11       41125.76       37116.97      -66402.12      -86444.76
       5839.162       8268.676      -6647.922       26448.34       54830.56
       86863.75       90466.67       101376.0       58823.42      -47252.12
      -67978.80      -47975.91      -58098.08      -69999.36      -49562.52
       28828.53       109560.7       96081.53       60539.14       56321.21
      -1081.047      -69958.33      -44688.77       272.4824      -827.8008
       24398.17       9139.500      -56200.88      -72411.91      -51682.12
      -19486.62      -34926.33      -76109.47      -75454.34      -51411.48
      -19415.93       14660.70       25983.23       7829.195       9779.734
       47955.05       76906.50       65182.78       42630.55       20728.86
       648.7305       17224.67       29111.65       27892.20       32766.58
       55349.20       89401.88       64421.09       20527.52       31469.74
       31253.98      -27706.84      -46724.25      -2224.496       3802.312
      -47940.78      -77689.30      -49945.34      -23844.00      -1681.746
       16346.94       6052.074       18611.52       13817.67      -56982.72
      -73381.61      -1618.562       45771.80      -16250.97      -102121.3
      -79532.91      -3240.000       21604.81       9552.125       40825.33
       55195.67       32184.89       42694.76       41546.58       28686.46
       336.2344       7082.164       48956.70       12130.62      -29079.50
      -32976.12      -43726.48      -60140.08      -55833.27      -26903.58
      -33525.88      -29478.60       5208.164       25701.34       28954.22
       450.6562      -38374.95      -65083.02      -55241.17      -24595.69
      -2882.266       24182.41       38144.06       13933.32      -22391.81
       13465.16       61408.05       43940.02       26212.22       45167.06
       53147.20       26004.03       45189.66       63340.38       10834.22
      -19959.86       19.66797       17789.45      -15.41406      -26377.73
      -15827.84      -31491.94      -76788.38      -68617.91      -46898.16
      -46258.16      -31741.31       14484.72       55619.72       52852.16
       27036.55       35121.89       76895.23       84397.50       21069.17
      -37679.62      -35057.53      -35768.88      -79239.41      -99813.55
      -83479.78      -70428.42      -45915.57      -29817.68       1408.182
       17381.71      -9627.711       18933.59       58147.57       46136.45
       36996.45       64404.84       85166.88       113840.2       142192.6
       90791.57       28799.11       3539.689      -8851.809       4215.219
      -31273.34      -98833.66      -76277.45      -37117.92      -20345.23
       33103.88       49735.04       19564.62       11925.41       51349.59
       64799.22      -29201.91      -102660.2      -70412.02      -53759.56
      -97105.41      -105803.0      -82739.58      -80783.84      -49079.70
      -5077.883       18327.23       22221.99      -422.1562       17639.00
       83635.50       110204.1       84055.55       57438.66       49665.26
       43272.34       30752.78       13304.17      -17733.05      -27356.07
       2321.625       19588.63       14080.36       27755.05       62723.15
       21059.69      -74118.36      -79385.88      -41178.25      -63294.94
      -97274.91      -84739.06      -53680.06      -52982.52      -71249.64
      -57524.00      -20456.36      -23917.36      -27827.80       19472.19
       83692.12       127893.8       107573.8       62252.92       39988.34
       44472.91       94598.62       118322.9       23933.62      -59989.55
      -42368.12      -9613.549       10095.72      -9707.207      -21787.29
      -5540.562      -28047.00      -84596.89      -75526.81       16216.53
       80784.23       66352.59      -8395.703      -37794.03       8441.125
       27067.41       4457.686      -7335.544      -3682.028      -2744.502
       535.9375      -26199.46      -56979.92      -15959.30       33451.82
       6224.969      -41687.09      -35879.93      -20130.61      -14066.86
      -6490.914      -30929.46      -38495.98       30852.39       62303.81
      -6397.027      -29141.10       17908.73       37972.64       2476.434
      -17935.30       33645.93       53221.09      -3306.227      -38886.88
      -17659.08       22823.62       39397.33       1507.062      -63623.64
      -53913.55       33506.59       50241.64      -5784.781      -18652.27
      -10111.49      -19466.64      -9776.118       5916.902      -12688.84
      -11300.61       12846.79       16183.61       12381.36       5720.438
       15461.12       15999.70      -23108.57      -38817.08      -15342.89
       13888.13       28141.25       22261.12       33949.27       60930.85
       51928.75       20647.01       16706.73       22636.27       7057.140
      -3623.867      -8529.164      -22757.99      -6758.758       12705.85
      -15339.80      -42029.20      -43392.14      -53338.41      -74000.67
      -74233.19      -63316.48      -63416.52      -54379.16      -28446.35
       595.1094       61213.38       108701.9       83601.05       52208.36
       32632.41      -721.4609      -28890.88      -23698.70      -5133.961
      -21277.75      -16979.98       29757.38       46597.04       19371.74
      -12081.50      -18636.38      -24017.69      -35097.48      -28814.39
      -33121.45      -40286.15      -22465.11      -7567.592       2186.931
       1184.506      -2111.188       35075.48       65689.97       58227.41
       38642.55       3911.773      -23136.21      -18232.78       15216.75
       39360.23       24523.40      -15598.20      -62353.17      -68496.53
      -42480.07      -4413.578       41300.02       73016.94       99942.64
       78464.97       30310.93       20477.54       12088.09      -24803.61
      -56908.88      -46984.14      -24475.16      -20801.14      -21010.61
      -13470.83      -18893.97      -64046.50      -92323.44      -68978.92
      -40859.72      -20789.57      -12714.97       14901.94       42869.86
       13408.60      -20644.88      -48985.44      -107250.9      -180176.1
      -218741.6      -199580.0      -183257.1      -179260.1      -156688.4
      -106503.9       17575.00       215066.9       391425.9       467656.8
       443307.9       296301.7       61227.06      -98539.50      -63832.88
       183779.8       389464.2       322647.8       222831.4       240842.3
       84424.00      -397988.2      -888704.8      -1033115.      -796781.1
      -378743.2       43089.75       441449.8       775027.0       842445.0
       534452.1       33952.75      -428556.5      -767602.0      -905205.1
      -689222.6      -193275.5       324085.8       769616.8       1086997.
       1170767.       973186.2       545287.6       2991.875      -495299.0
      -754824.9      -737087.4      -586718.5      -353263.3      -4313.125
       332134.5       465775.5       400996.9       255783.8       24920.50
      -249684.5      -400009.4      -408461.2      -316077.6      -156129.2
      -74385.09      -97834.86      -88781.16      -14607.72       57356.94
       65857.31       44522.97       84873.66       159334.4       196746.1
       208684.9       200544.8       129823.8       4394.844      -118868.6
      -178949.8      -177091.4      -195211.9      -204339.2      -128896.7
      -15502.81       83453.50       188454.0       283606.8       297746.9
       235128.9       142897.5       45360.78      -15987.31      -75607.88
      -174113.7      -225140.2      -221109.4      -175457.5      -42584.09
       106098.7       205846.5       278845.2       286127.7       188034.6
       28522.03      -123348.1      -163498.8      -72812.84       21036.06
       60997.12       90222.69       112896.6       93421.69      -1627.719
      -117057.2      -211880.1      -273247.9      -272957.5      -275362.9
      -248743.6      -115783.8       16791.50       77898.78       125688.3
       158902.9       152947.6       105136.1      -10171.19      -165161.4
      -252243.1      -251726.9      -224516.5      -150960.8       5216.375
       197884.2       332542.4       363703.9       338012.6       287078.4
       222392.8       169114.8       80802.78      -23809.92      -73944.16
      -107540.5      -191064.2      -280528.7      -294583.2      -244998.3
      -149429.2      -31451.09       42904.47       86301.69       159668.8
       209267.4       157807.6       18329.81      -99706.75      -123708.2
      -158002.2      -219955.3      -229385.0      -184039.9      -96432.80
       8428.438       94694.66       150433.3       161754.8       121614.2
       61501.89       26114.06       34633.66       51182.78       66921.44
       95208.75       110912.3       96948.19       56061.22       23680.59
       42932.44       69894.28       39066.50      -28714.62      -85589.06
      -85263.02      -43698.05      -46378.53      -105166.7      -117843.0
      -69555.00      -50230.41      -31819.92       33441.81       101767.3
       140106.4       137085.9       101174.4       68440.76       31511.36
      -7556.346      -8102.123      -1168.856      -7103.201       2604.203
      -9836.094      -75856.56      -129404.5      -146743.6      -167024.8
      -140808.1      -68500.75      -40233.53      -55176.34      -60785.90
      -25855.08       16787.16       33767.81       63858.22       123547.2
       154538.4       124889.1       82311.41       69854.67       87728.59
       67205.90      -1956.945      -32028.16      -41916.70      -64356.11
      -52931.33      -17025.50       2298.078      -17160.19      -48819.03
      -36834.91       20950.27       64540.00       62672.48       49064.25
       22475.25      -5112.405      -8418.758       7625.664       36241.60
       39901.82       25925.96       21315.17       10529.92      -7567.207
      -9182.375       36336.94       83331.19       56326.17      -8315.516
      -59006.06      -89515.72      -91701.12      -74138.09      -61875.84
      -47248.42       1999.312       56344.56       76637.00       89990.84
       92474.59       71772.88       62202.66       67710.33       60972.84
       31152.36      -40958.91      -140305.8      -184714.8      -178407.4
      -181802.6      -204344.1      -224936.1      -201550.5      -164775.6
      -120397.8      -28154.28       44095.53       78103.31       111304.8
       136797.2       137935.7       103081.7       83138.48       79908.38
       67833.48       64618.62       53778.80       33095.44       13913.08
      -728.8906       8600.141       47203.38       77064.73       68548.97
       33602.59      -1145.094      -27789.25      -71989.84      -123676.8
      -127095.1      -91284.03      -75192.84      -92531.84      -122291.5
      -99519.40      -31716.39       18395.75       75258.09       111449.3
       101621.6       88359.28       57027.16       21855.01       12573.34
       10857.66       24559.38       52199.22       59811.42       58100.47
       70064.31       81493.88       72835.73       45546.77       20039.70
       24121.09       58255.83       54346.20       8629.348       5953.014
       10223.08      -42707.22      -91873.12      -73933.75      -20857.88
      -8828.188      -44486.14      -65100.20      -73541.30      -79987.83
      -59159.45      -27606.77      -30737.12      -79712.48      -85636.73
      -30671.57      -4563.062      -14674.19      -3453.000       29675.73
       37121.05       24489.52      -8064.344      -64774.84      -76564.06
      -16516.76       19825.32      -7701.320      -16705.24       13188.44
       31645.13       22918.68       3372.004       205.3125       29574.55
       78126.59       101251.5       90601.45       72478.00       63714.84
       77418.30       86654.72       65423.59       23872.66      -28589.70
      -56257.02      -58267.09      -79072.94      -100030.4      -99326.69
      -99253.78      -107246.1      -94402.40      -45291.32      -2783.703
       20803.06       44504.01       36195.89      -5992.355      -16276.23
      -4816.039      -13377.93      -26543.01      -24624.65       15827.38
       68639.53       96176.84       124300.6       128692.1       115078.1
       130442.2       129653.1       116700.2       132742.0       141367.1
