     0.02500000      -1141875.       1470727.      -12345.00      -12345.00
      -29.99999       214.9250      -16.60000      -12345.00      -12345.00
       0.000000       12.23000      -12345.00      -12345.00      -12345.00
      -12345.00      -12345.00      -12345.00      -12345.00      -12345.00
      -12345.00      -12345.00      -12345.00      -12345.00      -12345.00
      -12345.00      -12345.00      -12345.00      -12345.00      -12345.00
      -12345.00      -31.91720      -69.02180       2396.000       0.000000
      -31.54000      -68.94500       0.000000       103500.0       0.000000
      -12345.00      -12345.00      -12345.00      -12345.00      -12345.00
      -12345.00      -12345.00      -12345.00      -12345.00      -12345.00
       42.45330       189.8515       9.891660      0.3817133      -12345.00
      -12345.00       2.370300       90.00000       90.00000      -12345.00
      -12345.00      -12345.00      -12345.00      -12345.00      -12345.00
      -12345.00      -12345.00      -12345.00      -12345.00      -12345.00
      2008        49         8        51        20
       300         6    -12345    -12345      9798
    -12345    -12345    -12345    -12345    -12345
         1         7        13    -12345    -12345
    -12345    -12345    -12345    -12345    -12345
    -12345    -12345    -12345    -12345    -12345
    -12345    -12345    -12345    -12345    -12345
         1         1         1         1         1
SOMB    -12345          
        -12345  -12345  
-12345  -12345  -12345  
-12345  -12345  -12345  
-12345  -12345  -12345  
-12345  -12345  -12345  
-12345  -12345  BHE     
ZL      -12345  -12345  
[...]
      -222.6701      -74.03558      -220.4110      -71.56223      -214.3224
      -69.10498      -212.8581      -70.11267      -214.0997      -72.87256
      -216.9415      -77.12555      -219.9410      -79.23010      -222.5517
      -86.07996      -225.0339      -88.43988      -234.5822      -99.65991
      -241.9221      -113.6088      -256.9393      -122.7816      -262.0828
      -130.0776      -271.5002      -145.0919      -281.7918      -150.4724
      -286.4949      -152.9977      -286.4340      -158.9943      -290.8718
      -157.3409      -284.8551      -150.8469      -278.1555      -148.9026
      -275.1201      -142.1199      -264.5045      -132.8887      -254.7892
      -123.8751      -245.2514      -111.6119      -229.6919      -100.9298
      -215.6689      -88.89078      -209.0949      -80.02344      -191.4048
      -65.54684      -182.3215      -52.26379      -166.2726      -38.67010
      -147.2758      -23.95853      -131.6919      -5.775131      -115.2982
       7.652969      -99.73163       23.22897      -80.48789       40.49008
      -65.42184       57.55526      -45.36806       75.04604      -22.74611
       99.13232      0.4440918       121.8809       26.65070       150.2328
       54.61646       170.5189       76.79916       196.9693       104.1628
       222.7230       133.1790       249.1974       162.4714       282.9557
       193.4241       307.0472       219.8275       335.1959       250.1066
       363.1422       281.9756       389.9326       304.7200       418.7971
       334.9865       443.2556       364.3810       468.6238       384.5765
       491.3317       410.3176       510.6316       426.7335       529.9434
       448.1970       543.6924       462.0558       558.1766       472.2600
       566.2579       487.0205       579.6395       493.3790       579.4814
       496.1619       583.6257       498.0222       580.0715       495.8000
       578.0580       491.0542       568.3478       484.4041       560.3936
       472.9944       550.9856       469.5352       542.6931       458.4254
       527.9150       448.9663       521.7361       440.9697       508.9358
       429.8374       495.2666       418.8773       486.7429       406.6567
       472.3572       396.4270       459.7905       384.8098       446.2531
       372.7461       433.4807       359.1100       417.5293       342.0728
       401.1047       328.8359       387.7617       315.5508       368.6320
       297.5856       356.3035       284.8695       335.4237       267.0454
       317.6649       250.6906       304.0700       236.0283       285.3066
       219.4979       270.4460       208.7336       259.6359       200.3400
       247.1769       187.0888       238.5944       181.3461       231.4099
       178.0524       223.0464       168.4860       214.5099       163.4181
       207.3969       156.4250       199.3352       154.5165       196.4736
       146.7385       184.6194       138.7807       172.6870       130.4233
       166.6204       117.2683       151.2621       106.6781       136.2383
       93.98932       119.9893       73.74223       99.25824       55.75716
       80.89703       35.75186       54.15283       11.62934       29.10499
      -11.06824       4.265648      -41.19507      -27.97058      -68.81619
      -57.64648      -93.68500      -75.73642      -112.0232      -99.45538
      -136.9545      -128.4558      -163.3117      -149.5544      -184.1681
      -174.4656      -204.4641      -195.7548      -225.6465      -218.2940
      -247.5300      -240.1144      -266.4716      -257.1833      -280.6937
      -279.5769      -296.6198      -290.7498      -308.9396      -303.4941
      -321.1682      -319.1587      -328.9480      -327.6340      -337.5876
      -332.6261      -339.3858      -338.0624      -340.0178      -338.2747
      -337.3564      -334.0057      -331.3815      -329.0953      -323.4760
      -322.2701      -314.9131      -317.9298      -312.7158      -315.7633
      -307.2317      -312.9071      -302.6508      -307.2175      -298.9704
      -306.3896      -296.2513      -307.0677      -294.1650      -308.0318
      -298.8884      -312.7615      -298.7071      -310.4791      -293.6644
      -311.4797      -295.7636      -310.1501      -293.4321      -311.1761
      -290.0800      -308.9337      -284.9404      -304.3254      -282.2753
      -306.5076      -281.5951      -301.3741      -275.6871      -299.9772
      -267.1285      -298.1868      -266.9243      -294.4670      -263.4594
      -298.4581      -265.2999      -294.6887      -254.1307      -296.9874
      -264.0645      -291.6039      -252.4343      -309.0874      -264.4237
      -287.4605      -250.9340      -330.0230      -272.8304      -226.1147
       38.72559       775.9404       2865.654       5729.455       6974.378
      -833.8281      -18556.37      -37027.16      -40543.02      -11635.71
       11417.67      -46099.06      -131382.6      -82483.94       118744.9
       283551.6       260354.8       105347.7      -40246.08      -39606.71
       39745.12      -4778.219      -81056.38      -87419.49      -21262.94
       52815.12      -24097.25      -221179.2      -296037.1      -90927.64
       55742.23      -33913.88      -108692.5      -99953.75       75814.00
       298049.0       215208.0      -40727.25      -63119.47       57506.38
       49687.91       21205.21       5723.309      -35473.19       23084.12
       117613.4       80304.64      -19825.38      -61729.72      -107817.6
      -119391.7      -7377.055       42335.75      -90241.56      -161754.5
      -38851.81       78290.64       80625.07       35433.56       34583.14
       91244.20       68027.61      -10978.98       36707.31       110541.7
       45744.53      -39534.81      -62107.97      -76101.06      -56612.19
       3689.766       38507.81       54742.93       15925.38      -95323.36
      -119314.9      -21615.75       56880.29       52363.34      -8423.883
      -29884.95       24085.84       77306.46       62438.47      -12292.35
      -52417.79      -20227.30       32910.99       52608.60       4485.266
      -62240.23      -31075.56       33631.78      -1405.398      -20725.72
      -20292.50      -83094.95      -98246.06      -35036.85       4471.916
      -7218.840      -3142.469       57333.97       126365.0       133269.1
       92654.59       61003.06       21938.64       12942.77       41797.06
       5499.406      -55827.27      -45859.13       6130.371       26761.09
      -30915.12      -91772.98      -62065.68      -12581.44      -28775.13
      -44336.24      -3706.930       35759.62       19244.30      -32565.41
      -31683.02       6483.578      -1602.203      -11574.80      -23889.42
      -52475.36      -36099.23      -14357.31      -9253.008       15905.00
      -6086.633      -46458.87      -15198.90       23758.62      -5816.031
      -20326.36       49242.69       90448.72       70708.55       63334.23
       72152.49       47098.98      -27308.59      -62377.41      -42370.07
      -15895.00      -3798.844      -24550.38      -49119.69      -40225.41
      -9435.109       27707.99       13435.16      -42739.96      -39650.33
       19569.45       67380.35       44549.57      -17123.81      -28582.39
      -2705.569       10429.91      -13333.45      -35172.64      -24584.05
      -11187.56      -6935.234      -22944.84      -39232.24      -19581.14
       4193.955      -2630.129      -17126.71      -9729.137       7781.906
       42987.28       76515.84       83694.70       83331.94       63465.31
       14051.20      -24107.39      -36294.09      -47427.15      -41455.89
      -7505.344       30329.31       75874.03       94902.95       73870.95
       36761.02      -8393.094      -31278.00      -35856.09      -69711.09
      -119366.4      -142445.4      -138765.3      -107295.0      -45588.84
       21427.75       80170.81       112241.3       116911.2       99354.03
       70061.45       53782.57       43306.90       14267.61      -25215.44
      -44066.86      -26845.54       1096.750       9082.195       2459.641
      -25691.92      -72629.38      -76832.33      -36383.12      -17470.59
      -33688.05      -55082.94      -79718.86      -53961.27      -3753.008
      -3067.797       9745.445       34749.75       35844.47       51136.56
       49358.53       31478.91       52029.72       81282.36       72082.70
       48617.28       35395.34       5602.328      -26430.12      -49136.28
      -82002.94      -94878.17      -77189.31      -51219.88      -44006.29
      -33163.02       4066.305       19854.74       23847.53       44815.08
       42513.14       40442.95       56954.98       65620.08       63943.12
       68889.16       51308.41       30106.45       41373.17       36788.07
       4251.922      -53501.75      -76045.78      -49766.91      -57669.56
      -55801.16      -23045.21       978.3125      -4870.273      -32298.71
      -28391.92       11529.48       20297.52      -12025.99      -9622.375
       30975.78       30762.41      -2248.590       5761.602       36448.45
       20620.02      -10459.16      -34574.33      -46424.53      -17639.85
       7840.469      -16282.05      -41392.69      -16392.25       15563.88
       31245.22       64553.38       50200.09      -22385.75      -32961.24
      -218.7109      -15335.69      -36640.27      -29663.04      -19294.79
      -26078.86      -41111.48      -48520.87      -26933.42       17236.39
       35058.89       41054.05       61540.64       34399.95       2676.461
       37362.61       43172.02      -7127.664      -15911.86      -3616.996
       6970.047       37094.75       37567.22       23511.28       17487.35
      -7362.517      -7275.203       26131.79       20219.25      -35888.31
      -66219.22      -30524.59       18109.56      -5412.094      -47341.12
      -47074.07      -25109.52       3553.242       18188.67      -7039.953
      -52871.53      -49501.29       9778.203       38254.00       15295.22
       7186.289      -15656.78      -52245.05      -41508.88      -38486.82
      -16420.56       49780.08       78210.72       43944.25       8050.961
      -305.6562       17093.53       55111.42       44911.57      -15935.48
      -60100.89      -71970.47      -54718.54      -51160.70      -28893.91
       29566.60       52131.78       21104.52      -35533.85      -43579.57
       11950.01       38048.01       2849.961      -28559.90      -6156.125
       27786.19       43171.86       48329.55       46513.27       23699.36
      -3926.901      -2066.168       11210.22       9336.738       5493.699
      -5729.916      -6557.516       27607.38       55863.42       34167.59
      -9926.250      -43716.11      -43567.94      -17462.45      -20365.62
      -22582.77       13877.66       21768.58      -1936.531      -13189.36
      -17747.30      -29599.09      -29609.74      -36357.65      -40068.77
      -838.7617       18734.68      -19007.62      -31487.77      -6676.848
       8157.305       27302.36       42662.36       14196.32      -17236.09
      -16125.48       7517.359       31914.77       26601.08       5805.707
       4185.963      -2.531250      -25022.94      -43689.55      -40970.32
      -26442.69      -5434.555       11662.99       28344.63       22089.41
       7082.045       6893.484       13583.62       33649.23       53587.09
       49241.20       26146.73       11777.10       26358.41       34184.74
       18256.90      -1108.688      -22547.86      -36837.26      -11504.13
       7422.660      -13535.45      -24842.20      -24688.61      -26101.60
      -22594.47      -28838.77      -24664.05      -15719.29      -5505.211
       1075.172      -21007.08      -34037.43      -1579.891       32754.64
       55089.94       80369.31       86922.61       60519.52       36351.20
       12346.89      -33453.02      -67302.08      -60715.75      -41531.58
      -17398.43       9353.617       18467.75       13574.12       22267.23
       58777.39       75716.91       40960.03       40414.78       66854.20
       48748.33      -10938.52      -45388.62      -34340.78      -30577.38
      -23811.80       2809.438       19589.16       34002.92       51655.60
       36217.88      -9002.703      -53306.94      -132392.6      -242004.8
      -342248.0      -410362.4      -401513.0      -283848.5      -61444.75
       268536.0       634357.5       943259.0       1115334.       1061057.
       831420.5       590792.6       391112.7       235186.9       102397.4
      -157215.2      -584430.0      -914343.5      -1072388.      -1141875.
      -900843.8      -369534.4       67665.44       213804.8       110726.7
      -91622.38      -324247.5      -527369.1      -632715.4      -608061.9
      -445872.1      -246192.4      -43184.25       327068.0       910890.0
       1448544.       1470727.       853932.5       22138.12      -529073.0
      -515962.1      -135652.2       116889.7       101046.0       565.5938
      -68974.81      -86345.88      -120732.6      -297515.8      -477538.8
      -430639.0      -217233.3      -44000.47       55264.38       160257.9
       217439.2       131675.8       31415.84       42844.92      -1316.188
      -133516.2      -114363.9      -2668.133       1709.219      -97061.94
      -214221.7      -191233.1       43333.19       274196.8       343632.0
       324691.1       263317.1       118325.3      -29061.76      -55633.25
      -15438.34      -23369.94      -94486.50      -133586.3      -63401.44
       99100.00       268599.4       259939.8       116871.4       45406.88
       88511.88       149110.8       87359.12      -98408.12      -281573.8
      -388610.4      -376730.7      -231373.5       1579.750       229576.9
       281476.6       55809.25      -292682.5      -547700.8      -610740.0
      -528105.3      -361947.8      -129469.8       64991.38       238103.5
       475385.4       615722.5       510169.7       263206.8       68327.97
       2534.195       25301.06       60701.12       81999.03       76318.25
       126125.7       235622.6       294323.6       313944.7       242106.2
       54437.50      -144503.1      -351503.0      -465974.1      -414619.0
      -312641.6      -190790.6      -83697.45       10400.88       147629.7
       230202.6       233409.8       223642.6       195976.7       111690.2
      -66781.94      -272097.4      -389791.5      -410502.8      -369828.6
      -321481.8      -295216.2      -242405.4      -24919.75       284034.8
       426408.2       345079.0       161483.1       35329.19       43886.84
       110087.0       135725.8       85060.12      -19418.75      -162274.9
      -277602.1      -251606.6      -185103.1      -193535.8      -177973.5
      -102432.1       94109.50       374318.9       498267.8       450582.2
       321160.5       170115.2       107894.8       63703.59      -21831.56
      -146209.8      -302165.0      -338424.8      -256122.7      -216568.1
      -200393.9      -137033.7      -62436.70      -13816.66       40624.29
       54286.59      -9667.664      -43701.20      -8810.977       20001.68
       22473.25       10213.97      -53258.41      -135334.3      -60175.88
       153331.2       337118.1       422063.1       369700.8       228411.2
       135228.7       164149.0       250698.2       281874.9       208178.8
       50045.38      -99788.31      -157773.4      -185160.4      -258290.8
      -275749.2      -208829.0      -125950.0      -35915.51       24648.44
       4652.754      -26542.59       2394.884       13418.59      -11350.70
      -25699.90      -41160.03      -47943.64      -63017.17      -71098.72
      -85346.00      -102810.1      -76199.91      -50961.26      -15592.75
       50137.83       81566.00       91110.56       93494.02       74053.75
       86186.81       128849.2       138465.2       114489.4       69046.85
       13565.19      -15742.19      -23151.44      -51095.03      -129358.6
      -247129.2      -280175.4      -169113.7      -24748.59       36196.96
       18136.39      -776.3936      -3219.625       1745.176       15752.92
       98.95312       4689.734       59260.22       60567.25       61450.69
       133143.2       146246.7       77469.81      -10401.03      -89070.56
      -114130.4      -87705.14      -55254.62      -9622.344       75512.00
       132447.2       87603.54       6929.703      -45591.38      -99697.06
      -116647.7      -71400.82      -29506.72       13241.20       63051.66
       76834.46       15820.05      -55405.89      -24357.58       23264.63
       19295.05       25379.74       28370.29       20352.12      -8965.789
      -112.6875       59883.56       19948.19      -86930.62      -113739.3
      -41351.81       49908.99       31335.31      -94070.25      -188812.2
      -148938.2      -24919.50       63641.28       94146.61       69592.04
       14760.11      -6515.273       4764.719       44579.34       91096.66
       95844.23       54613.98       30828.47       47429.90       8645.125
      -60336.44      -96521.69      -117200.1      -83279.64      -42178.48
      -13922.95       30756.08       47567.28       55013.62       58999.64
       34330.52       26906.75       54283.58       80214.95       54733.16
      -45793.34      -133275.9      -118005.4      -37880.60       9255.516
       15980.06       76051.88       160882.0       154853.1       72522.89
       26517.15       20197.34       4487.812       21145.33       58137.97
       54159.12       31331.59       16545.07      -1658.360      -987.8340
      -2797.131      -12130.92      -5794.250      -63015.75      -148710.3
      -170761.6      -153539.6      -132762.9      -123674.8      -120142.2
      -111686.0      -113988.7      -127594.7      -111511.8      -64935.54
      -12696.17       45389.47       80680.56       82642.03       84115.81
       112967.1       160429.5       197648.9       189866.1       111965.3
       46920.19       47922.03       62053.27       45138.09      -17910.44
      -39582.69      -2677.375       33509.72       76574.84       98337.06
       94153.67       80300.27       71500.22       63640.35       26292.98
      -9470.750      -41124.62      -84833.75      -110819.1      -106800.8
      -98805.78      -107127.9      -135926.4      -177833.2      -181114.2
      -125963.2      -53138.02      -645.5469      -3791.125      -34288.12
