     0.02500000      -648555.5       696971.5      -12345.00      -12345.00
      -29.99001       216.0100      -17.39000      -12345.00      -12345.00
       0.000000       12.97000      -12345.00      -12345.00      -12345.00
      -12345.00      -12345.00      -12345.00      -12345.00      -12345.00
      -12345.00      -12345.00      -12345.00      -12345.00      -12345.00
      -12345.00      -12345.00      -12345.00      -12345.00      -12345.00
      -12345.00      -31.02070      -68.74750       1316.000       0.000000
      -31.54000      -68.94500       0.000000       103500.0       0.000000
      -12345.00      -12345.00      -12345.00      -12345.00      -12345.00
      -12345.00      -12345.00      -12345.00      -12345.00      -12345.00
       60.57094       18.14020       198.0382      0.5446032      -12345.00
      -12345.00       1.313739       90.00000       90.00000      -12345.00
      -12345.00      -12345.00      -12345.00      -12345.00      -12345.00
      -12345.00      -12345.00      -12345.00      -12345.00      -12345.00
      2008        49         8        51        21
        90         6    -12345    -12345      9841
    -12345    -12345    -12345    -12345    -12345
         1         7        13    -12345    -12345
    -12345    -12345    -12345    -12345    -12345
    -12345    -12345    -12345    -12345    -12345
    -12345    -12345    -12345    -12345    -12345
         1         1         1         1         1
TALA    -12345          
        -12345  -12345  
-12345  -12345  -12345  
-12345  -12345  -12345  
-12345  -12345  -12345  
-12345  -12345  -12345  
-12345  -12345  BHE     
ZL      -12345  -12345  
[...]
       29.86412       97.97810       20.59775       88.24245       12.93832
       77.71494      -3.399719       67.05118      -16.04098       53.76212
      -30.36258       42.20138      -43.63211       33.37090      -50.12886
       27.21483      -54.96709       23.36298      -63.15441       20.53702
      -67.37563       18.46686      -64.33257       23.06681      -61.56588
       29.89392      -56.73130       32.95079      -57.76849       41.27263
      -46.84065       51.02518      -39.76973       57.99081      -35.82036
       68.56013      -23.83809       81.74278      -14.88614       89.18618
      -3.370132       104.4721       6.072784       121.4032       20.48645
       133.7996       35.73309       150.4741       43.84607       162.0134
       57.66840       172.8316       62.52182       181.1720       71.91595
       188.7772       71.60800       187.6195       72.53619       191.4081
       71.44788       193.5394       71.70038       189.6729       67.16925
       187.3043       61.89590       187.0924       57.81604       177.7934
       49.19870       173.5603       38.03064       163.4076       30.49969
       154.3025       19.48141       145.2982       9.595978       139.6024
      0.9663696       132.7528      -5.440567       123.0629      -17.22008
       118.4361      -24.55167       112.7940      -31.28026       108.3217
      -37.63077       102.8925      -39.93048       99.99008      -45.25409
       102.3769      -41.20299       105.2008      -40.37375       106.2199
      -41.86946       106.7519      -43.31158       105.7925      -46.72298
       106.1439      -45.05753       107.9756      -45.94412       101.2917
      -56.57971       101.7583      -56.14039       97.04126      -66.01605
       84.97336      -77.42028       75.71754      -89.66638       68.28741
      -96.24124       62.25259      -108.3250       51.33951      -117.4360
       46.45935      -123.6183       39.14737      -133.1127       36.22078
      -132.9959       37.32158      -142.7574       29.65021      -140.1679
       33.43262      -140.1706       35.45442      -143.0127       36.52576
      -143.7420       35.57799      -137.7843       47.46297      -133.1652
       54.49072      -127.1164       59.89267      -120.8709       68.52133
      -110.6531       83.20502      -102.9683       92.65853      -94.28879
       98.11349      -87.25415       109.6607      -79.43054       119.4118
      -69.93877       128.9530      -69.37241       131.3736      -59.00662
       146.4260      -51.05106       152.6952      -45.36969       155.9191
      -47.88562       161.8796      -37.23657       173.3943      -32.09525
       176.7368      -30.21103       182.1039      -21.60156       188.4028
      -22.76071       194.2131      -13.44577       201.9239      -11.71744
       208.0428      -11.01743       204.9662      -8.728546       207.7199
      -12.17926       211.1821      -11.90961       204.6978      -20.65518
       200.0054      -26.05212       195.5882      -30.34607       192.0569
      -42.43323       183.9892      -43.17184       180.0988      -50.86768
       177.8050      -58.74652       168.5726      -68.72992       163.3038
      -75.23331       155.0698      -86.25928       143.1740      -97.95145
       135.9736      -107.4166       123.3156      -119.8173       116.5143
      -135.9764       99.03815      -148.0346       88.86116      -164.3535
       80.00735      -175.5296       60.76175      -194.1068       47.44031
      -212.4531       31.90707      -225.1906       20.51324      -239.3842
       11.38480      -249.7872      -3.631348      -269.6444      -18.14697
      -284.1428      -30.78149      -298.0558      -42.50861      -306.5421
      -50.54034      -320.1547      -58.90393      -328.9820      -68.79926
      -338.7021      -72.16370      -342.9176      -75.89325      -348.4339
      -79.28192      -350.0209      -75.96136      -350.8304      -75.92877
      -347.9370      -69.34283      -342.0325      -58.08252      -332.6047
      -52.12952      -321.0597      -31.43359      -304.2785      -15.36908
      -288.8474       2.621399      -272.1021       14.08350      -257.3009
       38.52039      -237.3746       56.98877      -213.3244       94.12943
      -184.3040       92.00066      -170.4871       150.1769      -344.5830
      -1179.293      -6315.867      -21564.50      -50081.67      -77475.75
      -88404.44      -85199.69      -71771.92      -37252.28      -7119.883
      -4823.078      -29715.56      -57934.25      -38558.84       64536.88
       179689.9       231913.2       204651.8       99099.89       59997.00
       102097.8       116530.0       112293.0       46318.56      -61606.22
      -134384.8      -127213.2      -67306.28      -63385.50      -108630.7
      -115233.7      -101576.7      -79080.03      -44891.42       15086.11
       64096.27       55820.38       76626.69       66026.72       2045.594
       23468.75       75220.27       72771.21       21676.52      -2427.562
      -39490.81      -114100.6      -108847.8      -21347.95       73024.85
       63744.39      -14744.22      -47733.06      -87761.81      -98215.14
       3562.375       102378.6       137472.9       113098.9      -3889.562
      -115064.2      -151747.0      -75422.88       70402.38       140468.9
       93276.12      -1904.438      -71962.03      -119335.6      -106675.2
      -1701.297       56097.14       46229.01       39808.53      -10561.70
      -31453.57       17213.78       19357.61      -17915.95      -64866.32
      -15845.16       67374.91       62783.48      -1166.891      -71007.86
      -20411.25       35160.44       55689.14       79357.73       7430.203
      -23449.02       13358.86       43057.71       28987.87      -21256.97
      -32472.70      -59169.44      -83134.92      -46503.52       25979.11
       80748.20       57395.20       18168.21       497.4258      -15187.05
      -5729.281       43519.58       69993.81       63033.63       45999.77
      -50111.81      -132839.8      -85927.80      -15648.48       10245.26
       22614.03       14636.59      -30522.66      -41553.08      -53725.14
      -65362.16      -3984.656       52038.11       57493.83       39772.22
      -5263.602      -2270.875       30263.50       54108.62       56089.76
       11987.76       13807.43       15764.48      -27364.10      -32519.41
      -26739.78      -25412.44      -34043.47      -50923.22      -32213.44
      -25591.47      -58625.05      -71406.52      -58221.04       815.2969
       48396.38       39852.02       31187.23       1110.555       1171.617
       43463.34       38823.33       72928.56       101021.9       66051.97
       47131.36      -5846.078      -46358.84      -32578.73      -35147.61
      -23254.42       3838.988       13261.09      -2191.031      -63789.22
      -108893.2      -91194.40      -62722.58       13773.09       65173.36
       29878.71       13371.02       30679.38       35330.27       55411.74
       45308.11       24032.17       24515.94      -13195.38       246.8203
       41968.32      -5406.719      -56296.39      -79192.16      -68976.16
      -16127.75       9743.116      -3145.219       18193.53       43951.80
       15806.27       20999.31       7925.609      -34592.79       1486.133
       28621.90       28215.57       18963.59      -26319.25      -66159.77
      -41686.60       10293.09       47213.93       58611.67       7961.859
      -51114.15      -43906.95      -41132.19      -16779.25       60939.84
       80389.48       32486.11      -13304.08      -49384.77      -46739.90
       8793.500       47176.41       54159.38       49471.17      -4067.086
      -34365.68      -30083.08      -21738.79      -15074.79      -26560.18
      -13816.91       1407.391      -6479.469      -30734.04      -52076.62
      -20149.20       15063.38       19708.96       26526.67       2347.963
      -14166.93       16463.48       36526.19       52336.86       48766.87
       15546.31      -12737.42      -4360.391       2546.094       8378.791
       11131.65      -16631.75      -35486.84      -45716.05      -65176.52
      -43562.01      -14259.35      -5643.484       14073.53       14834.23
      -6997.504      -10961.31      -1902.023       11427.80       20316.64
       18124.77       26739.09       34851.86       13052.28      -7156.594
      -21380.75      -20479.37      -17715.94      -26873.41      -16981.08
       5768.027       17855.19       20895.80       12513.09      -13310.13
      -27773.37      -2525.023       13705.61       39067.22       56453.92
       13656.98      -42576.16      -54419.70      -48676.95       319.8594
       53810.68       37679.67       30181.31       37530.07       13819.54
      -24692.51      -44525.29      -23212.93       6770.398       32464.47
       14525.06      -9870.633       12702.86      -7541.047      -37681.46
      -17315.85      -20890.79       9313.742       44850.32      -7281.281
      -57655.87      -50271.12      -18729.31       7863.711       34504.66
       57352.90       24122.91       8804.809       3321.930      -39436.68
      -21808.15       25800.60       12724.35       13713.49       9382.930
      -8548.133      -10475.20      -26377.44       4610.973      -279.8359
      -33278.67      -5520.742      -15409.33      -33241.53      -28746.86
       11272.23       49345.12       21878.45       8289.008       16410.62
       20121.25       57632.91       50310.01       6554.094      -11227.93
      -26782.72      -41864.83      -37672.12      -19548.65       5734.340
       19145.00       17852.06       29554.01       33279.34       27540.64
       29533.95       6258.790      -1797.553       16705.39      -1687.094
      -31618.22      -46709.27      -57535.14      -22238.64      -24899.18
      -28990.53       10409.04       12981.88       20341.71       8221.270
      -9395.344       46600.83       60789.47       9848.539      -19392.45
      -23952.11      -26085.34      -30215.38      -18480.96      -19754.88
      -20471.97       142.6875      -45786.08      -57941.55      -897.5312
       10784.14       46057.81       99736.19       83615.05       43775.29
      -14886.33      -49857.46       4446.328       63870.09       78703.27
       68705.62      -6394.562      -69188.17      -76566.75      -64683.14
      -28285.18      -2186.199       10978.32       16611.80      -25784.95
      -70375.95      -79156.78      -42046.82       15026.55       28217.78
       15224.59       19691.64       24525.22       39432.89       58232.27
       54862.19       6848.992      -36264.04      -22895.65      -4519.351
      -380.7031       14656.93       18547.72       12052.21      -15980.52
      -56729.70      -59848.45      -10213.40       32268.30       33239.17
       47099.82       41352.20      -3268.594      -36653.62      -70355.94
      -36536.08       4403.570       10644.39       46857.62       62223.41
       31932.92      -1586.555      -29601.25      -27724.62      -4860.126
       1706.957      -4551.750      -16133.12      -27289.65      -20343.28
       33.23438      -12736.96      -27652.36       5236.078       34469.36
       57998.72       48296.44       51731.84       63524.63       11950.16
      -35955.16      -32828.54      -7380.045       2581.672       14664.34
       23364.40      -19820.67      -49804.89      -50205.89      -36047.44
       9123.539       24428.17      -4739.201      -8328.461      -3040.316
      -6877.177      -5707.168       12675.89       19069.49      -8719.375
      -20995.09      -8664.321      -2289.170      -337.0645      -8051.414
       23726.08       61816.33       35791.46      -14441.30      -44503.61
      -46179.80      -27798.15       7320.086       33264.37      -32889.53
      -88336.91      -67521.91      -34841.24      -2451.229       2930.770
       6283.461       21669.08       31675.30       39887.27       12555.46
      -1686.344       26442.23       67849.91       120022.6       131540.1
       91801.78       56340.41       42193.03       42413.25       53203.22
       108849.5       128294.2       93725.50       83450.13       33679.36
      -40238.66      -56499.98      -50246.09      -26259.28      -32090.75
      -88841.00      -179378.8      -268622.9      -259765.7      -140371.9
       3185.125       162557.6       334304.2       420969.4       377483.9
       215975.2      -16476.84      -139266.8      -95623.29       5661.219
       107191.2       97773.19      -82532.38      -328407.8      -572322.0
      -648555.5      -504515.0      -335145.8      -226910.0      -144928.9
      -148897.1      -182478.9      -31493.69       154718.5       120049.8
      -45930.00      -240410.9      -280896.2      -102933.2       82177.50
       266061.6       545579.8       696971.5       583202.9       339931.6
       58343.23      -59065.91       61752.62       186285.8       185834.4
       80376.16      -105994.5      -250323.0      -297358.6      -251624.9
      -83315.45       58883.94       203683.2       191440.0      -136093.2
      -290378.1      -24709.06       210010.5       146910.2      -8031.062
       2019.969       72277.69       69496.16       119829.0       142025.0
       97958.41       61793.14      -20444.59      -72390.78      -62502.55
      -29244.41       12828.60      -3627.719      -25342.56      -27421.44
      -114810.6      -138700.5       24439.82       44747.56      -110551.9
      -137535.9      -119713.8      -132905.8      -108308.9       3800.625
       175598.9       225030.5       117427.3       137853.5       242933.9
       192305.9       83675.28       1502.125      -131133.6      -191289.9
      -173933.0      -227897.4      -136591.8       127448.9       269094.3
       196139.2      -27546.50      -257388.8      -363764.2      -367378.1
      -285844.2      -61007.25       116642.1       94271.56      -41237.30
      -112728.9      -13485.25       77358.44       140366.6       160132.7
       9854.266      -21137.19       70463.06       128602.6       201750.0
       172533.1       109020.4       102645.4       63779.56       19441.71
       11176.66      -7969.344      -107179.2      -254701.3      -348113.6
      -335006.5      -249344.2      -82931.12       138266.5       283422.4
       231369.3       93720.25       71738.25       111871.4       146668.2
       151507.3       58796.94      -38296.59      -142246.2      -127528.3
       88923.38       202042.9       182539.4       118777.0      -51369.62
      -250465.4      -292309.6      -119624.0       473.5703       437.3906
      -43577.97      -121889.0      -169262.8      -213360.5      -170777.6
      -38236.62       45609.00       81567.41       82956.41       27201.96
      -20896.12       76285.25       242496.8       262483.4       90540.78
      -32395.12       1278.891       35621.14       12965.18       12371.50
       93158.56       166262.8       93139.34      -50799.62      -150582.8
      -181082.6      -161070.9      -115132.5       1999.562       135419.7
       132741.8       55809.67       10949.18      -17047.07       1023.680
       28777.81       32792.53       7645.703      -21982.94       76766.31
       120163.1       34446.19      -62617.75      -179809.1      -182524.2
      -84160.19       32732.75       167603.0       188490.5       100998.9
      -22935.56      -131243.2      -128209.2      -109875.9      -125605.8
      -63095.10       27380.12       67064.14       33164.43      -920.6562
       38188.81       106157.5       97162.98      -14343.08      -61154.48
      -33059.09       5927.812       123021.9       184617.8       91930.75
      -51573.91      -126064.9      -99559.66      -68824.92      -42873.08
       9963.859      -24162.84      -99446.25      -93077.65      -29224.38
       62573.69       119503.8       97352.62       31353.33      -70884.88
      -147250.1      -143252.5      -48968.88       45547.09       54512.64
       13265.64      -8287.935       12894.37      -16237.62       5833.719
       137838.4       146419.8       86910.06       22307.91      -72985.16
      -80301.80      -76034.63      -54061.26       22723.92       44702.90
       41962.66       1562.953      -48058.75      -56093.44      -22759.02
       18242.34       14038.02       19488.52       29259.10      -19977.03
      -79257.28      -106060.8      -76270.74      -7770.969       37823.50
       82621.41       106333.3       60776.09       22447.05       35650.60
       52023.38       9877.336      -36482.11      -7891.693       7209.359
      -19829.11      -19729.62      -22029.66      -55490.25      -104420.7
      -120406.4      -83415.47      -47092.30      -68400.68      -69193.69
       25159.97       141536.9       191696.2       150856.6       58430.14
      -39512.83      -97453.31      -52821.84       59801.47       144381.8
       140137.9       66555.19      -33585.41      -101638.7      -100335.7
      -57864.67      -17334.17      -5447.547       6297.448       793.5664
       6823.969       39967.61       13635.50       14848.21       41470.17
       38915.75       59195.56       82794.27       48734.22      -38223.75
      -106912.4      -131083.6      -82497.84       35848.50       127017.6
       112862.8      -20303.12      -169250.1      -240913.0      -192560.4
      -52532.78       27841.12       78729.81       159957.8       147434.1
       93363.27       61269.30       46198.42       54984.47       55432.31
       77407.35       38336.38      -79602.34      -122097.5      -115342.1
      -88169.41      -1988.875       37659.15       289.7188      -34001.95
      -58135.16      -75671.94      -73104.00      -37047.04      -18213.43
      -461.3906       35125.12       59918.34       88951.19       144364.9
       199618.3       145063.9       42225.86      -7824.656      -46862.42
      -46367.36      -39850.08      -61356.81      -96782.00      -184740.3
      -249595.1      -209219.6      -145115.0      -139740.8      -117803.8
      -57380.90      -34781.48       18441.81       105818.5       166158.8
       182497.5       167714.5       176658.4       153495.8       73105.80
       42102.53       61890.89       65680.20       47922.34       20952.93
       12460.84       16940.81      -28661.64      -72991.12      -31661.22
