     0.02500000      -654025.0       895393.9      -12345.00      -12345.00
      -29.99001       216.0100      -17.39000      -12345.00      -12345.00
       0.000000       12.97000      -12345.00      -12345.00      -12345.00
      -12345.00      -12345.00      -12345.00      -12345.00      -12345.00
      -12345.00      -12345.00      -12345.00      -12345.00      -12345.00
      -12345.00      -12345.00      -12345.00      -12345.00      -12345.00
      -12345.00      -31.02070      -68.74750       1316.000       0.000000
      -31.54000      -68.94500       0.000000       103500.0       0.000000
      -12345.00      -12345.00      -12345.00      -12345.00      -12345.00
      -12345.00      -12345.00      -12345.00      -12345.00      -12345.00
       60.57094       18.14020       198.0382      0.5446032      -12345.00
      -12345.00    -0.06230198       0.000000       0.000000      -12345.00
      -12345.00      -12345.00      -12345.00      -12345.00      -12345.00
      -12345.00      -12345.00      -12345.00      -12345.00      -12345.00
      2008        49         8        51        21
        90         6    -12345    -12345      9841
    -12345    -12345    -12345    -12345    -12345
         1         7        13    -12345    -12345
    -12345    -12345    -12345    -12345    -12345
    -12345    -12345    -12345    -12345    -12345
    -12345    -12345    -12345    -12345    -12345
         1         1         1         1         1
TALA    -12345          
        -12345  -12345  
-12345  -12345  -12345  
-12345  -12345  -12345  
-12345  -12345  -12345  
-12345  -12345  -12345  
-12345  -12345  BHZ     
ZL      -12345  -12345  
[...]
       411.0653       269.5392       400.6781       255.7618       383.8868
       239.4005       372.4255       224.4614       349.6381       203.7712
       336.0209       185.5685       314.3557       171.7643       300.9685
       148.7433       277.9027       126.6321       255.0117       106.6492
       240.9946       88.20297       216.6432       64.41736       196.5539
       45.38354       175.3697       14.51965       141.7843      -10.27116
       123.6295      -36.90422       90.64512      -68.70894       60.18147
      -100.6461       33.48425      -124.3062       2.360382      -161.0913
      -26.96722      -181.7745      -48.15051      -207.0430      -76.41937
      -235.0112      -96.97015      -257.1237      -119.5269      -277.8181
      -141.2181      -301.4019      -158.2406      -316.0151      -179.3002
      -333.7115      -190.1100      -348.2835      -202.8761      -360.0433
      -212.0142      -368.2980      -223.9233      -378.2964      -226.5931
      -382.3568      -231.6102      -389.5339      -233.7560      -379.8146
      -224.4762      -378.5416      -222.6300      -369.2482      -208.0367
      -359.6229      -197.6420      -346.4605      -181.4002      -329.0018
      -168.6044      -317.9547      -150.0816      -298.0796      -127.5226
      -276.6071      -108.8515      -257.9122      -86.50500      -234.9725
      -68.46988      -217.6779      -46.28363      -194.1108      -18.75171
      -169.2465    -0.06320190      -151.0645       21.94617      -132.5261
       36.64525      -114.0859       57.42944      -98.24956       72.12018
      -84.25235       91.83499      -62.84169       106.1358      -54.09329
       115.4511      -42.65579       128.7701      -32.24789       142.5732
      -15.06131       154.9240      -4.762177       169.2955       6.588623
       183.0246       23.49146       204.4050       54.20486       226.6909
       59.06335       240.5019       81.51270       257.1977       97.18994
       281.7601       125.6646       308.1124       146.2660       329.6971
       167.9330       345.8744       177.5262       356.8369       192.0428
       375.1367       211.2033       390.5791       216.2054       393.7596
       222.8561       404.6930       233.7478       412.9948       237.6060
       416.8564       239.6119       419.6863       244.6859       425.0493
       244.4731       419.8598       238.6208       416.1775       235.9208
       411.8313       228.5077       408.5135       228.4645       401.5204
       210.3568       385.4188       197.7015       372.1660       183.3271
       358.7473       170.9761       349.8884       164.8959       341.3184
       149.3471       326.8091       139.3591       318.0956       131.3663
       306.1941       112.8278       293.4491       105.3170       278.8389
       87.70471       270.6223       81.24683       263.2968       71.50555
       250.4535       60.10919       240.4807       49.77515       233.5128
       37.77515       218.5470       28.34290       215.3876       24.39755
       216.6212       30.96075       219.1940       29.84229       225.6118
       33.34915       220.4410       32.23593       232.5067       39.76288
       238.6220       56.61096       251.1183       64.15656       266.0883
       82.77618       286.3237       102.9277       309.9120       127.0231
       327.7390       143.8351       351.9811       167.5803       373.4186
       194.0403       406.9695       227.9437       440.9453       259.1565
       468.3036       290.1150       504.3828       327.4452       537.8562
       357.7830       576.7479       400.2570       609.0625       428.9087
       648.3523       463.5519       675.5884       495.0012       710.4662
       529.0901       744.6633       552.2183       763.0804       578.7534
       790.3661       598.9097       811.1680       619.9976       833.0649
       637.5112       844.7407       650.0991       863.1587       662.4834
       870.3025       672.7446       877.9536       676.9971       879.1963
       670.7837       881.2200       681.0325       885.9138       681.5359
       880.3547       669.9604       868.5674       648.7886       852.4341
       647.7944       843.3545       625.3799       826.9553       609.8987
       802.1611       584.1265       780.5891       559.1343       751.7629
       531.3099       732.4840       508.1864       690.2581       468.6732
       674.8982       444.1969       613.4459       403.1243       637.8387
       378.0814       497.6465       349.1119       600.2881      -395.0449
      -3563.844      -17080.36      -53397.84      -105331.3      -125219.5
      -88746.58      -55368.59      -65809.97      -73175.70      -72018.62
      -88311.84      -75306.82      -16461.77       12952.64       36485.03
       99836.31       192411.5       229084.9       148385.5       51467.49
      -31223.70      -46006.47       53530.34       127542.0       75458.97
      -65418.25      -173180.4      -198402.5      -143564.0      -21770.34
       64703.15       56508.02      -3987.234      -45541.28       14205.31
       115221.3       166691.5       161970.0       111182.9       34366.09
      -19707.66      -10823.04       9766.156       22572.47       11415.08
      -42642.88      -83462.81      -115740.8      -139457.3      -93068.89
      -11153.61       44903.77       78646.03       79475.44       74166.31
       35560.94      -33810.35      -33035.23       21966.67       47062.47
       65862.03       57529.13       10258.78      -41558.53      -87781.09
      -94751.61      -74938.62      -12805.19       65560.59       36506.20
      -48483.83      -57658.11      -34760.96      -25836.47       25628.75
       82120.92       68783.76       42398.43       18964.96      -15316.42
      -21281.94      -26234.76       1372.207       28935.70      -1790.537
      -11124.09       2007.312      -21972.88      -46614.56      -20379.23
       10028.27      -12507.31      -30951.89      -25892.50      -5285.066
       9266.125      -42149.69      -71307.62      -308.4375       60932.28
       80903.98       65518.12       7689.655      -8422.066       2495.809
      -13453.24      -13352.47      -14498.98       1777.895       28487.60
       4610.719      -35391.05      -48716.17      -20632.26       30669.59
       83932.53       110236.8       53861.38      -45740.17      -80749.44
      -38476.72       17292.30       31625.81       10627.04      -16568.73
      -40340.17      -25021.07      -2608.449       10185.08       11120.00
      -12167.18      -37932.16      -32749.08      -13236.27       25075.41
       72665.12       59211.21       15422.02      -3468.346      -406.3594
       3754.579       3986.941      -2828.078      -39817.75      -52569.25
      -23668.55      -1643.438       15437.43       23111.70       10940.85
      -14366.92      -46537.81      -39836.24      -4279.295       10651.80
       6405.244      -354.3008      -13203.70      -21275.30      -388.2734
       40473.90       44835.68       25942.99       32096.95       26362.39
       16453.90       21575.72      -5710.836      -13544.80       1501.430
       12651.45       38770.98       8105.594      -48057.19      -33288.68
      -19965.14      -14474.46       11233.79       778.5234      -25761.14
      -32812.38      -27874.60      -10216.94      -1142.223      -1271.078
       20815.66       39653.20       31287.55       37273.89       17562.22
      -33655.19      -46113.95      -35934.28      -19755.86      -867.2734
       21241.55       44237.64       43216.55       18864.88      -2151.551
       3096.883       14824.02       25510.07       18950.04       12702.72
      -2092.109      -34839.17      -44256.67      -41284.91      -50389.97
      -47742.28      -38582.04      -14572.57       31850.48       45447.32
       16875.46      -12335.02      -23652.85      -4081.680       32407.88
       51577.35       40263.86       8718.918      -11912.00      -7062.855
       4818.664       18613.31       11870.68      -264.5649      -1691.169
      -2827.915      -1755.148       12704.47       19770.79       4701.203
      -12299.28      -19046.92      -17756.52      -17644.99      -5390.973
      -5211.531      -42466.05      -58063.12      -15752.45       39194.48
       52901.04       26928.34      -5920.562      -23992.02      -24807.29
      -3351.859       22533.27       49871.16       58497.41       45263.41
      -672.9062      -59712.73      -64206.54      -25258.05       22375.61
       50583.17       35721.97       5322.875      -5437.789      -17196.81
      -21313.08      -2278.213      -4140.031      -20463.79      -27233.20
      -5229.742       18957.24      -3393.430      -26745.65      -15032.70
      -1458.688       35587.34       65088.91       28427.70      -16863.86
      -45012.09      -52550.55      -9806.469       32978.93       46181.48
       35380.23      -149.8438      -45188.85      -43282.11      -1532.867
       24814.16       13617.14      -10133.53      -13251.15      -12764.27
      -22363.49      -28989.07      -7033.297       28281.93       32122.70
      -1825.047      -30814.21      -24822.80      -2923.820       30924.88
       43368.45       18983.43       9651.092       14204.40      -559.0195
       6933.629       19950.62       21691.47       37487.28       12877.25
      -37924.37      -40588.79      -21309.13      -1822.656      -12084.80
      -21288.08      -21004.71      -21444.08      -3193.755      -7167.270
       8944.969       32025.30       16106.96       7465.320       30129.39
       60592.52       37045.52      -26558.11      -55240.18      -42778.88
      -3674.297       49532.22       62901.54       21898.67      -46583.88
      -84153.89      -63119.02      -24400.18       5464.934       23561.79
       5621.115      -8811.168       10744.69       20451.59       37583.52
       56426.34       29736.60       2553.551      -4431.258      -12215.95
      -8977.453      -11635.69      -25496.55      -29262.80      -36327.74
      -18697.68       6494.278      -2695.852       4721.164       31900.45
       32140.09       18637.90      -293.4922      -8984.711       235.6016
       12212.33       6732.711      -17720.30      -30324.15      -34189.47
      -40551.92      -9391.207       11122.22      -16869.54      -25702.95
      -17012.49      -4042.422       15750.44       12753.14       19070.26
       38818.07       25168.95       4028.465      -1641.691      -16736.24
      -20989.33      -4678.203       25373.39       41789.17       29442.35
       13768.35      -3938.682      -9441.848       7844.867       19962.92
       22688.12       16334.12       1573.438      -16237.99      -33094.39
      -30980.71      -13784.63       2349.312       29104.79       24840.89
      -12229.35      -10420.38       11832.77       15260.07       12559.92
       6364.273       14663.52       12225.75      -21690.70      -40816.08
      -40083.09      -44165.91      -40228.61      -24052.39      -7683.193
      -1333.869      -1826.074       3940.068       9590.133       10838.77
       26844.52       48943.92       56439.62       46975.02       18585.92
      -12074.12      -19069.70      -25393.24      -20311.30      -242.4590
      -3967.906      -18620.15      -16208.26      -5831.404       8217.678
       16148.41      -7099.148      -26812.34      -31764.92      -43561.35
      -16358.38       33764.20       51977.63       45187.12       24124.61
      -5938.531      -14267.90      -13610.80      -17537.95      -1903.688
       13801.62       12138.43      -5602.023      -25532.99      -28556.51
      -34573.25      -15109.45       37154.80       67026.09       75439.29
       61136.86       4343.273      -24366.95      -1010.906       15383.01
       25589.23       34758.45       25037.89       14019.16       4962.141
      -13651.67      -30171.39      -35899.66      -46173.48      -48901.83
      -27139.17      -25621.66      -54661.61      -67220.56      -70250.12
      -72821.81      -76603.81      -74087.97      -61076.22      -40779.59
       5697.078       41743.05       37377.39       14647.14      -34769.77
      -63116.61      -18954.52       44211.72       73820.98       70162.70
       48730.47       28908.23       19514.34       26987.45       33863.38
       32553.51       34339.45       26708.33       33079.95       54161.78
       59033.93       39573.91      -3235.234       3746.438       101038.9
       211864.6       218393.2       79587.25      -114408.6      -292427.9
      -461010.2      -538615.6      -426997.3      -217720.2      -64314.59
      -26371.38      -132546.2      -322960.0      -454331.0      -428376.2
      -222334.8       45796.22       175882.4       116859.2      -1972.656
      -8577.500       223425.8       628670.2       895393.9       786302.6
       405350.0       41732.76      -44070.38       196415.6       530345.2
       733400.2       689247.2       333161.6      -197092.9      -547986.0
      -520493.1      -239657.6       39932.20       71942.75      -166614.6
      -471716.0      -654025.0      -591174.5      -318204.8       5167.688
       249129.2       233816.0      -34150.94      -223063.9      -199264.1
      -74003.44       73314.00       161799.6       216808.9       276369.7
       226546.5       57175.44      -150406.6      -319606.3      -293276.1
      -19664.94       300872.1       407336.5       276742.6       68174.91
      -143797.8      -242582.3      -146774.0      -9743.445       45152.44
       41048.19       52851.12       129483.8       209030.3       210864.6
       103764.4      -61443.62      -174188.5      -146680.9      -21488.56
       75489.30       85614.72      -13289.56      -122454.8      -140621.4
      -133532.5      -141206.6      -147826.1      -192206.6      -194958.6
      -101752.6      -16854.31       90685.31       209258.1       224334.3
       159777.7       71456.61      -28256.75      -68526.73      -298.8750
       132817.9       242757.1       254888.9       185087.3       108192.6
       7674.906      -109502.0      -133252.0      -42267.41       67755.47
       128501.6       174968.2       198358.8       109226.1      -67921.62
      -225419.6      -310337.2      -333611.8      -275958.8      -146743.8
      -22368.15       22990.38      -82004.12      -202376.9      -182659.4
      -76426.75       72546.75       204621.1       252796.7       196427.6
       9016.250      -166445.7      -148419.1      -29461.12       76041.44
       93495.83      -5200.125      -73521.09      -73150.23      -33128.50
       71703.03       146187.5       103937.3       11220.78      -43226.43
      -18842.53       43793.69       70468.56       81466.32       67429.80
      -9508.000      -104048.9      -135681.2      -84566.23      -4069.562
       64320.09       73095.48      -7871.688      -92312.27      -85611.49
       6379.438       91036.78       119863.4       102659.1       34426.39
      -59747.91      -117306.7      -111541.6      -100321.6      -85364.06
      -22619.88       49415.75       77803.50       72743.52       61268.56
       11630.95      -59619.73      -64872.64       1565.031       77373.94
       131424.2       163792.3       172869.9       149848.7       90988.38
      -11116.78      -132644.3      -196240.9      -163828.2      -97230.74
      -41320.53      -13130.59      -34071.72      -87178.89      -102726.8
      -50664.28       317.6055       20306.80      -2069.375      -73104.31
      -127619.9      -115359.6      -38229.56       68503.75       142102.4
       145502.8       102696.5       48778.38       25790.06       61333.38
       120554.4       129209.4       72799.91       2333.906      -49976.41
      -68813.21      -47239.77      -12005.78       20307.67       32435.64
       26306.29       12314.26      -13590.85      -32365.30      -53398.77
      -62450.98      -56907.41      -62856.48      -63425.70      -63636.83
      -39461.03       26224.31       66111.45       29289.62      -51721.12
      -124923.3      -123835.0      -2881.875       176072.8       282069.6
       237686.9       103217.4       3322.477      -24802.57      -16769.18
      -9159.438      -25507.87      -37823.30      -36995.58      -57421.53
      -73110.52      -48067.23      -11000.06      -15650.41      -72352.78
      -124971.9      -116654.9      -61023.59       14815.12       69407.83
       62081.24       21288.31      -1923.078      -17544.58      -43809.27
      -48250.88      -17478.67       26971.59       64434.72       91775.84
       101258.8       78510.03       12852.44      -88186.91      -162525.7
      -171051.1      -130076.6      -55711.59       13545.73       42438.46
       42574.81       23551.79      -4446.895      -14777.03      -5896.055
       7395.031       41785.78       83406.94       94399.69       86320.12
       81991.45       80489.31       80316.81       71337.30       47688.48
       20843.20       17711.73       31865.83       35892.17       27796.92
       12481.34      -6693.359      -38539.72      -82112.25      -97303.19
      -58429.14       9873.523       41118.92       22142.08       11069.07
       11366.30       5711.695       14406.88       49594.72       89768.42
       72277.53      -625.4219      -47718.03      -62045.66      -67660.38
      -61092.02      -60413.03      -66609.22      -78432.50      -98191.69
      -96518.36      -63511.27      -13313.75       52191.09       95987.12
       110258.8       124120.1       129275.4       125093.2       85703.32
      -2664.906      -82716.31      -128690.7      -117721.4      -72454.66
      -61320.22      -91332.25      -143221.7      -167125.8      -133886.2
      -68949.69       3799.266       48175.16       69146.66       85390.16
       95664.91       117510.5       130913.2       105769.5       53984.29
       7442.879      -4203.016       10004.14       25090.20       37087.25
       32140.64      -11058.58      -63100.98      -66780.34      -16260.47
       58636.50       122995.7       128430.2       70271.20      -2048.703
      -30907.49      -6013.453       38578.12       65182.87       49966.69
      -1772.391      -44317.54      -44471.20      -32465.77      -31886.91
      -42780.00      -80023.69      -125518.1      -139451.1      -122441.9
