     0.02500000      -1130142.       791730.5      -12345.00      -12345.00
      -29.99001       216.0100      -17.39000      -12345.00      -12345.00
       0.000000       12.97000      -12345.00      -12345.00      -12345.00
      -12345.00      -12345.00      -12345.00      -12345.00      -12345.00
      -12345.00      -12345.00      -12345.00      -12345.00      -12345.00
      -12345.00      -12345.00      -12345.00      -12345.00      -12345.00
      -12345.00      -31.02070      -68.74750       1316.000       0.000000
      -31.54000      -68.94500       0.000000       103500.0       0.000000
      -12345.00      -12345.00      -12345.00      -12345.00      -12345.00
      -12345.00      -12345.00      -12345.00      -12345.00      -12345.00
       60.57094       18.14020       198.0382      0.5446032      -12345.00
      -12345.00      -1.856624       0.000000       90.00000      -12345.00
      -12345.00      -12345.00      -12345.00      -12345.00      -12345.00
      -12345.00      -12345.00      -12345.00      -12345.00      -12345.00
      2008        49         8        51        21
        90         6    -12345    -12345      9841
    -12345    -12345    -12345    -12345    -12345
         1         7        13    -12345    -12345
    -12345    -12345    -12345    -12345    -12345
    -12345    -12345    -12345    -12345    -12345
    -12345    -12345    -12345    -12345    -12345
         1         1         1         1         1
TALA    -12345          
        -12345  -12345  
-12345  -12345  -12345  
-12345  -12345  -12345  
-12345  -12345  -12345  
-12345  -12345  -12345  
-12345  -12345  BHN     
ZL      -12345  -12345  
[...]
       316.1018       170.6631       287.3130       146.5850       265.2705
       120.2646       231.8783       89.29318       206.0972       61.14532
       171.6684       28.27991       142.7455      0.4881592       105.8764
      -39.12739       71.85297      -69.54826       40.18808      -105.9206
       4.525574      -137.1521      -28.43845      -167.6115      -57.76355
      -198.0340      -90.28528      -227.8939      -116.9551      -255.1752
      -147.0012      -286.9803      -174.4338      -308.2858      -196.5828
      -333.2856      -220.3262      -352.5715      -243.7095      -373.1113
      -258.5530      -389.8201      -279.4336      -405.2765      -285.9761
      -410.0287      -291.7046      -411.6705      -294.7252      -414.3702
      -294.1580      -407.6021      -288.4243      -401.5455      -279.4512
      -391.1240      -268.3702      -377.8517      -253.7273      -359.8416
      -232.5337      -337.9274      -216.3738      -322.5140      -197.0381
      -298.6416      -174.3783      -277.5740      -148.2062      -249.5630
      -127.5952      -226.6151      -103.0229      -199.5990      -76.04901
      -172.5509      -50.49207      -146.6418      -24.90338      -119.2132
       8.569458      -84.68726       33.99584      -56.85692       67.62798
      -24.40054       94.70883       1.948761       125.4915       35.74289
       152.9446       64.71185       182.7062       92.50568       207.5506
       119.5505       237.2811       146.9916       261.3668       173.4791
       288.5320       197.2913       310.8428       224.7106       334.1980
       246.2570       359.1995       269.2600       379.8566       295.1421
       402.2991       312.4904       420.6893       334.3866       440.1824
       351.5392       457.0746       368.5844       472.2260       382.7321
       485.5365       393.9474       493.9739       402.1761       503.2686
       408.2603       502.6111       411.0430       506.3982       417.3470
       516.7056       423.8727       519.4253       426.1353       521.6692
       433.5032       528.5481       436.4895       527.3883       435.5188
       526.4547       435.2877       528.0781       439.0122       523.4875
       432.1799       522.6277       431.0857       514.3755       424.7748
       509.9019       420.4919       507.1062       418.1853       503.7780
       419.0750       506.2880       423.2942       511.5977       429.2520
       514.7484       431.1028       520.0927       436.5088       520.7195
       438.0664       526.2911       444.8387       529.1440       446.4242
       531.0405       456.0989       540.5691       460.5835       548.2355
       463.6802       544.0601       464.4126       547.7678       469.2935
       552.4432       471.1235       553.1659       477.2665       555.0713
       479.9863       563.1128       485.4296       567.9844       490.3615
       573.3335       499.4451       578.8320       505.8560       586.2823
       512.0214       595.6909       527.7993       604.9944       533.0427
       614.6381       545.2941       628.1914       559.7438       640.0492
       574.0684       657.2432       587.6404       669.7228       605.8779
       687.3722       623.3574       707.1765       642.2173       719.4458
       656.4895       733.8167       669.3828       752.2109       694.5537
       772.2544       707.0935       790.1885       732.8044       811.8525
       750.9119       828.2375       765.6167       841.4458       776.2285
       850.2109       788.3501       864.7170       799.9561       874.7102
       811.1519       877.6633       814.4507       883.9763       820.3188
       887.1565       823.1079       893.1973       834.2715       899.3638
       833.1646       898.0293       837.6370       900.6582       839.4194
       898.7607       836.6528       900.5325       837.4614       895.0674
       831.9734       890.9807       826.0901       884.1724       820.7581
       873.9277       809.8462       873.2124       809.4197       859.8816
       793.8459       850.0205       789.6167       842.3838       776.4341
       837.4111       770.4678       817.7734       751.3784       806.8623
       747.5442       793.6267       720.0283       779.6331       720.3669
       756.9785       679.6379       750.5166       703.6698       657.5432
       308.8428      -508.5098      -2890.299      -5610.598      -4819.088
      -2016.281      -11777.64      -38649.22      -60199.03      -60721.20
      -46627.64      -9346.273       37823.22       21524.97      -62535.72
      -103017.9      -57329.45       28968.12       100855.0       107635.2
       66627.17       3808.086      -38834.06       13328.06       69715.36
       79185.34       47295.56      -15238.91      -25403.53      -29214.53
      -20166.77      -23117.06      -32797.05      -21826.52      -28718.82
      -13957.07       6159.875       34664.02       31335.57      -19121.27
      -57011.91      -58454.91      -6329.844       72909.88       121298.2
       60970.80      -58185.84      -138083.5      -129752.3      -18227.31
       109478.6       112039.2      -4930.469      -78627.36      -86703.00
       3369.625       92229.38       84167.08       47699.38      -23213.16
      -49552.62       16047.30       66854.73       25231.94      -56373.33
      -88292.73      -47855.47      -21610.72       10905.81       118277.2
       114923.6      -1909.828      -60952.88      -99757.95      -82690.59
       35091.03       117363.3       101387.7       39704.00      -48726.06
      -133484.7      -117932.3      -2689.359       86104.95       73294.91
       16473.72      -1550.977      -24652.17      -62716.07      -38542.95
       17384.69       47212.72       87349.67       83135.27      -15502.44
      -96196.12      -107045.0      -58072.49       5798.188       35765.06
       8728.091       1656.695       176.7500      -68999.67      -59416.36
      -1348.906       42905.78       86056.64       66767.33       30192.41
      -28855.50      -79772.48      -44500.09       2522.672       43925.84
       91980.91       64905.65      -17486.12      -56401.35      -21012.89
       14656.20      -13812.95      -35042.77      -6702.344       19955.51
       9619.430       8435.438       21801.73       5818.654      -8403.484
       11344.38       57708.23       47168.02      -13409.12      -52439.94
      -61814.06      -66652.73      -67206.58      -1030.398       25011.10
      -18894.12       8560.426       25086.12       5907.066       2524.867
       4451.500       47398.34       69924.19       61616.46       24864.24
      -8563.471      -10051.38       2684.691       29835.29       2970.062
      -41592.31      -56905.84      -49532.16      -50143.38      -17340.25
       24527.80       2423.039      -24675.15      -16582.97       21424.99
       36141.03       34376.83       45656.00       41462.82       8495.023
      -25180.28      -33474.52       9009.721       13783.64      -10843.05
      -7002.234      -47875.59      -55027.72      -28375.13      -28512.39
      -8437.009       1568.809      -621.5781       24063.95       31684.84
       19504.62       38781.81       41001.82       21207.06       31229.59
       24530.87       12812.71      -1082.500      -42316.97      -78590.52
      -69122.31      -48484.41      -13612.59       21508.24       7354.824
      -1204.984      -25716.78       4726.938       80577.62       105215.6
       84580.22       37463.07       849.1250      -40256.92      -43918.72
      -18268.13       1297.583       10438.48      -6668.711      -27835.08
      -52538.51      -40111.63      -26075.13      -21077.14       1805.156
      -9797.933      -7085.914       26649.97       43052.74       34406.00
       14669.24      -341.0857       1073.244      -3477.829      -10067.41
       5235.180       32839.26       30632.46      -22953.69      -56164.64
      -27161.43       17908.06       30393.16       9026.625      -21624.86
      -12935.38       3698.090       10326.09       11116.26      -8553.445
      -6095.551       7218.430       17003.53       33982.21       21284.33
      -2649.492      -35482.26      -45819.99      -1592.482       10620.16
       9854.234      -9872.555      -33454.78      -36815.76      -27462.82
       13143.99       27338.39       13454.92      -9481.512      -18993.29
      -6476.113       19586.43       23244.96      -10015.94      -2099.930
       25327.02       25748.38       23731.25       8290.856       1362.652
       12334.56      -1180.094       15254.94       24791.05      -7576.680
      -19847.55      -31993.70      -31907.15      -9674.456       4481.168
       4804.842       12298.94      -345.1523      -17491.23      -24389.32
      -32287.53      -11368.40      -6108.672      -30370.75      -9784.758
       23064.48       7809.436      -5972.930      -5081.594       24876.16
       37279.20       12339.30      -16788.02      -19540.32       10425.82
       6163.984       42429.77       36590.41      -27150.67      -32134.93
      -21724.54      -9214.896      -5688.902       1461.719       13498.56
       11598.85      -27969.53      -32158.72      -4872.352       26622.83
       29721.72       1730.926       21091.98       2097.234      -33674.29
      -38245.87      -7932.198       6928.418       664.3984       9588.389
       821.1699       13425.30       605.9844      -27043.80      -12881.56
       9948.875       27202.33       22229.28       21636.16       3725.234
      -25270.20      -53427.48      -62974.80      -11614.74       16233.42
      -2559.125      -59961.98      -68330.80       2563.000       35463.19
       53078.99       53356.37       4450.781      -27557.91      -1576.781
       27089.38       32549.23       41271.09       23196.57       6577.461
      -11752.45      -31802.15      -19493.92      -32044.09      -22394.59
       12687.94       1313.438      -15245.12      -19535.20      -11417.57
       6647.641       12901.45       20266.16       33786.79       25994.55
       3955.312      -34495.62      -64092.72      -44341.22       613.9238
       21825.94      -19741.20      -38660.85      -20332.02      -26557.07
      -7110.969       29474.30       43081.23       42073.43       4360.609
      -30677.12      -12267.91       20288.02       32097.92       41723.02
       28765.80      -22945.62      -71315.33      -96075.72      -59676.02
       4033.266       33457.39       15366.83       12858.09       62221.12
       75159.02       53864.09       15144.84      -2651.492       35838.97
       42367.46       33473.23       20691.16      -46759.97      -82180.89
      -80680.59      -76059.24      -15313.36       10923.79      -17631.55
      -29609.33      -40986.61      -34877.84      -6452.012       16937.79
       13179.24       21498.88       57375.88       54643.41       15665.98
      -28298.86      -35906.09      -10398.50      -3360.820       11900.12
       29900.68       26033.19       126.7812      -53129.66      -49983.11
      -5974.703       29414.37       45436.32       19410.42      -20894.58
      -51407.37      -37755.48      -11992.05       26140.42       59164.22
       52860.11       28650.14      -15025.06      -34084.15      -18697.33
      -6058.404       7238.047       12827.57      -6145.887      -4564.160
      -10902.41      -33939.00      -33285.68      -28058.62      -5486.359
       28216.45       30966.73      -3425.523      -33330.46      -16970.84
       40679.50       57006.72       41198.60       27183.34      -30458.72
      -40837.43       8979.465       19705.30      -10054.02       2437.422
       15003.47      -28078.85      -8723.086       25406.63       4887.023
      -17897.80      -25764.64       4810.371       21636.21      -8121.980
      -24917.39      -9727.227      -6722.633      -28952.47      -39096.64
      -46127.38      -55791.77      -64795.81      -56153.64      -26387.69
      -48116.71      -39839.89       20747.57       33938.41       41044.50
       52594.44       53428.31       68438.36       62286.34       41663.67
       41114.55       20855.47       27791.50       81303.62       120618.2
       98308.06       41904.15       7786.078      -40090.14      -6703.812
       104122.8       155346.8       123550.7       39303.98      -36613.03
      -118453.2      -188840.1      -198669.8      -165011.7      -113766.5
      -30084.61       35811.03      -39933.12      -156225.2      -181782.7
      -106917.2       33402.88       226222.8       496511.5       773734.0
       791730.5       547018.2       473036.2       595843.0       635559.8
       543004.0       425279.1       367685.8       371031.1       363287.0
       315563.1       206390.2      -177756.0      -679185.0      -1001648.
      -1130142.      -979062.9      -648066.1      -416075.5      -404070.9
      -481625.2      -476811.8      -615048.5      -855574.8      -785727.3
      -396495.1       85897.62       373006.9       355352.5       145643.0
       4028.500       320911.4       663653.4       401670.1      -104137.9
      -413875.3      -359857.2       28899.38       418102.8       553286.1
       414607.8       63749.50      -239570.4      -270335.0      -232592.4
      -186278.2      -80474.12       96346.88       316694.0       272880.4
      -63194.19      -262496.5      -263438.2      -194574.4       75699.88
       410990.8       586723.1       530299.0       183837.2      -191704.9
      -352469.9      -241696.1       72280.50       342397.3       345936.5
       191251.3       34474.12      -124059.5      -110205.2      -178192.9
      -249204.5      -268835.0      -368443.1      -311596.2      -120706.8
       169226.4       301611.4       173515.7      -82663.56      -206092.3
      -147941.7      -87461.50       75954.56       221430.2       162199.6
       160245.9       199862.8       171956.7       182147.2       149803.1
       29383.31      -154733.6      -289420.6      -292195.7      -187176.7
      -39078.85      -2855.375      -94606.47      -116442.4      -95958.60
      -42256.81       96672.81       120079.3      -63006.50      -247425.0
      -326998.3      -287362.7      -73993.06       148306.0       260815.3
       246549.7       89304.56      -84762.94      -155577.1      -172009.5
      -89451.06       138004.9       379996.2       442079.3       268192.6
       119312.3       65771.51      -30328.09      -52483.69      -59652.55
      -84049.12      -39720.05      -59062.61      -79374.45      -58263.39
      -48614.09      -95686.75      -128229.0      -79033.00      -83499.59
      -80671.84      -36287.44      -21872.67      -21012.05      -24226.00
      -28238.55       49579.88       139510.0       211570.2       205884.7
       54400.44       11045.16       112386.6       120763.0       52774.19
       66791.81       80280.30       79633.59       31676.41      -106076.4
      -166910.4      -146554.5      -98348.44      -54941.31      -91024.81
      -146850.2      -130641.3      -90222.66      -56691.03       64838.38
       192507.8       183260.0       116170.7       16472.84      -52749.64
      -5147.906       81055.56       109448.2       151148.9       178864.7
       130042.6       41177.76      -36301.91      -31256.06      -73060.72
      -149734.3      -166607.9      -118443.1      -61987.00      -96097.66
      -122692.0      -68822.93      -7195.129       1873.094      -50337.56
      -163420.2      -188461.8      -74450.22       41931.31       95158.22
       119212.8       155297.8       114391.6       73161.34       96132.50
       78981.56       92906.25       123267.5       118479.7       129646.3
       124359.8       6718.188      -164251.4      -200137.7      -136204.1
      -106735.4      -89281.31      -100416.2      -35491.22       89896.97
       87643.22       47608.08       54163.34       65274.04       20637.47
      -18469.82      -19490.00       45739.06       104233.0       19894.12
      -52279.34      -67317.09      -93797.25      -125912.5      -117516.2
      -97780.53      -90201.34      -87702.94      -85026.00       16224.66
       102382.3       152723.4       221634.6       192686.3       117339.9
       23664.88      -50895.09      -70532.95      -37027.88       573.5254
       385.0078       23093.44       28579.77      -14984.06      -49462.75
      -53689.00      -58598.94      -100189.9      -115718.9      -23354.58
       69316.98       66348.78       20131.89      -42205.61      -62901.59
      -64681.62      -75162.88      -33869.83      -1184.379       3325.414
       13257.24       29355.57       2680.781      -59961.88      -72908.54
      -46791.23       38308.38       134655.2       147063.8       86981.33
       21995.55      -20626.20      -25729.02       19390.61       21900.34
      -30319.21      -30153.20       18205.45       35428.77       31989.92
       7518.047      -56233.92      -67859.30      -32832.44      -10127.36
       9581.824       15321.80       29539.45       48673.77       39788.11
       31425.83       31129.94       41901.86       55718.41      -3101.719
      -76985.56      -119145.7      -153401.2      -106306.4      -50507.70
      -38444.28       18043.92       62567.08       31366.60      -11927.93
      -17664.14       25994.06       66083.03       95160.41       142028.1
       136999.0       94493.17       57053.83       18830.96       10621.95
      -10933.50      -44891.00      -73254.48      -98978.07      -52895.87
       19983.18       11595.59      -15793.33      -28516.16      -36064.86
      -34739.25      -57226.73      -60232.74      -24237.28       33245.16
       69024.39       68325.05       79778.28       67908.73       11845.78
      -17108.94      -56759.69      -126300.5      -90029.02       18890.72
       71602.95       69477.52       28572.28      -8635.578      -30949.93
      -20823.02       45885.38       118444.0       120058.5       19723.58
      -10919.91      -13160.72      -55906.61      -47127.00      -35829.12
      -34629.53      -68630.91      -103704.6      -58324.89      -3920.234
      -3552.273       15077.52       47286.44       22337.04       16738.66
      -13088.39      -62841.00      -59201.22      -53705.09       30890.53
       107163.8       98098.64       80137.23       59926.98       30967.33
