     0.02500000      -712697.1       634337.4      -12345.00      -12345.00
      -29.98999       220.0100      -21.69000      -12345.00      -12345.00
       0.000000       16.06000      -12345.00      -12345.00      -12345.00
      -12345.00      -12345.00      -12345.00      -12345.00      -12345.00
      -12345.00      -12345.00      -12345.00      -12345.00      -12345.00
      -12345.00      -12345.00      -12345.00      -12345.00      -12345.00
      -12345.00      -30.65860      -69.43630       2628.000       0.000000
      -31.54000      -68.94500       0.000000       103500.0       0.000000
      -12345.00      -12345.00      -12345.00      -12345.00      -12345.00
      -12345.00      -12345.00      -12345.00      -12345.00      -12345.00
       108.3819       334.2484       154.5009      0.9744704      -12345.00
      -12345.00      0.6845810       0.000000       90.00000      -12345.00
      -12345.00      -12345.00      -12345.00      -12345.00      -12345.00
      -12345.00      -12345.00      -12345.00      -12345.00      -12345.00
      2008        49         8        51        25
       390         6    -12345    -12345     10001
    -12345    -12345    -12345    -12345    -12345
         1         7        13    -12345    -12345
    -12345    -12345    -12345    -12345    -12345
    -12345    -12345    -12345    -12345    -12345
    -12345    -12345    -12345    -12345    -12345
         1         1         1         1         1
TOCO    -12345          
        -12345  -12345  
-12345  -12345  -12345  
-12345  -12345  -12345  
-12345  -12345  -12345  
-12345  -12345  -12345  
-12345  -12345  BHN     
ZL      -12345  -12345  
[...]
       41.48679      -202.7657       31.47354      -217.2058       22.68250
      -224.0375       12.44095      -233.1813       4.371246      -243.8049
      -4.316101      -250.6397      -13.28815      -258.0048      -18.40814
      -267.4889      -28.93671      -273.4555      -33.94611      -283.3531
      -42.08051      -287.3655      -50.35443      -299.0115      -57.32983
      -306.6866      -66.71967      -316.9744      -74.76239      -323.0709
      -84.30750      -331.5605      -88.82861      -341.1290      -99.34003
      -348.3523      -106.9764      -356.6226      -113.6431      -362.8766
      -118.9588      -367.8732      -124.0181      -375.0424      -133.3223
      -381.8251      -136.3303      -384.3600      -141.7809      -388.4802
      -141.3179      -390.6482      -144.5115      -393.2682      -149.6576
      -399.7448      -153.2861      -403.8964      -159.5671      -407.5757
      -160.0063      -406.4843      -159.4474      -408.6249      -163.2981
      -411.9801      -165.5178      -414.3663      -167.1505      -415.6489
      -170.7921      -415.0979      -164.4836      -413.0355      -166.0071
      -410.5599      -161.9599      -404.2171      -149.9775      -391.2619
      -140.9110      -382.4154      -130.3701      -369.6884      -117.7584
      -362.2251      -111.2150      -351.8844      -98.56262      -338.6581
      -88.12061      -330.7504      -79.30603      -319.4496      -65.40106
      -308.1062      -55.14893      -292.5784      -38.87433      -279.2042
      -22.17920      -264.2930      -10.13422      -247.0413       11.70804
      -224.8949       33.53842      -204.4584       52.61362      -181.7836
       79.75912      -153.4049       106.5531      -126.0487       133.6597
      -100.4907       159.6178      -71.68695       186.8866      -47.22800
       212.6717      -19.53574       240.3541       6.355652       268.2206
       37.35107       298.9053       63.38501       323.6182       87.84723
       347.8937       113.8939       375.5751       140.6442       398.4335
       159.9165       421.7908       184.4473       439.5610       199.9374
       460.2455       223.2488       475.7715       234.9526       492.2701
       250.7582       501.1813       258.1376       511.6814       270.1093
       520.0645       274.4709       526.7234       283.8662       532.9966
       284.6040       534.5522       295.5059       543.8594       294.3812
       544.0762       305.6195       550.7292       299.1517       547.8547
       314.0168       553.6176       291.7490       562.5520       333.7026
       601.2734       796.0737       1828.176       1949.260       4110.803
       7731.750       11354.93       13599.46       6957.639      -311.0938
       10879.91      -1956.863      -28465.81       4352.859       30846.47
       12064.44       10757.41      -15183.23      -37533.34      -7708.316
       11034.34       2377.616      -1811.476      -188.4805      -6982.055
      -15886.83      -19325.17      -8272.094      -316.8438       4400.340
       17850.14       77.90234      -13952.41      -14937.66      -15952.26
      -852.7188       15522.54       4234.762      -15477.90      -3651.908
       1769.930      -11776.71       6709.938       32843.23       19737.09
      -12511.00      -9598.400       9560.289       20728.38       32404.39
       10511.64      -12170.00      -14909.39      -13754.52       17255.41
       14464.89      -18863.27      -20068.82      -8542.609       8596.061
       3935.387      -24387.98      -13724.66       9118.344       23638.91
       20449.16      -10970.76      -20183.68       7437.664       35319.60
       14479.64      -13688.69      -6652.258      -6474.836      -7369.182
      -3580.252       914.7305       9891.434       17237.36       516.6875
      -23169.00      -17599.76       5893.367       22549.59       23023.59
      -2304.195      -23385.45      -19791.55      -4329.289       27279.87
       34280.08      -7592.902      -20239.64      -4211.169       1208.091
       1034.066      -7903.229      -7565.519      -312.5674       1702.454
       5320.617      -13502.68      -19327.72       9892.855       22121.44
       12242.93      -9040.855      -18428.61      -3423.166       2272.732
      -3605.374      -6260.340       4930.326       5481.676      -3807.357
      -3646.414       633.4180       12172.97       20081.38      -276.9336
      -20445.35      -12467.33       5339.021       7685.857      -7559.221
      -11252.11       664.8684       571.4736      -3018.200      -2642.662
       9134.638       9001.316      -9210.188      -1745.002       10772.66
       1122.914      -7457.559      -10690.06      -3157.512       6206.422
       4689.461       9438.645       17644.34       7526.135      -7509.195
      -14101.27       592.3906       13297.45       8128.843       3074.566
      -914.0664      -12681.84      -21372.76      -9105.996       3017.277
       7990.428       12599.25      -5017.992      -14442.64      -4336.427
      -4687.816      -5968.014      -5643.941      -2070.441       9263.584
       12018.29       4857.516      -13480.91      -16715.78      -3115.193
       8074.412       6472.576      -2834.543      -3269.965       11402.18
       16079.54      -471.2148      -6617.242      -7588.602      -10073.03
       7974.047       12255.79      -2535.146      -6539.967       2714.004
       13781.55       7661.498      -7333.223      -14225.14      -8156.008
       6178.254       13197.29       2468.758      -15606.13      -4811.635
       5084.022      -2539.893      -4808.948       2560.326       14042.03
       1218.410      -19612.33      -14251.04      -6940.029      -3659.266
       974.0820       11453.17       13847.14      -445.6055       29.95117
       9381.469       5151.452       4660.155       2138.477      -9077.148
      -15991.81      -14897.93      -4958.109       6900.939       8985.979
       3173.619      -6874.721      -10791.08      -8747.471       5629.668
       9026.445      -6541.088      -12008.46      -5326.176       9499.457
       15042.79       2756.795      -4146.878      -5818.079      -3580.754
      -262.4053       1813.230       11047.68       18299.44       7499.037
      -7181.094      -12167.16      -11552.36      -1072.477       22728.71
       28986.04       3290.375      -27235.75      -27211.27      -10154.25
       3083.789       10299.55       5144.539      -7227.195      -11309.97
      -11809.70      -11911.82      -4839.983       2311.592      -2258.369
       4777.801       5243.672      -16326.99      -9371.105       12096.38
       12750.49       224.7124      -4627.988       5680.459       8562.758
       5324.229       9528.367       10694.61      -2181.719      -11998.00
      -12698.03       3585.191       14011.05       8818.700       5003.395
       2735.617      -9624.926      -23440.01      -6849.836       14818.59
       3860.754      -9095.797      -10197.64      -6027.673      -3095.758
       2386.289       12323.59       19170.59       26026.75       15015.82
      -9694.605      -13705.85      -8393.733      -986.0273       7828.619
       3262.753      -1812.862       1965.664      -7460.916      -12905.67
      -559.0918       7819.990       3721.236       3137.260       5020.761
       3450.398       1060.746       4045.881       7642.738      -2748.863
      -11265.44      -11963.70      -9121.941       9557.605       18543.94
       7355.141      -12165.48      -26226.59      -10774.23       10991.40
      -479.2666      -7955.509       2527.867      -5711.461      -26625.83
      -19730.15       4234.633       19807.33       25077.96       7313.559
      -9124.257      -1404.398       12664.10       23701.34       18778.62
       9623.184      -6504.684      -13816.99       1870.355       11278.90
       8990.281      -3690.062      -15516.12      -16770.06      -20815.76
      -4202.543       15362.84       8084.916       3108.487       2421.612
      -5509.954       1903.769       6868.006       623.7500       15339.07
       19323.62      -6781.531      -26899.85      -18937.24       13348.43
       17566.60      -6330.557      -11501.88       4932.328      -88.97656
      -22087.34      -7882.195       20111.95       18386.19      -1016.256
      -12110.39      -2411.748       4906.777       1562.512       14026.66
       26536.25       14003.33       5326.975       703.9414      -6450.000
      -11046.61      -10406.55      -6189.385       2643.599      -1045.828
      -13382.83      -7430.260      -5333.174      -3426.320       4857.174
      -1397.939      -4183.980      -13296.61      -11795.24       9588.074
       8482.199       7089.910       15676.82       1895.159      -2161.141
       10642.32       11721.95       6850.604       1492.707      -9579.230
      -15450.54      -7222.047       83.78125      -5774.152      -3367.281
       11119.56       13787.61      -5683.632      -11222.92       8264.078
       15593.67       2025.210      -5891.926       3065.887      -8142.109
      -40555.80      -22292.25       10783.48       5655.039       8557.680
       7779.027      -10289.84      -11834.64       3457.238       20148.71
       12313.51      -408.2109       6831.332       13347.18       11161.30
       5224.615      -3204.883      -12303.91      -16456.46      -4614.473
       8499.263       5831.283      -940.2500      -10158.04      -23219.22
      -18601.21      -11458.99       2442.938       21905.95       5822.793
      -24574.31      -17551.07       843.3418       2687.125       10093.69
       18645.57       6997.883       3420.570       21906.18       15502.62
      -2855.115      -10018.27      -8503.254       16444.54       15928.91
       4040.840       8031.321       925.7305      -10003.63      -13215.23
      -12962.80      -14345.14      -6253.292       4455.783      -3987.085
      -4196.375      -6435.078      -24216.29      -23652.80       2575.328
       18306.52       9137.627       703.1230      -8492.115      -12123.40
      -4969.197      -334.6133       8157.969       23298.48       23920.38
      -3674.078      -20618.52      -22467.04      -15397.56       3269.118
       7511.192      -1435.166      -6896.312       1757.914       16033.70
       18586.52       23203.31       23214.42       18027.74       11613.67
       6084.312       2218.920      -3760.568       1974.570       10546.50
       5942.367      -3090.093      -4732.146      -4051.705      -7556.154
      -7153.594      -8136.422      -5989.754      -9017.000      -24230.89
      -35287.82      -18537.25       14840.67       18129.70      -7681.293
      -21639.03      -3678.500       28591.64       25012.64       2898.422
      -19658.14      -46825.51      -27940.88       9899.162       11910.67
      -6352.730      -10821.79       8715.141      -16367.25      -41866.17
      -10137.96       10824.69       24392.01       35130.82       26188.10
       8521.508      -12635.72      -23256.82      -8337.398       21455.80
       31377.27       27530.07       6113.605      -15443.96      -20513.12
      -26936.36      -5087.312       30528.12       29739.86       4199.734
      -23101.19      -39249.28      -35671.53      -13233.63      -2483.172
      -7437.816      -9180.277      -13206.46      -16422.53      -1174.414
       5724.387      -12494.46      -18255.91      -13675.67      -938.8594
       30882.16       45633.39       27954.86       7698.695       13768.23
       26938.30       21727.44       29360.28       32401.05      -431.6797
      -16232.48      -23765.24      -33595.83      -35305.79      -39269.13
      -35964.82      -27955.97      -3884.083       14468.05      -13387.62
      -44718.74      -42616.50      -13145.42       30486.34       52593.07
       38997.28      -1406.469      -54380.01      -41251.00       28392.43
       51469.05       15512.02      -17914.61      -3009.949       15050.58
       13689.33       25094.84       30030.38       10011.55      -22970.92
      -27163.39      -7595.161      -2003.312       439.1836       8976.920
       9640.859      -14594.22      -42972.81      -42025.08      -25650.16
      -5298.096       1193.070      -10268.15      -16204.25      -6193.785
       14664.86       16388.15       678.9609      -11419.63      -13217.74
       4892.582       10821.12      -3660.680      -26795.16      -58543.31
      -86914.06      -98672.22      -104367.8      -116769.9      -120139.7
      -117905.7      -131140.5      -91563.69       71963.41       183486.6
       135151.3       190500.2       319401.5       310053.8       395273.2
       549762.8       582039.6       634337.4       553865.9       355438.9
       327509.2       138489.9      -194492.0      -315649.2      -563602.2
      -712697.1      -499182.8      -464908.5      -556220.5      -626038.8
      -605655.3      -238200.1       110747.2       252135.2       299642.8
       223846.1       247610.6       406017.7       382608.4       200848.4
       1308.250      -272578.2      -320523.4      -49995.93       61578.31
      -51534.47      -137762.5      -139357.6      -73091.53       52259.38
       240079.1       277579.1       91979.71      -31950.06       8951.312
       85882.16       38375.81      -96067.62      -285506.5      -394097.9
      -129986.5       209936.4       214328.0       39203.00      -89890.05
      -110970.7       9500.812       239893.0       380422.4       209252.8
      -75469.31      -177742.3      -169843.4      -130447.5      -76011.06
      -69194.22      -139665.0      -168309.9      -78567.79      -3736.992
       21994.95       12788.22       9658.469       71511.44       114283.6
       132826.7       123020.9       65602.62       70950.31       102900.4
       82656.30       21820.09      -131660.2      -240850.4      -181569.8
      -82880.13       40834.62       109123.9      -26530.69      -148348.4
      -99397.34      -10035.41       56142.66       78653.56       70266.84
       68262.75       125205.5       174411.0       95433.98      -26516.12
      -142857.4      -187960.3      -153023.1      -85355.06       47871.66
       77333.31      -57682.88      -140542.9      -129741.0      -119908.0
      -112431.0      -62131.81       93034.25       272342.3       258954.7
       73421.61      -49209.38      -33770.70       27387.12       75940.59
       85186.01       57825.34      -1719.828       15597.47       110858.7
       70603.47      -58085.78      -133653.9      -176050.7      -130831.7
      -53557.77      -42405.41      -58215.41      -131060.1      -188768.7
      -96635.73       61825.62       131331.1       102823.5       36442.19
      -27253.00      -79513.84      -119467.7      -67285.70       24787.87
       7313.797      -33606.27      -46768.89      -69155.51      -18001.59
       32551.31       44404.19       96953.44       138833.7       125088.5
       73455.62       46172.15       33657.43       28248.33       67871.84
       76851.38       42767.84       5379.465       716.3438       47441.61
       48352.17      -22582.44      -94480.16      -138359.2      -90354.20
       16836.32       25313.36      -20727.46      -20353.38      -9759.317
      -5687.494       4349.194       6833.992      -17889.04      -10592.64
       18491.16       22259.75       59942.55       93856.28       63464.12
       33724.94       14704.20      -23827.48      -38251.24      -8611.020
       14924.55      -6271.188      -40521.39      -62455.95      -35070.41
       48679.84       88370.07       47452.79      -935.5664       4986.508
       27806.22       21787.62       23150.47       61308.69       63326.50
       19795.68       6131.828      -29275.89      -78425.98      -48413.19
      -13864.64      -31403.56      -45365.97      -45865.47      -26022.02
       24635.38       61989.67       35155.00      -23811.28      -49457.22
      -38139.75      -10296.36       16125.38       47661.25       58853.19
       42381.43       2152.703      -47188.16      -37016.42      -14430.88
      -28978.39      -27035.09      -2790.320      -25463.80      -63078.61
      -21097.11       12900.39      -24652.77      -42855.43      -18875.87
       3457.905       3842.062      -210.4961       10096.58       14515.66
       28339.62       44567.03       12336.30      -31013.75      -16512.59
       19546.14       19360.37       13188.48       25591.50       31434.59
       403.5000      -44678.16      -28364.03       19659.12       18651.10
      -19074.20      -30140.38       959.1406       27900.36       32574.88
       11487.16      -24853.84      -33808.53      -8176.219       24348.61
       41608.51       19687.95      -49764.23      -88408.73      -53080.90
      -9801.414       14190.64       48140.08       70249.42       56643.17
       61684.94       91374.75       78771.92       35640.04       28913.88
       36152.49       9433.953      -29189.62      -70680.50      -107870.6
      -122333.8      -123228.5      -117472.4      -93909.12      -71710.80
      -75349.19      -65344.05      -34120.24       688.6875       37025.53
       72478.19       124034.0       144952.5       127625.8       112833.6
       81197.88       48561.02       48279.28       42976.84       9375.631
      -9222.230      -7176.340      -11493.02      -14670.74      -32671.12
      -65241.05      -58732.69      -21627.36      -7842.086      -7105.758
      -7939.594      -26749.98      -48160.25      -62817.83      -51018.18
      -6213.219      -12940.14      -79042.81      -98696.38      -79708.78
      -71915.73      -49114.42       3755.875       43241.56       29391.15
       8376.039       23480.55       59708.44       73336.28       71547.16
       84177.57       56493.68      -2242.258      -13893.72      -6474.891
      -17050.67      -17691.93      -17984.91      -5325.234       30719.55
       48356.78       61176.72       58355.11       30302.76       20207.86
       47960.31       68233.76       45521.81       28302.95       19172.00
      -18238.41      -26269.66       10114.17       18562.16       6753.594
      -23891.81      -68967.28      -90659.89      -85662.11      -45167.11
      -15338.34      -27313.68      -21342.73       19437.73       39534.58
       37081.44       49072.53       65100.09       63319.02       34162.45
