     0.02500000      -297449.4       293211.3      -12345.00      -12345.00
      -29.98999       220.0100      -21.69000      -12345.00      -12345.00
       0.000000       16.06000      -12345.00      -12345.00      -12345.00
      -12345.00      -12345.00      -12345.00      -12345.00      -12345.00
      -12345.00      -12345.00      -12345.00      -12345.00      -12345.00
      -12345.00      -12345.00      -12345.00      -12345.00      -12345.00
      -12345.00      -30.65860      -69.43630       2628.000       0.000000
      -31.54000      -68.94500       0.000000       103500.0       0.000000
      -12345.00      -12345.00      -12345.00      -12345.00      -12345.00
      -12345.00      -12345.00      -12345.00      -12345.00      -12345.00
       108.3819       334.2484       154.5009      0.9744704      -12345.00
      -12345.00    0.004613525       0.000000       0.000000      -12345.00
      -12345.00      -12345.00      -12345.00      -12345.00      -12345.00
      -12345.00      -12345.00      -12345.00      -12345.00      -12345.00
      2008        49         8        51        25
       390         6    -12345    -12345     10001
    -12345    -12345    -12345    -12345    -12345
         1         7        13    -12345    -12345
    -12345    -12345    -12345    -12345    -12345
    -12345    -12345    -12345    -12345    -12345
    -12345    -12345    -12345    -12345    -12345
         1         1         1         1         1
TOCO    -12345          
        -12345  -12345  
-12345  -12345  -12345  
-12345  -12345  -12345  
-12345  -12345  -12345  
-12345  -12345  -12345  
-12345  -12345  BHZ     
ZL      -12345  -12345  
[...]
       333.7424       411.6815       345.6880       422.2704       352.3158
       428.3828       363.1177       438.2107       368.1798       439.4429
       368.4192       443.9214       370.1921       441.4692       365.1572
       432.9187       355.9604       424.3503       347.9785       413.6183
       337.8289       403.7458       326.1541       392.6637       317.3534
       387.0701       311.7914       378.3411       302.4104       368.9661
       293.9559       363.7583       286.2622       353.0638       275.0719
       344.5980       268.4000       335.1692       257.9089       327.1501
       248.5349       314.8378       237.6725       309.1662       234.2750
       300.5562       220.6154       288.0178       207.9240       274.4672
       198.4077       266.3973       185.2712       251.2147       176.5200
       243.2175       159.5179       226.8375       149.2090       215.9506
       138.3115       204.0988       122.3976       190.5297       114.1363
       176.7029       96.12976       165.4334       87.55234       153.2126
       77.35712       143.1979       66.71411       135.1592       61.41040
       128.0878       52.18866       119.9528       47.46054       119.4684
       45.13956       111.3311       35.47267       104.7022       32.88327
       104.3862       31.55788       101.5548       31.44678       99.18030
       27.08907       96.24417       24.83524       94.68471       21.38780
       85.47638       15.80765       85.29021       14.86920       77.16391
       6.054092       75.28199       4.037750       67.60403      -2.071365
       61.29822      -7.431320       56.37812      -15.55415       43.10685
      -31.37545       29.10616      -43.83846       9.743347      -63.63054
      -4.754822      -79.28110      -23.62201      -98.91402      -44.35208
      -117.5170      -64.08182      -137.6022      -81.13806      -157.9152
      -106.4406      -186.7146      -133.3933      -203.9905      -153.9281
      -234.7811      -180.7407      -255.2268      -213.9677      -297.6422
      -240.8041      -313.9839      -279.0999      -372.2828      -314.4524
      -372.3582      -361.6321      -476.1859      -379.0792      -415.8562
      -321.1958       491.7202       2119.145       2988.500       7245.285
       14321.48       22206.82       27566.91       9587.158      -1783.234
       21096.01      -26937.33      -81787.95       19591.17       68645.01
       8963.219       27396.67      -9940.609      -87291.22      -36894.22
       2597.289      -25195.06       11081.88       41083.96       4629.445
      -21724.51      -38868.84      -37574.64      -14373.07       30569.96
       54667.96       6420.961      -32467.19      -21790.47      -13909.63
       3873.043       27444.53       2909.268      -11948.06      -1697.102
      -27892.66      -29849.25       41935.37       59872.95       9011.262
      -13025.09      -14580.78       9110.047       52570.41       46697.52
      -3329.417       2047.383       1023.289      -32406.23      -2828.914
      -6112.344      -49632.90      -34362.01      -2943.386       7441.422
      -9379.125      -30746.97      -8790.930       18618.44       42678.64
       30784.53      -6272.210      -5888.543       1415.895       17897.20
       23318.11      -1473.598      -22404.36       2461.711       500.0703
      -50224.84      -15989.07       39100.50       20229.24       13229.59
      -9391.203      -57450.05      -19944.61       27593.41       21854.82
       15245.93      -12253.17      -38173.61       10884.21       54241.52
       8663.340      -13169.87       9597.683      -2417.947      -422.4941
       4511.988      -22263.16      -12470.80       16243.65       957.3203
      -24634.48      -30701.72      -13606.11       20666.90       23786.02
       4707.785      -14760.45      -32005.09      -16527.33       9215.500
       10179.23       8866.750       10684.10       12824.81       25149.34
       3208.308      -14977.25       22930.37       22758.75      -13458.45
      -9131.320      -15358.23      -30871.16      -4536.168       14042.51
       8645.343       3960.008      -23793.59      -36641.77      -8805.152
       8207.867       10259.00       13317.95       21498.36       7241.625
      -10653.34       1389.156       7249.693       3092.266      -5900.441
       5955.402       20401.10       8991.934      -46.86719      -12481.77
      -28285.32      -9473.531       10124.67      -8741.420      -1197.887
       16480.07      -7647.273      -20477.71       4139.387       19797.07
       13330.19       8205.408      -989.1680      -7373.322       5519.906
       14536.28       5798.264      -3365.053      -7985.285      -9747.420
      -3326.355      -7954.730      -16064.12      -7017.863       5887.805
       22200.50       18515.39      -7568.480      -25969.99      -10820.18
       11996.52       17281.43       27303.32       5940.586      -19618.74
      -5479.777       13245.23       17218.36      -2329.844      -4869.297
       4271.346      -5492.402      -10835.37      -11286.18      -10124.24
      -3909.840      -3212.594      -21493.30      -19196.95       14281.16
       24609.25       18454.61       11003.59       4917.551       5399.619
       2683.799      -5597.902      -12415.62      -7513.254       13349.41
       15309.11      -8494.805      -7510.016      -6295.953      -25415.64
      -17590.98       19372.65       26724.87       5901.101      -733.7734
      -13888.69      -20147.86      -6100.707       7300.609       28944.98
       20676.07      -9479.238      -9553.930      -15199.59      -28470.26
      -8517.158       11054.78       7714.910       13115.56       3576.697
      -10221.88      -5626.203       534.1519       2032.651      -3914.258
      -6698.693       1326.062       18676.04       27984.55       23045.84
      -86.32812      -29671.57      -28695.57       6000.211       33233.36
       19884.61      -12216.31      -36306.32      -40449.14      -18380.05
       1075.388       6456.648       2409.070      -16169.64      -18800.71
      -2477.508       4824.613       15069.48       21496.97       16752.71
       32529.92       7247.336      -37840.20      -12678.98       6237.402
       3107.727       11577.14       6697.922      -6951.109      -17856.14
      -26743.26      -497.5352       26660.15       5125.771      -4344.742
       7179.863       9745.488       8522.965       12341.57       6361.785
      -8508.289      -17142.69      -18165.48       9587.215       22188.60
      -3013.978      -4081.769       4859.785      -9210.594      -30822.20
      -25400.16       7202.539       22834.50       17852.14       7433.691
      -8485.816      -13996.63      -9202.496       8741.383       21434.71
       2543.040      -4372.748       4369.024       3059.197       4723.031
       16403.68       24170.43       8807.850      -5601.944      -180.0906
       1761.019      -2641.949       7045.705       9241.883      -28430.53
      -45051.08      -21317.15      -4693.152       5287.096       1482.945
      -7825.637      -21912.63      -21632.23       19670.00       45664.52
       35377.36       15365.33       471.9062      -16773.39      -32832.19
      -4421.883       33043.67       33696.39       13173.59      -19475.70
      -37103.65      -32052.68      -11093.46       19846.59       34333.96
       26842.83      -10239.76      -47759.03      -31877.56      -2002.141
       8668.348       15494.75       3173.180      -18195.92      -24897.93
       2149.477       24342.33       17922.50       18279.18       13090.15
      -2163.363      -8672.822      -11722.04      -690.0664       19367.27
       4418.828      -27911.42      -40400.13      -12126.97       32727.74
       22026.98       255.5625       19952.36       21296.17      -907.0859
       2112.656       25764.02       29951.59       12480.87       107.0449
      -3182.484      -5579.758      -21344.39      -14840.38       29492.08
       20604.45      -13138.54      -8256.242      -11357.04      -28031.69
      -38612.54      -14264.93       6382.076       5090.417       718.3066
       1614.725       13997.80      -10368.89      -10409.96       18682.62
       13741.48       9059.213       2954.775      -802.3438      -11390.50
      -12289.23       18410.64       24274.37       737.0664      -19887.55
      -19062.22       4002.215       7022.253      -3896.634       3011.598
       4574.984       6941.953      -4015.777      -1561.289       27298.34
       24333.80       21676.69       7403.465      -15659.49      -15462.55
      -12227.57      -9918.880      -1244.754       15142.31       7990.645
      -17746.61      -20227.52      -3035.527       7500.113       9069.889
       6244.781       8736.965       16335.55       6315.518      -2964.109
      -5042.195      -8618.115      -8762.543       736.5391       24968.36
       17676.87       9179.383       27944.42       16704.34      -18875.30
      -45166.62      -40344.79      -5618.946       9403.816      -12786.25
      -19404.67      -13722.65      -12365.03      -6417.064      -7998.188
      -4725.910       6394.273       25499.11       38121.97       17751.23
      -20777.04      -35072.12      -2630.000       23857.24       22371.37
       41023.57       40699.20       6236.078      -20590.41      -31285.90
      -6023.969       22069.51       33512.86       28501.03      -11847.55
      -41164.13      -36778.05      -15850.15       2198.738       7512.359
       26817.29       23500.26      -14820.48      -30479.76      -21520.85
      -14516.26      -899.1875       13476.03       3535.907      -4556.919
      -1384.360      -5901.094       3773.250       21431.55       21781.47
       8921.176      -7023.719      -12134.52      -14599.36      -14038.82
      -2272.773       15557.98       32110.89       29705.33       2732.082
      -18915.88      -5067.410       17003.91       19984.62       21741.84
       21382.20      -2433.625      -31055.16      -22631.05       12261.56
       31558.94       24448.79       11055.85      -1772.645      -1106.875
       10336.33      -3021.211      -9205.406      -4802.719      -28821.42
      -58063.38      -40673.64       11025.05       1313.945      -24802.18
       6080.891       27057.62       26304.34       20242.13       20880.34
       3717.773      -30627.89      -23836.71      -3080.273       21357.09
       30301.15       19734.71      -1976.781      -62715.47      -63629.59
      -13410.76       7936.289       37397.19       54206.48       37830.08
       3418.539      -32783.22      -35876.86       2807.820       23833.06
       9136.119       3823.087      -2114.082      -1863.424       1141.834
      -11857.17       4258.188       5503.750      -18265.73       14045.62
       37936.27       3187.625      -24451.32      -19187.91      -6886.294
      -1796.869       5238.109       15809.16       32211.43       30299.78
      -112.8516      -18175.23      -34441.98      -53272.09      -18226.14
       39865.61       49694.90       29077.77      -4446.797      -35793.89
      -44279.24      -36644.96       4009.570       27505.46       13780.69
       11805.86      -8025.297      -41436.81      -62321.42      -56814.38
      -11061.50       41206.59       84740.21       73796.78      -16716.31
      -86311.72      -77645.16      -27776.11       44232.22       81125.14
       45879.02      -24819.08      -72536.54      -46615.97       11092.95
       39357.78       21081.96       17276.92       41737.52       17621.98
       16537.73       44210.49       13218.08      -6233.227       9146.953
       16268.05       7050.367      -10489.68      -14355.41      -15457.84
      -25239.86      -54093.75      -71149.09      -47153.25      -22097.58
      -7098.506      -4099.893      -450.8750       23101.69       42667.47
       54948.00       47058.20       22965.17      -21349.07      -52248.68
      -25152.02      -5136.635      -11757.60      -8747.815       8195.141
      -16875.50      -61194.53      -58052.23      -36345.31      -14810.73
      -9208.781      -27268.56      -55858.84      -69776.16      -70503.56
      -118096.9      -181276.7      -159094.8      -132960.0      -170821.2
      -164614.0      -124757.5      -120193.5      -113824.3      -69499.69
       56295.25       233116.0       250975.9       149371.7       199756.8
       273734.8       274950.8       293211.3       202257.8       42082.97
      -51876.95      -74470.72      -59315.44      -70499.19      -78265.75
      -91901.03      -158279.9      -131416.0       4550.094       58335.94
       79072.75       123153.5       140415.9       190420.0       199915.2
       124735.5       47212.03      -27512.25      -77300.72      -94987.21
      -48410.72       19574.25      -45503.88      -212926.9      -297449.4
      -198297.6      -42425.53       67178.62       186987.9       194756.2
       49848.22      -49525.11      -83469.19      -50099.36       56426.22
       120005.7       127723.2       49552.00      -72188.09      -111956.8
      -94403.73      -14098.31       94637.78       87705.31      -50452.84
      -180675.4      -156986.9      -15579.22       103648.4       155145.8
       170194.7       146809.8       72501.94       8207.910       847.6914
      -3745.250      -43822.23      -72439.05      -62919.70      -35203.98
      -41723.12      -84564.92      -51362.58       44466.48       91304.89
       79274.50       47983.02       41132.31       27480.82       561.4297
      -9767.047      -39929.03      -83808.38      -102575.4      -63650.88
      -19297.74      -3507.406       19834.94       43364.00       89301.25
       99917.95       39396.14       27144.95       54429.85       42358.21
       11999.25      -19740.37      -35805.03       17633.88       76422.15
       30179.19      -88373.84      -178469.0      -167487.6      -78521.52
      -14689.79      -3128.265       656.2412       3145.332       6230.711
       19991.69       51478.38       81640.95       32211.27      -68089.84
      -103151.3      -67582.08      -22546.66      -20644.90      -36912.42
      -10377.67       19708.25       23377.67       30998.29       26642.83
       2484.672       18715.58       74007.08       92461.39       62615.77
       16115.87      -11269.79      -2373.047      -10952.95      -32700.18
      -28508.84      -26689.29      -31018.96      -11060.19       5190.055
      -15336.79      -23380.12       76.34375       42313.34       74877.11
       53667.02       29985.31       33260.81       15473.84      -8673.645
      -588.3828       25791.79       31217.04       5895.156      -21209.56
      -51555.14      -76381.44      -81398.72      -58102.04      -36780.16
      -38611.24      -26620.93      -4478.273       27041.35       31785.52
      -4315.109      -31119.97      -44964.45      -22048.53       30693.45
       72437.91       94335.14       83724.23       51685.42      -1305.570
      -35369.22       457.5625       28339.32       13065.14      -15172.66
      -32685.20      -34048.14      -42230.24      -37409.13      -3070.000
       34972.96       33208.32       19164.66       30794.70       33434.94
       40951.70       73759.67       80798.60       49121.00       19258.13
       1378.388      -5949.402      -1406.227      -9076.715      -22959.58
      -13589.60      -13422.34      -34632.16      -37113.16      -35242.36
      -63009.28      -62314.16      -42612.03      -53203.05      -52752.93
      -39344.18      -20350.89       2463.328       4885.070      -8605.488
      -15806.42      -12286.18      -11937.52       587.4453       25729.45
       45326.03       63158.67       64971.41       58913.19       72620.84
       84530.61       69338.23       22536.16      -32610.28      -80052.25
      -104419.3      -80904.66      -52660.62      -34164.68      -3723.461
       13550.08       31792.20       52129.27       54244.42       46675.51
       32141.76       27403.43       15996.73      -12994.80      -25648.68
      -18796.14      -3500.482       106.4766       12602.61       32367.06
       26620.51       26103.47       37469.25       28760.04      -925.5625
      -38185.19      -81957.47      -113103.6      -107613.5      -84214.14
      -59909.25      -29167.17      -1518.758       20657.58       30943.69
       46223.78       78019.50       78305.23       64790.27       51999.38
       24257.05       1670.672      -15227.99      -18880.58      -18215.92
      -26942.42      -27883.53      -24953.99      -16102.54      -8933.908
      -6459.453      -2856.236      -11903.88      -3581.602       30949.06
       44333.95       42305.47       38339.05       24134.73       17509.22
       19217.58       5207.945      -23149.05      -39724.55      -48584.86
      -45602.71      -8440.934       9889.734      -21251.52      -50088.80
      -45246.81      -28309.68      -13034.37       5599.972       7030.969
       1969.832      -6530.234      -33238.31      -16292.27       29236.39
       30864.94       10688.26       10764.05       19840.66       6640.603
      -7651.926       9742.594       33760.62       33928.46       10303.11
      -13538.73      -17519.36      -6192.947      -3426.539      -20855.84
      -54491.03      -83127.22      -83475.03      -72934.31      -45747.70
      -1931.457       20119.94       21777.73       22814.69       43503.00
       60302.17       55562.60       37828.11       6127.500      -10295.19
      -14425.95      -22286.58      -15636.88       5570.352       27846.91
       51618.42       68564.53       63002.41       34883.91       15805.79
       13981.97       3049.819      -1900.156       11075.28       33877.23
       37770.47       24351.66       17198.18       13229.45       6590.041
      -4769.463      -6800.531      -9020.777      -13193.41      -21253.30
      -45028.91      -49867.48      -28871.38       3305.816       19970.05
       5031.945      -17751.79      -21067.08      -6255.219       8158.781
       26202.06       30739.01       20921.60       12731.30      -14300.77
      -37539.92      -15198.63       17387.79       15954.17      -10819.47
      -49350.28      -81730.50      -89036.77      -72545.56      -57676.25
      -45331.80      -31448.52      -37507.45      -43916.70      -24579.82
