     0.02500000      -402885.3       621418.2      -12345.00      -12345.00
      -29.98999       220.0100      -21.69000      -12345.00      -12345.00
       0.000000       16.06000      -12345.00      -12345.00      -12345.00
      -12345.00      -12345.00      -12345.00      -12345.00      -12345.00
      -12345.00      -12345.00      -12345.00      -12345.00      -12345.00
      -12345.00      -12345.00      -12345.00      -12345.00      -12345.00
      -12345.00      -30.65860      -69.43630       2628.000       0.000000
      -31.54000      -68.94500       0.000000       103500.0       0.000000
      -12345.00      -12345.00      -12345.00      -12345.00      -12345.00
      -12345.00      -12345.00      -12345.00      -12345.00      -12345.00
       108.3819       334.2484       154.5009      0.9744704      -12345.00
      -12345.00     -0.1957424       90.00000       90.00000      -12345.00
      -12345.00      -12345.00      -12345.00      -12345.00      -12345.00
      -12345.00      -12345.00      -12345.00      -12345.00      -12345.00
      2008        49         8        51        25
       390         6    -12345    -12345     10001
    -12345    -12345    -12345    -12345    -12345
         1         7        13    -12345    -12345
    -12345    -12345    -12345    -12345    -12345
    -12345    -12345    -12345    -12345    -12345
    -12345    -12345    -12345    -12345    -12345
         1         1         1         1         1
TOCO    -12345          
        -12345  -12345  
-12345  -12345  -12345  
-12345  -12345  -12345  
-12345  -12345  -12345  
-12345  -12345  -12345  
-12345  -12345  BHE     
ZL      -12345  -12345  
[...]
       365.5590       357.3141       379.7231       372.3704       387.7477
       378.8636       398.6041       385.2939       401.5364       391.9656
       408.2812       395.7527       413.8428       400.4558       412.6859
       396.7622       411.6588       393.8746       406.2094       387.7771
       398.8784       377.1829       386.6716       365.3357       376.1328
       352.5366       361.3245       340.3174       348.4380       323.4264
       331.6886       307.3342       313.2879       288.6476       293.8929
       267.3129       275.0205       249.6066       256.5737       229.7283
       233.0302       204.5719       210.9271       185.8335       194.2990
       166.5739       171.6060       140.5899       147.2557       118.3759
       122.0312       92.78204       98.67456       67.69102       71.55803
       35.53078       40.22895       4.766809       7.660172      -25.15737
      -22.24849      -56.94238      -50.74536      -86.80548      -83.36752
      -119.9590      -114.1313      -150.2478      -143.7547      -176.7305
      -165.9928      -201.1941      -192.3557      -225.1486      -214.7337
      -250.8646      -241.8660      -275.8457      -262.7502      -297.4655
      -284.2866      -317.9885      -306.4843      -340.1226      -327.0935
      -359.7715      -338.5757      -371.8868      -354.7396      -382.6193
      -364.0636      -394.9031      -371.7122      -402.0526      -380.0007
      -407.9490      -383.3877      -412.9319      -389.6897      -415.1793
      -391.4161      -419.8961      -392.1802      -419.9231      -395.7927
      -423.8550      -398.5094      -427.5930      -400.5757      -429.3276
      -401.7380      -425.8571      -398.6494      -425.6340      -395.5217
      -423.3070      -394.3716      -423.5416      -395.6879      -421.5386
      -391.8909      -419.0247      -389.9197      -416.4528      -384.0156
      -411.9971      -384.6068      -412.1479      -379.5194      -408.1348
      -375.2273      -405.3093      -373.4117      -399.6592      -367.1914
      -400.4246      -367.2183      -395.1382      -361.5076      -393.4025
      -362.2434      -391.6675      -357.1062      -389.8148      -355.1975
      -381.2905      -346.8109      -379.2021      -345.7107      -372.7092
      -335.7706      -367.9851      -334.1659      -361.8827      -325.6224
      -356.5963      -319.3281      -348.0670      -311.6223      -341.0414
      -305.0626      -337.4891      -298.6119      -329.9844      -292.2153
      -323.9102      -287.1735      -322.1890      -284.2653      -317.2509
      -278.0135      -318.0947      -280.6619      -314.2163      -274.5030
      -314.8378      -267.2512      -301.5432      -265.6545      -310.8778
      -270.5608      -553.1814      -875.9458      -1069.011      -1887.678
      -3729.252      -5404.107      -5572.074      -1710.198       1176.615
      -2102.604       1276.035       9833.215      -779.5645      -13029.93
      -3403.392       3707.160       6258.914       15720.36       2316.867
      -11688.26       1286.457       2385.432       4376.899       6246.708
      -4481.410       7559.968       5672.147      -7424.928       260.2161
       704.9006      -1009.523       1515.603       1325.301       2917.238
       3422.928      -4721.367       9269.938       16125.14      -6000.059
      -8110.775      -6098.388      -5698.424       4706.369       4825.256
      -2966.992      -3622.500      -8585.895      -14985.39      -16229.49
      -8585.674       6102.969       10037.96      -2368.921      -3656.824
      -1179.964      -687.9297       16030.41       14663.97       2727.825
      -2575.311      -581.3145       9893.490      -2982.176      -12701.54
      -3932.592      -533.9434       9934.860       5610.236      -11568.45
      -8328.475      -12.79883       9200.965       4286.978      -3457.944
       3220.750       1421.408      -591.0781       4630.531       19039.29
       31765.71       8737.508      -23277.62      -23240.36      -9615.955
       4304.973       14246.60       8031.844      -10948.77      -25210.95
      -13606.60       6363.398       16906.22       3741.641      -12513.38
      -3438.674       6383.854       13238.60       3900.883      -10431.69
       2817.457       11579.99       9737.229       11441.01       1361.949
      -14271.63      -24730.16      -11999.19       8359.321      -1671.115
      -7457.396      -4242.358      -6243.319      -1523.455       2691.799
       8448.742       11439.81       3419.039      -5753.965       7696.961
       21529.93       7364.584      -1951.745      -3135.503      -2128.802
      -1945.429      -6358.443       5681.830       10238.20      -6997.781
      -10371.72      -285.1157       4347.321      -4672.782      -2705.078
       10800.74       3662.772      -6455.471       1286.277       8323.189
       8941.113       3873.793      -7971.075      -1913.833       1293.140
      -5832.168      -4195.436      -8929.201      -6611.866      -1872.474
      -5501.669      -275.2227       4727.906       670.2480       3796.504
       11456.25       16068.45       6744.334      -9386.281      -17836.49
      -6403.729       10660.33       766.1445       2747.332       12958.46
       2340.213      -6555.344      -12813.05      -12215.15      -2801.523
       10019.21       16828.01       12915.90       4689.949      -7428.191
      -14714.02      -8342.160       1923.000       10590.21       17787.18
       6728.172      -18001.75      -26973.64      -15912.73       8576.387
       19670.55       4178.229      -9846.172      -12759.01      -9847.963
      -2530.879       6042.422       14829.36       9449.482      -8979.404
      -10187.23       7144.875       12438.09       8785.438       6086.361
      -6512.686      -13337.07      -3901.306       2955.492      -3032.273
      -15002.42      -10510.04       5789.080       8965.514       3901.395
      -3189.029      -8700.334      -7999.837      -2691.346       11168.40
       11705.07       315.5664      -6695.238      -1603.043       11521.33
       12690.05       453.9805      -12804.61      -10612.53       3016.477
       7004.172       7356.625       8778.311       443.6133      -6237.596
      -7632.137      -3069.533      -599.6875      -8787.684      -13138.33
      -9008.373      -4575.074      -7727.298      -5479.762       5966.641
       13710.58       15202.80       5970.410      -14945.61      -14105.17
       5800.480       14446.03       17107.05       11080.69      -7297.414
      -16681.69      -1651.281       12971.10       9826.042       4971.532
      -1039.571      -3871.767      -1514.783       3910.446       5594.138
       595.0195       1713.301       2989.808       1071.967      -825.9707
      -3768.283      -8673.176      -9545.686       3900.021       3644.131
       1265.276       7120.917       785.2871      -1190.005       4.423340
       954.5684       4168.729      -3638.574      -14525.76      -12903.26
      -5892.318       3032.248       11161.45       762.9023      -12652.98
      -8096.572       6323.867       17315.53       12201.54      -2094.205
      -8234.764       2098.458       4089.423      -5941.950       381.0410
       4114.948       893.4199      -6352.770      -10202.80       2982.170
       13074.80       3262.484      -13550.35      -11121.79       1123.270
       5771.906       8450.232       2535.668      -7557.488      -3577.019
       3324.605       7406.818       12291.28       1161.711      -10275.55
      -1991.238       8107.951       1488.865      -8754.408      -11007.60
      -6419.939      -1527.252      -3304.354      -2969.348      -3094.167
      -3570.941       6927.938       10039.28       6344.522       6272.754
       336.0898      -6836.598      -7525.963       1833.777       8639.775
       589.8672      -3665.564      -4279.416      -6365.943      -3932.455
      -1838.863       4012.617       15012.78       15813.15       6089.881
      -2374.629      -7765.895      -7389.240       6494.195       14088.70
       1310.842      -7100.766      -6406.805       1835.785       15001.78
       20484.88       15526.49      -1817.875      -12350.53      -14106.63
      -12105.09       3547.309       8461.645      -5724.195      -16157.32
      -18581.45      -7149.920       973.6406       9026.594       24320.26
       24097.29       7295.000      -8396.181      -5908.339       3114.082
       101.9395      -8530.996      -11855.75      -7572.531      -11991.94
      -22703.80      -7925.416       7071.958      -2382.047       6642.289
       17848.89       10900.70       16923.38       19399.94       11438.84
       5016.388      -460.3257       832.2148       3012.242       7359.787
       4722.848      -12513.28      -30365.27      -21286.90      -8376.974
      -2935.680       13968.57       2655.665      -2631.095       6717.583
      -5246.953      -415.5869       3790.778       1074.792       2174.357
      -4700.082      -9191.481      -6468.635       8763.934       18761.12
       681.3350      -7082.333       4100.560       1268.549      -3417.597
      -2873.160      -4057.938      -5088.746      -14252.33      -8326.180
       12057.78       12306.23       4168.507      -1400.534      -1146.413
       1651.830       3412.758       9165.924       5600.267       1280.732
      -7469.373      -12084.38      -1275.716      -1655.394      -1728.025
       2603.129      -3461.383      -1015.352       6183.640       5064.645
      -2613.990      -8674.686      -1654.879       12932.65       21563.86
       15669.24       7528.994       4875.660      -8406.980      -10592.96
       2938.412       4149.018      -1148.547      -11381.86      -20622.77
      -8140.787       8435.784       8311.455      -3084.790      -6217.363
      -1141.754       6887.648       12825.05       2875.539      -10333.01
      -13971.36      -10439.02      -58.27734       6862.636      -460.5127
      -7102.877      -371.3555       6727.980       18324.56       25291.37
       13984.07      -7174.092      -15270.60       367.1748       5335.042
       3297.701       3201.351       502.6128       2389.008      -10841.55
      -22667.77      -4652.598       20931.36       13265.25      -4525.661
       1922.906       2557.172      -14432.63      -12428.96      -1728.626
       1787.340       5332.960      -760.6055      -818.7656       13496.52
       10122.77      -11409.62      -17195.54      -14975.08      -12006.68
       1080.531       13577.60       14432.54       806.9375      -5072.357
      -8581.156      -9786.242       953.5444       3601.523       236.2109
      -8181.223      -17599.90      -5774.863       8244.965       15965.72
       23898.12       6807.434      -12142.21      -9058.227       4782.906
       20881.48       13006.82      -10676.33      -19394.32      -159.1328
       19310.86       17990.30       11745.90      -10210.89      -32382.21
      -20581.88       10306.67       31111.22       20932.64       1888.840
      -6384.652      -17507.99      -15531.29       11179.66       35582.82
       25447.08      -4485.352      -15095.80      -18658.39      -10193.30
       14874.34       23551.93       9470.305      -11403.18      -20870.83
      -8460.549       5781.348       13274.87       13027.65      -12055.63
      -38099.04      -17229.23       16280.25       16719.18       13243.25
       1924.383      -18352.19      -16559.78      -2645.234       13658.60
       28089.02       36051.74       25968.48      -2240.476      -7327.013
       1471.170      -8649.470      -9054.273       8559.719       22128.60
       11179.81      -13316.83      -17065.04      -9747.641      -5333.338
       3400.672      -2498.210      -3117.140       3740.805      -4106.207
      -11066.78      -8648.664       10361.17       24441.39       17572.81
      -495.7188      -18141.13      -20504.03      -13820.32       4198.500
       22409.62       29601.00       30141.03       10563.34      -17468.83
      -12288.71       18461.83       24833.13       19344.34       7540.828
      -20147.86      -39798.48      -43700.51      -11887.71       18000.86
       15015.68       15548.76       19412.78       10972.38       1614.023
       16571.62       25135.61       5923.289      -7594.234      -23264.14
      -22576.41       1831.191       10312.32       9392.775       4441.121
      -6532.191       7428.531       43337.61       58354.20       35476.39
       17786.27       22803.75       36088.27       47441.42       25937.64
      -11989.84      -64040.75      -140519.5      -207761.5      -245753.1
      -230614.8      -230253.4      -307598.5      -343481.4      -280643.8
      -241237.9      -218294.6      -93135.59      -6551.301      -33086.94
       54793.00       311006.6       571055.2       621418.2       379146.1
       63532.78       3650.625       171805.9       157837.2      -73545.88
      -246802.1      -192953.0       25165.66      -59917.91      -115192.4
       218585.2       208162.6       3756.062      -10164.19       113302.8
       473776.2       328324.3      -250621.9      -402885.3      -348991.6
      -231969.5      -230859.7      -320489.8      -100297.0       66687.39
       54144.41       56776.62       79403.12       142490.0       153501.4
       108127.1       39411.00       60458.28       182112.4       80855.28
      -181696.8      -203538.9       27714.56       227670.9       134927.6
      -106360.5      -116046.5       1911.891       20252.61       51469.91
       90309.16       61780.77       55727.56       30102.16      -47593.46
      -37741.57       21469.25      -27504.72      -95048.09      -130827.6
      -160432.8      -80645.28       2914.688       66626.06       186126.3
       179911.2       106717.2       71789.59       68274.56       218957.4
       297331.1       88036.12      -145110.6      -284293.5      -320285.2
      -190188.5      -68044.80      -17647.73       19177.76       9242.586
      -5046.438       33878.39       91438.17       78342.56       25251.50
       53494.56       86064.81       35972.34      -7954.344      -117310.2
      -221817.2      -132601.8       1494.062       52563.91       85220.34
       99872.53       11329.34      -92879.35      -55414.56       99894.09
       165525.9      -6887.812      -148050.1      -70378.94       96257.75
       199833.3       137102.2       10961.38      -51174.24      -39247.16
       15298.92       48423.15       27574.80      -17237.03      -65495.66
      -116175.9      -109477.2      -47190.54       19116.53       60826.48
       34151.72       62282.81       179144.3       165768.4      -523.4375
      -137054.8      -115222.4      -49049.34      -78071.66      -95705.49
      -39678.82       23797.36      -2881.219      -52468.61      -35139.80
      -73451.80      -74025.32       8815.375       35449.34       8715.773
      -24947.84      -26916.12      -11819.43       12040.19       38045.73
       38243.27       36868.97       62925.78       107302.2       128832.8
       106637.1       59094.42       17760.83      -7185.898      -15262.86
      -45896.47      -89074.89      -65071.44      -47049.62      -102592.3
      -139371.8      -109291.8      -66099.18      -44151.38       40351.94
       141245.3       119075.5       25276.16      -26362.12      -12195.62
       21981.05       27712.78      -5748.682       4211.035       26226.87
      -10043.09      -31447.73      -47887.00      -23039.83       43924.23
       67424.78       33636.33      -29249.16      -47159.98      -42095.67
      -36609.57      -13049.94      -10655.87       7500.562       57095.62
       76830.84       98958.44       127204.7       85395.45       39955.82
       22604.99      -13441.06      -35767.50      -30173.80       2415.906
       17138.04      -7046.135      -10693.38       602.6895      -3943.303
      -2747.797      -5808.406      -55432.91      -91542.88      -88083.92
      -69243.53      -27654.39       29215.53       61117.18       15900.02
      -52761.02      -55365.78      -5869.320       23761.61       22290.88
       5226.808      -12905.24       14577.08       55534.80       61425.56
       49180.04       40310.74       3861.734      -48554.84      -48993.82
      -15591.47       7651.701       2659.781      -22709.48      -54092.89
      -59576.99      -12253.81       16478.19       39655.34       99280.70
       104195.1       47773.63      -3766.984      -40165.73      -46972.31
      -20742.64      -14475.86      -56934.02      -69256.81      -38927.71
      -14300.64       14470.41       9715.996      -5568.609       34428.89
       41098.68       8070.695      -22947.70      -80842.80      -96798.25
      -53152.73      -10102.47      -5988.453      -27392.91      -49092.38
      -51011.69      -1334.312       51781.81       116419.9       150478.8
       103293.4       49845.48       22443.59       45331.28       59424.41
       17348.91      -7409.103      -1111.854       11773.27      -17588.25
      -55241.08      -39011.84      -48322.11      -68946.09      -34575.89
      -7071.758      -23686.41      -35014.56      -18476.84       14238.41
       56281.03       52530.69       17461.37       9761.312      -3932.930
      -28953.66      -39560.11      -44554.14      -39097.91      -27847.41
      -20644.42      -16191.16      -3769.234       23178.24       28267.66
       16364.66       39997.66       61478.23       55336.02       50592.43
       33283.00      -5060.391      -53658.50      -81326.02      -58801.12
      -23196.45      -3960.602       9077.664       22178.44       47731.91
       52466.30       13851.30       2207.070       6028.559       4534.578
       38006.62       58370.66       41454.47       7519.305      -25648.19
      -8775.723       23568.04       16192.80      -5182.438      -53017.75
      -96472.41      -72382.69      -54729.09      -52548.05      -23943.94
       4095.625       39369.58       61745.18       38721.16       4664.637
      -13916.78      -19046.66      -13526.74      -548.4873       4617.270
      -622.7949      -6114.551      -5726.455      -5531.477      -21322.58
      -23914.84      -8826.484      -27247.33      -64151.41      -79198.75
      -55928.62      -8312.781       9979.367       7867.289       27548.14
