     0.02500000      -519436.2       390164.0      -12345.00      -12345.00
      -29.99499       220.3300      -22.32000      -12345.00      -12345.00
       0.000000       16.44000      -12345.00      -12345.00      -12345.00
      -12345.00      -12345.00      -12345.00      -12345.00      -12345.00
      -12345.00      -12345.00      -12345.00      -12345.00      -12345.00
      -12345.00      -12345.00      -12345.00      -12345.00      -12345.00
      -12345.00      -30.57010      -68.62600       946.0000       0.000000
      -31.54000      -68.94500       0.000000       103500.0       0.000000
      -12345.00      -12345.00      -12345.00      -12345.00      -12345.00
      -12345.00      -12345.00      -12345.00      -12345.00      -12345.00
       111.7611       15.89179       195.7280       1.004850      -12345.00
      -12345.00   -0.003315733       180.0000       90.00000      -12345.00
      -12345.00      -12345.00      -12345.00      -12345.00      -12345.00
      -12345.00      -12345.00      -12345.00      -12345.00      -12345.00
      2008        49         8        51        26
        20         6    -12345    -12345     10014
    -12345    -12345    -12345    -12345    -12345
         1         7        13    -12345    -12345
    -12345    -12345    -12345    -12345    -12345
    -12345    -12345    -12345    -12345    -12345
    -12345    -12345    -12345    -12345    -12345
         1         1         1         1         1
TUCU    -12345          
        -12345  -12345  
-12345  -12345  -12345  
-12345  -12345  -12345  
-12345  -12345  -12345  
-12345  -12345  -12345  
-12345  -12345  BHN     
ZL      -12345  -12345  
[...]
      -255.8206      -213.1522      -305.8680      -264.0258      -360.9038
      -317.4066      -412.8531      -369.2366      -459.9016      -415.7528
      -507.2686      -457.7422      -547.1917      -499.1267      -587.7762
      -537.3014      -620.8613      -568.6199      -652.4310      -602.3591
      -682.6895      -627.5215      -708.3866      -650.5984      -724.0503
      -667.4641      -739.5361      -676.6201      -750.7720      -694.3479
      -761.5696      -698.1865      -772.6162      -712.1433      -776.4653
      -713.1746      -781.2563      -713.9365      -782.4058      -719.5007
      -778.2610      -711.4285      -779.9434      -713.4529      -774.6306
      -708.5303      -773.5796      -706.1001      -767.8604      -702.5610
      -765.3115      -695.5244      -755.2122      -692.2883      -747.7336
      -679.3064      -742.0486      -675.2651      -733.9343      -664.0569
      -724.1855      -654.9199      -712.0430      -649.5767      -710.0521
      -636.3967      -688.7285      -623.8129      -679.3379      -612.6830
      -669.1842      -599.4490      -647.0081      -581.1072      -632.1699
      -563.0847      -619.8674      -551.4200      -601.9684      -537.6660
      -584.7113      -518.2928      -570.9312      -500.5959      -551.6541
      -488.8469      -538.9011      -475.2402      -524.7637      -459.3668
      -508.4060      -443.1973      -494.1512      -427.2537      -479.2076
      -417.3835      -469.3773      -404.6106      -460.6012      -400.0024
      -450.5081      -388.6331      -443.5250      -379.3824      -433.8411
      -373.3538      -431.2292      -374.1713      -425.8883      -366.5214
      -420.9299      -365.2183      -422.1271      -366.5798      -422.2579
      -363.2284      -418.3636      -366.3428      -419.4789      -360.8760
      -412.1431      -355.6733      -408.5930      -349.3068      -395.8678
      -333.2198      -384.8445      -322.0861      -366.6520      -305.4492
      -353.9080      -288.7231      -331.8356      -267.9463      -313.3320
      -249.9603      -290.4705      -224.6470      -267.5609      -203.5815
      -244.9983      -178.5718      -218.7992      -149.7265      -192.1844
      -127.8483      -164.6544      -100.0478      -139.0212      -80.53076
      -120.4608      -51.78137      -92.32382      -34.36804      -70.74479
       4.391724      -53.25055      -71.45526      -214.9817      -328.4614
      -563.0078       1355.906       7179.285       12180.75       12029.39
       10888.02       6834.098      -301.1816       1764.645       16216.54
       28743.45       22028.39       10394.00       5302.617      -21979.61
      -50582.09      -45691.12      -30871.61      -20776.63      -1277.611
       4503.086      -16062.23      -26924.75      -19052.88       4287.016
       34416.98       57581.59       62323.00       43469.45       26033.12
       16157.50       14407.79       21971.03       24269.12       19080.39
       472.1484      -20385.02      -27770.97      -40038.95      -51958.63
      -45888.66      -36531.97      -43039.58      -51202.69      -41834.38
      -23514.70      -8635.359       6917.227       21883.51       24085.80
       20248.83       33277.17       45717.66       32775.85       22779.78
       31687.97       39956.52       37711.02       29918.79       16263.02
      -6949.289      -24616.81      -33084.39      -38156.66      -34412.34
      -27839.59      -27797.28      -23358.71      -13215.06      -11828.69
      -12308.60      -7183.699       7555.445       24013.75       19708.77
       14684.01       24274.01       27514.00       20153.18       10710.95
       319.3027      -5806.369      -5646.369      -7427.172      -13819.09
      -11611.79      -2535.466       1024.918       3581.031       5535.346
       3520.193       2646.282       732.3525      -1867.626       1043.284
       4761.935       1315.866      -2973.475      -1596.452       823.6055
       6511.863       7180.125      -4343.947      -8414.582      -7207.438
      -9064.802      -3590.113       3257.594       7456.246       14099.20
       8334.400      -1547.436       2829.706       4302.820      -5037.939
      -5522.718      -103.9355      -2514.049      -4613.068      -1721.707
       1011.614       1343.982      -1061.199      -7632.930      -11226.73
      -3332.022       3516.088       1648.569      -4342.968      -6467.355
      -662.8574       6960.266       12263.79       11298.80       4842.156
       5412.418       12366.16       10276.38       1426.406       2179.382
       4354.811      -2581.243      -5988.070      -2912.674      -7242.996
      -11464.53      -7084.309      -9503.562      -14576.97      -13432.49
      -11685.02      -9370.521      -4265.045       1328.450       2406.385
       3970.453       6746.776       4675.079       429.2842       1618.096
       7602.852       15115.40       20240.00       16078.53       1808.000
      -8993.391      -9396.494      -6505.556       1410.042       7045.725
       1198.385      -2785.779      -4138.850      -7258.584      -8590.607
      -7863.866      -4059.121      -2794.857      -4434.323      -5501.442
      -5120.945       1420.602       7618.766       10543.07       12712.86
       11948.79       8355.814       2683.698       62.18652       4071.905
       2593.712      -3053.801      -3075.176      -4584.211      -11492.80
      -12046.76      -3031.838      -465.7871      -6444.223      -7948.737
      -5453.375      -4064.324      -3128.808      -389.3960       2704.068
       1364.693       1425.129       6726.150       7662.146       7691.816
       8280.392       4407.092       1297.870       791.1621      -3683.480
      -11660.69      -12578.79      -5528.638       776.0029       2996.504
       2316.413       127.3574      -3276.323      -3212.823      -2292.305
      -2972.103       1709.527       7080.768       2583.693      -381.6094
       7470.068       10787.16       5710.833       1651.579       960.1855
      -2942.879      -12461.32      -13032.90      -4933.064       5992.848
       13005.28       3417.977      -7680.875      -7632.547      -7256.999
      -5114.741       104.6484       4149.910       7571.271       3845.387
      -4064.023      -6255.156      -5774.614      -4681.575      -1585.660
       344.7754      -1335.918      -1774.307      -2421.859      -6323.777
      -11020.39      -10532.55      -2834.494       2531.066       5022.883
       9408.557       8584.490       3593.861       734.0957       3111.742
       10510.10       14243.38       8540.391       4649.287       8856.510
       6329.718      -2156.568      -6855.401      -4634.833       1211.863
       274.9312      -2599.204      -496.7324       344.8540       1528.386
       3090.502       511.6807       2062.785       2150.386      -3306.827
      -5407.335      -1932.877      -3093.736      -8803.472      -6103.064
       2826.534       5808.217       129.0840      -3142.465      -2667.936
      -6142.609      -8176.946      -3314.545      -3133.325      -6831.690
       1792.320       12485.45       10314.05       4272.705       3697.232
       6585.477       7949.447       6151.626       1425.567      -4872.235
      -3731.312       5907.725       3914.395      -8529.852      -11494.35
      -12930.31      -14312.91      -7203.043      -1016.494       690.0740
      -1351.115       496.2305       6574.929       4058.147       786.9219
       4193.902       9510.859       12523.49       12788.77       5643.379
      -4246.764      -4774.756      -4154.564      -9069.957      -5717.742
       7444.566       12069.38       7209.594       1816.139      -4027.873
      -10007.55      -6481.785       8553.191       15805.44       11642.23
       4511.406      -5194.012      -10546.91      -8976.078      -4259.145
       5590.844       14826.71       13400.61       5568.937      -279.4468
      -2995.018       658.2734       8131.883       8577.496       8040.066
       7709.015      -1397.936      -4731.064      -1220.789      -8367.311
      -10026.42       6.692383      -1444.568      -5866.144       849.0205
       5746.491       3511.097       3006.022       3438.370      -43.55566
      -3067.681      -2633.260      -5063.713      -10350.57      -5355.929
       5442.219       2777.332      -4960.590      -8041.180      -14892.97
      -15472.05      -3981.969       5848.074       8275.129       10252.49
       10380.94       2448.813      -3407.352      -5750.246      -7965.418
      -3259.474       1728.906      -601.0273      -2903.624      -1311.317
       1776.903       2732.958       353.4143      -525.2583       1604.132
       2905.928       4524.482       10067.47       9508.823       2603.202
      -512.6621      -1799.172      -4151.493      -2990.746       472.2881
      -2850.969      -6915.778      -4005.264      -1819.162      -3510.676
      -6365.648      -8340.049      -8566.168      -6938.362       1877.430
       12150.74       11793.67       7563.250       9919.992       15100.81
       14153.62       9107.104       6406.474       2436.309      -4769.424
      -7578.789      -5450.259      -1390.327       2396.599       2060.332
      -2555.185      -5310.976      -4863.338      -4876.492      -2084.785
       6807.141       14019.44       9125.495       934.3818      -473.8042
      -706.9150      -3050.945       62.41016       4864.011      -1823.680
      -7275.031      -7021.691      -8766.872      -6622.967      -2715.766
      -3988.570      -7484.539      -7932.731      -5219.229      -806.1221
       3467.002       2183.348      -5742.229      -9540.363      -2579.134
       3734.457       3290.926       2075.327       654.8062      -2747.869
       51.65820       4089.500      -1088.734      -4147.170       455.8813
       2138.021      -2148.693      -2691.766       3393.678       2829.158
       1988.080       7625.607       4649.435      -1217.539       2946.162
       7138.842       1278.102      -2672.438       24.50952      -1071.842
      -1709.388       2986.862       7311.984       836.7617      -9983.137
      -11803.58      -6842.716      -2193.746      -368.8818       692.6240
      -1640.515      -3486.379       538.9238       2183.464       3149.035
       6530.822       7698.819       4202.605       206.9780       464.0752
       3651.279       8575.471       11376.12       8195.994       3233.779
       405.8613       2351.372       4716.656       5278.166       6737.626
       2371.246      -7818.633      -10274.38      -4817.333      -685.5884
       68.25781       111.7979      -1353.867      -2114.792      -915.8066
       2297.438       7895.773       11929.01       10503.16       6230.655
       5276.139       3300.026      -1207.792      -629.6762       573.3701
      -870.8779      -2634.603      -2648.842      -298.6040       164.1912
      -1556.579       991.9980       3344.699       2770.709       3076.757
       3612.545       2322.031      -1088.543      -5951.459      -8821.883
      -9730.982      -8394.513      -2956.220       2550.378       5088.607
       6170.626       5228.111       3162.526       1884.453       4192.793
       10884.76       15238.70       19962.23       27580.77       22098.88
       7231.000       384.4927       963.6094       1572.578       6351.828
       10584.30       8850.797       8235.988       7645.865       4143.936
       4038.674       6264.678       7023.212       5284.332       2964.918
      -485.9766      -8837.609      -16742.30      -19934.37      -20993.18
      -21264.53      -20781.16      -16938.74      -11056.85      -5854.092
      -4378.695      -1935.859       5466.391       20533.47       40189.16
       52523.23       51173.89       39787.61       27985.32       19693.23
       8712.651      -1560.970      -4511.939      -3421.465      -10931.80
      -29145.11      -40374.59      -34895.57      -23546.50      -16337.96
      -13509.20      -10501.45      -8560.897      -4923.734       6281.445
       19049.08       22847.80       21077.77       20753.62       17146.86
       7001.737      -1688.172      -5549.184      -12851.05      -20145.50
      -11410.51       666.9219       8541.445       14598.77       8892.976
      -258.8008      -1298.638      -1502.670       4137.547       18877.34
       31208.96       31520.79       15786.52      -8031.867      -28961.00
      -46335.28      -62431.19      -80617.28      -92006.62      -93822.16
      -95837.34      -95656.94      -91755.05      -88027.72      -70738.29
      -33561.00       12050.56       51227.91       76881.56       88369.53
       91330.72       101413.0       129001.5       161534.9       181901.1
       171273.0       98526.41      -59375.25      -265878.0      -440668.2
      -519436.2      -478306.3      -362212.0      -268015.1      -249437.8
      -287799.8      -335909.8      -346867.1      -269167.6      -94490.62
       112301.2       270683.8       353640.1       384499.5       390164.0
       383647.6       378006.9       363657.6       308022.8       207294.9
       106854.9       46324.80       12990.66      -21800.95      -51665.94
      -69391.08      -72023.40      -47979.71      -4685.531       36669.45
       67824.38       78536.38       53906.49       11169.56      -12009.88
      -9957.727       18612.78       68649.47       104311.6       101443.8
       58415.78      -24194.44      -109024.1      -150434.5      -144346.2
      -105153.0      -47386.79       6511.766       38706.97       48538.48
       36180.27       968.2266      -24618.82      -23114.03       743.8750
       34362.55       46169.19       42751.33       50478.39       55079.79
       34699.23      -5721.977      -33509.49      -37120.77      -38697.38
      -39575.91      -34318.61      -45020.25      -74192.31      -92374.56
      -77151.94      -53301.17      -43915.01      -34514.02      -25541.02
      -28387.11      -33970.92      -32210.93      -22653.92      -8956.143
       5765.812       16682.96       30443.62       48312.72       53851.25
       48775.50       54932.16       65607.06       61594.00       45932.95
       34177.83       26646.73       19880.79       13987.91       7731.481
       3121.938       3392.498       9618.969       13087.97       12690.53
       22825.25       46039.53       69434.38       80891.34       84528.89
       77611.72       67235.53       61025.00       50573.52       40879.30
       40072.65       35266.21       19463.68       6521.905       766.6445
      -4603.687      -1449.449       7946.033       9828.787       3329.550
       2754.377       7748.389       2968.295      -8071.135      -11353.34
      -1111.594       4402.934      -8486.973      -12927.44      -5732.125
      -13726.21      -36848.67      -49973.58      -51719.56      -52299.48
      -44432.29      -31209.62      -24954.80      -24438.80      -25943.92
      -28876.57      -28489.28      -12195.81       5994.811       7405.979
      -184.0078      -14208.52      -27927.60      -25689.46      -19229.20
      -15998.82      -13742.39      -19480.61      -38449.50      -61974.00
      -72538.62      -64875.89      -43549.85      -17311.55      -3432.243
      -4671.209      -4307.996       10561.44       29170.98       39683.81
       38189.88       22985.49       6906.422      -2850.449      -14006.88
      -16396.35      -5648.344       7345.062       17408.22       13322.46
      -3542.572      -8587.574      -3139.988       6284.625       28367.00
       54046.28       68744.31       64066.17       42549.91       33801.58
       47890.88       66262.28       74287.00       69604.30       56668.75
       39375.98       19071.89      -390.3242      -16149.48      -27147.59
      -32058.59      -37297.09      -46591.72      -48579.75      -41548.77
      -33054.16      -28593.61      -23649.61      -17160.67      -15665.65
      -18938.81      -24302.06      -26103.00      -12830.92       8884.109
       24712.95       31287.03       31964.96       28725.90       15871.65
       2305.084       3994.102       13161.53       23500.11       32689.48
       34696.41       31139.33       30013.98       28520.59       20781.59
       12170.46       5361.766      -11381.30      -30321.11      -38317.34
      -43616.61      -44262.03      -32874.91      -19985.63      -12718.50
      -4862.079       713.9648      -6994.174      -12792.50      -5129.911
       1507.630       1800.240      -1200.180      -9750.117      -17733.35
      -22846.57      -26124.88      -23383.61      -19444.87      -16430.41
      -8207.582      -6142.254      -9789.821      -5264.927       111.2778
      -1644.306      -2115.621      -2995.641      -15771.12      -32441.95
      -34858.68      -23208.39      -6730.483       4122.499       3661.727
      -2363.086      -9623.656      -21216.89      -31228.86      -34289.77
      -29775.68      -20143.83      -4943.469       16266.85       31421.47
       32766.55       32094.42       33816.04       30695.98       29342.59
       43622.22       64962.97       73338.84       61502.22       41807.02
       28870.11       25669.73       27847.45       26647.98       15526.88
      -5237.500      -35433.81      -58523.94      -59763.12      -51262.83
      -45891.95      -51140.66      -73231.53      -97674.41      -103252.2
      -87913.31      -58842.64      -26250.83      -7340.988       3000.082
       14271.32       20360.05       25906.46       37059.88       44549.34
       46053.77       43627.24       37648.97       31601.62       24276.96
       17250.02       21423.31       35307.54       45058.94       40952.28
       25525.66       8895.662       885.8403       968.6582       4362.138
       5567.383      -1898.633      -18295.17      -35044.09      -48395.05
      -55317.00      -46444.21      -25873.58      -10078.11      -3601.283
       1070.211       10614.68       18775.69       23176.28       27726.21
       34103.74       40622.28       42322.34       37415.58       27788.74
       19561.52       17620.12       13135.87       3788.984      -1483.519
      -615.6895      -1358.324      -4067.389      -4414.363      -5692.779
      -6097.947      -2349.258      -1199.953      -3133.083      -2858.188
      -2708.242      -7790.102      -13217.77      -19578.12      -30466.75
