     0.02500000      -258000.9       372877.4      -12345.00      -12345.00
      -29.99499       220.3300      -22.32000      -12345.00      -12345.00
       0.000000       16.44000      -12345.00      -12345.00      -12345.00
      -12345.00      -12345.00      -12345.00      -12345.00      -12345.00
      -12345.00      -12345.00      -12345.00      -12345.00      -12345.00
      -12345.00      -12345.00      -12345.00      -12345.00      -12345.00
      -12345.00      -30.57010      -68.62600       946.0000       0.000000
      -31.54000      -68.94500       0.000000       103500.0       0.000000
      -12345.00      -12345.00      -12345.00      -12345.00      -12345.00
      -12345.00      -12345.00      -12345.00      -12345.00      -12345.00
       111.7611       15.89179       195.7280       1.004850      -12345.00
      -12345.00     -0.1222225       270.0000       90.00000      -12345.00
      -12345.00      -12345.00      -12345.00      -12345.00      -12345.00
      -12345.00      -12345.00      -12345.00      -12345.00      -12345.00
      2008        49         8        51        26
        20         6    -12345    -12345     10014
    -12345    -12345    -12345    -12345    -12345
         1         7        13    -12345    -12345
    -12345    -12345    -12345    -12345    -12345
    -12345    -12345    -12345    -12345    -12345
    -12345    -12345    -12345    -12345    -12345
         1         1         1         1         1
TUCU    -12345          
        -12345  -12345  
-12345  -12345  -12345  
-12345  -12345  -12345  
-12345  -12345  -12345  
-12345  -12345  -12345  
-12345  -12345  BHE     
ZL      -12345  -12345  
[...]
       625.4252       550.3533       596.2588       531.4180       583.2971
       504.1444       555.3607       485.2057       532.8826       463.6919
       518.3462       442.8478       497.2423       427.5598       481.0691
       408.2435       460.7249       391.2769       440.1904       369.8862
       425.7852       349.3416       403.6561       329.2837       384.1534
       308.3038       358.6569       285.4374       339.6321       262.6854
       316.4183       236.8557       289.6703       211.7184       265.5970
       184.1102       233.6437       152.7540       200.7951       119.4907
       171.0815       82.15866       129.3079       51.44499       98.14983
       14.23753       64.73681      -25.75428       21.45454      -61.80293
      -13.21466      -104.6327      -57.40378      -147.5757      -104.3157
      -193.3903      -149.8207      -245.2620      -198.5828      -294.2982
      -251.1287      -348.4169      -307.4783      -403.6334      -357.7670
      -462.0295      -419.3151      -518.3242      -479.6055      -581.3962
      -535.0459      -639.5068      -594.3575      -694.9377      -650.5076
      -750.1584      -704.8352      -808.5703      -757.6194      -855.5200
      -804.4187      -902.5835      -852.6279      -951.8999      -896.3057
      -991.7124      -935.8225      -1031.451      -972.1838      -1065.638
      -1004.319      -1094.876      -1028.954      -1118.642      -1051.986
      -1136.975      -1064.606      -1150.268      -1077.875      -1158.154
      -1081.099      -1159.417      -1080.115      -1157.413      -1074.495
      -1152.618      -1073.144      -1143.412      -1054.809      -1130.970
      -1043.688      -1108.839      -1014.078      -1082.362      -985.4878
      -1054.130      -959.2944      -1020.250      -919.8606      -980.5103
      -879.3450      -942.2959      -836.8933      -900.6187      -798.9883
      -859.4395      -750.8403      -811.4324      -704.4985      -762.8754
      -656.4086      -716.8590      -607.5374      -670.7330      -565.3066
      -622.7073      -517.3223      -579.7740      -463.1338      -521.2026
      -411.1445      -469.4949      -359.0806      -424.8236      -312.6408
      -372.6471      -263.8009      -323.9785      -213.0021      -272.6126
      -158.8205      -218.3241      -102.8846      -167.3229      -59.41618
      -117.1926       7.796600      -43.40219       70.54727       40.19907
       217.0032      -154.2261      -446.9106       527.9216       1541.378
      -113.7631      -431.5024      -406.6699      -3257.237      -3788.884
       32.07812       4509.812       1051.550      -5066.176       4637.587
       7665.713       43.73828       6035.436       10749.32       4440.596
      -541.0234       6731.211       25789.89       24630.52       5065.430
      -3952.582      -12500.02      -30212.70      -34749.91      -19678.07
      -11567.31      -11742.68      -7896.826      -8282.130      -1274.301
       11402.45       12252.60       16528.66       27048.19       21738.34
       15834.57       14385.49       7626.281       10281.51       12092.46
       2884.602      -1673.582      -7218.884      -4522.053       13292.58
       5004.719      -34050.57      -45708.12      -26222.35      -16303.04
      -15454.49      -3556.443       7098.641      -3072.434      -14873.10
      -3851.547       9760.586       9866.055       18024.80       37340.64
       36893.01       14436.71       3096.430       8372.451       8459.113
       2302.703      -6962.533      -11107.67      -7804.652      -8269.348
      -10704.00      -12261.35      -14676.22      -12323.49      -3891.658
       4610.749       3872.960      -454.5156       5086.344       22533.88
       33953.00       27216.06       9975.068      -3088.118      -2598.053
       4385.381       5117.025      -1307.254      -11957.73      -11123.15
      -381.6523      -2212.309      -8917.936      -8606.736      -10352.94
      -8413.795      -4064.817      -4731.750      -836.8770       6818.304
       3716.406       1195.395       15747.05       25906.74       16138.20
       7618.072       1395.842      -6169.461      -8037.543      -6098.327
      -2267.906      -2514.992      -8231.877      -6275.980      -6110.164
      -15175.42      -16200.47      -6610.998       1203.414       2623.504
      -5233.744      -11157.45      -4275.507       2392.425      -2208.331
      -3576.537       3989.098       8198.488       7323.119       7946.222
       5316.235       1632.996       2382.096       4173.551       4055.272
       1207.031      -7040.139      -10293.94      -2693.459       2265.225
      -5101.168      -11127.05      -3123.363       11675.36       12350.43
      -742.5977      -4641.439      -642.5327       341.8311      -742.2949
      -6156.334      -8912.230      -4652.907       977.4248       2860.246
       2771.100      -562.6191      -6885.895      -9749.330      -5532.703
       450.2969       4986.170       6605.599       1474.533      -7512.001
      -6306.868      -1574.663      -3659.046      -2458.242       6260.410
       10348.26       5180.562       1757.701       3346.223       914.9448
       566.2109       4054.349       2681.110      -3162.439      -6181.070
      -10544.94      -15871.56      -11249.88      -2391.068      -1293.025
      -2965.357      -3361.406      -1725.738      -1129.795       559.5957
       5570.941       9348.709       10734.31       9730.697       6125.316
       4000.280       1514.178       2096.358       4990.651       4152.922
       4212.658       1722.299      -6286.979      -6680.785      -3043.238
      -285.1602      -1094.588      -3398.161       1057.313       4642.235
       3469.086       4872.871       5619.981       4769.550       1417.232
       524.9873       3716.410       3576.560       974.2324      -1025.010
      -5528.664      -11293.14      -13531.38      -8585.141      -6381.053
      -6304.695       3580.467       10476.92       4704.605       1530.461
       3059.133       5001.158       3157.800       607.7500       2622.699
       3248.456       3905.153       4950.924       2294.971       2456.839
      -117.8926      -4309.689      -5283.844      -5780.801      -5037.314
      -8192.668      -13352.67      -10010.82      -11320.80      -16613.11
      -9612.980       2955.383       8867.477       7071.604       5568.754
       11513.77       11703.53       5619.781       3985.396      -146.6855
      -6480.962      -3897.530       83.77051       2997.755       6362.058
       2873.943      -5561.070      -9479.904      -10720.44      -6305.047
       5224.793       12028.81       7764.102      -109.1689      -2356.276
       217.2734       336.8359       3443.805       11320.26       11004.98
       2870.245       1495.595       3338.615       2906.758      -2127.071
      -5424.159      -2019.010       3443.630       4199.903      -1696.173
      -6455.699      -3162.163      -36.37500      -763.1270       3538.523
       10883.28       6097.478      -121.7949       4545.722       6310.295
       12.65625      -7432.391      -6716.493       3020.054       419.3398
      -8374.020      -5276.184      -4494.834      -9160.476      -4833.600
      -2046.432      -5389.373      -4027.203       4075.023       10414.07
       10524.26       4906.487      -1858.128      -2992.187       454.0752
       4462.300       5026.456      -1268.368      -166.1958       2546.967
      -5942.055      -13035.79      -14344.27      -13146.06      -2353.410
       7329.947       5761.988       3155.408       6325.947       4355.391
      -3919.547      -3828.043       6375.525       10034.81       6549.537
       7535.154       7767.464      -1515.535      -10402.05      -11378.79
      -6245.034       128.1660       2954.566       4946.120       5501.803
      -970.4277      -3742.221      -1682.094       2906.664       12617.04
       15762.96       6784.164       62.67749      -1220.397      -1173.221
       1204.693       2788.221      -1624.577      -2602.759       1935.663
       1137.225      -2074.984       810.4727       6185.103       6228.773
      -4125.336      -10227.95      -9079.473      -8913.503      -4187.491
      -1710.001      -3480.986       3418.990       8743.020       2368.994
      -7931.923      -5181.997       5074.958       5023.441       3343.535
       8172.381       8814.991       2308.844      -7700.830      -12362.66
      -7776.197      -2835.037      -1440.719       5746.812       13128.23
       7948.180      -3719.229      -6910.000       359.6064       6498.193
       2436.822       1283.928       4127.954       1559.759      -1154.928
      -3992.965      -13250.07      -16481.49      -5528.932       3123.420
       545.4590      -2095.958      -1032.803      -2722.510      -6408.148
      -754.6953       5975.806       4093.074       1778.863       2081.936
       4991.406       6358.667       618.6426      -1731.092      -4534.025
      -6263.463       1789.973       5171.459      -1525.896      -4732.594
      -6171.289      -9501.617      -11940.87      -8946.989      -1763.023
      -2209.445      -8406.829      -4176.281       5357.383       10577.48
       10292.49       2575.588      -6730.707      -7179.131      -3111.910
      -1946.340      -2942.332      -4686.807      -8778.980      -9805.454
      -5384.475      -545.5215      -2442.447      -7044.544      -5048.197
       37.10742       2931.664       8499.855       13744.94       13096.23
       6757.376       2006.542       3861.871       7617.844       7769.047
       6421.811       2769.670      -120.3960       977.6309       2445.960
       784.5957      -3317.604      -6652.943      -6428.131      -6002.320
      -9028.092      -11807.01      -6182.878      -1860.562      -2634.936
       2199.736       6559.602       3102.209      -1073.241      -658.2153
       1734.704      -274.9971       863.1973       7137.078       7441.908
      -686.6914      -5867.066      -2450.896       2885.695       1407.865
      -2647.437      -3649.007      -1996.480      -1992.949      -7143.117
      -11075.39      -6797.118       97.96680       6233.721       4190.596
      -4245.044      -3254.164       1428.009       2874.579       3918.048
      -1051.132      -3892.418       2209.832       6707.272       2877.000
      -467.7278      -385.4238      -2834.193      -8450.006      -8407.010
      -669.1562       4916.371       613.2480      -6015.128      -3531.954
       2261.893      -622.6230      -4659.753      -1752.135       5160.427
       4457.854      -2488.558      -3192.316       2037.587       6032.801
       1813.956      -3737.815      -1944.865      -2154.652      -2078.024
      -563.5537       397.3203       4208.088       3876.097      -686.2627
       1809.965       6879.119       2678.347      -2342.857       2461.676
       4678.939       4542.837       4756.331      -1068.120      -3363.279
      -391.5791       1041.820       4922.859       7894.877       8263.772
       4931.804       668.4861       41.21191       908.3027       7760.516
       15438.18       11229.49       2614.342      -3931.705      -8439.887
      -11403.79      -9679.990      -5448.795      -4635.084      -4135.379
      -4736.895      -6658.389      -5000.353      -466.3770       4935.377
       6433.338       3901.165       632.3232       1103.635       6706.629
       11535.68       13876.16       16808.13       18815.89       14807.20
       6171.350       2892.395       3260.159       4110.538       3269.129
      -4042.436      -10658.90      -10340.26      -5453.151       3576.168
       8722.691       6894.540       3489.197      -1269.203      -7163.246
      -9349.150      -7292.654      -3935.786      -2350.094      -1001.636
       1383.407      -1641.109      -8535.492      -9876.984      -6128.763
      -2595.204      -2450.864       1213.930       8925.730       7052.979
      -286.5625       1258.129       5006.940       2225.823      -1973.431
       713.6055       11388.96       17754.90       3294.992      -17281.26
      -20030.47      -11268.18      -6076.393      -944.3125       10649.07
       17044.45       10091.45      -2830.256      -11632.91      -9420.323
      -2564.535       4200.645       12278.56       15114.05       9967.861
       1201.418      -6837.441      -8090.578      -5441.410      -9605.156
      -18843.62      -25455.90      -24510.46      -21504.67      -37299.34
      -61949.47      -78689.59      -84459.78      -65362.67      -33723.61
      -1432.812       34333.45       45932.22       16968.06      -36338.94
      -90008.92      -105655.7      -45635.56       66300.31       141257.0
       122918.8       49472.76       15359.62       72075.19       182261.8
       295477.6       372877.4       367804.2       259011.1       81874.36
      -55443.77      -51952.44       67496.81       174173.8       168013.9
       74707.98      -28867.56      -126591.4      -215318.4      -258000.9
      -243763.0      -203556.7      -165795.6      -149700.6      -150905.7
      -131622.3      -84715.52      -43932.36      -37122.28      -54115.58
      -63800.64      -70984.41      -90866.88      -103076.5      -85405.57
      -48765.91      -14771.84       19423.92       63873.06       101497.0
       104326.3       76997.15       41615.99       10130.18       2690.867
       25712.34       55183.75       82062.03       112381.4       135936.3
       121042.1       50882.80      -39984.47      -107507.8      -138387.8
      -146919.5      -130178.4      -60956.25       17158.81       44922.61
       31949.81      -11268.28      -69137.38      -108592.4      -114378.2
      -91345.34      -43805.25       26577.56       86899.09       112177.4
       103839.8       72735.59       40420.45       12889.22       1955.141
       23693.67       53749.43       52423.77       20642.64      -8472.375
      -26022.94      -43611.16      -45378.34      -8326.875       42609.75
       70524.73       65727.11       28604.87      -23340.17      -68756.75
      -105333.7      -127840.2      -117393.3      -75549.17      -32168.48
      -4656.420       5740.760       1535.438      -13271.14      -32002.95
      -36910.30      -24547.26      -6908.023       15350.06       42434.27
       62695.98       56996.66       25914.17      -8106.648      -22471.70
      -10735.30       8986.148       20043.59       24735.86       24954.13
       13137.46       1815.750       16437.84       42352.28       50974.73
       44844.38       33134.03       25649.20       27867.44       23646.14
       6297.289      -17556.09      -35024.53      -31951.82      -17249.57
      -4774.170       4032.266       14488.34       22950.35       20586.98
       9758.840      -10926.28      -23146.66      -8733.809       5442.168
      -7682.891      -26513.03      -14052.65       10325.35       11429.61
      -2671.516      -20688.72      -33531.38      -30129.11      -15441.75
       5250.312       29637.39       42984.66       37252.61       18794.57
      -6089.695      -20040.96      -12444.61      -560.2207       4486.320
       12013.70       24380.03       28586.71       22087.08       19238.99
       21574.82       5100.000      -27911.29      -34778.77      -7819.293
       16303.13       23280.79       18727.56       8916.990      -1731.867
      -16592.54      -20928.01      -8168.172       7730.359       26177.62
       33727.48       29810.07       30916.20       28246.42       19387.37
       7621.900       621.7969       16683.31       42440.58       54714.06
       51561.66       35233.93       10644.76      -10394.89      -14911.33
      -5297.978       1962.734      -2776.156      -21204.61      -43629.19
      -48638.44      -30302.13      -9034.961       6877.594       21582.08
       33249.11       47853.66       58321.10       38082.21      -6344.078
      -34500.31      -37738.91      -33576.26      -25974.10      -14687.43
      -2876.684      -8374.656      -40332.17      -67419.91      -72946.19
      -75285.00      -69105.85      -42723.18      -7127.695       23677.06
       40605.66       36841.45       10514.41      -18551.04      -29131.53
      -25411.10      -11029.50       15149.62       39800.75       42776.56
       22517.33      -2591.422      -18724.21      -20843.54      -12982.90
      -1346.391       13657.64       17421.07       1275.344      -15477.96
      -20605.83      -24502.20      -28873.69      -18939.21       7160.672
       27913.02       28516.47       20281.35       11992.44       6163.078
       15044.48       36583.73       51965.20       49532.59       36790.99
       20085.20      -2006.645      -15591.92      -16390.33      -12220.46
      -6486.332      -8090.604      -7558.109       1486.695       1819.115
      -7305.617      -13336.19      -11514.86      -3116.641       8560.828
       22581.02       36985.19       45234.91       36494.14       13344.08
      -3299.843      -6148.718      -4106.957      -3215.129      -10324.66
      -30494.91      -52555.41      -60964.70      -55903.27      -50467.72
      -56963.69      -69337.12      -76029.59      -77667.45      -67193.99
      -36578.80       644.6094       21640.16       23016.29       19554.25
       19295.91       28900.72       42648.89       43760.51       35407.56
       21731.67       6637.865       3061.504       7221.936       8015.394
       2837.512      -7904.406      -21146.86      -26823.50      -21451.13
      -18102.28      -18967.18      -15702.88      -7954.502       802.5439
       4122.626       1226.652      -5731.953      -15348.88      -19773.66
      -18019.86      -15107.54      -11199.08       956.7500       29347.78
       61892.98       75325.16       69150.69       62787.55       61859.38
       61927.16       65815.12       70389.09       70025.81       61969.15
       44120.13       26366.64       17096.17       6249.727      -15129.46
      -36435.52      -43223.80      -37729.32      -28489.48      -22859.15
      -24159.53      -26750.73      -23816.74      -13816.91      -809.3320
       9257.990       9929.478       589.8750      -8294.334      -8329.434
      -5358.204      -4524.467       1446.707       10194.76       12704.84
       7877.039      -3163.492      -11868.91      -11421.12      -8791.047
