     0.02500000      -309790.2       284236.1      -12345.00      -12345.00
      -29.99499       220.3300      -22.32000      -12345.00      -12345.00
       0.000000       16.44000      -12345.00      -12345.00      -12345.00
      -12345.00      -12345.00      -12345.00      -12345.00      -12345.00
      -12345.00      -12345.00      -12345.00      -12345.00      -12345.00
      -12345.00      -12345.00      -12345.00      -12345.00      -12345.00
      -12345.00      -30.57010      -68.62600       946.0000       0.000000
      -31.54000      -68.94500       0.000000       103500.0       0.000000
      -12345.00      -12345.00      -12345.00      -12345.00      -12345.00
      -12345.00      -12345.00      -12345.00      -12345.00      -12345.00
       111.7611       15.89179       195.7280       1.004850      -12345.00
      -12345.00     0.02679798       0.000000       0.000000      -12345.00
      -12345.00      -12345.00      -12345.00      -12345.00      -12345.00
      -12345.00      -12345.00      -12345.00      -12345.00      -12345.00
      2008        49         8        51        26
        20         6    -12345    -12345     10014
    -12345    -12345    -12345    -12345    -12345
         1         7        13    -12345    -12345
    -12345    -12345    -12345    -12345    -12345
    -12345    -12345    -12345    -12345    -12345
    -12345    -12345    -12345    -12345    -12345
         1         1         1         1         1
TUCU    -12345          
        -12345  -12345  
-12345  -12345  -12345  
-12345  -12345  -12345  
-12345  -12345  -12345  
-12345  -12345  -12345  
-12345  -12345  BHZ     
ZL      -12345  -12345  
[...]
      -1124.841      -932.1948      -1143.976      -951.0117      -1165.502
      -971.8999      -1181.688      -979.8982      -1191.634      -993.4446
      -1197.107      -994.0967      -1197.647      -992.5972      -1196.503
      -987.7026      -1191.875      -983.6230      -1181.850      -971.0681
      -1165.471      -952.8167      -1156.210      -938.6750      -1131.798
      -918.3560      -1112.426      -893.9766      -1083.514      -862.6326
      -1059.293      -827.5840      -1019.903      -799.0208      -991.1438
      -762.8354      -953.3774      -723.8467      -913.0298      -683.2454
      -875.5806      -643.9092      -836.0635      -602.7917      -787.9393
      -552.3562      -742.5044      -513.5934      -706.2983      -467.5219
      -657.9872      -425.9513      -610.2587      -375.4441      -566.4586
      -333.8232      -521.3387      -285.5223      -467.4791      -232.7568
      -424.4357      -183.5293      -378.7253      -147.8203      -333.5138
      -97.08832      -287.2752      -50.72424      -243.0575      -7.355865
      -195.9998       42.61363      -150.2032       90.64322      -104.9683
       131.0171      -53.66946       185.0149      -14.56897       221.4805
       31.43524       267.3823       74.37720       307.8618       110.9338
       357.5973       161.8387       393.7538       203.1971       441.9642
       244.3918       482.3352       286.4167       523.1233       328.8773
       569.8484       365.6696       603.7358       409.9346       642.4614
       436.8344       677.9531       479.8389       717.1790       515.6980
       745.5579       541.5664       782.0879       577.2458       809.0759
       605.1321       839.5354       635.1743       863.8601       651.9023
       883.1055       673.8892       903.9500       689.0698       912.4888
       699.3271       921.5989       700.9333       923.3486       702.7637
       924.0374       701.4683       919.6721       698.0486       913.7627
       685.1145       895.3279       667.7778       887.0315       653.2053
       856.8101       630.2217       839.9563       608.0137       819.4983
       590.7756       799.7441       563.9209       771.3583       538.9546
       748.6155       515.3541       717.0527       485.1451       694.4819
       459.9530       667.6936       431.0936       642.6282       411.8911
       616.1558       379.3027       589.4043       364.2201       573.5714
       318.3423       539.0811       453.2729       926.4897       1056.804
       1868.668      -312.3320      -9951.297      -22369.08      -24369.99
      -20665.65      -12441.47       4060.286       7727.094      -16477.25
      -46771.53      -46744.67      -14148.03       1357.531       29020.12
       83937.89       91331.66       63730.34       43525.53       7808.719
      -25302.27      -32739.21      -38388.31      -33536.60      -22319.16
      -29894.12      -24996.99      -9324.340      -6329.664      -10669.73
      -13878.03      -26446.08      -33773.02      -26367.39      -20268.23
       7639.234       35037.77       20846.05       24852.53       52489.45
       51990.91       39481.66       39158.09       35339.38       28675.41
       20596.03       19389.75       17981.73      -16340.02      -39670.50
      -7222.121       5045.727      -27023.24      -28487.99      -11471.38
      -28912.89      -44985.85      -30719.93      -4776.383       16075.08
       31141.96       36296.53       33852.88       17178.69      -2428.828
       6223.477       18099.88       101.9375      -22876.25      -30989.42
      -16114.00       11411.21       14054.59      -8787.430      -5554.643
       10431.97       5285.113       664.0586       4011.939       3240.223
       1140.365      -6921.336      -13432.53      -7785.999       1835.155
       2614.196       1487.643       789.8171      -1768.408       1094.949
       987.4297      -15767.25      -22502.90      -13933.45      -14684.36
      -12026.30       3711.281       6538.020       6505.521       10872.76
       992.7422      -10858.38      -4675.223       1807.707       7201.758
       18209.92       13942.80       3192.779       5505.738      -7034.301
      -13151.68       1691.514      -3985.381      -14405.31      -2878.634
       1996.746      -1278.303      -2554.842      -5999.542      -2280.382
       1704.934      -5827.334      -7983.154      -6118.418      -3631.432
      -5798.516      -13233.86      -11180.95       6577.227       19293.67
       14694.35       10828.14       11683.26       6836.119       3575.509
      -1887.770      -11665.48      -11564.53       5032.541       10012.25
       2211.845      -1312.211      -13395.92      -24772.26      -12156.44
       2759.893       4549.205       6980.621       7038.297      -1570.203
      -4070.969       4833.246       18048.06       16677.17       12649.37
       9967.062       2356.707       6808.203       20591.66       18063.21
       2893.816      -7546.559      -12173.31      -9318.814      -639.4590
      -2249.359      -14721.79      -24902.73      -19174.05      -9667.414
      -322.8496       8815.947       5263.117      -6772.198      -7694.320
       4766.680       18539.62       23921.48       22278.34       13095.36
      -1630.875      -15979.76      -18310.37      -15959.87      -8886.678
       7025.584       10442.39      -1099.883      -9684.195      -18320.07
      -19518.18      -9437.426       764.2227       6011.148       9793.633
       12004.76       6394.618      -3287.331      -2487.480      -631.4004
      -2879.461      -3763.036      -2241.459      -3302.391      -6649.608
      -3946.451       4410.697      -3338.199      -13905.11      -15333.31
      -13021.73      -1447.436       4667.729      -295.4805       2606.680
       12451.92       17664.91       10010.90      -2930.586      -11677.80
      -8098.535       5393.547       13057.89       2266.488      -8866.984
      -6831.299      -2062.771      -2878.256       2095.523       13056.10
       3091.863      -15604.72      -10141.76       1591.820       10322.40
       14942.10       14219.21       11519.60       6301.111      -5285.371
      -19328.69      -16709.09       5625.697       12841.43       6686.627
       9530.766       11308.00       3968.262      -7273.249      -9407.900
       9916.820       19015.41       16094.71       22037.39       18673.58
       6518.067       306.4590      -5032.994      -7902.885      -11638.29
      -3072.453       17824.23       17911.24       3071.866      -636.3477
      -7420.129      -12452.66      -9193.846      -7055.301      -5451.359
      -7570.486      -11247.63      -3397.061       8927.496       7252.921
      -3190.230       233.1934       7901.747       805.0430      -16111.22
      -19624.10      -16242.63      -16702.83      -10715.65      -1201.736
       2600.198       4417.699      -2464.042      -7172.273     -0.3310547
       3745.539      -3184.189      -2694.367       12240.85       18070.71
       6226.717      -4810.949      -4067.242       652.2300      -2632.931
       927.7031       9378.379       3346.034      -5280.956      -58.55859
       963.9531      -10999.00      -24611.29      -20433.51      -1030.877
       10263.25       10702.81       11587.45       8889.857       7359.392
       7338.933       1502.913      -3415.660       5244.531       13727.21
       13602.35       13985.09       8445.816      -5501.457      -17827.35
      -20131.52      -7532.981      -920.1104       2113.371       11080.06
       15546.07       10896.64       5412.496      -6268.609      -11912.49
       5793.422       16636.92       6229.407      -1073.847      -265.5273
      -9451.070      -24184.62      -24329.25      -16506.34      -2020.922
       9913.574       9570.816       1145.917      -3196.391      -3944.380
      -2982.859       5081.744       8718.141       3360.926       6560.516
       6790.719      -5031.055      -7658.896      -2928.025      -3490.883
       1680.831       4934.109       3986.361       7054.114       3367.016
      -5522.151       84.09424       1109.199      -8295.607      -327.3643
       8628.327      -2314.991      -5282.136       1545.633       2943.184
       468.2549      -1710.480      -4599.430      -10995.26      -6613.557
       7966.264       1438.255      -7436.502       2182.742       10204.41
       4988.473      -3591.082      -3256.907       1082.988       3599.962
       2149.256      -7617.970      -7229.716       4656.768       6343.037
       1178.934       9359.869       10982.59       2562.516       4306.979
       7473.234       7760.039       11860.36       9622.137      -3407.438
      -14883.43      -13596.91      -3075.290      -320.3477      -12255.49
      -11696.87      -424.8887      -5216.414      -13105.77      -6698.252
      -2395.285      -4421.301      -2222.066       3553.467      -677.4497
      -1293.781       10752.02       13706.73       10254.09       7659.082
      -694.7363       910.8613       6362.660       9528.518       11368.58
       852.9727      -5421.006       2356.262      -714.4492      -8421.865
      -4097.876       1801.057       2547.568       2604.125       7497.328
       14025.46       7680.193      -4432.766      -11988.98      -12411.42
       2020.055       22319.19       20102.95       1158.219      -11289.41
      -15745.91      -18725.87      -5676.602       16129.92       17266.26
       3749.436      -3396.543      -6331.040      -8001.990       1489.754
       10342.92       5426.839       2790.435       1738.352       1178.663
       1142.419      -3229.123      -6096.534      -3349.229      -3242.494
      -3951.278       604.8047       9053.182       11529.03      -633.9648
      -12371.07      -8503.109       746.9023       8304.607       9754.775
       5937.874      -2632.055      -3991.215       8601.146       12193.11
       4430.572       1723.607      -2823.109      -8859.219      -3037.246
       10239.31       12412.55       8219.087       1687.303      -4256.398
      -6937.831      -4960.891      -651.7896      -1589.150      -1738.056
      -3162.883      -7011.891      -11942.64      -11658.54       2710.422
       12326.73       8515.664      -7048.893      -14364.20      -2310.309
       6613.727       9251.748       10010.97       4974.738       4260.543
       6985.167      -943.0059      -12659.31      -6463.352       1590.895
      -6827.812      -15325.48      -6263.129       5183.505       5179.727
       4922.980       6749.150       7186.126       2755.316      -6542.900
      -5527.494       7574.871       13920.72      -2082.781      -20054.23
      -19460.92      -7833.695       7261.227       15401.70       12262.79
       5816.240      -5587.301      -12287.29      -4260.945       10293.14
       16271.12       8349.295       212.2969       1438.458       1123.089
      -3578.640      -3147.701      -727.3047      -6013.820      -8323.617
      -5267.052      -4130.776      -1251.456      -253.3484      -1168.578
       453.1631      -2541.690      -1788.557       6563.621       13079.14
       13391.77       6150.135      -234.3984      -7379.152      -19491.09
      -21863.86      -13954.20      -4195.223       6533.059       16860.45
       15233.33       3075.039      -8862.062      -25540.29      -31880.90
      -16758.35      -3077.771       3821.773       10812.20       10078.64
      -1084.725      -8740.473      -12564.75      -16116.15      -17892.76
      -23194.42      -27275.28      -19613.02      -2690.441       11627.21
       15350.02       18088.63       20425.01       17543.34       23685.41
       32171.51       21537.37       4099.461      -9483.984      -23219.98
      -26895.34      -16068.68      -697.2988       2165.262      -15036.77
      -30845.95      -33182.23      -21128.91      -2013.168       402.2480
      -5686.092      -2788.167       1027.270       4136.203       13476.34
       32294.36       44048.30       28641.64       4650.627       2931.539
       12307.30       12675.22       5915.889      -4268.996      -14340.63
      -26985.15      -36665.34      -20956.40       8632.938       22274.55
       19824.11       8886.406      -4024.230      -9482.311      -3694.140
       1785.962       746.7119      -2473.654      -6112.381      -343.8945
       11020.46       13794.70       14588.36       16436.66       4282.852
      -16523.55      -24699.71      -13745.77       16793.70       54404.25
       85685.66       102804.4       83620.43       41298.77       4615.242
      -21002.42      -25566.84      -16689.35       4100.953       34040.67
       40538.72       18429.12      -7722.766      -37821.66      -68894.83
      -68961.10      -36398.00       1209.938       35530.38       52586.88
       26437.31      -54420.00      -171447.6      -267791.6      -309790.2
      -296641.6      -222028.2      -129404.0      -75619.44      -76154.09
      -122480.7      -176262.8      -180849.5      -98059.09       52047.88
       189598.8       262518.2       284236.1       263078.5       217176.9
       181400.4       157436.8       149314.9       148525.4       123109.8
       75991.72       24751.07      -24721.91      -59830.22      -93756.00
      -122183.5      -110340.6      -72271.32      -24213.23       29773.66
       47979.64       19083.19      -28358.28      -72604.84      -85932.39
      -54662.68      -306.3750       63728.78       121534.8       144759.8
       126936.9       81599.70       29399.36      -17614.75      -43617.33
      -31098.84      -409.8047       31404.19       54405.83       55949.39
       46646.16       28030.48       12388.19       14789.39       11356.14
      -2027.113      -14428.23      -18165.16       7803.797       47869.42
       61500.05       47441.28       31542.20       12210.93      -26186.16
      -55631.28      -57034.86      -46493.27      -33638.61      -11532.87
       26003.31       62478.41       75344.12       63417.97       45210.08
       36369.33       33596.98       31825.88       44326.91       67782.80
       77827.14       72620.23       50163.65       10513.31      -28469.03
      -45282.92      -39664.03      -36102.55      -45993.25      -58036.53
      -69164.06      -90413.56      -113749.5      -127160.0      -132351.0
      -122299.4      -89672.09      -48852.30      -20437.33      -14887.72
      -30766.15      -42634.89      -35028.14      -15456.21      -11155.72
      -27344.13      -35310.41      -38001.78      -48341.97      -55835.36
      -53562.22      -53582.33      -54468.06      -53830.14      -67268.22
      -71670.73      -51155.20      -26242.79      -125.7031       18877.16
       30215.08       40560.61       32450.63       18623.22       27036.17
       41557.66       39232.62       38595.38       45271.64       42950.50
       44123.17       53589.17       53676.22       47660.44       51354.20
       48566.74       20522.84      -3588.542       84.58594       12585.27
       26550.66       50144.05       66339.59       68231.22       57941.74
       30213.01       5196.691      -5433.758      -14618.20      -18064.62
      -15417.94      -15383.96      -12236.27      -10375.98      -18877.56
      -33052.44      -36922.62      -23721.12      -10226.85      -1319.016
       17037.05       40710.33       46927.27       40871.17       43920.55
       49049.02       42941.52       24875.39       5518.586       2904.324
       8132.727       10961.79       14425.15      -1004.172      -28131.24
      -33898.17      -26882.79      -19795.30      -17426.62      -21859.32
      -15622.50      -8071.094      -19396.94      -39805.47      -50774.88
      -39286.59      -15294.17       5608.945       16306.20       11347.42
       2415.669      -1185.969      -2059.930      -2577.914      -2487.459
       5262.148       20874.00       28682.36       21123.58       12723.10
       5882.824      -2618.125      -323.7148       16030.27       25267.77
       9705.070      -17970.01      -36847.96      -36078.59      -24120.53
      -8632.637       15433.01       35112.00       39743.23       39256.30
       29452.46       12547.95       15878.91       34813.48       43788.69
       36813.38       26844.37       18727.26       1662.617      -11464.65
      -7651.375      -3897.652      -11144.86      -21160.09      -28024.30
      -21143.64       4287.281       27256.03       44797.69       63776.78
       62749.27       41466.16       28015.42       23964.70       18077.14
       11896.11       2174.570      -16066.69      -38502.44      -60874.64
      -79682.62      -91282.69      -94342.56      -87994.00      -73129.83
      -52513.97      -26406.61       1165.887       13306.29       12863.73
       21323.43       29973.76       28226.38       21544.09       5358.520
      -5014.244       4415.146       10527.22       1066.543      -14933.08
      -24199.27      -27873.60      -31382.29      -23079.04      -9303.844
      -7782.562      -19742.08      -31535.34      -31229.34      -24172.88
      -18180.62      -10347.02      -2579.731      -4238.911      -2146.336
       9762.523       13887.98       14377.81       19430.53       26566.38
       33536.02       37854.81       45358.94       54285.50       51125.73
       29940.80       2947.961      -19462.86      -33476.84      -25775.47
      -12713.18      -15360.50      -19254.75      -21331.32      -23213.41
      -11788.04       8175.344       22741.49       33837.67       36627.10
       28318.95       26851.67       34681.52       35675.00       33439.40
       33044.45       21719.32       6293.035      -1977.311      -6440.406
      -9625.012      -17053.72      -23572.92      -19016.43      -6103.727
       7641.070       22360.95       31362.86       23856.61       10844.88
      -656.0000      -13666.70      -26579.30      -35745.84      -35860.73
      -28934.56      -21489.70      -19741.98      -26599.75      -35140.67
      -35126.20      -26879.10      -14053.53       2177.574       11301.35
       6482.713      -2116.783      -5615.967      -6604.319      -4355.445
       4631.938       11733.10       8928.060       1682.549      -7139.451
      -11516.07      -5831.583      -1097.992      -5726.799      -9792.014
      -6192.488      -6225.261      -5508.791       2973.545       2714.974
