     0.02500000      -463550.8       770549.1      -12345.00      -12345.00
      -29.99002       218.0100      -19.69000      -12345.00      -12345.00
       0.000000       14.25000      -12345.00      -12345.00      -12345.00
      -12345.00      -12345.00      -12345.00      -12345.00      -12345.00
      -12345.00      -12345.00      -12345.00      -12345.00      -12345.00
      -12345.00      -12345.00      -12345.00      -12345.00      -12345.00
      -12345.00      -32.22400      -69.38780       2491.000       0.000000
      -31.54000      -68.94500       0.000000       103500.0       0.000000
      -12345.00      -12345.00      -12345.00      -12345.00      -12345.00
      -12345.00      -12345.00      -12345.00      -12345.00      -12345.00
       86.64687       208.7994       29.03216      0.7790808      -12345.00
      -12345.00      0.5958177       0.000000       90.00000      -12345.00
      -12345.00      -12345.00      -12345.00      -12345.00      -12345.00
      -12345.00      -12345.00      -12345.00      -12345.00      -12345.00
      2008        49         8        51        23
       390         6    -12345    -12345      9921
    -12345    -12345    -12345    -12345    -12345
         1         7        13    -12345    -12345
    -12345    -12345    -12345    -12345    -12345
    -12345    -12345    -12345    -12345    -12345
    -12345    -12345    -12345    -12345    -12345
         1         1         1         1         1
USPA    -12345          
        -12345  -12345  
-12345  -12345  -12345  
-12345  -12345  -12345  
-12345  -12345  -12345  
-12345  -12345  -12345  
-12345  -12345  BHN     
ZL      -12345  -12345  
[...]
       232.8234       234.1202       249.9469       249.9940       268.1405
       268.3889       284.2924       284.3008       298.0287       295.9655
       313.3949       313.1305       325.8749       322.9324       337.6496
       336.4302       350.2107       344.0421       357.7576       356.4026
       370.2590       362.2285       374.8392       368.6090       378.5488
       370.8525       382.4038       372.9778       382.3958       372.8875
       384.5105       368.6173       376.8884       364.1223       371.1104
       355.3569       361.5403       343.5481       349.6828       328.7701
       331.7191       312.3112       316.0036       294.0665       297.3465
       273.3736       276.8354       256.1119       258.0828       236.1476
       239.4442       215.5350       217.6341       195.9290       200.3130
       172.7885       175.8512       153.1661       158.1703       128.0144
       130.5270       102.3665       105.7652       78.96097       82.62315
       52.03081       55.57837       24.31756       27.74016      -1.789021
      0.6940765      -29.01323      -25.02937      -52.24969      -46.68581
      -76.99503      -72.30386      -101.5516      -96.26990      -124.5801
      -119.1124      -149.7010      -145.0746      -171.7167      -165.9241
      -198.7972      -195.0060      -227.5681      -225.8657      -258.7716
      -255.6411      -285.6757      -279.4604      -313.3860      -308.0292
      -339.6315      -336.1270      -367.5081      -362.2793      -395.2085
      -385.8827      -419.9580      -412.1919      -446.5138      -436.5942
      -469.0557      -459.8341      -494.0327      -480.7855      -513.3634
      -497.5613      -531.9106      -521.3884      -552.2639      -538.3357
      -571.7639      -556.4802      -588.1033      -573.1147      -607.2881
      -589.9597      -621.1786      -605.6255      -637.0422      -616.0068
      -649.7258      -628.8557      -658.6959      -636.0432      -668.1177
      -644.5740      -675.9749      -653.7063      -684.6606      -659.0417
      -689.6287      -664.4841      -694.1367      -668.9346      -700.0626
      -673.4534      -703.7146      -672.3687      -702.6124      -671.3193
      -700.9303      -669.1516      -699.1709      -664.9731      -694.3315
      -659.1313      -685.8088      -649.5913      -676.7717      -635.6859
      -663.1257      -625.6937      -650.5344      -606.9966      -633.8862
      -593.2574      -616.7162      -573.7694      -598.4128      -554.0900
      -578.4523      -531.6066      -554.9299      -512.0958      -537.9930
      -493.2751      -520.2700      -476.2301      -500.5311      -455.2521
      -486.2567      -440.0764      -465.5833      -419.6752      -449.8215
      -405.2075      -433.3037      -388.1917      -417.9861      -372.0721
      -404.2609      -360.4591      -389.7615      -343.1663      -376.9390
      -331.7605      -366.8152      -321.2290      -357.0291      -313.0698
      -351.1555      -303.9640      -340.4802      -294.5339      -334.9252
      -288.8302      -331.4235      -285.4316      -323.8077      -277.2111
      -321.2551      -276.7155      -319.5425      -270.8566      -314.9347
      -268.5203      -316.8154      -269.7839      -314.0280      -266.0842
      -315.9675      -267.7198      -314.2095      -265.4872      -316.3545
      -267.2223      -317.9363      -268.6447      -316.4705      -262.6401
      -312.5182      -263.7207      -315.5087      -259.6561      -306.6490
      -255.8172      -308.9162      -251.6005      -294.7635      -243.0723
      -299.4380      -237.9065      -281.7634      -231.0144      -286.8340
      -225.0359      -268.8619      -222.6575      -282.1851      -211.2466
      -249.7126      -211.6265      -287.0816      -203.8210      -222.4496
      -200.7802      -308.9363      -191.1957      -129.9863      -64.12891
       837.2344       7547.492       25658.67       58986.69       107524.4
       146535.0       122023.2       37400.12      -21366.66      -37364.94
      -87231.56      -140086.2      -91246.41      -24836.71      -28238.62
       919.0625       62741.14       60185.44      -9328.641      -42486.13
      -13686.56      -23793.68      -36920.07       14930.36       51704.12
       17499.61      -31147.14      -34364.27      -25376.83      -29800.85
      -21690.76      -8798.609       6862.797       43158.17       58206.42
       50971.17       32152.11      -37038.11      -60312.45      -25008.09
      -41816.95      -45240.03       8453.562       35209.23       27792.35
       25650.27       15655.58       6933.222       2739.781      -3293.508
      -14599.20      -39785.76      -12217.00       41262.12       33341.73
       12956.71      -2389.602      -18214.95      -5442.959       7079.859
      -13769.60      -21815.29      -213.8799       507.1191      -9889.646
       7001.715       15385.46      -21265.72      -37473.91      -8420.477
       13403.48      -4280.887      -21106.94      -18428.86      -48213.34
      -46309.47       1341.852       22973.52       12632.39       21627.30
       60048.57       41871.91       20280.49       33637.75       590.4922
      -31203.36      -25369.51      -4189.243       5615.992      -11754.11
       806.1914       24155.80       11932.12       16387.92       31513.95
       31593.49       13521.80      -18243.23      -13625.79      -1894.000
      -42729.03      -67537.59      -26433.82       1420.074      -11309.26
      -1993.740       16757.34      -13600.14      -38106.07      -3525.125
       20193.35       7697.016       3200.672       13163.45       4236.793
      -15484.98      -20586.26      -5478.303       8677.797      -2777.907
      -9244.141       14761.75       48736.56       35280.62      -3918.731
       4047.670       863.0625      -37170.83      -29367.68       12774.28
       24291.04       16962.74       2675.930      -18298.21      -7775.984
       19816.98       18535.52       11287.29       400.2617      -13940.70
      -12076.20       5503.699       12266.01      -7697.675      -9555.104
       6912.652       9117.648       14559.05       24948.14       10783.84
      -22086.41      -36460.18      -19682.25      -3856.656      -7642.008
      -14503.36      -22874.12      -17132.66       4522.409       6288.057
      -8484.012       4545.297       28886.62       14547.18       1453.469
       32477.55       45823.62       17349.78      -4485.547       20532.43
       45488.37       11223.83      -11740.19      -3866.398      -21541.31
      -32210.62      -26607.10      -19955.71       5083.980      -1882.078
      -42940.86      -28388.00      -9077.268      -12971.87       3827.016
       19964.91       37506.20       34499.43       16971.42       3936.172
      -24253.34      -34540.99      -10897.46       2143.816      -11342.53
      -6109.420       10153.71       898.0547      -16572.87      -7735.762
       16115.00       7904.447      -13991.85       2428.047       28948.45
       31846.48       30288.11       17825.31      -11841.49      -20566.93
      -5725.411       2720.910      -11404.93      -20210.89      -4234.417
       3567.539       9648.027       16396.27       2845.562       1350.410
       15225.89       17736.21       9034.536       5386.988      -4505.484
      -16357.24      -13033.68      -24510.23      -26696.01      -4382.205
       4659.662       9809.043       3160.539      -10942.97      -20242.38
      -19129.74      -9349.898      -653.9219       21561.46       23883.42
       2173.398       7754.312       36253.16       50619.55       22313.77
      -11735.33      -20642.18      -12729.54       4040.859       5927.637
      -10965.42      -7587.750       14495.88       20781.16       18076.73
       23424.54       19374.50      -5808.726      -6657.594      -1103.422
      -41140.39      -61733.30      -40784.86      -26243.82      -17836.69
      -11182.33       4189.316       13042.28      -4306.148       4018.906
       30081.65       24661.29       10071.33       556.4795      -4735.629
      -3888.461      -14388.90      -11271.22      -5277.086      -22143.47
      -16006.91       18420.17       18231.55      -4002.449       4249.932
       12209.23      -12974.14      -26029.53      -5060.878       5671.918
       66.31738       3050.824       3686.652       12299.67       14736.98
       14445.64       32897.42       16473.46      -9874.808      -2417.848
       321.6611       483.3789      -12891.50      -20883.00      -1767.203
      -4068.486      -8342.170      -3672.344      -6992.936      -4038.293
      -16119.61      -12948.65       3136.113       1949.430       31207.03
       39796.57      -11250.21      -20118.57      -9074.115      -8794.962
       1990.828      -8152.859      -10521.62       14029.54       27017.39
       127.4883      -17893.95       11307.59       11923.98       4136.008
       19625.18       12143.62       7680.469       16399.07       3657.992
      -13633.44       2026.906       22780.83       17899.06       5637.583
      -571.4844      -2719.324      -11930.69      -24622.40      -20078.89
       25.53125      -3446.148      -28063.66      -17213.26       15200.82
       3929.958      -4479.521       12982.10      -4163.566      -21245.61
      -1023.012       9970.332       15846.24       26623.83       25470.70
       26064.18       23170.76      -2964.312      -15847.42      -6179.779
      -5775.695      -11062.73      -12062.47      -10369.67      -4659.795
       2932.449       7536.758       6456.309       8678.201       11326.48
       4938.445      -1446.102      -6331.426      -20209.21      -20851.68
       1588.527      -962.0195      -19297.17      -9400.148      -4767.343
      -2696.416      -4708.895      -11482.73      -19553.02      -32039.87
       349.5703       37176.79       19148.45      -1397.688       6541.525
       7836.104      -1935.973       17601.63       29105.76       12729.77
       10986.20       18605.84       23067.10       14294.40      -17077.36
      -27815.51      -2799.759       4832.634      -1374.318      -1892.984
      -17901.09      -27052.27      -2053.620       4502.506      -10273.68
       19761.50       25793.10       9691.945       16674.26       15619.29
       5448.648      -20786.99      -17176.88       16591.26       9448.441
      -16127.04      -1955.180       24565.45       12621.82       2656.633
       12977.21       2328.893      -6653.869      -4009.541      -6587.674
       8584.785      -1909.188      -38965.52      -30030.78       2174.719
      -592.7871      -9580.471      -3398.438       12865.77       15502.65
      -12172.15      -11374.88       10364.16      -13522.05      -55099.61
      -52843.36      -18927.82      -8233.701      -7226.422       6039.008
       29373.75       46441.38       24439.96       7183.501       6028.602
      -8869.810      -4515.529       11940.98       5833.215      -18195.98
      -14234.53      -4699.508      -6909.922       6912.285       10433.25
       18313.23       38389.05       20969.10       3829.941      -1187.705
      -11298.61       17753.02       40731.05       21461.13       20395.61
       36848.56       19713.72      -17275.95      -9045.738       18521.93
       5328.141      -26793.30      -34508.90      -8697.156       25323.75
       30887.12       14699.98       10682.90       28351.03       21721.31
      -20543.88      -50395.00      -66396.11      -58855.92      -20133.28
       4166.562       34946.01       40413.65       16412.56       34617.62
       37007.51       3999.062      -15577.43      -13290.80      -18407.07
      -40278.23      -30412.18      -20388.49      -23103.07       5037.672
       37712.02       19246.40      -4970.594       8605.773       19959.63
       12920.68      -10292.05      -25069.48       1250.863       21929.09
      -9973.180      -25205.38      -12940.85      -26885.76      -6615.410
       20956.78      -1865.702      -5782.280       1337.932       1145.648
       30302.19       28875.15       3287.824       6274.891       10640.52
       17017.68       18582.64       9371.656       21917.43       20129.98
       5653.754       24038.39       15704.77      -24389.42      -20302.87
      -1388.881      -7625.121      -7633.301       5269.039      -7148.586
      -34709.41      -39891.12      -12332.78       43896.28       110543.6
       105541.1       32844.87       3166.291       6335.843       1471.414
       1049.953      -2295.176      -11345.64      -14820.97      -8485.125
      -49740.22      -99751.28      -101366.8      -139292.6      -245247.1
      -350494.4      -421415.6      -463550.8      -430741.9      -358483.9
      -335139.9      -336977.4      -285130.1      -36052.00       342829.5
       625242.8       770549.1       718702.1       486158.8       245278.3
       108816.3       74703.81      -35319.69      -245762.6      -419748.9
      -335122.7       102623.9       358356.3       237275.5       84220.19
      -142970.4      -273198.3      -194332.7      -156164.8      -44432.30
       68977.72       54269.19       201678.9       450581.9       500957.5
       358710.9       77815.12      -210126.3      -280290.2      -154179.0
      -8098.414       25896.57      -19019.52      -66274.72      -76072.50
      -89369.56      -116286.5      -112990.4      -41357.92       74184.74
       45519.00      -9144.156       71523.97       108044.1      -65480.06
      -276400.2      -269008.9      -153939.4      -41698.44       69723.38
       127088.7       207332.1       288825.2       213124.8       124345.5
       16879.84      -137495.4      -54698.73       13902.36      -102682.4
      -50452.89       28173.68      -1475.090       16693.29       14907.98
       18849.66       118179.1       170114.2       118015.3       120901.6
       175971.1       188096.5       121392.1      -23357.03      -100510.7
      -91459.97      -114918.8      -135763.8      -154897.1      -177013.9
      -217264.0      -290465.6      -235615.7      -119882.2      -24935.97
       91823.91       164089.9       167080.4       164904.0       188176.7
       118133.7      -24091.00      -81862.53      -94519.53      -90015.31
      -67564.66      -96052.44      -90866.28       32476.47       149625.1
       181521.8       204915.9       205390.2       145465.2       10687.69
      -160588.7      -159881.2      -82140.66      -77323.12      -64397.02
      -56270.08      -34171.25       43063.12       144982.2       182731.1
       108622.5       16007.19      -565.9844      -21473.84      -80456.77
      -59335.31      -33651.28      -103218.3      -121129.0       17401.78
       68948.34      -9435.453      -23429.34      -101529.5      -176404.2
      -66927.12       57348.91       103898.9       90498.25      -40508.09
      -126807.5      -111341.0      -128972.0      -86523.08      -67243.92
      -24377.81       148283.7       186581.2       94545.03       61064.73
       66143.53       21921.93      -13128.48       19040.50       34143.59
       75035.16       139129.9       80073.82      -43578.49      -33269.93
       32438.42      -16627.36      -75472.67      -62189.98      -15806.14
       44114.71       25380.36       12632.91       44361.34      -6046.912
      -23307.38       16708.55       13740.71       8756.596       2057.203
      -23604.28      -9346.531      -1429.375      -55502.20      -69516.94
      -55423.81      -79886.36      -83583.40       3997.406       94106.86
       54175.15      -25256.44      -49414.05      -16583.66       58166.36
       91446.64       72762.14       29235.93      -13180.14       15628.96
       54659.96       21018.92       10839.64       25466.17      -8935.484
      -46383.91      -36859.25      -54487.03      -78833.07      -17431.38
       29246.59       39753.58       60670.67       70870.69       71830.84
       73334.20       40528.77      -30871.77      -21056.10      -7330.031
      -90851.06      -159283.8      -130691.9      -49661.27       18091.22
       89150.89       93828.52      -20895.17      -76672.05      -51861.55
      -69680.14      -60083.70      -50505.53      -84425.03      -96763.36
      -71788.25       11854.75       102894.0       127380.0       105473.7
       127388.7       155799.6       86758.16      -14067.17      -24344.61
       15927.84       55375.66       132307.3       158909.6       74353.05
      -40241.00      -101665.8      -107806.3      -88072.79      -16025.81
       46620.47       20642.97      -47068.06      -70440.30      -69838.41
      -61667.41      -61073.44      -135372.6      -167911.7      -73029.91
       33840.22       66146.48       33515.27      -14694.19      -21160.14
       49947.00       117063.1       105929.3       42330.70      -26348.73
      -18373.24       25901.67      -9125.719      -22355.56       33251.46
       6963.734      -77925.50      -86553.86      -48246.31      -23678.59
      -38818.34      -35854.17       21682.41       47202.41       40754.53
       95045.88       181040.8       140999.5       55235.71       39155.47
       14202.57      -8235.597      -4148.789      -6756.250      -58773.62
      -134590.2      -127660.8      -85109.77      -64142.09      -47538.06
      -45782.46      -11747.02       33345.87       32399.73       28544.88
       56810.50       79976.66       99445.34       104995.5       82215.69
       80145.81       83051.06       64553.94       45803.27      -7235.719
      -66394.09      -65261.28      -44560.14      -36322.00      -49665.88
      -68927.36      -70021.03      -53849.38      -50840.00      -102732.1
      -114476.6      -81451.94      -110334.2      -100171.9       506.3750
       69482.11       76630.88       55885.72       30142.84       35929.53
       47936.29       17330.94       7228.918       14527.91       15709.38
       39542.42       47251.45       57637.72       39543.73      -25967.39
      -44463.16      -41763.61      -33728.90      -1728.877      -2354.965
      -12739.60      -19584.95      -61292.77      -56800.90      -12426.68
      -26182.16      -16680.56       31592.83       5886.742      -33301.81
       27017.44       101071.1       106305.6       83124.76       39092.06
      -7174.562      -34478.33      -49491.06      -67134.19      -84536.25
