     0.02500000      -350444.1       402426.5      -12345.00      -12345.00
      -29.99002       218.0100      -19.69000      -12345.00      -12345.00
       0.000000       14.25000      -12345.00      -12345.00      -12345.00
      -12345.00      -12345.00      -12345.00      -12345.00      -12345.00
      -12345.00      -12345.00      -12345.00      -12345.00      -12345.00
      -12345.00      -12345.00      -12345.00      -12345.00      -12345.00
      -12345.00      -32.22400      -69.38780       2491.000       0.000000
      -31.54000      -68.94500       0.000000       103500.0       0.000000
      -12345.00      -12345.00      -12345.00      -12345.00      -12345.00
      -12345.00      -12345.00      -12345.00      -12345.00      -12345.00
       86.64687       208.7994       29.03216      0.7790808      -12345.00
      -12345.00      0.1231372       0.000000       0.000000      -12345.00
      -12345.00      -12345.00      -12345.00      -12345.00      -12345.00
      -12345.00      -12345.00      -12345.00      -12345.00      -12345.00
      2008        49         8        51        23
       390         6    -12345    -12345      9921
    -12345    -12345    -12345    -12345    -12345
         1         7        13    -12345    -12345
    -12345    -12345    -12345    -12345    -12345
    -12345    -12345    -12345    -12345    -12345
    -12345    -12345    -12345    -12345    -12345
         1         1         1         1         1
USPA    -12345          
        -12345  -12345  
-12345  -12345  -12345  
-12345  -12345  -12345  
-12345  -12345  -12345  
-12345  -12345  -12345  
-12345  -12345  BHZ     
ZL      -12345  -12345  
[...]
      -31.24120       2.601166      -27.71946       6.052238      -25.49212
       11.77304      -21.20432       16.41854      -14.50805       24.82664
      -7.554108       35.17801    -0.07902527       40.78942       6.788551
       51.80328       15.51689       57.39575       22.66594       67.91187
       32.68680       77.84352       43.01761       87.83063       48.83067
       95.01288       59.89545       103.1376       66.23062       112.5366
       71.55417       118.8347       77.38046       123.8098       82.26727
       127.4745       83.22067       132.1518       88.08109       136.9164
       93.25342       140.4006       92.10590       142.2310       95.99191
       146.3745       100.1595       154.1728       106.5438       158.5510
       109.8687       163.6039       117.3083       170.0540       119.4974
       175.2665       126.0168       179.3291       128.3401       183.6608
       130.6735       186.1960       133.2083       191.0853       135.9893
       193.0659       137.4702       190.1779       130.8488       186.1606
       123.1781       176.0734       112.8820       166.0786       97.88431
       151.0443       87.70367       135.9075       62.14154       114.9282
       48.98132       96.08047       20.86874       72.49953      -1.654510
       48.56261      -23.77766       27.00201      -46.99908       9.202911
      -62.75723      -12.61797      -91.23752      -32.06140      -104.9901
      -53.22977      -130.1288      -71.06085      -144.2565      -83.18726
      -155.3535      -92.82544      -164.8755      -96.22754      -169.8568
      -108.0855      -179.9439      -106.7740      -177.7156      -106.6291
      -175.0263      -96.88983      -163.2332      -88.77484      -155.9539
      -74.14087      -144.8621      -63.50668      -131.5865      -53.04510
      -122.7077      -32.48952      -100.6033      -16.47540      -84.65891
       2.511993      -67.60840       20.89936      -49.19806       36.56353
      -32.78908       58.27590      -12.88495       76.15975       8.574860
       102.2520       32.48773       126.5245       55.65955       150.4688
       81.57968       175.4921       102.1298       200.2733       128.8481
       224.5314       153.8933       251.8661       172.6953       271.3645
       196.6201       295.5212       215.5399       313.8065       234.3504
       334.0270       246.8892       347.6055       264.9100       365.2567
       276.5742       377.6830       288.3149       389.3862       297.3608
       398.3856       306.4153       411.0747       315.8201       415.4834
       322.1526       425.9114       327.9055       427.9180       329.2781
       432.6526       329.6581       431.0530       331.2860       434.6658
       327.8119       429.0413       319.8394       422.5376       314.3822
       413.1195       303.3662       406.1973       292.5267       391.6780
       274.9954       378.0330       260.8340       356.9964       242.8107
       347.0532       222.6646       324.0346       207.6633       311.7812
       185.9595       289.7059       171.1014       279.3109       152.9128
       257.1852       134.1562       245.4230       118.9136       226.2974
       104.6543       216.6064       85.45398       192.4631       64.25491
       180.8783       49.95483       157.8927       23.80240       142.3513
       8.353973       117.4773      -13.11525       111.5854      -28.76054
       83.71207      -47.34706       81.41661      -60.74636       50.17815
      -85.41505       46.13948      -99.83974       12.77965      -119.8815
       20.46832      -133.2883      -26.38599      -158.3345      -3.735474
      -163.5701      -61.69949      -186.6022      -12.25873      -188.8459
      -111.7334      -216.1612       12.32391      -190.4324      -170.8033
      -241.9937       89.97449      -186.4377      -422.9749      -610.7812
      -2609.750      -20922.44      -69496.56      -152584.2      -273618.2
      -350444.1      -236666.7       20612.25       157667.9       125357.6
       188664.7       292278.6       216552.8       69559.28       54850.78
       113706.8       9163.219      -128681.6      -77776.55      -9032.055
      -38795.84      -8453.422       48699.02      -3244.547      -52597.45
      -1106.516       43276.32       26395.72       4737.812      -37742.16
      -37919.02       4171.812      -65682.91      -106279.6       13239.03
       73759.41       76621.38       118654.4       82643.50       1239.105
       14388.84       23216.28      -42303.56      -83988.93      -64967.94
       7273.855       24945.77      -39216.41      -32896.32      -643.0781
       4950.797       45612.27       40263.03      -30854.78      -38535.55
       7817.805       45280.55       36234.43      -26923.17      -36311.19
       43660.62       64920.19      -22998.38      -27504.04       7616.268
      -21231.34       2125.820       30646.10       34386.81      -6638.766
      -55598.50      -47186.34      -26344.89       24139.67       72017.77
       67898.88       9019.375       2276.766       43524.08      -22316.38
      -84172.77      -29968.37       9795.805      -27514.93      -29414.93
       14460.21       28767.64       20988.87       2959.312       16194.84
       24198.66      -12859.85      -22502.69      -36965.59      -55970.11
      -45282.10       8138.414       49114.72       8404.453      -34364.50
      -6541.281       46307.10       13475.43      -20001.14       20332.04
       22595.18       17826.27       17352.36       317.6562       14094.14
       27502.76      -8769.273      -35891.55      -5985.722       5219.882
      -222.4922      -9238.785      -9733.342      -497.1172      -3099.250
       22105.13      -9745.047      -58991.93      -26205.86      -1112.156
      -17587.53      -14814.19       36355.78       70085.29       32212.59
      -14256.92      -6861.422       44223.52       51252.14       3017.602
      -16786.34      -30697.41      -30718.86      -5106.531      -24845.62
      -36925.34      -14302.54       9649.086       23840.68       5136.322
       10292.40       4667.771      -10326.72       1811.531      -28675.81
      -26162.54       10896.07       2604.808      -2048.191       8479.176
       9022.719       17026.38       19656.28       34495.97       48824.00
       14793.82      -35861.16      -26983.80       14101.31       11336.95
      -8690.625      -45274.62      -74434.77      -46090.57      -1131.633
       25591.18       29664.63       16578.84      -4487.178      -6845.996
       16528.95       9583.211      -28614.15      -11659.85       34961.81
       24598.44       5595.436       5529.250       17431.73       30633.97
      -13069.27      -46443.95      -17748.54       6857.075      -4041.531
      -3487.246       12629.16       7565.396      -3898.439      -3281.885
       9862.539       11983.95       5728.428       7383.969      -4262.285
      -11825.66       2474.678       13707.02      -573.0078      -31794.79
      -45923.63      -31562.86       4928.281       26875.35       15520.01
      -2462.438       1444.678       14353.19      -1179.461      -13214.57
       1210.795       9652.594      -18969.13      -37892.06      -7606.352
       21317.92       18047.55      -7068.172      -38799.49      -20101.88
      -2776.309      -18866.44      -7404.695       5933.500       25001.66
       25757.44       8229.199       5986.922       22996.09       47459.35
       11666.06      -26144.64      -749.3965       18967.47      -10049.20
      -22397.17       3997.938      -12845.91      -58268.23      -43735.45
       24918.34       61880.27       33513.14      -18653.89      -19466.73
       23966.48       31891.73      -18838.22      -43611.68      -2283.250
      -2734.735      -6534.969       15453.54       1971.898      -4939.260
       3445.672       11643.64       14298.01       11405.69       20166.25
      -62.83594      -35679.72      -8813.281       37112.03       22110.21
       1302.781       5984.688       4644.477       11182.45       2248.391
      -24019.20      -18915.98       20920.24       47200.59       17582.16
      -31914.38      -34599.17       10736.58       25810.71      -24243.00
      -38806.16       23521.97       47988.10      -1093.781      -34911.49
      -1736.445       31751.79       3072.727      -28277.38      -17587.94
      -1917.984       13244.57       13458.61      -22154.48      -22041.75
       13500.24       13250.52      -23060.48      -43001.75      -7013.090
       12126.86      -2466.508       10858.72       15751.27       35003.41
       69530.30       31487.57       9818.133       36301.10       4509.113
      -25810.05      -13742.73      -24973.98      -49011.66      -41038.43
      -19411.44       5918.188       20665.90      -18049.12      -31145.16
       4955.336       10000.91       1781.816       13282.63       26043.78
       13323.79      -14343.66       3366.648       47058.57       31952.20
      -12407.39      -23192.53      -30834.98      -16842.24       566.9688
      -6244.706       3916.656      -6095.102      -38482.48      -30218.85
       4584.383       25459.83       35513.13       11989.81      -34097.31
      -51327.28      -37503.20      -1271.344       63299.98       81030.23
       11372.39      -33870.30      -22989.86      -18675.44      -19085.11
      -7737.871       2554.496       147.4180      -2345.938      -12874.36
      -27539.08      -1989.367       28433.33       21836.48      -4949.544
      -7822.641       20096.88       33627.70       16790.25      -23358.43
      -18425.46       34351.11       50965.14       49872.55       37208.55
       21711.42       7470.891      -32081.06      -33424.55      -6879.047
      -5589.867      -23462.11      -55745.11      -45369.23       2389.227
       2156.242      -32859.06      -14377.66       40117.64       29126.04
      -13383.59      -19147.79      -5386.508       25677.62       51072.62
       9625.844      -28218.23       8077.562       32207.51       4397.150
      -13231.97       4312.293       46.98438      -17730.86      -8513.008
       5469.031       7015.129       9454.387       14410.44      -1995.453
       6267.266       43828.14       33465.16      -2380.888      -4495.070
       14062.02      -6900.062      -57010.75      -59264.81      -26325.88
      -6776.648      -26611.78      -31431.12       19270.73       19120.53
      -19694.93      -24087.57      -25660.69      -870.2266       45303.47
       21223.49      -12783.38      -4515.148       16348.20       37693.76
       11302.79      -7433.320       30271.58       59424.76       45059.86
       14187.70       9912.872       6642.184      -19365.19      -2251.688
       38605.69       62572.68       57851.46       13404.16      -25735.73
      -41135.49      -17079.28      -3246.453      -37448.56      -52205.20
      -36010.90      -4412.984       38138.47       43098.81       21535.98
       31551.10       9941.203      -44212.77      -52614.50      -47730.62
      -65157.88      -60970.73      -12074.08       25949.67       31361.10
       31270.80       27721.04      -24560.33      -75454.84      -55089.87
      -23346.66      -9931.859      -5880.402      -15655.56      -4738.844
       36675.02       64710.86       56536.97       43362.41       14541.95
      -38930.24      -12358.58       2106.797      -73355.14      -56126.26
       33319.95       72566.62       55918.18      -641.0156      -19020.39
      -2037.934       11832.34       8718.875      -27572.11      -29646.24
      -18437.22      -24205.77      -8845.943      -8657.281      -10181.61
       50366.66       90559.98       44931.54      -9862.168      -22038.68
       70.53906       24654.28      -9228.133      -31069.68       19252.52
      -1410.965      -30851.06       4214.096       7742.918       3512.328
      -12040.91      -1153.203       61192.00       48074.72      -27503.37
      -13395.59       37707.95       23288.30      -2922.438      -28647.10
      -45852.29      -20815.51       11481.70      -11505.09      -49890.57
      -42335.57      -8307.977      -13237.25      -37692.87       3033.770
       24797.69       2243.898       27326.35       46187.84       13006.31
       5730.898       2077.688      -49314.91      -60686.04      -6100.453
       32419.74       40774.29       33666.55      -46033.66      -99057.30
      -49484.52       23655.08       69594.80       22261.88      -29200.64
      -12586.59       2102.500      -31873.75      -98717.50      -123426.1
      -82821.25      -48305.31      -84786.31      -162717.8      -225002.1
      -214591.6      -152843.8      -135242.2      -117726.6      -74772.45
      -53120.55      -11005.41       53590.75       148291.8       294577.4
       402426.5       400660.6       280823.0       108193.5      -32834.24
      -74095.91       24616.77       57188.95      -29521.78      -81903.28
      -123719.8      -123972.0      -70334.98      -14893.59       71429.53
       110950.8       3292.281      -110291.0      -37762.38       111875.2
       140447.8       119514.1       149362.8       173735.5       74899.06
      -112246.1      -173721.2      -96931.94      -43195.35      -22973.79
       11771.53       37561.17       38063.96      -721.1562      -43397.65
      -60665.25      -5955.484       66151.41       23196.91      -69536.44
      -121137.9      -54669.36       51133.95       26513.62      -66967.59
      -88363.72       40942.00       176298.9       165868.2       67366.24
      -48609.09      -56970.94       20650.74       4102.648       5330.438
       87266.91       101001.8       126805.4       107864.0      -8835.656
      -39109.49      -10586.03      -84644.19      -224206.1      -171282.2
       20479.94       103452.9       53616.09      -27885.04      -22620.68
       8581.188      -25821.19      -102676.4      -137902.7      -64548.80
       15442.32       6608.031       27255.02       83143.97       95993.80
       45223.30      -83673.55      -104646.5       6076.531       107527.2
       121574.5       23426.98      -23646.58       2429.967      -3603.539
       19840.77       66379.22       56143.28       52867.30       31162.79
      -23199.27       17560.41       28428.39      -44622.23      -38854.00
      -17988.02      -47135.92      -77361.47      -66753.05      -21430.23
      -23150.69      -31239.97      -45516.32      -32122.47       96314.34
       149726.9       84054.06       63710.50       78490.44       42323.77
      -7213.188      -48088.17      -82757.77      -34624.81       25750.95
       44187.54       15871.59      -70892.60      -76573.53       33337.02
       61242.08      -75.56250      -3939.500      -28578.49      -51747.45
      -18286.62      -3350.078       17612.12       56451.08       59068.05
      -19779.34      -91742.12      -88109.44      -71724.84      -68040.78
      -91554.06      -93303.09      -46415.42      -10068.05      -9852.098
      -4468.021       12942.25      -1292.812       22866.52       55172.74
       37037.73       53866.66       77996.38       65995.41       48322.02
       46950.21       29935.15       12115.12       75682.98       89956.14
       17480.64       27031.36       54964.33      -1809.656      -86414.56
      -130882.7      -113105.2      -93546.20      -56014.72       10274.20
       3860.203       16892.98       41200.02      -74.57031       20558.71
       44561.46       38496.48       30558.13      -19886.48      -20874.77
      -650.2578      -36961.89      -52165.38      -39140.60      -20909.37
      -380.7305       6719.719       25631.66       42068.70       39794.48
       52459.74       46015.09       4140.484      -32338.28      -88668.81
      -92444.20      -14471.54       27652.12       4816.131      -15532.84
       10732.01       7860.906      -31380.79      -19102.16       4247.637
       9848.000       41989.98       53700.13       31055.03       16196.13
      -11140.56      -14674.18       22161.51       5993.848      -31445.60
      -4663.328       34432.23       44254.73       38083.58       23043.61
      -587.9141      -29260.59      -46380.47      -54249.33      -43749.68
      -15721.89      -7452.195      -23368.07      -18405.84       26771.07
       41826.41       19188.03      -6790.547      -47925.29      -25697.26
       30182.62       18498.78      -10442.16      -51113.78      -92856.34
      -91026.92      -48779.69      -3526.172       32454.73       68674.19
       50924.47       30078.03       45730.03       41029.80       39460.64
       50568.42       31397.45       6907.475       5054.368       1146.959
      -3949.625       8797.109       40573.44       79810.00       84350.24
       47239.17       22677.98       26658.26       33874.86       2709.875
      -23163.88      -30534.61      -70060.88      -56152.70      -19856.73
      -62279.12      -99506.86      -82499.98      -56518.45      -32456.24
      -11194.24       8255.451       18560.60      -23443.15      -27530.58
       61410.70       71086.45      -3528.807      -10083.10       36316.77
       10952.36      -66748.44      -51861.39      -10756.88      -41352.20
      -50716.28      -10603.20       21774.31       17602.27       11314.96
       29622.00       48946.20       39443.91       15017.48       21167.78
       32914.70       21170.33      -1762.246       4755.781       49086.55
       69972.80       44581.50       1906.867      -5960.165       4710.953
      -21774.87      -35935.27      -32118.94      -29294.09      -24376.41
      -61331.44      -85277.09      -65154.08      -48519.51      -33696.28
      -11432.58       11193.66       19752.25       24551.09       17736.67
      -21536.38      -57603.94      -55024.44      -35967.23      -16490.16
       11000.59      -4139.551       2127.859       52218.02       39597.78
       42253.44       76762.69       83270.57       53797.08      -4501.115
      -11148.61       35898.62       81655.50       97756.88       87983.38
       59205.02       29782.12       32548.00       38011.49       40915.14
       6707.641      -47921.59      -42552.89      -37101.62      -62190.31
      -46193.37      -13782.69      -38407.81      -60179.70      -60164.40
      -49823.02      -13759.41      -25114.29      -27582.66       6246.523
