     0.02500000      -323705.5       594654.1      -12345.00      -12345.00
      -29.99002       218.0100      -19.69000      -12345.00      -12345.00
       0.000000       14.25000      -12345.00      -12345.00      -12345.00
      -12345.00      -12345.00      -12345.00      -12345.00      -12345.00
      -12345.00      -12345.00      -12345.00      -12345.00      -12345.00
      -12345.00      -12345.00      -12345.00      -12345.00      -12345.00
      -12345.00      -32.22400      -69.38780       2491.000       0.000000
      -31.54000      -68.94500       0.000000       103500.0       0.000000
      -12345.00      -12345.00      -12345.00      -12345.00      -12345.00
      -12345.00      -12345.00      -12345.00      -12345.00      -12345.00
       86.64687       208.7994       29.03216      0.7790808      -12345.00
      -12345.00     -0.8712860       90.00000       90.00000      -12345.00
      -12345.00      -12345.00      -12345.00      -12345.00      -12345.00
      -12345.00      -12345.00      -12345.00      -12345.00      -12345.00
      2008        49         8        51        23
       390         6    -12345    -12345      9921
    -12345    -12345    -12345    -12345    -12345
         1         7        13    -12345    -12345
    -12345    -12345    -12345    -12345    -12345
    -12345    -12345    -12345    -12345    -12345
    -12345    -12345    -12345    -12345    -12345
         1         1         1         1         1
USPA    -12345          
        -12345  -12345  
-12345  -12345  -12345  
-12345  -12345  -12345  
-12345  -12345  -12345  
-12345  -12345  -12345  
-12345  -12345  BHE     
ZL      -12345  -12345  
[...]
       192.6965      -138.5998       217.6204      -115.9670       241.9010
      -89.72736       268.5150      -65.01691       293.8302      -42.56110
       316.9503      -17.80981       337.9720      -1.931152       359.8023
       20.76819       379.1269       37.40088       395.0845       47.67700
       405.1786       59.49896       419.4734       68.27637       428.7101
       78.89355       439.5111       87.41498       448.8245       99.17175
       456.7362       97.88806       457.8630       100.9860       461.0421
       103.1481       462.3781       107.5352       468.2826       109.8668
       472.3445       112.3296       474.1708       117.4409       478.9631
       117.9641       481.0867       117.9037       478.5861       115.0421
       478.5818       112.2711       471.6841       104.7531       463.5573
       93.17700       454.5273       82.04962       445.3701       73.28754
       433.4008       59.26941       421.3356       45.06287       406.1486
       31.31842       398.6144       23.99042       383.5331       3.845337
       368.8544      -10.56567       353.4023      -26.25684       339.6650
      -44.99481       320.2697      -60.30402       305.5059      -79.62466
       291.6135      -90.21423       277.3385      -103.8451       267.2918
      -118.6479       251.7254      -133.8689       236.8309      -149.2642
       221.0036      -165.0158       205.6972      -184.3015       188.4957
      -201.1782       173.8387      -213.4113       160.6772      -230.0265
       143.9930      -245.4261       132.6528      -260.3498       116.0558
      -272.0848       103.7581      -286.7261       94.40063      -296.3212
       78.58569      -312.1254       68.77747      -325.3026       52.61688
      -339.0305       41.15723      -353.3467       25.72955      -368.0056
       13.49261      -383.9996     -0.7037964      -395.1055      -12.80579
      -411.3470      -29.70697      -426.4266      -41.33643      -439.8556
      -56.57910      -451.5272      -66.30286      -468.3735      -82.24976
      -477.0607      -88.71265      -486.3418      -94.45276      -491.9176
      -99.37927      -496.0410      -106.1066      -503.0636      -107.4928
      -504.7252      -108.8519      -507.5263      -112.7531      -511.2288
      -116.0122      -514.0285      -118.1028      -519.2009      -120.0101
      -516.6730      -118.2400      -517.1711      -118.8373      -518.3154
      -117.3146      -517.0131      -115.4111      -519.3804      -120.5460
      -518.5194      -119.3518      -525.1841      -123.3148      -527.8588
      -129.7065      -532.7067      -130.9803      -536.8992      -137.7107
      -543.6895      -144.1746      -549.4601      -146.3704      -553.7112
      -152.2994      -561.4442      -159.8647      -564.4746      -162.3680
      -573.2809      -170.2751      -576.6835      -173.7959      -583.9778
      -180.3359      -589.8366      -186.4724      -594.3685      -189.4697
      -600.0742      -191.2585      -597.5858      -191.0950      -600.1779
      -190.4827      -599.1613      -192.2946      -603.1959      -193.1189
      -601.6630      -191.2881      -601.9625      -191.7095      -600.8376
      -191.8905      -599.5151      -186.5187      -597.2623      -186.2561
      -593.2505      -179.2955      -587.8743      -171.8074      -580.4022
      -160.9443      -568.3073      -154.8546      -560.5336      -136.2629
      -545.2361      -130.5175      -537.4971      -115.5148      -523.4620
      -106.0742      -511.5350      -86.57068      -495.0875      -79.26367
      -484.2919      -55.65601      -466.0409      -54.38086      -459.1623
      -24.74481      -432.6894      -26.11334      -431.4804       17.20850
      -391.8582      -4.650024      -413.6007       75.16663      -319.3462
      -265.0122       72.64844       5573.648       14943.75       36952.16
       68505.25       79557.38       55924.01       29579.82       15884.15
      -5085.219      -38122.06      -51433.56      -36538.41      -43669.38
      -85994.84      -72849.43      -18347.70      -21166.36      -25017.66
       36916.67       58812.91       17917.40       12003.16       38970.03
       18139.51      -194.7617       15817.96       3559.340      -16093.42
       356.1099       3288.049      -12130.64      -1640.902      -8320.562
      -24589.69      -10128.25      -5914.777       6047.867       35685.93
       42531.45       10008.56      -7530.258      -2752.625      -13609.27
      -30702.00      -28858.89       273.6641       24952.59       30280.33
       12192.60      -16513.08      -23578.73      -41835.85      -40872.83
      -22558.59      -21970.00      -11486.67      -4389.910       7301.742
       21630.46      -5652.462      -8256.152       13918.56       7152.547
       22863.44       41947.50       10932.58      -18180.66      -10412.18
       506.8086      -16978.14      -11948.38       10994.77       7145.252
      -3987.029      -1903.328       1063.059      -12563.83      -15627.56
       16719.22       15189.69      -6510.691       1877.699       13023.87
       8862.959       3047.458       4859.527      -3907.115      -7283.510
      -3363.865      -12918.75      -3424.782       3240.129       574.4688
       18678.16       40112.37       31562.93       17862.68       17086.43
       11733.18      -9565.375      -25145.84      -31005.29      -37132.57
      -23570.61       2653.070       12349.78       12907.43       12424.90
       12730.98      -5909.653      -5267.684       13356.09      -8617.359
      -19746.75      -270.8926      -1101.500      -10178.80      -15461.86
      -5193.774      -901.7852      -12450.77      -10714.08       2966.824
       15187.36       10062.52      -5596.868      -1667.586       9895.195
       25474.43       18527.81       4723.719       10457.61       16436.21
       10786.38      -4034.379      -16688.62      -23307.89      -35543.72
      -43035.23      -14449.62       28018.06       36931.84       20252.05
       2702.189       5125.204      -2045.566      -12281.93      -10701.44
      -8367.904       6366.371       15754.44      -3364.939      -10009.95
      -910.5215       3904.008       20419.09       25301.30       7543.691
       10984.30       5207.523      -10383.58      -11522.84      -23391.21
      -30732.65      -15795.67       4054.008       21212.03       32961.70
       27674.39      -720.8271      -2754.730       4610.205      -5916.814
      -6229.799      -1761.723      -3869.924      -5888.695      -12785.70
      -19545.94      -34282.70      -38110.22      -8405.645       12657.79
       7491.254       6961.664       3484.402      -541.1890       2113.734
      -4689.129      -16355.87      -2686.129       9079.871       12371.09
       30514.17       36137.95       14550.28      -6357.570      -24585.30
      -19146.23       1632.082      -80.92969      -6040.002      -5621.305
      -10800.03      -2812.152       12892.16       22694.33       26683.79
       34079.36       24129.18       5195.898      -6669.270      -13873.19
      -20098.87      -30498.08      -22973.05      -7198.312      -10754.72
      -11080.00      -9438.301      -4372.301       10048.34       10789.31
       10354.08       20171.62       18847.76       24686.04       24612.65
       5905.398      -16047.78      -27172.25      -24645.15      -22817.45
      -23411.79      -12087.33      -1948.705       2860.648       14315.82
       20835.97       11596.09       10535.29       2604.147      -6743.898
      -4410.617      -12294.17      -19011.08      -5077.646       6421.016
       8949.016       14149.86       26088.09       33131.67       31957.92
       14124.64      -9826.340      -8998.988       7752.871       14989.36
       7192.642      -775.0723       7245.533       2667.549      -7079.111
      -7122.969      -4226.672      -17897.84      -41037.69      -34223.94
      -12289.65      -24256.03      -42142.88      -37608.18      -25069.11
      -11862.86       6671.000       27956.38       34282.60       19800.18
       10781.15       9240.719      -1214.633      -12561.57      -15150.02
      -12224.35      -2797.305      -8410.193       3603.648       13613.44
      -7100.166      -2431.152       2557.392      -3479.344       7592.457
       7686.521       10592.97       7053.411      -5021.250       964.5000
       7577.780       3333.859      -824.7275      -1532.816       5251.484
       13423.96       20007.46       9147.545      -6509.867      -4684.062
      -1188.162      -10863.07      -11096.32      -216.3984       12764.23
       21001.02       11632.38      -10203.72      -14797.48      -1066.896
       8344.461       10008.39       14032.84       11792.50       271.7031
      -11505.26      -13717.98       1889.387       20190.21       11009.76
       8571.652       12661.16      -5724.902      -23973.34      -16768.80
      -10828.13      -12298.05      -3740.659       4246.335      -1424.629
      -12161.09       1191.012       19708.87       9894.059      -5599.143
      -3497.855       17955.79       14396.09      -5703.852      -1793.827
      -1575.359      -11133.29      -1270.180       5980.772       3285.318
      -6529.672      -14276.16       2679.540       9575.566      -20131.36
      -14949.87       4938.512      -13802.21      -12816.08       13742.30
       15485.91       8010.949       12107.75       14720.70       11471.97
       8339.617       2299.285      -2548.129      -7273.785      -8906.986
      -9096.971       2702.576       8033.586       7882.723       9253.121
      -3371.021      -6577.386      -2122.404      -2361.105       2579.988
      -11029.70      -24557.83      -11639.75       1033.363       9103.836
       15283.74       18108.06       22463.32       7175.963      -2757.711
       13218.48       26129.02       17052.97       6427.109      -12211.67
      -43730.41      -50161.68      -15143.86       752.1562      -23246.88
      -21378.65      -672.2568      -2027.441       8037.363       15008.82
       12556.85       23049.02       8522.348      -13507.67      -2649.790
       197.9746      -10131.43      -10908.65      -10986.18      -8942.020
       511.8457      -1198.982      -6036.352       4930.270       10364.33
      -8246.764      -16541.68       7605.883       44163.48       37214.27
       8058.182      -3889.405      -7761.418       4613.416       10614.50
      -720.9971      -768.3867       14249.64       19335.59       956.1875
      -18191.64      -28912.36      -22023.85      -5930.027      -6360.383
      -15048.90       1343.574       20894.97       15759.84       4660.820
      -9934.324      -20394.14      -8791.770      -11034.69      -20145.91
      -10476.77      -7060.062      -9884.484      -11039.32      -8248.586
       6553.047       18330.07       33769.41       35188.65       25633.16
       31039.67       18308.50       4122.623       3439.371      -11244.87
      -20218.10      -16151.88       4877.723       16238.81       5768.758
      -7433.000      -13050.93      -13879.25      -7333.926       10217.86
       20303.75       19619.14       2008.783      -13120.36      -891.8047
       9854.197       5991.471      -861.3984      -8919.285      -18415.23
      -20051.49      -2569.098       21073.73       20278.60       20284.55
       18227.12      -2796.094      -25142.56      -34390.05      -33627.45
      -27132.19      -12037.92      -1893.063       325.0078       10011.92
       20060.77       10766.78      -594.0356       6169.104      -7633.908
      -15863.95       11636.11       17311.37       3105.395       3802.438
       14506.12       9925.297      -15243.83      -27523.70      -20175.80
      -8793.918      -6639.459       1864.008       19058.09       7095.681
      -12229.86       4489.551       15939.43       8413.406       884.8916
      -6516.092       4358.520       16556.57       4075.750      -16003.69
      -20659.36       2868.332       18518.05       2065.100       1752.922
       23706.30       30348.75       27122.91       14021.74       4849.072
       4954.745      -1391.945      -6539.859      -14654.84      -19546.51
      -25115.80      -24676.09      -1568.484       11720.23       40184.44
       61323.05       25869.12       13244.30       40866.03       22768.40
      -19088.08      -19247.73      -1646.527       10289.80       19805.36
       33798.18       41972.65       14122.14      -12378.03      -30008.31
      -47461.51      -35743.84      -24702.00      -37035.97      -64914.19
      -106804.1      -141045.1      -151443.8      -134247.3      -99774.03
      -97470.44      -130682.8      -121620.4       5888.500       173643.9
       222228.0       108591.8      -87885.06      -254567.5      -323705.5
      -168301.2       218997.1       555540.0       594654.1       333546.5
       10731.33      -97816.73      -16123.48       36873.66      -41813.94
      -189303.3      -278741.6      -177050.6       20566.94       92902.38
       104147.2       178963.2       248659.1       209098.1       33723.06
      -180327.0      -181230.8      -45359.34      -91941.16      -134530.5
      -61577.83      -6475.688       73651.50       105241.5       86069.78
       156842.8       191892.2       42611.50      -152344.1      -229960.6
      -76205.92       89804.30       923.1875      -161719.1      -170017.6
      -6066.156       140468.7       114191.7      -2002.734      -55383.46
      -30396.24       12603.80      -45192.69      -161191.6      -118750.9
      -17951.64       44956.58       71254.27       22093.81       66548.69
       228838.9       243483.8       6983.375      -179257.6      -71578.72
       102021.5       54868.94      -146694.9      -215627.5      -39689.61
       82181.72       19984.23       209.9688      -39981.47      -116989.7
      -59081.34       832.0312       18813.69       123982.0       131291.8
      -3724.617      -1404.016       54795.53       65045.84       77545.66
       39791.77       5069.742      -14506.19      -30743.50      -32539.94
      -64819.47      -116807.0      -129131.1      -44572.45       75780.89
       70751.01      -8442.594      -101847.9      -147608.6      -80963.00
      -92790.38      -139176.1      -24931.56       135416.8       197788.5
       175063.2       111452.8       36989.96      -10601.62       12497.52
       32583.01       6785.289       10966.83       50736.03       72685.13
       19566.28      -49645.47      -71615.26      -61612.52      -6967.973
       6748.109      -66536.53      -68090.84      -36752.05      -24277.95
       19771.34      -38153.95      -68739.08       7221.172       51984.39
       65668.50       43473.28       2835.641      -11367.08      -23380.90
      -31492.93       15843.23       66762.34       74222.27      -5213.781
      -125727.9      -128375.0      -87573.89      -94514.45      -55888.00
       14731.67       59707.66       114197.6       106314.4       9129.469
      -7997.578       63426.61       72659.84       23000.35      -16943.70
      -39872.33      -51456.70      -49671.02      -33438.19       10583.47
       81479.25       141480.4       197785.4       195260.0       80948.25
      -24391.94      -92760.50      -129322.4      -92057.66      -88251.75
      -54744.93       57762.79       34762.00      -58766.58      -64467.98
      -39391.66       11640.12       125001.8       176447.5       75600.39
      -42320.50      -102522.7      -104384.6      -51714.82      -18222.72
      -37894.20      -79689.41      -82170.70      -43358.95      -23587.75
       24530.31       114967.8       110537.6       59203.44       53965.28
       58521.36       66158.22       52585.03       19222.50       17108.62
       46273.04       35248.66       3188.609      -31026.67      -74750.06
      -66966.50      -65225.31      -112788.5      -130620.6      -98269.06
      -67738.56      -42790.22      -57921.00      -119601.0      -103545.3
      -12599.31       41928.42       65865.89       55368.91       32117.59
       107188.8       170496.8       125196.0       42705.77      -24034.91
      -44014.80      -52021.16       13443.59       114765.4       97261.50
       54315.27       23683.97      -74790.31      -130263.4      -102378.2
      -117195.2      -149586.9      -102477.5      -3457.094       55162.23
       32209.16       13456.73       27593.30       14852.62       30571.39
       50305.80       16019.90       13687.97       26401.75       44446.73
       87104.33       65493.89       4590.027      -9380.070      -3294.812
      -37335.09      -79178.89      -74834.51      -41678.52       11260.37
       32718.95       6779.055       14424.00       34381.05       15940.62
       33087.20       46546.27       12145.08       41260.17       65335.15
       33578.51       19640.48      -17850.12      -46152.95       12805.90
       42656.57      -20308.58      -62429.77      -62959.43      -45359.48
      -5133.477       31536.31       64666.03       72896.40       31182.92
      -22131.88      -48495.97      -40160.45      -36447.09      -54433.71
      -36350.89       27487.20       38434.46      -2172.971      -10943.18
      -5612.211      -2462.496      -12862.98      -17464.93       13917.73
       20412.19      -5390.543      -16798.15      -14934.70      -8518.508
      -20407.38      -31140.50      -17756.79       94.18750       43828.36
       66089.01       37562.73       21710.84       12654.83       7328.167
       1849.593      -4023.664       12038.72      -3453.805      -40438.38
      -28395.08       13424.43       41239.30       35017.47      -9234.465
      -26154.87       1991.203       44531.06       121656.7       151456.0
       93193.64       38407.62       16253.75      -21760.03      -92127.66
      -129938.2      -118306.7      -76093.98      -55005.97      -69992.27
      -36075.77      -12616.34      -31324.55      -27335.65      -20951.10
      -5881.359       25391.47       65170.06       120913.6       143342.0
       65812.16      -25514.09      -35391.94      -44873.66      -93583.92
      -95420.84      -68438.66      -101796.6      -97690.94      -4451.844
       54093.44       88164.66       115118.6       89451.19       71584.12
       71706.39       62183.01       30395.50      -46603.66      -88125.14
