     0.02500000      -184634.1       216931.5      -12345.00      -12345.00
      -30.01000       225.5150      -27.51000      -12345.00      -12345.00
       0.000000       20.40000      -12345.00      -12345.00      -12345.00
      -12345.00      -12345.00      -12345.00      -12345.00      -12345.00
      -12345.00      -12345.00      -12345.00      -12345.00      -12345.00
      -12345.00      -12345.00      -12345.00      -12345.00      -12345.00
      -12345.00      -30.16580      -69.47490       2894.000       0.000000
      -31.54000      -68.94500       0.000000       103500.0       0.000000
      -12345.00      -12345.00      -12345.00      -12345.00      -12345.00
      -12345.00      -12345.00      -12345.00      -12345.00      -12345.00
       160.5630       341.4629       161.7333       1.443617      -12345.00
      -12345.00    -0.03507465       0.000000       0.000000      -12345.00
      -12345.00      -12345.00      -12345.00      -12345.00      -12345.00
      -12345.00      -12345.00      -12345.00      -12345.00      -12345.00
      2008        49         8        51        31
       210         6    -12345    -12345     10222
    -12345    -12345    -12345    -12345    -12345
         1         7        13    -12345    -12345
    -12345    -12345    -12345    -12345    -12345
    -12345    -12345    -12345    -12345    -12345
    -12345    -12345    -12345    -12345    -12345
         1         1         1         1         1
VELA    -12345          
        -12345  -12345  
-12345  -12345  -12345  
-12345  -12345  -12345  
-12345  -12345  -12345  
-12345  -12345  -12345  
-12345  -12345  BHZ     
ZL      -12345  -12345  
[...]
      -31730.05       16043.04       2836.683      -8804.551       5861.289
      -23806.17      -30169.69       23643.66       37533.71       9501.916
       2044.680       24420.30       42118.71       39381.61       33997.23
       6862.461      -32244.35      -6608.086       33013.80       4257.402
      -19767.62      -9382.031      -22480.70      -41868.20      -36623.33
      -24813.43      -16778.84      -23274.32      -19527.10       8569.383
       11862.86       9712.859       42116.06       62851.05       31043.05
      -386.9766       12247.77       33229.84       30830.18       16209.22
      -2207.906      -37431.59      -73951.84      -72159.56      -32229.41
       14413.35       39423.48       23292.61       1473.110       2566.133
      -10783.19      -17832.15       32907.98       59211.42       12178.98
      -5613.670       6619.883      -2610.555      -3195.309      -8504.914
      -28482.06      -26844.34       6262.039       42371.38       20375.02
      -26080.78      -37878.45      -43405.91      -26597.84       19204.81
       42097.49       34075.71       4936.133      -31863.08      -32563.90
      -9786.438       4238.602       30833.86       49425.88       21578.16
      -19758.77      -24986.89      -8947.668       2130.426      -1583.852
      -15570.48      -13304.33       6003.297       18475.29       5661.133
      -14872.09      -17484.31      -17265.24      -12855.42       2486.211
       7091.969       11662.32       27542.12       9697.061      -19362.48
      -116.3398       14998.62      -3868.391      -13051.91      -6402.641
      -6217.621      -20573.75      -16112.84       16010.78       21984.39
       4886.506       10920.63       8307.432      -9012.339      -1445.896
       8124.948      -2039.621      -11705.16      -5591.680      -2600.590
      -10681.62      -1412.965       18133.42       22069.73       11250.15
       11397.43       28192.82       28040.87       8565.615      -6522.859
      -10901.33      -17591.66      -23414.05      -25292.58      -33803.20
      -24873.77      -1903.389       8476.426       6832.198      -68.06250
       7552.660       20042.95       11383.55       12054.88       23870.75
       15536.42       6948.851       1370.539      -9990.516      -12773.02
      -14966.89      -20576.10      -13297.45       7823.550       10386.95
      -9499.477      -19274.26      -16636.73      -6452.980       8050.677
       7866.664      -8585.953      -21172.22      -17569.19      -488.2539
       18534.12       24635.38       7308.586       3331.578       30831.76
       30795.84      -43.23633      -8860.750       507.1953      -15399.70
      -36218.85      -21452.00      -1018.516      -12476.12      -26015.85
      -14984.61      -7783.842      -9540.479       2147.070       16393.21
       20108.16       34586.78       42605.12       27199.83       15164.69
       10624.83      -1179.500      -19690.25      -30518.61      -25942.44
      -14118.63      -10163.04      -5492.227      -3519.898      -8475.779
      -1062.705       5887.402       6969.102       11800.20       15613.12
       17620.27      -1227.152      -21233.81      -10768.75       3778.582
       14781.24       16764.32      -56.13867      -10816.40      -5722.742
      -1334.944      -4736.069      -5924.278       763.7129       6353.715
      -8992.266      -25540.20      -21383.50      -16133.35       651.0156
       23734.46       15810.64       7343.422       12692.50       675.0312
      -9942.234      -9737.318      -10261.01      -2863.518       8646.684
       8552.756       932.5869      -1060.556      -1720.804      -6857.145
      -336.0977       21222.92       9725.379      -25050.36      -22091.74
      -6821.175      -3113.883       10986.12       19352.91       6876.886
      -4858.775       2054.064       9478.234       1553.600      -1918.383
       9842.676       15495.62      -7643.484      -27565.64      -16114.30
      -7920.914      -20860.08      -26644.76      -12138.34      -4648.215
       6173.492       28562.19       25738.84       9819.133       14415.76
       20959.64       10808.86       1557.301       11411.55       25799.86
       8936.074      -18237.62      -15397.47      -14683.88      -20875.82
      -5761.628       3914.731      -2204.697       1057.341       6531.980
      -4282.830      -11485.45      -1844.546       2855.294      -2689.586
       11298.71       37993.50       30382.96      -6600.953      -30731.11
      -29658.96      -8735.746       9797.836       13240.02       20052.30
       21741.26       7326.320      -11244.23      -23040.09      -21351.51
      -6864.211       12686.20       20652.67       16206.84       18348.68
       11340.48      -18667.89      -34118.73      -14763.05       651.6445
      -10446.00      -14476.60      -11706.57      -13384.41      -11852.21
      -12888.17      -5109.613       6133.496       9536.516       15405.51
       23028.66       17661.49       9103.252       8034.398       4622.582
       4380.547       13340.95       14342.89       5059.515      -2651.830
      -2696.074       15607.87       15734.62      -17374.45      -33621.64
      -25684.06      -14290.66       3674.688       23326.93       26148.66
       13087.49       592.4570      -4391.234      -16282.09      -14723.68
       9257.309       11438.34       3052.879       3899.154       4371.995
       3696.582      -10841.66      -24787.24      -26626.34      -33282.99
      -19950.47       8368.473       11129.39       9777.053       8947.863
      -5507.648      -5585.438       13339.57       20386.58       13755.57
       17699.04       29620.18       28347.80       13372.00       80.46484
      -8462.316      -14026.77      -7058.406       13092.03       21443.23
       5773.625      -14751.56      -27315.81      -29002.43      -16293.45
      -1441.168       9112.258       22287.20       14973.51      -1603.920
       1448.922      -3574.023      -13021.83      -2327.383       10319.92
       3874.180      -12173.16      -25048.77      -29332.58      -20299.96
      -8923.679      -1528.159      -2415.279      -3366.475       3616.883
       6615.730       14637.41       19277.27       8410.908       5557.383
       4854.316      -6386.197      -7527.809       3723.346       7024.319
       2728.648       5108.328       13298.07       15292.31       17509.54
       24581.27       15890.14       2203.207      -4982.105      -19092.93
      -21154.81      -8946.184      -641.3569       1790.758      -9358.688
      -22013.44      -16642.93      -7102.176      -5989.595      -2162.873
       6889.071       3004.126      -3483.406       4875.625       12305.99
       7693.799      -5487.682      -8618.996      -5131.437      -4252.885
       6138.861       9977.006      -1531.447      -2925.575       5049.354
       7246.232       9441.893       7252.164       1988.732       4935.309
       7947.285       6172.186      -1832.957      -17277.46      -23859.00
      -18972.55      -15121.12      -8821.976       1120.555       12994.60
       20444.68       12283.61       150.3574      -4720.040      -3151.056
       1593.840       12599.11       16175.37       7490.802       4144.906
      -4722.709      -10455.45      -2225.977       3148.011      -1831.770
      -11712.55      -20116.02      -13980.27       2102.709       3381.814
      -6748.919      -6899.666       6264.213       9249.250      -307.5215
       2988.941       17879.96       15614.37       4879.770       4883.346
       1806.093      -3731.023      -8758.314      -2934.797       7254.610
      -474.4492      -2586.043      -2222.645      -11352.92      -3806.656
       8798.037       1150.290      -7177.160       1901.235       5303.219
      -5237.340      -13272.22      -6735.367      -983.5078      -10767.55
      -8799.172       6656.181       8573.912      -4033.312      -8316.547
       453.8408       3961.544      -3349.803      -5221.246       9205.422
       15581.42       9319.507       6846.976       1635.539      -11001.62
      -17464.08      -3826.496       9086.697       8937.463       4150.078
      -7752.213      -8682.168      -784.1221      -3388.243      -3400.818
       5865.363       15792.49       13881.14      -5573.953      -23694.89
      -12633.04       10106.28       3236.141      -9863.158      -235.9111
       7310.509      -119.4287      -5950.021      -3708.787      -954.6274
      -1356.557      -5043.505      -1681.207       5524.818      -3022.473
      -10571.80      -3454.615       3658.581      -990.4609       1285.977
       22257.52       27192.72       10350.64       2308.654       9873.812
       8835.305      -918.0195       4051.210       8259.049      -2156.430
      -15404.93      -26515.25      -24894.19      -2306.762       16835.90
       16887.54       3917.213      -8573.115      -4554.123      -4084.499
      -7762.970       908.3340       6787.482       809.3638      -5109.891
       7508.234       13186.53      -1852.723      -1497.761       5301.504
      -10005.84      -24646.71      -11876.32       11828.32       25288.60
       21490.02       7555.681      -2637.375      -2434.578       8867.848
       18276.38       14520.98       2148.078      -11511.68      -20328.82
      -11957.91      -6725.996      -13054.93      -8313.370       3199.465
       16662.40       19260.45       3286.000      -10622.70      -19538.27
      -23185.26      -5748.223       18496.28       27417.78       21330.44
      -888.6875      -24175.11      -22996.21      -3792.418       13304.31
       14680.34       3630.807       2133.118       1999.615      -660.6816
       5109.357       7847.449      -1236.328      -13722.15      -11287.57
      -3867.049      -7162.714      -5141.234       4729.273       17244.30
       26154.14       19489.12       7338.445      -2406.922      -17265.80
      -25190.01      -16592.82      -57.71680       11087.14       5112.777
      -5414.117      -13367.26      -20366.83      -17804.17       4901.492
       28900.08       29129.33       32123.24       20817.32      -17235.34
      -31083.53      -24289.20      -9969.328       24725.88       50968.89
       44194.17       17969.71      -10096.12      -33227.44      -40491.43
      -22106.99       3835.555       22216.43       29006.21       11268.55
      -15692.45      -29462.35      -30399.71      -14625.77       13293.31
       29703.45       29017.06       22214.48       4981.688      -10344.16
      -16465.80      -32195.13      -29839.58       2132.594       15829.54
       10947.52       2707.781      -14799.68      -20005.84      -7021.545
       4449.193       10366.54       8752.926       9207.297       17888.31
       18329.35       18880.30       10355.62      -17441.00      -29489.04
      -13673.79       1401.374       403.4551       5715.715       14004.94
       1854.637      -8379.651      -5831.851       749.0312       12746.23
       15259.85       6251.738       6625.336       3943.625      -18976.38
      -30805.66      -17239.13      -14320.65      -22141.67      -2340.762
       19618.91       13207.82       18045.93       28273.87       14550.79
      -3179.266      -7955.884      -1109.178       3191.867       1348.500
       14710.00       32319.84       16249.56      -21117.91      -37730.98
      -22827.45      -1375.305       633.2920      -4671.276       153.4219
       8170.273       11179.09       12650.50       21867.03       23771.23
       10376.38       2928.658       1645.445       8743.248       13192.78
       235.9619      -4134.058       5094.238       5082.742       5726.020
       11207.52       13915.77       16410.61       21933.16       18695.91
      -2856.293      -11623.55      -7337.402      -5367.264      -8312.633
      -15748.78      -20076.66      -22858.68      -12614.52       1421.566
       9915.215       3697.133      -23651.17      -33710.64      -10219.33
       21157.94       35721.92       20386.28      -14294.72      -59387.88
      -109540.1      -151151.8      -150349.4      -95762.30      -39671.75
      -13955.52      -23850.62      -56461.34      -96337.56      -126529.2
      -90875.82       8361.969       105244.9       142634.2       111080.7
       81075.50       109541.6       148830.8       137975.9       103522.9
       79230.41       19170.28      -88403.88      -173615.2      -184634.1
      -146118.7      -107616.8      -88083.16      -94523.00      -94417.11
      -56010.69       11506.62       90205.59       131918.8       129610.4
       125592.3       98339.70       12302.20      -66186.95      -76947.19
      -54250.41      -23616.71       4945.355       872.8125      -33068.72
      -77443.22      -98291.61      -69182.95      -10574.42       55257.00
       111695.5       165671.6       207242.3       215793.1       216931.5
       175786.4       73852.09      -4592.500      -34872.34      -61309.25
      -65192.84      -36317.27      -24675.28      -43773.88      -86776.25
      -116413.3      -97584.91      -69627.58      -32029.19       38360.62
       103804.3       157978.3       199246.4       169089.8       69464.28
      -31776.97      -95277.50      -117230.9      -121500.5      -102562.4
      -45047.70      -19267.75      -23093.68      -14974.89      -8647.539
       28463.41       48760.77       9900.562      -32351.75      -61537.23
      -70033.97      -49582.98      -7039.090       19397.50       1811.469
      -43549.98      -71168.94      -63795.69      -29945.28       46048.22
       112909.2       101453.6       47016.51      -16504.31      -88398.16
      -102228.1      -61764.95      -46591.97      -43471.28      -46545.05
      -52995.12      -10574.88       78145.53       136622.9       135758.0
       130100.3       112099.6       57400.06       7983.545      -491.7480
       13354.70      -13823.78      -74824.69      -111195.6      -116057.6
      -110167.8      -65782.78       13906.19       52930.69       68094.19
       91703.00       91810.28       63454.06       35819.47       34077.83
       26597.56      -547.0469      -40076.06      -73846.97      -89386.44
      -84957.39      -32314.95       37999.00       72980.38       65331.14
       43518.39       38196.12       46724.00       62097.91       81141.03
       98095.81       70054.54      -4884.484      -57205.89      -80965.97
      -99564.16      -99821.86      -83726.02      -41647.96      -8408.875
      -39550.98      -67299.80      -46054.60      -36940.65      -29404.64
       2985.367       27507.25       23865.89       4922.117      -4965.891
      -27933.16      -50620.12      -35883.66      -9684.047       7416.344
       27554.97       34511.65       24651.33       40927.39       47102.72
       41991.89       57531.16       50334.91       26390.14       20243.34
       34119.03       39538.14       39959.43       43943.90       3059.617
      -36099.66      -8327.516       26298.91       31034.29       24789.90
      -2445.656      -51772.97      -93203.73      -88567.62      -36122.76
       18751.85       28667.69       13219.92      -3786.996      -18073.38
      -3774.484       13604.63       21837.00       44938.73       57861.90
       46005.55       33399.54       26437.67       20884.10       13837.58
       5663.031      -7264.711      -33232.30      -59121.31      -76113.78
      -77186.12      -57995.16      -42236.84      -41540.96      -28530.80
      -20710.75      -33007.20      -26504.21      -3648.000       16162.06
       44615.45       66057.94       68143.48       63876.80       39697.49
       6721.652      -9640.878      -3267.783       8237.087       5748.017
       3600.828      -12510.53      -25902.10      -14552.23      -19692.22
      -17410.75       8458.609       24002.20       32453.22       25350.60
       11827.99      -9443.750      -32675.76      -20638.73       10490.23
       40680.16       58634.80       48797.64       29847.11       6322.727
      -13968.98      -16606.58      -14275.47      -1354.797       14424.94
       18947.53       12686.46      -12302.72      -48427.33      -71314.78
      -61695.98      -49330.52      -42368.13      -31932.92      -24212.54
      -4019.766       399.5391      -19801.99      -20576.37       328.6875
       10327.59       15722.92       38356.09       45061.49       20246.57
      -5719.609      -21430.00      -31514.77      -19891.86       7377.020
       15047.84       8330.054       1701.162      -4715.688       11059.57
       23822.96       18650.57       21939.13       9247.641      -18849.47
      -27187.47      -9546.039       19278.95       49151.47       60608.22
       36282.10       16999.84       14906.65       4180.575       1673.516
       11625.84       19871.04       31535.88       35085.30       14048.67
      -13274.11      -29542.94      -39171.41      -39769.05      -30037.58
      -17773.11      -14147.78      -13173.35      -8430.016      -11791.32
      -14460.13      -8650.205      -6884.601      -2384.965      -3617.605
      -15430.41      -9747.999       3854.009       721.2500      -3809.730
      -6699.625      -20702.76      -39704.10      -32461.31      -4980.113
      -4140.927      -5879.848       8908.604       861.9141      -20461.05
      -21614.93      -7159.887       6465.893       5930.871      -8869.104
      -11240.59      -2478.947      -276.7305       10609.76       30120.57
       32144.83       15416.99      -6717.707      -13617.89      -8968.546
      -5243.117       8615.227       26276.16       40500.82       27415.42
      -4169.227      -6685.250      -108.3123      -1174.654       6070.621
       13017.08       7846.707      -163.6836      -10012.04      -18237.27
      -22531.47      -25445.76      -10321.40      -739.8574      -5730.656
       8157.078       21224.62       19526.22       17238.23       9216.347
      -2634.215      -7895.761       2273.137       15742.55       6451.123
      -4421.731       59.31250      -2973.804      -2761.498       7258.094
       8955.684       8349.449       2180.082      -4233.605      -2855.707
      -9109.102      -19291.08      -22951.12      -28947.81      -23530.88
      -3163.956       2431.215      -5867.285      -7868.980      -8432.279
      -11791.13      -4942.867       10785.99       22192.85       24424.48
