     0.02500000      -408332.6       413509.5      -12345.00      -12345.00
      -30.01000       225.5150      -27.51000      -12345.00      -12345.00
       0.000000       20.40000      -12345.00      -12345.00      -12345.00
      -12345.00      -12345.00      -12345.00      -12345.00      -12345.00
      -12345.00      -12345.00      -12345.00      -12345.00      -12345.00
      -12345.00      -12345.00      -12345.00      -12345.00      -12345.00
      -12345.00      -30.16580      -69.47490       2894.000       0.000000
      -31.54000      -68.94500       0.000000       103500.0       0.000000
      -12345.00      -12345.00      -12345.00      -12345.00      -12345.00
      -12345.00      -12345.00      -12345.00      -12345.00      -12345.00
       160.5630       341.4629       161.7333       1.443617      -12345.00
      -12345.00       1.784248       90.00000       90.00000      -12345.00
      -12345.00      -12345.00      -12345.00      -12345.00      -12345.00
      -12345.00      -12345.00      -12345.00      -12345.00      -12345.00
      2008        49         8        51        31
       210         6    -12345    -12345     10222
    -12345    -12345    -12345    -12345    -12345
         1         7        13    -12345    -12345
    -12345    -12345    -12345    -12345    -12345
    -12345    -12345    -12345    -12345    -12345
    -12345    -12345    -12345    -12345    -12345
         1         1         1         1         1
VELA    -12345          
        -12345  -12345  
-12345  -12345  -12345  
-12345  -12345  -12345  
-12345  -12345  -12345  
-12345  -12345  -12345  
-12345  -12345  BHE     
ZL      -12345  -12345  
[...]
       270.1299       417.0156       249.1963       429.0658       269.7236
       402.8409       245.9189       427.8818       231.0993       297.1423
      -138.2822      -787.0469      -3080.525      -6852.785      -11805.98
      -16506.21      -18768.01      -12134.75      -671.2539       4752.454
       4290.038       2879.334      -3368.468      -2216.090       11962.50
       19754.80       13822.38       5951.422       94.66602      -4670.652
       8044.570       28870.97       13808.54      -16833.70      -30223.84
      -32314.85      -17717.04       17131.86       17954.03      -19505.69
      -12253.21       20914.02       13915.75       12740.91       25860.71
      -852.7441      -14547.87       35114.51       52337.96       14455.11
      -3839.094      -20473.43      -46889.30      -23823.68       20927.26
       18500.05      -15772.00      -23586.38      -13804.56      -18919.12
      -8159.215       9360.604      -5902.919      -12283.70       12346.14
       14060.29      -10309.00      -4309.664       15885.22       8994.611
       2681.320       5300.765      -1024.219      -7737.781      -16757.90
      -2948.148       25311.37       19328.27      -7662.269      -4443.996
       9380.747      -2223.480      -5784.643       10582.90       2286.188
      -22560.99      -23312.75      -14360.32      -7822.002       4280.642
       7026.673       510.3359       2503.461       12893.11       18652.57
       22006.38       21340.33       4704.932      -10360.51       2411.320
      -2382.492      -31361.91      -32714.19      -29174.94      -24944.51
       4623.512       15570.82      -5078.068      -8313.781       23434.80
       34839.77       13699.14       161.2246      -1971.834      -1634.875
       4468.043       18369.29       17938.11      -4189.281      -30298.28
      -41408.28      -12113.39       10656.36       8623.895       15063.35
       13011.52      -12818.73      -24474.32      -4780.043       16132.74
       29063.30       22182.85      -7454.156      -18532.19       1059.410
       11549.02      -5630.461      -21628.77      -30874.80      -25476.35
       6168.281       24544.08       11596.47       5071.117       1310.359
      -15358.53      -10423.23       21669.38       33235.80       12200.90
      -4230.652      -448.0039      -8387.430      -18614.66      -7898.632
       5114.900       3550.730       4624.158       10245.23      -12574.40
      -34072.71      -11668.01       5749.595       824.2898      -65.99097
       2041.879      -5210.836      -11015.80       7009.168       19641.26
       5571.589      -1433.707       4654.832       12681.24       12954.06
      -231.4443      -5274.725       1643.810       2017.087       547.1914
      -9469.742      -24649.01      -26136.08      -12092.59       3797.491
       100.0664      -7810.703       7043.119       8765.451      -11257.62
      -5477.203       16795.37       22137.88       21468.81       16437.47
       10234.73       3067.083      -2960.432      -7920.129      -8227.938
       5251.438       9040.164      -10399.41      -24924.97      -11121.25
       2453.560       649.4922      -2612.332      -12216.17      -9939.721
       3349.141       13790.38       22429.68       10797.56      -11601.28
      -3705.594       14642.40       12688.27       6891.191       17448.38
       17385.76      -10706.65      -21949.99       536.6484       12393.99
      -1048.078      -14717.08      -18703.29      -21341.74      -10550.26
       10787.46       8762.781      -8740.223      -11047.65      -6521.640
      -542.6367       10638.50       18187.96       15200.36       3252.875
      -9322.172      -9495.057      -6727.028      -1383.840      -232.2480
      -10433.73      -8045.145       3248.529       3645.384       1699.451
       5210.508       14544.75       8773.160      -13606.18      -13827.40
       2584.949       9045.395       15002.54       9942.250      -10126.92
      -13495.79       6188.227       16615.34       6502.331      -7330.436
      -7505.924      -1100.315      -2624.473      -7350.857      -9659.943
      -6921.291       7604.703       11020.96      -4156.760      -4270.854
       9467.355       10921.66       8562.395       4402.447      -3663.621
      -1805.467       370.6738      -5424.064      -7782.831      -5274.037
      -3087.145      -12322.96      -8381.273       12240.89       12473.97
      -185.4722      -2460.816       1192.244       1551.965       7926.328
       15939.54       6366.623      -1397.893       3717.395       1215.102
      -11937.21      -7156.815       7679.552       5781.981      -223.0420
       1658.884       3571.746      -1342.740      -12098.60      -2649.391
       20185.82       17626.18       1415.949      -8532.258      -20394.90
      -17516.60       8039.641       24033.35       12673.32      -4903.264
      -5979.172       4365.957      -3163.309      -10735.99      -1982.523
      -2881.239      -545.6641       9732.932      -1768.633      -13389.12
      -6697.281       2525.649       1506.021       1586.502       10713.86
      -3081.844      -24546.98      -15439.88       8838.609       18035.54
      -204.4336      -19123.50      -14353.80       6114.168       9708.678
      -3029.389      -4246.227      -1675.719       1240.324       13949.05
       13824.52      -2819.688      -11708.03      -5480.430      -10041.36
      -17385.19       608.7012       2083.766      -23739.56      -22279.85
       6301.109       21444.16       10968.35       38.80859      -3694.983
      -4146.535       6015.977       24695.10       29498.96       9000.064
      -6404.715      -5060.781      -57.81836       9368.898       10034.94
       5188.242      -3649.428      -9674.729      -782.0898       5102.296
       1287.926      -9754.324      -15494.24      -5472.934       3127.516
       3966.820       7367.889       7664.991      -1297.231      -1792.900
      -3957.992      -12207.44      -6735.523       13407.68       19390.66
       5073.856      -1468.586      -2201.773      -8387.840      -12440.02
      -14638.42      -13736.12      -9341.450       1356.900       8364.223
      -6241.164      -21218.52      -12375.68       1782.109       11602.59
       21557.21       21031.58       10344.65       9994.723       13300.15
       8910.467       3159.962      -1852.133      -1555.791      -3235.000
      -10547.13      -12561.81      -14975.20      -14640.09      -11080.20
      -5044.500       4580.146       1589.812      -1303.105       15532.87
       21666.62       7380.512      -3878.964       259.3125       6888.203
       5509.295       3907.662       1737.518      -4466.816      -12683.51
      -12820.19      -2012.792       573.7539      -4167.359      -9745.559
      -7477.570       7588.420       10762.30       4766.863       9923.613
       15866.55       14124.15       3744.674      -7364.223      -11249.23
      -9804.811       612.1680       16085.00       12982.68      -2175.281
      -9934.027      -13666.54      -16604.86      -8647.154       3910.943
       3446.478       2960.757      -861.4219      -15458.05      -7003.203
       8071.163       2903.518       1775.733       3750.765      -1248.140
      -4000.598      -4249.957       1157.213       6146.814       6407.193
       2353.961      -1038.113       5604.811       7145.466      -1682.277
       3654.938       12983.10       10405.33       7354.360       1222.960
      -1453.633      -3399.418      -11165.25      -9500.285      -10059.29
      -1540.346       13118.56       7412.817      -144.5254      -6253.680
      -17790.18      -13182.75       22.89160       3847.626       1642.735
       1483.132       4808.694       6228.547       1391.221      -8031.707
      -8146.265       3314.906       8039.652       6057.057       11361.56
       9262.551       2925.186       6107.596      -4732.738      -19767.02
      -15220.75      -4837.817      -3153.723      -1719.400       4432.973
       10168.34       4527.445      -6981.957      -14999.36      -9896.769
       2387.454       3793.912       5411.766       12355.55       14322.76
       3666.400      -7370.840       1054.297       10709.25       7095.023
       6707.986       4420.973      -6788.441      -13564.40      -13764.90
      -7709.443      -6660.646      -9020.219      -4409.085      -2513.862
      -3137.700      -1586.412      -2479.391      -9478.877      -13223.14
       5378.988       22609.19       15230.70       741.0625      -4015.830
      -5074.207      -4522.812       10858.18       19921.04       7346.326
      -9133.797      -13335.44       1508.182       11979.39       6029.137
      -4605.584      -11914.67      -6836.293       7984.320       12963.47
       474.4541      -7544.313       659.5547       7499.922       9004.201
       7571.493      -1910.675      -7817.379       3568.758       14667.25
       10052.03      -2919.077      -3095.111       9884.521       10857.07
      -6869.055      -16236.06      -6711.838      -5746.016      -13051.05
      -12765.25      -5334.810       4378.039      -1136.862      -3859.164
       14288.11       17033.81       3836.229       3737.859       7989.887
       10076.97       8611.307      -4384.441      -9395.156      -4689.281
      -7632.523      -8417.161      -445.8311       3967.391      -6583.311
      -12242.74      -5438.289      -4026.704      -2331.889       6240.018
       7169.830       4438.092       8643.297       2532.025      -5136.814
       4762.742       9131.634       9.244141      -7546.182      -2169.883
       11775.76       11387.39       2389.392       3351.349       1974.555
      -6479.180      -2060.137       10960.45       5564.891      -9061.062
      -9807.289       6373.453       17974.71       11477.90       6327.432
      -2909.578      -19726.90      -15643.01      -1208.234       11313.32
       20868.00       6582.117      -18771.60      -22678.16      -11817.14
      -8664.660      -2228.675       5694.951      -30.25098      -6956.403
      -878.4766       16837.02       25836.36       16695.68       1814.521
      -3228.455       6856.975       12102.90       7937.542       8399.844
      -8352.070      -32135.20      -27337.33      -11769.44       2005.266
       12019.41       11036.75      -1440.570      -21575.30      -21546.21
       1342.082       11462.13       6863.457       9524.115       6989.123
      -3772.420       2521.168       10842.09       892.1602      -13109.45
      -6866.598       7589.116       4653.980       3936.305       11630.14
       9749.129      -2456.113      -10577.51      -10218.34      -5271.969
       5683.305       14584.94       13939.70       9426.404       1957.445
       617.3281       11473.28       9095.777      -6279.402      -12497.76
      -13112.38      -14385.38      -3734.875       8327.664       8525.420
       6101.074      -4121.285      -14930.19      -14871.26      -7221.578
       4209.359       12488.51       12623.05       173.6406      -12398.92
      -11068.62      -4582.803       4308.221       11600.67       7336.988
       9262.695       13935.46       8452.134       1761.277      -5842.762
      -400.0156       11839.88       6795.945       4555.172       20539.90
       19337.16      -5309.262      -10089.05      -4956.203      -8851.289
      -2616.128       1617.582      -2575.590      -7971.363      -20304.66
      -21869.11      -15752.74      -11712.26       1046.612       3490.950
      -3823.773       5041.867       17971.72       11296.31      -1597.290
       91.87598       3652.969       8764.273       23468.12       24050.58
       3394.289      -11410.04      -18157.41      -16372.85      -3486.924
       363.9805      -5118.392      -4695.431      -2573.902      -8145.789
      -13755.76      -9034.295      -3869.812       986.8984       13005.67
       22045.13       13040.46       3802.906       7025.320       9184.414
       11590.45       11376.56       14222.68       14279.55      -6339.109
      -26414.45      -22463.86      -4477.309      -292.3438      -8641.629
      -16186.14      -16986.97      -5829.219       2729.883       1083.385
      -2811.486      -4899.789       2506.398       5878.523       7866.197
       12142.85      -602.4570      -14266.31      -4901.711       12529.42
       12125.79      -2939.590      -16849.58      -24521.96      -23392.66
      -19427.14      -24107.98      -37152.27      -55586.31      -75383.70
      -74563.31      -62039.69      -62370.25      -79458.78      -98603.69
      -105872.1      -110191.0      -112505.1      -113366.8      -116034.4
      -107903.5      -94439.94      -83892.38      -90132.06      -111004.1
      -118354.7      -84740.58       20828.44       187168.0       347043.6
       413509.5       364129.5       257627.0       151068.1       77720.70
       7367.914      -50881.47       8425.500       174613.3       257445.4
       151221.8      -54783.44      -252950.0      -391550.5      -408332.6
      -253742.1       1176.000       200656.1       256061.0       165307.1
       29596.91      -53263.91      -86831.73      -42250.47       80346.56
       222681.0       315345.1       308458.4       223107.7       72416.83
      -68254.59      -109523.6      -93878.75      -133648.1      -232344.2
      -267463.5      -202184.9      -91120.28       26488.56       113736.2
       149503.6       115115.4       59722.98      -5096.125      -87693.69
      -82674.88       23192.59       147109.0       212650.6       176682.3
       81065.34      -43366.62      -171650.8      -236413.0      -198184.8
      -123579.5      -91526.39      -82135.66      -44523.98       12803.89
       28348.55       19566.44       40962.03       60545.33       53851.44
       70529.12       160651.8       244634.2       218655.1       127571.9
       72235.19       49838.88      -5643.375      -89352.19      -132222.8
      -143266.5      -203504.3      -256009.6      -214804.3      -132750.7
      -57486.69      -18257.26      -28087.20      -55811.60      -51724.80
       8271.656       108144.5       201759.1       246706.5       204924.4
       77465.62      -34106.09      -78610.78      -113940.5      -124290.7
      -90293.44      -74545.83      -68349.23      -36531.23      -26086.41
      -35387.47      -18121.61      -11872.90       9403.031       67759.41
       86933.50       101865.2       144040.7       181673.1       193007.1
       133141.8       36260.06      -19214.97      -49438.56      -65882.47
      -60389.89      -52187.58      -68072.27      -100361.5      -57679.82
       34494.16       42521.65       18691.46      -7072.812      -70210.66
      -79093.29      -19384.94       43704.94       81462.47       104875.9
       112767.1       66169.53      -2225.125      -32720.05      -15231.87
      -13419.15      -24929.43      -4423.984      -7496.844      -34850.44
      -55141.75      -52315.66      -28266.91      -73151.97      -131582.2
      -86202.66      -12299.28       35953.33       55030.50       17561.06
      -19840.25      -44041.19      -54946.09      -3540.594       45704.84
       34011.68      -4269.662      -12012.67       41179.50       69781.50
       56619.09       72218.28       102154.7       103372.3       85098.66
       69495.11       19315.53      -65137.47      -103308.2      -85235.85
      -50222.26      -20806.44      -18044.04      -17124.84      -4075.219
      -14417.83      -29674.91      -14388.62       25941.41       61361.48
       66300.26       45627.41       19505.59      -1341.562      -6730.422
       306.2422       20807.69       29218.75      -11159.19      -61934.03
      -97651.81      -106576.7      -73880.71      -33794.69      -5701.672
       14133.83       20124.17       25914.19       52303.62       49051.58
       7053.842       904.2031       23863.78       36303.33       66419.44
       88506.96       55952.81      -2303.703      -52712.03      -73606.11
      -57169.75      -33844.09      -25351.89      -29814.56      -32749.44
      -8975.812       40252.16       59385.82       24743.61      -3493.731
       1787.607       5545.930      -10387.48      -31398.31      -31862.73
      -13066.11       6486.766       3746.055      -12525.61      -14123.80
      -21407.67      -46948.31      -56107.06      -44619.04      -28909.33
      -14835.50      -6171.680      -2979.051       5688.062       9369.574
      -5592.773      -16784.11      -16527.71      -16565.88      -4167.812
       26638.48       53747.30       58721.47       57806.50       58174.02
       50536.80       40345.48       32499.31       37556.17       34279.21
       10324.06      -1889.113      -10017.84      -21290.77      -37701.00
      -58846.16      -75292.17      -76597.72      -61753.16      -55839.33
      -52906.08      -51784.84      -63664.70      -59728.67      -42033.56
      -16431.55       20761.10       27519.50       13792.88       23917.31
       44701.53       58093.88       58864.33       59094.39       60111.71
       31592.97      -4165.324       704.7656       15818.97       31713.94
       55269.05       46675.35       21368.24       11551.73       1113.350
      -10379.30      -9871.917      -2552.476       3417.164       6735.766
       16613.23       45347.03       51303.95       23708.88      -7026.531
      -43081.86      -61978.57      -41767.38      -6205.410       16587.06
       11848.53      -15730.62      -55879.41      -66304.43      -30686.35
      -6544.746       4883.234       24323.74       19121.49       3364.391
       8636.349       8407.926      -9543.117      -26497.34      -24598.68
       1552.922       25454.39       41610.59       43980.34       27046.93
       27084.46       30863.29      -8585.203      -47371.52      -54254.02
      -62472.75      -66114.50      -58092.04      -39329.46      -5792.262
       3740.590       2501.117       27498.27       32998.91       22180.94
       42438.22       63700.84       62962.95       60433.89       53651.16
       11930.59      -20200.65      -759.1406       19980.16       24206.50
       20360.51       19657.31       16920.35      -10617.99      -22171.95
      -11621.98      -5572.270       5689.686       11516.18      -4311.922
      -30647.81      -47387.02      -45554.77      -30097.16      -7485.359
