     0.02500000      -613005.5       345113.2      -12345.00      -12345.00
      -30.01000       225.5150      -27.51000      -12345.00      -12345.00
       0.000000       20.40000      -12345.00      -12345.00      -12345.00
      -12345.00      -12345.00      -12345.00      -12345.00      -12345.00
      -12345.00      -12345.00      -12345.00      -12345.00      -12345.00
      -12345.00      -12345.00      -12345.00      -12345.00      -12345.00
      -12345.00      -30.16580      -69.47490       2894.000       0.000000
      -31.54000      -68.94500       0.000000       103500.0       0.000000
      -12345.00      -12345.00      -12345.00      -12345.00      -12345.00
      -12345.00      -12345.00      -12345.00      -12345.00      -12345.00
       160.5630       341.4629       161.7333       1.443617      -12345.00
      -12345.00      0.2205037       0.000000       90.00000      -12345.00
      -12345.00      -12345.00      -12345.00      -12345.00      -12345.00
      -12345.00      -12345.00      -12345.00      -12345.00      -12345.00
      2008        49         8        51        31
       210         6    -12345    -12345     10222
    -12345    -12345    -12345    -12345    -12345
         1         7        13    -12345    -12345
    -12345    -12345    -12345    -12345    -12345
    -12345    -12345    -12345    -12345    -12345
    -12345    -12345    -12345    -12345    -12345
         1         1         1         1         1
VELA    -12345          
        -12345  -12345  
-12345  -12345  -12345  
-12345  -12345  -12345  
-12345  -12345  -12345  
-12345  -12345  -12345  
-12345  -12345  BHN     
ZL      -12345  -12345  
[...]
       743.8691       2419.301       6727.109       15635.72       28961.88
       45275.19       57608.73       52881.60       27166.42      -5200.625
      -28989.92      -32755.69      -14172.08       4882.057       3023.734
      -16868.80      -44615.78      -66735.34      -65242.27      -17236.66
       43826.91       69193.41       70673.23       32379.13      -25779.03
      -33795.95      -13107.62      -715.1172       22991.80       35064.23
      -6499.031      -60245.02      -73966.38      -53508.49      -24543.88
       16090.70       49731.90       19421.84      -30988.86      -24680.55
      -11057.98      -4966.711       28535.13       30318.35       2607.730
       7043.473       13942.60      -2010.205      -10651.85       1086.367
       7941.605       12782.90       15185.71      -10318.38      -36405.93
      -22690.98       5132.996       17313.97       11931.07      -5882.533
      -9820.967       9439.582       13809.12       7861.193       13708.32
      -4514.324      -24882.78      -3674.070       18838.59       669.9453
      -25709.72      -16247.20       15460.09       36971.68       34554.77
       21174.13       4033.035      -16130.97      -28299.93      -16308.26
       7576.594       15225.26       6508.566      -6021.922      -22343.55
      -33543.89      -23980.60       8518.125       44423.30       49567.13
       27479.49      -6503.922      -35679.42      -26233.82      -10481.47
      -2612.654       13289.17       977.8281      -17821.59      -22969.34
      -28172.60      -12892.86       7726.086       22811.73       29175.57
       20724.17       9968.998      -661.1094      -13869.11      -10598.13
      -365.0547      -11788.37      -9205.875       12245.79       18180.02
       6867.983      -2573.087       331.5098      -1134.117      -1771.293
      -543.9219       2412.061       6642.409       2679.336      -4918.281
      -11593.35      -10015.06      -450.7437       973.4023       5615.430
       7290.674      -7188.988      -6507.117      -4264.234      -22716.00
      -17725.21       3610.128       700.6221      -6924.418       3871.745
       8330.078      -2047.303       4541.602       15768.17       6180.360
      -2220.438       4548.379       9604.113       4521.984       1830.602
      -8105.324      -14868.46      -6543.002      -7454.059      -2495.914
       1146.125      -13208.21      -5694.035       6404.098       4859.854
       9565.797       7112.200      -1774.854      -1007.084       3002.137
       13670.75       13980.43       533.3867      -8203.119      -13892.76
       328.6836       20977.63       18667.64       4429.488      -12269.93
      -13930.15      -4721.252      -4607.915      -3147.660       5688.658
       8289.207       1423.598      -7998.109      -8985.812      -1341.252
       4616.963       3835.535      -2122.724       362.3242       6925.871
       3966.252       635.5547      -398.0295       1007.496      -1910.875
      -8377.039      -16650.90      -18298.35      -10590.79      -9636.581
      -9233.732       2498.098       10770.71       16407.64       19337.47
      -3575.930      -24872.70      -10468.80       9072.195       12406.94
       8101.008      -1858.133      -14052.66      -16147.57      -10477.62
       6364.750       24266.31       25197.77       14374.61       631.1729
      -919.1055       15898.64       17050.76      -1453.391      -7127.656
      -8917.672      -19794.61      -26634.71      -28062.61      -14632.97
       5272.529       10164.71       4147.166      -3616.545      -1388.730
       13713.83       24814.62       26590.40       22663.49       11880.62
      -264.1758      -6738.934      -16049.81      -17262.98      -14526.66
      -19706.49      -20307.08      -18436.61      -19506.47      -6522.916
       8030.201       5737.116       3177.398       9050.922       18131.07
       18780.85       9683.078      -565.8574      -10697.49      -6334.859
       11377.06       16649.83       7383.903       2768.801      -5111.670
      -10459.68      -4397.767       3037.104       6185.278       182.9141
      -6243.482      -6305.255      -5941.674      -1942.275       2617.121
       8809.184       14939.77       10138.67       1913.746       6074.918
       5537.922      -6509.584      -6853.492       2970.004       7393.859
       10634.62       6359.787      -7690.328      -16462.16      -14803.04
      -10700.56      -6340.762      -7152.246      -15263.08      -16006.14
      -15824.75      -29208.04      -27195.82      -6048.783       2766.035
       6554.512       16390.21       8657.466      -845.8945       15079.80
       24822.69       10164.81       6673.672       10517.86       11534.36
       10063.48      -10781.60      -20115.23      -7444.208       758.5049
       7801.326      -1666.492      -7505.707       12858.08       17937.96
       6226.314       2883.647      -90.00635      -1665.215       3920.949
       12582.25       14334.13       9107.912      -2131.168      -12345.22
      -12806.48      0.2675781       10554.36      -3952.699      -4963.609
       18465.16       17443.86       7259.562      -9299.750      -23845.22
       2540.312       36997.52       32386.71       8922.250      -1055.219
      -8238.012      -16289.36      -5380.263       4150.188      -1141.547
      -17755.55      -32059.81      -26708.07      -16656.05      -7679.715
      -6432.434      -10442.70       3086.449       9552.572       5575.559
       14721.84       13672.47      -10204.38      -20374.54      -10118.60
      -1818.211       4578.448       7562.320      -3112.684      -13538.59
      -16087.32      -2148.457       17205.13       16166.87       9204.807
       5782.088      -5783.221      -5457.324       9372.197       9758.061
       4371.270       4242.030       3281.276      -2438.069      -7282.260
       5220.785       9527.641       3588.904       6692.001       3540.877
      -5290.484      -6981.664      -11531.83      -10735.70      -1395.919
       1290.060      -1104.579      -258.4102       3517.824       7186.482
       7182.398       7815.848       10343.60       6940.954      -4421.780
      -4070.039       9457.025       4127.992      -18924.64      -18538.38
      -7951.111      -2468.641       8829.762       10231.24       3361.736
       3423.434       4374.289       2112.875      -5915.227      -8366.520
      -5300.025      -8959.172      -2632.896       6146.736       2054.373
       6181.711       17397.62       26606.26       21358.31       10604.71
       5914.351      -616.0597      -422.9781       88.34192      -316.6641
      -1040.400      -9177.038      -4213.256       2108.754      -4337.346
      -7568.514      -1765.820       3416.637       7918.865       8957.137
      -4395.578      -28884.99      -36250.03      -17509.64       1824.982
       7919.531       8213.117      -2493.102      -19555.79      -16914.14
       3029.359       10417.54       12064.94       14193.87       174.2168
      -12575.42      -7044.052      -578.3633       9420.424       14784.85
       272.7129      -7918.794      -1041.712       1724.062       1502.730
       1677.486       1277.218      -4862.194      -4346.098       1018.979
      -3582.146      -6401.109      -2644.959      -3993.473      -3225.578
       2147.352       10346.54       13804.39       5481.834      -93.36133
       226.2305       4030.711       11808.23       10247.06       3752.928
      -1888.422      -4208.812      -1572.969      -9407.441      -13175.25
      -574.9668      -2250.238      -6438.630      -4418.987      -2360.154
       8850.182       10573.21      -8471.068      -11058.97       486.2070
      -3053.779      -5052.501       4181.778       415.8486      -6903.539
       5054.090       15411.15       7124.329      -2166.702       3710.120
       6735.834      -240.6958       682.6055      -5352.055      -18326.15
      -16118.20       1506.504       19694.68       20437.12      -5366.822
      -15339.67       1998.800       4070.797      -4523.580       2667.299
       6944.131      -1941.906      -5493.297      -9661.453      -14456.69
      -3371.469       6609.680       2309.183      -4079.118      -1178.916
       6261.301       14269.09       15910.80       12267.73       8341.609
      -1624.793      -4810.418       4722.652      -2289.551      -13605.37
      -2196.795       5858.396      -420.6338      -1239.307      -6779.000
      -12501.97      -9631.973      -6161.145       6587.320       17246.41
       9949.156      -1820.836      -17836.00      -21683.12      -7242.365
       3509.471       5180.506       2991.414      -2032.055      -11757.02
      -19086.12      -10738.36       1551.884       2593.003      -1177.564
      -817.0493       16.29297      -4001.766      -13585.67      -15767.25
      -2866.884       6140.405      -363.2170      -2206.199       2280.121
       5895.264       7035.809       2257.678       6404.914       16988.39
       17221.85       14863.24       8482.234       6919.197       3478.754
      -15859.88      -17937.76      -5.931152       1396.460       1458.836
       8306.131       5836.586      -61.39258      -5310.834      -3474.771
       5256.947       6128.320       2208.172       443.7209       769.6455
       1670.232       4016.980       5028.516       9856.164       5912.027
      -4675.840       2673.338       4428.080      -5084.709      -1008.302
      -2082.060      -7511.241       3102.498       5577.725      -10589.20
      -10848.86       305.9932       2163.008       3778.867       5353.270
      -147.8691      -7783.244      -11204.65       3989.102       19448.75
       13314.25       4627.133      -1987.628      -6046.566       1051.883
       10194.44       20782.70       19067.13      -1230.906      -21296.27
      -30780.54      -23555.98       2296.711       25355.03       25145.81
       11214.53       950.6211      -10761.45      -24969.93      -20048.11
       278.7344       10956.18       9588.770      -6878.266      -20246.78
      -16221.03      -9276.967      -1848.917       5167.926       5704.516
       6423.547       6049.387      -1855.809      -15551.98      -17526.24
       57.90625       14551.08       9499.998       5569.450       5189.709
      -7530.862      -9464.570       11555.62       25262.08       23974.94
       13770.91      -2191.434      -14827.34      -14976.10      -9870.723
      -13602.30      -15359.31      -15645.25      -13873.10      -6267.096
      -6848.659      -470.3359       9033.316       6574.109       4556.125
       11369.75       17850.20       21841.21       18158.25       153.6602
      -19565.97      -25275.73      -10887.46       16004.75       23384.74
       5006.520      -15030.27      -26221.63      -21870.73      -13350.66
      -800.2812       21501.40       21398.37      -1498.035      -14939.73
      -9973.854       613.8262       8092.980       12711.88       12606.36
       6866.092       4742.874       4101.642       3170.688      -3511.453
      -12920.99      -14107.67      -10875.48       365.6328       11776.60
       13483.13       15772.45       5369.676      -14149.14      -17509.59
      -8388.121       5716.734       18198.48       17072.83       7166.344
      -4230.781      -11783.70      -12594.38      -6383.164      -1800.641
       1406.607       7390.896      -1165.080      -2183.580       11372.56
      -810.1123      -9417.209       2907.820       9795.191       17955.53
       19520.41       6008.631       1353.457      -10154.80      -31561.16
      -22839.94      -5338.676      -11257.92      -15935.23      -10622.16
       2845.879       13742.31       3621.027      -9220.715      -15127.54
      -15909.96      -1252.695       14483.05       14325.29       4035.669
      -1219.348       3567.562       5000.365      -630.6719       1156.211
       7148.162       5001.488      -1735.890      -5304.812      -1937.581
       4931.466       3042.668      -2860.305       10107.81       28621.66
       23896.14       17600.15       19424.80       12150.53      -2061.210
      -1435.402       9372.449       8032.309       6079.285       8045.475
       9317.836       13807.14       11475.01       6787.215       6767.734
       7289.820       16274.59       30409.90       25198.06       8295.264
       4948.030       4590.299      -3824.773      -16869.98      -35979.48
      -51210.36      -58572.69      -57220.23      -45810.52      -51757.66
      -101061.8      -150069.6      -137826.3      -67095.72       21315.62
       97445.38       152884.5       194307.5       232699.9       272785.7
       314413.2       338729.8       345113.2       333396.3       281848.4
       162893.9      -53289.75      -250913.6      -262727.1      -118366.7
      -38830.38      -161903.9      -381063.5      -559332.2      -613005.5
      -510294.7      -274541.2       33807.38       229227.1       243883.4
       238081.4       250415.3       252520.2       216403.2       132879.8
       153346.0       248533.9       247190.9       144249.6      -72148.50
      -321975.6      -410779.5      -380132.1      -303420.5      -187319.4
      -154600.4      -229403.0      -314898.6      -358556.2      -314681.2
      -177959.0       14619.62       210038.1       280454.2       224929.1
       173737.9       134222.9       55434.66      -6766.641       8433.938
       65336.06       108020.9       73278.25      -33009.61      -90588.03
      -34131.97       52546.25       130867.2       187532.8       150310.9
       57416.51       6503.656       33053.72       121323.4       204113.8
       216618.6       151728.9       11035.03      -134828.6      -176565.9
      -115307.3      -28709.75       14111.62       48098.72       90271.14
       54352.86      -30636.38      -59352.72      -66291.81      -99892.19
      -120307.0      -109088.5      -72189.27      -10436.86       42591.53
       48689.94       21566.97      -11693.00      -66974.44      -151802.7
      -165643.5      -24535.44       120927.0       108030.4       33877.58
       7042.281      -56042.00      -119252.0      -40230.44       78289.53
       117063.5       138615.3       164330.7       173964.3       110458.9
      -4760.453      -53362.53      -82244.28      -101154.0      -91819.88
      -87165.50      -59491.47      -46595.81      -72768.34      -88747.58
      -43632.91       45142.41       103615.5       103208.5       75393.63
       40945.70      -547.8027      -2447.895       16612.46       10446.64
       8426.703      -32860.41      -99187.98      -91150.34      -60181.70
      -50278.09      -31239.64      -18562.50       35471.97       111555.5
       104517.3       67853.95       66576.93       21851.20      -53534.98
      -48508.56       16929.44       56002.08       44785.10      -20945.22
      -108214.2      -147413.7      -106428.3      -10274.77       50579.28
       23070.22      -19287.46      -10832.51      -6696.652       1581.258
       36353.67       23138.93      -3543.781      -23741.38      -50584.75
      -22495.18      -3893.078      -59902.30      -65226.53       2746.578
       53261.94       82722.56       82459.78       70236.72       65524.06
       44463.77       28628.19       23060.96       24726.71       34421.47
       33407.84       43750.66       59874.36       19556.03      -38059.69
      -8641.844       72065.94       73219.14      -23189.50      -84842.64
      -70723.94      -57280.77      -57154.78      -66655.38      -57398.05
      -32469.14      -33126.20      -30856.45      -8414.906       28167.55
       65858.39       71565.79       51673.17       25227.12       8361.867
       12315.27       22843.03       28625.12       23248.25       20864.01
       6331.059      -12913.97      -12975.90      -22259.94      -22741.82
      -15117.77      -25358.59      -55967.41      -56274.01      -11041.18
       2927.252      -3090.730       18064.33       29119.11       21942.98
      -2033.078      -48160.03      -39200.95       9631.328       21391.85
       20301.35       22745.36       21735.88      -2637.973      -18517.07
       16537.65       29760.77       9909.898       6971.164       28622.88
       51635.92       49535.94       34930.31       5684.414       1638.062
       39276.56       49741.19       44864.75       51431.29       27421.75
      -10411.18      -8892.535       14366.22       3533.312      -26051.97
      -39858.12      -50549.06      -69004.64      -80611.97      -66939.67
      -40111.56      -2183.092       16966.69      -26114.19      -58138.61
      -47893.14      -40290.43       1190.188       58712.92       58476.87
       28183.18       8995.160      -2148.266       14846.59       36429.67
       24499.67       9079.456      -1672.311      -6589.562      -6764.969
      -25191.64      -43962.23      -37840.73      -27360.52      -31220.30
      -5134.133       30639.82       9267.516       3741.648       38667.17
       44648.07       18630.10      -20884.71      -43101.51      -35913.76
      -24450.49      -7141.125       27672.35       34908.61      -9386.133
      -16017.21       16887.13       2939.625      -22933.91      -23570.57
      -23673.62      -13694.21      -15612.68      -30673.68      -1661.414
       23317.51       998.8887      -6495.119       335.2168      -6543.320
      -13048.10      -3529.849       6422.531      -10214.66      -23830.88
      -12025.10       15560.66       43813.34       44698.11       38020.40
       41064.84       24542.90       12198.05       14956.98      -7515.672
      -22235.18      -24228.65      -31633.75      -22014.99      -20454.64
      -25357.79      -26700.39      -20929.04       8655.824       25984.12
       8901.750      -20885.58      -34582.69      -40608.88      -45462.12
      -35948.47      -34162.33      -23590.38       8380.447       11796.85
      -833.5312       21874.75       56006.00       49359.25       18022.07
       11477.48       19199.39       13994.85       7807.676       4240.703
       10528.02       22027.27       5959.191      -16402.27      -19972.97
      -15744.86      -1915.696       3290.937       984.9570       6459.052
       4706.654      -5543.273      -14277.23      -16625.59      -2521.836
       14225.64       20162.29       29353.24       32408.86       30968.45
