     0.02500000      -645244.2       563867.3      -12345.00      -12345.00
      -30.00002       214.1250      -15.45000      -12345.00      -12345.00
       0.000000       11.66000      -12345.00      -12345.00      -12345.00
      -12345.00      -12345.00      -12345.00      -12345.00      -12345.00
      -12345.00      -12345.00      -12345.00      -12345.00      -12345.00
      -12345.00      -12345.00      -12345.00      -12345.00      -12345.00
      -12345.00      -31.60370      -68.72130       995.0000       0.000000
      -31.54000      -68.94500       0.000000       103500.0       0.000000
      -12345.00      -12345.00      -12345.00      -12345.00      -12345.00
      -12345.00      -12345.00      -12345.00      -12345.00      -12345.00
       22.37973       108.4551       288.3386      0.2012235      -12345.00
      -12345.00      0.2540972       0.000000       0.000000      -12345.00
      -12345.00      -12345.00      -12345.00      -12345.00      -12345.00
      -12345.00      -12345.00      -12345.00      -12345.00      -12345.00
      2008        49         8        51        19
       150         6    -12345    -12345      9766
    -12345    -12345    -12345    -12345    -12345
         1         7        13    -12345    -12345
    -12345    -12345    -12345    -12345    -12345
    -12345    -12345    -12345    -12345    -12345
    -12345    -12345    -12345    -12345    -12345
         1         1         1         1         1
ZOND    -12345          
        -12345  -12345  
-12345  -12345  -12345  
-12345  -12345  -12345  
-12345  -12345  -12345  
-12345  -12345  -12345  
-12345  -12345  BHZ     
ZL      -12345  -12345  
[...]
       448.4500       334.2932       397.1061       314.1747       351.8608
       264.3204       334.9804       227.3085       246.2622       176.6299
       240.1084       134.5564       200.0107       82.20569       131.7178
       54.20656       87.25194      -10.80111       49.76789      -44.28898
       23.37433      -81.46786      -48.23666      -124.0545      -32.82434
      -151.9341      -114.6470      -194.4690      -120.5983      -240.8747
      -171.9178      -244.5187      -166.8198      -279.4307      -234.7084
      -318.8751      -232.3726      -345.6830      -287.8566      -340.7313
      -256.3695      -394.8458      -309.8674      -393.8037      -331.4861
      -421.8384      -345.2278      -444.6959      -365.8718      -434.4242
      -358.3760      -496.8448      -392.6176      -474.1112      -392.9158
      -495.2412      -420.2206      -494.2458      -392.3375      -521.8933
      -438.2415      -511.7380      -435.6316      -527.3313      -416.3817
      -528.1316      -439.3807      -523.8254      -435.9622      -531.9081
      -439.6793      -527.9717      -428.5308      -526.1481      -409.0222
      -529.3364      -448.4613      -501.7202      -394.3337      -497.2448
      -416.6617      -511.1277      -383.2711      -498.4054      -389.5148
      -466.4546      -377.7186      -500.5653      -368.0116      -462.3595
      -379.1523      -459.6041      -355.0724      -453.7881      -318.1548
      -428.6716      -338.3397      -434.3761      -301.6443      -410.6000
      -311.5470      -418.7108      -288.8962      -379.2938      -280.5432
      -383.7631      -236.1545      -361.0249      -247.3492      -330.9908
      -224.2776      -314.2637      -177.5278      -298.8727      -166.8431
      -250.9298      -143.4332      -258.4315      -124.5098      -223.4329
      -72.25565      -180.4330      -62.46957      -148.0860      -14.34145
      -116.2817       1.858009      -94.31561       79.82864      -52.28506
       56.50750      -10.18927       135.3197       20.84277       152.1016
       75.39508       224.8303       86.93860       244.8992       146.1628
       268.6851       177.7501       352.3635       237.7108       359.3427
       262.1564       419.6028       308.3293       461.0378       373.4135
       506.7168       373.6183       563.1987       464.8506       573.2981
       456.9807       624.2822       523.7766       668.5127       531.8239
       704.2228       583.7413       714.3989       622.5991       770.0999
       634.7480       789.8008       668.6223       823.4824       722.5098
       857.5984       722.7510       921.7756       784.6711       920.4373
       819.4609       953.1084       812.8237       995.0166       865.1982
       1002.757       888.7874       1048.071       893.4116       1040.487
       926.8604       1090.819       915.1516       1067.458       949.8599
       1109.375       964.6208       1088.506       958.9932       1118.419
       958.3091       1142.822       972.3772       1091.742       978.2402
       1136.402       958.2173       1095.709       973.2390       1122.723
       957.0735       1117.588       936.8730       1085.343       956.7930
       1085.979       918.0601       1073.661       932.9617       1068.353
       875.4551       1060.915       913.6523       1033.607       876.5564
       1033.139       848.6865       999.2300       842.4368       990.0229
       836.1494       996.0461       813.2007       975.4270       785.6543
       924.1445       800.0649       976.5811       766.2339       906.5288
       750.2087       919.2703       731.3896       893.3418       748.9712
       898.7991       707.5034       887.6167       708.1255       885.6133
       694.7783       832.4307       684.6978       863.7893       680.6401
       831.6440       637.3008       855.6931       657.6865       802.1987
       641.6345       809.9136       649.7561       809.6501       614.7778
       808.2646       601.1084       784.8660       631.3137       787.8722
       575.0823       781.5222       628.5566       769.9043       583.2310
       784.6160       593.0483       771.0869       596.4626       792.2805
       603.9006       791.2296       585.4924       770.4050       620.4187
       793.5142       582.2305       802.3994       624.2646       804.9814
       616.4731       800.7131       603.2349       811.5918       627.8188
       806.7744       627.6206       825.6987       620.8022       831.2671
       645.4775       816.6113       620.3735       834.1409       611.8196
       827.4404       639.4915       796.1460       617.6606       851.2925
       611.2773       802.6123       617.3506       817.6918       599.4856
       791.5583       608.7715       802.2717       587.3088       821.0697
       598.5283       772.3491       592.2310       797.5786       573.6199
       784.1033       564.7261       773.3718       572.7156       775.8107
       554.3647       759.6296       544.4707       755.2605       541.6760
       752.7975       538.3486       763.4678       528.2279       726.0889
       504.9146       732.0439       513.5164       719.5615       524.2805
       734.4965       477.3350       735.0054       538.5040       711.0476
       465.7827       720.2637       518.4387       715.3115       446.5581
       695.8850       541.1345       720.4731       322.3502       621.9395
      -853.3672      -11267.75      -46668.75      -122656.1      -229668.6
      -285869.1      -228948.6      -157568.6      -198553.2      -255060.9
      -87200.62       304152.9       524110.1       301083.4      -89255.12
      -184209.6       69854.62       254720.7       127479.8      -76358.12
      -139697.2      -58961.09       40962.84       72817.83       58247.74
       28286.20      -13749.06      -85940.56      -128942.8      -59404.47
       130694.1       286186.9       155334.4      -140893.6      -204353.8
       3280.438       189833.1       146706.2      -46699.27      -87281.98
      -3244.281       14783.81       75642.16       146384.8       60464.56
      -119751.5      -214790.0      -145351.5      -16466.59       57824.06
       52784.28      -25867.03      -122580.9      -62759.88       90297.25
       151694.8       148638.5       124681.7       79507.56      -84436.62
      -225260.4      -98485.56       167477.8       273534.9       90178.25
      -167535.4      -248143.2      -71943.22       125117.8       104769.6
       36395.67       49102.05       23768.98      -28403.99      -37758.09
      -45382.80      -72362.12      -46776.95       64918.52       107935.2
      -21211.56      -188563.7      -136809.2       72509.12       128270.7
       51594.23      -2149.188      -19750.09      -60969.38      -82276.36
       10119.56       130530.2       106831.9       47386.02       57750.07
       12677.59      -43407.80      -7851.344       70604.22       43082.80
      -57410.89      -45941.11       41795.63       23613.06      -108709.0
      -106193.2       49215.08       102603.7      -38070.75      -147662.9
      -62361.19       105254.6       192719.7       111247.5      -35762.78
      -59156.72       18759.31       27725.39       11174.15       2013.125
      -58127.62      -105431.6      -76762.70      -38382.00      -109793.8
      -97677.75       79453.38       209726.1       201944.0       55961.62
      -154538.1      -202331.1      -60610.96       36046.63       51823.13
       19072.09      -22250.29      -16822.61      -598.0156       38027.57
       9192.953      -72507.00      -44422.31       49532.57       53911.95
      -30106.51      -51887.19       27818.88       65874.06       9178.653
      -9688.787       10869.52      -13985.39       15687.28       88761.52
       71696.62      -3633.656      -48527.31      -31209.27      -20831.66
      -67236.17      -92084.94      -71775.88      -44280.17      -1854.016
       78455.19       104863.8       26594.24      -50149.75      -27896.05
      -5585.719      -64015.65      -27779.00       71828.97       91755.04
       45377.00      -69377.25      -135632.1      -69294.78       77978.88
       160247.6       71150.48      -91030.97      -124261.7      -20465.33
       47968.05       75364.30       72415.56      -740.4219      -49479.70
      -53937.38      -38883.96       2712.781       38173.36       73847.98
       61522.59       1078.672      -19362.69      -36722.95      -62383.16
      -44681.04       16322.58       55058.48       26517.84      -24147.91
      -124313.6      -192650.1      -67404.09       57082.42       44342.66
       11882.73      -18854.99      -20747.47       43945.16       79424.83
       71556.38       102164.2       150334.7       133011.7       24829.66
      -89292.84      -74088.22       18925.18       7583.688      -91505.22
      -91067.17       41762.95       86308.88      -42807.12      -150781.1
      -101539.6       29959.87       58408.80      -1506.152      -35685.88
       14966.75       118477.8       82069.61      -53201.42      -62070.08
       34590.02       76131.08       54763.75       51363.89       50490.91
       50576.89       26187.09      -36549.30      -80897.99      -36678.06
       94074.59       119238.9      -3245.109      -72890.52      -31148.62
       7550.344      -39255.39      -64988.62      -3077.156       29318.96
      -519.5938      -36258.58      -57623.01      -19449.92       24995.61
      -636.4688      -26399.98      -38902.38      -44458.01      -5990.900
       15752.75      -4983.562      -30006.71      -25942.80       53083.72
       123831.5       105990.3       49844.87      -31952.88      -58022.60
       1170.969       34066.28       24072.19      -10456.50      -72133.47
      -88283.70      -80534.91      -99842.19      -98887.55      -62309.44
       17486.42       62083.01       17436.66      -27920.97      -47357.77
       9374.781       124468.8       129510.4       30040.59      -48293.25
      -85522.33      -89538.14      -66293.34      -11511.72       56648.25
       91638.17       56630.32      -30924.36      -60760.97       17503.53
       112475.4       128661.3       32312.28      -53120.24      -18694.80
       24598.59       24979.99      -7480.188      -37968.27      -18325.66
      -26251.88      -33848.07      -81.02734       734.1406      -26611.47
      -39523.77      -51957.07      -58117.72      -14095.53       51756.98
       34812.91      -27424.86      -25304.07      -6474.520       770.5469
       46655.34       70729.19       52492.96       38960.53      -1652.836
      -37544.83      -7041.875       50584.99       55644.27      -39874.69
      -98309.16      -44788.18      -3884.867       12877.75       1370.609
      -43033.47      -50063.65      -28710.88      -5664.908       2302.809
      -10722.45       4132.093       8016.777      -22976.15       6414.797
       61169.80       47489.34       30616.25       63068.21       52701.14
      -21930.62      -82279.03      -15911.09       86055.98       29740.06
      -102832.8      -109980.6      -18378.41      -13043.40      -30260.86
       24748.75       55215.54       21957.52       6339.688       66594.94
       115645.5       57906.53      -23095.36      -22372.03      -11457.86
      -45985.75      -72257.62      -23396.75       14843.57      -17124.74
      -24345.70      -19242.36      -21925.27      -8350.738      -6678.973
      -24884.25      -7506.578       49938.11       65461.69       6758.875
      -77903.20      -104673.5      -51700.98       26690.50       46660.72
      -39580.02      -95214.56      -34786.11       28658.56       71427.00
       84098.21       43125.94       14598.67       40274.59       78656.55
       71103.36       33699.03       22332.50       45899.68       34961.78
      -28791.39      -78620.50      -102424.2      -102732.8      -71630.84
      -13506.24       26197.24       21291.81       4214.166      -7382.973
      -4153.180      -16062.78      -30357.02      -18601.56      -28376.52
      -37385.56      -34806.84      -38252.06      -66749.38      -135430.3
      -141664.7      -68810.03       25861.98       92910.17       72639.80
       28188.19       56021.88       143877.2       210567.8       169748.0
       18360.23      -82001.03      -101950.4      -125589.8      -117848.6
      -76674.16      -46866.00      -91762.25      -162243.2      -124386.8
      -28670.30       35219.09       71287.69       83379.69       96715.22
       106182.8       47186.44      -57072.31      -118574.1      -108757.5
      -8833.625       122718.4       161934.7       34495.48      -107841.0
      -1729.750       213768.1       283349.6       213452.1       151782.0
       288058.4       538598.9       511306.7       64420.62      -449473.0
      -645244.2      -508718.2      -238781.5      -32391.36      -33218.12
      -155144.8      -249979.2      -341738.4      -299051.9      -3517.688
       223335.7       134115.3      -55497.05      -38369.06       182323.6
       299823.5       154108.1      -12727.88       42254.91       163194.5
       90922.54      -56268.19       15770.00       266871.8       405543.1
       300442.8       52981.56      -149834.8      -124597.6       198677.1
       563867.3       510157.1      -23948.38      -483003.5      -375458.4
       44365.19       250097.9       195396.4       101874.0       49104.00
      -60526.75      -236672.9      -271990.9      -90439.47       85178.16
      -23254.38      -366745.2      -491001.5      -190142.3       99954.38
      -9844.562      -251070.3      -237204.3       8320.500       233963.7
       178630.8      -30777.69      -17200.94       139382.9       126561.4
      -42043.31      -137566.9      -71257.94       79267.00       249612.7
       314509.1       99707.38      -208581.2      -237340.1      -56911.28
       48403.83       4073.750      -185880.8      -383724.6      -294020.8
       59355.88       262864.7       82105.50      -215510.8      -243678.4
       21895.62       299396.8       341316.4       214174.0       92276.48
       24122.94       49782.94       176616.4       285288.3       199485.5
      -30931.31      -90106.69       37468.00       103945.3       79956.81
      -44436.28      -183909.8      -128161.0       15625.57       47023.84
      -39430.25      -204219.0      -321005.8      -237897.6      -150634.4
      -247148.5      -281381.8      -151958.6      -25088.64       37623.75
       89847.62       148147.4       139903.1       96195.25       58824.97
      -47073.53      -160676.1      -145711.4      -73665.75      -44640.47
      -90442.38      -192308.3      -214570.0      -74643.44       121608.4
       197532.4       166996.7       200373.3       301775.3       302102.6
       235845.1       225664.5       180511.6       54624.01      -39864.84
       22201.00       122750.0       72364.12      -74790.69      -208598.9
      -251789.1      -194797.6      -114072.3      -38415.10       2857.344
      -61785.94      -172014.8      -177687.4      -34766.06       61670.14
      -4514.203      -40827.81      -41644.28      -94011.78      -74036.61
       29946.27       54910.64      -16950.38      -62510.91      -102176.1
      -162978.0      -148552.6      -61029.80       22658.09       88082.31
       110894.4       85711.81       113606.5       170434.3       145467.0
       75777.86       17188.66       30725.14       81926.11       51266.71
      -15659.39      -15705.90       16274.43      -11212.18      -41395.07
      -7677.359       23248.94       36780.33       59249.56       12069.75
      -82800.18      -41350.30       62404.58      -12633.00      -144540.6
      -124777.5      -39618.39       18014.35      -2515.406      -100808.1
      -147635.5      -65658.42       69016.50       107879.0       85472.81
       147291.9       280682.9       325000.7       219308.4       127366.8
       101191.2       90528.06       122339.2       136518.1       103920.9
       123885.7       125186.5       17763.00      -66182.31      -102549.2
      -141982.5      -163506.5      -160159.9      -128763.6      -66778.87
      -8070.828      -23279.50      -109109.8      -164276.4      -145720.9
      -116503.4      -124403.9      -126202.1      -72038.48      -7635.461
       16251.73       9011.709       1320.637       7425.625       40524.57
       37935.00      -55678.59      -84040.45       9539.938       61017.09
       38321.30       3109.148       15993.22       58437.94       55605.81
       105221.8       169997.7       152563.6       78425.93      -3839.875
       30867.53       83140.19       2060.531      -140567.4      -199922.4
      -103247.8       3616.219       13091.63       13362.96       13181.16
       3490.500       47917.19       103915.4       99706.26       27961.31
      -96383.28      -172666.4      -132582.4      -70891.61      -57901.78
      -55555.36      -24369.11       36351.00       116291.4       171624.8
       126340.2       18518.41      -43631.53      -59001.41      -64889.41
      -116909.1      -188844.3      -152033.3      -81984.97      -111983.3
      -161576.3      -127337.1      -29778.31       71132.38       119501.3
       92205.56       63724.66       109824.1       171299.2       166668.0
       99975.86       9650.656      -34457.79      -11827.57       5301.125
      -12758.80      -33772.82      -22775.72       4996.914      -15034.44
      -52902.59      -51826.53      -46777.37      -39344.21      -14972.70
       16716.76       37083.43       10867.64      -19830.38       25910.50
       123298.5       149451.9       68523.38      -27221.08      -64356.94
      -86668.41      -132225.2      -140608.9      -118574.3      -113148.3
      -148571.4      -169772.3      -84568.44       36753.38       122050.1
       133589.3       47256.38      -29119.53      -43062.38      -41503.58
      -36712.30       18391.84       86286.09       105228.8       92463.16
       35845.13       6088.656       57836.81       111620.6       125230.5
       115038.6       102536.8       94974.05       77076.38       27715.77
      -26570.58      -37550.12       9111.844       74710.25       80598.07
       45738.22       19778.97      -38099.27      -55207.06       40552.41
       94299.27       33197.27      -37652.00      -53791.69      -64496.41
