     0.02500000      -2931181.       2872997.      -12345.00      -12345.00
      -30.00002       214.1250      -15.45000      -12345.00      -12345.00
       0.000000       11.66000      -12345.00      -12345.00      -12345.00
      -12345.00      -12345.00      -12345.00      -12345.00      -12345.00
      -12345.00      -12345.00      -12345.00      -12345.00      -12345.00
      -12345.00      -12345.00      -12345.00      -12345.00      -12345.00
      -12345.00      -31.60370      -68.72130       995.0000       0.000000
      -31.54000      -68.94500       0.000000       103500.0       0.000000
      -12345.00      -12345.00      -12345.00      -12345.00      -12345.00
      -12345.00      -12345.00      -12345.00      -12345.00      -12345.00
       22.37973       108.4551       288.3386      0.2012235      -12345.00
      -12345.00      -1.750816       0.000000       90.00000      -12345.00
      -12345.00      -12345.00      -12345.00      -12345.00      -12345.00
      -12345.00      -12345.00      -12345.00      -12345.00      -12345.00
      2008        49         8        51        19
       150         6    -12345    -12345      9766
    -12345    -12345    -12345    -12345    -12345
         1         7        13    -12345    -12345
    -12345    -12345    -12345    -12345    -12345
    -12345    -12345    -12345    -12345    -12345
    -12345    -12345    -12345    -12345    -12345
         1         1         1         1         1
ZOND    -12345          
        -12345  -12345  
-12345  -12345  -12345  
-12345  -12345  -12345  
-12345  -12345  -12345  
-12345  -12345  -12345  
-12345  -12345  BHN     
ZL      -12345  -12345  
[...]
      -115.0909       52.15668      -168.9397       60.39209      -148.2435
       23.97647      -182.8222       2.938995      -209.8195      -29.42365
      -250.9467      -29.09686      -251.3248      -40.99994      -275.3816
      -66.69794      -296.1064      -96.90100      -320.1602      -110.2969
      -342.8999      -123.8040      -348.7529      -108.4421      -363.6769
      -147.5657      -372.8607      -171.6065      -402.2073      -123.3041
      -363.7726      -172.5854      -417.6665      -148.6990      -421.4832
      -177.5330      -377.6094      -148.4891      -434.7754      -139.5225
      -380.7781      -151.2595      -413.9139      -132.5526      -373.2425
      -153.5569      -415.8122      -117.6240      -383.9664      -123.4424
      -397.0093      -107.6729      -395.3044      -120.7837      -394.5089
      -121.6332      -376.4188      -102.4868      -364.6182      -115.5153
      -411.6111      -95.13293      -387.7007      -109.2862      -419.1448
      -121.5670      -383.2955      -107.9908      -423.0349      -147.5280
      -448.1588      -122.8489      -442.8706      -167.2823      -443.5134
      -171.1543      -497.4364      -170.0723      -492.7526      -199.2545
      -516.6702      -209.5074      -519.6021      -224.5305      -543.3679
      -204.6733      -544.6869      -260.9081      -553.0786      -219.7560
      -579.5498      -256.8793      -569.2002      -241.8987      -584.6936
      -260.0560      -581.0007      -252.5516      -588.7808      -247.0457
      -593.5271      -245.8632      -567.1333      -239.4470      -632.8182
      -251.1261      -562.8708      -250.5129      -594.6123      -200.8041
      -567.1057      -234.6068      -588.6733      -210.3818      -550.4801
      -196.8865      -564.3094      -172.4540      -553.1579      -175.3179
      -533.4313      -195.5649      -530.8889      -126.2098      -527.1287
      -170.8583      -509.8453      -100.8458      -492.8778      -100.9297
      -495.2844      -114.3912      -463.1037      -65.07434      -464.1804
      -73.96973      -446.9098      -29.91443      -444.5117      -15.76471
      -402.7581      -23.20105      -372.8004       47.65912      -371.9970
       33.75970      -351.3336       78.30646      -317.5782       105.0809
      -288.2079       146.0039      -279.5382       154.4867      -252.6803
       165.9070      -196.1976       241.6076      -196.1743       257.4142
      -153.0971       278.4477      -142.8146       318.3462      -102.9479
       355.0065      -54.57227       360.6266      -53.97485       425.1685
      -11.14136       450.0584       16.30725       470.2845       62.93225
       499.3639       55.53564       536.4294       97.17419       562.7135
       108.8900       596.0228       140.0042       578.4307       127.6945
       603.6249       170.2048       643.0616       158.4755       620.6859
       195.8944       668.5042       178.2097       675.9650       197.3076
       659.2568       190.5481       659.6412       192.5457       668.8587
       171.6615       659.3782       190.0325       656.3057       170.8416
       663.0021       131.7439       636.3601       156.9651       617.5500
       107.2356       624.1265       144.8976       583.4459       74.43359
       593.9331       81.56897       589.2805       49.49170       538.6066
       32.80005       512.4734       9.822876       497.9296      -16.26154
       493.1222      -47.78186       457.8920      -59.49176       439.0850
      -109.4395       412.6721      -110.8522       372.7910      -135.5321
       355.3987      -185.9301       360.5705      -207.9400       308.5294
      -195.0264       289.3716      -276.7960       283.0523      -258.5286
       243.2729      -272.6218       244.7045      -326.6458       226.4559
      -314.9377       210.2065      -338.2347       173.8666      -379.0881
       185.1134      -373.5519       144.0310      -398.1006       141.3049
      -411.4878       159.7382      -435.6077       123.5021      -422.3404
       115.5800      -440.7737       106.9992      -453.5085       103.5300
      -463.7517       124.3830      -448.7266       89.58447      -470.2825
       106.6495      -476.4859       90.52789      -465.9367       94.89673
      -490.0856       93.72528      -475.7843       104.9933      -475.7295
       85.03406      -509.2400       113.2254      -457.6415       77.22235
      -510.9185       92.41589      -496.2213       95.81683      -480.7889
       94.98706      -501.6049       119.5672      -494.1688       106.0895
      -461.9928       60.92474      -525.8214       150.4634      -465.3774
       107.6006      -491.2786       102.6041      -483.3258       130.3082
      -505.0406       92.96008      -483.0786       104.2422      -505.8510
       127.0363      -505.4372       96.62451      -511.8551       129.5856
      -501.6895       80.82983      -514.7729       91.57971      -544.6234
       80.56079      -537.3358       93.64154      -517.3394       75.48169
      -561.7541       52.09253      -564.1966       63.40417      -573.1929
       58.74280      -606.7640       16.96667      -569.3506       12.44885
      -634.1540       16.40283      -647.5045       2.788330      -622.3172
      -14.89331      -651.8994      -30.92944      -691.3080      -33.09131
      -673.6597      -57.40540      -707.3990      -81.69128      -720.4149
      -70.68030      -715.1982      -85.03003      -738.1360      -77.67810
      -736.7477      -105.4376      -769.7189      -93.03760      -729.5947
      -612.0938      -3084.654      -5416.738      -8867.043      -3673.160
       12091.06       16015.61      -8470.445      -11681.87       28882.34
       59643.73       12850.28      -88975.88      -120824.8      -15921.41
       103965.6       103640.1      -4640.461      -42378.02       33378.77
       62747.36       14329.61      -38072.34      -76516.42      -77088.27
      -15177.70       75190.67       84298.70      -7108.359      -79430.53
      -19193.45       80240.05       42183.03      -100729.7      -166619.5
      -113408.3       39405.75       192280.4       169707.0       6280.766
      -88128.57      -19576.69       57605.13       11403.84      -72037.50
      -123429.2      -36482.41       111384.8       138073.3       87415.12
      -4426.844      -101770.6      -72195.42       70984.36       111610.2
       3217.625      -57657.34      -84676.78      -110836.9      -58417.55
       23683.20       12513.84      -59020.95      -64589.70       9340.125
       107971.1       150877.3       64102.27      -27192.99      -8266.820
       1654.539      -32832.94      -14489.34      -10869.31      -131389.4
      -205506.2       46148.38       322473.4       168902.2      -155594.8
      -165048.3       96341.12       254844.9       98201.25      -167924.6
      -259568.4      -149778.1       20470.75       147097.0       128113.0
      -33659.12      -120103.5      -35524.45       75687.30       68316.98
       20387.18       39706.49       27574.01      -20667.41      -99298.75
      -102210.0       21959.64       60990.53       8676.879      -5672.086
      -11378.78      -67408.47      -77499.86       34903.16       135795.7
       131107.2       5592.422      -98893.63      -62446.91       46619.05
       77337.02      -5932.500      -73311.43      -63045.82       8222.562
       86452.14       99202.56       37919.72      -93049.94      -143397.1
      -26221.00       100328.7       52208.44      -100876.9      -134887.9
      -20459.38       80863.66       28841.52      -89410.55      -43340.22
       55004.38       73073.38       77626.97       48571.11      -4674.312
      -26295.08       54569.94       123476.7       12822.01      -46101.68
       14738.72      -20967.69      -88977.19      -85880.16      -66377.58
       33077.86       74817.66      -22370.34      -53026.50       15588.89
       84073.49       49675.64      -77201.78      -131118.7      -77600.11
       34136.75       115227.1       67682.22      -34772.33      -24060.38
       64885.59       88768.41      -105.8125      -86069.30      -63549.18
       18675.98       50027.98       41546.12       14005.77      -32225.41
      -54275.44      -26714.59       21059.10       30141.37      -2363.453
      -36155.58      -27426.11       45939.69       103278.8       95062.16
       20811.91      -76853.69      -112023.3      -5437.719       109594.2
       67939.80      -30649.70      -57277.47      -9158.455       19309.53
      -30069.39      -41382.05      -44401.59      -35271.80       43727.58
       42376.41      -44606.81      -60026.36      -23171.95      -16396.51
      -30068.18       1578.000       17424.53      -23991.49      -33936.97
       26417.95       64512.83       12604.36      -46027.56      -6863.406
       81596.31       107569.8       38046.69      -52451.53      -79954.33
      -3757.922       61929.17       31687.29      -27861.70      -28083.71
       1701.453       8931.309       18677.43       11377.21      -15895.51
      -13643.29      -29409.61      -56647.37      -40487.13       4209.941
       3282.672      -47936.61      -42902.80       46501.86       73187.44
       27654.53       33193.73       78111.57       59262.47       9460.164
       19428.50       6727.547      -60801.58      -31137.83       20658.53
      -55809.81      -168992.2      -117710.6       60751.97       120683.4
       25028.29      -24069.27      -22068.89      -57452.89      -30673.28
       87339.94       123326.7       26669.19      -78283.84      -100584.0
      -34667.78       88679.06       129427.9       40646.09      -40691.57
      -25500.61       48674.30       96097.97       28444.66      -71335.36
      -85335.48      -34538.67      -10560.53      -14667.29       12051.61
       26204.26      -1699.875      -15392.06      -40190.04      -33344.70
       26441.48       4949.207      -39809.00       14135.87       34219.62
      -30523.31      -89290.34      -34698.83       78727.81       118503.8
       71344.55      -27510.56      -92140.27      -22053.03       76063.65
       51886.17       12800.00       18854.69      -16543.28      -16627.82
      -9891.305      -34186.29      -22358.95       29295.59       37466.70
      -31497.98      -51340.36       8414.445       35721.97       7593.863
      -19103.33       2981.756       12055.66      -2990.883      -22506.58
      -59669.01      -35072.33       72026.22       112673.8       23368.95
      -50546.57      -9605.602       26867.68      -4490.453      -49492.13
      -43707.48      -12649.80       4281.695      -30724.87      -44468.36
       21668.61       51277.91      -9259.594      -48179.52      -7658.055
       26696.86       30714.68       13808.39      -49369.18      -37523.48
       40243.88       49505.96       30438.00       29239.86       17016.48
       12501.97       16855.46       3026.984      -64636.12      -79539.20
      -40260.12      -42993.49      -7026.555       59207.71       17344.59
      -57393.95      -42615.16       20586.17       42826.92       30068.91
       53268.55       77533.50       26533.95      -29954.35      -17994.05
       32851.59       37984.05      -4459.898      -33861.99      -32264.88
      -61848.56      -62661.72       28437.12       68891.50       18154.45
      -6368.156       34573.88       98937.80       71759.22      -10854.19
      -50803.08      -68994.53      -51838.39       17384.53       41978.33
      -14244.59      -105630.8      -143187.5      -82279.80       32568.31
       95562.73       60505.48       20132.99      -4411.031      -40461.95
       9620.531       104211.3       136124.6       86891.29      -9013.844
      -46497.26       9945.094       51363.63       11418.95      -42075.56
      -66779.73      -92540.29      -60990.35      -3137.745       3440.000
      -3615.051       20404.70       22359.71       17887.27       27221.96
       7589.940      -7709.828       22869.02       63348.56       63203.59
       21511.47      -39734.45      -78266.00      -39940.72      -6446.664
      -27559.02      -41639.91       11618.24       44891.59       7630.828
      -22957.55      -45069.21      -33600.48       14630.30       30734.64
       24481.83       3097.759       1189.211      -8094.445      -42897.03
      -33387.60       19698.78       43276.95       28501.66      -17645.97
      -48697.16       1002.312       56918.19       58471.46       44655.85
      -12411.70      -50192.23       9733.266       77462.49       33026.55
      -73711.12      -93644.55       6071.844       98331.47       112420.8
       65487.01       1501.303      -14507.56       58457.94       208320.9
       394582.4       470051.1       348994.9       198512.8       199974.9
       301199.2       213348.5      -450466.5      -1754549.      -2931181.
      -2793786.      -1280326.       244405.4       591967.2      -38483.88
      -571288.2      -87559.00       1304242.       2589520.       2872997.
       2049132.       816444.8      -18544.78      -150411.6       178390.1
       280764.2      -306826.0      -1195330.      -1564486.      -1151250.
      -463438.8      -6399.906       97871.38      -161313.2      -453568.9
      -319019.2       161379.1       552639.5       632562.2       503032.9
       385244.4       345408.2       206449.1      -83735.56      -218947.1
      -173699.2      -178456.9      -312019.0      -484846.1      -450209.2
      -226036.8      -119123.8      -170685.7      -158442.9       101297.4
       454483.8       636138.8       751541.4       788066.9       374521.1
      -341871.9      -620886.4      -235411.4       187864.9       152640.2
      -192357.5      -421913.9      -396264.1      -245325.9      -12602.50
       216664.1       286391.9       269741.1       304362.0       266570.3
      -20824.00      -296853.4      -368516.0      -450054.2      -479780.8
      -220368.9       229628.8       514555.7       400029.2      -12288.94
      -361161.8      -280787.6       105151.4       475996.0       607237.1
       354739.9      -53386.00      -321990.4      -419060.7      -258839.1
       59877.69       121761.4      -88400.09      -158835.2      -38638.67
       45670.36       44978.94      -22294.98      -55303.25       123035.0
       353958.7       321234.8       57811.08      -92652.28       28248.25
       212344.1       207693.0      -52866.12      -353122.6      -363750.8
      -117459.5       44746.31      -75271.00      -293267.1      -320744.8
      -103126.0       110791.4       106301.5       12734.10       4945.230
       25335.73      -4823.219      -182.4375       141844.2       317662.5
       382154.5       361723.1       220435.7      -4528.828       6680.938
       171824.7       115492.4      -82686.81      -119988.8      -81914.75
      -190808.1      -345970.0      -373705.4      -304698.8      -183802.5
       14043.62       154417.6       91007.94      -34238.22      -29412.00
       44717.89       42693.66       50794.62       172674.1       294088.3
       241791.3       34934.97      -62171.19       74911.44       159702.2
      -4861.625      -234896.0      -325371.1      -309408.9      -188577.3
       33207.38       168862.5       138728.7       3470.219      -101318.8
      -92745.33      -74086.23      -22956.00       68996.79       67595.28
      -19029.94      -111349.3      -127091.0      -25614.47       78822.86
       57633.94      -109714.5      -268665.4      -293585.2      -158555.9
       106313.0       364258.9       529007.5       472355.3       113523.4
      -255035.9      -324718.5      -193161.6      -96960.94      -6848.938
       116466.5       173387.6       105934.0      -16110.25      -34323.97
       37269.08       47216.53       65688.50       211650.2       291959.7
       75582.56      -271610.5      -418924.8      -263708.5       39951.31
       262532.6       266087.2       62301.34      -133358.5      -125433.7
      -41518.02      -22167.28      -14747.87      -13686.52      -58316.16
      -51519.36       19272.54       14204.59      -51702.10      -42744.50
       38680.41       103325.5       109330.2       50995.88       31226.75
       103078.7       133897.5       40630.53      -144747.1      -251611.4
      -213245.9      -135354.0      -33035.47       72883.97       139585.6
       139776.7       94915.91       82385.01       38490.50      -37626.44
      -59667.19      -58464.52      -58111.55       5012.281       129551.8
       200782.7       201187.3       185748.7       93572.09      -31646.66
      -65383.75      -63426.78      -78604.94      -97333.56      -156112.9
      -243601.7      -287346.4      -230393.8      -118964.8      -53800.66
      -49968.61      -69320.73      -23851.56       128577.1       247126.8
       218831.2       110551.0       89774.88       166433.4       239643.8
       205596.7       23566.88      -175695.9      -271037.7      -194335.3
      -55465.12      -37924.52      -43949.26      -21754.53      -81540.69
      -178991.0      -187156.5      -68021.72       84063.38       128278.7
       99922.44       87462.12       27469.91      -84171.80      -74682.56
       32599.91       71442.28       75653.03       109854.9       103788.4
       6538.391      -58619.62      -33328.88      -10068.13      -3272.820
      -1321.641      -46460.53      -110772.4      -70269.89       65258.06
       162721.2       114074.5      -32247.66      -144713.5      -155416.8
      -55855.86       66937.79       70895.66      -64559.84      -162801.2
      -88406.22       72016.75       179913.0       189648.7       137353.5
       68257.48       34590.16       44327.50       31848.33       4156.250
      -30122.22      -70186.80      -67618.09      -90924.97      -117886.6
      -45614.76       25364.68       7507.062      -41106.00      -31477.17
       41981.15       57244.31      -4444.078      -28083.49       2028.059
       16967.08       28278.05       45649.67       37489.22       5613.846
      -18271.23       9174.836       38111.80      -2980.773      -41051.53
      -43738.23      -68452.27      -83552.70      -44989.81      -26907.47
      -80465.03      -137317.0      -130427.3      -75978.09       11229.75
       113412.1       160688.7       154840.0       111074.5       39222.56
