     0.02500000      -779547.9       622905.0      -12345.00      -12345.00
      -30.00002       214.1250      -15.45000      -12345.00      -12345.00
       0.000000       11.66000      -12345.00      -12345.00      -12345.00
      -12345.00      -12345.00      -12345.00      -12345.00      -12345.00
      -12345.00      -12345.00      -12345.00      -12345.00      -12345.00
      -12345.00      -12345.00      -12345.00      -12345.00      -12345.00
      -12345.00      -31.60370      -68.72130       995.0000       0.000000
      -31.54000      -68.94500       0.000000       103500.0       0.000000
      -12345.00      -12345.00      -12345.00      -12345.00      -12345.00
      -12345.00      -12345.00      -12345.00      -12345.00      -12345.00
       22.37973       108.4551       288.3386      0.2012235      -12345.00
      -12345.00       4.072934       90.00000       90.00000      -12345.00
      -12345.00      -12345.00      -12345.00      -12345.00      -12345.00
      -12345.00      -12345.00      -12345.00      -12345.00      -12345.00
      2008        49         8        51        19
       150         6    -12345    -12345      9766
    -12345    -12345    -12345    -12345    -12345
         1         7        13    -12345    -12345
    -12345    -12345    -12345    -12345    -12345
    -12345    -12345    -12345    -12345    -12345
    -12345    -12345    -12345    -12345    -12345
         1         1         1         1         1
ZOND    -12345          
        -12345  -12345  
-12345  -12345  -12345  
-12345  -12345  -12345  
-12345  -12345  -12345  
-12345  -12345  -12345  
-12345  -12345  BHE     
ZL      -12345  -12345  
[...]
       173.6973       230.3933       154.5608       228.3322       157.6692
       200.7609       125.7266       182.0713       125.6156       199.7145
       111.7294       165.8580       92.64377       126.6824       77.28577
       142.4529       51.05225       119.9703       33.64635       65.78307
       19.15144       85.14129      -2.914017       51.75900      -5.703156
       35.11826      -45.57952       23.30934      -49.91093      -11.55382
      -70.23669      -6.186203      -78.02731      -40.50366      -126.6738
      -41.96683      -83.79373      -53.76044      -127.6132      -71.66632
      -131.3967      -83.18604      -147.0049      -97.23782      -156.2675
      -108.1489      -166.2475      -115.7151      -199.1107      -128.2488
      -184.6497      -152.2028      -201.0953      -145.4990      -205.4915
      -162.4373      -225.1838      -169.6409      -208.7777      -171.1761
      -230.7275      -185.2492      -234.8292      -159.7210      -227.9634
      -200.3679      -233.0469      -164.7456      -206.8392      -175.0957
      -243.7592      -175.5533      -228.7138      -177.8134      -200.8749
      -179.0524      -228.1944      -132.9186      -197.9836      -182.9121
      -200.4191      -137.2398      -197.3998      -144.9573      -188.2318
      -135.1224      -172.1156      -116.9947      -141.5236      -105.6300
      -154.2473      -96.48141      -128.6830      -83.53369      -120.0294
      -87.98352      -128.7904      -42.33046      -78.83360      -76.26659
      -92.03339      -21.06699      -64.52809      -12.66129      -52.29861
      -1.387474      -38.55394       8.991596      -3.454193       29.41391
       14.66046       89.81415       34.07059       77.11707       63.97360
       119.4892       97.85413       123.0623       108.4210       177.4460
       121.8107       181.0354       186.4205       206.9009       171.4982
       238.9375       194.0016       229.0439       243.4448       263.4407
       206.0070       282.0515       265.0235       288.0514       280.8987
       322.7210       285.8079       332.9058       304.1873       343.9960
       332.1616       351.3632       332.2675       374.9796       358.9790
       385.6211       348.1329       409.5138       392.1296       380.1455
       366.1693       421.3475       399.2831       405.9818       381.7284
       412.5804       404.1362       443.6443       412.6760       438.4070
       411.9552       414.8871       426.8269       452.0210       401.8550
       447.1736       428.7834       435.4690       448.1927       476.7213
       450.6038       475.6823       470.8226       492.8706       484.9252
       510.2118       496.6787       496.4673       499.2412       552.7651
       517.1458       555.0625       547.7104       543.7366       534.6978
       562.5793       558.3866       579.7939       580.5017       590.5911
       575.7534       605.2292       577.2252       602.0527       600.5397
       612.7968       615.4797       617.7146       619.1429       650.7449
       628.2837       638.2593       633.8557       658.6292       657.0845
       681.5879       686.2144       665.1094       669.7505       715.4026
       704.3154       688.2434       697.3333       735.3035       705.1553
       714.8987       742.6885       725.5527       745.9736       781.1475
       745.1499       740.1335       766.0996       770.6943       761.6431
       773.1423       774.2788       795.2031       794.5425       764.7104
       772.3770       791.8926       804.8120       797.0193       782.8875
       801.5820       809.7073       794.3506       782.1323       789.6460
       814.1250       796.3447       785.7896       800.9355       803.1318
       769.4629       786.5798       800.7698       793.2612       802.0374
       783.2380       758.8887       817.2429       787.9368       787.6873
       777.0938       779.1541       811.6335       797.3701       757.2441
       789.5806       780.4133       773.5681       768.9238       781.0166
       762.0337       780.5459       749.7815       754.7700       762.4692
       767.3374       738.5984       748.2778       742.7952       751.0420
       708.6980       731.1594       703.8167       694.5908       710.8118
       711.5356       678.5388       717.1844       679.8000       661.8877
       650.0731       666.7224       636.9189       653.2437       609.0201
       587.4202       611.7422       638.7063       555.0730       563.1250
       541.5839       535.5028       546.9717       549.0762       489.2936
       529.8391       497.3510       464.7179       452.2162       491.3987
       446.9891       430.8721       403.2639       432.3828       373.5107
       397.5192       391.2854       385.3029       349.6152       378.9545
       320.1282       349.6847       359.5122       343.0628       296.6237
       352.2748       313.2099       317.2744       288.1377       310.9689
       291.3589       328.1725       284.7456       300.9097       291.2931
       317.1437       278.8981       311.3029       261.2347       273.4658
       244.9464       289.8015       256.4724       284.6981       250.4333
       263.0807       219.1946       267.1592       225.4939       235.2517
       196.2228       228.4091       177.6680       217.4006       160.5331
       169.5215       142.2656       194.2826       109.1430       109.7380
       437.2480       2277.559       7200.977       17483.39       31569.73
       40141.03       46148.34       67622.88       90616.08       85974.16
       47219.09      -33620.69      -157623.1      -251483.7      -189133.7
       1926.547       94226.70      -27996.88      -211634.2      -203343.1
       48266.06       257810.8       188671.6      -56929.69      -250101.9
      -239457.5      -22221.81       224595.9       267324.9       70938.81
      -186524.1      -261183.0      -40339.94       216105.6       205180.3
       22069.11      -97081.72      -69478.64       51836.41       162205.6
       161253.9       17435.06      -120616.9      -53066.44       139438.7
       143902.8      -81460.00      -277444.7      -248391.0       49932.31
       247970.5       70301.31      -108882.6      -122182.7      -81502.89
       15819.73       76560.23       61754.05      -1753.797      -62995.98
      -48051.83       48711.06       149230.0       62602.12      -201335.6
      -272994.6       4781.375       257991.1       127646.8      -184070.8
      -240172.7      -28770.00       150517.1       168890.7       115235.5
       57241.89      -32318.70      -91081.27       17528.94       167981.4
       74891.39      -103674.9      -11631.75       132445.6       25488.31
      -113907.2      -105814.3      -32065.59      -5741.031      -57662.88
      -78249.60      -44293.88      -32475.00      -38928.66       8593.719
       130650.4       119633.5      -44230.38      -71308.52       71678.38
       129207.3       10251.39      -52002.20       22345.41       34847.81
       4400.172       53864.29       25565.80      -67663.19      -35766.80
       39292.19       66365.64       49374.05      -14883.28      -106593.3
      -83473.41       36760.53       34819.35      -33622.50      -70817.41
      -93359.12      -18081.22       80270.73       18266.09      -110399.0
      -86993.27       46486.56       64471.90       1488.641      -43976.91
      -95182.98      -81884.95       7569.906       92976.50       100062.7
       47733.00       883.7188      -48478.78      -74133.47      -13174.30
       54789.12       20260.35      -23941.41       38052.69       107153.8
       75595.05       57974.32       61980.91       6521.383      -2695.031
       32163.22       59596.08       71334.80       24894.91      -54536.22
      -85535.14      -36635.38       5998.684       5236.125      -24058.92
      -67073.08      -73804.03      -29556.54       25026.21       26577.61
      -36828.84      -103573.2      -81653.58      -4103.562       40708.15
       43614.04       1563.406      -56528.16      -54658.53      -573.3281
       37400.00       60738.16       52945.40      -16107.19      -53790.98
      -32476.14      -32058.95      -47273.34      -58273.59      -38317.34
      -6132.108      -7936.680       26755.56       49375.43      -14101.50
      -23309.17       64877.78       115903.0       65295.78       11184.08
       24257.64       16791.63       10366.14       55346.36       44010.12
      -10126.04       2507.670       20796.58      -27916.26      -44238.12
       16704.56       57055.36       40035.88      -14470.45      -47120.82
      -17833.51       17487.57      -178.9531      -34418.75      -4665.508
       26529.73      -680.2578      -27361.45      -22968.48       6718.467
       15911.50      -10498.00      -24898.80      -17538.27      -29417.55
      -47976.56      -46463.08      -62552.03      -55022.10       12730.25
       37296.34       6345.461      -11643.00      -9492.844       27346.30
       68704.82       52664.71       7653.699      -8047.531       47287.39
       93964.88       6784.344      -103013.0      -77129.33       56442.66
       134124.5       73393.46      -119.2500      -169.0781       37199.94
       46012.20       411.6875      -75296.47      -128896.2      -103302.6
      -39998.89      -36785.89      -55169.19      -28316.92      -36850.58
      -40068.89       28304.06       68052.47       42938.38      -16213.30
      -35520.91       6325.973       23450.90      -18422.32      -42113.35
      -23138.34      -8338.531       23284.33       70860.56       80144.05
       37552.28      -32634.05      -53685.95      -3645.922       29746.34
       45868.19       65427.25       3955.406      -87416.31      -100741.0
      -58695.35       16204.83       60204.48       19563.94      -22000.84
      -50618.78      -82634.87      -49526.42       27711.53       70529.90
       50556.98      -23010.73      -80183.94      -46711.16       41146.09
       87438.34       72488.32       36308.45       19766.15       14315.14
       14345.78       49195.92       70700.12       12286.44      -91129.25
      -119321.0      -62555.37       3016.070       33650.65       3897.938
      -38067.09      -36357.25      -2174.984       10166.97       39832.58
       69162.12       4599.375      -78138.34      -78769.74       5621.555
       58830.17       6451.781      -50140.89      -72269.94      -60655.27
      -2834.289       45515.88       26233.32      -12832.55      -7616.348
       5382.812       10738.59       48027.44       83976.97       45935.52
       2307.518       8656.953      -31623.35      -60984.09       30236.66
       103463.0       41446.92      -67850.59      -93556.05      -15715.06
       55203.64       39337.39       1629.795       6453.172      -3317.125
      -36912.93      -12965.47       57163.30       66543.48       17467.97
      -36378.25      -73939.62      -59835.34      -15662.23       1498.266
      -31020.09      -53513.45       2380.320       33613.91      -45999.64
      -89973.39      -19559.45       54165.62       54697.66       9221.301
       11438.91       33420.27      -8092.781      -40138.60      -28182.19
      -12199.02      -10762.55      -46213.38      -37736.85       23853.18
       31085.88       18996.52       37089.66       24250.62      -43404.44
      -82792.92      -25406.07       42429.16       29048.31      -19220.16
      -46405.41      -26503.19       28638.28       67548.22       80105.23
       63448.09       23338.83      -23403.69      -61799.50      -70203.67
      -52395.04      -24393.85       3013.508      -6633.594      -38203.75
      -33722.63      -1712.859       32176.03       52022.39       31577.22
      -19432.54      -36587.14       1770.809       13209.14      -24754.40
      -44590.68       591.0312       69322.78       64061.79       7974.680
      -33435.25      -17440.75       47335.23       54535.51       5412.281
      -37702.41      -51536.92      -14473.53       42563.69       68108.91
       28108.02      -26791.75      -4080.203       49979.64       55078.47
       32510.20       912.2812      -35215.67      -18140.27       38334.29
       50833.57      -6088.156      -72200.97      -89772.38      -67592.85
      -5865.219       103160.3       202308.0       193074.9       103343.6
       76341.03       103587.5       104017.2       109850.4       129411.5
       114213.0       15568.69      -119682.6      -172990.8      -113075.3
       11736.94       90214.09       101506.1       138601.1       261088.0
       461755.9       596745.6       466130.3       62833.81      -312418.8
      -288442.2       147149.5       579143.0       622905.0       370807.6
       194789.8       176781.5       105418.8      -105298.9      -421639.2
      -714616.0      -779547.9      -579074.6      -265543.2      -31238.91
      -9881.250      -267174.5      -611508.2      -643286.9      -231537.2
       346827.1       603277.4       321446.9      -90070.56      -200793.6
      -79253.62       110321.4       305337.6       331485.8       136992.8
      -113371.4      -310094.6      -393882.7      -352052.3      -154108.0
       150537.5       213953.0      -137961.4      -460880.9      -269414.7
       222697.3       414079.9       101571.5      -381905.2      -586785.4
      -330911.5       156868.9       477949.0       507946.2       303922.8
      -144944.4      -555035.6      -478917.5      -14187.38       418026.6
       533225.9       286874.0       7800.594       23198.84       160668.3
       108101.5      -68156.97      -131647.9      -9533.734       110360.8
      -27874.56      -304105.0      -359638.7      -142431.3       95435.31
       155191.7       111560.6       88161.36       60478.26       10541.72
      -71026.12      -149071.1      -149696.9      -133765.3      -173012.9
      -155297.7      -53551.31      -66784.56      -175663.6      -185792.7
      -85514.88       82733.38       182754.3       156654.1       166380.5
       192908.3       180460.2       204464.6       190689.3       33698.38
      -177760.1      -262689.6      -137587.1       40054.22       101771.8
       32311.00      -157730.4      -327149.5      -326213.4      -135268.3
       143736.5       330534.6       430023.8       416009.2       224921.2
       47319.69      -9765.846      -17510.59       31884.53       65078.56
      -54495.94      -210541.8      -268044.0      -225338.5      -109856.3
      -42276.97      -39172.56      -37311.78      -68468.38      -137753.4
      -230346.1      -280630.0      -216499.7      -95683.22       41546.72
       143578.3       52080.75      -181670.3      -263516.9      -180190.3
      -96784.05      -11315.91       89897.62       173633.8       210725.4
       167765.9       154205.1       248393.1       311531.2       301999.1
       303729.8       321145.1       311186.9       267926.6       158297.4
      -50765.94      -234087.2      -264130.8      -179786.0      -104552.1
      -125435.5      -196217.4      -214317.1      -133755.9      -27422.50
       59027.44       168987.9       153739.1      -53635.72      -195277.7
      -129002.5       13745.48       76593.12      -1892.625      -134328.4
      -220900.7      -241110.6      -217464.6      -186827.7      -153818.3
      -53939.81       185656.4       397459.4       398837.4       226181.1
       195.6562      -87234.06       12550.62       156304.9       237036.0
       202043.5       54255.12      -86618.31      -102639.9       19552.69
       121940.3       46459.23      -54143.50      -46124.59      -30668.31
       43328.25       196149.0       187091.8       4314.344      -120402.5
      -74058.62       65669.25       109873.8       36208.88      -93366.19
      -237769.9      -258556.9      -136025.2      -47553.37      -33256.30
       18220.67       61159.76      -1381.938      -63442.90      -52592.45
      -9160.758       22520.73       12174.75       64799.94       170057.6
       173995.2       64726.09      -69693.62      -91625.53      -27320.30
      -14496.38      -14275.79       17806.70      -17727.98      -78044.61
      -23040.19       50577.23       13331.17      -63345.46      -53827.81
      -5499.625      -60060.09      -160490.6      -140760.7      -5047.281
       85690.83       85830.54       40377.72       8714.938       116740.7
       253225.2       178743.4       27649.23      -46680.62      -74032.91
      -29551.61       38191.78       101591.1       121546.9       60151.38
       33584.50       31205.77      -523.6523       3294.688       48497.17
       69935.77       6663.500      -136563.6      -252614.5      -270478.1
      -235800.0      -174549.2      -100161.5      -60612.31      -72619.62
      -122985.6      -137626.2      -115932.0      -59495.81       59576.16
       135513.7       118074.3       35832.61      -47543.84      -47520.86
       25634.38       101878.2       147061.9       170960.9       129136.7
       29081.41      -54925.43      -30944.09       93044.00       163379.8
       155623.1       122213.4       74480.67      -3462.734      -93745.44
      -37041.34       141295.0       194898.2       103791.6       18482.78
      -25192.97      -31765.64      -28997.59      -47622.73      -43617.20
      -7902.836       28189.78       22314.50      -72407.62      -182699.1
      -186677.1      -69165.06       60492.55       71732.41      -32800.00
      -149386.3      -214189.8      -239035.7      -223892.6      -103066.4
       30802.21       35107.58      -10676.33      -22523.55      -16913.94
       19551.66       97027.62       202746.3       235883.4       158747.6
       98786.51       59910.95       10617.78      -1935.836       6410.938
       56445.41       98886.53      -1753.344      -157951.0      -197961.1
      -106730.8       24473.48       75429.41       45941.96       7075.079
      -6936.680       15227.84       45533.54       48262.61       19181.00
      -36769.22      -66685.98      -4495.266       59886.56       48182.06
       46860.41       46088.75       25052.06       44930.11       71203.05
       56255.76       34789.69       8984.035      -28350.69      -2143.000
       87924.34       88188.06      -37865.88      -153906.9      -146809.6
      -75212.08      -57956.34      -95284.25      -164768.2      -228634.1
