     0.02500000      -4227.637       5505.274      -12345.00      -12345.00
      -29.99501       218.7550      -21.17000      -12345.00      -12345.00
       0.000000       16.03000      -12345.00      -12345.00      -12345.00
      -12345.00      -12345.00      -12345.00      -12345.00      -12345.00
      -12345.00      -12345.00      -12345.00      -12345.00      -12345.00
      -12345.00      -12345.00      -12345.00      -12345.00      -12345.00
      -12345.00      -30.40760      -69.24540       1968.000       0.000000
      -31.24600      -68.98500       0.000000       102400.0       0.000000
      -12345.00      -12345.00      -12345.00      -12345.00      -12345.00
      -12345.00      -12345.00      -12345.00      -12345.00      -12345.00
       96.23170       344.9288       165.0616      0.8652145      -12345.00
      -12345.00    -0.04646926       0.000000       0.000000      -12345.00
      -12345.00      -12345.00      -12345.00      -12345.00      -12345.00
      -12345.00      -12345.00      -12345.00      -12345.00      -12345.00
      2008        16        21        17        57
       870         6    -12345    -12345      9951
    -12345    -12345    -12345    -12345    -12345
         1         7        13    -12345    -12345
    -12345    -12345    -12345    -12345    -12345
    -12345    -12345    -12345    -12345    -12345
    -12345    -12345    -12345    -12345    -12345
         1         1         1         1         1
ARRO    -12345          
        -12345  -12345  
-12345  -12345  -12345  
-12345  -12345  -12345  
-12345  -12345  -12345  
-12345  -12345  -12345  
-12345  -12345  BHZ     
ZL      -12345  -12345  
[...]
      -112.5038      -112.8360      -127.0352      -129.6737      -165.1870
      -175.9138      -204.2750      -212.4082      -226.6678      -278.1317
      -301.2191      -284.7501      -302.5204      -361.3134      -381.0598
      -382.6425      -414.5112      -432.0276      -441.6521      -442.3992
      -431.5717      -455.0317      -484.3196      -463.4303      -463.9126
      -463.6475      -470.0677      -504.8647      -512.2737      -517.9780
      -546.7849      -558.4419      -554.3274      -546.3239      -548.5905
      -551.3898      -541.4612      -514.8420      -532.5596      -549.9005
      -535.3483      -538.2969      -562.4802      -554.3613      -536.2078
      -525.1125      -520.9099      -517.6284      -518.1427      -489.9541
      -482.1365      -479.2819      -460.5656      -449.5792      -454.8953
      -447.5474      -450.2358      -442.4185      -426.0525      -389.1583
      -358.4723      -363.7213      -369.5547      -355.1218      -357.2102
      -336.6647      -315.4290      -280.9857      -262.7267      -257.2853
      -245.8567      -214.3062      -180.8680      -146.4321      -137.2877
      -114.0867      -86.43288      -57.34924      -51.91002      -31.03214
      -18.84219      -24.89856       3.036835       28.47677       9.573090
       19.68060       56.70312       77.40543       56.75781       82.12610
       128.4226       152.2310       138.6972       153.0583       178.8906
       155.5499       143.9109       183.1467       200.1941       200.0317
       220.9984       244.9768       241.8050       233.1045       234.4568
       266.8708       279.2794       290.6758       354.3621       396.9305
       400.3892       420.6832       416.1783       429.5134       485.0594
       458.1451       446.9070       464.5652       444.3379       475.3011
       515.4517       545.3622       554.9623       559.7340       588.3032
       590.8594       584.6443       614.3157       610.4529       613.7765
       608.8817       603.0425       628.7343       634.5603       617.7034
       615.4918       617.3944       591.2366       591.8721       585.5367
       529.3491       505.4858       468.0319       437.0618       439.6265
       426.4041       423.8684       415.3586       362.1567       312.8768
       269.2245       203.8523       150.6161       134.7270       138.3876
       119.7422       66.42160       10.93969      -7.879974      -54.62653
      -132.4914      -146.2437      -155.9716      -181.3221      -201.5997
      -223.7762      -225.8507      -247.7665      -283.5726      -302.7039
      -337.2852      -383.1318      -430.5688      -448.1794      -434.7129
      -460.3931      -490.9250      -480.4205      -462.2794      -443.1632
      -442.2649      -408.6367      -383.0670      -399.1184      -393.0533
      -393.5762      -412.4539      -437.8666      -455.1653      -413.2103
      -404.3689      -414.8082      -353.5005      -310.5590      -283.3097
      -296.7572      -265.4171      -314.0477      -311.2437       34.51746
      -333.8001      -381.2271       320.4418       44.87939      -261.5334
      -881.9574      -15.10718       1112.889      -521.6003      -818.7963
       252.6763       773.7043       80.18042      -709.2062      -358.8630
      -96.22290       483.4101      -3.353394      -575.4578      -308.3435
      -623.6240      -436.4663       923.4531       2795.633       1628.232
      -2392.550      -2212.561       1284.528       1177.170      -182.0291
       1085.371       1030.088      -756.2965      -587.5743       363.0933
       1103.875       1446.568       463.3073       140.6846       725.4850
       220.4198      -698.5542       775.8320       1971.799       131.2643
      -233.0000       670.2806       264.0601      -126.1265       689.1738
       2061.572       1387.878      -441.3441      -435.9346       932.0503
       1078.019       34.72986       251.5762       916.3663       469.4496
       246.2119       319.8281       550.9197       1000.216       643.3790
       35.54016       614.4145       656.3539      -380.4991       177.1008
       422.3652       145.7439       886.8976       536.7605      -434.1434
      -241.9692       323.2229       55.97070       247.7668       933.6229
       269.9855      -617.8630      -31.39624       756.1934      -305.5695
      -1126.228       304.0384       285.9436      -965.9933      -384.3413
       342.6831      -454.6807      -1051.069      -148.4625       19.93384
      -610.9558      -482.0408      -534.1919      -924.3248      -486.7402
       57.28418      -978.1431      -1221.030      -491.1533      -996.8364
      -1100.307      -572.8513      -143.2090      -620.7192      -1518.624
      -862.7312      -173.4775      -727.7505      -1486.212      -908.9080
      -184.9607      -821.9917      -985.5278      -291.6504      -306.8423
      -1151.734      -1123.959      -302.3870      -598.0710      -1066.490
      -490.3225      -367.6538      -1089.318      -1028.616      -404.9016
      -591.5087      -629.1375      -74.10547      -494.3362      -630.2853
      -308.0914      -638.8392      -96.64819       15.72314      -1011.694
      -811.4353       147.5117       21.61328      -393.8325      -298.4888
      -639.3126      -472.9310       32.68481      -263.5803      -429.2866
      -290.9542      -39.48203       26.40369      -396.6326      -371.4082
       67.19934       151.4558      -244.3368      -266.7718      -79.08740
      -251.9504       83.24097       543.9778      -23.15460      -590.8621
       180.5240       636.1224      -47.46777      -66.23523       256.7715
       258.5182       339.2375       273.5215       118.9277       147.2306
       54.75928       389.6482       699.9878      -172.3821       466.7051
       1732.281       461.9020       13.95508       528.8213       307.1779
       557.4231       858.7943       439.1913       35.66113       674.1372
       1057.234       460.1288       191.8130       825.8501       775.9463
      -409.9086      -230.1167       778.3835       785.7504       648.3693
       516.2988      -19.77197       358.9790       954.6088       231.2436
      -231.7473       938.9370       1508.829       388.5925      -210.1853
       417.1669       638.6050       81.81824       347.4490       969.5933
       598.0701      -186.6496      -261.0258       349.8842       221.9084
       9.966187       408.2795       351.9748       246.9081       165.0474
       143.2146       528.2102       569.6905       49.46033       393.9866
       1059.171      -53.90625      -1149.796      -52.81812       971.1571
       356.8234       253.2962       405.9808      -513.3855      -645.7156
       232.3134       386.7957       187.7838       132.9445      -18.78992
       267.0148       508.3380      -651.1052      -113.8733       1751.482
       516.4243      -1003.777      -454.0704      -34.42688      -437.1065
      -322.0211       334.3829       141.1096      -17.14883       141.8002
      -276.4791      -358.1181       253.2004      -106.9325      -801.4829
      -144.3955       668.8491       717.7660       139.0264      -113.5365
       111.8501      -264.7177      -538.3441       247.5884       550.1036
      -82.65558       185.6043       109.9014      -376.4009      -154.6669
      -195.3787       105.3113       655.8763       228.4231      -292.8649
       229.8596       206.3967      -609.3260      -486.8073      -183.7528
      -137.1144       109.5176       38.43994      -406.4639      -869.7555
      -789.4154      -257.6119      -176.6589      -758.1840      -593.1450
       310.2249      -7.185547      -754.9172      -864.2920      -964.8513
      -330.6157      -353.2904      -750.1802      -152.9331      -765.6997
      -1531.426      -1334.007      -773.1925       5.057983       37.77588
      -815.6069      -1474.539      -277.9756       106.3755      -1285.326
      -1159.402      -171.0117      -581.1313      -1320.361      -850.3259
      -267.3302      -380.7969      -202.2274       58.19714      -522.6161
      -504.6052      -144.0918      -383.9978      -653.9135      -386.6866
       86.86816      -386.6056      -736.2322      -112.0719       595.1428
       273.3200      -151.3350       182.7922      -46.68866      -475.2244
       454.7899       705.6079       156.0339       633.9107       268.5565
      -23.55713       449.0114       517.1929       211.1483       134.2384
       428.0496       330.5181       661.0778       500.6516       138.7329
       593.5754       944.7534       911.1127       369.0948       341.2688
       532.7195       756.4670       678.1159      -9.186401       295.5721
       577.2391       272.1899       365.7871       901.7920       1009.869
       223.9666       314.7693       1053.792       460.2157       195.1812
       893.6470       772.1915       589.9756       797.1858       683.6018
       678.7227       720.8062       877.9331       1285.454       999.1580
       49.00098       422.3447       1292.740       633.4789       323.3816
       541.3486       643.1597       1099.526       504.5173      -176.3762
       663.1218       1001.247       305.8570       236.4634       424.9284
       328.8730       138.7263       357.4073       299.0713       118.3245
       695.0160       338.1588       111.3841       407.3774      -175.5443
      -406.3544      -191.7702       158.0701       146.7441      -273.4017
      -286.2939       19.54770       15.24463      -251.2678      -222.4850
      -380.2556      -269.0074       18.30103      -983.1445      -1214.422
       101.3845       72.29688      -1087.379      -467.8950       541.9976
      -611.0410      -1128.366      -132.8990      -157.6786      -474.2062
      -494.7769      -913.1534      -769.2903      -456.8778      -801.7873
      -352.2562       139.4556      -509.3721      -692.6110      -396.5846
      -191.8783      -351.6396      -821.0336      -541.8354      -399.5782
      -305.8389      -4.326172      -678.9822      -1338.877      -453.4128
       121.0537      -771.5505      -931.3497      -362.4811      -271.0296
      -259.1927      -408.5090      -596.3178      -311.5847      -204.9030
      -576.1311      -682.9934      -631.8097      -492.2028      -479.7197
      -431.1362      -192.8708      -173.1491      -144.0397      -128.7068
      -308.4290      -81.11263       133.9625      -246.9548      -490.6558
      -376.1903      -294.8553       218.9577       154.4287      -793.6672
      -733.0948      -20.20294      -204.3885      -226.1276       279.0503
       14.67566      -509.4017      -323.1221       127.5920       715.9473
       807.9412       529.0095       677.9646       636.0084       547.8335
       340.8142       204.6509       645.1538       1152.771       1657.930
       801.3431      -244.3206      -456.5466      -601.3450       320.6414
       1125.478       482.8071       158.2429       1067.882       852.6069
      -69.91675       485.4014       1234.727       1194.806       9.993835
      -478.7224       1063.936       1607.081       817.6060       1234.483
       1362.425       575.6011       498.4341       471.1797      -72.66492
       44.27075       1056.838       1635.311       742.5388      -623.3536
      -615.0880       389.0646       658.6542       145.0181      -50.29639
       613.7720       1129.156       990.9546       961.1664       624.8638
      -373.2295      -752.2649      -520.5562       19.96045       829.7539
       1019.185       370.7700      -425.3980      -455.7198       66.87766
       263.8528      -290.2411      -668.9479      -381.9453      -550.5522
      -922.5369      -530.9908       39.30322      -274.7608      -144.9126
      -133.3340      -1024.852      -932.4974       132.7029       238.0767
      -1556.663      -2185.474      -522.2499      -10.77368      -1118.342
      -1148.491      -406.9988      -746.3870      -711.7271      -652.4199
      -1575.145      -1809.480      -1174.555      -796.3054      -938.4941
      -1302.743      -1394.501      -1552.814      -1393.515      -599.8628
      -707.2097      -1410.818      -1129.431       11.53894       4.277832
      -1269.905      -1181.180      -1068.257      -2059.942      -2070.184
      -538.9001       255.1257      -665.8143      -800.6899       25.14404
      -249.5884      -1460.079      -2297.444      -1489.298      -22.39838
      -125.2389      -387.9551      -185.1650      -1343.540      -1323.910
       158.6172       32.54694      -335.9104      -250.9041      -653.8336
      -119.6052       800.9675       443.5364       492.8306       1070.925
       142.9607      -1073.351      -764.8151       189.4406      -131.1233
      -731.9690       139.0640       1447.184       1582.154       537.9126
       1082.166       4172.380       5505.274       3164.339       1447.766
       1190.584      -1391.797      -4040.725      -4227.637      -2865.050
      -280.5332       2137.756       2732.578       2344.687       1786.209
       41.28516      -1214.104       1049.300       4348.563       4045.988
       2540.735       3280.967       2712.261      -57.37817      -776.9199
      -889.9229      -2870.117      -1590.902       1323.493       613.6572
       1317.682       3715.511       2835.586       1551.334       1661.475
      -452.8613      -3664.628      -2254.184       1072.037       1148.862
       648.9099       1266.087       1231.177       1141.439       372.6567
      -1359.402      -814.7480       419.4314       653.0156       1596.451
       2166.628       1541.732      -172.9590      -2470.077      -3434.749
      -2565.495      -991.5029       1171.239       3233.724       3426.507
       1240.174      -970.5146      -1458.319      -1186.386      -363.4513
       196.2646       1109.709       4048.569       3628.730      -812.9795
      -1853.436      -1394.882      -2633.962      -1093.747       2357.130
       2877.723       1408.593      -25.90430      -1322.273      -1923.630
      -1229.154       340.0857       695.6198      -107.6880      -55.52954
      -82.08350      -727.1389       70.46436       1588.152       1074.264
      -707.6147      -1702.791      -1661.453      -327.3584       963.3671
       752.9265      -258.7178      -911.0377      -410.9092       1257.398
       2376.693       1638.524      -97.34082      -1534.877      -1878.058
      -1046.578       433.7169       487.3653       1.274414       853.8433
       117.4751      -1591.557      -1402.583      -670.1392      -267.2731
      -19.46851      -404.5852      -1030.213      -1401.571      -789.1040
       430.0039       814.4468      -318.9900      -973.2827       531.7932
       1039.112       646.6945       936.1597       175.7507      -998.6333
      -822.3564      -776.8440      -1469.840      -846.1995      -502.2076
      -783.4492       695.4775       2061.820       1775.892       664.0327
      -657.8320      -1395.178      -1587.641      -975.7281      -130.2637
      -774.2655      -1067.361       248.7432       882.1508       291.4202
      -289.8405      -160.6602       307.5692      -69.54828      -335.5951
       14.40112      -635.0918      -788.1868      -591.3003      -1396.727
      -1262.174      -252.3758       129.4788      -46.63574      -436.3125
      -813.1238      -242.5068       1019.781       1351.942      -63.67822
      -1761.752      -1322.949      -568.4287      -1237.640      -1730.099
      -1129.232      -447.5494      -326.5695       171.1121       840.6821
       830.8677      -273.8521      -1407.486      -1887.206      -1325.299
       429.4529       857.4949      -477.3447      -1343.090      -1275.848
      -1261.910      -1014.373      -261.9567      -212.3972      -979.1987
      -634.2468       1006.523       1803.945       1136.496       43.90952
      -14.20508       288.3066      -639.2742      -1252.457      -519.8240
       485.6099       1290.506       1939.567       1660.014       450.8232
      -71.69312      -109.7245      -141.8645       54.23630      -32.63916
      -289.8359      -529.9639      -1093.720      -1775.636      -1960.375
      -1805.026      -888.1360       343.7412       768.2754       1057.654
       1393.531       1275.653       847.7151       537.9969       487.0696
       855.8760       1340.062       970.4946       92.90417      -122.3255
      -50.72765      -26.96008       139.9615       539.5319       794.3650
      -254.1455      -771.2727       574.5682       742.1350       118.8010
       982.4546       1419.163       1129.831       1395.657       1403.155
       1166.520       963.8115       665.9985       1053.370       1446.173
       1159.065       1178.101       1337.556       1025.079      -183.2162
      -994.8574       157.0593       420.3079      -341.5219      -111.1236
       117.7910       676.4568       977.4629       969.9146       1500.422
       1165.183       586.0776       1320.464       1491.819       755.4822
       1249.544       983.1899       11.87610       751.0069       465.1284
      -1244.780      -1466.515      -605.1461      -4.460693       388.5203
       959.5386       1082.686       680.7367       476.3787       173.7818
      -4.764587       75.61279      -594.5349      -1267.248      -717.6730
       97.74121      -252.5352      -1166.040      -1228.984      -745.0125
      -310.6030       157.7886       420.8986       237.5735       159.7863
       395.8199       413.3866       447.1713       342.1002      -81.90781
      -27.36316      -121.4260      -897.7307      -850.6189      -109.9187
       58.50824       64.25421       277.8205       20.81461      -109.3645
       353.3262      -540.6462      -1673.018      -460.0397       214.4102
      -523.6626      -238.0220       78.09998      -351.6404      -664.2798
      -507.4492      -590.1699      -1226.540      -1487.926      -1109.465
      -691.1597      -981.6328      -774.4873       292.3616       981.7246
       895.6821       529.1567       725.7322       622.5544      -309.0991
      -644.5425      -525.0996      -834.2996      -641.1484      -510.5327
      -1108.632      -1367.180      -1295.064      -1044.451      -803.2852
      -225.2544      -61.33887      -1076.181      -903.7165       40.18704
      -27.56624       26.19824       1.975586      -807.9680      -1307.458
