     0.02500000      -8405.038       14618.00      -12345.00      -12345.00
      -29.99501       218.7550      -21.17000      -12345.00      -12345.00
       0.000000       16.03000      -12345.00      -12345.00      -12345.00
      -12345.00      -12345.00      -12345.00      -12345.00      -12345.00
      -12345.00      -12345.00      -12345.00      -12345.00      -12345.00
      -12345.00      -12345.00      -12345.00      -12345.00      -12345.00
      -12345.00      -30.40760      -69.24540       1968.000       0.000000
      -31.24600      -68.98500       0.000000       102400.0       0.000000
      -12345.00      -12345.00      -12345.00      -12345.00      -12345.00
      -12345.00      -12345.00      -12345.00      -12345.00      -12345.00
       96.23170       344.9288       165.0616      0.8652145      -12345.00
      -12345.00       1.078587       90.00000       90.00000      -12345.00
      -12345.00      -12345.00      -12345.00      -12345.00      -12345.00
      -12345.00      -12345.00      -12345.00      -12345.00      -12345.00
      2008        16        21        17        57
       870         6    -12345    -12345      9951
    -12345    -12345    -12345    -12345    -12345
         1         7        13    -12345    -12345
    -12345    -12345    -12345    -12345    -12345
    -12345    -12345    -12345    -12345    -12345
    -12345    -12345    -12345    -12345    -12345
         1         1         1         1         1
ARRO    -12345          
        -12345  -12345  
-12345  -12345  -12345  
-12345  -12345  -12345  
-12345  -12345  -12345  
-12345  -12345  -12345  
-12345  -12345  BHE     
ZL      -12345  -12345  
[...]
      -1586.419      -1601.641      -1639.938      -1582.270      -1562.337
      -1532.628      -1499.021      -1477.130      -1488.417      -1409.111
      -1312.580      -1300.409      -1291.381      -1229.133      -1220.560
      -1206.302      -1182.485      -1149.380      -1080.023      -1038.806
      -1074.785      -1018.744      -942.3459      -879.4863      -812.2539
      -724.7157      -673.4227      -586.1414      -528.5576      -492.9314
      -399.6361      -281.9523      -223.0562      -183.2932      -117.2054
      -50.69702      -14.29218       54.61694       103.0231       145.1188
       186.0667       231.5602       283.9089       353.2190       411.3384
       441.4045       453.5017       479.6019       482.5447       525.6573
       557.7854       533.8704       558.2064       608.4858       583.0654
       547.3950       595.2344       664.0801       688.9539       675.4678
       680.2793       696.0927       645.9653       619.0857       614.7684
       588.4243       547.3594       525.4084       511.8740       509.8329
       491.6880       478.9724       544.6630       569.0201       523.7697
       554.2612       600.4696       571.2905       548.1479       627.6387
       666.5278       611.8577       579.6919       592.1088       613.6760
       617.4796       592.5291       621.8755       655.6738       689.0740
       743.4729       822.5398       823.7202       774.6204       838.4243
       880.5981       780.1450       743.7227       822.7910       834.5740
       782.4941       809.1602       864.4910       833.1260       751.6155
       771.7351       815.5825       790.3730       721.2551       714.7417
       764.7793       725.0610       699.9312       691.8165       646.1840
       609.0269       552.3716       532.6216       499.8375       440.5880
       377.4186       347.9219       341.1318       315.8069       290.3183
       278.0598       211.3404       160.7289       159.8677       122.5322
       22.03990      -10.82747      -31.47241      -170.6357      -255.0898
      -208.3857      -203.7867      -267.7045      -341.0907      -338.4670
      -395.5681      -491.7268      -477.9183      -477.3054      -530.9799
      -528.7095      -528.1887      -550.2153      -592.5432      -651.7157
      -682.1992      -682.3203      -715.4106      -734.6833      -728.8503
      -743.2910      -733.2007      -742.0337      -802.1433      -801.3049
      -751.5769      -761.8821      -795.0798      -755.4216      -732.3943
      -753.3228      -756.6904      -689.6450      -614.3044      -588.9910
      -547.2744      -527.6636      -538.0125      -508.9749      -459.4147
      -456.9315      -487.5111      -484.9594      -442.3739      -380.8573
      -313.5341      -261.4722      -194.8798      -101.4849      -34.49979
      -13.35742       9.459167       63.54129       97.58942       119.4344
       129.8093       121.7134       138.4009       192.7476       270.2822
       259.9323       503.6096       380.0552       211.1799       836.5660
       432.2126       361.6531       885.7375       710.1345       610.2473
       260.9653       1150.812       1522.653       323.9138       610.0615
       1391.412       1210.767       1008.582       1097.389       997.5706
       955.7383       1225.384       1376.134       1442.771       1326.607
       1060.556       875.5825       1019.527       1395.853       1195.155
       1126.967       1429.512       1193.783       887.8281       1047.010
       1293.238       736.6266       249.9556       1275.669       1374.894
       126.5491       456.7686       1267.172       976.4308       653.5476
       687.1185       283.5300      -148.8774       251.7649       668.0176
       719.5977       520.5897      -27.39355      -601.9781      -131.3940
       415.4485      -476.6480      -632.7279       425.1688       464.7358
      -396.1711      -836.5605      -352.2643      -161.8665      -834.9270
      -813.0143       48.65259      -475.8647      -1577.065      -742.3873
      -22.15918      -338.2686      -875.3372      -1149.415      -803.5459
      -655.4968      -763.8328      -1025.740      -622.2344      -501.8193
      -1878.644      -1721.201      -52.65063      -495.5439      -1750.657
      -1499.237      -554.6619      -182.1172      -991.3486      -1714.455
      -898.1213      -754.7271      -1522.622      -745.4604      -438.1323
      -1552.232      -1789.093      -1165.174      -1159.220      -1674.775
      -1402.672      -708.7354      -737.5576      -1353.518      -1437.330
      -993.7007      -940.3335      -1149.382      -1799.657      -1672.875
      -512.9446      -880.0928      -1689.443      -1646.929      -1314.444
      -873.2007      -1146.501      -1484.831      -1235.266      -1225.775
      -1221.011      -883.8252      -966.5625      -1553.707      -1262.065
      -1020.741      -1775.319      -1090.853       11.08032      -872.4214
      -1814.738      -1194.852      -324.2441      -585.0767      -1169.744
      -1134.397      -688.4120      -525.3689      -788.3853      -968.2188
      -726.3872      -709.5293      -954.8558      -427.4233      -318.5149
      -843.8145      -547.6641      -439.7515      -857.1707      -594.1857
      -157.9908      -264.5419      -431.1374      -180.8172       162.2330
      -316.7604      -613.1657      -118.2167      -51.63550      -468.0105
      -393.4897      -5.565857      -56.40192      -298.8553      -162.7808
       44.99690       64.15808      -78.58127      -119.8755       94.35968
       161.5621      -9.668365      -87.77344       302.3682       712.5101
       157.5330      -193.3122       261.8129       41.72296       26.14111
       496.7367       414.4805       297.2330       129.4861       360.7705
       703.7618       444.5038       462.5007       510.9889       556.7028
       624.5144       262.6299       507.7715       1174.406       948.5632
       379.2473       772.2332       1336.172       1055.107       717.4653
       884.3643       1033.773       1342.619       1258.248       964.2515
       782.9558       830.4282       1514.391       1719.869       1238.401
       1340.262       1934.961       1697.096       1227.321       1444.926
       1814.064       1717.023       1207.967       1513.173       2228.309
       2048.471       1595.028       1601.854       1562.174       1383.057
       1936.423       2313.636       1680.221       1512.689       2181.848
       2068.535       1368.455       1804.171       2286.486       1878.344
       1733.837       2082.067       1769.073       1465.425       1949.939
       1930.368       1461.362       1582.976       1922.313       1776.923
       1603.474       1836.423       1704.587       1498.663       1638.776
       1994.207       1807.010       1095.337       1432.762       1789.613
       1138.007       1103.503       1674.210       1747.073       1513.464
       1198.072       919.4688       1277.743       1383.934       807.9241
       1054.327       1616.868       1166.420       398.3445       412.8755
       1000.243       1001.857       355.8937       321.7418       585.3302
       302.9390       428.6627       633.6275       382.3562       37.26758
       163.3463       626.6263       314.5204      -78.48242       254.2818
       305.9022       144.3444       12.50456      -56.19885      -128.9561
      -213.6478       87.40096       142.5437      -43.30988      -196.1963
      -392.5667      -240.1768      -114.5771      -822.1808      -943.5082
       262.1422       282.7566      -458.3354      -591.1124      -464.2183
      -539.8306      -1143.531      -955.4968      -304.9502      -626.8037
      -952.1995      -1069.706      -982.5183      -948.2300      -1352.676
      -1396.607      -1424.751      -1107.781      -1168.059      -2263.056
      -1984.347      -1044.454      -1420.187      -1897.752      -1752.508
      -1966.293      -2100.351      -1794.289      -1792.023      -2327.599
      -2443.466      -2183.524      -2427.341      -2884.541      -2561.887
      -1806.514      -2370.789      -3331.260      -2734.773      -2496.547
      -2972.890      -2515.981      -2540.185      -3352.713      -3341.009
      -2658.314      -2736.020      -2952.509      -2467.561      -2771.935
      -3192.628      -2997.819      -2446.162      -2495.477      -2982.532
      -2517.108      -2147.306      -2747.353      -3110.965      -2353.428
      -1903.208      -2514.847      -2561.400      -2002.655      -1864.579
      -1746.217      -1529.397      -1979.270      -1908.593      -1122.191
      -1018.418      -1529.625      -1389.467      -734.5527      -934.0303
      -1510.990      -1006.147      -162.6680      -735.2288      -1306.496
      -619.8171      -246.9922      -170.5654      -290.2598      -132.3749
       407.6037       6.885254      -311.8831       250.3110       255.5086
      -174.5305       393.2483       948.1722       241.9677       18.91455
       966.8254       1369.066       244.9271      -224.1245       1024.610
       1684.915       1139.765       1084.675       1206.542       1224.287
       1600.196       1409.593       1431.839       1803.098       1606.451
       1517.909       1747.949       2322.383       2326.881       1683.741
       1378.946       1859.590       2566.454       2491.894       2067.548
       2071.275       2143.684       2316.757       2398.488       2208.773
       2335.507       2904.062       3181.213       2522.756       2024.196
       2680.788       3077.654       2620.428       2696.608       3070.291
       2537.167       2114.120       2583.276       2959.313       2819.824
       2773.350       2554.507       2505.062       2517.779       2398.111
       2822.826       2725.001       1813.139       2251.768       2867.264
       1789.708       1424.257       2439.620       2547.241       1561.983
       1194.252       1776.476       2149.639       1716.471       1349.464
       1695.976       1530.963       1129.906       969.8823       690.0010
       891.5129       1154.459       955.7888       904.4895       952.8119
       657.1641       585.0474       967.4604       649.4697      -24.30542
       323.4298       634.3158      -79.09155      -84.92072       363.0513
       37.32304       3.781250      -35.86914      -510.1409      -175.7129
       91.11792      -389.2774      -298.4946      -163.3694      -443.1653
      -355.5220      -715.5674      -1044.383      -403.4276      -295.1155
      -1105.095      -1262.370      -689.0498      -553.6099      -1012.481
      -877.0857      -705.1299      -1344.596      -1630.427      -924.3311
      -811.4741      -1529.624      -1818.766      -1614.250      -1163.412
      -1192.255      -1654.674      -1793.235      -1535.224      -1051.066
      -1391.303      -1910.321      -1797.132      -1626.020      -1825.061
      -1859.690      -1488.630      -1494.111      -1833.415      -1930.940
      -1763.618      -1711.637      -1935.744      -1656.622      -1326.768
      -1756.387      -1922.194      -1803.435      -2168.421      -2632.581
      -2391.240      -1464.258      -1494.967      -2111.923      -1998.528
      -2028.118      -2164.983      -1860.947      -1774.841      -1732.021
      -1393.376      -1439.790      -1920.688      -1825.112      -1502.952
      -1908.087      -2253.144      -1689.611      -986.6360      -1025.411
      -1598.574      -1565.253      -1082.953      -972.5938      -1267.824
      -1654.034      -1953.935      -1323.646      -861.5386      -936.5052
      -524.3115      -764.4907      -984.4333      -422.8481      -383.9673
      -839.0750      -708.2988      -424.2204      -418.0460      -182.2329
      -390.8995      -424.1668      -90.82275      -543.8318      -1206.674
      -856.8032       47.33875       508.4082       392.0258       259.2567
       347.5951       165.5802      -63.16913       326.9364       201.4769
      -383.0173      -125.3774       397.7800       684.6270       799.5265
       354.1262      -142.3674      -18.53760       730.6625       780.4841
       296.2493       622.3989       642.9024       136.0394       95.80029
       643.8630       1113.756       457.4462       242.2476       1073.787
       1165.890       702.2012       347.7756       630.8657       1377.063
       1356.268       1284.495       1270.376       1076.557       1499.964
       1713.856       1222.377       804.4668       725.1909       1280.963
       1903.153       2002.555       1493.468       1308.202       1500.849
       827.8750       427.5137       1031.826       1470.671       1331.479
       615.3184       1261.048       3956.431       4122.293       835.9709
      -939.7891      -2150.965      -4404.321      -2799.400       2990.701
       8124.723       12665.47       14618.00       9428.451       3368.507
       618.6797      -3970.484      -7183.731      -4611.107      -2011.457
      -467.7852       4458.693       8054.714       5084.361      -486.3027
      -4114.387      -4015.698      -302.6719       3285.830       4358.305
       4267.078       3913.600       3604.041       3294.365       124.2773
      -5108.488      -5342.200      -281.9546       2038.793       2384.951
       6162.658       7485.181       2274.094      -452.4824       2552.769
       433.1504      -6125.988      -3711.064       3820.377       2427.801
      -3582.256      -4217.941      -4396.703      -4841.004      -862.0000
       2232.959       712.1450      -700.8711       2047.937       5671.804
       3404.357      -3123.234      -5042.364      -2385.325      -2640.164
      -4872.938      -2835.779       2228.315       4076.456      -229.8203
      -6959.596      -6926.252      -1413.956      -112.9114       81.70801
       2392.325       1222.098      -2132.543      -5616.465      -8405.038
      -5186.137      -390.9238      -2070.691      -3202.403       286.6548
       281.9990      -2109.888      -1774.504      -1815.214      -1981.045
      -913.5562      -1560.587      -3030.429      -2565.387      -1602.001
      -1397.792      -1060.889      -1898.118      -2156.923      -15.61694
       220.0226      -974.7947       486.4108       1195.254      -846.9023
      -1608.324      -2543.402      -4128.521      -3079.085      -1769.201
      -1235.058      -31.32004       31.80499      -447.9646       823.2419
       780.4349      -801.4951       83.22974       38.19629      -2459.843
      -1183.982       2186.843       1619.723       63.77289       116.4019
      -819.6299      -2201.211      -1542.694       109.7555       463.2269
      -632.6993      -119.3921       1849.035       1529.211       332.7319
       1309.115       2508.095       1413.002       184.4644      -181.3388
      -170.8860      -91.14508      -416.7334       460.6208       1194.594
      -185.6322      -1012.415       370.6904       1954.175       1149.301
      -788.2283      -876.9183      -551.0793       14.80273       2161.319
       3013.948       1757.674       730.4539       159.1895       481.6458
       729.2402       464.1426       1539.744       1329.673       311.9031
       562.5244      -776.3691      -1924.020      -509.3625       1044.474
       1705.421       2024.309       1301.492      -579.4346      -1299.699
       1077.688       2812.716       521.5439      -137.0127       3404.895
       3572.558      -1143.563      -3097.208      -1304.270      -543.1528
       63.17920       1645.703       845.1854      -571.5669       1480.010
       2629.366       1087.161       544.2397       629.2358       1244.784
       2053.628       1145.647       375.3472       576.7358      -162.4019
       50.97119       652.4307      -1582.242      -3333.199      -1242.932
       2106.294       2031.794      -590.1567      -391.5942       2259.171
       2788.674       64.22510      -2567.462      -975.7598       2545.027
       2794.793       900.0829       109.8684       119.9578      -66.51367
       1110.340       1988.866       794.3594       1637.073       2676.264
       628.6334      -200.4800      -298.9102      -1658.662      -973.5882
       368.3325      -806.1650      -2270.173      -1439.571      -236.6050
       664.1086       1347.271       476.2444       278.3481       1198.185
       1448.538       1289.179       1020.676       413.1852      -255.8748
      -234.1611      -464.1475      -1637.471      -1180.040       775.3055
      -49.82983      -1501.669      -862.1226      -1488.360      -1683.566
      -274.9688      -1126.141      -1816.445      -421.2979      -593.0698
      -1344.055      -830.4282      -547.1329      -144.3013      -76.09497
       28.21069       828.7998       371.5286       17.05615       3.239258
      -1120.534      -1397.655      -897.0176      -625.0767      -689.8943
      -1189.853      -776.0715      -189.9448      -654.7109      -752.5833
      -1030.192      -839.0466       1079.193       414.1328      -2011.526
      -263.9897       2120.993       913.2305      -260.5479       116.3608
       163.8872       67.23340      -285.2319      -921.2933      -248.8542
       1153.850       1035.774      -1135.064      -2349.140      -580.8200
       276.1783      -676.4763      -368.4028       865.9407       1221.392
      -252.8252      -1835.881      -1125.557       874.1370       1220.737
      -548.1340      -194.7612       1742.947       974.1166      -367.9199
      -64.07642       234.8286       563.5474       1244.126       505.6797
      -948.7998      -943.0457      -790.6638      -927.7017      -715.9434
      -1776.691      -3056.158      -394.5791       2744.163       1234.827
      -875.6229      -453.4272       358.3785       327.8932       419.5576
       805.4263       173.7732       298.3774       1486.840       908.7254
      -367.1658       787.1431       1686.723      -588.5532      -2070.203
      -901.2168      -657.4272      -1328.038      -1441.499      -1171.565
      -613.4066      -508.8135      -324.5076      -354.1035      -1094.995
      -319.0021       671.3655      -325.7002      -894.6724      -385.8163
      -80.62769       605.1442       525.6156      -545.0162      -676.9713
      -210.9597      -804.8289      -1156.355      -107.0605       678.7087
       998.8479       716.6592      -233.1323       258.4419       1423.244
