     0.02500000      -7239.342       9171.723      -12345.00      -12345.00
      -29.99501       218.7550      -21.17000      -12345.00      -12345.00
       0.000000       16.03000      -12345.00      -12345.00      -12345.00
      -12345.00      -12345.00      -12345.00      -12345.00      -12345.00
      -12345.00      -12345.00      -12345.00      -12345.00      -12345.00
      -12345.00      -12345.00      -12345.00      -12345.00      -12345.00
      -12345.00      -30.40760      -69.24540       1968.000       0.000000
      -31.24600      -68.98500       0.000000       102400.0       0.000000
      -12345.00      -12345.00      -12345.00      -12345.00      -12345.00
      -12345.00      -12345.00      -12345.00      -12345.00      -12345.00
       96.23170       344.9288       165.0616      0.8652145      -12345.00
      -12345.00      -2.337819       0.000000       90.00000      -12345.00
      -12345.00      -12345.00      -12345.00      -12345.00      -12345.00
      -12345.00      -12345.00      -12345.00      -12345.00      -12345.00
      2008        16        21        17        57
       870         6    -12345    -12345      9951
    -12345    -12345    -12345    -12345    -12345
         1         7        13    -12345    -12345
    -12345    -12345    -12345    -12345    -12345
    -12345    -12345    -12345    -12345    -12345
    -12345    -12345    -12345    -12345    -12345
         1         1         1         1         1
ARRO    -12345          
        -12345  -12345  
-12345  -12345  -12345  
-12345  -12345  -12345  
-12345  -12345  -12345  
-12345  -12345  -12345  
-12345  -12345  BHN     
ZL      -12345  -12345  
[...]
       223.2549       268.2588       352.0101       426.6267       480.1387
       545.4363       661.2839       736.7363       775.8003       805.1606
       874.3882       942.5493       996.8623       1053.428       1141.152
       1214.033       1277.442       1328.787       1375.700       1394.101
       1434.040       1470.075       1526.764       1576.527       1599.671
       1629.593       1700.703       1727.584       1765.525       1795.639
       1837.880       1880.655       1923.553       1968.589       2010.046
       2016.397       2028.007       1984.972       1981.228       2027.554
       2040.564       1990.233       2018.373       2026.758       2024.531
       2033.811       2068.416       2083.571       2057.251       1981.462
       1964.065       1934.271       1907.049       1864.672       1822.771
       1798.309       1791.986       1737.781       1654.631       1599.238
       1615.674       1576.548       1488.061       1390.771       1329.925
       1277.688       1205.296       1099.128       1048.739       951.1387
       852.7766       795.1719       753.9489       677.3066       601.3873
       513.4399       404.7621       295.8015       239.7815       142.4391
       31.35211      -76.17938      -115.3925      -156.6525      -211.5654
      -232.8802      -267.3666      -338.4711      -363.8994      -430.7526
      -509.9006      -612.9043      -676.1058      -648.2234      -689.6777
      -783.9590      -781.7405      -791.4805      -810.8423      -809.0938
      -797.8477      -833.5029      -843.6338      -861.0781      -909.2017
      -952.0317      -953.8149      -977.3823      -988.5066      -1030.720
      -1053.741      -1001.397      -952.9785      -976.0117      -963.5156
      -966.4155      -1027.704      -1061.135      -1048.921      -1111.403
      -1152.810      -1157.531      -1164.418      -1172.749      -1167.305
      -1165.399      -1166.204      -1210.826      -1243.807      -1248.515
      -1263.194      -1314.720      -1326.206      -1338.429      -1370.108
      -1413.875      -1432.159      -1447.430      -1468.255      -1471.913
      -1466.243      -1489.663      -1479.679      -1438.575      -1428.887
      -1469.333      -1466.189      -1435.734      -1404.483      -1411.697
      -1407.146      -1401.418      -1403.223      -1361.742      -1324.291
      -1318.349      -1264.613      -1188.291      -1135.324      -1118.686
      -1090.255      -1068.810      -1031.598      -981.8870      -956.7410
      -950.2456      -931.4185      -874.7004      -808.6782      -796.5422
      -736.8625      -639.7158      -570.0333      -515.9285      -472.3734
      -454.5354      -399.7827      -331.3864      -308.6831      -282.1086
      -231.1737      -277.9182      -92.02348      -13.79480      -187.0549
      -44.46988      -126.0778       27.01776       212.7606       18.10712
       341.9906       202.1299       74.44995       552.8429       343.3925
       302.2909       365.5085       245.9336       813.2725       642.9935
       293.0405       383.5273       580.9507       1472.868       1528.977
       428.5264       368.9231       1050.938       1098.729       1132.720
       1412.787       1266.642       561.2026       742.3062       1688.579
       1856.924       1625.709       1088.758       1087.047       1645.526
       1623.648       1499.231       1562.543       1688.136       1449.497
       1251.645       1891.768       1890.489       1312.977       1695.155
       1726.191       1584.899       1831.407       1471.239       1624.534
       2155.953       1770.631       1359.819       1422.593       1214.463
       1041.066       1672.018       2222.677       2181.843       2099.960
       1427.777       501.5413       956.8369       1947.626       2033.997
       1159.726       1178.291       1939.516       938.9292       833.4043
       2197.998       1619.124       946.2310       1669.324       1527.710
       939.7144       896.5361       1282.083       1565.803       1009.379
       858.1040       1027.818       718.7534       824.8140       1238.060
       1340.895       1478.088       1134.691       332.4243       540.4749
       1115.363       973.3699       1090.333       1169.532       834.5471
       646.8645       407.9697       462.9709       722.0784       561.6019
       429.9128       784.6870       794.9410       532.4515       450.1688
       276.9127       246.5703       263.4722       507.1881       429.8214
       31.25642       126.6234      -11.59143       73.64551       514.1603
       122.5992      -451.8439      -391.0427       152.6437       241.2408
      -458.5201      -663.1240      -327.5105      -434.8777      -757.2993
      -438.9922      -329.6245      -785.3267      -855.4556      -720.4797
      -935.6987      -1015.083      -851.5471      -985.6958      -1063.533
      -1218.078      -1173.744      -1353.949      -1768.668      -1430.976
      -1379.137      -1719.163      -1777.033      -1743.626      -1643.597
      -1482.117      -1704.203      -2285.998      -2381.921      -1960.602
      -2101.135      -2239.435      -1890.810      -1941.972      -2336.114
      -2562.012      -2176.174      -1858.075      -2372.536      -2834.352
      -2536.253      -2300.664      -2461.137      -2250.984      -2272.970
      -2653.191      -2489.247      -2350.154      -2505.991      -2490.939
      -2527.492      -2618.415      -2267.811      -1825.327      -2299.991
      -2419.988      -1842.034      -2053.945      -2164.876      -1937.576
      -1895.472      -1818.350      -1933.770      -1675.161      -1541.932
      -1623.646      -1233.898      -1431.105      -1867.682      -1561.481
      -1459.207      -1315.321      -1154.899      -1238.272      -1023.411
      -1160.401      -1432.820      -1333.949      -1046.160      -780.5828
      -640.8269      -531.9136      -980.7935      -1524.097      -960.8113
      -404.4268      -727.2563      -746.9280      -494.7534      -711.4524
      -858.9728      -533.2952      -454.8486      -559.5421      -236.9237
      -395.3340      -708.0286      -5.083313       123.4758      -507.9353
      -35.32141       682.7197       25.65515      -358.6982       621.5491
       833.7095       258.0573       541.4154       744.0259       454.4139
       414.0234       662.5977       1205.901       1167.028       927.3350
       1453.297       1449.267       905.2852       1375.697       1843.332
       1522.569       1634.957       2129.094       2049.886       1949.714
       1965.113       1708.444       1909.135       2142.257       2057.283
       2183.142       2118.663       2280.442       2499.491       2042.491
       2102.861       2787.396       2785.157       2292.652       2174.396
       2433.521       2406.456       2235.210       2703.790       2759.311
       2134.246       1997.058       2249.071       2528.649       2606.917
       2388.745       2473.608       2790.462       2429.124       2032.456
       2216.005       2505.116       2436.289       2032.321       1897.877
       2005.138       2097.479       1867.449       1505.209       2027.044
       2405.333       1542.424       1083.441       1445.855       1371.133
       936.3655       1031.356       1307.241       1278.643       956.1082
       757.1312       718.0859       507.5317       807.5613       889.6095
       400.5857       645.8463       783.7489       399.4930       237.1423
      -158.8079      -424.0912      -203.1879      -4.721863      -37.25562
      -560.5541      -664.3905      -176.9563      -331.2952      -836.0322
      -773.4629      -596.0986      -883.5588      -797.5718      -395.9771
      -926.8005      -1525.711      -973.9233      -511.8442      -1115.715
      -1200.675      -651.1008      -961.0781      -1426.923      -981.3545
      -1143.144      -1840.953      -1227.259      -792.5410      -1544.966
      -1585.994      -901.9189      -1086.334      -1680.257      -1356.616
      -1222.727      -1781.236      -1780.564      -1176.098      -1272.154
      -1706.490      -1406.930      -1138.920      -1287.901      -1215.547
      -1207.817      -1599.399      -1469.594      -1104.099      -1705.822
      -2078.950      -1120.490      -969.1348      -1831.242      -1618.281
      -1030.467      -1014.974      -1027.133      -1045.507      -1499.007
      -1467.808      -1071.578      -1209.680      -890.6812      -493.2246
      -705.3540      -1175.749      -1249.923      -635.0549      -497.1995
      -582.6533      -689.5903      -1004.444      -895.6748      -785.1458
      -571.2358      -323.7078      -367.0973      -175.7615      -358.0952
      -834.3992      -413.3962       280.8182       161.9615      -208.6379
      -63.47876       181.9973       210.8927       363.6680       154.4807
       39.51123       696.5127       861.5309       332.4893       1.012451
       463.3706       753.4612       278.7822       649.8223       1181.393
       736.8201       375.6768       472.3062       814.0552       1334.010
       1116.556       651.5409       470.9883       414.0054       745.4009
       909.2222       861.3408       504.7944       785.1172       1366.054
       826.7281       512.8838       727.5964       690.7878       742.9097
       817.8500       573.0093       546.5587       622.6266       432.2347
       222.8855       329.2146       502.7662       402.8838       222.5129
       51.97668       122.8270       105.0554      -207.4893       4.290771
       519.2134       394.8833      -296.3806      -234.5139       363.0248
       216.2488       251.2915       394.9738      -87.33392      -236.5357
      -248.9019      -163.0400      0.6862183      -248.3015      -266.7668
      -58.49817      -267.2434      -355.1288       5.984512       124.1478
      -76.30571      -122.3721       97.56311      -40.78320      -612.8583
      -565.6512      -186.5997      -172.6128      -583.2327      -792.6103
      -295.3036      -130.2697      -306.8091      -209.0562      -437.7969
      -870.8790      -653.0557      -104.8491      -701.9731      -1146.698
      -569.0369      -434.5322      -592.7390      -454.7297      -486.4138
      -837.4346      -703.8232      -539.3672      -658.4050      -405.5522
      -572.0295      -755.9240      -402.0094      -439.4440      -580.1228
      -496.1633      -649.7200      -842.1925      -521.4327      -224.9011
      -551.6841      -700.4896      -425.4292      -593.6962      -840.3866
      -358.5618      -270.4033      -834.6941      -890.3816      -754.3188
      -761.9390      -629.8853      -578.1169      -704.9639      -1116.262
      -959.5691      -278.1848      -474.8535      -630.2140      -253.4097
      -520.9065      -905.7137      -600.4432      -73.69855      -108.0459
      -712.5488      -754.8842      -321.2094      -490.1390      -344.4401
       102.7085      -446.6687      -900.6046      -440.3071       49.17017
       378.0173       1.262390      -318.3673       549.6417       513.3376
      -455.0842      -86.52881       785.1819       960.3896       883.5371
       337.7533      -217.2601      -54.43115       211.3152       412.9855
       636.0165       510.9241       361.0464       883.5518       1201.982
       731.1910       419.3430       585.7515       889.2031       684.8630
       228.2341       754.6621       1241.419       1070.123       1449.135
       1789.712       1427.985       1164.561       1203.641       974.1692
       956.5649       1437.348       1461.062       1531.153       1679.308
       1309.922       863.0576       855.0471       1343.862       1391.270
       1389.296       1685.461       1451.085       1144.235       1290.072
       1328.037       1182.214       1191.469       1373.666       1706.176
       1781.994       1633.825       1658.744       1662.648       1548.703
       1483.808       1380.277       1120.325       581.6055       843.8896
       1873.163       1652.729       665.8042       519.8301       1358.488
       1557.405       772.5320       922.7739       1189.998       710.1687
       145.8264       123.0439       1013.348       984.3800      -1.178101
       267.3491       918.3384       598.3481       476.4487       927.5508
       1229.453       1011.306       892.7607       1259.020       1453.634
       1563.365       1876.334       2878.587       4277.361       4042.444
       2412.091       1279.469      -240.6631      -2437.451      -2496.490
      -835.6619      -296.1873      -147.6099      -261.9600      -1858.342
      -3613.014      -3805.591      -2233.565       973.7686       3840.662
       3243.273      -374.7632      -2408.768      -163.1372       2364.468
       657.1123      -2775.682      -4006.825      -4540.761      -3416.137
       3774.689       9171.723       3468.025      -4545.042      -5189.123
      -3673.267      -4934.469      -3527.541       2366.114       4795.831
       275.5405      -2948.517      -1673.533      -1853.533      -1454.084
       1391.909       187.1895      -4996.459      -6909.427      -3066.113
       2358.133       3060.913      -872.3672      -4915.916      -7239.342
      -7179.681      -3274.744       2055.620       1517.971      -1550.411
      -618.4707      -2367.254      -7139.531      -6855.988      -3863.675
      -2863.032      -1343.165       258.7834      -1179.954      -618.4727
       4049.697       2442.436      -5209.314      -5861.678      -1624.292
      -1562.336      -2010.867       190.4771       331.4961      -2952.693
      -5383.066      -3720.831      -305.4331       893.0085       1083.176
       1064.122      -1895.209      -4117.665      -1383.718       703.3364
      -1094.493      -1323.955       588.8237      -40.55566      -1987.911
      -2924.057      -3380.088      -2567.097      -1926.693      -2442.019
      -861.6934       2131.027       1453.635      -641.0547       1211.517
       1615.811      -2268.063      -3445.614      -1788.768      -1169.355
      -43.56201       1557.123       637.9534      -651.8109      -112.3758
       62.77002       248.0569       635.7012      -861.3147      -1493.735
       389.6904       703.2329       188.2806       609.4321      -126.0158
      -311.3401       1193.259       1387.766      -20.74011      -511.7195
       706.3042       1374.792       747.3820      -252.6987      -899.8877
       959.7783       2898.459       1500.511      -50.23550       267.8956
      -203.8696      -732.1978       920.0420       1682.925       1093.910
       2022.595       3376.442       3302.579       2516.513       2092.813
       2006.213       2313.981       1873.442       391.2295       702.5078
       2909.795       4341.657       4047.051       2409.242       726.6646
       969.7490       2192.286       2142.349       1947.543       1803.285
       1629.496       2492.913       2586.892       1953.958       2060.327
       2231.893       2297.955       2839.613       3515.423       3379.577
       2091.928       1794.691       3010.232       2007.612       291.1870
       1429.262       2461.324       1404.230       1089.072       2187.436
       2282.935       1804.271       2863.781       3868.621       2917.958
       2196.502       2066.820       1157.121       115.4341       57.34033
       1840.385       3482.609       2799.595       1627.302       934.0554
      -545.2529      -416.6587       1974.725       2458.615       885.2637
       404.2839       1114.070       1076.678       744.1345       1214.982
       1396.206       897.8669       391.2197      -569.0708      -1117.389
       119.6418       1140.100       769.1472       750.7778       698.5928
      -882.9961      -1701.248      -1444.002      -2569.821      -2872.368
      -1069.137      -424.2964      -1645.049      -1849.369      -435.4396
       574.6665       686.5363       574.1740       319.4256       84.55267
       42.30566       748.2207       1853.576       707.2090      -1796.696
      -2811.738      -2910.519      -3158.084      -3288.284      -2651.836
      -1638.123      -1526.304      -2475.715      -2623.958      -1861.774
      -1694.523      -1857.290      -1734.969      -1221.861      -1461.424
      -1635.747      -75.85913      -71.09375      -2351.196      -2522.727
      -1057.674      -1682.564      -3413.626      -2967.896      -1487.018
      -1517.721      -1728.150      -2099.145      -2793.146      -2132.370
      -2558.095      -4325.129      -4535.774      -3890.097      -3435.815
      -3068.772      -1945.598      -739.0986      -1842.575      -3280.806
      -2334.943      -2172.062      -3999.269      -2796.166       772.0135
       879.0547      -1238.733      -1193.279      -946.6387      -2526.205
      -3325.501      -2451.917      -1803.776      -2131.165      -2090.242
      -1538.168      -1529.244      -2005.427      -2374.193      -1764.288
      -1709.646      -2699.137      -2196.767      -1156.293      -1664.033
      -1504.922       302.9368       742.3909      -322.0454      -699.8560
      -934.5117      -1149.349      -199.2007       401.9783      -940.4873
      -1062.341       533.3220       315.0165      -188.0801       1535.830
       2100.101       114.5312      -787.6294      -115.1875       410.3125
       753.6240       995.6198      -59.44507      -893.7108       99.93921
       245.6466      -162.9766       480.3352       951.6445       1205.551
       1954.429       2260.090       1379.084       1168.347       1966.592
       1454.506       225.7227      -450.1555      -668.0125      -549.2316
      -626.9264      -301.5767       673.4927       1379.025       1598.746
       1243.740       1107.418       1437.222       1835.281       2394.235
       2134.347       1305.607       1586.901       2417.840       2385.634
       2100.015       2289.578       2305.115       1925.478       1976.492
       2232.804       2423.153       2735.098       1881.281       1509.482
       2646.743       3089.738       2543.112       1691.244       1247.710
       460.1316       238.1055       2200.161       2859.153       452.6923
      -773.6431       927.0381       1890.566       1269.055       1783.720
       3278.496       3671.255       2493.396       655.7034      -187.4644
       1116.119       1515.496       637.0298       1989.072       2812.327
