     0.02500000      -43947.09       48443.27      -12345.00      -12345.00
      -30.00499       215.8700      -17.48000      -12345.00      -12345.00
       0.000000       13.67000      -12345.00      -12345.00      -12345.00
      -12345.00      -12345.00      -12345.00      -12345.00      -12345.00
      -12345.00      -12345.00      -12345.00      -12345.00      -12345.00
      -12345.00      -12345.00      -12345.00      -12345.00      -12345.00
      -12345.00      -31.64950      -69.41590       1962.000       0.000000
      -31.24600      -68.98500       0.000000       102400.0       0.000000
      -12345.00      -12345.00      -12345.00      -12345.00      -12345.00
      -12345.00      -12345.00      -12345.00      -12345.00      -12345.00
       60.65677       222.3632       42.58686      0.5453804      -12345.00
      -12345.00       1.393950       90.00000       90.00000      -12345.00
      -12345.00      -12345.00      -12345.00      -12345.00      -12345.00
      -12345.00      -12345.00      -12345.00      -12345.00      -12345.00
      2008        16        21        17        54
       180         6    -12345    -12345      9836
    -12345    -12345    -12345    -12345    -12345
         1         7        13    -12345    -12345
    -12345    -12345    -12345    -12345    -12345
    -12345    -12345    -12345    -12345    -12345
    -12345    -12345    -12345    -12345    -12345
         1         1         1         1         1
BARR    -12345          
        -12345  -12345  
-12345  -12345  -12345  
-12345  -12345  -12345  
-12345  -12345  -12345  
-12345  -12345  -12345  
-12345  -12345  BHE     
ZL      -12345  -12345  
[...]
      -179.1896       81.27161       203.1555       237.3380       56.83160
       17.95978       131.5180       292.2487       151.8221       49.49518
       78.42316       334.6678       266.9409       186.7418       227.7660
       279.9854       272.3784       247.6990       34.57251       287.3877
       375.2065       158.0575       145.9644       191.7837       105.8269
       435.1099       282.1540       17.63586       185.1240       249.9566
       25.45715       174.2095       257.0161       339.6110       210.2892
      -43.85498       63.97504       417.1705       184.2492       99.19446
       191.5607       277.2023       220.6800       108.0883       69.62946
       331.9231       266.7454       190.0991       160.0021       157.3108
       67.75653       111.7238       123.9948       265.9080       224.0581
       113.4261       49.99323       186.4573       132.1575       103.0424
       104.0318       192.5368       63.89006       35.15479       86.19019
       139.5146       64.27087       114.2913       39.21761       49.55034
      -15.47821       40.36096       170.7696       131.6838      -127.0483
       91.86026       142.4925      -53.08578      -38.23999       101.1621
       38.08328       122.3610      -35.43300      -95.18517      -14.31991
      -5.653839      -92.80619       62.04306      -18.23584      -104.6032
      -169.2736      -161.8604      -131.0658      -78.33777      -176.1487
      -130.3806      -223.5908      -279.6897      -287.1174      -204.4275
      -329.4160      -312.6899      -249.3580      -289.5293      -493.8895
      -468.9553      -419.9141      -379.4309      -478.3427      -509.1438
      -600.2532      -514.3849      -554.7900      -550.1675      -577.7097
      -613.4146      -675.8169      -620.1250      -689.8123      -664.4326
      -707.3905      -658.9893      -721.2358      -750.6919      -818.9827
      -752.2986      -767.2073      -691.0909      -689.2200      -640.3218
      -760.0869      -834.5728      -787.1997      -545.8851      -549.9805
      -616.1714      -719.0320      -562.7172      -508.7377      -568.8181
      -597.9462      -380.2977      -345.2024      -370.1957      -420.8089
      -312.3160      -258.8909      -178.5220      -223.3513      -126.8024
      -67.29028       20.70089       21.14262       2.472984      -39.21851
       196.3803       308.5662       226.3663       82.89868       244.4570
       287.7615       352.3718       408.3055       451.7057       420.7500
       419.4176       355.8735       505.7706       486.1641       496.4178
       607.7344       691.5305       563.5563       524.0413       414.5806
       596.7078       795.4500       730.3628       596.7776       663.6384
       617.3918       742.6575       741.5002       730.2710       748.3518
       751.1323       682.0503       784.7156       751.1509       780.9556
       876.6829       906.3474       737.1682       799.5291       842.8550
       836.9744       725.7104       796.9805       876.4441       891.0181
       823.4150       899.0752       815.1396       770.0605       738.8140
       874.3828       878.5513       766.4910       681.2129       767.4548
       657.8652       668.2197       743.3052       730.9382       592.5247
       583.8840       474.5886       537.0474       578.8682       563.6418
       464.2462       432.5791       376.1355       489.0017       404.6395
       269.4510       210.2123       297.9059       320.3307       299.0017
       99.26994       29.37830       116.8857       294.1590       146.7114
     -0.8932114      -46.17073       38.52098       4.762100       49.71818
       26.34631      -40.14996      -155.4218      -86.89648      -100.3593
      -120.4781      -174.5043      -100.8663      -106.9241      -120.8639
      -144.5394      -133.4648      -323.6725      -252.6816      -13.07492
      -10.55737      -369.7836      -360.7277      -92.55598       8.748901
      -248.0023      -293.9012      -121.7912      -39.28027      -203.6649
      -200.6756      -138.1578      -66.41443      -175.5349      -193.5976
      -211.4207      -226.0363      -193.8725      -13.54291      -93.82947
      -279.3290      -382.3096      -304.5354      -655.5745      -851.7283
       192.8108       1065.445      -141.9788      -14.57422       3184.521
       893.0723      -7871.166      -5738.725       3941.122       4273.130
       2370.094      -2395.164      -10562.45       1281.926       15454.92
       182.4922      -17194.22      -12683.28       962.7695       14322.25
       10302.28      -8391.743      -7883.174       4406.000       541.7656
      -7127.849      -4832.012      -3937.496      -1985.484       8067.175
       5109.137      -6299.671      -3392.592       2365.396       1719.773
      -4444.164      -11721.54      -4898.223       7766.205       9936.634
       2745.520      -10097.90      -13071.60       6878.596       11536.24
      -8168.813      -3653.930       2844.506      -8228.607       3621.769
       7656.834      -13103.07      -6553.236       10203.23       7858.525
       4604.363      -5506.648      -16932.58      -6257.303       9790.828
       9509.805       2128.390      -3048.119      -5656.055      -1245.641
       1534.150      -444.9094       3143.041      -3112.871      -4646.203
       6839.955       2137.415      -3095.831      -1133.968      -819.0875
       1025.058      -3294.615      -1494.535       5744.310       2310.847
       7.042969       1272.658      -3120.089      -5101.046       1008.496
       5169.013      -483.7490      -3681.509       920.9180       3983.058
       213.1670      -5019.187      -2004.473       4349.579       2734.698
      -4937.145      -5999.020       2903.049       9145.023       2695.657
      -6220.483      -3626.406       327.3662      -949.3823       1581.842
       4228.054      -456.4434      -3985.956      -1223.164       789.8184
       5177.886       7331.338      -5369.953      -9221.229       2249.648
       4036.593      -1696.253      -2113.424       2547.596       6641.567
       3321.838      -6341.086      -5477.999       2516.445       2496.709
       3732.339       3289.467      -1939.176      -2276.728      -221.3682
       2315.125       2993.720      -111.3706      -417.8037       2902.801
       2729.634      -2515.300      -3374.443       905.4419       2508.144
       2825.846       3859.787       581.2617      -2219.331       565.3091
       2567.687       342.4258      -2708.701      -1113.528       3627.992
       4851.180       1803.228      -1463.774      -822.9072       2234.367
       1761.363      -2733.470      -3558.241       958.6484       3993.944
       2325.246       1067.513       928.1064      -576.7385      -1002.517
      -528.9545      -698.9757      -173.8159       1781.035       2173.463
       325.6113       1156.061       1691.730       84.28174       1409.410
       1427.682      -3351.754      -2245.776       2824.487       1271.826
       1466.003       4247.083       785.5898      -1726.954      -522.4117
       217.4979       571.8328       190.3945       2974.304       5182.153
      -314.3071      -2684.288      -1259.863      -300.4141       4155.706
       2570.950      -2197.346       1009.388       2520.858      -288.8995
      -35.08502       194.6451       171.5596       1665.619      -563.5757
      -1990.809       1462.352       1933.285      -641.5528      -98.11353
       394.7251       615.1807       1973.072       704.7373      -2721.123
      -3245.927      -466.0264       1408.617       1333.324       172.8608
      -135.3665       188.5571      -1109.776      -1262.840      -1758.647
      -1848.547       2405.706       4531.240      -590.6621      -5544.145
      -2328.740       2690.786       2407.865      -2486.942      -4886.115
       2836.361       7743.763      -745.0586      -8721.538      -2394.567
       4335.640       359.6714      -3007.040      -1624.999       538.4868
       2471.817       1527.166      -3104.873      -3302.809       858.1765
       1515.865       50.77734      -1406.156      -2616.301      -1342.051
       745.0845      -499.2256      -1287.306       42.63159      -572.8472
      -702.0081      -489.1450      -2339.641      -238.5775       915.1074
      -2942.526      -2380.688       643.1617       417.7969       401.6338
      -1547.342      -2856.882      -399.8682      -1241.016      -2023.609
       126.1736       856.6206      -108.6987      -2295.754      -2812.359
      -18.25244       19.32715      -3442.303       39.59473       2962.955
      -1654.038      -3208.290      -1593.085      -621.8296       126.9648
      -1630.386      -2396.062       642.9578       1101.238      -601.3359
      -2330.717      -3474.965      -1054.101       130.4788      -1043.561
      -982.1587      -44.06641      -1506.777      -1464.137       2891.645
       909.9102      -6056.235      -2535.000       4138.372       300.0352
      -4291.708      -2279.258      -326.5566       1764.827       4010.263
      -1201.485      -4299.001       1225.351       1258.140      -2235.135
      -877.3215       130.7412      -2149.715      -1268.097       2359.051
       1505.803      -1871.736      -1770.177       1574.528       1851.453
      -1044.339      -538.2692       273.8759      -94.65784       1041.222
      -128.5443      -975.9436       996.8961      -479.1426      -38.21289
       3555.315       1436.216      -1123.518      -1066.365       672.5615
       3328.620       1487.562      -2966.510      -2981.059       2865.547
       3287.992      -2132.848       124.8057       3983.138       873.1821
      -1916.801      -1664.658       2812.628       6374.271       1773.340
      -3663.737      -3126.066       2562.815       5623.278       1211.214
      -642.7260       1137.868      -1778.932      -1436.411       5685.656
       5986.468      -693.3906      -4505.982      -1253.592       5059.525
       7961.362       4241.056      -4498.778      -5340.182       3654.684
       7740.343       2785.027      -1250.289       14.03516       2860.760
       4233.608      -799.8086      -2379.674       4462.591       5344.660
       1854.566       339.1157      -1787.388       156.3828       6374.596
       4858.035      -2978.423      -1872.266       4108.982       5205.088
       1415.630      -4538.637      -1819.855       5200.602       3511.577
      -1130.472      -1048.506       2476.196       5532.546       3905.035
      -2847.057      -6444.910      -549.4863       7271.212       2426.762
      -7507.876      -3527.986       5437.679       5889.146       635.1533
      -3818.505      -1795.861       2104.883       266.8867      -5295.486
      -6824.879       996.1406       11216.33       7364.672      -8235.959
      -12615.18      -281.0254       10315.15       3946.863      -10608.10
      -10616.90       2050.186       10595.75       6450.133      -6134.619
      -8893.827      -1398.211       2014.219       359.6230      -1942.488
      -2293.708      -1486.371      -1454.964      -915.2227       2931.652
       4311.141      -3687.980      -9178.102      -725.2871       7596.982
       649.5332      -7855.621      -5805.649       394.1094       5436.391
       1766.512      -6368.797       175.0342       6920.201      -5914.158
      -11478.35      -302.2910       7172.036       7812.798       497.6816
      -10860.92      -10529.11       611.0645       8502.527       4439.494
      -5301.719      -5285.556       2318.020       5884.533       2659.400
      -5023.541      -13110.65      -5478.289       12539.13       7252.983
      -8158.469      -6509.552       21.10352       2873.235       2869.440
      -4797.295      -7631.853      -216.6855       5061.841       6712.693
       396.1953      -9054.583      -8054.607       2738.388       6368.438
      -2969.891      -7207.995      -1877.508       5607.495       7595.414
      -4359.004      -12560.28      -1344.658       9356.196       6134.881
      -5815.381      -9990.264       1840.137       6315.430      -2053.242
      -5140.578      -2955.976       2019.809       3347.788      -4753.881
      -3996.880       3218.310       1140.220      -694.9795      -1057.384
      -3882.657      -1778.722       2361.998       166.1875      -6695.379
      -5700.895       6841.719       11932.08       1888.443      -2524.775
       3952.121       5973.432       296.2969      -11935.50      -19578.36
      -4760.539       12299.97       10889.13       5835.766       9096.637
       22204.15       19743.58      -13203.41      -40395.14      -35627.39
      -6212.209       13784.47       4850.678      -2537.617       9788.602
       21276.67       20368.92       16707.38       7372.070      -18952.78
      -43947.09      -32278.50       14116.68       48443.27       29526.35
      -24635.60      -37529.05       6892.758       25917.00      -6183.430
      -28064.14      -12789.78       15985.98       28860.63       16274.62
      -3051.410      -14969.91      -19544.28      -5587.980       16627.86
       17491.85      -6132.492      -24616.24       1131.773       34076.55
       15585.66      -25134.75      -34171.17      -3408.801       18705.27
       12149.06       6387.073       2761.400       1013.770       9380.104
       12066.02       4874.281      -5775.609      -26734.81      -30285.52
       1820.385       16441.01      -3502.358      -8868.820       14558.20
       31934.98       17350.12      -16330.89      -25155.98       2679.020
       15222.45      -3080.718      -3931.428       8823.519       431.8545
      -5380.122      -1754.977      -5816.787      -5090.902      -6152.277
      -8046.611       4067.500       17769.59       17046.70       2063.518
      -9496.982      -8008.791      -2257.992       8018.565       9545.062
      -11254.52      -20119.51       903.8203       22264.25       20365.62
       1059.895      -10112.88      -16438.52      -22351.96      -4909.574
       20228.91       24785.23       12912.11      -4901.547      -14692.77
      -7906.857      -4070.770      -14577.39      -12384.75       12041.95
       30072.05       23579.83      -650.5547      -19843.19      -14968.06
       1672.679       6780.520      -1692.082      -7268.190       93.69922
       18139.31       22312.04      -1144.000      -16073.32      -9461.551
      -4349.388      -2826.182      -2825.137       1255.020       9101.206
       314.4473      -12075.36      -3474.582       10369.51       15371.31
       10885.56      -5327.414      -16513.18      -7660.513       1430.575
      -638.2363       3828.357       10440.42       4145.349      -185.9209
       1884.117      -4081.164      -9818.147      -6200.217      -2653.191
      -5260.258      -6450.604       2764.352       13966.37       15849.30
       2742.924      -10910.33      -2023.447       8645.339      -768.5586
      -12719.16      -12663.02      -3205.654       4188.817       4607.307
       1507.767      -763.7578       2646.035       6790.983       2464.775
      -6675.111      -10448.12      -4079.434       10665.89       13528.06
      -6763.891      -18556.27      -6283.906       5871.629       7666.168
       7486.033       7247.730       3896.598      -6011.605      -12122.40
      -1619.273       7729.923       216.7207      -6995.547      -3339.831
       3295.046       4759.425      -2348.898      -6988.381      -4393.618
      -3045.895       720.7891       8328.146       9477.300       2409.710
      -2108.562      -805.3711      -4390.902      -11586.86      -5007.977
       8553.984       9641.496       1831.547      -1679.479       1123.306
       317.0879      -8050.621      -9510.927       1822.023       4446.654
      -5726.692      -6883.484       3283.449       10418.95       6593.464
      -2866.851      -5981.247      -555.5723      -1428.568      -8462.770
      -1929.766       11273.73       8295.483      -3423.018      -2889.130
       1901.585      -3947.127      -8203.884      -2229.877       3106.061
       2988.529       1951.004       828.8976       287.1240      -297.7451
      -2330.850      -3227.485      -3064.456      -414.2832       5985.432
       9135.312       2670.049      -7265.392      -2651.303       4927.425
      -3146.176      -5890.623       726.3271       1462.861       3487.232
       5289.274      -375.0703      -4374.106      -3007.945      -1534.172
      -1674.788      -2971.999      -3463.637       341.9590       6102.875
       5682.716      -1802.680      -5799.035       934.2939       5147.237
      -329.4629      -4086.586      -4703.894      -3619.918       3840.969
       8144.378       4278.616       1228.899      -2606.351      -3109.514
       2657.208       423.5762      -6765.264      -5356.927       1070.732
       3132.470       2048.679       2378.594       3067.187       51.37207
      -4444.231      -2678.714       4550.716       6859.682       558.4346
      -3376.761      -1472.439      -765.6373      -575.6544      -174.6562
       1529.128       3835.497       123.5664      -3670.171       2211.458
       5766.801      -338.1572      -3681.271      -1358.845       1426.165
       1696.258      -76.04004       1308.286       3041.027      -1520.460
      -4018.642       998.9609       2468.491      -263.4435      -185.1968
       2208.095       2767.870       2937.618       3648.158      -305.9727
      -5694.055      -5786.293      -1781.112       1923.498       3714.350
       4113.650       1719.027      -1685.629      -2507.638      -1628.056
       1836.446       5491.067       2450.867      -5961.555      -9079.979
      -1135.909       5938.054       4540.769       1026.854      -571.9697
       1939.171       1937.791      -7477.818      -8185.646       3751.942
       4818.864      -2752.054      -1747.750       4339.875       8188.024
       7285.135      -1097.180      -8623.218      -6981.292      -1020.297
       2596.624       3683.462       2824.049      -1967.551      -3056.761
       2746.443       5330.146       1520.521      -3144.124      -2778.437
       320.9741      -1487.579      -4981.031      -2845.816       2828.318
       5517.295       3554.398       1627.154       1539.625      -1812.037
      -6213.305      -5722.389      -452.3564       5686.811       5063.960
