     0.02500000      -23356.49       21800.18      -12345.00      -12345.00
      -30.00499       215.8700      -17.48000      -12345.00      -12345.00
       0.000000       13.67000      -12345.00      -12345.00      -12345.00
      -12345.00      -12345.00      -12345.00      -12345.00      -12345.00
      -12345.00      -12345.00      -12345.00      -12345.00      -12345.00
      -12345.00      -12345.00      -12345.00      -12345.00      -12345.00
      -12345.00      -31.64950      -69.41590       1962.000       0.000000
      -31.24600      -68.98500       0.000000       102400.0       0.000000
      -12345.00      -12345.00      -12345.00      -12345.00      -12345.00
      -12345.00      -12345.00      -12345.00      -12345.00      -12345.00
       60.65677       222.3632       42.58686      0.5453804      -12345.00
      -12345.00      0.3694685       0.000000       90.00000      -12345.00
      -12345.00      -12345.00      -12345.00      -12345.00      -12345.00
      -12345.00      -12345.00      -12345.00      -12345.00      -12345.00
      2008        16        21        17        54
       180         6    -12345    -12345      9836
    -12345    -12345    -12345    -12345    -12345
         1         7        13    -12345    -12345
    -12345    -12345    -12345    -12345    -12345
    -12345    -12345    -12345    -12345    -12345
    -12345    -12345    -12345    -12345    -12345
         1         1         1         1         1
BARR    -12345          
        -12345  -12345  
-12345  -12345  -12345  
-12345  -12345  -12345  
-12345  -12345  -12345  
-12345  -12345  -12345  
-12345  -12345  BHN     
ZL      -12345  -12345  
[...]
      -36.45081       69.42688       299.2457       226.9746      -12.32428
       45.21063       220.5326       66.79957      -69.21866       62.73010
       189.0938       48.68384      -120.8424      -49.34216       68.18079
      -93.89258      -129.6100      -3.202393      -82.21326      -240.4254
      -200.6639      -79.03430      -130.1296      -362.0627      -307.5789
      -112.1235      -304.2236      -521.2018      -286.1464      -233.5435
      -420.0275      -455.9608      -405.1196      -387.0154      -479.3074
      -588.5868      -376.1121      -395.9126      -628.1707      -530.3995
      -453.7600      -632.4438      -622.6106      -515.2349      -472.7986
      -585.1370      -673.3131      -556.2172      -476.3175      -666.0131
      -703.0399      -517.7865      -414.1113      -590.2373      -724.0259
      -571.1241      -351.6406      -491.4116      -651.9680      -500.7847
      -373.1077      -496.9618      -467.0957      -345.7131      -352.7529
      -429.0082      -302.8956      -210.0647      -347.1938      -378.8575
      -158.4382      -143.8475      -261.9453      -171.9554      -42.52551
      -83.44070      -133.9146      -106.2115       79.00848       36.77637
      -172.6051       13.47626       274.1463       59.65022      -67.89630
       108.5687       228.2705       131.1198       63.15277       175.3362
       248.5814       114.1053       148.7668       275.1464       246.7366
       163.0255       192.7908       256.5705       278.6511       205.2471
       239.7737       274.2308       131.3352       110.3503       317.5972
       332.1848       164.9278       44.47314       206.2687       334.6924
       153.3612       75.40271       282.0031       280.7775       127.3215
       85.09473       214.1885       235.6614       128.8600       194.6815
       318.5685       109.7926      -64.01996       116.9337       331.8010
       208.7181       33.10269       87.91162       203.5968       81.85045
       23.26593       148.2280       166.7194      -6.893707       16.71265
       124.8465       28.06914      -36.43860       114.5078       140.6764
       57.90271       33.30414       150.8098       151.2205      -38.31091
      -20.31262       302.7468       325.5517       62.65839       58.17371
       270.6083       281.7834       213.9442       239.8733       348.2877
       323.7982       242.6373       335.0856       505.1688       390.2008
       259.2418       486.0259       621.5243       387.2522       369.0100
       581.3678       633.1855       478.6633       426.8147       578.3115
       666.5908       515.2410       533.8015       695.8496       593.6196
       397.8453       577.1008       754.1708       577.8022       405.3447
       574.4580       670.2285       498.4204       384.2261       556.7106
       602.2655       399.1620       315.1279       452.8064       401.6153
       249.9185       279.8491       349.0776       212.1229       92.07428
       132.6280       209.3663       85.34367      -44.29774       8.374161
       2.557678      -160.0514      -99.93723      -49.55841      -159.0251
      -350.6382      -355.4349      -126.8690      -167.1344      -510.5452
      -448.5167      -220.0220      -341.3479      -522.1212      -416.5255
      -351.4606      -423.2386      -475.7993      -413.1404      -416.9789
      -477.9397      -502.8934      -419.2673      -417.3372      -429.3313
      -341.0942      -362.1704      -566.6941      -533.4189      -380.7720
      -343.0125      -525.8685      -346.5889       422.5565       310.1755
       99.81543      -211.7007      -1426.010      -824.7422      -289.8621
      -2063.924       66.48926       4837.295      -271.8828      -6473.590
       2973.955       6840.388      -7964.983      -5547.678       9927.929
      -888.4258      -11777.52       3659.898       11657.91      -464.3008
      -11572.46      -5352.359       10925.26       5338.225      -11576.41
      -2713.562       8724.693      -2887.165      -4254.285       10913.21
       4341.855      -15227.21      -9862.455       8644.264       11431.47
      -1066.024      -7462.387       81.57300       227.6147      -2983.459
       1376.224       3432.593       2151.119      -1250.981      -4228.337
       2191.929       2794.210      -4431.870       1264.317       5215.077
      -2442.361      -3900.282       3043.067       1231.189      -4186.123
       2531.293       5119.253      -3437.311       792.5088       7902.919
      -2697.256      -9502.178      -112.6064       6015.271      -291.7148
       942.2871       7362.671      -855.7148      -8298.876       1055.425
       6841.391      -2276.653      -4411.918       2231.392       2484.624
       1562.002       2503.546      -3016.637      -3726.494       1678.489
       1467.468       552.9741      -411.0964      -813.0602      -1152.249
       1150.700       5796.365       2610.796      -4986.748      -3299.531
      -1051.307      -3023.645       2633.417       5299.686      -211.9233
      -2126.224      -1026.781       24.78320       2350.286       801.7803
      -3029.727      -1607.986       1417.416      -125.0565      -907.9727
       1942.664       2696.651      -177.5078      -3295.401      -1830.686
       1220.993       362.9226      -1567.248       1165.294       3496.052
      -1332.754      -4062.579       948.6484       1982.191      -1309.547
      -386.6838       656.5835       711.1577       1277.349      -1860.671
      -3042.097       2191.403       2192.495      -2725.121       233.4541
       5413.233      -560.0859      -6980.440      -1367.281       2883.322
       820.3140      -224.8297      -960.4396      -74.01489       2016.600
      -2.278687      -763.0355       829.1077      -503.5518      -1781.330
      -1477.197       253.2853       828.9648      -824.1992      -539.2290
       827.8605      -161.5884      -635.4009       185.6909      -759.8513
      -1068.846       50.13940      -287.4117      -561.4285      -83.55542
       381.4796       811.3125      -2543.995      -4061.363       1648.895
       3987.703      -1345.866      -4014.245       588.7412       2592.072
      -868.0938      -2622.773      -2267.626      -86.44836       1075.495
      -342.0977       670.3022       1691.276      -689.9775      -2286.760
      -1109.162      -1049.621      -1294.082       1903.400       1274.007
      -3427.098      -1121.002       2269.016      -978.1068      -1388.661
       1498.612       1329.400      -1876.528      -3481.182       843.4995
       2322.910      -1957.323      -1366.329       1679.621       263.3345
      -1408.485      -1938.242      -809.0082       1154.385      -313.3777
      -397.2557       1773.645      -1625.682      -4117.024       783.5405
       2274.322      -4.397461      -1290.455      -2657.742       136.6392
       3145.621      -691.1074      -2258.937       1090.272      -1564.370
      -4621.180       1832.453       5622.209       682.2803      -1970.007
      -2489.181      -2317.938       1565.454       3036.032      -172.3340
       253.0134       1724.699      -2545.779      -4034.618       1199.137
       3709.961       888.8213      -959.8931      -1119.701       110.1631
       1068.501       1325.908       221.3488      -1179.981       581.5088
       1727.335       946.6287      -141.8715      -950.3599      -95.38672
       919.3843       1639.591       3078.911       1603.489      -307.8606
      -657.1667      -1691.818      -279.7495       2492.004       1742.931
       788.2052       767.2148      -1400.697       288.1416       2488.003
      -711.3820      -777.0049       3179.134       2618.642      -1033.791
      -372.2812       2375.610       1660.683      -2194.482      -2278.921
       2615.724       2812.550      -369.4766       1587.162       2129.034
      -1901.174      -43.41504       2373.822       343.4468       184.0081
       674.4226       656.1438      -724.0117      -534.2900       3370.619
       1660.179      -3192.223       118.8545       2790.443      -1049.090
      -985.5015       3044.199       1469.758      -2939.625      -898.1597
       2486.091       1872.259      -249.3049      -1365.521       726.4438
       1914.975      -28.00195       349.6743       1881.005       1488.841
      -356.1021      -2998.027      -348.9795       4465.977       653.1846
      -3947.371       1003.921       3026.096      -2582.470      -2019.465
       3996.147       1746.755      -4452.850      -1671.086       2871.830
       451.0438      -676.2173       2996.758       706.6162      -4206.769
      -1471.003       1829.716      -468.0374       9.647949       2121.852
      -368.4686      -926.9431       1040.055       315.9873      -326.7949
      -979.6882      -780.0515       1614.826       27.06836      -2729.610
      -952.4956       1420.251       792.6647      -607.5228      -66.32739
       313.7969      -2145.274      -2384.713       940.9429       3544.465
       450.4238      -5618.967      -2680.923       3635.741       1646.300
      -2151.047      -1511.496      -25.46875      -1150.374      -2539.124
       991.8267       3232.224      -1601.752      -3608.067       305.8569
      -542.7231      -2662.494       995.9631       1143.003      -2210.147
      -789.6262       630.8970      -2009.551      -1669.112       2606.988
       1464.640      -5410.223      -4482.678       2947.507       1502.382
      -2238.327      -461.2246      -451.6292      -1160.132       40.72980
       924.6206      -939.7969      -4754.716      -3325.715       2779.080
       3066.352      -1081.449      -1218.370      -321.3784      -2685.955
      -2456.492       1618.691       2834.098      -271.2158      -3083.044
      -1458.374       52.22217      -251.4792       1099.228       26.46289
      -3554.448      -1660.034       2244.752      -198.3513      -2173.623
       771.6309       1927.290       946.2932       409.0732      -1964.552
      -3446.824      -1511.874       2005.565       3985.618       222.9551
      -3382.359      -807.8257       1762.893       950.1558      -1306.607
      -1870.892       946.2888       2500.591      -950.8721      -3251.410
       1512.974       4680.069      -797.2822      -4381.887      -1785.970
       954.0830       3793.882       2437.882      -1696.217      -1777.249
      -1303.777      -499.0811       2812.294       2615.491      -1558.406
      -2316.726       113.9299      -630.2705       527.0957       4072.409
      -1737.501      -4795.629       5105.058       7860.391      -4564.519
      -8955.139       2433.477       6108.528       716.0942       608.3318
       1430.827      -2268.364      -2504.340       3054.442       3979.096
      -1735.670      -164.5762       5313.945       1932.035      -782.7767
      -573.2749      -739.4733      -36.88574       981.6270       2762.001
       1100.737      -815.4492       4368.287       5949.458      -319.3828
      -1618.611      -1138.149      -1143.827       3702.692       4784.136
      -912.2726      -935.4495       1954.836      -203.7158       1579.557
       3829.551      -104.1741      -2123.644       222.6270       2812.416
       3394.676       339.5042      -1392.340      -263.8529       938.2930
      -16.87695      -3354.755       12.88184       2275.302      -2074.340
      -1439.897       1882.911       2311.101       2027.172       1086.553
       619.9482      -1874.756      -4184.348      -1122.755      -789.5620
      -2728.188      -1878.984      -3423.270      -3503.484       2037.570
       7128.598       7528.944       2621.383      -1637.078      -816.9990
       2852.931       3767.102      -2234.022      -6446.843      -1141.343
       1898.119      -1805.849      -2253.521      -3369.483      -3399.424
       7735.092       11559.14      -1863.318      -10654.64      -5556.277
       7344.781       14085.26      -3064.527      -18353.66      -408.8672
       14541.94       5701.145      -1926.070      -6517.920      -8501.882
      -355.4585       713.1133      -7275.916      -4074.885       6843.196
       7944.797      -5894.517      -8358.037       8921.240       53.62891
      -19422.33       578.9414       17777.62       4267.262      -2947.812
      -2281.699      -13276.88      -14317.51       5485.625       11975.26
       5742.591       3140.074      -8806.645      -16037.68      -1485.426
       13624.66       11715.27      -2190.874      -6141.285      -833.6934
      -8662.732      -8535.363       8770.301       11283.33       4864.941
      -1772.199      -10899.84      -7584.751      -2180.456       1547.094
       7976.122       3419.079      -2726.041      -2397.147      -4239.246
       4067.557       11445.95      -2594.099      -5359.036       5886.393
       284.2622      -2842.428       2509.789      -12840.20      -23356.49
       2536.832       21800.18       10820.72      -2842.957      -11959.96
      -8362.270       6772.355       9056.732       5097.390       3050.934
      -5261.156      -10983.94      -10837.65      -2279.471       10497.90
       8661.666      -1682.472      -937.5469       3711.743      -380.0079
      -704.7510       2746.807      -4826.415      -7822.031       1164.318
       342.6885      -2652.055       5433.106       6331.455       2233.297
       9211.609       11319.64       1046.793      -12202.32      -18405.95
      -667.4375       17731.27       6839.421      -3045.147       441.5605
      -4693.662      -5589.446      -1272.443      -3006.178       6727.637
       16077.70       1684.336      -11514.29      -3637.677       5782.121
       2469.348      -3486.330      -1556.060       3966.501      -612.9453
      -10881.63      -6206.685       4645.310       3193.926       2349.252
       7432.043       8726.682       3978.184      -7959.559      -12306.32
      -5572.895      -1120.236       6570.802       8321.499      -300.9062
       1037.384       1929.646      -4986.579      -1051.465       7105.226
       5074.245       1321.534      -1912.152      -7488.155      -3413.096
       5248.227       5480.239       2659.645      -3628.182      -10458.46
      -5842.533       2112.026       2232.990       836.8164       1385.340
       3038.308       5693.025       2988.359      -4681.802      -5883.388
      -534.6716       363.6094      -3427.596      -4374.613       1276.278
       6405.195       3289.792      -2836.938      -4944.043      -3872.398
      -2846.985      -164.8984       6256.199       8608.270       1832.672
      -3238.650      -2857.549      -4974.275      -6118.910       4849.242
       16840.59       8963.992      -9125.359      -13754.65      -5757.260
       1671.007       6177.062       3533.877      -1884.938       1335.292
       4693.911       2362.235      -1824.803      -8305.981      -8090.920
       1067.768       3540.292      -237.9183      -618.3667       1854.301
       3089.331      -686.8096      -3349.102      -2310.858      -4297.438
      -1872.496       5971.130       4300.981       153.5715       394.3564
      -2514.946      -621.6836       7208.686       5923.938      -4426.371
      -7572.245       1793.893       8776.420       3227.762      -2923.009
      -2538.144      -1303.039       314.6826      -400.9675      -1257.804
       3185.544       4781.895       550.4895       75.92700       1499.682
      -1164.883      -5447.721      -7186.732      -594.7246       7975.893
       7437.924       1961.220      -1350.326      -382.9878       1045.761
      -2346.147      -1912.031       3048.813       2761.206       2540.852
       2237.773      -2108.609      -1842.472       1584.962      -286.0430
      -2416.458      -1121.401      -3451.549      -8200.191      -3877.291
       6518.371       7768.043       1389.372      -3621.494      -5553.673
      -1476.362       4272.599       1795.667      -3089.178      -538.3350
       3662.598       2214.683      -491.6714      -74.21021       767.8165
       31.87695      -1950.024      -919.8799       1654.750       657.2705
      -352.3828      -1561.807      -2591.159       2164.527       4620.777
      -528.7915      -2386.076      -307.3311      -935.0469      -3207.618
      -3951.353       179.6348       6657.065       4456.820      -2782.604
      -3160.662      -3888.164      -7401.109      -1966.039       6619.084
       6914.062       1943.340      -3964.112      -6262.375      -1546.164
       3018.979       1955.447       681.4346      -390.3496      -4009.084
      -4817.671      -2695.586      -737.0967       4869.876       6642.241
      -3181.104      -8373.291      -2706.800       908.0361       525.5913
       1002.583       1868.217       1746.311      -1742.106      -4642.838
      -2256.162      -370.3993      -244.2009       769.3772       960.8394
       547.0015      -829.6797      -3078.299      -2444.032      -1363.386
      -1624.120       1212.675       3052.467      -1252.802      -3408.102
       1200.141       1536.534      -2716.843      -1050.630       2116.458
       923.2363      -1760.987      -2302.057       951.5859       3848.456
       3254.639       139.5469      -4359.996      -6585.443      -3052.704
       1090.140       2223.667       3065.986       1831.275      -2645.278
      -3504.340       312.4879       1019.287      -575.1469      -254.5786
       972.6931       1817.621      -99.24365      -2741.601      -2629.310
      -1463.568       2269.059       5422.488       1429.852      -2064.645
      -1737.441      -2859.185      -1947.657       1924.379       1569.324
      -1554.971      -2073.323      -225.4009       1966.036       1190.532
      -902.6501      -158.4148       168.2695      -1684.216      -1271.708
       1329.609       2830.834       567.5894      -2258.803       860.3535
       3575.171       125.0283      -3491.303      -4097.317      -1543.709
       2906.678       4112.459       3174.794       1451.668      -2570.208
      -4703.360      -2571.893      -358.8030      -59.30371       1464.177
       2869.697       860.6064      -2073.289      -2247.625      -1200.767
      -63.90625       2335.334       2970.158       1523.885      -288.3391
       33.58203       3621.564       1772.672      -3165.559      -501.8901
       1667.391      -273.4497       1183.277       1781.617       951.4922
