     0.02500000      -16528.52       14094.15      -12345.00      -12345.00
      -30.00499       215.8700      -17.48000      -12345.00      -12345.00
       0.000000       13.67000      -12345.00      -12345.00      -12345.00
      -12345.00      -12345.00      -12345.00      -12345.00      -12345.00
      -12345.00      -12345.00      -12345.00      -12345.00      -12345.00
      -12345.00      -12345.00      -12345.00      -12345.00      -12345.00
      -12345.00      -31.64950      -69.41590       1962.000       0.000000
      -31.24600      -68.98500       0.000000       102400.0       0.000000
      -12345.00      -12345.00      -12345.00      -12345.00      -12345.00
      -12345.00      -12345.00      -12345.00      -12345.00      -12345.00
       60.65677       222.3632       42.58686      0.5453804      -12345.00
      -12345.00     -0.3400940       0.000000       0.000000      -12345.00
      -12345.00      -12345.00      -12345.00      -12345.00      -12345.00
      -12345.00      -12345.00      -12345.00      -12345.00      -12345.00
      2008        16        21        17        54
       180         6    -12345    -12345      9836
    -12345    -12345    -12345    -12345    -12345
         1         7        13    -12345    -12345
    -12345    -12345    -12345    -12345    -12345
    -12345    -12345    -12345    -12345    -12345
    -12345    -12345    -12345    -12345    -12345
         1         1         1         1         1
BARR    -12345          
        -12345  -12345  
-12345  -12345  -12345  
-12345  -12345  -12345  
-12345  -12345  -12345  
-12345  -12345  -12345  
-12345  -12345  BHZ     
ZL      -12345  -12345  
[...]
      -193.2471      -211.9819      -271.8324      -215.9218      -236.6283
      -289.4894      -234.9122      -232.8949      -252.3826      -253.1934
      -302.0414      -243.0129      -219.5286      -300.3810      -268.2017
      -215.3408      -263.5074      -212.4917      -186.1253      -234.3105
      -214.1251      -197.9961      -153.8159      -106.6526      -174.9439
      -171.4465      -89.60999      -92.20462      -137.3063      -106.3398
      -93.43893      -36.90433      -51.07704      -108.1726      -16.60411
       9.904663      -61.32913      -51.47499      -43.34960      -23.85266
      -14.17858      -34.49352      -21.52341      -10.29142      -37.29173
      -36.68719       18.03217       34.46986      -55.77948      -44.12456
       22.64491      -15.99462      -29.79543       9.579453       9.002556
      -1.870728       28.31400       59.07991       33.78150       16.30290
       15.58435       79.24942       116.5777       51.24872       71.64230
       150.0924       96.02307       98.59473       118.3674       104.3023
       133.1250       171.4708       152.0081       136.5534       164.7662
       154.1398       143.5513       177.3752       153.1802       191.2072
       210.8287       174.5623       151.4875       156.0837       220.7391
       248.4688       128.3784       112.4336       252.3832       226.7956
       104.0425       176.8830       195.1166       157.6977       151.9717
       149.6630       184.8918       150.6903       106.7826       146.9831
       135.3266       137.0283       128.2932       116.3141       98.58336
       73.16849       55.68861       44.02854       33.41732       42.00684
       39.96779      -18.35919      -101.6598      -61.33882      -10.94644
      -92.73773      -179.7057      -126.5895      -123.1460      -209.5870
      -261.1619      -273.3556      -295.3038      -297.7806      -341.4412
      -387.8390      -427.0176      -456.5747      -566.2078      -632.8408
      -612.8879      -600.3428      -670.1082      -721.1257      -743.1860
      -827.5950      -865.3611      -835.7734      -914.7485      -947.4053
      -935.8655      -921.3320      -955.3821      -1005.246      -973.0505
      -920.9290      -956.0508      -964.8784      -937.4243      -966.9170
      -976.4971      -869.1663      -806.9224      -781.3201      -845.0315
      -873.2156      -727.1537      -659.9438      -729.8823      -639.6487
      -517.5426      -519.3544      -558.2281      -490.3035      -436.5905
      -384.6740      -334.1103      -277.5507      -222.7859      -209.3099
      -186.8718      -111.9536      -93.09294      -60.20346      -3.289764
       62.63464       46.95932       48.24225       121.1644       163.4180
       187.8500       230.0781       223.3005       273.5073       263.2292
       241.6855       311.3467       381.0620       324.8417       361.9449
       458.0870       417.1528       396.1997       450.8525       484.9918
       519.7526       448.7837       485.8898       607.1406       607.3030
       527.7551       582.8635       673.3237       680.7388       663.0242
       717.0479       751.9768       750.8340       757.2705       843.5884
       852.2014       813.0298       885.6401       946.6250       892.3770
       897.9102       942.0068       988.3442       968.8521       976.7908
       1010.014       1019.336       977.6238       975.5586       1027.323
       989.2969       964.0898       1027.067       1020.238       988.7776
       971.6892       960.5278       959.0605       927.2817       887.1636
       938.2732       909.2810       828.8818       813.3884       863.6621
       856.2168       759.8789       736.8159       777.5122       722.6848
       650.5527       645.9880       653.2065       600.4053       541.8610
       521.2087       472.1798       144.3014      -297.4644      -449.7732
      -621.4893      -1146.338      -840.6902       1013.376       2065.554
       1074.362       2290.534       5490.186       13.67969      -9541.781
      -3012.963       8437.885       1161.176      -7666.605      -2184.359
       3077.242       4630.171       2957.310      -892.1694      -492.1055
      -3867.254      -5829.065       2611.402       3887.559      -2666.389
       554.4316       7915.557       1858.887      -9869.355      -5760.431
       4453.067       1967.604      -3321.222      -752.7373       2567.575
       2516.057       215.6992      -1403.424      -3157.255      -4049.258
       4083.027       3954.178      -5341.428      -2352.828       904.2471
       3205.417       2418.904      -5445.597      -776.1797       1556.273
      -2713.428      -425.8740       2484.488       821.8799      -5098.930
      -1274.722       1888.018      -2056.447       274.3264      -224.7467
      -1622.991       1292.983      -631.2104      -1662.043      -1115.025
      -3133.196      -454.6849       994.8481      -2944.958      -281.0476
       1584.911      -1758.216      -289.5322      -1558.867      -1436.763
      -224.6497      -2001.953       1619.650       436.7227      -4724.522
      -1987.261       2125.713       2134.896       57.56299      -1292.720
      -573.3818      -626.8906      -2462.734      -2102.054       1725.515
      -919.4033      -3311.303       1791.956      -1086.844      -2375.861
       2614.666       1134.785      -778.9760       1086.098      -932.5764
      -2284.757       487.1160       426.2141       361.0742      -1495.107
      -2197.798       989.5835      -127.5222      -211.5552       1615.680
       1097.860       718.5186      -1307.720      -453.5427       76.16797
      -1522.921       653.9296       275.5031      -41.91248       737.3585
      -487.8532      -128.3883       810.3381       384.3185       493.7284
      -125.0436      -957.0488       1169.591      -5.469238      -2446.815
       553.9429       2530.297      -362.2393      -2924.077      -594.1655
       1482.034       215.0308       949.5063       1153.125      -1285.603
      -1118.155      -103.7110      -153.6693       581.5568       410.0186
       90.38452       908.8857       267.2488      -606.5906      -581.1653
      -1325.955      -376.4736       1016.367       1169.152       415.5444
      -1194.715       151.4004       1359.831       329.5376       215.0104
      -153.4028       142.9560      -278.6207      -273.9062       1606.542
       1580.307       1162.430      -329.6184      -1712.597      -292.1008
       429.3916       593.3235       1211.435      -121.5654       416.5151
       1638.280      -681.3179      -729.6565       517.7172       119.3518
       771.8408      -286.4139      -1100.312       1858.018       2294.058
      -165.3945      -962.9126      -418.9629       810.0571       194.1260
      -1517.763      -93.09399       1196.033       510.6421       729.5834
       320.2166      -327.3822      -523.0831       150.2593       1663.054
       1019.181      -1091.841      -744.9651       1427.363       107.9973
      -711.0210       1709.370       587.4944      -1452.916      -701.8618
       335.8240       1514.057      -87.45166      -1751.516       1228.025
       2560.356       380.5531      -505.5073       700.2410       619.3502
       65.05908      -631.6458      -1197.034       828.2993       2885.809
       1685.811      -1160.240       78.09766       2510.723       1076.449
      -1794.809      -1273.574       1128.293       431.6658       820.0690
       392.9438      -1203.429       305.0665       108.2253       483.1499
       1795.586       479.0740      -389.8762      -460.3547      -774.1570
      -978.7273       861.0337       2225.262       174.9575      -1161.091
       108.0626       12.30331      -97.64304       418.5884      -500.8120
      -435.4385       27.07483       784.6941      -404.1748      -1787.831
       1334.273       1816.232      -1639.969      -1374.490      -190.0767
       196.7465       921.1284      -515.8049      -925.7128       126.1143
       266.3466       509.5217      -861.4595      -2296.362      -22.12195
       831.1071      -1072.199       223.9824       1790.211      -342.7686
      -1395.062      -1275.576      -1035.016      -324.3105       245.1030
       1266.906       700.1294      -1283.048      -1756.122       1239.242
       1568.868      -1707.641      -1549.425      -1651.090      -494.1699
       2273.533      0.6254883      -1284.365       150.6941      -706.8596
      -1170.879       158.4215      -74.31812      -1671.066      -574.2871
       1188.132       273.3882      -1285.126      -1460.166       631.3323
       1353.184      -629.9924      -1096.717      -702.3116      -315.6735
       108.0454      -289.0020      -1293.054      -772.1853       612.8806
       951.5745       1436.959      -743.2114      -1857.091       527.5299
       70.97705      -368.3770       212.8418      -1001.395      -665.8614
       142.3021       48.28943       528.5418       16.41162      -604.2844
      -545.3663      -61.93958      -279.5637       558.4850       1163.593
      -941.8357      -1239.096       53.67822       2209.177       1583.681
      -2756.967      -1393.271       2913.277       2302.032      -936.3887
      -1575.633       260.1174       855.4141       944.0250       49.24002
      -229.9328       530.5195      -822.0269      -1478.715       594.7227
       1321.607       127.2324      -383.6855      -30.99969      -192.3237
       1178.457       1994.898      -1408.227      -1017.707      -147.5150
      -971.8816       315.6289       1533.756       2362.812      -772.5469
      -3245.227      -53.29785       2497.125       383.7988      -2426.769
      -460.4325       937.0721      -125.3894       104.8961       68.86035
       683.6329       524.8762       229.0375       139.2583      -1220.188
      -1039.868       1112.128       1398.792      -1623.508      -215.0220
       2360.139       198.8662      -1444.773      -2100.877       449.4229
       2302.003       734.0474       655.1460      -2611.374      -3352.548
       3195.039       3666.324      -3178.024      -3785.302       1990.815
       3804.460       1362.228      -1280.179      -812.5562       1907.516
       1184.733      -805.8354      -1337.251      -1799.730      -739.4004
       2268.980       2059.424      -1521.410       977.3447       5856.576
       2412.140      -4548.378      -4783.556       1098.730       4180.520
       1239.400      -1923.675      -1081.076       2407.657       5176.313
       2523.297      -2717.772      -3581.956       449.9951       3806.037
       1979.294      -952.6772      -1326.181      -818.9365      -51.91699
       1224.688       3063.760       3533.733      -292.4561      -4565.029
      -821.0879       3820.299       992.5957       231.9083       1054.259
      -1707.312      -2142.857      -273.8613       1889.730       1065.239
      -1562.168      -210.2866       1033.932       882.1664      -82.75317
      -126.3875       1577.969      -958.6304      -2884.302      -452.4880
       68.21597      -93.56995       280.1382       212.8459       379.9410
      -599.2827       55.40210       16.51514      -3030.920       377.1680
       3871.938       867.3101      -818.4707      -1506.178      -691.1289
      -988.8623      -2716.347      -251.1133       2032.200       1154.467
      -67.44934       545.6553      -1691.587      -3789.001       194.8560
       1705.423       1582.591       421.2979      -1702.067      -806.4604
       851.0312       1545.031      -3565.274      -6120.924      -543.6196
       2948.974       1880.441      -2133.571      -1342.494       2668.490
       328.4033      -1796.317      -2377.169      -1538.568       1913.399
       921.0435      -1041.712      -2020.486      -2155.734       542.8545
       2676.749      -663.4976      -3890.125       194.7993       2672.491
       1269.338       159.6455      -349.2595       994.8403       2339.830
       401.2290      -2457.115      -2343.192      -1542.918       1073.944
       507.3154      -5894.583      -3883.902       1163.743       1982.993
       1992.855      -1003.559       559.5049       3057.045       1587.709
      -3079.594      -12229.33      -11305.38      -663.2246       7995.957
       9535.298       2140.938       805.9814       7012.189       109.0391
      -14142.48      -14261.25      -3788.463       3619.703       5687.576
       9449.792       4651.598      -10510.83      -5696.002       12390.11
       6825.299      -12014.35      -11884.46       2743.712       5637.084
      -674.8301       2631.495       206.3555      -10096.97      -4464.680
       8173.655       6876.081       866.1172       6132.535       14094.15
       4769.838      -12256.40      -8115.458       1566.058       83.36035
       3173.777       5144.146      -6427.305      -16528.52      -5813.367
       8269.945       4019.620      -500.0181       622.5515      -890.3477
       4741.008       11439.54       5675.141      -3905.100      -6278.007
      -2203.881       5877.679       7446.580      -1192.127      -8811.051
      -10053.49      -3581.283       6518.109       8110.325       863.2644
      -2153.672       3999.758       10045.67       2886.591      -4362.502
      -3000.861      -6750.044      -4216.553       4436.208       3505.432
       2181.172       3048.531       3206.063       2988.746      -6180.598
      -12497.96       1340.160       10025.43       2426.517      -955.2437
       736.1284       1117.039      -3306.223      -8102.684      -1667.488
       8121.243       4255.133      -2663.750       898.5254       4320.643
      -63.43799      -3177.503       13.51270       2701.771       2860.169
       1262.398      -2224.226      -2871.486       921.8262       501.2832
      -6217.768      -6086.443      -347.7100       2068.885       1668.488
       2210.415       4014.096       2075.625      -1619.173      -3635.667
      -972.3169      -1330.547      -3771.375       3823.811       7395.837
       1963.537      -2140.768      -4997.669      -2316.555       161.3398
      -2714.540       923.5000       5248.574      -592.3613      -5849.637
      -208.9277       5871.289       2536.493      -3496.382      -5826.157
      -214.9170       4530.241       17.78149      -8.063232       2600.092
      -2057.925      -3517.138      -686.0269      -1440.466       43.76172
       5956.416       5703.531      -2134.703      -7243.573      -5308.572
       1892.863       6940.536       4251.760       743.2053      -795.4639
      -1692.779       1499.440       4216.319      -670.1621      -8522.703
      -7987.824      -1085.938       2723.880       4372.999       1767.452
      -1430.193       1429.069       2364.202      -799.6797      -508.7207
       5166.570       5350.385      -4090.194      -6319.436      -449.7844
       327.9800       1388.107       3789.742      -526.4932      -3383.154
       1216.442       3189.385       2283.980       927.7129      -2215.025
      -2155.360      -1613.757      -811.4053       4177.013       5441.046
       2265.429      -288.8232      -2406.898      -1931.437      -362.5506
      -341.7656       267.9873       1950.853       1904.754       294.3444
       89.96216      -177.5869      -1622.717      -3550.763      -3864.648
       989.5361       4219.307       1765.178       789.7554       1099.677
       783.8120       1420.888       1625.138      -90.86914      -1675.701
      -2666.523      -2183.067       1205.434       3479.768       3316.030
      -188.0693      -4318.665      -1532.559       1745.223       404.0553
      -334.2256      -245.9484       421.2332       676.0967       1603.284
       2599.042      -652.3418      -3715.206      -3625.396      -109.6484
       3522.150      -532.6836      -4808.818      -2576.069       355.8057
       2214.894       2748.700       1287.724      -1717.123      -2904.831
      -1809.043      -675.7288       783.4150       2347.050       1924.712
      -145.8333       629.1277       1693.613      -598.7593      -1678.412
      -1623.238       834.1782       4015.465      -214.2021      -4148.738
      -581.7778       2126.495       41.42065      -1894.482      -291.1800
       584.6487      -264.5183      -471.8522      -869.5055      -38.40967
       959.3765       1406.812       199.8936      -1743.143      -1643.656
      -1920.761      -350.7905       1420.536      -107.0820       794.7363
       3171.228       447.5674      -4084.028      -2338.396       2213.740
       648.6582      -2295.020       5.672852       2034.313       706.8154
       644.1067       1292.818      -1452.238      -4242.780      -1522.149
      -17.81152      -2245.650      -1664.056       1241.056       1599.436
      -1977.938      -2847.208       39.31244       510.7648      -686.4500
      -100.5173       287.0947      -1343.512      -2266.475      -1501.606
      -482.5527      -1085.190      -593.9742       953.0491      -1098.291
      -1336.868       779.2698      -1068.906      -1675.170       144.0651
      -217.0363      -475.1709       957.2622       1079.965      -489.9985
      -2038.474      -1171.286       16.47803      -2056.711      -1840.636
       189.6987       13.08862       936.1169       1463.838       728.6545
       180.4114      -1113.293      -1428.494      -565.9551      -809.3994
      -104.6626       1850.471       907.0400      -812.6543      -1451.561
      -1837.400       1150.800       3372.438       1593.626       37.53723
      -381.6113      -217.9044       181.6897       446.3063      -18.11499
      -1095.366      -186.7432       1216.629       1715.144      -224.1294
      -2976.740       539.3574       3857.716       811.0854      -1600.107
      -601.2192       2034.865       2014.342      -1379.688      -1107.254
       1151.724       554.4152      -14.13574      -347.2751      -389.2051
       1144.563       1257.354       563.9292       2127.117       1386.993
      -1009.068      -848.8900      -68.18115       662.1355       80.18408
      -877.3850       498.6416       2296.651       1632.485      -372.6217
      -496.5304       566.1050       553.0376      -679.2698      -1575.575
      -15.43945       2154.851       929.6873      -911.5873       49.83984
       1541.438       1450.300       713.7302       429.0891       625.9224
