     0.02500000      -2446.101       1948.370      -12345.00      -12345.00
      -29.99504       217.0549      -17.92000      -12345.00      -12345.00
       0.000000       13.38000      -12345.00      -12345.00      -12345.00
      -12345.00      -12345.00      -12345.00      -12345.00      -12345.00
      -12345.00      -12345.00      -12345.00      -12345.00      -12345.00
      -12345.00      -12345.00      -12345.00      -12345.00      -12345.00
      -12345.00      -31.75110      -68.43510       640.0000       0.000000
      -31.24600      -68.98500       0.000000       102400.0       0.000000
      -12345.00      -12345.00      -12345.00      -12345.00      -12345.00
      -12345.00      -12345.00      -12345.00      -12345.00      -12345.00
       76.58873       137.1327       316.8468      0.6886306      -12345.00
      -12345.00     0.05350384       0.000000       0.000000      -12345.00
      -12345.00      -12345.00      -12345.00      -12345.00      -12345.00
      -12345.00      -12345.00      -12345.00      -12345.00      -12345.00
      2008        16        21        17        54
       620         6    -12345    -12345      9883
    -12345    -12345    -12345    -12345    -12345
         1         7        13    -12345    -12345
    -12345    -12345    -12345    -12345    -12345
    -12345    -12345    -12345    -12345    -12345
    -12345    -12345    -12345    -12345    -12345
         1         1         1         1         1
BOZA    -12345          
        -12345  -12345  
-12345  -12345  -12345  
-12345  -12345  -12345  
-12345  -12345  -12345  
-12345  -12345  -12345  
-12345  -12345  BHZ     
ZL      -12345  -12345  
[...]
       323.7573       322.3027       317.7052       317.0212       311.6538
       303.9370       292.8916       283.9077       274.3044       262.1299
       254.6709       245.3241       229.8549       218.9386       210.5507
       195.3502       181.5687       170.4141       160.0497       146.4065
       133.5019       119.8343       106.3899       90.11397       76.18082
       58.45785       43.02397       25.08237       11.63851      -3.774055
      -17.29210      -32.51665      -46.31531      -63.36807      -78.04614
      -90.32870      -103.1681      -115.5827      -122.5073      -129.5790
      -139.3254      -149.5944      -160.8274      -170.5085      -179.2107
      -187.2618      -197.8866      -208.9407      -218.9856      -225.5286
      -234.8813      -243.9293      -251.4084      -258.0056      -268.9896
      -273.6093      -276.8854      -282.3179      -289.3702      -289.0811
      -295.5656      -295.9379      -301.2094      -304.5133      -309.0297
      -308.3663      -312.8288      -318.0768      -320.0656      -319.8246
      -327.3007      -326.4270      -332.3007      -335.8387      -336.3079
      -335.4920      -340.0011      -336.8241      -339.0107      -339.3823
      -340.2599      -338.0607      -341.5854      -343.0116      -345.7903
      -344.0265      -348.3527      -353.1184      -353.3147      -350.3926
      -351.7900      -349.8326      -346.9873      -345.4352      -344.7856
      -340.6591      -340.1881      -340.6796      -341.1185      -338.7250
      -336.2151      -331.6822      -327.0614      -325.2430      -317.9409
      -309.4740      -303.9153      -303.3138      -295.7040      -285.5732
      -277.1114      -270.0251      -258.2473      -250.2420      -238.6005
      -229.3967      -218.6143      -210.1709      -197.8385      -182.5482
      -169.0672      -155.7828      -143.9003      -129.7493      -114.7614
      -104.3457      -95.12756      -81.04485      -68.37430      -52.50049
      -39.04453      -24.00347      -10.71525       6.225616       18.99535
       31.26929       45.63635       66.40988       82.85565       96.91772
       107.8265       118.0433       131.9035       145.7165       154.7889
       167.5781       180.0435       192.8519       207.3566       224.0081
       239.7652       254.1498       268.7662       287.8970       301.1108
       316.1637       324.9661       337.5775       348.1174       360.9138
       370.4160       384.3062       392.1924       406.9724       419.3921
       436.1091       447.0750       467.9521       477.3177       493.3708
       505.1233       520.5200       527.9065       540.2677       545.5396
       558.7571       558.0605       566.5415       565.3267       569.2463
       565.5459       570.0833       567.7678       571.4592       569.1895
       572.1091       561.5309       560.5099       549.9667       543.6379
       527.9854       519.9941       505.0851       493.6608       471.9602
       459.9094       444.6401       432.9727       417.5569       403.2648
       382.7712       366.3046       347.9548       332.1626       310.5194
       292.3478       271.4926       253.7137       234.5332       218.9667
       200.5468       186.0706       163.4173       144.3878       126.2677
       110.2450       85.29367       66.24579       43.74861       27.60065
       4.296913      -18.95767      -41.84694      -56.55960      -82.38208
      -102.8462      -125.3196      -139.6424      -159.7130      -171.7366
      -187.8195      -203.6230      -223.1135      -234.2145      -248.5156
      -264.2158      -281.1990      -293.7607      -307.4960      -319.2819
      -332.1028      -339.8833      -350.7722      -357.1584      -366.9993
      -370.2996      -377.3647      -383.0100      -389.2229      -389.7858
      -393.2979      -387.9124      -385.7843      -381.9829      -384.4403
      -381.4180      -383.2980      -380.8683      -377.5085      -370.5913
      -371.3389      -366.8253      -362.6520      -353.9965      -348.6803
      -337.1130      -331.3726      -328.6819      -325.4869      -313.2020
      -310.9987      -307.4050      -300.4382      -287.4590      -281.0519
      -275.6438      -265.7939      -253.0933      -248.1250      -246.3813
      -242.2618      -264.3488      -363.1302      -231.5056       459.0436
       608.2092      -545.1532      -820.2274       47.09381       25.36859
      -220.6343      -331.3912      -658.2645      -574.6357      -281.1650
       86.34570       435.3230       328.0954      -263.9403      -100.2605
       410.0828       84.67371      -149.7514      -294.9222      -118.1668
       134.3023      -190.8974      -51.23331       183.6089       47.91260
      -278.0533      -169.8688       394.3190       138.4626       203.8940
       420.0057      -402.3072      -132.6384       461.5468      -23.02960
       59.66052       434.1754       68.22540      -392.4243       13.50513
       626.3391       620.7037       580.9713      -1.817200      -376.2664
       85.21591      -44.60603      -123.2924       231.3779       207.0958
       34.13904      -208.3329      -289.8873      -127.8106      -123.4413
      -107.7062       289.9534       336.9449      -120.0967      -56.58685
       115.1568      -370.5111      -264.1403       413.9900       410.1563
       218.9572      -122.0626      -440.0961      -122.0242       28.29724
      -194.0586      -37.86853       344.2672       234.6014      -103.0197
       18.90085       200.2924      -159.1456      -107.6969       139.3556
      -214.2182      -37.95691       491.2159       276.6051      -15.45752
       47.70560       229.2443       35.94180      -279.5454       272.9534
       404.6068      -212.4385      -30.72430       147.2242      -73.82249
      -16.69287       139.1281       409.3746       169.0675      -251.4702
       193.9015       359.2499       251.8444       165.5636      -249.0645
      -45.85248       198.2076       67.34299       182.9892       9.683502
      -66.30125       111.9049     -0.9629364      -35.84943      -78.20187
      -12.02530       202.2306       37.89038      -311.4004      -64.00784
       205.4702      -11.40384       46.92630       88.21509      -98.96445
      -85.22272       57.79465       93.62390      -206.2585      -229.7556
       118.4619       120.8012      -38.45306      -179.4942       29.78967
       173.0466      -178.2959      -200.8114      -113.8084       116.3146
       343.1570       93.56532      -63.08038      -106.6506      -312.9693
      -229.8665       380.9320       186.0255      -407.6781       201.3362
       418.7864      -213.5879      -142.3015       276.3033       103.1504
      -342.8582      -198.5811       281.8772       184.3522      -187.9962
      -217.4812      -38.93646       86.40326       89.78590       20.20459
       167.5260       95.14458      -89.33450       20.48220      -57.80176
       13.56067       180.6555       35.45914      -58.38824       33.14038
       80.81744       7.011421       37.52027       11.71524       21.26120
       138.4914      -52.02505      -13.19165       144.5840       7.064255
      -25.44928       97.24800       90.53061       55.11890       188.5110
       215.7938     0.05401611      -64.14569       247.4137       204.4391
       6.936768       158.9218       203.0153       192.7051       160.4111
       160.5959       253.4269       244.4128       282.3467       373.5576
       263.6837       201.4940       257.9282       294.1339       239.6705
       159.9688       357.1365       404.8450       327.9727       366.2523
       171.9149      -123.1727      -2.853027       387.3008       269.4834
       154.0790       353.9869       297.2107       299.0298       352.2444
       298.0540       348.2025       436.1525       188.7190      -57.23035
       211.6599       208.3669       102.7547       362.1200       156.9425
      -290.3092       116.8677       510.8155       76.97791       96.85583
       404.6021       242.8294       10.26233       252.3780       323.0370
      -203.5502      -70.74203       206.1630       72.27057       31.65591
     -0.5409546       222.2660       324.9513       77.60857      -4.109447
       27.50430      -82.19238      -303.4466      -73.53528       311.1746
      -35.50232      -306.2976      -157.6446       4.002419       44.65585
      -93.57888       62.42896      -92.81226      -499.8939      -71.32468
       212.8282      -468.3669      -698.1450      -115.6746       130.9523
      -164.7436      -307.8903      -119.4028      -339.1238      -577.7446
      -259.1446      -97.15002      -210.9722      -327.8969      -256.7128
      -171.0677      -388.2971      -535.0527      -491.0596      -202.5548
      -157.5509      -586.4389      -395.0576      -115.1711      -417.2082
      -325.2405      -242.3319      -570.2791      -409.6957      -113.8203
      -273.5369      -701.1823      -643.9218      -230.1085      -312.4191
      -463.5126      -326.3850      -395.3286      -613.4484      -396.7796
      -117.3113      -491.6111      -798.2927      -332.5014       10.22424
      -315.0137      -763.5400      -833.5847      -365.3550      -172.6702
      -399.7526      -318.5437      -481.9481      -605.9766      -154.6029
      -28.44727      -281.7554      -523.7449      -494.4695      -415.8450
      -475.3038      -453.8788      -335.4016      -178.4550      -342.1865
      -475.1653      -471.5762      -436.3975      -4.817078      -60.03918
      -303.6727      -11.30853      -89.99023      -251.3080      -40.46475
      -128.8824      -240.6663      -52.73776      -41.43600      -61.81856
      -49.78180       49.76675       190.1803      -74.20081      -307.4144
       31.41437       268.5667       24.11377       58.07101       225.4020
       10.04633      -106.6203      -123.5749      -8.135498       226.0439
       363.8264       473.2992       141.4463      -164.7845       110.4512
       466.8352       540.4440       411.0638       121.2891      -49.50195
       301.7662       479.4281       331.4598       234.4655       242.2614
       517.0730       462.4294       160.3923       339.2385       464.4877
       330.3267       146.6850       235.3114       493.6967       240.3962
       76.24182       423.9541       447.7804       349.8540       492.6060
       494.7408       306.7998       36.31567       284.7007       757.5143
       401.2778       80.96875       416.2649       472.9608       158.1161
       298.1185       703.8558       429.2917      -18.19812       175.9907
       346.9691       333.0574       401.4949       381.9460       269.4437
       123.3728       69.72107       237.4365       362.2151       292.2839
       123.1589       97.62646       305.2078       307.6641       132.8067
       297.9423       424.1498       235.2038       20.46759       88.54919
       230.8416       166.1829       388.7230       325.3071      -188.8049
      -32.46521       403.4532       214.8943       19.51056       243.5034
       233.3618       65.41614       75.35480       151.9533       66.93207
      -35.55835       351.2275       322.9560      -89.80267       197.8824
       180.5182      -139.8198       150.2607       425.8124       313.8730
       27.99790      -99.11395       102.3524       130.7844      -31.98022
       113.2494       230.4624      -39.77713      -62.03540       328.5305
       311.0775      -60.99103       78.32574       192.4665      -162.9128
      -42.72369       362.0416       223.6067      -51.33116      -94.63715
      -2.028503      -12.66486      -269.5693      -162.3535       302.6631
       362.6950      -24.11969      -206.1799       65.55188      -208.3474
      -470.5013       107.7113       26.14282      -304.9085       42.47510
      -44.35565      -286.1928      -2.949158       253.5911       31.40820
      -358.7704      -356.5198      -310.4622      -339.4679      -122.0442
      -87.15784      -275.9008      -118.9515       224.7891      -56.79919
      -544.2358      -442.8908      -237.2620      -325.5680      -549.0073
      -403.0174      -37.36047      -251.1587      -532.9013      -338.3116
      -115.6968      -357.9935      -405.9360      -89.59399      -483.8525
      -790.5076      -361.4080      -22.52930      -159.3419      -525.2488
      -426.0858      -99.66553      -189.2528      -441.9399      -568.7402
      -675.8469      -575.2781      -386.0483      -680.7423      -717.0780
      -131.2158      -275.6648      -959.5281      -878.2432      -835.1108
      -1161.986      -1245.943      -1102.860      -364.8883       219.1189
       25.29514      -75.09564      -86.08887      -538.5023      -638.4624
       838.1938       1758.579       70.79785      -1032.589      -596.6865
      -1653.643      -2446.101      -558.0916       1240.129       1405.142
       965.8464      -261.9385      -1287.442      -165.3491       1222.158
       436.4056      -724.3208      -219.3784       745.3596       1005.328
       1004.789       384.6868      -662.0361      -1235.157      -1455.038
      -401.4834       1536.501       1072.134      -936.5889      -1348.706
      -551.8971       323.6809       448.1250       601.6486       731.7866
      -438.3576      -692.1230       896.6284       1703.584       686.5999
      -78.04492       522.8632       280.9741      -713.9644      -154.4375
       426.3342       87.87988       398.9659       445.4946      -942.9136
      -1414.116       272.3550       1062.024       190.5012      -58.20337
       512.7092       846.3077       480.5941       330.1171       743.4203
       413.6796       23.76001       493.0328       512.4927      -399.1473
      -1014.641       113.4131       1948.370       1409.414      -664.2487
      -451.8436       660.2073      -112.6558      -505.9725       323.2319
       154.4357      -435.8024      -106.4308      -33.24857      -231.2451
       610.0262       679.7412      -382.5472       247.7673       1009.284
      -328.6038      -991.7446       415.6846       696.6296      -748.0762
      -845.0990       348.9980       604.7249       189.3320       563.9279
       679.9933      -315.2690      -860.6543      -129.2644       639.8274
       582.1924       333.6076       199.6495      -219.9368      -443.4275
       62.86923       326.5811      -278.4819      -683.2420       5.251099
       651.9386       202.2192      -474.7907      -98.82153       369.7144
      -279.4407      -14.48584       1099.432       364.1724      -1008.864
      -639.2261       187.4709       402.5840       631.2500       650.4543
       200.1404      -155.6437       5.368408       344.7347       305.0391
       624.8184       1107.968       372.2152      -197.6190       257.3365
      -51.91187      -381.3136       163.0857       349.7518       262.1766
       501.8246       296.5130      -181.0631       123.3037       176.0612
      -189.4512       120.0424       293.7998       270.4421       706.2611
       717.0804       43.01660       144.6287       960.3984       950.2874
       758.8108       996.9600       709.9561       312.9267       292.8732
       238.1600       195.0084       4.121704       62.51172       648.5471
       726.2422       409.6870       411.9541       606.0247       552.4089
       154.8084       137.3312       237.1971       46.06689       500.1079
       1124.896       624.2223       168.5725       441.5815       516.4880
       263.5800       232.3801       182.8679      -287.0190      -269.2205
       342.2687       380.0199      -114.9729      -229.6359      -73.39221
      -150.6199      -368.8195      -383.6460      -359.6849      -578.5838
      -350.3417      -51.02209       131.0122       565.8188       367.2399
      -138.3608      -46.16691       55.58899      -130.4584      -256.0977
      -303.5629      -228.5620      -202.0894      -481.2798      -426.5601
      -87.71307      -95.99577      -96.00061      -59.56946      -323.0792
      -471.9036      -447.8376      -522.5106      -327.9281      -133.3149
      -179.9130      -95.90723      -310.7544      -617.4866      -560.3779
      -661.0947      -906.4705      -875.3057      -815.2722      -852.0684
      -945.4043      -969.9961      -793.8479      -877.8298      -1085.614
      -719.2441      -520.7861      -1193.971      -1604.854      -1148.892
      -719.4736      -737.4324      -770.3184      -814.7690      -905.8801
      -634.6016      -627.2607      -844.8989      -538.8875      -387.9889
      -380.1965      -262.4409      -585.5151      -910.8641      -716.8875
      -496.3936      -844.0815      -992.9053      -514.1606      -392.9590
      -574.8372      -389.7931      -159.2571      -451.0640      -703.6136
      -639.1028      -522.2207      -370.1729      -366.1824      -528.3024
      -713.3213      -623.4514      -518.7251      -555.5458      -183.4597
      -108.9453      -710.0789      -739.3777      -386.8621      -252.2635
      -59.43691       49.06418       23.42114       223.8181       351.4780
       244.2035       393.3152       455.7965       141.0378      -210.8085
      -345.6243      -77.10284       6.934952      -53.30380       55.40126
       11.48438       132.3791       336.4645       232.4238       221.4768
       412.7585       451.2109       420.9348       530.4440       647.1312
       548.7932       215.2602       101.3195       274.5657       253.1891
       253.4630       513.9930       614.9302       390.3630       279.1724
       771.7241       1547.848       1683.150       1091.088       946.0620
       1123.563       865.5457       718.3163       721.9949       568.0212
       654.3875       823.4847       602.6630       444.8984       648.5425
       770.3618       536.5200       497.7393       992.4497       1039.967
       629.6382       610.2715       737.5737       734.0437       719.9390
       590.6257       526.1832       542.7861       498.0737       679.1628
       764.8644       463.1643       417.6417       589.2034       665.2202
       892.3594       1058.445       659.5267       191.9971       206.1533
       337.8931       342.2283       70.69385      -9.514648       461.0408
       575.0315       401.8682       576.0876       660.5604       278.8249
       119.3059       466.9172       421.4575       92.52606       172.0584
