     0.02500000      -2846.542       3242.751      -12345.00      -12345.00
      -29.99504       217.0549      -17.92000      -12345.00      -12345.00
       0.000000       13.38000      -12345.00      -12345.00      -12345.00
      -12345.00      -12345.00      -12345.00      -12345.00      -12345.00
      -12345.00      -12345.00      -12345.00      -12345.00      -12345.00
      -12345.00      -12345.00      -12345.00      -12345.00      -12345.00
      -12345.00      -31.75110      -68.43510       640.0000       0.000000
      -31.24600      -68.98500       0.000000       102400.0       0.000000
      -12345.00      -12345.00      -12345.00      -12345.00      -12345.00
      -12345.00      -12345.00      -12345.00      -12345.00      -12345.00
       76.58873       137.1327       316.8468      0.6886306      -12345.00
      -12345.00     -0.4277751       0.000000       90.00000      -12345.00
      -12345.00      -12345.00      -12345.00      -12345.00      -12345.00
      -12345.00      -12345.00      -12345.00      -12345.00      -12345.00
      2008        16        21        17        54
       620         6    -12345    -12345      9883
    -12345    -12345    -12345    -12345    -12345
         1         7        13    -12345    -12345
    -12345    -12345    -12345    -12345    -12345
    -12345    -12345    -12345    -12345    -12345
    -12345    -12345    -12345    -12345    -12345
         1         1         1         1         1
BOZA    -12345          
        -12345  -12345  
-12345  -12345  -12345  
-12345  -12345  -12345  
-12345  -12345  -12345  
-12345  -12345  -12345  
-12345  -12345  BHN     
ZL      -12345  -12345  
[...]
       39.82350       37.74474       32.64435       28.77408       19.40057
       18.52891       10.05763       2.153465      -3.656263      -7.932892
      -13.89133      -16.11046      -22.14639      -29.11871      -35.76944
      -40.49055      -50.77240      -55.06406      -57.46048      -64.54410
      -75.87929      -78.25002      -81.07713      -81.24786      -83.50957
      -83.14392      -86.92639      -88.73132      -94.60712      -95.53998
      -103.0383      -104.6801      -108.2417      -104.2601      -104.3967
      -103.8061      -107.2815      -106.0314      -108.9550      -103.8799
      -100.0872      -93.38397      -90.69888      -86.90448      -88.89677
      -85.25012      -84.94116      -81.42377      -81.29158      -81.76038
      -78.21019      -70.23804      -65.56133      -57.44356      -52.65161
      -49.34271      -48.22424      -48.34114      -50.68582      -44.77549
      -37.44085      -30.23856      -29.97492      -20.75904      -14.10470
      -9.357420      -7.911694      -5.387060      -2.759691       4.478802
       3.450573       8.483757       10.82590       15.22760       17.03512
       20.09156       19.88010       20.61970       23.53957       22.66367
       21.42330       22.42108       21.32527       19.54667       20.00273
       23.27626       25.75809       26.50047       27.24570       26.26070
       24.28793       21.20088       14.65234       6.911242     -0.6456060
      -3.710541      -7.236540      -8.200500      -11.19948      -14.70491
      -20.91024      -26.07130      -31.47659      -32.62946      -36.51237
      -37.65096      -41.61383      -44.53284      -51.52043      -55.41415
      -61.70477      -66.42973      -69.30156      -70.63469      -72.08368
      -71.38698      -72.77138      -74.57718      -74.84598      -74.26486
      -70.52222      -68.57162      -63.89008      -63.83406      -61.95554
      -56.77205      -54.59286      -56.24354      -44.67858      -32.84875
      -25.76950      -12.79342       2.930267       12.68372       21.45705
       28.29744       38.56041       46.50175       51.02213       55.47769
       63.82941       72.03583       85.06134       95.45483       104.0284
       114.0623       128.2544       135.3511       140.1946       147.3936
       152.5184       154.8670       159.4682       164.9856       171.6009
       177.6353       179.6817       181.8044       183.1660       184.1635
       181.8810       178.0374       171.6841       165.7547       154.4227
       146.5353       141.0498       137.0546       126.5532       116.9202
       104.6349       95.26486       84.58749       75.85040       60.83591
       49.08099       35.83604       27.23331       14.47579       5.659655
      -5.164742      -17.42276      -33.22400      -45.13528      -59.76276
      -69.31485      -82.69193      -91.23071      -103.0184      -109.9733
      -115.9892      -121.2672      -130.0239      -135.1829      -145.0126
      -149.1522      -152.3057      -154.8273      -161.2143      -166.8618
      -170.6544      -172.5342      -176.4144      -179.1987      -176.5989
      -171.9752      -168.4073      -166.5487      -162.2975      -158.1307
      -154.9607      -150.5906      -148.2991      -144.1182      -137.2923
      -129.5716      -124.8428      -115.6022      -111.9178      -107.7598
      -100.2523      -87.63742      -80.91135      -73.26143      -65.45930
      -57.93367      -48.66072      -36.78715      -26.37443      -16.15815
      -10.71143      -5.098648       3.355805       2.400313       2.572834
       8.322033       10.02674       12.83972       16.90105       17.87504
       20.77785       23.84367       27.57649       31.98074       36.84423
       38.27570       40.15459       41.47510       45.93875       49.03758
       52.09285       58.63493       66.92523       66.08246       68.25696
       68.43137       66.81601       66.27718       68.17581       64.09122
       60.88016       62.08955       64.86017       62.86914       65.00531
       65.55943       70.74524       90.89050       79.44431      -25.56070
      -70.86372       28.86495       24.36975       60.74341       226.7054
       102.5002      -145.1401       58.41577       430.1464       211.6977
      -154.7460      -122.5816       36.31895       145.8833      -138.6963
      -208.9827       93.68231       242.9934       94.32611      -355.3586
      -45.03406       554.4142       190.8325      -274.0665      -114.9039
       198.5468       144.1685      -160.9173      -34.65706       27.91882
      -126.0703       64.60596       86.27905       131.5023       251.3964
      -1.322830      -59.15845       118.4755       285.1796       56.93707
      -312.0023       29.12747       176.7570       28.44891       42.67703
      -131.1893      -46.94714       325.6262       282.1321      -31.53494
       159.9049       201.4130      -192.8217       227.4910       560.9237
       14.07338      -192.6335       172.9741       188.0747      -55.58139
       56.19336       245.5710       111.4352      -77.57178       104.5789
       144.8401       111.9238       311.7700       150.4301      -18.02597
       165.9966       140.7712      -80.17441       98.89197       242.6018
      -28.94247      -147.1924       44.79517       365.9863       262.1772
      -60.71393       140.3638       290.0905       187.8135      -104.6830
      -313.5374       38.71198       350.2244       60.51118      -114.1100
       110.7413      -53.32104       49.24042       386.8976      -8.581528
      -13.51050       258.9938       34.99884      -63.37344      -95.04433
      -86.15323       126.1070       32.10221      -67.55672       82.06091
      0.9677658       36.85049      -55.88791      -269.7502       132.0706
       247.5056       15.52106      -112.6907      -201.6360       39.77914
       128.8410     -0.5136414      -5.135757      -4.534882      -91.92078
      -93.37775      -97.16881      -137.2437       42.16151       20.73251
      -94.54700       36.89873      -48.59531      -154.0261      -74.00861
      -184.9385      -142.5622       27.27875      -83.80896      -192.9286
      -78.45605      -57.52147      -65.49741      -19.08063      -201.4685
      -154.1069      -79.26810      -213.3734      -78.45805      0.7398071
      -179.1464      -235.5740      -9.438416       22.93475      -247.9304
      -316.9709      -67.23920       88.56586      -185.7485      -361.8379
     -0.2736206      -15.04260      -386.8284      -175.6372       71.89013
       30.54071       66.08545      -121.9252      -225.8111       13.63931
      -39.32312      -333.1013      -230.3123       79.80387       58.50128
      -52.80112      -33.12004      -100.2549      -41.88577       112.3432
      -11.66739      -137.3255      -64.21660      -12.24808       37.95546
       98.90477      -8.775574      -171.5030      -9.488342       180.7886
       122.2332      -17.92087      -46.94193       76.02673       124.7086
      0.8815460    -0.01443481       88.39976       32.18217       21.94171
       72.26523       144.1548       104.9173      -92.84904      -66.58601
       27.07215       13.75764       70.58534       49.15353      -25.36235
      -14.47777      -49.16415      -49.01312      -142.4954      -166.8265
       23.24438       41.62576      -99.47943      -179.7415      -214.0991
      -104.8024       93.71088      -2.667419      -197.0098      -78.29907
      -68.50433      -194.8320      -255.4457      -218.1013      -96.80151
      -198.6208      -329.8608      -291.6704      -173.5221      -111.2275
      -214.9727      -170.0677      -75.60040      -222.5544      -363.4137
      -144.1250      -50.64288      -269.7593      -275.0659      -98.53430
      -185.9639      -232.2860      -85.95844      -239.0706      -178.6941
       73.25916      -48.35336       24.01947      -80.03442      -263.3495
       41.46565       106.3743      -207.3337      -304.0168      -114.3569
       74.27722       57.07111       101.6835       34.41273      -117.8043
       139.0492       360.5412       127.0512       13.74628       244.5086
       227.4882       76.79810       190.2192       100.8088       61.62842
       184.9961       202.4796       299.9705       345.6637       206.1179
       165.4104       352.9221       583.3049       419.8340       110.5172
       187.4448       346.1387       305.6390       470.7620       454.8224
       213.0660       396.2831       431.4792       218.7576       200.7915
       414.1110       589.9803       285.4758       116.0530       395.5495
       359.0752       58.26129       74.41833       261.0549       390.3922
       164.2748       33.47009       397.1432       461.4316       256.0942
       156.5141       55.43176       130.7315       162.8159       57.98706
      -15.85726      -78.52469       35.93336       130.5577      -30.06761
      -46.42747       1.079063      -60.12447       1.281387      -23.57812
      -124.2050      -105.3496      -163.8736      -116.1969      -92.98181
      -283.5562      -247.9834       73.74579       170.6545      -118.4363
      -303.6709      -83.40912      -100.9517      -341.9290      -215.0827
      -38.38068      -132.9658      -186.7668      -157.5627      -92.54517
      -163.8644      -352.8840      -243.4810      -101.2731      -247.5182
      -244.3877      -44.73209      -96.10852      -306.5594      -191.1945
      -88.98639      -151.6031      -114.8651      -264.6461      -190.7268
       84.51697      -41.32184      -86.32324      -228.7548      -385.2642
       86.08028       153.2394      -174.4380      -73.85785       69.90973
       33.93677      -252.0154      -315.5752       35.96677       210.0624
       36.23859      -144.5194      -212.6378      -32.34793       130.9555
       16.71848      -26.48004      -108.0186      -6.994812       208.1606
       97.60577      -75.23669      -191.6636      -74.72049       128.8641
     -0.1154480      -10.89098       65.71292      -50.08289       57.59314
       198.4790       109.3741       29.56418       106.5973       127.0890
      -65.34964      -195.5063       50.80505       228.6000       36.51119
      -38.66180       19.25096      -72.30000      -11.42233       141.0860
       129.8742       66.05147      -42.82971      -22.72464       130.3421
       76.89859      -15.49017       80.59935       34.55426      -191.5468
      -165.2389       92.34546       241.0387       56.89485      -99.65057
       110.9039       225.4669       1.673737      -100.1896       68.12069
       42.32962       34.85468       56.22537      -202.6486      -94.40976
       87.18205       3.477631       79.11481       189.5639       63.48983
      -24.44632       80.96674       91.26855      -11.47040       50.96725
       157.7025       103.9885       94.19751       79.76306       107.9663
       147.2123       22.71484       104.8132       196.7126       50.35651
       122.9517       144.6605       72.04236       129.5782       202.1823
       365.0958       259.1416       53.78061       105.3846       197.7520
       286.8801       58.44324      -34.33228       355.7452       437.6612
       215.1892       211.5809       300.1496       285.5745       212.1049
       182.1365       231.6531       301.9651       363.4636       407.0090
       410.6042       396.1485       315.4937       231.9832       217.6506
       277.2896       378.9526       332.4368       71.18250       192.8132
       560.6804       498.9850       160.1581       119.1926       460.1912
       289.7897      -65.17725       196.2885       444.5228       390.2293
       88.03677       1.678101       317.6538       382.3510       262.5165
       273.0599       247.4454       169.4203       83.94293       61.88434
       125.4938       151.2136       194.8638       224.0549       84.28992
       152.1642       377.9794       140.0162      -98.46326       140.8807
       186.2247       1.452759      -166.6442      -130.3304       23.72214
      -114.9525      -119.1875       19.20542       15.71390       95.64667
       42.78491      -188.2083      -360.4691      -330.3140      -220.9628
      -219.5811      -221.1161      -121.4107       116.5912       152.1639
      -183.9523      -266.6324      -408.8098      -683.2212      -676.3881
      -549.9597      -548.9556      -908.1335      -880.5723      -487.1125
      -893.6987      -1750.488      -2293.545      -1942.786      -1152.427
      -975.0768      -16.70703       1203.424       160.9116      -814.5847
      -444.6851      -517.2568      -46.76178       524.2239      -643.8303
      -1341.127      -240.7505      -448.2227      -1370.054       59.09497
       254.4434      -1968.341      -1954.209      -1143.115      -488.8228
       2341.302       3242.751       945.2263      -896.6196      -2242.172
      -1570.594       2014.407       2776.802      -594.4971      -2746.135
      -2846.542      -1945.347       86.61145       19.61035      -1449.988
      -402.0607       658.5376      -199.6631      -1357.531      -1831.982
      -238.2002       1805.464       1541.003      -27.51953      -1711.087
      -2399.066      -906.5876       1208.462       1398.211      -293.1327
      -821.0652       690.2803       430.5425      -1592.255      -1217.638
       243.0064       354.8437       204.4734      -111.0543      -425.7434
      -502.5924      -436.0088       138.7549       5.456299      -752.7596
      -614.5626       119.1621       635.6260       271.4082      -664.3973
      -198.3074       881.7898      -400.2961      -1482.461      -148.3451
      -15.83691      -1125.207      -879.1409       36.82178       1167.242
       1992.666       711.1748      -1028.524      -745.2128      -186.5542
      -687.7567      -295.6050       1276.708       737.6401      -1147.131
       62.67822       1829.463       917.4067       172.9417       824.6021
       887.9301      -200.2654      -1012.064      -669.9274       124.7141
       163.2210      -50.41461      -9.025146       417.2341       1426.296
       1141.268       69.44580       782.0491       811.8226      -418.5757
       234.7715       833.2523       240.9374       98.83881       60.65027
       215.2661       554.8591       340.9263      -123.8864      -29.45581
       477.7458       261.8789       163.1411       948.4170       1037.809
       943.5195       1305.205       810.5077      -78.59216      -257.9779
       191.3669       531.4011       429.5430       661.6263       734.7808
       357.8159       490.3220       465.4504       115.1566       159.6562
       542.0325       498.1059      -294.6464      -50.95972       1122.879
       872.9109       212.2532       772.0203       641.9923      -360.2950
       133.8462       1081.989       447.6791      -389.3221       264.8799
       915.6855       18.76599      -733.8420      -343.3597       114.3293
       490.4946       871.8379       495.8873      -341.0050      -322.9571
      -154.9092      -36.59839       1050.502       1367.932       172.8287
      -466.7094      -307.4952      -87.14325       156.3170      -3.969543
       136.8942       417.2410       58.84381       273.6937       412.6615
       10.12402       299.0707       427.3096      -208.5470      -496.9116
      -214.1102       287.2595       705.1053       467.2191       50.68356
      -136.0876      -138.7018       329.4716       522.8572      -87.42041
      -482.4243      -330.8925      -156.5659      -23.31403       126.0228
       251.5331       156.4066       1.518066       157.2029       594.1040
       570.4448      -62.91357      -100.7622       494.6381       504.1481
      -70.17117      -221.2033      -52.06839       52.56995       195.0311
       421.4895       299.7712      -358.0693      -644.6260      -415.5231
      -327.0264      -313.7159      -449.3130      -336.5484       139.2551
      -217.9004      -556.0539      -63.97217      -172.4647      -382.5280
       95.15546       195.6071      -99.88666      -135.7652      -19.12407
      -1.965820      -216.0764      -415.9348      -160.8776      -89.32874
      -425.8022      -399.9166      -173.7747       73.11218      -101.8149
      -445.0473      -263.2139      -96.08562       37.16626      -269.0312
      -654.1301      -346.1125      -632.0034      -1051.761      -644.6705
      -521.6167      -825.9878      -913.3256      -584.5344      -401.7209
      -684.1536      -875.3000      -1035.123      -810.9999      -244.0205
      -329.9634      -594.8179      -514.1610      -417.2302      -106.1958
       69.47119      -304.1434      -591.4101      -96.26074       389.2876
      -127.4587      -978.6902      -1197.058      -1075.229      -1079.505
      -840.3971      -227.8562      -178.2656      -900.5605      -1106.760
      -762.9136      -594.1392      -639.5264      -802.4271      -532.1874
      -56.67603      -235.9927      -699.3906      -635.8092      -291.8418
      -508.4176      -820.8846      -216.4197       208.4386      -247.5234
      -267.9843      -43.97540      -262.5629      -205.8314       221.9869
       684.3526       515.7141      -155.2580      -178.7487      -59.16917
      -79.13828      -24.55035      -320.0060      -299.6802       161.2455
       275.1224       2.114731      -92.51236       135.7460      -44.47653
      -283.8542       105.2211      -50.34668      -715.0239      -454.3057
      -68.97266      -437.2166      -347.7576       181.5812       29.52405
      -137.8612       387.0258       409.1538      -75.29425       121.7253
       504.4167       550.3164       544.4183       448.5784       445.5492
       517.2952       365.0994       214.0374       157.0466       149.2263
       607.8872       813.5822       291.8737       206.7336       596.9482
       860.3086       1048.366       1090.284       973.5464       796.3730
       738.2324       791.0853       663.6128       463.7498       670.9260
       797.4033       519.0992       293.0145       87.58813       79.86914
       444.8481       655.7972       534.8258       396.2310       606.8662
       873.0527       546.2180       325.4890       536.4413       438.1249
       443.2390       558.4310       407.2819       521.1113       740.2554
       741.3386       600.3833       424.9819       705.1648       988.2773
