     0.02500000      -3288.557       4197.776      -12345.00      -12345.00
      -29.99504       217.0549      -17.92000      -12345.00      -12345.00
       0.000000       13.38000      -12345.00      -12345.00      -12345.00
      -12345.00      -12345.00      -12345.00      -12345.00      -12345.00
      -12345.00      -12345.00      -12345.00      -12345.00      -12345.00
      -12345.00      -12345.00      -12345.00      -12345.00      -12345.00
      -12345.00      -31.75110      -68.43510       640.0000       0.000000
      -31.24600      -68.98500       0.000000       102400.0       0.000000
      -12345.00      -12345.00      -12345.00      -12345.00      -12345.00
      -12345.00      -12345.00      -12345.00      -12345.00      -12345.00
       76.58873       137.1327       316.8468      0.6886306      -12345.00
      -12345.00     0.04308801       90.00000       90.00000      -12345.00
      -12345.00      -12345.00      -12345.00      -12345.00      -12345.00
      -12345.00      -12345.00      -12345.00      -12345.00      -12345.00
      2008        16        21        17        54
       620         6    -12345    -12345      9883
    -12345    -12345    -12345    -12345    -12345
         1         7        13    -12345    -12345
    -12345    -12345    -12345    -12345    -12345
    -12345    -12345    -12345    -12345    -12345
    -12345    -12345    -12345    -12345    -12345
         1         1         1         1         1
BOZA    -12345          
        -12345  -12345  
-12345  -12345  -12345  
-12345  -12345  -12345  
-12345  -12345  -12345  
-12345  -12345  -12345  
-12345  -12345  BHE     
ZL      -12345  -12345  
[...]
      -80.76834      -103.6096      -129.7518      -148.7101      -173.1560
      -192.3680      -220.7905      -239.3502      -258.1824      -274.6271
      -300.7830      -317.9706      -338.2668      -351.2120      -369.2284
      -380.4976      -402.5885      -409.0621      -418.6956      -424.2061
      -439.5496      -438.7556      -445.3419      -451.0645      -461.3324
      -458.0317      -464.6755      -462.6727      -468.9121      -468.7878
      -475.3019      -475.7185      -479.2028      -472.5184      -473.9189
      -470.7985      -468.7126      -462.3531      -463.6420      -457.7821
      -455.5951      -446.3480      -443.7268      -438.5880      -437.0251
      -430.8400      -428.7845      -420.9463      -414.5393      -404.8093
      -400.8895      -395.3566      -389.9149      -382.3511      -383.0195
      -374.9545      -370.7870      -364.7521      -361.0824      -351.3132
      -343.2705      -335.9594      -331.3985      -324.5287      -319.9993
      -314.2947      -310.2010      -307.8418      -305.7464      -297.2560
      -289.4862      -281.0806      -274.6636      -264.3116      -258.7556
      -250.6860      -243.0858      -231.4249      -222.7449      -204.4198
      -191.3464      -176.3874      -161.1996      -142.9882      -133.4676
      -118.9317      -105.5016      -90.66527      -78.73923      -62.31812
      -48.57114      -32.83823      -21.30202      -6.272495       2.457024
       14.79910       22.77443       36.67599       47.79431       58.50458
       64.49071       72.28174       76.98416       90.86560       100.3665
       112.2190       121.4944       132.5897       138.3934       147.1724
       151.4363       159.8792       167.6026       174.6954       183.4104
       195.9120       206.3325       216.9885       228.4392       239.2864
       245.1096       255.5048       266.3102       273.7751       280.2188
       291.6431       307.0654       320.7499       333.8135       347.0919
       359.1211       370.5398       383.1962       399.4939       414.0826
       426.6814       439.3650       452.3514       466.9409       480.5780
       490.7659       501.8960       513.4022       524.1101       529.4589
       535.8595       541.3768       553.0806       562.1278       570.4464
       575.8689       585.3396       586.6709       587.7659       587.9650
       587.5530       582.6440       584.5908       583.7383       578.5828
       577.9376       577.9841       571.7800       566.9546       563.4846
       554.4697       545.6118       530.9385       511.6931       495.8649
       479.4623       459.9995       445.4830       431.0374       413.2776
       395.0289       381.5026       364.2047       344.4106       320.6038
       300.4641       280.4574       259.5623       237.6942       218.6835
       197.1408       176.9871       153.6017       131.0492       111.2526
       87.13812       60.21491       35.89831       8.155319      -17.73279
      -44.55002      -66.10526      -88.47681      -112.7003      -140.0312
      -165.4904      -187.0612      -208.6167      -233.9830      -254.7036
      -275.2579      -297.0711      -317.2544      -335.1167      -357.0781
      -379.3373      -399.1104      -417.5643      -437.3732      -453.2155
      -468.4919      -486.8485      -502.9314      -516.0387      -529.9895
      -543.8544      -560.6631      -573.9302      -584.6960      -589.6450
      -599.3350      -609.1301      -614.6482      -615.0361      -620.1841
      -620.1017      -619.0769      -614.4684      -613.8279      -608.1597
      -605.4410      -598.8291      -589.0337      -572.9839      -564.6846
      -550.8107      -537.5201      -518.1173      -500.6014      -473.4446
      -456.7637      -439.2849      -421.3176      -400.0488      -383.6123
      -362.4028      -344.5573      -320.0439      -302.3884      -280.2224
      -258.7651      -233.8969      -212.1116      -184.9907      -163.0571
      -129.2604      -103.4915      -81.25320      -60.01528      -32.08884
      -12.20113       13.18336       36.41571       64.14987       83.90137
       111.7672       128.4622       141.3331       201.9706       314.1695
       265.2281       100.0294       119.4941       261.4159       380.5209
       285.4788       64.51050       323.7744       588.8380       597.0806
       526.4310       335.7944       525.5442       539.4088       271.3525
       364.8693       436.8770       210.0515       183.6384       439.5358
       498.9200       523.9807       397.8600       586.8428       776.5463
       312.1214       242.6433       363.6902       455.5138       526.7722
       204.2474       212.8821       345.4855       305.6687       376.1343
       377.9581       347.9791       345.9084       178.1714       137.1555
       394.2429       485.4614       182.8509      -20.39685       199.5461
       280.6768       225.1083       212.4028       135.8412       319.0002
       404.2723       272.1435       209.3890       151.1731       89.50000
       54.85889       25.18823       99.98303       199.6481       210.7174
       116.9710       8.961784      -33.72807       28.61226       75.65157
       20.95466       7.139740       24.91348      -137.2944      -179.3465
       54.81145       39.06032     -0.9543381       82.97675      -101.8388
       5.280029       11.04089      -365.4987      -408.6264      -229.2254
      -1.045868      -100.9786      -287.6864       9.562012      -60.90674
      -337.1849      -282.3375      -394.5385      -309.0382      -82.28302
      -244.2028      -221.2835      -194.8883      -302.8334      -295.3310
      -319.0402      -278.2838      -297.1478      -384.9836      -310.3683
      -428.8943      -478.4304      -283.8434      -442.0988      -658.9275
      -430.7773      -122.5583      -285.6606      -550.4437      -394.9309
      -316.5823      -560.3658      -644.3538      -422.7922      -399.4781
      -490.5913      -475.4807      -476.5408      -435.7822      -392.4418
      -495.7242      -460.0016      -363.5664      -413.9446      -374.1846
      -432.6716      -503.0706      -420.3115      -376.2494      -343.8964
      -340.2192      -209.1512      -191.3684      -389.3387      -296.4764
      -210.1858      -344.2500      -361.6249      -289.0906      -186.2856
      -195.3904      -141.4652      -174.4488      -245.3839      -120.1639
      -159.5662      -243.6700      -159.4702       57.16690       78.28114
      -57.74171      -4.423374       33.15024      -49.30275      -79.60605
      -36.93059      -36.39581       119.5276       166.8293      -5.454285
       18.69379       118.1137       181.0380       64.49905      -35.53400
       146.6155       356.2396       338.4883       37.80109      -42.06763
       223.3694       258.5428       236.6509       269.2336       337.5966
       363.5518       205.7518       275.5493       320.4150       185.2827
       254.1512       426.8387       286.1963       229.1656       535.8939
       373.8971       218.6888       445.9199       421.9727       336.5074
       412.8320       406.2850       392.7648       430.4879       304.1831
       187.4991       296.4421       525.0514       430.1741       238.8190
       426.0862       426.5226       314.2834       319.9857       309.0242
       272.0642       311.3868       419.4618       391.5181       212.6339
       318.4010       414.0673       218.4323       348.2294       418.8955
       187.6270       242.3406       271.4435       171.9397       239.7474
       278.3545       238.9952       339.7651       292.6741       136.8229
       89.33020       104.8121       170.5706       181.6560       222.0684
       85.78961       77.23138       360.4149       168.2906       109.6605
       301.4945       178.3585       19.98215       90.36044       160.2463
       62.38843       118.0244       187.5015       119.2010      -85.71346
      -127.0102       154.4008       133.1735       72.08386       91.17125
       117.7067       15.27576      -47.88788       204.0365       132.2081
      -127.2191      -139.2419       80.07983       330.4071       29.07074
      -191.5370       92.14642       169.4696      -12.08204      -71.22086
       30.90671       46.51868      -162.6732      0.2276001       140.9241
      -129.6051      -31.90314       269.0695       6.699036      -187.9049
       80.92522       147.7331      -47.59103      -98.52355       65.60889
      -91.66608      -256.9085       75.38007       62.40930      -269.5431
      -278.3378      -128.0067      -63.05444      -101.7177      -238.3978
      -161.7332      -66.55878      -177.5446      -110.6097      -117.8821
      -231.2440      -224.7757      -290.1265      -218.4932      -149.7725
      -351.1438      -504.1213      -296.4375      -314.6519      -453.0641
      -261.3172      -305.3265      -410.7919      -218.0566      -292.2793
      -593.4600      -608.6262      -479.4434      -364.4012      -253.6226
      -283.1882      -400.9972      -516.4905      -418.0052      -296.7821
      -364.3815      -486.8453      -479.8904      -328.3868      -381.2919
      -443.0974      -426.4824      -397.0424      -253.0459      -491.1801
      -497.9292      -261.4865      -330.3220      -294.7861      -347.9376
      -269.4213      -144.8257      -342.9902      -445.2620      -224.5761
      -41.96448      -234.6288      -185.0320      -99.58374      -271.5759
      -138.4420      -119.8538      -401.1463      -183.3890       191.0829
       49.66379      -70.35706      -80.14786      -104.9622       93.27435
       136.5663       99.63162       201.4517       99.62338       22.55438
       165.3517       150.5490       97.45905       218.1316       239.5719
       197.2512       245.5907       156.4424       294.1759       386.3874
       170.0206       76.54736       286.6526       441.0614       222.8612
       201.2244       384.4714       306.4589       196.4612       478.9139
       547.2787       113.8154       129.5486       385.4224       367.5134
       329.2242       422.1967       388.5006       309.9812       337.2928
       256.2616       315.5696       447.6223       295.3813       237.9866
       363.7690       349.0497       226.6567       201.4380       175.5156
       218.7368       387.0197       409.3332       294.7479       238.8745
       231.7769       268.5687       326.7476       281.7164       173.4718
       289.4719       286.4411       13.19092       57.14758       317.5044
       281.3539       57.97333       20.73047       269.0748       296.3838
       45.49417       12.65988       68.71790       69.28992       146.0699
       147.8455       76.75183      -76.77484      -93.66418       109.4280
       200.4255       158.5699       94.19324       142.8169       93.70959
      -232.3604      -203.8212       55.58722      -33.28064      -245.4757
      -134.8868       38.45184      -188.8551      -311.2729      -49.61658
       65.38763      -130.1931      -144.2456       40.03027      -112.8315
      -300.8323      -320.5726      -305.6324      -110.7443       62.83350
      -119.5087      -287.4825      -268.3806      -292.5482      -203.5591
      -129.4371      -111.1379      -45.53345      -125.2900      -260.4670
      -243.9223      -148.8740      -163.0212      -252.6315      -253.4960
      -161.8734      -159.0311      -143.6045      -239.2020      -329.1624
      -105.1105      -177.1571      -336.9542      -49.45343       68.55402
      -57.40353      -66.49695      -165.5398      -217.6576      -185.4141
      -127.8752      -102.8613      -165.9139      -84.15659      -150.7800
      -191.3178      -142.6791      -154.6381       18.36536      -139.0780
      -497.8782      -274.8505       23.21210      -138.1490      -163.1355
      -140.2842      -210.6923      -114.7894      -80.59192      -203.6155
      -265.3334      -156.0017      -249.4580      -428.5944      -280.9224
      -231.7970      -233.6578      -39.21132       17.48804      -128.8042
      -266.2645      -296.3247      -167.7495      -194.2084      -501.0685
      -509.6943      -162.6622       40.99367      -46.49530      -119.4354
      -41.09085       18.72595      -240.5431      -379.2720      -44.61523
       164.1252       190.1412       9.672119      -344.1758      -689.4917
      -1227.159      -1677.727      -1535.012      -483.0747       963.3027
       2070.655       2643.350       2322.434       1562.828       491.3872
      -908.1960      -708.2517       872.2629       1097.096       478.8225
       552.7720       1199.315       892.5947      -1772.817      -3288.557
      -1016.120       1691.586       2320.272       692.3159      -1642.712
      -1669.062      -647.4805      -1520.076      -969.6641       2976.661
       4197.776       800.5967      -1583.426      -1382.768      -350.5054
       994.9243       1668.663       1045.036       81.37988      -414.3359
      -981.5801      -1842.606      -1770.461       21.58594       1715.264
       1290.099       60.19775       140.4984       345.3794       174.6587
       1291.718       1658.528       460.4861       45.28528       270.6919
       527.5479       29.67676      -1441.499      -1712.941      -357.6422
       269.3243      -568.0164      -467.4574       683.7067       114.7625
      -821.4515       232.5405       1153.416       907.3954       398.8567
      -195.9854      -681.9603      -479.5300       585.2898       956.4971
      -310.3279      -1057.142       35.23657       809.2369       312.5639
      -33.45013       263.2877       394.3264      -447.3557      -1350.995
      -648.6655       573.2458       486.8929       49.82397      -139.8644
      -352.4257       71.64685       342.8007      -133.1600      -221.6945
      -312.9631      -482.8584      -257.9153      -111.4583       449.3896
       636.9781      -105.0500      -535.2253      -705.4421      -779.2930
      -736.7633      -115.6763       1281.675       1496.119      -2.042725
      -841.6512      -267.6273      -218.8840      -1076.184      -958.0249
       311.3138       1088.757      -238.8921      -1723.936      -809.6953
       485.6117       553.8290       317.9026       10.16516      -237.9886
      -261.1350      -138.8650       376.2505       663.7596      -4.118530
      -539.1105      -236.7415       348.0419       230.3630      -202.2577
       318.9976       912.3558       552.7691      -42.67914      -372.6469
      -125.1256       445.1796       717.4969       215.0199      -5.471191
       719.3679       655.8542       417.6763       994.3882       394.7856
      -423.7991      -135.2528      -64.32690       209.9624       1201.682
       1421.675       554.7446       143.9413       404.3817      -370.2424
      -1027.910      -155.9435       238.7032       189.9001       918.7028
       943.9261       146.3490      -96.82892      -212.9047      -91.17236
       633.8242       830.7681       267.6312      -291.7433      -99.33264
       378.2002       648.4954       696.7366       612.5239       551.6641
       545.9954       513.7664       194.1876      -266.6558      -65.37439
       404.4146      -271.1611      -762.3918       371.9087       861.8784
       376.4849       177.7241       195.8828       62.73706      -542.2096
      -646.6444      -188.6922      -97.33783       108.1666       344.4889
       270.8452       242.4636      -63.02319      -425.0529      -42.80838
       31.22192      -367.1052      -268.4564      -64.38504       29.24947
       20.89090      -62.42505       255.9184       252.7804      -125.0516
       71.29553      -29.26123      -693.7930      -841.2314      -664.4683
      -530.2579      -428.1647      -459.6299      -462.8877      -573.9149
      -625.5090      -288.7454      -172.2524      -375.9614      -672.2146
      -818.0824      -496.2656      -336.8848      -613.7037      -389.8821
       276.5164       142.9792      -481.4542      -593.2383      -644.5774
      -885.4814      -784.0731       46.55405       458.9957      -420.6272
      -1013.626      -852.4539      -810.0286      -757.0530      -323.0152
       125.8103      -102.4553      -652.9275      -812.6272      -811.4441
      -1037.582      -926.2963      -178.9585       83.61502      -137.4058
      -125.4504      -431.4172      -788.7375      -734.7073      -320.3827
      -166.1611      -750.2117      -846.3052      -282.2504      -93.40479
      -338.0210      -732.1603      -775.6855      -373.9045      -170.1714
      -181.8340      -253.5049      -285.7139      -159.2307      -110.9852
       72.04898       154.6814      -7.363281      -107.1815      -252.2026
      -280.9752      -124.0334      -311.3492      -424.9266      -14.36115
       111.9042      -83.52101      -58.18335       347.9110       541.9182
       123.5736      -56.38602      -11.74924       80.26276       226.1395
       94.43506       223.3533       564.4512       330.6393       29.14990
       153.6221       264.4902       724.7148       945.2822       430.7352
       197.9204       177.5833       149.0322       319.9387       556.6399
       782.3853       757.2048       629.0439       608.4309       624.0807
       418.2461       66.31616       122.3679       451.3712       584.6792
       458.5352       303.7896       289.3981       79.19055       128.2188
       581.8525       885.0544       913.9330       647.9856       469.1243
       271.1306      -165.9385      -134.0503       247.9677       451.6165
       603.4020       630.2627       203.8917       14.45337       652.1685
       913.5568       308.0604       202.3679       760.6321       835.4750
       247.5212      -47.73651       232.7546       408.5732       430.0886
       605.1577       620.9456       677.0718       996.9832       912.6182
       580.3323       687.9363       659.0846       232.8293       261.3186
       663.8645       571.2511       367.8531       318.2827       85.86726
      -74.54079      -15.74094       123.8477       253.2189       348.8470
       317.1865       67.66592      -110.7466       102.2379       313.4410
       39.85431      -275.5084      -104.3025      -27.88531      -326.1564
      -138.3661       203.5440      -21.22601      -151.2149       87.11028
       57.81703      -113.2173      -3.224182       36.95483      -218.8611
