     0.02500000      -5527.852       6941.010      -12345.00      -12345.00
      -30.00505       214.7199      -15.98000      -12345.00      -12345.00
       0.000000       12.11000      -12345.00      -12345.00      -12345.00
      -12345.00      -12345.00      -12345.00      -12345.00      -12345.00
      -12345.00      -12345.00      -12345.00      -12345.00      -12345.00
      -12345.00      -12345.00      -12345.00      -12345.00      -12345.00
      -12345.00      -31.28310      -69.41950       1383.000       0.000000
      -31.24600      -68.98500       0.000000       102400.0       0.000000
      -12345.00      -12345.00      -12345.00      -12345.00      -12345.00
      -12345.00      -12345.00      -12345.00      -12345.00      -12345.00
       41.58582       264.2112       84.43562      0.3739060      -12345.00
      -12345.00      0.1261825       0.000000       0.000000      -12345.00
      -12345.00      -12345.00      -12345.00      -12345.00      -12345.00
      -12345.00      -12345.00      -12345.00      -12345.00      -12345.00
      2008        16        21        17        52
       680         6    -12345    -12345      9790
    -12345    -12345    -12345    -12345    -12345
         1         7        13    -12345    -12345
    -12345    -12345    -12345    -12345    -12345
    -12345    -12345    -12345    -12345    -12345
    -12345    -12345    -12345    -12345    -12345
         1         1         1         1         1
CALI    -12345          
        -12345  -12345  
-12345  -12345  -12345  
-12345  -12345  -12345  
-12345  -12345  -12345  
-12345  -12345  -12345  
-12345  -12345  BHZ     
ZL      -12345  -12345  
[...]
      -378.2880      -363.4197      -334.8018      -309.0491      -298.8964
      -266.1464      -232.1190      -206.2286      -195.2580      -163.7026
      -142.6706      -129.0411      -99.59189      -73.05511      -70.42886
      -45.37812      -22.86831      -18.33288      -2.242424       25.67667
       29.56296       44.91534       70.61127       78.75818       92.33337
       104.3055       99.48849       103.9148       119.5702       122.3495
       119.7239       133.4839       131.0128       130.2912       126.6970
       124.7550       127.4286       125.9761       118.5450       121.0975
       105.1583       111.8206       120.9733       114.3156       110.1011
       112.0523       100.5299       104.0084       104.5896       100.1053
       97.12915       102.0597       81.93060       74.93735       76.74887
       76.21164       76.51196       74.91550       63.92493       52.64499
       50.66772       57.48163       47.21465       37.55270       27.70223
       26.23148       37.87717       30.55445       7.131065       17.20026
       25.52493       27.40141       31.99194       33.14246       48.34616
       44.25310       39.79080       47.27717       39.97823       34.34619
       44.58563       52.47495       53.46213       55.95718       67.79095
       73.43393       69.08557       78.93259       99.37198       96.95337
       96.06720       106.1040       121.9095       132.2301       141.6688
       152.3004       158.4792       161.7528       184.8690       202.0376
       199.1608       200.8223       219.1953       248.5214       262.7020
       253.4357       272.8409       288.0608       294.3358       310.9036
       326.2773       339.7677       350.0544       362.5818       361.0710
       351.3840       358.9270       376.4226       375.3889       378.6931
       392.2715       405.7146       412.5410       408.9099       418.8806
       429.7974       422.5645       411.3408       426.3660       428.3904
       400.4111       401.0110       419.2915       418.3469       407.7473
       379.8918       382.5032       393.4468       379.9928       368.0847
       378.7360       383.1216       380.0330       377.3821       390.1455
       375.5789       351.1285       343.2012       343.9286       350.4456
       330.9845       321.3894       335.8673       321.2269       312.2562
       317.6302       311.4659       303.5320       310.2344       302.0972
       260.2880       238.7192       226.8620       214.6262       197.6987
       190.4341       165.4652       102.9687       103.3168       137.3417
       104.8859       42.00793       22.23774       18.84668      -28.18860
      -61.62051      -52.17775      -73.08646      -108.7509      -130.1398
      -132.0346      -174.1320      -233.0658      -245.9185      -248.1473
      -290.3524      -314.6053      -329.1221      -318.7521      -379.3416
      -435.7606      -400.5392      -397.7025      -437.3113      -428.5219
      -445.3668      -467.7500      -506.0275      -492.6733      -489.2881
      -516.0822      -512.1487      -500.3811      -537.0566      -537.8516
      -510.7725      -523.6013      -553.9437      -522.5806      -526.6724
      -539.5261      -540.0674      -540.0771      -536.5852      -519.6692
      -532.3435      -534.5234      -530.8713      -521.3171      -522.7327
      -521.9417      -524.9691      -530.6982      -523.5249      -514.2979
      -527.6270      -518.0718      -527.9270      -537.9343      -539.7487
      -533.0643      -538.8809      -540.6562      -529.5284      -525.4822
      -544.5635      -536.8003      -529.8071      -540.2159      -537.9170
      -517.3170      -522.5328      -513.6575      -490.5430      -477.9501
      -495.0974      -498.3984      -492.4891      -464.9861      -447.3721
      -455.1548      -460.3445      -457.0375      -451.3517      -394.6874
      -337.9335      -361.0195      -413.7939      -377.9974      -331.0565
      -321.4537      -315.9901      -276.7773      -283.4784      -264.5662
      -215.2260      -238.0072      -223.3320      -156.4185      -172.4253
      -193.1426      -150.7086      -114.7453      -116.9337      -77.04362
      -22.79205      -26.55836      -42.72573       1.793396       59.28867
       63.72821       65.91995       106.6315       129.1454       129.8249
       158.4666       204.8423       197.7350       204.8121       243.3781
       281.4460       313.9606       309.1508       332.3169       378.0999
       403.4021       407.9763       424.8534       484.0269       503.5115
       510.5786       508.9540       542.6060       583.0125       583.6783
       621.3306       644.8717       601.3547       599.5774       620.5916
       641.1838       645.3264       655.6687       669.5839       652.0579
       642.7380       678.9189       688.9192       674.0225       665.7985
       684.4447       680.9600       667.1912       658.1987       663.3955
       674.3705       653.8904       637.5430       644.1785       631.5320
       619.1936       612.3303       608.1246       597.8196       587.7448
       563.7764       473.3480       44.47119      -1113.298      -1844.171
      -1092.269       650.8218       2380.776       1638.914       601.6396
       2873.713       3568.222      -421.9932      -2127.945       1234.453
       1776.351      -842.0818       228.4480       1123.831       239.4893
       770.8405      -324.9010       216.7332       1591.290       105.9419
       457.6326       1210.070      -243.0055      -889.0405       367.1731
       155.3114      -496.2017       104.4590       681.5781       1566.779
       981.0266      -651.0333      -727.6965      -53.79797      -502.4529
      -97.37598       854.7242       374.6065       301.2847      -519.1582
      -1179.836       332.1510       451.0474      -715.4290      -258.1737
       438.5055      -137.1619      -115.9314      -194.6572      -858.2247
      -384.2159      -327.7716      -303.0352       267.0494      -126.1898
      -766.3669      -450.5572       226.5359      -441.3574      -802.0457
       510.4785       519.2783      -719.6831      -1276.864      -550.2939
       178.5698      -1071.445      -1259.623       24.74870      -82.71246
      -45.34363      -93.52051      -680.8408      -581.8741      -381.6823
      -222.7057      -133.5312      -165.2682      -321.6450      -356.2612
      -602.8392      -768.7585      -411.9110      -286.0991      -358.0713
      -386.3889      -157.9242      -231.4025      -355.8116      -268.3589
      -119.5665      -129.8789      -580.1522      -216.0892      -12.87213
      -274.9785      -115.6780      -373.7061      -667.6477      -646.8403
      -362.1229      -200.8298      -532.6768      -548.9678      -237.7192
      -226.4084      -497.3797      -204.8930      -86.66577      -652.9034
      -396.5132       101.4463      -212.1527      -418.9160      -425.9385
      -494.2451      -159.5842       157.6109      -58.64429      -377.0493
      -539.5812      -346.0316      -83.77124      -324.7695      -595.8828
      -532.7723      -313.1521      -355.1379      -598.4377      -295.4720
      -101.6080      -509.1824      -727.3708      -499.2390      -476.9352
      -663.4241      -444.7609      -310.6534       8.975525       221.9264
      -281.5220      -457.1180      -534.2908      -401.2166      -89.03601
      -291.9175      -398.5297      -455.1981      -418.7493      -389.6556
      -455.0491      -378.2233      -137.7764      -43.50757      -417.4119
      -470.2194      -139.6646       215.0362       12.52588      -344.1860
      -81.81924       47.41602      -348.3655      -368.2829       62.41089
      -150.1838      -228.1717       204.3913       191.7763       150.3843
       236.9179      -40.80347      -321.9682      -231.2318      -12.36865
       128.1798       286.8257       394.2336       343.0131       329.6049
       296.4874       280.1591       210.4650       124.8326       289.5439
       306.4662       221.1516       502.3617       537.9467       6.041992
      -66.14233       592.1991       790.0571       415.2373       713.1348
       890.4422       265.3237       357.2861       598.5808       381.2163
       568.2476       868.5781       760.8903       378.0229       269.7522
       443.6753       473.1028       467.5737       783.9854       959.8542
       578.8807       325.5359       600.9900       773.5022       542.4054
       587.3433       677.9012       388.0000       478.2249       855.2343
       650.5963       369.0601       687.3101       694.4066       458.6736
       746.0991       861.7078       487.4100       133.4246       300.4315
       594.8876       326.5764       203.1837       412.1882       351.0537
       370.1376       743.3804       557.8031       171.5021       473.5964
       411.4695       238.5256       304.6168       63.99557       102.7584
       138.7681       128.1219       389.9686       588.3539       519.4309
       86.91245       59.33240       270.3904      -11.61639       113.2678
       329.1056      -136.9505      -100.2206      -33.61169      -405.0522
      -218.8669       12.73279       138.5861      -40.39532      -235.7640
       74.32979      -77.02429     0.05017090       196.6661      -108.0547
       70.62158      -170.2251      -621.1769      -647.5399      -399.5420
       213.0667       89.17590      -314.4952      -389.5983      -341.3440
      -75.38358       73.27081       162.7235      -106.0786      -552.2131
      -571.9644      -523.6683      -513.1120      -329.8415      -15.91124
       156.5208      -175.2604      -519.4871      -707.9656      -768.9812
      -378.8516       47.17505      -218.7761      -711.4048      -578.4784
      -83.64905      -90.48145      -336.3953      -593.2773      -1165.072
      -653.9312       490.1739       197.6375      -262.7949      -460.2306
      -661.6696      -222.0596      -258.6912      -684.8799      -513.7358
      -166.7286      -446.8027      -695.1730      -249.4055      -536.6271
      -829.6782      -119.5306       328.3562      -343.6575      -1088.252
      -255.1064       9.824097      -570.9765       94.75720       498.1851
      -49.75195      -439.6233      -427.4653      -251.0410      -389.2909
      -521.2892      -249.4445      -277.3408      -135.8948       22.91586
      -137.6503       134.4807      -37.81763      -289.2526       27.12183
       468.2047       39.84119      -833.6372      -101.4671       361.7661
      -492.3451      -412.6419       142.3013       255.1577       318.9887
       50.54034       114.1738       374.6788      -60.13135      -20.94324
       576.5512       530.3596      -104.1419      -163.4964       161.1392
       305.7379       414.5196       161.2269      -53.58960       38.70886
       404.2999       522.9202       580.0300       772.4628       43.48303
      -623.9199      -189.7368       486.5298       713.5146       901.8707
       540.7962      -276.4562       238.4702       652.8816       180.9799
       402.6531       489.5009      -3.101959       62.33105       275.2514
       95.03680       150.3123       392.3418       665.2256       544.3410
       100.2505      -22.57898       162.0882       286.9415       55.91461
      -89.71913      -82.76416       397.6086       743.3440       419.8725
       40.12347      -129.0187      -1.816345       79.06473       152.3138
      -182.2123      -499.7475      -53.87836       167.8109      -9.892700
       367.2878       900.6311       642.6828      -149.9955      -476.2643
       92.13513      -423.0989      -1078.006      -183.1196      -7.861938
       71.54663       508.8468       48.15991      -580.5986      -128.9408
       858.6891       313.2903      -741.9960      -437.6974      -14.19284
       58.60333       241.2227      -201.8724      -327.7519      -73.69946
      -339.1438      -464.0320      -751.1902      -750.6201       3.744171
      -22.12103      -121.4868       599.6207       394.7655      -202.0151
      -299.9213      -183.0931      -113.6605      -660.0387      -452.4835
       582.3215       771.0493       51.24817      -579.8988      -398.7930
       283.6655       34.46387      -519.4054      -101.0383       303.4178
      -5.973877      -436.4453      -260.7264       25.00916      -154.1235
      -30.04034      -48.38745      -691.2614      -320.3484       620.9683
       146.3749      -632.1447      -218.5242      -449.6403      -934.6517
      -84.04224      -729.8120      -2227.008      -1726.690      -867.3062
      -1029.661      -430.6807       1417.620       2910.357       3395.738
       3583.026       2695.902      -283.4658      -1644.060      -1711.515
      -3910.958      -5527.852      -3840.259      -750.3076       1302.287
       5016.229       6941.010       2256.739      -926.1399      -153.0752
      -1463.347      -3526.713      -2391.433       55.24731       492.8110
       617.3784       1355.531      -201.9146      -2089.524      -1129.958
       584.2375       629.5186       118.7446      -449.4956      -647.0317
      -689.3545      -1860.153      -1326.063       423.7759       1140.606
       1293.120       147.9282      -1116.160       340.2681       2429.862
       173.6323      -2484.046      -723.4033      -83.97559      -1863.894
      -1106.965       1276.206       1563.091       159.8245      -430.4561
      -306.9633      -545.7267      -39.18262       1082.979       1247.275
       1174.635       969.4380      -728.3359      -2336.218      -1704.440
      -7.225769       56.99707      -754.1936       358.1484       1026.893
       434.6719       1069.509       847.2356      -309.6074      -6.711914
       1081.910       970.3247       297.2212      -464.9146      -1660.936
      -1063.963       263.1342      -84.33911      -64.52051       1198.183
       1271.940      -293.0712      -743.4370       697.4790       1451.461
       915.1514       4.031982      -1042.803      -1506.972      -131.9805
       1523.588       1354.586       1835.693       1659.716      -484.0717
      -773.0331       363.8118       902.2810       847.0749      -4.903809
      -534.2125      -41.79150       643.8241       643.1035      -60.66052
      -96.54590       711.5566       1127.146       1052.369       255.1046
      -910.7720      -164.1569       979.2856      -53.31274      -607.6877
       413.4978       799.7072       502.9696       175.0498       363.0222
       1378.939       763.3677      -1045.093      -787.3558       506.5123
       495.0022       38.44885       420.1268       411.9294      -255.4930
      -301.3013       321.0271       208.9875       4.931946       315.5649
      -170.5215       29.76782       676.6078       409.5476       416.9811
       759.7637       194.7468      -741.9113      -524.5797       31.52100
      -551.7456      -760.6070      -14.77148      -634.9307      -858.6623
       148.1172       153.4519       668.6506       1249.948       153.4751
      -661.4248      -200.1011       125.4354      -164.2090      -377.8783
       123.2529       184.9871      -598.6013      -588.4016      -22.27544
       33.37036      -161.6084      -97.34302      -246.4680      -264.3801
       30.87395       39.84804       91.39157       39.52002       74.97852
       374.2139       317.8479      -249.2403      -352.9514      -1.845276
      -77.31702      -331.3834      -225.6078       432.9181       319.0032
      -669.0604      -442.2256      -215.7572      -752.4519      -124.9948
       184.4023      -902.4810      -1007.998       347.9753       1082.652
       671.1306       151.5193      -523.6343      -493.0582       329.3613
       341.0395       119.3683       71.05020      -85.03931      -29.00549
       125.2491       627.4130       512.4926      -134.3525       231.1274
       288.3071      -211.4282      -157.8773      -80.58704      -125.5366
      -179.9512      -46.37284       16.78479       68.67114       498.8748
       528.5853       223.1468       100.8030      -4.634827       34.70715
       286.7913       435.2386       417.2056       150.5674      -189.6084
      -110.9145       48.22522       189.1641       436.6284       254.1550
      -56.06952       107.5727      -91.87579      -393.3059       287.3866
       589.7988      -288.1689      -926.7256      -406.4948       404.1791
       329.0767      -162.4099      -66.57138       190.0912      -42.07513
      -207.9236      -475.4116      -698.1984      -234.7150      -6.479507
      -64.76295       13.50803      -30.94718       18.74640      -135.7157
      -505.9518      -559.4783      -448.8157      -585.1221      -863.4185
      -763.7192      -682.6937      -636.3622       62.81534       277.6267
      -339.4198      -436.3518      -173.7687      -409.5818      -691.6465
      -490.6744      -274.8800      -329.7556      -513.0603      -694.6851
      -663.9568      -630.2788      -809.8884      -852.1940      -397.7700
      -122.3175      -322.0073      -487.4183      -452.1661      -402.3967
      -455.7115      -317.2256      -483.1387      -834.6953      -635.5376
      -670.7952      -742.4275      -454.9693      -357.7860      -101.0376
      -163.6367      -591.5719      -638.0413      -242.2447       22.78448
      -263.1871      -301.8516      -135.1429      -265.6693      -435.0151
      -735.8970      -976.4338      -644.2993      -397.5948      -306.6786
       36.24945       308.6640       142.0580      -325.4989      -669.1122
      -592.8663      -57.14249       174.1387       100.6973      -196.0555
      -259.8340       574.2397       596.0060      -22.56454       135.7832
       52.31317      -149.3470       109.4954       64.21945      -139.9701
      -123.2496       164.0326       475.0139       429.3044       353.1268
       425.2578       512.5342       376.9449      -12.57779      -162.9505
       33.34885       92.46136       76.77393       331.3538       710.7747
       620.2637       336.8059       469.9209       771.1895       927.2759
       990.7410       707.6131      -34.76501      -118.0261       217.3861
       208.4811       271.7024       203.2905       393.1570       1090.467
       1036.494       535.0098       488.7222       418.7930       723.9038
       975.7413       501.6152       411.4227       472.0613       294.9905
