     0.02500000      -11893.02       8753.820      -12345.00      -12345.00
      -30.00505       214.7199      -15.98000      -12345.00      -12345.00
       0.000000       12.11000      -12345.00      -12345.00      -12345.00
      -12345.00      -12345.00      -12345.00      -12345.00      -12345.00
      -12345.00      -12345.00      -12345.00      -12345.00      -12345.00
      -12345.00      -12345.00      -12345.00      -12345.00      -12345.00
      -12345.00      -31.28310      -69.41950       1383.000       0.000000
      -31.24600      -68.98500       0.000000       102400.0       0.000000
      -12345.00      -12345.00      -12345.00      -12345.00      -12345.00
      -12345.00      -12345.00      -12345.00      -12345.00      -12345.00
       41.58582       264.2112       84.43562      0.3739060      -12345.00
      -12345.00     -0.8489052       0.000000       90.00000      -12345.00
      -12345.00      -12345.00      -12345.00      -12345.00      -12345.00
      -12345.00      -12345.00      -12345.00      -12345.00      -12345.00
      2008        16        21        17        52
       680         6    -12345    -12345      9790
    -12345    -12345    -12345    -12345    -12345
         1         7        13    -12345    -12345
    -12345    -12345    -12345    -12345    -12345
    -12345    -12345    -12345    -12345    -12345
    -12345    -12345    -12345    -12345    -12345
         1         1         1         1         1
CALI    -12345          
        -12345  -12345  
-12345  -12345  -12345  
-12345  -12345  -12345  
-12345  -12345  -12345  
-12345  -12345  -12345  
-12345  -12345  BHN     
ZL      -12345  -12345  
[...]
       46.29377       32.99117       22.49420       25.91962       34.15033
       33.06450       21.49414       16.30196       12.81745       3.113256
       2.123569      -5.311035      -15.07232      -15.78616      -17.76418
      -23.47598      -27.22192      -21.92683      -25.87358      -25.97050
      -21.84362      -18.14476      -27.84201      -37.65902      -30.97553
      -16.65405      -14.12987      -17.33469      -18.44711      -18.63352
      -19.03866      -13.03551      -23.71858      -28.22974      -9.633919
      -12.55016      -26.77237      -21.83122      -31.57356      -23.74165
      -27.41277      -46.57999      -44.52252      -38.89031      -29.79645
      -34.22002      -44.67590      -38.05482      -31.74696      -42.63374
      -44.75362      -36.14539      -52.16383      -48.34872      -49.19504
      -64.78900      -62.72273      -59.34317      -69.00610      -80.97311
      -78.13605      -58.56238      -64.42496      -59.65802      -49.52243
      -51.81805      -49.24490      -43.71173      -60.02994      -53.87563
      -35.38638      -45.36165      -44.91923      -28.13679      -29.29504
      -32.72643      -32.43472      -33.32138      -33.62006      -23.18381
      -30.29632      -36.14671      -18.60129      -10.96008      -31.95013
      -36.83425      -17.70950      -28.33144      -42.87122      -20.75130
      -21.19804      -50.15619      -31.04540      -9.652802      -49.24799
      -57.72835      -41.41881      -42.73717      -42.78406      -27.94526
      -21.38989      -21.27564      -35.63792      -34.97215      -29.85825
      -33.62974      -28.41916      -23.03860      -30.03743      -32.03040
      -32.15725      -23.96827      -13.31415      -32.64117      -52.35530
      -35.28375      -27.89348      -42.32040      -42.99928      -33.79218
      -41.38560      -47.24295      -46.14224      -44.10196      -47.84210
      -47.34756      -55.15015      -62.62924      -83.99899      -89.68433
      -87.70956      -98.85434      -111.3228      -109.7787      -114.1375
      -116.5915      -108.5623      -96.44104      -118.2564      -120.6155
      -105.4212      -103.4261      -119.7570      -117.1862      -109.7817
      -93.92264      -97.06113      -96.38269      -104.0016      -81.44318
      -72.96481      -84.02925      -69.39110      -39.67517      -51.19444
      -43.64996      -36.03164      -27.82964      -38.40154      -36.37466
      -14.47124      -8.689980      -28.31322      -22.84269      -7.618080
      -5.790359      -28.38808      -8.298682       1.586576      -4.205055
       2.644194       8.890297      -14.58067      -26.52835      -4.284058
      -10.40683      -56.24640      -43.66846      -48.04668      -80.36298
      -87.56323      -82.52753      -119.8000      -145.9554      -157.2045
      -148.2476      -160.2517      -187.7866      -180.2111      -174.1921
      -233.2341      -250.3778      -239.2916      -256.8376      -299.1224
      -308.8541      -296.6872      -306.7118      -343.0480      -343.7974
      -334.8174      -341.3236      -357.0020      -355.8060      -359.5348
      -370.3025      -373.7573      -363.0344      -385.3813      -384.2493
      -366.3163      -350.6897      -349.8163      -334.6530      -324.2202
      -329.9698      -348.5833      -333.8309      -340.6348      -339.3521
      -334.2141      -324.7754      -313.6941      -295.8071      -294.3171
      -276.7226      -273.4407      -261.2710      -242.7134      -229.2061
      -219.1592      -183.6555      -189.5202      -170.7375      -146.2443
      -125.3231      -114.8882      -98.15904      -89.83113      -54.30769
      -40.32794      -21.44998       5.979874       28.10468       47.15793
       73.21759       91.88177       129.1324       143.5230       152.5474
       155.8979       190.9400       216.1605       235.7820       249.7460
       268.1145       288.3477       317.0825       331.7458       349.8242
       346.7019       363.6348       389.5251       413.0840       424.0491
       422.4485       416.6123       441.9026       443.8446       450.2275
       462.8287       455.1855       425.7573       449.4277       468.0714
       435.6440       450.8784       482.4191       449.2137       456.6555
       451.3605       423.8013       421.3091       431.7302       447.5568
       448.6548       424.9269       439.0306       454.4435       444.4642
       425.9191       450.0297       443.6643       407.3638       410.2606
       439.9204       430.6864       401.5518       406.6241       424.2605
       399.0217       397.2406       381.8616       382.5735       358.2083
       341.5149       352.4874       356.4814       352.0909       336.5800
       326.6804       358.3779       314.9128       291.2447       300.2996
       303.1317       255.2694       240.9209       249.1342       246.6823
       207.3063       222.0363       206.9042       157.5795       144.7686
       139.8786       103.1086       97.77986       81.23370       81.36687
       48.80660       27.56957       21.59528      -10.75208      -54.32080
      -63.53992      -94.64792      -102.0609      -106.0115      -127.7208
      -169.7571      -164.8095      -126.4178       76.70374       370.1046
       176.7495      -610.4541      -1567.427      -1542.007      -133.1194
       311.4872      -630.6426      -478.4763       208.2227      -827.2748
      -1070.821       488.9529       444.9829      -606.1270      -70.73071
      -316.1240      -1540.322      -664.3328      -77.96277      -716.6794
      -598.2177      -529.6787      -736.4669      -720.9561      -509.5422
      -859.0045      -765.1017      -131.9785      -664.4255      -1098.919
      -853.9327       7.285461       242.9397      -993.4551      -1216.174
      -221.3452      -621.2048      -1196.872       57.87146      -24.57275
      -1210.717      -1105.611      -551.6744      -244.3373      -262.8426
      -234.1102      -63.81104      -793.1956      -1587.678      -449.8722
       382.4899      -548.6252      -668.8049      -285.8503      -591.8206
      -659.8728      -124.6903       278.8837      -204.8461      -664.7440
      -196.7076      -128.5497      -521.4644      -426.7991      -160.6885
       98.58936       419.1985       118.6715      -458.4285      -688.9542
      -835.2513      -353.4286       217.9492       381.3774       355.1548
      -250.0259      -331.3593       68.39142       99.82593       187.2227
       541.2472       571.8899       159.5518       221.2789       594.0709
       64.05493      -681.3920      -17.78369       973.7579       747.2239
       38.73065      -120.7314       578.8921       939.2480       482.1722
       323.1455       464.3810       409.6135       757.0347       973.0079
       442.5867       362.3936       956.0095       1095.421       793.4292
       627.5017       640.6062       558.9680       787.1924       930.6152
       360.7799       236.0422       1190.430       1400.935       363.3469
       219.2532       1122.624       1172.452       665.8076       780.1152
       758.5642       477.0475       572.5979       734.2290       793.4736
       1073.503       1285.743       998.2070       575.8738       570.2031
       1285.480       1323.660       500.4453       640.1357       1118.075
       632.9988       512.5430       806.0239       546.2235       456.4819
       435.3032       445.4679       528.7502       695.9934       1013.172
       618.8407       219.4215       618.6055       745.5345       350.0385
       294.7273       660.7266       479.1762       38.39514       267.7961
       684.5435       510.0581       41.23657       355.0864       689.5610
       127.2430      -10.21533       367.4302       449.4583       421.1467
       138.6298       143.5331       224.7978      -136.0977       64.28271
       465.7015       250.4186      -25.32306       43.58118       209.0886
       142.6368       26.46817       9.680115      -103.3734      -364.3245
      -574.2462      -346.6627       124.1875       268.0657      -31.19803
      -207.8001      -27.84637      -17.53723      -119.6213      -373.0078
      -649.7976      -349.5298      -174.8513      -377.3728      -231.8889
      -289.7253      -680.8496      -453.2944      -161.8497      -524.3472
      -614.3087      -301.2183      -290.1260      -562.6824      -802.2095
      -787.3679      -579.0959      -564.4792      -664.9053      -628.1633
      -686.1382      -816.0103      -744.3903      -666.4141      -616.7137
      -466.9360      -441.3511      -611.8926      -844.4697      -946.1753
      -947.5916      -807.1252      -554.9912      -786.1643      -926.7285
      -639.0037      -826.0046      -971.7581      -734.9338      -760.4493
      -671.4648      -480.6633      -699.4790      -909.6924      -587.7590
      -530.3101      -1020.817      -1056.756      -599.3979      -458.0525
      -724.4128      -852.7219      -665.9747      -368.1240      -231.2275
      -650.9456      -1003.174      -887.8419      -595.2581      -665.1272
      -834.6433      -492.6978      -586.5911      -924.5432      -543.0654
      -224.9952      -256.5967      -222.4625      -334.4468      -554.7164
      -477.5007      -230.1669      -148.9390      -360.4243      -639.4751
      -788.3716      -487.3060      -145.5239      -231.4855      -447.1722
      -304.7494       58.58948       236.6530       117.9808      -150.9835
      -165.3297      -44.00744      -41.50502       6.603699      -82.05389
       12.75221       136.9287      -207.2193      -214.3102       115.0084
       242.3021       241.4073      -99.25879      -146.5909       371.3301
       483.0803       269.3126       417.2189       390.7726      -1.999390
      -169.0235       32.76814      -57.01660       211.2158       893.1188
       497.0982      -49.31274       340.9390       917.5408       1019.268
       562.9810       306.7123       25.30566       264.7771       1222.936
       1007.658       193.6562       264.8000       436.5410       617.8120
       890.6035       1073.031       854.7532       427.1233       604.4644
       878.8745       842.1311       937.2533       762.4553       428.6129
       616.2333       511.4185       474.1724       1294.599       1244.062
       881.6284       1082.034       957.2100       633.7244       385.7180
       688.7139       1071.746       648.9402       336.9692       541.3833
       733.2024       722.4802       542.9956       560.5806       774.3433
       719.7729       754.5720       835.7965       670.6983       328.7037
       161.1099       674.6638       994.2870       459.4122       122.7178
       302.0989       460.2913       294.6998       227.0020       374.8972
       270.3290       173.9443       376.8286       388.9669       364.6301
       305.3096       121.7708       42.88428       275.3207       521.7779
       192.4138      -224.8671      -67.18311       278.5920       180.2831
      -258.2235      -52.36600       189.6149       28.67957      -126.9698
      -200.3139       79.25793       139.4165      -380.2340      -556.9003
      -204.0005      -172.9536      -322.1060      -97.83386      -180.9840
      -454.3645      -487.8593      -596.6754      -543.9142      -71.28472
       36.04541      -183.0603      -368.8337      -500.4885      -418.5264
      -448.6885      -318.3838      -187.7109      -858.8379      -980.1022
      -223.2159       60.22302      -176.4282      -492.2468      -760.0044
      -683.5676      -257.2729      -247.2305      -729.8511      -842.5591
      -959.3265      -769.0582      -124.5478       38.44495      -305.1052
      -517.6045      -648.6000      -629.1836      -356.4521      -626.4438
      -978.1305      -454.6101      -212.2515      -612.4382      -722.2123
      -361.6300      -302.6152      -633.8699      -884.0466      -764.0251
      -700.4238      -944.9052      -771.3199      -417.7556      -311.0869
      -11.92175      -132.8535      -390.5587      -209.3158      -371.3181
      -1020.909      -929.7576      -561.7329      -535.0767      -400.2169
      -540.9316      -915.4379      -558.6479       71.92480      -201.4167
      -511.2476      -330.5883      -439.4203      -250.6841      -14.83936
      -229.8857      -475.5146      -560.6328      -249.6110       262.7437
       34.46823      -189.0501      -116.7628      -73.18411      -60.33624
      -282.6358       11.07385       134.3374      -791.9065      -869.6143
      -203.4329      -9.226807       350.5752       736.8428       935.1152
       895.6834       6.134399      -531.1616      -896.2334      -2158.769
      -3328.606      -3690.534      -2686.437      -528.4253       685.6289
       2025.191       5284.633       6904.826       6975.045       8753.820
       6492.921      -951.2539      -8972.846      -11893.02      -5254.682
       679.5880       545.0283      -259.1621       1290.214       546.7227
      -3646.826      -227.5586       5859.787       3521.091      -1665.708
      -1181.618       2236.523       992.8218      -597.3467       3430.900
       4768.377      -2138.933      -5573.929      -810.8527       899.5406
      -631.6655       918.8744       1402.720      -946.0607      -1134.320
       319.9941       820.5581       936.4604      -672.2734      -1589.898
       2193.927       3722.675       973.8972       659.3926      -1187.091
      -4853.950      -3311.276       1625.367       3996.041       1462.069
      -88.21436      -354.2417      -1522.702       591.6873       1098.996
      -1063.562       1112.914       2794.844      -814.8047      -3218.151
      -1171.502       946.0635       615.3950       908.9021       1080.083
      -1309.783      -2538.949       8.181152       2705.516       1397.963
      -1411.814      -1609.882       242.8865       623.6519      -345.9462
       39.12549       1132.966       713.9912      -892.6321      -1440.274
      -99.10828       712.8688      -119.1986      -39.27008       78.28540
      -1087.744      -34.04150       2513.986       2044.962      -265.3608
      -1101.447      -654.8779      -51.17212       442.5338       574.4445
      -119.3035      -699.1580      -907.6738      -1008.631      -194.1237
       459.0479       121.6724      -148.1968       315.4126       995.6133
       685.9180      -293.1556      -97.03296       1339.406       1477.436
      -325.1152      -1371.980      -429.9822       960.8507       164.8196
      -973.3771      0.6678467       190.5486       307.0287       778.2920
      -201.6366      -580.8153       350.1434       640.3553      -414.1196
      -547.7013       698.2714       777.5826       314.6082       216.0758
      -455.4380      -320.0100       1204.400       1287.569       190.3679
      -204.7690      -736.6414      -814.0297       121.5814       629.4495
       318.4515       134.8318       237.8762       326.6819      -132.0950
      -515.5405      -315.6272       478.9434       737.1311      -1002.907
      -1281.445      -53.75293      -793.2991      -1053.822       638.3130
       1533.801       721.8247      -40.97803       660.6759       957.8531
      -96.55325      -207.0366       518.2719       349.8589      -620.4645
      -470.2107       209.3385      -74.42816      -309.1886      -386.6152
      -490.2385      -495.6348      -257.2001      -403.3038      -496.6875
      -151.4738      -167.4875       518.6230       900.0392      -52.89622
      -194.0334       238.6453       63.90446      -28.04126      -188.9146
      -865.8375      -402.4348       1440.161       1377.422       337.7506
       527.5123       2.859863      -903.7370      -235.6711       129.6895
      -562.4654      -504.9210       133.7647       272.2402      -825.4580
      -859.9128       1041.896       837.9441      -946.3096      -557.3022
       400.8564      -57.15280      -63.84729       446.3187      -12.93152
      -572.1065      -53.57367       473.2089      -59.98755       141.7466
       1022.693       788.1742       133.0630      -93.64264      -125.2102
      -149.0002      -51.24759      -255.6948       10.23352       429.2424
       73.65454       209.0959       775.0984       660.3228      -260.0541
      -574.9518       282.5696       122.7201      -515.1162       227.1372
       617.3035      -374.6250      -730.2655       266.6235       813.3549
       582.4492       577.1149       283.1033      -406.4017      -722.3777
      -478.1960      -430.9141      -920.4176      -316.8796       898.9572
       787.1072       408.0000       456.3647       417.4912       168.2189
       122.1278       48.86023      -586.3094      -175.3981       670.9578
       303.5739      -304.3413      -655.1617      -84.22742       503.4830
       219.6635       148.0161      -608.0015      -1237.528      -300.5442
       371.1292       26.60191       72.87488       2.477295      -961.7083
      -931.9881       135.9885       362.4275      -330.3761      -465.9321
      -223.9131      -217.9226       158.6980       50.59326      -175.8916
      -211.6174      -758.7883      -1046.660      -663.9659      -104.1298
      -130.5996      -588.9268      -816.0779      -374.5569       75.00010
       40.69748      -50.95154      -304.8528      -571.9645      -548.2615
      -401.5574      -412.0046      -417.7723      -488.2363      -769.8152
      -778.3623      -536.6267      -445.1731      -223.6026      -167.5432
      -330.6266      -337.4614      -394.6694      -326.4453      -738.9707
      -1561.504      -1142.782      -35.52295      -41.61102      -307.2567
      -46.35461       47.52777       228.5546       402.6387       304.6823
      -166.2614      -482.3331       152.0626       478.9280      -107.3833
      -695.9258      -1220.754      -1336.374      -711.6495      -153.1858
      -298.4878      -689.4415      -293.4802       262.7809      -19.42639
       107.6870       716.2771       771.8242       455.1919       158.8114
      -160.4283      -579.6434      -127.2729       694.0782       423.1500
       66.11932      -78.28308      -539.1753      -555.6547       17.97534
       439.3501       340.5983      -246.7777      -757.6309       50.70312
       1448.062       1489.002       817.2432       386.2684      -204.3787
      -123.3796       611.3745       697.9648       479.0842       416.0957
