     0.02500000      -6780.130       9350.458      -12345.00      -12345.00
      -30.00505       214.7199      -15.98000      -12345.00      -12345.00
       0.000000       12.11000      -12345.00      -12345.00      -12345.00
      -12345.00      -12345.00      -12345.00      -12345.00      -12345.00
      -12345.00      -12345.00      -12345.00      -12345.00      -12345.00
      -12345.00      -12345.00      -12345.00      -12345.00      -12345.00
      -12345.00      -31.28310      -69.41950       1383.000       0.000000
      -31.24600      -68.98500       0.000000       102400.0       0.000000
      -12345.00      -12345.00      -12345.00      -12345.00      -12345.00
      -12345.00      -12345.00      -12345.00      -12345.00      -12345.00
       41.58582       264.2112       84.43562      0.3739060      -12345.00
      -12345.00     -0.3333550       90.00000       90.00000      -12345.00
      -12345.00      -12345.00      -12345.00      -12345.00      -12345.00
      -12345.00      -12345.00      -12345.00      -12345.00      -12345.00
      2008        16        21        17        52
       680         6    -12345    -12345      9790
    -12345    -12345    -12345    -12345    -12345
         1         7        13    -12345    -12345
    -12345    -12345    -12345    -12345    -12345
    -12345    -12345    -12345    -12345    -12345
    -12345    -12345    -12345    -12345    -12345
         1         1         1         1         1
CALI    -12345          
        -12345  -12345  
-12345  -12345  -12345  
-12345  -12345  -12345  
-12345  -12345  -12345  
-12345  -12345  -12345  
-12345  -12345  BHE     
ZL      -12345  -12345  
[...]
       347.1964       339.0698       334.3239       339.5532       339.0671
       343.4266       341.0970       338.7023       334.1910       323.2480
       316.5042       318.8920       320.9170       321.7531       310.9312
       298.6896       298.7777       283.1516       279.0536       281.4253
       257.0266       236.9130       231.5960       226.3364       218.2648
       205.9698       195.0993       170.6501       152.6338       138.8045
       109.9983       86.41107       71.63988       60.39719       35.29642
       16.66459     -0.5554199      -20.66605      -43.53302      -66.00745
      -81.78302      -110.1472      -143.2434      -161.1962      -174.8917
      -194.8506      -213.7405      -233.3222      -255.1077      -271.8344
      -282.4404      -286.0506      -309.8407      -313.7483      -331.3676
      -352.7134      -355.4939      -363.1230      -379.2312      -370.7938
      -384.0294      -384.6177      -370.9724      -386.0205      -392.4866
      -375.4630      -371.8406      -371.8123      -378.4833      -381.0009
      -370.2856      -347.0042      -348.4519      -346.1984      -334.2732
      -324.4474      -325.7661      -325.6476      -305.6119      -299.6162
      -300.4427      -288.5288      -276.8607      -252.3451      -253.2664
      -251.1981      -227.0109      -229.4857      -218.2479      -198.9961
      -209.0374      -184.3057      -165.5304      -161.1650      -132.0139
      -115.2681      -84.85550      -63.15178      -52.38353      -30.97136
      -23.32781      -17.13931      -2.861267       12.34097       19.70584
       31.71481       58.19409       78.10916       88.77222       95.68945
       94.26010       110.3285       128.1402       124.8695       129.9301
       126.5413       114.1667       116.7618       121.2920       118.7766
       119.5632       128.9650       134.2177       125.9576       128.5974
       130.0899       110.5615       99.01703       108.9502       93.54294
       82.58415       85.58163       71.23062       74.24872       77.28268
       59.86320       65.35451       77.52594       67.09256       44.99777
       34.93681       57.80280       66.46488       45.43538       36.73837
       54.57140       46.16439       13.37090      -1.196419      -11.40142
      -25.40874      -23.85707      -22.61981      -38.68312      -66.26883
      -69.12854      -53.26852      -68.13403      -97.21371      -125.3247
      -139.8677      -143.9324      -132.5178      -140.7597      -187.2128
      -200.5247      -174.6725      -184.2631      -206.9808      -195.0383
      -175.7338      -221.6368      -245.4048      -226.5583      -245.5449
      -257.4072      -246.6441      -247.8730      -269.6223      -287.1994
      -252.5570      -241.2853      -289.8487      -301.5370      -260.1153
      -271.5731      -305.3049      -293.8564      -294.2316      -326.3472
      -329.8942      -334.0792      -342.3771      -334.8191      -341.9924
      -346.3573      -363.0455      -363.1125      -345.4092      -363.6096
      -402.2155      -378.9083      -368.1853      -392.0586      -403.5007
      -395.6952      -397.2405      -404.1597      -392.4517      -404.3552
      -416.7073      -401.9540      -410.8337      -416.0029      -417.3859
      -407.1459      -405.6228      -390.4602      -374.6249      -371.7319
      -354.7485      -339.9380      -349.8368      -328.9861      -304.7516
      -283.4196      -241.8936      -214.6760      -212.0467      -178.9192
      -144.2867      -127.6007      -94.65268      -57.77042      -35.17762
      0.8111115       26.38815       54.77292       82.72644       102.2207
       139.8584       160.8212       186.1930       235.7899       244.8594
       278.3877       300.9946       299.3367       323.4232       359.1910
       348.9124       373.5599       429.5350       425.9761       429.8816
       464.7712       447.2620       428.3145       449.3400       465.1989
       452.8779       497.1265       520.8311       497.0502       502.1577
       544.5645       530.0328       516.9219       536.8630       505.5999
       484.0123       532.3406       555.8196       531.7123       488.9729
       498.7405       509.1753       488.5603       468.1329       473.6267
       471.8081       453.6592       468.0564       486.7965       466.9990
       430.3959       427.0787       471.8243       458.8213       421.0641
       410.2389       436.3970       427.4292       386.6316       391.8145
       397.2383       413.7675       424.8126       397.8745       415.1134
       387.6775       379.3390       414.2927       411.2147       396.4972
       387.6696       388.4349       389.3970       363.1989       391.7119
       401.2247       369.2567       354.5779       357.9919       346.8475
       339.4576       331.4504       330.8102       301.8225       289.3647
       276.5032       255.0670       224.7250       214.3051       199.5408
       200.9094       184.9548       171.7859       160.2899       147.6170
       134.6736       133.0034       229.4604       609.0010       907.2607
       685.7108       316.9035      -211.8198      -544.8622      -549.6318
      -917.0353      -749.1416       163.6584       559.4780      -711.0016
      -1068.377       503.2713       341.1880      -242.5754      -276.5955
      -1069.925      -21.08362       587.4780      -1579.220      -670.1829
       1470.267      -20.06958      -921.4824      -487.5720      -399.0994
      -413.3647      -379.5371      -72.31714      -791.8123      -1044.474
      -308.6684       210.2259       162.9219      -510.9531      -74.51379
      -125.9541      -1021.160      -721.4647      -349.6233      -283.3608
      -262.3921      -986.5018      -750.0674       531.0090      -13.28845
      -683.6552      -2.755493      -378.6213      -883.2413      -427.2208
      -112.2155      -108.7898      -651.7332      -726.2733       107.9950
       58.49524      -306.9666      -310.3037      -443.4861      -500.8257
      -219.0647       460.3434       491.7910      -444.4976      -991.0535
      -120.0200       775.9214       253.6555      -829.6970      -854.0065
      -222.5583      -369.5043       207.4742       611.6232      -278.4970
      -292.1160      -121.2303      -247.9765       267.3208      -88.19202
      -486.0068       52.96466      -197.8904      -553.4523      -177.5598
       84.30408      -74.69897      -414.1848      -496.7792      -608.2866
      -141.7874       643.8083      -26.83313      -691.5361       118.5895
       17.16211      -851.5071      -470.0345       182.5130       192.0361
       49.89978      -130.2579      -138.9400      -135.7975      -180.8735
      -164.1201      -340.8505      -472.2496      -59.66599       76.55225
      -433.6257      -463.4433      -202.2623       395.1986       604.4553
      -155.4879      -461.0620      -172.1996       21.83147      -101.0602
       125.7822       278.5687      -77.25720       236.9200       339.6477
      -192.9339       19.24731       334.8740       185.0576      -206.5157
      -10.86572       916.8010       1099.339       660.1135       322.8625
       163.0925       449.3101       448.8872      -119.3351      0.5065918
       661.2137       631.0616       371.5887       236.9243       348.9883
       980.8696       881.8955       502.4180       763.9045       722.2759
       774.3130       720.1801       295.7036       274.9622       457.0093
       815.8491       1027.110       575.9965       38.15576       271.3862
       885.8469       834.4861       459.1528       510.9316       748.6079
       858.2831       540.7117       238.3384       723.5254       814.1424
       242.9280       228.8523       574.8267       502.9873       435.2518
       529.5647       344.9559       365.2883       698.1526       609.7679
       479.5745       465.9659       321.2026       370.5373       117.2314
       51.56750       578.2994       294.0005       75.80347       688.8671
       478.4338      -72.32983       262.0255       296.9232      -311.1271
      -209.1662       268.4041       83.09627      -8.548340       194.3828
      -96.54263      -197.6310       237.6899       209.1762       90.71823
       147.0456      -17.92688      -216.3044      -405.0198      -363.8703
      -112.7393      -187.4631      -382.7615      -256.4108      -260.0045
      -657.0674      -325.6094       282.5159      -225.6475      -804.4850
      -502.9636      -244.8153      -428.4362      -420.0190      -118.5588
      -219.4627      -340.3285       17.61310      -46.23450      -606.5737
      -524.2668      -342.4141      -524.3364      -557.7269      -505.3494
      -461.8794      -478.3921      -360.3334      -261.0284      -532.4849
      -719.8013      -620.9456      -476.2102      -307.0317      -286.8500
      -519.4148      -433.0740      -503.9034      -597.1833      -105.4822
      -267.2014      -734.9875      -442.6228      -286.1211      -655.1990
      -751.6760      -517.9578      -502.9890      -229.3141      -191.2000
      -576.4291      -461.6110      -341.6615      -240.6481      -243.9656
      -558.6025      -418.5217      -605.0776      -918.7642      -339.5532
      -88.05933      -428.1373      -257.0955      -182.7668      -414.2631
      -351.6684      -79.63556       210.6267       65.04413      -295.7488
      -426.9832      -376.4166      -260.2205      -158.0461       30.81741
       49.67493      -215.4543      -124.0165       135.5487      -52.89764
      -252.5197      -71.26379       392.0092       267.4197      -216.7176
      -268.8203      -212.3066       145.1936       339.4948      -23.09913
      -33.84152       167.1705       9.709900       45.48962       681.9783
       645.2955      -471.7845      -327.8621       621.4458       418.0311
       386.5763       266.5612      -220.5078       177.1339       503.9482
      -51.01004      -150.0610       425.9774       164.8606       144.7002
       750.0127       425.4646       313.7729       849.7092       696.5187
       93.81946       405.6622       651.9597      -52.67749       152.5677
       643.4963       454.2421       540.4358       561.9253       748.5781
       1062.896       694.5149       406.5054       573.3342       205.8862
       119.1868       830.0674       740.5696       277.6982       540.3022
       686.3208       602.6870       897.4463       904.2429       590.5203
       609.0999       787.3275       626.7191       259.7666       433.9037
       613.8550       382.5615       802.1035       1051.476       199.0063
       397.3110       773.2933       163.1979       246.7379       428.3189
       243.3145       328.3584       243.1066       122.3281       381.0834
       341.7419       201.3242       290.0462       183.3157       392.5743
       389.2797      -276.3326      -228.9509       241.5203      -283.7663
      -370.5140       421.8837       89.98932      -477.5402      -27.38940
       134.3909      -284.8281      -285.1220      -43.63550      -383.6034
      -605.2086      -427.5332      -524.2115      -428.7449      -279.4699
      -353.1498      -258.7708      -352.1663      -570.3060      -615.6768
      -534.5356      -303.5579      -372.7866      -825.5996      -1050.257
      -653.0575      -244.1487      -545.6658      -660.9427      -583.3542
      -700.0510      -851.9351      -907.3330      -662.7769      -586.0359
      -908.8740      -1084.332      -911.9080      -985.9180      -917.0474
      -563.3640      -704.6062      -777.7390      -689.1849      -656.9429
      -693.1890      -1032.229      -1013.625      -736.8555      -1340.438
      -1975.963      -1066.315      -352.2334      -674.0676      -688.3521
      -650.4194      -1198.614      -1600.324      -1238.972      -733.8862
      -714.9517      -1125.342      -1082.314      -884.4021      -961.9707
      -799.9971      -681.3901      -903.8940      -1081.642      -900.7776
      -875.2539      -945.6516      -645.7107      -550.9993      -1064.824
      -1256.883      -444.2158      -249.5962      -1023.447      -685.3492
      -44.01758      -555.0515      -628.3503      -300.8569      -818.5486
      -811.4370      -497.9768      -1135.627      -1123.508      -368.7801
      -335.1299      -92.92041       586.3540       353.2109      -356.0802
      -468.1438      -143.6960      -321.9941      -671.8145      -947.0166
      -2138.670      -2690.797      -2874.759      -3972.143      -3857.772
      -1826.934       1710.908       5024.113       6022.822       6384.967
       6780.205       5156.802      -720.7617      -5543.902      -1195.638
       2800.079       1976.141       6354.673       4825.955      -6780.130
      -6547.088      -246.8467      -4777.115      -6321.213       4565.365
       9350.458       1613.240      -1004.214       2342.233       2267.056
       117.5963      -477.5967       1952.065       3391.261       2020.426
       1474.022       554.7524      -1115.074      -378.5680       591.0769
       49.47559       1071.054       2228.795       1210.911       1200.051
       3130.791       2581.952      -1017.388      -743.6758       1740.274
       234.3118      -1274.484      -494.0320       674.7539       1793.256
       1671.913       881.1978       899.6031      -54.64014      -727.1217
       375.9321       581.5205       1301.798       1896.069       938.8374
       1163.282       1025.734       141.9961      -375.5623      -1430.498
      -776.2759       1260.542       2121.686       2177.440       1022.650
      -867.4298      -986.2811      -8.119629      -412.3156      -253.0206
       91.42297      -158.1650       1683.060       2062.868       859.1465
       127.0674      -1201.908      -327.1195       449.1763      -1007.401
      -897.0049       649.0901       985.2437       671.6970       156.6226
      -889.5292      -769.6357       425.5200       1101.369       1559.748
       1149.547      -396.2831      -428.5389      -33.41870      -640.7812
      -841.4421      -487.6895      -573.2302      -908.6216      -503.1409
      -260.4402      -90.75525       293.2523       181.9904      -408.1479
      -29.57776       604.4307      -628.8019      -895.9006      -233.4443
      -607.8169      -707.1462      -365.7437       805.3562       1534.480
       435.5696      -458.1776      -341.3633      -842.6892      -264.3945
       847.4196      -191.6656      -474.4974       102.7291      -328.3940
      -1113.666      -1121.022      -659.7617      -1530.530      -2180.681
      -1241.870      -370.8813       511.9969       740.6627      -12.44214
       612.4810       1381.799       1437.287       1490.501       458.6328
       221.3190       257.7140      -478.7759      -377.7949      -1052.026
      -949.2220       9.137695      -834.8998      -660.3137       862.5430
       764.0760      -218.6545      -482.9513      -213.6475      -453.7393
      -635.3667       573.9963       470.6118      -734.5737       457.9517
       1223.906       433.8691       646.6597       965.2054       545.3430
      -134.5978      -232.7419      -276.0139      -335.4792       110.2786
      -455.8979      -371.0166       771.2976       431.8789       259.3811
       753.6135       22.04083      -480.7455       520.3372       923.5245
       179.0720      -749.5994      -1025.920      -162.1382      -17.62555
      -306.9001       777.4453       1047.072       26.16418      -21.77228
       329.5263       200.4932      -105.7639      -367.1440       358.7808
       896.2283       458.9532       404.9880      -6.944336      -815.1289
      -917.2222      -978.0461      -800.1013      -404.8683      -601.2818
      -215.0757       220.8184      -21.41226       55.13898       314.2707
       192.6277      -604.6340      -780.7061       105.7557      -45.01477
      -839.8181       18.98828       1132.953       361.5410      -567.2562
      -77.47913       279.7449      -648.5859      -1391.545      -1053.168
      -513.4990      -288.6160      -734.5222      -1048.810      -642.9739
      -426.8923      -288.0625       426.3461       82.63086      -977.2743
      -735.4988       61.76520       471.7534      -558.2163      -1531.057
      -1047.501      -715.1589      -365.6998       205.3712       650.4094
       393.1855      -558.3667      -554.7407      -478.7712      -1002.115
      -943.3364      -158.0308       72.08990      -273.5081      -119.3010
      -29.80493      -424.2218      -474.9979      -92.16211      -309.3557
      -545.9072      -185.6942      -362.0857      -1150.154      -871.0095
      -312.0891      -490.4383      -296.6080      -325.2310      -142.5956
       305.0920      -658.2482      -1124.643       385.2308       272.0481
      -1156.825      -1047.111      -342.1482       167.7874       14.55942
      -71.72816       143.2408      -157.4504      -60.18213       360.7836
       183.7765      -218.7382      -141.5208       426.2963       533.8964
      -205.4912      -414.4811      -224.8304      -177.4426      -159.0414
       135.8014       697.6832       508.4827       752.2495       1145.549
       367.4829      -291.7591      -338.1841      -235.6737      -145.5331
       252.2402       825.2725       919.0781       851.2249       1050.009
       934.0012       814.8553       734.2983       459.1676       375.8782
       281.6941       303.4932       420.2131       465.4360       582.7808
       937.1696       925.5604      -13.05310      -100.0066       1144.063
       1254.630       558.4985       1080.171       1421.613       362.0677
       228.9480       991.7440       314.3983      -309.8528       246.7234
       619.0090       797.4961       552.5981       385.6255       1100.820
       669.0848      -186.9365       497.6357       1322.398       1337.821
       825.1780       577.6456       554.0001       596.1681       469.8980
      -179.9858       119.1919       824.6743       450.8936       260.3279
       656.2372       316.2000       262.7216       701.1302       191.7192
       54.92419       618.3569       465.1627       236.3721       329.4508
       262.3802       181.9680       282.6326       396.9994       324.7548
       160.3708       266.0918       520.9072       478.0181       151.8680
       164.2367       641.5730       761.2049       348.2509       157.2321
