     0.02500000      -5145.503       6376.960      -12345.00      -12345.00
      -29.99503       215.9049      -17.37000      -12345.00      -12345.00
       0.000000       13.03000      -12345.00      -12345.00      -12345.00
      -12345.00      -12345.00      -12345.00      -12345.00      -12345.00
      -12345.00      -12345.00      -12345.00      -12345.00      -12345.00
      -12345.00      -12345.00      -12345.00      -12345.00      -12345.00
      -12345.00      -31.20700      -69.62850       2369.000       0.000000
      -31.24600      -68.98500       0.000000       102400.0       0.000000
      -12345.00      -12345.00      -12345.00      -12345.00      -12345.00
      -12345.00      -12345.00      -12345.00      -12345.00      -12345.00
       61.46380       273.8681       94.20006      0.5526316      -12345.00
      -12345.00   -0.002084256       0.000000       0.000000      -12345.00
      -12345.00      -12345.00      -12345.00      -12345.00      -12345.00
      -12345.00      -12345.00      -12345.00      -12345.00      -12345.00
      2008        16        21        17        54
        70         6    -12345    -12345      9837
    -12345    -12345    -12345    -12345    -12345
         1         7        13    -12345    -12345
    -12345    -12345    -12345    -12345    -12345
    -12345    -12345    -12345    -12345    -12345
    -12345    -12345    -12345    -12345    -12345
         1         1         1         1         1
CASP    -12345          
        -12345  -12345  
-12345  -12345  -12345  
-12345  -12345  -12345  
-12345  -12345  -12345  
-12345  -12345  -12345  
-12345  -12345  BHZ     
ZL      -12345  -12345  
[...]
      -109.9354      -102.1347      -95.85876      -85.59691      -78.63953
      -66.12886      -60.40820      -53.51207      -47.47970      -34.44681
      -29.91686      -22.39952      -13.58182      -5.231654    -0.03950500
       9.163284       16.38370       27.25446       29.23214       32.96652
       36.25921       40.51114       44.38757       50.21854       53.64453
       59.18582       60.75549       61.03040       60.19739       65.09247
       65.85779       66.86789       67.27005       72.73141       71.99347
       76.89017       75.75383       78.18924       78.01895       79.18384
       73.45447       78.92041       79.61369       81.93692       77.08743
       82.08075       81.26924       84.52173       83.49438       88.93341
       89.96033       97.03247       93.62729       101.9872       101.4727
       105.3214       106.5864       113.0122       112.5022       115.5001
       112.5642       119.7903       116.6119       117.9879       116.5316
       122.6296       119.0277       123.4926       118.7548       122.6706
       120.3718       120.7952       118.9381       125.9237       119.3451
       127.3377       130.5385       134.5582       134.7959       142.4243
       144.2565       151.6600       153.1187       162.0566       160.4590
       163.6939       163.1235       170.6856       172.6688       183.3334
       184.4998       195.7614       198.6954       208.0479       206.7673
       210.5706       208.6744       215.8096       213.0762       216.2255
       211.0167       216.4584       210.7689       207.8752       201.7429
       203.5027       194.4321       192.1634       185.4965       183.4389
       171.6594       162.6444       150.4324       146.7570       130.9528
       125.4825       113.9681       101.5207       87.89134       81.02632
       62.98245       55.56841       44.44717       33.55056       19.36201
       9.172432      -5.608635      -16.60551      -29.06474      -37.47360
      -48.51085      -54.82390      -63.60864      -75.02197      -88.80688
      -95.35733      -102.2331      -108.7669      -118.8071      -129.1073
      -140.5405      -145.3272      -154.7044      -161.2946      -169.9717
      -180.3423      -191.8517      -196.8285      -206.2050      -216.1425
      -222.9023      -226.2136      -230.2197      -240.0150      -248.8689
      -251.6387      -259.2690      -267.6281      -271.1045      -276.1009
      -284.3655      -288.3711      -293.7338      -300.6190      -309.7003
      -315.1978      -318.8778      -325.1463      -332.4998      -337.6465
      -345.1771      -355.1766      -365.2361      -372.0524      -379.4817
      -386.1475      -391.9369      -397.4354      -404.8083      -411.3269
      -415.8125      -419.1041      -420.4902      -422.6643      -427.3346
      -430.1169      -428.1765      -426.1874      -426.7554      -420.1515
      -417.3000      -417.0920      -414.0277      -405.6653      -404.0975
      -393.4507      -390.0879      -383.9973      -374.8898      -359.0900
      -346.7231      -329.5813      -318.0374      -299.5374      -285.2870
      -270.4299      -253.0608      -231.0027      -212.2465      -186.4299
      -161.8666      -139.0298      -116.1558      -92.80968      -66.59345
      -39.20480      -19.61285       5.690887       31.00935       52.81473
       79.60455       104.0262       129.2323       154.5431       176.8731
       199.4564       224.6100       246.2477       271.0823       291.8726
       308.7405       329.7480       351.3931       364.0701       379.5021
       392.8904       405.8069       422.4761       435.5652       442.4536
       457.4695       471.9297       483.3046       492.4198       502.7849
       512.1050       520.1833       525.3328       535.5500       546.6401
       555.6790       558.0364       566.6653       574.2876       581.1792
       582.4072       588.9731       592.2280       595.4551       597.0869
       603.3707       600.3911       601.6353       598.9235       599.5381
       596.6721       596.3230       589.5266       587.7117       580.0107
       574.3253       564.7700       560.6650       553.1144       549.1514
       537.9709       533.7747       523.7930       518.5117       505.7224
       495.2609       480.6720       468.0919       454.6914       445.7107
       428.2029       409.1616       391.0406       374.7749       351.1946
       330.1536       306.1013       286.1760       265.5667       243.7223
       216.8792       192.5857       166.8277       141.9748       117.7024
       96.91473       66.47716       39.07380       9.030403      -15.50883
      -40.27213      -62.14233      -89.98199      -115.2975      -140.1089
      -160.9594      -189.0068      -211.3521      -233.1561      -253.5204
      -275.0585      -295.3448      -316.3755      -333.2217      -351.5283
      -364.8989      -379.7749      -398.5840      -410.7264      -421.2705
      -437.3848      -448.6702      -460.1625      -470.2520      -475.2554
      -486.4639      -493.4692      -496.1825      -506.9578      -512.3992
      -515.9243      -518.7028      -524.4502      -523.0059      -523.4871
      -521.9229      -521.5704      -514.6013      -512.0691      -503.6827
      -499.9835      -486.8910      -478.7471      -468.2952      -460.4073
      -441.1287      -427.1681      -407.8462      -395.8264      -375.2742
      -358.7443      -337.6798      -324.5662      -300.0674      -283.4199
      -262.6633      -247.7744      -221.3428      -199.0464      -174.2128
      -161.2807      -139.5636      -124.7664      -99.66193      -80.50845
      -53.87695      -34.77406      -7.321072       12.02161       32.17456
       48.04549       70.09854       87.36740       109.7941       123.7236
       140.9100       150.8396       164.1068       176.3907       194.5830
       201.8365       209.5151       212.6051       222.0317       224.2972
       228.9613       229.1544       232.4499       226.6897       230.1489
       230.0692       228.6289       224.4296       223.5585       213.8907
       212.1008       206.3887       197.2969       191.5209       189.8227
       182.4445       180.4820       169.0514       163.8430       156.2094
       145.9926       130.5861       123.0415       109.8222       98.55817
       88.37413       80.84694       68.28294       58.39743       46.74079
       39.77325       26.81892       16.74307       6.335604      -3.000790
      -15.12730      -22.45760      -34.70775      -42.35527      -53.14723
      -63.53336      -74.41217      -82.49677      -96.86688      -103.8545
      -114.6917      -125.9428      -134.9843      -141.8896      -152.1805
      -158.7178      -171.0994      -182.4304      -194.1912      -201.5762
      -210.8879      -219.1624      -229.4581      -237.0790      -248.9792
      -248.5322      -252.4390      -260.3523      -266.7379      -272.2440
      -278.9574      -275.8232      -276.7184      -283.2571      -288.7750
      -280.2440      -275.4178      -275.4608      -272.3331      -260.8866
      -266.7417      -251.5452      -247.6801      -243.0569      -233.2271
      -227.5087      -224.9848      -206.3439      -200.2527      -192.9052
      -181.7628      -175.2355      -166.8982      -151.1405      -142.2850
      -129.9285      -128.6862      -110.4151      -94.08160      -90.40204
      -89.20453      -65.81036      -59.73610      -55.61446      -43.93697
      -29.67822      -21.43100      -12.38208      -7.824394       8.869812
       11.40137       20.07106       31.18718       36.11499       40.22218
       52.83159       62.95236       72.33963       79.41882       84.43756
       94.95972       99.03665       100.5507       105.5025       114.7324
       118.4766       125.5288       128.5591       131.7897       137.8632
       139.8067       140.3936       152.1373       160.4061       164.0411
       168.6169       178.7920       187.4677       189.5006       196.9134
       208.0874       215.3233       225.6895       233.1880       239.0932
       248.7440       256.1163       265.9143       278.7528       282.5958
       288.0676       301.4523       308.4347       308.8138       317.5834
       326.9202       328.5265       329.7144       339.3959       339.2693
       341.8879       343.0930       346.4959       341.2277       340.7982
       339.7405       344.2928       332.7438       332.7197       333.4136
       329.0388       326.0811       336.5107       327.0897       311.5714
       310.7727       316.0850       303.9404       296.2817       290.8619
       283.6420       274.6794       274.4893       261.2727       252.1075
       243.9373       238.8899       229.7612       219.8604       207.0903
       207.3838       193.4688       179.5182       171.6226       165.4897
       151.0640       145.3708       129.1174       112.0196       96.43243
       87.27531       71.24818       56.34641       43.25214       40.21754
       22.50837       7.749962      -5.730942      -12.69502      -32.58452
      -49.19339      -62.94765      -70.89124      -92.95792      -106.7075
      -119.6938      -130.6877      -153.5793      -163.5498      -178.4496
      -189.7300      -209.7194      -220.4732      -236.7010      -248.0266
      -263.4185      -263.9021      -276.5322      -287.7932      -295.8514
      -299.6587      -310.4089      -315.9346      -323.8185      -324.3933
      -331.2338      -336.3604      -343.4702      -347.7517      -356.8215
      -358.7037      -366.1265      -368.0338      -375.2947      -375.8350
      -381.3929      -378.1204      -382.6257      -383.5669      -385.3335
      -382.6165      -385.9912      -387.1477      -394.5454      -390.6569
      -394.3408      -394.3423      -395.8668      -392.9316      -397.1721
      -394.4692      -394.7866      -390.3751      -396.3340      -392.8177
      -392.7080      -382.6643      -382.5596      -377.6841      -376.9531
      -368.0488      -365.6462      -354.5706      -349.8767      -340.5886
      -331.7004      -316.3450      -314.7347      -300.8478      -288.5133
      -278.5123      -269.2048      -249.6375      -236.8080      -226.5200
      -217.2711      -197.9114      -186.2643      -173.7897      -159.9346
      -144.6207      -132.5770      -117.6364      -104.8540      -88.26846
      -78.99849      -64.81570      -51.41226      -37.70221      -22.27719
      -7.027630       3.121891       13.74486       26.03891       37.13591
       47.25430       59.94762       70.55118       79.85104       91.67581
       102.0035       111.6711       121.1849       133.4317       147.4889
       158.0704       166.0643       178.4604       187.8527       195.8690
       206.3414       216.6338       227.4836       240.7059       250.1394
       263.6675       277.0723       286.6980       296.4103       307.8863
       318.9572       333.0354       343.0695       352.1416       364.2444
       376.5952       386.5195       397.4097       407.9783       417.2261
       430.1570       436.8748       445.4678       452.3540       459.9275
       463.7736       471.2115       475.2902       482.3243       485.2083
       492.0601       494.9663       502.0812       502.2382       502.6287
       499.3401       499.8810       496.8888       494.3318       486.7126
       485.1556       474.7810       465.3389       452.4510       445.5264
       435.2997       425.2939       410.6951       403.2017       385.2820
       370.7413       355.2471       342.4932       322.3470       312.0002
       292.4819       276.9629       254.9807       242.0112       222.3946
       205.1329       177.4061       160.1765       136.8268       120.9820
       95.34436       77.17334       52.88343       35.81314       9.994247
      -8.627731      -34.51230      -53.36029      -78.87128      -96.78741
      -122.0204      -138.2448      -160.9553      -175.0162      -193.1013
      -207.1822      -230.2070      -244.0741      -263.1606      -276.6290
      -290.6091      -298.7251      -312.7864      -321.8414      -331.5154
      -339.2723      -349.8348      -357.3560      -366.0463      -369.9614
      -379.3004      -383.1058      -385.6637      -389.9685      -396.2496
      -397.5844      -399.5555      -401.9934      -402.3362      -402.8427
      -404.8712      -405.7859      -406.4565      -403.4761      -400.7244
      -399.7717      -398.9559      -397.3754      -394.1837      -387.5282
      -387.2225      -384.2404      -381.0256      -375.7559      -368.0255
      -355.2350      -349.8638      -341.2023      -333.0455      -320.4771
      -309.7040      -296.3022      -288.5430      -273.6112      -264.5208
      -289.7986      -793.4478      -1898.859      -3403.355      -3647.860
      -244.9561       5074.332       6376.960       2593.899      -1812.808
      -3369.534       31.50830       1197.173      -1450.355      -198.5752
      -163.2563      -1984.104      -43.40405       471.6261       117.2605
       504.0625       385.4326       727.0962      -306.7014      -1450.380
      -195.0085       1491.975       1074.299       54.43433      -781.0497
      -179.3671       478.6774       650.8082       722.9479      -508.5690
      -129.7593       975.9189       944.9324       739.9896       56.98560
      -768.0874      -1045.566       390.6785       986.7570      -565.8154
      -592.1169       472.8486       2015.090       1616.754      -1119.178
      -619.0776       1047.307      -58.02438      -186.6855       402.6274
       642.9543       946.1866       449.9854       79.90253       38.73016
       309.5153       164.8824      -373.7823       9.399414       850.8062
       935.7808      -47.44461      -237.9671       369.9561      -186.0723
       225.4104       281.9515       183.8290       618.5685       504.7078
       432.3640       333.6172       1081.664       82.78894      -792.7947
      -111.0042       991.0491       571.4182      -1267.126       394.7773
       1301.984       419.8789       202.7726      -407.3438       495.5182
      -74.10938      -957.0593      -49.40967       589.5703       1619.140
       1080.118      -148.7505      -658.7566      -1192.241      -241.7017
       862.4768       413.3040       195.1890       515.2864       325.4227
      -169.6090      -478.2238      -558.5986      -330.0569       469.1187
       756.1597      -216.7905      -492.0519       234.4688      -8.983276
      -302.5831       223.2900       665.2708       616.0114      -213.7900
      -394.3215      -691.2891      -1116.348      -57.22729       918.4374
       519.5416      -720.0616      -236.6759       238.7725      -735.0061
      -763.3077      -9.580872       69.78357       237.3016       198.2926
      -158.0421       85.29410       169.6462      -418.5254      -1387.562
      -629.7098       199.5627      -281.0615       203.2433       226.6605
      -469.3307       192.7418       33.64246      -635.7212       146.9164
       456.9948      -441.1509      -1061.696      -410.0699      -120.9575
      -497.4834      -200.0045      -370.2029      -543.6084       594.9562
       477.6769      -831.5291      -281.8837       786.0667      -582.0608
      -1014.832       77.02661       136.7590      -462.6051      -776.7134
      -398.6951      -717.1776      -96.55713       713.4406       86.58557
      -431.5973      -531.2394      -291.9274      -313.4602      -44.62085
       131.8267      -501.0433      -475.3690      -358.7437      -444.9953
      -7.226624      -235.3832      -314.9623      -88.47571       219.3868
       274.4125      -340.1467      -512.9248      -400.3564      -260.3705
      -415.2632      -385.4487      -273.5691      -173.2373       47.31096
      -75.10474      -56.64374       383.5996       42.76343      -846.7665
      -654.6189       440.4061       169.2146      -326.5635       330.9341
      -184.2889      -369.1809      -179.8265       126.0418       354.5211
      -445.7028       184.8284       478.3577      -316.7606      -73.98273
       353.1219       285.5493      -149.2533      -252.3655       347.5545
       457.1496      -76.46387       52.39076       100.9767       29.26613
       40.91235      -315.9750       121.4838       145.4740       22.24036
      -46.04413      -377.4991       186.5045       458.1984      -26.80090
      -306.9460      -52.08704       166.1566       579.7725       218.9748
      -299.8455       143.2106      -17.75671      -84.01376      -168.5702
      -1.549316       388.4026       91.32812      -456.5117      -606.2850
       346.6862       209.5514      -518.6277      -438.5897      -79.29193
       323.0117      -34.99823       269.1978       106.1630      -123.9913
       92.26242      -334.4404       326.6781       496.7896      -49.01563
      -20.55484      -4.512833      -225.3005       195.2704       473.1420
      -238.2014       176.6373       369.0050      -290.5302      -158.9857
       40.68848       517.6747       738.7080       148.7014      -205.6759
      -43.65675      -9.045273      -156.8126       201.8005       523.3071
       932.9947       451.6886       62.17987       201.9230      -319.8412
       98.11694       529.5594       26.86862      -172.4814       420.2319
       617.7845      -208.8649      -490.4546       619.9115       905.7856
       55.93469       346.2800       392.4333       94.07593       603.0232
       491.6993      -327.2491      -93.26282       618.3922       708.6727
       76.42181      -483.8035       699.7197       1170.761      -48.64551
      -248.3806       568.0593       319.5757      -285.4397       341.3469
       415.0704       19.55688       343.5481       499.0334       602.3926
       976.0358       448.3578      -246.3394       6.717529       425.2532
       301.1288       24.28088       607.0194       767.8323      -83.86926
      -121.6781       564.2405       518.1135      -353.8239      -29.13733
       754.8486       331.6991       199.6360       653.7258       703.3518
      -469.0258      -785.9315       200.8743       260.0449       495.0378
       1131.817       717.3865      -884.4631      -1084.557       678.0209
       651.5626      -321.1984       110.0515       594.6071       142.9343
      -507.1464       362.0224       625.8254      -847.7428      -295.1864
