     0.02500000      -8048.098       11923.00      -12345.00      -12345.00
      -29.99503       215.9049      -17.37000      -12345.00      -12345.00
       0.000000       13.03000      -12345.00      -12345.00      -12345.00
      -12345.00      -12345.00      -12345.00      -12345.00      -12345.00
      -12345.00      -12345.00      -12345.00      -12345.00      -12345.00
      -12345.00      -12345.00      -12345.00      -12345.00      -12345.00
      -12345.00      -31.20700      -69.62850       2369.000       0.000000
      -31.24600      -68.98500       0.000000       102400.0       0.000000
      -12345.00      -12345.00      -12345.00      -12345.00      -12345.00
      -12345.00      -12345.00      -12345.00      -12345.00      -12345.00
       61.46380       273.8681       94.20006      0.5526316      -12345.00
      -12345.00     -0.1857318       0.000000       90.00000      -12345.00
      -12345.00      -12345.00      -12345.00      -12345.00      -12345.00
      -12345.00      -12345.00      -12345.00      -12345.00      -12345.00
      2008        16        21        17        54
        70         6    -12345    -12345      9837
    -12345    -12345    -12345    -12345    -12345
         1         7        13    -12345    -12345
    -12345    -12345    -12345    -12345    -12345
    -12345    -12345    -12345    -12345    -12345
    -12345    -12345    -12345    -12345    -12345
         1         1         1         1         1
CASP    -12345          
        -12345  -12345  
-12345  -12345  -12345  
-12345  -12345  -12345  
-12345  -12345  -12345  
-12345  -12345  -12345  
-12345  -12345  BHN     
ZL      -12345  -12345  
[...]
      -154.5941      -148.2816      -149.6012      -136.7959      -126.9685
      -122.1185      -113.6678      -89.70599      -74.27466      -68.53386
      -57.71126      -31.27438      -23.41421      -19.58244       2.173103
       25.71944       28.35147       41.87894       68.19031       78.85242
       83.96179       106.0916       128.5786       137.2663       145.9581
       172.6652       185.1377       185.2899       203.8328       223.7620
       214.1857       230.0123       261.5522       257.0817       244.5477
       277.5724       295.5437       282.1709       290.0778       319.2502
       312.1543       307.5479       329.8337       334.4876       321.0414
       330.6501       336.1820       327.9215       318.0951       327.0836
       337.7795       318.0338       306.0541       327.9448       322.2946
       302.8487       309.3138       314.9438       291.4962       282.2327
       289.2985       285.2281       263.6613       259.2603       259.2960
       243.3683       226.9824       228.3991       220.9865       199.2775
       187.8807       191.3455       175.6768       149.9867       140.9396
       137.8561       110.9113       95.67323       90.82504       71.35016
       53.94937       54.13976       44.65529       33.55285       15.55723
       12.79479       6.938740      -8.177799      -13.57983      -3.944828
      -15.41967      -19.32440      -17.26225      -9.661819      -13.06400
      -12.36008      -12.94842      -6.069736      -11.76461      -9.927829
      -3.863096     -0.2211099     -0.8207521       5.298444       2.562094
       5.752846       8.132637       14.86204       8.980999       13.69778
       20.25411       27.65656       26.13564       29.95552       33.47124
       35.05757       33.35812       40.53911       38.34615       37.08109
       37.74577       40.93092       37.41942       39.33173       33.54449
       35.44342       34.29631       29.71307       24.06632       23.86359
       11.13613       6.658918       4.975281     -0.4665146      -16.43500
      -23.68903      -27.02739      -36.99753      -46.88290      -50.42706
      -62.33118      -70.65170      -72.49442      -80.98129      -93.46686
      -100.9271      -101.9461      -111.8193      -120.9713      -120.7076
      -129.0214      -144.7878      -149.3046      -153.2415      -158.8523
      -167.4979      -168.5660      -170.2178      -180.2947      -189.2410
      -186.6597      -188.8745      -193.6263      -197.0566      -194.9489
      -196.8315      -196.3927      -193.8539      -191.4305      -193.6984
      -190.5320      -188.6609      -181.3405      -178.4950      -169.7357
      -163.8530      -156.9584      -151.5033      -142.9692      -133.1435
      -122.3517      -115.2325      -105.0713      -100.1178      -91.13940
      -77.81703      -66.07498      -61.36354      -53.56493      -37.85647
      -24.91592      -18.02681      -7.566605      0.1774025       10.63670
       19.14336       35.07144       44.19289       50.32372       61.07722
       73.87976       83.17267       99.02985       104.2926       115.6093
       128.4768       135.6318       144.6247       152.3710       160.0328
       166.3633       170.9327       179.4791       188.6130       191.3359
       192.5345       195.0933       201.4910       201.8695       204.9968
       203.4909       203.7186       203.2065       202.3675       195.1684
       194.3276       191.5287       190.3708       177.2150       167.7175
       159.5413       154.5693       135.6558       129.8294       121.7108
       106.2881       88.88733       78.98656       65.95348       54.12955
       34.51913       26.81670       13.94811      -1.297318      -10.86334
      -14.97769      -32.34682      -49.05496      -59.90024      -66.17914
      -75.84866      -84.23328      -90.78708      -94.00385      -104.7700
      -113.8524      -120.3939      -127.3080      -135.7343      -138.3533
      -144.6656      -152.7292      -160.5936      -163.5338      -167.0422
      -169.0632      -171.5478      -169.3401      -174.6446      -178.6328
      -184.3248      -187.0632      -193.6710      -191.8063      -195.9879
      -197.2508      -202.1146      -200.9801      -209.6409      -209.1093
      -208.8525      -207.0413      -209.7070      -207.1984      -209.0837
      -204.2067      -207.9298      -205.5398      -200.9918      -197.3278
      -194.8139      -192.0712      -196.0829      -190.7800      -190.3502
      -189.8861      -185.3036      -178.7142      -178.2960      -174.7661
      -176.9413      -174.0734      -174.6116      -171.9026      -168.5500
      -161.7219      -167.4424      -162.1853      -158.2315      -148.9417
      -156.1801      -147.9805      -105.0399      -172.7736      -217.2834
       32.83728      -18.42847      -587.9844      -854.5603      -492.4150
       450.1445       1634.385       963.9692      -778.1050      -1112.510
      -1399.186      -661.7935       874.9643       342.4390       160.5698
       128.9163      -394.5303      -121.6468       141.9891      -27.77734
      -876.6931       433.7583       2006.421      -639.0205      -1643.071
       92.30811       189.3342       288.4010       285.4537      -20.33710
       253.9562      -61.97034      -62.29587       137.3880      -424.4398
      -120.5394       10.52460      -250.3828       828.0732       1221.775
       780.6748      -62.69214      -369.0657      -288.9707      -628.0063
      -64.73434       187.4291       50.15714       32.26031      -93.75537
       710.4529       1039.936       59.33282      -318.4992      -106.3293
       294.6714       959.3069       500.7025      -307.2200      -115.9783
      -33.42676       754.4741       1544.740       170.0917      -501.4652
       531.2977       39.98193       249.1487       1192.670       621.8702
       929.9472      -36.22937       331.3501       707.5820      -793.8164
       648.8564       918.7065       266.1799       847.3434       319.2427
       128.5938       937.8540       1420.162       127.0253      -206.0527
       876.5986       787.8918       1271.572       1214.978      -209.1190
      -108.3739       209.7991       57.25537       589.0972       1194.170
       1300.122       125.9297      -203.3522       559.7173       675.7915
       620.6411       742.5964       791.0944       153.5999       267.4542
       360.5315       333.6013       623.4590      -226.1865      -428.8801
       975.3696       1388.586       199.4369      -303.5930       409.3793
       526.0118      -370.9796      -417.6758       523.3278       423.4732
      -142.9012       78.70137       137.1047      -198.9256      -155.3160
      -118.1496      -213.7535       29.93567      -290.3923      -785.7674
       3.078125       222.6522       275.6720       342.0452      -356.2910
      -710.0552      -1153.640      -1026.441      -223.1067      -180.2222
      -726.8288      -437.7185       288.3532      -83.81812      -841.8595
      -509.5642      -431.2896      -962.0609      -344.9639      -451.8318
      -601.1428      -836.1071      -971.8862      -45.28833      -343.2378
      -712.3594      -708.2102      -705.7476      -516.8042      -1107.559
      -457.5432      -86.70581      -736.5461      -552.5745      -997.1541
      -1069.643      -544.3047      -304.4604      -1055.308      -1290.394
       200.6987      -307.5134      -1116.138      -474.1428      -758.9753
      -696.4521      -699.7437      -1031.304      -488.7883      -191.0073
      -481.4250      -791.2061      -362.8735      -713.3022      -1382.066
      -576.2997      -50.88306      -448.7224      -411.0131      -133.7163
      -189.8049      -842.3342      -625.1401      -116.1062      -546.6001
      -290.2164      -78.85791      -417.0837      -603.6474      -382.4365
       199.9376      -18.16528      -609.1854      -253.9342       338.7111
       55.97543      -254.1151       194.1525      -41.64380      -810.9772
      -478.9968       481.2574       567.3981      -140.9135      -318.8496
      -393.3826       402.6327       831.5161       139.7798      -47.75589
      -162.6711       88.04944       423.7534       254.3363       353.1364
       123.2963      -681.7616       112.4734       358.6946      -232.0708
       849.5312       922.0814       218.1842       40.75653       220.8738
       479.9244      -180.7135      -402.9888       400.9223       71.89075
       148.9424       792.6223       159.3070       121.4628       411.1868
       73.78333      -531.6959      -104.1931       901.4457       803.3671
       158.3503      -49.50757       411.0409       533.0150       486.5088
       197.4160       230.4615       128.8937       92.94922       870.3051
      -97.40173      -275.6292       1204.100       565.6122      -22.29471
       136.7435      -513.2561       373.8604       1697.124       468.1643
      -155.7169       626.2709      -171.4521      -176.4812       1235.834
       935.3379      -129.1584       241.4076       757.2536      -62.53406
       120.5684       890.7716       287.0723      -114.7741       164.5664
       51.01575      -53.02441       1110.128       572.4077      -133.0117
       691.9726       170.4257       101.4278       257.6162       289.4076
       653.3667       159.1260      -402.0286      -60.43286       316.8376
       288.0372       251.2526      -199.4022      -91.31494       1092.364
       480.3346      -662.0894       417.0775       129.2603      -748.5110
       401.3307       426.6287      -346.3846      -209.1553      -18.31628
      -228.0474       41.44482       782.7042       562.5710      -317.7856
      -883.8698      -188.1500       770.8282       296.2960       133.0585
       342.7772      -509.8640      -304.4050       630.3741       73.26453
      -240.9310       2.162476      -467.1393      -199.3816       548.8760
       137.0685      -233.4406       83.45740      -270.2253      -503.7402
      -329.5165      -486.6581       312.9431       283.0433      -279.9076
       351.0223       264.9014      -687.5681      -949.5821      -273.6616
      -367.1400      -346.0183       531.4065       421.9987      -386.0372
      -558.5206       104.8298      -52.14758      -510.3910      -324.7554
      -364.9779      -676.0856      -560.4836       648.2963       443.2341
      -654.2126      -682.8073       23.21927       248.5446      -848.2393
       306.7239       808.5613      -1211.607      -160.4691       379.3236
      -1065.186      -277.4952       654.4426      -13.23901      -1009.418
       113.4268       731.5184      -476.7181      -704.9005      -271.1383
       909.1837       320.3805      -1064.781       461.6234       741.5778
      -798.9614      -475.6124       411.9228       479.9352      -285.2590
      -92.79248       288.4604      -738.2208      -28.25952       1045.850
       120.5132      -674.5780       123.1379       475.4620      -195.7537
       14.18921       734.0536       724.1489      -564.1194      -386.7291
       846.8348       435.0669      -582.6246      -285.6074       915.9695
      -217.6554      -309.6714       1227.242      -204.6584      -761.8223
       333.8348       281.9664       207.0134       192.6499       26.26089
       29.78799      -119.6038       317.5959       434.8468       299.6248
       335.8583      -297.6786       165.5208       106.6078      -453.6778
       71.51871      -17.55505       82.38867       764.3692       498.4794
      -177.5317      -420.1284      -344.5254       307.4659       5.677368
      -506.3878       526.7836       714.0345       178.1485      -355.4789
      -305.3685      -372.0425      -255.0743       848.8453      -86.51318
      -953.4418      -146.5341       66.78381      -347.5078      -298.6065
       301.7413      -5.355103      -505.2227       685.4691       716.8145
      -985.0594      -576.1932       379.3499      -503.8438      -314.4478
       347.4326      -1107.763      -564.1547       831.3441      -247.9672
      -502.7188       126.7935      -129.7672      -574.1310      -85.95990
      -52.17590      -486.9736      -157.7936      -681.1794      -104.4351
       249.8443      -189.8958       69.06744      -301.8843      -21.12854
      -36.96216      -536.3102      -358.8172      -67.19055      -629.4894
      -97.95898       897.5731      -182.0513      -990.8550      -279.6967
       277.5389      -134.0503       386.8489       715.3395      -397.0736
      -652.1077       70.62463       484.5039      -342.3643      -955.3291
      -178.9973       84.69043      -317.1147      -682.5706      -1553.154
      -957.8925       144.3276      -1181.744       151.2294       1638.368
      -1700.121      -2932.350      -371.2344       3821.264       10291.33
       11923.00       1434.719      -8048.098      -6709.346      -3115.136
      -735.2085       2880.480      -1301.170      -7512.602      -2379.626
      -498.3149      -3687.502      -95.59570       4029.327       2218.069
       2921.581       6159.251      -3794.765      -7970.237       4135.823
       2130.635      -2791.192      -828.3804       1195.538       1568.871
      -2924.215       973.4329      -22.75537      -2740.651       5345.138
       3665.852      -4424.834      -5314.902       220.7114       470.3408
      -1195.880       4952.836       3851.373      -1830.892       2012.668
       2456.200      -3559.852      -3257.824      -4253.715      -5542.443
       1481.171       5690.978      -1568.240      -4268.172       2266.330
       4048.722       1994.657       521.7926       691.8354      -3006.276
       716.1572       7663.876      -1415.104      -6426.063       19.32617
      -107.2476      -3054.618      -2063.230      -651.8354       2714.282
       1180.111      -4085.046      -1699.730       2283.561       4500.960
       3486.015      -48.70947       1392.339      -63.39880      -1073.055
       1058.037      -2888.230      -2112.842       1616.272      -333.0181
      -1865.418      -1938.436       1823.674       4090.599       1950.322
       1207.907      -93.79150      -2350.096      -225.3335       1397.703
       497.6692       1328.801      -440.6294      -2111.096      -3168.041
      -251.2031       5119.607       2560.226       318.6735       746.5759
      -1269.747       896.3948       1057.944      -1514.278       1733.297
       1601.129      -521.4329       1316.315       1144.969      -1175.829
      -783.8811       1543.910       839.4592       38.40149       1190.299
      -531.8142      -190.8984       2049.379       1739.426       2902.267
      -637.0752      -3740.425       701.0713       1748.092      -98.22876
      -1346.375      -308.8013       2486.034      -829.2725      -1104.357
       2648.398       1225.942      -246.4414      -1175.800      -370.4658
       3161.822       2088.349      -1712.414      -1092.189       1670.194
       2346.545       1355.668      -604.5424      -980.9072       1669.740
       2014.904       1146.020      -252.0610      -1785.646      -1351.747
      -1564.057       1959.550       4130.474      -1786.286      -2126.507
       2360.324       19.41895      -2807.851      -62.92529       4042.076
      -1.331055      -2858.285       1706.086       370.9786      -543.5817
       295.0566      -1121.297      -42.52246      -1114.379      -2136.584
      -314.7368       1413.511       2968.087       1113.536      -1178.960
      -1731.740      -24.82764      -190.6353      -1944.349       912.9012
      -26.87097      -355.0536       1095.890      -1797.577      -95.55908
       3430.581      -903.7168      -3536.211       529.0015       706.7451
      -2110.461      -592.8923       1573.464       248.8757      -1008.303
      -57.59256       185.5386      -536.3271      -1254.898      -572.4712
       171.7012      -2540.696      -1247.464       1531.124      -836.2317
       72.79053       2094.942      -1667.895      -1991.330       1420.937
       1638.673      -477.0808      -1622.662      -28.93250      -256.9893
      -1324.924      -2157.771      -1242.345       613.4268      -129.5930
      -621.0386      -1599.070      -2594.745       8.511719       3196.999
       1917.292       57.22803      -6.163574      -2290.559      -3048.583
      -1105.752      -1439.520      -785.1478       49.71619      -202.2500
       1405.270       1037.322      -1708.535      -1171.755       205.0616
      -535.7167      -55.99634      -1191.257      -979.4700       1562.426
      -69.12598      -1915.856      -988.0015      -49.55005       326.4961
       923.8042       1583.633       453.5078      -733.7373      -1217.657
      -1635.624      -1645.587      -1312.137       1118.978       827.1630
      -872.1943       1076.635       1084.689      -437.7759      -1111.466
      -1298.085      -1066.431      -466.8467       813.6162       1080.145
       2085.076       217.1060      -2602.137       306.4246       750.0015
      -283.2463      -313.4814      -1404.782      -308.7667      -39.71289
      -1132.953      -107.9243       1821.611      -668.3462      -2519.569
       1854.059       2439.897      -555.6024      -373.7122       283.0562
      -680.4106      -1143.402       519.7974       1346.578      -100.3444
      -684.4561       1168.090       1803.670      -519.7332      -1349.861
       1382.760       1688.844      -1070.611       1.501221       920.5455
       200.7737       452.5200      -53.80127      -106.2664       474.2794
       524.0469      -288.0913       562.5811       781.2214       529.6110
       318.6565      -448.8318       344.9021      -62.32031      -868.7800
      -90.07227       700.8315       1169.421       1181.996       17.30615
       1287.318       656.1333      -2895.500      -619.0612       997.0065
      -226.8330       2385.600       3194.167       331.1038      -1090.499
      -1497.127       177.8906       3130.792       2194.147      -1381.565
      -149.9741       3544.500       471.1484      -2884.655       269.7964
       1228.615       340.1873       300.6449      -732.6016       1384.192
       1850.770       27.99377       134.9438      -322.8262      -1515.265
      -524.0537       2519.977       1016.931      -677.1194       206.8239
      -488.9531       764.4011       1484.361      -800.5314      -806.6113
