     0.02500000      -7328.740       13714.81      -12345.00      -12345.00
      -29.99503       215.9049      -17.37000      -12345.00      -12345.00
       0.000000       13.03000      -12345.00      -12345.00      -12345.00
      -12345.00      -12345.00      -12345.00      -12345.00      -12345.00
      -12345.00      -12345.00      -12345.00      -12345.00      -12345.00
      -12345.00      -12345.00      -12345.00      -12345.00      -12345.00
      -12345.00      -31.20700      -69.62850       2369.000       0.000000
      -31.24600      -68.98500       0.000000       102400.0       0.000000
      -12345.00      -12345.00      -12345.00      -12345.00      -12345.00
      -12345.00      -12345.00      -12345.00      -12345.00      -12345.00
       61.46380       273.8681       94.20006      0.5526316      -12345.00
      -12345.00      0.5406737       90.00000       90.00000      -12345.00
      -12345.00      -12345.00      -12345.00      -12345.00      -12345.00
      -12345.00      -12345.00      -12345.00      -12345.00      -12345.00
      2008        16        21        17        54
        70         6    -12345    -12345      9837
    -12345    -12345    -12345    -12345    -12345
         1         7        13    -12345    -12345
    -12345    -12345    -12345    -12345    -12345
    -12345    -12345    -12345    -12345    -12345
    -12345    -12345    -12345    -12345    -12345
         1         1         1         1         1
CASP    -12345          
        -12345  -12345  
-12345  -12345  -12345  
-12345  -12345  -12345  
-12345  -12345  -12345  
-12345  -12345  -12345  
-12345  -12345  BHE     
ZL      -12345  -12345  
[...]
       57.61485       54.78786       56.61395       50.91522       50.54515
       47.95494       44.26848       45.16296       46.85703       38.51022
       35.88516       31.88082       25.89282       22.88614       15.48624
       6.131832       3.827813      -2.679628      -4.025108      -8.081627
      -18.83794      -27.57533      -32.17785      -38.68071      -43.38133
      -47.27559      -53.61887      -61.78815      -70.16209      -77.63464
      -82.77795      -90.16742      -96.80737      -97.69501      -100.4857
      -105.4591      -107.3510      -111.8340      -116.0216      -116.2690
      -118.1534      -119.7253      -125.1079      -126.0392      -123.0939
      -124.8329      -123.0716      -119.4744      -124.0394      -124.8567
      -126.4634      -128.9602      -128.3276      -131.3970      -135.2640
      -133.6174      -137.1761      -139.5992      -138.9846      -143.9811
      -148.8076      -143.8149      -146.1486      -155.5494      -154.5004
      -158.9271      -158.2893      -160.9877      -162.3672      -165.6075
      -163.5668      -170.5414      -172.7504      -174.4292      -177.9755
      -183.2191      -180.7222      -184.8236      -189.1158      -195.6984
      -198.7748      -198.8642      -199.2978      -202.7153      -202.8669
      -204.4885      -206.2421      -203.1955      -200.2670      -198.5325
      -195.4297      -195.0164      -190.0728      -184.2091      -179.7319
      -175.2373      -171.9395      -170.6296      -162.4606      -155.9703
      -151.0175      -146.3827      -135.7679      -132.0134      -126.1768
      -118.0425      -106.0728      -98.22675      -93.23898      -88.31793
      -78.68567      -70.61090      -60.45114      -47.17394      -38.82050
      -29.25947      -16.65409      -11.15755     0.09822845       11.76893
       20.00586       35.27026       45.89896       52.64436       65.32043
       77.20328       85.18533       90.37073       95.98865       105.6429
       112.3802       116.2372       123.8044       127.0925       131.1374
       133.5977       137.8959       138.9661       143.2070       143.7314
       149.4437       153.3923       156.8873       160.1715       167.5046
       164.4690       168.3938       173.7189       178.2222       179.6613
       183.9503       188.2814       198.5040       201.7085       208.8030
       215.5027       218.3732       224.4633       231.6641       231.4455
       235.2272       240.9599       244.1652       246.4449       247.4847
       248.1730       249.4352       249.0186       250.9071       250.6873
       248.5175       251.2085       255.0038       252.4945       250.8561
       252.8962       249.3416       250.7938       253.8330       252.5497
       250.9554       250.6464       245.5825       244.3840       242.4324
       239.0674       237.0997       236.5285       232.5317       225.9564
       219.3448       213.8269       207.8737       202.8140       194.2201
       187.7148       180.2562       174.4694       163.6077       149.6789
       139.8606       130.0742       118.4852       108.2006       99.35419
       87.90167       74.85159       56.13635       40.65056       24.31346
       10.82445      -6.500572      -22.77145      -39.55130      -55.41306
      -76.87338      -94.48947      -112.9171      -131.6609      -150.8537
      -168.5462      -190.6522      -207.3191      -230.7965      -249.8989
      -266.5861      -280.1335      -299.6525      -316.7172      -335.5616
      -349.6526      -367.3884      -384.8733      -399.7273      -406.3584
      -419.2853      -434.6305      -445.3593      -455.5013      -465.9210
      -470.6541      -481.8922      -485.6876      -485.1121      -486.5287
      -487.4728      -489.1522      -494.4646      -489.9999      -488.5414
      -487.7954      -485.9265      -481.9911      -477.1992      -470.6709
      -467.7665      -460.8485      -454.0590      -446.3754      -438.4625
      -428.8613      -419.5438      -409.9869      -398.2314      -383.1072
      -369.5730      -358.6420      -349.7444      -337.2542      -326.3554
      -313.3374      -298.1377      -286.1050      -271.3961      -260.0622
      -249.1203      -235.1603      -220.5507      -206.6473      -191.6556
      -178.9758      -162.7529      -145.3180      -130.2462      -115.0338
      -101.4997      -89.91054      -73.42049      -58.04382      -48.80174
      -36.27325      -20.96426      -8.916162       4.253746       15.62059
       27.79503       40.40509       52.76849       66.71889       76.79587
       84.84760       97.24600       109.6686       121.1447       132.2084
       143.0532       151.0419       164.2519       169.7295       180.0907
       198.7444       386.1301       789.3140       1381.155       1725.477
       684.1616      -1337.965      -1784.591      -296.4531       521.1415
       394.0627      -391.6359      -232.9600       1137.760       1222.357
       852.3994       480.2604      -147.4730      -253.7219       299.4678
       2045.709       275.0833      -2102.098       1529.051       1411.849
      -238.5549       1620.350       637.4771      -720.4861       363.3081
       1584.244       1226.322      -352.1647      -870.7632      -84.00049
       830.7715       1496.630       1250.186       492.0910      -81.99561
       129.7107       902.0646       439.8704       242.4766       1168.707
       849.1125      -67.40540      -48.44238       978.1295       1014.429
      -104.7565       410.7131       850.9514      -568.1710      -516.9771
       161.1960       337.7466       1321.722       1425.081       843.4253
       761.6768       233.7628      -543.7744       237.5786      -91.55664
      -1272.055       186.2917       1450.038       810.2627       890.6919
       696.5605      -377.4663      -723.1064      -238.0817      -109.2632
      -242.9269       265.4903       232.3765       105.9236       874.0236
       267.5125      -1359.340      -383.5350       228.1008      -797.3494
      -477.1260       464.1680       431.1108      -436.9466      -312.4988
       161.9698      -116.7881       57.07349       277.7094      -361.4177
      -199.5498      -203.4894      -717.3895      -417.4254      -211.5724
       94.00226      -25.23840      -408.0413      -462.0676      -920.6022
      -281.3669      -178.8954      -941.4517       83.53210       77.66943
      -890.3888      -444.6801      -142.5845      -299.5688      -725.8067
      -303.4772       541.9330      -70.36426      -846.4434      -711.7251
      -772.7612      -1142.615      -540.1085      -554.8983      -555.0516
       336.0703       360.9004      -794.5398      -1255.135      -192.5229
      -148.1127      -746.9684      -402.4559      -108.1294      -813.5804
       118.7893       80.49634      -1543.078      -326.6848      -336.9464
      -735.9846       698.0264      -160.4161      -692.7183       345.2932
       71.86255      -1279.671      -945.9780       235.7539      -353.8002
      -597.9338      -227.2687      -296.6635      -275.6031      -168.0940
       113.8992      -494.1716       61.38550       606.8613      -965.6467
      -382.7860       135.1111      -881.4567      -338.9642       166.2509
       575.3392       423.6437      -290.3075      -64.44653      -531.4959
      -446.1312       578.2653      -28.54645      -468.4236       508.1482
       420.7176      -53.29462       65.54565       2.467041      -395.1336
      -596.7990       488.4982       472.6486      -106.2555       199.9247
       265.2766       457.7906       467.3112      -302.9687      -165.6805
       529.7714      -52.74963       138.8347       493.4838      -259.9131
       566.4373       1161.954       226.8552       142.3422       348.7906
       49.63965      -349.6053       89.85425       881.0181       737.4069
       491.2845      -22.56616      -139.8447       823.6110       455.3524
      -101.3999       75.99112      -229.4891       60.03674       580.1255
       631.7506       601.6752      -61.01758       336.1770       599.6302
      -664.5662       245.8999       760.1547       98.27161       444.6000
       226.6235       128.1542       411.1670       54.15173       320.7162
       705.0447      -293.5093      -511.7947       268.7877       286.5341
       350.9330       214.4042      -137.2884       77.75299       327.0645
      -88.37421      -477.5995       108.1156      -193.7248      -118.5859
       1043.740       790.5437      -238.1822      -574.2698       234.3630
      -246.1465      -520.3408       821.1726      -452.2640      -669.4458
       438.6641       41.10950       447.2582       302.4179       99.36475
       25.90588       400.2513       194.8489      -133.0855       223.2413
      -911.9438      -138.3381       899.3301      -301.7667      -90.86429
       125.7892       47.71204       465.4003       211.4883      -441.9076
      -30.71326       450.0819      -451.1038       376.1229       702.9615
      -175.4144       427.6292       442.3802      -599.1801      -300.6604
       760.3355      -246.9551      -237.9840       901.0517       156.1212
      -149.7421       332.3843       327.0549      -218.2766      -35.62894
      -24.26913      -115.0424       740.0286      -11.66614      -439.6530
      -210.3242       426.5939       1020.276      -164.2117       5.028320
       489.1589      -247.0151      -249.0213       18.45325       250.3707
      -263.7906      -451.6101       722.3110       485.3334      -263.0902
       51.58672       210.0856      -207.7897      -305.7943      -191.4819
       42.75623       752.3643       174.2245      -493.4766      -87.40765
      -387.8125      -194.8938       1138.679      -595.0225      -1220.408
       706.5778      -296.3709       25.55896       410.3997      -908.1194
      -112.6544       512.7557      -24.03967      -321.8246      -198.3051
       124.4927      -70.12305      -537.1468      -85.04947       69.66577
      -331.4078      -40.53363       47.91339      -373.8619      -198.6479
       104.0862      -16.33734      -301.8692       14.04135       230.6638
      -629.3591       24.99237       299.0364      -816.8270      -206.5041
       53.43793      -174.3079      -142.9286      -193.7314      -210.4275
      -297.7525       51.72824      -170.9131       301.8262       2.438354
      -987.0464       97.06177      -310.8466      -539.8284       99.49927
      -491.9639      -383.2699      -539.1796      -190.3060      -364.4213
      -131.4724       171.0664      -1164.499      -207.6416       328.7703
      -366.9419      -632.8025      -1078.759      -322.3959      -79.25757
      -59.05310      -111.6096      -793.0991      -314.0525      -906.1307
      -862.1846       819.2150       37.19727      -850.2946      -610.8320
      -275.3746      -124.8325      -1165.363      -1020.352      -77.27768
      -88.81848      -291.2479      -197.9797      -84.85132      -417.1931
      -981.7622      -434.7152       191.7432      -725.5250      -387.1255
       314.8624       312.0117      -581.4825      -998.1681       373.7640
      -732.0069      -377.6582       998.4990      -616.0197      -589.1384
      -283.3318      -54.97235       423.1151       124.8434      -56.35504
      -471.7953       96.39932      -13.72043      -267.0282       335.7606
      -174.5521      -156.6030       606.5210      -768.4341      -625.3809
       1186.367      -27.89099       89.99890       946.1392      -13.98492
      -215.4633      -16.82086      -302.9410       27.68359       428.0983
       219.0986       788.0856       799.1674       265.2688      -239.6633
       417.2987       606.3762      -353.0632       688.1838       451.9222
      -245.6772       278.1821       584.1003       585.4661       122.3156
       337.1960       577.1096       814.8124       632.5698       114.3475
       272.2966       855.8634       443.8920       59.42407       1036.023
       514.4540      -45.87378       936.3586       897.7074      -184.7020
      -264.1240       620.3247       1606.259       1349.510      -626.2256
      -440.5366       614.1704       749.7676       889.6357       410.2003
       434.7417       150.8994       394.8989       1068.616      -2.133789
       488.4397       1470.434       16.09918      -32.63220       336.3365
       353.2500       841.9924       302.2501       445.2600       926.4573
       291.1973       123.3269      -399.5108      -625.0752       780.0306
       655.8422       56.92303       179.4071       62.30182      -143.3020
       811.6964       1287.502      -870.2126      -1070.982       38.03467
      -563.3252      -2788.065      -4466.823      -1917.524      -1660.285
      -507.4448       3741.229      -588.0039      -6594.008      -5085.548
       506.0352       8221.477       13714.81       9736.698       4665.166
       1378.234      -7328.740      -6780.844      -878.5737      -1677.036
      -347.1533      -391.1007       576.9922       215.8105      -3048.690
      -3058.258      -347.0947      -3466.600      -4335.045       8319.568
       5293.033      -2615.373       291.4360       1868.891      -1587.277
      -4866.746       4925.435       425.3271      -5679.721       2795.520
       342.9116      -1722.410      -1898.050      -1739.936       204.4561
       621.9990       2394.431       596.5723      -1169.572       4000.265
       2220.297      -6967.810      -6209.710      -262.0796       2952.644
       1697.640       2682.550       3858.906      -4209.225      -6706.806
      -2290.883       1521.056       4462.833       2757.797      -3335.820
      -978.6880       3528.215      -506.6660       2771.578      -1821.315
      -7247.923       1010.826       2756.347      -1259.385      -1650.476
      -625.5529      -432.1477       1553.772       1131.837      -86.38110
      -752.9147       229.6987       1397.660      -540.0437      -1354.457
      -730.7633      -1260.778       943.6587       2235.489       1603.576
       517.5256      -2115.563       1260.869       949.1543      -2907.969
      -1038.829       1307.934       270.6128      -2091.729      -2108.188
       1514.027       1583.088      -1361.547       355.6997      -190.3997
      -1308.491      -428.6285       104.9141       824.4106       1897.520
       1612.230       994.4607       1703.954      -348.9258      -1284.325
      -1702.012      -2354.375      -973.7266      -1496.279       538.0454
       1942.666      -695.3060       211.0356       1575.720       1492.008
      -193.2173      -1124.429       578.6953       1777.565      -54.67847
      -2383.592       884.6993       708.9995      -2848.171      -201.8279
       661.4060      -941.8256       475.7412       442.7378       390.6494
       1214.090       2390.179       1026.602      -4626.195      -3304.587
       2366.803       1680.573       788.1797       1476.980      -863.0923
      -3055.360      -111.5762       3682.218       1975.540      -2038.624
      -6.920715       1842.470      -3088.004      -3318.892       584.3721
      -2472.885      -6107.635       1550.392       4134.989      -2201.340
       1350.664       5069.282       914.2461      -2182.158       1325.688
       2871.383      -2277.711      -70.96973       2783.931      -720.1779
      -200.8110      -1130.152      -4084.320       808.1846       3489.593
      -1867.354      -2643.400       3498.636       1777.620      -4621.918
       1576.752       4665.486       342.1665      -1697.442      -2418.600
       435.6084      -1299.131      -1756.344       3519.391       2693.301
      -840.9181      -58.77490       1836.390       937.6299      -198.6973
      -2009.544      -2751.354       105.4654       293.7393      -1217.709
      -2310.446      -1325.844       1556.814       1018.118       874.3608
       1335.445      -467.9915       287.4668       3143.384       210.4263
      -1902.637       2165.975      -64.75293      -2586.141      -890.8630
      -769.5823      -1350.911      -655.4976       1207.291       105.6655
       2004.050       1299.775      -854.2948       906.6304      -2373.056
      -2220.782       1087.352      -150.4888       2317.443       1695.885
      -3423.346       224.3984       2671.664       302.8771      -147.0078
       1059.583       2005.274       244.2656      -1857.126      -1136.840
       389.0000      -1877.315       800.9922       3470.199      -2203.030
      -794.9448       3043.083       256.8101       1781.736       830.1938
      -2627.392       853.9316      -713.7480      -2947.100       1679.769
       2628.734      -528.9819      -910.1506       1696.030      -794.7266
      -1768.569       2302.399       1232.956      -109.3669      -1012.175
      -454.6479       3024.352       280.5029      -2088.478      -772.3632
       78.93018       1577.583       798.3190       439.0013       373.9109
      -525.8857      -945.2579      -51.84180       815.0267       132.2542
       1507.349       319.9658      -2303.491       473.4316       2251.440
       1063.695      -811.7144      -1474.225       101.1909      -2108.203
      -138.4585       2636.110       726.4683       1737.584      -702.0393
      -1515.916       1371.698       475.4998      -1491.590       120.4980
       954.3169      -685.3655      -897.0947      -1687.118       995.8552
       1361.782      -936.9795       514.9457       197.7079      -256.4061
       58.22852      -1020.553      -874.8896       624.0906      -598.5774
      -1779.061      -534.2432       2280.621       1845.802      -1363.261
      -1229.307      -977.0627      -579.0181       1597.666       1584.932
      -341.7153      -393.1826      -1550.930      -1423.361       1090.137
       1470.545      -241.7281      -863.0039       735.9043       1185.044
      -41.16516      -1061.651       101.6292       1350.910       292.3550
      -1602.103      -1323.809      -584.4351      -21.69189       2341.304
       1470.844      -1880.300      -1050.903       236.0635      -621.4390
      -1703.217      -1862.746       1265.169      -359.1282      -1887.615
       2248.706       1452.735      -536.0586      -1062.884      -1168.969
       332.6628      -396.6375      -1520.920       46.87207       2164.776
      -840.5620      -3169.205      -211.0847       436.4365       972.0045
