     0.02500000      -2546.917       2617.449      -12345.00      -12345.00
      -30.01003       217.0149      -18.36000      -12345.00      -12345.00
       0.000000       14.09000      -12345.00      -12345.00      -12345.00
      -12345.00      -12345.00      -12345.00      -12345.00      -12345.00
      -12345.00      -12345.00      -12345.00      -12345.00      -12345.00
      -12345.00      -12345.00      -12345.00      -12345.00      -12345.00
      -12345.00      -31.90580      -68.77510       1333.000       0.000000
      -31.24600      -68.98500       0.000000       102400.0       0.000000
      -12345.00      -12345.00      -12345.00      -12345.00      -12345.00
      -12345.00      -12345.00      -12345.00      -12345.00      -12345.00
       75.82317       164.8194       344.7100      0.6817487      -12345.00
      -12345.00    -0.03804934       0.000000       0.000000      -12345.00
      -12345.00      -12345.00      -12345.00      -12345.00      -12345.00
      -12345.00      -12345.00      -12345.00      -12345.00      -12345.00
      2008        16        21        17        55
        60         6    -12345    -12345      9882
    -12345    -12345    -12345    -12345    -12345
         1         7        13    -12345    -12345
    -12345    -12345    -12345    -12345    -12345
    -12345    -12345    -12345    -12345    -12345
    -12345    -12345    -12345    -12345    -12345
         1         1         1         1         1
CHIL    -12345          
        -12345  -12345  
-12345  -12345  -12345  
-12345  -12345  -12345  
-12345  -12345  -12345  
-12345  -12345  -12345  
-12345  -12345  BHZ     
ZL      -12345  -12345  
[...]
      -48.58264      -36.73889      -52.47098      -56.53615      -55.04865
      -61.80284      -65.03601      -48.10782      -63.78671      -72.07703
      -66.41547      -66.71495      -92.46976      -66.06558      -57.86005
      -67.36018      -71.40796      -67.38266      -76.32208      -74.50433
      -86.04352      -70.61198      -68.68140      -72.37717      -81.12271
      -80.73010      -68.14670      -58.59602      -71.30260      -51.08195
      -52.49011      -52.25134      -40.76769      -29.50546      -49.61585
      -48.43783      -16.77186      -3.313530      -29.33244      -13.96994
       1.151138     -0.4700089     -0.5661755       5.045519       1.913292
       16.13971       1.017715       4.533829       26.03989       14.39968
      -4.812889       18.46635       20.59651       16.72819      -1.529778
       3.952644       16.32292       1.044674      -17.30462       4.315928
       1.804771      -6.184746      -16.08726      -12.64741      -27.05335
      -23.59541      -34.78547      -39.59573      -41.16010      -29.94998
      -52.31815      -69.75699      -70.19876      -71.13231      -86.72977
      -81.43002      -106.9153      -116.9344      -121.2407      -131.4000
      -159.3944      -156.8934      -176.3691      -192.0226      -202.6032
      -212.8998      -224.7638      -233.6638      -254.3993      -254.0121
      -259.0106      -268.1116      -293.6659      -291.5555      -285.8242
      -300.8901      -304.6851      -300.9591      -311.3286      -308.5231
      -310.4751      -312.3721      -309.6746      -293.0991      -293.7706
      -294.3250      -292.0378      -283.7026      -273.6302      -267.8141
      -264.7822      -253.4114      -245.7313      -234.8773      -229.8011
      -213.6462      -209.0502      -196.3157      -177.3630      -164.7923
      -153.2050      -126.6816      -111.9265      -102.9303      -82.70241
      -51.53859      -42.26395      -22.81759       1.111542       23.13942
       39.12024       61.96793       85.47498       116.5586       129.3710
       151.1575       179.8698       197.0496       173.5648       137.0360
       130.9666       175.2901       249.4153       252.6047       267.5007
       584.4951       801.1366       535.9885       646.9810       1031.644
       405.3196      -7.350952       681.7886       386.1133      -614.0088
       76.04834       1234.667       974.2517       224.8815       430.2689
       797.7980       342.9832       512.7024       1088.460       859.3916
       466.5010       564.4624       722.5225       678.2954       879.8240
       989.5129       733.7439       652.2451       741.9629       833.3521
       613.7507       577.1177       1048.512       942.3821       385.5405
       817.0708       1708.889       1317.306       751.8884       729.3767
       535.8774       238.9343       398.0444       848.0137       814.2823
       377.3702       233.0308       469.2217       577.6477       798.0659
       1010.590       615.0383      -204.1659      -30.97461       743.3755
       761.9603       711.2968       439.5850      -161.4758       47.66516
       515.7985       209.9171      -24.92798       249.4843       525.9854
       348.9929       53.89301       296.1304       228.4457      -322.6654
      -225.3762       117.2601      -269.0328      -86.65588       593.1525
       31.62061      -878.9828      -606.4476       270.1516      -3.868164
      -647.1462      -489.9850      -272.4193      -375.0187      -517.2559
      -638.5597      -656.5211      -274.9122      -170.7164      -302.9072
      -340.8634      -404.5471      -596.2374      -727.4534      -221.3697
       4.610840      -504.3279      -724.3344      -541.5616      -277.5100
      -453.9888      -1038.694      -1140.826      -453.3317      -41.81006
      -600.6294      -1110.332      -926.1165      -238.3345       23.86621
      -484.7456      -643.5532      -746.5581      -1047.624      -572.8376
      -273.7271      -925.4988      -954.1488      -337.3928      -402.0424
      -740.9569      -542.3088      -384.9261      -589.9845      -468.5076
      -341.5691      -808.8690      -708.8332      -134.4607      -282.2190
      -534.0547      -770.3274      -847.7222      -451.2012      -352.8989
      -365.6865      -782.1970      -1068.047      -298.4452      -169.4015
      -512.3613      -258.1125      -298.0734      -721.0786      -491.2308
      -117.0642      -528.7319      -639.2320      -205.3281      -206.0569
      -547.0994      -463.3545      -337.7534      -362.4622      -305.9775
      -277.8462      -126.4833      -182.3269      -258.9766      -125.6225
      -17.30627      -131.5676      -505.1644      -415.6492      -159.4163
       44.28427       202.4752       15.48743      -138.2904      -165.1537
      -60.46082      -84.47186      -272.9913      -47.96887       323.7184
       230.5438      -75.29688       66.96504       105.1275      -63.46628
       72.56561       277.2262       178.1348      -58.36884       38.84692
       373.3602       495.0760       219.5038      -128.9535       122.5228
       521.9913       207.9477       54.75232       413.7046       78.53210
      -343.1372       121.0371       545.2290       598.6562       540.1304
       565.2673       592.0545       311.0458       335.8315       361.5305
       28.25989       188.7312       576.3495       214.1576      -86.34839
       446.8496       598.7585       142.7745       349.1980       630.3965
       313.3448       106.7056       297.5373       29.48795      -391.7566
       310.4536       851.7905       584.0624       532.3132       352.4541
       163.2354       576.0002       588.1373      0.9077148       76.46643
       493.6440       248.2584       152.6731       519.6656       417.2876
       230.4262       263.6534       273.6078       123.2564      -7.520996
       222.0410       507.1006       276.0563      -198.1726       28.70361
       392.7790       330.2303       204.5468      -58.80421       10.57745
       193.4341       212.5795       335.9047       196.9374       215.3753
       182.2965      -157.2556       36.41818       89.98886      -39.39746
       192.9332       291.5229       185.1252      -220.8490      -488.9453
       88.41608       477.2310       34.56665       92.59473       589.7465
       395.4150       69.06587       86.31596      -26.60164       20.82852
      -64.05174      -166.8055       256.5867       118.7422      -405.4752
      -359.5749       122.2144       184.2045      -53.75562       374.6127
       835.7213       300.7108      -462.7388      -194.1620       97.92105
      -173.8335       35.68195      -38.32214      -534.7792      -312.2441
       39.72169      -52.63699       33.25085       317.9611       25.45801
      -339.7295      -289.4097       72.12134       423.0342       454.4282
       428.6469       44.67468      -371.9977      -294.3149      -71.52167
      -124.1643      -242.8947      -157.1714       351.9894       603.1928
       192.5993      -44.13635      -200.3019      -634.0775      -438.9158
       334.8906       515.3609       152.3097      -167.6582      -483.0616
      -459.3187       107.7148       338.3474       336.0265       377.0455
       26.02753      -292.6625      -63.00384       28.15491      -176.7699
      -116.1561      -15.19843       73.53644       136.3465       104.7864
      -51.20309      -59.73511       397.3099       300.4200      -360.8224
      -374.2763      -86.28137      -107.6119      -324.3664      -97.18091
       583.9241       586.1194       137.4811      -112.2072      -235.4791
      -49.41492       266.1451       240.7716      -187.4756      -476.3409
      -244.7938      -14.45947       170.6812       191.0426      -252.4468
      -306.0312       52.61072      -247.5952      -552.1816      -371.7534
      -221.1772       194.6712       135.4462      -152.9092      -107.2308
      -457.1840      -645.1349      -210.5346       26.32733      -166.5142
      -236.0636      -251.2793      -520.6080      -370.1043      -95.19659
      -159.9106      -131.4574      -355.4053      -430.5259      -111.8958
       7.852295      -216.1923      -428.0721      -24.75220       335.7773
       76.94202      -355.9858      -702.0249      -849.5531      -423.6097
       143.7318      -65.26019      -215.6700       28.92932      -242.5500
      -357.6003      -77.70898      -157.0203      -119.4296       117.3243
      -318.5222      -633.3986      -251.9087      -340.1876      -533.0314
      -313.5929      -205.7285      -183.6349      -158.0492      -67.14838
      -63.17163      -315.0659      -772.7991      -721.9983      -172.4298
       34.93750       101.7970      -128.7539      -741.1902      -659.2377
       46.10724       272.1706      -2.562622      -318.4290      -390.1774
      -386.8192      -389.2787      -229.4883      -198.3879      -268.0279
      -157.9833       197.0957       202.3781      -267.6362      -274.8234
       289.8629       173.9467      -688.9499      -478.4445       432.7422
       184.1517      -375.8528      -249.5471      -238.9307      -71.70947
       600.0724       463.1011      -210.8901      -124.5557       382.3617
       573.0756       189.0690       3.867615       136.5540       197.8163
       401.2555       199.7695      -33.48181       251.3745       471.6241
       554.2527       162.2281      -46.34521       584.2480       812.8281
       490.2140       101.3652       333.4353       941.4470       487.6007
      -44.41425       172.8167       575.3447       708.9890       570.4087
       769.2458       672.5173       745.2065       1052.783       842.7423
       666.4001       218.1505      -235.3481      -36.99341       348.0645
       430.7102       797.7720       1146.989       620.3019       155.2896
       394.4786       630.1835       349.8220       77.34521       466.9219
       955.1963       815.8024       477.6428       494.4087       849.3289
       1151.413       984.8921       134.2818      -325.0808       193.0020
       841.1533       1368.002       1222.763       337.0635      -480.1652
      -642.7317      -63.18695       376.6606      -7.328247      -507.0244
      -187.3832       317.1921       216.5608       244.0847       303.0753
      -89.89380      -231.6477      -311.5559      -507.7335      -402.8152
      -22.61462       347.2314      -85.11884      -473.7899      -39.65417
       281.4083       370.6209       409.6968      -67.88397       24.70947
       792.0515       677.8900       643.3831       722.4356       29.30571
      -71.23492       364.8158       195.6509      -90.94243       23.59711
      -102.2532      -250.0889      -18.91577       287.8289       59.17480
      -606.9224      -717.7732      -628.4197      -326.7456       172.4844
      -206.0604      -612.1245      -573.0182      -463.5345       99.78369
       698.2946       456.1180      -242.3120      -1028.777      -1667.494
      -1281.942      -184.7000       381.0449       735.3042       1194.615
       1321.861       1449.927       1246.648       206.1504      -1120.583
      -2309.040      -2331.251      -528.2827       1704.229       2029.918
       1003.390       692.8167      -125.6196      -1810.612      -2012.185
      -791.9787       207.1917       20.12793      -789.5881      -806.1184
      -643.0126      -549.0186      -423.3877      -865.9055      -1166.718
      -662.2559       113.1111       43.94720       140.6498       715.8047
       17.95264      -1581.981      -2282.588      -1921.210      -1197.149
      -367.2339      -316.8706      -1134.997      -1861.004      -2364.760
      -2119.899      -1234.995      -924.4883      -1300.638      -2071.297
      -2546.917      -1543.274      -2.866455       751.0897       596.5546
      -137.0176      -838.3608      -1595.322      -1617.031      -734.2260
      -164.1195       94.32080       249.6863       515.7018       748.1063
       351.9286      -264.5023      -399.3804      -692.5596      -1325.971
      -755.3954       208.2908      -232.6938      -1320.088      -1881.542
      -2042.527      -2153.079      -2101.168      -1519.704      -749.4789
      -244.8242       848.4390       1456.591       579.4366       210.0991
       528.6438       509.1738       804.9990       1383.185       1379.436
       859.6014       106.5353      -340.1851       165.2056       788.4451
       400.2817      -595.9851      -1186.680      -1525.223      -1451.214
      -632.5935       76.86609       254.5684       301.0891      -38.26904
      -606.0046      -721.3834      -414.2568       55.71606       238.7213
       444.7842       930.7966       1168.966       1381.147       1845.588
       2031.666       921.5750      -747.1714      -1538.700      -1546.579
      -523.4316       1373.083       2617.449       2529.844       1968.628
       1463.377       849.6306       452.0490       586.5098       868.2751
       603.3625       543.9834       893.8224       725.6978       592.6211
       1089.267       1120.480       296.3600      -81.87994      -160.5295
      -561.3317      -330.1624       579.3545       1205.459       940.6982
       544.1721       650.4375       1130.358       1756.265       2133.267
       2163.470       1454.882       822.6084       1075.211       1072.297
       428.1131      -228.3625      -155.1732       283.4055       241.1138
       158.5200       435.6226       650.9080       1035.451       1397.494
       1002.575       145.0287       157.2871       1122.204       1770.966
       1411.647       865.3751       727.4565       443.7201       22.76926
      -168.3955      -71.64716       120.0095       460.4438       1108.088
       1339.019       1164.298       950.5923       555.4360       430.3634
       340.3966      -212.1865      -384.3668      -163.9163      -16.96594
       210.5813       156.3676      -30.21216       224.1971       186.9832
      -303.1442      -702.2114      -582.2559      -372.0642      -809.4557
      -794.2025       270.0386       1346.715       1576.117       941.8741
       267.0403       117.9471       259.5037       447.2159       423.5350
      -11.08936      -454.5225      -691.6818      -656.6063      -359.1533
       165.7773       616.9854       633.2566       717.8219       713.2067
       81.72327      -392.0173      -663.4797      -950.7080      -1011.972
      -1084.663      -893.1337      -385.3604      -220.7473      -420.8218
      -563.5849      -293.4865       87.40909       75.76660      -438.4309
      -973.3774      -902.3909      -773.6470      -1212.853      -1516.180
      -1311.190      -927.6487      -648.0066      -676.1980      -572.7587
      -417.3378      -650.9331      -734.3171      -445.3777      -331.6557
      -365.8415      -285.3213      -270.3942      -344.4478      -335.9834
      -594.1409      -856.1660      -825.6711      -802.3671      -679.2407
      -545.9597      -456.2215      -317.8076      -333.5554      -473.0383
      -544.8235      -810.7825      -1265.167      -1373.817      -1202.792
      -854.5420      -343.4314      -345.1252      -714.0955      -912.9666
      -925.9626      -658.9685      -427.1116      -325.2735      -297.9750
      -285.1021      -59.39029       183.8645       14.93921      -406.0681
      -858.0818      -1070.555      -914.9929      -794.2388      -956.4011
      -1168.043      -1374.318      -1445.341      -1112.007      -629.2981
      -516.6387      -702.1345      -599.9624      -373.6826      -378.5376
      -105.5527       38.23676       28.34265       293.2446       360.5994
       189.7192       339.9786       606.7523       664.3279       481.5676
       168.2264       177.4194       516.3564       763.0309       587.5768
       301.5036       306.9697       25.60388      -404.2908      -507.2203
      -604.4846      -323.7802       189.7024       456.5540       487.7838
       507.3894       706.0499       550.3420       295.0735       395.9327
       469.1636       410.0869       334.1863       303.2289       157.5106
       247.0754       470.1232       205.2307       262.5061       707.3955
       885.7349       1066.642       1123.715       1021.412       1059.926
       756.0863       427.3745       843.0349       1030.976       385.6619
      -76.09743      -80.47870       16.32178       277.0205       629.4021
       708.4985       455.6902       304.0125       435.1653       500.9503
       657.2635       638.7634       243.9869       82.66040       176.4973
       384.1682       677.8562       615.6466       275.0096       34.85956
       53.53098       148.4434      -135.8281      -312.4684      -131.4426
      -158.1701      -176.5827      -116.4496      -21.56543       191.9630
       376.7119       505.4658       474.3645       381.5164       409.3890
       506.9875       364.0052       155.3962       365.6692       513.8217
       525.4348       729.3184       767.2803       695.7341       743.4338
       752.5786       851.4786       732.6110       393.5344       439.1569
       316.9775       52.35791       275.6208       262.6686      -206.0609
      -41.90681       193.9048      -240.8882      -334.9526      -176.3967
      -472.3322      -717.5554      -543.7268      -464.9024      -325.9907
       113.3231       20.39252      -322.6052      -76.40594       273.7174
       417.2756       280.0173       47.44824       140.5492       173.2187
      -25.04291       33.71057       382.3749       463.4535       293.4564
       295.7780       371.4499       320.2306       145.8352       219.2083
       327.4604       156.0566       107.2427       160.1571     -0.3413086
      -270.2275      -562.8340      -715.4814      -756.4814      -606.1265
      -261.8083      -35.14168      -33.87799      -51.10855      -82.66391
      -124.3025     0.01565552       74.43031      -19.00841      -47.75160
      -7.355286       88.16711       166.8132       96.97754      -161.4706
      -336.1825      -600.6113      -830.3245      -557.5543      -276.0181
      -246.8029      -171.5162      -208.7979      -354.0690      -283.5823
       13.63504       59.43623      -71.85684      -81.54633      -114.4186
      -228.5377      -399.5930      -347.9658      -141.5956      -86.77290
      -9.005585       133.2918      -19.29797      -376.6768      -492.3813
