     0.02500000      -3830.826       6198.287      -12345.00      -12345.00
      -30.01003       217.0149      -18.36000      -12345.00      -12345.00
       0.000000       14.09000      -12345.00      -12345.00      -12345.00
      -12345.00      -12345.00      -12345.00      -12345.00      -12345.00
      -12345.00      -12345.00      -12345.00      -12345.00      -12345.00
      -12345.00      -12345.00      -12345.00      -12345.00      -12345.00
      -12345.00      -31.90580      -68.77510       1333.000       0.000000
      -31.24600      -68.98500       0.000000       102400.0       0.000000
      -12345.00      -12345.00      -12345.00      -12345.00      -12345.00
      -12345.00      -12345.00      -12345.00      -12345.00      -12345.00
       75.82317       164.8194       344.7100      0.6817487      -12345.00
      -12345.00      0.2390322       0.000000       90.00000      -12345.00
      -12345.00      -12345.00      -12345.00      -12345.00      -12345.00
      -12345.00      -12345.00      -12345.00      -12345.00      -12345.00
      2008        16        21        17        55
        60         6    -12345    -12345      9882
    -12345    -12345    -12345    -12345    -12345
         1         7        13    -12345    -12345
    -12345    -12345    -12345    -12345    -12345
    -12345    -12345    -12345    -12345    -12345
    -12345    -12345    -12345    -12345    -12345
         1         1         1         1         1
CHIL    -12345          
        -12345  -12345  
-12345  -12345  -12345  
-12345  -12345  -12345  
-12345  -12345  -12345  
-12345  -12345  -12345  
-12345  -12345  BHN     
ZL      -12345  -12345  
[...]
      -68.42310      -68.05817      -68.54031      -83.75989      -109.1497
      -132.8691      -142.5103      -139.5052      -125.7641      -150.4629
      -180.7849      -194.1870      -220.0648      -250.8229      -251.6612
      -256.1742      -282.3451      -323.6449      -346.4537      -359.3400
      -383.8186      -411.8265      -424.3945      -447.2568      -472.5851
      -493.6814      -514.1411      -545.4941      -575.9182      -591.7607
      -601.0352      -610.6501      -636.5648      -650.1432      -653.0894
      -670.6851      -690.0012      -692.7112      -694.5791      -700.9746
      -714.0813      -722.4624      -709.2749      -708.9250      -710.8184
      -709.2400      -700.0408      -694.1709      -687.2859      -671.2401
      -649.0315      -636.2799      -618.0776      -594.9028      -573.1838
      -547.9574      -520.3904      -483.8813      -434.0637      -400.2194
      -376.7273      -343.2971      -290.8890      -244.5756      -197.6801
      -153.1757      -99.07521      -58.56083      -32.17570       5.773102
       63.91354       115.4394       157.0917       183.4977       210.7867
       253.7368       302.3365       328.2430       358.2424       379.0039
       406.0929       441.6007       477.6724       490.8790       501.3926
       505.8350       524.0295       540.8975       570.6921       588.2747
       584.7424       570.7810       576.7931       587.4644       605.7131
       591.1801       590.0321       608.3248       610.6776       584.5439
       587.8239       602.1265       608.8374       598.3246       616.3015
       619.3110       596.5293       579.8231       608.7920       608.5452
       589.4475       598.1230       621.8894       612.1050       593.0608
       579.5388       601.8856       616.0293       616.0739       614.9316
       626.7690       620.4705       623.3018       621.5767       631.7283
       642.0039       650.9902       659.1775       657.8551       641.2549
       654.8274       665.9971       667.0061       648.6853       650.7454
       663.2617       673.7903       657.4148       642.9481       639.1708
       646.7678       642.3191       640.3528       618.9557       612.3262
       591.9451       566.5732       563.7881       576.0898       548.9825
       502.5885       476.0419       484.7195       460.2048       437.5448
       415.2726       374.9440       336.3907       335.8608       312.7413
       267.7698       218.0068       195.4117       175.2487       135.1669
       93.44763       66.70306       28.30464       3.663208      -38.74054
      -75.39981      -109.3981      -150.3385      -174.7113      -187.8293
      -244.0739      -291.8701      -297.1440      -310.0049      -362.7660
      -396.5950      -392.9236      -406.5521      -443.6174      -446.5288
      -456.9647      -476.8906      -503.1979      -502.5718      -496.9988
      -505.1104      -524.8064      -520.9502      -515.4316      -527.1593
      -535.3232      -519.8989      -534.3131      -542.7625      -533.8820
      -526.3530      -539.0623      -538.4912      -534.3381      -534.9177
      -535.2876      -523.3604      -525.5942      -527.1683      -525.6047
      -526.8374      -516.3102      -499.5352      -503.0328      -502.3010
      -501.9875      -496.4122      -495.4188      -489.2032      -488.8641
      -482.5732      -481.4746      -480.3979      -482.4445      -462.6735
      -472.9592      -471.5625      -460.3270      -462.3400      -469.4492
      -451.1628      -453.1350      -466.6855      -466.0402      -436.5181
      -442.2485      -443.9906      -436.7797      -418.6281      -414.6543
      -416.5931      -418.0575      -392.4803      -396.3760      -401.9060
      -389.8552      -375.4889      -384.9073      -368.0754      -360.7057
      -354.4191      -360.5687      -351.9415      -341.6066      -342.0213
      -346.3177      -329.8726      -335.5270      -326.7970      -310.7024
      -305.4856      -301.5732      -291.1905      -294.3630      -265.4825
      -279.1146      -331.4495      -288.0310      -230.3689      -328.0321
      -336.1101      -202.0978      -206.7041      -267.8232      -147.4399
      -85.04163      -242.8103      -244.8223       43.71890       32.06128
      -333.9666      -314.8966       52.66678       160.6973       46.90407
       22.21063       132.6980       54.35391       9.302277       103.2154
       2.910797      -34.60541       192.8132       261.5622       143.7810
       179.9121       368.0775       382.0810       306.9149       408.0081
       439.6914       175.4716       148.8059       457.5380       540.1638
       302.3436       177.8660       298.6167       450.7866       618.5242
       699.8967       477.6210       264.0006       360.3328       569.2129
       572.7524       546.7397       608.6069       567.3885       411.6233
       558.9578       758.2408       647.2950       502.7251       448.0228
       430.1500       484.5710       566.4780       629.4131       549.1140
       539.4058       757.7090       720.5250       434.8131       425.0723
       554.7148       562.6227       372.4829       329.9330       445.4015
       433.7061       423.3457       409.6854       278.3619       332.0425
       447.9409       411.7172       381.8412       372.4177       391.0041
       283.2894       142.0413       215.1706       228.0522       231.7919
       283.7791       287.9447       220.8168       182.4977       221.6998
       321.2944       304.3715       159.4034       99.83533       191.1702
       300.9897       288.8109       107.5030      0.7570801       82.02167
       231.5717       202.1611      -10.89374      -164.5600      -54.40259
       178.7000       144.3810      -35.35064     -0.8080521       34.91130
      -12.24564       14.14600       95.21406       23.21671      -171.6030
      -127.2584       56.74319      -45.14929      -239.4083      -183.4167
       8.856392       37.78058      -131.5271      -305.6404      -206.7289
       60.65862       81.19409      -237.0159      -457.5748      -307.3478
      -191.2459      -251.8143      -219.6274      -247.1830      -348.5936
      -304.3456      -189.4343      -220.7830      -322.0250      -312.9794
      -359.5575      -323.8652      -194.7700      -338.7571      -597.2198
      -606.5872      -349.6351      -323.1465      -535.9116      -521.8983
      -294.0964      -301.8335      -406.8239      -344.9220      -279.0078
      -387.2185      -505.8445      -331.7211      -191.8093      -307.6278
      -424.9126      -433.8412      -271.2432      -270.5171      -493.1326
      -512.0011      -299.4144      -96.10199      -193.1500      -411.5579
      -360.2586      -231.9902      -322.9777      -498.8889      -433.7452
      -186.9573      -130.8019      -270.0671      -249.9910      -136.7855
      -160.2114      -155.1037      -33.92557       60.36633      -145.9966
      -463.5859      -312.0596       36.76181     -0.4132080      -207.2415
      -238.7958      -129.5350      -60.21967      -54.26978      -85.10391
      -86.69249       20.70755       168.7407       115.0952      -53.14678
      -43.89854       41.87833       8.326584      -26.57559       108.5700
       110.7415      -136.9548      -155.2867      -1.690895      -12.10884
      -57.53650       59.55865       134.5905       33.47534       20.06523
       18.18579      -131.9168      -165.6800      -2.867500       54.65100
      -152.7363      -270.5681      -118.7333       121.1763       327.6999
       247.4631       66.59253       87.09732       89.88038      -6.297195
      -26.32001       75.39679       174.4423       80.96042     -0.2794189
       111.6498       254.7287       278.2118       258.2375       150.1765
      -41.58591      -72.11172       20.30746      -9.655853       7.672302
       213.9596       252.5308       98.77216       180.6306       287.5617
       262.8511       260.8330       229.1216       197.6360       168.8274
       223.2946       385.0110       323.9060       293.1644       297.9782
       122.1295       32.36621       279.0164       542.9318       425.8159
       210.1443       137.7164       173.1271       344.8346       422.4618
       430.4924       394.7100       306.7938       398.4423       577.6259
       529.8807       321.3457       333.5385       560.5818       511.8065
       385.1267       417.1279       551.9707       554.5037       317.8391
       369.5605       558.8120       498.5665       517.9177       593.8074
       584.6106       532.0615       497.4316       404.0725       352.4612
       503.5303       587.9032       360.1963       147.6068       303.8092
       487.8243       362.6690       137.9304       20.43158       103.4269
       269.5598       353.2107       291.6076       186.9072       109.9291
       189.1429       234.6489       69.07520      -116.7008      -232.7122
      -262.6806      -140.8529      -36.39526      -143.8969      -321.5649
      -324.0272      -204.4270      -138.3297      -219.6980      -216.4514
      -87.81894      -95.20129      -212.6810      -252.2832      -298.3220
      -390.6488      -353.2488      -319.0769      -471.0918      -538.8970
      -552.5706      -575.5597      -604.8036      -669.2153      -667.2412
      -580.3501      -518.5944      -501.8042      -459.8792      -421.0421
      -440.1943      -438.7422      -487.0374      -507.3838      -467.9210
      -554.0974      -659.5659      -564.2177      -419.5526      -438.9253
      -601.6887      -642.0424      -601.1824      -568.1085      -391.5994
      -287.9360      -405.2834      -510.9465      -455.4880      -406.7260
      -514.3699      -593.2140      -446.8719      -227.8448      -179.9775
      -260.7878      -400.6735      -407.9828      -339.9579      -329.6958
      -346.0222      -423.7343      -268.5209      -114.1660      -305.2244
      -352.2861      -244.6574      -120.1467      -144.6825      -364.8544
      -338.1983      -106.5312      -1.633240      -120.0198      -205.9207
      -80.79474      -120.0939      -266.1492      -243.4489      -159.2851
      -161.5931      -125.4256       29.62915       117.8037       2.867432
      -182.3107      -204.6828      -35.54996       123.5102       113.3237
      -37.04963      -28.09506       99.78931       82.09082      -84.64807
      -173.9821      -120.0961      -14.02344       187.7872       302.0021
       117.8522      -104.9403      -158.6422      -40.33295       133.6880
       315.8111       303.9559       197.2072       147.7631       14.40318
      -104.9647       23.06006       266.5122       330.0381       160.5651
       72.17285       193.4865       348.9663       327.8465       174.8867
       164.2974       256.6945       206.1835       203.8328       282.3381
       334.0402       390.0936       391.9380       208.1322       36.25952
       186.2546       524.4598       496.0450       133.4559       105.6420
       430.8489       465.4167       320.1792       367.6003       487.1143
       443.9769       491.6809       542.4733       274.2360       164.7234
       312.3484       290.2202       249.8119       404.7698       685.4204
       751.6731       730.5577       710.3621       515.5240       353.3447
       322.1169       408.7861       477.4419       353.1443       480.7953
       663.3781       550.5816       305.7305       102.8035       51.85126
       43.79382       192.3875       394.8773       286.7499       169.6831
       265.4161       490.4958       619.2322       635.4783       526.0217
       429.2311       486.3059       495.6709       466.5667       439.1056
       354.0831       372.1409       315.3262       304.9529       436.1006
       447.9586       252.5276       34.31058      -111.1291      -143.1961
      -38.13945       76.21222       49.85016       61.40424       63.26151
       127.9260       203.4059       243.4878       262.7702       300.2706
       322.4828       225.2900       131.5308       287.1202       492.2778
       487.2782       253.5685       116.1258       130.7591       155.9844
       207.4118       229.5060       45.22876       55.23804       283.2491
       267.0431       72.44237       91.81409       18.74628      -216.3912
      -271.9268      -249.3765      -326.0750      -334.7023      -305.2749
      -172.8808      -5.915771      -78.95947      -334.2030      -249.6951
       108.8131       209.0217      -249.8337      -920.3564      -1594.431
      -2312.347      -2946.556      -3275.262      -3496.945      -3715.064
      -3498.443      -2813.206      -2366.258      -2395.805      -2719.007
      -2993.689      -2948.801      -2266.676      -1150.481       54.52393
       1335.349       2499.410       3662.328       5071.215       6168.381
       6198.287       4262.548       1000.040      -1196.526      -1277.318
      -229.5439       752.7227       1316.999       1771.791       1127.037
      -1226.665      -3381.271      -3830.826      -3581.561      -3514.942
      -2789.383      -1088.362       78.88745      -440.8740      -1834.962
      -2449.569      -2381.059      -2931.638      -3657.414      -2436.937
       895.4102       3979.112       4959.297       3686.817       1084.217
      -825.1758      -1032.074      -391.1560      -675.4941      -2047.548
      -2103.656       67.67969       2124.014       1703.354      -435.2935
      -1853.943      -1853.648      -884.5261       415.3228       877.8608
       327.5145       273.6152       940.9915       1108.819       471.2782
      -157.8914      -382.4529      -706.1799      -937.3635      -486.1241
      -365.1147      -1139.552      -1037.952       502.6235       1565.639
       1735.924       1762.511       1469.173       1210.271       1685.470
       2003.334       1226.373       316.9567       410.2715       1104.130
       1250.836       345.9011      -959.5654      -1769.425      -2052.987
      -2106.609      -1695.990      -710.0764       475.7563       1324.087
       1721.601       1862.476       1946.600       2025.547       1384.775
      -207.1118      -1073.943       44.13721       1696.964       2310.319
       2262.991       1835.815       1005.210       313.4814       92.96271
      -71.43408      -867.7920      -1507.581      -712.0317       416.7827
       582.4900      -50.69287      -1123.471      -1197.028       444.3311
       1925.242       1629.927       392.9658      -343.9651      -546.6387
      -710.4219      -926.6277      -883.6244      -512.8458       8.470459
       520.9116       842.5649       742.3887       458.5200       915.7197
       1567.900       1036.762      -237.4722      -723.6699      -24.90173
       457.8387       238.7868       94.14417      -158.9209      -962.0327
      -1533.281      -1486.677      -1480.283      -1438.799      -1089.048
      -887.3690      -597.7061       260.6450       1285.848       1899.440
       1687.856       744.5145       147.7966       495.4016       1239.899
       1540.551       1259.260       606.5031      -79.52823      -173.9463
       348.2166       864.2406       753.3490       5.710938      -751.2289
      -762.0227      -173.7625      -252.8213      -711.5954      -164.4639
       837.2993       1125.023       794.2189       532.6262       684.3037
       838.2794       726.5233       565.9850       343.8446       30.47031
      -57.70197       2.744873      -391.4517      -926.7576      -580.5476
       180.1693       310.4580       110.4365       174.3171       263.1883
       244.7208       24.72217      -568.2896      -857.4337      -456.8995
      -40.80492       6.914917      -18.49597       363.8594       893.7009
       672.4606      -34.80115      -226.0970      -151.8901      -502.5181
      -1043.224      -989.0273      -374.6731       118.0819       379.2442
       283.5688      -129.0288      -248.3888      -84.77527       200.4306
       392.4261       48.40625      -598.5618      -1053.205      -1274.172
      -1040.901      -223.9453       588.2676       755.7334       575.6758
       766.4976       1078.533       776.8662       177.6772       133.8567
       365.5202       357.9824       103.5942      -269.0643      -307.5812
      -467.2761      -1071.686      -942.1959      -94.67798       203.6566
       171.7719       297.3004       295.9279       266.9745       176.2858
      -14.93337      -13.21162       27.90112      -263.3022      -888.5425
      -1526.291      -1844.493      -1670.839      -1158.904      -633.6434
      -188.5763       51.89777       72.92444       247.2809       493.1437
       438.5097       84.58337      -359.5750      -603.2748      -525.3831
      -307.6165      -73.01010      -32.93433      -271.6953      -510.0328
      -545.2959      -474.6591      -599.8330      -840.6084      -690.7677
      -306.0997      -189.0850      -190.3723      -230.5625      -591.2234
      -921.7358      -844.6130      -649.3601      -612.3032      -699.9199
      -847.9424      -797.3320      -474.7666      -143.8412      -30.40613
      -210.1377      -325.8258       183.9338       746.2507       475.6987
       64.90646       105.5804       44.30499      -85.96338      -209.3321
      -271.1447      -51.04556       147.4488       86.10669      -338.9182
      -970.2751      -952.9019      -607.2410      -762.0989      -982.8304
      -733.2328       17.04053       596.2167       516.7814       336.5608
       507.6819       671.6125       229.5450      -117.2690       208.4329
       506.2393       580.0376       586.3865       383.8333      -5.682556
      -195.9139      -172.8814      -193.0681      -274.4612      -473.8376
      -805.4639      -1060.525      -907.8831      -411.4717       182.9795
       742.7788       907.4340       620.4567       197.5960       63.80688
       309.9265       515.2054       327.0879      -32.07993      -20.92749
       361.0458       597.0635       571.9382       555.4155       688.6617
       552.7001      -2.879883      -518.3713      -703.8054      -632.3843
      -551.9378      -433.4456       176.5029       955.6714       1106.361
       489.2066      -159.1382      -149.7919       102.8806      -19.92383
      -338.9414      -588.6086      -651.6892      -419.9501      -162.3985
      -215.7616      -345.8044      -289.9500       26.15967       211.8187
