     0.02500000      -4178.195       4598.862      -12345.00      -12345.00
      -30.01003       217.0149      -18.36000      -12345.00      -12345.00
       0.000000       14.09000      -12345.00      -12345.00      -12345.00
      -12345.00      -12345.00      -12345.00      -12345.00      -12345.00
      -12345.00      -12345.00      -12345.00      -12345.00      -12345.00
      -12345.00      -12345.00      -12345.00      -12345.00      -12345.00
      -12345.00      -31.90580      -68.77510       1333.000       0.000000
      -31.24600      -68.98500       0.000000       102400.0       0.000000
      -12345.00      -12345.00      -12345.00      -12345.00      -12345.00
      -12345.00      -12345.00      -12345.00      -12345.00      -12345.00
       75.82317       164.8194       344.7100      0.6817487      -12345.00
      -12345.00      0.2224684       90.00000       90.00000      -12345.00
      -12345.00      -12345.00      -12345.00      -12345.00      -12345.00
      -12345.00      -12345.00      -12345.00      -12345.00      -12345.00
      2008        16        21        17        55
        60         6    -12345    -12345      9882
    -12345    -12345    -12345    -12345    -12345
         1         7        13    -12345    -12345
    -12345    -12345    -12345    -12345    -12345
    -12345    -12345    -12345    -12345    -12345
    -12345    -12345    -12345    -12345    -12345
         1         1         1         1         1
CHIL    -12345          
        -12345  -12345  
-12345  -12345  -12345  
-12345  -12345  -12345  
-12345  -12345  -12345  
-12345  -12345  -12345  
-12345  -12345  BHE     
ZL      -12345  -12345  
[...]
      -342.4738      -317.8300      -299.1047      -255.5204      -268.2015
      -317.0003      -202.5862      -131.7149      -178.0503      -118.5135
      -46.92223      -25.85710      -7.264340      -3.528336       11.51212
       49.86957       59.77374       30.98682       83.59265       158.5574
       178.1754       194.3950       201.9379       229.8290       308.6218
       369.9009       427.1534       442.9053       415.2944       420.2473
       445.2189       475.5693       454.7212       452.7097       601.3086
       672.8643       661.1030       683.1309       646.0486       670.7881
       729.6357       752.1077       758.8521       751.6626       817.1907
       821.0823       767.6599       800.9260       865.9653       876.8103
       866.7034       876.1702       879.7925       881.2600       902.1853
       840.5093       767.1519       780.5945       813.5264       808.1035
       824.0134       823.8135       800.7183       756.5356       724.8013
       711.3256       675.7832       672.8062       679.3990       633.9448
       590.3125       541.1705       503.6598       513.8788       510.6417
       456.8663       382.6932       303.0837       286.0589       331.8953
       293.9226       134.6825       83.16064       127.9521       182.3152
       207.6968       160.8796       122.3420       108.7708       114.3181
       68.31015      0.1469116       61.11267       114.1555       45.58265
       28.68365       31.73306       5.015423      -6.197006      -26.45044
      -82.46399      -132.1697      -156.7688      -196.6182      -236.3519
      -232.9961      -216.6748      -290.6567      -313.9252      -295.5769
      -366.4894      -454.1680      -442.5448      -396.9543      -465.8572
      -520.4376      -555.1133      -567.8542      -623.1302      -627.7961
      -566.3892      -667.2236      -744.8346      -676.0737      -645.6460
      -702.1249      -680.2949      -616.6560      -651.6121      -696.8733
      -663.0970      -628.7102      -659.6240      -649.8638      -639.0006
      -614.5056      -581.1235      -595.7488      -612.9188      -639.1210
      -647.3611      -615.3586      -607.6068      -663.4443      -673.6847
      -599.5459      -560.4568      -508.4873      -551.4294      -589.2146
      -540.9061      -554.7629      -552.3989      -530.9590      -525.4519
      -479.7477      -434.1299      -403.8955      -403.5848      -399.1084
      -420.1504      -395.8048      -334.9707      -321.8069      -311.3962
      -279.3149      -228.5445      -201.9540      -216.3367      -144.4796
      -103.9010      -190.4547      -200.6891      -135.3663      -99.61328
      -91.19489      -122.6131      -92.61725      -53.97996      -46.72662
      -5.769876      -1.062042       13.85095       72.97514       40.27725
       38.20578       88.49496       118.7079       166.4161       214.1338
       239.5030       238.5611       269.5730       292.0388       245.9977
       272.5731       298.7551       296.0656       324.1449       361.3533
       419.6400       485.0763       486.9521       470.9360       468.2461
       492.3743       516.9941       552.7750       604.9578       591.2727
       587.0420       601.9626       564.9172       563.0425       561.4028
       577.5378       660.7019       669.5735       613.2511       540.7565
       489.2964       526.9086       535.4115       503.8052       515.4379
       470.3112       455.2191       443.9177       381.3878       357.3456
       343.5092       321.5345       326.6854       315.0984       240.7690
       190.8929       160.2957       62.19322       25.19142       20.80342
      -35.36484      -85.04593      -116.3177      -154.8326      -167.5272
      -176.8030      -255.9116      -351.0136      -324.5369      -355.8751
      -475.1287      -481.5482      -485.8245      -502.6455      -454.2078
      -468.3577      -520.8063      -535.7366      -511.2263      -527.7698
      -561.1445      -589.7797      -615.6711      -602.6775      -521.7534
      -462.9554      -546.2662      -555.3900      -333.5167      -295.8192
      -458.0994      -316.9966      -308.0609      -527.3284      -398.9561
      -76.47168      -78.76172      -307.0013      -254.1032      -59.52632
      -43.25748      -136.9392      -24.81775       181.0128       90.09322
      -83.54031      -44.40027       249.9316       468.8968       339.9605
       241.8011       355.8981       238.9905       113.9758       395.6418
       581.8721       443.9564       381.3538       326.7882       339.6476
       581.7358       762.7424       651.4407       484.3823       526.5850
       648.9426       537.1436       510.9197       797.4885       794.5586
       418.5251       311.4100       565.6248       664.0295       666.9083
       576.8146       474.5859       570.7334       554.3909       605.4451
       732.1851       742.3811       584.3928       389.3842       435.0461
       544.7791       526.0286       463.2085       413.4288       404.6207
       340.9373       471.5327       666.7395       367.0002       120.0850
       336.0371       501.5529       379.0967       182.9620       200.4935
       288.1907       448.8757       456.5430       249.1829       190.0643
       234.0315       23.81593      -70.99542       261.0616       447.5206
       228.8315       24.98627       139.3442       162.0274       47.11784
       88.74811      -66.60040      -242.4746      -133.0121      -114.3475
      -230.1316      -171.2526      -140.0511      -414.2249      -553.8690
      -216.7097       60.33459      -133.8247      -402.5920      -450.1321
      -582.7172      -549.0088      -385.1740      -427.0378      -533.5967
      -707.1304      -853.3613      -830.9769      -623.1129      -541.1719
      -757.6868      -938.8979      -986.5366      -838.2114      -693.7744
      -905.5308      -1077.204      -885.9678      -855.8015      -1166.122
      -1185.753      -764.7710      -743.1357      -1071.851      -1093.477
      -985.5027      -951.2764      -916.7371      -929.1201      -989.6428
      -1162.915      -1177.219      -1013.505      -929.8623      -992.3079
      -899.1479      -790.9619      -926.6260      -1034.746      -867.3153
      -544.9602      -511.7546      -864.3176      -953.9574      -584.2915
      -395.5044      -670.5527      -764.4697      -663.3752      -638.9355
      -683.7104      -710.7932      -500.8540      -270.4468      -336.7947
      -544.1982      -556.2384      -352.9110      -162.6694      -111.0361
      -254.8936      -355.1019      -334.6098      -185.2214      -154.6872
      -161.6890      -110.0433      -115.2606       6.385376       140.1960
       232.5299       244.7259       53.43799      -31.10730       84.76410
       281.3045       189.5158       71.35803       294.3480       301.7842
       115.3638       194.6409       270.1240       264.6033       374.5934
       531.7522       427.1951       349.7869       524.6458       504.0848
       310.8334       363.5361       450.9916       342.1757       337.9655
       543.4532       623.8140       562.4255       487.7399       387.6022
       405.4534       501.1788       504.8018       651.6259       713.1702
       427.6747       258.7820       488.9294       720.6107       575.2559
       426.7817       499.4076       414.6399       476.7610       737.2061
       771.0701       547.1097       434.9218       400.7261       343.8127
       499.3923       712.0836       625.4033       599.1033       684.5601
       671.9537       623.8118       724.0012       827.7587       588.9316
       402.9172       595.3967       760.3828       735.5188       667.9351
       699.7544       653.8262       634.3868       584.8663       503.5522
       568.5239       555.2037       603.7440       666.7358       530.0933
       537.0542       664.1831       688.7532       583.0419       374.1394
       327.6110       400.9232       392.3921       349.4479       363.2340
       380.1207       321.4363       271.9288       331.0366       487.8373
       213.0247      -115.8525       172.3439       372.6180       22.84476
      -85.90234       266.3441       401.0753       227.1398       31.57520
      -72.86688      -193.3986      -312.6744      -196.1639       67.24912
       59.61560      -224.6539      -193.7321      -7.052246      -129.1520
      -417.7001      -495.5670      -260.8187      -138.4889      -282.7766
      -334.9800      -174.5695      -221.7666      -501.6531      -495.1971
      -280.3134      -158.2059      -308.1505      -527.0889      -596.7415
      -475.7917      -238.5852      -21.09018       133.2331      -14.86365
      -343.2373      -391.8286      -149.1719      -106.2168      -195.1649
      -180.2746      -206.4886      -167.6360       49.72400       228.6043
       284.0316       190.6810      -23.27798      -32.34497      -2.522888
      -184.6763      -223.0803      -9.680054       189.5409       303.9394
       232.2399      -46.17114      -155.6703      -10.82776       82.48761
       73.87241       132.1991       118.4896      -95.29919      -236.7446
      -39.54150       172.5029       111.0651       3.144501       73.48328
       300.3821       349.0950       132.1206      -83.88452      -219.7064
      -198.0833      -186.7480      -217.8548       12.37109       293.0566
       204.6065      -165.3741      -239.1837      -31.00609      -8.910095
      -77.27808      -121.0630      -213.5281      -207.0958      -207.6589
      -171.3212       161.8016       341.0021      -106.1995      -462.6518
      -271.7177      -165.8275      -238.6725      -206.9256      -91.27780
       88.82150       115.4733      -60.33459      -171.9513      -216.6749
      -252.7555      -111.7053       75.62457      -24.96423      -214.9189
      -284.6335      -199.2679      -18.77727       33.53947       23.11752
       17.83057      -54.87183      -275.8602      -274.9249       98.70831
       229.6876       40.94286      -7.254333       60.51756       19.25726
      -58.63300      -114.0765      -224.5420      -282.9371      -223.5527
      -75.00957       105.6468       18.91235      -244.3578      -303.2652
      -181.1577      -85.40569      -47.96705       9.161987      -79.11682
      -278.7479      -369.2935      -334.7324      -215.9258      -92.13879
      -138.5887      -242.4177      -260.0481      -244.4523      -106.8783
      -36.63501      -158.7067      -340.1216      -589.1049      -571.5426
      -170.3085       55.92731      -54.94495      -186.1304      -303.1348
      -413.0034      -296.1034      -119.9639      -205.3212      -184.0841
       10.49889      -31.52490      -128.0524      -210.4966      -287.1603
      -164.8101       34.98376       144.4850       171.2990       56.86304
      -192.4463      -121.3259       296.5284       330.1273       173.6107
       155.8417      -3.145447       11.78577       371.2262       499.2637
       214.1052      -8.404129      -18.62433       106.7524       220.0818
       307.7195       343.3830       183.0355       162.2201       506.2219
       634.0085       391.5206       245.5809       238.6497       126.6804
       89.18506       286.6437       403.6135       198.9052      -23.32196
       12.00684       337.6510       603.2075       593.0375       449.8030
       376.0779       129.0640      -205.7987      -20.95850       265.9443
       391.6819       606.0138       544.2700       115.2313      -203.1288
      -111.3499       82.43872       284.0781       312.3771       110.8701
       151.6567       332.7817       89.04065      -291.2380      -175.1116
       238.4217       368.2570       138.4952       73.39948       282.6493
       66.05859      -391.0394      -375.6691      -86.64702       65.71869
      -58.17065      -230.3085      -89.87842       93.65221       5.713837
      -140.1493      -62.48254      -115.1194      -355.0785      -336.3461
      -154.9561      -63.37207      -170.8539      -502.5210      -620.8060
      -495.5436      -561.1208      -734.4027      -594.5240      -345.1030
      -509.0483      -887.6501      -794.7994      -362.9063      -147.8769
      -127.0173      -180.0781      -385.3453      -441.7601      -359.4299
      -322.3137      -341.4211      -543.7561      -635.1741      -540.1546
      -309.0951       87.91968       360.0692       592.3796       825.0612
       725.2800       311.8588      -42.93500      -194.1101      -21.89966
       436.8711       1171.487       1722.118       1276.171      -93.80176
      -1895.211      -3369.233      -4054.729      -4178.195      -3674.633
      -2894.608      -1951.226      -88.82324       2036.722       2031.212
     -0.4809570      -1466.275      -1499.761      -624.3354       421.1270
       650.8149       765.9180       2159.100       4031.950       4598.862
       3158.833       590.6631      -1808.888      -3707.183      -4040.001
      -2141.803      -12.09674       83.94128      -467.8262       1263.575
       3967.538       3722.496       795.4004      -1283.009      -1297.195
      -1012.037      -1261.496      -961.1019       19.32715       1234.771
       2298.214       2110.002       1090.869       973.0205       1679.961
       1699.056       656.3265      -704.9202      -1262.914      -583.5620
       774.3154       1765.656       1456.753       162.3407      -535.2626
       27.91821       1079.421       1713.442       1650.142       719.8120
      -1072.812      -2266.989      -1738.921      -896.0396      -263.6377
       618.0579       1163.342       730.1769      -257.1270      -1016.872
      -1278.245      -1024.764      -787.9338      -1037.491      -582.3428
       1300.385       2914.384       2174.696       115.6545      -780.6487
      -177.7241       863.8594       1153.968       541.4034       173.0608
       35.87012      -438.3828      -1303.456      -2110.855      -1541.973
       523.0798       1556.610       636.1464      -53.02466       582.7817
       1183.564       1124.895       974.7651       1219.396       1320.814
       189.5972      -1005.070      -462.6553       1265.388       2354.624
       1806.704       675.3657       17.49609      -529.7354      -1397.498
      -1982.760      -1783.240      -1048.991      -824.6323      -1441.520
      -1509.555      -344.7998       477.6296       259.7487       35.68019
       32.40282       57.55334       103.8457       310.8140       1098.100
       1735.150       1355.634       262.0964      -614.3909      -844.8374
      -614.9199      -522.4543      -696.3562      -402.5439       361.0023
       503.5474       72.48218       330.5464       876.0820       502.7673
      -297.5518      -836.3206      -1022.865      -362.0364       958.7886
       1449.342       1204.135       1301.664       1206.196       633.9122
       239.5542       300.7239       1029.562       1720.378       1272.138
      -129.6069      -1136.438      -1459.429      -1670.488      -1731.959
      -1439.687      -621.6527       374.2465       666.5322      -176.1631
      -1228.491      -1319.023      -755.7057      -97.94287       563.4797
       927.1663       650.7622       295.7441       422.4023       519.9555
       278.0892       43.07715      -187.3589      -769.2500      -1108.116
      -303.1423       586.3129       152.6289      -984.2319      -1595.967
      -1579.086      -1430.600      -940.6335      -229.9466      -11.89444
      -142.5899      -184.3634      -59.59454       226.0070       281.5026
      -5.974068      -55.73944       190.8950       475.7476       798.4922
       730.5091       149.5379      -39.97778       553.9382       924.0942
       832.4077       1264.148       1710.067       1121.614      -80.09106
      -773.1182      -591.4750      -253.6399      -279.6521      -476.5073
      -577.1780      -646.2647      -515.8289       167.9567       586.9764
       211.9841      -58.15454       90.50647       328.0338       416.6636
       408.1404       957.8906       1417.255       767.0971       11.36987
      -12.24951       456.0660       725.0718       155.4245      -280.5860
      0.6814575      -50.26245      -268.8356      -18.85999      -226.6797
      -1248.385      -1674.853      -1031.678      -475.2207      -485.3834
      -590.0687      -342.5612       212.8856       423.4839       125.4176
      -166.8833      -607.0923      -1217.503      -1162.368      -475.3971
      -212.3145      -714.8982      -981.7644      -694.2317      -659.8059
      -954.5898      -959.1140      -824.3462      -944.8457      -923.7402
      -685.5601      -798.6255      -780.6156      -334.7162       17.71216
       179.1517       237.0978       94.33961      -52.04973      -28.97321
       127.4368       400.0754       339.2107      -310.6025      -1037.078
      -1552.871      -1644.814      -1412.240      -1101.164      -366.9945
       488.6587       1050.343       1190.020       378.9521      -783.1084
      -1170.563      -685.3127       85.74158       406.9024       141.4660
      -63.26367       375.2566       971.5913       1005.123       623.3306
      -188.0132      -1024.858      -1131.000      -574.0312      -189.5725
      -445.9595      -483.5498       203.9172       894.6699       1039.377
       877.7886       782.8679       785.4673       1018.846       1080.668
       598.1514      -37.64899       49.18579       604.8962       315.0298
      -621.7856      -830.6987      -250.2729       101.8840      -223.8651
      -649.6122      -538.3588      -194.8574      -316.3854      -536.5972
      -335.9568      -98.26440      -295.0454      -592.0588      -404.8669
      -90.85425       188.2070       579.5256       415.5300      -176.2797
      -224.8781       137.3891      -39.12866      -419.5318      -298.4545
      -94.03552      -38.08228       232.5410       698.3203       1129.041
       1360.644       1330.283       1043.219       580.3203       124.5947
      -50.16754      -72.18469      -260.4020      -446.4683      -277.8648
       5.802185      -140.9056      -391.7905       91.61536       599.8604
       209.2021      -402.8499      -290.4272       416.4292       1034.307
       1143.214       648.7080       160.2317       514.3940       1011.147
       931.0635       792.5315       1017.745       1133.906       755.3645
