     0.02500000      -2811.872       2379.010      -12345.00      -12345.00
      -29.99000       225.6600      -26.24000      -12345.00      -12345.00
       0.000000       19.94000      -12345.00      -12345.00      -12345.00
      -12345.00      -12345.00      -12345.00      -12345.00      -12345.00
      -12345.00      -12345.00      -12345.00      -12345.00      -12345.00
      -12345.00      -12345.00      -12345.00      -12345.00      -12345.00
      -12345.00      -31.06740      -67.28460       921.0000       0.000000
      -31.24600      -68.98500       0.000000       102400.0       0.000000
      -12345.00      -12345.00      -12345.00      -12345.00      -12345.00
      -12345.00      -12345.00      -12345.00      -12345.00      -12345.00
       163.3331       83.47490       262.5994       1.468551      -12345.00
      -12345.00    -0.05635314       0.000000       0.000000      -12345.00
      -12345.00      -12345.00      -12345.00      -12345.00      -12345.00
      -12345.00      -12345.00      -12345.00      -12345.00      -12345.00
      2008        16        21        18         2
       940         6    -12345    -12345     10227
    -12345    -12345    -12345    -12345    -12345
         1         7        13    -12345    -12345
    -12345    -12345    -12345    -12345    -12345
    -12345    -12345    -12345    -12345    -12345
    -12345    -12345    -12345    -12345    -12345
         1         1         1         1         1
CHUC    -12345          
        -12345  -12345  
-12345  -12345  -12345  
-12345  -12345  -12345  
-12345  -12345  -12345  
-12345  -12345  -12345  
-12345  -12345  BHZ     
ZL      -12345  -12345  
[...]
      -1.527077      -7.707075      -4.235002     -0.8714218      -4.134319
      -13.81137      -13.40094     -0.2138443      -9.779926      -17.64467
      -8.385117      -10.21813      -15.29800      -14.86071      -14.23730
      -14.88437      -20.21535      -14.08908      -13.93676      -20.76054
      -24.02159      -25.01176      -17.30511      -23.35574      -27.19734
      -15.79170      -25.83798      -28.66251      -22.72525      -23.51323
      -22.18694      -24.67894      -28.27961      -22.45385      -22.70974
      -26.28335      -23.07369      -24.12211      -27.71224      -20.33490
      -20.23901      -26.02531      -21.75467      -18.16214      -25.16237
      -24.18891      -18.11713      -21.75491      -26.30975      -26.57628
      -16.27228      -22.75842      -28.63232      -26.46187      -27.97922
      -33.45213      -32.35272      -34.41000      -33.69807      -35.71101
      -35.79669      -43.78128      -53.03616      -48.46117      -49.33234
      -60.03766      -61.61372      -55.57196      -64.03833      -74.32062
      -70.16879      -75.50461      -88.78387      -85.29047      -86.76855
      -96.05768      -91.37039      -101.3534      -107.2938      -98.91266
      -111.1280      -109.7158      -102.3724      -120.6093      -116.4461
      -106.0241      -123.5064      -121.0850      -111.8907      -124.3226
      -120.8671      -116.3571      -118.4796      -113.1785      -109.4095
      -114.1476      -104.3293      -105.4041      -114.0434      -98.70117
      -90.40234      -105.3297      -99.79059      -87.27432      -88.94019
      -91.43146      -88.34921      -81.79601      -69.50427      -69.82545
      -80.91562      -66.59274      -58.92247      -69.64746      -57.03122
      -45.20027      -63.65480      -56.39923      -37.05354      -40.63150
      -53.14036      -35.30173      -31.19507      -42.02920      -35.15097
      -22.16757      -24.90425      -28.36635      -27.94770      -17.42987
      -6.111404      -15.34898      -19.31456      -14.12863      -8.499165
      -1.145642      -4.727551      -3.851376       12.19324       5.136248
      0.4043427       17.10336       20.99548       22.50788       28.37994
       24.36319       31.86871       46.30618       43.78745       39.52795
       53.25864       58.96323       60.02559       68.95473       54.64548
       58.46652       81.85707       78.86978       74.99103       85.64609
       87.37418       85.02676       79.66550       97.37228       94.95660
       92.01633       98.19769       99.20502       95.90326       101.1704
       95.60553       99.99667       102.9786       99.28784       97.40808
       109.4581       98.81268       90.55048       103.6464       100.8990
       82.40421       96.41937       94.32224       86.90402       85.15067
       88.11653       81.63312       76.37982       76.96158       84.09436
       74.31732       66.73456       69.05382       77.57588       60.71550
       54.02707       62.24591       53.85788       44.69785       57.04198
       47.43052       38.82362       39.94907       50.16302       40.15643
       31.88019       44.35547       43.56023       32.32489       42.67049
       39.91071       34.86894       28.74458       35.24928       41.26823
       33.80423       35.52010       52.50793       35.02985       34.55965
       48.62888       38.23573       30.28658       46.40318       42.64030
       44.67065       34.38847       43.62059       48.24361       36.88242
       33.93516       43.53632       38.39087       40.82077       38.42292
       35.18155       31.88694       42.07441       23.33407       22.31313
       35.75634       23.51645       8.135056       28.87197       13.65398
       7.601423       14.88413       1.934460      -9.233671       1.420374
      -5.635891      -12.22576      -15.62713      -10.50346      -23.03690
      -22.89380      -21.74437      -22.27976      -36.40430      -37.12333
      -33.14651      -37.79565      -46.78325      -37.98517      -44.27199
      -57.26129      -49.70500      -46.08298      -63.88974      -61.83211
      -55.65067      -61.16861      -71.13004      -66.34756      -69.51819
      -74.70876      -75.94492      -81.79401      -74.32422      -86.15021
      -92.31143      -77.05194      -88.00339      -93.91339      -85.31348
      -92.81198      -100.4265      -98.07233      -89.87753      -88.61508
      -95.71552      -94.77740      -95.34814      -105.1812      -95.64624
      -92.00833      -95.35220      -87.50620      -87.18262      -87.07721
      -81.44193      -79.50383      -72.03357      -72.02478      -69.29288
      -63.82104      -60.70621      -57.68938      -60.06085      -56.06711
      -49.87036      -48.04514      -54.78426      -40.25637      -32.48029
      -46.38620      -43.10246      -24.28542      -34.79118      -36.65110
      -24.76511      -27.06465      -24.80627      -17.51656      -19.13038
      -17.64571      -17.19165      -7.359562      -6.742905      -14.86864
      -2.160753       2.673071      -2.474113     0.09099579       9.800278
       9.893131       8.313660       17.00240       18.32425       15.43012
       19.35164       22.79102       24.07402       23.91737       21.33842
       24.14507       30.35316       24.71745       34.19643       37.58019
       25.65121       34.88785       36.20743       35.62699       35.37946
       41.13573       36.69339       39.04839       41.45028       41.06200
       43.10504       48.13991       43.93947       48.34244       47.86258
       47.70311       53.74663       53.23990       48.79755       51.43840
       54.55322       67.63727       53.39044       45.25694       62.24944
       73.70737       58.80945       63.81647       75.12529       74.31830
       67.87637       81.67496       85.51657       85.74289       78.99969
       84.76489       94.91931       96.42889       85.95724       110.9854
       100.6873       86.77139       109.1266       110.7683       94.74051
       104.9182       109.4073       101.4659       100.6952       108.1188
       99.38763       107.1858       108.7697       96.31885       100.6490
       105.8643       100.3596       95.56226       92.19208       101.0283
       90.89217       80.20636       91.83987       90.03964       78.99475
       78.75778       80.15842       79.86000       63.38504       66.48569
       68.76274       47.94684       54.38928       44.43220       37.20126
       42.88966       21.95989       18.07812       14.48854       3.229573
       3.928040      -11.23279      -13.86873      -15.67693      -30.97758
      -41.27658      -42.86603      -52.80045      -58.72749      -68.71854
      -71.56342      -86.93591      -96.28394      -90.07556      -108.7106
      -110.4438      -107.2668      -133.7158      -123.4886      -128.5850
      -138.1032      -144.9549      -151.6315      -154.0311      -160.8201
      -166.7676      -164.8177      -172.6646      -181.4186      -176.3774
      -178.6254      -185.5120      -187.6326      -181.6920      -192.5778
      -212.7228      -196.8018      -196.2282      -217.1805      -208.3203
      -205.3241      -210.8149      -215.4713      -203.9280      -210.7092
      -225.3680      -203.4041      -204.5916      -212.9102      -212.8957
      -203.0428      -195.0208      -199.5521      -202.8296      -184.7375
      -179.5718      -186.7839      -176.3654      -167.1257      -163.4471
      -151.2480      -165.2675      -152.5045      -132.2875      -131.5134
      -130.8712      -114.7532      -107.3366      -105.7696      -91.52728
      -91.11453      -88.10603      -71.89803      -63.67651      -55.45175
      -49.01582      -39.42535      -34.42081      -26.11264      -22.10112
      -21.16995      -8.428994      -1.674214     -0.2153625       7.201355
       27.00261       23.67668       26.15666       39.64116       37.07347
       41.77643       57.11838       59.71323       47.93524       58.44539
       74.52332       60.86436       71.69672       78.48032       81.13742
       85.30060       79.77808       88.39349       89.55728       83.71890
       86.86761       89.20770       91.80719       97.66571       102.2074
       101.1790       104.2489       107.7572       106.6670       106.6738
       114.6250       111.4818       104.3361       114.1495       112.3204
       110.8112       116.2236       110.0381       118.5190       114.8886
       126.8043       126.5880       125.0080       126.8239       136.7602
       129.3280       132.8952       141.9572       144.1767       141.6724
       155.7305       150.0536       151.3464       156.8480       166.1508
       158.8901       173.3098       175.2891       171.4138       178.6408
       200.4859       191.4119       191.4828       202.3845       202.4241
       195.8553       210.0619       212.0312       216.0870       212.2687
       219.9285       211.5009       215.5280       213.2446       216.2352
       214.7008       212.7499       210.1040       222.4103       201.6364
       206.3259       207.3241       200.8440       190.6938       200.7978
       189.8813       184.9696       176.4000       178.8149       177.6422
       169.5194       155.5945       167.7641       160.7986       149.3475
       141.6744       148.4759       127.9604       131.2816       130.8623
       119.1492       111.5080       117.7603       112.7933       108.1864
       103.3799       97.51422       98.74957       98.37846       81.45337
       85.29980       77.35611       67.31268       58.85306       60.82034
       55.95419       38.49631       31.94297       28.81930       12.66175
       6.189193      0.6985855     -0.5625305      -22.69757      -29.32204
      -26.47050      -37.67487      -59.84135      -59.90756      -62.79495
      -80.91525      -96.51587      -91.88144      -105.1332      -112.6083
      -123.8600      -126.8966      -133.8850      -145.4244      -157.2502
      -154.0717      -168.1775      -177.8098      -173.0795      -179.9295
      -200.7833      -202.7421      -207.2258      -215.3567      -227.7860
      -233.4926      -231.6163      -236.8262      -256.7549      -257.2852
      -254.7251      -267.5983      -282.2574      -269.9543      -289.0685
      -300.2148      -291.7886      -296.3634      -312.1445      -312.8033
      -316.7272      -321.6019      -331.6454      -335.3718      -340.0192
      -337.1006      -349.4178      -349.3912      -348.4077      -354.4724
      -361.7789      -355.1877      -367.2599      -367.6663      -364.4236
      -361.4033      -375.1410      -371.2100      -374.7257      -368.9967
      -371.7468      -370.3241      -367.2482      -367.3229      -375.3079
      -355.2537      -352.8284      -360.8813      -355.6855      -338.8784
      -350.3840      -341.3374      -331.0801      -327.2313      -321.5687
      -306.9691      -304.8998      -296.0321      -289.5853      -271.9898
      -267.0760      -258.9338      -245.7264      -225.9908      -220.0070
      -202.6464      -190.8782      -174.1849      -166.2252      -153.1853
      -135.6263      -123.8690      -111.6054      -92.83514      -82.04187
      -67.43637      -41.97488      -19.85956      -26.42846      -3.787155
       18.25563       28.35829       42.08356       63.23694       81.30692
       94.41647       103.6414       123.6022       130.6943       142.4476
       164.1528       181.2265       193.4550       203.7925       219.4977
       236.1227       243.4832       265.4234       276.3834       282.6729
       296.2755       313.0857       323.2397       328.4315       350.2653
       365.4097       364.1027       380.0189       386.7681       405.8502
       413.6534       414.3411       425.6416       441.3972       445.1724
       444.3398       451.1504       463.9773       463.6223       459.1897
       470.6490       478.3186       466.3279       474.3970       480.7556
       471.5533       466.9866       467.1294       476.4351       459.2789
       451.4235       461.1464       453.8555       441.5116       448.8022
       450.3560       434.1096       429.8760       437.0601       425.7617
       407.2770       412.5200       412.5927       395.4146       392.9547
       397.8191       391.1965       379.6907       381.5166       373.9741
       372.0632       366.6993       354.9348       357.6825       355.1711
       341.6165       342.1917       345.8347       338.6526       329.3553
       326.0995       318.8428       315.8088       304.0613       293.2906
       295.5254       294.5999       276.8260       270.7673       270.8169
       265.7090       245.9458       229.7218       223.9669       206.7435
       210.0103       306.8574       709.5806       964.6318      -756.8610
      -1434.230       1936.778       709.3472      -2811.872       1261.240
       2379.010      -1849.011      -513.1963       2100.201      -369.6228
      -2057.788       445.1370       1702.951      -529.8337      -1520.645
       813.0803       846.2751      -1365.587      -28.66901       750.5007
      -963.0834       285.3402       152.0070      -964.2270       482.9131
      -666.8380      -829.3167       1139.742      -546.3354      -1502.214
       859.1875       91.85498      -1692.902       188.4233       813.6023
      -946.7716      -833.1451       250.4083      -11.16113      -774.5328
      -609.5085      -261.2190      -328.9597      -52.09949      -279.5271
      -685.4794      -269.8800      -119.9182      -673.9555      -417.3662
       92.62085      -369.0220      -474.0092      -553.5167      -391.3954
      -9.385254      -292.1689      -562.6208      -770.6791      -269.1465
       325.8799      -765.3381      -861.2708       414.9825      -355.3535
      -1273.896       167.6309       546.7368      -1331.092      -839.0074
       846.2722      -335.3958      -1041.616      -96.17767       187.7944
      -268.9746      -904.5997      -122.5643       265.5499      -825.5787
      -595.6212       395.9272       39.34741      -1079.307      -484.2559
       416.5692      -325.1982      -443.4253      -185.2811      -447.8415
      -123.3192      -200.2246      -588.9894      -58.05594       98.52795
      -495.2941      -560.6103       40.02716      -31.36707      -448.4335
      -161.7579      -173.6470      -393.0508      -368.7100      -546.8378
       5.217896       408.2996      -671.0697      -767.8727       321.9900
      -124.7340      -852.5262      -205.9491       189.6912      -477.8381
      -604.9312       29.87427      -233.3876      -415.0001       15.05200
      -270.4906      -737.9117       9.995789       381.9153      -407.0212
      -568.9598      -451.6274      -264.7139       217.3450      -258.4717
      -836.8381       246.7288       370.6057      -997.8155      -339.6951
       831.2465      -320.5835      -1113.880      -40.62848       403.7084
      -158.9765      -342.6371       18.05725      -242.5048      -558.6179
       446.7764       241.8450      -784.2622       149.4453       416.6472
      -562.0840      -92.10297       530.5583      -170.9371      -309.4322
       150.5355       141.6928      -82.45422      -68.70703       163.9978
       134.1207      -347.0356       32.62634       661.9677      -255.3486
      -496.2363       770.7014       525.1691      -746.2864       48.95325
       865.1697      -72.85187      -340.7898       236.5015       512.8379
       179.0008       96.68250       121.5246       8.493042       598.3083
       579.2848      -311.0307       99.53601       805.5956       197.1848
      -237.6914       419.9659       667.4470       42.14124       259.1320
       576.6229       466.3883       218.7708      -1.640015       595.6564
       656.5748       135.0208       315.4923       646.0552       479.3172
       43.10474       391.0098       809.5972       369.4911       153.4055
       525.6416       750.8976       417.0917       49.67834       465.8411
       812.4226       381.2416       304.1326       714.9198       764.9131
       109.3101       137.5222       1091.814       851.5409       13.74915
       314.3844       734.5327       490.4735       464.4196       462.5457
       670.7804       704.3999       225.5881       336.8188       572.1327
       686.8577       505.2313       315.9072       665.3798       390.2513
       320.8041       774.6733       403.9524       145.3057       564.2585
       514.6450       353.6741       501.3351       525.3098       326.7619
       32.93030       302.8977       458.0956       530.7740       487.1728
      -171.4829       334.9675       715.6931      -10.31363      0.9187012
       357.2250       389.9731      -41.47290       60.66101       628.0336
       78.58673      -394.3759      -5.964844       415.9860       33.46432
      -337.4869       268.8998       161.4037      -277.4102      -191.9756
      -116.8153       52.12933      -45.04773      -374.8641      -248.9075
       120.8544      -96.96606      -587.6604      -251.3492       179.4035
      -218.7394      -436.8309      -391.0380      -353.6917      -218.8970
      -361.1470      -463.4418      -221.1361      -198.3068      -505.4348
      -204.1155      -86.01733      -673.0929      -477.6862      -61.30688
      -530.9458      -606.0234      -161.8219      -382.9176      -702.8751
      -423.7844       52.90515      -469.9042      -882.1411      -63.53271
      -309.4037      -772.5363      -19.21948      -212.4736      -900.2517
      -591.8589      -24.17456      -277.9214      -785.9105      -391.2951
       16.97119      -515.3845      -1024.769      -220.0223       294.4913
      -522.0476      -898.6097      -356.9473      -179.5656      -352.7019
      -386.5140      -443.8906      -397.9936      -294.9303      -250.8926
      -533.4064      -458.3630      -16.07373      -310.5568      -556.4329
      -238.9894       63.34009      -336.1599      -841.6883       47.31836
       265.4287      -909.0491      -483.7468       482.3862      -346.3950
      -640.8997       292.9470      -152.4204      -653.3479       58.01929
      -75.69586      -364.7988      -108.0953      -352.9572      -68.15186
       314.9016      -374.7675      -466.6772       329.2693       137.2314
      -932.0999      -208.9501       938.1067      -284.8934      -902.1550
