     0.02500000      -3840.529       3240.200      -12345.00      -12345.00
      -29.99000       225.6600      -26.24000      -12345.00      -12345.00
       0.000000       19.94000      -12345.00      -12345.00      -12345.00
      -12345.00      -12345.00      -12345.00      -12345.00      -12345.00
      -12345.00      -12345.00      -12345.00      -12345.00      -12345.00
      -12345.00      -12345.00      -12345.00      -12345.00      -12345.00
      -12345.00      -31.06740      -67.28460       921.0000       0.000000
      -31.24600      -68.98500       0.000000       102400.0       0.000000
      -12345.00      -12345.00      -12345.00      -12345.00      -12345.00
      -12345.00      -12345.00      -12345.00      -12345.00      -12345.00
       163.3331       83.47490       262.5994       1.468551      -12345.00
      -12345.00      0.2195024       0.000000       90.00000      -12345.00
      -12345.00      -12345.00      -12345.00      -12345.00      -12345.00
      -12345.00      -12345.00      -12345.00      -12345.00      -12345.00
      2008        16        21        18         2
       940         6    -12345    -12345     10227
    -12345    -12345    -12345    -12345    -12345
         1         7        13    -12345    -12345
    -12345    -12345    -12345    -12345    -12345
    -12345    -12345    -12345    -12345    -12345
    -12345    -12345    -12345    -12345    -12345
         1         1         1         1         1
CHUC    -12345          
        -12345  -12345  
-12345  -12345  -12345  
-12345  -12345  -12345  
-12345  -12345  -12345  
-12345  -12345  -12345  
-12345  -12345  BHN     
ZL      -12345  -12345  
[...]
       246.1804      -677.8049       35.87720      -27.35046       491.4019
      -249.8629      -878.9971       1292.741       27.47607      -1751.054
       1133.738       946.5786      -1738.120       607.0009       870.4353
      -1429.852       698.1913       787.5128      -886.0526       145.5305
       227.9946      -13.22885       387.3605      -444.4099      -62.93286
       875.0675      -411.7237      -237.4569       351.3004       86.68784
       381.0591      -287.3528      -32.58252       558.2281      -353.6231
       118.8360       26.23370      -440.9098       929.3827       81.70569
      -594.6226       451.9766       218.7260       98.33557      -176.2393
      -249.5601       381.5313      -142.0890      -79.34058       595.6191
      -52.79587      -291.6992       79.09900       341.4814      -327.4638
      -421.8026       585.0254      -77.37769      -267.3532       319.0105
      -196.1881      -106.1251       112.5623      -102.4826      -176.3561
      -102.6719      -5.245483      -73.30603      -166.8258      -71.24728
      -22.54681      -347.7792       10.09164       240.2491      -665.5900
      -128.2868       390.3604      -434.5172      -270.3815      -71.19269
      -355.7767      -111.7159       28.06812      -322.0788      -467.4872
      -33.66803      -270.7743      -387.1318       108.1692      -490.9887
      -467.3204       569.8032      -426.7186      -1066.781       365.9307
      -163.9464      -788.9745       327.8313      -136.1925      -910.2365
      -213.4487       203.2571      -299.1975      -618.1452      -318.6003
      -129.2575      -70.78217       32.08252      -435.1887      -507.1902
       202.7480      -166.9086      -766.5063      -37.06454       145.8735
      -505.3244      -361.2715       267.2308      -52.99634      -793.4823
       13.30450       338.2319      -428.9845      -67.45938       22.67664
      -443.0779      -123.6975       375.9556      -192.3468      -585.4658
       305.3988       392.2511      -508.2655      -287.2493       467.2185
      -58.84497      -452.1560       261.7585       335.2723      -342.0014
      -196.7202       347.4230       264.8055      -263.3378      -266.5902
       557.0958       173.8405      -430.5867       271.1511       271.9646
      -4.165833       87.15051       235.5002       130.1711      -92.62976
       499.6133       135.5182      -83.25293       642.2832      -202.5846
      -14.31433       930.0192      -33.88275      -151.8722       568.4482
       383.8687       193.1770       169.0031       118.4402       330.5948
       419.9904       112.1218       327.2774       413.4552      -9.167969
       308.8650       684.9805       126.2961      -62.13086       505.8859
       315.5709       50.27991       423.6372       331.9279       76.92694
       229.8025       250.6378       247.4456       317.7647       49.14893
       183.0166       222.3530       133.9184       447.7694       73.36783
      -110.9000       338.7473       125.7152       130.0746       307.2885
       106.2722       204.1201      -68.42035      -266.9335       262.4293
       493.1915       125.2506      -385.5933       153.9974       548.5724
      -227.5515      -136.6765       233.5470       98.29947       22.14569
      -196.5694       64.95496       325.7807      -138.0497      -138.0717
       177.4396      -88.89520       94.95801       141.5055      -122.1625
       73.29782      -57.33296      -116.6646      -19.71481      -101.1643
       76.57404       34.51367      -198.1766      -63.93610       467.2844
       61.11694      -646.2049       173.5768       414.6949      -346.0768
      -240.9919       329.5187       103.2098      -401.5326       139.1051
       141.2113      -458.9530       121.0816       317.2561      -296.4738
       15.45151       336.4563      -348.0101      -488.3765       518.6327
       458.7833      -512.2433      -76.67654       305.4809      -109.9205
      -91.15845      -40.43469       209.3982       150.4565      -310.4268
       261.0579       552.9866      -358.2138      -323.6736       468.1194
       455.7744      -369.1818      -339.7634       597.1819       335.1297
      -316.9940       264.0820       463.8727      -208.6776       86.35211
       505.8372      -85.56018      -5.847107       402.1852      -17.10645
       61.69794       444.6938       60.51627      -145.7594       431.9174
       371.2014      -162.4486       109.3826       93.89099       124.0228
       306.6819       128.7314      -16.54869      -83.83899       176.2922
       264.7871       143.8350       13.69318      -203.8505       110.8853
       225.4866      -140.7031       87.56599       112.4066      -196.2695
       52.53761       1.495514      -158.3709      -68.33871      -26.94571
       27.16821      -356.9959      -160.3151       112.2345      -329.8526
      -81.12054      -116.6750      -277.5167      -178.8901      -417.7195
      -30.17395      -178.4454      -647.1093       44.64209       16.39758
      -747.1016      -305.5680       232.6741      -309.3632      -725.9066
      -334.0239      -86.25256      -155.7075      -295.3376      -503.9038
      -236.4384      -122.4594      -536.6984      -387.4976       74.47632
      -287.9032      -652.4663      -142.4744      -127.5670      -311.5096
      -76.87744      -413.9003      -484.4328      -159.1130      -176.3179
      -221.1151      -238.7879      -127.3518       53.81775      -258.3435
      -559.5807      -165.0401       284.2992      -167.8539      -693.2665
       152.2489       424.7556      -646.8407      -277.0289       441.1587
      -306.9370      -406.5896       183.1086      -38.37872      -329.6845
       9.369476       72.55798      -215.3218       1.292038       115.5040
       17.89160      -265.0424      -137.2477       291.9056      -185.7983
      -188.9972       351.2096      -181.2362      -344.4886       323.0930
       12.59460      -153.3649       311.0135      -48.32983      -492.1967
      -112.8653       348.2332       119.5004      -200.7808      -133.5488
       147.2479       230.8718      -165.1129      -302.2527       260.8649
       385.8949      -293.3337      -411.2603       434.3949       456.4045
      -370.5782      -248.3464       215.1820       72.89775      -93.22964
       147.2050       209.4913      -181.3693      -8.943329       227.5104
      -191.7751       115.4736       261.6438      -89.40784       315.9033
      -110.8260      -172.1526       569.2630      -33.77719      -174.4498
       338.9147       157.9233       146.0154       49.47369      -229.3912
       248.5787       474.5909      -127.7264      -110.7132       297.3423
       279.3055      -52.30789      -224.2363       328.0579       420.1170
      -42.01311      -30.42926       120.8543       208.6411       114.8970
       138.2660       171.3195       44.46097      -19.73828       136.0085
       398.8444       41.02548      -184.2135       285.6381       204.8078
      -116.0721       221.9164       195.5453      -105.2288       276.6783
       200.4480      -245.8290       317.3819       236.5055      -424.2567
       379.9912       447.0862      -565.0338       45.52637       605.7632
      -38.81741      -166.1181       20.14795       281.5665       199.5492
      -420.1336      -84.87170       470.9032       297.9781      -96.39209
      -444.4994       269.2141       564.5160      -432.3999      -87.34009
       452.5469      -169.8615      -178.2668       257.4468       132.4051
      -140.2978       62.35902       114.7357      -122.7324      -101.8799
      -2.894958       208.5730       67.06906      -162.7277      -86.15961
       121.6982       97.92209      -119.1692       84.63744       45.43036
      -190.8766      -127.1432       99.79952       87.50714      -108.2328
       149.2063      -284.1095      -292.1125       505.0967      -61.81039
      -203.3636       20.01245      -383.8479       204.7444      -71.17136
      -378.6024       471.9019      -241.0607      -531.8362       409.1208
      -56.15265      -432.0287       280.4696      -5.637695      -489.6129
      -54.88554       95.74493       9.269897      -320.0276      -67.08124
       351.8873      -441.5961      -312.5046       549.9009      -396.1506
      -453.8546       709.4481      -151.3140      -491.9633       336.1200
      -224.1582      -362.7772       342.9172       65.03247      -445.2230
      -174.8521       404.7574       198.7955      -743.0811      -221.4734
       664.6421      -338.2306      -356.5155       501.2758      -316.2346
      -255.0798       418.4396      -113.8279      -277.8346      -64.28551
      -83.38718       125.7148       81.91040      -307.4368      -43.83191
       161.8291       8.811371       78.36353      -191.5733      -204.2230
       208.8067       55.20868      -418.4871       101.4102       294.6987
      -533.4485       106.0912       704.0417      -548.6871      -429.5090
       613.7272       163.4445      -191.3524      -168.3833      -51.21075
       286.9918      -58.97418      -194.4690       227.1822      -12.76038
      -257.7722       313.6070       184.7722      -202.6476       134.9890
       114.6017      -15.57246       58.64648       80.26863       102.3217
      -200.5506    0.002807617       508.5588      -157.6930      -201.2956
       424.7508      -137.4559      -129.7235       369.0110       168.8462
       61.79019      -131.0730      -100.9844       347.7626       182.9929
      -110.5918       63.58966       152.4345       106.5147       81.04843
      -78.29840       53.41772       495.8224       140.4443      -407.1400
       230.8785       410.4403      -184.3912      -27.16586       97.54782
      -2.767975       193.3060       11.55420       52.14911       325.4610
      -168.9110      -138.1851       402.4624      -91.69708      -234.6030
       347.3855       103.1120      -139.8291      -83.28381       192.5153
       173.7496      -246.7092       161.2950       158.9998      -216.6470
      -70.10278      -58.87396       166.5295       117.0983      -194.6970
      -72.60908      -58.93106       86.31628       243.0464      -202.3523
      -289.8688       326.4340       55.62561      -498.0921      -37.63849
       66.57883      -229.7764       124.4774       54.92334      -353.2402
       75.21594       97.02222      -482.0945      -114.9307       132.7867
      -312.8948       41.88657       97.68549      -350.2834      -208.7811
      -154.5489      -27.39056      -70.73038      -236.7677       11.13556
      -140.1558      -330.1554       211.2649      -77.66467      -674.0600
       90.60655       109.7155      -304.2802       99.59705      -237.6482
      -477.3195       76.31723       184.6524      -219.3697      -229.4266
      -10.41315      -131.1187      -131.2654       81.54465      -42.29541
      -290.3295       9.948242       333.3933      -212.8329      -309.0416
       180.4636      -41.21114      -30.53940       89.21086      -28.29641
       96.96468      -104.9645       112.8281       437.0945      -119.7854
       25.82880       418.7169      -26.84924      -163.1512      -48.48804
       338.6154       257.4704      -278.4199       457.1710       555.3304
      -286.4207       155.8116       279.6652       8.899841       467.2152
       59.96350      -95.28888       413.0384       171.5752       121.2267
       253.5620       140.0334       145.8318       162.1438       348.4933
       192.5286      -100.2444       25.10126      -172.5286      -565.9365
      -812.1674      -727.5063       516.4637       1053.142      -430.0070
      -475.6216       980.2573       1058.443       1475.464       2423.347
       375.2134      -2299.537      -1270.673       273.3330      -85.71155
      -214.9646       479.3081       254.6420      -742.8588      -112.5688
       684.3745      -101.1664       67.48291       1501.273       1607.462
      -461.2490      -2104.848      -1328.759       568.1519       2107.593
       1570.059      -773.4021      -1189.810       290.8634       91.79150
      -956.5988      -668.8179       547.0833       1126.662       283.7495
       628.1328       1205.190      -153.7856      -1219.173      -1197.183
      -405.4777      -78.37341      -699.3767      -93.58057       977.9814
       435.9688      -1095.691      -894.9688       740.8677       1415.784
      -224.3604      -2462.126      -1386.842       1460.600       1606.189
      -671.9915      -931.9725       950.7388      -122.1392      -2084.449
       444.7939       1256.406      -1508.099      -171.8928       2039.782
      -38.23975      -1617.802      -254.3982       477.6460      -833.3804
      -1187.030      -189.0851       329.5402       239.6282       100.1391
       765.4922      -1368.574      -3840.529       152.2705       3240.200
      -634.5613      -2004.721       1558.084       894.1748      -2317.485
      -259.6484       1805.446      -398.2896      -1928.848      -530.1094
       1681.716       239.4453      -2048.477      -418.1265       625.3425
      -1035.124      -831.7463       428.6069      -78.48315       942.8768
       1531.720      -1166.696      -1703.381       346.0500       250.2030
      -670.7689      -412.1802       363.0718       341.0310      -425.4185
      -338.7268       339.3252       875.8997      -96.07739      -1055.989
       256.8835       1344.227      -218.1477      -1246.150       1071.319
       1032.001      -1092.917       127.0573       1233.830      -556.6379
      -499.5879       912.4915      -622.7826      -541.0779       1511.952
       174.7087      -1071.389       952.5703       1556.503      -531.2205
      -965.3491       1190.327       1039.500      -1495.562       10.98926
       2396.295      -357.2329      -1773.906       1874.475       1975.265
      -714.4200       103.5615       50.96625      -286.5886       1254.707
       234.8973      -490.3159       1177.360       1180.132      -318.7433
      -413.2681       806.8178       464.9016      -251.7080       758.7396
       792.6195      -607.8220      -399.9609       487.3056      -230.2944
       704.0237       1798.822      -329.8530      -929.4592       891.5999
       564.0161       126.3445       804.9246       310.7583      -805.7038
      -815.1328       903.6987       1197.646      -722.3928      -386.2776
       1306.233      -2.431519      -786.5952       973.6053       1174.259
      -426.4041      -646.4750       132.6622      -520.6219      -178.2654
       1135.645       562.2512       69.56744       433.1471       137.9820
      -61.55728       121.7698       215.3152       421.8707       429.5582
      -461.8669      -145.1178       805.1320       164.9405      -138.2184
       330.3946       349.0865      -285.6252      -576.5698       741.9341
       1199.660      -299.7004     -0.3994751       661.9614      -703.4917
      -553.8716       603.6884       485.5159      -8.716309      -180.8044
       88.65735       691.9161       519.3740      -798.3502      -814.6311
       333.1958       62.16333      -448.1017       512.0524       573.6855
      -660.4919       31.41125       573.1089      -408.1006       441.9668
       696.3203      -1265.206      -1194.152       527.4778       232.9623
      -693.8193       204.9258       423.0967      -889.2582      -719.3926
       473.7124       151.8894      -587.6207       22.09061       310.4442
      -486.7646      -681.8319      -137.9332       282.0080      -13.90674
      -383.7571       132.7806       120.5554      -832.9243      -455.2113
       234.6344      -49.74370       122.5757      -267.0565      -851.0590
      -61.57202       355.9113      -441.6053      -573.5566      -103.2844
      -451.1701      -268.8674       99.61401      -739.5997      -565.7382
       260.0981      -398.6442      -855.4960      -118.2844      -160.6216
      -1079.198      -441.3015       848.1514      -14.57861      -1462.931
      -748.3102       590.0544      -77.99475      -705.0964       167.4962
       178.3398      -713.0852      -957.2113      -311.1436       344.7687
       110.8232      -966.8655      -1172.437       206.4389       609.1348
      -690.2129      -1400.948      -88.46631       345.4941      -1353.934
      -515.8416       914.7463      -818.2246      -1135.609       163.9426
      -328.1790      -549.8116       19.39453      -491.8407      -816.8339
      -147.3179       248.0043      -197.0864      -987.3845      -930.2059
       455.3870       858.9294      -925.8772      -927.2702       473.2812
      -638.6218      -1347.569      -336.6386       195.7551      -112.3267
      -1001.280      -470.3779       183.5535      -627.7247      -649.9821
       185.8187       600.5889      -361.3035      -887.8998       130.8563
      -123.7391      -566.2862       93.53583      -74.15094      -306.5816
       76.62354      -196.7086      -696.4963      -259.1127       21.84595
      -378.3898      -91.00574       11.84741      -733.0956      -356.3386
       382.3082       201.5166       29.95495       4.842407      -72.10028
      -280.2334      -172.7111       339.8112       95.61694      -604.9897
      -170.1038       430.4552       59.69293      -466.8254      -15.82861
       855.5685       351.0106      -354.5052       100.7871       251.4912
      -623.2329       93.91968       1555.247       401.7727      -905.0234
       51.85425       764.5599       206.7254      -75.60672      -35.67249
       227.7289       562.1488       286.9395      -27.19031       141.5283
       485.2981       361.1499      -279.5245       216.9927       1192.817
       560.9161      -289.9170       454.3252       1037.916       89.09912
      -333.4219       794.4078       965.1407      -199.5934       149.8467
       804.6979      -285.8738      -175.3306       1487.313       1048.151
      -345.2885       58.29224       757.2776       442.7375       433.9580
       936.9785       681.4696       157.8322       302.6589       512.9932
       333.6621       608.8669       808.4495       615.8268       473.9489
      -197.4791      -28.32666       671.7152       501.2299       483.6550
       455.9215       248.9832       642.5443       554.2662       65.80249
       467.7122       861.9244       249.8501      -217.0415       665.5625
