     0.02500000      -3177.997       3545.147      -12345.00      -12345.00
      -29.99000       225.6600      -26.24000      -12345.00      -12345.00
       0.000000       19.94000      -12345.00      -12345.00      -12345.00
      -12345.00      -12345.00      -12345.00      -12345.00      -12345.00
      -12345.00      -12345.00      -12345.00      -12345.00      -12345.00
      -12345.00      -12345.00      -12345.00      -12345.00      -12345.00
      -12345.00      -31.06740      -67.28460       921.0000       0.000000
      -31.24600      -68.98500       0.000000       102400.0       0.000000
      -12345.00      -12345.00      -12345.00      -12345.00      -12345.00
      -12345.00      -12345.00      -12345.00      -12345.00      -12345.00
       163.3331       83.47490       262.5994       1.468551      -12345.00
      -12345.00     -0.3881812       90.00000       90.00000      -12345.00
      -12345.00      -12345.00      -12345.00      -12345.00      -12345.00
      -12345.00      -12345.00      -12345.00      -12345.00      -12345.00
      2008        16        21        18         2
       940         6    -12345    -12345     10227
    -12345    -12345    -12345    -12345    -12345
         1         7        13    -12345    -12345
    -12345    -12345    -12345    -12345    -12345
    -12345    -12345    -12345    -12345    -12345
    -12345    -12345    -12345    -12345    -12345
         1         1         1         1         1
CHUC    -12345          
        -12345  -12345  
-12345  -12345  -12345  
-12345  -12345  -12345  
-12345  -12345  -12345  
-12345  -12345  -12345  
-12345  -12345  BHE     
ZL      -12345  -12345  
[...]
      -121.9015       650.2234       466.4656      -73.85571       64.96985
       599.1101       802.0555       272.3260      -85.22119       669.1188
       783.4056       15.63550       276.8174       811.0569       478.0214
       403.5167       718.2262       149.5082       205.8501       1172.164
       700.6357      -102.1079       607.8031       598.5225       56.52930
       1115.445       836.4631      -272.4116       514.5122       1297.633
       418.4946      -154.0317       1151.334       1025.812      -277.0229
       380.3271       1137.511       302.0594       70.14722       834.0403
       768.4539       331.8445       313.2102       717.5129       864.9007
       189.9679       288.4185       1111.397       397.7882      -250.8066
       430.7512       1023.041       666.9483      -160.0741       144.8174
       908.1082       575.2905      -173.1259       161.3428       697.5254
       395.1437       76.18689       490.4236       336.2418      -178.4901
       519.8287       455.9664      -139.4603       264.6586       459.4395
      -171.9297      -323.9980       609.7453       415.7933      -258.6391
      -103.9336       277.4718       127.0222      -569.7227      -3.685181
       610.3511      -438.9954      -676.7469       729.1042       237.0667
      -1237.388      -122.4185       914.3630      -475.3535      -794.8538
       262.8239      -97.41162      -407.2798      -283.3710      -179.5038
       151.7312      -316.0007      -635.4546      -140.9823       102.7182
      -186.7246      -515.4037      -280.4964      -35.93518      -274.2960
      -316.4716      -379.9811      -224.6485      -78.83826      -415.1213
      -176.2531       105.6598      -580.5773      -450.3026       269.4111
      -303.8738      -572.2991      -41.40356      -89.88269      -271.5035
      -370.4634      -163.3959      -20.29358      -255.8406      -298.9460
      -2.275696      -5.722046      -407.5643      -311.0066       31.40948
      -124.1000      -248.7077      -39.04913      -39.32211      -136.5963
      -235.4363      -338.7168       71.50705       431.6057      -420.3153
      -591.9797       557.4702       42.56238      -603.7451      0.7962646
       375.7511       31.64032      -337.1982      -101.3993      -142.4338
       77.20003       100.3209      -209.3298       115.9078      -79.48120
      -28.60893       154.4785      -150.9958      -30.51614       217.1724
      -3.122803      -55.64914      -19.21544      -91.49255       188.9603
      -10.42828       101.0556       206.4722      -221.6078       58.27206
       199.4153       109.0024      -62.57741      -27.00998       146.1937
       7.613403       317.3611      -6.488007      -284.0065       274.1823
       200.8499       45.40643      -87.89812      -15.16202       129.7965
      -156.5389       18.67590       504.9507       1.626343      -690.2610
       220.9840       651.3356      -334.0444      -303.2821       248.5635
       189.1713      -44.76050      -231.8729      -142.9755       185.6283
       44.60083      -219.8994      -117.2816      -36.09006      -41.36856
      -97.10913      -73.84070       49.89624      -224.3278      -128.4193
       270.9678      -219.1800      -345.8627       136.5363       16.27795
      -230.4244      -154.1560       2.508057      -211.8076      -408.1756
       18.73666       258.4927      -252.6668      -159.0760       298.0482
      -56.20898      -508.1042      -145.1561       390.8728      -54.40503
      -711.2450      -18.45105       419.5363      -247.5538      -349.5263
      -13.89081       232.1599      -204.7043      -660.1835       265.7186
       668.3972      -527.4791      -863.7253       520.0292       795.4255
      -721.8257      -663.3013       571.2892       84.42676      -324.6960
      -70.86719      -73.78857       225.8719       107.7687      -7.111816
      -226.4172      -261.5378       528.6769      -111.8593      -349.0017
       587.8156      -36.65961      -540.0650       222.0317       430.2780
      -142.0850      -69.00818       404.5266       93.20914      -357.4876
       257.9153       472.8819      -393.8518      -8.785889       715.5950
      -54.76773      -360.3091       377.4077       298.4900       187.5238
       23.83182      -142.2748       605.9138       268.0368      -283.4899
       228.7316       391.3405       269.4295      -76.64551      -82.07251
       515.8776       320.1822      -161.0713       198.3752       352.0521
       214.4213       201.2695       327.5880       113.7126      -152.1036
       495.5869       392.0542      -327.2537       254.1643       687.1437
       119.9012      -392.4036       264.2170       676.6233      -140.6501
      -137.3469       464.1118       323.9502      -105.3418       36.58173
       402.1451       221.4958      -158.3027       57.32642       273.0469
      -377.4006       157.7634       785.9185      -359.9284      -391.7242
       474.1920       82.11948      -252.3920       174.1236       197.5495
      -229.4003      -198.9488       248.3723       40.82715      -626.4854
      -75.74255       501.2130      -215.1453      -499.5283      -41.43832
      -161.8630      -55.70773       89.26917      -290.0558      -359.0922
      -403.7859      -118.1885       93.70984      -379.3693      -353.4052
       2.730957      -275.2860      -468.6180      -23.51514      -129.9606
      -243.0586      -334.8074      -675.1586       231.7957      -7.957764
      -1284.678      -280.1201       530.8242      -527.1417      -1041.692
       147.4883       424.4220      -981.7035      -474.3148       630.5341
      -486.6101      -1062.661      -84.11496       224.6924      -403.9048
      -663.6572      -79.53726       195.8655      -467.1082      -629.4668
       22.85117       59.16870      -461.9293      -339.8995       53.80273
      -299.9200      -526.5254      -59.38361      -112.8434      -269.5889
      -94.78827      -246.4075      -186.0450      -100.6844      -366.4725
      -127.4455       114.7844      -200.7854      -221.1272      -36.45911
      -79.64462      -118.7281      -87.39917      -263.9069      -28.59735
       170.2434      -364.5400      -330.9199       369.2959       159.1995
      -611.8127       12.43652       750.6550      -160.4456      -715.2238
       244.5027       569.3558      -437.9435      -336.6257       513.8542
       286.3810      -308.9220      -57.79285       593.8903       285.4125
      -148.8354       29.44019       274.6938       260.0261       27.13467
       110.4128       68.19031       180.7043       655.4515       239.4268
      -255.3938       481.5350       557.0514      -33.38849       161.0437
       373.6469       304.7614       246.2644       497.9139       306.6855
      -185.0626       530.0317       783.5331      -56.22925       76.19385
       695.3168       558.7940       82.40070       9.793823       560.0054
       519.6902       102.9708       558.9856       480.4644      -18.08691
       345.5076       601.2985       443.4940       146.6533       279.9247
       739.3684       120.8306      -23.09131       896.6843       477.9329
      -37.98010       359.3051       433.1116       227.2292       202.9956
       574.9514       522.0526       25.99768       158.1938       636.7252
       469.2811      -198.9756       274.1923       852.6228       5.842957
      -203.9531       346.0253       536.3100       193.4964      -302.7811
       599.8047       593.2653      -611.6880       72.59375       654.3768
      -235.0152      -231.7327       404.0811       64.84058      -288.3101
    0.009841919       105.8805       9.957764      -285.2755      -107.8436
       97.31281      -286.1356      -309.4852      -194.4038      -202.7922
      -222.8002      -267.8069      -55.24347      -217.4712      -575.0919
      -366.8300      -67.19043      -342.0319      -665.4543      -315.0491
      -75.82617      -553.3633      -645.0240      -97.26965      -160.4778
      -812.5637      -507.0226      -145.7224      -579.4919      -688.4075
      -246.7446      -392.8500      -807.0086      -364.2690      -216.1519
      -658.0323      -424.9177      -231.4824      -772.4821      -627.3199
      -87.75122      -616.7030      -745.3203      -326.3682      -389.4292
      -521.0637      -378.3645      -414.8159      -614.2555      -291.2489
      -570.0931      -589.0111       71.92004      -541.3435      -812.1067
      -248.5706     -0.4577637      -448.6395      -785.1992      -179.5704
      -153.3322      -481.9249      -397.9216      -262.6529      -194.7589
      -349.8357      -266.1760      -345.5897      -452.1054       32.36816
      -34.25745      -545.4709      -113.6732       60.83972      -358.7052
      -214.6072      -165.5125      -199.2455       92.66483       6.621765
      -338.0054      -77.35651       286.3022      -202.2772      -375.1599
       233.5902       78.55453      -273.2477       337.8481       318.8029
      -375.0439      -7.335938       428.0227       83.08907      -63.29565
       42.39661       325.9528       26.88519      -73.44006       585.8409
       174.8232      -116.2626       410.4193       368.1891      -5.624939
       117.9977       657.4317       394.6169      -290.5681       327.0814
       814.0312      -196.9338      -78.52881       883.7269       519.1385
       188.0115       236.6653       222.6869       392.1143       365.7251
       353.7842       353.9528       425.6790       560.7041       362.8199
       227.6199       471.1965       310.1560       220.8680       647.0797
       349.3768      -77.41553       454.5616       808.1910       237.9546
       125.8428       776.7426       476.5132      -109.7861       491.4156
       692.8651       177.4037       167.8827       365.5804       548.2138
       294.8926       130.4166       753.8767       493.9019      -257.6499
       422.5270       667.8736      -77.71851       459.9604       725.6002
      -84.01166       180.5200       536.5031       110.1558       103.5226
       262.3918       370.7195       244.1089       33.94421       424.7784
       300.3553      -132.3138       59.52002       337.5721       342.7318
      -18.39868       58.04962       416.1866      -57.71115      -375.9744
       344.7932       409.4631      -238.3104      -226.9039      -69.79883
       56.22182       71.83972      -33.14246      -17.08521      -258.9716
      -99.79617       188.0597      -2.590942      -307.2454      -438.3972
       143.7640       186.1459      -571.3131      -536.4000      -160.8834
      -102.5314      -170.9304      -251.8313      -193.2795       45.59660
       147.1890      -54.45850       136.0532       555.9330      -101.4875
      -1102.306      -324.0347       662.2178       82.32861      -373.7251
      -1066.382      -2566.491      -2337.480       723.4370       3011.162
       2035.614       499.5265      -292.5039      -1413.712      -1835.209
      -751.8096       658.5259      -81.21289      -2194.049      -1452.365
       1544.851       2110.051      -515.4185      -1696.026       44.64835
       386.0747      -1106.535      -1218.285       561.8135       1339.020
       219.4163       73.15234      -734.7817      -1820.049       131.3572
       524.7283      -1117.594      -188.9487       928.6233      -319.5466
      -672.8782       942.0374       121.0376      -1809.972      -360.1431
       241.7612      -1235.076      -84.40698       667.2694      -52.28357
       799.9946      -354.6362      -1376.786       663.8306       453.8306
      -1563.033      -701.5310       1186.905       100.8379      -2196.495
      -819.9673       2074.368       455.4215      -1195.521       376.9524
       37.14380      -1116.206       101.0527       1883.183       598.9521
      -2456.787      -1826.973       265.1319      -390.1370       497.2307
       1625.608      -23.64307      -1107.263      -1438.888      -431.1306
       691.2012      -517.4873      -787.2666       852.0247       1247.861
      -249.4408      -1047.219       513.2399       997.0620      -1393.316
      -1433.208       612.7958       373.5325      -624.2681       337.5757
       1313.183      -772.2021      -2121.553       115.5770       931.0924
      -341.9370      -32.75635       895.0363       363.4775      -1218.946
      -858.2427       1640.409       1378.986      -1126.011      -487.3330
       1348.263       271.2893      -1051.526      -816.9564      -293.6982
       881.8594       1414.562       281.3188      -825.5968      -1093.564
       1118.834       2176.408      -1063.093      -1288.281       1749.759
       708.5192      -527.1207       534.6099      -310.1504       133.6945
       1420.414      -1024.817      -1308.235       2683.862       1495.223
      -2609.800       178.1890       3545.147       793.6716      -1158.125
       642.4337       1212.751      -543.0110      -1110.840       873.9907
       1671.191       204.1591       242.1459       161.8067      -555.9417
       1329.449       1796.817      -327.9452      -646.6132       233.3939
       305.7891       668.2283       725.1268      -352.9302       1083.402
       1744.713      -797.8040      -727.5415       1447.032       975.3130
      -372.4053       924.9347       701.5267      -1186.479       454.6255
       2453.110      -279.0322      -2677.132       805.4976       2502.599
      -273.7395      -362.9736       1204.551       1138.376      -154.7930
      -700.1233       347.1516       907.5663      -66.30701      -648.2870
       223.1023       440.4178       224.5682       487.2630       80.72485
       9.286621       711.5428       210.5771       17.27637       729.2837
      -819.7643      -1170.207       1151.444       381.7458      -960.6494
       836.7657       695.7681      -688.3765       537.0427       573.2659
      -969.2831      -138.0302       786.0510      -122.8748      -464.5432
       150.6931       751.1536      -393.6284      -1021.299       1113.166
       555.8992      -1535.585      -501.4296       475.5924      -275.0303
      -93.40674       699.1556      -190.8184      -951.5271      -384.6367
       481.4708       488.5150      -772.2751      -385.6484       889.8760
      -315.4387      -1116.377       421.9927       44.68481      -1005.040
       508.2515       696.0476      -1061.613      -86.37317       1191.999
      -1375.394      -1733.612       1100.275       392.3032      -1452.494
       270.0088       1008.477      -615.7149      -224.3171       279.2009
      -585.6910      -705.8522      -19.20947      -251.9993      -1128.227
      -223.4668       184.7596      -205.6448       474.5676      -189.4746
      -1023.481      -414.7972       248.3661      -39.42065      -889.7860
      -309.1901       315.6333      -68.60303      -270.1503      -124.0635
      -48.72266      -848.2155      -364.7488       886.4800      -754.5973
      -1234.542       1141.990       408.8684      -1642.132      -97.71973
       1184.320      -694.2576      -1053.058       615.4172       34.26807
      -1102.302      -439.3732       571.7811       461.9297      -267.8000
      -511.3849      -519.1492       44.16772       102.7810      -1092.640
      -97.48621       1198.398      -765.8901      -1644.785       723.6152
       927.9597      -1760.594      -1022.227       1150.827       196.0649
      -788.1340      -191.8395       506.1729      -250.5646      -862.9469
       441.1837       228.3591      -852.1001      -447.3868       36.65552
       779.4032       215.6045      -909.5229       327.1014       301.6870
      -1290.909      -146.3663       684.0859      -777.1017      -768.6147
       747.7474       760.2271      -770.9279      -669.9148       627.7430
       167.5161      -317.4192      -347.4363      -489.5947       337.0280
      -76.56122      -709.2043       586.5316       702.4365      -743.1282
      -689.4821       23.45840       33.42844       148.3375      -349.0901
      -665.8757       324.3532       435.4070      -370.2832       115.6422
       633.4727      -172.1887      -736.1655      -235.9662       252.3558
      -97.64905      -433.8835      -23.25647       469.2533       454.5473
      -201.4424      -426.3632      -293.5042      -369.5740       352.2289
       783.9192      -625.7565      -964.4016       941.6212       640.5081
      -1090.125      -134.2520       933.7866      -281.2610      -767.2747
       669.4204       626.5699      -869.0936       119.0344       885.8689
      -647.0174      -361.0195       716.0983       198.9462      -440.8121
      -2.297485       361.0316       3.845215       80.00433       351.9880
       292.9460       327.1579       213.7870      -625.8258      -262.5032
       1152.165       145.6028      -485.3357       583.8049       598.8175
      -227.5001      -493.5068       907.3594       924.4121      -673.2068
      -44.95325       707.5608       250.9023       134.0152       161.0790
       8.246643      -13.65186       315.6593       618.2837       329.7103
      -27.07935       206.4479       156.6624       135.4037       302.8013
      -4.911194      -79.65112       415.2566       629.0897      -164.9670
      -290.5067       762.2979       487.4921      -319.3077       611.2834
       684.3567      -815.0555      -416.9236       711.6574       233.2580
       88.44720       306.0724      -70.92200       32.84076       110.5384
      -67.40454       240.2455       335.4109       100.3145      -56.87018
       1.151001      -149.2575       15.93823       502.5521       111.9393
      -479.8159      -65.96954       343.9677      -168.2232      -306.7672
       311.0070       310.8652      -356.2637      -278.3129       606.1547
       163.1943      -885.8633      -220.8309       473.5665      -2.138916
      -364.7357      -343.2309      -57.73267       899.5864       335.4739
      -1205.488      -38.52600       729.7585      -524.6125      -485.4393
       500.7020       287.5421      -590.4252      -194.7926       400.5299
      -457.4412      -124.9225       1065.317      -210.7388      -1151.683
       48.92706       351.5265      -45.51357      -187.3538       211.0126
       600.4816      -486.3300      -438.0027       943.2721       214.7894
      -727.3015      -36.84210       316.6676       71.26685      -116.2414
