     0.02500000      -2532.204       3170.728      -12345.00      -12345.00
      -29.99499       218.8300      -20.57000      -12345.00      -12345.00
       0.000000       15.31000      -12345.00      -12345.00      -12345.00
      -12345.00      -12345.00      -12345.00      -12345.00      -12345.00
      -12345.00      -12345.00      -12345.00      -12345.00      -12345.00
      -12345.00      -12345.00      -12345.00      -12345.00      -12345.00
      -12345.00      -32.11960      -68.98490       1817.000       0.000000
      -31.24600      -68.98500       0.000000       102400.0       0.000000
      -12345.00      -12345.00      -12345.00      -12345.00      -12345.00
      -12345.00      -12345.00      -12345.00      -12345.00      -12345.00
       96.86602       179.9945       359.9944      0.8709559      -12345.00
      -12345.00      0.1249152       90.00000       90.00000      -12345.00
      -12345.00      -12345.00      -12345.00      -12345.00      -12345.00
      -12345.00      -12345.00      -12345.00      -12345.00      -12345.00
      2008        16        21        17        57
       270         6    -12345    -12345      9954
    -12345    -12345    -12345    -12345    -12345
         1         7        13    -12345    -12345
    -12345    -12345    -12345    -12345    -12345
    -12345    -12345    -12345    -12345    -12345
    -12345    -12345    -12345    -12345    -12345
         1         1         1         1         1
CLAR    -12345          
        -12345  -12345  
-12345  -12345  -12345  
-12345  -12345  -12345  
-12345  -12345  -12345  
-12345  -12345  -12345  
-12345  -12345  BHE     
ZL      -12345  -12345  
[...]
       81.16948       58.64586       50.03848       53.01049       30.27088
       16.92198       9.764290       15.53195       1.980904      -16.75189
      -14.48468      -25.80325      -30.64717      -34.20712      -47.06090
      -57.28999      -54.65143      -54.53424      -65.92717      -68.70584
      -70.34062      -75.66412      -72.29427      -76.58913      -53.98810
      -65.34998      -66.31281      -49.31375      -64.36777      -49.98343
      -41.64882      -47.46654      -36.88042      -35.98679      -36.63975
      -33.06373      -22.16538      -24.15189      -23.08575      -15.35349
      -16.49002      -9.038334       10.77189       7.524166       11.88350
       24.31572       28.76884       39.03749       48.79948       57.29514
       74.13873       80.27838       96.02362       106.2403       120.4773
       135.1086       151.6036       161.7637       180.2914       194.7692
       205.9814       210.7705       236.6707       262.0728       277.9158
       283.1299       296.2938       307.2828       318.1549       336.8855
       361.3053       359.9462       381.8932       383.9005       396.7489
       404.6692       408.1792       427.9321       429.4263       432.6793
       458.4181       454.2134       463.3220       468.8363       477.1322
       490.2164       495.8718       498.1121       512.7888       504.5713
       520.7355       516.6733       511.1349       529.8953       526.3320
       518.5541       517.3286       524.9432       527.3748       513.5222
       524.1340       512.3494       511.5968       507.6287       500.0085
       497.9016       490.5421       472.9402       471.6892       467.1689
       464.3297       451.3536       439.5145       434.3226       408.6161
       393.4580       403.0153       375.0876       357.0414       336.2615
       324.5742       312.2606       289.6182       277.2244       254.4039
       229.4447       211.1481       185.0915       171.1353       136.1813
       108.4967       89.87695       65.58682       47.51561       18.30719
      -5.119080      -15.68402      -55.46912      -85.45032      -106.1662
      -129.5804      -147.7778      -182.6696      -205.9629      -224.1830
      -256.9135      -274.3936      -306.9065      -324.4324      -340.4297
      -376.7484      -393.8623      -412.0117      -433.5422      -450.3569
      -476.8381      -494.4154      -502.2361      -527.4374      -547.5017
      -562.4294      -587.5122      -583.7268      -611.2250      -624.0842
      -632.2626      -657.9259      -656.3188      -673.2578      -684.1633
      -691.2800      -711.4077      -709.7434      -728.6780      -736.2649
      -737.1782      -743.7061      -742.2019      -745.6675      -745.8801
      -742.3032      -753.2124      -753.9897      -751.9668      -743.6465
      -737.9241      -728.3689      -729.9224      -730.8953      -730.1472
      -694.9692      -691.8430      -701.1416      -677.1891      -659.9192
      -649.2397      -636.6056      -635.7633      -606.1951      -598.6246
      -582.2252      -579.7488      -562.0073      -532.4467      -535.5785
      -523.0044      -509.3176      -488.5464      -478.6593      -476.6096
      -440.6577      -443.0863      -417.9139      -414.4050      -401.3441
      -377.4850      -367.1808      -342.0769      -349.0872      -338.2062
      -284.3835      -272.0070      -282.0487      -271.6298      -250.0793
      -381.0568      -422.4335      -215.9508      -121.4518      -251.1907
      -235.4449      -62.96851      -160.3866      -244.8314      -115.7814
      -140.3209      -308.1462      -339.5299      -225.5456      -56.90498
       126.3888      -20.28754      -244.8164      -159.0748       31.02043
       80.67023      -137.4863      -133.9064       299.1173       299.5715
      -83.71606      -132.9980       212.1561       373.8064       131.1367
       193.1415       398.9372       306.5961       77.66847       5.989258
       231.8861       445.4637       485.6749       319.0706       248.9675
       387.2880       376.6047       369.7876       347.4189       199.7383
       305.4753       549.5984       671.0188       602.4897       399.0697
       386.4548       499.6559       534.0917       417.7466       274.2732
       362.4846       602.6021       784.5161       856.7920       732.9248
       536.1414       310.3347       365.8958       830.8779       971.7853
       476.2275       237.9829       711.3356       826.4819       318.9440
       103.5938       487.0237       917.7905       858.7034       602.2043
       570.4694       557.7460       511.7502       597.1881       588.3527
       277.1229       127.6044       452.4414       778.4294       780.9436
       540.6111       292.2054       265.5017       377.0499       401.6746
       318.4783       226.5173       320.5662       478.4635       427.8247
       282.5062       200.6448       446.7380       553.0372       233.3965
       189.2045       252.9460       143.8009       208.7770       379.5459
       368.2347       183.4379       168.2334       364.9592       298.1516
       78.61737       93.43085       68.40030     -0.3426514       145.9511
       307.4226       391.4504       271.7439      -27.76962      -59.81989
       83.55811       128.6430       23.94401      -100.2110       112.1451
       315.8370       132.1594      -40.07428       124.2643       198.1288
       17.42954      -28.77068       32.41919       148.3429       120.2616
      -74.38132      -93.75983      -75.16693      -159.2949      -178.5488
       17.15491       283.7203       271.7491      -125.6971      -369.1526
      -76.60284       164.2782       136.3575       134.3561       22.91962
      -205.5820      -339.2000      -363.8452      -237.3351      -64.24786
      -119.8572      -285.9151      -228.2995      -39.21674       53.56744
       43.53329      -34.57672      -207.3349      -346.7738      -122.7701
       26.17432      -212.0605      -176.8135      -114.9083      -296.3902
      -225.2867      -81.33765      -152.0153      -341.3118      -396.2631
      -187.4091      -44.36035      -149.2145      -215.0371      -188.3525
      -244.0426      -215.1876      -131.9460      -274.0474      -418.3483
      -190.5510       52.76736      -25.45422      -196.0428      -281.8503
      -139.6152      -11.05939      -163.6042      -349.2372      -329.6003
      -147.3718      -121.3384      -175.1469      -117.2587      -47.50787
       83.55162       117.5119       18.15196      -9.728882      -169.5889
      -273.5077      -146.1369      -92.15842      -4.268799       60.54855
       37.01756       87.03223       13.52795      -148.6594      -91.89394
      -14.16107      -85.91772      -109.1265      -56.15465       9.395889
      -20.00427      -193.0154      -251.3566      -135.6420      -33.19470
      -34.97385      -90.24205      -60.41049       44.60106      -16.33118
      -136.8754      -162.0850      -127.8332      -162.4799      -256.8842
      -160.7231      -31.68274      -142.6584      -155.5404      -77.14783
      -162.8024      -266.5743      -238.1473      -185.9906      -198.6252
      -65.70322       34.77913      -98.70337      -77.47296       26.46274
      -133.2334      -252.9750      -143.5843      -30.85254      -51.81812
      -162.3043      -185.6514      -104.0217      -131.5469      -59.99451
       157.7411       72.20380      -131.6762      -115.2935      -137.1302
      -248.8571      -165.0529       22.02648      0.8562927      -83.61218
      -104.5779      -99.35013      -61.16089      -149.9185      -247.6336
      -143.5398      -59.90695      -84.85745      -78.44241      -26.02451
       36.92873       131.2414      -13.75922      -247.1221      -197.6382
      -167.7576      -227.4798      -172.2161      -8.189339       46.21277
      -92.02069      -148.8952      -76.74658      -68.45648      -177.8640
      -233.9292      -209.8219      -129.0443      -64.15271      -172.3339
      -269.2898      -259.4750      -260.5912      -207.0303      -133.2155
      -184.0248      -247.5730      -216.7505      -233.8259      -285.4232
      -310.6073      -332.8987      -340.7603      -257.0612      -222.5137
      -275.5880      -243.4108      -236.0958      -215.3293      -200.7192
      -312.6050      -429.9813      -362.3820      -234.0485      -262.5016
      -276.2191      -196.6677      -148.0290      -103.0081      -144.6807
      -262.5061      -334.1481      -264.5703      -114.2002      -90.98944
      -147.4947      -72.35789       79.18123       38.32053      -55.51263
      -161.1577      -248.3435      -217.7430      -80.96448       220.4960
       289.9327       153.3203       160.4927       159.6753       215.5453
       178.1196       80.05194       131.1994       144.5773       255.1779
       316.5818       170.5513       207.0508       268.5756       150.8247
       177.8685       385.5675       397.6577       250.2515       350.8417
       409.4333       249.3442       280.3689       424.1929       491.2263
       446.7026       357.3588       328.1200       348.5652       455.9109
       452.5417       292.4225       404.7614       583.6545       389.2679
       244.5638       479.9188       519.4191       196.1710       266.5089
       616.7239       502.8986       212.0033       291.2672       486.6620
       434.9279       333.0852       517.0518       777.2000       600.5540
       356.7933       526.9309       614.6980       451.3455       256.0454
       291.5056       428.3475       299.3810       226.1995       478.2944
       655.5582       400.5890       133.1299       349.6287       639.3938
       518.4142       349.9832       366.6992       411.9950       466.8528
       558.5867       506.5032       381.7891       475.9874       454.6098
       228.9292       206.0409       294.0579       303.1018       342.2911
       375.9568       309.9264       276.6782       217.7875       218.2649
       358.1701       321.2181       89.05609      -57.94693       23.96179
       287.2847       319.2467       26.72520      -68.18830       41.47225
       17.49683      -81.87900      -102.2178       14.50162      -26.43323
      -111.5468       27.22359       23.97070      -147.0059      -285.3921
      -311.1856      -169.5819      -171.2305      -201.7474      -192.7681
      -349.2505      -395.1428      -313.0092      -304.6040      -379.0441
      -478.4578      -437.5418      -315.7423      -245.3542      -263.6302
      -325.6718      -419.5441      -487.3184      -512.7909      -602.6050
      -622.3689      -557.9170      -518.1943      -501.1848      -532.9567
      -587.3489      -730.0494      -711.7518      -441.9629      -366.0557
      -572.5068      -738.9121      -671.4785      -652.0479      -851.3342
      -875.7588      -725.9856      -627.6853      -552.0442      -487.7247
      -538.6179      -628.3062      -524.2123      -365.7147      -375.8774
      -481.6501      -688.1392      -816.8369      -715.7650      -628.3455
      -627.3906      -716.4490      -723.1821      -559.5483      -548.0063
      -677.2959      -623.8694      -446.4553      -336.1100      -308.0771
      -410.6945      -479.6227      -332.6828      -117.7945      -5.911255
      -77.94635      -282.1460      -418.6682      -528.6134      -515.8754
      -289.0792      -97.19571      -112.4732      -143.5494      -35.58035
       45.80212       75.59756       118.2130       95.92929       99.21680
       96.89708       13.66907       155.6500       302.7346       89.10294
      -129.9179      -249.0767      -261.9219      -166.4622      -69.80365
       90.83728       180.6152       141.2914       163.5059       323.7930
       625.8641       623.1819       272.8488       115.1304       181.6963
       267.9642       312.8698       200.5857       3.108215      -63.15775
       27.49048       298.6572       405.2416       191.9486       142.2775
       166.6694       124.0429       197.0701       293.7749       401.7969
       425.6454       199.1830       107.7242       199.1605       89.28732
      -6.669281       117.0018       202.9662       221.2585       277.9640
       325.8824       436.2638       551.5454       442.8801       300.2435
       218.9556       146.3165       210.9324       426.8815       543.6035
       429.0704       323.4432       348.3099       515.7141       658.3862
       545.1017       197.9741       15.02393       223.4030       393.2179
       435.2324       513.1477       688.3762       859.4919       691.1760
       532.0942       697.8176       732.4014       596.3818       864.4075
       1318.692       1388.988       1244.651       1369.218       1689.249
       1811.175       1538.724       996.9230       316.8181      -226.0787
      -296.2197       80.24512       984.8789       2394.633       3170.728
       2514.701       1109.716      -227.9624      -1000.027      -1047.142
      -891.2466      -722.1754      -247.1039       207.3807       296.8862
       246.8059       173.1218       299.0065       312.1918      -121.1560
      -484.4436      -557.5753      -363.7451      -63.73669       125.0522
       415.3979       978.8496       1621.578       1252.723      -310.6494
      -1444.076      -1531.869      -1292.132      -995.8297      -299.3633
       201.4358      -132.5621      -143.9961       831.0176       1587.385
       851.2786      -280.9321      -475.4312      -706.3188      -1715.494
      -2470.778      -2196.372      -1293.968      -226.0189       624.0332
       680.2847       132.2694      -189.4636       145.2263       670.7921
       496.9365      -470.7090      -1440.486      -1695.720      -1055.242
      -196.6353      -11.25806      -754.2134      -1777.016      -2389.986
      -2385.016      -1882.104      -1236.738      -779.9849      -914.3755
      -1282.504      -388.9023       1758.978       3131.965       2627.551
       1038.806      -796.1519      -2236.587      -2532.204      -1698.876
      -532.3698      -116.8232      -589.2871      -891.2722      -1122.808
      -1798.504      -2202.896      -1734.707      -676.4478       191.1611
       617.6887       938.4727       880.4655       344.9574      -144.4233
      -558.2930      -1102.071      -1608.052      -1814.750      -1393.877
      -613.2504       69.82727       481.2594       505.5558       377.7271
       492.7852       845.1650       1074.381       885.5417       178.1589
      -778.5854      -1333.917      -1070.292      -162.3608       567.4844
       653.4080       315.9421      -200.8623      -815.0781      -1362.242
      -1409.543      -739.9689       106.3458       612.2388       771.7808
       652.6165       493.1050       613.2031       751.7056       578.1259
       65.23071      -430.6931      -549.1812      -655.0391      -957.5521
      -810.2750      -120.9930       403.5229       570.5757       879.3394
       1393.021       1417.933       564.1777      -557.9563      -1044.210
      -736.0076      -282.7580      -183.6118      -91.58789       462.3833
       1065.482       1075.290       458.4908      -50.86850      -29.21063
       63.25946       156.5593       456.8647       816.2024       907.4011
       608.8732       375.0472       223.7059      -31.26602      -153.7393
      -13.94275       431.1160       905.4875       970.3521       872.7783
       924.6863       970.6035       699.1531       96.87988      -382.1350
      -498.9258      -404.7443      -187.6892       116.9441       405.2511
       426.7213       231.5494       159.5509       131.8234      -118.7521
      -264.3496      -82.46741       226.7157       436.8641       372.9251
       73.52765      -222.4646      -164.8304       298.8875       660.6174
       907.7271       1353.773       1643.841       1359.615       806.9014
       449.2527       224.7495       179.0430       319.6521       225.7712
      -151.8970      -469.3943      -510.8026      -330.2828      -88.22424
       37.58046      -36.20114      -88.25867       100.0542       461.6945
       711.2786       628.1503       312.2199       112.9642       19.13818
      -345.9238      -878.2070      -831.3115      -117.5575       287.7916
       124.3187       54.92957       278.5132       568.5571       680.4260
       442.7781      -185.6050      -823.9092      -889.2365      -582.5610
      -527.6768      -682.4961      -513.1149      -27.85559       202.4335
       139.7365       20.87863       48.53558       256.8229       193.9585
      -180.5453      -427.8022      -305.1413       35.68109       313.4805
       276.6881      -247.5127      -838.9358      -842.9082      -396.3919
      -222.5317      -493.9897      -671.4513      -486.4054      -350.6305
      -487.1096      -372.5439       92.89600       243.9223       32.68695
      -107.5261      -168.2045      -216.0040      -152.2467      -214.2810
      -494.1437      -449.2820      -37.26239       138.8318      -158.7207
      -460.4908      -351.6165      -151.1574       16.38409       143.0323
       191.8364       133.2833      -145.7739      -435.3623      -591.9116
      -899.2847      -1113.005      -764.6989      -241.3755      -142.0134
      -199.6957       38.13245       141.7138       33.15112       270.7573
       797.9338       1035.948       674.4258       209.9106      -75.09753
      -377.9211      -549.2240      -536.8385      -322.2412       17.56512
       213.4044       229.1592       312.5469       479.0859       585.8342
       603.7941       538.1838       465.4756       399.7357       260.6706
       43.22148      -113.3126       18.47461       335.2589       399.1748
       212.7871       335.8335       596.9363       459.0240       130.4870
       52.87982       195.4633       354.9871       539.4475       681.2742
       707.5278       612.8850       296.2043      -58.78798      -97.51306
       221.5581       631.8716       839.7539       773.8574       726.6687
       801.4431       611.9540       333.4644       363.7910       460.9343
       494.3108       543.1235       466.6176       346.9707       310.9774
       262.6086       156.9849       135.2434       401.6587       735.7441
       929.9377       866.1187       656.8069       617.5853       500.9823
       230.1285       196.5210       211.5241       30.73486      -80.81470
