     0.02500000      -1594.655       2082.613      -12345.00      -12345.00
      -29.99499       218.8300      -20.57000      -12345.00      -12345.00
       0.000000       15.31000      -12345.00      -12345.00      -12345.00
      -12345.00      -12345.00      -12345.00      -12345.00      -12345.00
      -12345.00      -12345.00      -12345.00      -12345.00      -12345.00
      -12345.00      -12345.00      -12345.00      -12345.00      -12345.00
      -12345.00      -32.11960      -68.98490       1817.000       0.000000
      -31.24600      -68.98500       0.000000       102400.0       0.000000
      -12345.00      -12345.00      -12345.00      -12345.00      -12345.00
      -12345.00      -12345.00      -12345.00      -12345.00      -12345.00
       96.86602       179.9945       359.9944      0.8709559      -12345.00
      -12345.00    -0.04198123       0.000000       0.000000      -12345.00
      -12345.00      -12345.00      -12345.00      -12345.00      -12345.00
      -12345.00      -12345.00      -12345.00      -12345.00      -12345.00
      2008        16        21        17        57
       270         6    -12345    -12345      9954
    -12345    -12345    -12345    -12345    -12345
         1         7        13    -12345    -12345
    -12345    -12345    -12345    -12345    -12345
    -12345    -12345    -12345    -12345    -12345
    -12345    -12345    -12345    -12345    -12345
         1         1         1         1         1
CLAR    -12345          
        -12345  -12345  
-12345  -12345  -12345  
-12345  -12345  -12345  
-12345  -12345  -12345  
-12345  -12345  -12345  
-12345  -12345  BHZ     
ZL      -12345  -12345  
[...]
       837.9099       837.1025       823.2847       807.9421       808.6809
       796.6421       779.7781       766.9990       756.2651       738.9834
       726.1641       708.2534       693.4456       681.5193       660.7766
       641.0376       622.7731       596.4001       580.1285       559.1458
       540.1106       521.9465       497.0835       467.4563       452.7419
       422.0295       398.2646       376.6565       348.8226       312.2477
       274.7236       244.2237       228.6531       192.8680       159.2881
       123.1599       88.54117       53.44293       21.95567      -13.63870
      -41.24359      -78.04413      -106.0338      -137.7630      -166.4589
      -209.1621      -243.1846      -256.9382      -282.7263      -317.7798
      -333.7318      -354.6233      -375.4585      -408.2788      -417.4246
      -434.3140      -451.6841      -462.5699      -472.8920      -497.8080
      -497.4204      -503.0720      -509.3943      -519.4111      -529.2593
      -536.5958      -537.4362      -544.1499      -540.9156      -552.3074
      -552.6281      -547.3774      -544.7737      -545.4136      -537.6328
      -536.1643      -526.8645      -523.1450      -512.3368      -508.3779
      -503.1652      -491.2793      -478.1101      -472.7328      -458.2073
      -440.0585      -419.4572      -415.6196      -400.2686      -384.5713
      -363.2550      -338.2969      -327.4628      -313.8483      -293.9470
      -274.7394      -258.6517      -249.2286      -225.5667      -205.4989
      -194.4829      -177.5338      -152.3292      -138.0732      -126.0468
      -107.6453      -89.04324      -84.07556      -70.21487      -58.95928
      -42.55199      -28.84295      -22.14212      -16.56953      -2.787651
       8.477478       22.19920       23.62440       28.36189       40.69894
       50.50192       51.30795       45.83592       49.36847       64.11746
       67.85562       70.12698       72.88132       78.29144       70.70041
       66.51488       82.53249       78.17061       70.56288       78.09106
       79.80203       69.41579       68.64404       63.56435       60.82402
       57.91348       48.58318       47.73878       44.42616       36.52132
       33.38042       26.40205       18.04345       12.41983       12.85018
       1.401215      -8.743889      -8.264935      -6.523941      -12.34488
      -13.93286      -20.97666      -7.438553      -8.628418      -19.70795
      -16.57682      -1.303310      -1.463712      -7.052095    -0.09932327
       11.71681       21.30222       24.93102       24.16434       32.73748
       34.37589       38.70847       43.81728       53.51067       57.32628
       69.40027       104.6133       122.6144       82.80396       97.48413
       210.1000       224.3387       139.3018       163.5641       73.89111
      -271.7383      -399.0251       33.32877       159.7906      -181.9533
      -98.13821       114.6607       22.01834      -134.0885      -59.43311
      -70.21997      -300.4596      -314.3369      -270.5416      -318.9073
      -335.3958      -149.9516      -23.27020      -224.9056      -374.0078
      -389.1420      -321.0163      -114.8359       67.86020       131.9980
      -270.9158      -670.6790      -600.9432      -343.8435       19.75317
       118.5701      -218.9662      -494.0159      -215.3195      -133.6735
      -288.7593      -58.32617      -276.3082      -610.5715      -378.9078
      -186.9244      -115.6666      -279.8772      -688.3043      -442.9004
       166.8265       18.06970      -428.7478      -213.6193      -95.63879
      -329.7325      -264.1689      -80.41528      -149.4912      -632.1060
      -805.3409      -45.64319       368.0067      -181.0012      -404.6707
      -160.7384      -278.8651      -250.7622       557.6200       864.4375
      -95.98865      -824.5402      -321.3553       368.7566       39.45374
      -445.1032      -180.9220       177.9694       161.0128       208.5881
       347.1309       384.7407       130.7596      -243.1124      -259.1432
      -62.45569      -191.1258      -293.8392       71.23657       415.9891
       532.5486       430.7612       118.1222       22.01594       27.12115
      -117.5162      -39.92999       215.8743       194.8879       67.26431
      -46.08942       55.15356       201.3127       304.5565       430.6665
       181.1169      -129.5042      -124.2916       85.93494       366.1677
       248.7548      -53.22034       145.9761       184.0746      -202.3870
      -1.841309       327.3116       85.37387      -113.4951       79.71057
       249.0268       91.81985      -89.13510       20.93021       153.0455
       183.2947       5.361542      -156.6985      -71.17412       73.34188
       32.07141      -5.909790       275.3669       254.4777      -172.8939
      -280.8774       56.97473       411.0510       365.2404       125.5134
       47.91742       208.0313       224.4838       122.7344       74.44531
       185.6945       501.7610       480.4926       86.53008      -7.495361
       182.4167       252.0895       387.7954       463.7003       271.6647
       392.1956       511.2821       272.5695       183.7842       340.5425
       329.8453       167.1259       327.4619       615.3534       437.4572
       310.0491       482.5179       512.8950       493.4048       512.5906
       477.3098       408.8281       599.4506       786.2076       440.1822
       130.3930       236.7249       475.2406       487.7518       419.9832
       470.1622       340.2726       247.6504       457.1865       659.7927
       608.3539       292.7743       93.84546       305.3363       621.6377
       530.1749       165.2987       44.56281       299.6553       368.7674
       64.89172      -72.84521       64.10132       384.3721       539.8474
       199.7536       50.10040       166.3605       34.70505      -113.7476
      -9.622284       163.4007       145.0961      -86.64587      -196.5609
      -118.7599      -116.7622      -183.8409      -149.2365      -220.8331
      -255.0609      -192.2776      -298.7977      -379.1294      -394.7887
      -542.6318      -704.6925      -639.9950      -455.4114      -270.6488
      -129.1279      -287.4102      -628.8033      -735.8672      -547.1323
      -418.1758      -561.8308      -700.8093      -673.7524      -761.7771
      -801.6267      -606.7069      -533.1270      -706.6536      -754.6174
      -634.9172      -604.6257      -558.3514      -607.8154      -742.2642
      -773.6927      -620.0540      -383.6118      -421.2937      -587.9242
      -612.2681      -492.5024      -462.8806      -449.6309      -262.6112
      -347.4417      -640.7783      -623.9359      -493.8201      -502.2061
      -490.6248      -416.7180      -350.1332      -286.0026      -205.7170
      -163.4814      -293.9390      -431.7189      -330.4208      -231.2379
      -107.5506      -98.17145      -259.4459      -155.7481      -3.549301
       32.74377       187.4147       173.9296      -16.44592      -67.78577
       44.32233       95.42511       191.9202       304.2354       150.6743
       149.8342       352.4237       381.0894       325.8593       387.1636
       453.0012       501.6660       572.9149       393.2507       283.0464
       535.1140       704.6555       526.7329       383.0388       547.7854
       610.4346       531.2493       659.7529       817.2837       741.3208
       677.9761       707.6208       585.7798       413.0172       453.7866
       714.6682       931.6111       937.0771       718.3669       499.8613
       628.1208       878.0635       927.0337       818.8086       763.1943
       789.2310       804.5854       838.3484       787.2119       692.4160
       715.2520       727.7930       733.1045       767.5752       678.8937
       607.5586       696.7253       732.0254       508.4651       589.2659
       770.5389       458.4971       393.9658       722.3933       657.4081
       334.7808       358.6580       526.3909       490.4183       381.4917
       404.3334       299.2093       83.82739       336.2950       446.9274
       21.25891      -168.8063      -124.6847      -68.09808       70.61457
       47.53180      -92.26471      -286.3616      -276.0999      -38.51520
      -115.2177      -309.7734      -184.3478      -209.4382      -522.8867
      -594.5787      -504.4272      -626.3840      -544.2180      -347.6055
      -496.9137      -630.0804      -596.9751      -826.8508      -973.0256
      -659.7244      -534.3508      -938.9014      -1129.088      -750.0767
      -684.5884      -988.4600      -770.5468      -444.2461      -712.2158
      -1028.803      -888.3723      -774.5667      -852.1382      -925.6792
      -902.2217      -712.0593      -724.9922      -1040.007      -1048.642
      -866.6343      -947.6675      -936.0231      -593.9451      -268.7538
      -310.9780      -837.5920      -1314.473      -1004.645      -476.5151
      -549.3026      -649.9971      -577.7971      -582.6263      -574.9291
      -508.9449      -490.6826      -654.0200      -824.0210      -779.4382
      -572.8064      -286.5051      -190.8859      -455.5305      -499.8247
      -294.7390      -365.2023      -407.5792      -250.6396      -222.5016
      -331.0870      -291.1519      -334.6266      -321.1132      -54.67422
       69.59070      -135.3303      -338.1776      -81.66882       283.9136
       177.9621      -97.50647      -296.6541      -388.1040      -178.4800
       83.44046       164.1057       47.80640      -65.58630       248.7993
       499.2929       265.7628       18.72531       42.32288       163.4754
       124.7533       22.93842       114.7102       166.8872       302.8654
       426.4103       214.1284       171.2314       329.9358       327.2358
       334.5012       399.4187       518.9800       500.2402       318.7402
       420.0166       627.2195       456.5774       247.1152       497.0857
       869.0720       800.0781       550.6567       453.3494       291.9774
       321.7583       656.5724       706.0620       618.6256       641.0134
       641.1154       691.9858       625.3160       569.9788       521.7510
       604.9102       868.8198       827.1273       542.7184       241.0195
       376.1692       739.2643       686.9932       457.6384       378.6892
       445.3706       597.9780       730.6084       738.2786       590.2516
       462.7888       578.1044       610.9476       293.8201       35.28268
       3.097946      -35.67453      -153.5424       23.81665       339.9820
       315.4966       223.7758       244.5851       102.3746       29.34253
       160.5101       90.15515       27.22705       250.7785       162.8391
      -237.4792      -220.5503      -86.39612      -260.3148      -271.2361
      -234.6740      -435.9518      -323.1084      -115.7073      -210.8857
      -136.2144      -90.80969      -386.4999      -538.5460      -432.0513
      -440.8558      -327.1582      -147.5823      -324.5928      -556.4258
      -522.8998      -473.5562      -492.8972      -380.9275      -348.3381
      -598.1074      -541.0994      -63.26726       94.08881      -63.49065
      -40.78351      -17.39020      -187.9274      -437.7378      -582.3368
      -487.2954      -471.3622      -595.2578      -537.0147      -380.8831
      -143.5137      -294.5283      -589.5671      -211.3224       206.2278
      -82.08496      -416.9711      -326.2679      -307.2820      -428.3348
      -390.7551      -201.7930      -3.088989      -158.1750      -690.8234
      -669.7762      -19.98996       215.3887      -105.5282      -253.1317
       71.07690       480.2545       517.8907       66.19409      -228.8095
      -160.6055      -357.6273      -438.6506      -59.58087      -124.6504
      -572.2946      -427.9791      -86.71252      -171.2283      -227.4142
      -300.9810      -459.0498      -508.3901      -320.7988       271.8431
       532.9827       316.5513       420.9923       660.5035       335.7840
      -169.5401      -115.8986       149.5889       285.8307       333.3809
       97.40192      -203.5399      -91.31967       88.11603      -113.3270
      -339.2190      -215.0461      -290.5078      -716.7172      -657.6772
      -94.36316       232.4343       405.9231       740.2393       833.5417
       655.7942       566.2449       271.0844      -220.3146       75.97461
       1191.655       2039.779       1963.575       1057.838       144.4392
      -131.2703      -5.711060       291.8542       591.6294       767.0464
       1069.589       1506.716       1367.638       495.4358      -334.1562
      -629.6016      -386.2559       294.9014       1216.386       2001.522
       1910.226       941.2626      -137.5566      -940.2339      -1315.478
      -1044.234      -670.1138      -235.2708       577.5137       1376.751
       1945.825       2082.613       1540.290       729.6592       429.9475
       316.3479      -481.0750      -1063.192      -578.5516       129.3572
       607.7529       1300.030       1817.768       1717.792       1258.301
       671.3578      -18.06689      -622.0674      -905.0298      -855.0303
      -817.3167      -992.1328      -991.6769      -741.5524      -254.4738
       446.5500       979.5720       1346.957       1078.189       157.9344
      -393.8503      -465.0754      -726.8564      -1162.603      -1213.355
      -600.2461       266.8269       676.5945       498.6436       516.9612
       842.2590       1095.363       1187.415       763.1619       168.9995
       131.4132       79.53174      -416.7937      -839.9780      -974.4087
      -977.9780      -929.0723      -1122.562      -1391.999      -1132.314
      -291.4468       494.8159       835.3623       853.1536       470.8237
      -311.5728      -1008.332      -997.0184      -330.5846      -36.50793
      -265.6855      -376.6921      -516.6685      -883.4358      -994.3511
      -730.7250      -282.6765       112.5541      -17.67310      -612.3267
      -986.0952      -752.2063      -450.1973      -681.0076      -883.0745
      -588.5626      -140.3816       39.34118      -8.924927      -8.835297
      -42.65332      -274.3976      -554.7278      -598.0411      -327.2205
      -155.7464      -170.6137      -248.5588      -429.1384      -419.2886
      -353.7351      -786.7251      -1370.761      -1506.384      -1349.457
      -1121.071      -821.2234      -672.7499      -622.5938      -340.6906
       18.00775       158.2268       233.3163       322.8624       27.08521
      -575.8358      -690.3989      -390.9156      -226.9480      -248.2437
      -151.4951      -36.35779      -429.8906      -1005.441      -1121.565
      -798.6151      -509.6504      -403.6401      -188.9046       32.11958
       81.62407       16.80835      -193.7280      -476.1143      -427.5031
      -187.9259      -204.7112      -375.2078      -300.3749      -89.20331
      -153.4100      -208.9529      -36.54456      -82.59631      -393.4904
      -624.5186      -518.7402      -297.4926      -245.3406      -182.6609
      -116.8937      -229.5834      -309.4983      -346.5093      -385.2883
      -265.6687       74.23047       411.3064       571.6626       615.6074
       686.6715       487.8141      -64.21558      -302.4927       17.15466
       395.2339       432.8092       153.4061      -65.35419      -39.48218
       215.6532       348.2401       218.7762       209.6801       355.8193
       343.2118       241.9380       284.7634       487.6943       647.6372
       661.0107       530.3794       436.3379       610.7107       694.5599
       490.6743       602.6399       761.5123       371.5740      -96.43628
       37.62793       397.8585       276.1835      -161.6175      -157.1696
       270.4956       687.7861       868.4045       748.1824       629.0264
       632.5670       607.3533       542.5544       563.6365       613.9082
       537.4124       556.5916       503.0601       307.9180       323.2427
       537.6348       654.6875       743.2769       795.6455       728.9348
       742.9521       807.7180       908.3210       957.9409       678.4409
       386.6032       306.0571       350.6375       328.6676       215.4055
       236.9539       357.7300       291.4330       64.50653      -77.10153
       18.84784       207.5209       151.9750      -163.0553      -307.7251
      -124.3058       29.64413       66.08212       91.68021      -71.52649
      -136.9934       165.0376       449.1222       558.1243       695.8760
       715.5928       622.7423       487.2306       470.1052       679.7751
       709.1387       407.8131       124.2330      -157.8372      -338.2682
      -291.5519      -328.5879      -511.2969      -787.8794      -915.7053
      -627.3263      -391.7766      -372.6374      -280.8629      -199.1065
      -128.2914       33.20825      -68.56348      -288.9926      -188.2021
      -48.04228      -45.25928      -132.1389      -411.9148      -668.2339
      -411.2972       5.990601      -62.37476      -234.4158      -300.5154
      -335.3853      -276.6173      -271.0509      -287.6320      -167.9386
      -4.915024       28.97211      -90.11353      -254.0581      -249.1588
      -217.5320      -355.7320      -283.8271       8.388031       55.99982
      -64.54216      -62.85123      -49.60193      -146.8096      -297.2874
      -346.1270      -193.1425      -180.9333      -327.2139      -541.1965
      -714.6852      -533.0101      -340.2577      -416.0176      -572.9944
      -558.4177      -536.8054      -664.0961      -611.4899      -437.1937
      -385.3184      -322.1082      -241.5633      -254.2642      -204.8400
      -99.63599      -125.5095      -178.9542      -93.30318       22.55548
      -29.00220      -275.4628      -460.3184      -354.0222      -265.5057
      -333.2432      -329.6299      -267.8994      -241.0919      -116.7406
       46.99368       27.38687       2.273682       94.98238       12.41678
      -155.1220      -53.19281       265.1981       378.4996       251.6923
       173.0807       226.8878       292.7369       363.9121       464.7258
       485.0842       443.0309       494.9895       538.5098       461.5261
       459.5679       725.4006       893.4227       710.9451       537.9232
       621.5996       690.6584       517.8706       346.3162       458.8422
       590.1475       407.8320       90.27751       20.53735       197.3633
