     0.02500000      -3208.867       2822.642      -12345.00      -12345.00
      -29.99499       218.8300      -20.57000      -12345.00      -12345.00
       0.000000       15.31000      -12345.00      -12345.00      -12345.00
      -12345.00      -12345.00      -12345.00      -12345.00      -12345.00
      -12345.00      -12345.00      -12345.00      -12345.00      -12345.00
      -12345.00      -12345.00      -12345.00      -12345.00      -12345.00
      -12345.00      -32.11960      -68.98490       1817.000       0.000000
      -31.24600      -68.98500       0.000000       102400.0       0.000000
      -12345.00      -12345.00      -12345.00      -12345.00      -12345.00
      -12345.00      -12345.00      -12345.00      -12345.00      -12345.00
       96.86602       179.9945       359.9944      0.8709559      -12345.00
      -12345.00      0.3396976       0.000000       90.00000      -12345.00
      -12345.00      -12345.00      -12345.00      -12345.00      -12345.00
      -12345.00      -12345.00      -12345.00      -12345.00      -12345.00
      2008        16        21        17        57
       270         6    -12345    -12345      9954
    -12345    -12345    -12345    -12345    -12345
         1         7        13    -12345    -12345
    -12345    -12345    -12345    -12345    -12345
    -12345    -12345    -12345    -12345    -12345
    -12345    -12345    -12345    -12345    -12345
         1         1         1         1         1
CLAR    -12345          
        -12345  -12345  
-12345  -12345  -12345  
-12345  -12345  -12345  
-12345  -12345  -12345  
-12345  -12345  -12345  
-12345  -12345  BHN     
ZL      -12345  -12345  
[...]
      -280.2977      -320.3640      -353.0476      -393.3688      -428.4607
      -461.9945      -486.0566      -511.1387      -545.2952      -575.2853
      -597.1663      -629.7517      -644.6460      -656.3022      -687.6184
      -711.2585      -728.0000      -738.6614      -745.3057      -771.2705
      -783.5811      -780.8667      -788.1836      -801.8230      -808.7637
      -829.0581      -819.3394      -812.8760      -836.9624      -831.3484
      -823.3225      -842.6504      -836.8596      -831.2781      -833.8196
      -833.3196      -836.4653      -830.7664      -829.8457      -827.7568
      -822.7539      -817.8286      -795.5647      -790.0020      -789.5596
      -772.1272      -767.0938      -755.7537      -741.8325      -733.9006
      -716.1326      -700.4038      -678.4929      -666.3569      -656.8716
      -636.5892      -617.8563      -602.4508      -590.0254      -567.3558
      -543.4442      -527.5991      -510.1475      -489.1750      -468.7209
      -451.7195      -433.7863      -404.6427      -368.4392      -336.8557
      -331.9015      -319.0998      -270.8633      -244.4449      -218.9497
      -180.5405      -161.3982      -131.3440      -99.67746      -70.27825
      -30.95018      -2.845184       26.40021       67.23022       101.7621
       124.8558       163.5539       194.3396       224.2695       258.1958
       296.3528       319.9871       335.9655       376.4403       406.2668
       435.6348       458.8850       482.5042       523.3352       543.1869
       559.3743       579.1191       603.1040       634.9379       656.0972
       673.8838       695.3469       713.7222       729.4141       759.2344
       769.2515       769.5969       791.1692       817.1277       822.4304
       835.2754       835.5913       833.1973       835.8931       841.0640
       840.6206       843.1907       834.3179       829.1470       814.8828
       813.1501       808.6484       793.5088       779.2051       779.3088
       756.3511       732.1477       723.4634       713.4938       690.5817
       666.1013       651.6904       632.5380       614.1547       594.8649
       565.4287       544.9088       523.1156       500.5249       484.6204
       457.0013       437.7640       415.5813       386.0341       371.7996
       342.2652       316.3412       296.9907       275.8146       255.7650
       216.2739       190.2524       185.1533       147.2641       125.2336
       107.0202       79.43056       55.04368       28.12166       14.77880
      -9.499863      -44.48633      -50.13382      -71.57935      -100.7383
      -119.6455      -140.2789      -158.8944      -173.6424      -186.5643
      -189.7809      -212.2698      -231.3679      -237.2926      -254.9310
      -273.4691      -274.9355      -287.7167      -297.5406      -305.1427
      -309.0797      -323.0794      -332.6116      -333.1744      -335.4917
      -337.8999      -348.4993      -354.8654      -351.3507      -366.5575
      -359.1128      -351.6134      -363.4523      -362.1207      -357.9290
      -351.9172      -353.1597      -360.6727      -356.8896      -359.1082
      -359.4352      -366.2738      -368.0867      -357.0281      -354.3239
      -365.3932      -371.5370      -359.3696      -359.2397      -366.1562
      -370.7090      -375.0659      -369.4543      -384.9884      -385.7368
      -374.1010      -390.7435      -394.6638      -386.6301      -395.2570
      -400.1881      -403.3864      -411.1069      -407.0699      -380.7244
      -320.7230      -280.0186      -313.6002      -279.9637      -250.1337
      -310.8151      -264.1111      -295.1892      -395.7351      -393.0552
      -306.6344      -235.1815      -239.0905      -191.2073      -140.2135
      -136.3765      -172.1016      -253.6183      -206.4175      -96.45422
      -106.4772      -208.9999      -202.1475      -181.5314      -266.7583
      -168.7106      -70.86270      -58.91089      -36.35638      -142.5766
      -131.3373      -16.34709       31.65781      -11.53317      -78.04443
      -240.6259      -345.6496      -91.95532       101.1002       156.8916
       52.43857      -196.8551      -33.43927       169.3500      -54.27065
      -127.2490       58.07365       72.05115      -74.92630      -91.79712
       48.45526       125.8410       72.87830      -23.93999       4.560715
       61.88222       44.85933       76.23257       97.17236       167.9902
       298.3026       100.8356      -192.8867      -185.4912       6.784302
       149.6219       254.2186       202.6688       74.69049       170.6223
       292.7608       218.2430       79.85394       16.29572       27.12875
       45.70087       118.5501       216.7157       249.2610       289.7566
       317.0867       229.6974       191.1371       266.2704       310.6371
       154.5728       88.98987       297.6237       312.0860       74.47568
      -12.85323      -60.49890       147.9691       510.5558       427.5302
       265.1193       258.7178       189.5217       201.2018       161.3084
       91.25180       147.1831       176.5160       67.65338       65.26404
       270.3376       360.3370       156.2248       46.51160       146.5081
       217.1809       163.2787       132.0498       220.0151       213.3293
       72.36499       47.17761       48.16043       63.63934       106.5416
       105.7836       240.1092       278.2325       156.3196       144.4978
       93.90906       94.08019       12.54227      -75.25610       195.2565
       400.1469       242.9360       101.1268       222.9907       398.8746
       340.1350       265.5553       258.9983       59.75919       14.04602
       279.1694       420.3176       342.9992       169.3679       75.96661
       145.4990       176.0740       152.5077       268.7871       335.3639
       220.2474       184.4877       161.6656       165.3204       297.6018
       315.6748       202.3817       163.1949       213.6353       286.2396
       290.2875       190.3055       42.59145      -12.36157       177.8809
       285.7074       113.2166      -82.24982      -13.27332       197.9958
       282.1502       255.6478       51.59369      -151.5975      -61.36391
       61.48566       81.52201       44.12566      0.7317810      -83.84766
      -179.7850      -170.2828      -110.9120      -106.5981      -129.1398
      -174.4987      -195.3256      -218.5363      -286.9284      -285.1992
      -205.5552      -225.0894      -273.5339      -433.3931      -496.2588
      -284.0403      -206.2599      -356.3481      -513.7155      -584.8265
      -489.8938      -484.0464      -435.5732      -291.7720      -349.9146
      -469.7615      -430.7552      -420.6138      -488.1632      -596.3461
      -656.4487      -629.9143      -612.8944      -617.0276      -535.5573
      -484.8123      -441.1708      -439.0210      -489.9731      -579.5498
      -681.9618      -696.0598      -614.3760      -519.1896      -483.1813
      -535.4615      -493.4822      -396.8458      -395.7646      -464.9874
      -515.7384      -435.0012      -261.0253      -222.6807      -314.5574
      -394.3770      -387.8844      -373.3444      -332.7258      -305.4351
      -264.3431      -265.7945      -306.0146      -219.1305      -79.01279
      -36.16623      -70.80859      -111.6420      -180.9118      -250.2198
      -133.9206      -34.19997      -48.97135      -31.11296      -6.807220
       24.74617       70.35812       68.16183       87.39025       51.10179
       20.75711       36.89486      -28.76144       59.24756       256.8093
       206.2028       186.2648       200.9939       132.0687       147.1882
       204.8921       303.2155       400.8979       309.4897       230.3088
       197.4551       126.2312       216.8074       452.0519       522.6665
       366.0570       255.9095       306.8727       315.3580       292.7994
       293.1364       277.3318       325.3555       451.3103       426.0568
       350.3428       371.6565       380.0539       305.7250       340.2537
       428.8979       367.8209       284.1239       218.0601       257.9651
       413.1104       446.9938       419.1099       453.9734       502.9407
       469.0884       406.8949       407.9609       479.0234       479.4313
       371.9263       334.5688       274.8864       248.1365       383.5674
       469.0020       355.6936       269.8044       357.5181       464.4558
       486.0369       391.6699       221.6545       243.2545       354.5959
       370.1116       379.2225       317.0127       270.9038       295.2056
       297.0837       252.7122       225.3182       320.0497       359.6575
       316.9290       381.5466       449.3259       306.6947       200.7129
       279.2827       398.1876       391.4205       188.1168       60.30463
       145.9421       302.4468       407.2431       279.0157       128.8377
       190.2651       213.0493       234.2573       318.6112       194.5728
       68.26917       91.39474       104.8266       108.5551       67.29385
       59.07516       94.06027       19.13058      -78.29363      -44.17772
       39.18332       75.03671       93.99109       154.2221       115.0347
      -72.92319      -138.1205      -38.40446       30.64703       4.250664
      -38.26841      -28.17210       29.22497       17.21423      -58.61125
      -99.45776      -55.47519      -86.18414      -217.3978      -226.9373
      -191.3897      -175.8499      -71.42035      -11.87904      -36.79468
      -32.83112      -94.66656      -121.0666      -53.22119      -172.7573
      -338.4981      -237.2967      -28.02166       4.723602      -94.83902
      -159.0432      -140.6700      -128.1403      -202.6667      -242.1205
      -226.6839      -230.0723      -233.5920      -227.6238      -212.7770
      -266.2186      -395.6047      -440.8503      -382.0804      -408.0704
      -360.6891      -205.1499      -242.0173      -330.2909      -330.8616
      -310.5006      -293.8473      -358.2900      -459.0544      -406.3621
      -266.5103      -242.5924      -354.3029      -527.2671      -597.5186
      -503.6017      -295.7250      -116.9912      -278.3119      -560.2493
      -566.8262      -514.5431      -529.0819      -515.1633      -456.8815
      -430.4829      -540.4006      -614.8756      -478.1974      -369.7614
      -385.2432      -380.1716      -345.1311      -407.6547      -484.9608
      -395.5684      -322.6851      -397.5430      -388.1328      -312.2269
      -295.1127      -274.5675      -328.8042      -468.1481      -448.1773
      -332.0876      -287.9548      -342.6375      -419.9615      -360.7852
      -250.5669      -267.6440      -274.1749      -216.2014      -87.44344
      -12.72571      -114.5874      -262.9164      -381.4713      -293.0634
      -113.8513      -165.8730      -151.0755      -64.32718      -58.27795
      -109.4312      -138.8979      -82.34218       14.41650       38.46912
      -71.70878      -71.08075       107.2268       132.6115       44.28778
      -139.1513      -241.0580      -76.51093       158.5695       279.1075
       205.2507      -28.27127      -52.64972       94.65912       238.8176
       384.0131       452.0898       407.5515       453.0325       556.3978
       425.5050       211.5193       306.2465       436.2241       403.1431
       386.1902       364.7415       245.8392       218.7727       322.6155
       344.8719       330.6636       500.6140       610.5220       580.3228
       577.6466       595.4021       492.6001       386.5917       354.3922
       452.0957       594.2471       553.1206       458.1270       416.6125
       338.1521       418.0896       584.3677       581.9256       382.2142
       260.2366       369.8065       489.4385       432.3584       352.4173
       240.1976       218.2240       293.5969       232.0535       120.8790
       185.3829       239.4980       98.16075      -39.65068       42.21631
       120.5189       104.2717       49.81420      -7.893738      -19.58097
      -48.90750      -20.39777    -0.02319336      -106.2956      -155.9780
      -62.09665       34.08212       15.28357      -50.60999      -117.4178
      -71.75028       40.86193       5.306808      -56.02191      -39.09442
      -201.4728      -222.6289      -35.42886      -56.88644      -139.0126
      -202.6443      -363.5192      -306.2825      -68.29980       18.99152
      -72.33728      -235.8459      -390.7506      -308.8506      -116.8704
      -79.53802      -107.8516      -162.0414      -318.6394      -375.9597
      -207.2474      -80.74197      -12.62769       40.46484      -162.8722
      -391.2183      -448.9990      -271.0444      -108.6554      -130.6384
      -51.49185       139.1227       151.4743       32.40259       121.3762
       482.9568       695.1440       526.1013      -2.463623      -830.4902
      -1831.300      -2772.141      -3208.867      -2871.850      -1980.640
      -780.1913       287.6123       639.2059       226.0747      -444.1685
      -1124.662      -1573.875      -1255.382      -282.4534       461.8353
       539.0378       405.7246       945.3296       2122.626       2822.642
       2559.452       1802.751       865.6829      -162.2217      -1051.830
      -1238.264      -530.0627       269.3789       448.9095       455.3757
       739.3296       1062.519       893.5598       484.3291       510.5549
       769.2057       509.7651      -405.2676      -1552.112      -2280.658
      -2165.364      -1057.846       431.5806       1519.196       1271.428
      -500.0005      -1934.430      -1826.301      -1031.158      -157.1982
       722.5049       1483.256       2118.988       2702.133       2704.498
       1691.878       307.5266      -19.50366       888.0278       1346.195
       422.0991      -661.5203      -961.7164      -591.9376      -40.85425
       369.4333       627.6506       704.3647       784.4218       638.8455
      -274.4546      -1338.212      -1449.846      -537.5229       81.72009
       61.66516       169.3362       675.7195       1149.769       785.0210
      -276.7672      -404.2156       671.7368       1556.731       1387.406
       546.1145       29.30322       438.8232       1196.602       1086.123
      -174.0293      -1348.699      -1340.465      -424.0730       188.0481
       238.6846       383.6045       552.3206       204.4762      -322.0801
      -487.3344      -467.3589      -547.3682      -606.8584      -390.5717
       187.9419       738.0710       697.5634       89.83093      -385.7476
      -510.6102      -176.2582       275.1862       281.0804       227.0490
       351.8730       273.6407       116.7705      -19.64325      -104.1720
      -236.2368      -443.5652      -349.6533      -178.3407      -308.8108
      -433.4708      -431.2936      -176.5295       253.9144       494.6273
       445.9896       428.8751       351.7852      -404.4487      -1602.274
      -2257.322      -2134.527      -1396.683      -445.8752       256.7278
       509.5156       565.5969       706.1351       456.4923      -478.0283
      -1163.932      -742.8142       210.8750       658.2168       867.8352
       1129.921       928.7532       192.8571      -278.8670      -134.6463
       131.2838       81.83144      -4.729355       56.27957       52.25000
      -336.6995      -922.4236      -1278.249      -1202.812      -842.8984
      -365.9243       305.0984       756.7760       528.1440       49.00391
      -343.9319      -645.1606      -789.4037      -649.0917      -305.2296
       169.8860       649.9824       797.8519       517.8889       234.4032
       327.1082       640.4993       881.8430       1069.042       1249.315
       1190.444       758.1023       262.2197      -130.2573      -548.7473
      -832.7284      -449.3438       538.2373       1209.168       970.5505
       382.7568       91.04321       98.28082       77.68951      -101.3052
      -192.7782      -98.91774       20.73942       45.33159      -67.55576
       15.92407       448.6516       857.3945       890.1912       442.9275
      -297.9648      -784.7083      -563.2603       163.5613       509.7603
       110.0928      -405.6849      -548.4753      -361.9455      -4.465881
       218.0391       116.7167       107.0111       320.2123       383.6086
       153.2257      -207.6108      -366.6198      -269.2598      -215.5895
      -278.5102      -304.5972      -153.2391       59.74841       243.6401
       400.3411       299.8279       6.698853      -172.0201      -187.5507
      -19.66893       80.38770      -99.91089      -315.2517      -425.2314
      -563.2664      -623.8081      -451.0474      -309.4556      -320.5232
      -369.7526      -349.2891      -222.1536      -106.3699      -51.39368
      -119.0336      -299.0587      -391.4050      -205.7985      0.4224854
      -229.1375      -732.3721      -1048.532      -940.9260      -628.9431
      -491.8837      -532.0510      -554.0533      -478.6807      -335.5280
      -232.2939      -123.4445       50.52984       62.51819      -189.7218
      -556.0164      -741.4091      -622.7231      -407.7770      -292.7939
      -222.3121      -69.93913       26.68591      -129.0417      -398.7034
      -540.5703      -441.4357      -294.9932      -302.4290      -261.5535
      -60.37616       89.53079       143.0650       163.8795       228.8027
       394.2900       503.4854       442.2164       281.2146       36.77472
      -9.496399       74.36307      -52.53348      -86.33344       30.93610
      -33.04968      -271.1578      -479.8047      -450.0213      -272.3203
      -267.1012      -380.0467      -257.5486      -44.90698      -122.9775
      -406.8318      -716.2356      -891.6924      -720.0466      -367.0833
      -209.0040      -37.40454       418.4543       752.2567       665.4039
       493.6063       534.6378       564.7820       361.0411       57.91522
      -16.51123       174.8062       284.3001       132.6797       25.76672
       236.4471       409.9628       232.1236       37.12738       118.6503
       346.2771       513.1973       652.6191       728.3423       728.3481
       481.9188      -33.92334      -360.0018      -396.1528      -350.3676
      -187.6524       12.30737       219.6855       561.2502       852.6313
       853.3518       578.6353       244.4645       45.12850      -5.302795
       64.58295       68.16139       13.06860       84.90527       143.2681
