     0.02500000      -5431.984       5879.231      -12345.00      -12345.00
      -30.00001       217.9750      -18.80000      -12345.00      -12345.00
       0.000000       14.29000      -12345.00      -12345.00      -12345.00
      -12345.00      -12345.00      -12345.00      -12345.00      -12345.00
      -12345.00      -12345.00      -12345.00      -12345.00      -12345.00
      -12345.00      -12345.00      -12345.00      -12345.00      -12345.00
      -12345.00      -31.12380      -68.07400       912.0000       0.000000
      -31.24600      -68.98500       0.000000       102400.0       0.000000
      -12345.00      -12345.00      -12345.00      -12345.00      -12345.00
      -12345.00      -12345.00      -12345.00      -12345.00      -12345.00
       87.88701       81.36686       260.8975      0.7902055      -12345.00
      -12345.00      0.1568373       0.000000       90.00000      -12345.00
      -12345.00      -12345.00      -12345.00      -12345.00      -12345.00
      -12345.00      -12345.00      -12345.00      -12345.00      -12345.00
      2008        16        21        17        55
       500         6    -12345    -12345      9920
    -12345    -12345    -12345    -12345    -12345
         1         7        13    -12345    -12345
    -12345    -12345    -12345    -12345    -12345
    -12345    -12345    -12345    -12345    -12345
    -12345    -12345    -12345    -12345    -12345
         1         1         1         1         1
CONE    -12345          
        -12345  -12345  
-12345  -12345  -12345  
-12345  -12345  -12345  
-12345  -12345  -12345  
-12345  -12345  -12345  
-12345  -12345  BHN     
ZL      -12345  -12345  
[...]
       168.6462       161.1688       151.6948       143.9501       135.6639
       124.1099       113.0401       104.0349       93.14339       82.36684
       69.75244       59.64307       49.69737       40.90847       31.23392
       23.94089       13.49382       4.199921      -5.501919      -14.70485
      -25.45088      -32.15707      -40.70303      -43.10268      -50.43994
      -54.29961      -63.17249      -64.63708      -71.99829      -75.19246
      -81.46646      -85.59528      -93.11597      -93.82706      -101.7657
      -104.2114      -108.3262      -111.4179      -118.8974      -119.4490
      -124.0002      -125.7689      -129.1229      -128.6927      -131.4313
      -132.0689      -132.4821      -133.8691      -141.7184      -141.0858
      -142.5872      -140.7864      -141.5569      -139.9128      -143.0291
      -140.3124      -139.5461      -136.3729      -138.6643      -133.6085
      -132.4380      -135.9049      -137.4191      -133.9019      -133.8101
      -131.1781      -131.5320      -128.8050      -127.7706      -127.4883
      -125.5146      -120.4278      -119.1639      -118.0223      -117.3778
      -111.0886      -107.4599      -106.5294      -104.1267      -98.43411
      -93.30139      -91.42776      -87.70392      -82.37962      -78.45709
      -73.92670      -69.89285      -67.23894      -61.42014      -58.91315
      -57.66356      -51.82375      -45.71013      -43.94500      -40.78271
      -35.67009      -31.40323      -29.59274      -25.92674      -20.02673
      -16.56497      -13.58834      -9.924913      -5.486403      -3.868174
      -3.627840      -1.993765      0.1853189       2.542164       3.670483
       8.003738       9.218403       8.469135       9.844906       9.664948
       8.778084       8.536236       8.432647       3.932788       2.884262
      0.4899932      0.4235568      -1.091605      -3.310234      -8.311359
      -9.586094      -14.90214      -18.58770      -24.70837      -29.53831
      -35.29871      -39.49370      -46.21947      -48.55135      -53.15115
      -58.22951      -63.99588      -68.20398      -76.85507      -82.34772
      -85.98535      -87.60159      -94.78674      -100.0392      -104.5567
      -108.1923      -114.4665      -117.8970      -118.5661      -117.6600
      -122.2753      -125.8511      -132.7268      -134.1986      -131.4548
      -130.9005      -134.9574      -137.8002      -139.5945      -137.8576
      -137.1428      -138.9702      -141.8275      -140.5460      -139.4234
      -139.1394      -140.5628      -142.3638      -140.1810      -138.9398
      -140.2998      -139.3279      -137.2769      -135.2874      -136.4548
      -136.7436      -135.5182      -131.3305      -125.3756      -124.6295
      -121.5626      -117.7223      -115.2513      -113.5586      -108.7026
      -102.4608      -99.26819      -96.68027      -88.73599      -84.72466
      -78.58014      -75.09575      -69.80568      -62.35184      -56.82835
      -53.76326      -47.76369      -42.49838      -36.63890      -33.84222
      -29.44608      -24.58242      -22.03596      -18.91165      -12.85590
      -9.452950      -6.448365      -4.898061      -1.055983       3.229212
       6.467464       8.271164       13.42223       17.52095       19.59073
       23.20486       27.04953       28.18237       30.97401       36.11684
       39.32939       44.01483       47.77228       53.85437       55.18373
       60.13103       64.32028       68.49823       73.40225       80.62524
       83.95624       90.16629       94.04602       102.3501       106.2149
       111.6084       119.6459       129.4900       135.9728       140.4448
       147.4693       158.4175       165.0280       172.4365       181.4904
       190.6608       196.4520       202.7107       210.6913       220.8599
       227.5951       234.7121       241.9613       250.7567       251.7762
       255.8285       270.9269       278.7233       262.9049       273.1558
       309.3628       330.8381       294.3867       304.6453       400.3035
       316.2709       331.1066       435.1208       219.1221       335.9398
       368.5261       211.8701       412.9783       347.9075       353.3871
       380.6822       235.4088       337.4631       392.2070       408.2775
       352.1531       315.6395       341.6786       343.1263       354.2870
       231.6617       198.3854       259.9773       334.9276       355.7195
       193.6461       251.6913       371.3350       276.2076       394.5224
       195.9304       14.91968       269.5938       265.8259       242.9110
       207.9601       164.1422       140.3884       262.0796       315.9974
       61.45378     -0.2332764       165.8776       351.3661       112.7026
      -138.8351       221.9406       316.6736      -95.91101      -128.5747
       7.171143       147.2953       354.4739       58.38771      -83.78964
      -45.26662      -35.90073       152.5466       107.4480       118.0490
      -89.08875      -190.5630       150.6298       69.43765       50.48912
       40.23190      -143.4002       11.05775       67.70636       1.674103
      -64.95474      -102.3492       103.5999       75.37338      -53.68402
      -80.83670      -127.7335      -82.51680      -22.37103       58.61188
      -109.1377      -212.1546      -54.09275      -84.01532       61.09192
      -201.0995      -329.2468       39.42224      -143.6712      -153.6586
      -74.81268      -283.1990      -144.7764       27.98718      -34.97794
      -128.7892      -190.9115      -333.4528      -276.9077      -244.8421
      -189.4524      -60.65417      -249.9658      -282.8751      -220.8284
      -212.6605      -91.34155      -239.1427      -159.0216      -205.6251
      -436.5486      -113.4302      -100.7902      -273.8380      -109.9631
      -341.8716      -412.4385      -172.6549      -183.8829      -244.0983
      -251.6449      -260.4637      -328.4954      -389.8663      -285.4717
      -135.2965      -192.6633      -326.5186      -243.1691      -218.6825
      -384.1338      -394.8077      -235.0359      -311.7411      -341.8699
      -216.1868      -215.5662      -308.2427      -266.4128      -291.3035
      -301.0908      -236.7574      -457.9117      -370.5316      -43.60876
      -176.9360      -327.2664      -251.8130      -184.7139      -200.2587
      -397.7822      -389.1890      -128.3767      -146.5955      -284.1747
      -212.0833      -138.8633      -251.7189      -353.4915      -183.7572
      -41.90533      -211.7533      -252.8334      -310.5345      -163.5122
      -85.69202      -282.6088      -249.9606      -163.8553      -139.1995
      -137.7164      -125.1737      -43.91077      -156.9218      -191.1248
      -71.82941      -166.7938      -260.9734      -201.6377      -110.8172
      -64.62515      -89.89798      -41.33636      -161.2959      -224.1345
      -82.88794      -124.1371      -191.9966      -112.4694      -12.59729
       7.702484      -133.7844      -104.0773      -117.6727      -20.11565
       68.87527      -134.4517       9.973755       117.1558       10.73390
      -13.04047      -85.44622       32.96814       6.473938       27.54391
       174.5023       84.06447       85.54601      -12.75394      -5.920410
       241.0692       106.1267      -9.891113       195.2062       258.8693
      -16.15491       147.8259       333.9445       22.67493       211.1196
       416.0514       171.5518       276.6237       298.7351       220.8001
       284.8768       230.6265       350.3259       364.5422       175.7550
       338.9447       381.8074       319.8508       234.4741       254.3368
       473.1271       360.4230       244.6431       453.9434       468.4529
       256.7786       352.2861       545.5784       289.3590       120.9174
       416.1219       455.2246       330.4261       359.8278       303.1688
       383.8953       355.7870       268.4806       338.0742       453.2407
       284.3080       195.5214       275.0364       244.0231       291.9037
       303.1523       250.7726       116.2721       184.2958       510.1826
       259.3624      -30.19971       140.5510       234.0518       211.4907
       242.1188       160.3821       108.7235       122.5318       91.01959
       102.0238       166.5149       126.6646       74.17583       41.88867
       67.65442       159.9270       74.79420      -20.48480       134.6742
       39.15995      -40.64874       182.8209       144.0993      -29.07053
       36.39105       27.47751      -70.52348      -51.24062      -8.240043
       2.275665      -13.52944      -56.55272       80.09163      -19.12750
      -186.2776      -31.20186       11.68329      -97.67169      -120.7779
      -127.6774      -209.8791      -154.8671      -5.985046      -120.3189
      -81.38782      -176.6672      -378.1683      -20.76746      -103.5938
      -385.2314      -153.4468      -222.2316      -217.9325      -118.1003
      -251.2754      -352.5309      -273.5581      -179.4035      -243.2302
      -405.0789      -457.4147      -357.5693      -371.7760      -292.3481
      -72.42041      -389.0049      -542.3025      -257.1439      -322.1875
      -357.2955      -320.9797      -502.5925      -435.6028      -348.8288
      -327.5031      -330.0758      -255.0581      -141.8834      -341.8450
      -396.4997      -332.7964      -258.0302      -223.0311      -507.9954
      -327.8817      -112.3818      -304.0825      -300.3796      -224.4202
      -148.3247      -256.3849      -379.6174      -272.2930      -234.9499
      -69.76215      -76.95605      -212.6212      -49.44727      -135.2766
      -199.6698      -41.78613      -141.7253      -165.8707      -128.3217
      -208.8814      -59.37704       59.27271      -253.3733      -172.7039
       107.7369      -58.65470      -10.95551       90.39746      -110.3364
      -126.4580       62.37297       5.610352      -178.7027      -34.73016
       117.9941       30.59671      -84.28833      -191.5951       71.39343
       305.2103      -43.89593      -72.93881       101.7455      -19.38166
      -32.73877       77.55148       141.4836       132.5961       57.04391
       191.1468       87.18738      -99.47684       134.4798       206.8240
       105.1419       127.7166       98.01682       9.424622       192.2242
       237.9718       93.61694       286.3831       185.9337       163.1131
       170.4213       30.90063       299.5898       260.1970       87.89368
       188.0048       222.9648       228.3191       76.98730       263.4606
       395.0463       84.75421       138.1334       260.9742       285.8113
       275.2695       123.0002       219.3415       145.2851       95.21729
       328.9086       281.0326       182.5442       163.1586       131.7832
       209.1182       165.7936       124.2219       355.5408       415.2920
       100.2157      -33.77161       174.8521       304.6616       239.5359
       181.3479      -33.79674      -76.23853       222.3883       254.6892
       138.0800       64.29379       1.142365       139.5269       178.9498
       79.65710       72.48936      -11.71146       45.54108       104.9023
      -86.78214      -6.957520       244.5057       88.93506      -127.8658
       39.66959       141.5681      -118.4929      -106.7700       175.7962
       151.8263      -180.8161      -273.9430      -6.404419       50.94489
       112.2514       148.2299      -34.92932      -156.4910      -72.78377
       2.334656      -184.2528      -109.7310       163.7683       84.21729
      -109.1845      -38.17065       3.675461      -100.5222       22.80975
       68.10837      -146.9947      -112.6298       42.60429      -47.10907
       70.17325       163.8099      -74.11264      -156.8102      -64.71521
       130.5494       160.5528      -46.78123       39.09470       160.1770
       34.10255      -88.92858      -37.94090       59.73429       29.14238
       55.75218       80.62286       1.758362       154.7931       148.6127
      -50.24577       37.16307       27.30087      -85.31372       161.0096
       200.6756      -167.3472      -84.28943       225.7347       184.4708
       253.7410       155.5410      -208.3277      -80.49072      -5.359802
      -267.2903       6.192261       232.1908       118.7616       74.45850
      -244.8583      -29.94318       337.6984      -55.22455      -181.6840
       53.04407       160.8320       263.4436       415.4735       376.1177
       412.0253       522.2291       368.1723       255.2670       244.5111
       88.78955       176.7195       480.9953       342.1482      -17.80408
      -265.0718      -461.9734      -572.5117      -1366.599      -2713.306
      -2669.376      -1221.854       962.4751       2242.637       932.0800
      -734.0864      -323.8143       750.5947      -766.6680      -3839.692
      -4324.024      -389.8398       4826.473       5879.231       3333.409
       1846.722      -98.57715      -4836.605      -5431.984       264.5537
       5002.247       4167.879       41.47949      -2423.980      -1783.328
       1419.504       2196.280      -89.95084       76.46814       222.2368
      -2049.750      -2913.927      -991.3811      -89.76404      -464.1733
       953.8611       1151.176       529.2485       451.2217      -1659.722
      -2728.033      -854.3240       993.6039      -159.0059      -1144.021
       174.6201       758.0234       1672.403       1004.276      -2254.953
      -2456.154      -120.2217       1360.645       2036.781       1019.685
      -45.43701      -1598.549      -3250.774      -1883.743       6.676270
       1832.254       2410.717      -82.97412      -1287.786      -982.8850
      -1139.560      -860.3719      -569.9585       181.2510       699.8110
       1371.523       1566.302      -670.6470      -1613.516      -745.6074
       78.16467       202.3970      -760.0801      -1364.652      -1385.878
      -430.8560      -49.15088      -722.9451      -702.5977      -426.8962
       12.26367       1152.267       1730.144       210.4919      -818.9963
       612.1602      -34.82715      -3489.873      -2496.449       2376.439
       3024.458      -71.29895      -1137.809       852.7832       2145.249
      -470.2812      -3595.580      -1506.334       2691.840       3023.532
       793.2930      -1369.819      -1669.109      -858.9310      -363.2880
       520.8376       508.1094      -123.8949       60.55121       164.5837
       135.0936       105.0307      -41.43930       32.87372       33.24487
       410.4282       1107.829       1498.537       148.2905      -1711.979
      -1407.145      -660.7920       886.0825       1999.159       1153.234
       312.6987      -373.9994      -583.4363      -324.0874       783.2241
       1113.475       380.1226       806.6206       849.8745      -227.4285
      -575.6486       80.40540       360.6171       294.4941       276.9282
       960.7461       632.1520       379.5459       823.2275       25.48743
       393.0610       481.7426      -277.0876      -213.6106       254.8174
       1112.324       893.9645      -118.2837       433.3438       1334.580
      -301.2021      -1183.356       298.9268       510.9336       752.5176
       1405.060       345.1302      -687.6570      -300.0132       779.4754
       640.4222      -349.7729       412.2708       1071.539       231.7749
       485.6624       1361.528       574.2424      -830.9683       73.62036
       1107.958      -326.0031      -942.8059       374.5674       1193.180
       108.4824      -994.9028      -909.0718      -262.9028       942.8649
       602.2291      -611.4813       184.1636       1059.281       735.8219
       10.32867      -462.6729      -4.646973       124.8072      -23.26855
      -591.1719       129.1333       2302.358       1673.414      -559.2205
      -1463.516      -1129.334       704.9707       1669.149       142.2734
      -1088.089      -986.8359      -53.76315       207.8105      -340.8561
       480.8300       745.1877      -568.6609      -913.0890       128.7688
       716.1917      -60.56494      -617.3899      -485.1527      -310.4572
      -335.3306      -372.0849       65.67206       317.8563       366.7897
       138.9077      -358.8143      -357.2222       280.2887       202.3958
      -437.5659      -381.3413      -890.1147      -1537.143      -1109.448
      -707.7634      -475.0068      -484.1011      -179.2291       214.1365
      -107.0280      -271.4080      -237.3713      -119.1018      -352.7537
      -119.7325       547.4678       221.3662      -287.2578      -829.1707
      -1023.997      -707.2766      -511.1330      -284.7303      -284.8158
      -814.1667      -141.1528       919.2246      -131.6492      -1167.160
      -504.0663      -176.9954      -841.1262      -646.8726      -32.68704
      -117.5477      -92.08662       97.39624      -244.8086      -821.1847
      -338.9805       239.9243      -680.8469      -1133.188       104.1840
       554.6984      -64.18433      -580.2795      -998.6393      -217.0228
       471.6614      -79.50720       126.6838       447.4579       250.6765
      -276.4397      -1214.427      -765.0897       235.2778      -213.8868
      -312.6545      -49.50964      -404.7531      -252.5786       200.1787
       377.2515       609.9144       405.2596      -187.0953      -409.4574
      -217.4865      -362.1063      -61.03491       581.0717       141.5104
      -370.6145      -116.8199      -37.58801      -22.28705       350.6537
       112.3359      -205.3261      -23.88062       158.3128       380.1890
       58.77661      -112.4963       489.2353       402.1042      -21.74171
       6.174927       197.4194       196.0891      -383.2371      -159.4756
       338.9033       98.25116      -7.521362      -361.1519      -637.5309
       77.02625       253.8417      -181.3819       8.123566       59.26068
      -119.9192      -77.29095       94.83008       292.4702       760.1036
       529.4716      -470.7846      -341.8649      -16.84424       200.1167
       708.1497       845.2211       309.2920      -591.6470      -178.2148
       846.6079       601.1633      -162.5312      -224.9023      -52.82654
      -210.7550      -281.8763      -64.26285       178.9539      -31.93726
      -235.7498      -203.9200      -259.1971      -20.81812       512.6610
       586.0916       188.8263      -366.7564      -389.5818       89.71912
