     0.02500000      -2915.983       2917.212      -12345.00      -12345.00
      -30.00001       217.9750      -18.80000      -12345.00      -12345.00
       0.000000       14.29000      -12345.00      -12345.00      -12345.00
      -12345.00      -12345.00      -12345.00      -12345.00      -12345.00
      -12345.00      -12345.00      -12345.00      -12345.00      -12345.00
      -12345.00      -12345.00      -12345.00      -12345.00      -12345.00
      -12345.00      -31.12380      -68.07400       912.0000       0.000000
      -31.24600      -68.98500       0.000000       102400.0       0.000000
      -12345.00      -12345.00      -12345.00      -12345.00      -12345.00
      -12345.00      -12345.00      -12345.00      -12345.00      -12345.00
       87.88701       81.36686       260.8975      0.7902055      -12345.00
      -12345.00     0.01594058       0.000000       0.000000      -12345.00
      -12345.00      -12345.00      -12345.00      -12345.00      -12345.00
      -12345.00      -12345.00      -12345.00      -12345.00      -12345.00
      2008        16        21        17        55
       500         6    -12345    -12345      9920
    -12345    -12345    -12345    -12345    -12345
         1         7        13    -12345    -12345
    -12345    -12345    -12345    -12345    -12345
    -12345    -12345    -12345    -12345    -12345
    -12345    -12345    -12345    -12345    -12345
         1         1         1         1         1
CONE    -12345          
        -12345  -12345  
-12345  -12345  -12345  
-12345  -12345  -12345  
-12345  -12345  -12345  
-12345  -12345  -12345  
-12345  -12345  BHZ     
ZL      -12345  -12345  
[...]
      -11.29710      -15.03371      -16.93126      -19.13410      -22.94988
      -23.57465      -27.22926      -31.01556      -35.51305      -39.15137
      -42.99268      -42.61440      -44.86124      -46.26129      -49.83765
      -51.10165      -55.06125      -57.39973      -58.25388      -57.56110
      -59.06165      -60.88994      -60.44482      -61.95711      -65.06390
      -63.20444      -60.77043      -58.91614      -57.69092      -52.73654
      -50.21356      -46.52549      -44.28780      -38.22995      -33.37396
      -27.95775      -21.09837      -11.45944      -7.451636      0.9968262
       12.40307       20.06116       30.13084       40.74002       54.34494
       64.01480       75.66809       87.94757       101.5530       113.2772
       122.1646       133.7093       145.9944       158.2269       166.7714
       174.2262       182.9464       195.2641       200.0082       206.7074
       214.7571       221.5791       225.3810       231.6522       236.2988
       241.4154       242.1855       245.4419       246.3137       248.3417
       246.2308       245.5945       249.1318       246.5773       242.9880
       241.2236       238.8021       230.7880       227.9127       225.2286
       221.8710       215.5161       212.6882       205.2145       201.2634
       192.3486       185.2999       179.1483       176.2219       170.5099
       164.9604       155.5620       149.9028       143.6143       139.3814
       130.7752       122.8444       115.5630       110.6736       105.0873
       97.37256       86.95200       80.54205       74.72362       67.90565
       56.71407       46.99521       41.00867       34.47974       26.85029
       16.15433       7.681641       3.435520      -5.940792      -14.99646
      -23.54324      -30.92946      -41.01245      -48.59644      -58.65933
      -67.79036      -77.87755      -83.22433      -89.76611      -98.39734
      -108.6792      -116.4761      -124.3441      -127.7649      -133.4029
      -139.3265      -146.7178      -152.5460      -157.7989      -161.5721
      -166.0869      -170.2017      -176.9155      -182.6641      -183.6754
      -187.2501      -190.1716      -193.1322      -193.6756      -195.5331
      -196.3635      -199.1604      -196.8941      -196.7679      -192.8990
      -192.9418      -188.9932      -188.9019      -184.8920      -187.1466
      -183.0244      -179.8602      -177.1168      -179.5020      -174.9908
      -173.5602      -167.1443      -166.3672      -165.2908      -163.8343
      -163.6359      -161.0384      -156.0679      -155.1590      -151.2774
      -147.1719      -143.1913      -138.5872      -136.4175      -131.8262
      -126.4058      -123.0420      -120.3815      -115.7238      -111.0820
      -105.1283      -98.91562      -93.27344      -90.03720      -87.15857
      -82.36322      -76.19284      -70.51727      -69.08408      -65.40320
      -61.89215      -57.74039      -53.77313      -50.95839      -55.19302
      -53.65472      -48.97623      -48.08339      -53.57309      -51.74960
      -50.80656      -50.48758      -55.72786      -56.06831      -58.04839
      -66.16180      -87.75879      -137.8163      -247.9778      -333.3635
      -196.5681       29.75497      -49.37170      -341.0121      -283.4634
       145.8932       126.3238      -129.1746       372.8818       80.28674
      -542.4604       322.9037       307.0809      -222.8070      -420.3812
      -421.9204       111.5237      -111.3841      -50.27997      -223.6605
      -515.1136      -31.35718       144.2635       151.4628       97.85400
      -120.5831      -839.1578      -301.1050       650.6279       129.2386
      -199.8956      -347.0369      -40.89401       128.2518      -367.6545
      -89.46265       323.7419       112.0736       48.74120      -69.00232
       244.8686       389.7130      -323.2241      -392.4930       182.8664
       139.7621      -508.9748       137.5454       640.5973       120.8774
      -102.4781      -236.3917      -1.511505       129.8109      -206.2985
      -251.1926       193.7402       246.6784       235.0554       64.23193
       342.6159       305.6305      -644.4048       132.4762       48.89233
      -204.1903       627.1206      -157.3649       14.01562       653.9285
       253.9896      -41.40134      -223.0325       579.5242       585.9997
      -163.6430       233.2964       250.5242      -3.388672       239.8319
       336.6705       77.29019       70.50867       352.0275       64.44641
       177.7006       478.4924       154.6315       492.6320       417.4353
       271.7126       258.3937      -165.6561       421.6813       288.3003
      -121.0694       356.6634       277.1907       109.5036      -143.4395
      -66.05249       736.0416       705.8567       108.6006       72.66669
       376.1498       184.3991      -40.83073      -105.5403       274.2248
       195.5139      -3.599487       664.5654       53.03485      -307.0400
       36.25040      -117.8495       2.817627       500.5259       220.0231
      -75.30841       281.0555      -14.46350       207.7108       260.5753
      -201.8787      -14.00061       399.5558       241.3528      -114.5207
      -231.2719       123.5769       448.3715       95.65320      -157.4309
      -286.3865       177.5763       431.2604      -6.742767      -186.4049
       154.5399       345.7460       107.8860      -169.2886      -192.5327
       147.2045       25.31836       159.9056       95.51630      -131.9655
      -81.60895      -191.1395       96.92493       256.0099       242.0794
       139.1710      -79.76065       107.9043       140.7892      -134.2437
      -13.06207      -129.0519      -75.49658       291.0455      -67.66315
      -79.64526       472.0859       276.8863      -298.3056      -198.5663
       325.0210       215.3038      -69.39082      -45.39305      -116.9656
       47.45644       126.7099      -30.06258      -108.4765       18.33221
       32.97840       38.84205       14.65277       28.52640       151.2412
      -78.04147       132.6844      -28.12762      -422.0238       86.32446
       267.7184      -6.753479      -437.7800      -54.32458       422.9171
      -253.4001      -240.7565      -164.6922      -421.3900       404.3084
       9.832764      -344.4691       173.2010      -291.8398      -111.2645
      -125.5100      -131.7553      -97.76987      -194.0019       21.30884
      -265.9732      -43.82922      -298.3346      -132.2320       337.8129
      -240.6187      -312.5296      -211.8840       20.74176       202.3811
       69.12024      -192.9123      -343.7742      -58.41318      -68.04144
      -153.7753       11.18484       61.71899      -244.7395      -346.2041
       306.5691       82.25793      -438.8393       169.9808       245.2783
      -288.2628       56.49304      -97.72833      -516.1412       138.4884
       21.44270      -16.78311       152.8611      -79.85846      -151.5444
      -316.7803      -115.1260       105.1443      -111.6862      -78.41495
       143.9032      -93.52777      -223.1831      -117.1198      -168.4296
      -183.9015      -4.766968      -110.9683      0.8457031      -396.9003
      -348.4725       540.8356       9.398010      -130.6478      -124.5748
      -702.2979      -176.0441       218.8236      -99.07788      -97.63289
       10.36487       2.974121      -298.8571      -223.1224       30.71570
      -331.1190      -497.5483      -117.9704       242.1869      -296.4713
      -248.6213       102.3354      -111.9400       214.6021      -286.1251
      -433.5818      0.1031494      -291.5688      -295.3130       44.66306
       165.5018      -198.9072      -312.8678      -257.0745       98.19647
      -115.9091      -352.4008       31.07947      -177.5213       39.90271
       141.3516      -226.0541      -81.38977      -170.0260      -323.3595
       48.46121      -108.7786      -64.35419       175.1820      -77.89255
      -189.1760      -67.72507       182.2430      -176.2626      -83.36121
       349.2426      -178.7913      -251.0124      -173.6848       251.8395
       440.8977      -488.6649      -270.5271       316.9193       250.6055
      -3.786434      -32.36493       39.00812      -234.3687      -73.51306
       241.3263       208.7963       29.18527      -69.46614      -95.19910
       24.04364       389.5301       160.3706      -275.4109       286.6903
       60.69882      -214.2623       304.3010      -285.2740       77.14618
       303.0632      -61.68561       546.0387      -126.5077      -202.8771
       170.0364      -124.8774       329.0274       32.85883      -201.3059
       114.3859       219.7043       180.0648       52.47473       181.1987
       175.5709     -0.3316956      -125.4654       174.4858       297.6383
      -232.4521       34.28540       512.7979       84.46710       77.60397
       190.9021      -42.79315       144.7369      -18.62485      -175.5703
       236.1955       136.8111       33.42749       21.82153       401.3308
       634.6743      -104.5455       20.99966       144.3127      -211.9436
       129.3873       256.3610       293.2224       354.8438       83.51251
       222.6086       111.6581      -19.87625       91.25165       125.2584
       368.2147       195.6245       20.78198       234.5148       338.4366
       14.41748       33.87555       94.27393       230.8865       321.1994
      -58.53809       138.3584       9.062805      -44.74756       426.7595
       280.9353      -117.0289      -12.56436       192.3314      -37.32062
       114.6207       101.0365      -219.3777       109.8130       247.0360
       74.06407      -18.94861      -92.40513       82.91228      -67.01134
       79.84665       39.15430      -469.8226      -8.232971       311.1067
      -39.49768      -82.07948      -11.06125      -13.70625      -111.3335
      -14.68665       161.6835      -98.32346      -88.09558      -209.9494
      -306.8284       157.3868      -26.04227      -230.9691       115.1349
       183.3649      -288.9716      -196.3455       127.7946      -150.1777
      -169.1005       114.6027       131.3552      -392.8121      -156.6611
       395.0690       28.38647      -297.5075      -231.2796       5.151001
      -145.0029      -114.9085       126.6691       51.86206      -141.5804
      -244.6373       2.162384      -56.95370      -173.0273       87.89958
       134.1879      -211.4547      -370.8720      -162.6299      -176.9942
      -225.2668      -38.35655       36.02829      -166.7680      -134.5510
       149.7117      -147.0039      -385.4535       32.21030      -24.69714
      -376.7479      -248.9563      -107.9901       25.24234       74.07312
      -314.1587      -166.8556      -95.52856      -523.4557      -220.2482
       239.1436       4.621719      -132.8810       22.33221      -138.6397
      -17.65491      -80.80652      -171.0657      -95.54169      -145.0430
      -108.4618      -83.20184       247.5452      -89.60205      -447.0551
      -55.55193      -18.61613      -78.20345       9.299728       102.6535
       14.64545       25.79681       354.6869       153.4269       79.19983
       407.4418      -18.33237      -107.5315       70.26324      -100.4142
       481.9420       428.0322      -146.3612       201.4684       157.5732
       58.44421       686.1414       581.9590      -216.8025      -364.5148
      -282.5121      -304.9426       433.1809       879.1083       613.7919
       575.4982       218.5308      -169.3452      -105.5271       112.0410
       530.7493       694.0185       256.6105      -2.709076      -71.66272
      -331.8513       99.31616       454.8094       116.1269       70.27072
       190.7440       9.584442      -284.6774       231.9733       322.8342
      -461.8049      -202.2128       177.5013       63.35107       353.3857
      -150.4971      -848.9009      -475.9747       5.247681       630.5817
       231.4739      -683.1929      -491.5439       141.3328       1160.905
       1482.077       629.7393      -1180.409      -2562.159      -766.0466
       1637.871       1410.133       296.8715      -534.5029      -454.2710
       1385.927       1836.469      -285.8398      -1913.162       140.6023
       2108.142      -670.8296      -1507.012       1191.072       1243.687
      -978.7686      -1520.662      -1494.298      -484.6055       1416.419
      -407.2350      -1239.505       906.6744       225.9805      -1693.935
      -928.5459       85.95569      -437.5101      -240.0596       1179.394
       1492.859      -66.80334      -480.7898      -150.3691      -1174.019
      -2301.219      -1356.604       163.7439       909.9570       1735.037
       688.5994      -1153.741      -1335.500      -682.9460       462.7410
       883.3164       735.4238       653.8965      -5.466309      -1483.474
      -2915.983      -586.8477       2535.686       2136.441       120.7927
      -1213.186      -1145.948      -584.1816      -425.0941      -166.0498
       1311.654       1543.356      -344.8110      -896.3845      -816.6526
      -1450.234      -1175.082      -327.4150       1229.146       2917.212
       1043.981      -1731.067      -908.4772      -297.4031       261.8990
       1086.922      -407.6020      -923.5625       835.4895       1496.808
       180.5793      -1073.468      -1000.471       540.9639       1224.162
       632.3864      -100.7795      -611.7865      -270.4961      -712.3595
      -1056.732       1093.134       1545.259      -164.1048       234.9971
       328.0554       510.3545       2040.882       771.4019      -1490.869
      -1611.883      -1442.317       399.5376       2097.042       520.5179
      -478.0239      -451.6886      -539.3827      -140.9449      -550.5269
       374.9000       1227.797      -1087.877      -715.8496       1795.336
       1625.144       573.0120      -267.1913      -310.4956      -412.7874
      -699.5184       118.8033      -110.6188      -775.6852       447.3076
       1483.023       1046.046       11.27753      -298.1071      -35.29346
      -260.0977      -623.1143      -942.9940      -377.1382       372.8638
       364.0569       218.8058       41.15698      -391.2808      -1206.533
      -785.5030       109.1755       427.9265       1278.940       1126.275
       87.39172      -142.4426      -878.4967      -1036.834       55.15625
       88.93380      -2.373749      -71.56512      -33.84363      -449.3433
      -968.6539      -571.3300      -638.0894       212.5175       474.0601
      -280.6683      -587.1862      -106.1473       624.4558      -380.6002
      -784.8562      -169.6039       36.12845       347.9944      -475.4961
      -865.8264      -393.7322      -167.3048       580.6804       383.6956
      -135.2150       484.1436       412.9775      -503.2920      -96.22632
       517.6311      -329.3430      -305.7586       260.1716      -945.0879
      -1293.320       186.1458      -139.4390      -980.3481       247.4983
       1205.333       1058.617       72.11182      -1413.680      -793.9565
       688.7374      -72.24756      -873.7308       61.09521       1520.769
       1572.715       262.5467      -287.4440      -11.80884       122.8057
       495.7947       325.2781      -934.1227      -388.5105       918.8099
       340.2173      -368.7350      -269.7972       204.8535       659.0170
       507.2323       341.2505       702.6953       435.5456      -526.7300
      -286.0577       306.7267      -71.37073      -115.1636       144.1971
       532.0494       842.6520       94.45557      -486.2103       24.83496
       636.4668       1231.893       989.5669      -290.0964      -724.1112
      -100.1909       261.8284       12.22797      -217.3386       54.44495
       397.8337       210.1103      -10.80243      -141.1470      -46.13025
       517.7340       192.0940      -484.3862      -357.6765      -343.7049
       20.44800       399.8276      -248.0903      -443.9020      -66.22623
      -64.44992      -65.75043      -74.51862      -356.4500       160.6729
       711.9686       198.4814      -355.2017      -588.6981      -71.77844
       359.5526       252.4638       295.5293       69.02344      -408.1746
      -250.5373       182.2662      -287.5210      -1342.851      -1152.782
       130.4889       502.9447       234.0640      -450.7429      -609.5897
       88.36719      -714.6812      -875.6913       574.8016       126.2815
      -586.0947       389.3406       473.2504      -394.2812      -496.0504
      -273.6754      -365.3825      -41.90334       182.2212      -143.1010
       259.8804       181.0394      -683.7438      -350.2683       513.5829
      -140.6049      -719.6584      -243.1837      -445.3847      -350.3892
       45.44263      -317.7382      -504.2573      -232.3214       115.3320
       339.2827       425.8275       355.8236       118.9137      -87.75565
      -170.2313      -29.20493       62.75977       83.89374       335.1997
       276.4353      -491.5034      -547.7812       265.4182       450.2862
       262.7036       404.2567       297.8192      -22.48114       136.1889
       226.9573       7.384216       10.97296       111.8716       181.7792
       442.5894       518.5086       50.38660      -277.0851       87.15100
      -64.02466      -292.9131       108.6516       38.63269       65.20532
       467.0245       378.3288      -11.66016       393.7614       334.6758
      -303.1447      -68.67578       450.1763       502.2433      -212.8392
      -170.7497       220.4136       50.99854       330.2631       229.4713
       86.99622       431.4672       186.0694       54.19421       216.1309
      -41.60970      -160.3499       111.6750       351.8300       341.1964
       290.4027       368.8870       412.4384       327.0938       247.3804
       191.9882      -45.37766      -107.0703       299.9323       304.0789
       171.6408       19.34718      -90.95865       178.5953      -48.03583
      -131.4091       184.6368       248.5671       134.8603      -130.8960
      -324.4154      -75.77356       125.9153       128.2091       48.60211
      -163.0319      -203.2740      -93.49049      -3.231079      -131.2711
      -102.1911       19.01663      -71.82175      -242.0960       136.9222
       224.1013      -8.072021       462.8930       256.3324      -111.8719
      -64.10275      -202.6440      -15.08051      -81.12714      -331.5327
