     0.02500000      -4471.590       5006.056      -12345.00      -12345.00
      -30.00001       217.9750      -18.80000      -12345.00      -12345.00
       0.000000       14.29000      -12345.00      -12345.00      -12345.00
      -12345.00      -12345.00      -12345.00      -12345.00      -12345.00
      -12345.00      -12345.00      -12345.00      -12345.00      -12345.00
      -12345.00      -12345.00      -12345.00      -12345.00      -12345.00
      -12345.00      -31.12380      -68.07400       912.0000       0.000000
      -31.24600      -68.98500       0.000000       102400.0       0.000000
      -12345.00      -12345.00      -12345.00      -12345.00      -12345.00
      -12345.00      -12345.00      -12345.00      -12345.00      -12345.00
       87.88701       81.36686       260.8975      0.7902055      -12345.00
      -12345.00      0.1760608       90.00000       90.00000      -12345.00
      -12345.00      -12345.00      -12345.00      -12345.00      -12345.00
      -12345.00      -12345.00      -12345.00      -12345.00      -12345.00
      2008        16        21        17        55
       500         6    -12345    -12345      9920
    -12345    -12345    -12345    -12345    -12345
         1         7        13    -12345    -12345
    -12345    -12345    -12345    -12345    -12345
    -12345    -12345    -12345    -12345    -12345
    -12345    -12345    -12345    -12345    -12345
         1         1         1         1         1
CONE    -12345          
        -12345  -12345  
-12345  -12345  -12345  
-12345  -12345  -12345  
-12345  -12345  -12345  
-12345  -12345  -12345  
-12345  -12345  BHE     
ZL      -12345  -12345  
[...]
       218.5510       215.6333       219.1597       209.4697       210.5718
       205.0644       203.4927       195.8297       197.7341       188.7895
       185.9883       177.4017       175.8604       165.2209       161.3370
       151.8491       143.8897       131.5520       127.3929       115.6227
       108.4116       100.4429       92.13406       78.14597       70.24838
       58.18668       50.72723       36.99404       28.07490       19.15520
       10.98920      -5.547501      -11.43758      -24.02585      -36.44775
      -50.05206      -55.55115      -69.12897      -78.03162      -90.86383
      -99.13727      -114.9540      -122.0011      -133.3642      -144.7829
      -158.1748      -166.0868      -179.0643      -188.5946      -198.1714
      -205.2183      -216.3690      -224.4770      -234.6526      -244.2870
      -253.5282      -259.5856      -268.6357      -272.1531      -276.2682
      -281.3999      -287.5189      -288.7432      -295.1249      -298.6381
      -302.3026      -300.7497      -301.6367      -298.9287      -298.8855
      -295.6954      -298.3278      -294.0919      -291.8434      -288.5046
      -286.2568      -279.7639      -276.1797      -273.2673      -271.5304
      -266.5145      -264.0973      -257.4117      -254.6636      -249.5612
      -246.0046      -241.2807      -237.9395      -229.5320      -228.1520
      -223.4498      -218.8753      -211.8629      -211.9764      -205.0800
      -198.5759      -191.7504      -189.7001      -182.6349      -178.9171
      -172.6185      -169.0269      -159.0504      -157.7057      -148.4903
      -143.1013      -136.8677      -132.2893      -120.8863      -120.5580
      -111.5721      -104.3653      -95.94897      -89.60284      -77.99532
      -71.81351      -61.00591      -56.39494      -46.25572      -39.00290
      -27.53687      -21.31697      -12.05683      -6.966331       6.815208
       15.64908       20.47769       27.31729       40.33580       44.67651
       52.38748       58.73199       67.48611       75.26138       84.64417
       90.19348       99.51886       106.3980       114.2437       121.3601
       130.8258       133.4782       136.8501       142.8747       150.8869
       153.6709       160.5533       162.1237       168.5417       165.7808
       167.4518       170.6699       174.1534       169.2689       175.5222
       171.5591       169.1727       166.6267       169.2675       162.6767
       162.2768       156.7919       155.2902       149.7866       149.2879
       142.7906       140.1025       132.4832       131.9252       125.9595
       123.4052       118.8985       116.7212       107.2175       102.6607
       93.87701       92.70062       85.64015       84.30817       79.69653
       77.56207       69.77298       68.06966       60.73581       59.49529
       54.12036       50.52563       43.21295       39.94606       36.28366
       34.52638       29.36859       28.10802       23.16840       22.84789
       19.13584       15.66284       11.49809       9.220377       6.276004
       5.401976      0.3302243       1.442225      -1.840580      -2.826229
      -6.212116      -4.503017      -9.270996      -10.81779      -17.15779
      -16.02202      -19.25812      -20.86163      -24.76614      -22.73061
      -27.85692      -27.15988      -29.20082      -25.46146      -31.50333
      -32.95190      -35.32449      -27.99088      -29.54218      -28.24195
      -32.40291      -25.80801      -26.24427      -25.30505      -29.66045
      -21.64683      -24.36850      -22.39139      -22.38576      -18.22901
      -20.55601      -16.49857      -17.31122      -14.27991      -11.97241
      -9.407570      -12.72877      -8.235718      -7.093994      -5.596485
      -6.207706      -9.171844      -25.59454      -61.41055      -104.3635
      -78.50616       8.773907       17.65948      -86.43839      -113.1984
       16.44241       89.52988       39.34271       137.1023       141.9512
      -130.0541       106.7795       370.9387      -137.0344      -168.1106
       89.49426      -98.13782       211.5142       333.6264      -105.1152
      -146.9644      -87.47192       193.9351       430.0945      -57.74890
      -363.4740      -146.1560       118.2578       324.6190       189.8110
      -119.9959      -40.97162       165.8115       204.4906       13.08932
      -159.9594       13.10992       225.1585       201.1106       146.4899
       172.8827       258.9458       123.1553      -303.7668      -64.58838
       450.4566       40.57637      -87.17169       379.9967       136.6527
      -27.83459       247.6820       44.29605       61.86621       282.3111
       6.648148       4.218506       245.1340       302.6409       322.7516
       101.3978      -19.83984       258.4147       368.2726       30.29126
      -205.7247       118.6387       313.6495       170.1525       334.3159
       426.8094       200.0778       32.03436       69.03809       384.2197
       405.5446       140.8282       79.48952       20.37781       81.93127
       419.9996       371.2493       236.5727       384.6493       117.0807
       16.22443       325.5009       207.6410       124.5808       424.5537
       321.3307       94.89307       187.9295       69.95276       75.20886
       278.8942       158.4682       78.97708       138.3835       137.5853
       191.4937       138.3270       145.3134       132.2299       84.75842
       278.9148       307.6281      -3.932709      -136.0805       32.05959
       105.7279       7.214478      -26.29810       152.8460       7.604584
       2.017639       233.8934      -110.4657      -206.7271      -27.53481
      -145.4723       93.09872       193.0222      -62.72400      -48.97421
      -218.8930      -56.08594       338.9313      -124.3082      -380.2069
      -100.3806      -133.7400       4.534637      -22.88831      -323.2534
      -101.9493       40.84580       38.55237       27.03455      -350.4747
      -290.4335      -19.87469      -238.8169      -75.35571      -132.8311
      -525.1765      -259.7835      -76.26032      -42.14069      -7.825867
      -275.2526      -347.1178      -337.1411      -303.3965      -115.6384
      -309.1781      -415.3822      -116.2280      -150.7345      -368.4202
      -365.6079      -422.2907      -344.7631      -129.1128      -255.2607
      -465.2644      -215.4092      -47.85242      -357.8156      -553.3527
      -438.9827      -298.3123      -180.2885      -172.0693      -421.9038
      -418.3840      -282.2083      -376.3853      -528.1704      -477.6829
      -442.6929      -439.5927      -121.8146      -268.8093      -558.2014
      -235.9345      -117.0140      -363.3228      -498.0005      -595.7969
      -384.5366      -150.5858      -496.6365      -424.2408      -138.5118
      -448.4662      -398.1265      -145.2334      -457.4133      -493.0284
      -144.5751      -249.4373      -408.6104      -367.0067      -216.5643
      -135.8630      -532.3103      -654.4432      -192.7422      -33.80743
      -243.5366      -295.8021      -128.9619      -56.77942      -176.4130
      -327.0631      -299.3844      -160.7620       1.975288       71.88684
      -113.4572      -317.9907      -327.7304       35.46899       102.0739
      -101.9091      -47.26639      -132.0956      -36.65091       161.4582
       11.19221      -17.08626       39.17709       117.9120       142.1434
      -144.5316       27.60599       277.8201      -69.12503       28.80127
       312.5704       93.67932       220.7264       389.3942       66.84534
       77.17834       211.8467       116.1183       118.0996       216.9878
       351.9119       255.5513       216.6280       239.2017       42.33777
       163.1715       494.3951       409.4047       189.0935       104.7976
       91.77966       490.0775       618.4371       213.9915       243.7234
       376.2849       249.1373       305.2439       341.8005       315.5491
       371.1859       347.4155       200.8354       288.7499       602.8019
       326.6621      -2.904846       148.4272       238.9204       308.5834
       440.6277       427.9861       247.6880       231.1787       325.9365
       367.4564       266.7928       85.42506       31.47687       191.2708
       466.6264       374.1681       126.7256       50.19922       378.1598
       514.1499       65.54703       56.45081       196.7924       69.53491
       233.7389       204.1109      -67.22021       180.7531       287.5986
       30.84387      -44.92420      -86.70172       119.9340       216.0685
      -49.64673       84.67596       272.5358       38.19910      -66.91405
       20.49481       29.72333      -24.78745       36.71909       64.44427
      -71.90057      -136.6339      -101.4155      -2.591736       112.6170
       69.30461       95.18665       5.926392      -304.5630      -77.44516
       158.8786      -138.4071      -175.5840      -66.96951      -68.57892
       72.75452       47.45700      -73.72401      -43.21179       37.72339
       29.82707      -67.44839       32.66016      -63.22653      -270.7620
       53.03452       146.8358      -20.70744       71.23572      -96.68866
      -128.4030       163.4857       105.6720       23.25470       58.64931
      -62.41760       70.94092       226.4191       115.3460      -26.26001
       99.75800       338.9193      -28.29968      -153.7920       162.5356
       42.36815       19.01199       128.2505       69.50427       199.1721
       258.3755       102.2496      -30.34975      -116.9213       130.0309
       292.4818       75.21548      -155.9071       39.78143       392.2585
       131.1706      -174.2897       137.6793       352.8774       29.69882
      -79.45630       33.84998       96.11841       255.6604       52.52478
      -67.06058       155.7027       119.1777       141.2388       83.46498
       44.50800       167.3058      -72.28621      -18.85706       232.9880
       191.9921       100.1522      -1.505535      -44.99466       61.57306
       276.1673       51.83258      -199.7738       130.7263       247.1058
       243.8477       229.5968      -86.71848      -24.31485       80.15741
       81.41669       216.1471      -83.73294      -166.2085       105.0426
       57.78682      -30.02490       158.6474       206.8141      -124.3672
      -152.4554      -12.83801      -87.58340      -141.5667       12.19312
       136.7694      -125.8357      -135.6795       37.36255      -221.0221
      -180.9937      -63.92328      -172.1085      -82.26233      -263.9602
      -303.3427      -60.01550      -135.3263      -362.2752      -348.1027
      -74.66931      -125.1066      -396.5054      -342.6212      -237.0686
      -264.1968      -313.8866      -272.7685      -285.6543      -397.7894
      -322.0776      -304.9611      -423.9351      -404.9249      -297.3281
      -422.2913      -539.3851      -196.4410      -225.0640      -544.5803
      -393.2524      -254.1969      -487.7761      -557.0215      -384.3640
      -340.3021      -318.0106      -414.2031      -480.4536      -377.4310
      -434.6989      -370.9171      -196.3726      -350.5071      -514.1718
      -313.4672      -296.2642      -360.3544      -257.2141      -280.6018
      -328.9911      -262.9192      -152.7370      -213.7023      -293.3479
      -280.3590      -265.5284      -124.5493      -179.1088      -241.0390
      -54.60223      -95.92731      -226.8048      -94.89197      -62.54548
      -24.26292      -12.93105      -93.48810       77.03903       48.40460
      -228.0210      -90.82623       254.3757       230.9898      -57.14200
      -8.115784       35.61926      -37.35620       115.9830       104.8723
      -18.09888       218.0553       592.9445       318.3034      -152.0510
       135.8470       413.8879       230.8266       103.0089       81.61072
       294.4103       615.1271       293.5592       142.3652       469.3281
       344.6893       253.4846       388.0676       238.9278       120.8231
       121.8620      -27.79272       201.5854       708.9259       622.8909
       400.7246       444.6743       423.9602       221.0078       197.9370
       328.0526       386.2307       465.4108       90.78073      -21.96277
       519.0494       369.3937       168.6348       230.6693       129.3196
       212.2966       353.4752       547.9092       939.1470       1214.094
       1421.656       1746.645       1255.563       250.8013       113.3860
      -17.05069      -75.03394       627.0991       572.2916      -362.5378
       9.386719       1609.323       1402.789      -635.4199      -1690.369
      -2297.160      -2170.174       1106.929       4151.522       2558.588
      -489.8271      -2009.171      -2242.988       272.4551       3696.199
       1314.123      -3378.674      -1474.015       1580.537      -1091.419
      -3423.777       55.36621       4499.177       5006.056       1964.988
      -2310.816      -4471.590      -3620.167      -1456.285      -371.1826
       1636.313       3638.753       241.1851      -2481.567      -813.1035
      -807.2285      -1054.130      -151.4150      -816.2788      -1359.087
      -131.9536       1599.428       1203.062      -469.2031       979.5913
       2894.665      -819.1172      -3551.562      -1660.051      -2087.159
      -1357.564       1897.714       3744.355       2996.509      -1286.383
      -3722.965      -3277.395      -2482.300       101.6426       1832.438
       2594.492       2721.394       471.8833      -1897.393      -2646.223
      -3294.040      -3176.758       679.6133       3908.390       1322.702
      -1652.095      -1365.816      -1373.498     -0.1840820       1987.335
       50.24365      -1187.869       15.57812      -685.0347      -804.5092
       757.4087       292.7158      -1292.793      -1105.441       45.15161
      -102.6196      -419.2288       66.20337      -1108.414      -1414.101
       1431.025       2146.056      -147.4978      -1460.620       73.15381
       1238.021      -122.4753      -1206.212      -593.3628       794.2546
       1090.391      -671.3501      -2115.123      -1191.375       903.0400
       2274.084       1471.879      -321.5453      -473.3337      -110.3335
      -36.29169      -156.0958      -459.2612       568.1446       728.6357
      -966.4541      -1406.569      -181.4624       1519.429       1534.483
      -836.5311      -819.4441       1069.647       866.7227      -477.4703
      -461.2134       1027.387       879.2141       376.2198       413.1470
      -1083.250      -827.2173       1392.343       1010.011      -521.1195
      -509.8661      -458.4454       208.8989       822.7319      -197.0280
       350.5144       1208.363       544.1528       236.7823      -497.8091
      -824.2201       260.8931       421.2104       6.332947       346.4204
      -167.9316      -1334.725      -1519.543       263.5186       1562.382
       590.3809      -188.6705       405.7742       1188.876      -466.7092
      -1355.619       44.71173       296.8852       143.7038      -76.21973
       574.9204       993.1654       411.8658      -115.8735      -1286.447
      -1330.452      -119.3256       506.8947       263.7821       46.70581
      -83.95068      -195.1481       87.62891       258.9650       624.5981
       148.4053      -988.5742      -812.7703       128.6632       145.3986
       287.0202       129.9299      -509.4615      -418.5139      -783.3643
       387.4250       1540.056       383.5956      -675.1111      -380.9286
       135.8203      -1081.458      -899.2183       914.6440       1191.468
       129.0168      -1043.371      -667.5111      -124.2704      -375.6965
       9.044800      -222.2081      -159.1562       854.5305       44.63232
      -862.1783      -285.0618       284.7432       649.7506       509.8344
      -56.26392      -435.6199      -563.1563      -234.6621       804.6870
       1102.991      -118.5767      -669.9202      -261.9453      -933.3147
      -948.0616       156.9331       601.1299       561.1974       458.6450
       490.9125      -424.1454      -526.3635       736.1975       352.8553
      -331.6647       11.73798       271.7828       375.2816       783.0693
       309.7617      -662.9240      -497.1154       314.7793       935.1152
       415.9054       32.62262       197.8156      -131.7390      -462.3147
      -1086.351      -248.8774       1992.795       1203.279      -555.4545
      -60.21397       75.30069      -164.9778       486.2866       908.3192
       328.2825       135.7286       628.2291       273.0844      -261.7310
       32.63844       89.72877      -61.99782       113.4755      -145.2755
      -258.5728       612.3586       1042.730       389.5931       95.50940
       402.9255       477.8757       332.7643       149.3933       114.7961
       336.2740       166.3917      -239.7236      -55.23730       562.1622
       512.2975       111.7488       493.9243       454.2531       288.8952
       424.1349       174.8012       184.9619      -468.1194      -1293.348
      -225.9541       1041.792       664.3685       44.31128      -237.3668
      -8.603516       625.7607       479.8325      -48.96887      -379.8739
      -38.85315       386.6113       568.6654       610.6741      -229.2761
      -395.9656       480.3140       475.4718      -259.5017      -795.9867
      -247.7526       57.33801      -691.9635      -41.61084       543.9768
      -59.84662      -179.8357      -248.7224      -483.6511      -126.1970
       396.9407       373.7412       218.1720      -132.1733      -500.8711
      -250.4485       117.1195      -322.3850      -752.9940       72.33038
       533.2916      -170.8766      -664.9414      -508.9263      -522.2286
      -635.6626      -233.8268      -247.0026      -318.2020       87.80856
       25.53857      -376.1987      -9.942749       317.4861       15.37238
      -30.15259      -698.8282      -891.9304       476.7655       924.9724
      -346.1855      -947.2876      -283.7156      -685.6105      -907.5137
       155.5050      -42.93268      -321.9589       159.0228      -174.2905
      -681.6989      -706.2164      -270.0866      -51.07690      -577.6871
      -513.6473      -31.27765      -84.71295       420.4843       11.50928
      -1126.468      -240.6911       336.6825      -341.4824      -269.2897
      -178.3994      -391.1990      -146.4600       213.5538       417.0240
