     0.02500000      -3302.825       2018.455      -12345.00      -12345.00
      -29.99499       224.9050      -27.32000      -12345.00      -12345.00
       0.000000       20.15000      -12345.00      -12345.00      -12345.00
      -12345.00      -12345.00      -12345.00      -12345.00      -12345.00
      -12345.00      -12345.00      -12345.00      -12345.00      -12345.00
      -12345.00      -12345.00      -12345.00      -12345.00      -12345.00
      -12345.00      -29.95960      -69.63990       5051.000       0.000000
      -31.24600      -68.98500       0.000000       102400.0       0.000000
      -12345.00      -12345.00      -12345.00      -12345.00      -12345.00
      -12345.00      -12345.00      -12345.00      -12345.00      -12345.00
       155.8293       336.0659       156.3977       1.401038      -12345.00
      -12345.00       1.309310       0.000000       90.00000      -12345.00
      -12345.00      -12345.00      -12345.00      -12345.00      -12345.00
      -12345.00      -12345.00      -12345.00      -12345.00      -12345.00
      2008        16        21        18         4
        20         6    -12345    -12345     10197
    -12345    -12345    -12345    -12345    -12345
         1         7        13    -12345    -12345
    -12345    -12345    -12345    -12345    -12345
    -12345    -12345    -12345    -12345    -12345
    -12345    -12345    -12345    -12345    -12345
         1         1         1         1         1
CORT    -12345          
        -12345  -12345  
-12345  -12345  -12345  
-12345  -12345  -12345  
-12345  -12345  -12345  
-12345  -12345  -12345  
-12345  -12345  BHN     
ZL      -12345  -12345  
[...]
       147.5673       135.6432       153.7147       257.1493       65.22678
      -115.6668       43.95587       204.5089       209.7595       216.9900
       179.8025       166.8719       172.0167      -17.49419      -65.18591
       208.6978       268.2982       5.988586       51.22833       306.7926
       134.2515      -65.44641       97.00903       228.1815       197.6986
       153.0417       64.30045       48.10229       196.8593       324.8018
       178.9460      -35.17419       106.5956       288.8039      -84.18787
      -328.7932      -60.28873       111.2829       26.61401       51.72495
       135.5218       64.74277      -3.830688      -227.5175      -333.8751
       48.95193       201.4960      -127.8138      -255.2962      -146.9672
      -200.4446      -87.63229       12.43146      -256.6238      -284.8807
      -155.4618      -300.1169      -227.1603      -143.7374      -268.7186
      -111.0554      -231.0602      -577.5730      -303.4220      -38.11450
      -168.6357      -236.4480      -351.1996      -378.8967      -175.5702
      -282.5916      -410.7609      -319.6952      -391.4229      -289.7870
      -156.4324      -356.9992      -349.1226      -224.2893      -339.2616
      -434.4296      -288.9313      -292.1843      -496.4285      -291.2449
      -27.47083      -139.8580      -249.2502      -289.6506      -253.9121
      -300.0182      -295.7126      -186.7385      -281.2628      -224.5002
      -98.65625      -197.4009      -183.5967      -217.7900      -318.0955
      -206.0388      -127.5697      -139.2869      -162.8252      -221.7352
      -183.4622      -203.6904      -224.0339      -44.60002       42.06827
      -7.536926      -149.0576      -343.8743      -225.3559      -35.66501
      -42.37431       45.03647      -79.54462      -339.7798      -103.7444
      -1.548431      -185.2410      -59.62881      -24.37189      -131.6910
      -2.149849       60.29205       6.395874      -86.24683      -136.0643
       66.84830       159.2849      -27.04810      -123.8741      -128.9483
      -189.6744      -118.0404      -12.53563       23.95526       151.8945
       122.3222      -21.89991      -41.69694      -14.00641       61.42526
       164.0164      -11.02597      -189.6260      -60.11809      -8.853462
      -56.32483       47.91220       113.8600       28.59933      -42.08984
      -72.68204      -60.39087       54.24269       122.1610      -48.41899
      -26.44043       215.3394       11.25087      -136.5225       129.5901
       218.2647       110.1334      -35.28119      -70.41650       4.499161
       10.24020       68.46338       147.6489       148.5898       203.1659
       136.6046      -76.20757       8.340210       180.9017       186.5681
       144.9642       106.4982       140.7543       183.9933       124.2261
       76.84753       191.8470       153.1218       14.33356       70.52832
       125.6482       183.2172       273.8646       247.2128       73.92822
       86.01654       323.7753       293.8985       136.1934       148.8909
       234.8923       214.7972       248.2316       293.0265       159.1447
       119.8300       376.1222       531.1069       359.7547       307.0347
       326.0156       266.6333       376.9200       450.4484       396.6213
       431.0575       411.7435       357.0312       392.1403       395.4395
       453.9105       393.0333       214.2750       277.8777       415.8058
       393.0364       459.6035       670.4231       700.3118       465.0822
       249.1475       339.4248       528.6825       440.4956       388.5560
       400.8068       342.9261       415.6182       396.2205       311.1225
       291.9078       258.3192       297.6105       270.1332       205.6647
       403.7551       431.3085       183.8804       249.2665       374.8255
       272.8099       168.9214       169.9606       178.8836       272.2832
       313.2690       210.8389       206.9226       224.8783       271.3747
       202.9370       79.87421       131.5623       69.53931       39.35840
       227.3372       235.3869      -16.24493       77.74988       214.9961
       34.26207       52.67908       134.6787       56.73337       150.8743
       173.3427      -16.63647       66.56706       154.2635      -68.36047
      -164.8984      -201.5692      -171.6371       8.424561      0.7207031
      -123.1740      -179.1476      -198.1774      -127.7159      -44.64056
      -119.8665      -291.8491      -272.9928      -170.7527      -48.65964
      -23.81006      -164.9999      -283.9702      -531.3411      -568.8694
      -273.9949      -121.2458      -257.8153      -405.9343      -263.5286
      -261.7462      -400.6688      -373.4280      -309.5726      -233.2271
      -279.3695      -556.5371      -573.9705      -298.6674      -83.19269
      -150.3684      -375.3953      -523.5105      -670.6207      -534.3168
      -249.9690      -288.0080      -342.4904      -293.2235      -375.3318
      -453.2611      -331.2854      -296.0787      -403.5037      -422.8452
      -331.3656      -312.6084      -366.3951      -407.8860      -477.9976
      -528.0266      -534.8334      -502.9438      -347.9625      -173.4067
      -259.8445      -492.9421      -440.8868      -254.1025      -370.7483
      -484.1066      -367.3152      -491.4406      -577.5217      -364.7344
      -366.2195      -419.5706      -298.1069      -345.6522      -513.7468
      -535.9050      -488.3962      -446.9018      -234.1382      -166.4951
      -320.4060      -406.0078      -522.5026      -504.6192      -265.9014
      -341.6421      -554.5843      -381.8459      -252.4811      -384.3721
      -313.8105      -298.5908      -395.5142      -241.9342      -168.2657
      -331.2577      -346.9233      -237.9431      -198.7535      -205.0801
      -195.6544      -184.3848      -272.3474      -270.5511      -60.09509
      -131.7640      -306.0444      -137.2098      -81.93697      -119.1476
       72.34622       67.81068       17.56514       95.73508      -3.196587
      -13.18234       123.5804       125.1489       136.5680       175.0324
       49.22058      -146.6190       38.78265       392.5851       138.2662
      -108.5544       196.9951       373.9516       262.3586       201.1006
       298.7074       269.8302       213.1281       222.3185       112.7317
       318.2819       560.1514       491.2762       283.7034       112.1758
       320.9485       413.3333       327.9482       245.5698       234.7324
       409.8104       359.7628       174.7236       167.0779       335.2898
       380.0785       339.6261       368.8385       333.3126       261.5138
       189.1069       280.2698       220.0100       124.7803       325.4445
       287.7992       94.54532       96.50781       85.12286       226.2633
       357.1649       201.0117       16.71753       162.8265       399.0629
       113.6967      -92.53534       135.6932       179.0859       252.6394
       410.7639       245.7774       43.32526       96.09583       165.6785
       207.2220       312.1105       380.8226       312.5803       238.8810
       165.5456       134.4104       222.2410       193.1567       133.1097
       235.0423       339.3044       224.6450       77.59003       161.7520
       266.8584       360.4325       226.7893      -40.60400       168.6334
       373.6404       266.5757       346.6772       415.9379       281.5542
       115.4691       25.90625       232.9725       302.6776       219.6094
       409.0338       225.3710      -157.9529       12.81006       379.9426
       334.7861       190.8345       276.1017       145.5480       67.40027
       212.9543       120.4605       16.27124       232.0840       392.2593
       310.8030       76.95642      -117.0888       37.34131       306.5963
       179.9383       39.99005       235.2955       207.2626       28.96985
       46.63403       159.3092       299.0078       308.5138       178.1639
       133.4448       226.7328       174.6928       82.02045       190.2959
       342.2146       393.8208       315.4227       260.9540       186.9248
       22.61261       161.2422       424.8577       240.8868       101.3944
       291.2927       303.8687       273.3877       238.9095       168.6937
       285.7078       308.9898       248.9870       221.1727       112.6119
       180.6136       251.4133       226.3865       236.7834       188.2007
       86.50235      -31.70850      -71.12170       35.67126       245.9548
       191.1376       65.64346       76.74603       64.26157       66.04807
       11.07886       95.52113       99.76926      -47.76416      -149.9390
      -113.3419      -14.57825      -115.0256      -187.7874      -237.3842
      -302.4625      -30.80785       19.00677      -293.5383      -251.8355
      -270.0889      -472.0972      -184.2313       190.9498      -15.37787
      -273.6371      -223.2083      -365.6299      -511.1616      -319.2612
      -232.3234      -487.9220      -506.5066      -259.7985      -300.1155
      -392.1062      -373.0585      -466.9092      -366.9175      -91.94189
      -152.3855      -595.5840      -650.3595      -397.2451      -486.4073
      -431.5782      -296.6364      -587.3296      -611.9763      -435.7799
      -546.4628      -485.2579      -263.4138      -340.5359      -467.8745
      -360.6156      -586.8806      -835.9828      -599.9673      -469.1555
      -411.6433      -375.6287      -538.1295      -621.3281      -488.5131
      -336.5624      -455.2347      -599.8486      -463.8488      -425.3893
      -313.4982      -381.2573      -783.3562      -621.5449      -193.0959
      -316.5687      -624.6394      -707.2030      -648.3455      -503.4573
      -546.4302      -589.8594      -440.8571      -384.4775      -300.0299
      -214.8265      -216.8734      -258.0770      -414.0616      -518.6149
      -479.0561      -354.8999      -201.0627      -184.7944      -290.9482
      -346.4382      -300.3298      -367.1478      -335.9677      -27.20831
       48.09717      -348.3717      -559.7009      -384.3111      -333.2690
      -164.9706      -184.7920      -526.8440      -418.7302      -82.44193
       23.96784       53.86075      -54.89532      -366.7491      -170.3748
       187.5363       68.10986       158.1067       350.1187       232.3486
       83.38873       21.72565       74.95190       226.0947       164.3423
       7.116394       57.53021       274.9313       340.4224       316.0020
       343.3875       204.1504       248.8672       469.1615       531.9033
       415.2135       130.7921       168.6387       506.1755       652.9427
       485.3016       386.6147       553.9984       598.2092       601.0227
       671.2051       651.9990       644.3481       747.3491       758.9810
       586.0211       592.0730       687.1577       704.8806       837.4019
       919.2197       738.7615       610.3584       623.6956       736.1456
       712.2123       497.8258       530.7046       580.3872       572.0547
       756.8857       793.3604       711.3149       693.7313       669.6433
       610.4590       574.2561       724.2139       789.4995       556.9968
       485.0073       620.3884       622.9297       571.6119       469.0413
       294.2981       485.9250       672.7969       572.1844       461.2406
       321.7667       476.1190       661.5746       496.2253       467.7048
       479.4723       426.9688       447.5944       385.9153       257.3582
       273.0115       330.3209       267.6545       227.6537       220.8226
       270.2222       163.5962       84.66461       165.3109       138.1520
       353.0433       437.5493       182.5742       126.9655       166.8427
       100.0487       84.72452       89.76596      -30.42801     -0.1784058
       226.3857       132.9372      -140.4455      -137.3163      -62.79901
       66.08777       91.89787      -46.26666      -31.25729       64.52994
       8.075958      -174.9427       63.26282       358.8358      -95.65137
      -632.7183      -626.2731      -522.6134      -504.1370      -406.1111
      -423.0408      -320.6471       145.3026       513.2671       508.5592
       96.86230      -256.8801      -541.9646      -780.4971      -672.0142
      -646.8765      -652.6450      -996.6948      -1284.698      -10.38159
       965.5928      -282.5508      -1198.626      -419.1796      -152.4968
      -425.0457      -228.2219      -185.3385      -171.4441      -386.4980
      -1292.130      -2089.560      -1752.280      -542.2327      -883.3525
      -2283.774      -1349.042       408.2502      -117.0415      -1123.209
      -869.0544      -1270.037      -1249.003       164.4104       97.00122
      -1199.990      -1010.532      -275.9690      -596.1128      -814.7882
      -739.4182       1.963379       1330.894       796.7358      -2301.541
      -3302.825       38.22925       1359.194      -655.6177      -1552.498
      -1431.313      -639.7551       628.4548       1114.012       495.0330
       255.7517       864.7427      -249.5596      -2537.607      -3094.383
      -2109.958      -772.6880       109.1831       521.4856       696.5250
       593.4974      -209.7737      -808.5266      -72.27844       435.6440
       160.0184      -316.6892      -353.6772      -816.4302      -1350.008
      -217.8427       133.8832      -743.2205      -561.2517      -860.6950
      -902.3799       868.6870       1538.308       770.6974       235.3831
      -126.0014      -207.7070       301.9302       526.5413      -243.5391
      -232.1860      -201.0519      -962.7278      -4.833984       1462.640
       1173.212       11.78760      -1502.000      -1079.695       1448.542
       1014.989       15.93213       1176.419       1137.344      -315.8838
      -1266.750      -630.0939       421.3189       311.7965      -66.93591
       211.0005       599.1034       238.2560      -345.7388      -1014.773
      -289.3101       1864.422       1102.540      -461.8498       67.31946
       706.7335       400.2965      -188.7339      -299.6194      -614.6149
       11.16736       762.3950      -455.2981      -927.6650       611.9160
       1296.167       63.93494      -336.0576       378.8386       197.2225
       644.5958       738.0942       247.3584       629.0830       1427.276
       1100.478      -463.7089      -516.8229       31.07068       183.6907
       299.9441       7.141846       559.5845       1358.570       573.5420
       749.9851       1423.611       352.5632      -125.6471       324.0781
       1304.350       1696.966       372.9997      -205.2629       637.1464
       806.0924       114.0874      -806.4000      -462.1226       892.6055
       760.2543      -301.4600       73.52197       1810.812       2018.455
       757.6050       125.8640       520.3857       1374.481       1454.197
       1349.148       979.0840       676.1763       910.4188       246.2287
      -460.9764       73.45752       978.2480       1736.431       1383.566
       510.1709       430.4290       553.3584       949.6840       717.4041
      -15.28769      -207.1334       331.8765       869.3271       596.3007
       497.7866       209.4583      -44.83093       79.32300       496.0713
       879.5847       841.2129       1104.681       1029.436       244.2466
      -225.9220       62.01636       435.5775       333.4959       110.1469
       366.5648       495.6997      -91.69858      -219.5289       313.6850
       198.0215      -518.0103      -579.8401      -157.1068       69.54962
       430.9542       87.99219      -900.9427      -499.6678       64.67285
      -757.5215      -1651.296      -1324.938      -38.05912       38.87073
      -186.1520       52.66711      -319.2241       94.39435       237.1855
      -592.3723      -643.9078      -327.7779      -259.8102      -271.1057
       147.9178       391.4742      -39.97937      -528.1306      -517.9836
      -226.9331      -703.8989      -587.5601      -349.6396      -1090.883
      -999.3579      -933.6755      -993.0566      -488.2603      -433.5974
      -767.2917      -835.8262      -595.5869       80.79773       648.0785
       122.6671      -513.7253      -863.7505      -1020.535      -1043.930
      -1156.659      -1033.346      -778.7666      -774.3032      -1043.784
      -849.5967      -657.8394      -845.3774      -497.1980      -282.0835
      -687.1685      -838.9504      -681.0322      -852.8711      -1249.226
      -1135.120      -631.6749      -320.8467      -317.2863      -366.0520
      -489.8272      -421.5746      -176.5558      -224.2285      -455.9627
      -284.4186      -140.5064       114.7177       517.9478       18.59326
      -484.5920      -970.2983      -1067.590      -399.3745      -222.4538
      -366.0763      -281.8777       30.73215      -3.305847      -282.2135
      -196.8456      -289.5072      -561.2252      -590.5671      -659.8555
      -590.2153      -244.6113       90.38086      -157.8732      -524.6949
      -190.3651      -30.08521      -380.9761      -722.0781      -971.4373
      -644.7136       79.23187       250.7649       201.0365       310.2498
       143.4200      -303.0129      -182.9360       476.7399       458.8248
      -200.7656      -348.0330       277.9558       449.9385       86.56683
      -169.4841      -131.3027       195.4078       280.2566       205.0760
       104.0659       339.6368       514.4488       30.61279      -489.2534
      -694.0127      -339.4835       408.4561       313.3358      -232.5844
      -103.2542       429.4048       943.7766       1041.148       660.5605
       349.9852       34.45514       58.41284       689.3805       591.7005
       143.3932       318.6023       500.5660       332.9461       92.07703
       166.0818       507.8495       681.4287       327.6095       222.2512
       610.8850       538.8080       170.6754       86.53326      -16.01978
      -333.0414      -95.54443       158.7801      -149.9703       210.1882
       503.6944       175.3755       292.9866       452.3168       75.61108
      -3.769043       551.9600       558.8645    -0.06542969      -363.9966
      -253.1907       199.1044       423.6738       78.23892      -194.4070
       335.4775       505.0957       284.0057       469.6606       440.9556
       676.0398       1083.192       679.9160      -10.03027       358.7809
       731.2460       320.2075       242.3973       220.8056       83.03908
