     0.02500000      -2144.546       2815.068      -12345.00      -12345.00
      -29.99499       224.9050      -27.32000      -12345.00      -12345.00
       0.000000       20.15000      -12345.00      -12345.00      -12345.00
      -12345.00      -12345.00      -12345.00      -12345.00      -12345.00
      -12345.00      -12345.00      -12345.00      -12345.00      -12345.00
      -12345.00      -12345.00      -12345.00      -12345.00      -12345.00
      -12345.00      -29.95960      -69.63990       5051.000       0.000000
      -31.24600      -68.98500       0.000000       102400.0       0.000000
      -12345.00      -12345.00      -12345.00      -12345.00      -12345.00
      -12345.00      -12345.00      -12345.00      -12345.00      -12345.00
       155.8293       336.0659       156.3977       1.401038      -12345.00
      -12345.00     -0.1156803       90.00000       90.00000      -12345.00
      -12345.00      -12345.00      -12345.00      -12345.00      -12345.00
      -12345.00      -12345.00      -12345.00      -12345.00      -12345.00
      2008        16        21        18         4
        20         6    -12345    -12345     10197
    -12345    -12345    -12345    -12345    -12345
         1         7        13    -12345    -12345
    -12345    -12345    -12345    -12345    -12345
    -12345    -12345    -12345    -12345    -12345
    -12345    -12345    -12345    -12345    -12345
         1         1         1         1         1
CORT    -12345          
        -12345  -12345  
-12345  -12345  -12345  
-12345  -12345  -12345  
-12345  -12345  -12345  
-12345  -12345  -12345  
-12345  -12345  BHE     
ZL      -12345  -12345  
[...]
      -542.5948      -462.9641      -451.4434      -556.4979      -545.0052
      -498.8108      -603.3525      -567.1962      -305.7061      -351.0760
      -583.4524      -497.9396      -406.5232      -554.3895      -605.3979
      -373.8903      -316.5322      -484.6060      -459.3539      -427.8149
      -533.5787      -473.8840      -244.0181      -289.2117      -534.8301
      -462.0240      -299.5350      -360.0818      -501.5728      -336.0999
      -54.88861      -124.4121      -404.6174      -388.9662      -197.2123
      -268.7531      -395.1985      -311.5043      -122.6338      -13.55280
      -104.3954      -236.4412      -407.3972      -252.3962       61.40499
       77.91196      -88.89336      -113.8615       72.57840       13.11724
      -14.09303       56.57471      -119.0811      -97.66586       93.16129
       73.18103       82.47870       242.2520       40.05853       88.76996
       426.5749       55.16486       26.90759       570.7167       416.0551
       167.0632       220.3282       269.4541       314.4838       462.1149
       421.1990       305.8647       518.3711       592.9253       414.7625
       449.0247       561.7748       607.1074       640.6571       570.5508
       440.7692       540.6016       668.3411       703.6196       839.0071
       813.0740       558.6345       580.6533       713.8145       738.8442
       796.0398       823.9985       810.4380       643.2734       610.8826
       892.0684       949.8003       756.5781       467.4683       550.2500
       973.4099       970.1658       753.6945       689.3630       658.7633
       499.2598       693.2788       991.6931       722.2173       569.6187
       763.8995       572.6899       249.9908       482.4221       709.5774
       726.5317       687.0295       753.5504       669.8694       395.1484
       530.3782       737.2329       638.4333       537.2583       493.8636
       280.9602       268.1869       500.0217       525.9785       472.2982
       393.4860       370.3075       326.8930       250.4163       263.6672
       143.7666       202.8669       421.7672       284.5998       120.1169
       130.4161       128.0776       181.2159       102.2382       53.95197
       77.76706      -137.6360      -200.7730      -49.15207      -49.97191
      -107.8655     -0.6312180       12.40036      -56.97443      -121.5275
      -141.1304      -95.39355      -292.8093      -362.3599      -102.1578
      -71.77808      -280.5338      -257.4172      -135.4546      -182.7837
      -347.3115      -438.0653      -397.2100      -310.4140      -149.8944
      -168.0745      -315.4795      -298.3672      -237.3783      -363.0386
      -443.2727      -356.3829      -272.8639      -367.1862      -460.4993
      -375.5439      -213.7053      -250.7395      -448.5204      -488.4497
      -405.2083      -474.3829      -391.0095      -312.8693      -537.0829
      -599.8822      -454.0796      -366.2609      -521.1136      -472.9290
      -256.5261      -424.0404      -469.7753      -349.9772      -400.8965
      -565.9310      -572.8064      -528.4380      -558.2866      -393.7412
      -276.5573      -544.5067      -744.0192      -559.1067      -431.8025
      -493.5746      -489.7467      -507.8557      -508.3528      -453.7056
      -514.2097      -573.4568      -413.7518      -364.8721      -478.8503
      -508.7220      -400.9824      -440.7068      -602.1458      -590.3839
      -570.6898      -528.1360      -389.6337      -452.4509      -549.7488
      -506.5779      -412.7030      -337.2882      -412.2686      -512.8018
      -432.7600      -475.2129      -551.8131      -343.4030      -178.7308
      -350.5034      -455.9048      -498.4734      -646.6537      -529.7765
      -293.8043      -280.5497      -375.0027      -435.6329      -350.5715
      -266.6935      -323.1265      -389.1693      -256.8240      -215.7913
      -332.4132      -274.0743      -157.1769      -132.6034      -151.7218
      -215.5450      -321.1736      -383.4081      -156.7366      -38.19177
      -234.7529      -275.3123      -93.46912       40.93404       38.70300
      -175.5255      -282.8049      -81.25248       25.57405      -32.36446
      -94.97988      -26.27349       18.60614      -9.980156      -12.95058
      -42.40412       12.73917       61.02631       145.7725       89.85797
       28.72260       206.9384       197.6634       95.80444       108.9071
       164.2161       200.4680       144.5045       193.2053       188.1516
       220.9393       330.4589       244.1605       238.2476       404.7787
       380.7811       293.0424       246.3112       262.6389       398.5699
       463.3744       389.0001       325.7346       392.4486       484.1399
       359.9180       280.5647       488.2771       654.3105       509.2468
       358.4263       388.6094       379.9973       376.1957       346.2213
       319.7808       594.3201       692.3904       467.5111       387.9788
       379.6230       371.7562       535.4877       601.7000       406.2017
       298.6747       358.8066       450.4344       389.6350       328.4213
       472.9192       504.2059       352.6770       372.9060       422.3254
       338.1576       374.5968       353.1543       366.6150       530.7183
       457.9319       301.7832       267.3149       267.0320       256.7253
       341.3237       467.5008       276.1124       190.9406       354.5486
       272.6703       202.4424       323.7946       345.4242       245.8907
       244.3827       423.7171       380.6842       117.2138       197.3802
       345.2902       169.0287       119.1127       295.6198       272.2667
       73.68591       121.3937       339.0291       321.5824       48.96069
       122.5343       283.2955       72.15546       138.2202       277.3646
       40.19604       90.47754       301.2715       182.9969      -3.535797
       26.04614       190.3833       149.8241       171.7582       267.0957
       31.26324      -123.4106      -60.81013       79.90053       65.82806
       41.22247       166.6988       102.1027       41.71591       69.25980
      -2.081665      -127.5777      -51.88493       73.54691      -81.62860
      -16.31006       145.5000      -20.34256      -145.8708      -18.73885
       97.78654       41.06841      -90.98392      -53.45883      -36.25110
      -130.3539      -17.30328       124.1098       138.8539       108.6599
       131.2994       191.4073      -62.24518      -192.5696      -34.47515
       2.993080      -62.71729       43.23645       293.9717       136.3981
      -20.49820       113.0480       32.32365      -22.22459       40.86505
       93.61673       95.27332       62.58142       92.27251       14.90509
       66.52441       216.3523       144.7809       52.61923      -61.86243
      -189.0298      -140.3807       101.2360       103.5023      -46.70657
      -41.52464       18.57791      -6.275177      -188.0869      -121.0450
      -57.45209      -219.3022      -223.3517      -171.4377      -160.4989
      -194.8662      -223.3933      -230.0563      -204.8566      -332.9027
      -421.8365      -348.8558      -363.9832      -380.0908      -403.3545
      -350.7263      -383.2974      -416.0060      -366.5747      -482.5532
      -486.7324      -472.5933      -504.1294      -458.5815      -414.4075
      -412.4547      -541.6082      -576.9692      -519.1860      -556.2017
      -536.2793      -508.4163      -539.2649      -568.7993      -571.5435
      -527.8750      -547.0426      -602.4358      -515.6401      -482.4619
      -577.3203      -638.1570      -610.5674      -427.9561      -370.3643
      -454.9944      -494.9772      -539.2537      -554.2963      -568.2275
      -515.5940      -485.8688      -435.0258      -314.6243      -381.6211
      -476.4237      -373.9305      -277.5454      -394.4697      -521.7826
      -458.4496      -270.9017      -245.3374      -345.4839      -267.1664
      -238.3795      -277.4979      -237.9728      -287.6487      -266.2908
      -218.0450      -305.5452      -315.8046      -276.0616      -185.8941
      -37.50909      -30.11975      -215.9058      -294.4387      -78.21539
      -24.87866      -245.0243      -47.56567       203.8232       101.4332
       146.1609       118.5280      -135.1867      -191.4843       32.16980
       248.7871       92.58183      -54.84900       109.2072       174.3034
       90.19125       86.90173       86.05750       144.9224       315.7593
       426.6997       367.8813       317.3957       305.3300       227.8516
       342.1094       537.1465       453.2561       244.4816       276.7058
       578.1747       585.9115       505.9902       702.2434       627.3622
       288.0225       363.1545       615.6602       654.8745       780.7773
       765.2737       565.4436       708.7841       602.6528       377.8586
       661.4277       648.9520       481.0000       810.5583       1052.988
       821.1250       629.5079       599.8892       450.4651       484.1021
       620.3865       636.5081       591.5698       593.9119       558.7333
       515.0177       631.2703       604.8488       531.7200       596.6780
       487.6959       353.8486       384.6913       390.9883       220.7798
       294.8767       581.6992       366.9128       80.19568       278.6500
       309.3515       89.84363       221.5573       461.4103       454.6079
       245.2430      -108.5155      -59.67236       388.5240       325.4384
      -115.9942      -166.1761      -93.46295       73.80069       161.8297
      -54.92338      -54.71096       60.81990      -16.40741      -187.2065
      -204.3342      -53.58978      -178.2735      -296.8969      -198.2922
       12.82227      -69.96515      -317.9479      -149.1497       10.66006
      -88.63269      -168.8265      -211.9176      -242.7109      -83.17194
       26.65253      -143.3560      -117.8423      -103.9501      -145.1242
      -101.6636      -177.3693      -239.2255      -96.18355       31.57312
      -207.4038      -314.4992      -55.23651      -212.3326      -309.0217
      -97.32385      -140.8668      -265.9832      -48.73970       74.20813
      -301.2347      -396.8524      -181.0663      -193.0645      -224.6741
      -176.7581      -8.808838       207.3123       182.9113      -205.4938
      -360.3599      -247.3914      -293.3293      -293.0162      -155.5904
      -133.4888      -106.2238      -44.19815      -121.2227      -223.5090
      -212.4283      -321.3398      -283.4580     -0.2546082      -80.02814
      -209.1651       4.080841       150.2769       141.7491       75.82446
      -105.6562      -264.5540      -206.1004      -88.17372       14.00909
       145.4125       229.9553       109.5726       1.478485       14.78320
      -71.73627      -223.6248      -242.7442      -181.9277      -19.92142
       54.29388      -149.5712      -146.8923      -23.31953      -48.12793
      -84.58960      -191.2855      -157.4765      -20.13647      -101.0897
      -122.8905      -9.210083      -182.4929      -358.0330      -184.8674
      -38.13483      -66.00470      -150.9764      -328.6605      -277.1802
      -107.9189      -58.63556      -171.0341      -361.4291      -325.6582
      -94.88568      -121.0872      -338.5262      -519.5513      -597.4604
      -374.8531      -215.8074      -236.4270      -137.4683      -239.8490
      -467.3867      -417.2435      -358.2594      -338.1630      -54.90164
       17.99542      -261.7820      -416.1937      -197.0937      -20.52252
      -231.7535      -401.3966      -354.1163      -359.0084      -274.4897
      -129.1171      -68.79034      -220.3512      -441.7057      -430.8756
      -279.2201      -212.8177      -346.9458      -450.6879      -336.0413
      -203.0426      -202.8276      -231.3657      -182.6628      -165.2391
      -188.1646      -182.6825      -141.2278      -180.2666      -170.5491
      -35.14377      -5.783966      -116.3160      -68.84555      -88.91510
      -171.0289      -181.9390      -84.71588       181.4438       96.45633
      -193.9728      -61.51132       69.68500      -96.41447      -107.0201
       89.04676       58.42050      -98.88379      -194.6405      -162.6328
      -187.4017      -356.1570      -406.2876      -341.2613      -192.6931
      -246.8121      -583.7561      -870.8651      -882.1292      -241.4610
       348.5641       222.9959      -240.2675      -297.0400       700.3418
       1930.437       2175.173       1524.130       264.7799      -823.4744
      -361.7034       522.7904       573.3687       242.6548      -1012.522
      -1714.867      -261.3640       1079.806       751.6250       216.6426
       358.3955       817.0303       859.1709       437.6615      -35.90485
      -348.0975      -218.4705       232.0618      -102.1902      -329.8320
       1701.375       2815.068       1065.863       644.3422       710.4502
      -1384.381      -2144.546      -1191.188      -716.4614       719.4141
       1524.862       899.5181       1247.593       1643.661       159.3328
      -1308.134       120.5439       1822.593       1482.247       1168.840
       589.7803      -740.4635      -527.9568       365.8877      -828.9956
      -1902.391      -247.7344       1048.685       689.1855       1065.583
       1636.460       971.8455       105.8430      -155.4876      -246.9617
       184.5626       59.52435      -488.0713       488.1289       1584.312
       1169.937       386.3831      -163.4805      -569.9404      -1382.017
      -1413.119       70.46216       565.1085       646.7202       460.2876
      -450.2192       470.6523       1833.214       555.4189      -1468.879
      -744.3254       1393.555       1023.049      -470.2957       169.4563
       1383.995       1238.639      -248.2415      -979.9949      -346.3766
       348.9500       895.2511       210.9001      -391.1083      -482.8892
      -698.4305      -665.5745      -26.79663       657.4269       19.47729
       372.7151       1358.097       931.7095       83.22394       1.420166
      -126.1699      -1363.531      -1435.464      -93.99731      -378.3433
      -781.9333       674.8606       1125.799       292.0636      -15.08984
      -229.3325      -727.5186      -1013.944      -1103.481      -985.7642
      -44.31665       960.7455       583.5435       328.4878       893.5643
       553.8372      -846.3662      -931.4208      -369.6929      -1034.071
      -770.7789       208.7434       947.1776       807.8401      -170.0134
      -143.7366       107.2839       11.55829       443.2358      -361.3110
      -1306.655      -1293.491      -1172.013       237.3842       998.3091
      -25.52991      -602.8584      -415.4612      -800.4735      -720.5880
       21.49268       363.7369       212.4938      -379.9424      -608.7563
      -914.5881      -1186.723      -747.7305       148.8518       522.0951
       211.8905       55.04907      -1051.374      -1897.291      -888.5207
       82.31824       530.8469       414.9274      -78.88748       152.5354
      -320.0380      -817.8025       393.0222       1052.245       539.8755
       294.1995      -457.9421      -1400.711      -727.6426      -496.6038
      -1183.697      -90.38977       671.7621      -493.8731      -313.3682
       759.8655       320.6119      -250.2822      -613.4525      -743.2369
      -427.2770      -369.5720      -30.88794       690.9363       906.6486
       312.9073      -178.0511      -310.0696      -579.6965      -577.0363
      -273.9504      -187.9431      -247.7018      -170.1305       157.4803
       339.2895       193.0761      -20.44098       14.23700       228.8943
       249.2219      -78.50391      -513.9115       20.35144       508.5245
       30.93359      -313.4604      -174.1023       605.5535       661.7054
      -91.29590      -606.1025      -580.3959       114.1767       133.3892
      -167.3540      -226.9277      -507.6640      -155.8344       434.4876
       83.04761      -604.8016      -438.2086       272.2700       199.2603
      -249.3551      -262.5634       71.02771       99.63940      -491.1655
      -428.3061       60.92297      -102.2767      -148.1247       43.52344
      -300.7574      -317.1732       424.9701       256.6194      -246.0958
      -34.05270      -70.74902      -233.7929      -64.48914       107.1564
       385.2716       426.9011      -109.1166       65.42407       506.1340
       18.36041      -158.5598      -19.40332      -265.3082      -116.4230
       349.8833       131.3938      -206.6248       45.41754       2.242432
      -581.3912      -635.2372      -18.63632       11.80835       132.9744
       930.0974       529.4241      -336.5102      -226.7537      -4.375488
       51.35562       162.3187       121.1981      -169.1720      -58.83167
       386.5975       340.2106       253.1176       31.16771      -98.02759
       406.9583       799.5714       776.4722       395.4232       388.1317
       585.1093       228.6803       62.80994       387.7273       617.7939
       392.9974       242.3933       558.5664       924.6337       499.7317
      -25.09436       467.4863       822.1801       766.3470       443.3944
      -121.0452       93.91418       525.5032       485.5035       351.9929
       432.0803       645.9265       840.4922       795.5735       590.4802
       433.4373       341.1302       380.6624       576.9382       716.9808
       736.4906       560.0216       183.9595       142.9663       220.8775
       24.78418       112.1914       679.8179       828.4966       597.7324
       858.5981       916.6006       464.2083       462.0295       595.1373
       271.4410       12.81096       2.794800       215.6309       497.1404
       695.9377       553.8008       202.5543       226.2047       236.9728
       58.44861       238.5103       631.8467       584.0676       266.2101
       44.68726       191.3730       612.2554       661.0656       225.2814
      -288.0910      -351.8021       119.6663       517.9113       462.7449
       151.6462      -66.24640       135.3788       335.6235       186.5837
      -91.17012      -83.81323       265.5692      -53.28351      -288.7435
       12.06561      -262.9390      -400.5486      -438.3726      -717.3613
      -384.2395       288.1155       603.1625       323.8687      -260.2419
      -517.6162      -447.2722      -443.7076      -286.7939       90.34650
