     0.02500000      -2200.087       1809.747      -12345.00      -12345.00
      -29.99499       224.9050      -27.32000      -12345.00      -12345.00
       0.000000       20.15000      -12345.00      -12345.00      -12345.00
      -12345.00      -12345.00      -12345.00      -12345.00      -12345.00
      -12345.00      -12345.00      -12345.00      -12345.00      -12345.00
      -12345.00      -12345.00      -12345.00      -12345.00      -12345.00
      -12345.00      -29.95960      -69.63990       5051.000       0.000000
      -31.24600      -68.98500       0.000000       102400.0       0.000000
      -12345.00      -12345.00      -12345.00      -12345.00      -12345.00
      -12345.00      -12345.00      -12345.00      -12345.00      -12345.00
       155.8293       336.0659       156.3977       1.401038      -12345.00
      -12345.00     0.02756599       0.000000       0.000000      -12345.00
      -12345.00      -12345.00      -12345.00      -12345.00      -12345.00
      -12345.00      -12345.00      -12345.00      -12345.00      -12345.00
      2008        16        21        18         4
        20         6    -12345    -12345     10197
    -12345    -12345    -12345    -12345    -12345
         1         7        13    -12345    -12345
    -12345    -12345    -12345    -12345    -12345
    -12345    -12345    -12345    -12345    -12345
    -12345    -12345    -12345    -12345    -12345
         1         1         1         1         1
CORT    -12345          
        -12345  -12345  
-12345  -12345  -12345  
-12345  -12345  -12345  
-12345  -12345  -12345  
-12345  -12345  -12345  
-12345  -12345  BHZ     
ZL      -12345  -12345  
[...]
       95.06458      -369.7495      -458.4366       29.94977       59.96228
      -287.1463      -144.4367       34.96771      -183.9299      -213.4103
      -235.8738      -256.6649      -19.37860       307.4914       298.3368
      -52.18872      -447.1517      -519.3328       109.2566       302.3495
      -346.2462      -178.0952       623.5739       473.8196      -465.6045
      -417.0533       166.1681      -64.36244      -174.5939       171.4263
       298.7047      -34.22180      -257.1857       37.35393       125.7034
      -150.6971      -228.2898       61.82587      -23.37442      -187.0110
       331.2681       50.26392      -553.2642      -33.62500      -14.09778
      -457.6119       131.9626       514.5977      -94.52246      -315.0613
      -363.8604      -121.8255       506.1845       10.33936      -749.3799
      -264.9554       266.8239       37.52139       45.31000       38.21210
      -324.8607      -71.48779      -119.0873      -358.2456      -53.66489
      -23.40686      -62.43329      -189.9493      -259.7452       166.2286
       11.58691      -412.7466      -165.9173      -41.74866      -135.2341
      -297.5072      -357.6713       35.20160       132.9195      -179.8990
      -507.6788      -344.7676       61.42343      -39.47838      -17.43835
      -66.89325      -375.3048      -107.8376       22.00244      -282.5218
      -90.60718       54.96863      -310.0986      -225.5902       46.65060
      -82.17316      -251.6488       12.85046      -87.44400      -253.6895
       146.1965       48.53696      -154.5992      -116.8248       6.001556
       166.7560       16.10474       10.91563       75.88196      -191.3401
      -294.7573       274.6943       405.1284      -111.9913      -68.58344
       193.2713       187.9272       228.6639       168.5156      -18.69019
       185.3536       289.7098       46.29898       36.81604       52.08447
       189.8236       425.5541       302.3506       178.9489       145.7672
       215.9167       331.6821       179.4814       441.5536       686.4508
       276.1074       77.12915       264.1675       537.7825       537.6100
       303.6907       171.0775       303.8307       458.0106       446.6757
       598.4927       848.2728       707.1165       214.4710       76.94446
       294.3381       419.7705       277.7280       349.7488       632.3165
       556.7085       653.1229       661.7280       193.6824       178.6262
       424.1914       444.8879       499.3772       694.6560       658.4888
       211.7808       106.4202       560.2633       572.7736       328.4090
       274.9967       441.6399       811.3949       448.3774       308.8132
       614.3166       177.4100       39.72754       665.0309       784.9786
       292.7600       241.2371       356.8140       212.9764       322.4630
       442.8787       483.4672       429.5568       293.4628       299.7784
       219.9461       290.5925       324.7328       180.5143       365.8792
       512.4377       367.2883       266.4716       203.8940       179.3240
       179.7842       297.3149       283.6610       10.02341       52.90424
       107.2182       86.30640       235.5551       291.4707       259.4759
       29.83838      -179.3554       23.00882       102.7021      -55.14223
      -8.657387       54.08081      -173.7689      -244.0002      -58.71796
       67.78253       118.1411       101.7173      -9.021606      -323.9437
      -413.7296      -116.3452      -111.4984      -183.5211      -190.5204
      -339.0906      -353.9913      -266.2133      -149.4827      -117.0315
      -443.1012      -558.6389      -209.4184      -154.9498      -595.5290
      -461.1634       1.622498      -188.5785      -344.6949      -430.3195
      -554.0785      -355.9022      -400.7148      -460.7397      -335.8809
      -310.9734      -217.6248      -247.9823      -488.6141      -507.3938
      -477.8590      -508.2510      -458.0989      -489.4722      -547.1573
      -427.4989      -303.3428      -238.3470      -340.6514      -619.5516
      -541.0535      -331.2456      -428.8943      -543.9052      -438.1142
      -294.0905      -270.2693      -419.6096      -773.1531      -664.1994
      -254.4520      -417.3087      -709.2477      -338.0718      -228.8918
      -618.7417      -591.7375      -533.7260      -414.9429      -436.2339
      -711.2356      -665.0461      -444.8412      -159.3446      -271.3342
      -610.7949      -576.5623      -576.9463      -682.5117      -588.4406
      -390.1710      -181.2865      -384.5876      -522.7231      -402.9390
      -470.2290      -461.5153      -538.1228      -565.6658      -263.8199
      -114.1714      -359.2565      -482.8663      -375.4467      -487.9249
      -482.2231      -375.3828      -439.3517      -255.7553      -116.0869
      -413.0264      -411.0522      -314.8566      -353.9744      -169.9012
      -345.8941      -434.5457      -150.3120      -102.0738      -85.28674
      -336.3639      -291.1290       124.2195      -268.4542      -557.7999
       2.290558       273.9647      -124.9084      -368.1982      -73.37408
       143.7478      -317.7582      -461.7214       225.5351       226.7673
      -260.3931       109.9926       478.8959       14.41187      -182.6838
       42.48654      -138.6969      -84.55261       471.5170       405.8826
       5.101074       155.3685       328.0396       208.7100      -21.32227
       95.52063       501.8052       249.5436       73.01953       550.9171
       208.0816      -175.7361       396.7297       489.5608       215.8700
       310.3105       388.6583       383.7057       204.8889       220.0022
       614.9312       329.2109       170.4414       801.0364       558.1316
       140.8191       448.0288       374.9272       316.0339       557.1826
       535.2407       532.0767       619.5323       610.6908       415.6223
       566.8992       730.3704       338.2781       406.2103       706.5817
       337.4622       281.4211       715.0017       820.9138       703.0005
       325.1582       385.8008       835.9410       594.0304       429.1635
       562.7603       535.1379       678.3237       841.3668       555.9781
       379.6729       548.0305       627.3999       505.3082       362.4067
       639.4230       695.2231       488.1594       594.3188       558.6833
       633.0457       559.6658       515.8152       621.2678       281.3406
       322.2266       682.1528       505.6969       169.8967       322.6816
       667.1209       323.4312       255.1885       766.7262       557.5892
      -20.99475       211.4991       611.0350       325.9426       65.20435
       317.3042       481.9652       362.2874       368.9667       230.3096
       227.7263       385.0846       154.6305       231.1204       328.8145
       140.0282       150.3656       196.5315       96.94582      -26.60971
       82.51758       209.2053       95.07910      -23.91095       52.04694
       249.3391       135.2925      -106.6807      -212.0190      -170.1785
      -92.78107      -182.1266      -384.6947      -149.0277       88.99768
      -351.9208      -460.3115      -210.7967      -158.7446      -248.8997
      -436.8031      -288.1038      -455.4927      -887.5500      -491.6759
      -81.72388      -414.1965      -606.9351      -442.8345      -442.9053
      -730.8923      -819.8958      -419.2039      -301.6283      -572.9908
      -509.4128      -519.7747      -752.6445      -843.4170      -666.1832
      -631.4757      -609.4788      -235.4033      -558.4875      -870.7698
      -531.8943      -650.3153      -718.6475      -528.0630      -536.7957
      -558.6683      -572.5652      -698.6973      -574.8772      -436.8606
      -660.8564      -768.2938      -531.0847      -395.7155      -521.8269
      -529.3721      -417.7129      -551.3455      -607.8542      -461.4927
      -471.0123      -489.7485      -416.5018      -537.0581      -594.3622
      -405.8999      -243.5609      -399.9512      -582.5098      -409.8499
      -216.9126      -260.9114      -424.4702      -333.6823      -8.507202
      -169.3186      -400.3212      -309.0273      -189.0587      -47.76871
      -105.9687      -260.1599      -15.85583      -70.81323      -593.1510
      -384.6064       173.3366       184.0043       88.66411      -12.90970
      -160.3782      -191.6279      -132.4013       81.17622       72.26715
      -164.5481       21.73315       302.8310       151.7549       11.14132
      -18.21039       38.63351       147.9157       103.7197       182.5450
       345.5728       113.9388      -334.5171      -138.5459       125.8001
      -193.1672       39.53979       518.9679       289.3663       8.401367
       223.5715       388.2662       268.7482       372.9256       214.0967
       90.42212       398.4799       280.9473       94.98514       165.8072
       135.0775       318.0779       513.4722       276.4537       192.4094
       375.3302       251.8228       420.8395       544.5029       211.9047
       345.8799       387.6408       222.2632       264.4029       64.60291
       103.3372       496.2153       595.6476       382.4484       72.05780
       203.0126       548.1275       322.6106       312.8672       530.5081
       579.5570       534.2139       90.23425       127.7870       613.4020
       588.9285       229.1778       134.3955       518.6160       481.9838
       103.2794       66.13794       188.4650       492.8494       520.9412
       102.5593       260.4553       685.6156       321.4802      -122.1479
       9.155823       267.7745       209.7440       48.08955       79.76974
       35.41882       226.1801       251.0332      -29.27124       94.00342
       135.5950       133.8739       173.1693      -72.64546      -119.1708
       168.5086       304.0311      -76.33316      -262.9331       86.07980
       13.65846      -110.6602       221.7933       237.5292      -76.40375
      -201.2502      -109.8495      -50.68616      -66.35768      -41.29929
       114.3064       29.25221      -25.67734       107.1373      -56.35806
      -61.32486       159.7469       86.11121      -113.4713      -182.0664
       6.608780       24.67384      -13.22107      -195.3146      -377.4458
       17.12201       103.0197      -320.9705      -306.1654      -10.43927
       80.00623       252.3119       86.11105      -229.0163      -45.20276
      -294.2103      -526.3461       68.16714       157.9416      -441.0946
      -77.46472       333.6623      -89.28760      -247.2849      -201.7502
      -125.2924      -96.43683      -209.2068      -231.4966      -282.3448
      -170.0219      -81.65274      -200.6110      -80.88005       8.961761
       53.16736      -139.0305      -480.2377      -104.4193       225.0135
      -91.82166      -338.9062      -325.4507      -70.02068       89.01538
      -195.3614      -255.2236      -67.42542      -140.4182      -378.3936
      -340.9010       14.39374       87.34277      -197.5503      -208.6165
       13.74973      -108.9380      -43.72058      -58.47729      -482.0182
      -348.3366       62.57880       36.10895      -101.1413      -67.34952
      -47.11923      -48.32593      -234.9809      -119.9572       229.4648
      -109.7494      -237.2584      -6.578613      -105.3859      -190.9011
      -237.3150      -27.76257       125.8279      -57.28600      -48.15091
       87.00204       118.9798       168.7597       48.21985      -241.7763
      -71.61798       199.1953       151.7831      -44.39569      -156.6060
       115.9260       246.8996      -19.33850       74.65887       126.0342
      -292.8632      -129.6711       368.8123       295.6342       94.02319
       210.8063       274.6462       121.1196       126.8520       337.1641
       233.0411       45.59369       209.4872       256.8439       168.9872
       150.6014       160.2560       233.7231       387.5377       302.9093
       36.41452      -24.47543       2.119934       156.1248       192.9865
      -116.6259      -241.8254      -186.0697      -75.45316      -63.07770
      -267.8047      -274.6053      -199.0146      -161.4690       141.6964
       182.9205   -0.004455566      -95.68341      -292.0335       39.54523
       406.2188       164.4284      -97.96667      -580.5291      -529.7570
       375.6929       561.3026       123.6022       317.2100       653.0370
       190.9119       325.7407       894.3209       655.2391       459.1902
      -185.9844      -981.5585       18.74194       845.8380      -380.5671
      -763.8741       153.7991       363.0342      -28.70404      -398.1758
      -193.7604       85.92018       75.97632      -373.9294      -1100.117
      -579.3586       381.1044      -319.0786      -808.6958       603.1313
       902.3392       199.1252       916.7798       1230.172      -729.0796
      -2200.087      -742.1110       482.0186       326.5952       874.6277
       276.4951      -1054.352       270.7605       1477.524      -263.3669
      -1015.898       463.8390       92.55493      -1492.280      -955.5623
       42.84946       60.06897      -420.1838      -926.2809      -534.4468
       473.7992       418.2477      -413.3910      -326.3000      -148.3926
       58.26363       237.0499      -245.7955      -227.7087      -224.7036
      -763.8401      -856.3916      -50.79150       615.1868      -200.7124
      -1053.223      -882.6055       186.3007       845.9873      -337.9543
      -1104.755      -786.7786      -332.3993       254.2954      -787.4048
      -1195.282       812.4790       1053.915      -570.6614      -716.6647
       220.4749       189.7039      -725.1076      -531.8086       507.3126
       257.0813      -164.5522      -81.28735       309.7576       584.7167
      -197.5000      -350.9629       490.4531       621.4559       236.5342
      -531.9579      -461.7719       616.5848      -116.3500      -878.5457
       315.9700       1382.804       1072.552       518.0319       442.2922
      -312.0434      -412.7098       598.5465       44.64624      -546.1330
       205.9559      -1.728394      -28.24219       1211.802       1019.897
       288.3473       202.9188       149.2800       563.7984       403.4273
      -13.00980      -280.0090       339.1211       921.8755       309.6169
       233.2805       728.8271       1231.320       1357.668       667.4803
      -344.4241      -334.5664       605.9725       604.8177       199.7329
       503.5029       585.2271       495.6228      -122.7131      -546.3281
       691.2998       1809.747       1568.799       455.0425      -123.9373
      -189.6552      -363.1379      -2.516113       998.2490       1674.737
       820.1429       159.1506      -92.21851      -375.3010       307.7939
       777.3997       669.9251       283.3032       232.3267       608.9840
       435.5659       143.2286       222.0122       413.1311       477.0563
       289.3181      -22.59460      -411.4531       226.0759       944.5182
       115.2070      -186.5449       53.69275       3.038818       652.1870
       720.2614      -348.8935      -273.6974       32.33423      -688.5876
      -205.0472       507.4486       310.5609      -147.0529      -315.3894
       329.0032       463.9513       193.5868       166.0546      -306.0112
      -703.1292      -251.8002      -124.4395      -661.5011      -751.2516
      -173.5330       196.9163      -400.0557      -508.0703      -244.0999
      -515.4630      -362.5393      -368.2469      -534.1942      -182.8032
      -52.12280      -506.6370      -906.8080      -548.6057      -259.5328
      -471.0891      -617.8696      -892.0546      -655.5200      -223.0468
      -670.3823      -578.6996      -328.5002      -799.3749      -489.7817
      -60.98914      -420.5693      -774.2008      -391.8241      -20.37085
      -333.8308      -395.7819      -381.8203      -358.5977      -577.0198
      -822.1619      -706.1390      -722.9679      -489.1682      -390.5205
      -673.4243      -868.9014      -774.3069      -638.8422      -691.3774
      -605.7402      -444.0010      -665.0940      -1018.355      -922.9733
      -716.7051      -486.5144      -586.0669      -782.8026      -512.6639
      -323.9320       12.33502      -13.88904      -694.0382      -654.1854
      -411.2053      -501.5520      -471.7096      -358.7079      -121.8267
      -332.9218      -729.2505      -588.2095      -326.7335      -352.1472
      -312.0266      -278.6174      -484.8501      -520.5347      -414.6475
      -456.9629      -457.0924      -324.7285      -394.4221      -540.7045
      -373.0289      -98.80505      -122.7846      -325.6796      -203.8643
      -133.3744      -465.0551      -185.6523       372.0988       379.1797
       209.2048       285.4971       381.4414       71.01810      -39.98515
       168.7941      -109.4738      -254.2329       193.6854       288.1144
       237.5278       433.8425       261.1343       138.7986       371.8464
       301.8877      -4.752197      -3.485352       335.3291       437.2113
       46.55756      -55.72784       259.6295       488.2500       355.9117
      -173.0231      -329.2904       370.3940       870.2861       748.2262
       319.8703      -60.79532       132.3592       164.6587       247.9884
       529.6283       210.7084       181.6628       366.9606       161.2798
       391.9918       667.9302       530.2761       191.4385       64.76947
       283.8356       185.0300       53.29932       333.8625       471.8093
       253.8182       336.6802       443.8909       380.7179       407.2292
       359.4918       475.5066       819.7576       703.6312       266.9261
       288.0129       390.2672       386.8002       344.5045       234.2555
       469.2190       607.5349       507.6917       494.5941       274.7881
       119.0630       201.1125       247.3430       269.9530       490.9778
       706.8694       529.5868       429.9685       594.2632       614.4393
       537.9497       468.3146       300.5292       264.4025       393.4121
       317.6444       396.1570       799.9453       774.3515       214.6561
      -193.1370      -172.3020      -36.66577       265.3489       510.6902
       354.0720       345.8267       530.8855       352.9347      -148.6875
       137.9009       696.2056       367.5057       291.1420       398.3694
      -42.60474       182.2485       723.6846       225.4237      -234.5519
