     0.02500000      -7250.357       5570.021      -12345.00      -12345.00
      -29.99498       215.1550      -15.92000      -12345.00      -12345.00
       0.000000       12.07000      -12345.00      -12345.00      -12345.00
      -12345.00      -12345.00      -12345.00      -12345.00      -12345.00
      -12345.00      -12345.00      -12345.00      -12345.00      -12345.00
      -12345.00      -12345.00      -12345.00      -12345.00      -12345.00
      -12345.00      -31.32870      -68.47560       746.0000       0.000000
      -31.24600      -68.98500       0.000000       102400.0       0.000000
      -12345.00      -12345.00      -12345.00      -12345.00      -12345.00
      -12345.00      -12345.00      -12345.00      -12345.00      -12345.00
       49.36253       100.8365       280.5732      0.4438283      -12345.00
      -12345.00     -0.1354751       90.00000       90.00000      -12345.00
      -12345.00      -12345.00      -12345.00      -12345.00      -12345.00
      -12345.00      -12345.00      -12345.00      -12345.00      -12345.00
      2008        16        21        17        52
       620         6    -12345    -12345      9807
    -12345    -12345    -12345    -12345    -12345
         1         7        13    -12345    -12345
    -12345    -12345    -12345    -12345    -12345
    -12345    -12345    -12345    -12345    -12345
    -12345    -12345    -12345    -12345    -12345
         1         1         1         1         1
LAJA    -12345          
        -12345  -12345  
-12345  -12345  -12345  
-12345  -12345  -12345  
-12345  -12345  -12345  
-12345  -12345  -12345  
-12345  -12345  BHE     
ZL      -12345  -12345  
[...]
      -388.4735      -352.0026      -348.0176      -353.6763      -338.5078
      -361.8208      -395.1154      -421.7601      -454.8452      -484.8362
      -488.9128      -490.4293      -477.2224      -465.4094      -454.0149
      -435.6195      -428.0762      -430.4730      -406.1567      -415.1267
      -448.1929      -461.3818      -478.0933      -502.7665      -515.4302
      -539.1711      -540.5908      -523.8734      -535.2632      -530.5525
      -489.5865      -471.7335      -454.3489      -419.6406      -397.0085
      -384.4325      -366.3431      -361.6372      -345.6997      -340.0079
      -359.4773      -376.3279      -371.7535      -378.0302      -385.9420
      -368.9668      -350.3269      -325.7574      -291.5016      -270.8561
      -233.3123      -197.9454      -193.5452      -191.8119      -166.5145
      -173.7256      -195.4443      -202.9822      -217.3607      -229.2161
      -213.1987      -218.6502      -212.6908      -200.7136      -193.2507
      -164.1668      -133.1135      -118.8309      -70.23199      -44.59473
      -58.68460      -50.56570      -54.26721      -96.09943      -122.0844
      -141.2138      -173.8369      -188.7006      -194.1335      -187.8919
      -151.5356      -126.0703      -99.12315      -51.70074      -31.72507
      -30.37094       2.661968       5.519936      -19.60593      -28.57863
      -38.34293      -52.98660      -54.86960      -75.65649      -65.15928
      -33.19098      -15.02827      -1.196022       28.47984       37.16296
       46.37390       54.88278       64.45062       81.97641       95.16479
       105.8412       136.8525       154.8621       159.9572       162.5472
       173.3929       172.3117       177.3058       180.5477       187.3157
       195.1818       216.3771       232.9192       246.9902       258.3290
       286.8091       299.9786       309.3009       320.6052       329.9628
       329.2594       335.2163       342.1781       343.5424       354.6167
       364.1851       364.9542       355.4178       349.3235       352.7783
       345.8965       325.8469       305.7593       293.8650       276.6461
       271.9449       276.7334       277.1198       287.3129       319.2611
       336.4741       343.4846       339.6599       338.6892       321.0179
       298.0167       290.8828       289.7656       258.0033       243.5557
       248.3890       253.0116       268.5695       292.7426       306.0526
       327.5886       347.6404       355.3389       354.9425       344.7906
       324.6296       315.2275       299.0679       284.1018       270.9558
       248.0435       227.0161       230.4125       220.8520       216.3297
       220.5178       230.3521       241.5221       239.4542       240.8496
       245.5917       233.5122       206.4171       196.7286       172.8329
       147.3689       128.7003       122.5908       102.1780       83.58795
       65.21619       47.47729       28.84349       31.43529       49.23071
       47.07095       42.32013       54.64606       62.90530       64.52997
       64.16765       48.80798       33.48036       9.847168      -21.11357
      -56.21722      -82.07553      -99.92300      -116.3284      -119.4533
      -121.9835      -130.8538      -147.3969      -135.5214      -125.7025
      -134.7261      -146.2733      -147.5098      -167.6589      -184.5842
      -194.6432      -225.2941      -254.5974      -264.0039      -280.6241
      -296.9772      -294.0383      -290.8900      -303.0256      -318.0856
      -311.5452      -306.9855      -310.0981      -310.8215      -312.2517
      -322.0604      -322.1898      -318.0452      -340.4974      -368.0996
      -368.0396      -361.3932      -362.2701      -343.6841      -303.4257
      -273.0126      -245.0834      -204.4675      -161.1515      -158.3685
      -161.5661      -142.4527      -127.8723      -144.8281      -156.6638
      -150.1116      -149.5369      -168.0287      -162.6162      -148.7896
      -181.1752      -233.8729      -281.4481      -305.2894      -239.0993
      -125.5488      -50.38350      -4.369324      -84.49770      -162.2695
       101.7869       527.0203       743.7903       790.2533       683.4963
       160.9666      -144.2639       466.6372       716.5706       474.3759
       572.1786       262.5326      -376.5709      -380.5526      -113.4188
      -219.5433       14.04102       375.5778       445.9886       630.4249
       80.36255      -506.0774       394.7141       1444.209       1082.416
       677.4919       1252.565       172.9839      -1951.163      -1407.701
      -236.4797      -412.6316       431.2002       1420.217       912.0012
       904.6913       966.4745      -17.89392      -410.7688       191.0673
       416.0327      -542.4590      -825.4014      -6.209717      -428.7394
      -804.0005       803.5996       1843.027       807.7991      -121.8260
      -289.0920      -931.8540      -1113.368      -55.70911       641.0011
       519.7196       107.4399      -694.8326      -563.2504       320.9001
       388.4146       274.6846      -344.4197      -1119.223      -56.91772
       912.1661      -31.15210      -532.5129      -254.0299      -630.9392
      -367.6550       399.1350       238.0259       127.8002       331.8951
       6.107666      -555.6345      -587.4274      -342.1062      -606.3802
      -612.6013       297.1071       636.2654       160.2325       112.3958
      -84.53870      -450.8204      -480.0631      -150.9691       460.9099
       649.9996       377.1599      -351.1345      -843.0991      -451.9529
      -228.9943       5.170166       522.4119       198.6132      -563.2435
      -431.1195       76.18423       155.1333       24.61053      -291.6435
      -358.6155       132.3485       286.1266       110.3022      -34.70532
      -347.7137      -266.3439       293.5187       259.4850      -10.27850
       402.4066       159.9055      -514.3904       118.0615       558.0857
      -177.3431      -696.0237      -261.3219       227.6948       199.6187
       158.4538       17.52551      -381.1776      -399.6399      -234.6906
      -523.9756      -606.6118      -364.8965      -248.1081      -18.72510
       106.6187       36.27148      -93.14104      -6.687366       49.53299
      -41.84082       190.6464       362.1127      -94.01904      -515.7827
      -299.4782      -41.48340      -86.08247      -3.236671       47.96277
      -205.9772      -197.8226       81.79443       324.3239       631.3580
       443.9748      -74.44101      -218.9246       96.36877       359.8223
       229.7104       181.2083       194.3936      -209.9539      -269.4581
       171.5410       307.4933       291.5419       370.3926       393.0979
       251.5015       5.987854      -38.26874      -86.68060      -99.78476
      -48.36621      -180.5771      -238.9139       168.9531       474.8445
       152.5656       35.45593       446.2295       456.5774       158.8456
       27.56769      -294.7260      -336.2326       271.9551       280.3364
       368.9082       1093.759       734.8029      -40.37830       83.85010
       264.2388       48.18188      -289.1180      -567.2427      -498.1936
      -63.12048       199.6528       240.4177       286.7465       224.0247
      -36.39624      -355.8005      -562.2133      -505.0145      -329.6167
      -336.1833      -505.3567      -156.5154       168.5165      -308.1806
      -282.3830       315.0743       100.1549      -136.8991      -75.24719
      -456.9807      -743.6027      -407.1854      -126.2965      -102.2658
      -40.93127      -173.8950      -694.1646      -943.4109      -601.2228
      -130.8690       54.71204      -210.5593      -216.6817       86.00830
      -232.1792      -493.5916      -351.2982      -285.1915      -218.3147
      -341.7871      -886.4917      -1323.097      -1045.368      -194.4120
       237.8271       158.3635       45.89172      -151.4645      -270.6807
      -401.7094      -502.2753      -146.1830      -190.9786      -577.5188
      -90.14661       506.0757       20.84167      -434.9317      -134.7318
      -123.0630      -355.3824      -109.6202       31.09613       15.91190
       126.5770       54.68427      -56.81683      -74.95801      -177.6635
      -171.7221       98.01080       304.7409       78.80124      -57.18683
      -23.65417      -142.9604      -118.6895       3.299713      -14.32855
       122.7771       462.5764       670.3975       463.9801       67.27087
      -241.3660      -320.4585      -117.0853       358.7080       673.5601
       484.3984       358.0995       141.7721      -53.75928       342.8419
       138.3633      -228.7971       389.1638       734.9017       523.0687
       509.6736       318.4832       62.78784       258.4131       595.7261
       535.3192       370.1339       81.67603      -290.5911      -151.0062
       309.8398       482.0121       351.1780       60.42307      -52.47119
       379.2166       829.3020       799.7916       693.4817       478.7242
       166.6343      -8.757614      -127.2746       74.20630       380.8405
       296.1111       362.7390       618.4001       537.5508       182.2405
       106.4222       262.0266       25.60233      -70.33057       449.0879
       512.6185       113.3829       101.5410       135.0951       215.3384
       457.4106       335.6332       281.8367       193.5462      -121.6295
       77.57312       215.2402       208.3326       652.3588       462.6414
      -145.9023       85.73364       450.4226       561.3484       650.1694
       223.2450      -189.4065      -65.80298       380.2634       409.3818
      -384.1893      -405.7953       357.3065       214.8961       30.40173
       322.6772       98.42590       22.66199       207.3405       70.29401
       158.8920       135.2376      -222.4908      -303.0255       2.568695
       131.7539      -12.10046       149.9892       337.0083       179.6406
       273.4830       420.5087       160.8475       51.54901      -53.63696
      -459.4790      -605.2572      -441.2341      -365.2808      -346.9548
       77.81580       338.1871      -156.4850      -570.6803      -288.1054
       88.09407       97.82935      -270.5088      -608.5347      -349.6023
       95.04474       174.1085       87.83765      -156.6245      -592.9536
      -929.8239      -536.3215       107.2505       17.41443      -356.6836
      -436.6626      -558.0222      -556.0208      -263.8094      -179.9286
      -349.5763      -552.7778      -737.4916      -536.6833      -249.9901
      -356.7927      -473.2362      -399.9962      -391.4841      -320.2113
      -267.2599      -302.3054      -394.5016      -453.5864      -252.0140
      -94.03259      -353.0042      -503.2133      -535.0109      -428.1311
      -7.162781      -50.31836      -356.9580      -385.5334      -575.5865
      -338.3908       145.8631       5.692974      -53.49011       43.33582
      -233.5569      -492.5964      -945.8711      -895.2471       31.93457
       317.3101       465.8601       856.6363       316.0696      -436.8199
      -658.5132      -503.5942      -418.2278      -134.9175       379.7701
       235.3228       70.70026       49.66870      -369.9677      -383.2274
      -44.60925       196.4111       1227.226       2232.593       1760.399
       1258.537       1256.475       897.6609       726.6914       918.0115
       907.7833       386.0687      -307.7534      -533.5881      -469.0012
      -140.7216       261.6619       448.2900       1245.235       1866.545
       402.1919      -1542.751      -1945.316      -1524.895      -1110.168
      -1197.844      -1543.187      -978.1597       487.1680       2734.241
       5258.147       4942.879       2364.733       1519.535       1086.722
      -319.1255      -1743.774      -4030.540      -4597.025      -2321.386
      -1113.935       1124.795       5337.262       5339.471       1133.277
      -1431.914       540.5706       2554.588      -1125.793      -5650.850
      -5887.658      -3122.633       628.1036       542.7395      -257.9570
       3222.328       4841.077       4006.937       3457.468      -12.95508
      -4277.625      -2574.195       2232.544       2360.162       405.7461
       2024.520       2166.444      -1588.885      -3048.521      -2401.749
      -2027.903       222.0557       3829.093       4157.638       685.8008
      -2661.518      -4604.275      -2770.087       1288.735       732.6621
      -2610.981      -2108.630       1960.238       5456.225       4616.606
       482.4155      -839.2178       1855.271       3531.200       958.4307
      -2602.558      -4571.815      -4450.562      -1569.627      -1234.237
      -4086.873      -3107.939       261.6108       1561.068       2461.875
       2442.293       1432.146       2362.982       2353.500      -2920.375
      -7250.357      -3984.236       442.3818       1587.181       2534.721
       2610.381       1372.712       1113.424       1085.653      -656.3105
      -1876.776      -1790.059      -2459.567      -2683.357      -1347.306
      -64.67883       671.3042       18.00391      -2322.043      -3188.199
      -1377.062       90.04297       635.5566       1038.436       309.9246
      -255.2778       35.17627       170.8564       954.2007       2036.972
       2036.950       1935.218       2018.899       236.8213      -2696.648
      -4407.897      -4071.552      -2202.339      -358.7402      -111.1885
      -1610.194      -2360.746      -720.8361       174.7637      -1734.523
      -3319.551      -2433.015       94.55176       3675.838       5570.021
       3477.914       552.5540      -428.9158      -945.1155      -865.6244
       179.6536      -397.8047      -2223.050      -2198.819      -953.4761
       168.5195       2150.987       4076.680       3631.291       1352.464
      -440.5208      -1026.125      -1807.871      -2351.330      -1759.619
      -2268.559      -4072.904      -4219.467      -1861.724       1311.875
       3129.821       2721.651       1506.413       1164.105       909.2886
       226.2063      -201.0928       687.2842       2747.168       3160.312
       1537.793      -462.6235      -2002.027      -1540.629       424.4114
       648.7549      -1633.557      -3070.432      -1071.534       1186.653
       86.29028      -913.1005       199.2342       446.8270       126.3912
       518.5314      -14.21191      -1194.444      -625.7064       439.9421
       496.7114       1225.631       2133.114       2007.037       1589.784
       947.3823      -545.4009      -1564.875      -685.1340       708.8145
       1224.248       256.2969      -1721.991      -2340.728      -457.5146
       2100.623       2471.040       866.7728      -109.4497       33.35693
       141.8099       59.55630       111.2611       260.8556       383.7871
       677.8699       976.6636       992.7261       918.4199       819.9376
      -42.12598      -1547.543      -1684.080      -178.0520       811.7637
       547.9147      -57.97041      -203.1365       236.7717       745.1117
       464.0783       10.11865       344.5212       683.3197       544.9082
       686.5533       286.2419      -966.5779      -800.0691       774.1038
       1365.170       1133.294       882.0540       224.3228      -421.7173
      -672.4403      -411.5034       644.0742       1213.973       553.7918
       94.73834       32.45093      -368.8954      -50.67188       1002.578
       932.2844      -41.83319       24.95898       731.8291       1194.248
       1244.105       516.7629      -679.6426      -1129.014      -705.9866
      -732.3950      -864.9323      -561.1615      -417.0359      -261.6417
      -308.4947      -62.55627       605.2021       219.4622      -678.8625
      -532.8352       55.03671       190.8837      -86.50317      -136.7795
       360.1438       760.3875       620.8418       930.8833       1411.735
       638.4198      -323.3469      -273.6287      -24.24010       95.40491
      -137.8135      -877.7095      -1261.412      -1207.892      -1062.803
      -805.5559      -1119.164      -1333.204      -985.0076      -463.4769
       271.1516       627.8895       608.1260       578.4458       397.0305
       361.6429       104.0284      -376.5150      -515.2095      -409.4940
      -352.7773      -450.3500      -502.0686      -488.6329      -438.0203
      -1.204590       549.9006       720.3442       556.8403       497.8049
       284.5128      -94.89249      -145.2716      -28.36047       176.6606
       174.5072      -499.5447      -1084.978      -1329.270      -1301.623
      -798.8978      -31.28699       516.1218       619.1265       360.6824
      -11.43994      -364.2075      -607.8140      -347.0033       298.8683
       560.6190       160.6047      -749.6631      -1248.926      -538.7238
       391.6713       361.8065      -104.7978      -255.1023       282.0559
       793.2700       490.0646      -215.6035      -673.1265      -308.7000
       165.7054      -101.7655      -44.75946      -37.00586      -458.1404
      -197.9170       458.1558       1174.982       1716.029       997.3604
      -370.8464      -938.7759      -686.4692      -40.59424       351.2226
       4.925903      -418.0563      -558.6298      -126.9319       743.6770
       965.8495       341.1824      -114.7311       192.1626       955.5742
       1174.406       594.7560       88.42331      -25.46533      0.5598755
       139.5039      -105.4800      -474.2535       80.61548       695.3753
       437.7704      -88.07690      -402.6409      -304.1917      -94.38843
       290.1222       613.1725       130.0510      -491.6469      -590.2203
      -521.9341      -319.5034      -242.1534      -331.3480      -274.2223
      -57.36816       136.1869       124.1526       382.8118       882.2002
       773.8259       627.4395       1107.004       1461.146       1265.594
       553.4639      -515.4688      -1037.816      -662.3967       69.27563
       529.6536       258.4622      -506.7852      -1250.947      -1419.011
      -751.1621      -154.7445      -113.6873      -371.1804      -676.0123
      -520.0281      -35.24475       266.5261       255.4584       177.4655
       355.7341       439.6149       81.90747      -335.1824      -303.2852
      -143.8014       211.9014       937.7532       999.8426       116.7473
      -315.7127       95.82138       28.96451      -245.7404       4.803223
