     0.02500000      -7526.082       6311.005      -12345.00      -12345.00
      -29.99498       215.1550      -15.92000      -12345.00      -12345.00
       0.000000       12.07000      -12345.00      -12345.00      -12345.00
      -12345.00      -12345.00      -12345.00      -12345.00      -12345.00
      -12345.00      -12345.00      -12345.00      -12345.00      -12345.00
      -12345.00      -12345.00      -12345.00      -12345.00      -12345.00
      -12345.00      -31.32870      -68.47560       746.0000       0.000000
      -31.24600      -68.98500       0.000000       102400.0       0.000000
      -12345.00      -12345.00      -12345.00      -12345.00      -12345.00
      -12345.00      -12345.00      -12345.00      -12345.00      -12345.00
       49.36253       100.8365       280.5732      0.4438283      -12345.00
      -12345.00     -0.2001301       0.000000       0.000000      -12345.00
      -12345.00      -12345.00      -12345.00      -12345.00      -12345.00
      -12345.00      -12345.00      -12345.00      -12345.00      -12345.00
      2008        16        21        17        52
       620         6    -12345    -12345      9807
    -12345    -12345    -12345    -12345    -12345
         1         7        13    -12345    -12345
    -12345    -12345    -12345    -12345    -12345
    -12345    -12345    -12345    -12345    -12345
    -12345    -12345    -12345    -12345    -12345
         1         1         1         1         1
LAJA    -12345          
        -12345  -12345  
-12345  -12345  -12345  
-12345  -12345  -12345  
-12345  -12345  -12345  
-12345  -12345  -12345  
-12345  -12345  BHZ     
ZL      -12345  -12345  
[...]
       613.1378       617.7734       599.9636       584.0013       584.1989
       594.4510       587.2899       580.1565       581.9353       583.7775
       573.9291       565.6246       564.9670       566.0601       554.9371
       557.1040       569.4333       565.4758       540.6892       526.8423
       514.9346       481.7172       443.3992       424.2598       406.7797
       386.5179       373.8400       373.7938       379.0930       382.6602
       371.7014       356.9812       353.9891       350.1483       322.7256
       294.3047       260.9819       222.5650       197.5122       176.6595
       140.0735       101.1919       87.73703       93.58435       85.81750
       87.54691       89.50826       81.18538       69.01349       59.08481
       36.83327       1.136108      -39.21976      -61.84503      -97.85391
      -138.7072      -159.7122      -174.8600      -189.8870      -200.1490
      -211.3262      -205.5223      -197.3577      -193.9044      -208.7411
      -228.6138      -248.7413      -281.8695      -314.8610      -318.0364
      -337.5176      -368.4635      -381.5814      -393.2783      -402.6283
      -394.2303      -374.9496      -361.0256      -375.4762      -375.3314
      -373.7769      -401.6128      -431.7867      -431.3258      -450.6488
      -483.9043      -498.7469      -491.9457      -502.7699      -521.1372
      -508.5953      -487.7844      -485.9116      -478.7167      -460.4290
      -455.8333      -459.5698      -456.0145      -457.3784      -447.1925
      -440.6219      -454.4650      -468.6846      -462.6716      -454.2310
      -447.4382      -430.2355      -400.8220      -380.6101      -358.5872
      -331.1792      -303.2537      -293.2753      -284.1815      -276.0309
      -284.2914      -286.7263      -274.9939      -272.7568      -275.5186
      -260.4064      -239.7750      -221.2728      -217.9341      -194.3698
      -157.9523      -130.3898      -112.1472      -95.76639      -92.55746
      -84.41299      -70.96939      -77.02454      -83.72491      -78.41563
      -69.71899      -67.49144      -63.56088      -51.02761      -36.81240
      -25.70854      -16.41413      -8.169241       4.542866       14.80169
       14.65596       8.267319       11.11951       29.80368       29.20396
       36.08508       41.97130       49.56778       57.15762       79.76978
       79.55377       72.06616       69.24310       76.48926       73.98611
       75.95563       76.29796       79.57419       73.18991       78.94995
       95.48032       110.1063       113.9370       133.9932       149.2962
       160.9602       164.9019       167.1117       172.6185       187.4050
       190.2650       199.4066       194.9500       199.7783       205.7786
       201.3243       193.1237       203.5364       213.1121       217.3898
       225.9170       245.3064       252.3279       259.6461       273.9087
       276.7100       271.4563       271.1027       289.9631       277.4565
       250.2764       259.0328       264.9127       253.0969       265.0588
       270.7500       261.7830       273.8485       280.8129       273.4757
       282.9318       296.6174       274.6989       264.9043       275.1436
       279.4581       279.3450       281.3241       272.8669       257.7048
       256.9234       257.8024       251.2822       243.0121       237.0919
       230.7532       238.1586       248.4370       225.6495       210.2318
       231.2615       232.0190       202.0223       200.5007       203.5450
       177.3308       150.6064       167.4968       162.7628       134.8346
       120.0129       114.4717       88.14972       85.11990       97.33768
       66.82721       37.04736       61.55824       75.36493       55.38199
       62.31975       71.08989       44.42329       17.92598       21.15838
       7.843307      -13.39035      -31.85979      -55.71033      -80.90662
      -91.92084      -98.01526      -121.2527      -118.1794      -105.4568
      -106.4676      -96.97610      -72.76373      -84.80087      -97.16107
      -92.45306      -101.6136      -130.3428      -135.6625      -153.1666
      -184.4576      -185.4309      -188.0612      -206.3657      -209.2161
      -188.0649      -174.9125      -178.3237      -162.2224      -134.1268
      -141.7476      -165.5256      -155.7047      -153.9766      -167.3970
      -181.0752      -195.1371      -211.7423      -218.1128      -222.1077
      -213.1281      -212.4672      -203.4906      -182.5223      -175.0802
      -167.2757      -149.1652      -155.1281      -174.2772      -183.6465
      -237.3304      -373.7041      -607.1729      -829.6443      -773.2001
      -369.7273      -140.3640      -488.1670      -868.4575      -454.0623
       353.3730       716.0215       1406.136       1771.032      -121.1962
      -691.7963       76.32202      -953.1938       245.4036       1510.763
      -1906.735      -3303.036       829.5411       1458.527      -1228.404
      -698.0551      -32.05371       1547.827       2549.940      -1110.796
      -2560.487      -466.1650      -1247.194      -997.4307       3034.891
       2634.296      -2433.802      -1917.248       2506.863       1599.901
      -2129.120      -1770.849       107.2289      -335.8718      -94.49890
       527.3650      -800.7183       29.26172       3652.705       1227.815
      -3904.311      -877.1885       2707.673      -965.1729      -2430.626
       990.9773       205.3429      -1228.363       1427.593       683.6436
      -1587.091       558.6003       1463.887      -46.24493       1.758545
      -321.7473      -648.5408       285.7810      -528.4317      -307.7747
       1498.823      -34.59473      -777.0574       467.0020      -689.0389
      -272.6560       1546.469      -617.1907      -1343.413       1299.453
       1163.586      -366.2111      -483.0262      -475.2264      -906.1757
      -15.42627       1204.339      -126.1414      -1491.188       533.9438
       2479.977       440.8039      -798.5657       733.5271      -201.9565
      -1486.648      -273.4871       205.9072       85.67188       1468.225
       1260.247      -1856.537      -1363.145       1447.989      -83.48743
      -462.2063       1540.308       461.8806      -1070.900      -460.4728
      -46.28883      -113.9580       119.9460       201.5208       656.0581
       330.0205      -668.7852       335.7134       1054.945      -836.8140
      -570.2590       874.1831      -1300.472      -515.4443       2755.929
       329.2034      -1670.269       927.0155       742.5950      -1203.285
       620.7197       1579.144      -543.2947      -1051.954       497.8812
       638.8939      -1057.667      -412.4338       1276.891       405.1220
      -276.2759       461.7439       114.7863      -186.8716       62.65634
      -289.2634       123.0503       954.9874       377.1524      -438.3679
       18.12750       215.8905       166.0494       466.4506       231.8908
      -91.62433       19.87427       518.9451       597.7979      -390.9462
      -718.0200       556.4836       1207.885       334.5151      -480.9573
      -431.5073       79.65961       391.1126      -250.6526       144.8125
       1300.311       65.25366      -694.1372       407.0239       549.1288
       80.03021      -104.4836       18.51471       253.3426       239.0831
      -35.75208      -541.1797      -18.81738       1176.060       661.3037
      -872.6450      -1311.661       403.7402       715.9313      -514.3186
       329.7725       540.1001      -169.3902       41.07751      -225.5454
      -677.2921       107.4991       601.1975      -306.5123      -455.2874
       111.2013       38.45657       35.54251       270.4801      -38.51833
      -86.26120       96.70654      -418.4199      -153.4028       519.6675
      -501.4661      -1116.006       439.4904       613.2832      -443.4832
      -516.5757      -367.4247       654.7122       502.3774      -1251.729
      -451.8137       845.3202      -253.0354      -767.5303      -87.54932
      -287.1050      -303.3799       1187.752       613.0854      -1726.554
      -511.2681       1331.233      -637.0122      -1281.258       731.2034
       607.7891      -305.2761      -772.1545      -903.7598       168.8959
       443.8350       280.2046       518.8076      -308.5647      -1102.534
      -233.2198       467.4699      -246.3826      -273.5739       583.8889
       295.5951      -511.5779      -263.4556      -266.2397      -535.5854
       216.3967       780.6528       360.6012      -478.1016      -521.6627
       259.4866       261.6014      -641.5422      -620.9927       707.7078
       671.0809      -250.8516       275.8553      -108.2701      -735.7515
       1122.906       1000.955      -1389.238      -305.1483       1306.152
      -591.3298      -941.5371       737.3096       111.2774      -251.7141
       606.9844       283.3905       97.05554      -83.54108      -465.5293
       95.40292       51.20276      -356.1008      -676.3965      -202.2635
       866.1260       2.637024      -132.2610       992.0562      -62.56470
      -917.4399      -105.8157       415.5318       270.9497      -74.52295
      -760.7656      -1300.313       415.8575       719.0193      -1080.573
      -23.37750       632.1184      -724.6647       214.2970       1093.237
      -598.2760      -331.2624       768.9514      -848.8358      -945.5004
       998.4609       628.4009      -385.4396      -350.9822      -393.6428
      -63.45874      -148.1852      -412.0249      -182.7197      -237.8143
      -389.7543      -156.2196       426.4440       462.5295      -182.5645
      -701.1204      -435.2647       114.4793       41.11517       304.5206
       25.14502      -965.7066       29.87317       632.3403      -712.3535
      -771.4794       268.2480       332.6472      -139.4093      -258.6298
       31.89984       43.30884      -429.4293      -511.3607      -305.2767
      -196.8611       38.19598       238.2332      -157.3630      -614.2034
      -420.8276       576.4581       516.3494      -870.9253      -423.0310
       108.2224      -391.8057       347.2285       687.1272      -371.3728
      -1116.401      -324.8845       1297.629       650.7726      -950.7751
      -96.60352       766.9901      -254.1963      -587.5864       305.5994
       520.3796      -172.2097      -905.8123      -50.37256       1132.358
       52.15479      -518.8831       500.9771       425.7916      -264.0888
      -161.6375       255.2811       166.3455      0.8506622       125.6822
      -264.7407       364.9240       1061.292      -425.1989      -675.3506
       828.9548       1167.575      -170.6370      -1156.204       543.0803
       1513.083      -150.4814      -619.4180       360.7283       835.4807
       186.1980      -166.1711       740.0893       643.3196      -669.5023
      -273.8042       1088.521       594.1438      -411.7970      -152.2458
       615.0954       519.1890      -92.52930       147.8792       675.7531
       425.8158       205.8210       245.9473      -56.62469       14.58218
      -108.2407       121.0171       1129.407       323.7756      -1114.329
      -32.68188       1186.499       413.0702       185.1801       136.8812
      -662.3704       217.7192       887.2292       7.092285       405.5770
       350.1145      -930.3881      -299.4200       698.4150      -209.3994
      -112.3049       1184.721       539.7524      -1167.745      -1295.760
      -42.45850       747.0881       887.4026       826.9548       591.0139
      -814.3491      -1706.836      -266.3158      -1.530151      -525.7246
       932.0590       1285.646      -817.6646      -658.7581       1517.190
       247.6040      -1756.770      -410.1102       35.15869      -672.8118
       123.4454      -151.8271      -445.8694       188.3596      -646.3474
      -226.8359       1549.449       564.8535      -1505.043      -1262.992
       73.82556      -335.3616      -738.0325      -138.0657      -788.1517
      -412.7080       1812.242       1674.776       81.79932      -1068.494
      -3000.103      -1494.643       2951.096       1833.333      -996.9094
       773.8711       1066.282      -1191.573      -1532.601      -986.7929
      -109.9893       792.6965      -548.8989      -2724.597      -2142.591
       1646.937       4006.224       1994.271       883.9590       2758.160
       2072.559      -1707.762      -3663.997      -3238.503      -2363.433
      -287.9812       1498.077       686.7268      -684.8694      -545.0078
       1417.831       3601.307       2718.406      -606.5170      -423.7710
       795.0166      -4839.957      -7457.324       611.1680       3226.815
      -3135.206      -402.6963       6311.005       2543.083      -835.9453
       2089.864       4058.473       1678.598      -3251.897      -1985.371
      -866.7012      -7526.082      -5160.543       2904.897       1186.736
      -1007.384      -12.48535       1493.581       3543.391       2063.551
       2090.587       1822.146      -3455.350      -2617.305       1779.100
      -1594.317      -4381.575       177.0874       2394.697      -2131.266
      -3668.973       1500.848       3786.940       301.5684       1210.692
       6249.213       3025.494      -4241.978      -4184.724      -2297.126
      -2332.860      -143.3313      -300.9497      -1689.505       973.9307
       2243.576       1837.836       2226.285       1352.952      -250.3242
      -1926.203      -2295.124      -679.9414      -954.2671      -2695.168
      -1196.812       1465.891       1273.388       38.97852       426.4536
       1540.808       1262.417       932.9507       1666.564       1505.018
      -773.3428      -3409.051      -2466.779      -1329.098      -1559.138
       1374.709       3387.132       2641.322       2176.895       35.83789
      -3406.530      -3156.580       725.6338       2560.083       2377.535
       1609.138      -419.1084      -1327.135      -851.1377      -211.1191
      -2390.196      -4167.358       785.7285       4613.726       2267.262
       1740.144       2588.376      -894.3506      -3390.509      -516.1985
       920.8722      -921.5846      -129.1185       823.8207       68.53564
       1609.088       2271.392       675.8956       666.3508       376.9478
      -1399.257      -1925.061      -1132.334      -434.8328       711.0752
       2262.352       2367.987       1021.310      -629.2197      -1050.354
      -447.7908       81.62500       2462.095       3752.323      -600.9790
      -2910.041      -699.6599      -267.7537      -657.5227      -1069.657
      -379.6000       762.2520       347.1096       502.3076       145.9999
      -588.5093       105.0605       1150.636       1956.268       1599.123
       151.9829       456.1155       904.7720      -912.3942      -599.0437
       1141.707       686.3263       860.8364      -231.6953      -3122.547
      -1624.278       887.6078       478.3494       625.8398       274.4291
       170.2515       1616.553       495.5266      -926.7864       891.1516
       489.6743      -2760.398      -1592.006       1418.730      -191.1885
      -1429.842       701.2681       1181.790      -377.9399      -622.3551
      -241.7480      -480.3631      -354.1857       179.2697       273.9994
       290.7928      -46.59534      -753.9044      -117.6332      -379.0393
      -587.7950       1029.918      -285.2202      -2327.593      -1547.483
      -790.8112      -447.1633      -293.2713      -99.68945       1171.297
       451.9653      -1305.555      -486.7446       361.6953      -341.7676
      -721.6649      -486.3193      -155.7688      -779.6489      -1904.296
      -929.8298      -416.4038      -2116.416      -1374.401       1087.673
       1489.821       1694.428       1450.300      -792.9463      -1723.683
      -1427.104      -1556.841       269.9000       1262.525      -1111.510
      -942.3149       1305.448       262.7288      -940.2176      -214.2498
      -534.2024      -987.1306      -124.0746      -75.71753      -1070.545
      -1246.424      -414.4824       758.4900       933.8342       349.8569
       483.4554       441.2432      -817.6526      -1260.836      -778.5800
      -565.7413       78.47131      -38.49939       104.2864       1169.532
       604.1021      -176.7623      -281.0765      -129.0061       242.6130
      -468.2169      -503.6902       216.1750      -75.76807       726.9648
       1507.532       293.8975      -614.5645      -867.4595      -1370.009
      -608.5060       581.3096       416.4692       800.2046       1385.675
       1017.719       771.9806       43.33887      -982.9348      -962.0455
       95.79736       956.2283       871.2534       1275.356       1989.064
       618.6858      -1167.547      -998.7329      -864.4775      -1046.448
      -340.0093       166.2146       740.1299       1480.076       1390.108
       419.0029      -503.1704       338.3621       1247.926       579.0639
       99.98615      -151.9169      -238.3816      -11.50452       229.1135
       1188.833       1498.695       587.5979       167.0861       179.6042
       793.1877       1347.570       78.21277      -667.5895       39.00427
       218.6436       162.0643      -47.73547      -306.9661      -217.2437
       130.4677       612.7002       781.7668       955.5796       501.2178
      -658.9348      -712.2236       107.6478       382.2492      -48.17822
       132.0278       887.7246       605.6752       156.7621       357.4768
       224.4147      -27.10795      -96.05188       120.9702       560.7064
       65.92944      -537.9241      -903.4041      -860.1472      -6.246948
       119.1949       405.6968       533.8412      -162.5157      -31.06152
      -222.3369      -364.0535       65.81299      -680.6372      -925.5769
      -310.1975      -438.0438      -183.7925       118.6162       177.4505
       329.5383      -310.0402      -438.8252      -91.26807      -467.3877
      -426.4822      -325.8507      -304.5038       82.21875      -898.5225
      -1806.321      -578.6212       254.0447      -367.1649      -289.1201
       312.8273      -232.7250      -822.8541       55.98694       1012.692
      -225.5244      -1481.274      -215.5293       933.9416       35.27563
      -778.2200      -587.3311      -886.4728      -889.2928      -36.48157
      -61.80243      -359.7134      -22.56403      -172.5355      -486.2334
