     0.02500000      -12240.63       12761.69      -12345.00      -12345.00
      -29.99498       215.1550      -15.92000      -12345.00      -12345.00
       0.000000       12.07000      -12345.00      -12345.00      -12345.00
      -12345.00      -12345.00      -12345.00      -12345.00      -12345.00
      -12345.00      -12345.00      -12345.00      -12345.00      -12345.00
      -12345.00      -12345.00      -12345.00      -12345.00      -12345.00
      -12345.00      -31.32870      -68.47560       746.0000       0.000000
      -31.24600      -68.98500       0.000000       102400.0       0.000000
      -12345.00      -12345.00      -12345.00      -12345.00      -12345.00
      -12345.00      -12345.00      -12345.00      -12345.00      -12345.00
       49.36253       100.8365       280.5732      0.4438283      -12345.00
      -12345.00     -0.5320696       0.000000       90.00000      -12345.00
      -12345.00      -12345.00      -12345.00      -12345.00      -12345.00
      -12345.00      -12345.00      -12345.00      -12345.00      -12345.00
      2008        16        21        17        52
       620         6    -12345    -12345      9807
    -12345    -12345    -12345    -12345    -12345
         1         7        13    -12345    -12345
    -12345    -12345    -12345    -12345    -12345
    -12345    -12345    -12345    -12345    -12345
    -12345    -12345    -12345    -12345    -12345
         1         1         1         1         1
LAJA    -12345          
        -12345  -12345  
-12345  -12345  -12345  
-12345  -12345  -12345  
-12345  -12345  -12345  
-12345  -12345  -12345  
-12345  -12345  BHN     
ZL      -12345  -12345  
[...]
       52.81638       66.18967       64.79047       94.32542       80.63626
       66.86485       52.76799       42.19186       1.680603      -32.72702
      -94.07065      -116.3736      -139.7557      -147.0666      -152.4717
      -126.9741      -125.3802      -95.81117      -72.72537      -55.27032
      -67.71259      -66.44640      -71.88745      -57.14694      -92.30856
      -127.2200      -154.2775      -164.0189      -190.7278      -177.5894
      -172.3638      -156.4135      -137.2515      -109.2759      -96.38184
      -73.44597      -78.35478      -53.09277      -56.35413      -87.90524
      -122.0329      -121.1657      -148.6277      -169.3154      -188.1136
      -176.2310      -138.4887      -107.1908      -95.28694      -38.42084
       4.565575       22.21938       34.43530       40.57915       20.64544
       22.48744       5.452396      -10.79295      -41.79871      -65.44983
      -71.92156      -27.98796      -10.93658       25.86285       94.73572
       170.0803       196.1390       219.5480       227.1083       232.2086
       207.4426       181.7809       134.7807       106.1002       81.29463
       62.26682       52.39284       68.39825       93.74652       154.5149
       210.8405       259.5233       298.6687       330.8756       329.6277
       337.2574       311.4844       278.1425       230.3651       185.1132
       130.6551       104.7346       75.01791       90.94897       115.4109
       125.1865       132.2867       176.6826       193.1175       217.4760
       231.7368       219.1839       187.8097       174.7458       133.8903
       92.10732       36.64145       7.883434      -2.954563      -5.608505
      -32.23694      -8.718018       3.513336       16.55615       33.63116
       61.36313       39.54060       50.15358       47.91703       37.03209
      0.4634857      -15.24016      -53.20303      -68.09604      -96.34332
      -99.16693      -125.7796      -132.6638      -130.8522      -125.9389
      -159.0004      -154.0029      -151.4321      -168.7409      -192.9511
      -176.0811      -187.6033      -202.2254      -230.1212      -217.9328
      -213.7687      -220.8816      -244.5508      -232.0901      -261.2158
      -283.6458      -305.4584      -312.9932      -355.0770      -368.3475
      -393.5941      -400.6643      -411.4346      -402.6440      -410.5327
      -397.8745      -405.5122      -400.1581      -416.9771      -417.3073
      -415.6533      -415.9026      -443.3486      -442.8295      -450.2456
      -459.9841      -493.4783      -499.8196      -516.2736      -525.2855
      -544.8610      -512.7800      -504.4412      -493.2241      -502.5012
      -475.1519      -473.3071      -476.1624      -506.4042      -510.4314
      -535.0383      -554.3788      -580.5471      -589.6089      -604.0334
      -575.7838      -548.9390      -516.0137      -496.8254      -450.9113
      -422.5015      -387.3850      -383.7454      -374.7079      -404.5923
      -425.3221      -447.7261      -441.7634      -473.1005      -467.3403
      -460.8865      -422.9766      -400.8927      -342.6359      -309.0570
      -260.9104      -235.1776      -202.3113      -208.6058      -197.6196
      -193.7428      -199.1628      -213.9338      -185.5143      -177.9351
      -170.2540      -153.3781      -91.81802      -58.10810      -12.51433
       25.82373       83.94284       109.9582       157.5060       172.1182
       188.6473       174.5778       193.8237       167.6627       167.2281
       170.9631       202.3028       202.3075       248.7296       287.7417
       317.1539       323.6912       378.9460       402.9688       412.9741
       409.9767       426.5250       414.7090       410.1281       389.2489
       398.0825       396.3992       425.4470       443.4797       486.3733
       505.7162       552.1538       571.8304       611.7573       618.2874
       635.3611       611.9974       605.9974       577.8892       570.6439
       546.5630       551.8628       542.0400       584.7809       625.7554
       680.2563       707.4260       755.4080       755.4458       751.9700
       721.3232       710.3967       637.8313       566.5830       493.2878
       514.3220       567.6016       627.2373       586.4797       558.1755
       570.4265       625.4226       641.8955       811.0952       765.9979
       516.9755       390.2244       223.4009       96.20728       393.0205
       675.5564       591.9595       401.2991       712.6736       398.7658
      -213.6444       55.24890       277.6172       519.2622       860.9514
      -9.404114      -502.2176       244.4857       96.53967      -209.8835
       1148.770       1444.314       154.6808      -442.8306      -353.4709
      -414.9709      -804.2229      -630.9297       750.8403       1676.128
       1455.497       449.3979      -599.4219      -257.1826       354.0593
      -787.6722      -800.7555       508.5141       205.7045      -377.1871
      -35.93857       146.4195      -213.5634      -180.8248       716.8558
       404.8146      -444.8755      -767.8779      -1462.680      -1222.687
       85.46497       611.5055       728.6279       334.1740       188.3107
       726.1247       212.3783      -609.2947      -554.0015      -845.5212
      -835.0509      -295.9124      -100.7081      -451.1850      -467.4581
       161.2303       251.1696      -115.2903       240.8391       74.10352
      -975.3530      -1303.412      -707.7328      -309.3571      -122.0070
      -8.572021      -195.5420      -723.8623      -678.8880      -132.8603
      -147.0790      -466.6023      -567.2498      -859.3785      -746.8101
      -11.77673       495.4556       55.88049      -338.0596      -319.9395
      -693.1011      -1276.643      -1070.347      -463.2249      -213.3049
      -39.58167      -275.4614      -813.4907      -349.7819       176.1925
       112.1852      -217.6415      -634.1338      -553.0466      -146.4419
      -511.4045      -1163.503      -1238.415      -548.4905       480.7743
       600.2369      -83.81177       109.5891       407.1440      -318.8762
      -878.4412      -336.0884      -440.3115      -1041.476      -634.6702
       138.1535       253.4182      -60.70515      -112.4238       105.7754
      -31.66489      -55.22876      -39.36377      -693.9570      -1135.625
      -497.3962      -16.45117       339.6708       614.8610      -95.37610
      -702.9479      -149.8594       329.7443       344.5150       229.0508
       333.4457       417.3398       12.23581      -260.7190       298.0911
       242.8787      -485.4943      -566.7100      -91.35358       183.5297
       35.03928      -222.5481       4.835541       18.02332      -414.6213
      -139.5381       749.4685       812.8394       371.7986       249.9041
       75.31775      -413.0200      -560.9812      -236.1013       472.4453
       929.1053       425.6248      -180.1395       195.8890       129.6218
      -306.1467       237.0586       959.6965       925.6136       325.1493
      -212.8271      -285.0947      -360.2125      -121.2787       308.7466
       391.7881       257.8656       225.5179       227.0012       349.1317
       558.0992       687.2674       381.9383       54.08154       253.4487
       279.9503      -38.62836       163.1011       396.2115       281.6005
      -100.0554      -508.5030      -237.2531       342.5919       277.5614
       246.3215       481.6555       500.6409       504.9010       489.7488
       88.55530       111.7903       445.8143       123.9389      -273.6870
      -72.50620       122.0523       129.3254      -105.3597      -229.4917
      -40.15370      -34.08603      -152.2943      -105.8542       67.24915
       336.6770       270.3612       203.2361       26.69617      -386.1841
      -474.3713      -300.0226      -231.1954      -130.1111       44.41650
       421.9131       366.9148      -304.5042      -425.4713       123.2930
       289.7576       61.25116      -161.4180      -235.9586      -232.0448
      -80.78946      -36.03189      -94.57184       8.075928      -45.04694
      -348.5931      -264.8991       131.5070       253.9981      -23.08134
      -33.46231      -30.77222      -309.8504      -152.6390       124.1935
      -152.8928      -542.5706      -498.5402       136.5601       488.8586
       283.4360      -25.36172      -95.71375      -211.7814      -248.8574
       212.7280       580.9058       260.9276       165.5054       461.3553
       359.5765      -144.9529      -342.6818      -158.0605      -157.0186
      -171.8756       591.2843       866.2920       110.8632       13.81311
       422.6801       116.2076      -209.4403       12.32739       315.7198
       223.2676       291.5989       685.4239       488.2542       38.84351
       218.7321       123.5877      -133.1713       80.92545       203.3318
      -3.742691      -68.10057       39.81091      -69.74463      -535.5128
      -271.3584       464.6788       382.9191       189.3430       316.0112
       54.58720      -152.9637       92.96094       543.9102       500.5103
       59.96118      -103.3414      -54.19214      -49.21960      -67.57834
      -124.7055      -104.2692      -155.3044      -122.4360      -57.14215
      -110.4707      -103.6947       32.77826       238.7327       408.7143
       212.3789      -342.1504      -752.6853      -466.5659       65.34570
       291.4604       86.86865      -66.14819      -99.76611      -467.2687
      -334.1255       482.0663       554.4147       199.3118       61.98297
      -167.5562      -318.4346      -313.4241      -341.0404       59.28284
       167.7432      -336.3761      -418.9898      -163.9254      -141.7904
      -113.7900      -4.677734       466.5239       580.4087      -76.58649
      -271.8731       119.0195       110.2650      -127.5308      -108.0053
       133.3882       140.2248      -25.16805      -111.6686      -25.91034
      -53.98500      -32.13989       197.9611       293.5435       179.9679
      -101.7091      -551.0598      -465.2493       34.97480       51.37125
      -148.0011       83.68591       354.1919       424.9503       103.6768
      -344.5470      -336.7073       50.68506      -80.19061      -464.3214
      -8.499268       501.5775       245.9009       97.07379       296.3835
       188.9948      -341.5779      -248.7963       123.4268      -247.5656
      -678.0337      -402.1866       20.08026       179.3805       78.29111
       64.70087       303.5532       190.8268      -225.0855      -167.6270
       234.2916       284.6200      -205.7261      -490.1987      -314.1867
      -41.94461       176.2830      -37.85693      -479.7327      -184.1215
      -47.99991      -114.2996       562.2269       347.7871      -793.7422
      -963.2281      -429.2275       194.3011       204.9388      -373.9333
      -200.1777       52.43445      -567.2510      -551.8506       165.9493
       108.2228      -503.1332      -430.8878       406.8926       487.6412
      -407.8160      -615.9514      -330.7800      -410.5398      -150.4611
       249.8756      -191.2397      -583.9512      -662.5747      -631.1321
      -175.9983       270.0791       577.4061       629.3362       189.7087
      -341.9453      -1208.023      -1768.488      -909.6419       121.4644
       570.0857       1031.793       588.3248      -232.0366      -452.9795
      -757.3312      -793.5447      -109.0847       333.2463       234.2609
       280.5369       419.3995      -68.77979      -573.9977      -300.3057
       523.9067       1347.048       1799.175       1333.838       109.1438
      -1254.635      -1687.936      -522.7480       765.4312       846.7212
       854.8218       1004.354      -276.5400      -2274.834      -2146.156
      -306.9609       369.4419      -973.2842      -3348.594      -6169.637
      -7603.978      -5946.561      -3007.676      -934.4014       1195.283
       3608.904       4334.621       3778.102       4362.361       5910.859
       6379.910       4522.779       3227.186       5022.859       5899.264
       1813.879      -5144.102      -10394.61      -9777.941      -4067.780
      -17.40625      -962.6560      -1491.648       3345.820       7035.381
       3923.665       201.4673      -898.4375      -1454.547      -2611.549
      -5237.357      -7450.914      -7572.027      -4802.133       831.0898
       6169.438       9573.818       9355.453       7019.420       5936.941
       4431.993       3143.852       4033.051       3366.847      -435.9102
      -4533.354      -8808.594      -12240.63      -9978.610      -3189.468
       1270.659       2630.387       4082.231       4952.671       3518.992
       790.4977      -218.6682      -411.3330      -1752.043      -2818.143
      -3881.941      -4795.748      -4829.087      -4232.785      -2288.877
       1612.186       7945.309       12761.69       12429.75       9560.459
       4675.919      -1510.500      -3594.016      -1637.175      -220.7207
      -748.0781      -3903.746      -8779.516      -10015.70      -5667.308
      -4.377930       3051.000       3692.896       3560.738       3640.591
       4829.024       6025.292       3648.338      -2830.752      -7393.008
      -6642.953      -4088.678      -885.7039       906.7161      -234.0825
       1027.660       5817.650       8204.078       6254.386       2665.056
      -852.9697      -2891.266      -3181.415      -3945.454      -4511.726
      -3269.207      -1309.119       1237.877       3643.571       3981.662
       2638.010       543.1965       113.9180       2704.683       4687.075
       4003.519       2369.425      -700.2441      -4747.377      -5678.497
      -4596.335      -4155.991      -1996.379       304.9907       1468.067
       3827.019       4653.677       2598.956       1168.603       521.8301
      -816.8076      -1929.298      -1883.028      -1064.934      -525.7051
      -1307.519      -2304.459      -1303.749       1661.843       3760.074
       4041.997       3899.371       2700.938       1245.631       1136.414
       1142.195       1188.615       1140.207      -986.4160      -4832.561
      -6538.415      -5348.918      -3419.205      -1015.364       678.3848
       1017.474       1709.447       2109.037       1544.191       918.3799
      -765.3369      -3470.281      -4042.915      -2448.145      -1654.880
      -615.4629       2770.273       4927.907       2359.962      -1261.422
      -956.9180       1187.859       1419.574      -226.9316      -2143.402
      -2905.573      -2878.897      -3066.232      -3041.700      -2266.805
      -432.1304       1325.512       1344.041       365.3505       74.62610
       295.6757       131.6272       434.7122       1535.003       1029.264
      -1073.202      -2702.552      -3745.404      -4402.931      -3940.032
      -1525.898       1593.844       2465.893       1428.717       26.09961
      -1163.454      -1282.975      -1295.284      -1664.138      -1110.440
      -256.4111      -372.7825      -659.3713      -84.55811       213.2665
      -68.59033      -129.4843      -23.35706       321.1707    -0.09216309
      -665.4110      -428.6211      -630.2092      -990.8197      -567.8975
      -528.4897      -1063.292      -1069.904      -668.3147      -452.3759
      -37.86700       344.7491       123.3667      -281.3424      -367.5160
       169.5459       751.5234       1034.041       1644.974       1729.533
       663.2039       98.10352       391.2966       642.2720       125.7106
      -711.9817      -322.4851       736.6984       574.7461      -24.54396
      -40.36195      -60.92810       257.4124       531.6679      -121.2686
      -350.0515      -85.56738      -881.1035      -1788.354      -942.0347
       532.0220       1527.037       2850.300       3857.087       3255.166
       1836.355       383.1377      -939.6047      -1226.432      -295.9037
       368.6782       727.1064       1324.752       1466.834       1562.048
       2396.327       2954.471       2516.025       1917.201       1074.937
      -508.0166      -1747.761      -2054.850      -1452.418      -291.8518
       853.9531       1746.906       1639.186       169.8091      -1179.017
      -905.7043       557.0996       1476.555       1424.189       1339.101
       1134.271       579.4055       360.7886       572.7881       1231.128
       2071.275       2426.753       2071.836       1356.734       458.0798
      -411.8402      -568.0603      -83.83594      -236.0740      -975.0029
      -1316.254      -1269.545      -1254.895      -1202.416      -740.0380
      -323.2103      -403.4742      -40.58813       874.3047       1662.385
       2059.587       1628.749       518.7605      -361.9271      -567.7185
       121.0879       1005.284       1135.504       380.9180      -904.3130
      -1382.237      -894.6746      -663.0475      -219.9629       566.6865
       834.9302       459.1407      -119.8955      -643.0806      -950.5593
      -937.7870      -515.4572       198.7649       616.6640       467.5114
      -33.51001      -637.8472      -793.4352      -474.6958      -232.8831
      -484.9529      -883.1967      -685.7515      -605.4756      -1152.626
      -1282.621      -858.0016      -397.9781      -68.80798       286.5383
       453.3400      -201.3208      -1078.250      -879.6295       243.6763
       1394.093       1623.875       467.2947      -809.2993      -888.3579
      -470.2297      -300.0087      -126.1125      -378.5552      -1238.051
      -1393.056      -496.3536       162.5030       178.0620      -157.2180
      -765.3031      -918.7134      -205.5591       352.7202       254.6594
      -170.7996      -807.6809      -1004.909      -520.6224       203.0660
       616.0004       214.6908      -334.8865      -340.4022      -436.6685
      -938.5847      -1016.090      -355.9742      -62.56372      -325.5897
      -195.1480       115.4531       653.3650       1319.087       1270.534
       906.4494       519.9597      -64.67578      -599.5623      -1004.986
      -1222.112      -1471.841      -1565.984      -1123.906      -764.6068
      -437.5652       210.9299       363.2743      0.8423462       33.68408
       430.4314       686.7504       611.8895       187.6229      -411.5112
      -1009.096      -1180.754      -561.7419      -31.94186      -147.0797
       34.07129       656.4412       919.4194       876.9856       720.2657
