     0.02500000      -7679.888       9436.936      -12345.00      -12345.00
      -30.00499       216.5200      -18.08000      -12345.00      -12345.00
       0.000000       13.58000      -12345.00      -12345.00      -12345.00
      -12345.00      -12345.00      -12345.00      -12345.00      -12345.00
      -12345.00      -12345.00      -12345.00      -12345.00      -12345.00
      -12345.00      -12345.00      -12345.00      -12345.00      -12345.00
      -12345.00      -31.80160      -69.32410       2472.000       0.000000
      -31.24600      -68.98500       0.000000       102400.0       0.000000
      -12345.00      -12345.00      -12345.00      -12345.00      -12345.00
      -12345.00      -12345.00      -12345.00      -12345.00      -12345.00
       69.51508       207.5127       27.68918      0.6250295      -12345.00
      -12345.00     0.06351229       0.000000       90.00000      -12345.00
      -12345.00      -12345.00      -12345.00      -12345.00      -12345.00
      -12345.00      -12345.00      -12345.00      -12345.00      -12345.00
      2008        16        21        17        54
       780         6    -12345    -12345      9862
    -12345    -12345    -12345    -12345    -12345
         1         7        13    -12345    -12345
    -12345    -12345    -12345    -12345    -12345
    -12345    -12345    -12345    -12345    -12345
    -12345    -12345    -12345    -12345    -12345
         1         1         1         1         1
LEON    -12345          
        -12345  -12345  
-12345  -12345  -12345  
-12345  -12345  -12345  
-12345  -12345  -12345  
-12345  -12345  -12345  
-12345  -12345  BHN     
ZL      -12345  -12345  
[...]
       73.01727       107.9652       116.7291       122.8551       144.1707
       169.0004       171.1154       178.0762       192.3649       211.2216
       211.9403       223.0867       216.5269       218.4800       247.4067
       251.5065       246.1168       245.2157       233.1571       238.7660
       240.7098       254.8870       247.7096       227.6364       227.5473
       246.3666       252.4733       250.3849       248.7655       239.9713
       230.8273       243.8542       265.5259       260.3143       252.4102
       260.9680       253.0228       259.7867       279.1411       280.0476
       284.6618       295.2577       288.2120       293.8252       313.4623
       328.9703       336.6896       346.2168       347.6731       362.9795
       382.7153       384.0244       398.2484       403.6732       406.6553
       430.3270       443.8461       435.5371       436.7542       446.5330
       451.7264       455.9572       453.0708       446.3555       446.7107
       447.3796       445.3262       439.1632       425.1873       408.8020
       403.5835       400.0620       388.4203       374.3988       360.3889
       341.8750       322.8469       311.8475       299.6273       276.9894
       260.2874       242.7615       231.2867       214.9569       191.7286
       166.0392       145.3752       129.9363       119.3068       104.8735
       81.15739       54.57043       31.67641       17.15585       8.909744
      -8.854057      -29.28091      -51.01610      -66.14960      -91.22296
      -100.7501      -110.1755      -144.1949      -168.6110      -183.2086
      -201.1409      -216.7113      -231.3879      -259.3358      -288.2545
      -294.8280      -329.8203      -352.6702      -363.2705      -390.0881
      -401.6553      -418.3105      -448.0596      -451.4143      -470.5072
      -505.2007      -515.9934      -517.6235      -543.1982      -565.4784
      -564.0435      -579.4902      -591.6937      -601.6797      -625.5742
      -634.5903      -634.2601      -631.5083      -635.0969      -642.4651
      -655.3997      -655.2175      -649.1028      -653.8750      -663.2041
      -653.4939      -646.2766      -640.9033      -641.2041      -632.4763
      -628.0857      -636.5576      -612.6649      -584.5248      -621.2019
      -604.8555      -558.2385      -569.6993      -552.0035      -506.7419
      -535.0151      -522.6046      -476.0087      -478.5674      -443.2458
      -406.5042      -439.0175      -404.3357      -357.4044      -365.2513
      -314.6326      -273.3406      -323.5593      -296.8708      -226.7191
      -216.1234      -198.9249      -165.5914      -162.0414      -133.4129
      -96.23224      -89.91623      -65.40517      -32.88656      -35.39467
      -3.793228       46.11940       54.11063       64.16629       111.4409
       135.7624       145.1064       171.7715       195.0586       222.2234
       254.6035       266.5884       291.7995       325.0403       330.8535
       350.2722       401.7744       411.6896       402.6958       445.3579
       473.2006       478.0319       503.5032       541.2073       539.7278
       546.4059       578.2717       589.2990       623.1062       635.6497
       613.9595       642.8210       665.0984       647.0579       685.5830
       716.4042       673.1421       676.8020       736.3474       729.1082
       705.7935       704.8105       706.3010       729.3215       719.1646
       684.6997       701.4668       720.5728       688.3411       664.8401
       669.5171       643.5557       620.4630       627.0364       610.6550
       589.1536       572.2701       532.3329       494.1102       484.4712
       467.6217       437.1604       406.5446       370.7971       349.4669
       334.4159       283.5182       263.1600       254.3123       200.3892
       156.6183       169.3917       144.8943       89.63646       73.22295
       55.83871       32.22605       26.36343      -6.496834      -26.12447
      -36.45714      -74.28226      -87.46875      -58.41220      -74.92151
      -122.8552      -123.5570      -112.0889      -121.1602      -127.4893
      -136.7796      -139.9843      -153.1426      -152.4543      -131.1597
      -117.5372      -81.33078       17.77612       199.5235       266.1205
      -172.3358      -720.5309      -472.0642      -177.7543      -363.9683
       219.6251       503.7955      -220.8989      -554.1387      -704.0179
      -101.7990       266.7578      -836.2961      -531.9412       159.0046
      -105.5494      -312.1692      -1096.721      -60.01868       521.0457
      -288.8790       425.6451      -368.3281      -987.3893      -132.7297
      -225.4043       117.2839      -42.89111      -618.4976      -271.8350
      -861.2583      -975.8277      -197.2881      -445.5846      -483.9808
       403.3445       14.75244      -1471.993      -436.7317       899.4639
      -212.1543      -1104.742      -853.4361       94.78845       691.1844
      -454.5676      -1633.704      -685.9285       501.2584       86.38867
      -684.9156      -523.8248      -30.30969      -284.9725      -257.1938
      -349.2462      -758.2281      -243.8829      -130.7573      -817.0281
      -664.4197       284.6908       128.5273      -561.0483      -496.4830
      -77.08078       74.35913      -631.2345      -826.2217       20.38449
       171.1484      -320.0852      -484.8445      -220.9040       82.41870
      -356.6184      -996.9697      -394.7425      -38.75568      -228.2328
       327.6025      -216.3032      -548.0575       76.49748       37.06366
      -80.84534      -762.6418      -322.7625       670.0806      -576.3735
      -971.9820       149.4946      -92.81714      -619.5637      -336.5642
      -135.5127      -218.4051       99.63440       109.8706      -230.7726
      -342.4109      -417.7363       275.2233       365.2714      -295.0814
      -7.325623       111.8186      -304.0226      -120.0127       442.1766
       368.7252      -109.3315      -55.54620       288.3366       12.31329
      -415.5066       54.97246       67.47333      -121.1585       384.5579
       76.44609      -92.85089       280.4750       158.9191      -239.8285
       65.51929       794.9105       376.7701      -5.532043      -249.3234
      -270.5940       698.8162       476.5336      -205.8536       105.3193
       255.6069       120.4754      -156.5781      -47.18164       700.6592
       841.6213       421.3051      -241.7335      -518.8787       82.14795
       765.6179       650.7305      -111.2170       68.45825       704.4624
       738.7051       113.0231      -456.1536       374.1919       925.2991
       254.9977       208.1850       350.0444       192.1831       337.9523
       235.4066       138.0693       245.3064       501.4773       501.4670
       136.4008       513.6238       476.2112       175.5513       857.8499
       418.4210      -419.8285       325.5740       1153.153       710.4254
       207.0918       107.2339       216.4016       511.3636       271.7158
       241.1432       320.4592       79.59644       355.7557       529.6992
       232.1140       109.0087       141.6969       81.67188       255.0339
       585.3740       624.9133       319.3167       161.5989       420.5490
       203.1624      -17.16040       287.6924       44.87195      -52.61487
       458.3420       378.9922       43.77173       218.8662       258.9613
      -29.69006       6.919189       669.2663       493.0491      -558.7177
      -191.7195       677.9715       395.3514      -31.70554      -86.32153
       199.5515       387.3358      -8.330811      -199.6656      -198.7078
       25.43604       399.5087      -212.3104      -277.6893       154.3015
      -6.921692       234.0105       108.7304      -142.4457       56.44658
       34.74860      -195.5875      -367.8944      -66.14206       104.1322
      -27.42725      -129.7803      -58.23315       81.79126      -121.7090
      -553.3376      -475.0054       256.0074       272.9968      -817.7705
      -866.5831       276.6624       202.4265      -467.9015      -379.1917
      -3.216751       238.6160      -237.2891      -762.8949      -626.9987
      -261.1234       75.36377      -351.2393      -396.7763       202.1272
       4.023071      -143.5572      -277.9656      -382.0148      -281.5940
      -239.6953      -188.3354      -274.9867      -128.1075      -52.79016
      -144.3597      -120.8898      -323.9029      -334.1281       216.8815
       147.6681      -642.2909      -542.1926       126.3179       389.8330
       93.41614      -434.3579      -217.9672       23.58911      -267.8754
      -224.1307      -244.4497      -92.09990       111.5111       23.61099
      -80.07336      -156.6757       79.86243      -40.95233      -235.8003
      -364.1736      -325.7516      -211.7692      -413.4909       94.55991
       264.6855      -309.7072      -451.6379      -335.4316      -233.0251
      -173.0885      -10.59171       171.6846       20.40784      -200.5031
      -190.0741      -301.9347      -375.9186      -95.80542      -3.496338
      -311.2909      -340.1630      -152.1044      -355.8589      -387.5066
      -56.80408       439.4491       342.7263      -406.4454      -462.3434
      -235.6763      -162.8128      -30.56256       94.26407       277.5203
      -308.2034      -772.8280       41.53613       490.5987       390.7406
       61.84985      -593.2859      -162.4530       288.2328       29.44586
      -277.7072      -221.9039       460.7084       190.7697      -244.5742
      -167.5045      -115.2953       413.1660       546.9174      -29.10815
      -510.0380      -187.0698       187.4312       253.4534       224.7320
      -92.05381      -5.966248       44.64819       63.42456       364.9611
      -127.3486      -202.2378       117.6009       3.916748       202.0531
      -227.1166      -43.53735       926.0416       105.8677      -980.5669
      -194.3862       930.6135       667.4918      -229.2034      -550.7090
       182.0203       715.7657       418.9266       255.6489       337.3801
       260.3756      -153.5045      -162.7444       433.1985       609.8802
       394.8539       157.4979       177.7034       267.5223       153.4484
       477.4218       629.6837       367.8970       339.4106       174.3728
       164.3193       437.8933       478.3094       263.1642       317.7161
       366.6322       153.9415       307.7748       305.6819       384.1699
       857.1761       205.0199      -183.6368       440.6661       387.9961
       136.6002       82.37500       323.8595       687.1090       47.96255
      -245.4041       367.0608       553.5410       287.4930      -273.2937
      -182.2283       465.1282       51.25464      -539.1959      -333.0579
       44.98383       150.5966      -24.70432      -110.7289       25.15607
      -175.4582      -397.2739       182.1168      -89.19690      -593.8482
       44.21118       19.12903      -333.1292      -549.7690      -436.1169
      -104.3545      -515.9818      -724.6819       3.383545       572.9111
      -424.5244      -1407.042      -545.9816       340.9934      -237.2751
      -843.4260      -591.6093      -641.3175      -312.8966       423.0808
      -238.3440      -1153.637      -950.9567      -407.2539      -374.6229
      -323.7890      -170.3468      -468.7522      -464.9891      -141.0939
      -355.4107      -435.7132      -29.60284      -124.3423      -454.0472
      -763.2179      -504.7510       224.0957      -383.8550      -1344.349
      -442.2096       368.6841      -448.4484      -651.5739      -123.0261
       226.8034       223.0554      -637.3193      -891.0780      -560.2346
      -589.3676       139.9786       388.2012      -360.1934      -522.3416
      -334.8765      -98.61359      -121.8381      -441.6324      -353.6893
      -300.1718      -537.1130      -119.5358      -303.0560      -403.9468
       533.4978      -363.1025      -1177.882       27.89709       701.5125
       254.3439      -794.2955      -443.0906       774.7963      -231.3510
      -828.6824      -29.69757      -66.97998      -435.9563      -356.9001
       445.1090       911.5502      -21.57547      -426.2244       411.9114
       224.2108      -2.012817       486.3140       172.5062      -442.7085
      -118.8269       942.0543       578.2161      -218.4797       279.2020
       99.47461      -410.9462      -119.1978       887.3213       2268.856
       2407.216       809.9214      -1026.438      -2914.258      -5535.252
      -6051.539      -2814.317       235.8148       564.2407       623.6279
       2193.610       3026.213       2003.434       2342.699       4422.708
       5198.602       4790.430       3830.530       314.6791      -1867.794
       1913.447       3893.936       582.0967      -2040.866      -2657.083
      -3364.456      -2436.209       4572.559       9436.936       1243.619
      -7679.888      -1956.907       6732.410       2211.698      -3525.412
       924.0703       4829.118       3015.586      -251.2593      -1966.655
      -362.3350       2286.721       2975.975       1855.968      -2634.866
      -5067.108       55.83984       3296.732       1186.283       595.3574
       1995.061      -441.1545      -2493.723       3030.316       6791.110
       2877.413      -199.3320      -260.0455      -638.3804       477.9922
       968.4521      -1400.274      -2820.392      -1636.995       2418.318
       3562.796      -1482.282      -2626.350       527.3294       214.7528
      -758.8057       582.7880       603.8145      -1482.712      -3082.114
      -1961.460       1838.012       2646.977      -1796.972      -4101.885
       135.7266       3785.036       1145.127      -1277.013       559.5310
       1375.395       497.5977       119.1234      -191.8284      -601.6768
      -1261.410      -1483.723      -2235.516      -2019.994       1557.632
       3222.508      -278.7773      -4073.438      -4205.329      -1858.807
       234.7710       283.2979      -1766.265      -3267.711      -1478.237
       1606.147       1420.353      -2172.189      -4185.172      -2493.184
      -1336.398      -160.7881       1074.807      -1151.684      -2132.082
      -506.8959      -139.7744      -1519.234      -1973.957      -501.2580
      -216.1963      -314.6079       933.6232       1273.382      -1764.079
      -4123.371      -1160.159       2085.563       293.0171      -1921.666
      -935.1707      -1185.520      -1675.292      -37.86938       71.73975
      -908.2822      -1702.775      -2644.631      -1204.084       894.0502
       492.2847      -313.1148      -32.28729       285.5874      -967.2842
      -2353.583      -966.9253       1170.901       1074.085      -160.7896
      -572.4166      -312.7444      -570.2048      -1374.757      -1069.786
       182.1377       90.23035      -634.3860       270.4894       929.2205
      -295.8033      -496.7119       472.0842       603.9597       41.74792
       91.98682       1394.653       1948.574       625.1382      -196.7442
       16.23682      -907.5388      -1452.833      -259.6274       789.3142
       1259.379       826.8663      -15.49707       1101.333       2330.525
       1742.528       2017.682       2695.029       1516.952      -564.3774
      -1606.217      -270.4141       1439.908       1135.718       226.5327
       582.6738       899.9196       59.04956       509.6079       1227.184
       215.4863      -131.1431       1265.371       2236.953       1872.916
       636.1282      -393.4561       430.8101       1573.155       1164.094
       132.8011       413.1307       468.4800      -356.8315       543.6606
       1839.622       891.7872      -737.7283      -160.5449       1865.333
       1585.884      -444.3726      -510.2012       603.4658       1387.580
       1253.737       506.9298       485.7792       632.7877       593.8618
       56.22552      -474.6033       211.7513       686.2562       576.7142
       365.3025       232.1317       572.9650       216.5148      -405.5476
      -288.2201      -394.4110      -604.6470       835.1860       1530.774
      -460.3196      -1554.584      -700.3665       624.5273       942.4363
      -285.0747      -801.3989       307.6938       616.5674       90.93401
       21.09259      -203.3602       166.7145       442.4507       122.2461
       398.3825       87.70322       65.05042       222.6274      -804.9238
      -717.1105      -390.2496      -596.5594      -433.4224      -647.7378
      -1111.595      -1177.001      -708.0116      -634.8477      -539.9707
      -728.7543      -906.6721       455.0737       1071.865      -311.2007
      -1774.367      -2536.569      -2139.901       356.6458       1711.554
      -259.1558      -1196.019       241.8829       103.2676      -1519.097
      -1428.493       127.7673       990.8802       533.6962       198.2291
      -109.6570      -927.8779      -1270.761      -1195.948      -603.0020
       466.7067       362.2400      -664.7568      -602.8466      -383.7273
      -536.8044      -272.6167      -481.6849      -466.5510      -75.15259
      -286.2998       39.63147       108.4280      -763.3245      -728.1470
       230.1569       182.4856      -809.8275      -485.5073       1160.408
       1139.226      -346.9785      -716.2177       215.4404       1100.733
       149.1274      -1309.151      -848.0450       28.08398       141.0361
       573.4233       1100.067       1009.518       272.6146      -38.47699
       318.1924      -694.0068      -1022.682       874.2896       984.8429
      -192.0206       50.71509       299.1263       94.87640       25.18188
       317.4128       606.4243      -142.4407      -651.8220       76.20581
       723.0701       677.3552       853.4846       1424.998       378.7607
      -884.5972      -71.35107       563.8032       551.5226       818.7986
       282.4703      -127.1992       852.1091       990.3169      -409.9194
      -991.2905      -1090.444      -943.0920       488.1193       874.8981
       107.5245      -468.4004      -1060.625      -51.04785       1166.478
       80.66235      -998.4192      -191.4111      -3.103027      -569.5105
      -61.58582      -257.3817      -716.6419      -114.5796       480.5441
       896.0663       25.75562      -1375.983      -916.2985       669.1395
       715.8995      -374.1061      -300.1250       207.9348      -180.7406
