     0.02500000      -9898.349       7232.643      -12345.00      -12345.00
      -30.00499       216.5200      -18.08000      -12345.00      -12345.00
       0.000000       13.58000      -12345.00      -12345.00      -12345.00
      -12345.00      -12345.00      -12345.00      -12345.00      -12345.00
      -12345.00      -12345.00      -12345.00      -12345.00      -12345.00
      -12345.00      -12345.00      -12345.00      -12345.00      -12345.00
      -12345.00      -31.80160      -69.32410       2472.000       0.000000
      -31.24600      -68.98500       0.000000       102400.0       0.000000
      -12345.00      -12345.00      -12345.00      -12345.00      -12345.00
      -12345.00      -12345.00      -12345.00      -12345.00      -12345.00
       69.51508       207.5127       27.68918      0.6250295      -12345.00
      -12345.00    -0.05775134       90.00000       90.00000      -12345.00
      -12345.00      -12345.00      -12345.00      -12345.00      -12345.00
      -12345.00      -12345.00      -12345.00      -12345.00      -12345.00
      2008        16        21        17        54
       780         6    -12345    -12345      9862
    -12345    -12345    -12345    -12345    -12345
         1         7        13    -12345    -12345
    -12345    -12345    -12345    -12345    -12345
    -12345    -12345    -12345    -12345    -12345
    -12345    -12345    -12345    -12345    -12345
         1         1         1         1         1
LEON    -12345          
        -12345  -12345  
-12345  -12345  -12345  
-12345  -12345  -12345  
-12345  -12345  -12345  
-12345  -12345  -12345  
-12345  -12345  BHE     
ZL      -12345  -12345  
[...]
       303.6911       298.0688       288.1853       285.0917       282.7806
       282.1774       254.2548       257.8426       266.9918       254.2416
       245.4404       250.5087       224.4799       222.1252       221.8792
       222.1851       212.0427       196.3999       199.5613       211.6051
       187.0601       177.2723       181.8915       186.6066       172.8475
       166.0011       174.5987       165.6179       147.1033       162.6946
       153.8117       142.1905       129.7441       122.2941       131.4109
       131.8426       105.6237       104.7250       100.9621       89.70435
       83.02449       72.67464       54.41660       61.02411       38.02159
       29.64844       31.46026       12.72911      -13.83572      -11.08893
      -24.49779      -33.67398      -57.21655      -70.13907      -70.69485
      -80.71094      -102.2946      -99.04913      -122.5757      -141.3556
      -151.9502      -149.0739      -162.4811      -182.5187      -199.2366
      -193.5218      -213.3662      -233.2006      -235.6936      -241.3656
      -256.6772      -274.0823      -290.6489      -288.9370      -300.3222
      -325.3791      -334.2303      -340.5510      -367.3429      -370.2825
      -373.5142      -401.3574      -428.0544      -429.8794      -421.4489
      -430.4153      -468.6581      -489.1091      -477.5222      -472.1681
      -500.7885      -509.1595      -494.7316      -511.7288      -536.5913
      -512.9584      -493.5178      -498.2029      -523.3025      -539.7869
      -508.1360      -491.4943      -533.0376      -538.5573      -512.1538
      -515.1016      -524.2148      -518.2468      -524.3845      -519.0571
      -522.6423      -516.9623      -498.5942      -502.3860      -515.2775
      -507.8867      -499.6964      -495.7528      -498.2441      -491.7148
      -489.0288      -471.5515      -465.2109      -457.9883      -464.1107
      -453.4935      -411.1571      -412.7528      -450.6372      -408.9003
      -362.5117      -384.4136      -376.7076      -313.7277      -309.2955
      -298.9681      -278.7635      -273.7670      -214.0152      -182.6143
      -213.0948      -184.1524      -146.6806      -124.5697      -61.48904
      -39.36180      -72.19276      -30.55060       11.37894       21.36810
       77.44861       92.64575       73.31137       120.6101       153.5249
       167.9871       193.6118       201.6815       215.0576       253.1191
       264.6426       268.2812       291.0062       309.5882       311.0778
       334.3540       347.9932       337.0126       339.7288       346.9817
       357.2949       382.0425       374.6263       348.5514       367.3052
       393.8260       367.5059       360.8030       396.4938       374.2134
       342.4580       346.5890       373.6532       374.3591       352.8148
       330.3415       332.8076       358.6357       342.1460       305.3244
       322.0416       329.2991       319.2747       318.5603       307.0043
       272.8114       289.0634       329.3537       308.9117       273.2939
       280.3986       281.0924       288.6974       281.7379       279.5164
       292.9259       268.8704       237.9805       298.6050       329.8746
       293.7231       265.5114       267.1219       284.9071       301.2972
       289.0557       298.9008       302.0785       290.5804       289.3550
       302.3601       302.4642       308.9207       290.4789       289.2957
       283.4075       316.5580       331.1274       296.1975       291.5986
       326.0521       322.5104       317.0748       331.0011       343.5167
       308.0194       298.4939       320.6285       359.0515       344.5328
       306.1384       301.9690       352.7043       349.5117       316.2679
       308.1229       312.2957       304.2970       314.8389       293.6271
       287.2355       278.3660       274.0599       281.0983       269.8311
       260.7054       301.9185       366.1208       501.5270       523.0808
       338.4891       97.32971      -306.9100      -348.6917       484.7570
       365.8507      -359.6682       313.0881       586.5941      -44.00537
       140.1169       531.2389       271.3358      -647.3197      -428.8479
       955.2959       1101.439      -521.8186      -1624.043       334.3889
       1560.935      -385.8176      -717.3037       1104.277       219.3008
      -1424.027       420.4106       1144.063      -354.3240      -733.7921
      -388.6963       445.6632       146.4403      -790.0845       82.35742
       51.03174      -719.4026       51.37683       70.95862      -1076.062
       374.1072       1507.980      -1256.962      -1196.298       973.0549
      -61.95605      -1025.542      -840.2120      -503.3274      -63.99124
       374.2185      -494.0127      -1190.322       117.6772      -507.9880
      -917.7266       181.6369      -80.00317      -682.0403      -1097.047
      -654.6298       135.9103       598.5159      -498.6737      -966.8385
      -52.66278      -331.5510      -194.5339      -769.5425      -1801.633
      -4.258667       1194.498      -609.9971      -1003.683       261.6632
      -76.23584      -1045.760      -1365.704       115.8549       724.5454
      -1315.709      -924.5036       301.3804      -238.2979      -146.6499
      -653.6531      -828.0544      -492.3442      -451.3020       458.6863
      -372.2104      -1934.305      -237.0255       1148.099      -409.6580
      -1054.125      -385.8429      -290.4519      -425.9434      -660.1409
      -145.0523       237.8853      -519.3458      -406.5383      -20.04541
      -732.1191      -576.9905       770.6697       84.38867      -1658.268
      -959.7394       170.9503       141.6963      -679.0580      -819.6712
       56.35826      -81.97095       159.0568       460.4518      -686.0878
      -336.1407       311.7194      -421.8567      -393.8004       101.9409
      -116.5688      -164.2542       514.6506       48.03198      -260.1123
       584.2524       409.1792       465.2347       386.2125      -633.7296
       122.8232       799.0420      -243.4808      -200.6257       570.7830
       517.0731      -29.39154       81.56421       743.4550       639.8508
       512.7417       479.9579       287.0703       266.9216       234.8008
       733.3279       504.1039      -334.4510      -145.2441       1042.630
       1620.857       274.6631      -646.8369       417.2559       913.8506
       691.0201       631.1979       100.6473      -5.150146       682.7185
       843.0156       176.6148       105.1783       231.1396       572.8411
       1115.354       85.43506      -386.1963       709.6201       1166.776
       238.9298      -319.0679       233.6970       707.3428       897.6497
       50.58502      -270.7981       673.6526       1037.749       654.1083
       12.94611       68.79895       254.7620       558.8255       505.1698
      -549.3691      -126.8730       1396.750       882.0212      -672.6808
      -238.6499       1024.425       626.5848      -388.0581      -82.41296
       586.7321       575.1455       505.6455       345.7664      -80.56323
       201.4445       487.4346      -125.2356       124.9417       636.3850
       192.9119       46.51685       652.9213       672.5517      -216.7686
      -328.0490       405.3220       531.0217      -3.844299      -276.4540
      -81.16943       360.4458       715.9136      -93.08350      -550.1734
       256.7329       345.4709       497.9362       376.6964      -716.7687
      -329.5679       709.4342       246.0463      -417.3430       75.50931
       306.3785      -101.9093      -235.5713      -90.65381       321.0092
       160.3555      -703.2598      -377.5713       414.9315       388.1635
      -167.8103      -1056.221      -431.9747       601.6573       45.83081
      -598.8629      -364.9209       225.1915      -253.6593      -763.4363
      -130.8428      -63.01837      -248.1787      -130.1548      -730.8960
      -743.5506       111.9149      -241.5981      -842.9677      -109.8019
       219.1400      -185.9733      -537.2802      -791.8018      -372.3630
      -448.5101      -262.3507       130.0413      -678.6250      -715.9025
      -221.6491      -226.6899      -556.1680      -529.6494       93.77159
       87.00134      -251.6986      -670.4539      -403.7270       32.48926
      -587.5646      -459.4415      -120.5576      -676.8347      -592.6149
      -164.7747      -231.1600      -152.5137      -187.2288      -717.4297
      -721.6777      -427.8362      -416.8049      -276.1388      -504.9965
      -530.0707       13.67139      -396.8860      -856.0224      -194.0485
       29.18945      -839.1150      -961.2365      -328.9150      -272.4456
      -406.2080      -421.4853      -208.1658      -57.34473      -503.6829
      -537.2350      -13.93213      -416.0942      -1113.475      -684.6888
       376.0464       86.28235      -722.0686      -415.8115      -926.1024
      -1071.425       244.5200       260.6991      -350.4198      -346.5618
      -482.3655      -401.1165      -616.1318      -334.2250       368.2891
      -751.1160      -1305.004       94.47571       857.1267       79.59692
      -992.0819      -789.3911       359.0526       647.3479      -569.5330
      -1084.961      -69.31494       659.7899       672.2100       372.3813
      -545.0033      -1062.280       160.2394       810.0117       31.87036
      -551.0459      -453.3939       280.8130       619.2128       42.72020
      -169.0896       143.8699      -272.1309      -114.0326       497.9960
       362.6492      -5.375366      -589.0038      -158.3821       798.8306
       479.0941      -111.8596       392.4693       515.8354      -621.0924
      -732.3713       783.9202       1126.871      -148.5277      -296.6394
       478.1129       540.8500       79.28632      -491.8582      -4.004150
       999.7051       657.1734      -159.1637       166.0231       389.0821
      -237.6635       239.3037       840.0850       327.2041       102.5048
       86.93506       231.2622       470.6239       132.8220      -90.43372
       479.5283       899.4486       420.0391       73.70972       228.0254
       286.1011       502.4490       423.5392       208.9688       632.9470
       856.0339       151.7474      -454.2478       400.0930       1060.575
       523.1237       288.1383       388.3284       449.6362       585.9893
       536.2242       240.0578       114.4072       267.5823       415.7559
       371.4229       618.6333       679.1749       588.4314       630.7977
       413.3232       465.3976       81.06702      -34.40259       558.0397
       460.3241       506.2388       757.5387       384.0015       186.7000
       540.6659       809.4269       203.4095      -353.8201       760.7361
       1492.409       995.7912       21.16370      -161.7329       1195.953
       845.4957      -236.1846       724.6477       1054.488      -34.26611
       299.1047       1293.802       712.1260       72.55916      -1.367920
       147.0559       1006.766       658.6939       101.9092       804.6111
       462.3896      -17.02051       526.9102       1159.032       534.6273
      -569.2728       5.678223       1088.458       1068.655       378.1531
      -104.3937      -169.1665       810.9651       1207.153      -143.2043
      -366.1660       913.3203       808.2430      -506.2299      -19.21729
       1013.624       206.8595      -768.1725       11.09814       1445.643
       791.4890      -582.2745      -19.27063       639.9620       85.34845
      -386.7862       45.31940       279.2717      -195.5453      -242.1766
       227.0338       608.9854       41.20923      -1107.031      -1017.979
       33.94366       418.8138      -294.3737      -494.6427       492.1978
       476.1013      -935.5627      -816.8494       402.7157      -9.300293
      -691.5916      -920.6828      -435.0520       873.1843       275.4673
      -1498.690      -1518.854      -515.9159      -287.1191      -376.2886
      -568.8992      -781.4448      -732.4792      -930.6289      -424.3010
      -111.0520      -1086.002      -859.3799      -401.1338      -454.1387
       180.2041      -229.5469      -1855.912      -2842.770      -3293.592
      -4018.716      -3889.259      -2351.232      -84.68750       2665.890
       3071.929       821.7712      -757.1426      -919.2991      -797.3306
      -2149.770      -3295.368      -1899.560       29.26416       1474.374
       2295.103       3163.910       4640.771       6850.414       6385.309
      -1325.066      -7725.031      -6929.326      -5830.819      -5279.123
      -3701.720      -3782.443      -2621.553       424.4961      -3005.214
      -5218.904       3043.934       5292.120      -336.9543      -642.9507
       1549.967       918.9053      -854.8750      -2071.152      -3989.964
      -586.7974       4762.439      -2062.574      -9898.349      -1873.637
       7232.643       2462.425      -5029.896      -3963.267       1364.309
       3631.030       546.4404      -2855.547      -956.2908       1387.219
      -254.8496      -1352.439       1146.586       1263.814      -3695.994
      -4863.616       1499.778       4354.881       366.9697      -1357.409
      -254.4707      -122.1948      -2300.152      -2024.438       3368.096
       5540.082       3078.594       613.2134      -2190.696      -2394.312
       75.58838      -987.3147      -1034.371       1526.985       131.9849
       822.2793       3808.801       1052.748      -1750.147      -1203.000
      -1693.942       850.9961       5507.214       3230.371      -2645.903
      -2463.997       1171.696       3057.139       3126.331       1450.928
      -2003.672      -2697.909       2496.658       4428.072       486.3652
      -887.5737       1350.201       2678.001      -456.2314      -4153.588
      -148.6738       4884.818       983.7705      -2690.522       1338.340
       2712.468      -2105.740      -1396.642       2758.873       2174.692
       921.9780       1760.014       1925.271      -265.9844      -1862.678
      -97.17371       1350.614      -882.4419      -280.5669       2423.170
       747.7539       830.7646       2818.473       2363.700       1645.295
      -280.5479      -1555.057       741.2520       2665.749       2271.621
      -178.5110      -2238.960       509.0796       3252.108       1491.248
       176.8085       26.52908      -66.00439      -103.3472      -1086.719
      -20.74316       1573.136       519.0507       359.4684       586.5752
      -602.5935       23.29297       1625.869       1051.357      -230.9524
      -751.8710      -304.4624       1128.684       1337.221       1556.992
       1535.123      -670.8586      -1106.472      -609.1956      -1247.793
      -85.30713       1871.145       311.4639      -2163.615      -1850.140
      -325.9268       1211.469       1117.267      -812.0577      -357.6489
       1323.807       393.0215      -942.2961      -1334.115      -435.2559
       441.9199      -275.8065      -838.7385       537.7119       2091.839
       772.7861      -1234.501      -1239.409      -592.4313      -551.8483
      -88.94934      -53.54706      -345.9954       759.2188      -119.0088
      -2026.003      -657.0340       468.9015      -172.7651      -1229.572
      -1364.088      -431.6304      -142.7620       877.5314       842.3652
      -1456.847      -1707.845       766.6243       1773.783      -187.8632
      -645.2760       465.7291       121.8948      -874.8879      -949.2529
      -60.50928      -399.6853      -1274.773      -834.2733       294.6184
       978.9702       12.96863      -634.8140       232.3577      -400.6121
      -1437.430      -103.5657       710.3889      -670.3306      -1315.025
      -428.1370      -374.9927      -1197.053      -1397.684      -366.2841
       333.5993      -122.7644       227.6390       352.2883      -827.9419
      -758.7617       351.4358      -850.1431      -2031.129      -857.4229
       316.7368       670.0127      -938.7533      -1016.882       1712.411
       1055.048      -1500.366      -1755.917      -679.4888       218.2150
       404.1619      -233.6089      -1223.967      -74.60107       704.5518
      -898.8352      -891.5054       284.2609       188.1640      -272.6996
       207.3811       985.2309       697.0131      -454.7446      -810.0632
      -416.2932      -462.6661      -8.642944       191.6561      -433.6896
      -765.9019       130.5162       1041.271      -57.31445      -465.0234
       1092.993       432.9939      -1428.826      -465.3688       679.1212
       471.5240       219.7659      -806.0090      -980.0791       654.5339
       1155.206       220.0089      -41.88135       709.3913       498.6227
      -882.2550      -217.0447       1343.434       593.2020      -64.63123
       495.8039       215.4452      -558.3270      -510.6883      -32.77786
      -124.3569       472.8157       1351.498       718.8984      -726.6184
      -812.1338       555.8047       947.3604       173.8414      -553.6772
      -602.7865       211.8174       687.4595       580.9656       778.1226
       988.5396       1003.948       1039.971       460.7671      -626.7070
      -225.9634       1372.330       1026.229      -585.5861      -193.6842
       767.9561       341.1932      -62.27060       40.54028       408.4708
       563.5037       63.38474      -209.2715       595.5310       1035.705
      -324.1829      -1367.047      -176.1221       877.0942       806.1820
       785.1484       121.2620       112.7188       317.8992      -124.7761
       476.3835       816.6881       317.1304       802.1157       1132.763
      -79.80408      -259.6052       93.13110      -781.0115      -161.1138
       1077.139       762.2952       113.4956      -34.62402       197.0002
       255.1511       570.0347       382.3904      -257.5839      -195.6775
      -13.80933      -334.3300      -306.5450       867.0103       247.2969
      -1378.587      -1027.639       92.97174       515.0356      -934.4075
      -1543.484      -47.90082       282.6686      -500.2351      -895.1868
      -646.1119       179.1241       534.1753      -451.5229      -983.8134
       394.4080       489.5659      -1286.205      -1438.040      -502.5372
      -213.9058      -571.7483      -786.7478      -494.2539      -905.5117
      -1523.527      -762.8188      -337.7566      -1103.141      -667.3816
