     0.02500000      -5389.073       5562.449      -12345.00      -12345.00
      -30.00499       216.5200      -18.08000      -12345.00      -12345.00
       0.000000       13.58000      -12345.00      -12345.00      -12345.00
      -12345.00      -12345.00      -12345.00      -12345.00      -12345.00
      -12345.00      -12345.00      -12345.00      -12345.00      -12345.00
      -12345.00      -12345.00      -12345.00      -12345.00      -12345.00
      -12345.00      -31.80160      -69.32410       2472.000       0.000000
      -31.24600      -68.98500       0.000000       102400.0       0.000000
      -12345.00      -12345.00      -12345.00      -12345.00      -12345.00
      -12345.00      -12345.00      -12345.00      -12345.00      -12345.00
       69.51508       207.5127       27.68918      0.6250295      -12345.00
      -12345.00     0.04428587       0.000000       0.000000      -12345.00
      -12345.00      -12345.00      -12345.00      -12345.00      -12345.00
      -12345.00      -12345.00      -12345.00      -12345.00      -12345.00
      2008        16        21        17        54
       780         6    -12345    -12345      9862
    -12345    -12345    -12345    -12345    -12345
         1         7        13    -12345    -12345
    -12345    -12345    -12345    -12345    -12345
    -12345    -12345    -12345    -12345    -12345
    -12345    -12345    -12345    -12345    -12345
         1         1         1         1         1
LEON    -12345          
        -12345  -12345  
-12345  -12345  -12345  
-12345  -12345  -12345  
-12345  -12345  -12345  
-12345  -12345  -12345  
-12345  -12345  BHZ     
ZL      -12345  -12345  
[...]
       226.9181       212.7724       211.9971       208.7668       189.4119
       182.0724       163.9641       160.6711       150.4033       132.6467
       124.4765       107.0687       84.90170       82.52344       62.24850
       44.53722       36.07484       15.84060    -0.06770325      -5.272423
      -20.60797      -32.60632      -53.10852      -59.17697      -66.47308
      -79.85281      -85.95041      -90.62350      -104.1818      -110.7483
      -123.3009      -122.7657      -125.7095      -137.8627      -142.0621
      -138.7382      -145.6453      -149.7348      -156.8854      -154.7368
      -151.4742      -158.9776      -171.9979      -157.9823      -161.8574
      -169.5774      -162.2987      -164.6824      -161.2169      -151.9391
      -158.6573      -155.0439      -147.4031      -152.0516      -144.1512
      -138.0521      -141.1758      -137.1719      -135.2028      -131.9398
      -121.1666      -123.9317      -118.6552      -108.9853      -109.2223
      -102.4170      -89.64615      -89.24933      -84.21503      -71.73859
      -63.08199      -54.65511      -48.42496      -36.36066      -21.24340
      -11.28298       2.128517       12.49387       24.23093       40.28134
       54.58026       63.32083       79.62119       94.66153       106.7498
       118.0003       128.3904       136.8856       152.6607       167.5245
       174.0154       182.5875       187.3798       193.0243       200.1886
       208.3405       209.6229       216.5952       227.0192       216.2791
       221.8050       233.9282       227.8267       223.3730       215.8530
       209.1483       213.3733       205.6530       183.9052       190.2552
       188.7017       159.5954       147.5096       139.4997       125.0920
       110.4669       84.94307       63.35526       56.84530       40.93884
       10.58758      -3.959015      -16.06940      -40.74069      -56.06580
      -74.69330      -95.73993      -104.0770      -127.6205      -160.7749
      -167.2034      -177.6510      -206.5782      -220.7626      -235.6877
      -236.9529      -237.8406      -273.5466      -276.8317      -261.2847
      -286.4495      -296.3644      -284.1566      -293.2120      -292.0703
      -281.7549      -295.2847      -278.4147      -253.2839      -274.5203
      -264.8827      -246.0934      -256.9028      -238.1014      -228.0054
      -236.0285      -203.9108      -189.6713      -209.6376      -188.7365
      -162.6902      -173.1912      -158.3357      -140.3498      -144.8602
      -128.3129      -119.5844      -127.4203      -104.7915      -95.27246
      -102.5936      -90.09894      -78.04362      -82.84567      -82.78207
      -69.35843      -71.90916      -71.11287      -69.25006      -75.55975
      -68.24854      -75.83110      -85.41611      -71.30376      -68.26480
      -81.99826      -99.75189      -84.86182      -78.39868      -94.42142
      -99.15955      -104.6012      -109.7889      -108.9473      -111.7444
      -118.1655      -120.6202      -110.9729      -130.4654      -130.5179
      -124.7231      -127.3664      -128.9415      -133.4948      -136.4110
      -118.2996      -126.3730      -134.6879      -122.3274      -100.8042
      -104.4043      -106.9472      -102.5919      -83.70984      -67.10533
      -61.31705      -56.55151      -46.61439      -39.77780      -15.83208
      0.5382309       16.94594       24.66121       30.87996       42.08041
       51.56566       64.24902       78.95496       83.72382       83.34937
       98.63040       105.6314       98.88232       110.3727       112.0788
       104.9241       105.6542       106.4811       104.0927       105.7877
       95.87366       79.77505       75.54507       73.10678       67.94424
       60.41593       34.74100       27.04292       11.21671      -2.942577
      -9.929413      -22.53293      -42.47148      -60.90778      -79.43329
      -84.71521      -99.48279      -123.1306      -134.9378      -136.5524
      -164.1847      -180.7363      -184.4776      -196.9661      -224.1245
      -304.7057      -478.3013      -856.8022      -1554.098      -1570.214
      -3.267578       689.7993       91.64014       949.8508       912.6381
      -737.7820      -552.0206       539.0402       930.1660      -203.8794
      -1605.581      -434.2241      -248.4481      -871.9885      -250.7994
      -231.0598       582.0879      -171.2463      -1070.914       1170.564
       478.7131      -1493.324       179.4572       566.8851      -609.4940
       30.12567      -10.79694      -668.2477       400.4482       946.6956
       543.1893      -4.366943       91.51782       1389.267      -130.4108
      -1484.656       1220.175       1484.146      -847.0001      -78.72339
       804.8380      -81.89267       192.5060      -408.3772      -575.4102
       1523.620       1195.928      -294.4674       139.7043       1123.000
       171.6389      -1015.200       762.3833       1440.549       347.5702
      -296.2121      -381.3220       488.9827       811.4683       448.4292
       218.1672       457.8898       451.1980      -11.21924       368.3542
       328.3079      -78.27515       874.2354       612.6688      -515.7429
       518.7318       933.1873      -339.6669      -54.55322       845.5303
       1181.685       398.2582      -289.1345       740.3915       754.4710
       127.8209       137.4650       298.2211       194.7300       87.44263
       706.2661       410.1892     -0.6049805       779.1078       465.9181
      -265.2295       241.1638       713.2864       242.7123       465.4306
       556.8668      -241.0542       232.6953       524.4011       450.7222
       682.2260       676.0059       209.4668       302.4861       623.7557
       52.57140      -77.67615       154.8265       243.5353       193.2462
      -227.0724      -73.84692       338.0493       382.2114       502.0601
       128.3677      -49.80780       79.33722      -260.3951      -96.51367
       5.386597      -258.2188       124.0795       476.3077      -88.96967
      -337.8202      -23.14771      -437.5692      -131.7516       758.3566
      -251.4341      -925.8793      -46.37134      -621.1740      -801.0973
       402.0872       245.9756      -539.1609      -474.8690      -301.6416
      -1051.982      -690.2245      0.9181824      -121.1635      -207.1367
      -459.9734      -708.1583      -375.4448      -144.4891      -629.9799
      -323.9989       66.43457      -471.8849      -485.2963       81.18604
      -669.7715      -1125.078      -315.7150      -325.3862      -182.6907
       22.81616      -515.6476      -572.0195      -281.4971      -360.4534
      -561.5881      -491.3723      -43.89670      -55.46527      -340.8619
      -42.50891      -191.6284      -645.6038      -292.6582       6.159180
      -239.7445      -22.75392       185.7975      -116.6447      -115.6072
      -284.0270      -96.65948       165.8722      -276.5282      -196.0472
      -51.86780      -424.3538       130.5103       470.5592      -148.2100
      -190.5054       183.8260       201.9847      -172.4025      -324.8879
      -17.29858       150.4656       284.9116       419.0220       161.3665
       100.0406       159.4305      -187.9427      -19.54175       305.2907
       208.4902      -77.81799      -152.4901       399.0499       524.6970
      -13.23831      -50.06757       262.6674       533.3698       509.6721
       348.7534       369.1273      -27.40192       31.32581       426.0063
       259.7003       334.5948       215.6038       237.3306       493.9227
       187.2587      -28.58630       74.33496       123.0001       203.9456
       298.2727       498.9313       298.6832      -250.3102      -317.6224
       179.0050       512.5740       152.4600      -330.5116      -58.63770
       527.9995       378.6716      -310.4322       13.84814       642.7255
       64.00531      -189.6068       343.9305      -17.97864      -225.3424
      -199.0523      -177.2230      -102.9557      -189.2389       104.4883
      -276.1509      -98.36627       463.6390       62.06595      -207.4195
      -3.807327       163.1678      -255.7729      -112.8452       138.6697
      -320.4366      -175.8977      -133.0406      -420.6160       128.4856
       241.2684      -202.9233      -151.0486      -243.1427      -601.7019
      -120.4319       683.3314       627.5437      -282.5895      -825.4731
      -221.4715      -159.1224      -270.3832       57.79749      -195.7447
      -218.9409      -29.30380       99.52002      -177.3120      -29.19312
       169.7853      -516.1317      -398.5473       52.66241       102.3669
      -304.2871      -429.0607       137.8167      -71.90894      -666.7198
      -451.4219       149.6979       24.54236      -414.6996      -318.1511
      -127.5812      -260.1408      -175.7476      -101.9507      -318.1666
      -365.8391      -125.7552      -124.9054      -591.8958      -729.3271
      -525.2476      -14.12488       307.4102      -21.71149       35.25317
      -498.9250      -1052.057      -321.8434      -26.14606      -338.1400
      -137.2366      -76.94434      -563.9724      -1053.903      -198.9302
       718.5444      -133.5741      -535.6689      -660.2512      -622.4164
       439.4351       485.4424      -390.1989      -716.8593      -71.62515
       70.83167      -345.8447      -405.3472      -96.51184       371.2214
       205.2581      -149.1996      -588.2150      -503.8844       3.603088
      -229.5135       191.2442       328.8101      -729.6541      -700.1589
      -193.0753       411.1775       762.7581      -478.3342      -1130.248
       14.86743       562.0389      -287.3823      -182.9270      -24.97011
      -101.5150       210.7813      -417.5918      -68.57019       569.6195
      -395.5516      -835.5810       101.3749       432.3037      -38.84888
      -4.569748      -7.297974      -148.4654      -282.4971      -308.8740
       229.8317       591.2312       100.1583      -46.40731       79.65886
      -92.19067       75.01233       204.5035       324.3829       258.0129
      -362.0515      -319.1409       442.1871       241.0701      -203.6185
       351.9125       130.9847      -460.9943       108.7103       356.4649
       126.4085      -9.481873       200.8206       375.4858      -279.4780
      -142.0745       591.5992       268.1032      -176.0146       39.57520
       548.5159       590.4862      -420.8214      -159.0464       779.1247
       397.5800       80.01056      -155.6462      -296.1331      -25.62802
      -119.7078      -86.66602       499.5976       271.2842       290.3529
       706.5902      -163.7535      -219.1160      -2.345337      -6.614807
       413.6578       52.52808       433.3201       809.4968      -335.4546
      -1021.059      -181.7139       939.5601       571.7236      -281.0425
      -145.2576       1212.166       1134.221      -824.1267      -636.4795
       1085.149       1174.048      -70.74805       348.9199       569.5898
      -598.7061       16.06738       573.7601      -1.812996       39.39478
      -55.47961      -112.4595       1019.099       1390.021       197.2366
      -349.9422       36.57547      -5.396820      -269.5918       327.7092
       963.7905       599.9501       160.4686       334.7437       404.5320
       876.5438       377.5103      -935.9351       105.3760       1147.129
       418.3185       193.1476       278.3160      -236.1358      -146.4055
       421.8257       886.8357       573.4166       72.21313       459.7007
       979.7897       872.8776       219.1698       34.28650       202.8508
       328.0000       104.1484      -38.84558       319.7787       434.2534
       267.6245       655.5210       1317.140       1009.972      -586.4509
      -961.1831       635.5000       1480.792       1190.639       710.1262
       788.3451       704.2512      -351.6384      -704.1383       398.4160
       660.9573      -282.0807       164.1350       1044.121       522.4189
      -207.2277      -198.2877      -75.65152      -56.00586       379.2404
      -42.18872      -139.3423       1050.756       988.7463      -466.0562
      -931.0471      -219.4437      -263.6848      -637.1259      -901.1753
      -115.7109       886.2087       302.8039       184.7690      -139.5229
      -694.2295      -616.9131      -1515.473      -1718.556       124.6253
       274.2642      -569.1305       495.6537      -34.53076      -1666.657
      -716.6719       978.2667       427.2294       174.0944       984.3241
      -196.6333      -1281.590      -1208.882      -1808.166      -558.9082
       2401.183       2583.681       1086.936       1629.523       1151.140
      -1527.781      -2027.515      -2078.952      -3011.269      -2799.337
      -2248.457       625.2441       3201.602      -1262.442      -5389.073
       248.4131       5562.449       1587.011      -1737.154      -749.9812
      -352.9767      -369.8877      -1023.785      -816.4045      -398.5532
      -1379.764       5.333130       1222.948      -1605.624      -1594.500
       1597.819       1170.438       289.5376       1380.250       539.6858
      -1289.000      -1000.634       319.5221      -223.2827      -709.2744
       293.5974       233.6849      -631.0830      -747.0647       525.2678
       242.6580      -1481.658      -440.4412       1573.182       1103.526
      -406.1208      -186.0312      -12.03027      -760.3296      -304.8031
       271.7448       352.0129       135.4446      -1269.953      -801.9155
       1232.712      -235.0996      -2422.674      -840.0389       595.0434
      -184.9733      -169.6508       71.83423      -706.3881      -438.8635
       1041.209       1145.528       202.5342       562.0665       1048.249
      -295.5820      -1666.223      -1209.268       241.2786       1548.743
       343.3750      -1513.239      -1020.951      -442.8284      -350.1345
      -8.066406       745.4403       821.1899      -839.0159      -1626.742
      -331.6851       369.8281      -909.4187      -1328.681       454.6985
       948.0747       90.06714       229.9001       885.2809      -201.6123
      -1305.683      -530.0779      -361.9609      -610.7908      -954.3971
      -749.8629       83.14990      -166.1224      -555.4790       71.68298
      -62.27164      -234.8387       602.1674      -243.4335      -958.6459
       199.7169       776.9412       42.97192      -656.0522      -996.4038
      -801.1896      -93.39343      -285.3381      -679.0127      -917.0015
      -978.9340      -147.0071       529.7896      -647.1196      -1004.367
       546.4792       635.0740       393.0078       125.7192      -1009.102
      -571.0486       625.5684       676.5049       111.9720      -487.7859
      -455.4297      -142.5985       50.48651      -182.3816      -271.6606
       406.6794       616.9056       199.9052      -41.32239       160.6204
       572.5525      -29.40381      -1385.419      -1462.987      -447.2954
       569.0425       1363.503       1315.648       72.36780      -79.89307
       833.6121       911.2861       679.2181       640.0065       267.9348
       251.6753       1519.473       1149.298      -367.1472      -284.0950
       130.5713       4.570862      -6.922974      -50.63391      -734.9609
      -437.1121       832.7603       913.7976       774.8931       1262.800
       1061.576       526.2139       478.7632       1054.321       1319.662
       520.2653       203.7424       696.7327       903.2329       1170.775
       1350.074       679.0393       307.9587       557.7769       644.6160
       626.9961       517.3081       477.0244       726.6519       1055.369
       605.6912      -224.9315      -44.93311       833.3284       833.1234
      -39.55255       34.51196       857.0264       814.7646       575.5614
       541.2253       588.9675       820.9073       326.4844      -161.9376
       391.3247       778.3428       130.8176      -230.9083       380.7061
       453.4496       317.6736       634.2987      -75.54077      -309.3523
       381.2577       292.6620       203.4036      -43.80688      -708.8892
      -369.3576      -39.49933      -299.2466       451.9891       274.2100
      -922.5999      -675.8909      -45.83838       308.3616       32.54138
      -581.7350      -340.1311      -256.5237      -677.3644      -500.2791
       96.36223       179.2971      -162.0564       39.75775       198.0857
      -523.9824      -945.8895      -598.2291      -181.8616      -368.2419
      -788.8464      -585.9986      -121.1543      -449.1074      -1263.094
      -1602.886      -940.2728      -90.68884      -95.64062      -663.3762
      -1000.874      -320.5349      -168.4390      -769.0734      -725.0413
      -315.0804      -38.43066      -712.8171      -1140.389      -623.9309
      -667.9753      -1205.099      -979.4596      -363.6112      -259.1318
      -285.8423      -688.8154      -939.9800      -569.5967      -528.2957
      -678.5059      -806.6045      -1065.332      -434.2637       514.4989
       40.43384      -861.4783      -626.7023       50.49487      -105.6130
      -684.1162      -457.7935      -295.5181      -796.8074      -589.4606
      -216.3169      -585.8636      -513.4143      -18.15616      -90.96268
      -163.9680      -111.3546      -663.0751      -479.2624      -118.5654
      -538.7346       204.0635       1093.243       189.3605      -739.4106
      -330.6166       318.9548       310.9393       45.44812      -269.1635
       38.09717       874.0441       152.3967      -572.0649       554.5698
       983.4677       282.5018       249.6476       400.3606      -19.63367
       283.1704       1022.413       912.7547       157.0551      -191.0979
       481.2075       1143.586       959.6581       644.2167       395.8076
       131.4636       198.3413       665.6921       966.3004       255.5933
      -111.0088       542.1343       1042.290       1074.270       481.9841
       394.5879       803.2537       483.3408       351.9327       549.6912
       857.2932       840.3198       269.7539       382.8029       555.0986
       434.5973       537.6558       633.5746       503.1060       261.8337
      -85.80566       257.9119       795.1455       636.0901       964.4968
       628.4028      -165.4799       266.1411       317.5754       271.7565
       619.6264       282.3248      -100.5649       340.8978       735.4184
