     0.02500000      -1689.446       2143.651      -12345.00      -12345.00
      -29.99504       225.6799      -26.42000      -12345.00      -12345.00
       0.000000       20.31000      -12345.00      -12345.00      -12345.00
      -12345.00      -12345.00      -12345.00      -12345.00      -12345.00
      -12345.00      -12345.00      -12345.00      -12345.00      -12345.00
      -12345.00      -12345.00      -12345.00      -12345.00      -12345.00
      -12345.00      -30.16080      -67.83630       1442.000       0.000000
      -31.24600      -68.98500       0.000000       102400.0       0.000000
      -12345.00      -12345.00      -12345.00      -12345.00      -12345.00
      -12345.00      -12345.00      -12345.00      -12345.00      -12345.00
       163.0442       42.74144       222.1578       1.465916      -12345.00
      -12345.00     -0.1002895       90.00000       90.00000      -12345.00
      -12345.00      -12345.00      -12345.00      -12345.00      -12345.00
      -12345.00      -12345.00      -12345.00      -12345.00      -12345.00
      2008        16        21        18         3
       120         6    -12345    -12345     10228
    -12345    -12345    -12345    -12345    -12345
         1         7        13    -12345    -12345
    -12345    -12345    -12345    -12345    -12345
    -12345    -12345    -12345    -12345    -12345
    -12345    -12345    -12345    -12345    -12345
         1         1         1         1         1
LUNA    -12345          
        -12345  -12345  
-12345  -12345  -12345  
-12345  -12345  -12345  
-12345  -12345  -12345  
-12345  -12345  -12345  
-12345  -12345  BHE     
ZL      -12345  -12345  
[...]
       146.2546       141.5224       137.0828       151.4144       173.7316
       192.1258       74.26216      -57.88269       161.6790       408.0929
       316.6493       136.6362       20.93292       64.15485       214.1228
       228.5621       175.5608       115.9186       230.5118       310.9208
       177.8522       166.6991       145.0120       99.65161       343.3325
       234.5547      -132.2650       213.3173       549.8506       282.7065
       6.571777       159.2332       410.6014       202.4951       64.40332
       308.6823       282.3026       168.1084       339.4692       397.9860
       189.4031       97.13660       347.4528       419.5891       186.2581
       137.5679       287.0612       321.3765       262.2491       384.0308
       344.3876       192.4773       211.2831       47.70343       186.1761
       376.7573       232.8861       378.4532       293.9309       22.15710
       308.1583       165.1746      -162.3425       149.4963       260.7966
       290.7336       192.7135       40.81860       176.7968       25.33521
      -62.65547       74.56772       86.76131      -14.54582       56.81121
       85.07997      -71.03276      -52.14220      -60.90913      -71.82289
       60.26538      -153.2194      -294.3089       29.49072      -90.26953
      -380.0917      -93.21002       66.65332      -315.2115      -416.4091
      -161.4379      -292.8557      -395.8072      -223.8663      -235.5563
      -342.7817      -400.5659      -365.6254      -368.8072      -343.6779
      -253.9608      -447.1327      -489.7509      -384.2439      -400.1068
      -394.6123      -459.7473      -412.0581      -333.8623      -394.6757
      -531.2640      -536.3529      -366.6619      -324.8503      -493.0474
      -415.0851      -274.8518      -410.7737      -472.7313      -412.6116
      -340.1996      -321.4491      -370.0766      -361.5184      -264.9554
      -187.3474      -298.0112      -370.9727      -239.7954      -251.0494
      -191.8375      -60.32730      -164.1353      -103.0776      -73.46967
      -173.4530      -97.60785      -34.30380       84.89131       64.46019
      -21.38000       167.1657       144.4954       49.08081       128.7297
       202.0244       276.0277       188.2041       211.5084       376.3568
       328.0769       353.7480       339.2297       215.6538       423.2351
       579.4772       351.2600       202.1548       494.3151       653.6064
       377.3108       390.2185       589.2252       536.2106       398.1489
       472.8724       645.3934       522.9774       408.0874       524.8905
       587.8400       496.2330       502.2393       572.9872       526.7333
       448.3368       425.2756       429.7297       545.0942       611.0366
       468.5416       354.5063       443.6343       437.3767       352.3597
       358.5387       267.6876       419.7759       458.9897       259.3320
       336.1511       375.4382       291.7886       308.0328       273.5552
       233.2054       297.1285       196.6610       201.4246       329.5412
       103.1779       53.95532       204.2226       76.23143       4.153259
       141.2429       174.9125       67.44763       96.07858       143.4609
       13.72709      -34.89438       13.80318      -8.869514      -54.52332
      -14.85736      -39.37036      -134.5409      -81.62592      -98.42273
      -283.3406      -103.4634      -16.29297      -206.8750      -255.3757
      -214.6235      -173.0564      -201.5905      -195.5022      -241.0245
      -310.0017      -242.4493      -252.0573      -352.4078      -376.8533
      -307.5786      -282.8463      -223.2610      -200.7844      -312.2302
      -315.2616      -218.0316      -293.1644      -380.7021      -268.0425
      -120.9036      -201.8882      -308.0605      -265.2442      -186.7512
      -141.8519      -242.4524      -348.0235      -227.3735      -167.8096
      -208.1409      -146.4321      -192.4478      -267.0443      -111.2313
      -65.47247      -165.3500      -102.1258      -80.23267      -147.3370
      -56.72495      -58.38699      -163.4543       11.06420       48.95013
      -178.4048      -129.2670       41.49481       119.9371       62.64548
      -35.89471      -126.2302      -67.20699       28.79652      -13.57673
      -50.46301       80.77678       69.71651      -24.61599      -8.244644
      -67.41362      -24.88309      -72.08646      -66.86919       37.37321
      -64.65788       10.38713      -30.27899      -148.0188      -139.7058
      -140.1669      -24.32043      -45.75986      -105.1407      -37.36523
      -158.9601      -269.1382      -99.77850      -65.92932      -287.8907
      -229.1095      -96.66296      -153.3016      -207.7609      -193.1422
      -160.4670      -83.16492      -146.5100      -218.1276      -192.3939
      -168.2607      -149.1757      -192.4650      -159.7047      -138.2250
      -195.4271      -170.9193      -256.0447      -195.8179      -6.889526
      -141.9630      -282.3939      -112.1299      -119.1180      -248.9777
      -139.2919      -63.32214      -163.8749      -203.5825      -232.8802
      -156.1341      -95.74631      -106.8299      -84.39648      -227.4532
      -310.6678      -91.76431      -87.47668      -187.0412      -178.7762
      -222.0530      -89.39218      -27.19708      -274.0430      -291.9638
      -18.84717      -11.67847      -294.2893      -251.1716      -42.13449
      -16.49515      -127.5800      -152.4283      -135.8545      -108.7401
      -89.27679      -145.6571      -97.03867      -49.00751      -106.5008
      0.1085396       27.57291      -49.25855      -31.24437      -10.08353
      -69.05042      -73.10681       75.17805       64.78551       17.53268
       100.4188       57.56055       84.46176       137.3074       96.53714
       76.61853       52.80624       39.43689       130.5452       79.41165
       32.87708       277.8150       217.5605      -33.69342       112.6136
       180.4047       137.7067       125.8712       99.59247       205.7423
       223.8984       112.2318       100.0487       81.39433       28.16010
       117.1550       162.7145       54.60303       121.1075       149.3843
      -25.76747       2.536316       144.1915       187.8317       50.21365
      -2.667908       166.7413       152.5311       15.47591       29.18469
       63.25967       57.86108       142.1939       103.0267      -42.41507
       56.51904       225.1712       113.0815      -27.03082       203.8256
       398.6256       121.0517      -63.53076       182.4050       357.9619
       257.1237       168.7966       258.7142       217.0699       252.5464
       285.8224       222.5680       375.3825       258.3870       184.6345
       475.6962       390.9166       213.0029       347.2235       302.6809
       325.2305       493.9203       322.6578       251.2505       388.6550
       267.5845       334.2343       500.7120       334.2026       134.0020
       258.0509       557.3738       414.4467       174.2304       297.5142
       418.7303       342.0587       261.2957       330.8670       345.3268
       289.4022       250.4893       245.0377       343.8989       391.6196
       326.1818       326.8206       218.6809       253.0488       318.2218
       96.42914       213.4983       411.6840       277.4272       206.6742
       148.6690       241.3962       301.5074       155.8882       284.3717
       365.1093       161.7172       143.8269       163.4929       147.9714
       281.1583       269.3495       137.6787       103.9626       19.00281
       30.23120       218.3022       209.9670      -5.251617       27.59317
       154.1351       79.52725      -99.19955      -48.71145       27.68246
      -104.4854      -109.0320      -12.42405       23.19055       7.918335
      -96.64182      -169.7862      -110.7381      -160.7319      -152.3311
      -135.2957      -294.4429      -227.8882      -161.0024      -173.0719
      -179.4699      -302.5481      -245.4647      -120.5608      -301.8848
      -475.9546      -323.6620      -286.8220      -457.1149      -325.4404
      -161.4320      -344.6787      -518.2167      -421.8135      -367.4238
      -474.6842      -525.2031      -375.8667      -314.1692      -480.7133
      -532.9758      -432.4475      -425.8008      -407.8657      -415.2582
      -464.1594      -353.6062      -415.1300      -570.7333      -396.5032
      -377.0051      -569.2490      -534.4105      -373.2397      -309.0935
      -416.7294      -562.2920      -446.3818      -300.8290      -404.8557
      -430.8811      -380.0939      -412.8489      -363.0543      -337.5670
      -376.1255      -402.2822      -337.7044      -318.7597      -336.7769
      -313.3474      -292.3053      -246.3190      -302.7947      -416.3127
      -221.5794      -62.55774      -298.4161      -374.4666      -155.0382
      -146.4642      -173.8685      -164.8807      -260.8350      -315.9070
      -225.9186      -74.77054      -72.52802      -142.3492      -202.3943
      -190.9796      -33.53030      -148.3700      -216.0442       30.21414
      -21.00183      -252.0862      -153.1379       19.74248       17.81461
       49.85379      -41.85043      -165.7921      -14.80228      -42.74290
      -100.5023       145.3831       173.2146      -77.53264      -88.52155
       125.0525       111.3483      -29.57028       5.141327       151.6915
       182.9500       101.3620       179.9248       172.2785      -3.558716
       109.8932       246.2385       198.5233       151.3802       82.13379
       188.8802       295.6280       208.9131       212.2085       278.6206
       267.4308       205.3695       289.5976       332.1828       225.3893
       252.9169       321.6383       248.0515       194.9635       260.1107
       370.1867       303.2463       151.6038       301.5310       464.1855
       413.3734       331.5616       310.0887       381.3064       364.6194
       326.3546       335.1566       371.1055       349.3564       360.2665
       448.0912       439.5320       377.4385       391.5220       430.4211
       415.1189       422.9380       486.4359       411.7610       295.6460
       348.6187       431.0609       410.5558       428.5128       477.4683
       393.7120       365.9377       454.0962       430.0835       415.3606
       363.7791       342.3164       319.8953       255.2133       325.8857
       323.7019       270.0555       281.0998       194.4836       82.05743
       123.5877       267.1560       394.3604       302.5116      -6.348480
       14.92114       226.4089       115.9317       12.58885       14.79620
       110.0714       110.3193      -239.7843      -180.9378       229.1018
       80.88733      -178.3051      -220.5196      -144.2547       43.19855
      -64.64197      -246.9058      -111.0868      -83.13818      -284.1294
      -271.9188      -215.2448      -214.3354      -195.0842      -247.2928
      -277.7650      -168.9005      -252.1942      -443.6556      -360.9491
      -197.7130      -185.9446      -382.2936      -439.1844      -271.8539
      -270.4392      -363.2224      -315.8746      -303.4926      -505.9366
      -471.9398      -376.6913      -428.1063      -342.4990      -281.5121
      -374.7466      -385.0038      -275.8818      -296.0746      -370.9962
      -394.3420      -432.2687      -362.2278      -342.8881      -347.3589
      -240.6478      -209.2678      -319.7745      -444.8928      -469.3994
      -271.3728      -112.5344      -203.4604      -229.7272      -287.5031
      -311.6458      -35.61063      -57.17590      -225.7935      -66.43241
      -7.492645      -99.87500      -139.7432      -308.6056      -379.0623
      -353.9514      -684.4679      -670.4934      -56.14355       124.7850
       82.88676       53.46291      -127.8112       99.07971       415.7136
       401.2461       567.6546       451.6206      -93.20825      -196.1809
      -50.20123       69.14209       422.2744       502.8328      -18.71106
      -508.6317      -512.8276      -618.1001      -949.2075      -911.8195
      -355.2292      -81.68292      -306.8322      -48.70947       324.9424
       172.0181       412.3232       817.7469       277.0852      -659.7202
      -853.0521      -503.2813       4.292969       406.7678       398.2325
       82.83057      -588.9857      -627.3025       452.0616       833.6163
       101.4937      -635.1886      -705.2136       244.3142       1073.468
       813.1749       230.1163      -96.90747       23.48071       417.7358
       532.0636       156.2205      -173.3164      -244.8814      -20.62463
       476.4725       122.1562      -674.1162      -494.6661       58.69617
       252.7461       554.1906       638.9833       161.7838       318.2844
       1104.858       737.8835      -837.2839      -1199.933       204.0222
       515.2582      -178.7366       900.1182       2143.651       1571.631
       946.9583      -426.5696      -1689.446       120.0396       1252.412
      -52.06042      -662.2441      -424.0115       590.0720       1380.391
       708.4806      -471.0903      -1075.648      -250.6476       688.9648
       471.7477       15.80975      -189.8719       115.0137       334.1880
       539.4001       1165.916       801.6254       134.4038       93.58313
      -206.9307       103.4719       648.7976       197.2375      -529.1915
      -537.3824       179.5349       574.9709       883.2723       629.2314
      -173.9010       361.3568       464.5483      -459.6559      -326.6362
      -85.46924       168.4233       719.0795       502.0991       405.1033
       418.9953      -35.26477      -218.9107      -188.6427      -136.7898
      -220.6365      -152.1846       509.9172       677.2008      -10.79364
      -194.7513       235.3158       193.5335      -322.7412      -255.1479
       530.8082       756.0199      -166.8746      -822.5356       4.214233
       496.3787       155.5562       166.3193       152.2662      -145.1648
      -607.1432      -536.7783       77.15024       167.6936      -414.3624
      -553.2396       125.8161      -59.97876      -640.7308      -251.6609
      -172.4842      -162.6092       320.8767      -234.1646      -945.5852
      -333.3220       271.0477      -281.6953      -1009.591      -636.6650
      -14.02441      -500.7148      -1110.577      -410.4074       391.5413
      -467.4748      -691.4663       907.5811       884.6813      -515.9578
      -527.8191      -476.1611      -910.8232      -644.4762      -175.8790
      -299.9373      -687.0184      -338.7095       212.0768      -49.65732
      -159.8638       272.4849       405.2529       135.0137      -366.8688
      -591.1936      -79.59055       177.4052      -346.9579      -529.7881
      -102.4224      -17.64459       116.5167       194.9989      -516.4438
      -746.9565       350.2662       562.4351      -418.4470      -299.5293
       192.8072      -60.17036      -82.33331       105.7278      -21.49268
      -484.3353      -430.3444       280.6056       146.4245      -434.7069
       4.015137       318.0605       171.5780       608.9626       446.7976
      -384.7592      -11.58887       684.4009       306.1624      -81.74081
      -31.65466      -289.7993      -439.2138      -29.81247       222.9969
      -31.97412       182.5406       551.8514      -164.4344      -492.0428
       155.8503      -105.9253      -630.1802       7.001526       420.2928
       33.91380      -58.33070       45.89892       33.34521      -131.4312
      -165.4987       118.4720       67.50525      -384.3657      -191.1498
       233.1929      -125.7379      -291.5781       327.7864       304.2312
      -400.1511      -475.4717      -292.6833      -341.7271      -236.7522
       478.7811       730.7314       137.1908      -26.91309      -277.9104
      -485.2937      -65.37115       248.5111       113.4174      -339.5156
      -329.6952       154.4127       96.37555      -246.6274      -206.6630
       58.30103       431.6317       248.4540      -374.1887      -28.14624
       549.0242       257.7740       126.7639       491.1621       658.6270
       459.1058       75.56932      -85.87964       213.7925       454.5793
       302.6832       245.4135       258.6429       269.6140       474.8621
       544.6596       164.3371      -259.1871       83.72314       724.4600
       623.2891       336.4805       287.7377       158.9867       18.38721
       241.0383       683.3223       403.3939      -131.5676       230.3840
       381.7319       73.88940       319.0225       517.4454       446.2605
       224.1479       105.3475       292.5421       152.0648       287.0929
       603.5781       136.4103      -235.2629       8.806152       148.1172
       86.13489       102.6076       16.93719      -259.1039      -146.9052
       174.5780       55.91089       84.51035       235.6638      -30.92637
      -70.33804       84.53894      -109.4623      -220.6478      -61.84583
       58.18118       28.47701      -132.5560       183.7939       206.9794
      -228.2395      -238.5269      -376.5157      -340.2902      -75.79559
      -196.9074      -63.72369      -9.353271      -609.0784      -509.1275
      -37.13916      -200.5969      -117.3254      -151.6602      -453.6239
      -241.0415      -299.6105      -660.9681      -544.9022      -174.6154
      -215.8495      -628.3849      -414.9492       110.9644      -148.8036
      -305.5291       63.45544      -192.1272      -598.7025      -248.2900
       31.53394      -326.2850      -613.7562      -398.3296      -69.35579
       52.14661      -165.4520      -185.1357      -307.1780      -522.0834
      -359.1375      -455.5164      -612.5703      -441.7558      -154.8536
       236.8694       119.6156      -391.4214      -272.7910       51.62332
      -26.24622      -272.7095      -300.8732      -247.6458      -536.5095
      -450.1284       119.1445       69.96497      -280.2758      -309.8269
      -262.9856      -372.1599      -347.6423       209.6805       275.5771
      -246.0374      -254.5830       130.1801       138.2866      -257.8358
      -179.1812       154.9949      -144.8805      -405.4017      -74.08394
       6.610168      -142.3463      -43.91498      -203.0946      -503.8499
      -343.3894       61.91544       83.54482      -100.1272      -25.61816
       231.2877       118.0031      -274.5345      -102.0557       295.4974
