     0.02500000      -1787.730       1852.446      -12345.00      -12345.00
      -29.99504       225.6799      -26.42000      -12345.00      -12345.00
       0.000000       20.31000      -12345.00      -12345.00      -12345.00
      -12345.00      -12345.00      -12345.00      -12345.00      -12345.00
      -12345.00      -12345.00      -12345.00      -12345.00      -12345.00
      -12345.00      -12345.00      -12345.00      -12345.00      -12345.00
      -12345.00      -30.16080      -67.83630       1442.000       0.000000
      -31.24600      -68.98500       0.000000       102400.0       0.000000
      -12345.00      -12345.00      -12345.00      -12345.00      -12345.00
      -12345.00      -12345.00      -12345.00      -12345.00      -12345.00
       163.0442       42.74144       222.1578       1.465916      -12345.00
      -12345.00    -0.04455059       0.000000       90.00000      -12345.00
      -12345.00      -12345.00      -12345.00      -12345.00      -12345.00
      -12345.00      -12345.00      -12345.00      -12345.00      -12345.00
      2008        16        21        18         3
       120         6    -12345    -12345     10228
    -12345    -12345    -12345    -12345    -12345
         1         7        13    -12345    -12345
    -12345    -12345    -12345    -12345    -12345
    -12345    -12345    -12345    -12345    -12345
    -12345    -12345    -12345    -12345    -12345
         1         1         1         1         1
LUNA    -12345          
        -12345  -12345  
-12345  -12345  -12345  
-12345  -12345  -12345  
-12345  -12345  -12345  
-12345  -12345  -12345  
-12345  -12345  BHN     
ZL      -12345  -12345  
[...]
       195.5380       145.3826       23.94753      -39.53857       80.78412
       380.7513      -26.57919      -275.8659       104.5167       470.6871
       289.0150      -136.8551       36.51006      -13.90091      -213.1327
       464.7135       630.5397      -146.8365      -178.9833       172.2104
       170.6887       243.5475       343.3716       209.5583       61.31895
       98.98244      -45.81696       34.32117       337.7347       329.3369
       279.6723       74.87875      -43.31958       208.7594       270.9458
       251.0307       310.2685       10.45856      -80.53912       275.5373
       221.7408       62.26794       212.6288       191.5363       163.5189
       172.9663       163.5126       246.2611       110.0612       69.82674
       33.67344      -14.48315       22.88358       20.64301       232.0669
       247.0364       2.543407      -33.03775       49.35960      -63.16861
       101.8112       122.0607      -104.2185       29.63147      -69.73679
      -122.9099       125.7363       44.57391      -196.4473      -94.30884
       177.3748       70.68103      -63.54514      -13.23242      -79.68323
      -253.2806      -282.0062      -2.119293       83.77344      -214.9718
       15.51126       200.9185      -395.3116      -275.3439       259.1510
      -266.5795      -357.8927      -2.291443      -215.1940      -149.3829
       28.55048      -158.9662      -210.2474      -188.0732      -113.2312
      -58.26263      -352.4112      -122.6298       233.1750      -196.9139
      -393.2216      -78.94189      -132.6983      -350.8125      -1.030029
       172.5107      -142.0306      -361.1904      -238.4092       34.22632
      -76.60127      -105.8796       37.04785      -186.0500      -238.3274
      -47.36173       9.142563      -8.961914      -87.21582      -182.4893
      -129.6968      -107.1776      -129.0221       58.71536      -16.24249
      -281.4961      -93.61963       133.5265      -84.26270      -267.2702
       21.67641       25.58215      -252.9532      -107.3899      -54.51740
      -239.2607      -39.45656       56.62738      -209.5930      -172.7946
      -7.654827       7.693085      -75.49194      -233.6922      -120.1806
      -116.4646      -198.2849      -70.60699      -99.27087      -132.6028
      -103.6865      -141.8009      -244.3099      -312.3743      -115.3781
       56.38980      -61.32147      -268.3398      -297.0056      -277.5898
      -243.4479      -128.1336      -17.79706      -183.0998      -253.5974
      -53.01245      -173.6987      -298.9579      -125.9266      -188.1700
      -128.6424       77.30664      -131.6125      -283.8547      -211.0979
      -221.0895      -307.9828      -125.4882       129.8525      -134.0294
      -212.7123      -14.63815      -132.2977      -244.3254      -169.6692
       12.53499       78.53021      -135.7063      -171.5155      -45.06979
      -86.59882       2.076889       11.02698      -219.6183      -25.88348
       128.9809      -47.84771      -3.430344       25.31088      -29.11547
      -12.49262      -76.64502       43.62915       114.1097      -47.80155
      -3.132874       105.4978      -39.73340       38.12927       154.6128
       64.63660       106.8721       76.13828       43.99274       218.5358
       154.2502       23.18268       67.30896       205.6510       183.6646
       18.70557       220.8551       338.9420       102.3007       171.0109
       209.7593       82.01416       155.8494       151.3919       53.79492
       219.8673       352.9195       293.9907       157.6660       139.6724
       213.6152       193.9447       205.6606       223.6631       143.9464
       193.9767       322.2902       254.6080       118.5175       201.4196
       260.1330       182.5267       184.0118       220.8266       232.3442
       234.2365       187.2424       218.6419       149.8631       110.8501
       319.5868       351.5751       32.51352       6.298035       260.9618
       166.4421       77.39453       225.1228       240.3129       154.3849
      -16.73563       58.66486       257.5625       21.20499      -56.56903
       179.9464       148.0504       82.98811       65.71516      -40.79672
       16.82187       174.3992       5.267090       26.33643       271.1882
       40.01170      -37.26263       98.22046       162.2753       203.2332
      -95.77496       18.73230       303.5302       111.4554       37.67517
       194.6001       257.2543       142.7360       100.0981       103.5833
       142.2921       224.7513       164.3395       136.4860       162.4901
       201.8423       147.8346       118.9086       148.7043       183.9835
       219.6153       156.5634       3.748322       82.66699       263.2253
       112.4800       88.02313       239.9892       105.9942       51.07664
       47.46548      -21.20087       45.66238       155.4818       36.47098
      -131.9367      -21.36658       80.26825       3.250111       6.067139
       10.93640      -221.0137      -212.0036       126.2444      -71.66760
      -248.6955      -39.62643      -72.61731      -267.0936      -277.0331
      -84.36789       29.22998      -149.0918      -320.7838      -272.7740
      -109.0453      -239.9218      -277.4896      0.6103516      -122.3496
      -443.9534      -306.8517      -136.7970      -241.0347      -278.3881
      -157.0464      -168.0905      -318.2366      -370.9854      -310.7328
      -197.3254      -151.2118      -254.3749      -275.9644      -159.0310
      -190.0225      -391.2238      -310.2018      -182.7705      -233.7314
      -146.6079      -147.0875      -283.2877      -294.8088      -277.2836
      -220.2369      -191.5950      -120.8105      -141.9161      -300.4389
      -279.8545      -186.2712      -176.5879      -121.3395      -108.3353
      -202.7357      -175.4492      -156.8628      -222.6489       6.380829
      -49.07141      -304.8848      -89.91122     -0.4798584      -212.6096
      -167.9820      -80.46152      -145.1931      -163.0334       17.54965
       18.90796      -232.9557      -171.1812       128.3783      -33.61673
      -140.7520      -72.00623      -228.3183       44.86432       256.0744
      -72.80643      -167.7744      -51.60638       24.65790      -1.549599
      -17.54080       12.63745      -133.3535      -97.18594       228.3035
       32.75229      -201.0909      -44.96198       79.31845       196.8005
       78.99771      -130.8523       91.17847       172.7734       42.95612
       26.83608      -27.13690       23.65118       92.84122       96.47910
       202.0770       103.0056      -35.60065       206.1431       340.0277
      -20.92784      -67.67694       193.3965       232.8750       279.5441
       145.1348       18.99890       209.9359       142.0614      -54.78046
       77.28479       401.8167       188.2993      -187.9009       111.5694
       280.1415       80.74394       41.61145       132.7467       193.7793
       44.57910       55.75879       350.2868       246.2495      -211.3335
      -80.27515       327.0074       148.9908      -11.42303       155.1107
       74.17261      -70.56427      -3.932983       193.7185       181.8660
      -39.20273       103.5974       164.3148      -68.07426      -54.01685
       52.69891       320.7791       207.0112      -142.4729       99.61401
       163.0030      -33.53168       146.0444       144.6570      -15.05981
       149.1735       245.1117       209.7416       145.1306       41.15472
       28.60086       21.35876       233.2351       217.2348      -71.03571
       122.3406       233.1861       47.44052       28.66821       99.85104
       153.2783       109.5794       108.9207       147.2449       105.0552
       84.21465       6.094421       32.78394       78.50464       72.42184
       159.9412       179.8198       180.7711       101.8850      -18.35886
       32.93839       117.0498       158.3104       109.2921      -13.01370
       87.95444       156.5991      -84.03177       28.66602       279.8402
       25.83722      -10.06064       155.7062      -4.128838      -21.86572
       147.2824       176.7808       44.84292      -29.59320       116.3106
       128.7912      -10.02984       25.31473       35.32721      -51.37985
      -21.97755       134.7125      -37.08301      -178.5359      0.7110710
      -12.27429      -2.229950      0.9257202      -147.6523      -90.51013
      -53.87122      -195.6937      -159.7548      -26.36996      -9.591064
      -119.6252      -293.7389      -210.3198      -165.1508      -259.6533
      -138.2954      -134.2925      -225.0513      -146.3423      -303.4140
      -270.1513       32.69995      -202.1553      -411.1071      -170.4224
      -195.9572      -287.7577      -167.2113      -237.2913      -328.4741
      -301.4220      -213.6459      -127.0056      -215.9102      -171.2899
      -137.3281      -278.9794      -284.0076      -186.3678      -172.7710
      -229.0175      -225.5075      -125.0081      -94.22546      -220.7732
      -255.0536      -179.1083      -175.0201      -77.80756      -103.0328
      -245.8842      -134.5474      -51.77344      -204.6957      -172.9611
      -36.26294      -142.1788      -171.8418      -9.054520      -5.242508
      -72.23978      -50.51581       60.31726       20.97353      -103.4232
       8.244141       99.25338       63.24480       1.557343      -145.5503
      -76.83512       41.95716       7.407759      -21.06126       28.59496
       83.78214      -22.73990       54.58679       199.1893       158.3469
       72.59723      -63.68677       24.76929       159.1315       23.87254
      -72.62238       48.15707       118.9803       34.88960      -10.82202
       102.3381       78.83049      -43.16107       66.62646       125.3731
       50.02972       44.79364       75.22223       80.94527       68.89014
       88.27858       42.85640       38.72765       47.66001       34.41058
      -8.356232      -40.17181       46.47095       78.66211       34.59536
      -16.87363       68.81757       170.0659      -8.127014       11.06281
       170.2634       64.31958      -7.348572      -42.71387      -83.33136
       17.41356       3.443665      -22.90808       193.1628       154.7560
      -185.2639      -50.98166       209.1930       28.59058      -66.38921
       44.47498       72.91638       173.5710       167.8793      -7.617813
      -73.50018       140.4263       247.3698       22.52071      -117.8158
      0.2245483       197.9977       105.5959      -63.39966       67.19180
       69.15439       39.96863       214.1465       232.0212      -22.19452
       22.86383       247.1111       203.8423       13.10617       61.84457
       61.89407      -156.1731       25.09656       338.3806       225.6135
       130.9790       38.14589      -29.85596       174.1177       213.7290
       162.3113       154.6641       21.14861       17.93353       43.76258
       49.30631       23.10043      -26.70728       161.9987       264.3360
       8.731628      -226.1370       50.66425       361.2997       18.79436
      -148.8670       207.0351       128.1625      -37.51935       190.8264
       117.8874       45.70047       147.0611       81.69044       6.667885
      -71.85138       52.03046       186.1514       34.62058      -74.73828
       127.2223       261.4867       92.29785      -75.82835      -112.3734
       226.3868       541.5554       104.5548      -242.9482       31.58865
       174.9037       47.86241       35.30113       45.65974      -29.90295
      -65.88843      -315.9546      -399.5645       33.43480       35.45718
      -177.0040       199.9088       585.3367       581.3824       526.4398
       282.7274      -432.4207      -888.8011      -357.6335       657.1279
       1345.515       1498.675       1259.428       298.6567      -850.9751
      -884.6627       60.13483       571.0598      -229.2749      -1368.642
      -1577.514      -987.0404      -437.9296      -282.9714      -176.3591
      -252.5051      -714.2397      -1188.295      -1221.162      -726.5320
      -55.19263       137.8550       125.9105      -10.13037      -705.2969
      -721.9962      -41.84131      -334.1123      -1446.028      -1740.785
      -226.5596       1241.571       795.9178       34.66272      -21.77808
      -621.8728      -1190.652      -562.4944       441.4672       489.0299
       89.53320       647.1635       1072.550      -296.3457      -1526.537
      -1530.409      -1292.306       50.79761       1515.115       293.2744
      -1297.321      -542.8499       441.0457       492.0945       255.0908
      -880.1499      -1787.730      -902.1646      -121.8802      -348.2407
      -875.7361      -1118.067       109.0203       858.6464      -117.5140
      -1.040527       991.1038       1201.805       996.5928      -454.1758
      -1584.267      -607.0555       248.3716       1002.801       1852.446
       301.7043      -1394.892      -30.73438       1675.594       870.4169
       23.01819       793.2949       142.9155      -1082.452      -468.8029
      -598.0099      -664.4604       795.1987       1150.973       381.5350
      -122.5795      -352.3105       114.8237       884.8386       722.8373
       189.8070       399.6652       707.4636       178.0721       89.25928
       985.6946       1046.237       84.97723      -358.2579       374.2139
       497.5215      -303.4207      -39.27357       123.9978      -480.5735
       28.13623       836.3000       540.6151       220.9707       799.1968
       1235.123       519.7966      -481.0284      -540.6283      -181.1199
      -249.2059      -51.72607       684.2007       828.2362       655.7079
       212.5735      -669.0267      -456.6572       168.1436       356.9897
       857.3406       645.7837      -307.7683      -641.0520      -613.7786
      -368.1887       638.1833       1388.863       546.1493      -406.6539
       46.22702       309.1413      -139.3555      -35.32663       208.0543
      -357.2756      -422.1957       76.03656      -162.9764      -239.0548
       241.8959       656.6056       449.2443      -463.2963      -445.2048
       564.9769       269.9810      -790.2969      -282.5919       303.2366
      -550.1960      -747.4894      -60.81525      -180.1403      -430.9960
       83.62842       493.5522       206.3635      -456.9583      -955.0920
      -774.3910      -421.5427       358.9504       1271.944       539.9954
      -539.8410      -331.3345       24.61810       198.7691       223.5587
      -62.64325      -141.8277      -130.7091       283.2933       588.1549
      -272.2798      -582.1588      -136.8258       93.42664       286.2724
      -37.81860      -167.3783       91.53802       252.6214       239.9815
      -106.9462      -36.96942       67.96872      -63.27014       340.4812
       453.8635      -170.2291      -346.6316       7.490723       156.2660
       337.4479       91.44849      -355.2485       251.4406       425.7539
      -318.9860      -164.8943       380.7079       326.8636       548.0854
       469.6497       58.69347       59.82666      -146.4376      -88.37674
       139.0702      -21.56329      -115.3826       34.35901       534.0830
       682.9447       370.3786       110.7514      -72.29303      -277.1257
      -312.8286      -90.22418      -54.06636      -42.48170       63.03259
       84.95895       142.6255       30.42982      -23.59412       142.9197
       272.4152       341.7498       199.7379       169.7004       156.5576
      -202.7654      -310.6160       119.2505       480.3613      -97.15295
      -605.9639      -339.4669       43.95532       441.7270      -17.01196
      -500.5139       58.11633       63.09167      -389.3733      -490.4923
      -547.3784      -256.3252       249.8473       241.3461       12.95703
      -390.5070      -593.7709      -180.4381       24.21924      -18.76086
      -459.2571      -847.1528      -221.4158       289.8498       35.68704
      -117.0024      -157.1941      -614.4369      -754.3494      -92.57080
       379.1671       348.0509      -325.4456      -815.9117      -393.3471
      -90.71487      -182.4289      -141.0151       257.2912       46.44727
      -586.5371      -699.8080      -489.5758       87.91260      -12.85681
      -502.9692      -299.5393      -362.8198      -494.8497      -115.4880
      -9.604980      -329.7104      -381.0186      -419.5075      -453.7243
      -57.80121       301.4940      -82.36127      -563.5267       119.9958
       400.2604      -304.2579      -194.7721       104.1268       127.8201
       250.2335      -32.21509      -513.2489      -427.2815       158.7394
       509.7516       56.34192      -373.7921      -134.4086      -386.2842
      -400.0151       456.1412       629.1826      -49.85095      -584.9529
      -175.2708       458.5759       171.8479      -196.0122      -225.2963
      -218.1628      -117.6471      -179.6815       48.10193       578.6648
       202.8314      -496.3400      -332.2783       34.64526       373.6774
       468.1903     -0.3598480      -55.46939      -45.28851      -220.8423
      -105.5144      -157.6831      -261.9466      -207.7811      -69.40454
       363.1848       438.4464      -40.22690      -165.4376      -62.83157
      -182.5483      -25.99426       121.2122       68.54510       290.2584
       402.1667      -54.63115      -151.6225       231.6987       180.9923
      -69.39453      -166.0578      -114.7564      -4.322632      -128.0377
       136.8656       491.7012       231.6162       124.3557       377.0813
       520.0560       394.3502       151.8939       283.3619       219.7217
      -46.09937       416.8896       912.2864       389.7617      -1.638184
       459.5197       726.7836       348.9261       304.9572       600.7732
       437.3827       200.2822       417.4633       672.9807       378.5608
       328.3824       790.1915       469.0665       166.6807       639.6404
       977.7865       707.1021       152.4335       43.67407       359.7924
       443.2576       625.3342       682.0177       192.5129       303.9194
       839.5240       536.0005       210.5250       150.8394       274.1360
       686.6256       519.1468       19.06415       68.23190       128.4290
       139.0823       352.4703       133.7880      -71.23767       194.4408
       135.5652      -49.44031       135.5591       327.7437       87.61351
