     0.02500000      -923.2001       1679.072      -12345.00      -12345.00
      -29.99504       225.6799      -26.42000      -12345.00      -12345.00
       0.000000       20.31000      -12345.00      -12345.00      -12345.00
      -12345.00      -12345.00      -12345.00      -12345.00      -12345.00
      -12345.00      -12345.00      -12345.00      -12345.00      -12345.00
      -12345.00      -12345.00      -12345.00      -12345.00      -12345.00
      -12345.00      -30.16080      -67.83630       1442.000       0.000000
      -31.24600      -68.98500       0.000000       102400.0       0.000000
      -12345.00      -12345.00      -12345.00      -12345.00      -12345.00
      -12345.00      -12345.00      -12345.00      -12345.00      -12345.00
       163.0442       42.74144       222.1578       1.465916      -12345.00
      -12345.00     0.04809542       0.000000       0.000000      -12345.00
      -12345.00      -12345.00      -12345.00      -12345.00      -12345.00
      -12345.00      -12345.00      -12345.00      -12345.00      -12345.00
      2008        16        21        18         3
       120         6    -12345    -12345     10228
    -12345    -12345    -12345    -12345    -12345
         1         7        13    -12345    -12345
    -12345    -12345    -12345    -12345    -12345
    -12345    -12345    -12345    -12345    -12345
    -12345    -12345    -12345    -12345    -12345
         1         1         1         1         1
LUNA    -12345          
        -12345  -12345  
-12345  -12345  -12345  
-12345  -12345  -12345  
-12345  -12345  -12345  
-12345  -12345  -12345  
-12345  -12345  BHZ     
ZL      -12345  -12345  
[...]
      -401.4945       600.8442       935.9447       577.3098      -295.8096
      -497.7744       714.5557       877.5789       178.2909       169.7970
      -224.4879      -34.91907       614.5182       258.6906       204.4065
       403.0912       428.9040       410.5975      -272.2153      -259.2776
       397.4688       376.1672       400.8065       238.9562      -50.24063
       99.80627       127.1965      -106.8784      -346.7129       134.8542
       648.8498      -249.5911      -443.0510       238.6131       3.024857
       33.78175       63.37402      -214.0964      -594.2740      -546.2510
       315.5076       253.4655      -223.0039      -229.6263      -355.0150
      -96.59750       148.4005      -210.9617      -303.7069      -273.6554
      -456.7238      -355.9890      -235.6058      -365.1568      -98.23874
       139.7600      -437.3416      -425.8094      -75.28223      -764.2832
      -528.4347       4.533691      -441.0242       119.9222       19.84424
      -923.2001      -261.5763      -374.4865      -615.9977       135.8546
      -215.9879      -25.23880       147.1190      -663.9634      -537.5725
      -393.7861      -569.1437      -238.4124      -14.79533      -34.95364
      -20.00854      -241.9489      -479.8195      -298.1970       82.88742
       49.70422      -170.3623      -306.7332      -281.5945      -138.8874
      -53.88721       284.5755       264.3555      -279.5290      -315.6142
       40.40314       74.52498       21.13101       211.2206      -239.7461
      -369.5704       456.2192       204.0059      -249.2974       170.6523
       61.07227       88.30045       208.1375       44.12209       78.09868
      -38.96655       303.1441       274.7440      -181.4420       284.3460
       216.1772      -17.58710       164.8114       50.80066       492.8332
       222.1831      -193.6992       504.4409       281.5346       18.72925
       309.3545       143.6932       301.4296       277.6721       67.22095
       314.2278       446.0810       364.3773       81.61145       159.1482
       401.9319       221.5414       395.4967       366.0735       57.07483
       273.8425       323.3607       337.5868       226.7725       8.845825
       332.3994       387.1960       371.7274       589.7845       142.4843
      -153.2887       167.7344       271.8256       297.0681       247.4380
       185.1225       277.9827       166.5859       150.8144       201.1854
       66.73349       112.0364       122.6815       27.18472       204.3747
      -36.73090      -249.4712       182.3644       258.0968       194.5796
      -15.58920      -239.2199       99.02344      -66.46472      -175.1255
       31.70493       68.82751       130.5590      -271.2133      -296.7986
       127.0321      -80.37317      -116.3137      -80.75220      -349.2627
      -64.84561       146.9045      -168.1775      -320.2431      -297.8618
      -241.1832      -194.4749      -86.24631      -2.269318      -145.7119
      -115.7544      -6.235535      -243.2825      -372.6353      -102.0300
      -109.7470      -388.6207      -77.14612       39.52277      -214.7062
      -73.22507      -21.72668      -63.15152      -54.46295      -238.9895
      -141.4374       156.3100      -24.82880      -142.7445       56.51289
      -20.72482      -72.52361      -9.818756      -106.1167      -20.99893
       169.8247       34.55293      -96.57996       103.6748       55.16656
      -152.3534       13.23996       138.5252       96.54338       91.90893
      -11.67153      -68.16617       90.77252       267.2014       136.7284
      -50.78159       175.1467       49.07452      -100.2002       107.8736
      -202.6842      -35.56659       372.4975       140.7053       6.175659
      -49.22974       69.14844       73.69110      -101.2559       227.4628
       164.8315      -217.9968       62.95753       65.97545      -18.28662
       272.1344       63.76077      -55.26690       51.91528      -41.46121
      -73.12665      -137.6606       40.92836       95.50931      -65.61398
       228.1033       38.98389      -306.3984       79.32755      -3.084503
      -139.1556       216.5045       19.73689      -81.41340       84.67753
      -67.39990       40.51758       280.1846       92.21295      -194.1169
       102.4754       327.0416      -275.9732      -158.1573       359.2111
      -107.4734      -23.10669       563.1815       176.5495      -155.1321
      -46.91293      -130.5571       30.28503       292.9103       140.4736
       131.6709       276.0416       171.1043      -61.21783      -153.3557
       223.7134       386.8865      -98.63722       12.89987       185.1724
      -239.9372       98.97534       270.1765       33.87448       151.0007
      -58.25940       70.23141       199.8781      -156.7875       51.16568
       205.7851      -80.47266       107.0760       268.7355      -48.10114
      -307.8151      -60.20050       322.9483       87.17130      -43.91234
       115.2634      -184.1009      -283.0922      -44.15137       82.29642
       146.0449      -30.16998      -273.5933      -25.61392       240.1726
      -36.46436      -107.0477      0.2214355      -183.2608       36.35225
       158.4247      -198.7556       79.63141       74.26630      -429.2323
      -29.22888       52.04132      -375.9919      -32.47783       126.5557
      -69.85065      -84.48749      -114.2620      -184.4970      -364.2047
      -152.0598       236.0562       56.50598      -203.6151      -379.0983
      -380.6656       83.91582       64.16754      -330.8965      -106.2525
       41.26501      -282.6055      -411.1540      -172.0806      -284.7503
      -227.2617       142.3256      -171.8159      -406.7454      -239.5560
      -354.0499      -266.5782      -43.56320      -143.9360      -66.12079
      -178.8601      -554.8079      -325.3209      -174.9228      -229.6371
      -181.9856      -309.4148      -364.6371      -423.0460      -259.0849
      -24.67639      -234.2515      -193.3920      -288.3842      -530.1693
      -365.4803      -392.6428      -266.7011      -78.34076      -278.7984
      -121.7428      -150.2979      -604.4033      -452.1150      -186.1311
      -238.1785      -223.4425      -337.5164      -289.9147      -58.92395
      -198.3583      -269.0350      -97.48242      -340.3085      -531.6948
      -165.2297       26.93073      -255.4112      -209.8503       33.49854
      -181.7737      -291.7440       28.93671      -22.05469      -258.8056
      -77.11517       42.71729      -86.59100       33.18274       202.9472
      -87.07082      -102.7192       276.9888       46.69620      -68.17578
       226.4558       46.61295      -154.5629       100.5727       237.5737
       332.6071       314.4617      -93.52209       17.30469       503.9688
       367.3062       152.5673      -30.13046       49.49969       378.1854
       250.7407       342.0914       326.5214      -63.95422       404.0917
       612.5941      0.5782471       105.3220       384.8492       327.0118
       402.5533       261.5203       170.0267       449.5459       415.9755
      -128.9265       129.8104       793.9800       446.6914     -0.7828369
       262.3538       580.7651       319.1210       133.3801       449.1177
       379.0995       205.1034       486.8336       398.8820       127.8142
       300.4542       349.9095       448.8442       492.4445       228.2846
       328.2231       346.0263       140.6407       470.2344       510.6680
       182.5342       219.4563       302.6860       460.9122       292.2193
       7.770508       488.0099       503.4023       35.34332       296.1720
       373.3108       301.4965       358.0142       60.73389       325.4335
       525.2801      -33.16931       88.36493       383.8594       178.7229
       182.3533       255.3545       363.9015       245.9766       4.022949
       163.1261       300.3638       252.3587       196.9504      0.1404114
       68.50879       312.8304       76.02670       23.97266       233.5402
       181.1497       150.5912       177.0104       184.7946      0.1106567
      -204.5539      -68.61951       165.5150       168.5525       124.2272
       77.54901      -134.9896      -148.1644       84.55550       26.80219
      -125.9707      -126.4111      -196.5186      -133.0604       49.11246
      -10.03943      -257.8140      -279.3396      -160.1879      -149.8478
      -119.2994      -137.7068      -303.3979      -418.6379      -279.5543
      -106.9273      -234.7322      -352.1461      -209.3600      -275.8290
      -362.1446      -277.4380      -434.3021      -295.8646      -149.4105
      -297.3197      -216.7310      -437.3542      -570.4763      -280.4796
      -434.7577      -431.5588      -157.9978      -390.8049      -547.8688
      -351.7057      -309.7009      -474.0828      -437.7983      -323.2596
      -442.7543      -579.9382      -574.6743      -431.2332      -387.7621
      -404.5974      -378.4380      -401.5873      -535.8251      -469.8251
      -253.6476      -428.2296      -578.9261      -345.2588      -235.2418
      -319.0574      -397.3988      -400.7831      -509.0073      -440.7203
      -148.2585      -317.4930      -420.2875      -98.47095      -128.1426
      -253.2463      -228.8333      -236.7812      -177.0290      -154.9810
      -66.52838       20.54105      -49.67719       23.73605       62.39624
      -24.16364      -137.5260       5.921753       288.6027       32.78763
      -125.6737       218.8138       147.3208      -43.80353       239.6174
       257.8630      -49.33395       62.14465       266.9519       227.9768
       262.9655       358.0641       385.8607       323.1409       146.6733
       114.3779       292.9855       398.3601       323.6177       141.4360
       174.9316       233.7903       228.0566       472.0306       334.1577
       173.1899       404.3450       342.9960       304.6325       375.9024
       218.0413       186.9028       385.8896       381.7180       361.9142
       428.7352       250.9354       225.2336       455.3762       494.5994
       273.1776       202.0118       445.6996       366.2811       194.1076
       320.9322       196.5149       219.2158       420.3822       307.4858
       277.9156       251.6078       274.7031       356.8256       313.7026
       231.0914       94.18787       260.2451       373.0952       99.28748
       251.0018       455.2745       193.0847       230.7324       287.4169
       11.49622       191.8295       330.7939      -13.65042       60.98987
       272.0444       194.5088       266.3947       262.4328       83.48333
      -70.51990       98.39294       324.4326       137.2902       228.0563
       348.3840       53.36255       240.1657       457.9593       94.50262
      -23.40668       177.9344       281.3365       171.0465      -166.8917
      -96.31171       132.0285      -59.01578       43.82800       257.6537
      -140.2750      -103.0712       238.7675      -21.31927       12.89731
       218.4433       3.945175      -31.27815      -24.61151      -91.32324
      -102.3740      -340.4117      -187.9483       122.2169     -0.4447937
      -98.37946      -194.4462      -243.0575      -220.2885      -236.3754
      -55.43033      -28.46240      -318.1164      -298.5169      -23.89056
      -127.9096      -368.3698      -162.6097      -198.7968      -617.0667
      -461.1061      -283.1073      -346.9910      -170.7513      -123.7620
      -199.7772      -272.0127      -459.5570      -515.3088      -371.8779
      -323.8339      -300.3377      -205.7437      -273.8190      -416.9584
      -510.2407      -430.8515      -297.9694      -322.2881      -333.8193
      -414.8589      -555.6345      -607.9075      -552.6895      -410.8582
      -156.2039       64.79224      -367.1165      -854.0020      -570.2640
      -392.5327      -320.4718      -18.95569      -246.4869      -376.9084
      -359.4111      -771.2284      -516.1923      -272.3599      -495.4835
      -240.5775      -342.1342      -424.7784      -83.85474      -194.9895
       13.05688       374.0712       123.5929       153.3625       314.6788
      -192.6793      -333.1145       2.621216      -420.6895      -889.0802
      -615.5715      -395.1085      -239.4152       321.1929       453.5162
      -89.81055      -238.8187      -171.7369      -262.8466      -197.9336
       87.58868       294.7730       59.81776      -37.18848       220.4086
       231.7549      -9.662674       49.13013       17.33740      -697.4365
      -701.3196      -134.8108      -278.9716       5.164551       548.2017
       460.1396       182.3280      -148.6761       250.0894       1031.847
       662.8878       137.9331       442.8029       506.7246       296.7365
       353.4271       2.562256      -646.2231      -357.7202       977.5425
       1679.072       477.1276      -453.9709       157.7425       4.015869
      -483.7097      -231.2014      -334.8414      -11.86279       665.3627
       356.7151       170.2903       370.9906       396.7234       646.7197
       463.6690      -125.2361      -343.4106      -791.7512      -835.0632
       170.4838       45.32910      -579.4283       199.1748       968.8832
       914.6903      -217.6232      -676.4386       461.8268       131.6030
      -436.2393       260.2452      -107.9413      -248.0095       682.3800
       572.1791       18.39557      -79.68298       243.9175       1041.073
       999.9094       256.3385       176.4790       290.7124      -84.73169
      -560.5164      -88.66492       592.9645       30.73828      -741.4048
      -761.3497      -125.5114       231.7987      -90.01300      -164.6736
      -464.1580      -703.5596       113.2103       454.1605      -344.1429
      -426.9145       267.2947       370.8450       46.70416       73.85583
       335.2449       509.4126       179.6724      -475.1684      -174.5299
       189.6697      -84.54572       42.60367       102.7253      -325.1238
      -372.0052       236.1558       510.3937       32.32248      -208.6908
      -55.06985       9.526428       116.8195       99.38019       7.757263
       279.9238       355.6033      -17.46309      -51.01384       51.66489
       78.99582       246.9825      -2.209122      -56.33231       71.10907
      -78.57115       18.11633       72.74645       8.978745       31.99445
       128.0653       354.0909       135.8916      -307.8843      -325.6799
       50.94983       358.1556       230.9241       72.32556       358.4528
       435.4133       157.5995       330.9012       422.5095       112.1216
       218.9238       406.1877       137.2957      -52.16785       214.8038
       176.8706      -216.4022       84.17993       563.4938       421.0575
       163.5342      -20.95923      -179.2616      -82.99597       80.48633
       153.7484       310.2549       104.9236       118.3470       445.2331
       30.28703      -112.4564       196.4040      -13.58388      -76.93816
       48.13040       74.89151       118.9573       36.05178       15.23245
      -57.05389       126.1438       246.2621      -233.4770      -92.02373
       98.37076      -177.7533       16.73511      -85.80084      -140.5437
       186.0461      -154.4085      -215.4952       182.3804      -105.8598
      -344.0551      -32.77060       128.3910      -22.77039      -355.1421
      -402.3129       102.6571       201.9180      -55.52136      -51.77728
      -138.1613      -258.8251      -95.06696       34.95447      -251.1591
      -484.9823      -180.7781      -49.85950      -278.7917       51.19104
       371.6663       69.42542      -338.5240      -620.2787      -520.0059
       92.14957       291.9479      -316.2136      -448.1710      -5.556824
      -129.6726      -308.3514      -171.7155      -361.2667      -230.8102
       161.5231      -23.81879      -246.1010      -298.9551      -286.4477
      -38.22034      -78.78522      -356.2476      -155.3660      -90.38843
      -315.2417      -489.9952      -407.7340       179.7584      -127.9407
      -379.4810       130.7354      -7.096375      -68.90558      -278.7611
      -385.8604       148.8112      -68.59662      -136.1585       262.2549
      -154.8669      -286.0309       17.68134      -87.26099      -143.9377
      -183.3636      -301.3843      -287.3456      -97.51545       46.01895
       14.63396       19.37720       106.2885       118.3565      -138.5754
      -298.3573      -125.5763      -198.2681      -272.3235      -49.95145
       81.60908      -17.77972       15.15659       230.4275      -44.78735
      -268.3358      -109.5600      -68.50403       312.2823       321.2062
      -49.65278       95.58496      -82.36627      -302.0774       119.9102
       192.6810      -20.20337      -5.650024       146.2381       256.7408
       36.42372      -94.22937       128.1321       261.7079       211.6550
      -16.23221      -92.85651       259.5571       235.5913       315.3535
       767.6980       262.8369      -62.54094       161.3041      -76.14565
      0.4928284       81.91302       77.62622       377.3631       6.466415
      -197.1693       237.7614       205.9704       113.7393       138.9069
       135.7245       423.2798       506.6828       402.0815       189.6377
       47.29694       174.2228       203.4286       219.8746       78.25483
      -40.35736      -17.73938      -209.7129      -178.0057       302.7927
       483.0167       181.0618       118.1496       144.7542       67.94849
       370.5001       627.4022       256.2260       97.69781       304.4291
       272.3580       11.32639       38.68402       341.7718       202.4886
      -10.43591       146.2153       286.2398       247.5651       233.5702
       380.6136       266.9724       56.19836       233.9222       242.3727
       206.0919       187.3187      -42.66698       32.51892       4.042816
      -16.63715       202.7769       28.19877      -25.53282      -11.98511
      -230.3420      -311.7152      -222.8571      -3.519489      -3.838196
       54.40887       244.6992       118.5129      -145.2866      -441.9901
      -333.1758       11.60094       40.68701      -149.1614      -459.8635
      -474.9838      -276.3921      -150.6669      -19.08200      -118.1284
      -57.50800      -160.6870      -224.3484       233.7209       51.86737
      -220.2253       103.3767       65.07764      -220.1939      -142.7244
