     0.02500000      -2779.560       2058.658      -12345.00      -12345.00
      -30.00000       224.6500      -25.50000      -12345.00      -12345.00
       0.000000       19.05000      -12345.00      -12345.00      -12345.00
      -12345.00      -12345.00      -12345.00      -12345.00      -12345.00
      -12345.00      -12345.00      -12345.00      -12345.00      -12345.00
      -12345.00      -12345.00      -12345.00      -12345.00      -12345.00
      -12345.00      -30.68660      -67.50870       990.0000       0.000000
      -31.24600      -68.98500       0.000000       102400.0       0.000000
      -12345.00      -12345.00      -12345.00      -12345.00      -12345.00
      -12345.00      -12345.00      -12345.00      -12345.00      -12345.00
       154.0750       66.64297       245.8871       1.385296      -12345.00
      -12345.00     -0.2159636       0.000000       90.00000      -12345.00
      -12345.00      -12345.00      -12345.00      -12345.00      -12345.00
      -12345.00      -12345.00      -12345.00      -12345.00      -12345.00
      2008        16        21        18         2
       200         6    -12345    -12345     10187
    -12345    -12345    -12345    -12345    -12345
         1         7        13    -12345    -12345
    -12345    -12345    -12345    -12345    -12345
    -12345    -12345    -12345    -12345    -12345
    -12345    -12345    -12345    -12345    -12345
         1         1         1         1         1
MAJA    -12345          
        -12345  -12345  
-12345  -12345  -12345  
-12345  -12345  -12345  
-12345  -12345  -12345  
-12345  -12345  -12345  
-12345  -12345  BHN     
ZL      -12345  -12345  
[...]
       54.89252       69.55496       72.05606       68.42770       71.39723
       78.82956       90.20322       95.15295       87.67816       93.30350
       98.02734       101.4780       100.2900       95.17950       96.78442
       111.5225       110.6946       104.5864       100.3528       110.2669
       120.8616       109.3013       96.29114       101.9118       106.2045
       105.7968       91.52391       84.33804       86.64336       89.88507
       74.44183       63.20651       69.63376       70.70236       52.85589
       42.38640       38.84510       33.82157       30.03380       23.01659
       8.558758      -5.470840      -10.62467      -21.36963      -34.49136
      -49.49855      -44.40388      -41.59241      -63.80571      -60.19571
      -110.4949      -132.0929      -52.24933      -138.9088      -240.1403
      -103.1616      -109.3412      -268.2986      -138.8055      -44.95819
      -359.7479      -231.6191      -1.384033      -431.6666      -251.7849
       11.90796      -398.4117      -304.5944      -198.0806      -300.2143
      -207.1572      -170.8784      -366.2039      -540.3707      -104.0894
      -34.79089      -339.2507      -412.3958      -425.8849      -148.3838
      -159.2382      -410.8244      -248.0928      -279.0565      -379.1740
      -55.51904      -196.6467      -614.0000      -270.7073       4.859131
      -234.3650      -358.6754      -301.4407      -331.9411      -278.7166
      -14.71936      -76.39880      -455.1388      -431.4281      -96.55664
      -106.8941      -117.8134      -265.9421      -470.0364      -150.4005
      -32.65247      -104.9120      -300.1262      -410.4953      -106.3400
      -38.48779      -60.04425      -230.2877      -384.5211      -113.3493
       64.87286      -11.09784      -242.6871      -235.3887      -51.09196
       4.485268      -12.34567      -16.59070      -277.3267      -182.7970
       250.4640       152.7158      -119.6528      -233.1006       197.4944
       144.6135      -159.3615       154.4835       94.63625       64.48463
       27.60880       48.29907       299.2525       98.45367       30.65497
       239.1051       125.2714       97.64783       107.4435       338.9494
       187.0432      -65.42798       407.1368       312.6484       89.34332
       341.3066       258.6804       174.3928       185.4777       454.5157
       291.5515      -78.10388       319.0908       351.7430       372.6232
       340.5803       93.85925       262.3974       249.0656       316.8872
       387.0101       206.2204       119.2668       257.4829       326.4559
       330.4873       341.4701       200.4140       48.86566       232.4913
       410.6582       129.0997       10.89893       323.1885       319.9998
       226.6656       196.1262      -13.60419       113.9741       264.8557
       212.9582       212.9931       72.63382       2.315491       138.6721
       195.4393       70.73438       192.3800       71.43761      -66.98138
       246.1942       50.09129      -69.36713       264.1976       67.89880
      -130.3881       135.6040       209.2294      -49.72709      -90.43936
       127.0251       120.2849      -71.72048      -33.20581       145.8403
       73.03101      -57.43405      -14.78149       35.88727       144.3311
       68.65216      -124.0075      -87.98903      -22.56448       46.54289
       119.1416      -19.66833      -152.9174      -39.70581       203.0484
       142.9472      -230.7800      -205.9934       66.36948       187.3013
       112.6066      -214.3030      -146.1786       58.29193       153.9395
       108.5463      -174.5619      -143.1620      -52.40680       47.27603
       82.59448      -142.6163      -60.65742       47.75394      -22.29315
       14.61377      -44.80701      -99.24448      -124.7440      -79.51456
       143.9984      -85.83719      -163.4499      -112.9246      -10.26028
       11.30069      -202.1676       102.6632      -46.26898      -206.2311
      -38.40556      -56.02747       32.57697      -124.5369      -219.2722
      -49.37543       87.22786      -3.737061      -173.2809      -142.2301
      -93.10129      -54.61375       39.15543      -26.01587      -189.6516
      -130.1331       63.07416      -72.48227      -195.4169       52.57990
      -27.76166      -223.2408      -29.06094       147.7170      -95.74524
      -260.7618       64.91803       85.11194      -257.3750      -207.0827
      -29.86934       30.78590       63.63568      -113.8552      -176.0662
      -107.4188      -36.11804      -12.19910      -164.0254      -92.76487
       25.59042      -46.10794      -163.8719      -85.71057       70.33743
      -126.8664      -92.56152      -75.38831      -218.9863      -38.03202
       67.32361      -63.94586      -223.7637      -141.3375       26.52252
      -69.70639      -212.4737      -81.11638      -10.99716      -102.0892
      -157.1574      -216.7488      -46.86008       35.18793      -261.7210
      -320.0952      -33.65063       3.140747      -212.9821      -216.5039
      -106.7996      -108.7636      -94.47681      -155.8463      -168.2957
      -238.9010      -354.6459      -173.3008      -92.17203      -123.0890
      -178.3329      -238.4824      -249.8749      -283.3557      -207.5734
      -182.8286      -263.6370      -251.7334      -241.6411      -228.9807
      -170.9546      -218.4020      -237.0345      -211.0841      -301.9143
      -229.7665      -163.2528      -375.4652      -403.6399      -17.53217
      -33.75696      -437.2153      -357.9243      -134.3850      -154.9060
      -191.5652      -262.4026      -285.2014      -284.0970      -255.4031
      -121.5767      -84.08875      -299.7177      -365.9623      -185.8718
      -69.24091      -108.6523      -232.6292      -247.7730      -244.3296
      -155.5867      -64.39655      -124.7054      -58.35815      -134.5848
      -161.5652      -116.3131      -111.2633      -37.27075      -72.33716
      -147.8886      -74.89488       43.37787      -67.37756      -137.6663
       46.24767       43.39963      -18.42954       22.16163       13.81802
       88.80640       158.0289       84.03699       11.94311      -69.66663
       38.99249       275.1899       207.3902       175.9478       116.5897
       62.33295       235.1457       115.4215       145.2573       299.6544
       167.7090       146.8435       336.3033       402.2651       187.8893
       213.7790       234.1991       109.4756       301.2394       351.9274
       191.5773       317.4287       552.5148       273.9380       131.0726
       292.4561       303.6223       446.7656       413.6965       233.4198
       268.8046       462.7803       444.0090       131.0970       255.2117
       613.7416       567.3181       290.9423       264.2340       308.7920
       297.1027       414.2949       489.3427       447.8409       291.5953
       349.2662       434.9720       303.4036       308.7754       466.3145
       399.5911       274.8071       366.3140       405.8051       301.2249
       167.5955       282.7789       457.6273       378.7413       166.8593
       202.4296       403.0485       248.6291       32.38330       402.5562
       331.8043       12.56934       294.3136       242.9226       139.1257
       121.4505      -46.45374       157.3779       259.2318      -37.10931
       44.85092       232.8980       27.75345       100.7556       51.65178
      -44.78625       53.86978      -131.7991      -73.64355       158.1464
      -38.28290      -107.3582       66.81415      -121.3812      -196.3361
       38.29404      -99.70821      -166.0484       86.66245       27.01898
      -316.4639      -144.3100      -62.23276      -199.7093       23.18225
      -105.9115      -294.8079      -58.60989      -28.46307      -225.4773
      -203.0445       62.42877       31.98022      -207.4866      -193.7660
      -38.45169       11.86078      -199.6049      -252.9208      -25.74834
       64.86185      -93.10587      -182.4102      -44.66046      -47.80209
       12.34145       3.425659      -259.9973      -67.33188       264.9788
      -22.67383      -289.8185      -150.3414       102.7521       134.2723
       6.175598      -166.9384      -195.0660      -60.13007       22.62793
       153.6027      -22.78792      -95.40218      -5.732780      -39.16180
       3.716255      -52.39468       99.89276      -87.83368      -268.9573
       135.4247       75.88864      -136.7164      -45.49487      -65.63453
      -8.511166       13.37994      -53.28081      -11.37447      -7.177368
      -91.62354      -114.6237      -100.0112       85.30486       35.66339
      -161.1637      -148.9279      -108.4837      -35.58987      -2.256378
       127.8396      -154.8568      -270.8339       9.735790      -16.20863
       38.52834      -14.35529      -169.8394       45.51712       186.1338
      -209.7244      -270.0739       78.82962       24.71545      -219.2475
      -89.37943       174.4852       9.293793      -148.2917      -112.0369
      -51.38303       93.03238       66.51767      -126.2335      -124.6417
      -13.94333       12.16110      -30.46338      -119.7523      -78.28585
       47.18518      -103.8357      -91.67111       90.81219      -67.28711
      -143.4575      -49.14117      -55.76135      -66.65310      -15.41470
      -64.08795      -121.3134      -37.66943      -131.8428      -90.96486
      -1.916138      -171.5207      -52.44608       71.64809      -65.02524
      -57.38867      -141.6462      -236.0061      -64.91977      -12.12799
      -69.92804      -125.1077      -170.0448      -69.36442       18.47458
      -26.54926      -126.6837      -188.1571      -203.5710      -1.092285
       53.99188      -248.7267      -154.3153       148.9778      -128.8302
      -285.2470      -4.429367      -13.29037      -113.1816      -70.81789
      -71.75171       26.22974       2.459900      -90.24426      -28.40625
      -129.9574      -192.3085      -38.67215       46.66608       35.60242
       2.046860      -28.00720      -55.40216       18.95381       70.61646
      -4.087494      -137.1697       15.28473       184.1244       5.452278
      -23.35184       38.28142       78.04025       13.87536      -36.51523
       117.7111       22.73956      -29.27014       275.7444       133.0678
      -199.1733       111.9278       99.54553      -13.60944       377.1526
       145.3167      -114.6534       189.4208       241.1413       77.28880
       29.78589       182.0429       258.6035       115.6097       252.6838
       221.1190       134.3565       317.8304       197.6624       43.02728
       208.8024       383.6124       326.7061       154.7789       215.8386
       438.3310       216.8647       81.53241       332.0426       359.6078
       346.5224       285.7376       109.9677       272.9899       375.0758
       320.4517       296.7272       203.1957       200.5304       332.5819
       417.6820       295.8376       208.8785       274.8251       242.3693
       244.5424       303.6509       284.0697       327.5855       276.9113
       147.3671       276.7833       285.9811       123.7238       268.7284
       399.9571       203.2882       55.66278       177.6387       234.3421
       132.5005       285.7305       221.7834       129.8159       339.6213
       98.06819      -91.39630       224.9354       251.5495      -29.96384
       19.65491       331.2628       261.0113      -42.78510      -19.27922
       71.42038       27.72986       172.9241       194.9729      -9.258972
      -63.48022       89.07077       119.2551       26.59590      -3.401100
       12.83324       66.86601       82.49861       12.37087      -2.792648
      -32.75970      -174.2234      -127.9803       85.26295      -27.32282
      -49.07901       17.28311      -133.2627      -64.91431      -102.6072
      -241.9168      -129.1507      -56.03156      -15.01172      -236.2650
      -369.9852      -138.5282       4.189056       14.49329      -355.2451
      -474.3964       10.01129      -45.62585      -377.9716      -283.3541
      -208.2846      -341.7649      -237.3608      -164.3030      -289.8732
      -401.9249      -373.3391      -286.8090      -267.6897      -314.6776
      -518.5336      -373.9091      -197.7344      -256.5151      -6.629395
       144.0706       63.81744      -104.3610      -392.5867      -695.6682
      -903.7673      -984.8940      -1097.195      -1014.337      -207.2179
       563.2592       313.8666      -211.3458      -309.0520      -298.9281
      -466.9387      -914.8256      -977.0181       9.525940       146.0911
      -1008.672      -443.3198       1186.986       999.1863      -979.5906
      -1913.916      -260.7631       638.1514      -1222.371      -1981.037
       182.5083       1529.140       1242.947       1417.121       111.7568
      -2779.560      -2654.372       43.18823       4.838501      -1199.814
       627.2639       1595.360      -640.2563      -1678.703      -1089.788
      -1097.505       67.24023       2058.658       858.7158      -1941.761
      -1120.483       937.1738       171.4618      -385.1910       303.3794
      -117.5089      -820.9133      -246.1826       328.4539      -1065.873
      -1862.787       552.2739       1894.256       448.5129      -230.3345
      -376.9031      -817.0565      -604.0828      -237.1588       52.81860
       558.8333       788.2012      -303.7321      -607.2291       492.9671
      -60.23697      -240.5133       84.38281      -735.9626      -392.1739
      -86.15485      -329.1851       1109.814       1381.029      -659.4680
       2.646973       1321.004      -316.7886      -802.2937       292.8019
      -190.3564      -227.3098       639.3746       214.7815       26.56311
       295.5708       120.0649       19.75757      -111.6628      -283.1859
      -1.735107       712.4814       560.9525       1.269592       378.6445
       235.1254      -323.5532      -330.1876       80.25610       905.1797
       1018.956       375.8340      -593.2305      -928.9468       643.0000
       1951.104       597.0281      -663.8021      -442.9394       219.4237
       507.1590      -326.3219       196.4749       1178.818       415.1613
      -124.2372      -106.0049       168.6509       762.7072       75.52490
      -1052.747      -158.3452       1345.735       1359.278       838.3200
       241.6685      -566.5541      -378.5276       197.4283       396.8036
      -316.0079      -563.7258       464.1650       417.8577       359.4589
       500.6614       241.3488       538.2181       156.4749      -483.5404
       154.6057       895.2299       597.1674      -416.5663      -995.2449
       249.5084       856.1599      -41.50287       142.6138       569.5193
       144.0968      -651.8610      -724.8933       173.4470       882.8536
       644.8744      -84.93201      -128.2201      -88.15796      -75.41037
       162.3555      -48.63126      -14.95459       353.4373       233.8672
      -81.39783       115.2690       331.1322      -252.2621      -832.5693
      -339.6907       517.4723       318.1281      -372.8344       83.84595
       703.9863       265.3325      -468.5728      -208.8627       636.4160
      -368.8418      -1245.674       201.2776       1033.540      -94.06677
      -611.2148       326.3698       110.0504      -393.5497      -286.2831
      -388.2964      -119.6811      -165.0940      -165.1714       468.8278
       179.9108      -438.7416       120.4724       295.7013      -256.5849
      -80.46179      -296.0251      -616.3495      -30.81287       403.7884
       268.0867      -231.3195      -187.2772       11.45581      -66.37854
      -441.9340      -526.4453       468.1486       537.1262      -510.6836
      -671.4095      -220.8199       164.7246       484.4178       114.9655
       71.22256       34.00311      -460.3804      -109.8144       442.1221
      -84.65228      -342.9544       434.1157      -28.56042      -705.1981
      -34.10461       612.1423       138.1890      -699.8521       143.6425
       715.0970      -71.34027      -454.4798      -65.68262       407.6201
       529.2971       370.8054      -40.49164       127.7891      -98.39355
      -621.4196      -25.26196       509.6237       101.0541      -314.2322
       305.0828       689.2432       414.2031       315.4481      -46.67876
      -107.5493       326.2033      -152.5285      -186.4763       735.1312
       276.1449      -661.4700      -395.0415       421.7579       627.8853
       1.223328       147.7776       326.0476       59.11774       319.6458
      -120.2986      -362.9684       209.8253       244.5975       224.6658
       392.1569       329.8104       179.3599      -143.9290      -488.2748
      -239.8123       532.5087       589.7281      -102.3528      -95.57684
       320.3529      -126.4060      -667.8527       63.54297       611.8706
       80.80859      -194.0002      -36.65982       92.05249       88.95264
       95.28436       45.50110      -419.1985      -226.0610       361.0176
       1.491211      -358.2419       15.27998       174.8119      -104.1546
      -72.77734      -136.4646      -342.2925      -363.0108      -355.8080
       155.2052       425.1834       201.7620       391.8004      -94.44629
      -811.3640      -497.9393      -32.03703       111.3687       3.391235
      -346.3193      -249.6495       533.4827       434.8445      -281.3674
      -417.2593      -374.9987      -255.7034      -35.55939       101.9897
      -102.8377      -208.4740       215.7795       197.5332      -136.6915
      -28.07617      -526.5378      -916.5112       33.35437       633.2426
       213.4750      -218.2958      -261.4041      -353.8181      -35.09509
       703.3958       8.230469      -725.5289      -13.86694       358.6753
      -198.3538      -701.8676      -306.3780       68.21246       81.64621
       111.2546       102.2897       136.8776      -359.4717      -565.9224
       180.7908       99.00848      -401.3455       14.85828       388.5729
       147.2728      -41.93777       291.0818      -111.3812      -643.1381
      -50.36066       162.7166      -127.0464      -178.1572      -26.72469
       79.85837      -2.043152       57.17224       444.4484       143.1733
      -506.4416      -129.4771       56.41914      -18.15155       254.2022
       48.29254      -122.5305       3.781342      -65.02216      -148.8649
