     0.02500000      -2850.143       2145.218      -12345.00      -12345.00
      -30.00000       224.6500      -25.50000      -12345.00      -12345.00
       0.000000       19.05000      -12345.00      -12345.00      -12345.00
      -12345.00      -12345.00      -12345.00      -12345.00      -12345.00
      -12345.00      -12345.00      -12345.00      -12345.00      -12345.00
      -12345.00      -12345.00      -12345.00      -12345.00      -12345.00
      -12345.00      -30.68660      -67.50870       990.0000       0.000000
      -31.24600      -68.98500       0.000000       102400.0       0.000000
      -12345.00      -12345.00      -12345.00      -12345.00      -12345.00
      -12345.00      -12345.00      -12345.00      -12345.00      -12345.00
       154.0750       66.64297       245.8871       1.385296      -12345.00
      -12345.00     -0.6598291       90.00000       90.00000      -12345.00
      -12345.00      -12345.00      -12345.00      -12345.00      -12345.00
      -12345.00      -12345.00      -12345.00      -12345.00      -12345.00
      2008        16        21        18         2
       200         6    -12345    -12345     10187
    -12345    -12345    -12345    -12345    -12345
         1         7        13    -12345    -12345
    -12345    -12345    -12345    -12345    -12345
    -12345    -12345    -12345    -12345    -12345
    -12345    -12345    -12345    -12345    -12345
         1         1         1         1         1
MAJA    -12345          
        -12345  -12345  
-12345  -12345  -12345  
-12345  -12345  -12345  
-12345  -12345  -12345  
-12345  -12345  -12345  
-12345  -12345  BHE     
ZL      -12345  -12345  
[...]
      -10.51348      -5.149019      -2.716164      -6.457451      -13.37907
      -4.713821      -3.566412      -3.900099      -6.124854      -2.407161
      -2.404854     -0.9750614      -8.022173     -0.8711319      -3.284718
      -8.607576      -5.662109      -5.237011      -16.08681      -15.15113
      -14.88404      -11.68027      -16.55701      -24.50444      -27.45584
      -20.78135      -31.81949      -42.28229      -44.91611      -46.29398
      -58.68799      -46.26667      -30.43564      -36.82511      -32.88382
      -52.80727      -80.77756      -42.62335      -83.80682      -167.1452
      -90.51891      -13.28595      -85.42992      -64.96407       22.26199
      -107.3878      -149.1144      -69.93842      -262.7665      -164.8411
       45.91176      -106.4065       47.56927      -92.56860      -369.5152
       24.78331       81.92953      -145.5380      -288.4958      -162.1077
       127.2404      -79.16412      -195.3660      -235.4373      -135.3613
       101.3542      -318.6195      -191.0002       288.2497      -266.5954
      -366.6235       332.0729      -44.22491      -430.4107      -6.735046
      -64.71106      -76.19885       20.62085      -189.5061      -167.4266
       24.03157       5.728119      -119.3263      -51.63037      -176.0554
      -307.8907       197.2307       175.9644      -522.9693      -156.1714
       320.3872       44.31451      -282.9293      -180.6261       143.2999
      -294.5910      -263.6455       153.9316      -119.5656      -141.6702
      -103.0507       93.35596       214.4894      -258.4141      -416.0656
       61.70593       96.85510      -337.3325      -115.4777       262.3578
      -3.719299      -206.1094       49.30051      -32.80212      -222.4076
      -125.5194      -179.5414      -76.04906      -111.3608      -26.99185
       222.6204      -408.0435      -136.1525       265.5512      -348.8939
      -55.17441       28.90869      -175.5522       39.70697      -157.5615
      -372.4082       37.74112       237.8987      -415.0973      -195.2169
       413.6598      -246.5383      -431.0602       42.21036       109.8507
      -86.18179      -155.4777       117.6609      -225.8283      -269.7663
       232.2888       49.16711      -136.7801      -131.6390      -213.3570
       15.67805       208.7391      -251.8491      -298.0706       133.4051
      -43.93013      -51.34155       293.9049      -8.375488      -384.2106
       64.46283       377.6493      -243.9580      -329.5844       278.0176
       95.42999      -91.51147       95.17171       104.5263       12.02090
      -156.8932      -21.71832       276.8122       22.79095      -265.5879
       146.1709       264.1004       15.25296       198.2909       32.60640
      -77.94061       130.1212       106.0540       123.3638       28.10995
       47.85236       104.5441       269.9860       361.4513      -94.93658
       51.53027       244.5398       57.35638       256.9229       240.6632
       13.03333       196.0117       236.6614       68.34283       280.0092
       303.3563       166.0660       293.7396       81.15132      -74.73145
       205.0254       432.2060       262.1780       16.00464       165.0239
       278.7295       126.1903       232.8139       188.9582       116.0515
       400.4762       268.1567       176.1071       213.3271       53.16003
       203.0829       284.2526       175.6847       88.28149       224.0239
       332.9706       125.9955       147.8351       189.7719       138.3732
       318.9438       141.2826       156.4503       364.3660      -29.07938
      -18.96173       277.7973       314.2177       67.57953      -73.97327
       254.8524       233.6108       235.8024       201.7776       1.856049
       105.6044       164.3696       123.0812       193.3801       133.4882
      -49.37708       118.7755       333.4984       49.01874      -94.38885
       172.0482       180.8653       8.413666      -136.8353       1.094604
       373.3670       73.58182      -181.1008       97.60294       86.31487
       37.05475       55.70489       28.22708       50.04636       59.59766
      -37.91895      -132.3333       45.20875       46.00448      -27.96904
      -7.847023      -39.50835       72.95860      -63.94310      -105.3934
       93.60849       9.374451      -185.8257      -179.5391       145.5824
       160.1640      -201.5122      -105.6366       95.97586      -81.73264
      -134.6143      -34.77211      -79.30885      -73.55728      -12.38049
      -76.47931      -109.5723      -38.04822      -97.15771      -108.0183
      -76.64093      -155.7181      -48.72655       90.58539      -1.712830
      -335.5276      -281.7667       92.10687      -61.28870      -219.2229
      -219.3823      -188.7852      -8.764832      -26.35779      -96.72351
      -241.7691      -204.1909      -95.92041      -266.1942      -198.1489
      -146.7797      -127.1270      -82.85553      -312.3512      -142.8021
      -4.469971      -338.5739      -425.6180      -227.2514      -72.14105
      -94.66003      -397.1892      -282.8133       168.6605      -125.5837
      -440.6815      -289.2236      -292.1970      -121.5595      -15.04968
      -293.9336      -268.9472      -78.34192      -263.8662      -175.0042
       105.8311      -199.5890      -418.7908      -111.2463      -52.86325
      -86.14154      -59.68958      -238.8745      -145.3048      -33.86163
      -259.0106      -173.0956       202.7070       75.27466      -218.4954
      -101.2148       2.067123      -72.15086      -51.34904       55.58865
      -4.397552       35.65738       173.5965      -28.00519      -20.66864
       197.9724      -46.05721      -20.02817       169.8367      -9.587616
       92.10107       188.7646       132.5720       77.25751       59.75165
       165.9378       92.75171       142.8658       316.0064       122.8328
       42.71332       185.4850       188.5412       202.4474       116.1875
       156.0224       125.2134      -14.41992       331.6010       406.9154
       162.7278       192.7958       104.1403       73.48315       369.8862
       278.9346       40.66431       231.7584       408.2217       242.9937
       65.92188       161.4018       102.4165       29.76678       179.4187
       195.3453       175.0918       387.8485       292.2286      -57.67072
       81.48148       160.4829      -1.907776       93.45193       76.91727
       116.4151       279.8401       83.41022       87.42848       118.5090
      -222.6714       64.76001       381.0754      -91.65070      -17.26468
       215.6852      -295.0338      -79.43097       396.1248      -140.8994
      -134.5274       88.67651      -190.9328       82.07965       87.53229
      -289.2750      -2.784851       120.1693      -38.33972      -129.0820
      -276.8276      -69.48392       49.27330      -40.47456      -63.55054
      -93.35284      -32.39502      -72.19839      -125.9799      -28.61576
      -20.50960      -19.59949      -82.03326      -184.0800      -3.153564
       122.9966      -133.1656      -396.0719      -44.05681       119.5511
      -172.1613       23.70285       55.96039      -106.2666      -18.13956
      -97.34198      -86.87659      -118.0869      -102.6207       46.96930
      -76.71355      -105.9837       51.35837      -106.8397      -263.4965
      -101.1616       106.0813       76.51227      -136.4792      -115.3090
       35.83633       116.4919      -72.71957      -245.1381       14.11740
       102.9829      -74.97478      -12.60861       136.9720       22.82263
      -273.5951      -102.7474       388.5701       154.2644      -262.0821
      -20.88928       350.2073       59.26196      -230.4161       41.35779
       180.2895       213.1596       70.86993      -191.2180       52.19574
       265.3225       180.7539      -2.250488      -1.514282       254.3178
       197.8569       44.86072       89.44135       197.7678       65.04291
       18.18164       229.7679       162.8559       129.9009       119.9770
       143.0659       312.4626       346.4078       112.5022      -70.41391
       134.2213       96.99902       112.9811       384.3278       201.1214
       137.8527       220.8391       270.8674       282.2455       59.15988
       142.6113       172.4429       68.37299       277.6166       303.3485
       158.0976       151.5220       161.2065       221.2714       223.2563
       217.5301       225.2798      -1.691162       136.8732       309.6179
       26.97661      -19.07153       254.5519       331.0383       124.4834
       20.76187       120.5215       231.8455       146.5154       57.84718
       119.6289      -6.793335       209.5825       326.5438      -126.2587
      -57.85114       97.47806       128.9910       200.7791      -179.1031
      -61.42273       324.6311       111.6796      -120.6038      -17.16452
       106.3906      -20.25346      -88.09613       181.1958      -15.28094
      -261.5553      -17.19229      -22.39560      -85.04276      -59.25366
      -216.0271      -221.8111       117.6908       95.19324      -215.7153
      -184.4893      -296.3603      -120.3853       20.54248      -347.2596
      -222.0038      -25.53455      -211.9317      -148.5065      -128.0153
      -298.7411      -224.3102      -48.68127      -254.1768      -469.5876
      -230.7998      -96.67731      -105.6528      -234.8879      -378.3147
      -224.2885      -239.8534      -264.9310      -231.2935      -339.5117
      -303.4594      -231.4927      -232.0985      -194.5913      -352.3831
      -380.2554      -226.1937      -312.0483      -364.3678      -322.4005
      -275.1199      -244.7831      -335.6304      -450.0447      -367.3525
      -223.3398      -344.6078      -488.6120      -265.1864      -189.5811
      -497.6649      -382.1249      -224.1809      -387.5236      -387.3764
      -256.0962      -314.8623      -437.9240      -303.1847      -238.3553
      -327.1101      -477.0486      -326.6885      -190.6819      -413.8602
      -406.5336      -144.4838      -112.9493      -549.6757      -374.7310
      -24.57605      -214.5463      -327.1674      -411.5467      -287.2536
      -107.7399      -89.33218      -97.72595      -225.7924      -480.6492
      -370.5920       85.82162      -45.70624      -344.0759      -109.1201
      -37.00406      -114.1693      -113.6322      -114.0447      -59.31229
      -30.30931      -31.57271      -46.42960       14.90488      -141.2756
      -2.248398       126.1353      -44.79014       69.31473      -50.70319
       74.63940       362.1650      -60.17924      -52.26923       298.2448
       67.56689       215.1831       495.2708      -2.578827       20.24670
       422.6757       113.4547       1.700134       345.9886       308.2605
       72.84753       275.5327       481.4944       298.5459       262.4083
       307.5780       156.6342       309.5939       326.7906       143.2944
       367.2244       392.2614       412.2219       444.6198       220.9048
       282.2941       288.3895       247.9692       566.0031       390.4936
       99.81482       503.9974       466.1279       102.3514       371.9696
       380.5664       213.2316       483.1744       532.9054       213.0444
       171.5706       430.2886       498.7303       325.4030       248.1794
       389.1891       384.9196       139.0154       155.8801       351.3123
       428.0938       485.2693       356.0500       229.3699       287.0764
       305.1816       371.0306       126.3215       137.2849       519.1617
       404.3407       104.6945       117.4092       323.0802       298.7380
       211.9517       238.8010       182.4625       111.3778       113.2005
       83.66504       103.7785       138.1571       100.8973       286.6423
       241.3958      -68.53204       71.66547       175.6190      -87.70891
       12.69052       100.2352       54.26160       274.5970       188.8411
      -205.5362      -47.28308       392.6187       320.1298       235.6884
       524.2334       714.3300       592.2404       157.5138      -63.91827
      -14.44360      -507.4785      -865.4150      -717.0508      -826.5267
      -841.4226      -292.5471       390.7949       832.4229       1057.428
       448.2943      -168.0666       42.99561      -207.3774      -980.1650
      -1811.271      -1851.308      -150.6152       1654.683       1024.044
      -776.5292       103.0139       992.9707      -1643.265      -2272.496
      -433.0658      -506.4907       625.7471       1522.365      -728.0890
      -1145.493       422.6367      -457.7415      -1380.780       116.5386
       1330.453      -344.2075      -2768.849      -764.9353       1764.314
      -360.8513      -1340.858       199.6082      -122.2803       54.07373
      -407.2075      -2020.705      -1208.425       256.4214       2058.812
       1007.538      -2850.143      -2569.282       1435.132       1842.997
      -2124.739      -1610.129       1010.673      -1547.313      -2302.370
       1765.238       1456.274      -2165.582      -2015.275       44.57910
       1084.654      -691.4441      -1898.843      -126.8857       710.6241
       205.1172      -951.4407      -857.2963       700.6436       211.6194
      -1023.426      -838.1179      -380.9866      -439.4357      -367.2288
      -82.93359      -438.2113      -38.78894       681.9674      -182.1372
      -834.3540      -243.9907       395.3496       354.1538      -335.7300
      -883.7521      -636.0040       474.2509       93.13208      -1064.615
      -115.0298       872.7825       408.6923      -427.0728      -539.5697
       325.4360       882.0081       78.84619      -527.4436      -275.5470
      -15.11597       703.7197       360.2203      -698.1799      -147.1343
       342.2185      -99.06201       434.0146       1348.112       59.66602
      -836.8173       332.3365      -25.08765      -985.5275      -173.8916
       997.0630       1230.797       107.8904      -911.7328      -228.0190
       933.7098       1031.173      -54.11566      -183.0115       425.8145
       855.4913      -18.49841      -305.1316       751.8621      -221.5833
      -505.0830       1408.773       2145.218      -442.7673      -1246.479
       551.4572       580.5965       201.6328       257.6578       649.9332
      -87.07416      -419.3219       705.0831       205.7402       313.8998
       1168.084      -387.4192      -581.1763       1138.959       459.0242
      -45.16003       596.5807       420.0277       376.2423       381.4867
       162.5359       83.00269       193.7928       220.4088       526.2920
       597.3011      -112.9822       251.0791       630.7625      -806.0562
      -415.0424       684.2628       44.97775       97.51147       17.65356
       495.9175       1670.699       731.1741      -628.3530      -247.0851
       225.7485       67.79388      -180.1759      -184.4008       300.7082
      -56.42020      -219.1798       672.9233       183.7256      -475.2682
       263.9648       281.7114      -317.1685       180.9663       389.5713
      -670.7676      -380.6853       590.2553       238.3199      -214.3500
       56.06104       334.7087      -278.5811      -240.7235       117.5603
      -667.6226      -345.7390       699.1992      -520.6699      -1263.186
       523.1971       910.0024      -385.3509      -417.7346       287.7580
      -6.860718      -499.7268      -212.3213       10.15536       153.3433
       43.57007      -222.2053      -279.5212      -951.0107      -745.3423
       280.5036       149.4693      -34.18506      -161.1469      -375.3543
       119.3792      -98.71924      -724.5873       91.63513       822.5292
      -316.8379      -1190.647      -395.2903       438.7264       143.6376
      -495.4440      -153.4519       198.0881      -652.4640      -645.0580
       416.5902       386.4386      -384.3119      -278.5888       35.12024
      -582.1543      -695.4848       23.32471       482.8100       193.7996
       3.732117       56.46729      -551.3213      -662.3118      -214.0338
       313.8301       320.8042      -534.5670      -204.8357       625.2482
       181.6852      -234.2920      -247.0945      -459.4108       99.81519
       554.1749      -24.64371      -125.8637      -125.7990       165.2328
       428.9904      -288.7641      -508.2657       10.71967       163.2427
      -55.93665       296.6758       413.2593      -52.83058      -42.39771
      -43.47745      -26.75140       368.3813       49.58752      -401.3638
       238.3786       171.9829      -107.8044       386.6193       384.6006
       281.3550       325.0789      -61.28857      -598.5939      -146.0360
       666.2409       40.94067      -102.7554       553.4790       317.1284
       170.9799       153.7969       275.5504       330.9354      -66.09100
       171.2661       86.56934      -512.2546       272.0345       824.2654
       201.1022      -35.55797       17.86438       177.1555       225.5468
       68.78381       114.0282       415.5206       547.8047       199.0151
      -275.7748      -183.3421       304.0934       546.9136       346.8742
       251.4994       368.3462      -343.6579      -485.7037       487.7244
       790.3295       630.9376      -186.5051      -617.6023       301.5271
       586.5496       188.4590       79.88531       397.2568       164.9392
      -379.6276       147.9453       633.5606       83.04736      -525.5400
      -308.4158       376.8102       809.1541      -75.72925      -769.9296
       68.70886       286.4250      -17.46722      -207.9525       35.46060
       313.3331      -409.3183      -228.8447       501.4525       102.1285
      -415.6050      -230.9871       370.3772       39.63226      -376.3567
       136.1204       16.02203      -427.1013      -109.5075       222.5945
       64.31592      -246.2211      -352.5278       67.29504       274.4414
      -237.5067      -374.9230      -77.89934       5.551880       232.6377
       219.5310      -246.6351      -193.0717      -173.1851      -67.69116
       160.3166       92.94220       49.88354      -410.1281      -413.4754
       105.0435      -127.3209      -390.1841      -198.8618       58.27023
       207.9604       51.28171      -130.8992       261.5017      -87.15283
      -723.2823       199.7587       544.9539      -238.6206      -272.8989
       200.4894       186.2350      -189.4900      -254.7137      -108.5309
