     0.02500000      -1253.774       1638.992      -12345.00      -12345.00
      -30.00000       224.6500      -25.50000      -12345.00      -12345.00
       0.000000       19.05000      -12345.00      -12345.00      -12345.00
      -12345.00      -12345.00      -12345.00      -12345.00      -12345.00
      -12345.00      -12345.00      -12345.00      -12345.00      -12345.00
      -12345.00      -12345.00      -12345.00      -12345.00      -12345.00
      -12345.00      -30.68660      -67.50870       990.0000       0.000000
      -31.24600      -68.98500       0.000000       102400.0       0.000000
      -12345.00      -12345.00      -12345.00      -12345.00      -12345.00
      -12345.00      -12345.00      -12345.00      -12345.00      -12345.00
       154.0750       66.64297       245.8871       1.385296      -12345.00
      -12345.00   -0.009346856       0.000000       0.000000      -12345.00
      -12345.00      -12345.00      -12345.00      -12345.00      -12345.00
      -12345.00      -12345.00      -12345.00      -12345.00      -12345.00
      2008        16        21        18         2
       200         6    -12345    -12345     10187
    -12345    -12345    -12345    -12345    -12345
         1         7        13    -12345    -12345
    -12345    -12345    -12345    -12345    -12345
    -12345    -12345    -12345    -12345    -12345
    -12345    -12345    -12345    -12345    -12345
         1         1         1         1         1
MAJA    -12345          
        -12345  -12345  
-12345  -12345  -12345  
-12345  -12345  -12345  
-12345  -12345  -12345  
-12345  -12345  -12345  
-12345  -12345  BHZ     
ZL      -12345  -12345  
[...]
      -170.9786      -164.1481      -164.8450      -150.5510      -134.5888
      -122.1859      -118.4775      -107.5986      -89.61578      -77.24731
      -73.17726      -58.46341      -45.99174      -34.14287      -30.90330
      -18.33392      -11.69366      -4.289955       4.939503       16.20270
       20.35091       21.64496       26.19121       38.58815       34.72003
       41.41516       92.39807       128.2056       110.5706       143.1955
       65.98470      -3.123230       172.2440       111.1913      -85.05847
       198.6041       327.0441       16.00586       173.5404       435.5813
      -113.4324      -22.53064       493.6931      -207.6915      -84.86548
       702.2386       201.1211       154.6199       237.4388      -217.1030
       272.2478       845.6484       145.8806      -269.6273       415.3043
       367.5159       87.31976       322.9507       22.25952       157.6797
       596.5300       86.36755       163.0193       592.7003      -58.87402
       257.7087       937.2365       196.9482      -147.9601       230.3221
       369.2771       434.1694       501.3981       256.4781      -44.07434
       382.3121       792.1170       322.0249       33.65387       126.0645
       83.37573       625.2305       711.8481      -159.2191       59.14648
       673.6313       478.2112       274.7594       274.2028       282.5634
      -122.7887       162.6478       782.3193       139.4179      -178.2673
       404.5142       789.3207       349.3051      -348.3981       70.29858
       562.5471       127.5057       155.3062       412.6110       190.3902
       98.63513       164.8298       250.6195       96.34058       274.8730
       179.9313      -95.38661       88.19781       74.70154       493.4657
       369.6664      -548.2800       177.5582       873.0798      -302.0981
      -411.4834       662.6688       245.6840      -445.2355       322.5535
       353.6848      -262.6995       197.0194       99.94363      -139.6210
       351.9740       72.97174      -350.7183       76.20758       315.1092
      -181.9573      -47.01871       387.2266      -317.3463      -181.7898
       470.5121       32.98752      -211.7963      -20.97821      -176.4112
      -224.3535       162.6301      -98.80737      -422.5715      -55.42615
       90.05133       141.2734       50.82416      -368.6395      -286.4583
       130.8641      -108.5664      -444.4102      -177.4220      -45.54272
      -306.9693      -127.7226       82.34509      -144.5167      -338.8417
      -396.9202      -125.0894       14.95142      -378.5262      -401.3151
      -57.12427      -282.9827      -313.9799      -13.74634      -251.6148
      -303.8756      -202.0814      -307.2211      -177.1846      -72.73303
      -222.1093      -323.0742      -318.7764      -181.4282      -174.8297
      -254.7202      -220.6379      -333.0266      -359.8162      -175.1251
      -192.9435      -297.0701      -258.3250      -209.2764      -139.9160
      -241.4720      -275.7080      -219.5972      -540.6656      -276.3193
       109.0988      -283.2487      -445.9056      -351.3040      -321.1121
      -149.2172      -131.5128      -319.9163      -381.8878      -99.39700
      -54.17749      -378.9648      -208.9717      -306.7642      -433.5411
       45.10925      -156.9487      -391.6664      -220.2781      -330.4100
      -305.3467      -131.5708      -250.9927      -260.0004      -96.83911
      -209.3173      -329.4828      -183.4633      -95.30817      -205.8706
      -254.0652      -302.8057      -32.43530      -120.0225      -479.0060
      -151.3128       36.43506      -123.7438      -145.3506      -10.18188
      -203.5613      -182.3377       34.90082      -155.4636      -208.4485
      -116.4154       17.35904       42.56433      -262.2042      -120.4452
       221.9509      -71.49268      -154.8579       123.1436      -8.841873
      -92.86203       160.9877       79.18845      -165.2799       40.20584
       153.5274       55.16278       105.0430       254.5963       151.6335
      -98.31400      -22.50433       239.6237       186.5982       69.05017
       104.8368       91.01587       156.1938       166.9789       137.5851
       148.1804       282.4254       234.7554       4.050415       277.5967
       270.8452       24.73706       196.6308       338.2178       248.8908
       76.78094       153.8457       175.8085       157.5409       440.6288
       397.4526       88.24170       166.3508       298.3333       158.5856
       99.31348       232.9008       478.8207       421.5227       122.3889
       152.8470       295.2742       242.5433       183.8965       178.1727
       182.4434       322.3298       454.8224       349.2390       268.3728
       73.17511       74.36389       395.1778       328.4820       207.8353
       191.6810       264.6627       374.1351       129.6399       211.3301
       379.2834       89.02472       15.96582       227.8489       268.6719
       208.5636       177.1846       290.3381       225.5672       47.75281
       164.3937       214.4095       110.9200       75.20322       125.2204
       209.6078       151.9765       82.21385       33.83264       83.19348
       254.6042       78.33104      -150.2979       98.88986       125.1971
       13.44611       133.8689      -7.559662      -106.5950      -101.3238
      -69.10214       152.4383       207.4926       17.41827      -150.2002
      -111.7236      -163.0212      -114.6484       312.6337       152.3337
      -304.9275      -112.7915       84.48782      -144.5337      -89.32306
       119.7404      -107.6273      -144.5167      -122.5003      -188.7650
       1.987610      -58.77124      -161.5770      0.6822281       36.04456
      -170.5624      -246.7094      -184.7031      -117.4646      -64.00232
      -93.70038      -151.7557      -209.0426      -146.3124      -140.0246
      -165.6467      -52.88257      -113.2058      -73.70624      -153.1986
      -259.2748       30.97815      -140.4630      -352.4741      -114.5842
      -120.4710      -109.3808       72.46552      -7.599365      -299.6663
      -262.2255      -169.4094      -217.6139      -140.3813      -124.7195
      -154.8723       75.43762       2.336426      -370.8637      -90.60509
       141.7855      -280.6189      -269.7367       15.36887      -19.40564
      -221.1821      -284.7698      -47.76591       117.4739       9.479248
      -266.9174      -228.5248      -74.64406      -19.65195       2.560974
      -217.1208      -176.9560      -75.05316      -107.1874      -118.7776
      -158.2516      -155.4508      -14.30777       79.91907      -144.9530
      -280.9028      -80.81377       46.23604      -43.14093      -141.7924
      -225.3419      -54.76089       145.7924      -199.1681      -348.2902
      -27.76555       21.17419      -109.1208      -99.86015      -76.40327
      -11.54099      -27.30313      -188.8332      -86.65845       118.0142
      -86.94653      -269.1905      -174.4324       7.988525      -104.8439
      -141.2819       87.99802      -237.8484       40.93417       393.8074
      -423.5599      -348.0398       202.5990      -18.35812      -87.96530
      -45.43106       58.08371       157.1659      -317.1669      -344.7531
       164.5015       269.7561       9.220245      -155.3084       105.0905
       128.7055      -95.83076      -16.89235       22.28143       52.96851
       100.5488       90.75311       117.3030       136.8631       70.79456
       66.48383       249.4367       115.3089      -25.49991       142.8248
       167.9788       253.4421      -48.73059      -26.66339       327.4872
       45.73773       87.54480       419.1094       197.9764      -91.41162
       189.5896       298.0582      0.6732178       87.50916       348.1993
       310.5617       67.42133       50.77325       193.0786       155.6204
       191.7009       200.6814       85.77817       50.11499       131.7618
       266.7966       160.3037       214.6722       275.5594       16.93469
      -68.27573       70.32471       305.5956       284.5562      -67.79193
       68.14807       169.0493      -13.70068       214.7198       187.2737
       24.32843       124.3833       8.668610       7.570740       213.8345
       225.8436      -24.53171       16.42871       282.7395       98.96860
       132.0888       53.84265      -239.8535       80.09476       173.4522
       83.86707       161.7204       38.59041      -96.70723     -0.3108521
       159.4140       200.7863       43.33264       97.40657       149.7406
      -117.0255      -124.8748       179.8055       288.9865       15.01970
      -111.3607      -28.76169       67.77052       67.43686      -1.586060
       135.4190       223.0744       79.48145      -225.4890      -129.4359
       213.8203      -16.91673      -129.2889       79.76192       70.77234
       1.623100      -44.44144      -25.24158       54.30613       40.16003
      -141.1443      -131.4845       84.97775       113.9847       144.3467
      -48.17639      -339.7682      -20.02412       178.5854      -110.7270
      -144.4767       7.853012       83.18393       1.103180      -86.47754
       8.772995      -42.55450      -94.75977      -84.06992      -190.4871
      -37.44411       68.61298      -49.84644      -63.76019      -25.67426
      -50.13106      -75.08923      -5.476868      -245.4885      -250.6108
       76.42938      -45.60620      -49.34381      -39.49451      -326.9710
      -72.30957       242.3699      -148.8717      -200.8668       7.500854
      -85.17072       9.267151      -118.9027      -264.3507       70.48599
       113.2017      -103.6187      -214.0764      -84.09410       96.86316
      -88.61295      -16.35476       118.4660      -110.1191       44.23834
       146.5279      -214.7858      -169.2017       99.13882       123.2338
       160.3304     -0.5062866      -149.3045       47.56006       110.4446
       51.98012       31.80730      -91.29388       24.26790       80.66845
       2.451218       93.85469      -72.37987      -52.19516       162.6585
      -31.01836       31.04076       124.2314      -123.7256      -69.67374
      -3.107019      -9.398468       9.703644      -184.8547      -68.91753
       139.4225      -37.97004      -24.35576       137.4622      -115.7705
      -332.3979       4.469910       101.5667      -232.1954      -283.0765
       41.83220       159.0714      -173.2174      -244.9847      -207.9066
      -84.96748       11.97858      -246.8218      -183.3026      -48.27411
      -162.8150       7.777435      -8.817017      -297.9925      -246.6175
      -89.21820      -154.9907      -263.6543      -310.7319      -73.95770
      -83.22467      -252.7249      -52.33125      -53.89026      -113.6566
      -59.22601      -206.2722      -190.5602      -158.8920      -190.4185
      -111.7203      -101.5375      -44.03947       15.64142      -134.8578
      -190.5184      -79.89827       3.488342      -48.47244      -55.99670
      -38.82764      -63.61716      -38.71228      -154.6329      -118.1506
      -22.40118      -56.38184       204.7157       37.62985      -219.1781
       39.20340       98.25964       112.3204       77.78650      -165.7330
      -78.74414       236.8286       159.6725       6.188782       134.3524
       101.0571       92.77216       147.4617       47.16767       1.153656
       78.49167       151.1713       142.5436       138.1069       157.0529
       215.6838       235.2486       116.6964       187.1549       228.0426
       55.51273       34.67313       68.49353       77.54712       127.6117
       139.7000       267.6887       226.1687       20.86804       45.49249
       281.4298       300.6791       97.82506       16.02823       72.14868
       135.8645       105.3887       25.87201       129.0956       151.4434
      -74.89728       56.08795       287.5101       123.8179       48.45105
      -5.099670      -127.4055      -119.6464      -139.2178      -167.4341
       30.99937       155.9389      -64.33728      -68.47229       440.7251
       667.7798       406.0540       123.6052      -66.04199      -290.0422
      -556.9594      -550.1458      -169.6903       100.6693       247.8489
       677.0121       804.3811       5.232849      -213.4935       78.35327
      -210.9384      -456.1583      -226.5206       57.07413       176.4756
       26.40271      -375.9785      -28.28186       200.0341       119.6445
       383.9529      -37.39233      -423.8933      -643.5024      -701.9628
      -331.4675       645.4912       1406.921       310.3821      -1063.054
      -539.9260       149.2710      -566.3926       268.2935       1635.835
       70.01257      -1019.014       252.1674       447.8378      -584.9724
      -411.0474       823.2538       875.1617      -505.7206      -713.3625
      -431.4562      -453.8582       616.1594       1638.992       177.7021
      -1253.774       325.4877       675.9539      -263.9711      -21.09039
      -246.2675       132.7565       202.4464      -337.4417       604.2336
       822.0745      -167.1997      -340.9553      -330.1733      -206.5134
       131.5405       581.7766       1010.097       171.6323      -501.0404
       526.7826       648.2542      -105.1384      -89.91003      -539.1322
      -739.7322       48.44202       569.0914       590.0735      -29.67307
      -233.3804       254.8803       277.9634       252.0616       195.8164
      -29.82812      -421.8892      -536.9858      -265.7578       127.8796
       361.3503      -123.8519      -195.2776       389.4185       555.8312
       42.18170       55.45462       184.9565      -93.92853      -83.26843
      -359.0980      -249.6334       373.2870       204.6657      -94.74280
      -137.7653      -580.0014      -316.7305       696.1774       267.1643
      -665.2840      -296.8422       175.7220       259.1970       377.2906
      -171.1506      -704.1592      -551.2128      -271.3394       283.1511
       810.2200       536.5701      -521.0110      -912.8407      -397.0369
      -294.2001      -566.1664      -147.8854       394.6167      -49.39883
      -174.4263       524.2609       454.5730      -456.7921      -579.8789
      -455.9958      -752.6389      -492.5212      -153.5537      -133.1838
       224.1579      -21.20410      -816.2835      -419.0780      -56.48401
      -374.2127      -172.9635       35.77917      -75.28760      -257.9783
      -552.7722      -611.6465       74.35742      -135.3225      -939.8196
      -582.7247      -105.3126       64.14258      -125.1756      -255.5317
      -116.7839      -317.8918      -662.5978      -744.5789      -415.0726
       57.93811      -401.6923      -921.5386      -104.4630       384.6738
      -32.93561      -129.8584      -71.22461      -83.98218      -323.7957
      -926.4979      -595.9233       11.52460      -269.2908      -278.0396
      -36.99280       338.8217       552.3528      -360.8772      -899.8935
      -313.5635       142.2713       59.53760      -308.7365      -339.6729
      -195.5966       10.72449       261.7674       141.6623       62.92889
      -64.84583      -72.78076       365.5818       132.3304      -202.3808
      -8.857178      -16.03754       250.9489       335.6096      -46.15082
       132.0306       235.6144       248.0824       337.9803      -5.812042
       75.21985       315.3540       461.1591       470.1666       12.39563
       51.02478       502.2657       569.7880      -20.83246      -151.1371
       420.8322       629.3267       621.4983       215.3456       202.8844
       273.7909       45.54187       536.9952       452.6102       30.32959
       432.5164       450.3055       220.3591       846.7606       892.9423
       112.0045       77.93848       449.8670       156.8040      -47.36328
       370.4604       566.5159       557.9091       431.1501       60.56396
       175.9773       479.7336       473.0420       618.5258       285.6350
      -151.3881       386.3093       426.0660      -156.5626       70.53320
       537.1191       611.9881       313.3720      -11.77924       140.1414
       177.7637       80.77509       119.6793       186.4794       376.9669
       283.1197      -52.69025       82.27313       274.7785       89.09019
      -4.482056       203.2213       241.3664       87.69351       106.6606
      -71.82275      -477.1246      -374.1618      -21.40610       85.96178
       169.4886      -251.4800      -509.1545       166.8171       226.4769
      -36.57742       62.83990      -195.2957      -272.2955      -218.6421
      -409.7330      -321.4081       39.69698       149.0642      -223.1119
      -250.7258      -234.8746      -386.9722      -150.7334       8.031860
      -87.39038      -195.3289      -296.0045      -151.0883       67.28015
      -145.6511      -327.4508      -302.7112      -253.3406      -224.3666
      -344.2713      -151.1111       4.567383      -442.7590      -565.3549
       7.182327       165.8007      -238.0763      -341.2341      -26.82333
       15.99683       145.9844       32.07861      -354.1475      -121.3604
      -66.32526      -169.6201      -72.37323      -160.4673      -119.3804
       157.0597       158.4138      -198.1540      -186.9503       205.9771
       156.6188      -258.4470      -40.94695       106.1690      -211.2939
      -37.79355      -83.65988      -185.2362       328.5853       527.9333
      -81.64728      -519.0253       155.2815       229.3233      -447.7733
       90.72546       512.1707       199.1705       171.3200       73.73511
       50.91742       221.0848       221.4781       160.5069       264.4916
       126.1749      -67.22693       231.8021       212.7654      -149.2769
       72.43341       275.1571       245.3246       101.0690      -95.34314
       177.9664       372.7759       159.2658       107.0095       181.4356
       95.39801       154.5035       218.2884      -34.89059      -7.327393
       393.5920       416.5679       117.5712      -112.4246       30.89294
       259.0650       150.4967       50.03482       2.347290       254.8578
       260.5055      -47.08356       68.23062       51.94534      -78.21979
       226.9083       455.6698       25.96329      -220.3060      -28.33994
       63.00424       167.8590       104.4628       50.12061       83.42432
      -191.7527      -194.0501       87.23238       30.83301       94.56273
