     0.02500000      -4223.567       6054.660      -12345.00      -12345.00
      -29.98997       220.2350      -20.99000      -12345.00      -12345.00
       0.000000       15.67000      -12345.00      -12345.00      -12345.00
      -12345.00      -12345.00      -12345.00      -12345.00      -12345.00
      -12345.00      -12345.00      -12345.00      -12345.00      -12345.00
      -12345.00      -12345.00      -12345.00      -12345.00      -12345.00
      -12345.00      -31.57700      -67.87020       833.0000       0.000000
      -31.24600      -68.98500       0.000000       102400.0       0.000000
      -12345.00      -12345.00      -12345.00      -12345.00      -12345.00
      -12345.00      -12345.00      -12345.00      -12345.00      -12345.00
       112.1809       109.3843       288.8061       1.008647      -12345.00
      -12345.00     -0.1557370       90.00000       90.00000      -12345.00
      -12345.00      -12345.00      -12345.00      -12345.00      -12345.00
      -12345.00      -12345.00      -12345.00      -12345.00      -12345.00
      2008        16        21        17        57
       690         6    -12345    -12345     10010
    -12345    -12345    -12345    -12345    -12345
         1         7        13    -12345    -12345
    -12345    -12345    -12345    -12345    -12345
    -12345    -12345    -12345    -12345    -12345
    -12345    -12345    -12345    -12345    -12345
         1         1         1         1         1
NIKI    -12345          
        -12345  -12345  
-12345  -12345  -12345  
-12345  -12345  -12345  
-12345  -12345  -12345  
-12345  -12345  -12345  
-12345  -12345  BHE     
ZL      -12345  -12345  
[...]
       349.1364       338.3716       326.3758       315.6503       308.3270
       297.7781       289.3052       277.6831       263.3209       247.5254
       236.0753       223.6176       209.2334       193.2778       184.1979
       172.2583       154.6846       140.6840       133.7881       130.5569
       121.8846       106.3335       90.20367       80.65488       75.14529
       70.01834       57.72549       38.83015       28.05421       19.76452
       11.02163      0.6538105      -6.032337      -15.04476      -25.83845
      -37.91824      -44.41336      -54.53015      -60.71591      -66.06183
      -76.58374      -92.29935      -103.6767      -114.0977      -118.8912
      -126.7127      -140.4128      -153.1389      -159.0093      -163.1163
      -169.5233      -176.1341      -183.1701      -190.4781      -198.1939
      -207.1432      -213.7184      -217.5297      -224.2374      -230.6609
      -237.7684      -242.0252      -244.5184      -246.4756      -253.7726
      -259.4377      -261.9739      -261.8528      -262.8593      -262.9560
      -263.6510      -263.9014      -264.3580      -263.0925      -260.3701
      -259.5585      -261.8151      -264.5845      -262.1004      -261.1658
      -259.5057      -259.1609      -257.2364      -256.4189      -255.8231
      -258.5917      -257.7062      -258.4520      -257.9533      -254.3401
      -253.3253      -255.2640      -255.3263      -250.9677      -250.8589
      -253.5434      -256.1263      -255.8511      -255.1351      -251.8962
      -252.0451      -252.7690      -250.6027      -245.8716      -248.0499
      -247.3402      -245.6383      -248.6056      -254.0477      -245.5471
      -244.0754      -240.6097      -239.4446      -239.1072      -240.6430
      -233.4226      -233.1506      -232.5942      -232.0177      -231.0654
      -235.8849      -226.9304      -216.6458      -214.2902      -223.6628
      -218.0526      -211.5586      -202.0410      -200.0289      -190.1789
      -190.5314      -187.3479      -187.8311      -174.4131      -162.6696
      -150.1801      -150.8703      -136.4220      -124.9497      -114.5154
      -116.1432      -105.9866      -100.7896      -91.07042      -87.99686
      -79.69156      -80.26344      -67.14642      -59.72560      -50.34454
      -44.59885      -32.98543      -31.63522      -16.27368      -7.411493
      -1.699286      -7.632999       3.680374       16.63190       30.22485
       32.82776       42.41002       43.87971       53.10977       57.44391
       62.54755       64.61285       74.00751       79.07962       86.21283
       93.29443       104.6667       107.0405       115.8437       120.4905
       118.3835       116.2842       129.7281       143.1776       154.7353
       160.4393       165.7262       166.4365       175.0764       180.8547
       191.7926       197.3015       202.1532       198.4579       209.1439
       217.7625       229.5939       230.5918       233.8580       237.1769
       248.9828       245.9418       244.6006       243.7365       252.1511
       252.0863       251.9168       248.5515       261.0405       342.8976
       509.4976       417.6008       218.0374       344.5995       226.1567
      -29.83948       133.2109       219.8047       423.9985       376.4042
       52.79712       374.0744       383.3635      -24.18689       85.02979
       334.1503       516.6807       342.0974      -47.37683       35.98471
       142.1450       6.995972       174.4347       197.7266       45.71149
       300.7253       236.5515      -42.68169       32.32251       123.7221
       156.0585      -54.97058       66.43945       523.4950       145.0686
      -355.9989       17.01535       250.4058      -6.947075      -61.42566
       101.8745       200.0294       103.4853      -38.00235       79.97104
       18.62451      -188.5533       92.33752       241.7304       63.66986
       38.30762       39.94714       198.5739       137.2342      -134.0076
       103.3883       90.45764      -193.0450       103.2720       225.7858
      -12.80164       10.33173       157.1617       290.0421       288.7534
       98.81805       160.8887       211.2764      -11.29009       22.80102
       79.69608      -75.06726       130.7059       367.8309       265.1403
       229.3740       222.5459       257.6686       380.5011       227.2260
       93.48456       131.7047       109.1960       323.0546       446.7918
       196.6093       132.1862       294.6335       401.2124       216.4004
       160.5054       345.9241       104.9617      -39.08215       279.7887
       503.9348       389.1067       89.54651       85.44238       470.5571
       438.8885       82.55295       85.49078       165.6936       261.9182
       277.8120       234.6133       262.5394       196.9545       175.8159
       138.8652       103.0282       161.8384       97.67242       19.76668
      -53.77695       60.02002       361.2587       356.6025       193.0696
       80.31670      -24.08865      -128.5975      -61.55081      -45.07874
      -201.6024      -176.9566      -109.2635      -11.32710       91.69743
       27.35559      -66.70422      -165.7263      -217.2855      -225.2847
      -215.9910      -254.8895      -226.6260      -134.2780      -271.3494
      -465.7891      -461.2602      -174.6282      -132.8064      -452.1263
      -400.1443      -369.6254      -376.1832      -273.6423      -458.0046
      -556.6002      -406.8480      -320.6215      -433.1519      -510.6802
      -448.2866      -620.2240      -602.8982      -422.2478      -420.1431
      -415.4844      -499.1702      -597.7983      -650.4899      -626.7014
      -424.3108      -383.9504      -557.7379      -490.0198      -318.0522
      -442.6061      -457.7035      -520.3987      -757.4323      -600.5706
      -390.6071      -490.8928      -612.4539      -557.1318      -310.8872
      -324.4209      -575.7251      -568.4773      -424.1141      -354.6832
      -343.3380      -434.6775      -488.4491      -483.0259      -487.4768
      -524.8087      -442.2074      -281.6448      -298.4034      -377.9819
      -283.7291      -265.0808      -372.5790      -460.7043      -562.4393
      -453.2464      -162.5507      -91.74304      -196.0612      -328.0504
      -390.5953      -304.8750      -229.4735      -229.9885      -277.1819
      -307.8947      -173.0365      -82.22957      -53.63269      -79.16345
      -260.3526      -247.0164      -81.70462      -135.7085      -160.3577
       8.581444       8.607971      -124.0812      -99.02988      -36.16901
       124.5419       273.8965       135.9159      -3.888290       66.97711
       67.16672       41.64166       162.5676       285.2634       219.6820
       145.4625       314.4762       506.4570       405.2335       267.0742
       285.4092       224.8015       204.6117       383.4082       459.6331
       447.1598       431.4657       374.4465       248.9115       270.5312
       519.8092       565.6633       512.3508       590.9174       517.6866
       480.5350       562.6288       504.2242       379.0803       443.4724
       444.1704       395.7039       577.6558       664.7690       432.8040
       367.2454       657.0250       683.4214       422.7360       399.4768
       436.4568       463.4480       562.0026       564.4124       453.1067
       414.0585       499.3749       585.9031       493.7771       398.7222
       470.8091       424.3726       265.5751       326.0155       396.4390
       493.0662       569.3701       439.2947       305.9727       280.3485
       262.8818       288.8222       306.8697       227.9529       232.5567
       322.7682       249.8307       215.8912       318.8295       389.1096
       294.7778       137.2672       106.3883       199.0897       228.2453
       120.5051       51.83411       207.4395       232.5390       59.83426
       46.23676       18.97311       114.8141       281.8022       12.68951
      -197.6018      -52.90576      -11.66458      -67.15759      -34.57498
      -12.61836       67.31589      -7.517700      -238.3171      -47.58142
       211.6918       36.87967      -145.0614      -207.7190      -283.6085
      -116.5740       110.4240      -34.97296      -214.3687      -136.5807
      -58.96866      -137.2147      -146.4614      -55.90039      -176.6834
      -366.9218      -248.7169      -88.16028      -135.1940      -187.9099
      -193.0536      -269.2489      -364.4459      -210.2336      -42.05188
      -171.1566      -260.9364      -304.5280      -307.8749      -247.1360
      -268.1820      -172.5269      -166.0770      -415.5577      -331.7789
      -265.4666      -415.3505      -328.5165      -294.8595      -140.4095
      -2.743530      -218.3942      -336.2855      -319.6537      -283.6194
      -271.9510      -283.0822      -222.1685      -108.4731      -108.1742
      -276.7356      -350.6282      -403.2156      -343.1363      -53.04807
      -8.341721      -82.00842      -76.51392      -237.8698      -260.4101
      -82.70724      -86.92456      -184.5872      -289.4394      -188.1509
      -108.5291      -219.7502      -66.66248      -134.7212      -346.0269
      -224.2807      -58.94965       8.994019      -223.2236      -351.2512
      -235.6583      -210.5467      -80.19881       38.54019      0.8787537
      -26.08118      -86.56342      -204.0411      -232.1140      -123.9200
      -94.24878      -152.4274      -82.04996       27.08461      -37.06609
      -99.28320       31.28969       45.46735      -58.26820      -48.15942
      -148.5005      -270.5121      -125.4378       53.05652       110.8634
       99.46521      -12.61511      -182.5614      -231.6837      -21.29022
       176.7410       115.0998     -0.3577042      -32.17297       114.6663
       239.1826       129.5240       47.23997       35.64749       10.52570
       43.40960       14.32938      -81.19960      -111.3477      -26.88373
       110.5999       166.7173       144.8434      -2.966156      -103.9798
      -45.67819       130.3960       119.3887      -99.73627      -86.92218
      -180.0536      -174.1792       121.1231       93.08929       33.70959
      0.6948242      -184.0809      -183.7156      -36.80216      -3.487335
      -32.67171       19.00299       83.86035      -35.30838      -189.5829
      -49.55331       65.63147      -82.78065      -18.20284       51.63376
      -89.70319      -27.61349       42.05495       35.93870       52.79755
      -25.70811       14.68039       83.37762       103.1569       158.5624
       94.68403      -17.45938       8.757324       193.8767       463.4219
       455.7833       151.0881       16.40165       41.05589       30.81555
       99.77698       238.0497       280.6357       253.5916       317.3035
       333.2688       198.8617       152.9666       316.3970       310.7143
       134.2325       162.3010       112.2689       100.7345       385.8043
       385.4448       327.5411       386.8618       202.7415       229.0107
       365.5406       268.3572       267.9843       321.5537       104.3631
      -69.38623       129.6851       330.5278       396.9489       398.1237
       321.5496       442.2409       435.5133       151.5657       73.39828
       55.89542       26.08179       119.5692       227.9169       294.5284
       208.1565       130.1619       149.7549       194.7204       243.1077
       213.2770       71.04259       45.39238       89.23478      -54.22314
       5.524353       238.8406       155.8597      -20.17816       100.4724
       231.2819       56.49558      -34.49040       9.510406       54.71628
       91.94116       187.4828       282.0166       103.1260      -111.5468
      -154.1132      -238.8092      -252.6600      -104.8959       6.361271
      -6.291290       60.29968       130.2873      -9.594604      -160.9361
      -93.62186      -55.51627      -75.32452      -175.3827      -296.8356
      -64.13544       116.1584      -146.0579      -284.7300      -313.5398
      -352.3033      -186.2902       14.76907      -5.139893      -117.1092
      -93.32996      -182.1241      -291.6586      -202.9116      -296.4825
      -385.8876      -138.3415      -129.1845      -328.3795      -177.8667
      -61.77789      -114.6099      -151.1096      -254.1650      -338.1274
      -470.1606      -452.1559      -160.7193      -110.4973      -300.8853
      -461.2109      -642.9862      -485.2918      -45.62625       137.0723
       44.27734      -239.4036      -361.3147      -199.6355      -363.3101
      -530.4159      -420.8265      -412.5360      -287.0150      -91.97095
      -293.8048      -518.9694      -44.29492       353.3962       413.8601
       956.5256       912.5466      -338.3179      -1692.225      -2309.846
      -2108.860      -1484.475      -1057.699      -998.1970       394.7070
       3041.002       5283.007       6054.660       3246.322      -886.9814
      -1610.582      -1635.255      -4189.803      -4223.567      -921.7325
      -52.09131      -1063.998      -1799.802      -1488.627       1501.758
       3414.482       386.3895      -1808.238       2003.516       5177.459
       1840.034      -2841.112      -3630.686      -2895.526      -2189.582
       183.1519       1828.013       990.4360       1511.092       3213.421
       1542.947      -767.0514      -32.53345      -506.3340      -2866.669
      -2685.196      -37.11865       2592.977       3041.604       850.7617
      -1256.101      -1760.123      -1008.711       107.3107       16.24927
      -484.6333      -266.8276      -476.3296      -622.8000      -447.7563
      -708.0338      -141.5039       1152.366       1591.002       1078.517
       464.8706       529.2849       833.1467       429.5198      -479.2488
      -832.1572      -510.4399      -1170.761      -1771.382      -161.3691
       2121.524       2462.958       154.1055      -1852.476      -960.5043
       67.20654      -810.1926      -1125.055       708.0708       2479.167
       2043.737       452.7889      -160.6640      -4.145874      -166.3486
      -508.7582      -590.9282      -391.6306      -547.0645      -1049.643
      -753.8752       249.0986       799.7092       848.1074       856.1335
       419.6711       559.6914       1962.305       2267.415       1117.907
      -355.5200      -1944.832      -2044.260      -635.0454       378.9363
       804.1111       986.8936       471.9382      -290.0670      -149.7471
       797.4196       700.7476      -625.0936      -545.0796       947.9465
       1113.380      -99.78247      -823.7253      -743.4225      -674.7764
      -666.6355      -424.9911      -153.4447       439.4092       971.1903
       621.7681       168.5466      -66.05518      -400.9962      -546.0964
      -605.5250       137.3962       1193.567       531.1285      -297.2803
      -163.4281      -164.4226      -342.1250      -1126.994      -1377.017
      -490.0103      -266.2068      -327.0408       267.4680       517.9181
      -84.93970       100.7670       822.3859       74.84528      -581.9268
       525.2063       901.2932      -605.0286      -797.3326       553.0427
       835.6436       536.4948       315.7017      -572.0029      -1370.534
      -905.3699      -9.754532       63.94861      -295.4778       118.2668
       800.4924       496.2579      -77.51099      -258.0289      -33.05420
       148.7982      -465.1995      -507.6603       509.6782       1130.702
       615.6086      -581.8033      -295.5103       1117.033       1094.209
       509.5909       180.6111      -1031.177      -1774.113      -677.1438
       223.3866       175.9171       254.0448      -244.2031      -1035.885
      -637.5650       82.82108       135.0005      -34.23444      -336.4071
      -40.26489       561.0231       129.0441      -456.0860      -313.3055
      -122.1159      -307.8555      -59.30322       461.6890       469.4329
       486.9105       374.1105      -118.6544      -406.2274      -108.4443
       559.0861       684.7689       366.8365      -46.60803      -408.6929
       164.2900       965.8702       732.4429      -15.66962      -232.7504
      -154.5366      -512.0052      -493.3940      -25.60046       111.7266
       636.4163       776.1033      -169.3776      -301.1208       374.6278
       483.4218       129.4084      -60.24365       556.8666       888.4449
      -169.8582      -865.8873      -482.4084      -361.8694      -388.9705
      -232.7596      -79.55042       180.6150       368.9601       275.1191
      -39.62109      -269.9473      -216.5868      -50.02392       11.98444
       71.28723       149.9428       38.88232       232.8165       493.2365
       2.490356      -416.6490      -452.0527      -606.5368      -242.1346
       266.2667       313.1722      -20.60751      -247.7629       237.5129
       486.8291       583.2935       1230.409       1090.544      -5.884766
      -859.3994      -1272.092      -935.2245       25.17230       381.6592
      -5.347473      -184.1818       46.06396       473.8188       871.3040
       556.2125      -133.0194      -339.6311      -465.8910      -649.3754
      -363.3281      -89.44458      -280.9111      -154.1693       70.23785
      -207.7389      -67.08862       272.5624       173.5896       424.6987
       698.3595       431.0300      -197.7249      -666.5813      -433.2158
       109.1891       361.0167       172.7600      -215.1545      -684.3146
      -878.5110      -285.2963       254.7180       64.24049      -45.08258
       125.2216       18.71300      -6.697250       70.93689      -334.4395
      -628.2540      -393.0696       51.85144       273.8274       151.1263
       202.4969       221.0136      -39.10125      -60.76868      -5.627197
      -185.8151      -102.0264       722.6121       1182.056       40.04492
      -1116.759      -1066.319      -599.7697       42.38843       533.8621
       676.0833       514.3081       184.2400      -25.41388      -209.8578
       83.41199       449.0119       177.9266      -15.54697      -56.63354
      -125.2360      -78.48730      -241.0919      -123.6111       577.2389
       637.3503       90.93518       358.5215       719.4817       311.5538
       200.3034       217.8774      -244.4888      -186.8682       24.67960
      -176.1378     -0.2064362       182.3696      -133.8860      -229.0467
       24.19427       223.3149       554.6687       787.2050       494.0431
