     0.02500000      -4975.005       8598.753      -12345.00      -12345.00
      -29.98997       220.2350      -20.99000      -12345.00      -12345.00
       0.000000       15.67000      -12345.00      -12345.00      -12345.00
      -12345.00      -12345.00      -12345.00      -12345.00      -12345.00
      -12345.00      -12345.00      -12345.00      -12345.00      -12345.00
      -12345.00      -12345.00      -12345.00      -12345.00      -12345.00
      -12345.00      -31.57700      -67.87020       833.0000       0.000000
      -31.24600      -68.98500       0.000000       102400.0       0.000000
      -12345.00      -12345.00      -12345.00      -12345.00      -12345.00
      -12345.00      -12345.00      -12345.00      -12345.00      -12345.00
       112.1809       109.3843       288.8061       1.008647      -12345.00
      -12345.00     0.03099239       0.000000       90.00000      -12345.00
      -12345.00      -12345.00      -12345.00      -12345.00      -12345.00
      -12345.00      -12345.00      -12345.00      -12345.00      -12345.00
      2008        16        21        17        57
       690         6    -12345    -12345     10010
    -12345    -12345    -12345    -12345    -12345
         1         7        13    -12345    -12345
    -12345    -12345    -12345    -12345    -12345
    -12345    -12345    -12345    -12345    -12345
    -12345    -12345    -12345    -12345    -12345
         1         1         1         1         1
NIKI    -12345          
        -12345  -12345  
-12345  -12345  -12345  
-12345  -12345  -12345  
-12345  -12345  -12345  
-12345  -12345  -12345  
-12345  -12345  BHN     
ZL      -12345  -12345  
[...]
       33.76642       28.77079       14.79685       15.85524       5.000413
       5.671946      -3.984909      -5.120125      -14.91299      -16.83050
      -29.26080      -30.41663      -41.19167      -48.65680      -60.44089
      -60.57300      -75.48627      -80.88730      -89.27249      -86.25433
      -96.65732      -102.9442      -119.4975      -122.0736      -126.3852
      -130.4641      -145.5424      -151.6604      -159.0043      -157.3880
      -164.8502      -167.6479      -175.0544      -173.5350      -176.5232
      -175.7720      -174.7401      -173.5026      -181.4919      -181.4761
      -181.9999      -180.7526      -182.8754      -175.6450      -171.7220
      -172.7406      -176.3591      -169.4451      -166.2591      -164.7424
      -166.2705      -160.3643      -163.1145      -160.1283      -157.2162
      -153.8900      -161.4139      -157.8329      -155.8864      -154.8112
      -160.6503      -153.2359      -152.0927      -148.1589      -152.7863
      -148.5666      -152.0352      -149.0142      -154.9016      -155.8304
      -159.6656      -154.9395      -159.2571      -160.9424      -165.1796
      -160.3125      -164.6950      -164.1970      -166.9098      -162.9665
      -167.1755      -167.9133      -169.0666      -165.9815      -165.9920
      -159.2147      -160.9227      -160.2665      -164.3747      -157.2443
      -159.6150      -158.0948      -163.2041      -154.9664      -150.9816
      -142.4161      -147.8804      -141.6420      -133.4300      -119.5998
      -118.8136      -112.3925      -109.3861      -96.53290      -91.58864
      -85.21548      -83.04732      -69.67366      -65.08589      -57.62849
      -55.77985      -44.72917      -35.25738      -19.65259      -16.82641
      -13.48364      -8.816874       2.409340       4.338066       16.78826
       20.46685       26.51776       24.55978       30.42541       32.64726
       39.26491       39.29189       43.30974       41.17929       46.99747
       44.89786       45.50111       42.29390       44.87375       41.41972
       46.43506       43.53741       45.64024       37.44349       31.04733
       29.46053       39.08678       32.50805       32.76115       27.69376
       25.27737       26.37488       34.59592       25.18964       24.49013
       28.05373       37.08638       28.74074       27.99213       23.89027
       32.98302       34.89615       34.93201       31.57132       37.24301
       35.11337       38.47112       34.57610       37.58394       34.07805
       35.95126       36.59106       42.90762       35.48798       32.50789
       31.52563       37.02238       32.39159       28.47637       25.83069
       35.49021       37.08190       34.34604       30.19733       34.69548
       34.51863       38.32315       42.21896       45.46872       44.09250
       47.08327       48.87071       51.53476       48.85178       48.39714
       51.54456       60.90665       58.37517       52.75015       55.74864
       65.34827       68.24632       68.13652       62.52252       60.82056
       60.27386       61.42203       61.29842       64.61915       28.22469
      -74.55770      -40.19788       179.9751       106.9991      -37.29852
       225.5256       219.6400      -120.7700      -179.5296      -13.51920
       155.6674       92.10489       60.04932       336.8687       326.0673
      -171.2831      -335.2383       37.10660       102.7282      -79.99255
       243.9128       494.6412      -73.78085      -270.5700       325.2846
       51.68042      -520.1555       78.39185       456.5015      -94.17400
      -106.3069       315.6288       73.66724      -303.0757       21.39496
       310.5765      -68.58615      -204.7585       128.2442       154.2933
      -58.78850      -101.8803      -6.782135       135.6415       55.30457
      -268.9759      -88.18317       228.8465       96.90849       42.26590
      -28.96585      -135.4959      -9.418610       60.83931       45.37459
      -73.47131      -30.14182       73.38092      -94.25381      -125.0045
      -16.44446       82.58704       230.5680       266.2167       91.69098
      -146.5859      -291.6472      -133.6761       403.7276       328.7403
      -188.6855       113.0410       337.8674      -64.14989      -111.2823
       233.6213       240.7289       153.6874       280.6912       244.4826
       188.4114       231.4481       189.1532       163.8043       172.7380
       278.8770       382.0209       457.7747       386.6333       372.5386
       325.6878      -15.34125       107.0039       535.2996       345.8845
       260.8634       645.4092       702.3986       337.2370       205.5939
       441.6565       452.7231       228.2957       297.4773       465.4830
       512.3896       466.0667       416.4282       501.9972       650.8961
       450.1216       203.8037       441.7947       542.6464       221.0371
       272.0526       512.4540       413.1096       352.9423       532.7963
       507.8533       345.4008       272.4666       216.4977       209.7346
       401.9526       389.2398       27.13861       75.34644       400.6027
       247.0644       75.49695       314.8113       318.8034      -27.78876
       61.03839       217.1589      -37.90265      -175.6915      -46.08801
       126.5694       169.1660      -103.4606      -215.9167      -120.2392
      -107.9970      -104.6646      -97.76849      -120.1959      -233.5957
      -306.6358      -230.4907      -238.4650      -349.3066      -402.8523
      -280.9283      -304.7781      -449.6517      -421.2303      -425.1343
      -458.8901      -480.1711      -529.7638      -428.1077      -493.4503
      -636.1158      -552.4495      -506.6221      -678.7172      -683.2260
      -475.6146      -554.6958      -690.7439      -539.6621      -638.5664
      -787.5406      -676.5797      -611.9771      -710.3352      -701.7178
      -604.2856      -660.6833      -717.3923      -692.4426      -726.0798
      -697.8989      -701.4722      -651.5957      -517.2549      -651.7209
      -893.1084      -706.6516      -508.1975      -650.3677      -619.4822
      -479.4194      -708.2341      -739.6135      -352.8521      -465.8193
      -967.7546      -851.8159      -518.0815      -427.4204      -410.0330
      -447.9875      -569.0576      -577.3811      -514.1730      -478.9374
      -391.9342      -312.5081      -433.1096      -549.8645      -443.7023
      -363.4931      -305.5520      -179.9316      -261.1211      -345.1697
      -412.8073      -357.0610      -105.0944      -133.0069      -267.1887
      -161.7814      -136.8878      -39.71674       47.80951      -120.3232
      -149.8721      -50.79962      -199.2730      -236.8758       175.2830
       383.6448       36.20758       17.58826       253.6637       202.4066
       82.84241       80.35046       228.7628       292.0713       192.8247
       279.7979       413.6680       358.4523       296.7371       420.1400
       416.8079       368.9325       524.7421       619.8469       470.5144
       365.3857       491.1602       716.0690       724.1372       526.3290
       483.7347       682.8765       619.5618       422.1904       654.7476
       810.1490       611.2119       646.9683       749.3871       640.1055
       562.9397       726.9312       777.0366       569.3047       543.4346
       773.5845       806.1204       597.3650       615.6511       773.5605
       602.4224       457.4263       597.6851       671.4207       638.0958
       615.8693       470.5176       416.2554       518.8152       504.3756
       394.1216       399.3818       423.8970       493.1096       468.1208
       196.3383       249.2650       591.0146       449.9503       154.1312
       234.7446       295.3499       92.24396       160.7099       248.8537
      -48.77231       12.82690       423.1574       175.6356      -167.6727
       169.1179       375.4079       55.71497      -162.8924      -90.07765
       22.94476      -61.26074      -248.2207      -229.6873      -9.044266
       23.98517      -130.6590      -120.9181      -40.98016      -170.2749
      -302.5634      -232.8284      -179.2932      -259.9994      -115.1082
       19.02307      -266.9219      -421.9184      -221.1959      -221.9119
      -377.9849      -366.7050      -202.3547      -180.5170      -297.6283
      -275.8363      -193.9009      -361.2603      -418.9225      -224.3949
      -298.3941      -422.9549      -157.3378      -73.55176      -419.4593
      -402.1078      -51.24634      -233.4189      -491.8918      -260.8668
      -104.2327      -302.2773      -445.1574      -328.4217      -189.1189
      -227.2977      -408.7561      -379.9616      -144.1017      -75.42456
      -190.6722      -346.5477      -284.1946      -165.6164      -258.8883
      -183.3841      -90.10034      -277.4785      -297.7637      -97.14880
      -97.41656      -311.2328      -374.5371      -179.4375      -121.9887
      -226.2053      -126.5645      -104.2916      -219.1346      -119.2313
       1.005859      -57.02719      -175.9666      -54.20406       14.59283
      -197.3089      -154.1825      -59.27113      -108.8984       167.5336
       211.2703      -235.7755      -232.4802       74.53052      -69.78563
      -111.7139       160.1377       173.9186       25.29803       67.64531
       82.51561       4.562332       14.41669       65.63808       16.08026
       16.35794       130.4487       131.8470      -3.978729       97.17255
       247.2893       21.39471      -1.357056       355.6802       294.4926
       143.8420       244.5709       163.4496       55.12018       152.4694
       155.8682       62.19507       164.7980       333.9498       235.1674
       133.2094       210.2121       208.2301       80.85924       27.02502
       85.96545       269.2487       261.1610       152.0606       201.4904
       160.8844      -29.74150      -19.37735       180.0302       113.8578
      -59.50598       132.9114       300.3838       131.1642      -29.56110
       72.84042       127.7623      -15.20404      -127.1496       40.82527
       124.2235      -114.3296      -111.5983       190.2030       108.2002
      -230.4508      -208.3332      -28.93912       2.649216       38.44949
       115.4243       86.31564      -95.17993      -83.13463       54.36060
      -52.10663      -239.1568      -119.9510      -34.05138      -49.29053
       66.77869       82.07581      -71.08551      -211.6147      -229.3282
      -53.81863       95.55585       188.3427       168.9539       11.47754
      -148.0005      -181.3662      -35.66070       64.05801      -26.81897
       36.85204       77.42644      -21.47630      -50.84033       137.9825
       236.9663       10.15472      -91.53119       87.24841       95.47046
       44.83261       95.29333       107.1604      -38.76914      -77.12717
       48.83939       134.4247       200.5827       139.1143      -36.84589
       83.81018       113.9519      -69.14440      -16.87985       97.94196
      -19.98566      -81.18475       100.7307       134.2576      -126.4832
      -92.73427       37.82123      -92.35568      -79.36578       108.8882
       98.18707      -3.040802      -79.33736      -3.439102       84.88640
       4.678009      -53.73222       33.44014      -38.10413      -131.2792
      -6.349365       127.5575       66.82440      -71.72446      -132.8210
       4.212616       130.0434       23.52344      -29.80884       195.2888
       130.4922      -169.4517      -79.21857       242.3212       98.89363
      -67.92303       138.0615       164.1120       56.96775       29.51376
      -87.73129      -77.81580       58.87372       92.90729     -0.1178894
       32.49066       153.6360       175.0956      -15.72925      -127.0509
       101.2888       192.8885      -90.55737      -99.29828       146.7262
       92.00977      -129.7048     -0.5148926       301.7898       249.0753
      -87.60724      -231.9869      -88.47461       153.9146       160.5781
       6.135391       74.90456       69.14990      -235.4669      -210.4601
       122.0203       94.82738      -52.28644       118.7848       146.9032
      -58.81396      -229.4193      -232.8680      -50.52795       142.8235
       167.5316       2.558258      -46.62051      -53.56667      -98.45538
       15.52887       26.05627      -37.01001       162.7827       368.5982
       108.8439      -265.1512      -193.0178      -36.84402      -110.0363
       12.11401       274.8503       229.9770       37.59412       48.32796
       84.31760      -105.5092      -233.8243      -132.8825      -2.411987
       340.6006       842.6577       545.9705      -311.9539      -937.9521
      -1746.622      -2071.117      -913.6643       454.7605       250.0178
      -965.1768      -2038.691      -1616.264       630.1423       1135.809
      -857.6626      -1840.615       830.5469       6486.627       8598.753
       2155.871      -4975.005      -3062.179       1327.654       886.9307
      -682.5376      -2067.971      -2481.731      -249.0980       1174.749
      -313.6128      -1421.604      -1153.635      -1431.225      -749.5991
       2409.138       3350.625      -1699.232      -4113.562       1070.711
       3534.254      -200.9673      -1744.611      -101.2654      -319.9578
      -363.2742       1445.678       1356.347      -1105.959      -3699.788
      -3504.308       115.8135       2943.061       3749.421       3291.791
      -411.6982      -3511.488      -1466.937       1189.694       1103.441
      -189.1748      -1155.779      -376.6145       295.1714      -673.3947
      -858.8332       33.79639      -181.7023      -805.1564      -427.9314
      -377.8364      -795.4570      -1054.365      -873.0737       1069.814
       2383.133       890.7991      -375.8345      -978.3616      -1440.688
      -227.3987       1192.398       553.2798      -1002.890      -1037.682
      -95.86586       130.1714      -177.3145      -235.8633       358.3192
       751.6680       288.9461       169.9970       428.3783      -56.73419
      -325.6245      -35.26257      -373.0640      -1018.327      -979.7021
      -824.8684      -1107.271      -542.1245       730.4607       848.1859
       274.2075       166.8676       454.3375       593.6429      -27.44016
      -242.8653       166.5134      -158.6646      -178.0616       539.8633
       404.0571      -857.9951      -1812.640      -880.2107       855.4614
       919.6724       62.28473      -157.2974       412.1204       867.8059
       225.5634       51.11963       673.5230       64.45605      -653.3818
      -428.0720      -483.4663      -675.9365      -576.3442       192.6111
       1093.148       655.4707      -396.2412      -709.0957      -363.5683
       160.5502       122.9402      -451.6054      -224.7188       581.9780
       1259.113       947.9814      -566.5476      -1182.694      -336.3836
      -105.6605      -631.6500      -113.9409       663.7969       930.2397
       1817.248       1402.294      -217.3650      0.6748047       688.5430
      -303.2870      -550.7927       1025.549       1014.272      -440.9529
      -131.0857       714.9443       321.4990      -67.93701      -91.12589
      -150.5266       208.4814       618.8502       630.9557      -261.8877
      -1203.389      -517.1969       569.8896       574.9453       313.8638
       1028.082       1470.576       506.4821      -76.72827       141.3767
       561.5138       710.7896       22.98138      -287.8901       557.3472
       934.6962       502.3020       535.5304       27.20288      -1173.912
      -603.0999       530.5336       336.7866       24.89087      -87.01392
      -670.6781      -749.3032       323.4941       1509.743       1922.231
       974.1924      -421.4584      -259.6440       725.9624       775.7899
       336.0844      -237.8694      -880.3288      -583.4906       223.6064
       694.1860       780.9318       576.8500      -92.42773      -769.3555
      -474.9320       450.6421       743.5569       894.3599       1246.322
       645.0140      -353.9871      -295.9553       315.9941       950.8225
       1448.251       449.4575      -1466.636      -1827.955      -715.1469
      -107.6377      -172.7048       196.1638       286.8066      -245.4005
      -318.9738       183.4252       357.4158      -274.6488      -709.5764
      0.1679688       835.2161       1150.010       934.9758       370.7872
      -91.97949      -766.8171      -1217.445      -783.6773      -222.4090
       4.899536       197.8772       136.3149      -626.8953      -1024.358
      -553.4244      -295.6495      -224.2449       133.9336       616.0161
       1045.938       606.7090      -379.9490      -789.3000      -895.0743
      -802.9684      -227.0774       292.3704      -297.6536      -908.2667
       68.39832       649.5547      -144.9912      -193.4724       432.9704
       109.8929      -398.8356      -273.9625      -63.82355       207.6688
       200.9048      -851.3433      -1501.610      -651.3569       16.08997
      -76.67188      -331.7782      -673.5649      -584.9159      -13.62823
       257.6730       81.74692       61.40050       22.77332      -272.2158
      -185.7214      -292.9890      -735.5300      -360.3265       241.3882
       126.6841      -397.4951      -921.8120      -1011.126      -630.8621
      -698.4523      -725.6408      -30.57605      -65.87976      -702.9096
      -519.1973       95.89124       600.9854       506.8191      -411.1169
      -940.1119      -496.4863       4.762848       58.18896      -248.6525
      -148.8244       155.9780      -304.1260      -673.6600      -402.8873
      -104.2068      -99.87762      -293.2820      -361.7141      -417.5890
      -338.5922       349.2820       604.4648      0.9230347      -79.55829
      -26.71716      -273.5191      -83.68762       261.2809      -4.718872
      -531.4203      -353.4426       82.87219       485.5664       823.2941
       333.2203      -212.3015      -148.3309      -244.4106      -304.9758
      -68.79492       260.6047       563.4213       156.7682      -484.7789
      -2.223511       691.6113       489.9834       421.6567       449.5599
      -209.6496      -147.8510       307.6718      -135.0913       68.99475
       738.6740       332.5330      -358.4705      -352.6155       110.6576
       377.3721       341.3284       282.4730       359.2881       341.3055
