     0.02500000      -2227.196       3970.748      -12345.00      -12345.00
      -29.98997       220.2350      -20.99000      -12345.00      -12345.00
       0.000000       15.67000      -12345.00      -12345.00      -12345.00
      -12345.00      -12345.00      -12345.00      -12345.00      -12345.00
      -12345.00      -12345.00      -12345.00      -12345.00      -12345.00
      -12345.00      -12345.00      -12345.00      -12345.00      -12345.00
      -12345.00      -31.57700      -67.87020       833.0000       0.000000
      -31.24600      -68.98500       0.000000       102400.0       0.000000
      -12345.00      -12345.00      -12345.00      -12345.00      -12345.00
      -12345.00      -12345.00      -12345.00      -12345.00      -12345.00
       112.1809       109.3843       288.8061       1.008647      -12345.00
      -12345.00     0.01609406       0.000000       0.000000      -12345.00
      -12345.00      -12345.00      -12345.00      -12345.00      -12345.00
      -12345.00      -12345.00      -12345.00      -12345.00      -12345.00
      2008        16        21        17        57
       690         6    -12345    -12345     10010
    -12345    -12345    -12345    -12345    -12345
         1         7        13    -12345    -12345
    -12345    -12345    -12345    -12345    -12345
    -12345    -12345    -12345    -12345    -12345
    -12345    -12345    -12345    -12345    -12345
         1         1         1         1         1
NIKI    -12345          
        -12345  -12345  
-12345  -12345  -12345  
-12345  -12345  -12345  
-12345  -12345  -12345  
-12345  -12345  -12345  
-12345  -12345  BHZ     
ZL      -12345  -12345  
[...]
       477.4420       457.7115       441.2146       420.9878       401.8143
       378.8588       358.1106       339.3112       318.5278       295.5856
       276.3969       255.3596       238.8342       218.0740       197.4824
       182.2673       167.6890       146.8623       132.5742       112.4516
       92.75430       80.97321       69.39146       45.09534       27.16055
       17.33365       3.394363      -13.16044      -23.83894      -41.27229
      -57.41428      -68.00885      -77.08044      -86.64279      -95.34909
      -106.4785      -115.1293      -121.4468      -132.1714      -139.5059
      -142.1628      -146.9188      -151.6523      -153.8243      -157.2885
      -160.0695      -159.1581      -159.6322      -160.8699      -162.0388
      -162.9596      -163.6627      -164.1320      -166.9970      -167.8397
      -170.8621      -170.6489      -170.2748      -167.5837      -164.3580
      -164.6570      -167.4998      -166.2161      -167.2125      -169.5482
      -168.7333      -167.6498      -168.9400      -168.0488      -168.5702
      -169.6772      -172.9261      -178.4062      -181.8186      -182.7469
      -187.1505      -189.5794      -192.8227      -196.3322      -201.8446
      -204.0308      -202.4916      -203.8599      -209.9536      -215.5940
      -215.6404      -214.0237      -218.4933      -220.5839      -220.7992
      -215.8020      -210.9803      -207.6889      -207.0861      -203.1647
      -198.2922      -193.0974      -189.3007      -184.8420      -181.4630
      -172.5328      -164.9444      -157.5320      -153.2862      -146.3400
      -138.0096      -129.4048      -121.1584      -114.6130      -108.3420
      -102.9523      -97.03540      -88.75238      -82.41016      -77.37100
      -70.18481      -65.34811      -60.50433      -56.41628      -50.82462
      -43.69534      -37.20382      -34.75995      -30.57018      -23.26653
      -17.19278      -15.76083      -12.07720      -9.766750      -9.217777
      -7.479405      -1.257932       1.252574       1.924102       2.853012
       5.222874       7.787296       9.375824       9.590748       9.163555
       9.648888       13.23293       14.63596       9.661289       9.817165
       12.16998       12.96360       16.05140       16.23767       12.94508
       16.43586       21.00806       15.38352       13.17587       14.73090
       16.91306       19.69413       19.97580       17.58475       20.11292
       18.12057       18.08145       17.58360       16.07746       13.54806
       14.08035       10.05997       10.23894       9.136007       8.976616
       6.040237       6.731400       3.676557       6.057474      0.3070316
       7.499523       6.570652       5.228833      -3.963604       1.215794
      -3.080317      -2.392317      -5.009043       3.390563      -3.575834
      -3.441367      -6.360862      -2.646230      -4.634875     -0.5301514
      -11.47780      -10.95085      -7.326815      -2.972752      -12.31349
      -9.021202      -14.18207      -8.958115      -7.756310      -8.114830
      -15.68801      -23.55161      -34.02411       5.331543       301.1697
       663.2032       113.6740      -367.3994       256.3950      -118.6216
      -885.7110      -239.6862       176.0267       329.0020       147.7291
      -248.7996       285.8053       285.9834      -834.9193      -837.5344
       342.9537       794.2897       319.8386      -492.5692      -330.3748
       176.6132      -19.54883       191.3181      -132.3839      -368.6520
       530.1692       428.0890      -289.9056      -265.7872      -173.7807
      -31.88940       243.9768       141.9067       34.65976       190.7660
      -20.71454       89.42419       201.6885      -54.03737       12.98590
       166.0884       339.5495       216.8538      -281.4933       108.8429
       407.3014       40.08984       257.8828       36.81592       59.35907
       280.9594      -37.83228       475.6428       354.0517      -370.1793
      -139.9293       392.7821       383.2928       188.1115       334.4430
       171.2690       50.66711       246.8528       237.2481       208.0487
       355.4954       565.0740       185.0304      -267.3777       131.2029
       474.2645       110.1959       127.1486       284.4197       79.38330
       349.5574       266.3585       70.53857       674.5823       342.9064
      -294.3051      -134.3164       141.1683       560.6144       487.7723
      -210.5859      -162.5466       592.9994       569.0164      -240.0931
      -97.67480       321.9635      -126.1958       133.8132       418.4544
       39.47333      -83.95367      -115.4242      -68.75238       216.2126
       266.4432      -79.38831      -252.9825       133.1656       455.1828
       1.923462      -113.4760       70.80798      -350.9966      -322.9689
       87.54338       54.53329      -25.45428      -67.12158      -196.1575
      -271.9165       26.71971       163.4384      -220.8287      -492.7800
      -215.9877       163.5247      -138.4751      -504.0159      -595.0602
      -401.9682       122.0479       27.26843      -589.0153      -430.4045
       218.8664     -0.6220703      -605.5454      -647.8035      -239.0907
      -14.50305      -326.9758      -532.3660      -246.8424      -52.93628
      -342.5042      -684.2888      -519.5945      -216.8668      -189.2000
      -323.2317      -404.1348      -382.0369      -382.7453      -134.7369
      -145.2195      -547.0279      -393.4794      -168.8054      -136.9349
      -164.7134      -473.3114      -328.6771      -133.7186      -255.7225
      -241.8776      -168.9684       20.09244      -61.04706      -294.1362
      -341.0308      -174.3573       64.69862       73.88525      -126.1477
      -263.1225       24.44850       107.3644      -160.8799       15.18773
       72.30591       51.64871       155.1465       79.19391       125.0784
       37.23326      -109.2966       222.6119       324.0442      -96.76941
      -139.7692       158.0803       120.9792       131.3921       362.5551
       99.70740      -218.0234       129.6953       311.6457       119.6997
       258.3760       395.3192       69.55290      -31.71509       235.4657
       278.6403       219.6163       191.5643       84.52628       72.83789
       256.3478       243.3586       64.47119       111.1571       85.04253
       18.10754       217.9962       440.1314       259.7384      -100.0413
      -181.7174       73.89545       290.8895       224.1315       55.14337
       95.52582       307.0789       201.8394      -99.69904       52.21973
       520.3635       254.6536      -300.5347       1.565552       392.9682
       119.6228       85.96161       260.1630      -65.42947      -212.4797
      0.1612549       267.1895       393.0776       96.02332      -292.6364
       32.80017       423.6012       60.65403      -94.97607       85.21320
       144.0301       150.9937      -30.52699      -95.96997       219.3403
       197.4273      -75.40092      -52.74113       47.89685       147.2249
       99.85846       9.052246      -179.1585      -272.4291       102.1187
       139.9163      -63.80215      -40.21709       25.29553       31.47910
      -26.60378       65.44839      -26.01941      -168.0516      -79.99692
       60.55827       79.24023      -181.4005      -230.9285      -43.96771
       3.160324       15.50781      -163.5936      -213.5299      -6.231079
      -108.7993      -383.6744      -330.0992      -125.0783      -150.1568
      -27.66097       91.33804      -90.47430      -177.3957      -151.9493
       21.59787       48.30579      -211.6378      -371.5572      -185.7360
       38.50055      -137.0421      -241.7217      -115.2552      -59.42621
      -176.2554      -188.8470      -144.4250      -366.5357      -147.6108
       280.5919      -93.28546      -376.4459      -19.11603       157.8318
       86.66711      -371.5368      -544.5240       114.9646       172.0779
      -245.7563      -149.6836       130.8439       154.2789      -144.9941
      -256.5877      -57.44089      -12.11212      -207.7043      -157.3585
       113.5924       73.24323      -63.71021      -251.9026      -216.3250
       206.6118       101.3694      -197.3879      -60.67099       29.47630
       3.336006       19.69480      -1.959320       48.13107       43.10327
      -245.6035      -151.7372       282.5818       202.3555      -216.1894
      -105.6731       266.4094       39.88132      -117.1257       119.6217
       58.00573      -36.90833       178.5764       291.5305       122.8269
      -74.26294       20.43048       185.3915       89.90399       248.6984
       100.8420      -55.11157       266.4573       35.93674      -104.0912
       229.8212       282.4031       171.3137       279.0039       164.8328
      -83.83667       236.8465       314.2686       218.8265       322.1952
       43.28447      -116.8400       46.24292       385.4041       461.9425
       86.85004       120.8085       275.3552       144.5080       76.70642
       88.28473       301.1013       267.6953      -102.5768       279.1462
       452.2941       180.7527       301.2947      -61.80663      -186.9783
       217.9310       312.4222       213.2839       145.4240       301.4539
       133.8777      -2.009949       243.5423       113.1372       54.68445
       220.3614       59.75078       47.34406       113.7164       82.10526
       47.53976       89.92072       283.9652       97.97028      -262.9892
      -181.7236       252.1832       329.2254       129.5352       72.05637
      -72.68079      -209.4550      -233.4638       20.43365       273.3513
       107.8187      -194.6424      -268.8580       48.02643       253.5895
       8.613647      -272.4133      -343.0371      -132.2863       168.2390
       68.48593      -172.3212      -104.1001      -108.2661      -236.0131
      -171.4712      -53.97559      -82.25769      -206.2770      -179.4095
      -43.01532      -105.5422      -396.1669      -284.9117      -21.58466
      -250.1709      -153.8710      -23.56940      -268.5839      -82.48145
      -143.0797      -322.9172      -154.0170      -145.3497      -235.2285
      -235.5391      -130.9973      -90.68030      -236.3893      -323.4585
      -160.4775      -66.96808      -171.6877      -224.3983      -110.3596
      -25.12726      -171.0714      -208.3278      -166.4713      -255.2418
      -185.5232      -43.69781      -154.5305      -146.0599      -159.1840
      -371.1713      -193.8034       144.5989      -23.37866      -434.2709
      -410.5386      -194.4790      -22.87587       69.36496       12.53238
      -59.81573      -151.3342      -234.2028      -268.9067      -71.83463
      -59.53046      -294.6887      -229.2831       83.37738       208.2859
      -61.76617      -298.3617      -230.6682      -26.23730      -70.75256
      -257.5392      -307.1038      -176.0212       143.7935       121.2886
      -82.84688       76.81818       74.50568      -207.0455      -215.4413
      -23.36311      -2.764694      -85.91919       47.81961       93.69409
      -234.9793      -249.7178      -33.49426       180.7101       201.5309
      -93.96945      -73.01758       82.45267       17.36263      -71.52722
       80.33435       258.1208      -32.68762      -221.6056       93.70340
       256.8320      -43.12738      -213.2442      -36.83218       140.6057
       170.2525      -77.24605      -33.97650       131.6647      -205.4374
      -91.65521       298.8921       80.41139      -116.6469       38.73828
       117.2690       96.78479      -71.04105      -141.3721       237.2297
       267.0954      -150.6567      -166.2828       210.5045       330.8237
      -8.389404      -178.2557       54.29010       210.3781       75.58459
      -23.47231       14.29724       172.5639       291.1840       183.5530
       72.72652      -34.06769       40.06189       250.7173       224.8319
       76.10437      -55.75684      -67.27354      -34.15521       131.2432
       184.0433      -64.78745       95.89551       291.3954       5.077393
       49.15436       282.1160       182.2051       224.9418       150.2780
      -57.02759       341.3176       543.6771       208.9083       209.2563
       454.4309       609.5110       303.9629      -18.31256      -38.08044
      -123.6754       177.1106       556.7161       155.1922      -293.2159
      -46.87549       307.0264       392.9254       517.9849       535.6323
       417.9592       375.4429       397.4965       339.8120       77.15454
       216.4218       572.2788       454.3085       164.4326      -54.82532
       57.80762       585.2740       682.6248      -272.0028      -647.0712
      -294.8486      -252.3062       547.2271       1253.536       862.5784
       665.5751       463.6362      -489.8717      -622.0088       348.5181
      -238.9443      -2099.153      -2227.196       849.5967       3970.748
       2921.571      -20.99261      -268.3325       1245.097       1146.052
       274.6149      -270.3406      -639.9355      -328.7416      -527.7928
      -754.9303       240.2382       518.6733      -1266.759      -1612.378
       1184.939       2695.480       904.6985      -998.6019      -387.9822
       1274.069       631.7637      -1543.345      -1465.507       160.0120
       917.5984       1311.184       1007.285      -307.3188      -1164.072
      -1148.857      -803.1418      -216.6090       243.7740       19.52588
      -481.1204      -802.5786      -785.9136       37.26758       1180.658
       578.7109      -1201.877      -1012.319       204.7551      -110.4197
      -794.9695      -650.6949      -334.5716      -48.12134       310.4807
       477.4792      -35.16602      -1323.938      -1640.655      -231.0117
       717.7925       431.2075       166.8900      -124.9937      -821.3887
      -794.0667       460.5574       894.1963      -256.2690      -848.0671
      -403.3198       104.2042       9.481445      -827.7644      -1151.531
      -442.6189       50.76099      -98.08185       81.56946       376.8554
       182.0461      -302.3628      -591.8135      -545.8884      -908.2944
      -1290.053      -931.5182      -281.8899       271.9754       147.1600
      -235.0223       322.0269       976.8886       407.1182      -432.8794
      -264.8434       10.08032      -801.3823      -988.8085       291.4148
       213.5994      -1152.386      -1275.760      -303.1354       359.6129
       273.1602       288.6878       151.0391      -646.7871      -869.4395
      -638.8574      -495.3087       73.09973       416.2855      -68.28223
      -566.2142      -569.9885      -488.8149      -460.3003      -554.8262
      -561.8170      -287.0695      -102.6251      -25.48141      -38.08264
      -131.8400      -184.8861       152.2300       1013.243       1122.765
       114.4622      -415.3613      -273.5024      -635.1741      -522.9290
       203.9110      -249.9850      -767.8444      -113.5366       520.7439
       793.2211       611.2238      -237.5745      -123.5143       243.0938
      -339.3463      -177.8090       475.0949       70.82935      -1017.391
      -994.4622       236.7656       769.3197       312.8090      -33.20480
      -39.58896       50.14368       243.8079       318.4565       251.9504
      -141.7151      -500.0405      -249.6884       48.43506       111.8043
       108.7795       351.4531       377.9328      -74.49512       128.9709
       560.8357       457.3290       356.5045       89.54050      -108.5417
       95.15125      -136.3605      -373.0269      -31.20038       239.3815
       471.1818       591.6584       309.4080       478.6519       831.9136
       286.6287      -323.5399      -172.7996       255.1556       360.3616
       93.13550      -308.9727      -404.7563       100.4531       653.8909
       752.0376       468.4907       169.8682       100.6981       160.3376
       210.7018       108.7196       32.70557       161.2586       91.67966
      -156.4749       50.02246       779.0950       1282.305       946.3644
      -6.418579      -372.3209       66.41443       428.4491       401.9579
       86.65208      -33.67963      -41.10730      -83.52393       198.2731
       254.7622       190.7948       345.0325       428.0448       104.2340
      -80.59644       440.5325       584.7078       219.0599       70.49050
      -13.02167       73.23511       479.5931       714.5208       551.6075
       479.0707       487.7276       2.771667      -381.9127      -31.43811
       276.4735       352.8654       330.6132       124.8373       49.62234
      -122.5530      -166.8132       160.9883       269.3085       460.5798
       397.7557      -69.86963       25.03308       368.2734       139.4177
      -233.2574       87.33768       265.5835      -400.3066      -441.0128
       353.1664       422.2032      -180.2320      -156.1756       277.5889
       244.3860       106.8214      -7.763031      -253.0551       45.21567
       203.5303      -418.2397      -579.1610      -337.5807      -330.3504
      -202.7662       24.86670      -117.7461      -663.8341      -752.5170
      -315.2496      -161.4275      -334.6155      -360.2681       18.55798
       287.8458       98.99130      -184.6065      -139.5325       170.9860
       59.89020      -286.3502      -83.53674      -136.9851      -781.9238
      -757.7354      -157.9548      -48.40759      -473.0646      -650.5894
      -333.6489      -54.32953       112.0496       193.9818      -123.0907
      -334.5334      -142.7987       35.25945       89.23145      -402.5662
      -813.9583      -546.8403      -505.8855      -630.0355      -594.7067
      -449.9326      -131.3356       7.016174      -176.4083      -225.6747
      -216.2181      -402.9470      -330.2333      -175.7508      -161.4370
      -47.07648      -103.2971      -159.5641      -178.5795      -524.2693
      -474.4023      -103.4415      -430.8041      -520.9213      -21.27740
      -1.780212      -116.9183      -103.7016      -287.9573      -147.4352
       260.4959       146.6395      -100.8931       88.00156       1.372803
      -322.6303      -207.9425      -89.73851       31.82961       158.8331
      -181.7689      -161.1049       333.3719       281.2493      -52.60672
      -101.7294       42.83594       283.3760       424.5924       299.2184
       164.1415       168.2817       260.8750       322.4102       155.5509
