     0.02500000      -775.0928       1219.831      -12345.00      -12345.00
      -30.00001       231.5000      -32.05000      -12345.00      -12345.00
       0.000000       23.72000      -12345.00      -12345.00      -12345.00
      -12345.00      -12345.00      -12345.00      -12345.00      -12345.00
      -12345.00      -12345.00      -12345.00      -12345.00      -12345.00
      -12345.00      -12345.00      -12345.00      -12345.00      -12345.00
      -12345.00      -31.19940      -66.74700       697.0000       0.000000
      -31.24600      -68.98500       0.000000       102400.0       0.000000
      -12345.00      -12345.00      -12345.00      -12345.00      -12345.00
      -12345.00      -12345.00      -12345.00      -12345.00      -12345.00
       213.2998       89.18945       268.0349       1.917816      -12345.00
      -12345.00     0.09502516       0.000000       90.00000      -12345.00
      -12345.00      -12345.00      -12345.00      -12345.00      -12345.00
      -12345.00      -12345.00      -12345.00      -12345.00      -12345.00
      2008        16        21        18         8
       750         6    -12345    -12345     10461
    -12345    -12345    -12345    -12345    -12345
         1         7        13    -12345    -12345
    -12345    -12345    -12345    -12345    -12345
    -12345    -12345    -12345    -12345    -12345
    -12345    -12345    -12345    -12345    -12345
         1         1         1         1         1
NOQE    -12345          
        -12345  -12345  
-12345  -12345  -12345  
-12345  -12345  -12345  
-12345  -12345  -12345  
-12345  -12345  -12345  
-12345  -12345  BHN     
ZL      -12345  -12345  
[...]
      -208.2959      -154.4188      -194.9390      -208.6556      -185.2924
      -146.9014      -91.81860      -106.1388      -109.3910      -38.34261
      -48.04045      -74.87519      -40.68486      -32.09109       6.987576
      0.6811523      -38.05682       3.379761       60.82321       86.88932
       32.27005       37.76678       146.0504       144.3101       94.27902
       72.38562       71.14026       128.7982       132.3319       48.71429
       109.4910       229.3562       193.4781       140.0125       156.9330
       169.5808       150.5239       151.4338       183.8181       183.0683
       166.2475       156.8897       174.2427       148.0324       128.3120
       143.2402       124.4373       113.3098       178.2524       205.0616
       98.63672       37.16034       78.75360       120.3830       147.7033
       123.6041       76.07593       66.09250       72.10812       65.81065
       43.74727       46.84729       66.30621       87.93608       77.95590
       32.00166       37.33461       40.16166       15.72782       22.18185
       17.64070       51.46207       81.18336       2.435156      -24.07555
       24.24772      -13.72681      -42.32883       24.70975       26.73249
      -10.20892      -33.46776      -47.18167      -33.99283      -69.73895
      -65.87191      -32.18192      -37.53488      -46.06064      -70.78354
      -96.18431      -84.71045      -38.61775      -47.36417      -116.0406
      -97.47931      -82.51367      -120.9046      -103.0858      -110.9233
      -115.4303      -67.42426      -115.7123      -188.6974      -169.7919
      -122.4323      -87.11340      -68.48169      -146.3594      -193.0066
      -139.4158      -156.9427      -135.2617      -90.79922      -133.5975
      -122.1255      -113.0594      -139.5981      -111.7246      -115.9032
      -110.6395      -39.34306      -68.52567      -103.0875      -52.50839
      -55.99106      -86.97423      -59.05860      -32.50021      -12.28961
      -3.814926      -18.42429      -27.28736      -9.320023       16.29526
       35.47723       34.23950       39.10698       41.13170       42.58522
       27.60254       18.88452       44.48544       93.44284       100.5472
       81.81960       24.65359       34.03946       101.9781       54.69489
       27.80392       97.34369       73.34586       77.21014       123.3568
       76.25713       21.73639       60.46393       102.2484       80.31476
       60.81891       89.11685       137.2197       125.1893       53.30982
       11.50055       34.35471       114.3911       112.3270       31.29956
       31.27626       84.25722       54.63324       39.55676       94.99629
       93.32621       2.974339      -16.04591       47.79564       62.33224
       40.24207       57.53053       46.32489       16.50629       13.42999
       60.71606       13.60682      -17.51253       23.35235       28.99547
       11.68923     -0.2536068      -1.488825       24.88646      -24.24164
      -10.22162       67.83839       22.49161      -30.21086      -29.20552
      -13.92723       30.70134       2.318320       1.184875       3.142097
      -19.47832       8.482330       55.60271       52.04746       24.71343
       11.93958      -16.70671      -29.27664       65.87453       71.88889
      -9.177307       11.59367       80.93709       78.84879       64.48047
       54.50766       67.16663       97.73956       109.6215       79.69547
       74.96375       103.5568       108.3076       94.45267       136.7663
       164.9263       127.2410       122.7159       141.4656       120.7107
       121.6949       149.1901       158.5189       185.2683       224.2528
       158.1619       95.65411       155.2469       170.0187       147.3813
       191.4221       194.0316       183.3088       195.1516       159.4141
       133.4190       181.1657       178.9156       148.2244       131.1275
       93.49701       114.6611       148.8029       130.2560       152.9514
       194.7799       126.5690       62.57104       85.37799       94.31992
       125.4631       117.2222       63.63943       31.37111       38.81204
       84.69583       71.92909       14.78828      -17.46259      -23.97737
       17.52357       65.83981       24.55895      -47.68874      -27.71552
      -14.21468      -34.97133      -16.58298      -33.90555      -61.45755
      -53.17967      -72.61615      -91.77652      -109.0488      -114.9580
      -67.87106      -63.89578      -119.5312      -157.8469      -142.8166
      -98.34607      -139.1211      -179.0657      -138.8079      -150.4590
      -188.8099      -199.6528      -194.2130      -180.3593      -214.3117
      -222.0881      -153.1747      -179.6704      -235.9070      -192.5753
      -167.4728      -201.5300      -229.5695      -209.1726      -181.5404
      -186.2543      -202.5329      -189.7262      -184.6307      -181.4528
      -188.4659      -184.2380      -148.2108      -143.4137      -159.0442
      -156.8602      -108.0415      -132.0551      -164.5996      -52.45393
      -53.92081      -129.2400      -56.20746      -32.42850      -93.57666
      -50.74681      -16.93408      -39.26129      -38.10992      -50.53830
      -53.30545      -10.97226       43.36824       89.26918       8.515900
      -82.42408      -14.54196       55.12166       46.97110       34.32419
       48.20914       51.01909       25.69852       38.39810       58.50911
       47.28323       57.53714       76.26083       50.14609       71.35587
       82.77432       67.27368       102.1592       67.17752       47.56769
       144.8615       155.0819       50.71922       55.36041       136.2570
       137.8391       88.40604       91.43198       104.8321       53.91188
       45.29440       91.12909       111.9925       130.3795       76.20898
       38.39651       77.60181       72.62949       47.15509       43.23609
       30.15423       30.32439      -9.002617       1.117325       53.64554
       57.69466      -9.073624      -57.94734      -30.53447      -11.79139
       11.25262       1.939636      -80.10010      -67.62978      -17.34991
      -87.56064      -164.2506      -107.2805      -51.04248      -52.45422
      -93.65167      -138.6510      -182.0417      -133.4887      -88.93069
      -153.9858      -196.2546      -156.2755      -153.6208      -181.4799
      -171.1635      -151.9159      -195.9154      -217.4723      -196.4102
      -170.8323      -232.2930      -265.9803      -194.4734      -146.5757
      -215.2158      -252.0523      -239.2426      -223.9020      -220.6157
      -207.5111      -202.4589      -190.2537      -235.1793      -263.8335
      -224.7734      -187.7032      -200.2555      -221.3450      -229.0047
      -197.7334      -215.4049      -261.5181      -267.2676      -217.6464
      -175.6638      -165.2791      -219.1092      -244.4216      -211.5660
      -161.3362      -157.5278      -181.6619      -189.0592      -179.6461
      -190.4814      -160.1048      -130.8126      -159.8959      -175.3968
      -123.5640      -121.6510      -139.3888      -71.64609      -42.02161
      -130.6530      -91.01428      -34.20497      -93.23618      -52.72832
       18.74655      -39.10107      -48.28800       3.568848      -28.92708
      -58.94989       33.43442       60.32158       23.62875       45.12411
       73.50989       57.29395       49.61452       46.81519       72.91861
       98.45966       125.9258       126.2068       106.5405       121.3906
       149.4752       186.6059       194.1884       121.0288       158.6017
       267.9946       273.8432       231.3951       219.5725       238.6007
       247.5192       270.0548       343.0647       358.6528       368.0000
       365.7566       366.9578       388.8228       381.0946       415.5544
       449.5526       383.3186       405.1228       459.8618       449.3466
       462.1261       482.9495       489.0483       506.4561       504.9497
       544.4221       547.2375       529.2194       519.9583       506.8638
       561.6570       560.8578       474.8386       487.7091       563.9218
       627.3492       649.0735       643.4786       609.0399       572.6761
       569.4209       531.5999       521.8124       603.9629       625.0652
       589.5942       610.0564       610.5681       580.8376       540.7388
       508.2515       579.3115       597.3042       531.7891       519.4349
       539.0406       512.0623       458.1947       413.6542       382.7668
       370.6096       379.9359       395.7086       400.7489       369.1584
       306.4084       270.3491       252.8712       233.1105       222.1810
       149.5036       103.7884       111.1639       99.63562       89.95438
       105.1932       78.19479      -16.83057      -98.80238      -72.54585
      -51.26566      -97.13818      -155.6439      -166.0300      -164.5356
      -237.8151      -276.2621      -246.6730      -242.5133      -283.6030
      -353.4360      -348.1252      -348.4658      -404.2385      -405.3926
      -397.3035      -438.3606      -448.6954      -515.7633      -523.5449
      -466.8541      -516.0984      -600.2107      -584.6301      -530.0479
      -528.6638      -532.3079      -520.0391      -639.8555      -681.5830
      -582.1501      -560.2313      -580.1974      -601.9495      -631.1387
      -632.2671      -655.3208      -649.2777      -578.7457      -537.6589
      -611.3750      -628.7244      -548.0278      -547.2000      -577.7819
      -606.9204      -606.2014      -555.6316      -529.3967      -525.1948
      -557.4087      -587.8236      -555.1177      -499.4204      -470.6008
      -482.6042      -444.3483      -413.8999      -464.1665      -514.3716
      -447.9584      -404.5818      -409.0308      -402.4779      -393.0396
      -379.8164      -348.6300      -335.5801      -316.4832      -294.9196
      -282.3356      -309.7389      -293.4764      -262.3063      -236.6036
      -186.8706      -173.5831      -217.9088      -211.1147      -174.8676
      -139.5656      -98.49612      -97.81796      -109.5884      -46.31868
      -13.06561      -38.88623      -79.35233      -65.90446      -23.80983
       47.21298       56.75754       54.49292       111.1195       90.53632
       75.72153       122.3605       121.4382       172.9819       205.7075
       153.3726       138.0405       188.7926       219.7344       225.5726
       237.5902       287.1373       301.1238       264.5167       246.8918
       291.0461       283.9465       286.8700       306.5456       276.7612
       262.3210       298.9004       310.7354       324.1226       288.2488
       264.6819       328.6043       353.7057       293.2046       261.4894
       265.9375       303.4758       302.0328       293.1420       290.4680
       300.9952       278.6909       232.4476       238.6399       270.2068
       262.9742       246.7688       210.9877       216.8596       221.5351
       245.3871       234.1464       183.2540       200.1487       243.9902
       173.3113       125.9808       160.3160       177.6633       141.6742
       119.8757       116.3671       154.1490       140.5709       61.25241
       40.53876       102.5639       108.7746       67.97957       64.55433
       51.07979      -26.12780      -40.91110       5.871801       12.49809
      -46.46933      -69.13087      -68.43948      -45.11578      -44.38971
      -78.78558      -106.9131      -70.31726      -66.14435      -149.8921
      -202.6587      -169.0498      -170.5875      -197.8845      -193.2505
      -134.9542      -177.5419      -230.2119      -229.4046      -251.4236
      -246.0696      -209.0043      -214.1720      -246.0542      -292.1267
      -294.7395      -261.6401      -247.6716      -252.8975      -249.9145
      -242.3031      -249.0351      -301.2812      -310.4901      -298.0850
      -289.2214      -288.7828      -279.4268      -260.4316      -260.9285
      -269.9526      -273.2617      -231.3738      -163.7986      -193.4866
      -272.0259      -274.9076      -239.5518      -230.5638      -170.3170
      -149.0809      -198.9668      -221.0176      -192.5154      -150.0836
      -145.7571      -214.7226      -177.5111      -90.54608      -98.28400
      -131.3348      -129.7291      -113.8488      -117.7056      -119.1376
      -143.4288      -187.9126      -167.1896      -127.6099       17.83112
       152.1081      -24.81091      -324.2087      -350.9399      -163.5302
      -25.25034      -99.76703      -143.1483       81.11987       457.1855
       683.0430       781.0354       936.9995       951.4521       741.4968
       591.3375       396.6233     -0.8669739      -244.3461      -20.50684
       405.4116       502.0849       169.4626      -112.6390      -82.91669
       99.88068       195.4518       293.7529       432.6510       537.9414
       746.9268       1128.139       1219.831       623.9314       45.72559
       376.2139       847.7908       571.6423       157.7888       369.5187
       639.5320       429.0588       247.6215       249.0370       178.3154
       249.3958       475.4635       365.7783       79.70630       72.25647
       257.0859       459.8550       680.9388       752.9174       436.2662
       121.3469       220.8396       528.3408       534.4926       218.2200
       189.9540       274.5076       307.8794       452.1771       376.1210
       150.3164       137.4927       213.2285       142.2469      -9.846161
       5.091736       202.7513       241.9683       183.1893       443.9729
       528.1263       167.9648       97.88663       161.4551      -29.30014
       14.98645       226.3763       305.0789       296.7812       140.4998
      -55.41083      -205.4303      -222.9216      -18.98471       68.21529
      -28.63177      -87.73042      -74.25006       73.33513       147.3778
      -63.41150      -179.0995      -165.0591      -363.0044      -433.4442
      -294.0956      -259.5184      -208.9151      -133.5780      -46.48221
      -21.75305      -384.9873      -752.3250      -743.4768      -516.0276
      -168.2825      -48.76331      -268.4971      -363.5338      -325.2329
      -529.3811      -724.7695      -644.9993      -466.6787      -418.8492
      -413.9709      -332.3884      -369.1091      -421.1458      -378.9762
      -474.7905      -686.2773      -775.0928      -671.8243      -537.5789
      -508.5450      -501.8717      -418.6198      -345.6133      -368.7742
      -426.3865      -457.1558      -522.5985      -544.0256      -477.5498
      -409.2255      -312.4755      -261.0205      -248.0747      -261.6721
      -434.2028      -428.9492      -272.3865      -262.7728      -218.7433
      -67.68935      -6.958740      -54.29236      -54.63367      -105.5129
      -313.6903      -383.4429      -265.2422      -186.5642      -62.81537
       151.7729       266.0922       88.50255      -60.82744       59.63701
       67.34146       16.22709       43.25372      -31.37187      -31.50281
       199.2052       316.2664       195.9935       184.4591       242.6605
       139.2266       162.9117       312.4608       190.8976       58.29767
       152.3481       273.6285       374.7373       350.6091       273.0254
       328.7781       403.0106       354.1010       259.1422       216.5151
       286.5466       366.8370       424.5609       493.4219       465.3873
       342.1409       366.6055       434.8021       342.5909       207.8851
       187.1770       297.0995       466.9609       551.4569       490.0365
       432.6936       418.0256       296.5247       289.4711       412.8259
       382.7074       355.8860       445.8635       465.6810       435.7737
       408.8287       359.8826       292.7955       263.4349       259.9340
       237.3156       197.6442       211.9467       267.0658       204.6545
       65.82935       174.6730       388.9996       271.2361       80.78137
       108.4450       144.2114       208.6903       225.1794       56.70185
      -8.744793       4.456924       38.07922       133.8204       150.5223
       109.5139      -1.761047      -118.9275      -60.39612      -47.36615
      -95.75128      -112.9061      -172.7430      -204.5884      -150.1673
      -65.80872      -87.96771      -192.6846      -232.7029      -258.2333
      -235.1457      -209.3892      -253.8584      -266.5277      -257.0259
      -397.8062      -575.5527      -577.4614      -416.2434      -314.0608
      -411.1289      -432.4523      -352.8479      -354.3220      -373.8633
      -457.7770      -579.6581      -534.0934      -406.0337      -404.3287
      -441.7617      -436.0771      -443.0950      -502.9652      -468.6473
      -348.4701      -373.1418      -481.0278      -511.6556      -475.9879
      -419.6223      -436.6038      -495.3339      -449.1818      -341.2310
      -334.9417      -361.3262      -390.4655      -472.3164      -467.6698
      -359.8350      -316.0808      -356.6676      -342.4076      -312.0651
      -400.6260      -462.1921      -359.5715      -265.8472      -246.7749
      -223.9168      -221.3425      -205.4754      -202.5771      -201.6693
      -121.3177      -94.87296      -176.9196      -108.8450      -29.84935
      -67.89201      -27.91396       16.27794       18.98569       2.903992
      -75.95654      -131.2067      -175.5233      -223.7148      -169.0531
      -2.577164       61.79898       62.32343       131.0992       156.2330
       112.4618       28.18281      -35.71836      -3.261490       45.39664
       128.0236       195.0650       166.9292       126.8092       185.1635
       259.0089       261.9070       175.5038       93.91138       159.3470
       246.5048       169.3922       121.4446       145.0008       74.04639
       82.41669       189.7941       221.4178       244.8000       248.4061
       273.8137       270.7816       265.6940       305.1504       252.9985
       219.1875       250.1042       207.6197       175.7523       175.8070
       213.4359       295.7808       306.5760       238.3346       261.7446
       375.4442       399.3896       320.6727       241.6129       195.8967
       196.9978       189.6735       178.9205       162.7058       207.9366
       248.2463       156.4144       49.12286       91.51215       193.0037
       230.5330       141.6988       23.85764       23.18787       75.81458
       148.8873       239.8839       237.0622       194.1598       145.3578
