     0.02500000      -965.4950       1012.918      -12345.00      -12345.00
      -30.00001       231.5000      -32.05000      -12345.00      -12345.00
       0.000000       23.72000      -12345.00      -12345.00      -12345.00
      -12345.00      -12345.00      -12345.00      -12345.00      -12345.00
      -12345.00      -12345.00      -12345.00      -12345.00      -12345.00
      -12345.00      -12345.00      -12345.00      -12345.00      -12345.00
      -12345.00      -31.19940      -66.74700       697.0000       0.000000
      -31.24600      -68.98500       0.000000       102400.0       0.000000
      -12345.00      -12345.00      -12345.00      -12345.00      -12345.00
      -12345.00      -12345.00      -12345.00      -12345.00      -12345.00
       213.2998       89.18945       268.0349       1.917816      -12345.00
      -12345.00   -0.001923003       0.000000       0.000000      -12345.00
      -12345.00      -12345.00      -12345.00      -12345.00      -12345.00
      -12345.00      -12345.00      -12345.00      -12345.00      -12345.00
      2008        16        21        18         8
       750         6    -12345    -12345     10461
    -12345    -12345    -12345    -12345    -12345
         1         7        13    -12345    -12345
    -12345    -12345    -12345    -12345    -12345
    -12345    -12345    -12345    -12345    -12345
    -12345    -12345    -12345    -12345    -12345
         1         1         1         1         1
NOQE    -12345          
        -12345  -12345  
-12345  -12345  -12345  
-12345  -12345  -12345  
-12345  -12345  -12345  
-12345  -12345  -12345  
-12345  -12345  BHZ     
ZL      -12345  -12345  
[...]
      -6.580124       16.88426       31.66130       41.10565       56.71567
       73.90027       82.21960       97.97980       113.0419       125.8222
       134.0084       151.2233       161.1625       172.6968       175.9859
       180.8121       187.3871       192.0264       189.6431       193.9214
       189.6231       187.0015       184.4224       178.7730       173.5755
       168.4484       161.3588       156.2812       144.6632       138.3898
       130.9219       116.1320       101.6907       93.47238       85.03052
       73.71686       59.67740       49.48508       40.09654       32.08287
       22.26493       9.813787       1.588806      -6.584976      -13.97112
      -21.77417      -26.50430      -33.08334      -41.98708      -46.33430
      -50.12689      -62.22296      -65.92957      -65.91930      -70.70215
      -75.50751      -77.39899      -83.92786      -82.34552      -84.41339
      -90.99933      -89.79178      -86.34280      -92.03389      -85.96484
      -80.19687      -81.20505      -75.47324      -74.12790      -70.85439
      -61.41498      -57.10751      -57.96434      -52.11205      -47.86902
      -45.64761      -35.02082      -24.76240      -19.90908      -13.56237
      -6.343220       2.009678       12.89636       24.42297       29.71642
       38.73228       48.07457       54.52246       60.66170       68.87146
       75.87439       86.10031       96.55219       106.4365       116.5728
       126.5220       136.0017       146.4683       157.5397       171.5862
       179.1730       187.3158       197.2615       208.9718       216.0525
       223.5869       235.4531       245.1110       252.6435       263.3998
       267.6996       274.5210       283.1430       288.6877       291.4152
       298.0737       307.3950       311.6901       319.4396       326.5822
       331.2644       338.8610       344.9821       346.3016       356.3948
       358.3868       360.3842       370.2002       375.7482       380.9150
       385.0183       387.3540       390.0618       394.4463       396.1365
       399.1058       400.1976       400.4833       398.3010       398.6901
       398.3287       399.1715       394.8607       394.4128       390.6580
       391.5625       389.5068       387.1187       382.2657       378.7181
       369.1008       365.0896       356.4916       348.1929       346.8604
       339.3707       326.5359       319.6752       309.1752       295.1915
       284.2625       273.0654       257.8235       245.1050       230.0119
       216.4370       198.8611       181.7803       166.8390       145.6625
       123.6127       103.1327       82.22179       62.48783       40.73073
       20.65447      -1.444901      -23.67732      -46.32916      -67.77246
      -92.99039      -117.4271      -142.7261      -162.1453      -189.1346
      -213.7966      -236.6797      -257.8989      -281.0341      -304.9036
      -329.9211      -351.9282      -376.7861      -399.4648      -422.1191
      -439.2061      -463.4470      -484.8601      -503.3716      -521.9355
      -544.0665      -558.6223      -574.0645      -595.7319      -612.3607
      -622.2725      -635.7356      -652.2031      -667.7101      -678.3240
      -690.3247      -699.5796      -708.3149      -718.8047      -728.2925
      -731.5139      -732.8718      -734.5872      -735.0806      -730.0798
      -730.4133      -729.9775      -723.1931      -717.1882      -710.5281
      -708.7424      -699.9089      -689.3689      -680.4369      -668.8811
      -655.3490      -645.5166      -628.3480      -609.0935      -588.9382
      -574.8297      -550.0386      -533.4434      -510.6367      -491.2621
      -469.7679      -446.6832      -417.8545      -398.2080      -370.8556
      -350.3436      -324.8130      -298.9952      -266.3356      -246.4883
      -222.3243      -194.5286      -167.1123      -143.5538      -115.9348
      -93.24561      -63.25039      -40.08447      -16.49865       8.386337
       33.12363       50.82852       74.35959       97.66583       119.9357
       142.5833       169.5331       193.0735       211.1910       229.9131
       250.4104       270.8632       290.5140       306.5310       321.6827
       344.0081       364.2490       377.2490       397.5735       412.0470
       423.2032       440.0746       452.5186       459.8909       475.4583
       485.9663       493.0039       498.9407       509.1799       516.7029
       518.5837       517.7944       524.2000       526.8401       529.6055
       522.1799       519.7281       512.8075       508.0608       500.3519
       496.3378       484.3274       478.0490       463.1461       454.6962
       443.6187       431.7448       414.5757       402.3542       384.2020
       368.6090       346.2505       327.1592       307.3724       290.1730
       268.0242       252.0918       232.5160       214.6078       194.1833
       180.3536       160.4061       142.9643       123.8628       107.5196
       89.24861       74.55133       58.63449       49.03285       35.33935
       23.23610       14.31735       3.681396      -10.95414      -14.93411
      -23.83495      -33.32831      -41.80388      -44.20146      -49.29276
      -54.68341      -57.83067      -56.52731      -59.51410      -56.82573
      -57.95139      -54.51945      -53.03687      -50.33688      -48.11484
      -41.82555      -40.59509      -35.87395      -30.57281      -19.05008
      -14.05827      -3.909414      0.7061806       7.608063       12.74607
       20.73415       19.72665       26.58350       28.75946       37.29463
       39.65904       43.42845       41.26035       50.55531       50.51727
       54.28036       49.88512       54.86734       50.53099       53.84741
       45.81900       47.37411       42.97449       44.46605       35.44374
       37.49121       36.90916       40.42197       32.02529       36.90207
       32.46642       33.96022       30.45370       29.13520       24.27988
       25.07949       24.30882       29.69185       26.47080       26.80861
       28.21555       31.36908       34.66890       43.64467       47.49887
       56.16789       59.86795       62.93562       67.15356       80.65057
       84.16080       92.60083       98.93207       107.4870       112.4739
       123.7550       128.2535       144.1017       157.2428       170.9266
       178.2679       192.1710       201.1387       212.7740       219.9810
       234.2195       237.2036       243.8754       248.6002       259.9796
       262.9253       273.8568       276.3773       282.0095       280.3279
       284.2469       283.0455       279.7937       275.1792       277.1797
       269.1625       259.9453       249.6489       244.1417       232.3026
       217.1049       201.4766       191.3739       170.8101       154.5567
       137.1782       120.2766       95.60735       75.32458       51.72710
       31.62696       8.590675      -12.97530      -35.71677      -57.16119
      -80.31445      -101.4654      -124.7974      -144.9229      -167.5753
      -192.8326      -214.6909      -234.7860      -258.0448      -277.5560
      -296.2567      -310.3729      -328.4393      -344.9722      -357.1832
      -369.4692      -384.5251      -392.4479      -400.7341      -409.9508
      -421.2134      -427.0533      -434.0455      -440.4044      -448.3600
      -449.3679      -454.7617      -460.7423      -463.2155      -460.7795
      -465.4365      -463.4652      -463.3778      -462.4591      -463.1399
      -456.5681      -456.3345      -455.1429      -454.5186      -449.3887
      -448.3960      -444.8348      -442.1904      -434.9391      -430.1886
      -425.5347      -419.9216      -411.6090      -409.0374      -404.7371
      -400.2139      -392.1873      -388.5461      -378.6646      -372.6310
      -365.2135      -362.7341      -353.9565      -348.0511      -344.5917
      -344.0294      -337.5560      -337.3054      -331.8593      -329.2130
      -326.2361      -321.2506      -312.4025      -315.8909      -310.0739
      -302.7949      -296.6915      -293.3784      -283.3055      -278.7552
      -267.8898      -260.6145      -248.7642      -236.4827      -223.4750
      -215.8351      -202.4171      -187.6942      -167.3782      -158.8683
      -139.2241      -118.5187      -98.29489      -81.81020      -56.46022
      -34.50185      -9.268463       11.22803       34.13922       52.88251
       76.70581       100.2521       126.2063       148.5812       173.3929
       189.5818       210.6624       231.0733       250.9910       268.2881
       287.9890       302.0952       318.7025       328.4835       339.3623
       349.9955       361.9843       370.2937       382.1038       388.4573
       395.9844       399.9440       405.9327       405.0554       413.1057
       414.4448       419.0166       420.3430       424.9100       426.2881
       431.4438       426.6714       428.8019       426.5571       430.9224
       428.9808       433.2690       433.5479       435.8745       434.6405
       438.4999       436.3477       440.8279       442.3733       445.3098
       442.9032       445.3577       444.8896       448.8423       447.4727
       449.7551       450.8037       452.2024       448.6595       448.5945
       444.4971       447.7838       446.8356       448.2249       447.0338
       447.8977       444.0585       443.4392       438.9749       435.5272
       431.6772       429.7583       422.1842       416.9702       408.9417
       404.6537       398.3662       391.2468       382.1754       376.3339
       366.9446       357.2672       346.7339       337.2089       319.8960
       309.2391       293.4199       275.6119       264.0126       248.5716
       226.7653       209.5457       190.4672       172.0750       154.0687
       136.6833       115.0895       92.37199       68.98593       44.45380
       23.50273      -3.346100      -26.94911      -47.58502      -71.44073
      -94.83194      -114.8901      -137.3966      -155.9698      -174.5594
      -195.2961      -219.9388      -239.5176      -260.5989      -283.6182
      -300.6398      -313.7448      -329.2681      -343.6074      -356.3824
      -366.7339      -379.3146      -387.9219      -393.4253      -405.5223
      -410.2172      -417.5623      -426.2981      -429.5747      -428.9868
      -428.9468      -426.6372      -425.6707      -421.8096      -417.7095
      -410.5076      -405.5750      -396.8408      -388.1541      -381.4583
      -373.7205      -360.4569      -352.0408      -344.5563      -337.0801
      -327.8910      -317.3371      -308.2074      -305.8810      -297.8040
      -289.8660      -280.4135      -270.7294      -264.2761      -253.2937
      -247.3411      -243.2120      -235.9371      -230.9084      -226.2067
      -221.8356      -218.6671      -212.5854      -205.8853      -200.3694
      -193.8640      -186.5337      -178.6082      -171.2947      -164.5800
      -161.2444      -157.6511      -151.6773      -147.7819      -144.2653
      -139.0681      -136.5001      -133.4782      -131.3406      -128.7710
      -124.0682      -126.5119      -126.8740      -127.7802      -129.2503
      -128.7396      -132.5700      -138.5832      -139.7590      -143.2250
      -148.5833      -148.8017      -152.1566      -161.0970      -165.6435
      -172.3027      -181.0557      -186.8056      -191.4335      -200.1687
      -206.2981      -209.1779      -211.9694      -222.5435      -223.6562
      -225.0768      -227.1526      -231.2458      -236.5244      -244.1379
      -249.1259      -250.1908      -248.1600      -252.1035      -252.6882
      -254.5746      -258.2214      -259.6460      -258.8041      -258.5661
      -255.2663      -255.8655      -253.8809      -248.6833      -243.3979
      -243.1325      -237.2493      -233.7246      -229.9896      -226.1635
      -218.3765      -214.0501      -206.4122      -198.0480      -186.7166
      -179.8531      -169.9664      -160.3142      -150.1353      -136.0378
      -122.4642      -110.8625      -99.26373      -86.38658      -68.56470
      -56.73402      -41.27486      -25.46054      -12.32769       4.366257
       19.23781       33.51418       51.17857       65.04373       80.75037
       98.62006       115.3839       130.4754       144.9932       160.5490
       179.9899       193.3348       207.2459       221.0087       237.0060
       251.5461       268.3563       280.3458       297.2243       311.2960
       325.6182       336.8982       358.1473       373.6475       384.1335
       396.4598       417.8564       450.0073       520.7460       587.9729
       594.5627       552.4066       435.8398       327.1033       433.3721
       660.6433       796.2545       636.6084       323.8743       416.1213
       495.0745       458.7925       766.6023       837.0962       405.4865
       144.2085       631.5342       1012.918       638.2135       337.0110
       413.2194       535.6548       647.2225       608.3240       476.5469
       519.1619       511.2729       431.4521       525.4670       585.5153
       404.4019       331.1486       502.4882       488.6088       342.3245
       320.5605       399.1036       480.5499       372.3220       285.1499
       279.9913       208.8689       212.6355       318.0195       321.2549
       234.3373       244.0766       221.7879       149.9097       218.4900
       298.0158       228.1366       7.609497      -8.067871       176.2558
       191.6855       104.0824       57.76737       27.33465      -16.03081
       1.795044       138.2195       154.6717      -8.621704      -63.82380
       12.94593      -37.26154       50.70978       218.5678       33.54401
      -111.5713      -39.13339       84.76511       60.01120      -117.9945
      -44.70303       102.6954       33.30420      -91.71912      -166.5678
      -30.12384       193.1982       82.29395      -197.4868      -88.37570
       55.06729      -130.5262      -180.5200      -3.428162      -65.35815
      -244.9365      -135.3461       34.95850      -143.5143      -268.3934
      -111.8797      -62.16632      -137.7598      -156.4111      -214.9084
      -317.9632      -310.6751      -269.4407      -260.1331      -223.9211
      -234.5393      -331.8296      -361.3912      -258.7034      -301.9661
      -417.0093      -463.0453      -430.2244      -361.8375      -360.2633
      -367.2793      -379.5033      -404.3646      -402.3367      -418.4304
      -442.3713      -433.5813      -390.5459      -414.2303      -421.6506
      -394.5466      -424.3955      -378.1179      -347.4351      -396.7167
      -337.0056      -310.2408      -407.9790      -450.2291      -366.4150
      -289.6334      -267.3237      -265.7725      -319.5857      -391.8587
      -339.4669      -252.6095      -222.4360      -267.3456      -320.2701
      -229.0408      -176.4451      -268.0299      -274.3101      -213.3330
      -197.3865      -232.1147      -228.3851      -180.0659      -174.8344
      -179.5311      -174.3384      -188.3387      -164.6208      -140.5526
      -177.7095      -226.8850      -206.7621      -151.7914      -91.07117
      -123.2746      -146.3733      -73.48059      -82.56323      -140.5054
      -148.3562      -124.3639      -126.5977      -150.3276      -120.5707
      -107.9984      -171.9344      -203.3300      -137.3856      -101.3978
      -134.3127      -138.7332      -107.5090      -73.66861      -101.3467
      -108.3534      -118.9571      -169.4866      -84.25861      -22.43646
      -58.81100      -125.2622      -167.2411      -105.8032      -65.52626
      -59.71637      -25.71451      -46.51321      -35.97480       24.39009
       20.64551      -50.30607      -35.02295       86.20724       120.7142
       40.41957       26.60391       92.74783       155.1797       106.5815
       49.78265       133.2921       172.8371       91.21149       161.8035
       274.8987       204.7743       141.3748       201.2625       268.9929
       272.5345       241.6445       235.7724       209.8879       213.9697
       243.3578       272.3096       291.0743       263.0723       272.0287
       290.2759       236.2772       263.8716       302.3300       282.2580
       254.6001       247.3134       304.9797       299.1246       231.0490
       264.9498       352.0745       314.9938       226.7997       219.5328
       265.4014       320.0984       320.6713       334.3349       303.7104
       272.9779       342.4020       360.8457       261.3489       262.0682
       376.1565       340.3915       274.5867       308.0630       276.1510
       259.5151       317.5620       323.1804       280.8798       291.9913
       318.9282       277.1402       250.5293       290.5662       310.8270
       328.0362       306.6692       236.1171       239.9171       239.7832
       233.0857       269.9422       259.9304       181.7647       176.0541
       182.0746       132.1786       140.8539       190.7252       220.4679
       157.2075       37.25134       99.42230       159.0753       111.6868
       75.72534       93.89722       71.68686       37.61630       82.33841
       96.06196       28.95292       6.940979       55.70998       25.98923
      -43.34021      -22.26073      -12.94156       26.43292       5.862732
      -107.9856      -134.5674      -28.65366       1.847809      -122.4618
      -195.2554      -110.7800      -123.1127      -232.0222      -168.6100
      -74.05713      -160.2694      -227.9200      -235.9738      -221.2227
      -224.5716      -264.0762      -278.1851      -253.0176      -260.7644
      -299.0541      -343.6940      -338.1333      -327.6337      -325.8347
      -309.3999      -369.1765      -418.2290      -352.6248      -395.4143
      -455.9185      -348.7218      -315.1897      -403.4996      -453.1842
      -415.3274      -394.8427      -421.5852      -385.7806      -355.7710
      -417.4858      -480.1539      -438.3511      -325.4965      -291.3137
      -349.7947      -366.5090      -343.5790      -353.2927      -357.7642
      -340.4874      -357.5405      -367.7001      -333.4721      -272.8744
      -249.7465      -285.5674      -293.2167      -260.0330      -255.6617
      -263.5463      -222.1892      -188.6306      -198.3962      -164.8253
      -118.4473      -137.2420      -125.7941      -69.66422      -82.86847
      -131.8384      -80.39816      -42.83977      -60.02519      -11.48128
