     0.02500000      -881.3344       1192.407      -12345.00      -12345.00
      -30.00001       231.5000      -32.05000      -12345.00      -12345.00
       0.000000       23.72000      -12345.00      -12345.00      -12345.00
      -12345.00      -12345.00      -12345.00      -12345.00      -12345.00
      -12345.00      -12345.00      -12345.00      -12345.00      -12345.00
      -12345.00      -12345.00      -12345.00      -12345.00      -12345.00
      -12345.00      -31.19940      -66.74700       697.0000       0.000000
      -31.24600      -68.98500       0.000000       102400.0       0.000000
      -12345.00      -12345.00      -12345.00      -12345.00      -12345.00
      -12345.00      -12345.00      -12345.00      -12345.00      -12345.00
       213.2998       89.18945       268.0349       1.917816      -12345.00
      -12345.00      0.5379380       90.00000       90.00000      -12345.00
      -12345.00      -12345.00      -12345.00      -12345.00      -12345.00
      -12345.00      -12345.00      -12345.00      -12345.00      -12345.00
      2008        16        21        18         8
       750         6    -12345    -12345     10461
    -12345    -12345    -12345    -12345    -12345
         1         7        13    -12345    -12345
    -12345    -12345    -12345    -12345    -12345
    -12345    -12345    -12345    -12345    -12345
    -12345    -12345    -12345    -12345    -12345
         1         1         1         1         1
NOQE    -12345          
        -12345  -12345  
-12345  -12345  -12345  
-12345  -12345  -12345  
-12345  -12345  -12345  
-12345  -12345  -12345  
-12345  -12345  BHE     
ZL      -12345  -12345  
[...]
      -86.35782       1.751465       29.79593      -22.53705      -7.687393
      -26.80728      -126.1413      -88.75772       59.14204       54.62280
      -65.36395      -142.6287      -67.63876       100.4170       25.22763
      -166.6894      -94.15982      -42.77766      -88.03317      -30.97961
      -27.33096      -73.56694      -82.66580      -58.47845      -64.79129
      -109.5097      -67.49850      -26.15356      -114.6939      -182.9489
      -105.0182      -11.70575      -70.13022      -110.4969      -19.24840
      -14.18579      -184.4728      -237.5431      -116.9385      -73.78711
      -126.5720      -99.79559      -68.13281      -165.3607      -225.6636
      -135.4905      -97.98264      -144.3201      -151.8971      -132.7799
      -148.1380      -112.1234      -92.68445      -173.0296      -258.5174
      -208.8068      -8.904388      -2.740417      -183.6418      -224.1096
      -185.4000      -130.8042      -89.81509      -96.65918      -104.3950
      -124.1604      -61.66004      0.3441467      -115.9982      -179.2964
      -47.49094       46.45665      -18.39488      -75.17931      -18.68984
       43.74484      -31.73221      -91.89266       20.82895       29.06715
      -49.71466       64.37622       202.1495       71.61220      -116.9519
       2.036011       141.8139       148.6323       106.0444       19.21678
       21.97287       54.38211       126.2292       238.7142       122.1546
      -26.05505       90.94678       213.4244       122.8540       89.09033
       165.6930       155.4830       74.28085       120.5836       217.5144
       163.1015       60.24377       72.88654       169.8552       205.6373
       134.8091       117.3607       98.77356       102.2384       211.5107
       233.6612       111.7411       66.50513       168.4183       230.2675
       149.9708       163.2703       200.2495       197.1333       168.3315
       127.8093       85.83734       129.8640       226.9886       251.2396
       177.0024       130.5574       166.0032       202.5574       131.1963
       92.45129       135.3897       233.1991       215.6050       121.5430
       99.01581       102.4303       134.3246       216.4697       151.2289
       93.80048       143.6436       124.1752       21.53403      -2.983398
       99.52307       188.9091       99.12770       16.73988       1.328739
       31.37516      -3.685259      -9.761391       16.70862      -47.28934
      -58.59900       21.76424       4.118225      -108.5494      -125.9071
      -57.84491      -41.06677      -98.15558      -172.9676      -157.8420
      -98.70947      -70.41302      -194.1101      -306.7679      -183.2846
      -82.25702      -200.4681      -267.6746      -212.1462      -228.9594
      -283.7192      -245.0767      -194.3223      -224.3519      -329.9684
      -302.8162      -221.6918      -209.1566      -297.1428      -361.7173
      -325.9857      -289.5269      -313.3763      -301.8990      -334.3170
      -367.1373      -299.8805      -306.3430      -390.3289      -312.9637
      -243.5621      -384.6516      -458.1068      -294.5145      -244.4691
      -330.1100      -347.6450      -339.3804      -364.9169      -365.5315
      -297.9702      -230.6339      -300.8854      -447.5237      -443.9124
      -252.1229      -198.5674      -300.7679      -313.1052      -278.1873
      -342.4044      -308.2919      -222.3845      -257.1025      -297.6857
      -272.7756      -228.3645      -183.3218      -200.8458      -241.2585
      -254.9879      -191.8952      -151.5827      -142.4324      -197.4911
      -226.3258      -140.0876      -95.24567      -146.5536      -104.3551
      -11.65866      -50.14932      -155.2298      -147.7264      -123.2788
      -112.8909      -91.46551      -11.56088       18.14930       2.568451
      -39.26167      -73.70264      -17.04739       41.35217      -29.16255
      -33.75635      -7.269903      -16.32301       6.152039       63.69989
       143.6743       140.6567       60.21970       81.81367       76.66122
       30.95523       34.02490       107.4186       155.9443       155.2963
       88.56470       102.3367       177.4871       185.9048       182.9524
       191.2225       124.9785       151.5030       265.5801       318.7222
       236.1136       125.0765       178.2024       357.1702       378.0968
       329.8861       312.0938       297.6639       288.8735       327.5753
       376.4397       382.5778       348.9025       350.6052       350.1462
       387.0374       427.5875       442.7156       435.5408       415.6355
       456.1644       506.1180       454.9821       397.6870       432.5549
       539.7804       554.3558       464.1610       458.2156       521.6560
       516.2891       470.3687       490.7283       538.7653       542.4911
       489.6090       459.4692       512.6409       508.1176       418.5725
       333.5234       450.1868       602.9197       443.3628       341.9402
       448.3643       438.1260       342.7375       318.1587       365.5973
       341.3682       339.7367       358.3875       337.3354       315.2555
       232.3859       211.1766       247.3323       225.6903       195.7413
       201.5728       190.6213       100.2957       84.24414       163.4868
       190.7721       163.8349       46.02203      -115.3082      -61.62573
       203.7585       250.6625      -44.73410      -198.1306      -33.41832
       49.11423      -54.15079      -76.71545      -107.9439      -116.9942
      -8.639038      -28.60712      -131.6268      -166.1550      -177.2189
      -152.1531      -152.3773      -190.1792      -205.4288      -241.0837
      -310.1423      -287.3268      -169.7306      -174.6891      -352.5406
      -399.9835      -339.4231      -376.2783      -395.9623      -347.1234
      -304.1674      -373.0050      -489.3420      -537.7710      -543.2930
      -494.8668      -432.1444      -486.6790      -592.3220      -597.5808
      -538.7629      -543.1128      -594.6018      -660.7292      -641.3025
      -621.3076      -672.3828      -694.2227      -672.9500      -640.5415
      -699.6997      -783.6877      -708.5771      -682.3987      -779.1909
      -762.1250      -641.3198      -699.2634      -770.5854      -742.0771
      -722.6357      -734.4243      -688.2201      -647.5354      -754.9292
      -784.2971      -651.0912      -541.3743      -551.4359      -666.4231
      -684.3821      -621.8538      -597.0027      -559.8367      -492.0691
      -532.9186      -541.0590      -399.2366      -388.4351      -601.1683
      -563.5073      -334.4244      -289.8875      -412.8613      -411.4241
      -300.2248      -308.9353      -310.7637      -187.0628      -190.6119
      -246.7783      -224.9570      -182.8338      -155.7791      -100.4878
      -85.28394      -156.4929      -88.35825       83.46056       53.47085
      -29.16372      -18.97830       71.95349       187.5618       210.2010
       137.0038       127.7347       185.7794       241.6918       294.1090
       348.5901       340.8777       288.6046       256.1449       385.5322
       511.9667       514.1733       477.0879       422.3014       419.3862
       539.3657       614.1366       575.6777       525.3171       578.0822
       618.5698       632.3070       664.3252       681.8535       701.2686
       738.9038       734.0986       729.5210       742.3765       751.1204
       725.7856       748.9421       803.2891       809.9233       787.4709
       817.8513       851.5417       782.6541       744.3481       828.9717
       816.0906       782.9475       754.3149       740.5955       861.4309
       824.2397       624.1709       669.0117       807.0742       825.3008
       770.7512       728.0303       662.4119       607.8218       623.5320
       689.3657       632.8159       557.3103       566.2271       586.7266
       591.7715       581.0681       518.6204       426.8188       407.5593
       507.4319       444.6379       279.7559       328.6610       431.1287
       342.3476       190.4867       186.6278       321.8097       324.1568
       190.8661       101.3841       142.9568       226.6487       181.0880
       7.969604      -91.99728      -85.68939      -44.51709      -106.4171
      -154.1855      -29.43190       22.99152      -157.5151      -272.4498
      -170.8275      -154.8119      -354.0903      -375.1647      -226.0776
      -157.1193      -242.8197      -383.2946      -369.2495      -272.6417
      -312.3857      -413.2294      -431.9534      -422.7402      -436.4653
      -366.0386      -331.1586      -400.9541      -481.6677      -504.0154
      -471.8553      -388.3950      -366.6882      -446.6019      -461.4064
      -378.9475      -342.5208      -364.3925      -456.9407      -546.5112
      -538.6526      -470.8387      -411.3428      -322.9062      -292.6880
      -397.2217      -483.9995      -418.3945      -383.0521      -408.2214
      -381.0966      -345.9335      -353.5360      -403.7001      -382.0820
      -259.2657      -246.6611      -354.8583      -379.9973      -250.6959
      -226.5921      -332.9668      -285.5285      -137.9633      -115.7056
      -205.9719      -269.7207      -195.9494      -120.6621      -102.5885
      -125.8062      -223.2040      -251.2008      -37.27692       143.9484
      -1.514465      -162.8773      -131.1791      -124.3765      -28.18616
       102.0193       50.42789      -73.58664      -92.87879      -8.178833
       88.96518       81.06615       5.150131      -46.68843       26.17694
       121.4391       182.4973       151.5661       33.76390       40.59967
       172.9477       217.4541       205.6579       130.4662       44.11450
       106.4760       212.6053       197.5314       182.5586       241.4288
       255.4180       164.1966       120.5336       200.4890       272.1904
       238.7852       212.7277       220.6249       210.1714       202.3898
       202.8654       242.3661       308.1400       261.0951       128.6074
       112.8110       237.7516       300.3924       259.5925       194.6238
       164.5082       182.6866       165.8757       139.6617       138.3902
       113.1838       107.1202       173.1607       216.1910       156.5331
       90.28166       24.43546       24.20132       116.0998       79.96149
      -25.33204       6.637604       61.10962      -6.420868      -119.2326
      -97.66168       20.18279      -8.395264      -149.7333      -150.6672
      -30.36743      -74.37128      -225.5366      -237.5190      -130.3827
      -96.03998      -210.1916      -291.3295      -222.2081      -137.4382
      -117.1727      -173.4093      -264.6452      -289.2924      -251.3535
      -200.0402      -147.2198      -241.6899      -362.3964      -310.7946
      -185.6990      -191.4054      -274.4845      -301.3671      -368.4420
      -346.2471      -192.8770      -187.5143      -325.0586      -419.7319
      -344.5120      -205.7997      -205.8780      -264.8298      -245.8693
      -275.0443      -369.4613      -319.4210      -234.9036      -333.0854
      -352.6641      -150.2664      -27.96362      -185.5600      -340.9671
      -279.0877      -185.6189      -166.1612      -181.4591      -133.3871
      -85.24622      -166.5877      -248.6003      -220.7227      -123.6589
       5.117455       34.34006      -41.51260      -87.13208      -145.6000
      -133.6180      -23.72968       82.25664       100.0917      -29.52731
      -144.0558      -49.65225       71.19116       65.50903       36.82382
       102.0770       141.5174       142.2832       149.7863       100.2774
       37.08948       79.61243       170.7522       170.8931       71.18002
       65.61215       153.8715       139.7745       59.45215       174.8314
       292.8914       159.3955       40.33337       122.6250       173.9346
       112.1498       79.43451       169.2587       223.6393       209.5243
       163.6622       78.16748       33.19537       110.4401       203.3584
       209.5059       166.4494       91.19351      -45.15588      -13.47461
       203.9485       240.8828       89.95572       111.1276       131.7255
       64.68570       58.86188       82.05226       40.72113       63.50537
       161.8831       208.5009       127.6254       3.407745       49.59485
       155.6302       81.55045       1.218666      -16.86465       40.96545
       205.7073       421.3376       461.2289       316.9627       22.95111
      -249.4790      -275.2278      -51.41626       105.4592       203.2600
       385.0632       488.0921       219.3566      -288.3807      -411.8062
       69.31860       461.3748       419.5123       129.1410      -71.22815
       91.12036       513.7273       648.5623       103.9700      -523.0195
      -510.6641      -268.2284      -274.1792      -404.6889      -287.8513
       252.8611       924.6353       1192.407       759.6711       1.541138
      -299.9512      -27.94714       295.0609       193.7078      -281.3647
      -710.6094      -565.6868      -45.01971       86.13086      -317.5457
      -391.8729       212.3228       474.0020      -14.62305      -556.2360
      -650.2579      -259.1929       99.96637       137.6567       225.9320
       234.9025      -188.5133      -461.1734      -321.2462      -73.32312
      -120.7950      -439.1344      -523.4143      -413.1130      -272.5271
      -155.1808      -331.4827      -455.2508      -193.7609       149.8569
       123.5063      -56.00989      -249.4955      -499.2452      -449.3159
      -127.0258       91.56213       220.4984       207.8842       72.22656
      -161.7837      -265.6870      -108.6104      -76.67592      -134.8654
       132.9280       371.2876       195.6136      -100.8843      -157.4610
      -14.91815       177.6468       166.7563      -120.1598      -338.3077
      -262.4432      -139.3274       19.65601       305.6995       571.5320
       479.2982       122.3379      -207.3362      -352.4032      -185.7155
       52.08423       85.04761       174.1447       213.0532       40.72913
      -202.2220      -141.0196       133.4072       110.7147      -259.4382
      -304.3874       11.25781       143.8712       40.72067      -94.06808
      -153.5822      -3.910843       55.23276      -20.17511      -114.9308
      -235.6944      -240.1145      -133.3646      -61.94965      -62.06534
      -151.9502      -189.4507      -222.9533      -156.8513      -189.9138
      -282.3737      -120.2679       72.10962       57.94235      -44.35422
      -101.8462      -219.4139      -273.3824      -46.82788       101.4278
       68.57074      -87.00824      -261.1787      -226.3486      -105.1097
      -190.2443      -134.5613      -10.63043      -104.3803      -129.4538
       54.11518       86.50902      -53.04678      -130.8871      -64.37901
       59.26197       53.83335      -6.597309       4.637802      -53.99025
      -55.56770       30.85959       58.63333       53.36642       58.53833
       73.41406       129.4795       291.5427       374.1539       224.5514
       120.6553       216.0240       317.3878       268.7904       158.3754
       130.5317       225.2193       294.7186       295.8373       298.0321
       336.9609       309.3393       152.6802       170.6278       319.4648
       225.3512       157.3513       374.9537       497.4713       371.2133
       310.0669       287.1157       249.7811       279.6240       268.2720
       257.9008       336.0355       325.2501       311.6327       449.0413
       549.9230       439.3760       249.2053       298.5934       544.6123
       556.4395       319.9050       234.1146       332.2891       352.1343
       335.6659       431.0947       423.0192       205.0287       71.77783
       293.4929       572.8835       487.3373       334.6650       407.4352
       482.8151       517.0952       483.1209       315.9075       196.8242
       219.6280       220.6180       260.3918       345.3701       300.5199
       246.3025       364.6227       433.9332       291.3129       244.0890
       341.8406       282.1444       107.8139       39.74754       8.532211
      -92.63184      -27.26270       266.2971       378.2635       271.9711
       244.1969       221.9220       157.6573       93.11154       53.56828
       32.53278      -77.04791      -255.7531      -261.1319      -143.3395
      -109.6649      -43.88342       64.53835       29.37396      -110.8367
      -155.2492      -71.10632      -103.5013      -177.1714      -91.27795
      -96.82385      -268.4691      -360.1991      -343.1503      -315.3762
      -262.3621      -213.0885      -317.1660      -405.2598      -297.2340
      -216.1768      -357.9557      -556.0596      -555.3583      -442.3430
      -407.6603      -349.6394      -297.7170      -346.4796      -474.0736
      -502.5170      -333.0426      -256.9561      -401.9543      -551.9719
      -593.2119      -460.0438      -336.7373      -316.2204      -335.8256
      -276.2928      -217.9319      -359.3372      -536.0413      -504.2394
      -383.9408      -294.8696      -327.5073      -369.5964      -319.5829
      -279.1764      -334.0374      -397.8861      -393.9157      -314.5416
      -224.7222      -243.4059      -443.0541      -479.7265      -316.2179
      -292.1711      -353.2528      -266.2894      -272.0651      -399.2545
      -438.3850      -317.7875      -226.5176      -228.4250      -295.5830
      -324.3664      -269.1697      -223.6714      -241.4708      -276.7124
      -309.7352      -211.7041      -133.1171      -113.5287      -73.03635
      -86.74072      -197.4437      -219.1000      -183.9810      -191.2074
      -211.9312      -124.8736       45.55762       206.7847       12.98889
      -328.4756      -206.7439       132.6465       159.0681       21.25201
      -61.66379      -121.1810      -159.8494      -78.44394       26.46341
       84.74374       53.73773      -25.28702      -137.8044      -123.9080
       26.12766       72.60878       4.746315      -17.53494      -70.94264
      -85.93692       14.30791       77.26424       13.33846       30.13995
       96.13632       58.30864       17.72076       51.75981       42.82681
       40.80951       97.65671       160.6865       128.2259       55.42548
      -26.14029      -44.73317       42.60425       115.8335       79.16515
       23.42470      -38.59556      -46.03557       29.21353       141.8465
