     0.02500000      -13204.80       17151.21      -12345.00      -12345.00
      -29.98999       215.5850      -17.19000      -12345.00      -12345.00
       0.000000       12.67000      -12345.00      -12345.00      -12345.00
      -12345.00      -12345.00      -12345.00      -12345.00      -12345.00
      -12345.00      -12345.00      -12345.00      -12345.00      -12345.00
      -12345.00      -12345.00      -12345.00      -12345.00      -12345.00
      -12345.00      -31.03680      -69.52500       1657.000       0.000000
      -31.24600      -68.98500       0.000000       102400.0       0.000000
      -12345.00      -12345.00      -12345.00      -12345.00      -12345.00
      -12345.00      -12345.00      -12345.00      -12345.00      -12345.00
       56.47870       294.1081       114.3860      0.5078071      -12345.00
      -12345.00    -0.09503336       90.00000       90.00000      -12345.00
      -12345.00      -12345.00      -12345.00      -12345.00      -12345.00
      -12345.00      -12345.00      -12345.00      -12345.00      -12345.00
      2008        16        21        17        53
       890         6    -12345    -12345      9824
    -12345    -12345    -12345    -12345    -12345
         1         7        13    -12345    -12345
    -12345    -12345    -12345    -12345    -12345
    -12345    -12345    -12345    -12345    -12345
    -12345    -12345    -12345    -12345    -12345
         1         1         1         1         1
NUEV    -12345          
        -12345  -12345  
-12345  -12345  -12345  
-12345  -12345  -12345  
-12345  -12345  -12345  
-12345  -12345  -12345  
-12345  -12345  BHE     
ZL      -12345  -12345  
[...]
       135.6735       131.6273       127.3265       111.0807       100.4044
       96.82870       88.81622       71.88367       55.24794       32.41174
       14.68038      -2.336296      -20.50171      -36.65018      -56.22891
      -81.59036      -98.09174      -112.7084      -134.4698      -156.4944
      -178.1542      -205.9612      -223.5631      -243.0818      -268.4340
      -287.4352      -310.8833      -329.3613      -347.3010      -371.8442
      -374.3751      -383.5521      -404.8806      -424.3651      -436.5139
      -449.7360      -454.6429      -466.6569      -480.5198      -494.9010
      -502.6298      -499.8450      -494.5289      -497.9216      -497.1190
      -505.3289      -505.2380      -503.6477      -505.1379      -498.1095
      -490.4026      -496.2909      -497.7661      -497.7543      -499.0387
      -493.2773      -491.1620      -490.3002      -469.9542      -457.0933
      -448.4690      -445.3324      -448.8374      -440.6418      -426.9664
      -425.4072      -413.8329      -399.4264      -391.5675      -384.1465
      -378.2189      -374.1595      -350.0813      -331.2861      -318.8134
      -303.2305      -287.5713      -275.6211      -266.6786      -251.7003
      -236.6452      -233.2760      -224.4756      -208.9258      -198.2301
      -186.2893      -183.8562      -181.1189      -168.3116      -155.0274
      -155.9924      -148.6484      -132.6494      -118.6563      -121.1276
      -111.1819      -96.43280      -87.19193      -81.78064      -71.37637
      -70.61852      -56.66774      -49.32008      -42.64230      -30.90935
      -19.99127      -15.38842      0.2887726       11.59336       17.42700
       27.40526       44.78621       51.21666       63.24902       74.22290
       86.06870       98.90448       110.3521       118.6373       130.3020
       145.9070       161.7309       164.6595       175.9885       192.5825
       212.5934       224.7271       234.0638       247.8901       260.5283
       263.5649       283.2572       299.0071       311.0833       320.0016
       331.9167       336.1584       337.2520       333.8086       337.4891
       347.0669       355.9700       358.8958       370.0178       371.7229
       373.6113       374.2627       371.8124       370.7233       370.2722
       373.7007       382.0850       377.2125       381.4619       387.9056
       381.6454       381.3496       387.3258       384.7385       385.5769
       389.9733       384.5256       378.0131       386.1326       385.8158
       382.5237       376.8999       371.5789       371.1892       370.0854
       346.7110       335.9504       343.7064       339.7581       331.0176
       329.8964       316.5380       311.6213       310.9251       306.6696
       298.6332       289.7865       286.2705       276.3651       266.3295
       267.3533       260.9145       264.5874       264.7911       252.6479
       248.9719       257.9679       256.8456       251.2239       250.7477
       244.7407       243.7281       251.6513       243.0852       244.3747
       247.7739       238.3502       235.7596       234.4684       220.8051
       218.6152       211.6338       209.4846       212.6990       203.1804
       187.1812       189.7590       178.0606       161.8181       158.8226
       143.0623       128.4474       123.0258       109.4680       104.5376
       89.22173       73.32419       65.74010       53.92734       44.61084
       36.46299       21.70019       15.38478       5.009308      -11.71187
      -20.60895      -36.40543      -55.08762      -62.85893      -73.56854
      -90.55988      -101.7403      -120.8940      -136.8243      -145.2733
      -157.6401      -174.9576      -190.0536      -203.7290      -214.4722
      -227.6924      -242.7726      -256.3677      -267.2306      -279.6628
      -290.7909      -301.7446      -307.5743      -312.4238      -329.8052
      -335.7117      -338.5583      -346.8560      -354.2917      -362.7291
      -367.6086      -363.6169      -368.5115      -370.9863      -375.5787
      -384.8068      -391.4233      -389.6873      -388.6110      -391.3677
      -389.5201      -395.4503      -397.5697      -398.6639      -411.6146
      -413.2822      -412.4152      -407.9047      -395.6819      -399.1952
      -400.0667      -393.9888      -394.8556      -395.3850      -388.3500
      -385.2516      -378.2999      -374.7782      -368.8866      -354.6880
      -346.9493      -343.9388      -331.5513      -322.5708      -311.1728
      -301.7366      -288.7780      -285.7090      -272.0569      -260.8580
      -246.5077      -232.3127      -222.9711      -214.1061      -201.2044
      -189.8179      -174.3278      -168.8986      -160.5999      -148.5635
      -125.9830      -114.5192      -94.20477      -90.63052      -78.36789
      -59.96249      -50.29240      -46.99060      -27.50098      -29.18546
       8.250610       36.25464       330.5728       1115.704       1358.825
      -61.92334      -2023.346      -1772.973       909.7817       3035.961
      -185.4399      -2409.123       331.6415       102.6841       298.6418
       919.7796      -65.06958       21.04431      -802.6101       583.0249
       1497.289      -296.7921       105.1879       46.17053      -819.1263
      -131.6733       1071.484       279.5054      -544.2842       427.6543
       412.7500       738.3672       725.2549      -358.6389      -332.0184
       154.3124       581.1837       39.27698      -853.4926      -53.15186
       1532.883       1123.278      -80.01929      -237.6807      -793.1571
      -222.7725       991.5294       344.9035      -221.2550       736.1724
       491.7595      -766.1095      -187.3459       104.6176      -150.9612
       266.6496       154.7751       162.2892       480.8329      -104.2839
      -948.5380      -164.5933       1006.824       413.6984      -206.5970
      -8.519653       361.9799       80.46033      -437.2816       62.56345
       213.6445      -19.06555       300.1711       451.0715      -179.2531
      -343.8325       184.6726       665.0720       830.5439      -132.9177
      -332.6526       299.5655      -217.2993       148.6329       752.4454
      -106.0704      -63.44800       803.9633       694.5922       4.664139
      -185.3008       189.0603      -37.41547      -72.62598       1005.700
       625.4748      -143.1643       337.2435       439.9136       89.52899
      -169.1514       124.3476       430.5587      -261.0568       36.45898
       1001.943       402.0121       138.5974       470.5195       145.5465
       108.1406       118.1585      -131.9023      -30.78552       564.2879
       83.31824      -338.7239       697.4240       434.9590      -678.3745
      -467.5530       363.6342       488.6000       78.20618      -275.9357
      -235.4305       225.3265       400.2393       222.8863      -107.2348
      -380.1732      -186.1185       265.6000       135.3085       176.8452
       66.50562      -218.9582       84.50892      -10.92627       88.07693
       149.6118      -352.0920      -504.7486      -168.5399       194.7036
      -59.20270       181.9196       124.6097      -339.6201      -68.26523
       154.6635       157.7532      -492.5067      -601.9194       103.5151
      -116.7533      -49.45721       419.1707      -146.7097      -358.2236
       99.55396      -16.40771      -604.8005      -644.6486      -150.7802
       161.6835       395.7074      -19.89410      -326.2799      -34.30383
      -180.5712      -585.0856      -288.9882       169.9420       44.64453
      -413.1562      -640.7362      -517.8882      -225.5948       84.08026
       104.0740      -290.1113      -553.8114      -161.9273      -101.2616
      -310.9648       110.1992       142.6700      -408.6763      -499.2878
      -288.0192      -320.2872      -24.59729       37.31995      -409.6417
      -347.7253      -133.6477      -416.6187      -531.9714      -63.01074
      -23.39319      -288.4362      -61.73404      -65.24561      -319.4598
      -430.5406      -292.1664       99.68933       111.0569      -179.8307
      -128.9171      -258.9897      -388.5082      -198.7454      -41.76630
      -239.6088      -240.7344       373.2324       153.8893      -246.6118
      0.9083862       16.83966       32.26508      -21.98154      -104.1906
       122.7528       88.28522      -232.6261      -129.6940      -211.1332
      -226.0719       191.5004      -134.2292      -387.2810       538.4149
       335.5753      -592.9100       176.5191       127.3339      -808.3192
      -283.6657       37.39716       107.6257       329.7127      -57.88965
      -243.3427       120.6965      -12.55499      -168.3187       64.71594
      -182.9067      -249.0306       26.71075      -204.1423      -261.7807
       210.8083      -23.46436      -464.5928      -123.7230      -28.03891
      -24.10913       331.4818       109.1458      -112.2353       121.1100
      -418.3536      -391.2970       206.4520      -24.88011      -22.91040
       288.4587       68.10907      -194.1787      -112.0017       132.7880
      -32.47961       84.27139       305.2563      -344.3672      -83.20996
       213.0764      -120.7147      -113.2902      -338.3097      -93.62805
       125.6995       254.2004       164.0352      -169.8879       212.1009
       2.633255      -204.8312       188.3090      -222.3056      -283.8379
       367.0275       438.7791      -128.8084      -182.1732       281.4723
       173.5233      -200.3296      -191.9261       119.4479       278.7686
      -130.2454      -2.573120       335.7507      -229.9931      -336.5240
       223.6633       43.09195      -268.9528       75.79425       345.8755
       228.9719      -49.26489     -0.7640076       150.5972       94.50580
       285.9196      -80.75565      -29.55829       460.9348       70.34668
       235.2087       240.0895      -169.0004       318.5385       349.5448
      -119.1471       46.74335      -29.99509      -339.2334       323.2654
       831.4683       248.3062      -28.47998       440.6886       441.5350
      -120.9858       88.97394       452.2830      -15.72385       63.79718
       323.8666       123.2809       351.3030       598.4932       553.6205
       471.1689       202.9075       17.17847       394.5607       313.6912
       35.71509       641.0996       472.4792      -42.83069       149.2830
       51.82388       94.78865       49.69940       129.7321       589.8851
       325.9243      -38.60474       296.1212       533.2755       39.26178
      -270.5561       187.4047       320.2722       253.2637       252.4489
      -189.5086      -10.70860       149.2560      -201.2477       179.0299
      -43.96231      -224.2234       456.2048       171.7078       183.1536
       297.7052      -177.8330       18.04230       216.7365       122.0657
       19.20776       24.64587       357.5711       146.9866      -417.7798
      -251.9950      -185.4595      -146.9286       266.1375       462.8333
       341.6437       37.92348      -117.8285       30.64569       191.8470
      -35.63367       248.4637       580.3538      0.6790161       147.9376
       460.4562      -113.9072      -234.7326      -93.18988      -152.0693
       371.4738       938.3638       54.60425      -714.9310       223.5939
       418.2327      -64.21979       331.9161      -167.1615      -351.0425
       505.3510       77.54260      -309.4988      -269.6851      -105.7529
       147.1661      -346.0948      -10.63998       248.4644      -233.5770
       118.3160       67.87357      -136.4942       127.2166       44.21242
      -18.50824       247.4166       64.47009      -355.3793      -319.3492
       32.03336       36.68091      -427.1653      -335.5811       298.2175
       253.2842      -485.0320      -596.9664      -97.24774      -120.8481
      -324.6471       124.1729       258.2507      -263.5513      -470.8610
      -309.6910      -253.1240      -224.2841      -269.1153      -154.9817
      -111.4556      -342.1270      -328.2193      -217.0956      -72.28900
      -246.5954      -235.4974      -193.1965      -679.3289      -322.8769
      -25.19580      -645.3687      -550.5851      -274.9852      -231.2122
      -161.3181      -218.9512      -292.0930      -299.6268      -372.4565
       43.56647       317.6146      -576.9564      -366.4104       222.2483
      -288.9821      -304.2908      -314.4977      -365.8422       337.5248
       72.47217      -600.6586      -14.96259      -51.40747      -617.6508
       38.27710       431.2091      -260.5439      -159.7955       224.6526
       137.7083       64.99548      -10.76514      -1046.381      -4487.098
      -6608.605      -4448.189      -2256.104      -2911.207      -5329.506
      -6361.330      -2210.852       4207.027       7949.188       12738.12
       17151.21       11429.15      -642.0039      -3869.545      -2765.898
      -10698.92      -13204.80      -4260.701       1427.228       1076.203
       3812.293       7005.107      -663.9385      -4641.786       632.2578
       3940.609       6427.384       3629.660      -3703.463      -4735.455
      -2706.281      -1442.339       996.8369      -201.0830      -3764.750
      -1008.452       4219.187       3386.009       1045.059       629.3628
       967.9379       1166.364      -844.5312      -2678.882      -1652.880
       2108.287       512.3037      -3344.218       408.7651      -160.1362
      -3731.550      -292.1011       2124.662       2044.721       2281.698
      -837.8848      -2697.990       95.95801       2141.178       1203.672
      -1052.594       161.7153       2954.003      -240.8545      -2338.885
       310.2236      -128.7000      -1543.810       185.0869       3141.980
       1204.008      -1036.288       481.0781      -991.9424      -2958.949
      -224.3682       2330.671      -500.8967      -1698.324       507.7812
       2697.239       3440.229       721.1678      -409.3589      -1295.987
      -2161.077       131.4683       855.0737      -1448.375      -3328.840
      -400.0317       2542.496       1547.765       460.4160       1462.859
       2339.442       953.6882       1259.208      -254.0610      -1864.951
      -112.6990       478.1403       520.6514       140.1304      -719.4824
      -591.9044       400.9600      -359.0233      -1315.318       726.9219
       2626.852       1140.663       362.2854       1088.754       961.3335
       1562.146       506.6992      -985.6821      -1649.194      -1814.365
       217.0767       1010.408       731.4133       1026.471       1183.666
       448.8113      -477.8137       336.0781      -699.7178      -2022.936
      -835.6736      -414.8760      -649.0483       162.1152       2058.963
       2095.450       754.7061       582.0105      -218.7158      -1828.181
      -464.0327       2216.718      -171.9019      -3086.042      -943.9972
       320.2010       76.49463       126.7461      -1370.195      -1801.639
      -220.5789       999.7256       1328.764       1353.335       714.2261
      -725.4800      -1524.846      -1144.726      -477.2266       944.4189
       1054.157       86.75023       141.3953      -147.0779      -1084.758
      -1015.678       689.1942       387.6650      -573.1132      -426.5043
       37.31787       1698.418       1367.968      -852.5537      -1360.255
      -747.1527       47.62427       491.7104      -34.51578      -17.81689
       356.8679       157.2461       706.9592       261.4072      -945.1426
      -519.9962      -19.27039       752.7822       466.6505      -143.8575
       195.6600      -508.1377       278.3472       1062.998       653.3601
       541.0729      -318.0271      -374.9916       13.87891      -955.0562
      -976.6633      -128.2671       780.8940       1242.245       678.3784
       1463.745       1558.281      -812.1989      -888.5643       288.5172
      -374.8719      -28.53320       609.6241       419.4905      -474.7368
      -753.9262      -82.41431       405.5015       782.8052       403.7769
      -17.96265      -807.4840      -280.3380       363.0475      -545.6603
      -167.5823       706.1135      -150.8582      -1420.768      -812.2075
      -228.6885      -884.3319      -549.4348       531.0826       156.6799
      -1001.491      -396.7981       524.4056       144.5330       148.2316
      -140.0977      -369.6514       16.41504       53.09216       541.9239
       258.3699      -498.0872      -731.8926      -1395.192      -1171.940
      -365.9799      -211.5674      -238.9590      -568.0054       457.8868
       931.2599      -34.73886      -19.23779      -233.4048      -831.1382
      -457.6992       563.0392       204.2014      -906.9414      -1105.469
      -633.8982      -124.1278     -0.7929688       964.6505       629.5088
      -809.0471      -534.3487      -66.88147      -215.5973      -76.42847
       513.4896       295.0484       84.98340      -322.4385      -1392.321
      -741.1246       130.1979      -26.83856      -147.5418      -237.5574
       545.0187       814.1075      -157.3344       202.9312      -16.78198
      -1212.710      -515.2334       696.6490       688.3706      -56.81804
      -37.05359       219.8445      -739.3767      -1054.839      -442.4406
       26.44843      -184.3679       238.0000       1144.743       351.1254
      -26.54822       2.727173      -323.2853      -380.5574      -153.2581
       257.9047      -105.9463      -294.1788       58.39331       657.2993
       1088.529       311.6487      -733.6156      -351.8784       69.75919
      -224.3730      -34.98416      -78.12036       97.17346       608.2349
      -88.80255      -519.6217       176.5544      -343.5978      -880.2207
       263.8171       244.7504      -617.6283      -184.1126       429.2676
      -71.77710       179.8046       793.6671       31.56409      -643.3866
      -612.2427      -464.4615       194.4800       570.9604      -358.3145
      -688.4391       141.9990       824.0094       281.0665       67.77647
       212.5035      -193.2046       260.7366       292.9312       113.5436
       344.2344      -400.3440      -793.4307       309.2269       682.3716
       488.8867       1107.674       831.1904      -506.1655      -1194.710
      -656.7793       766.2762       861.1818       322.6185       464.5159
       764.7869       1129.552       157.8344      -887.7591      -231.9454
