     0.02500000      -11153.45       11512.95      -12345.00      -12345.00
      -29.98999       215.5850      -17.19000      -12345.00      -12345.00
       0.000000       12.67000      -12345.00      -12345.00      -12345.00
      -12345.00      -12345.00      -12345.00      -12345.00      -12345.00
      -12345.00      -12345.00      -12345.00      -12345.00      -12345.00
      -12345.00      -12345.00      -12345.00      -12345.00      -12345.00
      -12345.00      -31.03680      -69.52500       1657.000       0.000000
      -31.24600      -68.98500       0.000000       102400.0       0.000000
      -12345.00      -12345.00      -12345.00      -12345.00      -12345.00
      -12345.00      -12345.00      -12345.00      -12345.00      -12345.00
       56.47870       294.1081       114.3860      0.5078071      -12345.00
      -12345.00     0.05673736       0.000000       90.00000      -12345.00
      -12345.00      -12345.00      -12345.00      -12345.00      -12345.00
      -12345.00      -12345.00      -12345.00      -12345.00      -12345.00
      2008        16        21        17        53
       890         6    -12345    -12345      9824
    -12345    -12345    -12345    -12345    -12345
         1         7        13    -12345    -12345
    -12345    -12345    -12345    -12345    -12345
    -12345    -12345    -12345    -12345    -12345
    -12345    -12345    -12345    -12345    -12345
         1         1         1         1         1
NUEV    -12345          
        -12345  -12345  
-12345  -12345  -12345  
-12345  -12345  -12345  
-12345  -12345  -12345  
-12345  -12345  -12345  
-12345  -12345  BHN     
ZL      -12345  -12345  
[...]
       289.0620       271.0629       261.7712       248.7440       241.6489
       225.8467       214.3870       202.6841       194.6193       183.5114
       181.2082       157.6817       145.1776       137.2605       118.5548
       97.64731       95.89917       76.34474       64.29370       57.84972
       52.76703       47.82779       48.76562       35.35164       27.86477
       19.31147       16.94946       5.534504      -5.273552      -18.07852
      -15.16579      -14.89581      -21.49967      -33.07751      -30.36125
      -39.79202      -44.03209      -52.45673      -55.42581      -63.07817
      -64.11276      -72.72189      -85.42340      -100.2881      -104.1361
      -111.9137      -110.7151      -116.8432      -126.0958      -139.7143
      -143.7270      -158.8084      -161.4225      -171.6580      -175.2439
      -185.1177      -194.3747      -202.9684      -207.6015      -231.3276
      -238.3392      -254.3324      -261.0272      -273.0347      -279.4485
      -293.9043      -302.1065      -322.0457      -325.2540      -330.8515
      -335.7059      -353.8392      -356.3757      -363.2427      -370.1841
      -380.6265      -389.7417      -399.4275      -394.5964      -404.0128
      -412.9417      -418.0840      -418.3984      -425.6249      -429.1788
      -433.3774      -432.3142      -438.7834      -438.4071      -445.6823
      -451.9966      -451.6421      -457.9268      -464.7153      -460.5369
      -464.5055      -462.8501      -467.8931      -470.3691      -462.0044
      -458.1560      -457.6755      -455.3401      -464.6709      -461.9705
      -457.8352      -436.1257      -425.1995      -420.8480      -421.5859
      -413.3264      -411.4904      -401.3032      -390.5367      -374.2703
      -360.9918      -347.4093      -341.3818      -323.3069      -302.8274
      -290.9218      -283.0948      -257.9162      -238.2692      -221.6993
      -205.4083      -180.0566      -165.6604      -142.7158      -119.9292
      -99.07050      -78.94003      -53.19035      -28.54127      -7.460428
       1.413330       24.70947       44.75189       71.29111       95.26984
       121.5713       142.6309       162.5341       178.2910       196.3412
       218.5948       241.5570       255.9443       274.3280       291.7772
       309.3643       325.9415       344.2073       356.5192       373.0100
       390.7629       404.8019       412.7711       423.0243       429.0980
       436.8312       451.1362       466.2122       469.4705       472.3391
       468.5341       473.3351       474.8308       480.2821       485.7465
       486.9531       483.8346       476.5791       463.7549       461.9435
       451.3174       440.7075       440.7239       432.9493       423.6595
       419.7581       398.3593       391.7151       387.0074       376.2932
       366.8942       356.9564       344.7237       339.4484       326.3934
       315.9216       307.2623       301.2354       284.7888       270.5520
       259.9044       261.8574       252.3916       245.7253       238.3551
       232.3363       227.8798       226.7162       217.2797       206.8848
       192.3082       182.7159       176.0394       172.0270       162.1597
       160.3347       156.6142       152.0760       145.7291       137.0277
       120.9761       108.8387       104.3915       95.60370       90.11826
       86.58026       82.05975       81.93584       73.40761       58.79239
       53.35031       51.91568       49.25421       47.30310       45.95683
       41.57020       34.32790       26.93600       23.96133       20.98454
       17.73654       14.41489       7.170092       8.612946       4.991117
      -1.689116      -1.436401      -6.907578      -8.298386      -3.859028
      -4.219872      -10.76811      -18.57114      -16.99937      -15.72028
      -19.31593      -21.47314      -18.38851      -18.81864      -24.27883
      -28.15265      -22.92921      -21.69448      -31.62547      -34.05751
      -27.81194      -31.19868      -38.69843      -42.93410      -47.12611
      -60.72398      -55.81261      -63.24988      -82.64966      -83.77118
      -91.44681      -100.9575      -102.7259      -115.4842      -117.4587
      -123.4463      -132.0291      -136.5271      -150.5370      -169.6464
      -182.2852      -188.1962      -192.2506      -195.8094      -202.9114
      -215.3155      -216.2527      -219.4384      -232.0702      -236.0910
      -243.5691      -239.9891      -244.6202      -260.5444      -254.6664
      -251.1810      -265.3828      -263.8408      -256.2174      -254.3663
      -255.8372      -255.9495      -262.4987      -265.0747      -259.1427
      -252.4139      -248.2543      -250.6025      -249.8649      -246.3557
      -248.9574      -243.4610      -233.1112      -232.6620      -234.2997
      -231.2134      -232.5243      -236.0839      -226.9982      -221.1764
      -216.2150      -212.0875      -214.9506      -209.4189      -219.9775
      -230.1987      -342.3291      -657.0095      -915.4019      -617.7461
       419.2715       1397.918       927.7622      -759.9961      -1306.151
      -513.4268       195.7360      -625.8096      -343.1372       1145.789
      -714.6074      -1287.698       58.94629       672.0900       819.9139
      -293.5242      -596.9272      -348.1771       425.5106       1151.787
      -538.6299      -1671.290      -81.14111       974.7568       852.1936
      -603.7747      -1131.519      -430.8156      -691.4907       735.6038
       1433.332      -327.7332      -594.3237       917.5669      -231.9636
      -1725.553      -490.1166      -17.03796       463.0886       675.9576
       449.2380       192.8306      -1220.411      -815.1258       378.7727
      -183.9596      -459.1904      -79.55212      -11.04822       96.06482
       312.1389       375.8669       103.7859      -697.5869      -1198.630
      -660.1573       525.4418       824.4369      -443.7984      -448.7480
       935.9965       552.9355      -437.2791      -377.5190      -361.1604
      -872.2588      -338.6262       694.0404       547.3438       450.9613
       103.0746      -544.1501      -762.9326      -723.7302       333.9355
       918.2876       428.9935      -48.19928      -274.2325       214.0792
       288.4822      -42.70953      -125.2452      -160.1077       142.5049
       310.2540       328.8477       200.2252       98.36462       263.5771
       412.9951       469.8631       372.6570      -92.06812      -371.7988
       426.9203       676.1324      -52.58545      -82.21362       438.7302
       618.6691       209.2836       211.3975       552.6890       664.6121
       716.1093       515.3458       347.5001       139.2594       75.91028
       29.69702       458.0325       1087.847       262.4722      -202.6510
       316.6597       868.4305       894.5753       96.13614      -19.41380
      -32.78210       134.0356       818.9263       628.2842       341.2211
       370.0999       339.1482       565.5417       892.3970       370.9613
      -205.3407       279.9945       418.1294       399.2717       670.5397
       365.2910       550.2139       956.9156       499.9084       52.61218
       351.3231       318.7194      -247.3257       70.57153       458.5991
       360.6210       599.4949       835.5239       449.1568       35.47617
       182.1446       45.98206      -17.09131       491.7538       559.1010
       139.7329      -39.80615      -360.5191      -148.2148       314.2556
       66.35999       88.92966       28.46487       136.8345       234.7224
      -78.05725       70.27557       321.6871       118.9483      -298.1848
      -127.9844       45.12209      -49.18555       55.74249       3.268188
      -272.1537      -311.2301      -192.3540      -217.5099      -168.7852
      -50.58508      -116.9874      -169.1701      -71.76166      -223.9919
      -400.9077      -429.1714      -415.2993      -89.22632      -158.8873
      -428.9550       56.59006       144.4846      -304.3484      -427.6167
      -558.6544      -532.3390      -268.2448      -123.5321      -491.1572
      -385.7261      -325.5535      -671.2371      -181.2295      -35.00818
      -229.9890      -45.68237      -387.9763      -672.3646      -148.2936
      -110.9542      -522.9351      -266.0581      -302.9186      -556.4440
      -217.2596      -143.7533      -273.1503      -209.2344      -497.8748
      -567.0399      -104.6747      -180.7571      -492.6360      -389.0527
      -138.5669       45.92322      -225.8801      -503.8650      -694.8599
      -738.1033       47.00916       283.4803      -256.1737      -93.55380
      -17.15448      -281.6227      -233.4004      -93.60620      -68.53308
      -65.54056      -37.72968      -232.9727      -372.0765      -319.0573
      -172.6737      -76.13269      -342.9964      -268.4451       89.95959
      -26.56061      -263.6119      -229.9257      -188.9787      -148.9178
      -19.60606       113.1402      -118.1123      -289.5063      -66.29556
      -188.7943       8.606628      -56.75574      -554.9010      -319.3364
      -68.69104       311.1397       224.6418      -127.5055       109.3505
      -113.1222      -244.3758       279.5865       309.5787       20.00390
       12.10815      -130.9934      -184.0571       98.40283      -25.27470
      -109.3226       72.79337       38.57935      -151.5117       60.27783
       517.9482       77.36472      -169.7038       161.0682      -155.2856
      -201.7067       206.2576       308.5247       213.6495       210.3157
       209.7906       192.4939       339.4393       245.4454       50.58795
       110.5724       286.9371       173.7907      -66.84485       101.1692
       140.4976       58.09558       166.4244       362.2971       443.6258
       248.7890       13.81519       269.5513       564.6949       237.8682
      -77.37457       139.2897       492.5100       635.0310       422.4333
       391.1476       363.3370      -278.8565      -59.31866       374.5566
       251.5747       497.1208       559.0072       370.1345       224.7360
       286.1377       369.8831       286.9058       194.1392       469.0478
       353.4620      -55.54797       242.4381       400.7618       266.6716
       169.9283       135.1119       274.7644       277.5151       520.1484
       614.0112       41.25784      -114.6644      -21.31854       65.30780
       303.3760      -52.48633      -260.8555       243.2560       247.0541
      -208.7183      -45.60498       112.7096      -65.04782      -73.34912
      -64.90967      -197.3436      -270.7669      -184.7029      -91.62256
      -225.8021      -447.1007      -385.6520      -306.4525      -320.1052
      -117.8835      -78.33533      -504.8019      -758.5289      -428.8756
      -71.42657      -114.1216      -372.6263      -418.5145      -385.7153
      -618.5284      -623.4432      -98.78302      -12.32031      -190.3473
      -181.9614      -299.3281      -472.0729      -508.3317      -459.4872
      -566.1066      -275.4153       231.2695      -192.8943      -459.0083
      -297.4171      -497.4514      -466.0344      -476.0973      -105.8467
       276.9445      -355.0491      -432.0146      -46.72699      -188.4092
      -582.9708      -507.1663       72.71591       164.6980      -168.6003
      -269.5565      -276.6954      -310.0064      -63.23448       137.9642
      -100.0378      -280.4729      -331.8374      -244.1737      -293.0396
      -163.7394       58.01247      -21.25500      -194.0601      -262.3914
       4.187714       37.06720      -250.5031      -362.0517       102.8074
       315.3070      -220.9245       83.17352       429.1345      -169.0551
      -475.2220      -255.4378       262.0870       253.1639       90.28625
       669.2344       426.0751      -168.2897      -56.09357      -140.8881
      -117.0598       496.8972       618.0337       13.76520       78.55405
       306.3194      -299.5955      -203.1555       570.9739       433.2178
       232.7354       493.9120       518.5087       457.3550       115.0632
       188.5422       246.5542      -77.84460       95.76294       657.1787
       668.6520       184.7759       598.7063       817.1470       334.5803
       391.9635       263.9232       396.3423       709.1777       372.4652
       125.9642       242.7722       538.4076       662.6912       259.2178
       294.7292       690.7012       389.4739       154.1353       347.6182
       564.9662       621.3173       139.6264      -124.2106       259.5490
       306.3489       13.26807       456.2471       825.8058       120.4597
       113.0386       1397.598       1096.762      -201.5838      -341.6006
      -295.2881      -673.7473      -372.2638       522.5454      -243.5151
       507.7520       4492.675       2999.158      -3148.773      -4700.606
       1683.975       11512.95       9096.125      -4725.082      -11153.45
      -5897.903       3782.932       8434.660       7115.134       4783.700
       133.2344      -6011.488      -9643.453      -9186.695      -3708.507
       4407.678       6287.794      -2625.680      -5719.088       1568.965
       687.3389      -3059.758      -1372.642       1320.072       5430.249
       6212.457      -317.5840      -5864.194      -3759.759      -957.3984
      -3546.042      -3319.805       3513.040       3413.700      -2707.349
      -2981.797       2298.910       4022.484      -1233.051      -3399.563
       1104.177       1556.239      -3917.726      -3773.726       975.2642
       2835.637       2453.397       821.2124       899.8081       2667.062
       541.3027      -5559.584      -6249.128      -185.0886       1007.240
       334.9735       1497.282      -1142.751      -3194.992      -1985.699
      -637.9775       918.6128       3375.097       1379.437      -1379.193
       78.49731       569.2148      -1281.999      -1213.607      -782.4902
      -1838.599       1004.019       1409.166      -1247.304      -738.3645
       912.4866       233.2578      -1804.419      -1033.542      -2024.971
      -3288.764      -744.7188       1266.763       1236.841       1048.775
       1490.238       980.5869      -1530.380      -2331.579      -564.2253
      -227.3872       981.5029       2643.714       476.6152      -956.2881
      -567.6392      -2094.946      -868.7891       2349.293       236.7068
      -1259.665      -30.49854      -455.9318      -683.7346      -416.6743
       729.3007       516.6482      -230.4736       895.2112       597.3240
       362.5979      -138.2065      -1367.584      -121.8043       560.8945
      -1103.472      -2198.164      -1320.280       123.0039       967.2683
       1090.862       1023.198       1173.018      -57.00708      -1159.220
      -775.4626       317.8977       407.5613       371.8232       2037.549
       2548.781       990.4653      -548.7129      -1742.706      -1221.439
       510.9033       756.5626       266.4341      -281.2190      -643.9885
      -384.1484       1227.894       2084.088       785.4248      -492.7465
      -664.8963      -230.3871      -243.8313      -505.5425       262.0776
       1578.288       1673.515       1440.087       629.2126      -72.40967
       1156.128       1277.513       147.7466       535.8020       1213.325
      -139.6924      -1899.036      -610.0538       738.7026      -228.8204
      -659.6710       167.8279       697.9021       277.8663      -347.7617
       878.0161       2474.373       260.5498      -1748.204      -416.5708
      -418.1926      -445.5763       760.9576       440.9309       610.1355
       1144.640       20.83429      -283.4089       1268.345       1367.548
      -135.8311      -635.1705      -185.9953       209.2163      -384.9176
      -652.1364       193.6300      -165.2734      -1697.669      -1154.269
       100.2477      -3.218445       14.34375      -167.8710      -25.75610
       631.6436       882.7544       838.2737       1138.010       469.6853
      -1170.492      -986.0303      -309.4475      -101.9786       169.2253
       158.9956      -951.1289      -1901.647      -880.5046      -614.5408
       228.2832       1965.283       1718.240       1158.411       344.1484
      -1006.916      -749.3481       675.4792       382.1995       106.2849
       817.4793       463.1724      -854.7971      -1213.995       17.72361
       97.63507      -111.0764       583.3000       785.8042       987.7836
       656.6094       525.9438       729.4235       137.6161      -174.5369
      -493.4954      -1284.647      -876.6614       551.9506       474.8220
       38.85413       181.1454       111.4210       123.7646       491.1826
       1578.857       1192.063      -314.9268      -985.8596      -1212.392
      -720.4578      -310.7794       179.6240       1037.879       782.2243
       411.1194       100.4442       430.7212       796.5538      -24.70532
       281.3955       563.0477       403.5166       407.0757       581.8963
       726.3423      -726.6777      -696.3373       827.4061      0.5004883
      -1545.047      -890.1819      -210.0179      -617.9575       76.15918
       1002.552       1196.628       394.6361      -113.0245       551.0629
       165.1494      -945.0687      -686.2438       524.9681       485.6125
      -91.07776       494.2444       60.14014      -1414.138      -1380.394
      -981.8122      -418.2206      -86.71973      -477.2764      -527.0767
      -837.1804      -600.4465       136.1729       251.8947      -352.4796
      -625.8128      -73.31239       115.0085      -9.804138      -162.1206
      -287.2661      -454.2041      -456.7832      -266.5416      -412.6559
      -393.0454      -615.7009      -724.8157      -658.7885      -375.5608
       75.64148      -402.0901      -504.5609      -53.56873      -331.4485
      -895.9663      -468.7176       431.3531       149.5416      -162.0640
      -503.3320      -1546.907      -1412.623      -766.2917      -799.1584
      -440.0430      -128.5284      -233.4201       361.7948       168.3051
      -399.5121      -158.8943      -356.1062      -669.5285      -196.7962
       62.79663      -288.8622      -80.74178      -18.35378      -24.90656
      -157.2634      -162.1743      -141.0601      -772.8916      -794.3058
      -156.7254       177.1650      -303.3665      -555.5529      -323.9020
      -110.4143       197.5316       558.5210       37.19312      -642.9478
