     0.02500000      -10056.66       11357.34      -12345.00      -12345.00
      -29.98999       215.5850      -17.19000      -12345.00      -12345.00
       0.000000       12.67000      -12345.00      -12345.00      -12345.00
      -12345.00      -12345.00      -12345.00      -12345.00      -12345.00
      -12345.00      -12345.00      -12345.00      -12345.00      -12345.00
      -12345.00      -12345.00      -12345.00      -12345.00      -12345.00
      -12345.00      -31.03680      -69.52500       1657.000       0.000000
      -31.24600      -68.98500       0.000000       102400.0       0.000000
      -12345.00      -12345.00      -12345.00      -12345.00      -12345.00
      -12345.00      -12345.00      -12345.00      -12345.00      -12345.00
       56.47870       294.1081       114.3860      0.5078071      -12345.00
      -12345.00      0.1758147       0.000000       0.000000      -12345.00
      -12345.00      -12345.00      -12345.00      -12345.00      -12345.00
      -12345.00      -12345.00      -12345.00      -12345.00      -12345.00
      2008        16        21        17        53
       890         6    -12345    -12345      9824
    -12345    -12345    -12345    -12345    -12345
         1         7        13    -12345    -12345
    -12345    -12345    -12345    -12345    -12345
    -12345    -12345    -12345    -12345    -12345
    -12345    -12345    -12345    -12345    -12345
         1         1         1         1         1
NUEV    -12345          
        -12345  -12345  
-12345  -12345  -12345  
-12345  -12345  -12345  
-12345  -12345  -12345  
-12345  -12345  -12345  
-12345  -12345  BHZ     
ZL      -12345  -12345  
[...]
       680.2262       674.3168       676.3726       674.8525       681.5010
       669.7905       656.9558       650.7551       649.3481       637.5803
       629.0894       619.7561       615.1074       602.1440       594.6621
       585.7803       574.9980       546.7844       527.0032       509.8342
       495.2500       483.8480       467.3860       448.1946       431.7485
       406.6609       379.0004       349.7676       320.9128       302.1781
       291.6792       270.4448       248.0751       220.0277       193.9642
       171.3412       142.0041       114.3705       98.02298       74.94827
       57.15097       37.59089       10.67047      -12.91096      -28.91119
      -48.46361      -55.59999      -75.92081      -96.78955      -111.3731
      -128.0725      -150.6376      -164.9462      -182.6536      -194.9116
      -205.7590      -220.9755      -233.7920      -248.6516      -271.2479
      -281.2277      -296.8085      -312.1278      -319.6033      -343.0045
      -359.6748      -370.4736      -386.4866      -398.3873      -403.4031
      -415.0387      -428.3944      -440.2611      -450.0688      -461.7427
      -471.1562      -487.5446      -495.9203      -509.8334      -522.2332
      -533.7480      -548.4766      -559.8695      -565.2808      -573.1409
      -580.7809      -587.9963      -597.3035      -601.2642      -599.4736
      -605.6309      -616.2378      -621.0471      -624.3840      -624.6027
      -621.6301      -624.6903      -623.0049      -617.4846      -615.5198
      -612.6846      -616.4470      -617.1230      -610.1453      -603.5083
      -599.7375      -588.0701      -580.1238      -573.7468      -570.8533
      -564.9430      -556.3347      -539.8213      -523.8281      -511.9932
      -498.3872      -485.3745      -480.7615      -466.0370      -453.7727
      -442.0930      -421.6862      -403.9812      -390.7316      -376.5066
      -355.5377      -339.1527      -327.5193      -310.8978      -292.1501
      -279.7921      -263.6342      -243.1784      -227.9412      -218.0250
      -202.6600      -188.8780      -174.0778      -160.6890      -142.3113
      -127.0102      -113.2594      -105.2549      -89.26750      -79.64322
      -67.45651      -51.88546      -37.65327      -28.64082      -14.89248
      -5.735596       10.50247       23.20335       40.98196       49.00375
       65.31264       75.60568       84.05801       97.08469       111.2614
       113.3229       134.6985       147.1362       159.3806       158.8632
       169.3427       173.3729       184.9543       189.5816       204.5172
       206.9363       219.5830       217.1717       228.3281       230.0969
       233.8759       233.7687       243.2253       237.8276       244.1261
       234.3582       236.4600       230.8932       234.9421       226.9250
       225.2866       219.4730       229.9219       222.2598       227.6284
       226.2191       228.5154       215.2006       222.0248       218.4350
       222.3167       221.7886       224.9806       215.7281       226.4319
       222.2725       231.5352       233.2380       244.2098       242.5797
       254.4330       245.5977       257.5519       252.5791       263.8887
       266.9324       286.0205       286.6067       300.9519       292.2375
       301.5988       296.3085       306.2552       304.9662       321.6582
       315.0435       333.4186       332.1329       340.4841       335.6743
       348.1128       340.8551       353.5413       356.6716       369.1606
       366.4285       378.6003       376.4614       390.1265       386.6514
       398.4661       392.5864       403.0349       403.1610       411.7654
       408.5859       423.0833       414.6852       422.3893       423.2448
       435.8815       433.4600       441.8779       434.9425       447.1106
       442.6482       452.0129       445.9175       448.6479       443.5608
       452.3865       440.8262       445.5132       430.0081       426.9082
       414.1001       408.0330       387.7955       391.3281       371.8644
       363.5890       339.6860       324.8053       298.2794       291.5295
       263.0350       248.9003       212.7606       185.9962       159.4280
       143.5065       105.4488       90.27272       47.69484       21.96928
      -11.54062      -36.82118      -64.26239      -87.58643      -128.9620
      -144.4227      -181.5674      -203.3553      -229.6569      -253.5285
      -285.5285      -306.2551      -344.7783      -362.7629      -385.4626
      -395.4136      -423.4867      -442.6475      -471.4329      -482.8922
      -510.0754      -524.6246      -549.9409      -551.8596      -578.0100
      -583.6091      -607.6902      -612.5364      -628.3326      -623.9641
      -651.3044      -648.2678      -659.0771      -658.1183      -666.1868
      -654.8174      -674.9922      -666.9031      -685.5929      -667.3167
      -671.5344      -655.9921      -666.1093      -627.5654      -722.1716
      -737.0200      -1436.525      -3688.134      -6007.255      -3888.873
       2986.799       8886.712       5633.268      -4542.872      -4938.073
      -473.4783       105.9282       624.6063       934.8289      -448.6047
      -1615.042      -517.7280       65.36377       545.2839      -1743.663
      -605.8750       1775.812      -1205.182      -1810.953      -355.2004
       267.5184       1000.519      -168.8579      -2077.299      -656.3291
       631.3223      -205.7858      -687.4492      -64.15967       1950.011
       710.4873      -1483.421      0.3891602       799.7681      -1358.490
      -2013.298      -93.11035       937.6726       693.4786       154.9556
      -554.5259      -1082.199       25.50146       1007.357       404.2937
      -84.14075      -326.5757      -533.3570       81.71002       381.4708
      -467.1530       247.3572       1282.786      -184.2163      -1278.214
      -823.1881      -793.5732       903.5459       2375.760       461.0310
      -1379.252      -779.2936       160.7164       424.9882       323.6458
       468.0897       563.7932      -80.42435      -176.3882       464.7762
       676.4075       167.2576      -281.0940      -320.7245       100.7915
       856.5469       1428.013       761.9105      -438.8585      -101.6046
       626.8062       511.4192      -564.2202      -392.0913       1246.536
       1205.687       287.5919       89.94067       333.0417       642.2522
       1054.390       908.6860      -41.74536       790.9944       1652.228
       343.8881      -329.0902       513.2711       492.0167      -467.0630
       479.3630       1729.035       215.8569      -617.8533       521.8467
       974.9216       1299.810       1360.421      -118.9427      -564.3159
       877.5815       557.0081      -208.4216       1153.421       1282.132
       556.4614       629.1151       362.0299       152.2705      -177.0143
      -172.3779       939.2019       1186.157       418.7844       390.1860
       49.79541     -0.7811279       670.3517       96.84155       34.10657
       317.5190       239.2292       643.1289       340.9014      -123.0104
       155.5239       266.2361      -175.7116      -167.1742       89.98230
      -385.2474      -533.3496       350.8618       682.1575       210.5154
       70.57607       30.59654       86.51758      -296.7916      -525.5035
       81.51451       175.6555      -114.9597       159.7665       135.2429
      -436.7507      -570.9282      -456.7160      -199.8326      -131.5895
      -337.0068       216.7559       663.0922      -82.35718      -761.0800
      -381.9493      -200.2798      -423.6512      -316.3055      -122.0558
      -191.7660      -220.6038      -339.3822      -117.6700       411.4874
      -35.23889      -542.3691      -499.2772      -497.0704       43.56635
       300.4425      -59.13904      -96.35541      -212.9070      -98.37292
      -172.2146      -696.7155      -398.8573       491.9321       713.7313
       19.87744      -535.0034      -508.4075      -132.4277       10.29724
      -395.3784      -621.8604      -237.2993       503.0890       419.9890
      -489.3979      -505.7226       169.5317       187.0955       58.36215
       170.6888      -283.0288      -129.4434       312.7766       363.8409
       369.3203      -476.2006      -933.1442      -50.56213       434.3660
      -40.62146      -263.2087       19.22571       334.6246      -45.26636
      -273.3659       94.68388       33.90424       91.73804       610.8875
       104.5178      -328.8130       389.5217      -195.4268      -804.8085
       139.8814       105.4279      -402.7743       239.6636       338.9476
       22.92035      -71.47388      -410.5875      -184.6836       334.3793
      -67.62921      -288.9453       58.87585      -201.2848      -160.1583
       193.0911      -412.6890      -552.6223       669.9584       533.9245
      -427.5809      -56.82086       207.9740      -38.01392      -305.0615
      -557.4144      -325.1089      -458.1565      -698.8414       57.15747
       324.5404      -247.5615      -384.8781       161.5361      -82.97217
      -630.4049      -173.1730       49.96031       24.46008      -147.8643
      -598.0250      -334.5693       286.4181      -3.249512      -314.5684
      -522.1809      -657.2357      -159.0880       202.4888       301.1307
      -151.4296      -703.7009      -403.4686      -362.8922      -271.3489
       458.3535      -81.60645      -604.9267      -14.39258      -212.2786
      -732.9981      -255.9371       238.0680      -294.4887      -243.8388
       65.87854      -89.83521      -308.1517      -602.5305      0.2099609
       229.5518      -360.3924      -68.56470       59.41699      -746.1802
      -533.1368       174.5982      -2.204102      -756.9124      -810.2018
      -135.8259      -240.9378      -140.0340       50.03955      -478.1058
      -299.8845       269.3579      -179.3628      -413.4092      -206.1504
      -629.1448      -584.9706      -9.568176       279.9334      -35.56445
      -258.2929       113.5465      -65.08521      -601.4583      -630.2431
      -336.8714       256.2416       378.0237      -211.4224      -274.3566
      -189.1516       41.13269       230.7915      -164.6837      -548.6400
      -653.6801      -293.9370      -50.93237      -5.046143      -168.4861
      -248.6049       136.1859      -351.4255      -590.5735       462.8689
       378.0588      -334.0201      -76.54117      -64.75247      -76.18277
      -76.46713      -181.0709      -36.14600      -389.6876      -403.1797
       487.4269       334.5823      -274.3066       248.2085       330.9808
      -132.6217       10.74714       34.56741      -175.6384      -115.7430
       62.11511       295.0597       228.0595      -161.7654       280.4652
       601.4011       115.2543       226.0033       206.1344       70.32831
       239.9893       238.2280      -161.7230       131.6167       1192.399
       535.2139      -377.5425       288.7612       567.0419       299.9482
       497.7588       896.5878       765.2570      -23.14264      -311.1984
      -15.18835       352.6292       342.6509       334.2993       794.7076
       353.5535      -77.76343       378.2629       608.8051       340.7375
       219.1704       922.5081       1144.578       918.5260       594.4630
      -173.7642       343.2861       963.0749       150.1258      -92.12952
       469.0540       617.2861       1111.265       1543.870       232.9838
      -682.4690       153.2456       880.2299       711.6272       139.2900
       486.1240       1197.172       1136.375       845.1935       417.4649
       205.5317       531.3889       479.4609       444.2559       558.7476
       330.8479       608.8236       702.3138       465.2935       544.9205
       259.0443       283.1565       783.0104       736.5094       278.8721
       564.5898       830.0576       580.8975       323.5668       211.6301
       486.8618       163.2111      -122.1646       217.6484       508.0181
       743.8704       802.7719       848.4865       301.8879      -247.7610
       301.7195       788.2706       398.9746       275.4661       455.9714
       296.8677       417.6929       599.6490       432.8779       129.6130
      -28.50595       70.18365       116.6686       599.0928       622.3784
      -214.6665      -656.0613      -300.4922       594.3340       237.8426
      -290.5699       392.9135       69.74487      -653.6224       31.95471
       576.1550      -120.4271      -313.6214      -368.7223      -208.4317
       401.9546      -151.1755      -811.1819      -422.0090      -732.7137
      -854.7124       377.2920       623.0713      -398.6616      -1835.168
      -1746.692       152.7449       698.3330      -1197.054      -3293.245
      -3059.709       622.5566       5407.022       3187.430      -5283.361
      -8834.487      -1264.033       11357.34       10966.45      -4257.527
      -10056.66      -3791.181      -870.8867       756.5430       3074.663
       2862.563       405.2344      -1997.322      -1976.111      -2339.960
      -2017.183       2170.255       2505.323      -2366.556      -1709.362
       1710.359      -1574.269      -5075.685      -3115.835      -1474.378
       986.5933       2917.363      -586.5806      -2723.446      -576.4163
       140.7769       2013.767       2849.896      -991.2930      -2107.441
      -2394.592      -2066.935       876.0077       1222.631      -615.2114
      -2188.710      -2313.531      -527.7749      -1074.287      -2409.364
      -72.48730       1199.606      -92.02417       280.1194       1228.783
      -1864.980      -4151.480      -1642.297       284.2075       966.3252
       1363.680      -374.8376      -761.1157      -1071.715      -2974.433
      -1059.443       1972.594       1052.594      -439.6348      -1054.142
      -2670.185      -2275.197       1683.014       3726.581       2773.268
       2376.125       237.1895      -1906.631      -2787.083      -4522.557
      -4060.373      -1366.065       1665.438       2191.824       1659.862
       1504.493      -266.3894       228.6523       2808.233       3358.611
       379.1406      -3860.382      -4681.493      -2542.602       406.1041
       988.0400      -171.6401      -115.8474       240.1244       159.0332
      -162.1996      -91.20459       956.8555       2071.416       1771.270
      -989.1963      -1520.120       506.9336      -1107.616      -1730.982
       193.5137       1341.430       1689.248       23.52271      -1012.413
      -967.6764      -632.3032       1174.000       2044.442       650.8536
      -333.7798       7.078857       487.7397      -108.4384      -790.0333
      -303.7996       747.0530       1357.049       753.0771      -378.4104
      -645.2610      -216.8448       557.4919       866.8082       137.4485
       26.26367       632.6191       1137.825       1305.479       843.9736
       663.6575       424.1486       183.1755      -212.6882      -876.2541
      -149.1406       1074.402       1343.368       786.7579      -351.3052
      -847.7296      -358.0386       1147.861       2131.802       1409.090
       236.5288       279.2112       1235.479       1173.991       695.6387
      -83.86499      -760.5399      -430.0486       377.6396       1244.164
       660.3652      -377.4625      -580.2100       191.5269       1517.703
       1221.208       716.0688       1610.656       1035.144      -801.8633
      -1553.609      -570.3477       1160.852      -153.9355      -2479.195
       43.94824       2605.328       1646.013       1509.488       1250.537
       720.8805       856.8616      -538.0095      -785.1567       554.8020
       411.6458      -406.3801       409.9519       1507.138       223.7930
      -1055.399      -492.9543      -294.9569      -636.2041       356.3965
       1541.768       1423.251      -22.11230      -1313.345      -1128.023
      -1120.191      -864.7544       696.7686       1832.298       1602.983
       1099.400       79.28467      -971.4312      -1127.462      -195.8101
       1387.629       1515.399       697.3384       274.6294      -494.4622
      -929.9651      -570.3856      -484.9404      -102.2371       958.9184
       441.3101      -784.5007      -886.7395       391.8950       1083.464
      -435.4116      -481.4456      -243.8335      -1458.248      -1262.394
      -163.1085       166.8298      -130.3357       250.9642       504.7815
      -319.0562      -782.4656      -297.5114       443.0715       561.8147
      -217.2419      -859.8785      -876.8485      -197.9309       531.1276
       234.0175      -575.2122      -835.6372      -1049.205      -1028.070
       31.64111       1266.561       1034.516      -255.1313      -194.6050
       101.4293       76.25084       50.58521      -344.4612       213.5821
       163.4546      -748.0806      -1117.922      -1362.552      -334.0111
       387.4973      -338.0820      -361.0319      -322.1484      -447.6759
      -513.9590      -721.4149      -661.6611      -297.8553       95.01147
       64.23584      -752.2773      -823.7655      -318.6399      -1147.961
      -1224.732      -402.8578      -47.51416       400.3225       870.6804
       445.7383      -1117.642      -1867.463      -1038.728      -353.9978
      -887.6645      -722.8240       600.6725       479.7471      -1143.427
      -1741.394      -710.0141       127.3963       143.9340      -114.3911
      -876.8879      -1119.453       78.30435       405.7742      -427.4595
      -559.2216      -481.6816      -872.6418      -1125.333      -385.2472
       392.9224       248.9980       78.46295       107.0750      -254.8298
      -801.8276      -476.5476      -312.3018      -975.9031      -795.1597
      -233.8396       382.7738       712.9722       81.46469      -213.6790
       128.4975      -89.90698      -630.9172      -379.4068       27.02893
       113.3848       137.7185      -185.8751      -230.8718       324.6634
       34.17560       61.48535       892.5718       670.3400       231.5942
       299.0804       60.92969       3.967194      -36.37204      -372.7487
       262.9683       945.6630       535.5240       41.27051      -3.800049
       711.0627       1427.264       924.6118       110.7928       75.06989
       316.5717       180.4623       118.8932       157.7740       90.08203
       764.3018       1378.362       1086.199       991.8330       816.7489
