     0.02500000      -2219.489       2319.068      -12345.00      -12345.00
      -30.01003       220.8399      -22.26000      -12345.00      -12345.00
       0.000000       16.76000      -12345.00      -12345.00      -12345.00
      -12345.00      -12345.00      -12345.00      -12345.00      -12345.00
      -12345.00      -12345.00      -12345.00      -12345.00      -12345.00
      -12345.00      -12345.00      -12345.00      -12345.00      -12345.00
      -12345.00      -30.19290      -68.82820       1323.000       0.000000
      -31.24600      -68.98500       0.000000       102400.0       0.000000
      -12345.00      -12345.00      -12345.00      -12345.00      -12345.00
      -12345.00      -12345.00      -12345.00      -12345.00      -12345.00
       117.7140       7.370131       187.2904       1.058355      -12345.00
      -12345.00      0.2304251       0.000000       90.00000      -12345.00
      -12345.00      -12345.00      -12345.00      -12345.00      -12345.00
      -12345.00      -12345.00      -12345.00      -12345.00      -12345.00
      2008        16        21        17        58
       960         6    -12345    -12345     10035
    -12345    -12345    -12345    -12345    -12345
         1         7        13    -12345    -12345
    -12345    -12345    -12345    -12345    -12345
    -12345    -12345    -12345    -12345    -12345
    -12345    -12345    -12345    -12345    -12345
         1         1         1         1         1
PACH    -12345          
        -12345  -12345  
-12345  -12345  -12345  
-12345  -12345  -12345  
-12345  -12345  -12345  
-12345  -12345  -12345  
-12345  -12345  BHN     
ZL      -12345  -12345  
[...]
       33.98627       18.99932       36.22601       4.385227      -27.38735
      -3.759476      -41.08307      -116.7899      -138.2759      -135.6714
      -116.8206      -104.6697      -173.4708      -241.2006      -216.6943
      -208.1155      -232.5322      -231.4351      -255.8467      -308.7783
      -360.4005      -390.1990      -365.8081      -335.9114      -367.6243
      -404.6265      -417.8401      -449.3684      -448.1235      -441.2469
      -495.5054      -537.9993      -536.5400      -537.1516      -536.9672
      -513.7776      -534.8918      -577.7886      -602.4030      -603.9236
      -570.2136      -558.9023      -601.2015      -625.7214      -643.4062
      -640.9045      -595.9019      -583.0801      -604.0183      -615.5979
      -625.1851      -608.3020      -587.0845      -620.7996      -661.4895
      -631.5437      -585.9875      -593.8528      -597.1572      -577.9741
      -577.7104      -601.6577      -633.9409      -636.2607      -570.5654
      -515.9553      -544.1060      -591.4951      -578.7908      -537.0618
      -512.7798      -526.0232      -568.9272      -552.9413      -501.7979
      -485.4707      -483.2655      -480.5219      -465.0718      -432.1162
      -424.7256      -441.9617      -421.8406      -377.4174      -366.9502
      -350.2877      -318.0259      -319.0099      -335.9417      -317.2100
      -280.4714      -243.0236      -234.7773      -258.7966      -236.1823
      -201.0915      -186.8928      -147.6635      -116.5386      -136.0582
      -169.1793      -172.0375      -122.6786      -63.19527      -49.19437
      -67.61803      -67.27719      -57.25517      -37.42850      -14.25259
      -12.24866      -21.58257      -7.153923       18.48183       18.31651
       19.60059       41.65604       47.73720       60.76234       68.54279
       39.64557       49.22458       102.2860       125.5164       125.3620
       104.9863       118.3952       175.3328       177.0157       155.0872
       168.3768       174.1094       190.1208       222.1453       238.3146
       245.4077       264.6617       275.3270       286.9282       277.5552
       256.9177       323.6270       386.5833       367.2129       348.7059
       366.2964       394.7932       412.3505       437.6545       450.1045
       456.3140       450.4774       443.5975       468.8309       506.0424
       509.1907       505.6718       529.9967       599.7380       571.5754
       459.4058       441.5894       537.9583       574.3684       516.1370
       568.2827       666.3395       513.8484       367.1240       398.6414
       564.6497       833.6790       799.8148       512.4452       417.5031
       484.1897       659.1597       749.5459       606.8679       440.4819
       434.2837       563.0059       619.4462       572.0897       587.7878
       632.1262       547.5469       407.9751       449.2820       615.2256
       712.3394       625.6598       425.2993       350.8696       505.0725
       604.1945       525.6002       446.3242       420.9678       399.6318
       345.3040       352.8279       418.9464       406.4641       436.5270
       403.4648       161.3810       109.6647       272.2837       307.3864
       245.8057       217.8430       233.9004       99.06416      -39.83725
       92.34448       207.7215       137.9809       76.96756       33.79199
      -77.95291      -45.76062       58.19367       61.14122      -12.07983
      -169.7665      -228.2679      -135.1657      -24.82562      -24.20020
      -101.7094      -152.8066      -222.4922      -200.4355      -128.5165
      -174.8408      -212.9774      -155.4958      -197.4059      -255.2629
      -172.9509      -222.2939      -296.7867      -183.6001      -108.2501
      -179.6583      -243.7686      -291.6130      -346.1615      -382.2878
      -401.8297      -360.2726      -227.9521      -175.9769      -278.9307
      -305.1915      -364.2957      -458.1804      -403.8102      -362.9385
      -431.4270      -403.6077      -318.9885      -423.9388      -492.9176
      -494.3430      -505.3032      -369.7898      -355.6262      -480.9707
      -484.2031      -538.8047      -604.1113      -465.3967      -391.7080
      -455.7122      -430.6589      -488.0645      -578.8119      -542.3406
      -527.4409      -488.9663      -476.1530      -582.1086      -618.3976
      -611.4460      -554.3051      -473.8063      -486.9381      -540.6342
      -630.2727      -602.2665      -445.0850      -450.0668      -551.9980
      -544.4930      -483.1143      -445.0532      -451.6768      -553.6434
      -620.9937      -581.3298      -483.1527      -423.6743      -433.1162
      -421.8932      -455.4445      -522.2524      -470.6313      -365.8542
      -317.8755      -372.7256      -413.1202      -389.3044      -300.8291
      -248.4330      -268.3700      -240.9153      -271.8960      -339.7677
      -276.5592      -160.5888      -108.5046      -139.7939      -179.8462
      -167.0862      -141.6464      -210.9052      -182.8494      -30.91470
      -62.80392      -103.9062      -55.61203      -63.39066      -75.83853
      -136.3523      -109.6156       94.88033       131.7544      -10.15733
      -51.82643      -52.70781      -21.86096       53.24722       57.69608
       72.52733       51.15094       22.33316       112.6091       124.9226
       128.4485       179.9890       157.3723       168.7316       149.6032
       129.3788       190.3907       236.9737       225.0840       237.5613
       238.6215       148.5490       138.3057       206.6014       242.9083
       312.2485       301.0863       293.2125       313.8938       263.1539
       334.3220       421.6051       338.8295       250.7662       259.7710
       364.5079       413.1088       304.9487       352.3177       546.4183
       517.5386       385.4359       403.3105       458.8103       431.4838
       394.6807       383.2753       410.2242       443.7596       483.4767
       578.4270       517.9163       450.1927       564.2156       535.0234
       427.9473       419.9355       422.9177       520.1519       629.1198
       600.9296       458.1141       366.4720       398.7008       395.5579
       409.4548       489.3671       495.5835       451.3269       433.2064
       479.8525       417.4912       324.7808       367.6791       342.5106
       265.6632       341.6586       440.8328       382.6148       335.9014
       256.7515       123.4897       161.0778       149.7121       111.8494
       205.6544       223.1519       152.1185       170.2216       191.6909
       117.4455       50.85544       63.25656       58.49429      -2.104980
       19.21448       134.7435       112.5706       18.60727       56.59308
       144.0285       115.6362       46.89710       3.673340      -74.75647
      -158.4812      -170.0189      -89.34457      -19.35533      -14.16309
       15.75052       3.730270      -20.24918      -69.66644      -167.6843
      -120.0319      -44.69852      -44.22153      -63.72615      -91.32072
      -29.37706       11.07443      -70.89636      -112.3815      -127.0741
      -92.09033      -45.37445      -94.95242      -170.1182      -73.59029
       80.47482      -46.64194      -183.0698      -45.46140       14.43970
      -85.62627      -58.02272      -9.553619      -91.17084      -62.53095
       18.71690      -26.12448      -121.4142      -140.5528      -57.11987
       44.34916       24.57361      -121.9191      -158.1550      -129.0042
      -83.32361      -53.02924      -175.5884      -209.3987      -126.5172
      -116.3993      -80.80011      -55.79706      -106.0291      -148.1298
      -208.9843      -219.7280      -116.1110      -90.76038      -200.4588
      -254.1325      -163.4130      -120.8523      -242.3428      -371.8820
      -285.8834      -140.3424      -218.1304      -313.5092      -254.8516
      -219.8240      -229.7432      -182.9054      -128.8223      -198.4401
      -264.2267      -198.8311      -172.7153      -244.7507      -194.5527
      -53.24719      -73.81116      -181.4577      -194.4636      -152.9668
      -112.6133      -91.91638      -116.1078      -214.0627      -220.6133
      -145.1998      -68.74933      -34.57947      -92.31134      -173.4886
      -194.5985      -153.4088      -142.9733      -115.5269      -52.21387
      -136.3989      -164.4099      -165.2000      -120.2173      -6.814026
      -102.2452      -200.4213      -194.8917      -245.2025      -203.5570
      -208.0045      -242.4655      -155.0181      -72.95743      -111.2766
      -205.9605      -210.7815      -119.5782      -207.4302      -341.9984
      -288.8724      -210.5314      -175.1188      -120.6346      -243.9954
      -297.5134      -218.2139      -233.6907      -135.8260       12.14215
      -71.76093      -238.7197      -274.1600      -170.8701      -100.8811
      -44.61388       90.70233       28.75494      -265.4657      -365.5284
      -184.8130      -40.18768      -83.09680      -80.55229      -5.334900
      -81.22415      -172.4093      -61.56957      -6.075546      -68.39561
      -63.80764      -12.49365      -10.31613       6.765984       9.093826
       8.391998       135.9038       165.3910      -48.34991      -145.6188
      -12.91542       33.71300      -12.55267       124.5490       232.2608
       84.19891      -22.40700       24.84476       76.02557       202.6347
       219.9284       58.61033      -7.060059       61.42224       119.7997
       120.9011       180.4330       242.2329       237.6794       227.8696
       256.4987       292.6436       211.6161       121.9236       166.4961
       235.4393       252.7844       197.4814       176.7032       227.8831
       282.6940       312.9711       279.3300       263.4601       322.5905
       315.7894       303.7519       279.5396       117.9553       110.2195
       283.6198       341.1643       339.7939       331.3157       342.2830
       350.2131       291.8593       310.5535       353.2520       278.2002
       241.5415       253.4613       253.3208       291.9853       232.3855
       122.2972       192.4426       284.2620       188.3916       160.2937
       242.1695       149.7530    -0.04783630       26.61597       144.9647
       282.4287       271.3541       151.9164       144.5058       177.1464
       123.7126       109.9458       175.7741       152.3600       75.22360
       72.82721       158.7103       182.7688       97.75519       149.8167
       238.5286       191.3846       120.2172       65.97493      -23.86707
      -12.43692       123.0919       160.2574       109.7291       81.96146
       78.63208       54.31427       14.21845       9.540390      -34.50928
      -41.68810      -5.811890       11.55997       88.24497       70.05078
      -27.22614      -44.47342      -62.64154      -86.92918      -6.857147
       34.93286      -110.6234      -202.3573      -131.3193      -73.54956
      -88.98949      -93.70541      -30.17386      -52.85364      -226.6823
      -321.8286      -295.5879      -305.8620      -182.6519      -56.63867
      -100.3923      -83.73083      -198.9148      -413.1519      -335.4051
      -198.3145      -192.3552      -161.5449      -162.5643      -179.1549
      -103.0117      -86.18347      -175.9915      -304.4485      -367.5496
      -337.4938      -304.7676      -247.6532      -117.8017      -85.92255
      -190.5303      -159.1656      -107.6215      -225.3468      -306.8647
      -262.3864      -143.4684      -46.63358      -64.66327      -79.35327
      -145.0934      -297.3293      -312.7909      -141.2480       98.83801
       114.2559      -149.5192      -293.7950      -222.7668      -130.3679
      -77.51779      -16.21413       48.83059       9.402527      -55.93702
       4.344284       18.04041      -35.91632      -36.38864      -50.46255
      -93.84492      -95.89198      -47.08023      -1.860046       55.19321
       42.62550       2.248001       60.91757      -27.14671      -101.4212
       30.15587      -31.04193      -165.7000      -155.3823      -104.9237
      0.1992798       43.34521       67.88303       119.9681       51.41275
      -162.0919      -179.7311       21.63431      -19.73463      -109.9943
      -9.469574      -7.902599      -31.84094       54.40910       95.48375
       52.10223       24.07767      0.2671509      -4.654968       97.75945
       124.2153      -60.13686      -97.78430       72.54416       166.1920
       146.8274       210.3673       259.9939       167.2507       106.3130
       130.4006       161.0558       301.1930       512.8264       462.3275
       219.2286       3.013550      -354.2419      -646.9351      -711.9211
      -496.0568       226.8071       1145.236       1714.859       1959.818
       1713.882       1096.292       592.5337       215.0733      -98.92416
      -154.0758       295.4951       1413.044       2319.068       2239.144
       1846.604       1597.229       358.5469      -1580.283      -2219.489
      -1497.975      -872.0675      -511.9961      -159.1449      -67.51013
       80.60535       365.4442       155.4370      -171.6735       155.5562
       999.5526       1017.961      -160.8997      -681.7512      -309.0049
      -481.9702      -649.2238      -257.0508       424.9912       1206.288
       1113.707       383.7446       179.3726      -223.3433      -899.0671
      -655.3140      -152.7231      -373.1140      -357.5645       328.0764
       735.7855       604.8599       550.0276       546.4424      -196.1279
      -1449.177      -1533.210      -628.3313      -359.1421      -374.8431
      -280.7400      -413.8738      -212.5609      -119.1628      -623.0200
      -864.2477      -468.7014      -296.0784      -611.7332       41.12354
       1278.873       950.3057      -371.8608      -1319.143      -1140.409
      -38.73134       123.5017      -346.1202      -34.60364       203.3850
       61.52100      -119.3455      -505.9041      -1066.820      -1329.344
      -962.3443      -380.5265      -146.0848      -96.11145       230.4437
       117.8296      -1105.114      -2115.826      -1541.317       59.97729
       908.0223       475.2067       195.2080       519.0214       448.3062
      -171.8130      -1119.234      -1479.319      -691.2427      -16.86310
       37.09494       46.90607      -38.14230      -151.4054      -120.4917
      -532.0793      -1207.540      -844.3719       26.64508       150.4800
       205.6326       430.3666      -178.2666      -964.5823      -1053.031
      -761.7357      -251.2601      -39.62109      -496.6715      -649.7549
      -381.8694      -488.9437      -592.9802      -368.0433      -494.2874
      -669.7145      -259.3515       134.2809       143.0922      -29.28931
      -130.9919       280.8871       396.4358      -171.1240      -656.5483
      -788.6852      -392.3994     0.04101562      -210.8445      -401.4399
      -671.7393      -1351.448      -1161.861      -34.67285       827.0308
       1211.538       670.3116      -83.54504      -276.7192      -416.2291
      -303.5391      -246.0993      -172.3079       589.6392       826.8795
       379.2723       68.29221      -109.6875      -8.788208      -113.8846
      -344.2944      -141.4981      -50.65732      -63.85132       268.7781
       620.4556       799.1973       1250.439       1438.213       740.3062
       220.3221       275.2034       79.89691      -97.07806      -137.2837
      -226.0625      -250.5516      -116.5063       424.4019       1019.397
       977.5941       533.7753       295.8594       395.6265       718.6440
       981.2002       973.0566       1073.560       1066.931       535.6787
       18.13257      -116.2644      -380.4884      -343.0153       408.9631
       706.3994       474.2168       789.2002       951.5216       465.3595
       237.1150       490.3989       830.2288       894.1055       577.6111
       340.9926       430.4081       559.3927       320.2771       204.8799
       849.1396       1573.438       1440.028       1020.055       1106.583
       1280.466       887.2612       404.2965       82.55420      -373.1964
      -602.8276      -235.3471       54.71637      -225.1891      -185.4080
       646.9048       1190.753       1167.935       1026.335       1025.669
       1036.199       777.1713       671.5802       491.0951      -160.5728
      -126.7751       537.6184       800.6614       610.9849       323.7440
       54.16241      -68.92004      -151.4261      -252.7396      -324.4795
      -444.8252      -408.1132      -158.7293      -8.025208      -55.23572
      -83.17816      -23.45557      -178.0652      -2.727539       802.8945
       1177.592       621.3783       127.2024       51.33630       133.5791
       159.6761      -45.22034      -220.7096      -231.2023      -155.2253
      -275.1379      -592.4951      -743.6606      -1014.242      -963.4694
      -143.8713       365.0403      -40.67432      -477.5024      -719.6262
      -1009.417      -945.9757      -540.8246       9.697144       340.2827
      -167.7048      -849.8584      -902.4727      -666.0815      -626.5839
      -627.3364      -246.6515       134.9536      -159.7883      -442.0066
      -373.3071      -586.4690      -893.5935      -774.4824      -567.3813
      -679.8962      -747.5105      -498.2506      -63.86111       184.2886
      -120.6140      -694.3040      -891.8553      -590.0597      -276.7769
      -141.5585      -273.1763      -520.9631      -534.2883      -531.4580
      -408.0665      -313.1685      -672.5759      -882.3679      -757.1267
      -667.1270      -472.1326      -178.8751      -72.65155      -145.2692
      -192.8483      -286.2488      -475.3303      -389.7224      -192.0715
      -476.8201      -761.6394      -434.6825      -376.5112      -734.6597
      -725.1824      -459.5034      -149.8029      -300.8970      -802.0132
      -660.1119      -280.3403      -447.4330      -552.8292      -259.6735
      -4.016663       253.1046       216.3838      -32.39111       53.49660
       27.34332      -77.25952       71.44971       99.43768       226.0405
       519.6630       366.8373       141.0555       296.4355       204.3718
      -51.70859       86.47028       181.3258      -146.4285      -477.2615
      -375.5061      -25.70660       150.7466       307.7245       439.5280
       343.7568       291.3041       364.7386       223.7831       104.5500
