     0.02500000      -1261.999       1036.265      -12345.00      -12345.00
      -30.01003       220.8399      -22.26000      -12345.00      -12345.00
       0.000000       16.76000      -12345.00      -12345.00      -12345.00
      -12345.00      -12345.00      -12345.00      -12345.00      -12345.00
      -12345.00      -12345.00      -12345.00      -12345.00      -12345.00
      -12345.00      -12345.00      -12345.00      -12345.00      -12345.00
      -12345.00      -30.19290      -68.82820       1323.000       0.000000
      -31.24600      -68.98500       0.000000       102400.0       0.000000
      -12345.00      -12345.00      -12345.00      -12345.00      -12345.00
      -12345.00      -12345.00      -12345.00      -12345.00      -12345.00
       117.7140       7.370131       187.2904       1.058355      -12345.00
      -12345.00     -0.4174418       0.000000       0.000000      -12345.00
      -12345.00      -12345.00      -12345.00      -12345.00      -12345.00
      -12345.00      -12345.00      -12345.00      -12345.00      -12345.00
      2008        16        21        17        58
       960         6    -12345    -12345     10035
    -12345    -12345    -12345    -12345    -12345
         1         7        13    -12345    -12345
    -12345    -12345    -12345    -12345    -12345
    -12345    -12345    -12345    -12345    -12345
    -12345    -12345    -12345    -12345    -12345
         1         1         1         1         1
PACH    -12345          
        -12345  -12345  
-12345  -12345  -12345  
-12345  -12345  -12345  
-12345  -12345  -12345  
-12345  -12345  -12345  
-12345  -12345  BHZ     
ZL      -12345  -12345  
[...]
       272.8778       261.7991       349.7781       466.1025       290.2457
       122.3588       217.3422       310.3230       325.3632       373.3441
       467.8196       303.7232       204.9985       427.0989       423.6263
       223.4452       205.6339       277.2341       266.0535       313.4352
       555.1475       538.5923       391.5669       417.8958       426.7915
       435.0784       446.1650       436.9338       392.7514       298.2705
       343.3456       432.7725       485.3600       471.6605       439.4589
       402.3259       453.0126       604.6007       509.3967       272.9681
       297.4366       563.8320       701.7385       439.0027       278.5607
       352.0439       431.1177       561.8203       545.6443       428.3669
       402.5125       430.7815       527.8979       467.5009       268.5388
       302.2085       438.4968       292.5568       219.7544       452.2953
       559.6208       408.7755       308.4199       363.0820       321.2816
       229.8712       246.7136       280.9133       307.0457       381.4020
       488.7596       302.1461       2.292480       60.68201       257.6630
       334.7099       321.2081       302.3737       265.2786       209.3127
       231.1252       261.1202       305.1123       307.0320       256.3894
       203.1725       263.3724       366.5068       326.4086       243.0834
       129.8206       88.61592       81.72670      -40.05377       66.37109
       258.2606       342.2631       272.1670       47.89784      -23.26614
      -51.46897      -44.39032       145.2176       180.5797       22.86954
       43.91003       203.2731       202.4900       158.9005       120.4372
       5.904236      -155.1823      -197.0416      -39.86320      -26.50261
      -71.59961       34.50427      -53.18958      -281.7720      -296.4785
      -188.4627      -188.8270      -236.0959      -307.7300      -351.0027
      -186.5385      -108.1852      -275.8903      -304.2126      -219.5042
      -388.2738      -601.7371      -402.6964      -178.6521      -286.9492
      -462.5349      -433.8247      -345.5702      -389.0208      -384.9180
      -442.3333      -513.0513      -511.5121      -447.7692      -398.8130
      -632.0728      -630.2080      -482.0564      -522.7249      -440.4181
      -394.7272      -367.2191      -276.1223      -434.3357      -727.2777
      -772.5258      -483.5977      -353.7391      -494.4232      -493.5836
      -491.8347      -540.6281      -519.9194      -524.8633      -460.5552
      -442.7080      -481.0328      -489.2523      -433.2159      -377.9136
      -443.3782      -506.8391      -422.5394      -363.6384      -332.1714
      -254.1353      -343.8136      -496.6963      -413.8477      -422.3871
      -621.0397      -574.7241      -252.1615      -106.6381      -269.7925
      -457.0585      -513.5596      -473.2526      -355.2483      -336.8713
      -460.0367      -492.9399      -322.2798      -148.4184      -94.68420
      -100.6410      -250.0879      -390.9954      -244.1973      -156.3304
      -239.4518      -148.3048      -21.19012      -60.14258      -172.1318
      -273.9128      -147.3427       1.669535      -5.766106      -5.337494
      -42.67075      -52.44450      -30.62847      -34.56380       25.66769
      -15.46459      -47.18970       101.2271       150.0736       25.57467
      -67.48306       40.97656       150.5109       49.46643       30.04071
       138.0195       154.4913       85.40860       118.9325       217.1208
       207.6985       133.1465       68.90906       177.7917       346.9999
       276.7010       119.1859       56.57764       115.4545       287.6646
       301.6029       88.14694       100.1258       250.3481       218.6220
       184.5361       195.0845       179.7218       173.0085       242.1016
       317.9358       300.2180       259.5837       258.1511       204.4772
       124.4696       258.7025       340.6173       309.2180       437.9258
       409.4651       260.4700       320.9117       367.1237       280.2397
       222.7285       191.1011       227.3972       371.4210       404.8274
       381.7782       383.0099       322.0990       337.2272       433.8693
       483.9230       391.0582       317.3258       465.6276       458.6105
       225.0034       220.6171       426.7645       443.3103       292.0125
       347.9712       356.7606       180.3464       144.3605       187.4946
       172.8496       236.7719       414.1700       389.2346       194.9584
       190.0657       342.4436       355.1022       190.1541       62.96634
       101.6640       117.7569       65.94768       39.18484       56.35812
       105.9876       34.20218       55.18753       124.3261       46.68956
       27.15547      -40.34433      -113.9513      -153.3828      -193.3227
      -171.0873      -155.4096      -69.22945      -57.18073      -121.1322
      -135.5189      -135.1287      -173.2734      -331.0496      -354.6879
      -284.6481      -266.6866      -223.6473      -229.4156      -274.9233
      -358.7344      -313.1660      -174.6893      -91.42126      -230.8976
      -483.5021      -469.0099      -353.1002      -251.4808      -147.3442
      -246.7472      -360.7137      -405.9559      -454.1351      -379.5922
      -230.9104      -162.0681      -235.1346      -381.2440      -359.1766
      -161.1254      -66.03619      -198.5170      -234.1165      -116.0562
      -75.16455      -143.5722      -167.1194      -113.9868      -145.4807
      -188.9737      -41.99671       48.15579      -49.22312      -67.19852
       41.54465       79.98016       111.2115       155.9065      0.5876312
      -87.33423       177.3964       329.6652       201.9225       75.25467
       152.7047       185.4136       73.18741       109.4100       188.2712
       187.6616       278.2634       391.8259       402.5422       349.1174
       257.8071       153.6541       238.6000       400.0025       360.6895
       251.6339       241.0887       245.2777       270.5260       345.0671
       464.0012       447.0670       264.8517       267.3524       374.4758
       301.4375       307.0476       410.3308       402.4335       288.7032
       255.0333       320.8757       351.8086       354.6780       385.3605
       367.6149       323.0652       233.2822       191.2451       281.8104
       348.2082       296.4455       265.7833       227.1626       239.7867
       236.2305       175.5012       220.9637       273.9852       244.5815
       261.7910       229.8443       172.1648       118.4952       48.71054
       113.0527       252.3568       288.7227       195.7083       56.34178
       57.49487       56.43834      -23.39477      -26.30856       57.89441
      -10.81042      -169.9911      -94.39616      -12.35248      -116.0269
      -134.9328      -26.40369      -33.36679      -117.7246      -126.7170
      -146.2285      -158.9747      -153.6879      -236.1061      -365.4851
      -252.7558       11.07480      -22.53833      -204.5099      -185.0776
      -223.4395      -380.1825      -384.1564      -289.7679      -325.8068
      -326.9569      -227.2324      -210.3120      -249.2830      -318.5069
      -315.6057      -229.8421      -233.7636      -135.9247      -40.17429
      -86.67566      -213.8193      -396.6482      -404.8474      -313.9595
      -308.8176      -265.9585      -282.8246      -282.5132      -200.9080
      -201.0270      -242.6455      -336.2009      -408.7015      -333.3257
      -264.7955      -274.8588      -248.5276      -162.2902      -120.9258
      -250.5674      -327.3291      -216.9261      -199.1599      -190.7564
      -82.52040      -13.73608      -90.86096      -259.8176      -188.3084
      -19.73853      -103.9854      -295.5988      -310.9731      -153.5354
      -52.75310      -70.91515      -72.75171      -92.50500      -168.3423
      -76.63467       40.41125      -125.3299      -267.5503      -153.7441
       17.19157       56.50085       63.78641       149.3627       138.2573
      0.1300659      -160.6130      -333.3843      -251.7270      -48.18555
      -4.307617      -15.63007      -121.2955      -71.88657      -15.02185
      -263.6403      -269.4722      -288.5562      -614.0679      -433.5643
       44.06332      -86.24707      -225.5798      -36.59320      -141.4904
      -157.4159       158.1149       186.0309       72.66260       430.6255
       867.7056       707.3232       83.30194      -280.1156       266.3917
       804.7562       327.1079      -575.1982      -1107.039      -904.4099
      -189.2522       344.4673       550.4038       765.5059       598.3280
      -53.85889      -420.5549      -634.8521      -926.1631      -947.4028
      -506.4226      -148.4269      -351.8069      -471.7176      -259.7711
       23.97510       522.3000       741.3804       537.0132       351.0802
      -67.38940      -459.1080      -432.5713      -404.0947      -540.2532
      -531.5610      -129.9756       297.0391       477.2815       521.3840
       653.6548       805.8083       403.8749      -307.6591      -397.8860
      -170.5391      -346.7977      -345.0927       72.98059       292.8955
       121.2412      -254.7108      -290.0087       146.5547       658.2756
       1010.445       756.3422       387.4753       430.4984       51.56421
      -599.3577      -693.9833       11.39233       771.7766       621.1356
       360.3159       634.5564       805.2661       599.0209       292.7662
       228.0493       142.5557      -314.3466      -673.8617      -479.8582
       146.0912       570.3306       320.1549       52.93927       138.7148
       229.0962       392.9766       549.5956       327.3888      -5.260559
      -206.0001      -385.5625      -495.0903      -397.7939      -4.753784
       411.1187       470.1505       113.5626      -265.6622      -64.56580
       334.4365       442.6422       335.4992       111.9650      -170.3542
      -258.2265      -84.09417      -19.21575      -5.660263       64.24405
       13.42517      -204.6522      -444.1118      -513.7662      -430.8727
      -132.9810       222.2471       408.9209       369.9890       383.9126
       571.2550       569.4494       249.6111       89.38696       376.1042
       446.5581       33.11823      -228.7463      -200.2031      -157.8419
      -131.8428      -65.51648      -376.2766      -901.1891      -837.2183
      -376.7467      -152.7486      -101.8702     0.08554459       36.01763
      -43.09619       167.5681       360.1720       135.5315       109.6611
       353.6909       321.3229       345.0434       442.1822       25.66711
      -469.5012      -437.1910      -320.6663      -254.8481      -99.59633
       15.38745       158.5187       128.3188      -305.4495      -449.0682
      -86.75693      -3.585327      -266.9797      -342.8949      -178.8231
       99.26831       149.2388    -0.02032471       166.7987       450.6243
       321.3973       258.6697       253.4784       202.3553       168.9222
      -124.9769      -106.1975       2.929932      -194.5201      -246.5539
      -186.7180       119.9717       539.0673       706.2888       528.8232
       236.5779       322.2646       515.8406       241.8408      -58.20221
       7.546021       143.6006       413.7800       672.3772       523.9111
       247.1223       414.5608       696.3643       512.4372       185.8023
      -100.1906      -227.2885      -5.479858       100.5806       98.59656
       302.9775       396.5414       172.9941      -182.6528      -253.0555
       10.16461       184.7944       299.0872       599.3022       816.6646
       885.4404       967.6803       776.4917       368.8262       83.11603
      -141.5321      -176.2213      -13.87550       105.9423      -7.957275
      -24.31079       444.4197       727.9806       472.2054       157.4055
       30.83423       235.0405       416.5679       259.7756      -5.249756
      -126.6721      -105.0879      -92.83160       88.20813       222.8309
      -57.01761      -214.2070      -63.64185      -67.77710      -316.8958
      -411.9923      -317.0916      -238.8843      -187.1899      -118.8990
       48.81171       209.6558       15.23425      -251.4183      -278.5890
      -215.7946      -86.22522      -65.56628      -327.6455      -573.0200
      -586.3662      -550.6152      -589.2246      -492.6493      -499.3713
      -731.5525      -831.8427      -632.4641      -423.7446      -513.3364
      -540.0974      -245.6110      -131.7351      -312.6204      -499.0972
      -506.6772      -575.0276      -833.1433      -1076.425      -1216.829
      -1253.699      -1139.659      -974.6238      -946.7424      -917.3203
      -756.7190      -684.9882      -566.1383      -452.6479      -486.1036
      -465.4375      -331.4537      -127.3061      -119.7189      -474.1753
      -746.8325      -921.1313      -1189.788      -1261.999      -981.8906
      -741.3450      -656.3774      -626.7875      -589.9355      -438.4215
      -296.9323      -211.4266      -258.6715      -462.3641      -392.6934
      -281.3956      -326.2620      -292.1082      -319.2164      -373.0760
      -210.6527      -17.26413       92.10886       152.0082       82.44928
      -113.4261      -163.0904      -126.8864      -126.3907      -106.2724
      -23.24084       121.9308       283.4845       444.5472       494.6447
       369.0785       219.0055       60.17341      -16.23264       77.24603
       66.82639      -61.84906       23.36157       242.6588       381.1649
       477.1018       634.7424       742.1798       555.5524       346.8954
       323.1509       220.4380       186.4226       306.8796       386.7045
       425.3672       485.2332       509.6200       532.3259       563.9053
       541.9359       494.5414       359.4601       163.7003       174.6145
       401.5107       548.0903       579.5847       730.8235       784.7064
       634.5693       637.2603       654.8733       467.7598       332.1693
       312.5008       311.9546       351.0743       339.4961       335.1018
       432.4714       566.8264       648.8572       587.5024       537.4445
       592.0759       637.6775       686.5928       686.8833       686.9854
       529.6066       316.8140       271.3917       180.8250       299.1104
       625.4668       786.0303       832.3037       767.8047       694.8032
       738.0566       685.8439       577.7631       532.8215       387.0312
       380.7195       590.2164       679.8179       583.2681       535.2021
       584.7218       541.2349       483.0114       472.1687       390.6418
       309.9897       260.8682       278.3513       403.3435       423.8665
       225.3692       177.2582       264.0112       272.8740       336.3590
       388.0673       270.0361       122.9691       186.4268       438.4972
       549.3655       382.0787       194.1641       193.5300       141.3841
       50.01089       91.17148       40.83372      -55.21252       4.804443
       178.6198       328.8141       315.7384       246.3431       284.1058
       293.0134       345.0222       606.1731       595.8910       183.0976
      -47.05463      -74.60281      -136.6375      -218.2059      -278.1635
      -281.2888      -202.7017      -78.08707       11.57349       24.15698
      -109.4510      -321.7669      -339.0996      -235.4816      -204.6512
      -175.1064      -183.5432      -288.2220      -449.0413      -571.8904
      -605.6396      -586.5417      -553.7361      -515.4344      -318.4035
      -91.68250      -174.2330      -374.2386      -326.8777      -175.9840
      -272.2863      -495.7800      -594.3228      -655.0396      -756.1182
      -758.4348      -672.4392      -670.2839      -649.5334      -508.2551
      -459.7637      -555.8326      -602.9216      -627.2354      -679.4734
      -741.4834      -750.1189      -666.4133      -641.6223      -733.8838
      -889.1885      -942.4932      -853.4800      -772.1711      -755.1389
      -828.5217      -881.8525      -883.2222      -881.5093      -906.7192
      -999.7295      -999.5415      -927.6899      -868.7505      -850.4590
      -930.3062      -924.4697      -815.9072      -718.8367      -676.3777
      -758.4399      -805.4946      -765.6470      -798.1509      -898.5205
      -930.2778      -751.5083      -605.7944      -632.1726      -660.3157
      -719.7333      -675.8942      -461.0963      -295.4198      -301.9880
      -306.8347      -278.4736      -335.6042      -488.3752      -599.6598
      -552.3374      -492.7197      -519.7023      -501.7168      -484.9756
      -531.5573      -578.7861      -589.8024      -543.2466      -396.8098
      -314.3290      -390.3688      -397.7503      -156.7389       42.09851
       50.40778       94.03210       153.8758       162.6068       157.4521
       62.74491       20.90619       74.83749       45.86265      0.8461609
       82.85564       96.58011       43.26477       63.35187       91.35120
       206.4812       370.3474       350.9902       235.5021       271.7266
       452.0381       529.1404       407.8987       312.8284       365.9325
       375.7388       334.1252       379.7764       387.5396       387.3488
       480.0165       516.9392       504.6576       595.8159       689.0029
       669.1208       613.4241       599.9954       577.5431       572.5742
       706.3650       803.7744       705.3301       633.9592       616.0190
       602.6384       684.9458       746.2083       686.3137       666.0962
       763.1836       801.3628       769.1885       908.2871       1036.265
       974.2468       876.9927       832.2483       874.4634       929.4836
       829.6589       752.3015       763.7527       721.0718       751.3208
       792.6904       707.8071       693.5293       741.1892       746.3127
       760.7056       826.5730       870.7212       835.1477       747.7949
       742.4231       726.5830       587.0331       491.2769       507.7048
       538.9033       510.0305       472.6609       581.4429       739.5752
       738.2197       652.1682       626.5859       681.9370       736.0801
       715.0721       675.7271       635.2405       517.9332       413.5947
       494.4167       611.7483       573.1754       490.8970       444.2388
       408.9788       439.3185       464.7483       416.9059       354.8815
       332.4142       370.6885       305.6273       238.2318       358.7144
