     0.02500000      -2293.394       2647.148      -12345.00      -12345.00
      -30.01003       220.8399      -22.26000      -12345.00      -12345.00
       0.000000       16.76000      -12345.00      -12345.00      -12345.00
      -12345.00      -12345.00      -12345.00      -12345.00      -12345.00
      -12345.00      -12345.00      -12345.00      -12345.00      -12345.00
      -12345.00      -12345.00      -12345.00      -12345.00      -12345.00
      -12345.00      -30.19290      -68.82820       1323.000       0.000000
      -31.24600      -68.98500       0.000000       102400.0       0.000000
      -12345.00      -12345.00      -12345.00      -12345.00      -12345.00
      -12345.00      -12345.00      -12345.00      -12345.00      -12345.00
       117.7140       7.370131       187.2904       1.058355      -12345.00
      -12345.00       2.042910       90.00000       90.00000      -12345.00
      -12345.00      -12345.00      -12345.00      -12345.00      -12345.00
      -12345.00      -12345.00      -12345.00      -12345.00      -12345.00
      2008        16        21        17        58
       960         6    -12345    -12345     10035
    -12345    -12345    -12345    -12345    -12345
         1         7        13    -12345    -12345
    -12345    -12345    -12345    -12345    -12345
    -12345    -12345    -12345    -12345    -12345
    -12345    -12345    -12345    -12345    -12345
         1         1         1         1         1
PACH    -12345          
        -12345  -12345  
-12345  -12345  -12345  
-12345  -12345  -12345  
-12345  -12345  -12345  
-12345  -12345  -12345  
-12345  -12345  BHE     
ZL      -12345  -12345  
[...]
      -285.5082      -329.8478      -327.5681      -268.8082      -243.4250
      -243.8671      -241.7040      -236.8804      -213.7855      -206.5840
      -209.9713      -161.7331      -146.4544      -164.2239      -127.6807
      -81.28839      -114.3646      -143.9346      -102.6004      -57.38722
      -17.93348       24.03744      -6.410561      -49.30167      -19.17888
       30.65945       35.85951       38.61876       40.64651       49.92313
       72.92010       117.7466       160.8164       134.6651       52.78775
       59.03876       152.4452       192.7496       189.1984       201.8961
       176.5171       151.9520       179.0015       220.1655       242.0490
       240.2388       198.8867       203.4250       272.4441       311.1106
       275.1727       206.1841       189.4639       261.0490       329.2212
       331.5657       282.8071       236.2404       228.2583       261.8714
       275.8885       261.6978       257.2322       282.8534       285.7471
       233.5110       201.6301       256.0546       281.4935       248.6890
       229.2872       244.6067       259.5393       250.2384       231.5830
       211.2504       159.8612       128.1219       177.1250       219.5434
       165.3756       103.4352       115.4930       170.0561       166.6754
       143.6843       134.6140       82.88281       57.78760       105.1267
       117.6169       103.4596       101.4568       120.6477       102.7638
       56.04756       36.98981       78.86957       124.9052       120.5204
       113.5111       138.9615       105.1430       65.05530       69.64340
       117.9514       159.1196       159.0632       109.9727       84.88562
       117.8763       208.6553       218.1710       133.8175       116.8217
       198.2167       230.9077       190.3820       128.6128       132.1878
       171.6466       215.6754       225.2922       137.7512       67.92212
       147.0151       199.3861       160.6053       106.1309       96.85724
       147.9573       149.2669       74.45078       89.42102       92.09885
       57.75732       68.65347       87.35983       56.81454       45.82144
       45.29412       50.18068      -2.720890      -37.44420       12.59478
       56.41762       5.758179      -19.79594      -6.416153      -20.03340
      -79.89662      -64.91169     -0.5764351       21.60109      -48.19791
      -97.68297      -96.50909      -10.35691       28.44818      -116.8533
      -261.6086      -171.4405       94.20079       189.5159      -169.7862
      -374.3562      -186.8263       20.82599       147.4640      -53.74463
      -285.7275      -219.6588      -273.0518      -81.33104       105.8130
      -128.9957      -119.7785      -249.6180      -466.1664      -101.4584
       82.21472      -213.6428      -421.9871      -329.8066      -241.2766
      -242.7043      -258.5330      -348.2246      -375.2281      -281.9493
      -271.2803      -299.2386      -418.7196      -446.2153      -370.4069
      -276.6369      -155.8320      -294.5897      -603.6210      -643.3403
      -387.1357      -81.95361      -238.9877      -525.4507      -530.5166
      -531.1036      -321.7493      -80.34741      -278.1118      -426.9971
      -423.2788      -375.7421      -329.0144      -379.3027      -322.3016
      -275.2900      -438.3341      -415.8461      -225.7799      -208.2023
      -299.0502      -270.8912      -308.1102      -221.9609      -229.1061
      -317.5076      -185.3470      -147.4668      -196.0868      -255.0330
      -262.8412      -119.4010      -78.87122      -123.8487      -155.5326
      -75.96261      -30.66591      -63.32773      -55.09042       76.43163
       86.82953      -18.09042       45.31888       64.62695       112.0469
       259.7498       130.4112       122.3052       159.8651       132.4531
       381.7900       458.6011       160.9672       192.9617       402.3885
       354.6737       310.0728       414.8846       434.4336       342.6013
       322.1902       490.0249       418.5786       318.5623       596.0377
       635.4375       382.8180       366.7125       349.3179       479.1543
       636.5215       532.2236       585.0714       522.1953       300.1284
       601.5969       676.1116       475.6121       617.1653       571.1621
       377.5078       525.8005       616.0110       506.2046       403.2585
       443.5535       558.8352       577.2662       509.2277       435.2617
       370.8191       390.0283       387.1682       485.2041       579.0959
       462.6428       357.2012       362.5540       402.4583       498.8718
       445.7113       311.7579       349.0720       357.4987       155.5006
       170.9056       322.5760       389.2859       289.6394       67.69830
       73.28296       258.2478       212.9435       168.0013       64.47044
      -48.85965       49.11079       78.37494       12.72978       64.12073
       86.28328      -15.25266      -92.31052      -51.55530      -109.4716
      -119.8697      -62.00983      -15.85602      -99.34454      -238.0210
      -158.5430      -53.75696      -238.2703      -348.1530      -255.6946
      -195.3774      -202.8265      -154.4883      -263.5223      -399.0270
      -382.5673      -336.6958      -281.8917      -287.3494      -395.8634
      -386.9890      -362.9448      -312.7764      -365.0560      -515.2561
      -455.4520      -369.7067      -377.0532      -427.5280      -563.8066
      -511.6064      -463.1237      -579.6085      -547.8940      -387.2119
      -406.8364      -570.3110      -604.0424      -454.5270      -389.6500
      -440.3407      -471.1161      -503.5598      -558.4325      -484.8040
      -375.1641      -426.1423      -581.7897      -522.7751      -390.3917
      -451.6317      -557.2980      -520.8993      -469.4500      -489.3965
      -425.3427      -355.3837      -477.5162      -477.7909      -386.7834
      -429.4331      -444.8702      -426.5774      -405.3721      -390.7391
      -539.0765      -532.0658      -353.0073      -400.1624      -447.7225
      -327.5336      -412.6890      -499.5210      -448.4108      -419.6691
      -400.4106      -382.1111      -279.9280      -147.3503      -145.1904
      -272.6229      -418.3604      -300.3385      -159.6464      -227.4208
      -229.9399      -223.9884      -246.3653      -60.66384       14.71588
      -120.8451      -141.1449      -57.49991      -52.56509      -47.28056
      -30.68585       52.02263       57.72839       50.48285       170.8970
       225.0668       132.3969       184.7466       267.0255       173.1667
       199.5579       318.5363       390.0475       513.6045       428.5247
       319.5940       409.1644       534.1526       507.4868       387.0502
       372.2339       480.1942       497.4237       402.6116       468.4456
       562.0364       562.1383       535.6284       426.4655       460.8459
       395.0103       354.9031       581.0314       554.5913       503.5637
       606.3446       474.0327       496.4934       623.5464       528.8096
       490.3184       557.6813       475.0775       459.2341       597.7020
       573.5210       459.8790       510.2346       611.5205       710.9510
       649.7936       458.6189       394.0784       473.3972       554.5663
       551.5266       508.9893       571.6248       605.0173       488.5336
       441.1577       537.4812       473.6423       445.2173       541.0861
       514.9465       565.4587       610.7012       400.9618       274.0009
       291.7299       299.6019       296.4414       397.3123       534.0587
       488.6868       254.2617       212.3423       299.7555       317.2094
       364.6881       329.4235       161.2533       193.8614       338.5913
       323.5756       313.7739       358.4589       233.4469       115.3151
       125.6608       188.0896       224.6656       159.0906       127.0181
       144.3516       97.80927       136.0244       182.9889       151.3699
       163.3795       140.9217       84.70884       53.87505      -75.73309
      -104.4274       2.095673       60.06860       38.67853      -9.465881
      -74.00830      -162.5785      -173.1638      -67.64011      -116.0300
      -251.0635      -238.2896      -161.6697      -149.8878      -150.9701
      -254.0300      -360.7566      -319.3785      -327.5930      -446.1049
      -436.5500      -397.7615      -351.8334      -329.0444      -528.7997
      -637.0338      -444.1826      -372.3362      -501.5601      -627.8091
      -630.5317      -613.4402      -663.1239      -651.6387      -514.1184
      -574.1829      -735.3898      -664.9463      -653.1848      -807.2681
      -830.2947      -677.4929      -584.6816      -673.0220      -720.6064
      -626.2454      -672.9504      -771.8921      -698.7451      -710.3008
      -695.0366      -671.4189      -812.4104      -743.4221      -665.3896
      -829.7163      -784.9154      -543.1084      -517.7422      -656.8104
      -671.7183      -611.6625      -640.9468      -645.7595      -635.5332
      -636.9386      -624.7877      -620.9150      -555.3875      -495.6982
      -545.7872      -533.2571      -431.9216      -412.3226      -503.5520
      -534.8817      -448.1665      -474.1279      -462.0151      -331.0991
      -414.5544      -538.4855      -399.6954      -326.3583      -520.6809
      -427.6200      -231.3928      -414.6317      -448.4521      -348.7095
      -386.1859      -321.8431      -275.4539      -345.4051      -342.8923
      -238.9510      -201.9023      -268.5658      -369.0377      -353.7675
      -223.3904      -231.6817      -302.4396      -224.0833      -136.2983
      -185.3543      -220.5804      -202.0896      -93.95844       1.445145
      -79.56454      -19.99939       124.9064       70.91853      -4.503952
      -38.43355      -4.805176       165.0553       203.6427       155.7368
       180.8677       211.2509       283.6321       363.9292       378.9099
       367.2665       387.4529       355.0240       298.1433       434.7443
       583.1951       556.7927       566.2499       593.3438       498.0286
       539.2988       698.7571       664.5743       606.7734       717.8647
       763.8408       812.5017       779.6715       574.6790       603.6926
       804.4783       807.7100       792.1929       805.7866       684.7952
       588.0547       702.6843       805.2954       819.6130       896.0505
       865.8066       710.8159       748.1860       865.1194       882.8162
       820.1870       787.8098       857.4790       881.5457       930.9312
       1026.408       1016.668       941.4824       929.0840       1003.841
       936.0007       775.1299       724.7495       741.3591       840.1362
       917.9023       909.5325       879.6982       776.7852       678.4596
       652.7676       719.4241       772.9780       805.3240       860.0708
       812.2869       679.6747       521.2607       520.9474       669.4097
       586.6377       461.8911       562.5665       533.4865       361.5879
       450.4700       495.5085       324.0696       278.9604       241.5855
       179.6880       214.3374       241.6118       373.1631       405.4019
       223.9953       160.4803       173.6497       109.3379       31.98293
       7.173157       89.39603       94.07860       27.72195      -38.92993
      -168.8434      -168.2711      -51.47058      -84.59244      -132.5327
      -125.8610      -151.4244      -182.1285      -250.1345      -295.4698
      -218.0559      -187.2932      -380.3552      -498.6469      -392.9642
      -299.2878      -197.6553      -170.7747      -422.9348      -589.7141
      -488.6628      -450.5786      -513.7460      -545.8499      -491.7236
      -422.7378      -480.4355      -569.5219      -549.7784      -467.2576
      -484.4233      -612.5535      -737.8350      -727.6282      -650.6011
      -638.0298      -589.8064      -724.7908      -856.5162      -598.8801
      -451.9196      -553.0564      -682.9563      -770.7722      -623.8486
      -536.9282      -674.3054      -806.1116      -816.7607      -685.7361
      -704.7830      -842.1567      -736.5356      -672.2771      -711.8451
      -623.6045      -634.8904      -619.9282      -513.8625      -633.8806
      -827.6819      -860.2606      -673.6914      -550.6746      -533.0887
      -534.6311      -717.9856      -749.9801      -632.9360      -617.9796
      -609.7737      -668.0342      -720.7461      -677.4248      -736.9102
      -778.5247      -661.2671      -654.6814      -746.1180      -648.3140
      -480.8707      -463.8915      -603.2495      -690.0554      -610.9225
      -497.8269      -417.7783      -592.2915      -841.9893      -708.0301
      -327.7714       107.0102       198.2612      -266.3467      -913.6846
      -1554.523      -1918.747      -1756.567      -1284.247      -826.1497
      -561.3176       67.64941       1463.665       2647.148       2511.198
       1013.912      -892.3535      -1628.659      -1169.322      -801.5342
      -476.7275       303.8110       1006.173       530.2715      -1201.160
      -2293.394      -1380.097       815.6289       2096.960       1212.894
      -3.649780       202.5212       829.3882       650.4240      -103.3243
      -49.22559       1391.024       2179.695       821.1606      -966.4200
      -1082.418       231.2949       1377.410       1412.522       278.7761
      -801.8515      -407.0012       968.8762       1656.052       724.4993
      -560.8670      -376.4133       209.2825      -71.31360      -67.50708
       529.2168       726.8801       988.8931       1629.665       1458.271
       611.3660       398.7587       322.2898      -167.9349       71.81079
       1150.968       1387.876       883.9319       337.2834      -366.4799
      -203.9213       518.3467       663.3696       716.9199       1050.074
       1233.844       849.2529       696.7026       866.7856       499.4347
       359.1006       954.1482       1249.543       818.6099       423.2603
       855.3467       1457.158       1408.062       1013.940       112.6238
      -789.3807      -502.4128       315.5139       769.5391       817.9688
       620.9614       890.5776       1106.903       722.4424       974.7026
       1473.198       1449.696       976.0325      -312.5112      -1190.295
      -703.7676      -197.3994      -60.61182       296.1219       563.1858
       474.8726       522.5985       506.9514      -7.103699      -161.1379
       272.3853       507.6096       200.8646      -283.3743      -119.7971
       558.6035       726.9822       180.8860      -361.1082      -373.8126
      -185.6510      -206.6754      -160.3360      -77.90607      -189.9058
      -318.7300      -526.7736      -477.1696       41.27571       95.47363
      -309.7384      -473.3261      -255.5105       255.7437       645.6897
       461.0887      -27.73286      -88.32672       221.4830       317.0336
       365.8285       527.9403       218.4207      -526.7412      -953.1436
      -991.4883      -599.6372       160.5018       571.7194       57.14355
      -798.5873      -791.8037      -345.4692      -753.6440      -1298.281
      -945.6602      -555.3621      -651.5062      -345.8542       358.5299
       450.3040      -142.6395      -49.06152       948.7847       1142.044
       344.1619      -103.1678      -333.3104      -650.5603      -589.2446
      -384.9047      -299.0506      -110.5689      -57.91553      -297.4565
      -767.1938      -1055.162      -932.7866      -644.1451      -259.3759
       4.414093       6.571777      -385.9846      -757.3759      -381.3076
      -324.4331      -903.0796      -776.7885       185.3723       914.8077
       738.5974      -187.5688      -905.8147      -597.8088       104.3564
       72.16846      -384.7722      -460.2775      -138.8296       77.35388
      -308.8718      -827.3457      -945.3877      -1137.859      -1334.619
      -929.8447      -406.2771      -304.7765      -243.2387       1.718262
       217.7538       113.7257      -188.5488      -744.0664      -1444.410
      -1419.081      -688.6016      -122.9408       3.370552      -22.08112
       129.9246       449.5527       455.6832       116.3378       2.795410
      -145.4985      -547.8771      -593.3459      -316.7465      -228.5238
      -360.3706      -442.6476      -368.1152      -119.0096       166.1927
      -60.24609      -631.5322      -787.2256      -598.7687      -421.4146
      -265.1709      -523.3308      -1038.352      -1081.219      -626.5547
      -123.4131       200.2322       324.7484       152.4677       322.1143
       1002.177       1135.703       693.8253       419.9276       426.4734
      -135.9080      -1085.934      -1290.438      -1454.035      -1826.418
      -1198.511      -154.9078       396.1428       687.5145       545.0748
       259.8110       331.3259       299.7815       308.6138       715.2723
       569.6404      -179.4185      -425.0209      -108.2937       381.5447
       555.7916       396.1095       370.9777       326.1464       320.7874
       434.7786       529.5848       601.7114       504.9812       500.0200
       718.8689       757.9978       645.7399       548.7523       380.8423
       418.9900       616.2697       536.6150       240.3145       162.4986
       353.5411       285.3649       246.4414       725.0496       1052.493
       889.5526       654.1436       494.2239       554.8831       711.5815
       704.2061       756.5427       881.7739       828.3438       458.8615
       224.2085       558.8020       745.8076       611.1196       750.0352
       922.7412       712.5720       319.2816       19.91345      -3.209412
      -62.94226      -216.3633       86.08862       522.0654       724.2217
       820.8684       586.9390       309.5845       383.9972       425.1191
       5.582458      -304.4257      -14.82324       207.7173       161.6690
       71.55089      -22.72476       62.35526       147.8582       103.0272
      -13.79224      -80.31711       20.04449       90.99341       130.4821
       308.6321       463.6417       361.8381       65.78009       128.1328
       354.7726       109.2776      -314.7590      -461.8181      -430.8772
      -587.0748      -700.4452      -391.0032      -269.0938      -646.1487
      -858.0176      -605.7686      -273.8679       32.59729       327.7610
       438.7775       326.8871       254.1667       458.5981       645.0287
