     0.02500000      -971.1536       1038.134      -12345.00      -12345.00
      -29.99002       225.5600      -26.34000      -12345.00      -12345.00
       0.000000       19.68000      -12345.00      -12345.00      -12345.00
      -12345.00      -12345.00      -12345.00      -12345.00      -12345.00
      -12345.00      -12345.00      -12345.00      -12345.00      -12345.00
      -12345.00      -12345.00      -12345.00      -12345.00      -12345.00
      -12345.00      -30.27030      -67.72450       1286.000       0.000000
      -31.24600      -68.98500       0.000000       102400.0       0.000000
      -12345.00      -12345.00      -12345.00      -12345.00      -12345.00
      -12345.00      -12345.00      -12345.00      -12345.00      -12345.00
       162.0660       48.45228       227.8108       1.457125      -12345.00
      -12345.00    -0.04103081       180.0000       90.00000      -12345.00
      -12345.00      -12345.00      -12345.00      -12345.00      -12345.00
      -12345.00      -12345.00      -12345.00      -12345.00      -12345.00
      2008        16        21        18         3
        40         6    -12345    -12345     10223
    -12345    -12345    -12345    -12345    -12345
         1         7        13    -12345    -12345
    -12345    -12345    -12345    -12345    -12345
    -12345    -12345    -12345    -12345    -12345
    -12345    -12345    -12345    -12345    -12345
         1         1         1         1         1
RINC    -12345          
        -12345  -12345  
-12345  -12345  -12345  
-12345  -12345  -12345  
-12345  -12345  -12345  
-12345  -12345  -12345  
-12345  -12345  BHN     
ZL      -12345  -12345  
[...]
       137.3849      -25.08115       131.8525       117.4860      -62.94339
      -50.14397       30.35547      0.3032150       8.949684       28.32346
      -131.6245      -72.70619       46.41557      -77.05545      -41.13184
      -41.92566      -173.4401      -167.2486      -44.94783       11.44934
      -106.4234      -218.4665      -160.1910      -97.13409      -124.5254
      -98.22095      -248.7968      -318.4242      -153.4423      -75.36475
      -159.0881      -398.3840      -286.5483      -97.92755      -158.7549
      -192.4130      -395.9083      -338.6783      -105.2985      -205.6460
      -345.7800      -374.3806      -258.1342      -204.8002      -309.6489
      -400.4308      -361.8436      -260.2447      -336.6371      -241.2234
      -112.0198      -389.7446      -465.4888      -284.3304      -292.7676
      -342.6187      -366.6031      -303.0596      -304.8032      -318.1436
      -272.7523      -339.1779      -325.0790      -304.0881      -380.4127
      -280.6122      -144.0410      -311.2903      -359.6107      -234.9969
      -344.0354      -351.8628      -220.6683      -183.0175      -303.9060
      -325.4919      -154.2434      -147.6360      -264.0680      -227.0121
      -257.5396      -258.4119      -214.0116      -227.6758      -134.0266
      -133.7438      -253.6119      -139.7161      -29.04694      -179.1432
      -227.5061      -74.34521      -23.57483      -209.6079      -166.9910
      -41.27200      -115.9609      -44.07507       13.30103      -104.3103
      -120.9577       36.19748       18.29306      -133.8177      -100.6493
      -12.18182       97.61211       75.19412      -166.1016      -56.48035
       161.4964       64.04012      -32.24117      -47.17087       41.69778
       166.9897       33.21213      -151.0504       88.19244       247.0271
       105.0323       18.78699      -8.620728       85.51425       181.8323
       76.41989       69.50702       139.9880       71.63965       148.2884
       221.0078       70.96393       123.3750       201.3733       115.5927
       115.6970       98.99139       85.10510       183.4707       227.9405
       113.7712       124.2361       361.1375       190.1974       36.45676
       125.3220       117.0513       211.9620       99.77606       117.5532
       259.2997       123.6477       84.08557       146.3871       221.2623
       204.1407       132.8496       90.43890       101.0854       170.8579
       141.4711       131.2778       114.7018       44.10660       113.3652
       150.9372       127.1057       56.74904       1.323944       150.7502
       117.3778      -25.59125       32.24265       20.34721       74.40267
       69.31564      -87.16606       5.947437       35.58218      -42.77726
      -46.09064      -18.46709       22.98062      -33.00995      -101.6432
      -71.27449      -45.77331      0.1868286      -53.50635      -243.8812
      -104.6637       34.09674      -155.3520      -132.8631      -20.11536
      -115.7313      -194.8972      -118.2050      -94.64484      -100.0820
      -63.92584      -72.36658      -115.5118      -105.2880      -13.21103
      -54.31995      -203.8419      -171.0045       25.40403       63.64801
      -93.88177      -166.4406      -93.00954       35.40917       56.87628
      -134.2193      -113.9665       34.30201       22.78639       61.31290
      -50.29170      -64.01605       120.0633       26.01887      -25.26133
       3.030594       42.49570       101.2488       72.77605       52.38485
       8.791389       35.27292       46.62390       64.20544       134.5038
       121.6996       49.17508       13.28152       92.59299       134.2112
      -4.878632      -20.25067       209.2789       126.5430      -5.170288
       153.0176       164.1219       100.8611       25.35185      -7.222473
       68.72522       157.4361       158.3273       79.83676       90.01752
       107.9625       201.7954       191.1349      -1.930702      -65.47565
       100.4562       266.4380       131.0635       43.21472       129.5527
       24.79605       106.8799       154.3958       63.09943       136.4108
       50.48849       62.95557       146.5401       57.27100       50.60161
       66.40857       71.46228       25.37943       118.3222       159.8341
       39.98676       59.18215       16.17074       10.31589       89.99562
       10.57251      -9.968954      -6.200546       15.09454       193.7850
       108.4004      -81.75198      -18.54092       113.6735       42.65076
      -141.4038      -6.528748       179.2730       40.50450      -53.96599
      -34.76101      -66.04796       30.63987       98.22388      -94.93478
      -194.4512       6.175751       55.39249      -91.89256      -73.63872
       22.17639      -50.56436      -103.1188      -52.78702      -55.57751
      -42.27951      -67.92032      -112.4294      -66.17291      -56.94289
      -74.52029      -93.46533      -178.7064      -235.3109      -72.96949
      -4.776524      -39.94048       24.05688      -169.2686      -281.0124
      -46.12396      -83.53708      -205.2591      -32.30588      -39.24054
      -259.7619      -126.4209       49.99292      -73.92352      -234.3799
      -162.8365      -40.50031      -85.70886      -138.4275      -138.0745
      -106.1789      -73.68335      -96.65442      -191.4056      -159.2102
       48.10403      -26.93054      -215.7059      -135.2358      -31.22449
       24.43802      -15.82843      -90.22412      -83.21826      -115.1122
      -77.57116      -6.738068      -24.05664      -112.7004      -83.37434
       42.31131      -11.47029      -16.90515       70.73935      -51.15577
      -23.96307       84.22237      -38.95032      -25.52582       109.9958
       101.9071       27.06754      -16.43317       98.53040       148.8583
       38.70477       62.56879       203.7286       197.3207       74.70804
       42.35590       174.0251       196.7342       105.4023       166.6662
       201.5834       222.8120       327.0430       181.9280       84.66272
       244.7816       276.1361       186.3801       209.2723       225.8318
       205.6412       168.9531       215.7802       288.6799       309.2924
       219.9963       43.13513       152.1165       362.2729       288.7655
       180.0647       205.0569       175.7908       131.5601       274.9034
       252.8501       73.50409       159.3129       215.4168       132.9058
       82.55276       140.4655       185.2029       44.79494       49.76562
       100.3934       133.2658       163.1573       32.09340       70.13884
       58.09750      -50.32387       93.77372       38.12581      -87.24281
       19.62159       25.96777      -26.18269       24.30813       23.01227
      -106.8060      -53.24049       20.88934      -145.5470      -66.53065
       109.7098      -159.1639      -265.9291      -1.096344      -38.81912
      -136.8627      -89.86215      -157.5122      -119.9113      -43.72787
      -140.0819      -160.2507      -144.8190      -194.2998      -99.16693
      -108.3636      -210.1867      -169.9176      -214.0838      -170.2368
      -97.58105      -229.5887      -195.0893      -188.0131      -196.7351
      -121.4072      -276.5939      -272.8947      -93.82141      -178.2196
      -278.7493      -182.5837      -179.5887      -275.5216      -230.6392
      -153.2386      -162.5895      -216.2261      -270.8488      -303.5570
      -212.7499      -108.5741      -148.5095      -218.7437      -261.7781
      -312.6713      -287.3204      -121.1323      -67.35809      -261.3751
      -275.9132      -162.9306      -174.6302      -147.0162      -204.4024
      -274.9945      -193.1955      -194.6445      -150.0518      -171.8093
      -252.4241      -175.4908      -181.4057      -196.1991      -97.09174
      -173.4547      -246.4226      -202.0623      -145.2344      -142.1068
      -174.5209      -144.4140      -169.9318      -166.0915      -122.5378
      -175.1581      -205.8593      -166.5569      -116.5345      -122.8751
      -12.27155      -64.97278      -257.6440      -156.3432      -102.6483
      -127.6002      -53.38721      -98.21146      -107.2094      -110.0701
      -133.3779       41.57697       79.85144      -190.1345      -212.8350
       62.20330       61.02995      -69.34575       4.990448      -60.45020
      -128.3582       42.56804       28.60241      -5.183411       86.69012
       34.91173       16.36954       41.88138       111.7389       131.9725
      -22.52066       27.45413       201.9866       100.3716       93.77863
       196.6261       77.68475       12.93329       145.0257       160.3951
       99.40921       158.3190       142.3776       167.0164       244.9405
       117.6945       130.8356       228.4731       122.7437       174.4649
       248.4494       165.3942       212.8885       202.2661       216.5203
       298.4896       145.7882       148.0919       308.7530       182.1697
       112.5848       275.8789       294.2693       149.6904       205.2957
       310.3672       212.7805       166.1203       270.2682       312.8003
       283.9586       123.1355       106.0237       322.1389       273.6005
       144.2249       265.0143       310.2053       191.5371       169.1464
       322.6238       327.1275       212.4127       163.9092       176.4244
       286.4079       295.2408       93.64160       161.4812       297.4749
       220.1601       167.4849       176.9417       231.3108       182.9821
       180.6047       226.5242       97.92657       137.7391       257.9109
       197.7499       145.3000       92.55182       133.3736       136.1507
       35.87000       67.10718       148.0532       267.9595       101.8485
      -69.59297       54.43298       114.6656       67.37520       17.41202
       20.59360       62.12402       25.96857       25.93997       73.88527
      -17.41478      -20.09416       30.33783      -35.85033      -16.84568
      -13.97641      -80.25693      -117.1731      -95.49516      0.5911598
       34.68758      -15.02936      -47.52802      -145.3616      -156.6050
       3.773708       18.88696      -93.46593      -84.04904      -74.99881
      -160.3242      -124.2074       11.21771      -54.33444      -151.5579
      -81.54124      -57.09174      -9.213730      -12.90823      -125.7811
      -92.98935       18.42325       1.205658      -84.30788      -44.55447
      -62.83600      -169.6272      -59.43875       69.73511      -97.78595
      -160.0956      -43.77106      -99.18456      -68.73994      -10.92310
      -156.2021      -129.4494       31.24513       17.44022      -34.18971
      -9.182220      -118.1676      -136.6268       15.14438      -44.81630
      -85.64398      -55.08661      -93.74915      -73.10459      -41.50102
       67.14670      -17.37204      -190.4132      -38.71970       142.1474
      -12.28235      -165.2448      -45.65567      -42.44492      -143.0607
       12.87019       99.95110      -16.28741      -96.02219      -148.5924
      -21.04736       93.53342      -81.22574      -130.7964      -33.24603
       84.61987       200.1736      -4.113068      -152.1211       53.08237
       94.19246      -44.18243       92.84265       138.8467      -67.19966
      -62.79167       67.22931       106.1821       122.2614       60.63378
      -2.628693       112.7260       127.7805       68.45654       108.5340
       146.0188       100.1370       153.2556       261.2830       159.8007
       95.00754       143.8109       63.41568       80.08252       241.4149
       256.2780       231.4004       87.77174      -58.27910       80.67937
       53.13953      -228.9572      -101.5314       117.7209       5.843552
       14.14899       23.45972      -209.8822      -388.8308      -345.5792
      -338.4980      -553.8914      -534.0428       16.62085       430.9120
       229.6264      0.2316284       251.7800       218.7889      -141.7693
      -81.07886       259.3219       554.5220       458.8358       165.0075
       12.32764      -328.5139      -228.5698       378.9248       230.5270
      -356.1049      -171.3481       384.3899       193.4709      -391.3483
      -636.4883      -561.4639      -92.35571       29.74408      -290.6514
      -118.1011      -19.09134      -78.10986      -84.23492      -164.5312
      -547.5675      -971.1536      -56.06683       300.3358      -596.5807
      -513.2789      -299.7336      -658.4878      -639.2324       23.43753
       194.3956      -18.32275      -143.7629      -619.4210      -327.8188
       23.13953       92.16895       565.2229       38.72314      -664.3486
      -516.9542      -81.93384      -10.14795      -545.0369      -408.5684
      -2.216324      -35.06354       49.95337      -300.2802      -454.6550
       9.205444      -131.5764      -317.0850      -489.8534      -858.0974
       225.8010       1038.134       180.9253      -449.4231      -817.8367
      -381.8060       468.4302      -107.2544      -652.4432      -525.1141
      -359.1666       327.1251       282.8896      -345.6246      -7.362732
       288.7517      -144.2983      -407.3874      -322.1913      -155.2408
     -0.1842957      -186.1289       153.1155       544.6378       71.09048
      -130.5985      -86.48792      -288.2230      -240.2109      -89.99853
       16.33700       36.69510       3.077637       121.7458       226.1494
       409.7044       110.9706      -95.35309       381.1948       96.06873
      -33.47083       266.9637       182.2916       125.9555      -79.58051
      -99.65210       348.3858       187.3495      -534.5262      -468.5341
      -174.3817       164.1973       682.7611       282.5081      -208.2029
       30.85474       370.8484       388.3788      -73.31665      -299.2348
       113.3972       337.6456       305.0153       269.1863       200.0373
       127.1078       47.15198       239.1576       126.1588       127.6201
       532.1750      -10.39667      -366.4189       240.1610       146.3405
      -161.7305       516.4163       426.6045      -175.4841       141.1549
       225.4243       46.93449      -1.295654       153.7065       645.9647
       690.4041      -40.07581      -250.6606       303.7798       255.3751
      -172.1647      -19.20081       414.0389       295.7983       164.3231
       273.7854       141.7310       108.7181       321.9866       433.9800
       286.9155      -154.8900      -278.6011       264.9623       557.4611
       101.4949      -7.063965       235.8154       204.3712       201.8909
       263.7064       200.4380      -49.37677      -9.420410       424.4539
       482.0203       131.9359       184.3042       443.1319       240.6399
       137.8590       114.8663      -135.4684       138.4480       551.0667
       331.7910       143.2097       154.1951       100.3414       91.30090
       242.9243       115.5650      -66.80927       340.5784       342.9286
      -99.24701       68.61597       267.7462       8.235336      -117.8049
       187.5980       203.6057      -80.88580       114.9833       319.4954
       65.38358      -181.5493      -81.43835       308.9662       387.5354
       25.72639      -27.12498       32.33353      -143.9084       103.6337
       344.4597       12.58438      -142.5070      -117.8842      -117.2072
       35.23248       89.72560       61.28162      -186.6501      -359.6082
       109.7919       289.7493      -358.1874      -423.8906       179.7549
      -24.59283      -360.0064      -82.60693       106.4993      -133.3306
      -359.0598      -203.0620      -116.7260       31.76453      -53.72797
      -278.4376      -242.2477      -385.3116      -164.4698      -45.75989
      -441.7146      -240.2958      -3.911011      -252.7316      -364.4781
      -347.2288      -297.2253      -249.1106      -430.3078      -226.8419
      -125.7468      -555.6018      -538.2848      -279.6397      -62.15851
      -100.2283      -358.9218      -498.5641      -462.6400      -253.1790
      -188.3134      -188.1462      -241.8307      -427.7979      -412.4254
      -349.5371      -347.4746      -156.6067      -99.88361      -318.4954
      -186.4384      -132.1819      -452.8948      -500.6508      -185.5743
      -53.17432      -592.6113      -516.8010       134.3212      -262.9541
      -507.7101      -94.29675      -285.2010      -425.8955      -103.2734
      -224.0183      -391.2778      -86.64249       16.16199      -223.3289
      -443.8167      -355.4749      -76.07129      -168.6135      -245.3906
      -210.9835      -205.0853      -132.1032      -231.8555      -219.4870
      -75.16779      -128.6336      -118.1694      -6.855164      -127.0789
      -108.0225       13.81334      -85.24875      -6.613590       12.30295
      -65.39423      -178.7399      -147.2001       243.5265       301.3268
       52.79056       97.48093       128.0951       125.3295       237.5286
       211.1998       31.43575      -120.1898       14.77087       295.6006
       409.1223       239.4793       176.2086       555.2947       415.3090
      -65.86539       104.0176       233.8832       238.2296       473.2861
       428.1454       243.1385       220.6882       297.4866       233.7670
       270.5797       518.7374       237.2202       309.3506       856.0896
       603.3628       181.1915       190.8278       307.6150       308.2163
       286.7957       426.0072       462.8843       223.6005       151.3466
       333.6541       524.9240       657.0657       450.4272       35.00537
       194.0127       516.0190       382.7648       219.3903       206.1365
       289.6372       231.0112       243.0770       397.8133       253.3011
       175.4579       181.8202       123.9448       194.7653       299.3922
       139.3841       3.495361       101.8613       163.4763       105.5151
      -8.163513       1.312531       131.4800       47.15864      -51.39639
       134.5097       97.17783      -123.0877       138.6586       85.71710
      -344.1161      -115.2550       26.70300      -220.1375      -111.0889
      -8.055664      -100.8802      -106.1036      -83.39587      -87.15692
      -301.5550      -388.1335      -213.1221      -98.57715       147.8066
      -101.8419      -474.8505      -73.61560       59.73071      -379.7274
      -266.3249      -29.48883      -137.0563      -329.6140      -242.1708
       69.57922      -123.7368      -205.5885       51.17020      -103.5937
