     0.02500000      -705.7959       790.9648      -12345.00      -12345.00
      -29.99002       225.5600      -26.34000      -12345.00      -12345.00
       0.000000       19.68000      -12345.00      -12345.00      -12345.00
      -12345.00      -12345.00      -12345.00      -12345.00      -12345.00
      -12345.00      -12345.00      -12345.00      -12345.00      -12345.00
      -12345.00      -12345.00      -12345.00      -12345.00      -12345.00
      -12345.00      -30.27030      -67.72450       1286.000       0.000000
      -31.24600      -68.98500       0.000000       102400.0       0.000000
      -12345.00      -12345.00      -12345.00      -12345.00      -12345.00
      -12345.00      -12345.00      -12345.00      -12345.00      -12345.00
       162.0660       48.45228       227.8108       1.457125      -12345.00
      -12345.00     0.05570743       0.000000       0.000000      -12345.00
      -12345.00      -12345.00      -12345.00      -12345.00      -12345.00
      -12345.00      -12345.00      -12345.00      -12345.00      -12345.00
      2008        16        21        18         3
        40         6    -12345    -12345     10223
    -12345    -12345    -12345    -12345    -12345
         1         7        13    -12345    -12345
    -12345    -12345    -12345    -12345    -12345
    -12345    -12345    -12345    -12345    -12345
    -12345    -12345    -12345    -12345    -12345
         1         1         1         1         1
RINC    -12345          
        -12345  -12345  
-12345  -12345  -12345  
-12345  -12345  -12345  
-12345  -12345  -12345  
-12345  -12345  -12345  
-12345  -12345  BHZ     
ZL      -12345  -12345  
[...]
       278.9805       102.6763       115.0356       296.6494       242.1928
       26.37408       160.4234       218.1539       23.10458       85.99921
       264.4982       166.3181      -7.647949       189.1533       222.7142
       88.95154       172.4297       222.6819       136.5575       195.7960
       339.8970       232.0066       131.0596       129.3716       179.1443
       266.6750       249.1634       162.1562       63.46259       188.7795
       159.8882       107.6942       278.2672       142.7735       70.48248
       99.20572       131.2240       108.2890       22.10068       122.9066
       79.62076       70.30475       90.42384       101.1958       43.58261
      -45.67993       256.7273       243.8735      -93.98984      -133.8073
      -11.45227       211.9585       77.58649      -146.9927      -83.82872
       19.05394       104.8897       28.32889      -108.3600       42.78427
       97.13322       23.76239       30.40192      -75.27826      -188.9073
      -161.9686      -8.697868       49.79305      -19.83447      -23.46549
       7.899963      -122.9781      -114.2157       116.8372       11.46675
      -93.30918       35.61353       15.93330      -24.73706      -12.04047
      -57.98953      -128.8675      -152.0187      -45.70027      -92.52743
      -1.524582       122.1171      -22.32332      -91.74207      -3.561325
      -10.17657      -169.7438      -70.26636       81.67027       9.027824
      -44.08435      -9.045959       133.0714      -52.53741      -47.07748
       178.6268      -10.19870      -161.8943       37.57530       106.8083
      -81.83810      -8.413025       102.4328       32.34909       64.44220
       43.64249       28.43108      -7.604355      -122.3946       8.593712
       104.1390      -92.20895       23.91125       219.8911       90.32947
      -68.93896      -171.4361      -21.48578       190.0016      -51.08835
      -105.2533       26.44684       42.68658       94.40466      -107.9372
      -165.8495       131.4282       95.05042      -274.1152      -286.8814
      -49.65777       5.999969      -33.65939      -69.93176      -119.8942
      -139.7370      -35.34760      -173.8858      -253.4714      -144.9028
      -176.3527      -146.9935      -168.8025      -301.5372      -216.6009
      -15.99988      -23.02130      -286.2612      -229.2684      -90.23889
      -320.6146      -262.4532      -107.7982      -214.9456      -183.0571
      -140.1440      -299.1975      -220.9424      -77.77570      -145.3774
      -210.2654      -188.4224      -71.14807      -202.1936      -237.1460
      -90.66098      -77.60007      -137.0651      -204.4467      -141.9800
      -142.7879      -177.6651      -27.92761      -79.15149      -139.2259
      -16.41760      -125.6633      -137.8745       5.093506      -66.18294
      -116.6798      -22.47156       18.01910      -85.52792      -110.3604
       17.87491       36.89147      -8.517895      -18.31435      -1.702499
       85.25549      -47.77481      -163.2151       120.6054       220.2612
      -72.46347      -79.76204       50.81065       63.36734       112.9170
       57.89661       29.57277       1.938919      -43.50958       82.94836
       128.9196       171.0530       201.4659       120.1737       73.01752
      -42.95346       108.3866       227.8770       59.74944       49.98291
       73.24561       127.5510       130.3466       70.93381       129.7848
       124.6432       139.5009       118.9159       20.15033       129.6420
       279.1851       194.0904       61.46429       141.1511       128.6677
       59.77692       211.4344       188.2575       160.7145       181.9613
       111.3687       93.00198       134.6644       151.9872       131.7134
       214.2490       255.1165       135.4884       81.64957       35.75797
       78.93036       252.3440       255.7354       95.52298       82.85669
       239.3430       209.9553       3.255676       122.2874       139.0616
      -58.39941       66.08624       174.7103       103.4450       148.3021
       139.8318       15.47506      -29.38962     -0.8974686       29.97049
      -37.98953      -148.2354      -69.13982       3.085159       12.12420
       24.63631       23.65753      -43.71503      -175.3406      -128.5246
      -29.04256      -11.98851      -29.03467      -155.1882      -156.5913
      -98.30600      -129.4070      -96.43372      -130.8599      -176.9780
      -56.29059      -104.1863      -88.95129      -53.94122      -218.5513
      -189.3324      -71.87656      -124.0605      -172.3315      -97.99487
      -136.1907      -154.0545      -16.04224      -157.9674      -295.7356
      -156.7007      -34.03943      -122.9831      -193.9409      -74.08997
       3.572998      -157.2765      -303.2734      -186.3917      -67.75568
       14.45197      -43.56610      -169.3908      -124.3000      -113.7548
       36.45728       21.76987      -159.8856      -29.19604       59.12073
      -116.7499      -108.7103       50.45697       70.18137      -77.22079
      -164.6947      -64.06125      -11.73181      -8.839478       63.69623
      -55.99877      -104.3977       81.11798       150.9959       95.36006
       84.04155      -15.75868      -42.25146       80.58209       120.9260
       132.5989       155.8366       121.6126      -32.97400       51.41022
       269.5626       167.4802       74.69952       25.77673       208.8226
       365.0297       163.1812       109.3660       351.2055       287.6122
       101.9794       212.8633       295.7794       304.7442       355.8201
       239.8389       142.4666       310.4497       423.0146       314.7992
       264.0377       201.2401       205.9351       373.4590       333.4500
       218.7666       337.5793       393.2233       330.6678       267.8282
       284.9487       330.1058       311.9585       214.1397       284.2122
       428.3215       237.2432       129.5304       339.9028       252.6853
       154.2280       217.7547       207.4684       153.2814       75.51907
       154.5957       114.8816      -4.609222       81.58344       115.1887
       60.49985       84.36447       132.8738      -3.753098      -69.52536
      -12.10095      -97.04816      -161.2157      -36.67854       14.37128
      -105.2395      -147.2573      -92.95239      -133.2164      -250.5674
      -225.0966      -84.11780      -153.3604      -306.1453      -230.0056
      -47.13965      -199.0470      -328.2759      -218.0345      -254.3452
      -379.6986      -348.4387      -176.5160      -196.0110      -333.7285
      -230.3869      -217.4136      -333.0521      -283.6560      -273.8362
      -301.7339      -288.4790      -286.4299      -221.8785      -272.9684
      -250.3632      -243.7081      -383.7307      -364.2036      -247.0409
      -221.2532      -245.5004      -318.8936      -319.9485      -198.1168
      -191.8672      -326.2974      -283.7111      -111.2093      -214.4587
      -370.3902      -142.8693      -89.72583      -310.3679      -370.1088
      -194.8671      -34.04419      -170.8529      -320.0685      -155.3544
      -161.0172      -265.7982      -210.4400      -194.1710      -168.7216
      -124.2570      -118.4429      -158.1838      -151.9316      -68.40256
      -142.2872      -163.4114      -108.9464      -175.4334      -97.47247
      -22.56165      -126.0862      -51.67419      -46.63571      -141.3015
      -67.80737      -35.44675      -3.615570       65.22269      -41.71561
      -52.16626       90.14931       47.22115      -52.96458       47.00801
       71.36408      -14.41760       83.30554       166.6769       95.95105
       97.16269       58.66577       66.10980       181.3311       170.6090
       110.5123       166.5125       141.7072       86.41443       215.0539
       337.1611       152.3788       101.0625       282.9838       222.0470
       167.1923       314.5439       203.8959       227.3710       284.8073
       131.0276       328.8038       404.3309       155.5614       179.8784
       369.8194       341.2430       204.5547       302.4233       301.6321
       130.6214       268.8184       466.9873       289.1680       207.9285
       352.3181       368.6399       238.9208       265.9387       321.7468
       128.9496       151.9023       258.7632       166.7057       301.7463
       290.5928       169.3464       287.8340       203.5014       135.1983
       161.3535       114.8096       145.2707       143.2563       163.6703
       170.3209       109.6101       32.32269       88.36002       83.21562
      -1.597412       183.6897       135.2133      -51.17698      -4.076286
      -10.78091      -26.30046      -12.79602       10.06913      -4.079731
       4.366547       40.66077      -15.25104      -94.97925      -81.19690
       21.12840      -19.52591      -144.2996      -119.4700      -27.42290
      -27.37927      -70.78384      -115.5435      -129.6477      -112.8212
      -122.9130      -88.94775      -55.20630      -127.9569      -182.0396
      -129.4484      -185.4387      -203.6081      -138.4524      -178.0525
      -144.1144      -200.4455      -244.5796      -121.0760      -124.4551
      -169.9188      -162.7140      -135.4912      -244.6960      -274.6041
      -176.3979      -140.0373      -105.0347      -193.1536      -312.1949
      -256.3176      -131.0126      -128.7303      -214.9788      -179.8165
      -153.3770      -215.1760      -173.7538      -113.6422      -170.9854
      -176.3193      -109.2318      -107.1618      -164.0218      -160.4290
      -119.9089      -35.54780       20.71875      -122.0579      -228.2121
      -104.7703      -4.368294      -2.585510      -53.45444      -66.31412
      -67.90691      -90.19627      -44.99405       21.53152      -25.50894
      -80.76880       32.17696       80.36472      -62.56284       47.43497
       219.4444     -0.2454910      -18.39935       121.5402       15.62027
       42.30057       111.8753       95.25662       60.77838       53.84790
       125.9160       117.5500       97.70801       62.34174       54.26395
       122.7234       101.8386       152.8269       162.5526       107.0224
       134.7584       76.22101       115.9904       221.4356       149.5396
       46.78226       32.60333       138.0835       191.0709       116.4531
       112.1028       47.29966      -24.80847       113.7055       122.1143
       97.83618       165.2490       69.17300       34.52293       81.15266
       36.73756      -1.255547       9.052963       38.30009       125.7600
      -12.92194      -158.4373       26.84759       40.84911      -7.566162
       92.98149       20.30487      -119.8230      -134.7513      -2.297043
      -1.207474      -74.13826      0.1996460      -62.99017      -150.4429
      -86.29138      -67.36111      -140.4877      -149.3844      -99.99670
      -162.8254      -183.0281      -116.3249      -94.68365      -82.25787
      -160.9271      -288.9019      -188.7656      -118.5281      -262.0720
      -250.7754      -62.37485       8.035583      -129.6688      -316.3146
      -335.1914      -138.4912      -66.91116      -177.3256      -120.6971
      -188.6226      -297.1064      -188.9831      -156.8802      -97.00266
      -11.64111      -189.3275      -246.0699      -112.1150      -96.59149
      -131.3107      -193.2939      -160.6935      -100.2413      -191.6497
      -156.9125      -85.62225      -184.3132      -135.6893       66.66220
      -103.6964      -234.0446      -73.78705      -100.5833      -91.55289
      -64.97882      -63.86801      -100.8566      -243.5385      -92.23364
      -40.24072      -202.3388      -110.6692      -68.92770      -176.2224
      -157.4586      -40.55890      -37.62103      -164.8495      -159.1116
      -49.21130      -63.88852      -68.55884      -128.2608      -223.7313
      -190.6131      -121.9276      -80.81805      -150.2852      -180.8198
      -104.6336      -125.2144      -193.1735      -280.4058      -280.4482
      -170.9779      -87.82129      -118.1154      -170.2745      -27.59122
       65.30060      -98.67883      -351.6137      -247.1173       36.32257
      -11.38908       55.65811       27.57013      -310.6482      -203.3328
       128.1853      -30.69044      -115.0904       163.0177       200.5566
       123.6277       210.8159       308.4572       386.1082       181.0046
      -228.7966      -282.2803      -13.87500       389.2806       279.9461
      -181.5215       68.15271       382.6696       255.4897       255.5732
       128.0488      -84.08203       224.3577       385.4279       33.11206
       148.3604       340.8424       11.74335      -73.78528       311.0764
       584.0425       476.5052       344.8281       319.8207       436.2219
       424.9263       209.3051       117.8038       128.6448       435.3813
       556.1878       115.0736      -1.625000       466.0530       790.9648
       670.1346       256.0549       146.3658       368.3014       478.2750
       594.0775       574.6388       239.1665      -60.12573       223.4271
       609.2047       430.0638       251.1389       297.5032       320.0449
       202.5476       343.5239       733.3894       586.5097       245.6720
       434.7316       653.6528       288.9703       138.2168       470.5065
       396.8256       143.8031       394.3806       512.4648       218.0625
       313.6493       524.3169       495.1717       179.8055      -24.01019
       203.3676       251.6981       222.4824       322.6150       254.3359
       283.7717       538.1661       401.6333       258.7111       255.2789
       258.3318       369.5089       46.05511      -79.11133       463.4788
       455.6121      -115.5598      -113.5377       155.5360       255.3408
       209.5565      -22.91022      -182.5426      -75.31104       208.3333
       215.7101       236.9401       231.3655      -28.39078      -18.85187
      -81.36401      -267.9348      -191.2524      -176.2297      -99.37277
      -99.02397      -143.0273       148.6981       76.30908      -446.8649
      -362.0308       105.2927       74.65485      -224.8442      -184.1448
      -126.6562      -322.0880      -319.1466      -236.5312      -451.4675
      -362.4078      -79.92578      -211.8365      -276.5968      -409.3418
      -463.9592      -113.6439      -145.9570      -242.7960      -111.2925
      -224.8749      -327.9885      -300.5411      -436.2239      -568.0797
      -516.3379      -371.5422      -418.7680      -414.7090      -117.0166
      -80.63184      -473.1876      -626.3082      -346.2600      -308.5033
      -412.4598      -283.4009      -316.7073      -358.1823      -350.1024
      -324.5132      -438.3387      -537.9721      -214.2028      -206.6182
      -469.7550      -427.1383      -393.0261      -515.2317      -636.3424
      -579.9517      -374.8327      -143.9977      -255.4873      -533.2059
      -465.0638      -322.6272      -311.1913      -308.9895      -432.9015
      -426.9839      -307.8439      -302.3126      -293.5617      -230.7379
      -200.8185      -305.6699      -414.0909      -402.4645      -448.8268
      -425.5995      -207.4529      -253.6982      -532.2362      -446.2394
      -275.6072      -442.0805      -344.7227      -102.8113      -373.1205
      -405.9432      -188.0851      -214.6873      -242.9004      -19.85040
      -17.38770      -398.8014      -369.1998      -65.95792      -22.16345
      -237.4424      -459.0926      -187.4353       181.3571      -8.966293
      -121.8722       14.86700      -82.62067      -169.7422      -101.0142
     -0.5259399      -115.9708      -153.7462       65.19440      -95.34705
      -396.0500      -123.4877       297.1222       185.6082      -20.08101
      -14.89333      -114.7896       48.89636       270.2424       185.1291
       232.1313       141.9608      -93.97211       80.65942       353.0709
       324.8993       185.1273       113.6344       113.7104       177.4237
       276.3851       300.2754       163.0467       80.23529       111.5114
       188.9922       312.9891       271.4589       217.7424       285.2806
       239.6288       422.4207       506.4090       113.7087       175.8943
       535.4735       371.4354       253.2124       341.0770       331.4180
       238.3167       159.6821       322.7384       465.5155       353.4084
       308.3438       408.2605       434.8674       406.1116       389.5196
       318.2040       225.3163       355.0598       557.8143       340.6941
       160.8683       281.1940       315.4575       273.8301       365.6910
       401.0312       274.3433       276.9183       331.7879       233.9264
       324.7021       497.3893       340.2637       251.4202       466.8408
       432.4333       314.6316       367.4039       328.2876       308.0229
       365.3918       336.8374       391.5026       542.5624       457.1136
       255.3432       282.4824       310.8395       267.2937       290.0664
       339.6487       240.9667       198.8390       407.8333       493.5264
       298.3169       264.6777       273.2216       201.1788       353.9151
       336.5598       162.5419       238.2726       361.7407       403.5258
       328.1952       246.8336       275.2317       305.2654       150.8730
       235.4310       361.7859       170.8978       112.0203       172.5470
       101.9142       73.74536       266.5132       287.8397       77.60974
       99.73443       50.45078      -131.1275      -1.331970       106.0129
       12.98344      -7.710541     -0.9546814      -46.53534      -148.8302
      -138.2443       24.31434       24.28979      -11.24667      -35.17126
      -202.6452      -245.3473      -130.1948      -29.62323      -76.38171
      -258.9489      -276.4843      -220.3203      -209.3263      -127.1378
      -314.6498      -444.6591      -310.6720      -278.8923      -93.50439
      -184.6006      -705.7959      -654.2577      -340.1570      -354.5485
      -370.7813      -214.2439      -125.8031      -258.0559      -438.7795
      -701.7273      -671.6561      -316.2509      -303.4519      -410.5291
      -456.3820      -587.0571      -587.0651      -495.0526      -475.1414
      -512.5206      -572.6221      -569.2871      -527.0857      -515.3713
      -398.5298      -309.1920      -445.8770      -533.2892      -440.5935
      -543.8442      -651.1113      -445.2397      -358.2332      -502.8457
