     0.02500000      -1027.346       1013.529      -12345.00      -12345.00
      -29.99002       225.5600      -26.34000      -12345.00      -12345.00
       0.000000       19.68000      -12345.00      -12345.00      -12345.00
      -12345.00      -12345.00      -12345.00      -12345.00      -12345.00
      -12345.00      -12345.00      -12345.00      -12345.00      -12345.00
      -12345.00      -12345.00      -12345.00      -12345.00      -12345.00
      -12345.00      -30.27030      -67.72450       1286.000       0.000000
      -31.24600      -68.98500       0.000000       102400.0       0.000000
      -12345.00      -12345.00      -12345.00      -12345.00      -12345.00
      -12345.00      -12345.00      -12345.00      -12345.00      -12345.00
       162.0660       48.45228       227.8108       1.457125      -12345.00
      -12345.00    -0.05109261       270.0000       90.00000      -12345.00
      -12345.00      -12345.00      -12345.00      -12345.00      -12345.00
      -12345.00      -12345.00      -12345.00      -12345.00      -12345.00
      2008        16        21        18         3
        40         6    -12345    -12345     10223
    -12345    -12345    -12345    -12345    -12345
         1         7        13    -12345    -12345
    -12345    -12345    -12345    -12345    -12345
    -12345    -12345    -12345    -12345    -12345
    -12345    -12345    -12345    -12345    -12345
         1         1         1         1         1
RINC    -12345          
        -12345  -12345  
-12345  -12345  -12345  
-12345  -12345  -12345  
-12345  -12345  -12345  
-12345  -12345  -12345  
-12345  -12345  BHE     
ZL      -12345  -12345  
[...]
      -295.1560      -287.9187      -275.7545      -268.6550      -257.5671
      -252.2772      -238.6909      -227.5348      -213.2542      -206.6688
      -191.4241      -181.1161      -164.3553      -156.3571      -140.8235
      -127.9766      -114.7476      -109.3911      -96.47342      -85.37103
      -74.39632      -63.72127      -35.74260      -28.27803      -12.39941
       13.20023       68.33691       58.43501       21.85016       70.75818
       118.3988       53.09991       123.8559       200.1454       68.80920
       57.94165       207.8574       203.3544       110.3690       161.2126
       184.7892       167.3827       210.6570       227.6467       295.5746
       233.4727       235.0850       233.1353       277.3828       326.2461
       245.6136       252.2205       299.2684       344.4081       293.8650
       228.9171       296.8087       265.8923       215.8889       309.0573
       348.6157       268.1515       267.9838       326.6582       299.1240
       257.4756       371.7798       341.5114       184.2072       294.3679
       410.5010       383.2524       233.4509       184.5750       395.4144
       417.0557       268.2250       196.5393       290.9915       346.2292
       334.6688       243.7170       203.6890       302.7925       365.1442
       282.4596       198.7870       313.7197       351.5712       279.2512
       254.6118       159.2117       202.0519       346.8122       229.4370
       226.4564       165.2473       129.2606       295.4044       272.6269
       261.5463       178.8029       115.4299       157.1747       157.0852
       241.1133       194.3690       79.07452       136.7895       245.3256
       206.0500       93.92398       121.5443       62.62711       43.61414
       132.9887       101.6064       214.9018       217.5580       24.45575
       64.02730       70.12088       56.84723       111.4481       33.18793
       49.53120       31.38672       62.75742       125.7407       51.28046
       123.2689       33.22354      -139.8453      -77.85577       9.859535
       10.45341       53.30521       27.78073      -21.54775       11.77075
      -1.504974      -39.00519      -88.08167      -52.58517      -27.74464
      -66.00009      -23.49719       34.03276      -35.32394      -126.7669
      -30.55362       42.15970      -93.65518      -150.1364      -82.14819
      -155.3213      -66.99176       63.61810      -21.75281      -152.3976
      -70.45178      -3.348450      -167.2795      -148.6983      -55.45515
      -71.81714      -50.70242      -38.20383      -80.79160      -87.38037
      -79.33154      -149.6694      -94.27933      -7.379349      -41.97910
      -128.4515      -143.0791      -120.3672      -48.17734      -28.27625
      -97.98587      -118.1287      -99.41495      -81.36743      -32.67316
      -88.95630      -172.4780      -124.1776      -113.9521      -49.64072
      -6.984436      -141.2675      -176.6702      -103.5231      -136.5814
      -116.4621      -114.2877      -218.7672      -125.7768      -110.3596
      -149.0909      -107.7665      -181.7659      -208.9990      -211.6077
      -242.9313      -137.5698      -144.6709      -250.2761      -235.9937
      -234.3351      -199.8921      -197.8240      -285.7969      -278.9042
      -243.9011      -236.1499      -236.0796      -245.6299      -317.6107
      -399.2526      -248.1207      -187.3086      -386.9258      -417.6936
      -288.8799      -241.6625      -379.9791      -370.5735      -267.8387
      -399.9193      -404.5644      -312.0464      -383.0372      -373.5784
      -302.3640      -385.0680      -410.2644      -333.7671      -354.9614
      -376.8121      -341.3282      -340.2983      -296.1191      -313.6244
      -390.4865      -346.1581      -328.5073      -239.2238      -258.8312
      -398.4280      -289.9186      -230.8781      -231.8333      -169.0302
      -174.9438      -246.3997      -294.3504      -187.8097      -174.0993
      -133.2189      -101.1289      -217.0749      -152.8469      -75.85162
      -99.25058      -108.4312      -106.8258      -110.3301      -69.92143
      -8.752502      -81.19174      -127.1146      -7.011238      -23.71964
      -19.48338       105.8841       43.98000      -30.67453       2.948776
       38.58881       71.27422       67.52701       70.10411       87.21709
       70.69901       59.37738       110.1158       90.76843       107.6297
       173.3691       107.7620       79.83655       185.3181       242.5629
       238.9309       249.6758       137.0872       103.7094       227.5228
       246.7298       188.2225       275.3159       360.7225       267.0499
       288.2078       425.6809       368.0703       263.0557       333.0822
       305.7381       219.1318       386.6729       473.8020       366.0035
       361.1337       337.4456       284.3635       387.5757       453.4877
       342.5654       337.5002       373.0601       413.4324       468.4545
       407.9495       353.7125       322.7681       324.8086       456.3838
       503.0680       331.9094       275.0323       297.3876       389.5211
       470.4136       328.2486       306.1586       324.8021       321.4615
       433.1219       373.6774       271.7634       356.6792       402.4473
       332.2793       263.2036       288.4270       420.7509       302.3383
       174.8345       388.7255       375.8146       182.0095       301.9125
       362.0675       163.4788       207.0808       318.6233       287.0973
       239.7971       190.1179       163.0323       195.8269       318.5241
       342.2795       223.8557       82.99686       102.0721       261.7440
       240.5922       162.7709       177.5424       64.27142       73.84845
       213.2430       163.7413       93.61462       145.2808       137.7892
       43.74750       64.80011       169.6524       145.9726       6.189575
       75.54535       178.9048       48.38257       25.46812       90.30005
      -62.27777       30.26410       141.2233      -21.07697      -21.16650
       93.42799       69.39798      -127.5271      -94.76788       102.8066
       133.7019      -31.40759      -193.2509      -61.22137       47.17815
       9.112335       4.092506       36.28455      -1.292511      -118.3746
      -92.06284       22.49951      -23.42514      -77.87262      -218.9794
      -185.4920       109.8883       56.92969      -211.4141      -155.6485
      -31.46460      -123.0461      -164.0923      -141.9440      -123.1068
      -45.15866      -85.93262      -89.29678      -115.6423      -215.1296
      -205.2864      -113.4722      -78.11792      -146.5568      -209.9724
      -184.4432      -160.0132      -157.1121      -213.4210      -223.9078
      -138.4608      -170.7606      -291.6929      -231.7644      -143.6660
      -336.3158      -346.7889      -129.0257      -170.8262      -282.7094
      -399.9525      -303.8046      -245.9839      -341.4291      -199.9714
      -251.7104      -445.4055      -345.4410      -325.5059      -337.4371
      -262.5259      -350.0017      -447.5164      -427.3750      -323.8406
      -281.8354      -385.9648      -465.9465      -379.7815      -372.6807
      -428.5525      -452.4491      -386.5680      -338.6251      -554.7734
      -511.1222      -260.0825      -325.9630      -472.1633      -458.1764
      -349.1804      -460.0903      -561.9308      -385.2944      -358.3313
      -444.9172      -420.5051      -446.2031      -436.2767      -343.9172
      -375.4231      -432.3525      -465.0740      -422.1957      -286.4318
      -419.8071      -461.6587      -239.5029      -305.5743      -418.3911
      -357.4208      -300.9540      -204.6532      -280.8995      -340.9174
      -202.0750      -290.7288      -345.4823      -116.9390      -151.5295
      -362.4022      -152.3074       16.38638      -152.2968      -200.3938
      -180.6908      -147.7886      -69.62627      -8.119965       5.217133
      -127.6203      -99.47504       32.56367       12.55279      -16.36974
       12.26656       63.55058       59.62231       14.10030       21.58917
       18.72107       98.55872       226.4946       84.98048       28.72577
       165.4983       125.5476       196.3732       306.1553       135.4604
       71.93176       233.9478       266.0172       224.3150       143.3999
       167.5350       284.3170       255.7625       329.0060       347.0923
       183.1617       179.5424       310.0266       287.6533       261.5819
       270.3171       276.7649       399.8065       346.9088       216.9801
       275.6259       310.1426       300.0989       303.1708       273.9706
       334.8351       271.5612       319.2441       433.4565       250.6855
       225.7407       390.1189       392.8517       260.9714       257.8409
       349.3105       333.8022       359.7344       365.2239       329.4799
       317.5760       274.7484       334.7909       341.3601       295.9216
       277.9840       275.7053       428.8889       398.9775       306.9030
       342.4448       297.6464       258.4407       338.3055       376.6301
       337.4846       244.0122       267.8423       405.2345       300.1315
       252.3965       328.2667       289.6350       373.9985       349.7485
       261.6438       259.5162       268.3790       256.5782       217.3743
       227.8619       244.2858       304.5076       231.1951       138.5399
       205.6726       188.4591       204.7222       232.8850       121.1360
       128.2742       181.1866       150.5334       103.6322       91.91583
       168.1359       111.8823       26.92990       146.3775       129.7486
       24.45142       122.6324       119.9796       13.78280       19.56713
      -19.58504       3.697464       84.09500       51.49016      -4.640549
      -34.94296      -30.34451     -0.3104706       48.51143       3.722351
      -134.0625      -72.25833       3.418457      -82.49530      -169.4279
      -65.52778       61.00922      -140.1907      -212.2396      -52.97638
      -185.7126      -131.9396      -4.799011      -163.7204      -187.8383
      -117.4748      -118.0778      -103.2518      -185.6245      -232.3607
      -101.7540      -101.2081      -221.5174      -169.1194      -112.1062
      -137.4681      -151.4890      -167.3429      -199.3368      -129.6123
      -63.62601      -124.1636      -141.1365      -166.3908      -246.3844
      -213.5777      -24.04897       15.52100      -287.1299      -179.4092
       34.75809      -140.4298      -120.2453      -78.70935      -145.0121
      -14.98853      -8.032745      -178.9529      -99.10773       17.13409
      -120.9393      -133.5569       20.44028      -34.99518      -176.1265
      -55.96173       33.18445      -97.17755      -197.8024      -114.2160
       34.05193       70.32884      -27.44940      -134.4879      -123.9101
       15.52827       38.43140      -124.3314      -108.6249       14.12976
      -97.15356      -158.8154      -22.03333       45.40137      -46.83008
      -95.46878      -88.01350      -52.95458       8.510979       1.513458
      -112.8695      -66.87811      -27.31769      -208.8338      -111.6947
       106.7655      -56.28784      -189.9306      -68.23491       6.554169
      -147.6947      -187.2019      -59.67133      -119.6268      -164.6077
      -70.75055      -105.0247      -128.1461      -66.40608      -14.10312
      -120.6636      -205.3226      -117.4859      -173.9054      -152.9610
      -22.16022      -88.60107      -149.0558      -188.1567      -127.3847
      -140.3204      -166.6468      -85.73755      -186.7380      -140.5366
      -27.19391      -140.7549      -169.0382      -197.5898      -158.7820
      -91.24716      -114.6053      -79.65982      -119.1227      -137.8713
      -89.89581      -166.6571      -133.3715      -50.84131      -77.25977
      -117.1673      -154.9035      -95.71002       14.38788      -9.127594
      -131.3671      -132.3086      -53.13564      -56.91213      -17.72046
      -73.76180      -117.7899       37.56776       59.78825      -48.71751
      -35.43225      -50.98989      -37.96313      -7.437225       47.74739
       52.08253      -33.76254       45.47446       70.40353      -86.23447
      -34.91687       113.5764       129.6589       151.0929       8.265640
      -97.84035      -10.19034      -17.38677      -47.97809      -12.53278
       153.2983       216.4908       178.7393       252.7766       221.2497
      -38.46045      -444.2747      -561.0565      -211.0131       208.9775
       372.6082       261.9100      -69.00659      -511.8900      -257.8630
       581.2594       677.5358      -103.4914      -509.3865       98.30383
       658.5487       503.0859       116.3428      -215.3557      -222.8979
       369.6360       906.5521       618.0704       128.3159       8.178787
       74.57996      -396.4690      -1027.346      -79.76416       1013.529
       412.4388      -79.30872      -230.8154      -529.3213      -65.00653
       180.8216      -167.2952      -17.03113       299.4821       181.7068
       180.9701       369.0128       109.3892      -365.8029      -340.9778
      -160.7539      -614.1914      -642.9803      -242.1511      -230.7642
       491.6696       875.8916       21.53574      -283.5845       367.2158
       307.3901      -790.5278      -896.8058      -264.0461       388.6208
       993.4363       69.85620      -798.5362       87.81146       209.4931
      -353.6878      -39.49551      -130.4242      -149.8947       261.4135
      -19.83484       157.6101       284.7861      -549.8181      -126.2585
       576.7604       68.25977      -190.8211      -297.5719       37.98706
       651.7731       214.1101      -435.6565      -410.4585      -467.1449
      -418.1439       237.8479       337.0541      -102.2787       34.04639
       485.0751       629.8329       89.30817      -335.1162       112.1967
       349.4295      -54.48059      -421.2925      -747.6953      -535.3027
       528.2932       819.5045      -19.04425      -419.7951       46.06128
       439.2244       268.7484       126.4541      -27.08179      -456.7495
      -367.3255       138.4960       315.4421       228.0353       189.4251
       244.4500      -266.8877      -632.4336       297.0181       943.1581
       366.2104      -191.2807      -299.5895      -47.42409       119.3599
      -65.08246       179.4491       247.2471       124.8275       555.2302
       398.4741      -64.63586       222.3340       668.6843       610.3514
      -220.7067      -567.1990       431.3810       721.7454      -36.21487
      -111.9567       429.4579       346.9098      -17.60562       16.38965
       326.9564       458.0310      -10.93066      -245.7678       124.4921
       469.1650       395.4682      -26.01483       104.0841       535.9669
       137.7686      -13.46460       454.4996       339.5113       1.931274
       159.5944       291.5466      -4.851868       57.26312       390.9091
       155.0364       121.2873       312.8911       100.6163       292.8511
       330.8506      -88.65106       22.11786       150.8298      -85.61346
       49.13391       322.3739       124.8981       123.7932      -26.53638
      -384.1866      -40.24463       280.7214       401.1394       260.2881
      -335.2644      -184.9361       232.1578       25.36371      -209.0289
      -181.7009       159.7317       473.5110       101.2416      -463.5677
      -166.3729       345.2613       113.2173      -237.5737      -80.26135
      -87.84027      -333.6552      -68.98129       156.9428       92.96008
      -154.2749      -335.3368      -282.1734      -215.7860      -103.2463
      -51.07419       8.660309      -122.4376      -252.1281      -125.0261
      -180.4359      -512.2443      -278.9965       254.7806      -137.0706
      -299.9702      -56.79346      -262.9010      -406.9387      -366.5184
       10.31891      -107.2471      -687.6067      -517.3154      -101.8021
      -263.4397      -656.9491      -623.3452      -208.3846       52.64453
      -209.1855      -465.0103      -240.5896      -266.0244      -505.1785
      -238.2557      -234.7048      -600.1140      -553.5403      -319.7301
      -320.3048      -446.0971      -216.8060      -89.30127      -505.7742
      -714.2169      -469.4349      -325.7674      -274.8611      -244.0917
      -406.4347      -335.7324      -387.4644      -512.5083      -311.8035
      -336.0066      -477.1556      -382.5103      -262.6912      -269.9861
      -425.6311      -460.1898      -237.5933      -90.39136      -325.5565
      -510.4628      -241.3823       10.03864      -76.41467      -378.1581
      -545.6649      -205.7287      -43.37177      -253.1550      -140.2894
      -120.0406      -212.8367      -118.5087      -115.2399      -314.8250
      -327.6805      -170.9046      -243.2386       112.0928       512.5868
       100.4359      -197.5817      -126.9168      -198.6832       30.50409
       247.2439      -66.23801       7.191650       420.9846       392.7831
       119.8503       52.66513       126.5285       46.42804       190.4996
       322.5095       197.1350       273.1370       468.9637       331.3153
       118.3232       452.9778       451.2909       139.6604       453.1991
       626.2573       487.4989       387.5385       374.4955       489.3526
       303.0370       141.8218       531.1790       742.5354       630.9053
       495.8937       341.6191       542.6099       771.9513       578.3846
       465.9513       453.9388       325.5085       529.7795       693.8809
       390.3464       319.1560       540.9608       651.1602       634.3958
       448.7405       486.9215       528.7908       238.3088       341.5867
       662.0530       649.2792       396.0710       369.4991       367.8964
       214.2168       428.7522       667.6554       592.9994       468.3165
       325.6861       34.15601      -21.18115       390.8442       527.4329
       110.0045       35.28625       425.2993       449.6898       58.16742
      -101.1785       47.86884       219.9987       330.9540       195.7458
       165.6375       220.6364       61.10614       188.6646       356.2131
       13.44861      -95.92160      -103.9879      -183.9689       70.68466
       121.7121      -21.46454      -77.00214      -54.00488       134.6107
       26.47348      -192.4802      -116.5794      -232.2377      -244.5663
