     0.02500000      -9088.377       8100.990      -12345.00      -12345.00
      -29.99501       214.3800      -15.67000      -12345.00      -12345.00
       0.000000       11.85000      -12345.00      -12345.00      -12345.00
      -12345.00      -12345.00      -12345.00      -12345.00      -12345.00
      -12345.00      -12345.00      -12345.00      -12345.00      -12345.00
      -12345.00      -12345.00      -12345.00      -12345.00      -12345.00
      -12345.00      -31.02070      -68.74750       1316.000       0.000000
      -31.24600      -68.98500       0.000000       102400.0       0.000000
      -12345.00      -12345.00      -12345.00      -12345.00      -12345.00
      -12345.00      -12345.00      -12345.00      -12345.00      -12345.00
       33.72004       42.26255       222.1404      0.3031805      -12345.00
      -12345.00      0.2616997       0.000000       90.00000      -12345.00
      -12345.00      -12345.00      -12345.00      -12345.00      -12345.00
      -12345.00      -12345.00      -12345.00      -12345.00      -12345.00
      2008        16        21        17        52
       370         6    -12345    -12345      9776
    -12345    -12345    -12345    -12345    -12345
         1         7        13    -12345    -12345
    -12345    -12345    -12345    -12345    -12345
    -12345    -12345    -12345    -12345    -12345
    -12345    -12345    -12345    -12345    -12345
         1         1         1         1         1
TALA    -12345          
        -12345  -12345  
-12345  -12345  -12345  
-12345  -12345  -12345  
-12345  -12345  -12345  
-12345  -12345  -12345  
-12345  -12345  BHN     
ZL      -12345  -12345  
[...]
       130.3778       124.4259       118.5023       111.2946       113.7603
       107.9487       87.83969       100.7391       82.60844       75.07947
       85.11516       65.32967       64.86089       77.61565       48.09665
       56.31024       73.04861       51.79837       46.38549       38.01135
       15.80650       36.42162       20.57417       14.43393       17.29843
       11.87021     -0.9838295      -15.30916       11.10555      -3.606743
      -17.20631      -5.143112      -10.08286      -17.29790      -18.93030
      -30.57490      -43.00045      -18.52061      -26.94173      -29.85048
      -36.02100      -47.38847      -38.18069      -44.41153      -54.83092
      -53.63965      -29.88596      -46.48569      -48.00262      -46.83096
      -63.75378      -42.72420      -62.38779      -66.63220      -63.46729
      -46.87433      -76.34058      -81.77022      -71.50493      -89.00571
      -60.87540      -66.37425      -80.72845      -80.26855      -82.33490
      -88.61990      -92.56400      -89.86710      -94.49426      -111.2919
      -103.2707      -115.5317      -122.3676      -133.6396      -152.2722
      -146.7340      -166.0615      -179.9532      -182.5326      -197.5350
      -209.7955      -216.4950      -220.9323      -233.4230      -242.5396
      -252.4352      -270.6774      -296.0254      -302.1942      -317.4202
      -332.9354      -338.7545      -367.2612      -375.5452      -391.3511
      -415.7573      -420.7163      -434.4502      -448.5221      -450.4741
      -479.8311      -493.8262      -511.8384      -526.2488      -542.3666
      -555.7534      -559.9384      -576.4722      -590.8140      -597.8724
      -616.9412      -628.7175      -634.4047      -651.6208      -658.4351
      -657.7961      -688.5767      -704.9424      -705.4768      -721.0525
      -734.1746      -727.5059      -733.0215      -736.3672      -744.9023
      -732.5444      -741.6013      -744.2632      -730.9189      -737.4541
      -715.2686      -713.9917      -720.2158      -708.9832      -704.8557
      -709.3716      -685.9948      -671.3467      -681.8573      -667.6846
      -651.2803      -637.1516      -625.5630      -612.6218      -598.0913
      -579.3877      -565.8140      -545.6765      -513.8275      -497.8759
      -495.4891      -463.9910      -420.6844      -405.0229      -391.3840
      -345.9686      -328.4824      -305.2560      -271.0990      -237.3018
      -202.0757      -185.0524      -142.9465      -122.1124      -87.25627
      -55.49613      -25.61563       15.29115       28.86841       62.49084
       109.0105       134.7968       156.5142       178.2589       234.4225
       258.9167       274.8037       309.4241       342.3790       357.0337
       385.9935       408.9172       431.5900       452.8818       480.6035
       500.9883       520.2605       545.7698       563.6909       574.7869
       602.2307       614.3229       615.6279       640.8855       646.3301
       645.5251       674.3654       673.9316       671.0293       673.8142
       682.8979       680.0536       667.8981       672.5846       679.8823
       665.6877       676.2256       665.5316       655.7863       643.2275
       648.4960       639.8713       620.4182       623.8381       621.6689
       601.3934       598.2318       594.6919       581.8491       551.7964
       552.6283       555.8463       530.8503       510.0907       519.1068
       502.2546       484.9319       470.4099       456.2197       452.2874
       427.4111       421.7054       428.3679       385.1975       379.9609
       365.8385       345.6245       335.5618       324.4061       311.0441
       300.2023       269.2302       265.4525       251.3812       236.1089
       227.7245       217.9572       205.3348       181.2443       169.7943
       183.7373       155.1142       137.7684       145.3438       138.7448
       127.9930       129.1870       106.3062       112.2993       96.61700
       93.68651       84.25258       64.47601       78.97704       59.48907
       45.09227       52.42755       46.35669       55.51974       49.41792
       40.79471       25.15072       35.99719       16.30935       20.25970
       18.22819       2.564941       1.033220       3.704620      -16.46381
      -18.26247      -17.04333      -14.20634      -33.62799      -42.62794
      -47.29291      -45.97273      -39.75832      -41.68823      -53.40857
      -60.01300      -70.02066      -51.02527      -74.94449      -90.31500
      -92.50845      -97.40048      -84.69720      -95.70483      -97.30637
      -98.20450      -110.9753      -114.7947      -119.8385      -128.7061
      -135.0944      -142.2767      -156.2414      -159.2786      -185.2356
      -190.6978      -191.0638      -214.3600      -220.3068      -229.4929
      -249.2089      -259.4943      -270.1237      -282.4438      -295.6035
      -310.0716      -330.1069      -329.1538      -352.2549      -370.6672
      -379.2563      -410.8712      -427.3304      -432.3203      -459.5363
      -470.3918      -471.7982      -491.1392      -510.2212      -517.7070
      -532.3872      -546.3671      -555.2129      -564.5833      -579.1940
      -586.4067      -590.9768      -613.0488      -615.0173      -624.2761
      -637.8594      -642.2458      -659.3348      -628.3864      -540.5276
      -438.9617      -424.1792      -1060.359      -1717.654      -1944.112
      -1790.148      -1033.470       775.6465       2735.117       1190.613
      -2738.566      -2949.688       436.5669       1071.673      -1156.349
      -2729.550      -1845.177       690.4470       126.3247      -1182.098
      -1518.292       70.12842       1751.554      -2238.018      -1917.234
       1712.543      -609.9453      -2633.565      -1098.665      -779.6309
       331.8416       632.4548       193.1240       1857.073       379.9033
      -3203.383      -3340.113      -485.6057       550.7937       36.44067
      -472.3918      -1214.227       506.5767       1200.700       815.3594
      -497.8711      -1963.633       1220.607       2349.932       205.0537
      -2085.287      -2517.128      -1888.309      -931.1436       459.0767
       1532.366       3116.680       1699.042      -724.7883       227.2229
      -432.9250      -1295.799       76.61072       615.0908       742.2297
       972.3789       550.9307      -602.3019      -514.3818       130.0594
       342.6805      -455.9590       1843.579       3390.305       1074.821
      -936.5160      -1070.520       1062.999       1358.339       750.5872
       786.4045       852.7285       113.2572      -232.8392       657.6600
      -196.8699      -259.8384       1832.021       1680.933       1417.627
       2168.131       1215.418      -513.1494      -853.5824       453.3647
       1005.278       660.1504       672.8928       904.1489       1999.964
       1347.510      -238.1260       1006.485       1372.504       1485.621
       440.0146      -1343.262       434.3457       2309.529       1042.004
       414.8965       1253.052       580.1624      -48.24048      -527.4945
       375.9246       982.5913       1224.444       1811.818       387.3411
       473.2641       303.6526       230.2330       1136.812      -264.5668
      -544.2231       638.2560       402.2740       50.91003       571.7677
       740.2695       510.8021       580.9191      -302.9561      -731.5239
       781.8530       1239.629       1030.228       152.2874      -1270.738
      -276.7522       710.0071       808.0446       281.5957      -874.3892
      -1506.657      -786.5801       564.2493       993.0366       1191.503
       218.7659      -866.5740      -30.79169       468.7354      -586.1824
      -53.42926      -23.17542      -951.6219      -54.78381      -92.41309
      -893.7175       419.1068       1082.796      -216.3899      -961.3939
      -837.0752       348.7909       572.1738      -541.7051      -1396.593
      -826.0502       617.0374       689.9443      -523.9784      -168.1858
       1210.749       268.2266      -531.5867      -275.5076      -586.3269
      -79.07959       413.2211      -227.6301      -942.6399      -111.7446
       379.9513      -256.2065      -177.8578      -228.1244      -286.6930
       203.5244       832.7864       1085.529       712.8191      -9.361816
      -624.8108      -585.6609      -144.2925       836.3434       762.6797
      -756.7491      -103.2838       216.1064      -760.9611      -633.9780
      -433.1418       682.4775       1422.268       1187.798       387.4331
      -765.8086      -581.0892      -20.01660       536.6395       790.5236
      -83.22028      -273.2983       28.42668      -99.39548       186.6854
       126.5131       268.3808       414.4595      -466.9058      -495.4661
       474.8198       704.4668       634.2168       792.9023      -305.1035
      -1267.869      -1057.904       474.8799       1205.257      -77.58173
      -248.7589       796.0056      -79.54260      -1105.326       327.5564
       119.0811      -669.1369       452.7767      -48.67371      -740.0518
      -553.1198      -627.0002       332.9557       650.7517      -297.0220
      -690.2698      -273.1157      -161.5858      -458.6340      -275.8575
      -214.2178      -765.7601      -576.8785      -225.1392      -292.9931
       12.91040       600.7168      -3.723145      -1131.858      -622.9531
      -312.6074      -828.4261      -513.2222      -269.2928      -329.0452
       333.7832      -81.95105      -538.6829      -208.5254      -714.2788
      -833.4163       456.9534       320.3646      -861.1166      -516.0077
      -764.0485      -464.9717      -140.8561      -31.86526       313.8617
      -134.4281       275.6890       149.7654      -714.0757      -784.3756
      -288.1498      -117.0695      -195.4025      -464.7770      -87.37317
       550.7869      -18.62341      -505.0592      -154.5372      -430.3170
      -975.7627       208.6421       457.1943       119.4564       653.4084
      -773.8381      -623.0457       670.5142       77.13159      -238.3225
      -596.4353      -804.2124      -131.9553       389.6038       66.28888
      -72.64319      -203.6003      -323.6743       281.5908       461.5244
       40.16638      -102.6437      -53.99939      -593.6080      -62.72083
       44.53882      -780.7888      -348.9597       350.5293       45.14758
      -819.5957      -221.7053       736.5686       332.5764       122.8987
       645.0667       423.4343      -329.4469       93.10950       238.1669
      -356.8552      -29.14185      -216.6910      -506.0610      -460.0426
       178.6056       536.7209      -75.98380      -19.23755       301.6378
       469.1031       98.52927      -253.0742       465.9005       641.7577
      -75.92537      -58.91129      -42.53455       182.4043       236.0939
       203.7627       376.7329       281.7766       109.2491      -397.2455
       169.2422       685.3845       1138.290       1057.980      -238.0699
       92.19568       549.8281       512.5380       630.8872       5.849731
      -883.0134      -132.8826       1131.608       1001.378       957.7186
       612.4446       435.2418       309.4504       228.9398       529.9974
       520.7831       584.1730       123.0405       181.2505       199.1379
       92.22119       645.2795       910.8142       539.8816       717.7719
       675.2268       158.4097       284.4979       418.5923       1032.431
       556.5293       386.6110       702.8572       278.8835       10.90991
       200.6326       701.8772       668.5620       902.1475       847.2203
       789.8744       213.5471      -296.1449       543.2631       703.2021
       249.0400       734.2681       622.1310       1.823334       204.4884
      -7.846680       142.5055       375.0668       118.6445       575.8373
       626.3156       48.08191       308.9659       506.5737      -294.4347
      -116.6232       281.2596       416.0675       386.4954      -454.3712
      -381.7246       486.4199       236.4973      -714.2206      -500.2111
      -164.7940      -137.8051      -196.9534      -141.9704       153.9716
      -619.6034      -635.5806      -437.5745      -435.5449      -307.0364
      -383.6312       24.47949      -616.8770      -1256.505      -1224.969
      -453.1119      -238.6752      -139.2236      -590.4814      -1629.030
      -764.9216      -667.7053      -530.2476      -13.35327      -432.9961
      -1089.258      -1622.653      -1143.725       241.3243       622.9540
      -320.5387       131.7012      -224.6768      -2016.301      -1431.689
      -314.8550      -1585.664      -1980.402       1221.620       1223.690
      -2975.940      -3446.637       473.9893       2689.718       2715.156
       2437.638       1828.306       3775.603       1243.594      -5605.436
      -7827.068      -9088.377      -8725.998      -160.6992       8100.990
       3497.955      -1244.368      -577.0310      -63.81396       2448.758
       1536.510      -830.7744      -3913.557      -2071.487      -169.4307
      -2605.640      -1876.400      -3572.253      -1720.777       3048.042
       2724.317       1143.402       3401.684       3495.876       1792.437
       378.5781      -3330.777      -3790.466      -3673.368      -4499.800
      -1440.988       1313.039       2992.609       5183.646       4678.300
       2179.865      -3539.532      -6506.655      -701.6562       4931.534
       1085.594      -2483.443       1391.144      -154.8228      -3423.058
       1186.219       1808.750      -2809.310      -1010.573       1915.791
       4965.121       4316.110      -2437.197      -2973.641      -2681.632
      -1336.955       1636.752       1826.955       1702.057       1178.363
      -950.8418      -1893.831      -824.6440       59.13574       2166.042
       1642.407       1037.183       3111.013       4112.955       122.1479
      -3421.569      -1292.052       237.6973      -1495.898      -490.5562
       1290.898       1165.333       2711.369       2460.707       302.2568
      -3342.587      -3742.769      -639.4285       939.2090       1102.085
       1936.727       1939.871       427.7900       1304.502       650.2383
      -2721.544      -2876.960       2753.324       4289.833      -379.9282
      -2036.145      -1141.514       585.6123       3041.509       1926.051
      -2238.463      -2402.525       2159.430       1014.631      -2103.987
      -170.8003       1196.712       3179.929       2169.388      -1923.761
      -3385.857       170.5234       3290.962       1255.594       536.4106
       291.4248      -1809.761      -349.8994       1029.761      -2036.276
      -1236.661       2086.486       1539.067      -1276.875      -1810.853
      -67.29297       1234.801       1165.077      -624.9658      -1216.325
      -1266.978      -136.2012       3245.668       2007.735      -877.9168
       181.7627      -638.4496      -1010.023       1774.649       2240.054
      -257.7598      -1539.450      -136.6041       979.4199      -1432.061
      -2046.399       1278.832       1210.381       114.5526       679.5582
      -92.88574      -1378.046      -1208.408      -615.6841       106.3153
       874.8030       277.0115      -253.5747      -844.7222      -2160.964
      -1106.477       1851.483       1763.876       990.2787      -142.0876
      -1450.052       208.8047       2161.117       1884.974      -1032.667
      -2684.281      -2184.819      -1054.730      -646.3849      -825.2627
       728.1279       1474.902       19.05615       825.6812       1506.251
      -451.6514       296.9905       56.46826      -1531.046      -724.9691
      -240.9601      -617.8846       427.5544       816.2212      -1156.060
      -570.0923       1415.876      -351.0542      -1698.899      -784.2469
      -479.8495       732.5734       999.1538       50.10159       55.66479
       41.70105      -341.6981      -144.7480      -1118.955      -1925.422
      -941.1455       671.2268       1247.508       523.8079       100.1399
       198.8425       1359.626       36.74805      -2229.965      -2289.160
      -749.0948       788.2959       90.02136      -594.4628       75.06763
       547.2146       583.2660       104.1587      -1272.777      -2504.109
      -1871.562      -458.7903       3.125244       623.2932       1131.185
       828.5571      -1.123535      -952.8450      -448.5874      -1186.838
      -2370.011       557.3184       1819.825       48.44507      -782.4546
      -1421.949      -993.5938      -1028.305      -1865.109      -1055.964
      -8.509491       40.79877       183.7975       615.9759      -62.96307
      -347.2468       438.6427      -412.2422      -1052.826      -183.2576
      -675.8976      -935.1914      -42.13708       604.1572       539.8984
      -734.8499      -1248.575      -1215.266      -857.8230       37.85742
       71.98914       610.6237       208.1580      -1142.272      -195.7771
       804.9548       556.7817       1424.911       2046.411       434.4927
      -1100.866      -1306.913      -1938.869      -1445.700       257.7042
       489.5127       488.0781       720.1786       667.4641       582.7142
      -368.7239       321.5059       2147.675       935.5884      -747.3155
      -149.6160       831.7040      -42.95660      -551.9999       306.1016
       91.46948       152.9729       1210.851       844.9709       239.0625
       1011.806       1587.333       535.2872      -4.866333       266.3872
      -486.2753       44.44189       521.0249       604.1953       974.0830
       702.5269       828.9304       461.9609       381.8126       533.9484
      -320.9950       162.0566       689.4452       31.05927       42.25732
       621.7690       2016.833       2194.385       816.3456       476.8307
       307.1158      -174.1021      -606.8264      -97.51282       723.4519
       285.3677       596.0159       1062.616       610.8291       541.9955
       378.3237       369.3996       417.5587      -341.6093      -78.28284
       564.3347       308.5710       593.7460       630.0858      -384.9828
      -528.6965       184.9963       543.2695       859.6626       1134.786
       592.3350      -226.0977      -529.3654      -226.1756       349.8969
       237.7698       387.8934       470.1230       356.7410       599.2413
       457.3625       54.45605      -828.0247      -1498.677      -439.8601
