     0.02500000      -6930.062       5570.641      -12345.00      -12345.00
      -29.99501       214.3800      -15.67000      -12345.00      -12345.00
       0.000000       11.85000      -12345.00      -12345.00      -12345.00
      -12345.00      -12345.00      -12345.00      -12345.00      -12345.00
      -12345.00      -12345.00      -12345.00      -12345.00      -12345.00
      -12345.00      -12345.00      -12345.00      -12345.00      -12345.00
      -12345.00      -31.02070      -68.74750       1316.000       0.000000
      -31.24600      -68.98500       0.000000       102400.0       0.000000
      -12345.00      -12345.00      -12345.00      -12345.00      -12345.00
      -12345.00      -12345.00      -12345.00      -12345.00      -12345.00
       33.72004       42.26255       222.1404      0.3031805      -12345.00
      -12345.00     0.03898733       0.000000       0.000000      -12345.00
      -12345.00      -12345.00      -12345.00      -12345.00      -12345.00
      -12345.00      -12345.00      -12345.00      -12345.00      -12345.00
      2008        16        21        17        52
       370         6    -12345    -12345      9776
    -12345    -12345    -12345    -12345    -12345
         1         7        13    -12345    -12345
    -12345    -12345    -12345    -12345    -12345
    -12345    -12345    -12345    -12345    -12345
    -12345    -12345    -12345    -12345    -12345
         1         1         1         1         1
TALA    -12345          
        -12345  -12345  
-12345  -12345  -12345  
-12345  -12345  -12345  
-12345  -12345  -12345  
-12345  -12345  -12345  
-12345  -12345  BHZ     
ZL      -12345  -12345  
[...]
      -156.5444      -158.7066      -168.5642      -169.4842      -162.2211
      -157.5208      -163.2238      -168.0070      -163.5969      -168.0202
      -156.4928      -162.2248      -161.9425      -154.8392      -154.9472
      -151.2302      -143.9975      -132.6077      -136.3430      -126.7094
      -115.7465      -115.2293      -106.1017      -93.46631      -87.56186
      -80.91885      -77.10191      -68.11584      -53.10316      -51.72867
      -50.57726      -43.34209      -36.91344      -26.85923      -19.61028
      -12.81355      -2.527817       6.508160       14.52316       18.95911
       25.20744       27.05686       32.37167       43.03957       48.80969
       54.22113       65.77719       70.29219       69.66368       65.06512
       77.58411       85.46045       89.44058       88.09943       97.61005
       105.6498       111.9618       114.2462       134.4398       128.2318
       127.3871       131.9241       147.9533       154.2455       160.3469
       156.7756       158.0558       154.3387       170.5334       174.0280
       174.9352       183.8466       206.4243       217.3093       225.1538
       223.1406       224.9499       231.5427       242.8169       256.0255
       272.5380       272.6814       274.2297       280.7616       292.9480
       292.7363       297.7842       293.5098       290.3201       292.7882
       299.9828       305.1721       295.2942       284.7723       288.7345
       284.6784       277.9319       269.9961       264.9652       255.4519
       239.9642       235.5749       234.8126       222.2034       207.6680
       202.3823       194.2763       180.8992       176.1110       169.7294
       153.2692       140.6157       131.5700       122.9335       105.5009
       84.88844       74.08762       59.64841       45.66907       35.64381
       22.60483       4.277245      -8.529053      -17.59567      -22.79321
      -34.43503      -50.21893      -65.37245      -73.07437      -91.65964
      -97.45557      -99.62576      -115.5439      -128.8919      -137.6407
      -157.4384      -172.7487      -188.0500      -200.1423      -214.5790
      -219.6680      -233.0953      -251.6996      -263.6328      -278.2822
      -296.7478      -303.3375      -320.7405      -339.6141      -353.8176
      -362.3069      -375.4327      -392.9114      -407.6560      -422.2166
      -436.7721      -449.9279      -460.0463      -468.9089      -484.9392
      -498.2412      -502.6528      -513.6187      -524.3330      -533.4543
      -552.6958      -560.4688      -566.2345      -581.3826      -589.1631
      -583.8062      -594.5911      -606.4597      -604.7565      -606.8997
      -616.3761      -616.8466      -615.0601      -606.2705      -602.1936
      -613.4302      -604.4683      -591.0476      -597.4556      -597.4890
      -587.0818      -585.2297      -572.9287      -560.8101      -556.9172
      -553.3195      -534.3110      -521.4053      -509.2738      -497.8057
      -477.3883      -463.2590      -453.8823      -446.1528      -419.6863
      -402.9580      -395.0519      -380.6018      -354.9441      -338.7797
      -319.5269      -303.5400      -280.8810      -259.0842      -244.9318
      -224.6484      -204.9979      -191.3451      -162.8470      -139.2668
      -120.2549      -101.7618      -81.33060      -56.08491      -36.80024
      -15.65816       14.26484       32.46712       47.54858       76.25174
       106.3603       123.1032       145.3798       168.2615       186.2228
       211.7870       241.7568       258.9523       272.5441       294.9569
       326.5320       344.3231       364.9686       382.7557       405.1172
       427.3459       448.5122       466.5176       475.1091       490.0005
       509.7501       523.9736       547.3568       561.1896       562.9753
       571.6464       584.9319       597.5950       613.3625       624.1711
       628.4454       628.8342       632.4580       641.0798       644.8929
       645.4751       646.9038       648.3887       651.5859       650.9082
       655.6309       661.1558       662.5952       658.7043       664.6526
       660.0945       664.9397       663.2383       666.0728       663.9556
       662.3363       645.1851       650.8152       645.8987       644.9497
       634.0649       634.4957       622.9800       616.0742       597.1077
       598.2415       585.2617       578.3713       557.1892       554.3547
       542.3679       532.1526       505.6863       517.9845       496.4918
       459.9424       338.6309      -86.93652      -1680.973      -3236.442
      -2051.060       1470.250       3020.938       1734.947       2396.640
       5205.657       3976.611      -358.4746      -1915.230      -3079.172
      -3459.841      -611.1621       1524.150       456.0472      -1077.079
       536.1921       1295.263      -615.2432       2296.361       3031.738
      -1539.362      -786.9956       1211.700       480.5717      -311.9231
      -457.9580      -915.9102      -1176.877      -191.6426       2089.593
       2556.481       115.7446      -829.8838      -1202.966      -2555.951
      -1744.727       212.8226       18.73770      -216.2690       585.1426
       830.2327       1203.861       1137.978       330.7798      -831.2568
      -1768.731      -1231.577      -680.7836      -815.7039      -128.1560
      -555.4583      -1360.332       381.6274       1828.740       588.3716
      -962.4111      -1660.544      -1473.861       323.0907       700.7617
      -1503.330      -2346.224      -1030.988       133.0581       869.6794
       1493.437       296.5349      -1459.730      -867.1560       77.93359
      -794.5559      -986.3358       31.08960      -537.0483      -1928.417
      -1457.644      -892.8314      -323.8994       1141.893       431.3440
      -977.2059      -203.2279       206.5479      -828.0742      -1524.642
      -1447.791      -666.8796       491.9014       761.5170       374.0646
       45.52075      -1050.596      -1642.150      -745.5901      -1349.456
      -1293.372       771.0977       889.0044       276.4131       847.1895
       130.2158      -1660.966      -1933.252      -487.2543       272.4573
      -232.7056       545.1099       851.9080      -290.6687      -807.9298
      -709.9304      -86.43852       96.15967      -39.93732       399.2555
       101.9985      -1111.744      -1296.175      -733.0696      -324.0986
      -135.6331       371.3308       920.9431       326.0663      -164.0015
      -98.07739      -870.7893      -1266.996      -499.7489       231.8315
       117.4329       146.6114      -58.96570      -700.7829      -104.2413
       428.0751      -28.99316      -834.0928      -1302.897      -279.5510
       582.7465       21.82568      -665.8486      -722.5319      -522.4249
      -327.0430       479.9807       1193.275       240.1865      -758.8560
      -1028.517      -907.2455       48.11902       357.2354       284.6330
       418.3320      -76.85101      -294.9991      -200.5549       45.11084
       654.6411       463.0538      -48.97290       199.7058       256.0000
      -339.9329      -499.1006      -105.6986       283.2858       722.9490
       477.0898       180.2644       4.368164       56.38043       402.7725
      -22.62512      -36.47876       819.9788       861.7616       106.2281
      -97.94543       487.6869       500.2374       184.3082       258.9119
       160.7648      -97.76831       443.6414       1101.999       818.4764
       259.3605       143.9136       559.1084       363.1245       203.9592
       861.1564       397.8192      -430.6987      -289.7780       230.3159
       626.1431       567.2844       314.7605       418.0933       815.0505
       1016.057       648.1829       591.6873       468.2960       13.34216
      -257.0403      -591.0790       53.58032       588.6331       346.6448
       391.4738       201.1241       220.1760       709.0500       319.3015
      -415.6425       177.3684       106.9167      -754.8641       284.0488
       1475.640       444.9921      -375.1507      -269.3725      -180.8173
       311.8282       467.9528       371.2993       273.0360      -404.9758
      -304.8232       380.5156      -39.33917      -93.06396       651.7578
       867.2756       193.2733      -497.8639      -261.5402      -470.3469
      -523.4742      -61.34601       96.44116       393.9191       535.6013
       37.49512      -498.1494      -179.4568       431.8234       561.6550
       284.7562       92.50993       105.2672      -1.729233       12.07675
       143.5817      -91.78979      -636.9595      -297.7396       290.8712
       198.3203      -2.258423       51.22229       338.1693       670.6044
       441.0971      -216.5176      -428.8571      -280.9881       51.37305
       652.0096       374.8223      -270.4885      -220.5987      -303.3873
      -192.9079       179.0923       187.3035       720.9370       690.3891
      -211.4932      -249.2682       200.6890       241.6760      -297.9604
      -597.9644       54.78583      -80.55200      -591.8989      -104.4672
       271.9924       467.2294       604.0793      -20.28107      -389.5333
       232.3442       162.6919      -176.1836       292.3397      -71.38489
      -752.5278      -382.9555       42.32928      -43.69035      -86.04156
       76.87952       312.2144       348.3506       112.6013      -576.6315
      -850.9772      -222.8827       156.3069       284.2808       223.2058
      -560.8885      -751.5237      -423.6405      -588.7786      -535.3480
       311.0027       435.6245      -585.3575      -720.9261      -134.8077
      -359.1234      -418.3962      -91.56396      -497.3201      -523.2443
       101.1293      -82.99890      -410.4135      -435.3459      -380.0959
      -237.4890      -263.7830      -341.1462      -205.9550      -62.48950
      -133.6738      -468.6869      -659.1287      -359.0801      -80.97699
      -95.55798      -315.3494      -481.9665      -268.5708      -4.379578
      -262.8656      -92.09558       594.2133       310.5041      -145.2728
      -80.84912      -307.8071      -775.3292      -433.1549       206.6973
       218.2770       305.8566       281.5210      -754.2742      -1026.411
      -103.4553      -293.2957      -704.9963       83.47217       538.8621
       179.6876       67.55316       299.2119       190.2493       48.97168
       130.0167      -148.1991      -443.6833      -156.5121      -8.675964
      -224.1184      -379.1363      -210.4352      -8.072632       277.4658
       695.5658       484.9946       153.5395       49.99249      -233.4575
      -368.7524      -321.7932      -163.3946       35.19666      -202.6902
      -265.8537       228.0403       183.3696       251.3826       783.7611
       221.9716      -595.2290      -24.40501       64.15613      -304.8441
       50.96323       104.1663       264.8347       601.7757      -81.23010
      -535.7634      -198.0718       6.162827      -22.03810      -182.3638
       167.5220       502.4841       251.3104       334.4678       445.9057
       194.1007      -2.531708      -243.1263       22.83563       541.4992
      -77.09683      -241.8729       512.2264       409.4879       80.41240
       96.28864      -136.6553       560.2681       1507.462       962.6519
       613.1272       556.5248      -213.0011      -318.0948      -147.2493
       93.32910       589.0701       883.1848       630.9612      -317.8872
      -518.8303       677.0020       1177.909       623.5359       488.2190
       816.0701       1001.189       552.4702       7.300659      -379.3316
      -348.4768       194.6891       40.52509      -225.2610       451.9944
       684.9599      -149.1953       697.3269       1750.060       450.9492
      -635.0806      -1488.612      -2432.942      -3022.705      -4244.660
      -3382.758      -13.85400       1969.611       3530.973       5570.641
       3809.356      -234.1797      -1778.386      -1641.839      -1315.667
      -39.80469       1670.165       2036.930       342.8242      -1067.185
      -362.2556       512.0657       170.1705       612.9468      -21.34668
      -2889.110      -2817.615      -1310.468      -840.9675      -1071.890
      -938.5693       1985.206       3823.571       1774.655      -1168.361
      -1642.605      -1130.804      -309.9622       1114.368       896.8583
      -411.6035      -71.34375       2077.408       3081.275       991.0684
      -2939.438      -2925.975       37.07520      -311.8955      -1779.939
      -2279.970      -1716.459       338.9043       2868.746       5245.387
       4897.061       1538.286      -945.1826      -2878.053      -4975.003
      -4838.347      -1047.182       3806.692       3894.684      -291.1094
      -2737.429      -1988.927       703.7295       3906.656       5137.879
       2182.907      -4233.604      -6930.062      -2552.164       2236.701
       3388.988       2252.457       407.8765      -773.9053      -1038.950
      -88.11328       1395.681       1288.258      -148.7725      -2087.867
      -2453.458       108.6147       2643.141       2713.980       1895.278
       558.9346      -910.6729      -2044.327      -2431.376      -1284.088
      -342.9331       1306.050       3169.799       1616.696      -907.0840
      -1113.996      -308.9675       700.4244       994.2888      -350.6494
      -1970.614      -2172.586      -77.91003       412.7805      -311.5811
       1427.500       1762.230      -340.2327      -431.8224       899.0178
       77.15186      -1677.499      -2228.739      -2003.775      -648.1545
       774.8774       1543.965       1465.095       656.0815       744.2909
       549.7959      -1163.080      -2834.203      -2414.584      -701.4949
       900.9800       2324.265       1053.183      -1344.144      -1406.414
      -686.8305      -221.7141      -340.9246       23.06494       1598.570
       1266.165      -94.47754      -522.8667      -1211.929      -2112.761
      -1237.699       1275.990       2071.512       837.3105      -550.9165
      -1322.105      -909.0605      -1771.674      -2716.013      -566.0334
       999.9866       892.1972       215.6941      -1089.860      -14.15454
       1417.736       535.3463       62.72656       174.1570      -375.2529
      -475.3899      -513.6887      -921.0251      -1099.495      -631.5303
       106.2844      -112.0648      -348.6489       693.1484       751.3801
      -859.8208      -1542.687      -642.6234       350.7682       341.6331
       137.1581       220.0220       272.6436      -122.7490      -416.3091
       360.7843       558.3600       399.8353       180.0625      -479.1198
      -646.5649      -138.4525       429.1539       82.67725      -856.2664
      -578.2150       154.1354       398.7495       987.8892       949.1005
       230.7427      -935.7549      -1974.840      -674.7136       1207.433
       1396.893       635.3068      -52.29980       260.7466       1134.552
       950.3831      -111.8882      -561.4280      -579.1584      -687.5001
      -418.7541      -31.44147       208.2324       46.51154      -50.89209
       599.4084       1117.585       419.9047       51.06024       250.9304
       16.03600      -139.3966       34.94824       434.1799       815.1328
       1067.371       1090.273       178.6951      -715.7361      -745.0161
      -967.6371      -945.5613       281.7590       1271.395       1069.091
       400.6934      -214.5559      -733.4913      -127.0508       703.4751
       552.4362       370.4548       301.6255       164.0694       215.7366
      -340.3799      -632.6671       213.5457       547.1283       350.2350
       314.0128      -283.5952      -1170.908      -1355.861      -235.2593
       1046.019       706.1217      -648.4636      -865.6547      -429.9090
      -337.7210      -139.1563       232.8613       370.7241       28.71490
      -181.4540       356.3928       367.9104      -66.71570       15.64380
       545.2097       713.5681       4.483398      -1136.836      -2152.580
      -1938.215      -636.7211       78.37939       273.4266       532.4880
       659.0243      -102.7991      -671.2572       156.2981       452.6934
      -35.88077       235.1946      -37.07178      -917.6899      -908.8527
      -343.4030      -66.24365       237.3725       374.3154       228.7517
      -205.0963      -632.4396      0.6982422       965.1152       646.1625
       198.2456       274.2065       135.5493       289.8149       314.7234
      -401.8337      -663.1637      -361.2025      -103.7056       36.49878
       241.7129       346.6684       105.7872       94.07703       482.7339
       195.6690      -409.1052      -88.93311       700.0366       900.9996
       656.3351       292.8596      -58.29718      -333.5570      -80.14044
       391.1046       232.0022      -421.2302      -491.9435       384.1704
       1063.825       654.8432       103.0705       138.1055      -129.9326
      -478.7723       83.55396       300.1913       215.2252       285.7521
       315.9824       590.2349       812.8381       661.4331       365.1068
       343.1396       249.3950       41.63739      -75.30681      -218.3572
       240.7623       686.9482       261.7621      -216.2568      -29.26355
       154.4631       428.1790       617.2760       482.1137       422.0073
       119.5323      -325.6614      -365.2257       32.88684       466.6472
       616.3773       452.0504      -30.81943      -249.4379       85.80914
       317.2264       227.8579       565.0894       348.3294      -236.2270
      -118.9153      -303.2035      -702.6577      -419.6629       35.95422
       349.9240       493.0673       212.2695      -355.0745      -563.7762
      -453.6274      -167.6088      -6.402039      -35.54272      -329.7571
      -754.8224      -541.1781      -322.0330      -519.8888      -311.5197
      -140.7670       49.33325       352.7766       120.7009      -411.2993
      -804.5414      -625.8777      -385.0244      -728.4746      -790.3250
      -633.2880      -480.0371      -491.1409      -856.1228      -1008.743
      -958.9550      -533.5053      -20.72094      -39.42642      -10.05902
      -139.7698      -237.7794       38.84998       254.4817       270.9380
      -335.1035      -1079.340      -876.8845      -466.0595      -270.6880
      -93.40973       31.30664      -144.5483      -641.1863      -980.1273
