     0.02500000      -7519.621       8159.031      -12345.00      -12345.00
      -29.99501       214.3800      -15.67000      -12345.00      -12345.00
       0.000000       11.85000      -12345.00      -12345.00      -12345.00
      -12345.00      -12345.00      -12345.00      -12345.00      -12345.00
      -12345.00      -12345.00      -12345.00      -12345.00      -12345.00
      -12345.00      -12345.00      -12345.00      -12345.00      -12345.00
      -12345.00      -31.02070      -68.74750       1316.000       0.000000
      -31.24600      -68.98500       0.000000       102400.0       0.000000
      -12345.00      -12345.00      -12345.00      -12345.00      -12345.00
      -12345.00      -12345.00      -12345.00      -12345.00      -12345.00
       33.72004       42.26255       222.1404      0.3031805      -12345.00
      -12345.00      -1.775548       90.00000       90.00000      -12345.00
      -12345.00      -12345.00      -12345.00      -12345.00      -12345.00
      -12345.00      -12345.00      -12345.00      -12345.00      -12345.00
      2008        16        21        17        52
       370         6    -12345    -12345      9776
    -12345    -12345    -12345    -12345    -12345
         1         7        13    -12345    -12345
    -12345    -12345    -12345    -12345    -12345
    -12345    -12345    -12345    -12345    -12345
    -12345    -12345    -12345    -12345    -12345
         1         1         1         1         1
TALA    -12345          
        -12345  -12345  
-12345  -12345  -12345  
-12345  -12345  -12345  
-12345  -12345  -12345  
-12345  -12345  -12345  
-12345  -12345  BHE     
ZL      -12345  -12345  
[...]
       76.19550       67.81705       61.02356       51.00371       40.06029
       32.60501       25.76421       28.38493       17.25161       12.94943
      -1.915329      -6.727816      -5.139042       12.75942      -7.876358
      -26.89169      -33.19810      -16.47336      -34.35216      -48.88597
      -50.98584      -69.87466      -66.35425      -62.34772      -64.59286
      -78.79645      -95.03610      -71.42857      -90.51779      -69.94556
      -95.39282      -106.7143      -92.69641      -105.3990      -94.33090
      -97.91760      -89.43289      -100.6624      -96.49277      -86.35791
      -113.2883      -85.84314      -98.46222      -99.41666      -96.39343
      -96.87650      -95.31232      -113.4382      -135.9798      -116.3730
      -103.7983      -115.0967      -127.3285      -128.0823      -132.1508
      -138.7189      -140.2809      -129.0432      -148.6973      -155.7551
      -153.2163      -162.1071      -164.6569      -164.9639      -181.5223
      -174.2798      -189.3459      -190.9400      -189.6581      -201.2520
      -208.2501      -207.8202      -209.3317      -218.2872      -225.5362
      -222.0162      -225.7554      -227.5587      -237.4727      -228.3993
      -233.1038      -228.1063      -235.6992      -243.8961      -239.9880
      -234.4624      -235.2277      -220.0922      -234.1298      -239.0043
      -228.9869      -207.7846      -207.8411      -210.1459      -196.1470
      -187.1467      -190.3584      -195.0618      -193.7736      -177.6646
      -190.6814      -174.1802      -176.1578      -181.3446      -168.8815
      -163.3177      -167.2189      -168.1721      -169.5540      -167.2054
      -156.9676      -151.9898      -174.4898      -163.5588      -167.0046
      -155.7450      -163.3772      -153.0599      -155.6326      -171.7571
      -162.0634      -154.0523      -149.3270      -146.1192      -142.2415
      -133.7195      -138.5543      -140.7376      -162.9606      -149.9714
      -136.0589      -149.4673      -165.5764      -157.5944      -158.3992
      -156.5068      -138.9030      -157.7311      -164.3129      -154.7383
      -158.6290      -161.1204      -157.7561      -164.5952      -173.5753
      -159.4779      -171.0916      -177.8881      -173.8085      -183.5254
      -189.7349      -191.1621      -199.5564      -207.3407      -187.7205
      -193.4743      -205.1765      -199.9452      -203.2587      -197.4417
      -194.3046      -192.1852      -176.8052      -180.0125      -170.9512
      -150.7151      -145.0798      -137.7775      -120.5988      -113.6142
      -97.66441      -76.47217      -64.44837      -46.58984      -29.68301
      -9.595570       11.72013       30.27316       47.47070       75.01953
       117.0903       129.8442       139.2322       166.4568       193.2018
       216.5367       237.2008       255.0165       276.6969       294.7645
       317.9768       333.2054       364.8358       383.9723       405.2290
       425.0812       440.5762       452.7361       490.3232       504.5828
       522.7247       549.3816       559.4719       575.3934       591.2085
       599.8713       623.8123       625.4103       635.5337       645.4629
       656.8015       653.3435       666.2892       679.1406       672.1309
       675.5583       687.6631       679.2626       679.0698       677.4329
       668.1797       671.3904       667.2665       656.3876       666.1508
       657.8557       656.0479       651.5116       642.1974       626.0068
       624.9510       618.2542       615.3995       607.9536       596.2402
       587.9747       575.7693       567.3135       555.4263       532.5890
       520.0382       507.2278       495.4982       483.9778       477.6573
       460.9961       440.4296       413.2064       407.6279       399.9814
       375.1768       361.3282       344.9220       324.5427       306.1929
       280.8561       262.2169       251.9553       235.1603       216.4558
       193.5195       173.6208       157.6333       135.7448       116.5894
       83.49255       72.96513       48.90722       20.69183       2.095535
      -29.77563      -54.70329      -71.18283      -93.23206      -108.1793
      -134.4606      -157.3787      -171.2468      -193.0474      -211.0883
      -221.0685      -246.0356      -259.6353      -284.0870      -304.8948
      -316.5977      -336.9694      -348.8940      -356.8596      -371.3540
      -387.5825      -397.8134      -408.6216      -420.4885      -435.6263
      -446.5339      -449.3237      -461.8655      -466.7065      -470.4548
      -469.2849      -476.4642      -487.9722      -492.0272      -489.1842
      -499.6262      -494.2798      -497.4971      -495.0792      -496.0254
      -488.1265      -490.8773      -475.1980      -473.1361      -470.7947
      -479.5031      -472.7499      -473.3738      -461.3667      -470.1362
      -469.1875      -498.2063      -638.5044      -1266.600      -2220.088
      -2522.775      -1858.538      -588.6804       700.2861       2377.142
       4141.469       3783.928       717.5571      -2208.639      -3318.655
      -1335.116      -555.1299      -3987.614      -4024.865       456.7734
       2490.770       384.9803       255.7310       67.71460      -1030.337
       941.8247      -630.7422      -2973.326       1005.464       934.6758
      -2513.198       98.46680      -611.9351      -3820.441       197.1201
       3419.981       645.8699      -1308.229      -1090.330      -1317.585
      -1189.773      -97.51953      -463.6785      -729.1998       147.8403
       755.6797       1602.300      -1356.210      -3377.593       253.2861
       1984.888       1421.362       173.6033      -1380.843      -993.7441
      -653.5444      -769.7085      -1243.282      -1280.899       1342.917
       2191.153      -394.7477      -22.92365       482.9558      -1674.958
      -692.6147       2453.732       616.9609      -1826.577       534.1562
       24.53369      -1632.984       573.3623       339.6338      -1870.297
      -290.3555       2117.334       2280.088      -136.3769      -739.6359
       823.4680      -113.4585       550.7947       1330.864       179.8147
       1112.100       114.4800      -3045.564      -1778.876       585.9197
       528.2288       755.4390       1226.110       1300.291       894.5416
       518.3314       161.1140       671.4971       1507.393      -498.7310
       24.22900       2395.087       12.04883      -1401.638      -1141.161
      -792.8633       1209.429       1446.618       454.8196       695.5918
       1769.353       1678.126      -69.21777      -792.2769      -1330.940
      -442.7153       1305.666       1191.029       1327.898       1679.195
       767.7200       347.0179       793.4003      -308.1455      -870.5203
      -454.8733       545.6406       1856.794       902.0640       963.3386
       1450.131      -169.4045      -515.1528       76.91895       679.1611
       1348.345       1009.285       285.0963      -334.0247       396.0000
       1514.871       1672.943       1209.479      -405.8039      -245.4827
       772.4779      -625.2201      -295.3975       1562.040       1629.650
       1676.339       1260.768      -713.2220      -1173.073       816.0488
       1769.897       760.9971       798.3022       983.8087       556.4932
       232.9126      -675.5149      -359.8193       392.3054       654.3687
       1162.785       367.0767      -729.9113      -202.8662       381.3088
       940.7695       1628.575       1477.749       765.6517       578.7252
       207.1461      -600.8301      -102.3657      -404.1962      -182.3259
       886.0830       400.0740       590.4030       490.8065       167.9653
       310.3922      -179.0871      -32.39018       105.6030      -145.7327
      -172.2433      -5.280090       97.66895      -678.2288      -968.1577
       435.7288       508.7791       149.0039       241.2510      -708.0498
      -481.1355       539.4927       730.6340      -656.9712      -1743.856
      -1180.376      -577.5253       25.93201       210.4167       152.6782
       185.7983      -935.2947      -1321.813      -442.3455      -474.0210
      -615.2753      -920.6284       222.5100      -689.6123      -2628.253
      -320.2565       178.7257      -15.17749      -296.0386      -1466.112
      -558.8806      -367.1562      -1032.474      -656.8060      -244.4026
      -966.5325      -471.8059      -214.9473      -2637.236      -2483.330
       272.7128      -256.0608      -1056.018       158.1621      -520.3867
      -1234.819      -1010.960      -2193.885      -1846.292      -147.9490
      -156.6892      -526.4702      -733.2905      -715.6204      -663.4863
      -637.0209      -396.6143      -621.3088      -969.8008      -1618.213
      -973.5398      -237.6787      -1216.669      -965.3647       75.94263
      -231.9844      -1323.626      -1585.913      -604.9270       305.1821
       299.8605      -492.7583      -727.0686      -532.0081      -881.1636
      -138.1490      -116.6836      -1171.182      -820.9917      -724.4100
      -24.43121       281.4275      -626.4584      -174.9095      -94.34746
       25.87439       107.1562      -723.3361      -681.8054       11.36499
       587.6595       228.1980      -182.0030      -86.59991       165.0942
       651.5996       25.38159      -706.2349       326.3015       913.5667
      -71.88733      -438.4866       41.73267       395.7936       626.2806
       673.4808       638.8918       321.8463      -5.898315       156.7939
       523.0158       162.3814      -398.9483      -126.8027       516.0569
       1090.496       1176.849       161.8458      -215.0322       652.3060
       134.1763       516.8735       1362.483       392.3091       587.6036
       717.4636      -249.5928       170.2570       833.3167       352.8589
       187.2920       426.2678       661.6023       1225.727       1445.349
       912.1691       218.2684      -82.12915       84.34570       534.8364
       217.4575       184.0773       611.7148       716.2126       804.3086
       717.6461       524.9020       15.57336      -24.37659       389.3335
       1045.303       608.8535      -121.4919       1147.719       1616.394
       184.9726      -332.6160      -31.07495      -440.0491       228.8630
       1196.603       564.6836       518.5358       538.4949       126.0311
       262.1505       246.4192       88.39639      -123.4050       71.59814
      -243.1360      -495.5266       238.0667       978.2793       1009.902
      -139.4291       125.3806       937.9321      -448.6445      -967.9890
      -655.5365      -248.9141       551.5166       300.9941       341.6772
       492.4717      -337.5012      -986.7866      -306.5298       119.8501
      -297.1930       159.4591       524.5098       157.9255       375.8352
       322.9404      -501.3751      -157.3031       385.3342      -405.9172
      -1005.874      -193.4311       290.4216      -289.5545      -193.4009
       18.71658      -92.20229       45.64459      -280.8017      -360.4624
       421.2406       384.9041      -668.9150      -615.9301       138.1768
      -120.1619      -853.7311       6.051392       501.9720      -161.2135
      -4.744324      -234.8821      -173.0691      -88.39136       166.7114
       552.4628       161.0165       214.9293      -39.62915      -376.0186
      -732.5012      -464.7582       154.2124       64.24243       535.7301
       598.4811       139.3739      -242.0271      -133.4399      -271.3370
      -647.8629      -6.126160      -306.7792      -375.7577       188.3353
       48.24207       498.8643       598.4641      -181.1134      -85.31290
       207.1174      -639.6127      -1051.896       447.7681       459.3040
      -318.4045       724.1713      -135.5894      -432.2596       257.2017
      -938.8936      -802.5352       387.8737       774.0809       343.5965
       14.49438      -203.2134      -897.6333      -638.8923      -297.2534
      -475.2236       635.1531       413.5393      -787.0884      -966.9487
      -752.2361       164.1221      -357.2673      -1491.153      -1114.904
       277.0613       772.2896       1012.112       2205.982       2780.981
       3081.706       1409.191      -40.61377      -25.76367      -4132.828
      -7519.621      -4677.721      -2338.860      -1604.574       1019.726
       2306.527       2217.854       2015.239       1035.190      -320.8135
      -3199.297      -2601.993       1074.726      -200.1033      -2364.997
       1686.699       3983.515      -883.2974       753.9414       1059.074
      -5765.726      -3394.219       1602.070       4284.756       2398.765
      -1598.458      -1298.762      -1569.210      -1011.389      -1170.519
      -4278.756      -5749.929      -2862.666       531.5586       4823.695
       8159.031       6511.387       1903.545      -1152.379      -2634.141
      -6704.714      -6374.555      -1414.469       1160.878      -105.4279
      -616.4941       2783.697       2824.728       862.5215       2762.981
       3160.700      -254.1650      -700.7661      -517.0947      -1842.479
      -1948.834      -2234.204       1287.048       3550.822       1584.226
       904.6865      -3968.102      -4176.080       535.2341      -1055.373
       3108.539       4612.760      -2564.541      -1533.939       2822.352
       273.2074      -921.4541       3284.125       2121.979      -1780.714
      -1659.123      -700.3487      -266.9467      -484.3995      -1081.631
       626.3157       576.4331      -2121.605       88.34058       1535.832
      -417.0479      -712.5309      -189.9790       1636.155       4573.987
       3237.883      -1106.158      -1008.447       1092.617       2174.482
       777.2197      -3064.303      -2164.235      -20.36887      -446.0961
       452.1938      -497.7781      -910.8140       2525.894       3268.027
       377.5769      -2111.174      -194.1401       3469.077       686.8191
      -2045.602       2.708496       1619.996       2136.358       530.3667
      -2115.306      -414.7227       3462.744       3236.636       932.5244
      -508.6934      -1870.123      -1184.593       92.70557      -1470.729
       199.7275       3472.439       1343.533      -124.5826      -19.23889
      -727.8885       361.8477       581.6685       1580.720       2195.278
      -509.3110      -515.3875      -286.1118      -1648.619      -1281.206
       311.8218       1497.809       901.6636       1843.494       1866.504
       293.7053       1396.166      -1007.695      -3130.021       1064.004
       1813.127      -848.5234      -1236.523      -603.9885      -350.2817
       405.7588       1856.270       743.7124      -1024.452      -211.5374
       367.2682      -288.1516       206.9180      -1144.562      -3079.546
      -737.3735       1064.672       447.4907       274.4938       470.7355
       66.40015      -742.7874      -343.6877       260.4656       399.8176
      -664.1689      -2523.269      -1724.034      -356.9680      -377.1795
       66.97571       757.0330       187.0671      -621.3054      -196.6052
      -502.3447      -2155.293      -1475.229       1713.193       1832.968
      -1003.487      -2455.028      -1537.587      -329.7601      -118.2879
       124.9430      -63.06982      -793.7061      -577.0056      -387.4401
      -834.3474      -254.2777      -36.45569      -592.0156      -638.3899
      -283.1089       1006.993       1575.979      -95.99463      -1347.267
      -1720.612      -931.0972       1682.153       1373.719      -1500.524
      -1774.260       529.5065       485.1769      -736.8973       595.7518
       488.0732      -1091.065      -1413.189      -541.7859      -276.2676
       150.2441       1616.744       1107.821      -116.6585      -27.51813
       346.2025       312.8624      -174.0525      -612.9818      -392.5792
      -10.99756      -445.8203      -1856.867      -946.2969       1373.968
       1557.487       1752.262       350.1097      -536.4974       698.4304
      -199.6589      -900.9794       129.8066       1170.138       592.5750
       123.1490       469.9207      -394.2465      -87.71545       448.8246
      -54.00830      -519.6282      -859.2371      -341.0972      -754.6344
      -387.9922       1026.580       1193.439       685.9641      -833.3608
      -1314.361      -404.0269       224.4370       794.2861       1055.402
       1176.549       920.6763      -110.2769      -879.1321      -1397.711
      -626.8199       542.1182      -146.0923      -140.1563       550.7952
      -168.8675      -519.3613       762.6192       654.8638      -560.4229
      -1240.641      -523.0586       750.8438       1034.542       1224.557
       278.8994      -593.3562      -1130.492      -984.8535      -296.6133
      -1207.811      -1282.672       245.5216       538.4720       68.19562
       273.0010       266.2873      -115.8184       91.09399       645.7363
      -20.30957      -612.8070      -560.6866      -869.2788       776.9304
       1397.073      -459.8286      -386.1666       215.0135       332.7300
      -153.9465      -817.3463       195.3781       315.4788      -815.8125
      -197.2524       941.9541       911.5545       213.3171      -669.0396
      -632.1033      -630.7024      -1084.596      -752.0884      -765.4194
       106.9756       1658.375       1734.278       1157.299      -97.99951
      -533.8950      -453.5557      -401.1148       220.9849      -688.2058
      -1140.913      -234.0164      -76.76193      -219.6317       165.4614
       666.9915       161.6429      -34.75879       682.3054       971.7991
       872.3910       618.2305      -306.7012      -922.1294       378.5822
       764.0311      -375.5291       77.54797       583.7595       512.8361
     -0.9532471      -924.0543       88.09619       1357.020       869.7097
       190.7486      -69.08521       27.90967       522.4482       635.3953
       611.1636       493.3682      -261.2833      -375.7078       854.1990
       1325.872       827.9507       868.6398       598.6744       386.6060
       14.94940      -333.1665       707.9609       851.3745      -427.6470
      -224.2314       248.6704       721.6812       1538.868       671.8696
       424.1460       692.3533       211.0384       45.42419      -559.0494
      -493.5371       1047.074       1480.458       416.6833      -49.71143
