     0.02500000      -6471.449       7224.423      -12345.00      -12345.00
      -29.99006       217.1849      -19.09000      -12345.00      -12345.00
       0.000000       14.15000      -12345.00      -12345.00      -12345.00
      -12345.00      -12345.00      -12345.00      -12345.00      -12345.00
      -12345.00      -12345.00      -12345.00      -12345.00      -12345.00
      -12345.00      -12345.00      -12345.00      -12345.00      -12345.00
      -12345.00      -30.65860      -69.43630       2628.000       0.000000
      -31.24600      -68.98500       0.000000       102400.0       0.000000
      -12345.00      -12345.00      -12345.00      -12345.00      -12345.00
      -12345.00      -12345.00      -12345.00      -12345.00      -12345.00
       78.10726       326.3732       146.6042      0.7022638      -12345.00
      -12345.00      0.1013673       0.000000       90.00000      -12345.00
      -12345.00      -12345.00      -12345.00      -12345.00      -12345.00
      -12345.00      -12345.00      -12345.00      -12345.00      -12345.00
      2008        16        21        17        55
       790         6    -12345    -12345      9888
    -12345    -12345    -12345    -12345    -12345
         1         7        13    -12345    -12345
    -12345    -12345    -12345    -12345    -12345
    -12345    -12345    -12345    -12345    -12345
    -12345    -12345    -12345    -12345    -12345
         1         1         1         1         1
TOCO    -12345          
        -12345  -12345  
-12345  -12345  -12345  
-12345  -12345  -12345  
-12345  -12345  -12345  
-12345  -12345  -12345  
-12345  -12345  BHN     
ZL      -12345  -12345  
[...]
       200.5112       175.0033       160.7479       157.7571       148.3176
       142.4922       147.2016       143.7636       136.9041       124.1427
       104.3331       100.6974       121.0958       114.6718       97.15024
       75.05014       75.31531       70.37994       63.36279       72.32581
       88.53845       67.53125       41.27526       31.06180       33.77565
       44.70392       44.91959       22.65534       13.54823       6.814781
       10.61829       23.12453       21.54352      0.8091388       2.717786
       1.371750      -8.433734     -0.4500999       15.23862      -8.533328
      -3.859657      -7.189430      -24.82767      -3.906647       21.18705
      -6.434845      -9.712124      -10.21338      -17.33783       7.479080
       24.86570       9.351021       26.77711       19.66609      -7.494553
       15.84866       49.95225       32.37992       25.51839       29.68961
       24.84509       26.38716       33.88533       35.00302       51.16490
       34.33960       20.59894       35.90923       47.12253       46.55954
       55.44336       44.60672       45.02820       49.00937       52.13260
       65.09113       82.09720       69.15302       50.16867       47.41692
       76.57654       99.41106       89.70157       70.54974       82.11285
       83.19687       91.85162       125.2646       131.0538       113.3480
       106.4326       97.42892       116.0312       147.0914       151.7311
       146.3823       163.4698       154.6656       152.3795       172.7253
       187.1006       186.2881       169.3203       164.7952       181.8241
       168.7383       176.0938       219.0686       230.1058       181.5044
       167.8890       196.9426       221.7456       193.4000       170.9358
       196.9525       219.7034       199.2854       185.8711       197.3690
       216.9166       196.4027       166.0890       165.5197       202.3917
       205.1385       191.1857       175.3676       188.1372       187.3081
       179.0708       159.3795       161.4874       165.5687       160.0225
       148.1393       149.9364       149.7829       142.5370       121.2970
       123.4656       124.8651       123.7284       102.9528       95.54126
       86.11453       79.24832       67.90152       50.60091       30.87907
       30.56718       12.20438      -8.132080      -22.48799      -23.56064
      -39.27411      -52.48145      -76.16534      -99.09845      -106.5447
      -103.8912      -137.1826      -153.4400      -166.9329      -184.6277
      -215.8636      -231.6890      -241.8955      -236.4424      -267.7620
      -302.7898      -318.1389      -307.0620      -323.2996      -346.1475
      -385.4421      -399.9431      -407.3870      -428.6449      -448.2002
      -434.4343      -452.4465      -494.4146      -522.0956      -503.7659
      -501.0979      -531.8269      -569.8398      -553.3325      -548.9897
      -583.1240      -593.3561      -569.2535      -571.5698      -595.0110
      -620.4774      -611.9773      -579.5210      -579.8508      -609.5117
      -602.1211      -585.8936      -593.2349      -600.6293      -584.3053
      -561.9692      -557.3755      -579.2146      -575.1583      -537.6648
      -513.4177      -527.0485      -521.5028      -499.3323      -485.4229
      -485.2366      -464.9241      -433.9282      -417.0565      -435.7405
      -432.4216      -394.0103      -353.4266      -347.5168      -351.7982
      -331.3719      -290.1706      -289.7029      -285.0436      -244.4605
      -207.4359      -212.2521      -209.7878      -192.7302      -143.2888
      -123.6383      -123.0446      -98.45395      -66.85114      -78.24895
      -30.72095      -193.5061      -598.3518      -368.4302       456.0394
       638.5096       36.21915      -392.8645       483.8547       525.9077
      -634.1700       344.1407       810.4512       13.41345      -92.41730
      -245.5667       320.8424       574.0432       260.2803       380.3907
       459.4479       321.4195       112.3855       396.1080       587.3596
       247.7317       380.8925       371.4308       213.9321       153.3289
       292.3843       902.1512       763.5131       164.6969       405.9705
       869.8212       476.2366       63.36267       471.3245       711.3711
       838.3710       828.1185       362.5820      -85.11206       410.3669
       1233.158       883.8698       683.0756       624.1580       334.8608
       690.2393       568.9268       634.2432       982.4058       688.6217
       346.7228       415.4907       813.4036       730.3064       508.6292
       494.7305       841.6558       844.1904       33.17188       516.7563
       1185.364       372.4521       454.2314       939.7942       344.4121
       257.9744       646.4883       890.6981       675.8523       458.1597
       398.0106       225.5671       641.8134       727.4880       219.8022
       279.4647       659.9805       306.2617      -114.2356       380.6455
       729.1704       441.9240      -92.15756      -197.4250       496.1289
       779.5265      -93.85056      -483.8362       477.6013       766.0210
      -94.28802      -221.0507       175.7616       177.6384      -60.96924
       130.5720       585.2521      -40.59760      -499.8895       88.06036
       177.6877      -362.7414      -406.6393       329.4357       161.5474
      -594.8878      -564.8696       20.84146       328.4531      -199.9956
      -399.6852      -292.9592      -89.37064       124.7873      -138.0527
      -51.85974      -200.4124      -472.9673      -185.9433      -65.56116
      -73.41553      -327.6495      -234.9054       13.58765      -440.6387
      -320.9135      -112.2341      -252.9820      -246.8413      -185.4054
       14.15326      -232.9259      -203.6536      -42.59265      -371.6354
      -237.9161      -117.0287      -76.68396      -69.30994      -362.7535
      -275.2894      -4.379456      -165.1560      -341.3965      -341.0693
      -348.2335       20.57196       242.2225      -146.7690      -371.2607
      -308.2153      -20.63574      -221.7726      -692.9321      -299.0843
       136.7739      -276.6235      -645.4729      -196.3383       34.79504
      -176.3887      -330.2661      -537.3782      -190.3208      -244.7693
      -753.9915      -238.1531       88.24438      -436.9664      -514.3722
      -137.1204      -334.8949      -561.5996      -119.4543      -290.0017
      -386.4775      -337.4944      -851.6934      -377.7655      -126.6226
      -732.9905      -416.8782      -216.6820      -471.2024      -473.4299
      -457.0701      -368.8911      -254.3757      -406.7555      -541.9989
      -382.5825      -206.9248      -247.5656      -615.0488      -634.1313
      -355.8411      -288.8716      -130.7814      -374.1782      -718.6854
      -363.8976      -184.3978      -367.1610      -234.8622      -332.6431
      -339.2318      -335.6572      -397.7154       5.236328      -135.4100
      -623.1506      -188.8198       27.29016      -339.0509      -15.62549
       30.95764      -318.7431      -350.0712      -67.86798       3.217224
      -368.5944      -121.1797      -62.73993      -292.5836      -126.1121
       13.51031       164.3610       22.69897      -208.9433      -145.8589
      -218.1111       172.0094       472.8214      -81.93378      -309.4146
      -63.32610      -33.42474       157.2219       251.0595      -219.8199
       23.98877       495.8513       126.1951      -293.4447      -91.96265
       469.5973       434.5759       168.4376       15.27136      -250.9408
      -109.5977       330.4988       469.2080       72.17917      -192.5166
      -25.36401       293.5767       431.7278       7.881683      -18.92358
       221.0612       155.2775       76.38782      -48.94409       263.2523
       210.1836       30.90015       443.6555       441.6355       181.0966
       192.1991       23.18661      -286.6661       230.4370       742.6741
       321.7230       36.21021       356.1346       398.8721       41.19672
       140.2087       171.1943       88.78278       337.9295       212.0422
       376.8832       536.4649       213.8409       192.3036       151.5608
       232.9446       247.7526       139.9276       406.4163       526.3265
       197.4608       171.4570       327.6084       432.1001       542.6664
       225.9019      -34.57471       382.6265       490.5111       113.9496
       251.8198       288.4674       251.5037       415.0940       308.7734
       295.4088       304.8394       177.7279       104.5438       439.1888
       499.2908      -90.96201      -16.51697       511.0853       538.5367
       340.6191       107.2889      -117.6427       183.1529       317.2391
       98.40961       203.9796       113.3248       150.6273       146.7546
       63.92969       498.2659       361.3647      -119.8577       14.63524
      -5.346741       14.69373       490.7536       258.9060      -77.45996
       154.4929       194.9564       112.6311      -135.6639      -10.39398
       324.9536       62.40941      -50.15758       104.1696      -16.22333
       76.22632       212.1801       30.43752      -71.11639       111.7047
       225.0643      -215.8481      -61.37549       480.6267       270.7173
      -154.9517      -352.0321       255.7789       609.4655      -122.6997
      -154.1131       123.9669      -145.1259      -213.1720       166.2827
       283.5497       48.53647       63.29938       65.76837       127.3489
       51.16304      -115.7742      -12.88824      -16.74225      -162.1341
      -165.3533       178.9794       174.6819      -45.70514       172.9565
      -26.77008      -277.5584       9.241196       76.79420       2.078918
      -231.5136      -243.9462      -6.202637      -162.0974      -38.17572
       285.9756       117.4650      -126.5586      -155.7328      -154.3438
      -76.28571      -38.00421      -196.1974      -363.7795      -262.2977
       214.3368       195.0075      -214.9639      -123.8818      -124.2861
      -354.4311      -180.7537      -69.23199      -189.7462      -131.4171
      -270.3914      -411.6804      -144.8671      -45.23840      -170.3279
      -105.6493      -162.6515      -240.3335      -138.1426      -294.7224
      -379.7709      -291.9779      -294.7717      -131.0046      -298.4540
      -511.8331      -258.3834      -124.2448       40.60867       201.8710
      -138.7444      -501.5737      -525.3511      -519.9337      -385.5750
      -97.93329      -125.3698      -189.6538      -371.1921      -752.7263
      -433.0694      -118.7146      -562.1272      -622.8740      -151.0742
      -12.20923      -191.3876      -106.8816      -347.8860      -628.6273
      -194.8197      -167.2922      -410.5682      -221.1829      -311.8285
      -471.9114      -234.5099      -251.5076      -449.0513      -237.6089
      -104.1000      -251.0480       62.35742      -32.73901      -691.3212
      -435.6000      -24.79395      -116.7400      -362.3828      -450.1672
       8.929230       81.18915      -188.4601      -106.3624       56.35016
      -136.4783      -508.3864      -236.6091      -191.5004      -156.0661
       282.0599      -187.3665      -589.8676      -259.8121       121.6512
      -11.95911      -347.9051      -93.10767      -370.0486      -612.9601
       13.51480       137.3112      -1.692871       221.9729       363.1351
      -78.50110      -620.2328      -27.67273       538.1008      -172.3365
      -281.1785       499.9127       443.2073      -181.9438      -258.2583
      -56.03131      -149.4095      -70.22034       84.74169       30.69485
       8.539062      -75.36707       337.5643       590.5057      -267.4836
      -378.2117       623.4137       394.2167      -753.1639      -232.5096
       773.0602       357.6807      -196.8784       89.34985       682.7100
       944.5643       412.3551      -185.8278       205.5367       546.4444
       123.8295       57.79065       499.8583       64.43262      -501.9751
       135.3540       808.7356       479.3423       1.217228      -28.53760
       33.72253       190.1469       366.7431       188.6047       6.857788
       467.1133       871.6501       603.1901      -153.8945      -217.3674
       366.8149       302.3065       386.6813       467.1413      -267.5242
      -428.6193      -97.80273      -614.1851      -1029.896      -624.6704
       979.1011       2911.009       2316.203       1890.138       3321.377
       4395.462       3139.217       844.6641       2729.554       1703.854
      -3564.344      -5632.516      -3902.780       1888.771       2526.819
      -1112.109      -1131.783      -259.8920       1352.613      -1316.486
      -4813.277       709.2158       5557.346       2391.038      -659.1528
       1773.287       3915.527      -371.2617      -6471.449      -6455.266
       81.99805       7224.423       5530.907      -1622.045      -111.8179
       3174.479       358.2227      -1510.989      -1145.745       356.7861
       3613.211       4516.161       34.80664      -4030.521      -5124.903
      -5424.899      -2890.142       1448.351       3186.280       2538.004
       2420.073       1723.252       1018.499       1926.922      -1632.426
      -4154.735      -93.45898      -900.5742      -3779.651      -1742.921
       161.3322       379.9087       420.9199       1014.338       3136.284
       4453.394       2801.286       464.8691      -1895.572      -3197.191
      -2696.184      -2947.092      -3974.850      -426.7041       4518.872
       2075.936      -1772.172      -493.0227       507.2354      -860.0613
      -973.1771      -151.0197      -559.5145      -592.5834       280.0757
       700.2363       1203.419       609.9692      -788.9492      -1684.985
      -2288.561      -2371.109      -922.5471       431.2510      -569.8962
       494.0923       3008.928       1495.734      -1288.987      -2654.979
      -2928.588      -1246.564       25.07202       774.2935       1605.551
       1233.325       1011.149      -240.0854      -2277.188      -1789.151
      -1142.775      -921.5664      -338.8811      -906.3669      -34.30957
       1028.677      -49.77692      -196.9229      -52.43213      -473.0002
      -75.50427      -79.15063      -796.6426      -1118.135      -442.5270
      -150.1746      -499.2832       519.5034       1509.653       505.3052
      -838.9438      -903.7124      -645.9558      -992.9310      -295.1450
       1235.856       927.3220      -617.3986      -637.9908      -156.3203
      -447.8488      -310.7908       406.7605       1096.217       292.7123
      -558.3372       289.6505       532.5825       390.4581       777.9282
      -224.7197      -1707.775      -1357.615       21.87122       654.5952
      -63.93359      -342.6489       1077.845       1562.154      -242.6672
      -540.4644       1329.714       716.2097      -1134.701      -306.3813
       1112.454       729.6254      -204.2452      -33.29776       215.5917
      -56.20632      -63.67908       3.871429      -14.46361      -97.16040
       236.2998       775.2319       931.0939       675.3550       166.5210
       151.3922       152.4227       177.9967       436.3730       333.0601
       201.1548      -137.0714      -487.3956       86.45410       876.1622
       483.5545      -22.49106       214.6475     -0.3184814      -117.8823
       437.8746       104.7994      -533.8495      -53.21793       132.4379
      -254.7659       345.9476       437.9052      -585.3986      -167.3151
       829.2845       405.6025      -656.0541      -418.8272       327.6462
      -419.4570      -853.5508       11.75348       432.5535      -69.84338
      -326.4085      -24.55701       169.9050       288.5914       119.5265
      -2.112213       240.2316      -147.2830      -715.6085      -370.8362
       74.86523      -26.36026       145.2076       131.1548      -569.6621
      -1010.150      -1113.494      -1064.428      -678.7847      -26.47565
      -190.2008      -250.0919       594.8336       226.4810      -148.5878
       613.2001       560.9692      -159.0075      -8.379242      -68.92932
      -273.7415      -147.5739      -289.4336      -362.2578      -675.7668
      -624.4156      -335.9402      -255.6550      -45.94696       165.0248
       303.8408       358.0097       133.0533      -71.55891      -11.63290
       31.47400      -328.1389      -158.3231       659.8215       371.0853
      -177.1359       132.8320       558.8140       163.7621      -617.8151
      -156.2416       346.3323      -422.9822      -42.76794       435.9664
      -116.2437       261.4270       374.1498      -600.1768      -761.8711
       451.6682       597.0847      -446.0076      -365.6099       198.1238
       225.0769       193.8466       204.5945       621.7490       924.3081
       664.0325       232.4313      -395.7645       95.67358       623.8775
      -136.1864      -35.40918       741.1677       937.4148       887.6273
       382.8623      -594.7667      -707.1250       956.4331       1333.170
      -549.2736      -136.5020       1402.071       1054.219       234.8610
      -149.8380       336.3690       502.6594       167.0100       218.0338
      -43.22943      -318.5799      -59.48785       56.21781       32.41281
      -21.58423       373.8040       820.4852       328.6672       6.380981
       72.00220       281.8682       971.1631       1241.966       701.5814
      -112.6511       1.157043       515.3871      -92.25208      -92.24609
       361.2817      -61.38855       295.6548       226.0588      -1316.630
      -978.3347       740.0481       709.0582      -18.90808      -86.65157
      -13.27399       25.96677       121.5161      -20.10504      -36.63263
       235.7208       95.16455       269.4429       811.4391       584.1954
       267.7388       718.9829       882.5334       424.1543       344.3242
       214.0806      -479.6903      -686.7759      -84.32880       269.0802
       4.971298      -228.6282       211.2105       206.1538      -340.3109
       110.4197       353.7527      -130.6056      -120.0850      -103.8386
      -619.2834      -454.5900       425.1504      -112.1676      -438.7837
       654.7153       59.12329      -771.2820      -442.8171      -709.3838
      -678.5282      -322.8354      -903.7715      -1049.607      -210.3861
      -6.692383      -237.8276      -256.7781      -484.7273      -554.6301
