     0.02500000      -6421.721       7467.223      -12345.00      -12345.00
      -29.99006       217.1849      -19.09000      -12345.00      -12345.00
       0.000000       14.15000      -12345.00      -12345.00      -12345.00
      -12345.00      -12345.00      -12345.00      -12345.00      -12345.00
      -12345.00      -12345.00      -12345.00      -12345.00      -12345.00
      -12345.00      -12345.00      -12345.00      -12345.00      -12345.00
      -12345.00      -30.65860      -69.43630       2628.000       0.000000
      -31.24600      -68.98500       0.000000       102400.0       0.000000
      -12345.00      -12345.00      -12345.00      -12345.00      -12345.00
      -12345.00      -12345.00      -12345.00      -12345.00      -12345.00
       78.10726       326.3732       146.6042      0.7022638      -12345.00
      -12345.00    -0.05101958       90.00000       90.00000      -12345.00
      -12345.00      -12345.00      -12345.00      -12345.00      -12345.00
      -12345.00      -12345.00      -12345.00      -12345.00      -12345.00
      2008        16        21        17        55
       790         6    -12345    -12345      9888
    -12345    -12345    -12345    -12345    -12345
         1         7        13    -12345    -12345
    -12345    -12345    -12345    -12345    -12345
    -12345    -12345    -12345    -12345    -12345
    -12345    -12345    -12345    -12345    -12345
         1         1         1         1         1
TOCO    -12345          
        -12345  -12345  
-12345  -12345  -12345  
-12345  -12345  -12345  
-12345  -12345  -12345  
-12345  -12345  -12345  
-12345  -12345  BHE     
ZL      -12345  -12345  
[...]
       165.3038       171.4851       169.3649       161.1558       178.8133
       187.6064       188.2495       192.4067       198.2673       200.0106
       209.0031       204.7230       197.9941       197.2425       216.3619
       219.1355       222.1722       227.8789       218.9302       203.5474
       212.7761       223.1450       224.6847       220.7040       217.5131
       211.8098       198.0765       181.7089       198.5450       212.7817
       207.7988       186.4756       175.6655       164.7593       169.3087
       162.2162       157.2984       165.8669       152.1842       144.0624
       141.7132       136.1613       136.5876       120.7740       134.3321
       126.2216       130.3944       121.0507       109.0699       124.0258
       109.4741       102.8895       127.9016       141.0598       137.5941
       116.1952       132.8673       136.3830       133.2195       138.9830
       165.3590       151.8663       136.5735       140.3699       141.0719
       152.1362       161.6844       160.1483       157.2031       139.9675
       145.9297       141.1366       152.4460       157.1996       162.7540
       144.2291       136.6551       143.4345       134.1721       141.2971
       143.5750       148.5156       151.8316       133.3142       134.2133
       133.8378       141.2849       124.3022       124.0190       127.4012
       118.3042       105.3920       100.7244       113.3905       87.94858
       67.58624       92.38873       94.68661       65.35162       49.03075
       58.55414       51.85794       41.26274       27.79440       36.92206
       37.56676       17.23522       3.949060       7.034252       8.276836
       18.14200       15.37524       3.504087      -1.026613       10.20563
      -7.633018      -12.41472       5.161120      0.9010773      -10.73886
      -1.221725      -15.55970      -18.23051      -14.06514      -17.21429
      -24.57080      -11.14320      -18.50317      -32.03802      -33.96473
      -32.39783      -42.28921      -35.65900      -49.05545      -50.74805
      -57.81602      -72.97476      -76.00928      -75.94931      -78.67038
      -77.00220      -82.79352      -90.81854      -105.2317      -98.13306
      -103.2532      -103.2436      -104.0884      -110.0217      -115.5359
      -124.1871      -139.2455      -141.2208      -137.3048      -136.2921
      -134.6711      -147.0988      -153.6451      -163.2875      -172.3495
      -174.2026      -174.3038      -160.5901      -171.0704      -183.1946
      -176.7476      -177.2326      -188.5546      -199.7582      -184.6312
      -171.4836      -189.6621      -201.0587      -191.0895      -187.3934
      -197.5812      -197.8307      -185.8782      -179.6620      -193.0682
      -204.7988      -201.0851      -190.6006      -185.0960      -183.5612
      -189.8286      -177.7886      -181.2100      -191.5032      -181.7328
      -162.2750      -164.8445      -164.2452      -160.9941      -152.9276
      -140.3931      -144.6103      -147.5441      -125.1960      -118.7224
      -124.1680      -107.1554      -87.27361      -85.46634      -80.03737
      -71.48918      -57.99162      -38.26083      -37.74229      -33.06150
      -19.79778      -2.986174       3.965343       12.59471       26.96091
       53.12291       50.64793       51.02255       59.83156       79.77777
       88.48465       95.04984       99.40344       122.8865       122.6214
       101.9595       232.5781       489.5299       249.2715      -200.6486
      -22.23560       379.5031       335.1987      -177.1309      -104.4000
       520.3170       89.90451      -378.1415       367.9333       709.5946
       54.16814      -95.71478      -56.29248       396.6135       474.1272
      -288.4723       129.3234       157.3765      -290.9997       217.6571
       353.5068       170.5939       19.93175       50.15292       145.5804
      -9.304966       23.55444      -6.353592      -76.54974      -19.85391
      -199.5462      0.1448975       430.3650       279.6044      -166.1195
      -278.3929       124.7770       109.9153      -11.78055       30.19519
      -394.9291       161.2854       502.3383      -500.5109      -482.7400
       306.9265       19.75806      -138.3560      -136.6624      -291.8986
       145.3833       31.18306      -73.38876       163.3399      -193.8772
      -165.8088      -259.3134      -285.8447       83.09027      -26.05899
      -117.1152      -106.5257      -70.28314       93.66328       155.7920
      -186.9439      -291.1326       100.0669      -54.70239      -199.4302
      -20.60144      -130.1022      -285.2056      -303.0971      -96.38205
       46.36882      -46.31381       66.93517       144.9073      -68.87677
      -182.2619       13.46640       21.88568      -307.7749      -147.2640
      -16.92230      -306.5699       68.49127       237.0063      -17.29315
      -212.8176      -104.7321       157.2011       71.51868      -120.3329
      -207.1943      -68.51390       1.527710      -59.81400      -186.5643
       7.130890       374.2107      -284.0458      -512.7753       238.8274
       303.1943       24.99689      -266.3505      -229.9765       123.0897
      -27.25586       122.7319       384.9299       176.2459      -51.68616
      -67.78644      -71.99399       139.6422       163.5390      -100.9495
       265.9361       295.6923       12.36218       196.4593       122.6923
       170.2601       170.6508       212.0301       276.7353       21.90527
       171.5894       350.2323       200.8976       332.1738       431.1179
       345.9633      -7.714600      -65.14368       312.0703       342.8240
       409.4479       293.4489       82.40186       369.2787       414.1775
       459.7349       501.5248       279.9208       256.3643       347.8754
       241.0168       155.1252       520.2853       763.5558       407.4291
       169.0325       313.1591       631.9719       383.6396       87.29565
       340.0775       604.5012       397.5305       48.29077       458.5350
       729.9899       278.4807       207.7206       363.7136       445.9776
       404.7867       166.8668       293.4707       505.1168       246.5755
       34.21863       268.3821       391.4423       90.03230      -3.592041
       112.2206       390.1993       283.4732      -141.7988       42.66675
       323.1665       135.9766      -183.5737      -223.6155       17.48003
       53.77612      -211.2758      -154.1261       232.8632       6.561035
      -454.9158      -407.1768      -81.82286       93.99628      -117.1506
      -361.4969      -372.7114      -114.8423      -157.1584      -383.4963
      -323.8986      -413.4170      -424.7568      -438.7122      -282.1595
      -139.5649      -389.9490      -309.0781      -355.2373      -613.6376
      -334.4475      -108.9519      -149.0835      -312.7388      -564.0664
      -386.0510      -120.5746      -313.1149      -405.6550      -468.1139
      -477.9232      -70.08154      -117.4301      -236.0653      -104.6179
      -339.1711      -483.2092      -475.9977      -376.2871      -193.3890
      -274.1956      -195.4963      -218.2369      -263.0202      -34.17908
      -223.6635      -391.1184      -150.8735      -104.6991      -347.3464
      -268.1244      -228.9724      -57.76756       180.4073      -123.7480
      -309.3613      -358.3013      -134.9951       69.13965      -164.0888
      -262.1206       44.77820       73.29700      -252.0134      -152.8840
      -204.3784      -270.4323       76.75909       209.8320      -162.3406
      -361.3299      -150.2501      -96.50665      -196.1335      -205.2336
      -114.2855      -78.74248       23.13448       36.51514      -116.0755
      -106.6111      -116.7050      -352.2229      -328.0507       43.00491
       85.56891      -140.7125      -212.1975      -326.7835      -157.8638
       19.18985      -123.9514      -204.9841      -247.5000      -167.8102
      -170.4660      -84.12802       8.192139      -238.5147      -319.8101
      -103.8234      -17.85507      -135.8261      -124.0188      -104.9830
      -33.69765       115.1534      -281.6326      -400.5080       152.9622
       178.7722      -160.3062      -258.3436       22.78162       247.6111
       27.40623      -90.48236       165.7422       157.1403      -127.4765
      -86.77246       315.6584       328.8237      -153.3049      -89.01044
       240.3365       239.3624       228.3292      -133.4375      -78.82666
       392.2423       351.3941       20.38307      -141.0540       230.8774
       528.8516       228.3590      -14.77313       213.6113       324.6358
       124.8466       242.2519      -69.46718      -122.1770       454.6665
       164.6129       63.81122       158.8066       74.11292       205.0215
       161.8505       191.2385       104.9305       100.5669       206.1288
       319.8952       324.0597       37.06583       5.569824       344.5414
       263.7427      -34.92877       18.06122       282.4500       249.6478
      -22.06104       242.5631       416.5499       133.7507       149.7511
       132.8237       162.7836       256.9096       50.97662      -113.0463
       127.6913       427.7687       247.9940      -130.7077      -112.0796
       316.7764       380.1586       1.016052      -64.81409       264.3091
       360.2339       2.608185      -122.7914      -15.96460      -23.90921
      -7.665009       223.7171       41.41943      -349.2788       80.35730
       425.4525       101.7611      -68.31021      -68.31232      -106.1982
      -203.5680      -68.49988       221.1532       126.3347      -110.1444
      -188.1138      -308.3331      -102.2476       80.77975      -48.55862
      -22.51196      -68.99454      -151.1348       137.4191       205.5620
      -125.0675      -125.0114       99.42596      -76.77045      -218.9552
       10.10120       77.99353       128.8041       126.1231      -119.0713
      -98.87204       14.46918       183.1812       22.66153      -183.3276
       22.54649       147.7606      -54.03271      -216.4136       166.6987
       457.7364       117.2528      -240.2259      -133.9442      -57.85030
      -67.38025       185.1209       246.7287      -68.30505      -158.5914
       278.0634       356.0100       58.34279      -7.388062       189.0664
       158.1074      -247.6849      -61.60834       401.5975       85.38417
      -53.59622       209.2310       78.82727      -122.1158      -9.827118
       222.2970      -23.74109      -286.0445      -11.00494      -92.86249
      -431.4073      -108.9951       320.4927       44.11818      -70.47336
       131.3495      -46.11261      -330.3363      -124.3819       156.8977
       19.00162       63.16986       22.69385      -435.2001      -335.3008
      -135.2648      -275.8783       107.3730       261.5161      -319.4171
      -219.4727       188.9772      -49.98767      -424.8883      -250.7198
      -109.9391      -172.7648      -38.87311       29.95296       129.2295
      -143.4652      -486.6277      -240.9806      -99.36804      -284.1299
      -435.0833      -269.1225       140.1239      -74.59271      -367.9818
       24.02303       26.50836      -230.9171      -92.13599      -129.4204
      -388.9610      -278.7462       44.17700      -53.71838      -422.3053
      -414.2935      -125.8191       169.9034       58.31250      -225.0854
      -142.7275      -15.71069      -358.0161      -454.7170       58.34290
       307.9908      -185.5538      -358.2482       154.0178       116.7411
      -217.9503      -279.5538      -227.5516       210.1156       553.8460
      -10.08240      -295.8160       22.13031       5.899414       357.1722
       505.0157       1.529236      -47.01904       170.2551       215.4662
       244.6052       281.4501       225.4002       83.90649       339.4591
       581.7310       289.3184      -20.59146       10.23877       371.3899
       369.7698      -143.0635      -158.4684       595.7246       721.1767
       16.68799       205.9940       833.7246       46.08337      -383.0469
       789.2808       924.2510      -1184.791      -2811.936      -1182.848
       483.3145      -1103.338      -2414.590       909.4219       6067.231
       4833.349      -1269.954      -3518.203      -2825.948      -2175.736
      -2162.880      -1412.495       3589.858       4789.382      -1647.200
      -3524.811       1699.612       4342.945       236.0112      -2321.248
       126.4626      -1326.271      -1568.552       3673.045       749.1230
      -3188.459       442.9235       9.431519      -270.8804       1708.304
       8.685303      -1354.759      -1026.884      -536.7739       1597.984
       3481.918      -1412.294      -5685.487      -961.1182       3896.628
       2975.087      -66.36279      -231.2666      -2103.387      -6421.721
      -4704.454      -1208.371       2120.072       7049.330       7467.223
       2461.833      -2277.158      -2351.952      -1974.876      -2961.680
      -903.2046       1803.150       1602.250      -1057.161      -2230.657
       1617.409       4042.707      -466.8594      -4158.914      -2232.995
      -714.0181       148.5068       2978.157       3307.577       858.4077
      -1598.823      -2147.140      -192.0278       1409.512       1926.096
       2066.887       943.4150      -2069.603      -2747.346      -1276.727
      -975.9995       482.9944       1655.092       676.8529      -191.9480
       197.5978       697.2662       282.8020      -509.3496      -1239.100
      -1168.163      -239.8284       558.4530       608.5950       809.2871
       1318.388       868.0715      -63.25635      -589.0835      -1191.966
      -2306.604      -1995.330       773.8525       2015.726       970.4287
       398.7007      -236.9165      -343.5854       1002.911       1620.960
       516.6405      -390.2981      -511.1437      -179.7178      -125.9768
      -1119.927      -968.2195       26.81592       196.1702      -721.0264
      -1824.237      -487.3230       1198.203       976.7910       1481.409
       1618.671      -659.4438      -1357.020      -7.571045      -518.8201
      -1450.475      -766.8036      -173.4425       5.527100       1111.217
       1290.092       322.0349      -320.9022      -554.6510       65.22058
       213.9007      -458.3546      -68.75293       526.0125      -361.1644
      -769.2854       654.1265       1569.472       352.1554      -563.0177
      -512.5413      -283.9846       326.6765      -572.3884      -1124.052
      -169.4672       192.3667       475.4519       121.0061       145.7852
       1407.231       872.4702      -239.9135      -276.5596      -877.4953
      -388.9688       717.6610       47.09192      -505.0323      -436.2079
      -165.4330       549.6126       242.2429      -216.0822      -110.3362
      -346.3279      -44.16968       774.7662       825.3347      -642.9976
      -1625.976      -575.8306       681.1235       1155.460       916.6028
      -475.2671      -1087.217      -41.67319       153.9472      -215.9097
       201.9194       405.7375      -453.1525      -343.6619       643.0469
       119.3949       24.01562       651.7418       346.0970       174.9586
       722.4000       294.2000      -471.9481       98.03534       310.0418
       96.75513       321.0271       750.3208       719.3701       336.8745
       180.8979      -120.2804       233.0265       51.94763      -177.2751
       534.8541       231.6340      -413.2251      -659.1881      -819.5075
      -2.144592       544.5164      -238.9612      -659.2793      -232.2720
       273.8955       802.0879       1099.921       1182.255       1317.379
       754.5503       43.74298      -224.8267      -552.0355      -603.8950
      -121.4210       196.9048      -222.8970      -505.9782      -349.7457
      -154.3280       362.3848       1158.509       967.2380      -386.9633
      -523.9099       518.6278       428.4038      -456.3464      -756.4523
       283.4081       808.1467       74.25298      -59.23492       212.3089
      -80.15259      -617.0778      -281.6500       610.7834       558.0217
      -101.5294      -580.1853      -157.3801       995.6427       539.7129
      -476.2650      -203.4845       170.5992      -204.7461      -591.4185
      -795.4358      -712.8694       107.9878       727.1265       1153.169
       542.5151      -6.557007       483.5823      -80.77759      -447.8105
      -601.1813      -400.5289       688.1384       442.1133      -620.4775
      -743.0979      -370.4648      -647.2488      -743.3104      -156.2722
      -234.4706      -208.1561       382.6035       517.4008       316.6388
       139.9144      -304.4854      -1212.481      -848.3745      -27.90262
      -214.2714       88.54532       160.8855      -820.5039      -710.3213
      -372.0437      -527.2697       175.0160      -291.7159      -950.1891
     -0.2297363       406.1605       15.80029       130.2159       402.0042
       108.7880      -439.1953      -894.1823      -760.3629      -112.7637
       406.2368       327.0739       260.4283       667.2244      -119.2249
      -1124.638      -712.5243       39.61320       129.2161      -23.02832
       563.7007       801.3781       29.36499      -388.9800      -285.3465
      -136.2305      -202.0659      -470.6081      -160.1023       408.4952
       379.4639       152.9744       238.9584       88.20953      -158.4642
      -57.16631       27.32861      -203.4423      -300.0258       200.3238
       219.7092      -196.3648      -134.2615       326.2327       552.8873
      -425.6707      -1072.120      -176.7757       413.1672       193.0905
      -295.9984      -36.28998       450.9209      -55.71503      -148.9025
       701.8848       586.8066      -348.8076      -416.4528       26.51422
       119.2425       97.96896       172.0126      -149.1120      -277.7669
      -116.7441      -83.24316       255.9861       56.60291      -602.3176
      -45.55164       261.7886      -370.7362      -96.59216       334.7038
       241.3440       389.0880       394.9393      -19.12567       78.10278
       581.4224       555.0824       393.0524       285.5669       1.656281
       33.33414       213.3911       14.76089      -175.9489       39.87268
       134.8564       132.4741       417.9907       243.7429      -401.3823
      -355.7382       96.46149       294.6888       226.3590      -149.4894
