     0.02500000      -2741.403       3768.913      -12345.00      -12345.00
      -29.99006       217.1849      -19.09000      -12345.00      -12345.00
       0.000000       14.15000      -12345.00      -12345.00      -12345.00
      -12345.00      -12345.00      -12345.00      -12345.00      -12345.00
      -12345.00      -12345.00      -12345.00      -12345.00      -12345.00
      -12345.00      -12345.00      -12345.00      -12345.00      -12345.00
      -12345.00      -30.65860      -69.43630       2628.000       0.000000
      -31.24600      -68.98500       0.000000       102400.0       0.000000
      -12345.00      -12345.00      -12345.00      -12345.00      -12345.00
      -12345.00      -12345.00      -12345.00      -12345.00      -12345.00
       78.10726       326.3732       146.6042      0.7022638      -12345.00
      -12345.00    0.004876552       0.000000       0.000000      -12345.00
      -12345.00      -12345.00      -12345.00      -12345.00      -12345.00
      -12345.00      -12345.00      -12345.00      -12345.00      -12345.00
      2008        16        21        17        55
       790         6    -12345    -12345      9888
    -12345    -12345    -12345    -12345    -12345
         1         7        13    -12345    -12345
    -12345    -12345    -12345    -12345    -12345
    -12345    -12345    -12345    -12345    -12345
    -12345    -12345    -12345    -12345    -12345
         1         1         1         1         1
TOCO    -12345          
        -12345  -12345  
-12345  -12345  -12345  
-12345  -12345  -12345  
-12345  -12345  -12345  
-12345  -12345  -12345  
-12345  -12345  BHZ     
ZL      -12345  -12345  
[...]
      -222.5527      -225.3882      -232.3970      -256.4739      -258.6198
      -231.7536      -249.2699      -273.5724      -270.7145      -268.2648
      -275.7712      -277.0616      -274.9368      -278.4412      -289.2452
      -309.3982      -304.5748      -284.0087      -287.3107      -297.2135
      -314.6775      -314.8724      -308.5908      -315.3335      -297.2061
      -284.1122      -313.6732      -318.7544      -314.4973      -307.8391
      -281.7375      -266.1244      -281.6932      -283.1575      -274.8043
      -283.4250      -273.7495      -236.7224      -236.9347      -238.9220
      -227.5590      -232.7598      -224.3286      -199.4904      -199.8894
      -196.8536      -190.9099      -197.4564      -185.1609      -151.4890
      -179.1365      -188.6476      -175.6132      -170.2649      -156.9485
      -153.3230      -158.1376      -142.7147      -171.2586      -187.5078
      -150.2137      -124.0916      -149.1979      -157.5807      -161.4089
      -167.0560      -160.3583      -158.5934      -157.4504      -134.7333
      -169.8248      -189.9852      -169.2755      -151.0229      -165.8533
      -171.1674      -175.6577      -179.8995      -194.5579      -202.9837
      -190.1691      -181.4855      -205.0792      -215.5414      -222.7645
      -218.2849      -214.0102      -219.5830      -234.0358      -227.4308
      -233.3989      -232.6630      -207.8555      -203.9816      -223.5334
      -229.5811      -227.0154      -208.8701      -187.4270      -175.2379
      -178.0026      -161.6062      -169.0908      -157.9194      -128.1157
      -114.3511      -113.6793      -125.3096      -108.5282      -84.77475
      -99.63872      -84.19386      -27.54575       5.234283      -42.37617
      -52.34842       10.79227       50.82143       17.70114       17.57782
       61.65027       94.31415       81.86127       79.05499       107.7247
       152.5336       135.2067       119.9531       156.6667       201.6137
       202.2595       200.5628       201.4095       232.3075       261.1036
       250.7617       240.8837       276.4164       285.4099       283.1050
       291.6956       302.6544       315.2290       322.5889       304.5409
       303.6890       318.9401       330.0699       316.5997       318.9679
       318.1300       311.4210       302.5115       296.4600       289.1277
       291.5232       277.5877       269.3688       258.8779       257.1664
       243.0365       240.7227       225.4752       211.7877       209.4553
       210.3900       188.1806       173.5157       165.7384       156.0731
       137.3692       122.1476       126.9751       129.4810       98.05637
       75.78642       68.27002       79.28798       79.74315       60.50846
       20.41461       10.87857       16.96024      -9.819809      -29.70426
       9.690258       1.840591      -48.13405      -68.94031      -44.32703
      -42.05264      -77.60657      -115.2245      -86.47806      -81.69965
      -124.6228      -136.8115      -100.1682      -109.0121      -142.9921
      -171.1599      -157.0287      -133.3812      -137.6990      -183.1826
      -174.6363      -154.0730      -170.9574      -199.0140      -182.3167
      -168.4173      -166.1984      -200.0978      -212.0075      -185.2181
      -162.8352      -198.1004      -206.6107      -191.0206      -180.4874
      -203.7196      -210.1224      -187.4633      -171.1614      -203.8609
      -219.2319      -199.4973      -169.2928      -177.2115      -191.8653
      -185.5264      -154.8894      -163.5401      -173.7522      -145.3105
      -118.9445      -139.4635      -140.9926      -126.8980      -95.33740
      -85.48581      -96.42847      -84.22708      -77.49557      -93.29071
      -24.14746      -535.9668      -1405.726      -742.4438       903.7893
       1118.689       62.13538      -234.9316       1334.085      -29.96045
      -1941.126       1082.613       1084.073      -790.5795      -110.3958
      -138.4492      -122.3645      -19.71826       297.2765       781.8528
       332.6354      -206.7372      -385.7480       180.4507       373.9690
      -9.242065       264.4052       175.2548      -249.2018      -428.0870
       473.0697       538.9616      -216.5408       351.0812       676.5481
       13.82172      -422.6123       122.2058       195.8574      -79.67749
       470.0925       354.1843       58.75427      -307.2181      -567.6385
       667.0760       664.2042      -106.3751      -93.19942      -107.2449
       210.3564       280.4342       177.2451      -55.89307       105.1140
       330.0934      -4.325424      -55.02893       33.10793       110.7068
      -95.00403       230.4263       685.8939      -198.0503      -224.4466
       216.7941      -64.74829       246.1352       182.9639      -323.5433
      -235.3239       280.3268       436.7870      -80.35553      -48.83179
       68.10757       70.88226       256.2846      -248.3796      -408.8872
       365.5757       279.4651      -465.3720       49.43115       21.04120
      -569.7188       195.7846      -30.04022      -466.4281       337.7495
       182.4758      -616.3202      -485.6857       229.7857      -51.19946
      -394.5366       241.7957      -188.4648      -612.4204      -52.62183
       439.1440       294.0142      -703.2318      -682.1790      -168.9364
      -323.4913      -402.7152      -233.1545       263.4449       37.47510
      -473.5884      -606.2128      -455.8925       44.97250       187.1498
       8.365479      -580.5795      -636.1012     -0.3743591       46.66870
       226.5018       322.8083      -169.4867      -537.3962      -267.7437
      -328.7731      -561.2676       381.2488       534.9580      -429.2957
       120.5174       252.5409      -365.4777      -101.1090      -171.2974
      -42.56696       39.32513      -245.1075       124.1479       366.7045
       176.5323       112.6350       251.4830       411.5903       35.57208
      -405.8889       40.17200       255.6683       2.880249       211.5552
       272.0505       296.5170       303.7499      -34.79309       304.8984
       503.4251       329.1436       97.86874       14.67102       432.3938
       498.1143       292.7142       56.48596       223.7321       448.4600
       376.6735       536.4490       524.7402       211.8899       142.3267
       575.2075       598.0815       336.6616       448.3956       439.6609
       476.0402       598.6688       370.1044       316.5925       714.1705
       621.5369       135.1382       248.1605       504.3066       712.0062
       744.9933       491.9806       422.2065       482.6777       470.3032
       440.5527       379.8142       327.8615       246.9915       294.5308
       343.0264       622.6621       840.4979       354.9854       112.3067
       266.3899       385.5208       451.2295       178.2503       118.1686
       372.9555       234.4946       136.5807       433.7339       183.4311
      -106.1490       173.2956      -24.06775      -157.8633       347.8760
       248.1721      -213.7016      -90.06018       355.5092       129.9657
      -247.8170      -148.8611      -480.4769      -489.4902      -355.4482
      -74.41901       328.0897      -259.2142      -520.0321      -460.1737
      -549.5545      -292.7072      -12.67697       12.07495      -451.2421
      -819.8606      -112.5209       210.7671      -691.2943      -754.9741
      -93.30823      -273.1477      -665.6438      -887.6295      -574.0141
       4.244873       32.06909      -258.6119      -652.5378      -509.8015
      -365.3053      -185.5225       40.11377      -1172.079      -1649.272
      -211.3871       311.7273      -272.7109      -296.2190      -472.7822
      -928.6836      -572.1510      -290.9574      -690.3555      -388.4792
      -85.54907      -420.1360      -283.9259      -417.0942      -607.1360
      -424.4832      -463.9099      -216.0692      -248.6790      -513.5791
      -331.9443      -667.6235      -768.1942      -228.2174      -378.8100
      -87.33316       211.1357      -692.6147      -546.6019      -7.715454
      -140.1987      -362.7155      -506.9656      -195.1527      -328.6600
      -308.4942      -80.12924      -79.15259      -25.06711      -226.3228
       4.506714      -16.33423      -901.3324      -108.7261       581.8903
      -492.0837      -202.5227       220.5657      -34.62769       417.4615
       127.7981      -575.4429       63.95303       144.6593      -441.4637
       170.2327       575.7766       191.5905       76.89732       67.94110
       38.78784       404.6633       367.8662       41.90831       51.71365
      -164.1144      -108.2043       202.7322       100.7411       500.1224
       495.4042      -344.4215       78.73621       745.4165       153.8403
      -165.2253       611.2937       801.8207       3.259888      -374.4076
       37.13721       691.8372       303.8458       32.88647       472.0364
       168.3631      -111.2314       169.1746       353.1473       136.5975
       216.1959       407.9548       254.6992      -105.9163      -48.21692
       241.6304       180.1843       212.9124       255.7280       262.5943
      -171.0792      -169.1174       518.6856       404.4924      -20.40787
      -36.02881       284.7915       237.3700       151.7363       174.4091
      -165.4662       88.53394       256.9480       105.9449       39.80182
       144.4603       156.3627       84.50208       393.6655       285.5731
      -197.0116      -323.5817       32.17206       237.6501       92.31871
       31.02362       28.61560       210.0730       243.0499      -315.5953
      -402.7931      -63.51166       171.4586       410.1862       27.09149
      -257.9097       151.6223       292.7774       39.84509      -110.7457
       29.38733       25.28174      -322.2131      -89.19763       554.3988
       407.8130      -358.3489      -544.3481       63.71185       327.5228
       283.9272       368.6762       32.96375      -169.3706      -97.67578
      -223.3809       114.9201       122.9928      -183.0024       238.1098
       242.5589      -140.3346      -15.57361      -228.1150      -187.1704
       227.7816       83.72543       23.05731       106.6552      -91.59592
      -99.81750      -114.0925      -308.9705       75.30481       196.2843
      -294.4987      -171.4908       93.91803       134.0073      -55.86060
      -419.8905      -254.1420      -237.6621      -128.2290       779.0253
       657.3433      -331.4570      -725.2175      -529.0100      -527.8454
      -138.5516       745.9325       477.5181      -377.2620      -896.8274
      -567.8098       50.37463      -191.9597      -388.9822       78.98608
       397.5348       235.0786      -158.4391      -403.7895       24.67184
       162.0773      -345.0275      -185.2043       140.2456      -189.1816
      -204.8059      -175.0607      -334.1670      -419.3378      -103.1573
       417.5994       385.7855       85.44305      -186.1425       108.8685
      -15.81317      -329.5436       114.8846      -160.1457      -224.9806
       286.9907      -32.11664      -216.4365       78.78088       326.6943
      -86.43130      -378.1558       306.8859       347.0598       96.57637
       16.39890      -12.21844       129.8712      -77.00073      -35.76273
      -253.8187       41.54639       1003.635      -76.29199      -732.9813
       406.6734       182.1894      -265.2090       443.3402       373.1603
      -378.3358      -241.4829       635.3855       780.3954      -95.44482
      -343.3822       75.60831      -97.80539       151.8442       206.2667
      -491.9301       202.1351       732.0239      -234.6692      -442.1368
       367.8761       336.8777       3.898621       92.40820       267.6997
       566.6779       530.7041      -518.7703      -1297.970       189.1711
       946.5760      -292.6097      -548.3196       280.6520       571.8922
       431.4858       441.2135      -246.9102      -233.1278       476.6820
      -314.7999      -183.4490       760.9530      -42.19113      -269.1487
       393.4544       270.0995      -281.5829      -407.1555       26.97217
       438.4803       464.1915       209.5087      -88.99185      -165.1874
       318.9731       401.9126      -87.18774      -518.8507      -480.2510
      -67.53040       163.3007       239.9901       91.34473       181.2931
       454.9476       490.5159       179.1697       165.3950      -310.3140
      -1440.816      -703.9841      -311.4771      -1320.980      -533.9325
       473.5781       610.8228       961.2393       955.2705       1101.797
       666.4629       378.7999       896.5836       111.8129      -258.3496
      -989.5334      -1465.286       907.0479       2718.662       1421.759
      -1735.451      -2274.033       313.8896       1014.720      -964.9841
      -573.0527       2988.786       3768.913       1164.358      -506.9558
      -627.6582      -1859.435      -2741.403      -1335.437       563.9688
       1696.792       1477.990       900.3457       527.7485       185.1058
      -401.8380      -32.83545       284.1553      -1790.750      -1920.950
       521.5400       1099.378       1006.366       1383.977       393.2632
      -766.1812      -1409.556      -1238.668       131.5106       667.6956
      -367.5074      -478.3848       26.38257      -877.3137      -633.9614
       1039.374       1878.740       870.7079      -305.6184      -712.7129
      -1440.969      -827.0391      -817.2808      -1649.380      -835.3211
      -233.3184       104.8960       1240.012       1776.967       576.2880
      -265.5110       520.7163       493.9692      -697.5347      -1460.409
      -1507.101      -1244.243      -1260.651      -563.5881       1080.840
       772.8086      -364.0397      -500.4163      -711.0657      -638.9370
      -12.38110       367.4633      -193.9336      -544.3898      -251.9331
      -447.1086      -1144.242      -965.0811      -256.8143      -3.396851
       528.5258       87.19409      -728.8225      -281.6396       526.3721
       760.5791      -431.4033      -1474.329      -1767.213      -1813.693
      -387.4229       971.9673       1021.930       1059.584       699.5780
      -204.1313      -751.5637      -1308.662      -1147.238      -423.8425
      -344.3071      -819.9404      -1217.243      -795.3953      -702.2102
      -303.8623       1294.809       1763.342       741.4100      -135.0093
      -469.4585      -761.5164      -844.6705      -640.9336      -634.1425
      -480.2205      -183.2590      -189.8024      -597.0720      -795.3375
      -148.9648       934.8281       1493.019       1187.085       281.7048
      -731.3462      -1227.119      -1132.062      -646.2131      -136.2678
       336.6653       748.0160       416.6201      -75.33618       341.5386
       408.5455      -182.7749       207.5522       943.0942       532.1572
      -17.41901      -11.09717      -276.1118      -762.3269      -767.8792
       396.1462       1002.576      -189.7029      -495.2382       379.3577
       589.0968       197.9641       338.4700       714.3499       541.3158
       436.3267       290.4160      -114.3311      -60.96143       516.8057
       604.4346       491.2334       169.7856      -104.9736       333.9561
       583.4327       452.7275       834.4961       1236.930       566.0651
      -261.7831      -57.29321       683.5754       913.3289       637.9236
       387.8115       509.9648       549.7448       352.7612       218.2505
       92.16138       497.7017       981.0321       557.3862       289.7272
       761.1860       335.5943      -280.9145      -137.3706       122.3178
       99.49115      -389.1879      -99.36450       619.6050       795.2135
       930.5281       180.1328      -448.5469       198.8268       420.6965
       18.00507       96.05566       163.9354      -110.4634      -54.18735
       21.68317      -250.8452      -345.7727       292.0455       482.9699
      -13.14662      -19.37155       105.3822      -55.66147       5.689331
       428.2566       250.1098      -77.53293       63.11914      -617.3381
      -692.7705       194.1861       284.6178      -4.818878      -169.6567
       113.0273       7.817871      -394.3500      -423.8815      -96.90558
       268.8803      -127.5522      -224.8124      -5.149414      -310.6186
      -258.7186       53.84705      -283.8491      -286.8351       269.3938
       16.17487      -254.2461      -159.2325      -266.8365      -12.28082
       45.25830      -405.9139      -259.2356      -4.139771      -270.7020
      -544.8126      -410.4365      -63.49084      -141.9373      -318.0247
      -408.6199      -39.18701      -70.07764      -514.9340      -67.28680
       83.57147       137.1465       275.2492       14.45618       81.30249
       294.8094       75.82910      -619.1554      -460.7416       80.53036
      -164.0246      -232.1573       71.22876       528.3909       505.2250
       220.4547       426.8169       301.9338      -257.5985      -292.3823
      -182.0027      -575.5289      -486.9872       164.2534       257.7919
      -221.2106      -300.6359      -160.4486      -441.1431      -418.6009
       122.8896       134.8340       84.43689       560.7501      -38.98901
      -647.5206      -222.7658      -160.3236       36.97705       616.4907
       719.5708       548.3429       177.3705      -253.2107      -55.40428
      -24.10049      -120.1638       443.7449       391.5277      -65.32288
       223.2218       444.7802      -11.71136      -130.9417       212.5746
       63.14301      -13.11365      -147.1707      -662.4380      -753.1903
      -631.1646      -365.9990       108.6921       44.20724      -58.72388
       512.5349       557.0361       34.32898      -165.9325      -263.5056
       26.73022       567.3252       616.4718       682.9375       592.2712
      -107.0564      -93.99438       531.1794       425.9338       5.885925
      -192.6607      -113.5822       320.8910       294.0499       150.1339
       505.0232       234.7172      -35.61719       425.6751       498.7397
      -1.232666      -323.1708       59.39288       275.7111       110.8618
      -366.1765      -708.8956       40.82227       334.7902      -52.98242
      -262.0199      -485.7535      -313.3703      -2.242859       91.41138
       341.4623       619.9699       408.9620       37.81625       16.34088
