     0.02500000      -2618.946       1891.421      -12345.00      -12345.00
      -29.99503       217.5299      -19.37000      -12345.00      -12345.00
       0.000000       14.40000      -12345.00      -12345.00      -12345.00
      -12345.00      -12345.00      -12345.00      -12345.00      -12345.00
      -12345.00      -12345.00      -12345.00      -12345.00      -12345.00
      -12345.00      -12345.00      -12345.00      -12345.00      -12345.00
      -12345.00      -30.57010      -68.62600       946.0000       0.000000
      -31.24600      -68.98500       0.000000       102400.0       0.000000
      -12345.00      -12345.00      -12345.00      -12345.00      -12345.00
      -12345.00      -12345.00      -12345.00      -12345.00      -12345.00
       82.42056       24.69888       204.5154      0.7410427      -12345.00
      -12345.00     0.04609404       0.000000       0.000000      -12345.00
      -12345.00      -12345.00      -12345.00      -12345.00      -12345.00
      -12345.00      -12345.00      -12345.00      -12345.00      -12345.00
      2008        16        21        17        56
        70         6    -12345    -12345      9902
    -12345    -12345    -12345    -12345    -12345
         1         7        13    -12345    -12345
    -12345    -12345    -12345    -12345    -12345
    -12345    -12345    -12345    -12345    -12345
    -12345    -12345    -12345    -12345    -12345
         1         1         1         1         1
TUCU    -12345          
        -12345  -12345  
-12345  -12345  -12345  
-12345  -12345  -12345  
-12345  -12345  -12345  
-12345  -12345  -12345  
-12345  -12345  BHZ     
ZL      -12345  -12345  
[...]
       714.9624       707.6594       692.1455       686.4382       665.5474
       653.6287       639.4766       621.9514       604.1372       586.4849
       558.0325       541.3964       511.9955       485.2861       457.6982
       429.8601       395.4595       366.7125       332.9649       298.6661
       252.8728       219.5600       178.4741       135.4883       89.26358
       49.93512       4.234268      -49.58981      -103.2556      -139.3916
      -190.0336      -238.0873      -282.1284      -327.1179      -386.3611
      -432.1978      -481.3615      -543.2383      -596.4906      -640.3987
      -700.1230      -752.6150      -804.3499      -850.2336      -900.4944
      -942.3643      -984.0278      -1025.604      -1068.737      -1105.783
      -1147.325      -1177.034      -1219.133      -1252.707      -1281.869
      -1315.716      -1351.590      -1370.827      -1404.817      -1431.076
      -1458.486      -1480.413      -1496.188      -1506.553      -1529.350
      -1536.661      -1554.547      -1569.475      -1577.451      -1577.057
      -1584.539      -1586.141      -1587.702      -1589.021      -1587.086
      -1572.095      -1570.079      -1569.823      -1568.133      -1557.278
      -1549.910      -1531.700      -1516.224      -1500.749      -1483.381
      -1462.948      -1440.338      -1418.973      -1399.383      -1368.681
      -1349.063      -1329.406      -1305.035      -1269.119      -1246.883
      -1224.888      -1190.152      -1152.918      -1124.726      -1085.689
      -1048.256      -1013.316      -984.1702      -945.7061      -900.0283
      -853.8394      -823.5562      -788.7241      -753.0449      -715.1941
      -681.7039      -641.9869      -604.7739      -568.8375      -536.3420
      -497.3748      -457.5215      -416.0219      -370.1915      -330.3063
      -296.3884      -256.3951      -211.4987      -166.0227      -126.4917
      -76.69246      -33.59165       3.577744       53.23367       90.05792
       132.5538       171.2858       195.7279       237.6871       266.6259
       296.5693       335.7488       358.4307       386.6365       430.7606
       469.2100       502.6614       540.0851       578.9685       613.1382
       648.9934       680.3159       714.0356       747.7192       773.8994
       803.8230       830.4048       854.2922       883.1118       907.1055
       926.6360       940.3181       960.4746       985.2739       993.4346
       1001.886       1019.417       1039.430       1052.610       1059.138
       1066.336       1081.806       1099.981       1114.279       1125.696
       1143.195       1150.488       1157.929       1166.069       1166.674
       1165.960       1158.080       1149.427       1145.382       1135.716
       1134.608       1129.785       1129.685       1129.179       1122.241
       1117.737       1108.339       1096.034       1091.867       1079.526
       1068.555       1075.905       1061.056       1041.308       1035.679
       1028.070       1013.613       1011.163       998.3481       986.9395
       970.7100       952.8657       938.1187       920.8799       905.2378
       904.8313       890.1704       880.9016       865.7422       850.7288
       842.6685       838.1565       828.7434       819.5901       809.7900
       802.0981       786.1392       770.7795       761.7463       753.2151
       741.3413       719.3579       700.4432       681.5603       659.8772
       638.0823       611.2495       586.7876       573.7362       551.3035
       525.0714       499.8542       477.8760       459.2286       437.9562
       413.5393       390.9232       358.9687       332.5276       319.0453
       291.9740       257.4595       229.8719       198.1552       165.6384
       136.8280       99.45335       64.54562       37.80696       11.19353
      -21.08203      -76.78979      -261.0366      -609.2777      -716.7455
      -203.6982       326.0585       226.8879      -116.0125      -722.0505
      -1155.150      -376.7255       183.2817      -415.8554      -267.1848
      -4.751465      -701.9312      -559.2783      -500.4763      -1409.444
      -499.7369       231.7332      -982.0992      -689.9387      -567.6980
      -1668.689      -705.8710       183.8726      -1062.593      -1421.351
      -615.0962      -599.8472      -1049.939      -1218.866      -653.1056
      -316.9431      -1253.636      -1339.187      -687.9753      -1132.138
      -1191.487      -758.3303      -979.4370      -956.1768      -994.2563
      -1221.611      -839.4302      -852.0627      -1201.841      -996.6118
      -976.3997      -1071.873      -784.2795      -761.2852      -821.3262
      -1130.834      -1487.631      -856.2850      -337.3149      -1072.640
      -1188.536      -398.0410      -869.9365      -1211.950      -627.8892
      -663.3960      -1006.323      -844.4570      -339.9331      -308.2754
      -484.9785      -528.3782      -836.4651      -1076.577      -570.5563
       169.9471       96.19580      -669.2947      -820.1072      -419.4593
      -288.8176       96.87332       113.6130      -442.8739      -546.4999
      -393.8652       25.90892       158.2610      -188.7298       4.782074
       139.6077      -420.7182      -298.7972       370.9312       294.6699
      -115.2972      -266.1229       38.37427       526.6334       439.5322
      -70.61169       215.0198       558.3654      -72.75348      -104.4230
       599.4658       594.4773       253.8644       178.1797       240.1984
       169.3280       255.9041       740.9888       481.2180       94.42676
       407.7124       546.3840       507.3254       598.0927       539.2780
       209.1707       383.3704       715.1961       419.5461       143.5931
       370.6189       437.9171       218.4536       466.8405       589.6215
       154.4773       161.6140       564.7592       606.4487       480.7690
       498.6714       648.8002       765.7272       492.6569       165.4222
       220.7145       332.9127       243.5575       275.2474       428.4856
       396.8584       266.6839       169.9760       367.4528       500.7635
       246.9606       212.5970       306.1472       265.2863       348.5584
       313.8280       283.3358       479.0490       208.7341      -37.97827
       393.8295       368.0885       92.70813       87.09583      -16.75720
       126.6570       156.7356      -22.86972       67.14381       106.3087
      -8.415649      -126.6071      -200.5581      -115.3277       22.70840
       38.01180      -29.47766      -161.5880      -251.7932      -177.3946
      -122.0870      -190.7546      -245.9945      -328.4290      -352.3944
      -315.8085      -384.5186      -422.9678      -312.8501      -236.8038
      -284.8541      -478.4822      -650.1533      -439.7992      -298.9772
      -509.4812      -459.3374      -459.2388      -690.6129      -607.7185
      -615.3226      -637.1851      -332.2068      -580.6902      -840.9337
      -522.7373      -619.3137      -610.8318      -452.5825      -610.7949
      -692.2412      -931.3176      -819.5275      -328.0518      -426.1519
      -607.0352      -583.5667      -982.6309      -788.1570      -213.6527
      -540.6113      -735.0818      -770.9031      -1052.419      -714.5127
      -303.2656      -483.1584      -556.1345      -480.1443      -616.8167
      -675.5131      -583.8682      -149.3657       88.75952      -392.5925
      -408.8363      -8.426025      -92.83179      -153.8327      -46.51758
      -239.2223      -533.5049      -177.5765       375.2776       234.3755
      -2.504349      -5.542526      -19.44006       134.3573       301.5323
       250.2525       289.1440       187.6392       123.9814       703.0652
       892.0920       514.0831       667.6490       696.6652       354.1505
       318.2573       473.3608       758.5698       1030.512       1137.970
       1009.247       658.2366       710.1562       973.2329       769.3105
       898.0557       1319.184       1144.167       887.2158       1098.871
       1320.423       1191.994       991.2239       998.3896       1185.020
       1151.399       1055.382       1235.745       1042.631       732.4023
       811.0522       1101.904       1528.035       1573.667       1362.771
       1085.427       733.9370       610.5044       878.7026       1302.072
       1386.087       1104.852       905.5039       1066.402       1067.698
       819.1116       1045.889       1182.310       826.8530       816.0530
       801.5645       542.1489       939.9080       1195.309       843.0771
       771.7864       788.9033       760.6116       701.1089       633.8157
       821.4878       706.0452       352.6567       426.8472       497.1880
       410.7773       541.2838       535.2458       369.7084       269.8092
       126.8706       3.390015       207.4528       549.1404       450.0628
       171.5371       171.8118      -72.70117      -264.4260       71.63416
       154.1013       27.13431       6.414917      -137.0381      -224.1909
      -326.4973      -416.5552      -266.4905      -286.9595      -489.8823
      -473.6797      -480.2043      -418.5886      -356.6089      -530.7511
      -523.7517      -489.6140      -738.4016      -942.4336      -889.5676
      -859.1392      -1059.064      -1013.841      -853.3125      -951.5569
      -1162.517      -1169.830      -1030.941      -1333.113      -1519.066
      -1106.217      -1109.598      -1450.077      -1348.283      -1261.374
      -1217.701      -1042.951      -1242.288      -1468.595      -1560.459
      -1712.484      -1698.157      -1522.173      -1319.922      -1314.410
      -1556.124      -1872.115      -1730.732      -1155.916      -1280.912
      -1747.513      -1690.863      -1638.343      -1566.050      -1406.413
      -1376.109      -1368.118      -1592.702      -1572.963      -1409.356
      -1580.326      -1454.567      -1276.327      -1416.996      -1368.814
      -1213.211      -1023.145      -1060.849      -1198.429      -889.8540
      -1016.571      -1399.228      -1000.903      -789.9495      -914.8765
      -698.5081      -694.4753      -957.6448      -1065.015      -1019.135
      -549.4127      -301.3899      -690.2218      -698.8354      -254.1764
      -141.1537      -499.0129      -611.7134      -293.1771      -35.08777
      -120.6693      -279.8836      -35.21985      -122.0781      -372.9029
      -26.57971       217.4985       203.8201       182.2465       129.2545
       110.4163       147.6379       368.3822       392.9304       271.3947
       350.3254       435.1385       616.3843       634.4548       263.9213
       191.8684       449.0283       773.1423       897.6809       705.5754
       811.1448       898.7578       580.7634       665.8931       970.6807
       963.5034       853.0337       801.9946       1029.476       1331.424
       1096.323       812.4668       959.9541       953.1733       748.9521
       999.4888       1448.321       1405.094       953.9460       893.3867
       1132.346       1075.723       1141.455       1390.692       1240.703
       1106.769       1477.108       1565.729       1082.543       1027.952
       1321.923       1298.060       1188.498       1277.062       1342.344
       1198.268       903.5969       995.4170       1551.816       1693.603
       1278.114       1284.148       1381.726       957.5371       960.4722
       1496.477       1540.852       1160.312       1017.748       1092.153
       1190.513       871.2278       682.1221       1377.610       1588.804
       967.0784       629.8704       842.0352       994.2046       809.4976
       908.9910       1149.075       711.9331       611.1111       1286.213
       1138.854       821.3213       1350.982       1089.124       28.35620
       23.94824       865.8345       978.8181       654.5712       629.8270
       482.3440       469.9106       827.1741       933.6130       540.5005
       250.9001       541.4106       739.7751       470.0167       219.8564
       398.8379       727.0842       479.5244       158.3579       326.0001
       168.3177       137.8931       636.5869       404.4448      -146.7440
      -76.73776      -23.51660       203.6133       721.3076       777.2971
       567.0596       7.304688      -617.1635      -462.1941      -184.4489
      -143.4606       61.60910       86.67241      -32.49979      -23.90674
      -459.3846      -593.4945       8.151978      -69.60474      -473.0940
      -334.5967      -553.5381      -1021.958      -600.1413      -100.2443
      -428.6693      -624.8550      -370.8680      -272.4857      -336.3010
      -594.1885      -871.2434      -922.0488      -973.2727      -928.9614
      -671.7046      -381.3792      -385.1038      -693.7683      -502.3992
      -308.4414      -926.5840      -1180.807      -1107.666      -1676.975
      -2345.501      -2618.946      -2223.846      -1324.621      -672.2808
      -488.3824      -507.0403      -650.0134      -1068.647      -1627.897
      -1355.990      -453.7998      -533.7563      -1155.314      -1176.036
      -1383.311      -1883.152      -1431.764      -520.2347      -495.3030
      -632.3194      -254.6147      -267.1943      -914.4573      -1104.018
      -705.2483      -805.8982      -1194.161      -996.0465      -615.9067
      -428.1809      -553.4780      -1055.013      -1229.524      -779.1262
      -502.9355      -739.6333      -911.3306      -760.7161      -769.5051
      -737.8757      -480.0688      -635.5400      -1048.559      -1221.114
      -1312.944      -1111.219      -425.0226       165.0722       25.41516
      -449.8281      -391.8955      -193.2461      -520.7842      -643.1233
      -603.8433      -755.1782      -930.1604      -817.6597      -302.1591
      -212.3347      -611.8621      -976.1396      -1208.385      -1063.644
      -557.2188      -329.5056      -619.4436      -708.8264      -682.2502
      -846.5166      -821.9263      -725.5642      -691.4573      -464.0052
      -444.8164      -814.2002      -1044.118      -815.4731      -495.0026
      -530.1117      -477.5009      -138.0315      -279.7883      -663.8076
      -695.0605      -775.3667      -917.7725      -778.6489      -695.3215
      -797.2239      -798.1229      -445.7708      -154.0911      -311.3733
      -653.9302      -692.2249      -649.3076      -668.8184      -411.7756
      -253.8735      -384.2731      -333.2158      -350.0424      -405.8134
      -237.2507      -324.2902      -517.6259      -371.3097      -133.5159
       109.8037       254.3550       100.5234      -72.66449       104.4915
       211.2142       145.1058       56.77704       2.903931       206.6162
       398.5717       234.1224       259.3019       334.5975       191.9756
       254.2766       403.3704       571.7244       814.5447       747.0510
       536.7563       619.6257       830.8860       871.7979       883.5386
       927.4863       828.1897       808.1689       1046.617       1009.318
       946.5527       973.6846       678.6672       830.2944       1428.575
       1490.889       1253.791       1243.597       1341.775       1133.524
       1111.885       1559.426       1579.217       1253.382       1148.311
       1012.124       952.7920       1001.475       1015.247       1279.673
       1478.222       1457.682       1725.255       1614.475       1316.748
       1492.092       1595.602       1647.103       1571.838       1270.659
       1336.883       1543.410       1603.767       1609.921       1520.229
       1319.670       1194.740       1274.285       1461.234       1514.477
       1420.536       1361.442       1503.230       1632.381       1541.403
       1556.011       1592.135       1297.921       1155.701       1220.039
       1432.863       1698.812       1610.344       1331.121       1261.500
       1290.500       1203.461       1186.847       1445.910       1536.983
       1193.887       939.0933       1088.533       1222.291       1001.215
       880.2031       1199.182       1300.714       943.7666       621.3389
       678.3169       957.4348       915.8008       653.2722       711.3074
       853.0637       878.7046       887.7908       781.3279       552.1787
       424.4597       291.2119       203.6768       323.3535       355.9377
       328.9761       432.1140       388.2532       175.5540       154.6747
       172.6709       51.80652       175.3748       389.5821       356.9699
       142.7400      -67.42657      -155.4236      -239.2926      -396.3892
      -402.3705      -296.8823      -342.7354      -549.2727      -807.0664
      -924.4832      -780.5686      -764.7205      -856.3635      -819.1069
      -773.6511      -558.9949      -486.6416      -688.3479      -584.3536
      -534.3689      -904.3618      -1167.149      -1221.118      -1326.699
      -1418.695      -1459.585      -1724.774      -2035.521      -1792.199
      -1260.630      -1147.932      -1367.245      -1473.895      -1387.944
      -1341.641      -1527.896      -1728.267      -1817.204      -1814.679
      -1601.913      -1598.201      -1749.005      -1652.658      -1737.381
      -1957.495      -1938.357      -1693.818      -1663.545      -1829.491
      -1758.947      -1707.636      -1595.938      -1404.438      -1482.203
      -1585.360      -1460.736      -1373.887      -1469.170      -1457.078
      -1480.344      -1519.156      -1575.508      -1695.523      -1632.214
      -1651.618      -1660.408      -1568.658      -1628.975      -1528.933
      -1314.774      -1286.696      -1218.438      -1048.274      -985.1130
      -1102.342      -1244.022      -1138.334      -1100.959      -1100.358
      -800.8386      -700.4905      -912.3340      -1016.137      -974.9392
      -973.4395      -945.8809      -744.1219      -550.3718      -450.2003
      -443.0289      -449.8782      -330.5406      -262.8162      -320.5892
      -348.6963      -251.7205      -214.8879      -353.6288      -354.8779
      -319.4851      -453.4323      -505.8621      -333.3949      -164.3936
      -153.5682      -61.62544       47.38705       23.93320       101.5557
       171.9673       141.0895       192.7828       212.5751       188.8092
       262.9368       135.0966      -64.60510       147.0320       303.3156
       76.77527       33.20288       154.3314       117.8063       97.77490
       241.9884       532.3843       599.6195       311.9504       79.25507
