     0.02500000      -2172.914       1529.740      -12345.00      -12345.00
      -29.99503       217.5299      -19.37000      -12345.00      -12345.00
       0.000000       14.40000      -12345.00      -12345.00      -12345.00
      -12345.00      -12345.00      -12345.00      -12345.00      -12345.00
      -12345.00      -12345.00      -12345.00      -12345.00      -12345.00
      -12345.00      -12345.00      -12345.00      -12345.00      -12345.00
      -12345.00      -30.57010      -68.62600       946.0000       0.000000
      -31.24600      -68.98500       0.000000       102400.0       0.000000
      -12345.00      -12345.00      -12345.00      -12345.00      -12345.00
      -12345.00      -12345.00      -12345.00      -12345.00      -12345.00
       82.42056       24.69888       204.5154      0.7410427      -12345.00
      -12345.00     -0.2585707       180.0000       90.00000      -12345.00
      -12345.00      -12345.00      -12345.00      -12345.00      -12345.00
      -12345.00      -12345.00      -12345.00      -12345.00      -12345.00
      2008        16        21        17        56
        70         6    -12345    -12345      9902
    -12345    -12345    -12345    -12345    -12345
         1         7        13    -12345    -12345
    -12345    -12345    -12345    -12345    -12345
    -12345    -12345    -12345    -12345    -12345
    -12345    -12345    -12345    -12345    -12345
         1         1         1         1         1
TUCU    -12345          
        -12345  -12345  
-12345  -12345  -12345  
-12345  -12345  -12345  
-12345  -12345  -12345  
-12345  -12345  -12345  
-12345  -12345  BHN     
ZL      -12345  -12345  
[...]
       1238.935       1248.191       1254.206       1269.393       1272.594
       1277.926       1281.650       1283.593       1283.725       1288.545
       1285.966       1287.028       1284.011       1284.603       1275.702
       1268.321       1261.544       1253.501       1236.606       1223.421
       1202.610       1182.383       1152.884       1133.749       1109.185
       1080.032       1046.272       1018.512       987.2637       963.6729
       928.6479       899.6655       869.0410       835.8062       800.8472
       774.7524       735.9941       699.5280       661.7925       624.7118
       579.3657       536.2335       490.6766       450.1064       405.7214
       366.4401       322.8663       281.9916       248.6385       208.9372
       162.1805       127.8281       90.68777       50.16195       7.801010
      -20.75854      -49.69131      -89.39886      -125.9557      -157.0181
      -189.8069      -228.3464      -261.5735      -282.3340      -311.2025
      -341.1489      -371.3433      -402.0873      -426.8549      -449.4553
      -475.3540      -493.2159      -519.4634      -542.6797      -564.8540
      -578.3220      -597.2744      -608.4932      -629.9009      -648.1851
      -659.1807      -665.7373      -687.1746      -699.5913      -708.3784
      -724.0520      -746.3247      -752.1030      -758.3770      -762.9927
      -776.6533      -785.6218      -799.7397      -803.7441      -815.4482
      -825.0249      -829.3308      -829.6382      -840.2629      -829.3323
      -824.7886      -822.6475      -819.7803      -807.4749      -799.1260
      -783.1582      -775.1938      -752.9578      -740.6174      -724.8323
      -712.5037      -700.5941      -687.0193      -668.2920      -669.1665
      -651.2898      -630.5330      -610.7744      -595.2507      -570.8179
      -561.2462      -539.6998      -518.8772      -488.1890      -462.2336
      -430.6754      -411.6532      -378.4012      -352.3040      -332.2612
      -307.1744      -284.8040      -280.0216      -261.9688      -252.9835
      -239.0615      -230.9009      -227.6129      -224.9631      -206.4111
      -198.8275      -196.0832      -190.0890      -176.7970      -166.7802
      -154.2141      -150.9814      -130.9142      -111.7515      -100.2406
      -78.67685      -55.31780      -37.00609      -11.92524       1.976135
       22.34818       40.38834       60.08057       80.06396       98.66919
       109.9683       124.4039       142.5605       167.4033       180.5189
       194.8467       211.7873       240.0100       263.1049       290.8418
       319.2896       348.4785       374.0127       401.2600       422.9454
       442.1235       449.9355       463.3904       474.3684       482.7207
       492.8809       502.1885       506.1371       513.7646       509.7462
       511.9353       510.6133       511.3223       509.5280       501.6941
       484.9089       485.0852       477.7046       468.7146       455.6152
       448.3518       433.9895       426.3387       411.5427       392.2140
       374.8918       356.9414       334.5922       317.9244       297.0698
       273.2429       243.6034       222.4219       195.5654       168.9285
       150.0080       140.2315       122.3694       97.93219       73.19707
       60.35887       41.13884       21.36896       5.424101     -0.7049332
      -16.31847      -27.64059      -37.21440      -47.14546      -62.43843
      -74.71869      -86.97787      -98.43112      -114.5906      -119.4276
      -124.6931      -133.6844      -137.7074      -130.0631      -131.2633
      -130.9585      -125.2774      -119.5226      -118.0055      -107.1044
      -103.1332      -98.17261      -95.39162      -82.43729      -70.52350
      -60.64313      -56.71498      -53.80917      -51.00921      -31.66129
      -23.25638      -6.460327       79.18646       229.5389       189.7032
      -81.52747      -176.3147      -24.06094       74.39563       267.1315
       303.4199      -78.44699      -187.1146       29.49420      -260.6171
      -250.9116       259.3247       177.2483       180.2727       446.9192
      -106.0342      -345.2855       125.2033       237.1074       317.7451
       438.2662       3.968430      -123.8271       345.5637       159.9517
      -232.8692       236.5801       468.0702      -4.784912      -255.5896
      -50.97650       245.9926       107.4472      -64.49365       271.9724
       315.1788       67.81917       10.47449       83.61792       268.9379
       177.2232      -93.61566       117.6038       278.3414       39.24173
       53.53845       161.1995      -45.87814      -117.0788       18.66031
       139.4078       192.6226      -12.77773      -146.9227       201.3117
       102.5478      -173.8442       149.5766       201.3658      -148.9811
       78.87811       304.2830      -39.16803      -57.24217       83.56349
      -19.93747       39.54108       197.2626       223.6280      -69.30602
      -152.7360       132.3287       153.9468       139.7457       260.6653
       15.19763      -123.0979       42.80426       82.73627       134.0863
       256.6489       211.3804       137.4995       170.6499       63.71942
       8.484009       310.3031       329.7601       33.79980       12.25732
       273.2260       336.4366       193.2017       124.5611       155.5900
       162.8542       32.45364       22.36230       288.9136       238.5258
      -63.44144      -26.40747       143.4628       86.33583       10.72913
       230.5146       181.0485      -146.2643      -8.274887       75.54422
      -158.5285      -175.5791      -22.83807      -123.7381      -203.5215
      -91.25171      -165.6909      -259.5176      -96.47064      -75.92981
      -289.8416      -316.5323      -223.6223      -291.2788      -304.2640
      -129.4237      -236.5768      -516.6008      -414.1259      -271.6580
      -411.2769      -588.8027      -656.8677      -564.8590      -389.5710
      -449.9080      -550.7795      -577.3187      -638.5225      -514.3843
      -359.7783      -397.5784      -378.8396      -517.9681      -634.3678
      -460.3633      -436.0037      -491.4919      -492.3578      -377.5615
      -330.0259      -589.9474      -643.7881      -376.1455      -330.0725
      -418.1018      -305.7334      -274.9269      -348.9447      -359.9250
      -325.7407      -244.6120      -141.1130      -189.8915      -262.0377
      -162.2639      -101.4397      -119.1958      -116.0991      -142.8040
      -91.41550       28.99683       174.8683       167.3880      -55.79692
      -97.95872      -56.72647      -140.2415      -27.41168       134.3827
       196.4161       149.9106      -22.46133       3.360901       145.6559
       118.0198       181.2505       250.9455       29.75690      -82.03259
       98.29663       90.36340       73.85321       244.3567       225.9908
       88.55061       95.73731       28.76071       42.59467       136.6076
       61.29829       11.01730       5.387543      -33.38721       22.45764
       138.4266       105.8340       3.133575      -1.018860       41.17191
       82.89417       182.1295       275.0690       91.08844       62.52679
       257.0668       64.88589       2.705200       252.9467       160.8426
       53.20764       241.9915       236.7700       51.51074       159.5607
       320.5637       170.5332      -27.07895       9.589600       162.9429
       175.4856       124.8633       220.1584       169.9233       65.82324
       291.5479       416.0769       180.1478       186.3010       363.9899
       316.6355       309.6168       427.2653       381.8273       318.0992
       448.6224       380.7330       224.8243       245.8661       108.6414
       119.6077       252.6895       186.1907       203.6377       288.3733
       356.1439       371.5963       294.5715       212.9763       207.0994
       428.7502       507.6416       318.2393       299.0553       261.0479
       105.6861       149.3517       262.2523       180.9711       73.64362
       210.8605       289.2898       205.7025       178.3085       172.2723
       217.6702       211.2435       192.3208       435.7612       438.7721
       201.8624       135.8949       98.26331       129.4537       260.6206
       282.3505       403.2134       460.9574       153.1198      -48.57727
       154.4783       341.9233       310.1521       319.6517       354.1510
       127.1005      -94.43674       17.86127       222.4793       253.9524
       281.5811       351.3812       170.5159      -31.53912       131.6689
       181.2886       98.66556       173.4447       123.2390       10.31038
       44.51793       44.39795       134.4841       171.9462       110.1623
       120.8248      -49.80490      -182.6977      -25.94406       40.38541
       98.23141       163.3400      -15.87991      -122.4146       39.75246
       76.15596      -42.34509       28.43716       31.94470      -186.0212
      -233.7936      -117.4515      -79.62506      -68.61700      -25.67224
      -125.5042      -278.3635      -285.0433      -219.8461      -157.6208
      -60.02591      -63.40207      -147.6276      -193.6646      -236.2275
      -337.5383      -393.1938      -248.0549      -161.7207      -243.5480
      -289.1892      -405.5786      -474.2930      -363.6858      -316.4426
      -365.0870      -454.2985      -460.2397      -323.6127      -380.1138
      -564.5143      -518.3604      -471.3442      -606.9756      -625.1174
      -605.5359      -678.8092      -652.2322      -666.3101      -749.5222
      -702.0176      -613.0323      -520.6511      -524.5203      -599.8102
      -482.5679      -409.6262      -631.6680      -710.7213      -479.5559
      -384.5979      -486.4384      -502.8867      -637.2283      -781.7247
      -629.0143      -461.5669      -527.0754      -581.6067      -487.1152
      -427.5577      -519.9055      -634.8608      -571.6511      -424.4192
      -372.8560      -375.2357      -443.5138      -472.1362      -436.1134
      -367.2854      -354.1620      -423.5228      -358.3901      -228.5574
      -240.9425      -220.8460      -147.4689      -197.1414      -289.6836
      -337.0237      -329.0090      -141.7690      -18.14740      -216.5228
      -171.1502      -36.87408      -171.0835      -164.9922      -39.79578
       119.5492       196.5515       118.1119       76.24924       58.65192
       23.63483       82.18994       226.6229       198.9823       124.3699
       218.9844       204.5771       175.4675       208.4882       223.7511
       250.7372       280.3812       358.1489       408.9968       448.4142
       511.3918       386.4412       267.7599       405.1741       555.0123
       567.3530       527.3979       521.8608       465.3234       341.4670
       413.6531       558.2150       552.3350       495.5232       526.3281
       654.5654       674.8054       599.8484       669.3210       713.4944
       608.9739       549.3027       616.0527       652.1387       786.5667
       904.9000       640.4208       402.9706       493.7632       615.8593
       572.9202       465.8413       653.1460       793.2253       566.3906
       512.3215       654.5522       641.4565       594.3060       564.6400
       624.5491       715.5740       523.3306       265.2151       339.6965
       510.6292       380.5223       325.0286       423.1566       221.4302
       24.48743       272.5537       470.1016       360.1039       291.8510
       283.0391       347.3226       269.4403       111.1781       288.0564
       452.9712       283.7356       131.6041       94.23274      -22.35706
      -20.97241       213.0775       279.4802      -171.5525      -393.3806
      -44.65833      -25.00092      -283.5821      -36.09039       292.3181
      -2.709412      -259.6696      -5.400055       44.03090      -81.31659
       47.11621      -3.970337      -272.0244      -336.9852      -255.3148
      -199.5424      -270.7573      -345.9893      -346.5930      -398.1211
      -515.0198      -477.3267      -263.0740      -164.8956      -133.8725
      -108.2080      -340.3656      -577.1667      -462.7446      -268.8115
      -197.7316      -217.3783      -529.0256      -800.3894      -681.9330
      -426.7053      -251.5192      -311.0020      -557.9723      -643.2039
      -587.7744      -761.0730      -809.0852      -594.3611      -477.0620
      -236.4996      -212.2537      -623.2408      -696.8973      -491.5488
      -433.9407      -226.5006      -126.3813      -512.2357      -699.1731
      -435.4736      -413.4191      -674.6339      -657.2170      -507.5483
      -581.7769      -676.1807      -744.5945      -914.3091      -984.9426
      -738.6229      -325.1274       175.2942       658.4662       635.4634
       457.5054       329.8074      -414.9619      -1287.903      -1767.291
      -2172.914      -2137.753      -1520.018      -719.8268       242.0776
       980.9048       964.6458       352.9554      -312.4011      -456.8585
      -303.0056      -328.8103      -316.6050      -476.0557      -795.5727
      -476.2495       311.9575       1037.285       1248.146       701.6946
       186.0455       88.19330      -100.8984      -621.6219      -644.1045
       209.8302       400.0837      -96.86377       383.8936       1312.113
       1529.740       1317.816       904.4646       444.7772       458.2835
       403.4695      -391.5894      -951.1470      -389.3857       274.9197
       417.3232       495.5735       307.5505       293.8528       778.8091
       818.8107       401.8003       131.2903       74.07208       137.3426
       253.5608       417.3162       677.0026       613.9588       118.1371
      -139.1041       9.962036       161.7952       351.1948       733.1538
       613.7212      -80.53290      -245.4227       150.0255       440.6517
       526.4340       312.9122      -129.5479      -163.0350       131.9953
       137.2138      -2.190872       41.07262       120.7693      -1.495117
      -377.9209      -628.4446      -418.3795       37.55554       277.7039
       313.3690       319.3638       280.5583       423.4541       504.6154
       142.0620      -169.2313      -407.6401      -784.7399      -693.1803
      -143.9319       93.68518       150.8193       405.5995       399.0775
      -18.10370      -288.0873      -201.4461      -44.63419      -22.77153
      -40.22711      -51.35233      -76.74243       88.67383       220.2216
       121.8023       33.00864       48.07818       67.05463      -66.01041
      -154.4700      -53.58335       27.58264      -19.65900      -126.9921
       32.96350       246.9380       143.0944      -5.565735       113.3892
       391.8999       466.1660       361.2271       525.9471       597.8895
       182.7628       72.98560       615.5227       740.2980       403.7234
       379.2137       482.7284       432.1032       179.4772      -240.3656
      -424.8091      -181.1830       121.2721       399.3402       677.6221
       686.9011       681.9351       713.5853       646.0139       630.6929
       497.1339       286.4222       162.2301       196.4507       445.4789
       609.5945       747.7626       794.4603       414.2209       88.21753
       129.2442       159.3282       1.470245      -24.29382       195.3750
       408.0376       613.7667       727.0986       470.2058       106.6181
       3.245850       36.76987       121.5093       231.8906       337.8617
       451.1427       325.5919      -1.946167      -301.2582      -317.1882
       39.31274       315.9599       337.8922       295.4716       27.93304
      -292.1562      -414.4136      -305.0308       145.3592       429.9120
       148.4672       45.82275       343.0186       386.8721       198.9619
       239.0759       405.9382       368.3165       151.1935       35.48657
       134.7567       145.8764      -7.322266      -63.91492      -169.8068
      -291.0970      -143.2746       73.43958       269.6010       383.8275
       169.4973      -41.54461       10.64673      -4.147949      -175.4888
      -241.9326      -115.4364       89.62878       235.5906       296.1775
       514.6125       817.3348       759.0707       469.5834       103.1584
      -204.1851      -219.0313      -195.3525      -144.1702      -136.5000
      -350.1510      -382.6747      -216.9653      -254.3553      -331.7465
      -301.9153      -383.2028      -621.9965      -598.2611      -85.51962
       213.7774      -62.83936      -369.4692      -381.6211      -335.4991
      -484.0305      -582.2840      -293.2946      -104.2957      -437.8147
      -649.0215      -501.1147      -636.3328      -887.0181      -742.2351
      -570.9473      -683.5474      -817.2283      -823.7120      -655.4814
      -361.7256      -260.9701      -562.9724      -887.8223      -908.2681
      -917.0908      -1112.259      -1162.880      -1064.342      -959.2845
      -724.8125      -527.8137      -590.1982      -705.9172      -726.4482
      -697.7355      -658.8342      -638.2219      -701.8542      -736.4163
      -667.5588      -704.9443      -845.3960      -840.3145      -859.0068
      -929.2837      -928.0190      -843.8032      -638.3940      -570.1637
      -637.8716      -670.8298      -724.3389      -623.4128      -513.0337
      -607.1238      -748.3096      -783.4141      -772.5427      -728.9292
      -568.1340      -558.5703      -721.4568      -687.0972      -502.4944
      -462.4430      -558.2162      -532.8708      -371.6224      -282.8645
      -251.9457      -255.3168      -312.8810      -246.4378      -90.82312
      -147.4741      -353.6700      -388.1965      -310.0048      -268.8046
      -156.5102      -44.27692      -25.84636       23.09833       114.7995
       235.2748       260.3500       237.7589       268.5693       270.6819
       206.1255       120.9258       84.95990       120.9781       191.4351
       324.1350       461.8750       490.3413       416.8271       430.4342
       491.5485       541.5312       516.4808       356.8329       243.0659
       195.5613       137.6294       267.6011       422.8463       425.5925
       400.1407       412.1418       505.0674       707.8735       870.2151
       930.1948       908.8026       673.9976       445.2649       568.5181
       669.2728       604.6641       746.7810       966.2983       924.7766
       854.9819       917.2388       969.7275       942.2202       797.5613
