     0.02500000      -3220.796       2427.316      -12345.00      -12345.00
      -29.99503       217.5299      -19.37000      -12345.00      -12345.00
       0.000000       14.40000      -12345.00      -12345.00      -12345.00
      -12345.00      -12345.00      -12345.00      -12345.00      -12345.00
      -12345.00      -12345.00      -12345.00      -12345.00      -12345.00
      -12345.00      -12345.00      -12345.00      -12345.00      -12345.00
      -12345.00      -30.57010      -68.62600       946.0000       0.000000
      -31.24600      -68.98500       0.000000       102400.0       0.000000
      -12345.00      -12345.00      -12345.00      -12345.00      -12345.00
      -12345.00      -12345.00      -12345.00      -12345.00      -12345.00
       82.42056       24.69888       204.5154      0.7410427      -12345.00
      -12345.00    -0.02486645       270.0000       90.00000      -12345.00
      -12345.00      -12345.00      -12345.00      -12345.00      -12345.00
      -12345.00      -12345.00      -12345.00      -12345.00      -12345.00
      2008        16        21        17        56
        70         6    -12345    -12345      9902
    -12345    -12345    -12345    -12345    -12345
         1         7        13    -12345    -12345
    -12345    -12345    -12345    -12345    -12345
    -12345    -12345    -12345    -12345    -12345
    -12345    -12345    -12345    -12345    -12345
         1         1         1         1         1
TUCU    -12345          
        -12345  -12345  
-12345  -12345  -12345  
-12345  -12345  -12345  
-12345  -12345  -12345  
-12345  -12345  -12345  
-12345  -12345  BHE     
ZL      -12345  -12345  
[...]
       801.4048       785.6963       776.9370       756.2644       737.9414
       726.9619       713.9746       696.3910       674.4172       657.5034
       643.0027       625.6255       615.6528       598.0732       579.2930
       563.1128       551.9967       537.2305       520.1049       504.5138
       495.5510       479.1425       458.5769       443.7542       434.3599
       424.6305       413.9106       398.8937       386.6034       376.4053
       367.7559       353.8555       344.3903       337.1923       323.0383
       306.3572       292.5154       285.3622       279.7703       266.4940
       252.7632       248.0491       241.4567       225.4072       210.8184
       205.2095       181.3368       167.1158       156.2405       141.3247
       129.2581       122.6319       108.8095       95.95621       84.36743
       81.81039       67.35454       43.99880       27.56244       20.14359
      0.9420280      -15.86778      -28.00948      -35.35170      -49.42751
      -62.86110      -75.45453      -89.19952      -105.8018      -114.9308
      -130.6072      -150.2983      -177.7200      -191.3005      -197.0630
      -206.9130      -224.0522      -228.6118      -244.9962      -266.6178
      -272.2136      -270.6504      -285.2461      -293.3557      -297.0869
      -312.8331      -335.7019      -325.1993      -327.7893      -348.5664
      -353.9943      -349.5283      -365.1898      -379.4194      -369.7377
      -363.0977      -383.8386      -386.7175      -384.9094      -385.1029
      -388.7736      -390.1910      -391.3805      -391.8525      -392.9404
      -386.8405      -389.7520      -395.0703      -394.6986      -386.8674
      -380.5107      -373.9828      -369.5961      -368.5419      -370.4810
      -371.2998      -366.2086      -360.0199      -359.0909      -351.0177
      -347.0818      -346.4374      -339.5740      -334.8196      -329.2458
      -329.2557      -335.0933      -323.7850      -317.1250      -323.4183
      -313.1060      -304.9160      -309.3703      -304.6965      -298.3279
      -300.3297      -291.2405      -290.0526      -284.5348      -274.3293
      -279.1891      -282.5811      -286.3359      -288.9482      -289.9341
      -293.1228      -288.2291      -293.9823      -299.0510      -299.3950
      -302.2421      -306.5037      -307.7892      -315.5100      -318.0472
      -329.2639      -338.6250      -343.4426      -348.7986      -362.5906
      -369.2913      -377.9745      -388.3396      -401.3925      -407.1216
      -415.1053      -417.0469      -424.4395      -433.3833      -439.5500
      -446.7295      -458.1072      -467.1887      -465.4819      -459.3381
      -460.1157      -461.5564      -460.5492      -456.9082      -448.2849
      -441.0052      -429.9531      -420.9742      -410.9152      -402.2529
      -393.4922      -382.0176      -371.2705      -360.1917      -349.5217
      -336.2970      -313.8088      -301.7495      -289.3596      -263.9445
      -240.4642      -217.5099      -195.0641      -180.4784      -159.4689
      -136.7358      -128.2341      -109.8300      -82.72672      -63.91525
      -50.19952      -30.48222      -11.43812       3.934326       18.27840
       41.27139       59.76869       69.37042       79.99393       91.90585
       101.9793       117.2753       131.8644       146.7021       154.5386
       159.4202       165.2029       170.5891       180.7667       191.9389
       196.7014       199.5536       196.5510       189.8085       196.9771
       197.4084       190.6361       193.1472       190.1813       179.9661
       171.5818       163.3298       157.3820       151.5952       144.1231
       133.8143       124.2644       121.5338       117.0121       107.9851
       106.0093       98.83636       90.49396       89.66695       82.58380
       74.66251       75.12126       66.14334       59.86179       66.15869
       70.99985       69.34824       50.92987       45.30157       104.7869
       136.6626       60.27347       58.51382       128.0759       40.37387
       53.55817       134.7452       7.876831       189.0211       509.3813
       316.0634       162.7008       135.7228      -89.24762       115.8160
       472.4696       260.2332       495.5270       627.9082      -148.9358
       47.35217       644.2657       185.4862       197.6130       698.1975
       657.5448       482.1354       252.9268       257.6226       759.8818
       793.8013       606.8582       901.8358       676.6924       340.4915
       718.8352       863.2976       734.8674       635.5151       705.1133
       1060.112       918.5422       652.2703       834.0977       911.9519
       835.3987       905.0176       929.5759       925.3779       978.6479
       921.8857       1025.638       1063.913       772.9692       818.7788
       1254.176       1096.903       611.7400       808.8560       1069.883
       925.6221       827.8213       1050.585       1153.515       680.4277
       591.8901       1043.997       956.2927       606.7444       797.6348
       1065.459       715.2129       577.0425       917.9435       720.5374
       454.0839       527.8573       562.0381       711.6272       645.4009
       497.6675       414.3467       102.0355       319.6173       656.5604
       338.8756       163.3717       265.8757       169.8046       89.67401
       48.60004       19.35428       121.3493       27.51953      -191.3868
       76.24792       167.4805      -331.0498      -287.4246       67.86328
      -256.4579      -407.9366      -125.7952      -147.2961      -315.8617
      -511.6378      -402.7098      -218.9017      -468.6992      -503.4331
      -433.5896      -541.2458      -585.0640      -552.4878      -496.6201
      -456.9828      -422.0496      -496.8210      -614.8367      -567.2540
      -536.9160      -651.2815      -734.1245      -707.9132      -696.8574
      -630.5615      -461.0645      -502.1067      -789.0718      -865.8341
      -637.5264      -526.4968      -742.2568      -818.2651      -608.5422
      -586.0093      -738.0406      -665.0137      -495.2502      -566.8706
      -753.3154      -763.6809      -675.9470      -725.1426      -909.0479
      -831.5068      -640.3616      -798.9399      -951.7632      -840.2700
      -773.6997      -659.2861      -594.4138      -745.1272      -710.3447
      -676.9492      -761.0005      -600.3893      -610.5432      -747.7168
      -776.8752      -811.0920      -697.4917      -634.4392      -753.4119
      -787.7520      -858.4995      -880.5598      -805.5253      -711.9486
      -594.2720      -585.4600      -689.7473      -686.5896      -606.3348
      -647.0808      -665.6309      -557.5270      -629.1628      -678.0242
      -608.1379      -700.2324      -728.2744      -574.5421      -606.5431
      -679.9521      -675.0212      -674.0977      -596.8757      -608.1769
      -607.8008      -448.4216      -471.8254      -535.1642      -583.5437
      -623.4871      -507.3870      -518.6794      -573.3076      -418.6604
      -499.3110      -559.7302      -409.1008      -476.6877      -480.0640
      -470.9227      -543.2543      -371.0486      -402.3132      -474.4417
      -257.2068      -366.6726      -578.4542      -436.5776      -430.1932
      -433.9443      -251.8291      -223.7024      -246.2697      -270.8870
      -422.1575      -355.4045      -193.5318      -252.5912      -331.3229
      -364.5702      -315.5247      -136.3003      -235.0295      -349.5468
      -168.9512      -293.9009      -452.6542      -149.4591       29.47424
      -156.7567      -255.2415      -45.97009      -117.4249      -282.3000
      -11.03708       174.7863       39.44532      -49.87113      -26.33033
      -1.165161       29.98639       159.8600       222.2454       137.0114
       7.392822       61.94299       254.0906       318.5208       270.2943
       233.3669       276.1290       331.1125       309.5742       444.6293
       427.1486       264.9089       453.1470       588.5992       516.1084
       630.1448       627.2290       534.7085       648.7783       775.2865
       676.8091       616.8862       720.9348       811.0540       732.7861
       657.8718       835.8525       896.1333       717.3650       839.1113
       959.2683       928.9099       984.3979       1008.496       940.5601
       887.6040       956.2451       1039.592       1054.396       1201.646
       1270.919       1162.752       1111.765       1106.047       1004.860
       1109.287       1415.189       1333.728       1215.815       1376.017
       1211.857       1054.514       1152.230       1262.075       1370.457
       1294.742       1208.387       1156.409       1027.528       1187.606
       1184.373       954.9919       1149.646       1312.568       1101.581
       995.7046       1056.951       1151.093       1013.648       815.2744
       889.5637       844.2632       765.0732       878.9126       838.4102
       746.7041       739.5073       759.6602       770.7356       705.2664
       694.1808       717.3757       599.0536       519.1350       528.4841
       519.4122       635.3135       566.3364       264.8934       316.7823
       419.4581       285.1497       262.5027       313.1863       369.1347
       333.9427       77.79153       43.01215       179.2034       112.7245
       2.478638       154.2021       359.8107       189.0653      -77.41415
      -79.11285       92.24804       48.90900      -210.6990      -127.5076
      -116.1017      -310.1499      -193.1676      -182.4715      -312.3868
      -288.9989      -317.0996      -361.5904      -335.0054      -323.3629
      -346.0930      -448.8657      -573.4683      -624.3120      -588.4717
      -581.0034      -644.8186      -650.6711      -793.0493      -1024.521
      -859.5142      -749.3789      -918.2280      -936.3911      -891.0513
      -878.6855      -1030.654      -1189.735      -1059.418      -997.1973
      -1017.628      -1015.228      -1074.759      -1093.996      -1195.186
      -1283.698      -1260.045      -1269.213      -1112.917      -1063.089
      -1295.834      -1290.903      -1143.329      -1167.472      -1251.314
      -1281.360      -1197.327      -1162.489      -1240.287      -1174.936
      -1089.188      -1186.837      -1137.975      -1006.949      -1056.310
      -1271.211      -1359.310      -1057.889      -911.8245      -1105.373
      -1153.076      -985.6592      -967.1934      -1146.059      -918.7317
      -702.1826      -875.6897      -844.6772      -755.4832      -729.0093
      -781.0103      -811.8396      -661.1841      -640.1561      -541.0309
      -504.6075      -608.2704      -559.3434      -586.2205      -592.8695
      -485.0964      -409.9984      -351.2708      -399.8062      -331.3312
      -256.7605      -344.6497      -241.6837      -40.52423      -35.12003
      -142.1168      -209.4237      -129.6365      -126.3701      -150.9589
      -87.24680      -58.57983      -137.2316      -184.8754       21.69641
       206.9188       25.78175      -90.34906       141.4079       282.7476
       72.10287      -2.454346       291.2759       527.4211       357.6990
       243.9650       396.8896       313.2020       188.4701       407.5431
       474.7837       338.6628       414.4221       573.1812       468.1654
       325.5674       492.6428       669.3094       471.6528       307.8723
       598.5903       847.5350       564.9990       488.5576       883.7988
       957.6382       701.2361       675.3232       778.6504       741.6014
       597.3188       649.7603       994.1541       948.0957       470.6074
       576.2173       1036.073       974.8008       714.1421       906.4780
       1154.094       802.0754       524.2324       951.7954       1066.012
       712.5000       826.2236       1139.593       924.2156       651.6340
       834.3845       984.0891       791.7358       897.6470       1210.762
       1097.086       744.7803       785.4004       1080.802       1020.066
       891.5405       933.0874       797.9963       841.1265       1070.376
       1140.878       1017.228       901.8054       1015.928       963.8835
       683.6675       767.7759       841.4907       740.2478       888.9258
       949.4351       745.9297       718.4915       744.6431       663.6033
       529.3406       399.3230       548.9272       763.3662       669.2451
       497.0691       458.4739       509.0154       519.2116       359.1401
       261.0608       270.4477       41.01778      -23.13440       265.2928
       288.1930       88.96600       120.6312       191.7751      -20.39905
      -173.0887       43.87732       93.74097      -225.0796      -392.1411
      -253.5264      -382.9761      -1021.520      -1105.187      -259.6627
       76.23438      -814.4575      -1506.220      -511.9753       1010.788
       909.5239      -299.3887      -1221.265      -2244.879      -3220.796
      -2434.592       330.5532       2427.316       1993.542       992.5933
       1317.130       1313.205      -244.3867      -1888.693      -2181.288
      -1457.147      -1217.546      -1615.026      -1158.078       145.1863
       871.6809       711.4163       458.1718       185.1531      -440.2012
      -1027.945      -1227.449      -927.9338      -223.3595      -84.49609
      -958.9683      -1393.355      -672.8040      -228.4302      -470.2013
      -186.0649       772.8599       1196.215       464.3071      -602.6260
      -1008.334      -572.4746       104.5935      -141.9023      -1269.839
      -1648.486      -771.3792       317.2036       802.7133       711.0138
       435.3163       166.8580      -319.3882      -1288.750      -2097.072
      -1741.683      -546.9077       310.5266       454.6364       194.8408
       3.421387      -45.80737      -350.4104      -429.3351       83.01123
       552.6311       490.4714       89.62256      -150.0791      -236.6963
      -561.1895      -975.5464      -801.2227      -41.09216       330.4419
       203.1637      -36.14937      -104.9484       328.4496       669.4423
       475.5638       265.6194       156.5263       13.78699      -229.4294
      -324.2407      -71.98523       111.9817       175.8932       329.2762
       60.53760      -500.5095      -581.9550      -352.9821      -147.4919
       121.8712       197.1438       2.043640      -89.10944       71.70513
       41.31409      -116.2467      -15.12170       358.2107       680.4910
       466.9432      -189.7271      -710.4829      -894.9799      -622.0668
      -190.1607       22.93945       107.3754       73.07776      -148.1052
      -280.6805      -294.5369      -400.4496      -408.3754      -56.69067
       245.3669       70.98999      -414.1553      -857.1851      -1080.062
      -879.6223      -518.4153      -492.3936      -624.6096      -311.5685
      -32.36108      -83.86078      -48.67725      -229.5278      -845.2534
      -1179.807      -834.9517      -263.4803      -165.5194      -255.0794
      -162.9580      -195.4188      -424.8740      -756.2639      -989.4575
      -814.0593      -715.3750      -930.9668      -983.1427      -694.7549
      -557.9612      -775.1848      -658.2424      -222.6356      -165.7103
      -37.65080       136.0588      -233.0876      -661.5988      -632.3816
      -690.5645      -1021.384      -874.9063      -285.4117      -442.2004
      -1043.186      -751.9468      -78.29407      -203.6812      -689.5193
      -942.4072      -842.6517      -558.8579      -483.6716      -624.8022
      -637.0983      -381.7100      -328.1382      -539.4161      -301.6800
      -30.53137      -137.3220      -318.6232      -585.2793      -806.1305
      -602.3806      -166.7729      -251.3250      -799.0249      -783.1589
      -540.3708      -738.0879      -804.9674      -536.2186      -199.1973
       118.7388       61.02234      -319.7129      -483.6057      -307.6910
      -124.2573      -39.01794      -15.36454      0.1403503      -80.16376
      -118.5845       143.3887       453.6162       420.6644       302.9661
       363.5159       324.8657       295.2385       511.9509       585.0958
       399.2983       192.8140       281.1670       708.0483       834.6241
       545.2877       419.8926       526.9268       764.5654       965.3574
       997.6860       902.0458       629.8136       484.3552       858.7495
       1276.028       1193.545       1007.732       1152.941       1158.421
       829.8623       870.5747       1332.086       1426.312       1132.656
       962.3643       1092.213       1217.947       1398.839       1787.788
       1961.623       1710.973       1340.915       1069.343       1072.303
       1299.868       1367.260       1168.794       1134.315       1208.882
       1183.889       1080.184       932.1223       969.8618       1220.977
       1286.268       1203.674       1194.476       1278.853       1272.435
       1218.158       1208.032       1236.035       1453.742       1599.899
       1175.443       662.3080       594.7314       749.8274       745.5601
       656.6504       788.1416       968.5317       836.5417       604.7996
       563.2427       698.4795       870.7710       937.0103       913.1443
       918.8657       929.5002       701.5203       352.9866       422.2156
       638.3296       601.9487       565.2360       536.2581       429.5411
       306.1371       145.2674      -68.66821      -297.1948      -407.8538
      -264.9943       61.46271       173.8998       164.3280       306.4969
       274.8563      -26.36353      -314.8450      -465.1771      -421.3796
      -319.4152      -272.6399      -334.6051      -482.7075      -636.7966
      -636.6970      -400.9360      -271.2319      -385.6221      -447.1499
      -429.1272      -474.0195      -638.9753      -651.2246      -472.3811
      -515.1191      -785.8328      -1057.542      -1228.793      -1128.557
      -952.7812      -858.2808      -814.7043      -891.8181      -951.0781
      -817.2556      -680.8569      -780.8357      -918.3445      -845.8535
      -879.0015      -966.7776      -886.1960      -927.1672      -1186.613
      -1265.015      -1057.162      -838.7188      -764.1431      -772.8804
      -802.9534      -837.6934      -940.4141      -1092.506      -1300.839
      -1400.762      -1192.434      -892.2634      -797.8818      -842.8213
      -846.4817      -866.0688      -1104.979      -1342.975      -1308.140
