     0.02500000      -7461.065       11594.95      -12345.00      -12345.00
      -29.99499       215.0300      -16.32000      -12345.00      -12345.00
       0.000000       12.55000      -12345.00      -12345.00      -12345.00
      -12345.00      -12345.00      -12345.00      -12345.00      -12345.00
      -12345.00      -12345.00      -12345.00      -12345.00      -12345.00
      -12345.00      -12345.00      -12345.00      -12345.00      -12345.00
      -12345.00      -31.60370      -68.72130       995.0000       0.000000
      -31.24600      -68.98500       0.000000       102400.0       0.000000
      -12345.00      -12345.00      -12345.00      -12345.00      -12345.00
      -12345.00      -12345.00      -12345.00      -12345.00      -12345.00
       46.92124       147.7683       327.6315      0.4218800      -12345.00
      -12345.00      0.2438470       0.000000       90.00000      -12345.00
      -12345.00      -12345.00      -12345.00      -12345.00      -12345.00
      -12345.00      -12345.00      -12345.00      -12345.00      -12345.00
      2008        16        21        17        53
        20         6    -12345    -12345      9802
    -12345    -12345    -12345    -12345    -12345
         1         7        13    -12345    -12345
    -12345    -12345    -12345    -12345    -12345
    -12345    -12345    -12345    -12345    -12345
    -12345    -12345    -12345    -12345    -12345
         1         1         1         1         1
ZOND    -12345          
        -12345  -12345  
-12345  -12345  -12345  
-12345  -12345  -12345  
-12345  -12345  -12345  
-12345  -12345  -12345  
-12345  -12345  BHN     
ZL      -12345  -12345  
[...]
      -114.0213      -120.9234      -139.3185      -152.3734      -159.8837
      -164.8458      -169.7238      -179.1292      -187.7206      -193.0120
      -207.2055      -214.4717      -219.7435      -231.4811      -242.4556
      -249.1794      -257.5870      -278.5023      -289.2810      -288.8997
      -292.9696      -294.8544      -308.3091      -311.5021      -310.8865
      -345.8378      -360.0969      -345.4421      -352.2853      -358.2719
      -349.3103      -355.6385      -367.8254      -344.4328      -336.9935
      -340.3790      -329.6627      -318.4675      -310.5853      -293.1022
      -289.7408      -284.3383      -270.0904      -253.4578      -237.5955
      -209.8889      -196.2651      -193.3373      -180.3879      -152.9626
      -136.4183      -106.8886      -86.33347      -76.43787      -61.46600
      -44.40192      -37.22266      -13.06616     -0.3871651       3.586090
       25.85892       45.10883       45.32233       69.58548       92.25909
       103.8379       125.4349       151.1370       149.8335       153.0781
       168.7108       185.2589       199.3748       205.6580       207.8656
       219.7020       223.3940       228.0513       240.1440       250.6010
       248.2537       253.3077       265.8792       281.3542       276.0165
       264.4110       262.1882       273.7878       274.5484       273.1309
       275.7372       275.0297       273.0092       281.3649       281.8588
       277.7039       277.9596       275.2547       275.5605       298.5930
       304.9128       295.3680       295.6108       292.6198       274.5493
       259.7186       269.3296       287.9188       281.0885       277.6579
       290.8147       281.4453       270.6501       277.2162       275.7061
       273.9829       278.3454       274.5347       267.8002       271.0179
       270.4388       269.5734       276.9384       288.1158       293.3532
       290.5415       280.3115       284.6687       295.7848       289.8571
       284.1536       289.6086       285.8837       283.9088       281.8412
       281.7849       285.7411       289.7960       293.5260       290.1439
       280.1089       278.8681       282.8341       280.5834       279.2686
       282.6864       266.1941       254.9362       260.0201       245.1619
       229.1875       234.4596       227.9918       215.6555       215.9603
       200.2673       186.3446       177.7299       167.2780       169.9967
       166.3306       144.6577       120.9873       106.6369       95.90614
       80.34503       62.31741       51.56125       29.26123       13.56195
       22.94727       26.07626       3.548630      -11.36217      -19.54671
      -40.98943      -69.15701      -86.80688      -89.39825      -88.33377
      -88.44476      -88.16174      -96.74243      -103.3867      -108.1697
      -116.3387      -131.9605      -139.5469      -147.6671      -149.2161
      -147.1252      -144.9957      -140.7078      -131.2424      -133.3107
      -126.5537      -125.9781      -141.0063      -151.0924      -128.4670
      -124.3216      -141.2809      -145.9944      -139.0763      -142.4857
      -135.1028      -135.5934      -140.1151      -140.5428      -137.0944
      -143.3294      -151.5705      -159.6741      -150.0338      -159.3622
      -170.5752      -182.1799      -183.0476      -179.9902      -183.9567
      -191.1330      -189.3795      -204.2982      -210.7616      -212.6914
      -222.8429      -228.7347      -227.5074      -228.7882      -227.5723
      -230.8876      -223.6823      -229.6432      -236.4177      -238.5703
      -245.6198      -250.8853      -247.6829      -251.3293      -259.1045
      -262.1824      -253.2770      -241.1506      -246.3580      -257.6585
      -251.7202      -255.1312      -268.6038      -264.0550      -247.1641
      -249.1605      -257.5534      -248.7108      -252.8176      -265.3428
      -263.8172      -253.9824      -251.1231      -272.1066      -299.3452
      -299.5424      -282.8708      -291.1000      -298.8064      -295.1339
      -304.3107      -328.0820      -348.9186      -350.5500      -344.5297
      -346.6488      -352.6699      -365.1549      -356.7009      -361.3423
      -371.2874      -362.2213      -370.8513      -395.6351      -388.6708
      -381.5258      -388.9568      -388.0497      -377.9772      -384.9716
      -391.6672      -373.1986      -326.8165      -303.5544      -292.7918
      -237.1875      -202.9922      -224.6421      -251.5847      -481.3717
      -628.6515      -488.8270      -575.5536      -530.0798      -274.9080
      -547.3921      -383.9418       312.5855       61.29834      -1050.958
      -1146.634       259.2729       1273.084      -316.1064      -2867.974
      -1021.917       2400.804       1059.682      -1270.095      -1252.821
      -1073.691      -206.0078       1039.030       142.9224      -1029.643
      -476.0759       464.7886       935.9616       481.2373      -386.4612
      -1021.870      -445.2841       415.1423       63.91217      -349.5560
      -268.7100       464.3155       188.6245      -524.2946      -244.7339
       399.9734       1353.115       274.5371      -1651.589      -588.3193
       1408.960       1041.759      -77.76758       130.9575      -13.83887
      -978.6285      -51.65771       1757.054       843.1127      -208.0149
       338.9092       834.7078       1395.018      -75.79980      -1208.468
       939.5400       2018.118       381.3257      -1013.626       40.72925
       884.5520       696.5046       882.0815       705.2155       527.8125
      -205.9788       83.66113       1609.285       1018.573      -566.9163
      -551.2769       651.3877       2153.854       2215.583      -17.93616
      -999.3090       239.2446       756.3989       876.6831       1770.072
       1563.694       280.1318       917.6992       1538.598      -315.6475
      -762.0667       998.9641       1307.306       170.3345       200.6697
       761.6108       488.7324       565.6040       1083.337       1460.153
       1379.097       606.0929       411.7739       481.7778       203.8696
       108.0634       121.8147       711.2373       1469.217       1054.711
       100.8782      -222.3585      -84.78235       188.5264       1412.659
       2347.246       588.1562      -641.5674       153.5590       181.7614
      -372.6031      -387.4893       1084.440       1980.188      -7.078125
      -1295.431       103.6362       1044.008       607.2325       416.0678
       128.7390      -494.5901      -34.15479       349.5636      -14.31653
      -211.8673      -149.6533       308.2465       308.9733       195.2493
      -23.41492      -707.0403      -202.7952       492.4344       28.96594
      -543.5214      -643.5247      -131.4775       699.5945       1035.917
       19.62109      -979.9932      -661.2488      -372.1735      -271.6146
       55.49438      -294.5708      -777.0566      -672.4324      -592.6408
       342.3074       331.2405      -1086.942      -1110.950      -706.0912
      -99.06934       777.8256      -60.88306      -1012.914      -681.7366
      -994.1826      -483.1290       136.1880      -880.1604      -827.2705
      -315.4285      -366.1082      -359.9583      -631.9307      -909.7649
      -651.5721      -224.0714      -257.8336       9.897461      -303.8169
      -1453.741      -1217.640      -135.4920       273.8031      -289.9033
      -1178.150      -1102.595      -685.3069      -791.3356      -448.2912
       95.32886      -722.4365      -1703.353      -1291.697      -420.3184
       162.7217       639.3481       85.14404      -1600.972      -1630.803
      -405.8195       97.00253       241.7798      -812.2224      -1495.865
      -690.2141      -627.4849      -667.1926       54.50104       222.5149
      -548.1262      -1131.665      -530.8884       455.0780      -107.5759
      -1158.843      -361.8892       88.31543      -965.3240      -764.8773
       280.8969       68.84387      -651.4584      -419.6400       301.6239
      -250.4451      -434.0500       589.6512       169.3920      -644.9731
      -379.3591       11.67175       144.1763       351.5023       333.8940
      -336.5258      -654.4064      -205.0875       475.3994       534.9855
       114.6973      0.8671875       238.6589       779.5435       828.8566
      -20.55084      -515.7897       15.11157       357.3745       285.1311
       411.8309       268.9406       275.7676       879.8347       1219.884
       305.0905      -180.1633       419.8875       316.7527       632.9441
       1005.307       214.2219       638.8416       966.4663      -219.1110
       254.6667       1341.731       382.7119      -191.0117       974.6494
       859.1232      -108.0240       395.5714       747.2903       418.1157
       607.9888       772.3618       527.0106       137.1058      -108.5439
       819.6621       891.4526       116.5773       608.8345       493.4398
       298.3756       819.3560       391.3239       488.9868       1035.814
       80.30887      -158.4880       623.1667       161.8116       199.1470
       546.9016      -219.5246      -204.6917       506.1521       858.2234
       398.3112      -235.1807      -249.4290       16.40771       462.7267
       626.8855       291.0193      -81.18652       611.8699       604.7944
      -522.8820      -646.5300       434.9583       1113.537      -90.01941
      -712.1438       415.5454       537.8168      -33.13131      -53.99428
       2.987549      -214.8859      -282.9324       405.2333       510.8521
      -395.3417      -811.8986       223.5607       899.2974      -450.0564
      -1363.608      -175.8805       908.4677       206.3049      -311.6949
      -168.1581      -340.4849      -536.8295      -444.7451      -53.93130
       41.54625       4.856186       96.89563      -216.9071      -567.4390
      -477.6942      -381.3879      -555.7181      -335.3474       142.9188
      -146.5552      -1048.303      -266.0339       694.9497      -461.4938
      -642.0694       351.6910      -3.431396      -706.3206      -816.2321
      -865.9382      -233.3580       450.1089      -120.3513      -573.0502
      -381.9828      -55.79419      -221.2249      -500.9730      -145.1669
      -352.0554      -506.8161       189.5173       123.2971      -172.6826
      -35.60242      -350.7185      -403.8968       86.21283      -185.4110
      -294.5419       414.5323      -73.55542      -881.3353      -174.1453
       446.1612       168.2938      -454.3712      -492.9728       165.9171
       107.9855      -121.5514      -223.2545       73.81946       479.0904
      -46.83378      -4.714645       11.40280      -277.0605       127.2433
      -126.9868      -655.8163      -34.20264       501.2152       174.4940
      -110.4520       205.2856       265.2656      -450.2809      -581.8645
       246.1702       1025.987       750.9257       44.23071      -250.0525
      -406.6349      -218.1324       244.0693       328.9060      -120.7689
      -96.24756       684.6353       326.4508      -693.6836       14.00000
       556.9227       308.8147       388.1598      -142.9153      -395.2203
      -33.50146       461.5887       351.2480      -167.4566       5.898071
      -43.44170      -62.80585       231.6850       70.59198       6.405396
       186.3411       215.0651       135.3019       93.84235       357.7863
       247.9219      -376.1823      -441.3484      -244.4147      -219.0633
      -36.05573      -110.9019      -309.9197      -608.3782      -718.3846
       382.5708       1263.314       652.9926      -275.6944      -277.9417
       4.924683      -272.8909      -344.8733      -243.0309      -454.2178
      -622.1659      -454.4927      -473.6479      -973.7319      -1218.757
      -580.5846       559.3092       540.1527      -427.4180      -342.7759
      -2.168457      -830.7325      -683.1426       443.2507      -306.5750
      -979.9823       139.8350      -178.6641      -1676.046      -554.4281
       917.6880      -756.1602      -2110.091      -1268.788      -870.8276
      -1016.195      -1133.469      -1976.174      -2587.509      -1567.773
       395.1875       5.708984      -4728.542      -5656.874       680.5186
       3515.354       2376.552       2466.857       898.5659      -1914.016
      -2542.748      -206.4980       2031.273       2750.164       2772.232
       928.3795       220.7119       277.7314      -3772.180      -4058.328
       1910.997       4023.469       1280.280      -4455.059      -6730.878
       498.8477       5657.345       3249.409       2806.731       2640.102
      -3924.286      -7461.065       460.2207       9375.520       9483.527
       5167.639      -76.08398      -5726.181      -6549.749      -2582.104
      -2778.230      -6929.195      -4846.536       2153.682       2018.627
      -5225.028      -4346.748       6581.188       11594.95       6522.812
       1398.186       1474.547       2443.323      -553.2207      -3610.949
       406.2803       5245.079       222.4326      -4942.882      -795.0264
       2997.920       916.3584      -3088.605      -2714.283       615.5732
       790.3750       3199.186       8238.721       5433.388      -3478.892
      -4847.246       1356.665       2411.813      -111.4077       1995.871
       3880.086       156.6143      -3897.150      -1932.633       2903.124
       1683.687      -2184.356       800.4062       6194.084       5857.671
       1068.682      -2804.351      -2279.587       1961.890       3813.060
       2296.826       849.6196      -1388.997      -2641.026       194.4648
       4267.477       4271.525       370.3882      -2366.350      -1903.959
      -156.2266       2440.371       3430.210       997.3325      -748.6799
       71.71606       625.9691       70.05188       79.55621       559.5591
      -776.5283      -2741.281      -1944.245       1437.458       4544.566
       3787.590       1329.467       706.2617      -817.3184      -2143.434
      -1517.844      -1019.865       702.8643       1927.350       692.0775
       285.9321      -191.3701      -2444.503      -3980.601      -1496.474
       3366.820       3891.637      -369.7036      -2221.314      -148.7136
       494.6299      -2586.643      -5461.557      -3555.697       765.0000
       2321.205       1412.047       318.3945      -1062.488      -2559.590
      -2787.389      -1522.144       458.7085       1978.306       1046.637
      -1265.709      -1362.702      -771.9048      -1683.563      -2177.686
      -1050.435       619.5195       743.6860      -1141.974      -1541.436
      -57.63623      -1133.989      -3779.966      -2836.833      -300.8329
      -77.16797       813.7393       1617.592      -918.9189      -1977.206
      -148.1665      -586.5996      -2664.545      -2605.763      -1151.132
      -1434.423      -3276.876      -2061.838       1906.086       3416.149
       759.5635      -2370.804      -2559.047      -1432.202       232.1119
       949.7822      -1844.062      -3553.428      -1072.869       1112.883
       540.6335      -631.6158      -579.5461       177.1871       276.1619
       394.1843       516.6392      -201.2585      -311.0938       344.8105
      -82.48901      -1008.966      -871.9907      -367.4097      -1276.317
      -2554.451      -1300.219       1044.188       1799.357       784.7871
      -1195.882      -1517.788      -523.3162      -90.93542      -702.0604
      -476.4624       1640.130       1630.983      -647.2573      -1961.997
      -1744.836      -167.4550       229.1864      -520.6055       658.1406
       1689.046       312.1807      -1452.958      -1988.228      -599.6919
       899.0558       737.8143       414.8804       615.7877       129.4945
      -707.5022       434.4316       2712.419       2982.901       1446.070
      -145.1816      -953.3712      -132.4985       1711.855       1881.168
       191.0610      -1180.338      -1034.503       430.2102       1553.677
       144.9600      -1867.792      -591.0815       1626.259       1457.693
       253.3387      -639.6105       49.78076       1117.737       666.3281
       36.23608       173.0250       619.2407       488.0242      -33.82715
       321.2441       996.4395       637.6677       514.9888       800.2789
      -300.2393      -738.7437       404.0254       1242.698       1660.678
       1342.168       512.1301       644.2139       1327.415       968.0441
      -217.1876      -430.8142      -152.3892      -603.9896      -616.9866
      -232.6350       122.6135       875.7144       1161.459       1663.312
       1793.010       903.9209       870.8776       613.4160      -166.3098
      -34.25195       361.8157       1240.126       1270.121       27.25903
       87.52563       1073.806       1446.635       752.3345      -376.7549
      -829.6909      -1186.572      -785.9241       412.9404       1068.529
       1678.060       1827.364       1118.147       514.2918       58.22852
      -765.0920      -1323.309      -364.9390       995.6802       1339.375
       382.2297      -1027.418      -773.4150       670.4423       659.5603
      -691.4211      -996.4882      -398.5225      -23.12915       240.9119
       600.7510       994.1843       987.7200       743.3497      -6.647949
      -940.1903      -595.6335       568.5493       888.6146       429.3066
       40.18652       285.9453       317.4829      -960.7471      -1704.134
      -556.2710       527.1992       719.1497       711.1326       142.7723
      -461.8594      -489.4521      -746.9514      -1055.479      -890.0485
      -614.9022      -538.9670      -758.3464      -608.1476       159.3905
       168.6752      -298.7639      -306.9269       42.95345       98.82550
      -328.7059       144.4677       729.7242       105.0731      -285.7885
      -274.7483      -823.2275      -1474.761      -1270.821      -828.3950
      -716.1196      -37.74463       993.7483       674.5088      -803.9597
      -1355.083      -600.0610       253.4624       49.28223      -807.2913
      -906.7185      -729.8604      -1085.921      -1332.824      -795.0315
      -419.2942      -445.9815       32.77301       7.656738      -327.1084
       418.7114       721.6118      -218.4243      -1040.603      -875.1052
       347.6130       1205.391       205.9500      -1295.113      -1206.906
      -187.1471      -136.6880      -493.9102       451.0842       1026.424
