     0.02500000      -5265.372       5946.979      -12345.00      -12345.00
      -29.99499       215.0300      -16.32000      -12345.00      -12345.00
       0.000000       12.55000      -12345.00      -12345.00      -12345.00
      -12345.00      -12345.00      -12345.00      -12345.00      -12345.00
      -12345.00      -12345.00      -12345.00      -12345.00      -12345.00
      -12345.00      -12345.00      -12345.00      -12345.00      -12345.00
      -12345.00      -31.60370      -68.72130       995.0000       0.000000
      -31.24600      -68.98500       0.000000       102400.0       0.000000
      -12345.00      -12345.00      -12345.00      -12345.00      -12345.00
      -12345.00      -12345.00      -12345.00      -12345.00      -12345.00
       46.92124       147.7683       327.6315      0.4218800      -12345.00
      -12345.00    -0.03007973       0.000000       0.000000      -12345.00
      -12345.00      -12345.00      -12345.00      -12345.00      -12345.00
      -12345.00      -12345.00      -12345.00      -12345.00      -12345.00
      2008        16        21        17        53
        20         6    -12345    -12345      9802
    -12345    -12345    -12345    -12345    -12345
         1         7        13    -12345    -12345
    -12345    -12345    -12345    -12345    -12345
    -12345    -12345    -12345    -12345    -12345
    -12345    -12345    -12345    -12345    -12345
         1         1         1         1         1
ZOND    -12345          
        -12345  -12345  
-12345  -12345  -12345  
-12345  -12345  -12345  
-12345  -12345  -12345  
-12345  -12345  -12345  
-12345  -12345  BHZ     
ZL      -12345  -12345  
[...]
       379.5261       386.3246       386.0878       383.6533       398.7721
       404.2687       410.4995       408.6399       411.6947       410.2183
       406.8538       401.5620       407.9531       408.8260       404.4189
       386.8346       374.0818       375.8665       362.9023       339.2582
       329.0588       322.7150       301.5310       274.3213       255.9918
       250.0479       233.7946       208.8925       178.4957       166.3482
       144.0887       111.5642       77.98973       55.98935       37.38628
       6.958481      -28.93430      -39.94974      -64.57568      -107.5198
      -130.6199      -138.7047      -168.3040      -194.3000      -216.6869
      -243.9713      -262.5558      -269.4576      -280.1526      -296.9248
      -318.5967      -338.3450      -349.9021      -352.1919      -352.4792
      -357.4204      -366.4915      -371.3815      -378.5972      -383.6492
      -371.3179      -367.6313      -361.6670      -352.1411      -347.5331
      -338.8506      -329.7714      -319.7686      -299.8995      -274.8152
      -262.7860      -258.6171      -240.9585      -221.9513      -208.2416
      -176.4387      -149.2903      -146.1624      -130.7256      -91.78387
      -70.16443      -66.86804      -56.61912      -37.26407      -13.93382
       4.775051       15.45995       32.05167       50.38223       62.68597
       79.35681       103.2827       112.4424       112.8195       128.0652
       138.0094       140.2348       150.8669       169.6599       171.1462
       162.7301       166.9174       181.2596       177.8552       187.4435
       200.4178       192.2952       182.3865       191.4949       184.6232
       174.9958       180.9360       172.3349       158.4157       167.4810
       146.7680       124.5769       125.8798       122.0088       106.9598
       114.0272       102.4083       76.99509       67.32809       72.80872
       69.07961       70.66573       64.25500       53.33388       51.97974
       47.75606       35.17683       29.65688       22.37292       11.08591
       2.660410       4.571264      -4.253178      -6.490585      -4.444327
      -4.618715      0.1404476     -0.5214386      -12.79779      -26.87126
      -34.86180      -21.20222      -12.42795      -22.81112      -19.86480
      -7.932219      -3.790843      -3.477871       4.695908       4.330486
       9.225872       9.374233       7.513344       11.22738       14.77010
       7.467308       9.819275       33.83390       38.36481       36.27838
       41.25217       50.07971       61.87341       71.50201       75.18161
       78.44637       72.04703       71.49390       85.54004       95.59863
       97.18048       124.0342       132.5853       125.0812       138.9529
       139.6161       122.5231       133.2623       145.2617       136.4803
       146.3696       162.5966       155.7567       156.7148       154.5196
       150.4445       155.2021       160.8361       151.4011       141.5479
       131.0571       131.0960       127.9962       124.0055       109.2903
       95.24231       102.0559       99.81903       71.69293       69.36029
       51.60028       24.56821       26.23383       21.43633      -9.812981
      -18.69182      -18.15826      -40.50937      -70.38959      -82.89117
      -85.24423      -82.27496      -98.05774      -115.5903      -124.2451
      -138.4672      -153.8113      -155.6677      -160.2908      -180.0802
      -188.8919      -195.9059      -215.9532      -221.4146      -225.3184
      -248.9927      -266.5880      -259.1509      -271.1730      -295.3726
      -299.2770      -296.5078      -311.2032      -324.3281      -329.9847
      -330.8568      -337.8020      -339.6533      -352.2034      -358.3645
      -348.9034      -340.8345      -357.9387      -361.8116      -354.6543
      -365.5199      -379.9585      -371.4241      -367.7592      -367.3906
      -360.4236      -361.0986      -371.7850      -363.7772      -351.9758
      -349.2131      -347.0323      -345.7502      -342.4565      -336.2917
      -337.4993      -330.6184      -323.3493      -308.8380      -291.9626
      -288.2451      -289.3055      -277.8369      -274.8182      -271.3602
      -253.3930      -226.7263      -212.4139      -201.6189      -194.5300
      -179.1428      -154.9872      -144.4423      -148.1327      -135.9401
      -152.4873      -243.4048      -364.1852      -416.9661      -482.0730
      -602.9417      -729.1672      -712.2759      -88.03564       659.2385
       604.7759       716.8438       1300.901       1302.272       889.6051
      -92.26123      -1511.277      -1550.780       739.5498       2248.591
       698.6719      -1530.667      -1314.380       2527.247       2614.659
      -1941.054      -2411.484      -65.76953       1664.324       2082.915
       968.3467      -947.8022      -1539.320       578.9766       1922.222
       1234.498      -855.3296      -1462.139       1346.603       2354.477
      -208.6716      -1069.331       1201.936       1269.813      -344.6831
       14.96030      -64.03638       156.3735       1568.649       581.0828
      -1453.767      -495.8740       1169.326       1558.479       1264.677
      -466.0916      -612.5474       1000.522       613.1770       15.94196
       274.3397       337.9368       881.9437       229.5701      -1281.858
       77.52148       1535.369       981.5839       263.1436      -132.1340
       211.1313       711.5173       736.3645      -324.9135      -546.2671
       1206.768       981.8535      -707.7325      -220.9153       1005.315
       825.4561      -45.44830      -83.98743       524.7726       461.3520
       77.03296      -253.9833      -167.0096       404.3658      -81.95068
      -536.2679       138.7100       451.7234       752.7529       269.9944
      -586.8820      -414.4520      -550.1432       248.3489       1309.985
       825.1794       220.1460      -1179.589      -1544.023       492.5439
       1442.541      -416.2568      -1877.758      -942.1274      -459.1855
      -315.4663       519.7278       795.2192       1066.550       476.6057
      -1038.931      -527.1680       62.70996      -808.4558      -308.6735
       419.9398      -121.3066      -258.0052      -42.41650      -719.3989
      -1455.018      -635.1260       722.1487       883.6806       448.9395
      -557.5029      -814.6967       99.83044      -5.123108      -455.3904
       25.13110       693.0420      -383.8716      -1151.028       57.38159
       315.2594       520.2056       328.1486      -682.6929      -272.1638
       472.8006       42.04166      -255.1660       320.8976       11.92493
      -617.5479      -379.8364      -308.5560       248.0806       1058.945
       263.3262      -624.6127       109.5579       659.0679       46.42035
      -397.2131      -152.6299      -97.41553       194.0244       377.7737
       627.9824       18.42786      -839.4487       531.5989       386.6565
      -522.1610       348.8300       516.2795       169.3512      -286.2421
      -556.6659      -327.8951      -363.6037      -282.7627       276.3334
       516.2435       445.2088       138.5184      -18.12482       211.3439
      -52.74146      -319.8030      -510.7537      -602.8361       56.69220
       157.0213       172.7314       530.6904      -401.4929      -1107.021
      -6.366333       661.4884      -100.0178      -1003.210      -1057.309
       174.7722       899.3127      -217.1852      -578.1858      -255.3654
      -637.5740      -475.8172      -134.0206      -81.75789       4.705490
       15.46904      -87.05685      -77.20129      -329.6169      -529.8531
      -56.16443      -463.5651      -759.0988      -214.5396      -200.3754
      -69.73456       372.1353      -61.65332      -1003.868      -707.6738
       325.9267       299.8383      -422.6616      -268.9423       85.11426
      -712.2632      -1137.453      -30.62939       825.6222      -149.3347
      -1002.020      -123.2360       300.9443      -830.5568      -921.2610
       699.2142       534.7059      -562.5787       186.7633      -45.40991
      -1191.007      -958.7402       342.3513       793.4020      -205.1235
      -146.1853       703.3535       202.4292      -973.1598      -935.2754
       130.5970       440.3063       127.9106       219.4986       145.9799
      -55.47119       603.9943       678.8748      -477.0586      -899.6545
       355.4524       1560.578       138.4045      -1487.471       38.64307
       1228.074       344.1534       211.5496       410.3911       444.3375
       580.1608      -236.3048      -274.7985       439.8736       245.0098
      -337.2928       3.201538       709.2581       133.3088       253.8256
       626.8599      -237.2742       54.21796       432.4073      -40.26611
       369.2134       606.7423      -1.308716      -224.3023      -272.1660
       503.4468       1364.978      -99.43579      -1015.183       374.0479
       795.0916       112.5316       37.74377      -5.341553      -333.4563
      -355.7347      -276.5745       206.5347       494.1958       19.36694
      -348.5243       66.74994       538.3054      -70.89175      -156.8569
       406.6296       268.2276      -130.4130      -379.9192       334.2246
       646.5830      -120.3385      -483.3027      -96.25037       222.3995
      -56.15601       190.5837       61.22119      -874.7578      -59.63086
       614.9756      -77.49243      -304.9698      -155.1003       248.3583
       354.1610      -297.2921      -583.7061       265.9706       627.0995
       384.5569       447.9007      -64.09467      -483.0627       75.44409
       511.9763       51.36304       131.3812       407.1123      -129.3994
      -152.9736       682.8009       577.1827      -450.8053      -526.8718
       235.0299       266.6865      -363.7003      -59.11060       946.2524
       987.4866      -250.7974      -933.7354       179.5583       919.4451
       791.3573      -196.9656      -1263.858      -174.5332       1007.297
       596.8834      -277.6123      -1064.769      -389.1826       1350.938
       1123.063      -751.2550      -649.7317       579.8660       188.6947
      -751.2759      -525.7023       83.10645       24.95898       227.7549
      -60.40656      -574.8639       384.4992       462.4634      -422.4810
      -131.8918      -12.92297      -186.6992       336.8443       125.0203
      -633.6539      -296.4199       588.7606       222.6078      -425.8602
       116.4360       481.3526       98.39404      -445.1262      -811.5182
      -395.2951       390.0292       101.0367      -218.6101       337.8723
       286.0592       38.80640       142.2776       221.5132      -225.1720
      -776.9827       26.96631       965.3981       628.8616       160.4098
       93.32263       244.9200       72.22375      -319.1082      -68.47800
       194.6308       35.54504      -86.75690      -173.9613      -38.52942
       334.3446       391.2269       323.6777      -103.0966      -299.3229
       257.2524       15.95807      -41.53760       736.9722       773.6151
      -224.6536      -752.2930      -162.3268       176.8673       201.7053
       363.0682       136.0391       228.4081       469.0688      -52.92462
      -318.4816       226.3916       427.2268      -294.8130      -663.2401
      -209.3112       129.6760       482.3953       542.0728      -426.7109
      -771.9048       242.8958       571.1879       193.8679       33.17035
      -244.6779      -509.0160      -288.0583       38.57886      -530.5837
      -848.4382      -527.4873      -1054.830      -1300.093      -567.9142
      -108.5183      -217.3184      -180.8030       64.03516       642.7668
       420.4592      -1324.086      -1373.012       957.7590       1429.658
      -767.3950      -1665.103      -180.0216       389.0105      -1047.605
      -1263.728       170.5905       183.7178      -705.7141      -1176.617
      -1329.003      -1003.123      -733.2125      -194.3640       228.2178
      -671.6108      -1094.857      -176.9937       353.4098       614.9363
       179.8721      -1451.894      -2521.325      -756.8374       2692.420
       2515.036      -682.3965      -2560.923      -2070.274      -117.8453
       764.5083      -72.27271      -947.7236      -306.9810       176.6959
      -4.740234       1876.619       2571.622      -919.8047      -4376.533
      -5265.372      -2931.615       2314.890       3524.243      -947.1724
      -2010.879       1251.472       2419.452       2128.030       2734.204
       2303.327       223.5195      -1434.754      -2143.911       416.8994
       4667.750       3072.855      -2715.371      -4044.456      -326.3392
       721.4409      -1622.940      -1549.931      -713.6113      -1773.734
      -1805.862       1514.446       5452.822       3726.657      -2244.514
      -3436.179       2278.332       5946.979       2086.247      -2355.950
      -1224.803       835.6606      -988.4741      -1387.738       1010.345
       1642.241       579.2676      -2568.091      -3384.186       638.4600
       3522.652       3135.249       927.8345      -163.1533       435.7417
       1354.548       1986.790       184.4546      -2678.786      -2113.354
       1425.050       2230.559      -791.9888      -2125.142      -522.5063
       1291.075       2927.764       2117.070      -1862.556      -2004.215
       2188.011       1983.373      -1424.578      -561.7307       1707.805
       825.6439      -130.7625      -431.0252      -354.4263       701.0361
       594.9634      -459.1568      -655.9565       787.9739       1806.907
       192.3853      -1270.379      -587.8896       423.2544       1641.291
       2414.144       724.2085      -621.3652      -701.9941      -1272.392
      -21.03662       2965.565       1847.067      -1819.545      -1039.396
       1203.203       668.6128      -646.5854      -533.8429       49.70679
       1232.745       1541.805      -1724.749      -3509.782      -1175.526
       1646.768       2490.132       1942.737       1486.898       774.5232
       1187.058       862.1694      -1988.256      -1519.719       1391.988
       1065.518       684.1907       1605.052       116.8740      -3075.419
      -3015.764       1281.150       2866.950       821.9814       87.50238
       127.7393      -73.84399      -343.7636      -65.22302       462.6130
       851.8052       520.9600      -1642.392      -2822.865      -1726.381
      -401.6023       668.5007       954.3326      -161.9631      -949.5713
       254.6461       806.9362      -75.15356      -203.3759      -475.7233
      -269.3965       245.2642      -1053.191      -1547.646      -271.2640
      -52.98878      -51.56351       146.2749      -492.2463      -730.7729
      -548.0160      -308.4509      -477.7126      -785.6445      -282.5459
       771.2407       1617.127       1015.784      -1559.120      -3785.468
      -2932.647      -390.2347       396.7197      -993.8188      -1129.848
       818.1880       2404.742       1988.339      -956.8271      -3061.926
      -1718.651       410.1350       1053.356       544.0408      -594.1636
      -2214.561      -3221.915      -1879.982       33.64172       137.4249
       335.3622       441.3414      -406.5164       275.1827       930.2964
      -312.4995      -1183.449      -1718.931      -2558.340      -2053.646
      -354.9377       566.7913       151.9414      -666.3030      -780.4298
      -310.4597      -50.94308      -183.1393       17.96130       745.5249
       188.7587      -329.6924       568.5244      -313.5713      -1765.127
      -793.0103       654.2808       1102.982       36.35596      -1549.021
      -1187.510       599.1094       1416.038       644.5956       65.25879
       693.5782       377.1660      -1321.537      -1427.743       10.71143
       950.5315       942.7162       348.9045       306.4745       221.7621
       39.67163       358.5605       517.3735       156.6626      -1139.790
      -1669.634      -380.4971       751.3994       864.6862       447.8623
       811.9697       1635.086       891.7153      -639.7789      -747.4016
      -199.1843       31.44971       1042.260       1862.265       1501.010
       721.6672       110.4907       216.4427       92.02905       251.6633
       1002.455       1067.470       723.9241       370.6872       55.55133
       117.1384       685.0950       345.2513      -666.4080      -35.78052
       1295.290       1177.325       84.72449      -479.3286      -608.1494
       192.5635       1652.485       1717.779       933.1793       225.6660
      -181.1287       1009.067       1979.261       917.8623       477.4980
       857.8944       219.2330      -645.0813      -509.8701       258.4637
       439.4423       28.50696      -593.6564      -631.4207       213.0210
       1255.226       1481.002       624.3677       101.2012       507.2395
       831.3662       471.5814       375.4854       869.5803       1128.667
       989.5814       394.6708      -382.3610      -498.7317      -126.2967
       13.11009       42.06653      -143.4548      -178.8549      -115.1840
      -124.8911       586.7144       1227.252       646.6294      -435.2461
      -739.9775       238.3158       772.4475      -87.24670      -695.7409
      -190.8660       588.2881       215.1938      -694.8074      -905.3213
      -917.4595      -949.1302      -442.2383       756.3147       941.1921
       231.0108       410.3877       185.0673      -373.1312       117.2986
       758.2944       549.8879      -276.0508      -421.7017      -333.4639
      -812.1934      -843.6316      -933.7861      -1589.198      -1388.583
      -423.5814      -182.0420      -621.8796      -685.4576      -299.0236
       40.21507       86.33038      -216.8016      -36.33734       468.1475
      -139.2808      -897.8604      -791.1572      -705.5591      -1078.993
      -1169.873      -1095.264      -1472.301      -1102.456       8.967224
       296.8181      -571.6897      -1354.986      -606.5135       273.6337
      -95.21265      -862.9580      -1260.294      -463.2131       746.2322
       665.0276      -393.8716      -976.7290      -380.1259       10.94922
      -297.7755      -475.3425      -669.5469      -946.6914      -988.0269
      -901.7317      -825.7935      -637.3120      -750.8921      -1105.747
      -1066.585      -437.6019       53.51685      -356.5090      -513.6836
