     0.02500000      -12338.82       10709.80      -12345.00      -12345.00
      -29.99499       215.0300      -16.32000      -12345.00      -12345.00
       0.000000       12.55000      -12345.00      -12345.00      -12345.00
      -12345.00      -12345.00      -12345.00      -12345.00      -12345.00
      -12345.00      -12345.00      -12345.00      -12345.00      -12345.00
      -12345.00      -12345.00      -12345.00      -12345.00      -12345.00
      -12345.00      -31.60370      -68.72130       995.0000       0.000000
      -31.24600      -68.98500       0.000000       102400.0       0.000000
      -12345.00      -12345.00      -12345.00      -12345.00      -12345.00
      -12345.00      -12345.00      -12345.00      -12345.00      -12345.00
       46.92124       147.7683       327.6315      0.4218800      -12345.00
      -12345.00      0.6445830       90.00000       90.00000      -12345.00
      -12345.00      -12345.00      -12345.00      -12345.00      -12345.00
      -12345.00      -12345.00      -12345.00      -12345.00      -12345.00
      2008        16        21        17        53
        20         6    -12345    -12345      9802
    -12345    -12345    -12345    -12345    -12345
         1         7        13    -12345    -12345
    -12345    -12345    -12345    -12345    -12345
    -12345    -12345    -12345    -12345    -12345
    -12345    -12345    -12345    -12345    -12345
         1         1         1         1         1
ZOND    -12345          
        -12345  -12345  
-12345  -12345  -12345  
-12345  -12345  -12345  
-12345  -12345  -12345  
-12345  -12345  -12345  
-12345  -12345  BHE     
ZL      -12345  -12345  
[...]
       161.5601       169.4571       162.7744       195.3667       217.7649
       235.6053       243.1277       252.5464       244.3595       263.2565
       263.2168       279.0874       284.0801       284.6035       281.8144
       297.2087       286.7508       295.7894       300.5260       316.0776
       317.6821       313.1639       307.3749       317.9984       304.0000
       304.3865       299.6323       289.7450       277.2648       286.4221
       270.7838       272.7914       277.5934       269.5593       253.6192
       261.1096       245.2644       242.5551       228.9827       219.9294
       227.6240       229.8658       199.8728       202.8041       206.4575
       194.2355       168.8918       167.5187       145.7682       134.7974
       132.2883       129.7255       127.1539       128.8358       103.7747
       111.2206       109.6001       97.24335       82.31467       77.31079
       76.98764       88.13013       81.09428       80.21341       71.00325
       68.30898       48.02664       57.60413       65.75360       57.64291
       56.62387       66.12732       51.92273       51.98668       51.18034
       41.44853       32.15944       44.06293       34.17983       36.27189
       28.23882       15.73540       16.37566       31.03744       16.86217
     -0.4328861      -7.233463      -11.61381      -28.81627      -20.34737
      -25.55566      -40.42593      -53.58963      -47.67471      -60.63666
      -68.19302      -82.70969      -91.25131      -107.4516      -110.3989
      -127.6145      -133.0654      -149.1901      -147.3986      -149.5729
      -145.4084      -167.4332      -175.1285      -181.2844      -180.2042
      -196.2678      -210.7938      -226.8900      -218.2852      -241.9540
      -246.3729      -241.1550      -245.7579      -260.5312      -250.0553
      -255.3713      -267.7097      -295.9088      -300.0443      -291.2648
      -288.2792      -304.6037      -308.2404      -324.4089      -320.1631
      -334.2235      -342.9850      -346.1560      -353.0563      -366.0951
      -360.8489      -385.0389      -396.8694      -405.0354      -400.9708
      -405.4574      -397.3558      -399.9663      -397.0282      -408.4475
      -410.6572      -414.0718      -398.6346      -400.5544      -387.5237
      -383.9102      -379.3248      -382.4064      -369.1384      -364.8201
      -348.1273      -350.4172      -346.6058      -340.5703      -326.4814
      -334.4935      -308.7206      -291.0845      -283.5763      -279.9279
      -258.5255      -253.7201      -233.3654      -218.6301      -201.1363
      -197.1602      -182.3310      -165.0972      -142.6559      -137.3539
      -123.7762      -109.2165      -71.61195      -57.89207      -46.03607
      -24.44523       1.171532      -1.719727       35.60635       68.76660
       61.32550       71.08148       117.3840       125.4580       138.0440
       163.7665       185.6136       185.3375       211.9117       236.7922
       242.5656       238.9767       265.5903       271.2996       274.3564
       284.3232       306.9977       303.2426       322.1025       345.3516
       359.2576       359.7960       377.4048       371.3562       372.5747
       365.0010       379.7490       381.6287       387.3212       376.7444
       389.2725       390.6403       377.7487       365.1801       368.3131
       353.8368       354.0619       343.5787       337.7333       335.5605
       342.0283       330.4296       327.1133       306.7733       299.2621
       296.2645       291.7530       266.8549       263.4850       249.5870
       235.1155       223.4539       231.1883       212.0219       204.8398
       190.0400       181.8164       163.9409       171.9484       152.4230
       136.6775       121.7280       122.7168       97.22116       89.00772
       73.93893       68.61852       42.69363       31.41219       7.777275
       5.588615      -17.28526      -34.96838      -48.98325      -53.95438
      -84.55737      -90.25800      -109.6076      -121.5211      -152.2808
      -161.5989      -186.5513      -202.6026      -223.2574      -225.9857
      -233.3528      -237.5166      -261.1671      -261.8716      -277.4285
      -292.5263      -310.8223      -311.9457      -329.3600      -323.3267
      -316.9807      -318.1910      -323.2651      -313.9331      -329.1069
      -344.3481      -362.6284      -362.2889      -370.5454      -359.6281
      -344.6785      -335.2124      -337.2939      -313.4063      -308.8840
      -313.7104      -321.1846      -302.7541      -293.6393      -285.1919
      -276.7051      -234.9664      -208.5989      -178.2269      -126.9817
      -53.58922      -40.47983      -58.06787      -154.2557      -168.4137
      -199.4403      -569.1650      -711.9749      -359.2119      -375.1904
      -266.4288       256.3608      -60.02802      -408.8669       110.4184
      -97.01965       275.6794       1473.210       145.2603      -1311.034
      -497.0935       317.6777       1213.091       718.0874      -1145.355
      -813.5708       694.0403       1040.685       861.8946       189.2693
      -691.2272      -946.7979      -76.01465       1302.078       857.2371
      -693.7983      -579.2845       413.0864       956.0413       1049.270
       349.3208      -1385.013      -1848.788       58.98950       1468.693
       1161.183       46.77722      -327.6941       1368.023       1192.005
      -1376.979      -884.3069       1324.100       1087.612      -288.9382
      -410.7240       636.6723       174.8724      -901.3389       167.6421
       1376.411       1256.446       5.627747      -406.9854       462.9587
      -181.2861      -579.3221       142.7700       389.5017       248.9591
      -54.48737       47.91168       412.1619      -51.47803      -207.5320
       169.0756      -217.1611       177.7937       1033.619       609.3083
      -112.4905      -717.3306      -731.9905       155.8428       695.7771
       125.2184       68.78345       706.8278      -173.6533      -1097.983
      -162.9764       74.54126      -779.5369      -346.1785       1047.136
       1471.254       475.1868      -676.4838      -285.9421       318.5800
       255.7657       281.5518      -462.5332      -1189.854      -718.7016
      -317.9171      -46.41608       267.7198       134.7710       416.1035
       493.3208      -430.8806      -723.6659      -318.0559       242.6208
       601.3952       407.9020      -106.5245      -603.0378      -727.6128
      -1089.765      -1216.569      -202.8745       1098.091       1393.768
       345.1951      -327.8242      -171.7681      -911.9991      -969.7130
       406.5818       158.1729      -175.5273       727.5886       232.1204
      -869.1034      -322.2006       243.6943      -262.7297      -632.6663
      -587.2107       169.7471       915.6647       380.7023      -548.5493
      -598.0152      -169.2546      -100.5563       90.50720       142.3762
       258.3195       156.2341      -673.9131      -909.2195      -262.7515
       155.8305       199.0593       366.9387      -26.79626      -356.3325
       302.1985       87.01324      -431.3824       227.4717       743.8638
       232.2792      -466.1193      -340.8613       386.7607       420.9727
      -94.63477      -508.8017      -303.5063       55.44727      -34.66235
       554.0637       834.9158       60.02686      -79.28491       277.6281
       475.3639       334.2083      -17.15259       46.72055       182.8826
      -113.2080      -43.17456       459.4535       425.0577      -3.142700
       346.1396       1256.250       1125.811       84.95233      -316.3802
       17.56628       89.85091      -14.30432       253.6652       333.7441
      -167.2454      -219.5063       650.2172       772.2657      -119.0638
      -205.4784       255.4177       24.15198       192.5088       655.9401
       554.2164       160.9001      -448.3795      0.6306152       869.4189
       291.8060      -244.5133      -14.89111       321.7374       405.9821
      -82.28009       135.0864       583.9971      -568.5010      -1436.248
      -564.3325       20.20233      -248.8049       1015.859       1237.383
      -700.2253      -743.1854       182.2256       3.306396      -525.9438
      -441.2286      -242.3210      -647.6288      -385.3045       211.7422
      -144.5525      -694.9272      -535.3450      -171.6992      -57.97978
       38.60095       148.2957      -357.0542      -723.9484      -185.1914
      -153.5540      -685.2524      -772.5250      -303.4513       103.9515
       88.34314      -149.5574      -618.1090      -756.8533      -456.3545
       272.3621       513.1884      -162.6637      -551.3328      -396.8525
       147.7357       278.9663      -782.2947      -1040.372       355.9835
       567.8901      -384.5073      -359.6334       35.49896       28.09723
       118.7826       156.9225      -510.5132      -640.4456       139.3496
       268.0083       173.2961       488.1370      -230.5950      -580.6187
       944.3464       1230.305      -115.7592      -472.1349       269.0809
       429.9046      -145.0539      -157.1045       10.82935       416.2396
       595.7129      -337.4382      -706.7959      -14.92859       372.6653
       283.1638       451.4645       371.0285      -258.2965      -166.3726
       877.2551       1113.700      -20.81567      -402.0805      -12.59949
       19.46423       132.0327       743.6010       961.9362      -139.4385
      -862.3929      -290.6641       507.0840       580.3286       300.9841
       326.0880      -58.85724      -363.4059       124.4766       578.5427
       329.3506      -190.6497      -609.7756      -264.2935       502.1860
       399.5054       287.9712       186.6838      -213.0050      -71.67026
      -51.24867       50.14670       117.3931      -559.8985      -378.4123
       359.1458      -307.7598      -751.3128      -108.9289       44.54414
      -24.60168       152.8506       305.7444      -141.5090      -565.6388
       106.1052       164.5460      -540.9022      -479.0651       113.5819
       269.9808      -547.9108      -578.9536       89.75360      -197.2842
      -199.3285      -85.59912      -574.7375      -539.4411      -165.3777
       176.7148       90.57861      -561.7786      -330.6467       252.8169
       311.7189      -113.6222      -694.4282      -402.9497      -481.4060
      -561.9343       438.9501       407.6041      -205.8779       14.87256
      -292.6664      -700.8468       11.61145       151.3090      -511.8373
      -311.0741      -171.8141      -510.7733      -135.1590       295.1748
       51.50330      -380.4333      -238.0315       256.1047      -84.60312
      -104.6629       207.7519       53.05804       218.4551       34.48105
      -48.01495       351.9569       227.2346      -304.8164      -456.2122
       108.8982      -36.11423      -213.0795       464.3289       424.4556
       363.4320       937.0908       122.9121      -1014.909      -328.3748
       358.5929       298.3828       371.9764       433.0200       151.3215
      -145.3980       95.05139       336.1588       241.1907       97.57642
       106.4746       324.2815       660.4237       558.3346      -93.95993
      -249.0454       257.2737       631.7101       577.8794       411.5888
       140.7456      -41.94434       425.9067       299.8984       14.16522
       313.6323       125.8854      -8.780640       406.6264       392.4837
      -5.614586      -25.99707       160.7859       455.8959       633.9862
       341.1123       48.65821       23.77933       41.51587       84.61511
       276.4107       110.5116     -0.9413452       307.3126      -5.691895
      -640.3949       64.01440       1234.943       861.7583      -346.7914
      -478.5907       275.2368       803.1902       589.1718      -402.4403
      -921.9357      -85.45264       801.1169       385.7844      -603.7589
      -512.3228       118.6666       259.4733       221.8105       202.0084
      -243.0160      -253.6536       609.9938       545.0625      -563.8114
      -764.6385       412.2559       1086.513       145.9787      -357.0419
      -190.4022      -235.7222       73.01703       132.5144      -635.0850
      -894.1407      -645.3157      -341.0801       957.6123       3266.974
       4389.368       2612.294       504.2463      -305.4573      -703.9941
      -811.2578      -1582.341      -1750.657      -224.3652       761.1636
      -687.1362      -1628.049      -996.5117      -2065.447      -2169.540
       1081.421       3503.900       2768.975      -845.8164      -5044.542
      -5884.459      -2948.507       387.9756       1783.571       1403.420
       480.6763       1234.447       2421.828      -301.2095      -1736.224
       674.6006      -2094.461      -6792.275      -2987.209       6073.002
       10491.61       4957.185      -4421.473      -10658.45      -12338.82
      -5160.809       6908.744       10709.80       4811.578      -2213.513
      -4639.647      -2238.626       1441.072       1568.001      -632.0569
      -1035.286       371.5322       2000.194       331.6606      -2726.124
      -2761.888      -2736.057      -2128.232       245.3905       624.0596
      -1129.890      -1864.236       744.5918       3623.727       1676.271
      -1688.195      -1533.386       1169.335       2795.929       1131.897
      -1015.767      -1198.483      -1000.303      -1460.852      -1287.710
       1929.999       4499.848       1741.514      -2335.976      -3943.795
      -3690.720      -1082.979       1734.639       2981.531       3188.779
       3368.545       2021.499      -1965.088      -2121.880       60.25098
      -1884.237      -2845.795      -263.7393       1672.999       3004.758
       2441.035      -2059.677      -3843.664      -342.7070       2823.332
       3650.637       2174.718      -925.8345      -2123.065      -1042.089
      -538.7968      -779.8691       333.7373       2054.513       2319.885
       1672.549       960.1559      -477.6982      -1345.428      -406.4446
       363.4172       687.2803       2259.854       1898.330      -1323.874
      -1695.770       670.2437      -390.4619      -2539.843      -848.6335
       931.0182       391.3546       193.0142       347.7478      -5.561035
       1706.216       3732.306       1083.367      -2223.036      -1389.877
       153.0903      -723.2924      -777.7390       530.7551      -42.23083
      -648.8477       1417.324       3225.550       2193.626       825.6591
       644.5122      -356.8552      -1050.198       69.52393       1180.649
       1388.176       493.6992      -1513.223      -3402.926      -2771.099
       307.5015       483.1807      -2190.669      -2504.118      -294.2295
       2117.423       2235.198       1281.189       2724.031       2749.346
      -912.4194      -2561.295      -1491.857      -1846.621      -1675.434
      -9.703613       905.2130       874.6609      -16.82446      -758.6754
       68.59766       1541.816       1172.531      -730.2131      -1228.783
       499.1396       2055.749       1013.670      -593.5725      -634.1976
       382.6367       208.9863      -1968.882      -2422.872      -812.4735
       345.7109       805.5900       88.36279      -1179.531      -1714.900
      -657.6484       1394.661       2392.994       1964.555       563.1685
      -1473.021      -2848.361      -3595.854      -3432.542      -1523.270
       1436.438       2317.592       304.7463      -328.7969       872.1958
       1800.204       1801.478      -454.1099      -2207.884      -1246.226
       53.10767       718.8735       770.5678       348.0831      -40.23169
      -761.5009      -1011.663      -16.03809       693.7855       157.1838
      -296.6973       364.8053       935.5557      -24.02472      -662.0046
       502.3901       1292.694       953.9254       418.8405      -414.3560
      -107.8311       1056.997       946.5323       395.2810       428.8500
       137.1204      -713.0380      -728.0934       79.20923       453.0508
       609.0574       991.4315       901.7681      -80.57397      -620.4967
      -177.4115       553.0955       786.5249      -245.2480      -1206.943
      -350.5066       713.4700       688.9523       316.9886      -89.81372
      -83.64722       423.8458       355.6521      -154.4822       90.84131
       638.7471       170.5015      -365.3475      -48.58997       405.0407
       420.0275      -306.6332      -812.8077      -237.2672       407.5253
       121.9736      -456.4797      -552.2637      -651.4078      -584.1694
      -217.4235       89.65971      -34.65674       35.71094       814.6489
       1260.205       715.5468      -303.9495      -745.3779      -512.8254
      -285.1233      -542.1189      -943.3719      -579.8466      -412.4580
      -571.1264      -43.45285       130.3994      -643.1875      -917.0441
      -14.57629       591.6986      -254.2533      -500.7844       678.5770
       583.0730      -783.7363      -1190.389      -1135.531      -840.3567
       379.5664       997.4008       382.7713       31.35510       42.00729
       132.4387       92.11700      -275.5314      -245.7322      -214.3419
      -232.3575       12.67212      -334.7795      -810.5022      -907.3947
      -574.4810      -144.4298      -235.6371      -515.5683      -395.2773
       829.3340       1810.396       858.0870      -525.0883      -652.5330
      -308.2156      -423.9714      -741.9792      -993.9275      -815.1920
       123.3857       1025.268       206.9493      -595.3456      -24.24463
      -529.3750      -1631.650      -1093.277       567.7698       1355.988
       1199.158       918.5900      -157.3516      -1486.523      -1388.418
      -634.5417      -440.2324       18.31982       494.4576       589.4070
       637.7430       229.6838       36.44531       66.08508      -560.0938
      -427.2249       215.5863      -40.28305      -27.04358       303.7756
       127.2108      -476.5785      -802.6880       377.8110       1674.340
       826.3411      -375.6730       204.9741       953.1282       891.0908
       396.2971      -353.1606      -682.3633      -507.0418      -183.7838
       536.3435       658.0447      -430.3564      -522.1704       697.3735
       1110.649       481.5695       384.3462       893.6423       670.1227
       103.2494       215.5068       787.8206       946.3024       478.0071
