     0.02500000      -112639.8       141376.4      -12345.00      -12345.00
      -29.99001       223.1850      -22.89000      -12345.00      -12345.00
       0.000000       16.57000      -12345.00      -12345.00      -12345.00
      -12345.00      -12345.00      -12345.00      -12345.00      -12345.00
      -12345.00      -12345.00      -12345.00      -12345.00      -12345.00
      -12345.00      -12345.00      -12345.00      -12345.00      -12345.00
      -12345.00      -31.49900      -66.23830       530.0000       0.000000
      -31.23600      -65.83800       0.000000       167100.0       0.000000
      -12345.00      -12345.00      -12345.00      -12345.00      -12345.00
      -12345.00      -12345.00      -12345.00      -12345.00      -12345.00
       47.96502       232.4550       52.66234      0.4312642      -12345.00
      -12345.00    -0.07917669       0.000000       0.000000      -12345.00
      -12345.00      -12345.00      -12345.00      -12345.00      -12345.00
      -12345.00      -12345.00      -12345.00      -12345.00      -12345.00
      2008       318        11        12        53
       290         6    -12345    -12345     10128
    -12345    -12345    -12345    -12345    -12345
         1         7        13    -12345    -12345
    -12345    -12345    -12345    -12345    -12345
    -12345    -12345    -12345    -12345    -12345
    -12345    -12345    -12345    -12345    -12345
         1         1         1         1         1
ABRA    -12345          
        -12345  -12345  
-12345  -12345  -12345  
-12345  -12345  -12345  
-12345  -12345  -12345  
-12345  -12345  -12345  
-12345  -12345  BHZ     
ZL      -12345  -12345  
[...]
      -177.2202      -182.4903      -168.6351      -172.4530      -159.4642
      -162.3146      -150.8853      -154.8812      -143.7552      -147.1490
      -133.0158      -133.9571      -120.9305      -123.0317      -109.4379
      -111.8866      -97.41827      -99.71069      -82.58438      -82.69247
      -69.50023      -68.23860      -51.79539      -49.99501      -32.37823
      -32.61176      -12.36364      -9.002201       8.795158       13.90836
       32.55600       31.77356       54.47012       61.38867       79.38916
       80.51141       102.7296       107.5864       126.2119       128.9052
       150.4624       151.5681       169.9214       170.8986       191.9021
       193.6381       212.7013       213.4271       232.5714       229.9517
       248.2010       249.5610       267.9036       267.3638       287.1348
       285.1654       303.6932       303.2275       318.6008       315.5389
       329.0307       322.1150       338.8441       338.4203       352.3909
       347.2584       364.0438       357.1359       369.6229       363.5411
       376.9978       368.7592       379.0547       369.2021       377.9786
       367.3539       376.5562       362.8513       369.6705       357.1326
       363.8420       347.9600       351.7137       335.9305       341.4125
       325.3867       324.8007       304.0460       307.3388       287.5911
       282.0113       261.1897       262.3909       242.8467       238.5710
       216.4123       215.6382       191.0353       187.0906       165.8810
       160.8798       137.3471       135.4317       111.0216       104.0510
       81.15366       75.09865       49.50838       49.16089       26.01281
       19.23178      -4.390343      -6.459106      -32.33905      -40.53891
      -65.82114      -61.49261      -84.06677      -89.17883      -116.0710
      -109.9850      -131.0778      -138.7706      -164.8451      -150.7764
      -175.5579      -185.5473      -204.6173      -181.9619      -210.3971
      -224.7907      -242.4268      -210.7458      -239.3651      -260.5809
      -279.0728      -223.9899      -257.6994      -299.1632      -318.8126
      -208.1006      -261.7329      -353.0595      -363.5969      -145.7638
      -253.0835      -432.2159      -593.4815       79.30957       83.70312
      -10479.00      -26390.02      -45083.98      -97583.72      -49104.97
       133977.9       120335.2      -32653.02      -38845.16       31865.33
       36838.11      -34170.68      -19491.81       41150.39       14367.12
      -40978.52      -48181.88      -7192.895       362.0078       21960.71
       47978.89       16408.30      -6018.102      -785.5234      -4392.031
      -23329.01      -8950.680       30995.76       24301.92      -12626.80
      -10924.57       6689.560      -2847.879      -16980.38      -16313.47
      -4466.121      -4555.389      -717.9688       30729.15       34013.86
      -6187.504      -23285.07      -2971.141      -7566.711      -19031.18
      -8927.323      -2641.025       2278.924       9576.916       11219.55
      -2240.895       1624.219       16895.50       12974.76       1468.914
      -12381.36      -14486.45      -7263.652      -8549.342      -2282.699
       9106.776       4469.864      -5004.285      -3704.729       9379.996
       11773.87      -6668.189      -8577.006       6214.206       2276.145
      -3690.917      -2064.106      -113.9473       5783.314       7885.286
       2843.385       1932.518      -3843.367      -15848.46       260.8516
       24533.59       7598.971      -14496.17      -5352.851       973.2559
      -9665.815      -8752.141       10413.95       9971.497      -2853.404
       600.8318       946.2881      -5659.017      -2108.172       4037.247
      -2312.284      -1885.154       9376.679       7914.396       73.18945
      -4846.801      -12517.63      -7344.574       12790.58       10225.23
      -103.6973       8121.126      -776.0625      -16225.63      -2836.713
       9373.450       3031.771       1075.211       4658.780       764.8516
      -12847.81      -14795.34       2542.871       10676.05       5578.244
       7049.598       6598.789      -7212.016      -7592.580       1323.074
      -3459.612      -5871.061      -189.4824       7024.665       1451.423
      -2607.680       5887.101       2106.312      -2137.456       453.0052
       851.3843      -556.1191      -6077.964      -2014.018       7164.113
      -493.1523      -7257.399      -1832.595      -1941.106      -1116.887
       6969.781       7696.899      -3964.136      -6391.207       709.5635
       5248.799       4211.549      -7557.801      -9363.760      -744.0654
       870.4397       1151.826       35.11230       319.1992       6055.522
       5754.168       3805.836       3934.846      -2710.764      -6657.583
      -2298.886       4155.198       2971.140      -5588.239      -5134.242
       1261.249       686.5715       406.6648       2049.190      -4989.562
      -2640.721       6828.664       1925.361       6205.768       9389.598
      -1943.834      -10107.28      -8824.420      -701.2402       3384.591
       3622.076      -4871.695      -8647.838      -249.3892       1637.022
       3552.002       3133.823      -356.1768       4707.233       462.7812
      -12625.15      -4841.006       10694.64       3412.877      -548.0361
       5626.360      -1083.594      -7317.973      -7249.240      -3685.300
       5349.951       8060.738      -7166.254      -12114.99       2441.304
       3789.038      -987.4473       3857.791       2271.146      -1106.369
       4791.469       10698.26       8760.338      -4007.514      -11414.58
      -2126.776       8934.006      -889.1992      -10015.89       1214.400
       1799.763       3073.833       8568.873      -3283.256      -9870.687
      -2449.648       765.2393      -3227.837      -3133.385       2799.680
       2927.755       4912.191       5921.829      -2287.114      -5896.021
      -729.7793       7889.449       4467.574      -7957.664      -3638.889
       8179.511       268.5859      -10735.38      -4165.566       632.7241
      -352.3340      -4509.942      -7854.506       389.8750       5924.162
       8183.156       8546.704      -178.7227      -3219.144      -2249.237
       610.2280       4058.054      -4054.340      -7527.678      -2888.447
      -4906.484      -5302.444       517.6211       4470.322       6147.439
       7817.557       4253.603      -379.8438      -553.0591       3329.338
       1675.416      -7620.795      -8235.969      -7198.516      -7955.366
       864.6562       4394.213       3042.656       8204.172       5052.777
      -933.8429      -136.4380      -705.9424      -4434.701      -4218.553
       1832.771       1850.954       1951.291       6174.952       2655.623
      -5577.300      -6490.754      -2439.712      -681.1860      -1903.736
      -621.8151       668.6726      -992.6431       549.9531      -45.80859
      -2023.716      -631.1919      -1294.972      -2409.662       2511.742
       8252.491       6909.135       1314.674      -241.5137      -1472.033
      -10246.87      -9177.582      -401.7740      -328.5422      -842.9316
       3069.336       7172.020       7485.185       6305.470       1908.974
       287.3408       4381.713       2922.584       1625.284       504.4094
      -581.7656       641.6484       1570.620       4385.300      -2379.670
      -8944.373       621.3643       5113.846       2535.503       1937.094
      -5194.395      -7231.515       2584.317       6441.700      -881.9600
      -4811.847      -2493.730      -4265.890      -3140.365       4001.791
       721.9707      -8671.252      -3666.290       5075.758       3194.956
      -3264.646      -9419.975      -6205.291       6562.508       10180.94
       4075.921       2230.895       467.2646      -5518.417       1320.712
       4216.379      -8038.709      -8607.283      -623.1484       5419.760
       5287.076       1516.595       2051.690       1890.661       3587.613
       7163.965       7875.605       1885.960      -3356.008       3339.182
       4786.178      -5053.033      -7507.453      -3467.227       67.55469
       6078.393       8336.945       1868.574       824.5371       3820.330
      -1765.906      -5716.482      -6202.190      -6123.635      -2459.856
       168.1699       4193.855       6320.133       4228.682      -371.2166
      -1936.555       3421.331       3947.984       486.1272      -1634.432
       74.30469       11105.74       6158.219      -11099.42      -8335.994
      -1735.372      -4869.155      -3267.988       3143.140      -544.6895
      -8575.439      -1624.687       4493.529      -2271.303       55.13867
       6533.922       6391.601       236.5879      -8239.935      -5322.144
      -3.388672       2433.002       3661.318       2960.857      -4707.797
      -13508.51      -8447.837       1659.311       8469.035       8848.035
       6771.691       5653.424      -1870.946      -311.2949       5077.833
       236.5664      -2337.788      -2002.899      -1639.168      -478.4636
       499.2678       1633.359       651.1650      -3229.178      -2541.079
       3235.943       2461.643      -5851.380      -4831.486       6070.545
       7607.289       5331.982       7158.800       1211.973      -7948.867
      -13228.54      -9526.936       6725.770       11947.01       2964.087
       924.6675       4384.184      -1996.836      -7226.377      -2293.113
       1693.473       3187.582       7046.697       6157.309      -8119.164
      -27804.94      -31719.56      -18341.70      -7165.131       6606.102
       19470.79       16040.47       8499.105       5984.006       7506.117
       7256.571       2347.617      -2510.804      -6192.160      -402.9106
       5107.324      -6069.000      -16850.09      -12402.46       3247.820
       13438.50       11858.05       2976.119      -7500.291      -5097.818
       2817.841       2074.771       785.8916       2836.094       4248.295
      -1131.236      -1992.938       5373.269       3579.265      -875.8838
      -3960.774      -1653.506       796.7305      -7916.421      -7276.179
       928.3293       1288.033      -470.3486      -2915.628      -5761.000
       48.91895       4490.090      -5202.367      -12428.09       4692.676
       18637.62       5945.301      -4716.348      -6747.512      -7613.302
      -2931.247       4279.064       7196.473       8466.381       6817.934
      -304.9326      -4256.776       686.8438       8903.866      -86.21484
      -15008.44      -14406.83      -4423.615       4878.428       7000.508
      -2063.056      -6043.973       5915.344       15618.88       14013.54
       8189.852       4057.717      -1394.871      -8472.244      -8460.803
      -3842.869       5019.660       11461.05       2613.744      -2854.084
      -398.3008      -6522.359      -10280.85      -8560.289      -8242.357
      -1938.527       6785.723       8005.555       4508.574       2690.569
       2158.338       104.3105      -1039.842      -2319.965      -3248.014
      -5462.494       836.2324       10904.83       2138.898      -11742.32
      -13760.41      -5328.715       6518.098       13798.13       19578.30
       17271.08       5701.547      -9394.602      -27080.66      -34016.54
      -22624.61       2335.172       22199.94       27528.23       29379.61
       21014.06       8786.730       7161.552       5548.195      -7060.906
      -24814.15      -23488.78      -3924.034      -1735.396      -11516.29
      -7841.810       2042.416       7194.048       3118.975      -6297.378
      -7825.661       1505.714       6145.227      -2230.151      -5791.380
       125.1855       6074.980       2156.406      -14069.69      -19779.18
      -8991.833      -885.3896      -193.1992       5638.082       15166.48
       10320.46       169.5029      -2525.349      -3754.742      -1307.129
       8979.465       13829.14       10962.51       15221.34       17752.94
       7552.777      -1444.330      -7639.734      -12138.45      -10123.52
      -6680.159       387.7402       9023.609       8705.143      -418.3896
      -5960.710      -1268.311       1496.787       4421.469       9385.893
       5958.588       294.2617      -1366.859      -4797.473      -9799.469
      -8926.098      -2915.270      -273.3960      -119.0645      -5328.531
      -9969.358      -4483.809      -3724.457      -8960.828      -9038.285
      -9621.422      -14332.77      -20185.45      -22784.45      -23102.08
      -33398.36      -45742.97      -44997.28      -40246.23      -32347.59
      -15226.16       805.5156       18690.06       55589.41       87139.22
       77339.15       33723.62      -229.6836      -4228.195      -15517.11
      -50439.15      -56768.27      -16707.38       14583.68       5973.914
      -17648.45      -9699.656       49075.00       116701.6       141376.4
       96721.17      -16614.66      -112639.8      -109054.3      -62660.20
      -32359.88      -3992.406       21420.41       46473.88       78455.53
       77626.45       33877.01       1995.658      -6247.125      -18344.03
      -30960.38      -37095.84      -26008.84      -2062.262      -5190.469
      -25613.78      -27649.81      -13382.87       10959.35       22142.73
       4455.359      -12377.14      -13304.34      -19019.82      -24314.79
      -5415.516       10345.29      -1931.582       9463.867       43908.64
       40673.48       20692.86       19564.98       22217.69       23828.94
       18851.69      -2748.406      -31051.38      -38181.03      -21661.75
      -8801.514       1179.582      -10302.75      -38854.00      -13887.52
       41444.02       33961.03      -14021.84      -22720.24       392.1250
       21325.79       33217.11       36162.38       32852.14       7185.047
      -28837.97      -36692.52      -27885.96      -12059.76       6469.394
       2871.142      -3491.674       902.1035      -4808.249      -6233.167
      -681.0430      -11993.51      -923.4766       40278.58       36032.23
       4087.098      -4915.992      -10080.15      -11475.64      -14428.95
      -25547.75      -18206.93      -955.8438      -8421.500      -30113.40
      -17447.80       17335.44       24560.95       24565.98       32323.95
       11703.22      -15594.75      -13656.06      -9302.805      -16581.13
      -23552.54      -17791.29       5515.066       19424.61       8551.348
       3513.227       19130.84       30154.71       32382.54       19869.60
       3267.121       9048.387       11272.46      -4806.689      -13738.77
      -3840.736       8861.484       12112.04       892.3750      -21953.74
      -34293.37      -31062.32      -20242.01      -11105.52      -17220.39
      -24563.27      -8343.027       8102.009       1484.225      -4285.769
      -3988.622      -5710.558      -1526.037       789.1562      -1436.744
       6016.836       20693.91       28964.86       27634.54       16355.30
       8226.205       8956.922       5120.879      -863.1094      -8593.559
      -15678.59      -9574.695      -5125.828      -13959.40      -9432.651
       7759.669       4696.928      -2902.518       2197.820       1648.672
      -6560.238      -10896.21      -6532.194      -1158.474       536.3633
       8091.012       13326.21       15156.64       16664.22       5964.851
      -131.8110       3368.659      -1058.703      -5511.201      -4954.354
      -2024.896       2581.715      -3010.188      -13014.17      -11706.54
      -9585.137      -12807.29      -11530.69      -6408.732      -3633.102
      -2691.104      -5251.512      -9980.049      -2840.465       15088.34
       15307.37       3343.875       10663.90       20882.39       11037.73
       1877.783      -2668.621      -14915.67      -14070.32      -2705.022
      -2512.940      -2386.978       683.8770       2336.385       4993.295
       9987.326       11684.78       1844.453      -9071.961      -17228.79
      -19727.72      -5994.051       3427.936       5907.953       13387.77
       13310.09       7212.362       1435.641      -5425.160      -13599.59
      -13270.05      -578.1816       7315.930       7588.074       6767.332
       5104.664       5756.432       1237.113      -11300.05      -14508.93
      -6476.766       4372.500       12027.04       12451.92       10314.77
       6397.557       4398.633       12902.57       20010.97       8698.374
      -3540.214      -1273.178      -3846.410      -16743.64      -23107.64
      -22124.84      -23503.64      -16332.83      -3315.684      -3269.753
      -5355.681      -360.5879       5352.580       6939.398       1285.781
       3418.621       17310.30       16602.73       4207.859       4975.746
       9347.088       3690.238      -3722.095      -5554.686      -2072.102
       3327.446       6466.259       2651.391      -4857.405      -3395.936
      -348.9648      -7055.812      -13838.82      -11659.68      -3163.089
       887.5156       3974.172       14505.38       18816.23       12783.91
       5060.085      -116.1387      -3789.960      -3353.707       3098.764
       4369.129       1423.008      -55.06885      -96.99121       2870.311
      -1218.461      -15111.74      -23922.04      -16044.99      -2547.516
       5146.820       10051.25       12590.84       11199.28      -453.2656
      -12025.36      -6948.448       1235.125       1437.990       2056.574
       5680.348       8747.284       6210.193      -4298.271      -8660.911
       49.14355       3984.907       1737.416       5258.748       3886.108
      -2940.545      -2106.660       5648.121       7012.085       784.9570
       3480.453       10497.41       3924.996      -11476.96      -16677.47
      -11171.49      -6856.375      -10198.61      -14204.14      -6140.863
      -2204.352      -12065.81      -14384.59      -1910.355       10842.49
       15143.82       13511.30       14425.54       19871.62       18021.93
       5004.846      -2432.714       722.9302       1052.328      -3413.982
      -4054.715      -1417.753       112.0820       5035.895       12200.12
       14324.23       14984.96       15591.85       6460.471      -4335.037
      -3422.717       52.57031      -1464.500      -9480.887      -20855.73
      -19448.74      -9170.600      -8317.473      -4814.129       1200.834
      -6406.504      -10340.84       500.8516       7929.645       2853.799
