     0.02500000      -241425.7       368421.9      -12345.00      -12345.00
      -29.99001       223.1850      -22.89000      -12345.00      -12345.00
       0.000000       16.57000      -12345.00      -12345.00      -12345.00
      -12345.00      -12345.00      -12345.00      -12345.00      -12345.00
      -12345.00      -12345.00      -12345.00      -12345.00      -12345.00
      -12345.00      -12345.00      -12345.00      -12345.00      -12345.00
      -12345.00      -31.49900      -66.23830       530.0000       0.000000
      -31.23600      -65.83800       0.000000       167100.0       0.000000
      -12345.00      -12345.00      -12345.00      -12345.00      -12345.00
      -12345.00      -12345.00      -12345.00      -12345.00      -12345.00
       47.96502       232.4550       52.66234      0.4312642      -12345.00
      -12345.00     -0.2822219       90.00000       90.00000      -12345.00
      -12345.00      -12345.00      -12345.00      -12345.00      -12345.00
      -12345.00      -12345.00      -12345.00      -12345.00      -12345.00
      2008       318        11        12        53
       290         6    -12345    -12345     10128
    -12345    -12345    -12345    -12345    -12345
         1         7        13    -12345    -12345
    -12345    -12345    -12345    -12345    -12345
    -12345    -12345    -12345    -12345    -12345
    -12345    -12345    -12345    -12345    -12345
         1         1         1         1         1
ABRA    -12345          
        -12345  -12345  
-12345  -12345  -12345  
-12345  -12345  -12345  
-12345  -12345  -12345  
-12345  -12345  -12345  
-12345  -12345  BHE     
ZL      -12345  -12345  
[...]
       161.9717       142.4372       182.1829       164.3893       203.1763
       187.1104       224.2781       205.8539       244.3740       229.6474
       264.6294       245.8981       285.6093       267.7336       300.0696
       285.8904       322.1604       300.0752       333.5437       315.5317
       347.6847       328.4713       363.3706       343.7810       376.5718
       357.8727       388.6244       366.3818       398.1643       374.2231
       403.0676       383.1887       418.8832       394.9053       420.6472
       397.3163       427.5452       403.2354       429.6106       408.8073
       435.2473       411.4840       440.1708       415.6101       437.8159
       413.1564       437.3982       411.1464       433.9490       406.7527
       432.1200       405.3062       421.8289       395.4052       418.4180
       389.1444       407.4846       381.0283       403.5144       371.3270
       392.2449       360.7217       376.8994       343.8033       362.6346
       328.2781       346.6428       312.4565       329.1959       293.7350
       313.4832       278.7021       292.8829       256.8563       273.4713
       237.3657       251.5192       216.5877       229.7576       193.2270
       206.9878       170.8950       186.0344       152.4492       165.2852
       129.4246       142.7267       109.7230       124.6278       92.54953
       105.7935       69.13049       88.96246       55.15738       68.46005
       38.23775       56.54821       25.26830       39.22323       4.470547
       21.94544      -12.01619      0.1149292      -29.79773      -12.25665
      -47.18155      -32.57829      -62.99164      -49.39709      -82.50279
      -66.37271      -98.08987      -82.75702      -117.5451      -107.4398
      -140.8086      -126.8753      -161.9343      -151.6672      -182.2794
      -172.5487      -208.0919      -196.4442      -228.8463      -217.1248
      -247.5049      -242.9983      -274.3068      -260.4698      -294.6049
      -283.7373      -314.8757      -305.5992      -337.5531      -328.7625
      -358.2732      -348.7928      -380.0039      -370.0840      -400.1920
      -385.0282      -414.1221      -407.3911      -436.6482      -423.3389
      -449.1517      -442.5566      -467.4315      -442.5184      -467.4132
      -478.1270      -496.6001      -457.7939      -476.5385      -513.8657
      -515.1008      -452.1736      -432.1909      -618.6260      -632.3403
       630.9951       3019.383       5683.766       24031.07       25464.35
      -22607.61      -26334.40       1627.740       8730.004       11298.26
      -5569.971       1108.391      -24804.55      -36003.62       16012.70
       4740.221      -4219.492       8291.166       2393.715       14573.89
      -8768.061      -20995.80       15353.70       14773.48       3701.535
      -12743.98      -14046.94       15114.83       917.0430      -16252.33
       6646.203       19251.37      -8093.512      -22066.04       9737.004
       17488.99      -16070.23      -15686.36       14698.29      -4088.385
      -16615.59       11906.71       11930.87       1771.498      -7150.551
      -6709.404       14173.99       2114.195      -13472.56       3181.762
       6792.582       10708.72       13047.90      -4957.781      -14498.67
      -8345.362       1787.063      -1226.546      -2588.230      -4672.360
      -8218.766       4699.936       8504.426       6558.074      -3222.751
      -5813.139       8682.887       8547.995       5159.090      -1337.504
      -13188.61      -3308.055       10278.08      -3773.096      -8190.925
       2724.607       5827.590       11283.79       8474.186      -8032.375
      -12373.27      -8956.113      -6480.648       2445.684      -1401.684
       10155.80       17306.46      -9095.473      -4346.105       13799.31
      -1739.238      -10096.44       6056.172      -2042.875      -15918.82
      -906.0781       5180.816       1655.229       2737.777      -1312.565
       2803.200       4270.712      -54.94824      -2663.282      -3468.586
      -413.3726      -2320.685       248.7471       2933.916       2186.582
       1665.022      -5235.132       1523.404       11637.88      -4762.932
      -8498.656       7429.750       1094.726      -3900.969       913.8516
       4940.841       10347.03      -8367.051      -17526.89       6751.220
       6093.520      -8390.070       2985.582       7566.461      -5557.911
      -7027.428       2989.310       4002.125       3047.575       1376.291
      -2680.376       1154.091      -2153.936      -2044.352       8423.869
       49.03320      -11323.59       1577.805       10081.06      -2548.194
      -710.3496       8095.870       2372.341      -3105.451      -4230.924
      -6719.460      -5072.572       8755.925       4064.684      -13569.94
      -2415.809       14074.87       8374.257      -2955.609      -9395.273
      -6874.817       2278.078       4742.550       1700.595      -3588.067
      -2395.583       1851.947      -3468.935      -1351.194       4597.955
      -680.6890       239.8193       5632.368       299.9819       1246.456
      -3020.340      -9199.090       6093.490       4264.333      -5157.367
       557.5283       482.3398      -2273.787      -6071.899      -4363.122
       1437.557      -475.1963      -1204.608      -880.8330       2455.695
       3920.718       2936.469       10358.64      -366.5869      -9461.287
       2742.925       1640.589      -2141.104       1713.453      -3772.945
      -2985.714       6999.424      -1882.902      -11576.69      -505.8848
       11509.30       5180.912      -7991.143      -2928.598       6497.557
       8385.526       7350.425      -4973.967      -11542.82      -3006.181
       5148.117       6305.042      -888.4580      -3359.201      -1000.379
      -3700.926       156.2373       6934.454      -999.3950      -5509.633
       5422.388       82.50391      -10995.31      -3558.743       5009.814
       8991.170       1012.578      -5319.537      -530.2332      -44.63477
       3716.371       3984.806      -874.3477      -6624.870      -2332.313
       1900.479      -4942.885       2879.527       7512.281      -1729.564
      -7897.488      -5106.577       3222.840       6793.224      -3650.264
      -5250.968       8103.455       2047.662      -337.7617       11194.46
       3673.432      -8742.531      -4942.149       1700.069       5330.459
       314.7520      -9556.147      -3369.325       4014.562       1936.744
       7650.059       5209.176      -11378.80      -11085.20       3287.587
       4116.914      -3188.651       1583.773       9783.400       4256.072
      -6409.620      -3649.212       2754.079       2400.658       1666.820
      -1924.092      -2875.477      -922.5889       4248.638       5466.454
      -2134.486      -2017.169       1994.734      -699.7781      -1447.817
      -506.4424      -4616.250      -3661.340       814.4766       7063.752
       6219.396      -5238.273      -5296.157       1833.050       5572.486
       1539.887      -144.6162       981.3184      -7539.830      -5452.244
       3902.181       3176.674       2164.961       5392.453       1314.252
      -8093.345      -6626.473       1924.787       6426.330       3661.323
      -4001.626      -2941.942       3964.081       3849.846       2767.797
      -6011.156      -13657.53       762.9258       10241.74      -902.8765
      -3398.534       1387.070      -4470.204      -5737.265       538.8746
      -912.6641       2475.290       5971.179      -1779.574      -3140.247
      -3564.169      -5052.211       6447.072       10006.67      -2821.702
      -1143.775       5869.713      -1455.767      -4855.691      -3766.504
       850.5137       5443.387       2813.730       589.0356       919.1982
       5387.262       4441.420      -1861.799      -5417.456      -6690.186
       307.0234       6697.035       4455.544       3360.236      -1648.631
      -5565.147      -5122.364      -4320.399       2603.900       6190.744
       5552.096       447.3252      -1965.780       35.94434      -1256.961
      -116.8574      -1035.017      -3698.949      -1224.328       5288.854
       3987.275      -11226.58      -9987.000       5212.255       2677.541
      -2704.044      -1277.435       988.0273       7762.960       7684.421
      -2964.717      -7394.856       1793.679       3163.698      -4652.701
      -691.3867       5784.829       5891.286       3421.259      -509.6494
      -2284.873      -1659.857      -731.2864      -881.5388      -2007.899
       178.2026       2827.634      -2687.010      -5963.683      -3213.256
       140.4000      -895.9561       1922.304       4645.047      -2133.429
      -445.5215      -623.2588      -817.7051       7467.760       4378.358
       1476.973       1447.086      -3218.178       1776.174       3106.664
      -4001.915       48.59766       7598.997       2165.729      -6924.678
      -2492.431       1306.373       3042.588       7212.835       4620.278
       1891.804      -1770.275      -2657.075       161.3672      -2958.217
      -4921.776       155.2012       3792.259      -2390.805      -6996.746
      -242.7578       9668.346       4716.562      -1579.178       2111.667
      -3140.476      -6145.794      -3463.226       35.96680       3819.046
       341.5186      -1153.361       952.3447       741.0891       119.7822
       2097.413       852.3015      -1162.800      -1165.376      -427.0801
       3967.385       1477.584      -8015.225      -5574.019       3030.709
      -4073.135      -5182.645       6884.073       2263.596      -6617.684
      -487.7090       1256.214      -5398.469      -149.2852       2880.750
       12444.59       21518.77       5463.377      -5351.864      -4998.946
      -1885.394      -1543.904      -6266.697       674.0879       6659.948
      -934.2930      -8734.611      -11081.50      -6080.062       1622.400
       481.3965      -1898.309      -1507.953      -1318.518       3143.740
       8774.090       3169.185      -1450.249       3687.853       2864.632
      -796.9448       345.2715       6078.413       3549.557      -1467.117
       4513.281      -4685.312      -15868.96      -4311.968       1565.594
      -3489.118       489.8730       5568.778       1029.955      -5116.332
      -4820.688       1317.658       7000.392       6220.369       2865.428
       3978.568       3429.010      -1933.280       1958.502       5112.969
      -2010.777      -6778.659      -727.5361       5182.351       1304.732
      -5377.709      -9050.002      -6821.768      -4921.052      -1228.311
       4730.673       5513.877       3182.707      -640.3130       847.9760
       633.1670      -1154.902       1301.685       38.79858      -922.3350
       1093.541       4359.531       3935.120      -1633.522       1604.284
       4029.910      -3739.997      -6087.745      -564.9902      -92.72852
      -4106.746      -9418.841      -8660.620       3942.523       11731.51
       3676.722      -2158.758       6136.232       9525.396       3621.770
       1561.770      -2236.878      -3574.398       2716.539       2438.743
      -3032.129      -1257.540       532.3945      -5107.247      -6409.079
       131.8193       899.5269       473.1343       2146.332       2334.219
       628.4395      -4019.129      -3631.969      -1255.547      -4116.496
      -7964.229      -1759.383       10874.53       8679.436       1376.514
       3691.113       7063.572       2605.598      -3900.521      -1900.485
       1072.688      -3204.113      -7222.611      -5278.944      -3778.800
      -2398.084       2308.607       3513.164       4389.527       10634.53
       13267.79       5382.711       2852.762      -37.96973      -3942.303
       1129.406       6370.188       5114.140       843.5215       3518.100
       5380.756       3609.644       1673.024       747.8896       3208.930
       1766.928       3334.205       1822.584      -6398.410      -4171.755
       1266.255      -723.4922      -2643.953      -2318.865       1976.529
       4323.067       99.74121      -1767.602      -5156.498      -6829.556
      -2935.784      -3494.330      -242.2842       13.46875      -7710.646
      -10574.79      -4913.957       6807.496       11021.60       8886.582
       8544.895       4497.352      -1927.530      -4383.790       1002.080
       2245.480      -3005.849      -3826.230       1375.495       4908.610
       774.5938      -5788.702      -1970.926       10719.15       14697.84
      -351.5625      -13678.75      -5818.977       1174.479      -3666.904
      -422.1545       1923.344      -5302.336      -9341.730      -13029.12
      -37528.88      -86753.88      -131841.9      -147342.5      -148585.5
      -152569.3      -153378.2      -129998.2      -27193.38       150292.9
       307504.4       368421.9       283169.4       106326.0      -22473.22
      -123722.5      -241425.7      -241100.6      -110955.5      -11281.40
       6544.633      -16420.91      -18335.58       13457.64       24773.69
       38835.88       67076.28       66494.50       67702.72       107477.8
       105170.3       24336.83      -53860.72      -110471.7      -125946.2
      -42133.81       69334.25       121511.8       137045.6       127906.8
       89640.23       44999.86      -27868.38      -102423.3      -101661.6
      -80698.17      -73306.54      -40731.71       2918.125       33363.36
       53226.45       87727.25       82097.87       12693.03      -10831.87
       24595.50       40627.03       48935.46       40698.31      -3454.359
      -38071.88      -57086.53      -63472.52      -47409.92      -33684.34
      -32678.30      -15446.36       6498.809      -13075.98      -6628.844
       47003.42       44792.97       8309.799      -2640.875      -15900.12
      -33153.45      -4598.203       28589.80       18724.95       21878.20
       23115.45       2434.605      -16457.55      -28549.09      -29358.21
      -28665.66      -21937.45      -17658.20      -20961.37      -3596.406
       23305.38       37890.99       35678.24       28741.56       6531.900
      -18937.37       13294.36       48094.01       17612.94      -4344.547
       12330.87       12743.14      -25669.25      -54429.30      -23368.41
       15840.75       11958.68      -2606.995      -966.9023      -5049.043
      -25974.35      -4291.266       38181.37       11551.53      -15324.88
       2410.137      -4501.340      -13099.13      -2060.523      -24195.47
      -42745.42       10862.86       57569.05       34423.32       7554.977
       9452.059      -6.527344      -19499.26      -24249.36      -17764.86
       57.27734       11534.96       13058.11       4283.238      -20792.98
      -27243.98      -14251.94      -1148.844       21631.36       28725.91
      -2344.957      -18155.90      -2762.154       7118.316       12822.76
       7621.426      -17605.20      -23942.99      -7483.882      -1337.383
      -2841.020      -6463.498      -4059.680       8013.445       708.1074
      -6762.359       11044.47       17192.48       17382.33       30395.34
       5964.086      -29876.07      -13899.07       4557.280      -2710.794
      -2624.537      -3877.094      -13404.13      -6083.305       9420.270
      -2512.463      -16062.49       4976.586       27081.55       22513.96
       15906.02       13296.86       6769.531       4171.172       7979.174
       9652.156      -700.7109      -11028.48      -13191.32      -13382.65
      -12430.97      -6954.184      -3580.387      -10376.36      -13431.57
      -3060.648       18243.90       18314.74      -5704.750      -11696.20
      -6817.112      -4861.787       3680.629       11069.14       10740.22
      -3288.326      -14387.14       1500.189       11359.02      -7330.021
      -10382.68       8078.518       7912.885      -8897.938      -16140.49
      -17955.17      -10400.77       9811.848       9725.734      -3776.073
      -31.81250       12331.36       12889.31      -618.9629      -5409.325
       609.7637      -703.6211      -8380.941      -3346.492       18826.34
       18308.53      -4154.421      -3222.483       5524.379      -3265.453
      -10693.39      -2080.113       5179.934       8962.977       16902.56
       9365.541      -5446.744      -8470.930      -3261.072       1480.018
      -2194.988      -6631.700      -4258.863      -2952.072      -9384.794
      -7830.040       4279.145       13216.89       16992.68       17238.34
       21842.50       24833.56       2096.734      -22765.95      -20895.79
      -17838.20      -19577.86      -12668.63      -7938.987      -3294.590
       8481.342       11278.12      -216.2461      -2467.131       7351.132
       6818.872       208.9604       1689.866       427.5762      -3458.484
      -5845.793      -10748.30      -12059.99      -9912.875      -11722.44
      -12293.74       2325.570       16402.73       10873.02       14040.07
       19852.43       5900.926       7886.723       17071.93       6759.607
       422.1025      -552.0312       4561.594       13209.79       11081.13
       767.2852      -10125.91      -6055.063       5924.428       3169.717
      -5374.258      -5192.836      -3643.080      -8025.844      -16290.16
      -17476.27      -3263.953       14787.28       14913.44      -2749.795
      -7573.995       2542.004       1772.834      -3134.621       3824.110
       3384.049      -3782.926      -5370.082      -10656.16      -15519.06
      -7807.393       8108.958       6744.934      -10517.80      -19053.36
      -12333.76      -3037.879      -1394.486       1485.742       12159.84
       18256.97       1906.629      -17907.85      -13364.72       150.8574
       2759.857       4853.004       9801.842       6687.252      -2212.824
      -9301.250      -16658.60      -14474.58       5750.250       17721.65
       8606.107      -423.1924       347.4229       3863.342       710.3271
      -2934.279       2761.629       13115.87       19278.92       10382.75
      -1725.416      -5323.033      -8462.201      -8415.182      -4884.217
      -4554.660      -7238.695      -8977.301      -4570.631       2691.023
       268.6133       5034.219       20717.30       17197.25      -2747.480
      -12657.47      -9732.540      -1861.592       8769.648       9401.992
       857.6895      -5314.984      -13849.01      -18112.33      -11178.41
