     0.02500000      -313251.0       228040.5      -12345.00      -12345.00
      -29.99001       223.1850      -22.89000      -12345.00      -12345.00
       0.000000       16.57000      -12345.00      -12345.00      -12345.00
      -12345.00      -12345.00      -12345.00      -12345.00      -12345.00
      -12345.00      -12345.00      -12345.00      -12345.00      -12345.00
      -12345.00      -12345.00      -12345.00      -12345.00      -12345.00
      -12345.00      -31.49900      -66.23830       530.0000       0.000000
      -31.23600      -65.83800       0.000000       167100.0       0.000000
      -12345.00      -12345.00      -12345.00      -12345.00      -12345.00
      -12345.00      -12345.00      -12345.00      -12345.00      -12345.00
       47.96502       232.4550       52.66234      0.4312642      -12345.00
      -12345.00     -0.8113455       0.000000       90.00000      -12345.00
      -12345.00      -12345.00      -12345.00      -12345.00      -12345.00
      -12345.00      -12345.00      -12345.00      -12345.00      -12345.00
      2008       318        11        12        53
       290         6    -12345    -12345     10128
    -12345    -12345    -12345    -12345    -12345
         1         7        13    -12345    -12345
    -12345    -12345    -12345    -12345    -12345
    -12345    -12345    -12345    -12345    -12345
    -12345    -12345    -12345    -12345    -12345
         1         1         1         1         1
ABRA    -12345          
        -12345  -12345  
-12345  -12345  -12345  
-12345  -12345  -12345  
-12345  -12345  -12345  
-12345  -12345  -12345  
-12345  -12345  BHN     
ZL      -12345  -12345  
[...]
       145.5742       194.3529       158.7462       208.6353       170.8878
       217.4395       181.9815       230.4968       196.9325       243.6978
       205.8776       251.8088       213.7500       259.5349       224.5710
       267.5897       230.2399       275.7441       238.7302       280.1169
       241.8314       286.7987       246.0203       288.8666       251.9884
       290.2061       249.0045       291.9596       250.7797       291.6355
       252.3820       293.8011       253.2502       295.3671       252.4848
       294.3364       253.1190       296.7932       252.4122       292.0057
       251.5371       293.6021       249.0665       287.0262       242.8979
       284.2355       239.3641       281.5935       238.2647       268.3321
       220.5295       261.8472       213.9877       246.8395       197.8745
       232.1699       183.9963       215.6191       164.4709       198.3776
       144.9804       173.5381       121.6037       152.8744       97.51019
       126.2657       73.81592       103.6638       48.25391       74.49667
       16.40307       42.91209      -12.46313       13.65822      -45.10848
      -21.35663      -78.96121      -53.69934      -109.6135      -83.69662
      -141.7601      -116.7553      -174.3740      -145.5453      -201.9881
      -178.5270      -234.2150      -207.4289      -265.7188      -240.0844
      -294.8271      -269.9103      -326.5894      -302.2869      -357.4213
      -330.3685      -387.6028      -360.5676      -417.7213      -393.2001
      -448.7570      -422.3525      -476.0292      -451.0955      -509.5610
      -481.5249      -534.8376      -507.9637      -564.0017      -536.7388
      -591.5359      -559.5032      -613.0623      -583.6416      -632.1548
      -599.6034      -648.6277      -616.6948      -667.2157      -631.6238
      -677.1420      -641.1406      -687.4568      -650.0150      -693.4270
      -654.3373      -697.9446      -653.8754      -695.2874      -650.7664
      -689.6058      -642.5110      -681.5251      -633.8009      -672.7644
      -622.9150      -658.4973      -608.4275      -642.0229      -585.7913
      -621.7037      -570.5646      -600.9834      -541.7014      -573.2113
      -520.7937      -548.3987      -491.4315      -523.1738      -466.3630
      -493.2493      -435.7263      -462.3274      -403.8567      -423.4592
      -362.6525      -390.3407      -338.4275      -355.1942      -292.5544
      -318.8758      -267.2723      -272.9427      -213.9807      -244.8520
      -205.1160      -201.8145      -128.6781      -148.4569      -201.0972
       382.9434       2251.529       4218.291       6206.717       12520.48
       62.12891      -16614.55      -761.3848      -2077.953      -15133.76
      -4408.141       12956.71       18747.53       4456.908      -5504.770
      -14032.03      -4799.098       14206.82       6756.951       4836.486
      -7530.066      -15464.16      -5525.009      -8068.152       15347.95
       35039.76      -5038.391      -30443.16      -12878.50       5498.736
       10821.18      -3714.950      -6253.807       6794.822       4466.669
       1431.645       9898.502       1591.615      -11218.67      -9892.664
       2334.500       14979.51       6593.379       3037.792       4729.419
      -4752.686      -7902.973      -1395.167      -2660.458      -6187.490
       491.6631       4681.311      -7016.468      -12718.58       9778.324
       17952.54       7336.720      -1106.191      -13160.96       2080.805
       12551.62      -6849.033      -10981.33      -1224.512       4141.921
       3419.902       2892.345       1308.156      -439.1763       1071.770
       3030.530       3926.205       512.7339       480.3887      -2556.457
      -11594.01      -6188.126       5326.210       2692.727       2008.454
       3229.106       4670.626       2131.653      -4570.199      -1850.525
      -3043.844      -398.9863       9911.146       7720.336      -4404.305
      -15790.21      -8780.577       6898.736       7961.554       1843.462
      -757.7754       5860.977       8672.863      -1701.932      -7116.156
      -4933.377       436.5068       3157.290       2971.375       2434.679
      -5275.778      -5003.866      -849.6260      -319.3516       7580.156
       1937.964      -6477.136       181.5137       3873.000       2534.132
      -2082.152      -6396.992      -61.25195       8915.956       8562.227
      -1191.822      -11451.35      -7311.334       7002.090       9251.879
      -475.8105      -5239.965      -572.2852      -1033.714      -3172.446
       1843.925       5204.432      -482.1738      -3530.663      -1745.099
      -2637.557      -1979.472       4261.034       9611.920      -3335.854
      -10895.55       2079.996       9317.852       2609.555      -6197.256
      -2265.237       5973.372       3149.993      -2696.565      -2839.576
      -2048.292       1614.958       661.5527      -5732.802      -2069.356
       6093.048       3876.792      -2379.972      -3716.673      -2830.788
       214.0273       3587.935      -231.3071      -3155.948       555.0967
       4339.473      -1831.421      -5442.333       2196.285       5117.270
      -513.2891      -9617.879      -6919.994       8904.408       7190.133
      -6820.590      -9002.303      -882.9473       10297.82       6042.834
      -2556.604      -2238.769       2109.913       2972.223      -9193.458
      -6446.097       6072.356       2399.996       347.9922       5308.228
       542.9219      -4805.921       769.4207      -448.1560      -3178.033
       4533.243       3088.105      -5239.294       1199.363       7542.534
      -3447.464      -5400.458      -1417.792       2577.428       5909.876
      -1595.076      -3226.749      -3687.444      -7597.803       159.4263
       5470.981      -3531.831      -582.8359       10313.58       4817.630
      -2209.117      -6156.322      -7149.188      -5835.844      -1169.484
       8100.660       3155.453      -7761.499       410.0215       10125.94
       1545.038      -3331.676       3786.273       529.9668      -7984.912
      -5765.251       3925.310       5341.728      -4235.493      -3971.725
       2549.123      -1487.694      -1808.684       7822.304       4730.640
      -6056.789      -5875.638      -666.4121      -250.1382      -203.5684
       6918.100       2031.717      -7798.152      -1170.680       764.4961
      -4781.418       2508.916       6753.428      -3112.381      -3094.197
       8728.624       7381.496      -6716.867      -9518.191       1640.229
       4662.483      -3139.463      -6496.049       782.6641       4639.277
      -124.3721      -50.42236       4692.417      -1864.375      -7957.182
      -1175.062       3052.109       3106.797       1049.916      -207.7488
       866.5938      -1761.953      -1954.499       294.6633      -1515.570
       76.00098       5240.755       3458.828      -3125.219      -7939.589
      -4307.785       5101.459       9700.439       3826.859      -3527.216
      -5739.036      -2695.009       2818.891       5984.561       1657.038
      -6829.979      -261.8223       8348.232       282.0986      -6409.376
      -1346.129       5094.724       2104.031      -3762.613      -2423.932
       4979.279       4002.925      -3341.021      -7101.061      -6845.602
       4478.406       11691.54       2888.211      -4592.632      -1921.447
      -226.3984       1336.057       7929.249       2668.987      -5357.109
      -4063.698       1432.466       2053.396      -3265.196      -2134.497
       1732.716       1383.560      -1504.236      -1105.318       429.5757
      -886.7480      -3045.567      -1987.527       213.6138      -191.6913
       674.9441       240.9414       2992.382       3106.536      -1132.382
      -584.3560      -1318.532      -1426.120       4625.046       3718.903
      -342.9062       4926.582       2682.600      -2224.364       514.6196
       646.0461       1851.486      -251.8945      -7249.506      -5311.485
       5653.765       3709.876      -2378.234       2284.183       2538.276
       232.0693      -503.9083      -783.8931       1213.232       30.42041
      -3201.390      -316.7620       1770.648      -2458.800      -817.1729
       956.4540       914.7910      -716.1055      -6780.315      -4511.758
       4040.803       713.2529      -4336.148       7049.203       8328.905
      -5420.477      -4349.869       4261.393       4033.236       2274.430
       1588.833      -3741.443      -2924.107      -1257.375      -4410.257
       2233.660       4916.462      -982.2925       10.54004       3729.552
       5847.849      -1259.483      -4245.042       2210.861      -926.5669
      -3666.848      -691.7044      -550.1182       340.5469       1378.503
       2666.104       3581.744      -3334.494       254.3252       7932.036
      -276.6484      -7338.688      -5391.639       3422.641       3524.663
      -6257.097      -4059.377       2900.542       3625.570       2742.916
      -2161.653      -1839.056       3147.606       1010.561      -3805.022
      -1411.683       3862.678       5110.222       4136.384      -954.5381
      -5745.733      -533.9956       6017.395      -4350.619      -9965.582
       1687.179       4257.848       1747.595       4024.427       5613.905
       2501.338      -7699.693      -7739.083       3170.688       2967.896
      -6127.080      -10965.19      -883.6084       4141.987       807.9336
       6040.654       3049.711      -2706.992       467.0462      -492.2662
      -10.41699       699.3506      -4406.009      -913.1309       4219.569
       2801.717      -764.4204       529.9521       5016.209      -437.0020
      -5111.722      -2203.481      -5082.897      -3225.591       4769.138
      -416.8062      -623.6528       2694.317      -4822.675      -2190.252
       5279.626       3691.532       1341.688       2746.846       55.20508
      -7044.555      -6164.176      -945.8398      -1641.571      -557.5977
       9308.918       9801.456      -1486.770      -3587.415       2786.107
       1967.395      -2984.429      -2497.097      -3999.100      -1429.028
       6737.377       3727.988       2218.254       5486.355      -4373.939
      -9215.754       2843.829       4697.018       1122.570       4566.236
      -2165.514      -8847.047      -1263.187       2748.389      -2368.918
      -3044.726       2986.836       5533.918       4077.480       2306.839
       319.1914       4517.334       6175.937      -2380.525      -7937.777
      -1191.850       4778.163      -131.0332      -4724.551      -6164.460
      -6501.197       1626.981       5375.712      -854.0576       3104.244
       7286.464       1776.252      -5701.307      -8022.348       1976.941
       4567.840      -305.5547       6568.504       8323.785      -178.9585
      -3400.824      -1099.952      -445.7573      -1510.653       79.03235
       239.2061       332.5137       2678.865       6741.887       6025.713
      -3081.884      -5377.757      -2706.951       2226.895       4865.957
       3169.631       4546.258      -3780.369      -9502.232      -2007.764
       3902.652       3906.740      -3451.773      -8807.886      -1937.836
       6408.555       5156.842      -3560.443      -10409.38      -4600.255
       3279.717       3965.764       8716.639       5805.674      -4105.646
      -4129.757      -494.6047       1525.194      -53.20996      -1710.891
       113.6240      -2883.748      -6734.249      -2079.425       2839.512
       2309.252      -1820.777       4095.570       16337.46       13136.73
       4008.835      -3821.984      -6444.823      -4913.715      -5552.841
      -3328.582      -9001.227      -13337.05       284.8770       12016.51
       8286.007       4458.488       3862.463      -5760.866      -4142.217
       7235.802       1595.121      -2487.508       6203.062       6536.763
      -3071.491      -4113.170       2110.472       312.6211      -3610.951
      -5133.772      -1539.189       6195.406       12712.65       14398.86
       3546.703      -7486.691      -8599.840      -7203.172      -4559.782
       34.71289       4723.716       6291.381      -2867.141      -7440.141
       4786.400       8857.602       1612.861      -6181.411      -8091.400
       1703.008       6292.349       2821.057       2502.668      -3195.645
      -6947.516      -223.4814       5780.363       887.8682      -6270.806
      -240.1006       6563.487       3148.105      -4141.186      -7590.100
      -1054.457       2979.199      -335.2324       1345.576       3242.222
       42.13770       2384.879       2372.106      -906.3535       5269.845
       3554.012      -11853.18      -14869.21      -5241.374      -282.0098
       6116.535       18628.41       26812.16       15982.44      -45616.94
      -155221.8      -261868.6      -313251.0      -250925.2      -55622.19
       157105.6       192701.3       6683.562      -187688.9      -179814.7
      -13318.94       128493.6       171987.0       196946.8       228040.5
       192703.3       94126.83       3181.153      -13047.11       17057.37
       3512.064      -17451.11       9532.203       51791.56       89095.55
       95226.20       58404.50       10209.44      -44564.16      -89544.05
      -95063.45      -63125.42      -12946.53       36611.47       62639.54
       15155.08      -72159.84      -106111.5      -60159.33       22293.27
       66639.17       42674.33      -5173.988      -20445.57      -16863.95
      -10421.61      -410.9961      -13484.28      -20401.00       15070.23
       44198.14       13737.34      -28978.38      -19249.95      -5012.828
      -40556.52      -55318.79       3809.336       48909.21       17218.83
       708.3906       38945.36       44442.36       23770.52       48685.39
       61258.88       14958.69      -1419.954       6462.988      -5818.891
      -14141.54      -24467.57       1207.750       35779.68      -823.3281
      -58187.50      -59564.89      -32052.42      -20809.87      -21709.58
      -45050.62      -46758.46      -4993.936       2570.605       600.7969
       48144.50       73871.23       35377.55       10929.72       19072.42
       11072.90      -21804.62      -61300.00      -66569.73      -29686.77
      -11087.13       11737.01       33254.90      -8861.662      -17699.55
       18100.91      -709.1602      -24550.15      -3741.516       17537.28
       28677.28       35872.50       23112.17       15366.61       38241.67
       55867.14       42022.88       12533.24      -21344.92      -20101.77
      -3647.875      -41414.83      -62825.99      -22659.67       15478.90
       37768.16       31071.65       2972.352      -4649.484       4824.895
       3215.633      -15192.37      -26654.76      -15143.67       6332.816
       8461.664      -16949.66      -34254.92      -27782.14      -10566.30
       8621.551       16348.41       11670.26       10722.18       11681.92
       2587.630      -3958.267       2277.185       3499.269      -470.1816
      -3675.798      -4944.428       10767.36       12353.45      -11287.75
      -20463.14      -11791.66       7266.250       19515.91       19624.43
       10589.36      -8893.381      -10097.27       1836.750      -12709.52
      -28780.40      -7813.020       24607.89       22543.63       7796.467
       9861.425       5973.408      -1310.945       12021.98       29145.08
       16722.63      -5721.277      -9264.311      -1698.863      -2593.594
      -20647.12      -26182.78      -13999.32      -8695.987      -6958.877
       3824.512       19203.96       18149.26       1678.996      -8643.723
      -12031.40      -13837.52      -6576.610      -637.6543      -5990.734
      -10566.34      -8296.229      -614.6367       6886.602       19701.70
       25949.19       15505.24       4825.713      -5473.352      -13312.98
      -6537.473      -22.79639       1761.921       2350.414      -8522.180
      -12753.04      -1792.969       9245.141       17276.06       9588.816
      -12935.46      -18690.60      -2190.242       11276.49       11842.76
       8879.080       9138.713      -578.5078      -14387.38      -9521.532
       2578.145      -4083.570      -16191.68      -4162.461       8610.644
      -3238.918      -17949.77      -13594.10       6973.590       20595.81
       14701.39      -1554.578      -10270.52      -5048.506       5950.500
       10925.72       12741.05       9214.432       4945.313       3017.973
      -9192.033      -13254.23      -5775.113       4379.344       15619.74
       7203.223      -11819.95      -16577.77      -10647.07      -5508.409
      -2982.816       3785.209       11969.04       3505.457      -15612.85
      -26848.89      -19380.59      -606.1855       6468.654       7530.086
       15759.68       18725.45       9730.191       7242.463       11488.31
       1245.455       1906.887       17762.35       5811.258      -14002.61
      -7160.462       3866.785       701.9688      -9767.656      -13912.88
      -11937.70      -3151.375       14743.45       18634.86       2235.361
      -9423.907      -5579.137       1779.422       1866.500      -2883.156
      -11891.36      -18174.63      -10966.17      -5414.318      -9486.156
      -946.3164       11907.11       8401.711       8867.703       15742.04
       11284.68       7681.360       6852.241       1780.105      -1632.625
       4055.436       10591.51       1872.229      -8252.002      -4169.984
      -5338.281      -15505.44      -12416.12       8119.328       20116.10
       9945.530       576.9510       973.0215      -2969.551      -13356.39
      -14215.28       2086.666       10435.07       4358.130       3565.450
       626.6816      -6253.986      -8958.484      -11108.49      -10579.74
      -6027.709       4260.569       6743.734      -6020.320      -15042.14
      -11663.59      -1874.846       6902.147       6870.422      -6536.973
      -12492.20       2649.162       2823.598      -13201.68      -14748.51
      -3368.941       8899.812       12592.26       8247.482       2573.405
       1482.314       6543.062       10310.88       6876.415       2130.518
       6879.133       14230.60       14125.04       7354.682       950.9165
      -1243.932      -742.0684      -2259.420      -8438.309      -12157.14
      -12466.64      -12358.01      -11149.86      -2164.887       12695.62
