     0.02500000      -61526.45       56032.23      -12345.00      -12345.00
      -29.98998       250.2850      -49.29000      -12345.00      -12345.00
       0.000000       37.05000      -12345.00      -12345.00      -12345.00
      -12345.00      -12345.00      -12345.00      -12345.00      -12345.00
      -12345.00      -12345.00      -12345.00      -12345.00      -12345.00
      -12345.00      -12345.00      -12345.00      -12345.00      -12345.00
      -12345.00      -30.40760      -69.24540       1968.000       0.000000
      -31.23600      -65.83800       0.000000       167100.0       0.000000
      -12345.00      -12345.00      -12345.00      -12345.00      -12345.00
      -12345.00      -12345.00      -12345.00      -12345.00      -12345.00
       338.6974       284.8592       106.5968       3.045224      -12345.00
      -12345.00      0.3138788       90.00000       90.00000      -12345.00
      -12345.00      -12345.00      -12345.00      -12345.00      -12345.00
      -12345.00      -12345.00      -12345.00      -12345.00      -12345.00
      2008       318        11        13        19
       690         6    -12345    -12345     11212
    -12345    -12345    -12345    -12345    -12345
         1         7        13    -12345    -12345
    -12345    -12345    -12345    -12345    -12345
    -12345    -12345    -12345    -12345    -12345
    -12345    -12345    -12345    -12345    -12345
         1         1         1         1         1
ARRO    -12345          
        -12345  -12345  
-12345  -12345  -12345  
-12345  -12345  -12345  
-12345  -12345  -12345  
-12345  -12345  -12345  
-12345  -12345  BHE     
ZL      -12345  -12345  
[...]
       7326.865       8690.250       4540.748      -3295.814      -5404.371
      -1311.780      -551.7695      -3592.896      -1889.459       1228.849
      -1393.133      -3526.954      -1559.098      -512.0743       125.5004
       665.5225      -1116.538      -2336.440      -799.2058       235.2310
      -666.1919      -1520.843      -2089.824      -1636.375       1085.364
       2402.022       1734.006       1867.078       1680.843       1644.533
       2667.027       2179.856       740.4783       306.1439       749.9827
      -330.4072      -2986.735      -3110.722      -616.0980       49.52466
      -1399.441      -1041.642       2284.072       4247.273       2333.085
      -789.6221      -2229.593      -1700.384      -92.83936       1781.848
       1763.327      -1644.012      -3238.755      -947.5557      -20.84863
      -2286.794      -4095.564      -3905.194      -3653.116      -3582.801
      -1337.824       1816.787       1169.737      -2157.692      -3599.589
      -3058.668      -2456.699      -2689.730      -1818.663       294.0085
       143.9316      -3079.668      -5453.136      -4638.405      -2369.820
      -1354.887      -2104.042      -2668.054      -1274.292       822.8584
       1682.137      -22.77344      -3848.532      -5053.688      -3192.740
      -2920.671      -3020.844      -962.0244       1103.670       918.2119
       503.1385       817.3585       93.38525      -618.0378      -669.5933
      -1650.172      -940.1367       1701.565       1508.030      -2183.093
      -2754.902       1184.786       1852.513      -914.8601      -520.8677
       1784.863       1205.461      -1617.534      -4459.047      -5432.621
      -2644.282       226.0117      -1404.912      -5936.164      -8567.916
      -7364.139      -3064.047       1041.907       1680.996       550.0776
      -122.5830      -1462.509      -2757.486      -2596.023      -1638.871
       362.2529       2571.465       1630.750      -1782.268      -3701.541
      -2896.147      -1340.520      -1482.623      -3535.655      -4334.820
      -3925.339      -2875.446       737.2930       3395.063       2004.070
       2304.537       4798.256       2995.689      -1400.983      -2125.391
       65.43835       843.0059      -239.0571      -1985.902      -4114.156
      -2899.394       2097.699       4227.870       2939.804       2778.719
       2003.303      -1695.607      -5205.199      -5473.797      -4268.563
      -3054.959      -1913.698      -2336.733      -2282.988       482.9548
       1405.928       105.5965      -265.2551      -473.0859      -1424.550
      -3172.437      -4165.428      -3399.805      -2065.339      -766.7451
      -982.2568      -2553.333      -2141.078       1724.072       5886.837
       6147.487       2798.567       1599.654       3359.021       4097.600
       3349.277       1655.460      -730.6608      -836.6118       1401.723
       1433.204       216.7466       827.3442       868.5518       658.2368
       1652.948       1576.379       501.6328       1605.792       2463.823
       56.76343      -1469.192      -318.0225       27.53528      -328.0674
       922.1719       5263.715       8458.928       3301.765      -3649.395
      -1477.278       4735.115       4393.447       270.6035       766.9395
       3261.455       3089.062       1672.959       1383.802      -42.29883
      -3027.644      -2309.787       1695.336       3987.075       2789.036
       127.0967      -1387.168      -1863.960      -1456.551      -59.67383
       1408.214       2523.891       2987.720       2014.189       2745.573
       5022.999       3227.572      -1187.373      -1734.506       503.4907
       682.7930      -1433.321      -3389.356      -3257.226      -1241.336
       579.1683       653.3566      -164.1453      -458.4023       590.9072
       3243.313       3413.081       278.7678      -865.9641       389.0879
      -25.87598      -2139.485      -2785.057      -2371.542      -2574.402
      -1357.079       950.8582       285.1438      -1655.734       176.3164
       3222.451       3720.029       3590.542       3761.300       1642.548
      -1515.317      -1914.670      -165.9556       1114.359       1295.693
       362.4361      -41.04083       441.7324      -720.3965      -2937.786
      -3422.942      -2642.854      -2433.523      -4007.043      -5724.563
      -3655.002       327.8174       2072.412       2382.161       2192.578
       2335.780       1675.451      -926.1871      -1364.330       1152.470
       1941.676       1620.154       3575.669       4297.107       441.3809
      -3267.852      -2895.500      -1148.529      -976.8545      -1887.732
      -1387.538       2092.787       4445.389       3568.569       2276.981
       1363.338      -594.6946      -2184.296       394.3701       3672.090
       2454.224       103.5127      -1488.838      -4511.931      -5822.218
      -3571.946      -1257.140       301.0557       960.3035       1200.923
       679.0479      -1367.725      -1414.117       1309.089       2875.116
       1920.426       1492.387       3282.112       4758.608       3747.833
       379.1895      -2594.668      -3013.064      -227.1875       4210.522
       5095.419       1713.541      -1060.544      -1799.494      -328.8042
       1381.821       124.4131      -47.71387       2303.587       2288.842
       720.2363       1113.948       2305.468       2395.879       1466.120
       73.84766      -1315.103      -2002.642       266.0171       3011.575
       1864.620       8.136719       1223.414       3430.031       4067.604
       3110.902       1301.370      -1096.938      -1340.670       833.2815
       604.1892      -1131.570      -984.8580      -691.8101      -145.4655
       805.4579       305.5603       414.1094       1747.596       1830.596
       1290.738       1006.690       591.3979       426.7393      -541.1602
      -2846.456      -2596.340       805.4873       1770.316      -2122.237
      -4582.308      -1513.698       27.22070      -3090.386      -4144.165
      -1260.924       1156.899       1457.432       1606.601       2195.572
       3084.601       4597.277       3944.673      -1090.977      -5772.675
      -3963.355       336.7803      -913.8457      -5542.473      -6080.437
      -2379.940      -1168.256      -2354.713      -3024.205      -5340.464
      -6038.227      -1614.608       2576.245       3063.548       1581.077
      -82.45703       1099.684       2259.358       285.7908      -869.4385
      -2070.812      -3301.273      -1969.859      -200.8755      -791.8477
      -3040.586      -4526.314      -5461.960      -4883.671      -2524.929
      -1017.977      -518.8760      -1078.726      -1763.740      -914.7595
      -385.6914      -1940.788      -3214.223      -2400.138       132.3104
       1121.581      -759.9443      -1794.922      -2739.842      -5134.572
      -6063.575      -3947.758      -1039.465       119.3931      -247.3250
       73.16553       2037.744       3379.315       2933.365       1382.265
      -730.9731      -2389.700      -2237.190      -1064.149      -660.3088
      -1033.503      -569.7793       816.3842       840.1650      -424.2334
      -1344.748      -1296.554       339.4146       1741.130       1317.514
       1472.031       4067.998       6428.486       5863.940       2791.457
      -1677.854      -4410.709      -3155.540      -951.4090      -363.6423
      -47.86694       1136.092       842.7400       23.63574       2687.999
       5314.822       2931.524      -1443.509      -3522.354      -2397.439
       1089.437       2536.263       1896.373       3328.653       3385.564
       1316.161       1190.021       835.1982       24.29199       2529.678
       4890.422       3624.189       1775.059       256.9165      -935.2651
      -1225.494      -1154.365       528.6289       2897.645       3998.555
       4701.245       5068.045       4234.526       3059.139       1653.863
       1551.490       3489.816       3260.991       644.4053      -1370.322
      -1684.583      -644.5756      -453.6888       7.679199       1626.006
       1642.911       594.8921       793.4980       2274.959       3209.126
       2914.506       1956.593       473.7612       577.2124       1951.103
       1921.958       1613.104       1758.773       496.1709      -869.8604
      -725.5366      -1608.817      -2716.860      -1436.317      -438.0588
      -191.7904      -84.77161      -78.73413       1292.115       990.3007
      -707.8252       1234.773       4109.738       1909.281      -2019.969
      -2181.227      -958.6348      -1166.375      -2579.340      -3712.098
      -2368.108       21.05469      -1235.230      -5438.143      -6178.113
      -2765.106      -802.0381      -1689.908      -2483.764      -1744.833
       1023.199       4032.625       2470.275      -2891.500      -5683.326
      -4640.186      -4534.961      -5990.125      -4556.075      -815.4551
       746.4648       834.5913       1960.500       2756.308       1551.389
      -864.6431      -1946.062      -207.6635       1296.718      -1533.668
      -5723.926      -6584.021      -4768.572      -716.4141       3063.368
       2912.722       1778.182       1058.389      -886.6426      -1319.174
       453.6501       319.6191      -2788.413      -4458.652      -2556.648
       422.7939       2207.379       857.0654      -2239.510      -2818.479
      -2013.923      -2526.389      -3016.839      -959.7969       3517.295
       5655.960       2312.383      -2437.928      -3055.183      -1463.242
      -1944.599      -2434.324      -1270.745      -1220.133      -2259.999
      -99.65820       2838.956       673.4551      -3219.673      -2646.483
       2720.794       5961.210       2042.820      -2506.287      -2029.150
       137.0562       239.0735       132.1074       2579.786       3508.072
      -584.6362      -3064.085       579.4121       3297.721       1546.755
       636.2939       1562.186      -110.1687      -1589.250       1671.227
       5022.426       5130.042       3478.778       2131.687       1951.658
       1998.685       2954.535       3952.900       3066.535       3084.166
       4820.502       4803.170       2638.948       1185.131       258.9434
      -2211.304      -3909.956      -2038.559       1628.540       2980.205
       1880.543       2582.405       4470.145       4558.841       4477.775
       3668.465       2262.883       3220.721       4354.824       4384.312
       3320.477      -276.8281      -3560.003      -3505.972      -2343.866
      -2050.051      -1302.682      -411.6646      -804.5688      -1852.360
      -183.5137       3562.382       2574.817      -2546.647      -3100.205
       1623.513       4507.600       3727.076       1925.568       2021.566
       3427.329       2066.901      -627.4150      -2298.246      -3666.932
      -3808.492      -3616.470      -4252.498      -3779.210      -2263.116
      -1311.054      -582.9867       78.61133       1037.945       2286.055
       2515.043       1235.163      -133.2030       37.23047       1261.365
       1734.091       329.0381      -1375.645      -3396.942      -4754.743
      -2059.486       602.6914      -1513.551      -3873.862      -2253.421
      -678.9316      -2095.911      -4543.927      -5111.724      -2769.838
      -1262.740      -336.8922       1081.175      -1004.778      -3559.521
      -2717.091      -2051.367      -3121.538      -4066.616      -2791.783
      -254.2435      -11.71387      -1715.145      -2306.932      -1780.070
      -2827.721      -5821.141      -5860.160      -1576.665       1636.937
       1697.250       525.0225       1406.581       4418.214       3433.454
      -1382.307      -3262.931      -2917.705      -2440.425      -1346.261
       407.4807       775.5137      -2620.779      -4799.395      -4438.695
      -3795.525      -1426.507      -266.7861      -944.2123      -36.14038
       1456.124       224.9561      -2650.933      -1948.888       1737.371
       2235.475      -1558.643      -4892.043      -6891.125      -9670.875
      -11484.92      -13124.97      -16007.11      -20043.61      -24930.62
      -24437.66      -18027.96      -12546.33      -7509.728      -1717.884
       485.4819       970.6719       5849.566       15877.39       29795.14
       44090.89       51738.87       46209.59       30720.79       13476.80
      -241.2539      -9232.676      -16959.79      -21053.98      -14895.53
      -856.4434       7761.837       2105.332      -10391.20      -17768.39
      -18272.10      -18211.53      -19024.90      -15550.63      -6220.477
       6574.488       15964.22       16277.43       12716.71       12578.99
       17578.33       26436.92       35700.00       42890.03       47849.97
       43390.71       26840.22       8868.956       504.5820       1106.863
      -3015.117      -23378.84      -51285.62      -61526.45      -47176.97
      -30954.70      -29538.15      -35439.94      -38659.30      -38531.13
      -35980.17      -31188.45      -15956.74       16574.16       48408.22
       56032.23       44897.45       37137.25       41646.67       48879.13
       43698.15       33599.29       33194.31       25734.45      -504.7500
      -24408.71      -29157.35      -18297.69      -3614.279      -682.5859
      -16019.59      -40071.86      -58208.75      -60767.56      -40105.95
       1961.820       38911.09       42884.64       19872.86       1545.273
       2954.107       7791.562       8942.781       18589.30       32976.30
       35998.36       25845.83       13394.00       5410.360       861.1523
      -7113.547      -23725.95      -35416.75      -27506.34      -5156.906
       13655.36       12889.25       3566.008       8765.820       18776.90
       10015.55      -15398.51      -30013.78      -22459.04      -18493.89
      -32974.05      -42588.00      -26708.53       3519.062       27142.64
       32735.58       28130.33       22855.42       12138.17       3930.480
       5867.848       8458.322       6670.070       6013.763       6611.029
       468.2734      -12441.76      -24821.58      -25987.41      -9578.363
       7123.215       12423.97       17594.44       15996.45      -2362.102
      -19115.67      -28791.35      -34699.62      -21179.80       1169.791
       5288.094       4154.045       10588.42       8184.143      -3850.422
      -11740.48      -9306.596       1058.736       9266.305       12260.16
       20635.95       32473.58       31106.82       24148.89       25447.59
       21992.15       1221.480      -16291.94      -10684.87      -1903.172
      -7963.727      -17538.30      -21166.48      -21788.63      -16145.88
      -2462.443       2329.211      -7984.268      -11267.07      -2064.355
      -4419.359      -15661.41      -10122.29       3247.697      -1716.625
      -16012.89      -12203.25       5419.916       9743.507       515.6133
      -2546.578      -3.963867       720.3164       7346.758       11746.44
      -3157.855      -20363.16      -16245.56       1429.266       19070.21
       31514.29       30171.66       17963.26       8512.029       2414.050
      -3909.221      -2903.250       12022.23       29139.75       28208.56
       11501.03      -515.6191      -8045.477      -13179.30      -6724.576
       1160.183       58.72852      -2835.202      -2664.896      -469.5483
       1420.607      -1786.270      -6626.970      -4598.588       691.5771
       284.4668      -6260.562      -6436.434       2213.067       3085.974
      -4094.664      -5424.797      -9831.891      -25045.72      -32890.65
      -25405.75      -11841.43       2073.977       11164.75       11902.87
       9018.449       8688.758       13575.93       19823.69       19355.59
       14825.23       6629.262      -8551.766      -22134.09      -23404.95
      -12847.53      -4799.809      -3980.562      -675.8389       1756.598
      -5116.766      -15134.95      -16958.42      -10871.29      -7647.154
      -10056.92      -2305.461       15417.61       18465.57       8406.213
       6065.736       8538.855       8856.888       7306.641       264.8525
      -4687.309      -6573.750      -13493.76      -13120.69      -1532.714
       3827.160      -2158.738      -9285.926      -12160.64      -10613.55
      -4032.005       2987.049       5278.445      -318.9922      -11371.65
      -11047.94       2567.297       10274.42       5960.227       1787.662
       6663.992       13035.24       12008.25       8138.256       8032.268
       8988.914       8431.961       8580.333       7202.280       1938.766
      -3062.006      -681.2637       7228.877       8355.646       1615.227
      -2063.708      -1468.171      -1741.019      -1833.240      -276.1746
       552.8193      -37.95508      -1794.211      -4487.703      -8253.062
      -14441.05      -18385.74      -10477.66       2979.801       3980.252
      -6400.943      -8389.830       3802.648       14188.01       12313.07
       7362.378       6195.107      -641.5391      -15985.47      -26607.48
      -24237.46      -13940.69      -6891.531      -10400.27      -18724.19
      -17381.58      -2500.172       11754.62       11726.00       3094.375
      -1249.722      -173.1367       4780.926       12084.77       15397.71
       15122.00       12123.16       9343.645       11822.92       11775.97
       8048.059       7306.028       5045.322      -1201.570      -10006.38
      -18008.05      -17928.12      -11386.92      -6892.539      -3668.840
       4023.754       9383.258       7602.602       7093.561       8826.125
       7183.982       3721.574       2986.105       6370.160       8628.742
       4289.487      -1743.682      -5297.355      -7965.531      -5227.752
       3158.000       7065.762       3441.027      -60.55664       2132.199
       6114.511       7044.546       1487.564      -6878.012      -7972.717
      -3111.231      -1476.727      -2790.628      -1759.332       1880.527
       4916.033       3641.247       1112.827       538.4225      -147.4363
      -1192.777       867.8574       7234.426       7960.739       2767.369
       4062.711       7633.986       6921.587       4482.349      -781.8086
      -5608.268      -6039.135      -7964.453      -12977.26      -9115.945
       6244.414       18064.77       17625.93       10358.97       1730.301
      -2842.557       2111.734       6398.224      -598.3506      -6147.737
