     0.02500000      -40835.76       42337.88      -12345.00      -12345.00
      -29.98998       250.2850      -49.29000      -12345.00      -12345.00
       0.000000       37.05000      -12345.00      -12345.00      -12345.00
      -12345.00      -12345.00      -12345.00      -12345.00      -12345.00
      -12345.00      -12345.00      -12345.00      -12345.00      -12345.00
      -12345.00      -12345.00      -12345.00      -12345.00      -12345.00
      -12345.00      -30.40760      -69.24540       1968.000       0.000000
      -31.23600      -65.83800       0.000000       167100.0       0.000000
      -12345.00      -12345.00      -12345.00      -12345.00      -12345.00
      -12345.00      -12345.00      -12345.00      -12345.00      -12345.00
       338.6974       284.8592       106.5968       3.045224      -12345.00
      -12345.00    0.002710909       0.000000       0.000000      -12345.00
      -12345.00      -12345.00      -12345.00      -12345.00      -12345.00
      -12345.00      -12345.00      -12345.00      -12345.00      -12345.00
      2008       318        11        13        19
       690         6    -12345    -12345     11212
    -12345    -12345    -12345    -12345    -12345
         1         7        13    -12345    -12345
    -12345    -12345    -12345    -12345    -12345
    -12345    -12345    -12345    -12345    -12345
    -12345    -12345    -12345    -12345    -12345
         1         1         1         1         1
ARRO    -12345          
        -12345  -12345  
-12345  -12345  -12345  
-12345  -12345  -12345  
-12345  -12345  -12345  
-12345  -12345  -12345  
-12345  -12345  BHZ     
ZL      -12345  -12345  
[...]
       6343.591       5372.306       3693.602       432.4751      -2081.721
      -2375.328      -1262.454       813.0908       2668.234       1483.935
      -1206.784      -489.7632       2151.789       1314.932      -2200.180
      -4503.576      -3484.836       522.4790       1771.596      -1424.486
      -3154.043      -3432.135      -4294.588      -3436.616      -1205.923
      -680.8635      -652.2637       1150.137       2883.055       3196.483
       1994.085      -584.0664      -3312.307      -5162.586      -4363.415
      -1900.852      0.3066406       1215.028       1782.528       2221.266
       3567.465       3583.562       1144.947       195.9695       961.1614
      -776.7134      -1922.820       1012.047       2848.242       903.0206
      -524.2122      -28.75171       522.1914       144.5151      -1113.514
      -1025.726       1333.586       2492.958       1317.835       712.4863
       2263.893       4376.587       4312.561       1995.132       206.3802
       158.8853       536.8188      -684.5552      -2318.538      -1948.043
       114.6740       715.7505      -931.4819      -2098.025      -1687.492
       285.2559       2999.708       2424.354      -1097.871      -2146.979
      -263.5981       1193.059       1934.016       3406.414       4397.874
       3358.393       1841.586       70.27344      -1520.805      -3083.922
      -3706.831      -1713.269      -1.200928      -635.9644      -1857.810
      -1743.765      -1313.600      -2195.125      -3013.920      -1469.255
       935.4355       1133.828       1912.497       3361.446       2297.377
      -202.1172      -1462.193      -806.2158       330.0000       71.07812
      -1413.723      -2391.345      -1628.800       561.9277       1502.329
       76.09625      -427.7863       553.2274       107.4192      -1121.134
      -114.7568       2488.795       4105.449       2507.703      -33.87036
       203.7725       724.9077      -184.7944       125.6655       76.50659
      -599.5066      -307.7607      -1346.191      -3125.189      -2959.711
      -1334.464       1087.309       2027.724       448.5916      -459.1147
      -1245.420      -2849.121      -3264.529      -3754.446      -4551.885
      -3217.856      -43.41406       1519.378       2554.038       3873.501
       3007.255       1322.452      -128.3652      -1358.151      -1080.668
      -1766.623      -2483.936       21.20703       2990.915       3624.734
       2239.282      -295.1815      -1173.948       1261.716       3137.042
       1235.844      -1741.600      -3298.517      -3889.507      -3825.246
      -3111.940      -3405.348      -3948.480      -1671.821       3191.881
       6461.828       6015.158       2195.316      -1740.747      -2349.210
      -1306.510      -445.6191       1063.063       1977.515       164.1643
      -1436.704       237.9349       777.3877      -1262.339      -1227.431
       775.0850       1176.943       857.6060       1260.997       645.2656
      -2683.500      -4053.512      -709.4359       1106.227      -168.4734
      -261.1362       129.5667      -684.8652      -2523.875      -5337.498
      -7264.764      -5904.860      -3260.279      -106.4102       2292.296
       2020.497       1759.034       1109.020      -973.0984      -505.6182
       1768.489       3173.075       3837.499       3436.832       2900.921
       2355.839       1054.400       911.6709       586.2620      -1252.208
      -1962.516      -1680.792      -2182.859      -2511.726      -2177.090
      -24.65527       2793.360       2394.257       71.42871      -1492.151
      -3033.434      -3787.256      -2385.051      -584.4255      -530.7866
      -1181.619      -2466.828      -3477.908      -2618.116      -887.0309
      -71.65283       606.6250       1157.540       661.5923       1013.142
       1909.076       833.8828       508.2217       3219.803       5537.537
       5342.213       3611.413       999.0205      -625.0159      -863.1401
      -1399.423      -1488.682       287.5747      -608.7773      -5108.523
      -6886.246      -4303.461      -2029.229      -1343.567      -1704.869
      -2912.208      -3331.742      -2404.510       1315.615       5885.988
       6350.065       3733.604       577.7112      -78.45654       1179.909
       650.2334      -634.4225      -654.5354      -243.7678       807.3169
       2067.588       1054.542      -1376.788      -1746.772      -464.0801
       895.1650       2022.271       2120.955       401.1836      -2610.487
      -4894.607      -2567.752       2003.192       2519.824       269.9463
      -269.7305       239.9434       865.8652       2573.346       4926.197
       4448.674       1383.166       300.2281       446.2291      -14.81055
       1103.174       2553.881       1198.894      -457.8823       838.2856
       1186.215      -793.9554      -929.4561       1533.490       2371.344
       86.31445      -1715.070      -1653.359      -2295.323      -1514.082
       2098.687       4007.179       1986.597      -856.7549      -1837.363
      -154.7168       2826.826       3397.194       66.62842      -1948.892
      -998.5459      -462.5010       425.4893       3116.229       4312.987
       1266.216      -2467.178      -3512.370      -2765.396      -1503.090
      -382.8381       1051.769       1369.191       1578.651       2283.730
       1206.622      -1346.100      -2332.305       230.1074       2997.417
       2585.699       1638.262       1481.610       342.0612      -870.5093
       336.5798       1745.364       500.5952      -1778.808      -1322.204
       1008.381       1847.172      -15.35352      -3158.408      -4477.311
      -3266.167      -1278.309       313.7542       584.4604      -914.4316
      -3154.563      -2867.016      -1426.423      -1768.600      -2289.752
      -854.3584       1885.034       3260.644       3430.575       3892.601
       3478.453       3132.114       2607.323       1398.465      -240.7693
      -1336.188      -499.1680       1376.440       1756.075      -1264.251
      -3490.206      -1919.993      -23.94482       1228.921       1117.135
       407.2527       423.0127       1280.829       2146.627       1383.618
      -495.8226      -793.4409      -174.6302      -324.3584       490.6876
       852.7878       120.5947      -402.9985      -1264.713      -568.7947
       22.89868      -606.0010      -2142.586      -3595.247      -2826.547
      -2287.555      -2284.064      -384.9062       2488.835       3447.889
       2547.835       1507.659      -455.2305      -1678.042      -1054.400
      -440.9353      -480.9839       1089.629       1637.043      -1136.083
      -2986.174      -1576.817       126.8417       297.4291       297.6013
      -145.5576      -1758.022      -2419.731      -1870.817      -2248.685
      -3417.483      -4127.588      -4032.627      -2189.998      -115.6592
      -377.2861      -2383.152      -2353.851       308.7212       2509.674
       1562.865      -510.2119      -761.6874       135.3067       588.2766
      -349.9844      -2207.911      -2227.905       1367.237       4671.481
       2357.445      -2010.156      -4747.292      -5215.757      -1405.528
       3654.084       4423.343       2565.312       2002.909       417.2734
      -3468.918      -3458.137       1038.020       2258.630      -1811.451
      -4321.145      -3297.094      -1703.479      -432.5642      -291.0415
       1162.155       4203.208       3916.383       1514.638       479.5454
       1165.704       1522.441       1200.005       69.34619      -948.1599
      -639.2188      -1474.584      -2288.750      -867.7744       1315.912
       3300.452       4222.169       3175.517       1749.056       1053.890
      -507.4346      -2138.415      -2891.283      -1592.855       499.8149
       1122.248       22.33533      -996.8010       138.4722       1995.038
       1132.486      -1484.782      -1907.489       504.6416       2653.650
       3147.631       4490.672       5736.570       3857.695       659.0103
      -1552.065      -1904.948      -1164.697      -1361.371      -3173.809
      -4288.371      -2738.420       801.3442       2618.793       1630.188
       678.2334       1282.947       1850.610       342.4639      -1689.051
      -844.0770       326.4243      -1130.094      -2306.470      -1780.886
      -1250.237      -66.08057       1664.767       1067.952      -1823.270
      -3237.117      -3060.879      -846.0703       3497.623       6998.186
       6759.524       3378.482       730.1440      -30.01099      -536.5687
      -648.0161       379.6870       1364.714       1114.734      -314.7129
      -2629.950      -2916.382      -1435.568      -752.7036      -15.83350
       1035.119       539.3030       109.1240       1472.859       2480.308
       487.7412      -3947.197      -6824.908      -4068.415       1520.323
       2702.076      -44.32812      -1404.440      -1330.714      -565.6948
       1245.438       2534.055       578.9048      -1957.853      -2262.055
      -1876.973      -1345.687      -1554.363      -2037.695       221.9170
       2946.482       2162.053      -730.2861      -1586.234      -972.0796
      -1721.990      -2660.682      -798.4814       2119.772       3512.948
       3228.966       2288.216       1161.432       169.2639       210.6384
       811.7017       1059.468       1539.795       727.7893      -279.3594
       1723.582       3291.015       2069.173       1724.302      -338.9375
      -3792.929      -2289.303       741.0031       887.1881      -146.8479
      -1072.366       119.8945       1439.421      -400.0029      -3789.266
      -4830.445      -3114.149      -607.9633       213.6532       212.5635
       808.7993       1599.114       2386.820       1835.704       543.2307
      -648.0674      -2075.230      -2363.525      -834.8428       2027.105
       2553.025       1133.251       217.3727       230.3037       1232.907
       2180.291       3028.002       1721.234      -2490.532      -4466.873
      -2252.918       267.4194       1230.556       2148.963       1500.234
       43.31641       597.9438       2337.357       2660.814       2524.979
       2565.998       324.4561      -2662.297      -1406.307       2651.506
       3421.298       1806.256       1626.133      -568.8330      -3594.952
      -2459.104       1326.471       2672.939       583.5781      -1707.057
      -1789.064      -593.3085      -492.0945      -248.9756       117.3727
      -952.1123       302.7432       2736.454       2208.934       1340.014
       1870.678      -1028.213      -4627.597      -3081.729      -276.0508
       823.5977       1373.860       1340.751       1069.228       703.5142
       263.7276      -93.59290       494.1187       972.1567      -438.5083
      -2333.044      -1926.593      -623.5098       163.0015       713.7158
       1513.466       2391.028       1469.315      -2120.068      -4271.863
      -4065.131      -3603.449      -1284.782       1612.342       2273.253
       2130.687       1351.059       371.8438       153.3955      -191.6829
      -526.9331       1673.376       3055.005       221.9771      -1430.339
      -829.7419      -447.6756       509.5957      -966.5830      -4794.250
      -6627.951      -5384.239      -2215.343       696.5355       674.4355
      -1328.293      -2866.785      -1722.595       1448.166       2871.193
       4079.107       7350.059       7060.091       987.2344      -7444.406
      -12609.51      -10160.18      -2925.973       2714.107       3938.499
       2321.152       707.9358       360.7690       1256.700       647.3474
      -938.0547      -1350.533      -973.7773       2142.781       6405.587
       4444.762      -1198.218      -2734.460       342.3457       3621.755
       4026.391      -92.53516      -6776.996      -10667.76      -9936.398
      -7815.693      -7080.307      -5933.579      -3233.561      -2171.807
      -1576.271      -2094.881      -4827.298      -4030.994       121.8535
       4688.422       11715.88       14858.95       10427.35       7151.436
       8324.836       11597.05       14448.64       13030.91       7227.986
      -1959.621      -12062.28      -20463.74      -24882.14      -24616.98
      -18219.50      -8017.450      -1700.105       521.8906       4506.914
       9067.168       8638.395       5386.803       5284.227       7969.219
       14455.83       21722.44       20152.69       11767.89       2926.406
      -7530.824      -15189.03      -13658.27      -5468.760       3756.314
       8528.611       7521.602       6440.874       5255.729      -269.6016
      -11092.27      -23294.54      -32866.95      -36477.41      -30399.74
      -13494.96       5003.859       14185.79       13544.77       6912.660
       293.2451       635.9961       11927.47       29041.64       40658.66
       42337.88       35124.86       22341.74       5417.035      -9374.281
      -17011.95      -20892.35      -24428.52      -26821.20      -24981.36
      -19862.44      -15362.26      -10731.46       303.7344       17030.84
       26549.63       21028.43       3311.770      -14455.57      -12987.03
       8848.906       24601.73       22763.58       15354.77       9381.164
       2721.016      -5275.646      -7793.217      -917.3770       3289.922
      -763.9199      -3722.076      -3121.855      -6759.371      -17427.22
      -29127.88      -36191.47      -35324.90      -24633.92      -8182.758
       6957.219       15365.31       17880.92       17880.23       16696.32
       16162.57       11907.93       1783.350      -5196.629      -8379.735
      -7353.665      -943.6406       7458.264       10893.29       7653.180
       8867.414       14949.93       12697.39      -4059.656      -22929.18
      -27010.82      -12639.13       5172.715       11294.99       10593.40
       6728.305      -1643.367      -11300.76      -11400.23      -1466.590
       2460.503      -2403.318      -3168.111      -3775.354      -9723.842
      -10182.57      -8194.191      -7940.976      -1760.389       7311.539
       14162.71       17129.39       14039.75       7493.260       2580.398
      -1224.455      -4692.465      -5908.245      -5832.184      -3723.336
       6364.156       25203.05       39397.29       31806.71       5082.414
      -17459.34      -22305.76      -18790.36      -15824.82      -15026.43
      -15652.84      -18472.52      -18330.09      -5908.820       13115.12
       21813.07       11724.92      -4746.471      -9282.598      -1039.262
       11857.27       21775.58       20144.71       10265.09       4225.314
       3194.683       4021.153       1808.603      -2424.913      -3065.419
      -1831.188       581.2539       4808.033       8883.359       11372.56
       10013.89       4447.376      -188.3660      -35.27710       283.9219
      -4647.352      -10235.56      -6943.621       288.5649       658.4863
      -4582.016      -10433.64      -14058.96      -11182.69      -3542.959
       2375.891       2109.984      -5027.346      -9386.334      -4054.334
       438.6616      -1450.363      -5210.523      -7083.244      -5376.140
       1381.879       10360.75       13557.73       10095.10       6665.443
       8327.311       6532.232      -4319.084      -8158.975      -744.2090
       1975.588      -6273.844      -14759.15      -16770.84      -16601.11
      -16092.73      -9634.458       926.2012       7826.141       10393.03
       9622.035       7236.416       5744.281       6337.559       7407.936
       4089.191      -1060.573      -1879.435       2536.828       7093.023
       5355.718      -1444.534      -2536.413       1745.533       2223.477
      -260.8418      -3934.451      -7649.041      -8124.970      -5059.995
       1657.102       8674.736       10679.04       8340.375       5248.577
       272.8945      -7454.043      -12976.86      -12928.46      -8094.121
      -2412.748      -914.3613       3982.996       11725.95       7550.645
      -3490.719      -7386.794      -4908.357      -1662.328       736.5791
       3399.242       5513.531       2739.902      -1379.367       1289.132
       4158.584      -1920.170      -10246.38      -10218.90      -2129.197
       5309.342       5000.763       2943.752       4278.127       3788.036
       1729.191       3042.066       6573.294       6042.062      -1482.721
      -9673.504      -11413.23      -10015.86      -10936.18      -10952.35
      -7145.264      -812.2500       4691.856       5837.062       2179.513
      -2001.209      -1285.244       4097.469       9188.670       9331.231
       5260.344       974.4119      -1638.165       79.00586       5421.014
       9094.137       7969.231       3409.790      -655.1816      -2120.037
      -4394.611      -7956.837      -5999.910       1655.497       5468.709
       852.7178      -4352.858      -3450.309      -1671.532      -2278.623
      -56.05078       5668.043       7218.139       3608.542       485.6172
      -1388.889      -1344.781      -460.5449      -2521.869      -3313.490
      -476.8884       659.5469       794.5928       3429.419       4222.564
       862.6504      -4828.447      -8451.874      -5541.128      -1121.363
       342.4668      -417.2266      -2457.525      -2161.279       461.9297
       1194.369       80.75781       3164.246       8901.916       6220.615
      -2600.582      -8051.605      -11063.52      -12503.42      -11728.51
      -11163.64      -11739.04      -11957.79      -12544.51      -12382.26
      -7886.473      -2413.442       210.8281       1845.590       6172.012
       12041.25       15282.29       14244.28       10344.04       9493.812
       10014.64       10088.91       12430.35       12153.14       7352.363
       3020.185      -647.8398      -3984.667      -3010.895       162.6191
      -676.4453      -4414.124      -5850.265      -3341.040       1512.275
       3553.742      -1300.627      -7642.695      -10134.49      -10791.84
      -10074.06      -7425.452      -4399.918      -953.1895       3292.824
       7909.191       11464.81       10354.91       5260.960       1984.269
       502.0708       677.8125       4071.225       6423.517       5087.694
       1776.698      -188.9248       2348.924       4223.586       783.6395
      -1473.562       1046.969       1240.738      -3082.317      -2553.070
       2591.557       4461.821       4007.727       2688.016       120.0854
