     0.02500000      -69852.20       102185.2      -12345.00      -12345.00
      -29.98998       250.2850      -49.29000      -12345.00      -12345.00
       0.000000       37.05000      -12345.00      -12345.00      -12345.00
      -12345.00      -12345.00      -12345.00      -12345.00      -12345.00
      -12345.00      -12345.00      -12345.00      -12345.00      -12345.00
      -12345.00      -12345.00      -12345.00      -12345.00      -12345.00
      -12345.00      -30.40760      -69.24540       1968.000       0.000000
      -31.23600      -65.83800       0.000000       167100.0       0.000000
      -12345.00      -12345.00      -12345.00      -12345.00      -12345.00
      -12345.00      -12345.00      -12345.00      -12345.00      -12345.00
       338.6974       284.8592       106.5968       3.045224      -12345.00
      -12345.00      0.2406780       0.000000       90.00000      -12345.00
      -12345.00      -12345.00      -12345.00      -12345.00      -12345.00
      -12345.00      -12345.00      -12345.00      -12345.00      -12345.00
      2008       318        11        13        19
       690         6    -12345    -12345     11212
    -12345    -12345    -12345    -12345    -12345
         1         7        13    -12345    -12345
    -12345    -12345    -12345    -12345    -12345
    -12345    -12345    -12345    -12345    -12345
    -12345    -12345    -12345    -12345    -12345
         1         1         1         1         1
ARRO    -12345          
        -12345  -12345  
-12345  -12345  -12345  
-12345  -12345  -12345  
-12345  -12345  -12345  
-12345  -12345  -12345  
-12345  -12345  BHN     
ZL      -12345  -12345  
[...]
      -4326.122      -2117.384       753.1343       1120.234       864.2144
       1042.459       1866.738       3033.880       4044.146       4285.444
       3011.826       2632.235       3517.954       1331.137      -3086.498
      -5875.918      -6449.037      -6964.191      -6926.742      -4830.099
      -3512.419      -3282.356      -539.6245       1899.545       328.3867
      -3050.550      -5419.543      -5403.602      -3903.441      -3456.667
      -3754.474      -3005.633      -172.1008       549.6553      -2879.781
      -4706.491      -1941.232       731.7258      -207.1821      -1377.454
      -964.2617      -2723.156      -3070.401       88.98364       1009.187
      -474.7283      -557.0889      -524.1113      -2032.489      -2848.403
      -2524.915      -3212.963      -3220.749      -866.6148       481.2227
      -809.3545      -1537.136      -1532.488      -2253.417      -2584.096
      -2513.894      -3755.741      -4140.929      -2082.964      -724.1963
      -1124.385      -2119.079      -4854.139      -6675.041      -5639.628
      -3038.776      -177.2988      -392.1738      -3439.750      -3714.752
      -1889.832      -2168.333      -2495.962      -1477.557      -1499.739
      -877.1768       479.2498       454.4780       319.8518       1343.683
       571.8130      -1892.639      -2338.316      -1207.792       668.4551
       3321.889       4498.709       3956.927       3144.353       1377.744
      -2051.572      -4093.393      -3440.814      -1694.494      -1659.018
      -3883.604      -4746.614      -2617.054      -1260.287      -1789.895
      -2273.649      -1238.420       134.2861      -1443.947      -4391.415
      -4322.987      -2621.001      -2015.578      -1721.976       249.0146
       2914.991       2861.437       712.5615       1016.311       1643.535
      -1143.639      -3413.317      -964.5703       2052.985       2603.451
       2901.674       3717.993       3948.127       3676.271       3813.145
       2910.230      -78.14014      -1118.378      -70.59082      -918.5098
      -3610.916      -5705.502      -5828.307      -2724.294      -261.3896
      -1319.721      -1511.557       1262.492       3771.421       3270.472
      -139.7227      -2229.690      -1860.928      -2258.145      -3179.617
      -2319.299      -2067.064      -3551.672      -3292.725      -336.1221
       2030.488       1376.823      -86.78271       1112.935       2142.624
       886.7183       710.1470       2758.244       2584.990      -831.4712
      -3008.952      -588.0088       3601.177       5267.012       4558.090
       2765.628       180.3300      -708.9214       1056.236       2429.490
       1454.600      -421.0664      -1991.162      -2281.920      -694.4258
       2011.281       3709.031       3827.967       2588.944       112.3770
      -2576.879      -4271.377      -3961.353      -2034.490      -1393.770
      -1299.582      -228.3086       1662.308       2672.603       1476.688
       874.1562       2261.910       2017.126       171.1533       807.3408
       2984.585       1987.906      -820.4380      -1574.292      -929.0889
      -727.4977      -647.7780      -408.1484       1103.127       2160.903
       1589.558       1289.893       1513.672       287.2441      -2564.254
      -4595.429      -3756.431      -1648.663      -1600.663      -2652.614
      -1802.675      -1096.348      -1395.423       42.86523       3853.547
       6469.160       6141.178       4678.006       4349.040       4668.640
       2907.249      -577.9458      -108.2061       3680.848       3795.116
       955.1508      -619.8168      -509.5259      -286.1514      -1698.927
      -2530.768      -1372.017      -238.9766      -1990.938      -3341.990
      -1509.712      -801.0352      -2110.277      -678.8223       3337.598
       5117.756       4580.861       4530.803       4285.844       3751.090
       3346.493       1587.027       383.5791       2293.618       2478.719
       1255.775       2514.617       2886.558       1113.453      -799.7661
      -2153.652      -485.8110       1896.635       1153.156      -1028.992
      -685.4082       1458.124       1900.013       568.0073      -475.9995
      -481.0701       1155.272       1738.941      -1056.775      -3473.802
      -2091.210       566.5439       1881.891       1834.376       1474.406
       1411.455       1817.807       2630.671       4034.576       4603.563
       2741.351       391.4175       992.3718       1886.128       190.4646
      -651.7061       1794.555       3539.676       1964.967      -306.0948
      -385.3755       384.5299       141.2935      -299.9043       711.4492
       2195.479       2160.942       347.0983      -404.1077       328.1224
       568.9711       256.5714       246.1248       304.5098       613.7206
       881.2970       226.4602      -382.2463       438.7500       1089.042
       599.9932      -567.1582      -2167.321      -3647.587      -2546.879
       1131.949       3428.833       2793.269       2466.872       4739.635
       5912.466       1199.676      -3636.893      -2324.236      -17.30176
      -1576.099      -2416.896      -552.3909      -91.05518      -2316.570
      -3127.932      -1594.156      -848.7917      -994.8550      -1095.943
      -65.66797       1726.074       1209.115       558.4844       2528.535
       4300.139       3861.678       4747.385       5682.587       2838.875
       190.6681       604.1240       683.7080      -1556.771      -3026.952
      -687.1892       1140.235      -406.8096      -2447.420      -3614.972
      -4917.442      -4681.849      -3466.932      -4391.037      -5247.492
      -1933.623       2763.686       3659.795       1275.362      -157.2690
      -322.4492      -1996.264      -3736.681      -1866.990       1061.996
       881.0851      -755.4014       164.3389       1620.874       1233.376
       1756.784       2907.482       1230.554      -1548.164      -1174.683
       2099.464       2716.395       14.41602      -2720.624      -4498.282
      -5113.396      -3576.779      -1585.107      -2293.500      -3916.621
      -2294.246      -791.5029      -2146.632      -3022.030      -2719.239
      -2165.603      -530.9951       673.5424       417.8091      -760.7549
      -2856.273      -3958.350      -2178.422      -603.1572      -2049.588
      -4435.559      -4560.943      -3460.025      -2348.904      -520.7163
       1285.943       888.3291      -784.1353      -1357.041      -1306.869
      -2490.321      -2947.914      -553.5063       1792.085       1817.972
       843.6899      -1522.879      -4346.686      -4414.769      -1493.551
       32.45410      -1487.115      -2856.663      -1910.455      -1116.258
      -1694.905      -2496.864      -3382.238      -2332.604       1272.157
       2230.648      -2718.973      -7457.380      -4774.663       884.2312
       2111.188      -254.4236      -312.6720       548.8262      -1056.818
      -2821.744      -4558.070      -6311.562      -5569.037      -3016.625
      -1665.179      -2259.567      -2486.508      -2053.312      -2302.291
      -1680.480       1135.199       1777.542      -276.2400      -802.6421
       578.9678       1857.534       2449.089       1184.965      -1093.219
      -1164.728       339.1870      -464.9468      -2418.823      -1411.983
       947.5178       23.21582      -3741.192      -4741.108      -1384.400
       1670.610       2820.997       2156.765       501.6973      -57.27698
       302.2539       135.3662      -1235.142      -2040.421       18.79297
       2245.083       1273.649      -1096.114      -1786.135      -1588.649
      -1092.277      -716.6826      -97.53174       676.4233       1325.520
       2958.330       4904.630       5705.200       3929.498       692.2690
       797.9561       2854.781       3275.785       3698.531       4604.629
       3452.469       771.5416      -558.7068      -184.6430      -206.1636
       172.8340       2752.975       5587.935       4518.175       1565.191
       1814.670       3353.184       2043.971      -668.9797      -1431.162
       17.64844       1020.099       1161.910       1610.255       839.1862
      -462.9609       131.1675       650.0425       1676.758       3980.692
       4931.589       4562.816       5261.680       5312.208       3855.346
       3038.488       2916.687       2778.869       2231.308       2116.532
       3447.129       4862.377       6051.143       5946.681       4340.301
       3547.591       3328.688       2063.865       1170.359       1422.833
       651.0269      -971.3369       222.2002       1956.955       47.03748
      -992.7080       1445.744       2739.250       2101.493       2008.170
       3537.963       4875.372       4288.988       3167.222       2365.938
       1235.924       1151.370       1907.469       2836.664       3511.576
       2224.942      -254.9648      -1228.437      -1437.797      -2219.509
      -1782.256       806.8311       2811.880       3276.842       2192.513
       309.8428       794.3303       1831.185      -287.1282      -1217.383
       919.4033       1729.928       1166.450       1346.127       114.5166
      -3045.090      -4466.754      -3029.151      -2298.860      -2596.556
      -1413.014      -406.3643      -543.0726      -134.7217      -91.38965
      -1343.626      -1481.438       354.4202       271.9604      -1572.845
      -2628.606      -2372.238      -1355.555      -1233.283      -2253.549
      -2025.838      -1096.461      -1904.087      -2929.377      -3288.701
      -4296.178      -4310.082      -2486.027      -1132.896      -915.3379
      -933.7578      -2884.166      -4882.526      -3988.767      -2342.378
      -1057.420       236.7050       664.8539       555.6963      -1045.653
      -3294.575      -2324.641       341.5811      -614.5928      -3902.840
      -4042.551      -1659.046      -610.7471      -180.3262      -1231.818
      -3612.591      -3345.847      -1610.278      -2160.929      -3818.353
      -4088.398      -2267.735       626.2515       2507.567       947.8984
      -2304.034      -1907.308       587.8198       103.9639       176.8850
       1027.705      -1463.557      -3676.598      -2619.129      -1248.553
      -1761.569      -3047.644      -2734.472      -854.0868       364.1733
       501.5466       468.8789       514.2764       1624.341       1535.832
      -496.5244      -759.3926       1419.862       2774.138       2201.541
       1739.393       993.2737      -639.7534      -1708.621      -1864.528
      -1170.221       37.54102       1662.523       2033.381       1698.953
       1895.866       1361.625       669.7943       386.0181      -1666.290
      -3205.471      -281.1709       3297.252       2853.205       1078.389
       1322.377       1863.641       35.23999      -1266.626      -76.86511
       507.3745       658.7251       1599.850       558.4180      -1578.110
      -1152.756       1476.776       2974.605       1745.162      -575.6378
      -1008.293       61.90625       2239.830       4733.188       3559.787
      -1295.277      -3625.085      -994.3186       1239.836       59.52515
      -546.7676       1637.630       2924.208       1984.771       2568.552
       3521.316       2637.924       1082.738       126.7686       355.1416
       1242.626       1533.749      -734.9688      -3122.167      -1056.138
       51.98340      -2610.841      -2881.291       61.63550       698.6746
      -121.5664       1961.168       4616.474       4236.003       1240.510
      -868.4624      -812.6936      -641.8008      -996.2031      -3203.912
      -5890.366      -4678.432      -477.4399       1530.197       1084.558
       1177.774       368.1965      -1125.484       101.2268       1470.543
       891.0762       583.5864       1366.366       1801.153       1119.637
       599.8838       1613.147       2379.534       1942.359       1930.778
       1253.795      -1738.539      -3999.819      -3540.367      -1996.876
      -930.3524      -228.7510      -505.1597      -1110.263       1028.318
       2813.141       716.3643      -1223.893      -1864.190      -1611.177
      -1637.037      -2850.854      -2753.179      -1028.844      -479.8496
      -1873.925      -1729.434       936.8655       650.4419      -2092.871
      -2858.019      -3284.148      -3793.055      -2828.650      -2945.738
      -4165.574      -3475.666      -2164.516      -2366.078      -3524.761
      -4071.175      -2408.991      -1705.926      -4829.875      -8149.254
      -9214.902      -10895.29      -16137.24      -24294.56      -33421.81
      -42654.09      -47580.52      -45379.86      -44124.03      -48544.86
      -50501.52      -47635.38      -42151.28      -30319.49      -7342.328
       23586.20       49941.31       62249.98       61016.70       55573.56
       59889.41       77509.31       96128.47       102185.2       95583.97
       83383.80       67242.77       44011.61       17671.16       549.4297
      -5467.516      -9820.777      -16703.38      -23420.77      -31142.62
      -44993.06      -62015.03      -69852.20      -66349.31      -60179.53
      -49516.88      -35162.42      -29806.42      -37273.49      -40222.11
      -19571.35       11577.03       23565.22       17095.91       13359.31
       19623.86       32741.36       45888.77       49030.52       43563.14
       35472.18       21819.11       3182.297      -10077.28      -15508.98
      -18383.84      -18307.85      -15415.15      -6494.531       11364.15
       29666.88       38213.94       28757.48       5609.155      -3272.895
       10989.17       13103.80      -14114.13      -38745.62      -36603.04
      -16770.71       6825.555       23859.62       24646.62       6988.484
      -17407.96      -32548.51      -33593.73      -25887.90      -17905.88
      -11680.88       2384.062       19200.83       16153.85      -2248.556
      -8102.129       4940.930       18327.20       23832.78       28374.04
       32143.87       30470.77       24630.52       18264.59       10709.45
       2741.672      -3100.672      -8280.004      -10444.45      -7947.832
      -8561.281      -13295.46      -13713.48      -4058.391       9742.584
       11929.77       3141.500      -4650.184      -13208.48      -22553.97
      -19121.55      -4404.787       3096.631      -832.5854      -139.3408
       5520.964       1565.948       1333.898       12920.46       16264.96
       12938.06       12856.70       4724.020      -12431.78      -26170.02
      -34597.38      -35243.05      -26477.24      -18840.15      -13677.09
       1138.352       25516.45       39090.45       30997.47       13036.35
      -3420.016      -11343.09      -13414.29      -9589.291       6499.602
       19409.64       17956.20       15209.89       7081.496      -10881.14
      -12745.95       7341.309       16424.84       8906.781       11617.13
       14082.12      -1407.857      -9148.768      -1316.098      -5843.805
      -22354.74      -26821.52      -21486.85      -19610.59      -15125.44
      -1284.312       9090.194       5829.808      -2562.012      -6827.074
      -8848.297      -10616.21      -7437.799       812.0205       4211.039
       2424.336       4734.733       6406.023      -7569.242      -25252.62
      -20358.33      -6316.779      -8096.312      -15583.64      -11521.89
       3004.340       15299.40       12787.45      -900.5474      -4100.141
       8221.574       16515.02       14048.36       10291.84       4822.596
      -6217.754      -14848.59      -10499.57       1638.549       7776.373
       7196.223       5185.104       2990.596       4352.488       10214.43
       15462.60       14422.69       8709.036       1114.545      -7550.250
      -13210.91      -10316.93       1691.137       12631.52       11519.49
      -358.1465      -10999.05      -10223.94      -4982.504      -7363.314
      -11007.30      -758.4219       18418.64       25899.15       14343.53
      -2456.621      -14263.11      -19655.54      -10035.12       11754.76
       17581.20      -3788.508      -27404.54      -33741.29      -27229.14
      -13455.50       3660.898       18360.59       23278.18       16505.69
       10289.23       11410.94       12917.90       13075.65       11990.79
       11149.69       14380.80       16680.56       8566.398      -7177.895
      -18762.23      -22411.16      -21148.69      -18376.86      -13266.28
      -3166.497       4224.285       761.8125      -6108.747      -4687.812
       1688.026       4830.533       3804.866       4432.066       6010.518
      -2189.445      -12985.44      -10177.88       28.78906       6096.263
       5579.231       541.0195      -5269.848      -9549.312      -12974.95
      -8850.730       5923.680       20115.32       23328.48       14226.17
       1620.980      -7981.012      -17222.05      -20209.61      -11255.77
      -169.2363       4315.324       6102.656       8404.145       9030.809
       9281.141       12438.56       17417.41       18517.17       9722.221
      -1396.197      -5203.604      -1497.168       4178.738       5902.588
       3692.979      -8.812500      -4189.488      -9752.508      -13156.19
      -9703.189      -4905.162       144.9297       7976.449       14720.47
       13543.99       3498.449      -1368.610       3070.066       3449.935
      -699.3633      -1787.464      -1214.554      -3690.161      -3187.149
       2903.396       3963.876      -2351.457      -5199.694      -757.7122
       2318.061      -2492.957      -8485.593      -7124.392       144.8628
       4334.812      -569.7422      -7524.117      -7025.752      -5354.736
      -7640.639      -7381.949      -5576.260      -6630.611      -6027.444
      -2591.969       4867.238       14282.41       17374.68       17005.84
       15818.38       8764.701       121.1719      -4047.297      -7045.766
      -9803.188      -7440.190      -2011.082       1765.011       1021.891
      -2261.084      -4525.184      -7910.031      -14764.02      -22268.48
      -23123.39      -13790.34      -4768.020      -4467.171      -4628.319
      -303.2274       416.3197      -622.6025       2277.508       3845.226
       1942.901      -442.1270      -2933.994      -4530.179      -3152.125
       1923.125       7068.844       10418.90       12974.91       12925.46
       10852.31       6848.348      -1250.190      -5037.583       497.2129
