     0.02500000      -555208.2       622650.6      -12345.00      -12345.00
      -29.98999       250.8100      -49.69000      -12345.00      -12345.00
       0.000000       37.64000      -12345.00      -12345.00      -12345.00
      -12345.00      -12345.00      -12345.00      -12345.00      -12345.00
      -12345.00      -12345.00      -12345.00      -12345.00      -12345.00
      -12345.00      -12345.00      -12345.00      -12345.00      -12345.00
      -12345.00      -31.64950      -69.41590       1962.000       0.000000
      -31.23600      -65.83800       0.000000       167100.0       0.000000
      -12345.00      -12345.00      -12345.00      -12345.00      -12345.00
      -12345.00      -12345.00      -12345.00      -12345.00      -12345.00
       343.1771       261.3965       83.25419       3.085601      -12345.00
      -12345.00       2.922262       90.00000       90.00000      -12345.00
      -12345.00      -12345.00      -12345.00      -12345.00      -12345.00
      -12345.00      -12345.00      -12345.00      -12345.00      -12345.00
      2008       318        11        13        20
        90         6    -12345    -12345     11233
    -12345    -12345    -12345    -12345    -12345
         1         7        13    -12345    -12345
    -12345    -12345    -12345    -12345    -12345
    -12345    -12345    -12345    -12345    -12345
    -12345    -12345    -12345    -12345    -12345
         1         1         1         1         1
BARR    -12345          
        -12345  -12345  
-12345  -12345  -12345  
-12345  -12345  -12345  
-12345  -12345  -12345  
-12345  -12345  -12345  
-12345  -12345  BHE     
ZL      -12345  -12345  
[...]
      -847.6382      -869.5605      -878.7761      -934.4292      -942.1870
      -901.1753      -870.5967      -965.1196      -990.3699      -912.3076
      -870.3286      -978.5203      -1004.970      -1012.323      -967.4966
      -919.9792      -904.6108      -983.9058      -997.4136      -954.5237
      -882.1450      -893.0889      -862.4290      -892.6296      -891.5312
      -862.0637      -810.3638      -826.0996      -808.4492      -829.3596
      -823.0049      -775.7539      -703.5730      -713.7992      -671.2112
      -679.6636      -680.8357      -705.8689      -629.9437      -591.9424
      -600.3860      -613.2219      -568.4202      -587.4410      -579.2950
      -561.2560      -540.4417      -566.1313      -490.5938      -473.6328
      -471.4274      -516.6543      -508.9327      -506.7607      -442.4148
      -432.1013      -438.2339      -447.0443      -368.1190      -365.8690
      -390.9072      -415.9918      -349.9158      -323.4414      -292.3618
      -292.9304      -254.6307      -250.1780      -206.0312      -264.4594
      -262.1628      -189.7363      -77.43628      -98.94940      -90.26819
      -84.42694      -54.72672      -61.55048      -10.94505      -5.928650
       42.77631       76.58923       130.2072       69.46600       108.5644
       163.9922       151.3264       64.80212       189.2276       261.5103
       234.6200       236.5532       305.9949       283.6509       325.9863
       323.6897       326.6526       298.8733       355.3412       404.7338
       467.4150       441.5244       455.9036       439.6320       502.8225
       532.9955       556.8735       501.4351       474.3235       474.6066
       577.3137       605.7310       644.6384       622.7759       559.4601
       468.7733       569.8794       621.4568       609.1301       550.5867
       593.2352       578.5667       575.9513       541.9828       555.6951
       533.7112       602.5555       609.8450       567.9034       501.8245
       585.9409       549.7229       540.2969       561.2245       627.7518
       594.9495       601.1411       569.4707       595.2178       568.7789
       630.3647       638.7216       653.0974       602.2837       642.3008
       634.2434       676.1422       665.8354       699.3772       659.9585
       676.6658       686.5596       769.4360       716.3044       689.2551
       649.7407       676.2821       638.8269       674.9387       662.2417
       724.1494       677.2059       658.9250       626.9319       642.3000
       545.0084       523.0154       523.7661       664.5713       683.1764
       651.6274       546.6719       548.6350       514.8081       533.0621
       477.7854       528.5247       527.2339       570.2029       530.8572
       569.5581       546.8748       524.8817       440.7943       496.4558
       511.8363       582.6265       545.8700       540.6802       485.3772
       543.3524       528.8115       540.4408       506.9333       565.8142
       559.1294       608.5388       554.2305       564.7051       518.6643
       554.2173       522.9342       565.4564       563.7822       613.2234
       544.6906       577.5436       571.3264       613.7314       541.6973
       564.9888       566.4218       642.2302       596.4668       619.8429
       562.2197       590.0974       534.0046       589.2944       588.4419
       605.9250       527.1494       552.2961       488.1418       528.3750
       500.3641       555.8885       507.1204       492.5345       375.5931
       400.0199       387.8152       441.4727       401.7780       410.2239
       320.7844       319.3680       255.8190       296.2271       255.3024
       291.4329       201.5974       200.2327       137.5181       199.6147
       133.2096       115.6172       72.13168       103.6995       37.77795
       83.70609       6.132935      -31.63177      -141.0261      -84.38373
      -161.9910      -133.6633      -186.1250      -175.5884      -272.2777
      -291.7491      -357.3009      -324.0306      -393.0918      -393.7153
      -521.1531      -527.7068      -601.5353      -552.8821      -628.0930
      -595.2285      -664.9392      -694.4749      -835.8445      -825.9351
      -877.2856      -836.8931      -906.8623      -858.2537      -927.1699
      -930.5657      -1029.941      -993.5010      -1071.070      -1067.465
      -1087.152      -1005.132      -1085.935      -972.4153      -990.0061
      -1018.556      -1144.047      -1080.339      -1098.651      -1057.353
      -1069.490      -913.7913      -980.7869      -989.3291      -1050.723
      -1007.461      -1054.381      -920.2983      -938.4067      -861.4570
      -914.7534      -924.3105      -994.4465      -819.1519      -837.2732
      -898.4316      -990.1924      -887.5793      -893.9756      -748.6494
      -791.5332      -805.0637      -881.2065      -794.5005      -904.0947
      -906.9993      -898.9756      -716.7104      -772.1133      -787.3223
      -839.2761      -765.0305      -853.5310      -783.3425      -838.4348
      -790.9629      -807.6196      -708.8076      -812.2451      -783.2261
      -801.6631      -686.1011      -802.6265      -876.8274      -945.0825
      -742.9524      -722.1470      -680.4607      -802.8059      -790.2490
      -824.0244      -693.0969      -794.3008      -764.1870      -751.9277
      -619.7666      -710.0076      -683.8728      -711.1035      -552.9131
      -600.2415      -614.0854      -658.6838      -529.8522      -619.6631
      -491.4963      -493.3087      -454.7913      -480.7742      -404.1870
      -396.9088      -218.4751      -395.4363      -437.9982      -404.4708
      -242.7962      -295.9674      -198.9774      -249.3071      -154.1486
      -188.7728      -126.4464      -194.3268      -145.9491      -195.6245
      -11.12013      -67.99731      -57.10733      -38.98851       59.05647
      -67.24960       60.25823      -16.56979       33.28131       70.13507
       179.1633       111.8351       171.9656       35.28772       152.8636
       216.6343       270.1776       117.7684       278.4968       317.3403
       336.0214       219.8929       327.5063       302.7421       375.8910
       348.5999       489.9888       399.3057       471.7141       466.3373
       532.3660       442.7031       550.8424       509.5300       577.7888
       551.1418       701.7314       612.2361       643.3114       620.4534
       711.8435       585.2139       646.7378       626.2354       758.6931
       686.3843       735.8020       666.5029       739.6672       632.7939
       693.9231       696.5669       799.3540       648.3286       705.5896
       674.2192       731.6257       615.4269       671.8540       593.0911
       658.6710       603.9188       705.9958       590.4536       620.0752
       577.8260       644.8799       512.3591       590.7012       554.9291
       640.1808       543.3086       621.3147       571.7827       638.3057
       537.8617       624.7612       546.2178       653.1943       625.7980
       713.9611       618.0706       669.5105       549.3121       639.1172
       677.5044       808.8804       692.1904       755.4763       592.5156
       623.4146       727.1941       969.1702       805.5771       800.1897
       723.5803       781.7539       736.8835       849.6672       782.4563
       867.6365       835.7874       892.0371       610.5908       755.2427
       892.6797       867.4109       699.1694       801.3386       650.4346
       754.0005       683.1665       718.9814       725.5723       797.2888
       571.6237       601.7054       534.3372       634.7125       535.6545
       530.0837       419.0314       529.6036       445.5377       458.8530
       351.8019       403.4633       252.4977       341.3606       316.4617
       357.7252       129.2422       186.5614       185.3578       201.3089
       34.81082       155.8996       109.9734       100.2906      -75.03979
       4.040054      -61.35484     -0.4157867      -103.2272      -35.50864
      -113.1826      -37.15198      -178.7094      -147.5391      -249.2101
      -192.7714      -255.9622      -168.3157      -256.6383      -148.3123
      -227.2399      -288.1434      -440.0842      -283.9789      -371.8906
      -353.6519      -358.5970      -156.1779      -294.8273      -376.6415
      -523.8871      -432.0668      -423.0366      -256.7960      -330.7230
      -277.4471      -369.4418      -280.6088      -370.1843      -298.2222
      -397.9912      -345.3959      -399.7679      -253.0038      -275.9845
      -182.2817      -324.1467      -331.9794      -396.9042      -249.4496
      -331.4392      -245.1268      -309.0661      -243.8832      -356.9345
      -272.7119      -335.7454      -236.6717      -333.6250      -287.3631
      -320.8182      -243.4998      -342.0025      -239.9716      -339.5918
      -313.5626      -499.6755      -328.0565      -154.0684      -72.45972
      -348.4176      -493.7324      -456.6033      -52.24377      -358.2091
      -525.5856      -344.8318      -239.8748      -436.6288      -323.3778
      -500.6509      -395.9375      -467.9572      -442.5938      -454.9349
      -501.3468      -682.2690      -454.5813      -571.7410      -563.5964
      -616.9075      -593.6587      -758.9685      -539.1143      -605.3604
      -780.7285      -885.4041      -636.6184      -665.4121      -709.5298
      -909.2485      -704.2527      -715.3354      -731.7844      -822.8538
      -692.3621      -810.2881      -768.4141      -841.8862      -661.1301
      -732.3992      -734.6099      -785.6851      -608.5840      -652.7490
      -580.4209      -696.6741      -648.2395      -689.5691      -409.7080
      -409.7617      -486.5938      -595.2965      -376.6470      -404.6669
      -279.1974      -313.4064      -223.3704      -359.8444      -267.3139
      -210.1230      -12.60955      -58.01497       7.563454      -40.99396
       122.8882       84.49451       173.7777       85.95715       240.2692
       218.4124       315.3754       310.9260       496.8134       413.9158
       493.5522       472.0840       560.3589       490.5223       596.7053
       540.8573       693.7529       646.0485       690.7483       592.3860
       733.2700       686.6260       785.5251       691.8218       758.5811
       781.9668       909.4082       743.6499       781.6555       751.2803
       858.3958       755.9443       880.5056       831.5933       870.2407
       779.1926       860.2944       797.0037       944.9746       911.8501
       923.9902       803.0105       899.1589       788.3760       917.8667
       956.8245       1052.880       872.9973       894.4429       818.4580
       896.0088       882.8340       1037.615       871.1472       886.2144
       864.2292       1010.508       901.7493       950.4783       925.4653
       985.4827       794.2842       862.2437       872.1904       981.8206
       868.2979       957.3923       860.1753       913.7671       848.8618
       923.9575       809.2051       896.4170       814.9695       908.2061
       798.7039       804.1973       743.9878       822.5171       673.3069
       740.9927       663.8118       695.1125       556.6863       678.9330
       625.5969       586.4418       407.1974       514.4055       467.9960
       498.6863       343.4246       335.5110       203.7262       263.2105
       194.8527       232.9649       53.41510       119.2052       46.04421
       22.17758      -142.0514      -83.62756      -196.5760      -132.1580
      -221.2733      -271.7875      -379.5713      -257.3071      -394.8926
      -330.1896      -448.7285      -531.4449      -598.7990      -420.8274
      -561.0803      -521.4395      -556.8386      -574.7969      -747.2205
      -662.6074      -657.4778      -574.2581      -718.9033      -664.6418
      -717.0845      -640.9312      -726.2158      -667.2161      -767.9854
      -725.6592      -767.4937      -656.9639      -742.5537      -705.3569
      -756.2628      -623.6689      -799.0432      -879.2859      -889.4150
      -722.2559      -827.7974      -798.0229      -1065.316      -1412.868
      -1787.381      -1532.644      -1123.759      -1604.822      -4603.637
      -7653.894      -6330.112      -1724.512      -3585.945      -13816.53
      -21469.84      -16273.55       7333.352       38844.95       22565.17
      -67073.62      -109601.4       11156.56       143954.8       80866.30
      -88600.00      -148600.1      -11600.47       188832.3       116887.4
      -173761.1      -197552.4       60848.50       214270.5       103439.7
      -88912.34      -38442.07       79569.75      -105648.2      -236009.3
       37015.50       298556.9       183141.8      -136850.5      -289373.6
      -110543.9       205939.8       355386.9       62978.62      -463030.9
      -414127.0       259551.8       622650.6       250712.3      -365434.9
      -555208.2      -179711.3       207741.2       262380.3       263891.9
       143310.9      -253197.8      -354603.1      -32177.03       129776.6
       59140.05       63826.45       96178.16      -15280.45      -93025.51
       29903.64       130362.2      -42709.31      -283522.9      -168844.4
       130421.8       191463.2       133385.7       122318.7      -36420.75
      -259679.3      -148624.1       142832.5       94866.38      -172952.6
      -162428.8       88699.03       207844.6       96932.14      -51903.91
       10486.22       115830.3      -77199.12      -301136.3      -175380.5
       146218.6       289163.3       116852.9      -129064.2      -166241.3
      -19225.34       99299.42       88939.27       551.5781      -67159.49
      -31462.49       48263.87       45547.66      -20452.46      -14733.58
       60698.89       4400.219      -114959.0      -68664.09       44643.19
       106211.8       111953.5      -3454.500      -181106.8      -215643.2
      -22276.69       208504.8       197874.8      -41780.31      -190816.5
      -75163.03       118298.7       125709.5      -67332.34      -149675.9
       26446.00       128744.0       23926.51      -9407.719       66292.08
       92913.96       40593.97      -74037.16      -105234.6       4958.055
       49941.35      -21098.94      -66333.27      -46212.62       17760.81
       58136.48      -15461.84      -103471.7      -49548.41       68118.72
       82595.66      -8716.637      -43510.50       46902.33       88168.56
       1376.562      -60788.36      -27609.02      -6245.812      -56979.06
      -72286.12       31411.84       152778.0       139271.4       13074.59
      -125458.9      -184047.3      -59074.56       124781.5       135871.1
       12602.47      -68792.38      -47749.53       32896.44       75645.19
       4312.750      -99235.62      -83930.66       20291.36       70076.28
       61268.19       54590.69       30015.34      -19252.06      -64552.27
      -77192.00      -22143.11       44528.86       41448.34       10878.26
      -4120.516      -20882.52       10167.09       82376.98       60176.89
      -25493.30      -52697.77      -57201.48      -39422.69       21018.98
       36548.12       7741.402      -12212.68      -30529.81       2393.383
       36059.14      -28750.54      -42723.09       33640.48       19596.43
      -29843.01      -15302.51      -381.1641       35504.24       59730.80
      -16617.38      -81815.97      -37821.52       35864.78       64846.71
       36357.84      -21514.36      -35079.52      -1256.832       13670.32
       9276.820      -4585.094      -32616.55      -32076.20      -9306.734
       4275.797       45107.05       82896.81       26762.22      -72073.38
      -82475.80      -10515.75       33293.62       10470.05      -36721.97
      -46312.90       13814.41       89173.02       104763.4       34988.25
      -71985.02      -94988.91      -12119.22       42567.38       14369.54
      -23232.34      -12457.09       47187.12       77811.41       15422.69
      -73334.02      -77861.38       2737.219       51957.06       11271.03
      -44952.96      -46243.86      -2954.250       51408.06       68688.55
       8497.172      -66102.86      -68647.41      -8527.328       49198.16
       34490.66      -37789.86      -71271.52      -34969.86       39055.20
       94884.23       61276.36      -21585.61      -50718.63      -27061.81
       7508.930       13681.18      -18625.75      -29002.86      -11783.01
      -565.0625       29035.75       57402.18       34068.98      -11445.31
      -49866.19      -64366.89      -11602.55       54283.65       27293.80
      -46994.64      -48777.24       17705.22       57883.52       31271.21
      -21169.62      -40536.14      -10876.35       27817.29       41070.02
       31345.42      -15718.44      -81650.36      -84028.89      -22181.55
       35884.42       53920.27       30889.29       11729.99       21581.06
       25240.49      -7493.719      -60616.94      -68538.69       3367.359
       59961.62       30827.01      -6215.734       583.3398       18066.55
       4230.891      -38926.40      -28569.38       36154.71       30310.08
      -33988.21      -43426.11      -13045.98       13659.67       19285.56
      -13201.98      -19818.59       17161.73       25108.88       3969.379
      -15011.66      -30206.81      -9685.965       26065.86      -1184.719
      -53569.68      -27723.82       48416.72       60777.12       13474.02
      -24958.95      -60541.66      -61693.12       20155.39       93154.12
       64410.95      -45550.72      -128726.2      -71169.20       52273.81
       103000.7       68626.02      -34356.33      -109178.4      -29827.70
       81894.47       62845.52      -5410.391      -35732.51      -34271.75
      -4842.062       21198.48       26517.75       11345.75      -12887.72
      -5133.137       16210.74      -5547.133      -23687.91       14128.42
       32661.86      -11583.74      -48119.66      -26683.52       8293.844
       16933.31       26379.57       23237.60      -2935.069       1757.299
       11870.66      -21102.61      -44289.65      -19804.20       16559.12
       32615.35       19347.54       7388.211       26011.91       37863.26
      -2061.719      -71253.81      -90978.84      -17766.97       81409.12
       101058.7       36512.83      -45504.66      -84554.54      -37667.12
       36032.80       33874.54      -11401.96      -22358.20      -2031.957
