     0.02500000      -394574.8       364124.2      -12345.00      -12345.00
      -29.98999       250.8100      -49.69000      -12345.00      -12345.00
       0.000000       37.64000      -12345.00      -12345.00      -12345.00
      -12345.00      -12345.00      -12345.00      -12345.00      -12345.00
      -12345.00      -12345.00      -12345.00      -12345.00      -12345.00
      -12345.00      -12345.00      -12345.00      -12345.00      -12345.00
      -12345.00      -31.64950      -69.41590       1962.000       0.000000
      -31.23600      -65.83800       0.000000       167100.0       0.000000
      -12345.00      -12345.00      -12345.00      -12345.00      -12345.00
      -12345.00      -12345.00      -12345.00      -12345.00      -12345.00
       343.1771       261.3965       83.25419       3.085601      -12345.00
      -12345.00       5.146524       0.000000       90.00000      -12345.00
      -12345.00      -12345.00      -12345.00      -12345.00      -12345.00
      -12345.00      -12345.00      -12345.00      -12345.00      -12345.00
      2008       318        11        13        20
        90         6    -12345    -12345     11233
    -12345    -12345    -12345    -12345    -12345
         1         7        13    -12345    -12345
    -12345    -12345    -12345    -12345    -12345
    -12345    -12345    -12345    -12345    -12345
    -12345    -12345    -12345    -12345    -12345
         1         1         1         1         1
BARR    -12345          
        -12345  -12345  
-12345  -12345  -12345  
-12345  -12345  -12345  
-12345  -12345  -12345  
-12345  -12345  -12345  
-12345  -12345  BHN     
ZL      -12345  -12345  
[...]
      -141.7178      -130.1767      -158.0172      -59.14902      -131.3130
      -95.88666      -149.7870      -74.33859      -148.3189      -84.96072
      -152.7965      -120.1537      -160.1071      -93.54730      -197.3828
      -135.0062      -165.1047      -113.7355      -216.4792      -161.7395
      -210.0659      -152.3993      -223.8071      -160.2670      -205.7855
      -123.3536      -199.9297      -145.9098      -181.6299      -111.6711
      -180.4916      -107.9280      -169.4613      -101.4970      -113.3169
      -20.39320      -109.0277      -25.03938      -35.98064       56.73551
       10.69000       99.44684       67.58960       144.9040       132.1008
       252.0195       201.6990       284.4592       260.8029       341.7023
       277.2629       409.9985       391.3679       450.3591       415.2780
       560.1422       509.9336       551.2742       495.0800       571.3352
       511.1595       629.7333       600.3071       632.7683       519.7399
       629.9775       572.7157       573.9036       485.9072       569.8701
       478.0372       541.2566       439.8899       451.7595       388.5781
       497.1089       340.3822       313.8281       252.6312       328.5474
       189.4829       216.4722       128.3850       173.6803       33.35865
       35.21132      -72.07553      -4.618622      -112.0684      -90.33148
      -182.3403      -91.81403      -185.8639      -159.1420      -278.0138
      -252.3015      -287.2875      -197.3922      -338.8891      -294.1533
      -360.5579      -301.1221      -376.4004      -284.2562      -399.8732
      -380.5413      -452.9666      -353.9609      -455.9144      -350.8853
      -377.7654      -372.1311      -539.3589      -407.2119      -404.3807
      -401.0746      -548.2651      -420.3461      -507.5923      -481.7753
      -529.6880      -429.1246      -571.4673      -526.8007      -598.1665
      -522.2102      -593.7284      -510.3838      -625.3914      -576.6917
      -652.6222      -550.0259      -608.2273      -520.2056      -622.8969
      -583.0012      -681.1768      -544.2196      -595.6465      -548.5248
      -648.2745      -534.4668      -609.0225      -542.9717      -603.5989
      -502.1648      -610.2407      -541.5161      -588.8741      -470.4084
      -569.8403      -510.4442      -591.6938      -491.1475      -558.9128
      -465.4852      -563.4492      -491.9613      -542.1908      -414.3229
      -489.7629      -414.2527      -517.7206      -450.6763      -526.0847
      -396.5343      -418.2185      -317.9424      -420.4827      -337.0856
      -386.7179      -280.1857      -357.9169      -253.2448      -346.4728
      -261.8782      -296.8594      -152.8359      -225.3073      -158.8784
      -218.2441      -96.98499      -190.8978      -83.13126      -104.4225
       12.54572      -96.94865      -9.057419      -60.69336       47.72672
      -23.16144       112.7816       52.06451       141.5686       55.83945
       155.3804       89.26147       229.6147       180.0209       277.0748
       161.4485       271.9838       229.0953       341.0645       243.6351
       334.3408       250.4138       360.8694       281.9064       403.1788
       327.7457       422.6575       310.2380       395.1222       311.3530
       417.0784       317.4342       427.7427       339.5100       400.2451
       304.4725       427.7861       322.1960       416.7687       305.2389
       398.4047       285.2816       372.6445       254.9130       331.3149
       257.0380       372.1068       234.1625       317.7757       218.3503
       283.9172       171.4128       291.5014       183.9913       258.9073
       156.2327       271.4628       142.8977       197.2916       112.7296
       248.9343       119.8383       192.9766       79.92947       165.4695
       63.09406       185.1606       79.28613       156.7267       51.45889
       177.9482       35.53624       92.79562       13.29736       129.3953
       20.99376       110.3250      -42.42760       8.709290      -87.09555
       84.34619      -24.45236       24.11804      -83.14221      -17.72183
      -181.9537      -4.478806      -51.40198      -54.59290      -231.6041
      -67.88873      -169.0063      -89.85611      -154.5750      -36.58533
      -227.9987      -157.0904      -232.1354      -148.7647      -298.2668
      -132.0324      -197.4340      -147.4491      -330.3898      -193.6423
      -273.0153      -236.9100      -373.6632      -218.4609      -301.9276
      -227.5981      -407.1929      -273.6817      -343.8218      -306.8914
      -500.4742      -316.3154      -363.4163      -284.8037      -482.4348
      -379.6130      -418.9707      -301.5640      -478.0422      -420.7935
      -556.5557      -414.9608      -501.0493      -409.9078      -533.9238
      -347.9773      -494.0646      -488.9036      -646.5488      -441.2308
      -499.6782      -410.7397      -526.2383      -401.5988      -569.4927
      -454.9642      -531.3757      -436.7317      -556.9949      -322.9353
      -420.9277      -403.3137      -542.0565      -325.0012      -417.0963
      -297.6440      -376.8640      -258.6737      -382.5693      -192.1274
      -262.8619      -219.1790      -317.2100      -27.01654      -219.6358
      -196.6883      -111.9175       62.72809      -198.1968       42.45190
       4.808922      -6.277115      -106.7385       190.1478       144.6047
       217.6930       72.48358       303.2688       184.0989       257.0192
       240.7825       420.3284       205.8646       394.3306       398.4327
       476.4026       329.5872       536.8801       432.3141       586.3784
       491.0410       610.5535       531.7812       707.6099       598.5986
       784.8833       649.4497       654.5759       525.2097       781.0061
       673.2444       783.4058       725.8589       860.2402       669.3982
       762.2173       691.6362       904.7358       751.6436       847.9348
       730.5889       831.9546       728.0178       885.4666       680.6550
       798.2559       747.0811       859.2705       683.8721       843.1770
       685.9165       764.6895       684.3586       828.5984       644.9624
       776.7390       647.4194       768.6353       694.9934       864.2458
       649.1184       759.7188       708.6956       822.0857       616.3682
       786.5664       700.2002       807.6604       689.9675       832.5391
       686.9927       859.7427       726.7878       804.2629       657.8179
       811.1235       706.5325       854.7715       666.7461       772.7612
       683.0498       833.4495       675.5750       787.7327       619.4380
       770.6636       668.2544       770.8984       604.5969       780.2347
       626.5905       666.7323       474.6409       687.8207       577.6719
       618.1108       430.0594       603.0698       450.6294       536.7251
       407.6310       527.9440       297.1390       385.6401       289.9299
       476.9183       297.3534       357.1082       131.9186       212.7256
       74.25928       240.0418       106.5840       151.1389      -96.27277
       59.87119      -73.25827       74.28094      -166.3907      -143.4448
      -225.5238      -44.54871      -353.7598      -335.7197      -360.4597
      -194.4150      -463.4844      -359.4867      -526.8459      -384.7065
      -602.3679      -545.1814      -628.8212      -464.1812      -711.0398
      -581.2830      -715.2349      -695.8030      -887.4131      -700.3218
      -846.0122      -724.4609      -871.5835      -737.5020      -893.8645
      -749.3337      -928.9075      -823.6943      -931.7227      -748.7324
      -888.2534      -805.2290      -966.8438      -758.3469      -916.2234
      -792.8665      -863.7976      -700.9636      -898.9387      -746.9170
      -864.5964      -681.9404      -814.0217      -724.4363      -880.5790
      -632.7642      -783.9607      -700.8281      -804.6401      -636.0000
      -868.7078      -712.3401      -757.0740      -594.7214      -790.2568
      -680.9590      -848.9939      -710.2671      -830.2935      -645.8350
      -812.1284      -698.7026      -864.7341      -694.1309      -780.5264
      -671.7661      -929.4111      -796.2859      -883.8765      -682.4614
      -812.6816      -639.4243      -816.0938      -722.1545      -837.9304
      -647.2280      -822.7695      -661.1624      -797.7642      -610.4390
      -663.4612      -506.0608      -760.3815      -623.0623      -718.3281
      -538.2725      -652.5126      -446.8195      -579.8444      -440.1130
      -575.5811      -415.0189      -544.1892      -309.0610      -502.4357
      -338.0632      -400.4539      -390.4235      -554.1876      -244.8580
      -254.4070      -131.2744      -468.7090      -296.8986      -312.9650
      -135.7224      -387.6345      -121.9943      -203.7549      -204.5704
      -341.6174      -84.65356      -219.8997      -152.4235      -324.7185
      -17.00555      -186.6418      -121.7063      -182.1231      -17.83826
      -297.4343      -20.30054      -31.63074       28.39633      -147.9615
      -9.727600      -184.0668       82.18274       30.14426       83.68681
      -107.3362       214.0054       64.23381       111.1917      -2.066406
       295.5729       173.2878       235.0508       114.1779       357.5231
       210.5675       404.8093       271.9205       402.4727       355.5153
       571.2654       285.5634       483.1763       498.5356       662.7244
       403.9834       573.6860       520.4691       673.8733       555.0974
       773.1965       604.3589       759.0498       640.3762       866.3979
       734.7786       847.2212       744.2134       930.9231       802.2896
       987.8906       803.3726       995.8379       894.2869       1045.049
       874.5054       1064.464       958.5977       1073.039       876.3904
       1113.068       1013.161       1133.292       939.5168       1106.282
       961.7671       1134.263       972.8538       1083.140       877.4712
       1072.448       963.6804       1057.575       843.4841       1000.478
       836.1831       974.1582       801.4932       924.9934       790.6897
       938.5251       715.0386       865.2524       712.8442       839.1072
       650.1714       771.7563       621.8701       806.3822       618.8491
       710.7899       568.0562       724.7362       519.3989       697.7249
       552.1737       645.2429       445.5696       586.3203       469.7344
       611.5251       403.6431       564.7343       432.4397       530.6980
       300.1083       435.8518       327.4480       529.6000       292.7090
       385.3774       281.4108       390.5380       180.0896       372.3451
       189.6505       292.0158       160.8615       287.7688       50.39417
       239.5645       93.68140       155.6431      -32.30122       145.4355
      -67.41373       51.34126      -75.51842       39.37582      -175.2950
      -67.21564      -242.3624      -82.31348      -245.4176      -137.5829
      -331.9182      -191.2069      -360.9052      -243.1639      -390.3771
      -195.0294      -413.0690      -353.2771      -464.7758      -260.1288
      -486.6392      -403.2667      -486.7043      -267.5977      -519.2601
      -407.2362      -487.6665      -322.0323      -505.5232      -343.9427
      -498.2947      -390.1414      -564.0403      -331.6993      -418.0353
      -363.2531      -601.9363      -315.8441      -390.0939      -345.2367
      -544.3004      -346.4756      -479.3103      -347.0693      -512.3940
      -322.2030      -446.8278      -355.3480      -507.8398      -307.3828
      -514.7388      -366.2212      -457.3392      -303.4390      -508.8876
      -331.6997      -458.8857      -339.7368      -515.1110      -331.8563
      -465.6348      -321.5060      -473.7877      -299.6102      -459.4265
      -295.5872      -426.8705      -313.0946      -470.6605      -240.1846
      -379.3395      -280.4419      -420.5569      -186.2302      -312.3038
      -198.5927      -304.5103      -64.92673      -195.6914       436.0466
       1308.154       1191.428      -1182.139      -1453.289       1017.129
       2613.870       422.8613      -3209.473      -7851.429      -4987.410
       12208.85       14623.43      -25442.88      -52177.41      -16694.59
       42991.77       65365.23       11004.58      -67061.92      -30551.45
       71081.98       4574.219      -116282.6      -3709.594       145314.8
       48323.02      -111047.4      -28140.38       161274.4       40846.06
      -243019.2      -118787.6       255810.3       242124.0      -103776.8
      -205267.6      -25313.16      -8658.547      -93981.84       90181.41
       247502.3      -257.6250      -228847.6      -85585.50       86881.42
       34373.72      -81575.14      -53127.33       65099.03       37180.39
       12092.62       200882.5       138285.3      -322355.5      -394574.8
       85682.12       364124.2       207972.9      -23373.44      -141372.8
      -138842.0      -10861.09       92866.73       28422.98      -85034.55
      -62211.28       39735.55       65810.48       33261.52       14903.55
       1175.375      -71527.72      -160494.3      -97713.39       86641.00
       173777.0       125909.7       12605.03      -119557.7      -121443.6
       5695.109       75159.72       68654.89       50920.23      -33364.84
      -110206.4      -44690.02       56977.81       66944.25       25987.31
      -10493.05      -65480.31      -112685.6      -7443.875       203279.2
       213481.8      -24878.19      -209002.7      -174244.8      -49956.27
       34770.84       111759.0       132969.1       24907.30      -84449.75
      -69613.42      -3020.492       27457.59       44607.73       36303.59
      -27695.23      -49733.30       35033.07       61861.08      -67311.88
      -131425.1      -1775.750       120445.7       61399.80      -61889.03
      -90856.09      -32636.34       24296.64       54880.94       79194.25
       49461.59      -46548.03      -100554.3      -70759.03      -10980.12
       47353.30       53366.34       8468.062       16888.38       58489.48
      -21476.34      -121783.6      -29066.88       85685.81       40992.64
      -12748.13       9092.969      -22352.22      -77994.66      -34109.45
       28316.31       29927.74       26182.80       6799.242      -38724.42
      -31858.34       27081.97       68904.98       60483.91       1670.938
      -49530.00      -48029.09      -38374.82      -38119.31       18035.97
       93971.00       76291.54       429.3438      -28705.17      -57440.38
      -99962.51      -33556.72       95764.56       109950.0       27404.50
      -44366.25      -81799.84      -71484.04      -7787.227       44253.10
       32245.25       2799.021       2495.625       16765.90       13535.55
      -17757.84      -22375.29       101.8184       3441.434       4911.420
       6752.625      -10865.57      -10324.82       32404.25       60907.34
       13321.80      -60740.94      -52096.54       12115.86       11842.32
      -17397.38       6390.793       27632.32      -11949.45      -42408.81
      -17095.30       2951.753      -3719.562       7050.391       40734.02
       60642.62       21498.62      -45405.45      -50006.45      -17837.83
      -22832.65      -3106.500       71164.91       87242.62       4555.375
      -59792.12      -40777.34      -10143.77      -13540.93      -9233.070
       20861.52       35690.40       21395.76       25664.20       37223.41
      -2233.531      -59988.80      -49780.34      -929.5010       5728.057
      -4516.031       22023.16       49490.90       26181.19      -24337.80
      -35131.46      -5272.977       2771.936      -9220.569       472.7148
       7643.303       6384.035       18664.93       14130.75      -22724.55
      -38601.01      -20221.23       755.5078       18949.86       32295.62
       16307.34      -17986.85      -23077.20      -12538.34      -20790.76
      -4793.492       42005.30       50459.95       6019.453      -26909.72
      -26996.54      -18084.53      -7080.750       14431.77       32461.43
       20745.64      -2869.309      -10988.47      -11472.20       5140.266
       17183.31      -12570.72      -35336.54      -10391.34       6147.320
       1689.578       19644.95       37861.98       32002.39       24684.28
       5347.969      -31595.30      -49318.69      -27904.30       17680.39
       44256.29       21232.66      -3431.633       10239.11       23075.53
      -4443.719      -39759.83      -33693.15       5405.844       24275.91
       16107.38       10447.53       9797.680      -18158.11      -55163.82
      -36455.88       23147.38       39749.12       11017.01      -2708.891
      -1989.496      -12322.73      -22365.72      -17390.46      -2959.852
       11956.60       24482.95       18294.63      -3902.742      -23168.58
      -25275.23      -6452.068       9741.605       7784.156       20092.88
       29524.74      -2507.773      -35285.36      -29525.37      -1492.186
       16082.36       856.4766      -29667.55      -20433.69       33930.30
       51308.55       24667.30       13871.21      -2839.109      -53175.17
      -64264.60      -14889.45       24388.97       30908.45       31838.13
       17990.63      -15026.38      -35748.42      -22596.03       10237.23
       24324.15       21999.86       28889.36       16957.27      -12508.84
      -20743.78      -23557.88      -14070.19       17742.77       4143.264
      -21123.69       15096.96       31951.50      -22031.05      -53406.76
      -18574.09       22990.76       25697.19       11547.84       3248.691
      -7763.484      -22128.98      -19910.59      -8348.875       17232.94
       48350.08       29044.09      -20714.91      -47638.36      -40158.32
       1373.789       29894.67       15984.11       3666.699       4152.332
      -9033.259      -4140.178       12504.16       7696.572      -1594.984
      -13226.40      -27821.16      -19236.94       5714.855       18185.02
       8417.709      -7507.014      -10464.70      -6263.320      -9130.742
      -3653.359       14413.38       32072.18       30234.07      -6036.156
      -45474.50      -33196.63      -2947.203       5143.984       26100.52
       41022.32       1593.109      -34566.97      -4721.188       40349.28
       26054.58      -28445.07      -48522.09      -12446.56       25922.14
