     0.02500000      -444952.8       375320.7      -12345.00      -12345.00
      -29.98999       250.8100      -49.69000      -12345.00      -12345.00
       0.000000       37.64000      -12345.00      -12345.00      -12345.00
      -12345.00      -12345.00      -12345.00      -12345.00      -12345.00
      -12345.00      -12345.00      -12345.00      -12345.00      -12345.00
      -12345.00      -12345.00      -12345.00      -12345.00      -12345.00
      -12345.00      -31.64950      -69.41590       1962.000       0.000000
      -31.23600      -65.83800       0.000000       167100.0       0.000000
      -12345.00      -12345.00      -12345.00      -12345.00      -12345.00
      -12345.00      -12345.00      -12345.00      -12345.00      -12345.00
       343.1771       261.3965       83.25419       3.085601      -12345.00
      -12345.00       3.324119       0.000000       0.000000      -12345.00
      -12345.00      -12345.00      -12345.00      -12345.00      -12345.00
      -12345.00      -12345.00      -12345.00      -12345.00      -12345.00
      2008       318        11        13        20
        90         6    -12345    -12345     11233
    -12345    -12345    -12345    -12345    -12345
         1         7        13    -12345    -12345
    -12345    -12345    -12345    -12345    -12345
    -12345    -12345    -12345    -12345    -12345
    -12345    -12345    -12345    -12345    -12345
         1         1         1         1         1
BARR    -12345          
        -12345  -12345  
-12345  -12345  -12345  
-12345  -12345  -12345  
-12345  -12345  -12345  
-12345  -12345  -12345  
-12345  -12345  BHZ     
ZL      -12345  -12345  
[...]
       485.7729       623.0807       476.7113       581.4080       444.4392
       576.5720       435.0764       540.6115       392.3823       514.5813
       345.4564       445.5490       315.3470       463.8831       302.9932
       391.1038       259.1613       393.2854       231.2193       333.2169
       204.1941       317.3912       146.6502       270.4471       128.5344
       226.6857       99.86139       233.0487       56.58420       159.4089
       42.36273       169.1584       11.39108       131.3717      -6.702499
       119.7045      -28.38698       89.19869      -49.91196       62.12927
      -81.20640       37.64145      -102.8827       37.09703      -103.2844
      -11.67419      -141.1931       6.544800      -147.4533      -30.07495
      -181.6432      -53.96237      -176.8353      -68.82147      -208.8187
      -95.11780      -243.1293      -118.9703      -262.0344      -137.5883
      -274.8126      -176.3994      -322.0757      -215.1866      -372.0972
      -252.3593      -391.4412      -275.7083      -432.7507      -340.4696
      -482.7904      -374.1920      -525.3003      -425.1661      -571.4597
      -460.3669      -616.6787      -533.4226      -678.0037      -557.3157
      -706.4663      -607.1892      -774.4614      -671.3413      -803.2910
      -697.7097      -854.3477      -740.3511      -892.8804      -801.5234
      -956.1682      -849.9194      -978.3284      -857.0222      -1028.880
      -949.8301      -1086.015      -955.6890      -1080.459      -977.3936
      -1128.671      -1003.206      -1137.958      -1051.581      -1180.009
      -1041.358      -1192.101      -1101.092      -1219.320      -1063.415
      -1186.794      -1088.555      -1231.915      -1125.886      -1225.374
      -1079.369      -1221.934      -1091.051      -1203.556      -1107.069
      -1239.093      -1088.819      -1204.976      -1072.857      -1202.472
      -1090.573      -1178.745      -1024.047      -1180.477      -1081.997
      -1176.390      -1031.351      -1160.528      -1036.101      -1165.045
      -1058.905      -1168.372      -1012.212      -1137.917      -1031.289
      -1129.836      -997.7964      -1131.278      -994.8579      -1096.922
      -964.2041      -1091.356      -963.5181      -1070.246      -935.7429
      -1028.940      -875.0134      -990.2764      -853.4590      -951.5464
      -816.6528      -910.9612      -762.7383      -875.4756      -727.9124
      -819.2866      -686.7871      -787.1543      -632.5752      -748.9896
      -619.6479      -696.1306      -530.3499      -653.6959      -539.7576
      -627.6499      -453.2798      -544.8953      -412.8785      -530.2067
      -399.6776      -485.4181      -325.2899      -416.9507      -263.8687
      -357.7312      -208.9683      -316.0259      -158.6373      -237.9506
      -105.5042      -216.5918      -64.00864      -143.0301       11.10809
      -74.29886       76.77003      -39.29649       100.0928       23.27335
       180.7565       76.66315       203.1658       113.5330       275.0901
       175.0137       314.7396       236.0022       382.8390       285.1157
       417.3958       344.6929       495.8584       384.9957       529.1753
       445.3384       590.2673       492.1793       625.5675       559.7706
       709.6494       619.4636       761.8652       665.7261       819.3000
       747.6543       884.8506       789.7417       943.0801       877.3445
       1022.857       916.9563       1041.228       979.2903       1131.076
       1021.079       1152.239       1062.208       1192.617       1094.180
       1223.179       1112.077       1242.745       1146.795       1261.721
       1147.051       1269.915       1150.660       1261.955       1153.951
       1258.348       1138.109       1238.919       1147.746       1276.319
       1138.573       1258.130       1154.610       1263.097       1145.198
       1289.174       1180.736       1290.096       1195.283       1319.051
       1206.543       1302.115       1202.267       1335.346       1227.771
       1352.440       1245.222       1352.389       1244.781       1356.536
       1249.517       1385.630       1293.513       1377.335       1247.248
       1373.275       1250.301       1357.485       1256.495       1343.782
       1195.608       1310.048       1213.966       1315.028       1186.922
       1272.613       1142.495       1215.005       1071.420       1182.517
       1070.609       1138.418       992.4895       1044.171       922.6992
       1033.202       888.9138       968.0645       834.6526       903.3721
       768.6619       825.4492       673.7393       755.1758       645.6189
       690.2170       527.4930       617.8125       488.3860       516.3754
       357.0598       449.9774       338.8818       408.5586       250.0355
       320.6341       171.1456       219.8488       104.2764       172.5572
       34.33416       85.95908      -94.78549      -37.30237      -112.6381
      -40.15350      -210.1475      -132.8741      -275.5459      -225.4240
      -362.5292      -296.9688      -416.6959      -327.6334      -445.4268
      -394.2756      -518.0575      -462.4756      -606.6376      -517.1403
      -625.3706      -545.0353      -675.9658      -609.2827      -721.6865
      -670.0510      -784.1929      -641.2976      -746.9944      -742.8296
      -860.5103      -745.0469      -874.7871      -788.5215      -859.8784
      -828.7424      -950.5764      -806.4565      -950.5769      -934.8872
      -975.8914      -814.3367      -986.3352      -936.4541      -970.5547
      -935.5486      -994.5688      -850.5696      -1064.853      -978.3403
      -981.0300      -896.6528      -995.3916      -897.1917      -1006.361
      -875.6270      -911.8074      -893.5449      -991.6599      -847.8923
      -964.4346      -829.9331      -860.9253      -806.0374      -904.1572
      -798.1382      -836.7898      -691.7048      -815.8694      -727.0786
      -756.9756      -674.6565      -766.6289      -604.1094      -685.3809
      -660.5096      -682.6772      -558.5950      -707.2111      -551.7404
      -577.7260      -562.1383      -612.5656      -463.2256      -602.6984
      -511.2302      -531.4470      -475.8547      -552.3673      -408.3641
      -490.0499      -428.8339      -500.1161      -413.0913      -475.9250
      -365.6274      -441.3352      -384.6045      -432.6552      -306.1609
      -391.6809      -327.6722      -379.7167      -293.1322      -371.9274
      -253.6373      -299.3326      -239.5449      -315.9496      -205.3937
      -265.7480      -183.0424      -256.7390      -168.9835      -228.3032
      -145.4391      -216.2263      -128.8901      -171.9281      -68.41162
      -154.4886      -73.91022      -127.3055      -37.37030      -88.00870
      -19.73335      -111.0717      -23.53317      -76.21361       6.371078
      -69.95498       7.964539      -60.56401       7.380295      -78.93517
      -19.22429      -64.10387       23.65840      -61.00079      -16.12267
      -89.73256      -20.80699      -96.03116      -25.96884      -108.5695
      -36.67656      -79.11612      -28.59885      -116.8539      -32.64651
      -110.0323      -76.78369      -146.4968      -40.03320      -93.66422
      -70.64993      -140.4682      -79.97470      -149.1920      -54.79529
      -102.9795      -81.36621      -150.3622      -68.10147      -125.4216
      -68.34366      -136.6063      -113.7556      -190.5184      -74.70316
      -141.4988      -131.5439      -124.6170      -3.746826      -152.4083
      -161.6595      -171.5393      -41.10892      -108.4968      -116.2444
      -118.9268      -22.32739      -116.1166      -64.56491      -80.09485
      -2.050034      -74.65237      0.3031883      -11.93694       57.18617
       11.45506       53.22006       44.60327       167.2734       72.33371
       136.5396       165.5684       213.9395       148.1847       239.0481
       220.3243       258.3942       253.7784       331.5505       261.6372
       355.7147       343.6288       395.4045       350.4001       421.4469
       400.4639       465.1426       416.4631       488.3119       464.1843
       518.3613       499.8379       537.4408       465.2794       546.8486
       543.6379       620.2026       583.5698       610.6902       542.7395
       615.4775       632.2490       684.1650       628.2063       672.3550
       627.1941       701.4348       684.5159       729.7047       659.4282
       696.8567       672.4695       715.0947       671.9392       705.0786
       625.6404       653.3212       640.3431       694.8164       607.0022
       596.9171       533.2483       576.7521       539.3197       540.2314
       458.8435       467.1302       395.9421       407.7834       329.1667
       347.0712       289.2418       276.9030       204.4053       217.6133
       155.4966       130.7448       78.08029       124.9645       31.26407
       41.85214      -45.51990      -71.57561      -31.50275       17.25656
      -91.56943      -135.9922      -161.7311      -93.53369      -180.2157
      -121.3428      -71.55054      -150.2440      -256.3511      -178.7253
      -182.0723      -129.3337      -202.5437      -198.1028      -184.3028
      -167.2415      -226.2593      -201.9932      -205.9243      -198.7162
      -231.9083      -144.4579      -162.8589      -169.4958      -235.2114
      -214.5583      -137.0959      -169.6841      -226.8035      -105.2870
      -197.6676      -241.3889      -217.5038      -117.1133      -156.3856
      -191.8403      -184.5318      -137.7194      -183.0236      -141.3182
      -179.7751      -197.0912      -196.1276      -158.5500      -210.0952
      -204.8199      -219.4315      -193.3757      -249.3425      -212.9788
      -234.1417      -267.8566      -269.6748      -269.4993      -311.4709
      -284.4985      -314.8381      -312.8306      -361.7382      -348.6949
      -382.8945      -386.5867      -394.7745      -416.2963      -451.3436
      -409.3062      -466.1906      -483.1333      -487.5865      -461.8984
      -475.1614      -516.3828      -544.4678      -524.8872      -561.3835
      -554.6104      -576.9673      -561.1805      -560.8289      -557.5466
      -582.0811      -545.5663      -588.7742      -602.7793      -570.1714
      -553.7673      -595.4949      -586.7622      -574.3390      -547.6721
      -581.8022      -556.8486      -529.1569      -522.3392      -532.5707
      -502.3167      -471.5844      -417.5964      -410.4946      -393.6323
      -382.6122      -327.6989      -315.7736      -261.7016      -194.1879
      -163.7611      -171.0417      -130.0400      -94.78001      -52.95723
       2.716713       18.14285       16.39067       75.97241       100.2222
       163.5510       212.9038       246.8257       236.3652       246.8292
       301.0962       369.4066       423.1029       405.8298       413.9187
       470.6589       490.2327       518.1428       548.0531       553.0957
       572.7538       604.4187       602.2861       608.9502       643.4326
       642.0403       667.7764       688.4678       679.1143       710.0049
       767.5071       749.1692       735.6506       776.0703       798.8508
       767.2490       824.0771       842.0100       800.1177       796.4136
       868.9663       855.8555       855.6299       866.0798       873.5220
       886.1113       922.2295       933.0625       950.5557       931.0513
       982.9866       1011.502       993.8281       972.1899       1028.794
       1028.886       1044.317       1058.911       1092.147       1128.913
       1144.542       1096.508       1143.486       1170.989       1144.682
       1173.590       1249.483       1188.947       1174.373       1206.985
       1265.784       1227.422       1195.577       1211.994       1250.903
       1204.658       1210.387       1215.248       1212.452       1157.156
       1171.542       1146.205       1104.368       1061.611       1068.836
       1042.306       1047.360       977.9080       951.7463       929.0598
       922.1416       863.6938       840.2778       807.3945       779.5496
       677.7548       677.1737       655.6995       626.5432       543.4265
       552.3823       722.2383       1360.569       2657.238       4789.525
       6704.986       6765.562       5538.844       8015.512       16725.95
       23381.26       18757.82       12299.27       17995.83       31963.52
       42104.92       25996.31      -58158.69      -166827.2      -124823.9
       70686.05       127723.0      -31378.02      -107434.0       26982.58
       127030.5       7057.125      -156485.3      -106843.4       70321.62
       84699.02      -351.0488       10082.81       3949.594      -39437.84
      -98179.27      -132397.4       32850.50       276903.4       375320.7
       114991.8      -400016.0      -444952.8       18575.44       313863.4
       231623.2      -77233.31      -207185.6      -34779.49       39555.63
       9978.758       13125.69      -67675.28      -102797.8       20992.03
       51778.47      -30942.55       34294.66       173834.4       106320.0
      -161132.4      -256692.1      -45627.36       108489.0       49111.84
       22154.03       81667.03       77805.92       15565.66      -69021.95
      -73844.22      -10389.19      -47775.05      -47380.78       68883.17
       105138.1       37166.75      -60254.09      -113103.7      -42636.44
       51848.53       73277.11       67912.75      -1094.281      -111470.3
      -76405.53       76263.72       126569.4       54911.53      -49482.59
      -107913.6      -49980.34       55247.73       80835.34      -5983.969
      -99963.94      -85760.72      -22448.22       4569.742       20766.05
       23148.46       26504.70       43987.62       1330.875      -45930.60
      -17511.45       28242.23       37461.33       2734.984      -49148.59
      -59196.04      -6020.844       65446.00       98466.30       48587.10
      -33561.91      -49088.66      -27577.16       10330.20       35324.25
      -39995.06      -115028.1      -57566.89       30128.61       33894.06
       19327.83       28539.40      -7727.953      -68212.59      -72899.44
       7584.141       84263.88       59389.62       14491.74      -12678.70
      -46824.43      -30155.72       35677.44       58548.25       9762.742
      -4618.500       43273.62       31084.06      -42689.02      -45638.86
       418.4453       15504.59       19786.53      -954.1680      -29802.33
      -2641.914       20676.42       1956.922      -12024.84      -25627.68
      -17726.47       28874.12       34698.12       2201.406       20238.97
       52825.42       27506.98      -17401.42      -31417.95      -29854.98
      -16743.33       20425.23       12380.12      -38540.73      -37824.91
       1471.523       12081.52      -11069.89      -37865.91      -36282.24
      -5947.742       12399.69       10391.41       17725.64       27480.93
       14052.92      -2791.695      -4756.863      -21381.20      -17086.76
       33805.45       40484.48      -3040.934      -8468.703       22407.26
       41507.05       25449.99       1906.625      -8299.859      -24842.66
      -30016.09      -9308.700       1062.082      -4098.104       2171.133
       7733.836       6843.514       8779.973      -8762.309      -17229.92
       8768.598       19566.41       11872.14       4204.254      -19487.68
      -12672.55       48828.20       81230.22       29778.73      -46653.69
      -67775.44      -18707.58       29577.52       23903.05       3096.286
      -2248.105       7217.516       13835.58      -448.2109      -9195.691
      -12607.79      -15468.19       4746.328       11632.27      -17914.34
      -24576.80      -5836.314      -1217.961       13786.89       45190.25
       32982.78      -5942.742      -16116.71      -17156.14      -15175.61
       12451.77       30000.30       5761.602      -13571.27       4935.461
       11161.04      -22921.97      -49586.09      -32253.97       12912.13
       40183.85       23621.63       239.2354      -1697.979       3071.111
       1001.136      -2847.378      -1236.596      -1654.812      -12323.46
      -12463.76       4552.719       19369.71       23995.71       15060.27
       1394.836       11293.97       20721.69      -6621.695      -28140.35
      -13390.38       1693.621       3079.266       8430.945       18482.12
       23357.75       16428.70      -10895.83      -30694.50      -25237.70
      -13568.73      -2020.001       4905.964      -1565.703      -11354.77
       1956.062       31604.56       16300.16      -24089.32      -10106.73
       21390.78       12907.04      -8271.047      -20753.42      -9430.363
       16274.22       6945.086      -20031.27      -18816.53      -7354.008
       8285.777       13455.89      -2029.121       998.6621       11671.25
      -2717.969      -13322.57      -4719.149       1990.934      -10838.32
      -21392.23       4219.426       20789.79       1017.258      -12358.40
      -16697.95      -12748.56      -2161.372       2608.719       11131.75
       23414.62       12868.05      -13848.21      -26316.17      -22276.12
      -1394.996       18440.21       11697.25      -2190.031      -8957.854
       521.7773       18357.80       4754.543      -16215.09       2828.969
       17836.45      -5144.812      -28559.20      -11859.08       32082.78
       35169.78      -8039.430      -31394.68      -24712.43       6654.719
       35504.83       18151.33      -17393.16      -40490.22      -42706.85
      -13184.43       14800.39       20040.06       12281.33      -12758.27
      -33639.91      -6561.219       33150.41       26666.22       1271.501
      -7769.263      -1202.137       12312.22       4928.547      -16825.20
      -26255.73      -8106.082       17401.93      -1039.953      -32845.92
      -15088.88       15535.56       19916.94       877.1562      -23293.59
      -6451.496       22906.63       14344.46       6995.680      -5403.141
      -24362.17      -9084.326       3750.547       1750.667       4084.328
      -720.8477       5065.996       3412.352      -20876.31      -20681.58
       3552.146       12730.83       3391.375      -11138.22      -7640.836
       11219.09       17397.80       14505.96       13446.23      -2616.266
      -21841.62      -19547.62      -12764.77      -13696.63      -10823.04
