     0.02500000      -42594.56       64852.57      -12345.00      -12345.00
      -30.00001       240.4000      -38.80000      -12345.00      -12345.00
       0.000000       29.59000      -12345.00      -12345.00      -12345.00
      -12345.00      -12345.00      -12345.00      -12345.00      -12345.00
      -12345.00      -12345.00      -12345.00      -12345.00      -12345.00
      -12345.00      -12345.00      -12345.00      -12345.00      -12345.00
      -12345.00      -31.75110      -68.43510       640.0000       0.000000
      -31.23600      -65.83800       0.000000       167100.0       0.000000
      -12345.00      -12345.00      -12345.00      -12345.00      -12345.00
      -12345.00      -12345.00      -12345.00      -12345.00      -12345.00
       253.2646       256.2947       77.64496       2.277177      -12345.00
      -12345.00      0.2725571       0.000000       90.00000      -12345.00
      -12345.00      -12345.00      -12345.00      -12345.00      -12345.00
      -12345.00      -12345.00      -12345.00      -12345.00      -12345.00
      2008       318        11        13         9
       200         6    -12345    -12345     10817
    -12345    -12345    -12345    -12345    -12345
         1         7        13    -12345    -12345
    -12345    -12345    -12345    -12345    -12345
    -12345    -12345    -12345    -12345    -12345
    -12345    -12345    -12345    -12345    -12345
         1         1         1         1         1
BOZA    -12345          
        -12345  -12345  
-12345  -12345  -12345  
-12345  -12345  -12345  
-12345  -12345  -12345  
-12345  -12345  -12345  
-12345  -12345  BHN     
ZL      -12345  -12345  
[...]
       814.1340      -2110.783       973.6191       5107.789       950.9473
      -4182.380      -3279.385      -1123.518      -572.9072       173.1787
       3388.648       5330.819       290.8232      -4500.346       1494.815
       4435.315      -4350.000      -3845.416       1853.143      -3779.648
      -3344.755       1966.510      -1810.010      -1597.704       3751.100
       1209.775       2132.312       11292.88       5991.828      -8643.435
      -5184.805       2596.947      -3133.915      -3687.385       7557.430
       6729.491      -4391.727      -3099.021       1223.885      -4327.746
      -2012.617       7718.667       3781.905      -1693.797       1514.035
       588.5969      -693.0068       1805.596       1618.574      -843.2666
      -2694.909      -4436.185      -5611.909      -3539.397       338.4290
      -928.2363      -1872.955       5318.480       11676.46       5538.406
      -4283.979      -8359.661      -7421.675      -768.7832       3973.104
       3012.905       3445.798       2725.054      -628.8389      -1644.188
      -1098.462      -99.64600       28.91406      -2421.346      -4535.888
      -940.5098       7909.470       6486.869      -1737.413      -2819.139
      -5425.527      -9755.367      -4151.215       941.9949      -1837.611
      -198.6250       3711.195       2823.722       2322.716       3427.235
       2774.854      -2023.670      -6139.307      -6671.845      -1845.746
       4061.364       3718.235       4809.000       4228.188      -2470.584
      -3870.754      -3392.070      -2167.250       2852.878       2589.411
      -2493.341      -4207.306      -2529.196       418.9417       459.8257
       481.5586       3272.419       2282.107       454.2468       46.40723
      -3453.379      -2844.320       1549.692       1154.752       442.5344
       556.9053      -3994.897      -5685.817      -1266.512       2369.000
       1464.108      -1101.112      -285.4025       417.8022      -1412.972
      -1160.132      -93.41431      -563.5396      -1005.816       162.8564
       2319.496       8656.930       13503.55       6508.514      -4096.570
      -9351.879      -10455.75      -6549.156      -3196.517      -3140.323
       69.51562       2493.714       568.0703       4312.070       10076.04
       7768.997       2210.624       19.02246      -1633.066      -5727.620
      -6789.517      -2529.493      -2274.352      -2844.819       2274.885
       3412.225       2101.673       181.1113      -9527.357      -10643.96
       828.6992       6982.590       6570.921       4598.337       1656.076
      -728.7290      -2138.080      -188.7754       1746.847      -2225.486
      -6262.345      -5908.543      -3808.703       1922.459       6111.031
       4298.243       3009.001       2383.361      -3919.352      -8932.060
      -3566.814       5667.664       7409.023       2809.353      -334.9185
      -551.7627      -2136.663      -2168.904       682.6768      -127.7065
      -1189.474       2807.000       3947.139      -1750.533      -5110.707
      -3184.279      -857.0195       2087.272       1849.305      -3113.930
      -4377.896       1257.281       3058.304      -293.4357       61.26660
       678.4192      -1558.376       2356.016       7955.804       2364.311
      -5040.053      -457.8975       5056.458      -442.3984      -8637.801
      -7035.829      -168.5845       1920.140       670.3208       1991.624
       4214.850       1074.529      -4364.224      -2321.297       2698.633
       1761.730       383.6611       2801.912       3620.545      -229.7871
      -5502.533      -4673.790       1626.852       7410.284       5219.315
      -5439.192      -6956.785       3692.937       3555.604      -3764.877
       494.4395       5362.060       2637.622       2031.359      -52.23047
      -6071.193      -8295.451      -831.4785       9152.493       6329.143
      -2797.265      -3925.984      -2571.171      -4419.582      -5424.445
      -1483.328       4981.125       7441.434       3758.209      -2522.933
      -6020.455      -1167.222       4234.025       1512.832      -2573.188
      -211.3682       4412.726       2237.163      -2713.520      -2179.209
       1238.479       3445.584       1964.658      -1374.752      -3151.785
      -157.4263       3994.853      -370.2090      -7426.170      -5347.388
      -512.8613       1393.556       2529.059       2886.472       1773.363
       811.8340       2050.127       5327.017       5858.913       256.4658
      -5477.580      -4385.608      -403.3105       2257.086       4618.660
       3345.477      -1898.580      -1934.870       490.2471      -2028.811
      -5220.939      -3623.336       273.9238       1560.431       2015.824
       2316.117       2136.022       3158.454       768.8896      -3266.031
      -2762.021       2757.689       6023.337       1844.820      -4318.159
      -4582.710       1223.406       5367.209       4467.413       3130.073
       2050.863      -981.0669      -2206.236      -1389.064      -2920.424
      -2645.691      -813.4670      -211.2852       2830.816       6925.261
       4489.562      -2342.203      -3247.066       2220.684       3927.357
       525.4707       579.3418       2307.498      -1983.859      -3134.660
       1455.462      0.1923828      -3383.472       631.2158       3209.938
      -1912.626      -3257.821       2369.959       4161.373       2316.780
       38.09277      -2099.764      -947.3174      -447.5635      -3595.743
      -1497.730       3197.657       744.0522      -2348.397       30.12354
       464.7402      -2397.270      -993.8470       985.8716      -1856.599
      -3422.808      -2831.617       145.4111       4770.517       2888.477
      -2668.519      -1916.710       1175.280       2604.928       4021.313
       1240.796      -4145.041      -6053.261      -5862.788      -1677.178
       2244.541       367.2275       154.1948       2455.482      -423.5850
      -3467.459      -1344.468       933.6084       1289.742       1308.173
       826.0259      -1320.701      -3126.790      -665.5419       510.8223
      -2516.169      -1140.548       956.7775      -788.0205       2985.870
       3034.880      -5087.944      -4551.117       1233.288      -570.4131
      -3233.613      0.2812500       2695.262       74.45703      -3173.507
      -3331.687      -942.6133      -592.9780      -2075.370      -1051.272
      -438.2070       1742.731       6182.342       2136.682      -3413.978
       37.28491       2287.517      -2204.409      -3145.014       3492.979
       5365.394      -131.9795      -1394.753      -1233.848      -3166.272
      -2395.006      -28.36719       1970.215       2249.218       1064.581
       2326.058       3534.485       2389.941      -752.1426      -4280.164
      -2623.299       596.4824      -1532.694      -2242.877      -114.4365
       800.1357       2949.933       4496.086       1641.744      -1595.897
      -2484.709      -3318.957      -2453.896       462.3726       1957.450
       1961.656       1508.555       1868.305       862.8225      -560.7256
       3250.991       6150.768       272.5557      -4317.719      -896.1079
       1785.484      -468.9961      -1211.813      -1560.716      -3502.761
      -2226.978      -746.2814      -1356.566       911.0083       3165.045
       1654.450       314.4858      -133.5889      -1326.196      -133.8477
       3893.859       6505.321       4036.523      -219.0126      -715.4915
      -148.3848      -2307.554      -3353.792      -2295.517      -1516.422
      -1225.159      -105.1777       2408.621       5023.740       4937.572
       1401.664      -1027.762       542.6863       313.4736      -3231.086
      -5537.216      -4890.649      -2093.942       138.3662       1600.196
       3491.191       2393.032       834.5151       2500.890       1480.698
      -2166.421      -334.5720       1822.250      -2002.614      -3491.083
      -171.5731       915.7017      -179.0090      -1347.845      -1306.592
      -164.5886      -39.84180       1310.584       4577.289       3026.214
      -988.7705      -1740.749      -2808.359      -3463.961      -1267.401
      -563.1160       716.5762       2613.624       647.3627      -197.9429
       2072.431       716.0469      -2051.950      -614.6179       1060.099
       1154.456       3251.881       2969.151      -2482.227      -6077.652
      -5102.428      -2037.980       2619.273       5439.599       4701.839
       3189.623       1945.352      -243.4541      -2636.399      -2169.518
      -12.77051      -1082.398      -1865.385       513.3636       707.9956
      -1432.306      -1517.561      -1351.871      -2616.689      -816.9902
       4052.878       4134.535       992.3400      -13.50903      -128.3042
      -664.9385       297.6934       2748.028       3355.635      -712.3027
      -4183.212      -1424.849       470.6715      -434.6328       1926.215
       1523.569      -2668.089      -2908.001      -2433.722      -3674.803
      -3200.212      -1469.522       250.8423       1723.890       3843.659
       3556.752       418.1855      -1836.377      -2439.827      -1384.898
       331.3604       3880.426       7035.668       1879.092      -4325.664
      -2856.707      -989.1538      -2158.152      -1452.095      -727.2725
      -1755.713      -817.7896       1244.486       1312.155       586.2275
       563.1865       1371.407       1363.233      -148.2201      -723.0980
       449.1311       1033.702      -136.9229      -2135.582      -1512.865
      -330.7822      -2169.091      -1176.652       2058.477      -673.4128
      -1428.996       3714.810       4816.384       1885.506      -37.11426
      -1101.501      -1204.649      -651.2485       616.6550       469.9551
      -3377.598      -5374.957      -3014.872      -1132.551       570.4717
       2832.248       1416.052      -668.1953       1158.962      -924.1082
      -2890.630       2250.175       3772.269       1718.123       2562.372
       1583.051      -1060.871      -181.7695       2834.073       2249.740
      -764.6289      -1806.499      -1230.372      -525.9570       1109.016
       3099.637       3177.858       894.5729       38.45825       107.1260
      -1340.667      -1855.784      -1755.383      -3280.616      -3372.303
      -1122.724       213.4912       1318.062       1678.779      -467.6953
      -2212.022      -2478.185      -1688.427      -402.9688       620.2588
       2024.056       4653.943       3895.534      -856.5845      -2606.078
      -905.0459       1072.552       1982.269       159.6243      -870.4951
       1427.017       2581.722       1232.248       876.9614      -1104.490
      -3033.655       513.0786       3230.608       180.4907      -2154.752
       1083.141       3881.037      -511.7974      -3666.381       779.3389
       2822.565      -471.7324      -1223.795       124.7666       68.69543
       7.655762       971.4006       324.4941      -2450.422      -4086.885
      -1820.402       633.0359       407.5317       1291.376       1008.202
      -1320.410       79.59668       1369.527      -230.6208       565.1362
       2207.196      -782.1748      -4343.370      -1357.139       3222.308
       1427.279      -1525.333      -635.1572       1279.948       1746.267
      -240.3838      -2555.718      -2665.809      -1258.532       665.7625
       991.3184       924.0448       408.8770      -1843.582      -1772.624
       717.5076       854.4976      -1070.901      -1568.729      -750.2461
      -654.7312      -552.0112      -318.3927      -872.7017       881.0054
       3127.209       68.34692      -1279.109       861.6644       707.4492
       357.7100       1928.287       4427.381       2727.199      -2867.925
      -4518.310      -2405.393      -1371.143      -2696.777      -2148.676
       2135.605       4250.922       2721.966       2625.476       3490.429
       2468.542      -1373.210      -5439.826      -4053.814      -1006.729
      -1690.356      -102.5518       3894.615       3789.675       997.0767
      -1291.841      -3097.951      -1852.696       766.7888       402.7195
      -196.3945       1863.374       2610.666       25.98584      -1330.287
       13.43506      -340.3579      -1497.508      -97.24438      -33.63574
      -2040.333      -1878.150      -198.1331       1207.801       1081.099
       47.86719      -712.2500      -525.6760      -119.0264      -2069.071
      -4122.000      -2156.742       1016.949       1903.401       2390.831
       3213.028       1873.711      -2263.953      -8801.285      -16021.62
      -22368.13      -27979.98      -32085.45      -30601.83      -20758.83
      -5573.160       8457.680       17329.52       20616.24       18642.24
       16613.23       15952.92       4796.562      -19104.61      -38583.84
      -41699.57      -28526.70       4248.672       46135.41       64852.57
       51346.56       24230.64      -6742.305      -28947.91      -28954.32
      -12510.46       4346.887       10954.27       15703.29       26688.70
       27116.42       5224.664      -16985.80      -23722.48      -29236.00
      -27698.24       477.8594       37748.92       47665.66       25712.49
       7998.453       11626.68       16680.79       16748.48       9514.910
      -11430.09      -32722.70      -40294.14      -30928.38      -10642.50
       894.0703       2858.795       6804.021       4265.138       988.1758
       13767.84       26766.84       21710.38       9050.441       5714.297
       14995.00       24226.49       15879.52      -4070.242      -17267.24
      -26237.50      -32625.45      -35705.86      -38055.80      -19646.09
       19220.21       39068.12       25973.84       4360.374      -5297.260
       1705.164       18587.23       27355.90       18182.60      -1791.148
      -24119.65      -40547.70      -42594.56      -31332.35      -4678.742
       30860.31       38844.81       18124.81       5869.621       2747.523
      -9800.898      -22182.07      -15864.02       3369.812       22660.80
       32760.15       20523.06      -4110.293      -13415.89      -9072.211
      -17298.02      -26445.39      -6114.215       18815.58       14002.34
      -1190.125      -2411.316       6011.568       8321.219       69.83496
      -2466.726      -2061.277      -8695.326      -3902.449       11384.08
       13266.35       805.2891      -12382.38      -16834.50      -8700.240
       2357.174       7255.254       7787.188       2204.465      -13072.08
      -26852.89      -20811.48      -2054.711       12827.38       21859.35
       20205.85       9526.781      -8664.727      -29118.45      -25852.42
      -1202.211       12988.79       11234.47       5840.804       332.3223
      -6534.754      -13824.45      -15249.36      -4342.273       12549.09
       23109.48       21761.45       11670.93      -6267.305      -23864.23
      -20889.29      -8428.363      -3306.008       5373.898       16716.07
       17447.96       3697.652      -12434.11      -14589.62      -5310.132
       2933.170       8083.494       6439.625      -1122.229      -5052.662
      -7090.266      -7749.728       958.3535       11675.45       7676.739
      -2557.202      -4350.494      -4561.132      -4191.140      -2160.521
      -3762.252      -4378.850      -1964.708      -895.2539      -1327.627
       2957.070       10493.18       10190.92       2762.730      -4015.214
      -5613.663      -4308.434      -3532.072      -3629.065      -4995.494
      -1586.994       8439.242       11113.04       5619.721       3726.555
       6240.881       7914.467       1633.270      -7929.445      -8100.387
      -3922.079      -3036.396      -2383.288      -1207.463       3092.870
       6331.763      -1341.805      -7197.346      -2519.377      -2868.986
      -6398.584       2452.730       12717.22       9439.481       2078.484
      -221.2949      -1066.755       105.1443       1396.216      -2234.223
      -4478.264      -1793.631      -423.4620      -450.5981       956.7451
       139.8604      -2932.149      -2255.974      -2496.543      -5836.344
      -4051.277      -68.66846       663.6270       6366.535       19076.34
       22869.24       8685.098      -9720.387      -13012.06      -3609.044
       2592.431       2357.064      -160.6758      -2897.286      -4323.916
      -998.7793       6027.836       7273.511       2116.894      -660.1411
      -1343.993      -2487.658      -3613.836      -1892.840       4412.400
       6607.278      -1645.001      -6749.774       700.3750       7276.926
       6081.854       3665.615      -884.7373      -5069.809      -931.1377
       2819.421      -1910.889      -8296.496      -11864.85      -10431.34
      -4063.535      -660.7441       2955.617       12475.27       13544.77
       4941.229       537.1084       1751.488       4885.922       6496.225
       6079.263       5620.780       2143.242      -6237.922      -12371.93
      -9119.459      -3177.622      -2131.198      -2110.178      -2047.309
      -4493.987      -4602.167       1419.082       7205.175       6099.441
       1757.615      -456.5244      -3883.531      -7657.863      -287.4648
       10755.35       4472.291      -10097.69      -10242.25      -499.9590
       4599.209       1999.443      -5262.197      -7485.548      -1410.185
       2266.502      -154.1859      -339.7358       544.4570      -4474.310
      -6436.875      -98.52930       4661.383       3816.358       1841.602
       3030.547       6542.863       8639.170       7045.611       2424.980
      -4790.703      -12654.86      -11003.47      -500.5605       8158.592
       11855.79       4988.570      -8205.922      -9839.659      -1937.592
       3143.949       4801.617       7339.121       10838.07       9343.895
       1467.518      -4646.831      -1677.183       3614.803       3391.718
       2641.785       1889.938      -3601.541      -6551.905      -889.0098
       2382.054       180.5371       3617.825       7074.840      -457.8438
      -9101.402      -8630.243      -3596.011       1435.830       5755.885
       6488.438       1554.724      -3786.228      -2.484375       8646.520
       10619.88       6056.614       1680.342       350.8882      -822.1790
      -414.9141       3931.815       3954.875      -4417.145      -11422.78
      -9318.703      -2872.046      -165.5225       905.9434       1930.224
