     0.02500000      -68380.28       60392.79      -12345.00      -12345.00
      -30.00001       240.4000      -38.80000      -12345.00      -12345.00
       0.000000       29.59000      -12345.00      -12345.00      -12345.00
      -12345.00      -12345.00      -12345.00      -12345.00      -12345.00
      -12345.00      -12345.00      -12345.00      -12345.00      -12345.00
      -12345.00      -12345.00      -12345.00      -12345.00      -12345.00
      -12345.00      -31.75110      -68.43510       640.0000       0.000000
      -31.23600      -65.83800       0.000000       167100.0       0.000000
      -12345.00      -12345.00      -12345.00      -12345.00      -12345.00
      -12345.00      -12345.00      -12345.00      -12345.00      -12345.00
       253.2646       256.2947       77.64496       2.277177      -12345.00
      -12345.00    -0.01637864       0.000000       0.000000      -12345.00
      -12345.00      -12345.00      -12345.00      -12345.00      -12345.00
      -12345.00      -12345.00      -12345.00      -12345.00      -12345.00
      2008       318        11        13         9
       200         6    -12345    -12345     10817
    -12345    -12345    -12345    -12345    -12345
         1         7        13    -12345    -12345
    -12345    -12345    -12345    -12345    -12345
    -12345    -12345    -12345    -12345    -12345
    -12345    -12345    -12345    -12345    -12345
         1         1         1         1         1
BOZA    -12345          
        -12345  -12345  
-12345  -12345  -12345  
-12345  -12345  -12345  
-12345  -12345  -12345  
-12345  -12345  -12345  
-12345  -12345  BHZ     
ZL      -12345  -12345  
[...]
      -713.7151      -752.2153      -734.9165      -759.7996      -760.0166
      -783.1509      -791.6279      -833.5618      -812.4004      -827.8682
      -834.9097      -863.5461      -848.0669      -867.1353      -848.9917
      -861.1943      -858.3210      -887.0020      -876.2097      -889.5610
      -873.4700      -900.8586      -878.2852      -883.4050      -867.1577
      -872.5654      -852.9287      -884.6851      -855.7451      -848.3979
      -827.3389      -847.3967      -835.4419      -841.6167      -783.7480
      -770.0562      -773.8342      -798.2627      -739.6616      -723.8250
      -714.1660      -734.9856      -683.5065      -661.7571      -641.4529
      -658.7864      -613.0483      -602.2537      -568.1030      -557.4675
      -516.6188      -522.2834      -496.2516      -491.4597      -444.2253
      -443.1700      -403.0676      -392.3367      -357.5189      -349.5425
      -298.2743      -293.2018      -256.6741      -262.8076      -220.3145
      -197.4700      -150.1831      -123.6060      -67.06393      -107.6945
      -99.07612      -61.43108       5.283226       17.48531       53.68683
       44.64487       94.16016       117.7742       158.4985       174.0757
       219.3030       213.7144       257.6739       279.2209       315.3971
       317.5386       369.0239       390.3417       427.4526       414.0677
       445.6777       475.9910       533.0391       537.6326       566.1614
       558.6377       577.3918       591.6437       667.8785       665.9624
       665.4707       674.7668       731.3455       731.4119       766.7249
       771.7393       791.1675       790.0452       836.0581       832.0027
       858.2234       860.6040       897.3291       889.6099       899.5210
       886.5791       935.8994       943.4768       982.5159       972.5676
       939.5115       912.7659       996.2451       995.6497       973.3906
       942.7827       981.6191       994.4951       1016.097       979.7854
       982.9834       965.3691       987.1008       963.7131       962.1194
       937.6575       947.0513       922.3110       945.2134       907.9768
       898.2012       876.2673       899.0586       865.1030       838.3223
       795.8025       829.8384       820.9609       812.8201       761.0400
       743.1365       717.9072       736.5000       692.1332       673.4857
       626.3318       631.0076       594.9691       589.9113       551.6038
       548.0262       492.0663       487.7325       456.8361       444.2977
       395.4797       410.3015       360.8169       344.9977       325.1776
       333.0789       286.8801       288.4148       253.9644       257.8356
       204.1453       183.7758       152.8062       166.1889       119.5742
       112.1274       89.29398       87.42978       44.63564       68.40790
       38.11917       28.75077       4.056473       2.702759      -34.76584
      -17.32211      -49.30258      -43.61948      -70.08104      -65.65103
      -84.14099      -78.72275      -128.1499      -113.7138      -130.5290
      -131.4996      -145.6974      -131.0330      -182.1602      -180.0482
      -193.4355      -176.8693      -210.7975      -217.1632      -234.4824
      -214.4588      -253.6642      -252.4457      -284.7360      -276.1184
      -297.0991      -285.3368      -311.4731      -304.7064      -340.7274
      -324.8464      -344.8885      -338.7451      -359.0387      -345.1370
      -386.6370      -384.2380      -403.7573      -375.5496      -398.3521
      -398.1689      -424.7661      -411.7749      -436.6750      -416.0778
      -440.3555      -454.0386      -487.0026      -455.3994      -461.4543
      -452.0630      -486.2963      -470.0664      -478.0031      -465.4047
      -493.3206      -478.3416      -503.1093      -499.5304      -516.7822
      -490.8167      -502.6599      -482.7184      -507.3674      -492.0007
      -504.8708      -484.3550      -506.8318      -479.9095      -490.1625
      -469.6761      -475.5948      -449.1315      -478.0039      -457.0933
      -472.4523      -455.1187      -452.9617      -430.9410      -469.8656
      -449.4844      -445.8580      -421.7974      -446.5391      -434.6216
      -438.1725      -411.7329      -446.1147      -429.8345      -427.1942
      -409.7837      -438.0979      -418.8746      -431.0730      -416.3483
      -430.8062      -416.6056      -440.4087      -413.1982      -424.6669
      -409.6760      -411.9402      -388.4868      -414.6382      -402.5493
      -412.6265      -382.9634      -392.7307      -364.0974      -368.5325
      -355.5736      -379.8528      -354.5590      -360.1658      -343.1074
      -355.8370      -327.2751      -340.3667      -327.2395      -337.3349
      -296.2146      -306.6595      -290.4965      -284.0171      -248.7502
      -262.8210      -238.0345      -255.5508      -240.3093      -238.4628
      -200.1461      -214.2472      -172.9313      -158.9931      -142.5191
      -173.9838      -142.2504      -135.3358      -107.1678      -118.6512
      -86.75024      -90.76134      -62.30370      -71.19016      -43.87619
      -52.16401      -25.28207      -40.01975      -10.34009      -9.447269
       12.56004      -2.659706       39.92988       27.19379       52.40939
       61.78725       82.43030       49.48463       83.04321       77.10809
       94.28436       85.83759       121.9201       121.3634       147.5937
       126.7250       154.1104       144.5726       168.0688       161.9654
       185.1003       184.1349       219.0918       196.7230       212.8625
       213.9025       236.8914       217.9597       242.4655       229.8381
       259.4918       260.2809       282.8295       272.5394       300.3522
       285.3097       318.4487       311.1572       320.2333       309.7848
       344.9136       335.3309       367.7383       350.6248       365.8335
       371.0105       416.9963       400.7347       403.8844       382.0446
       409.6831       400.2263       427.2231       419.3647       441.0134
       427.4504       446.6305       434.6932       456.5002       448.0870
       474.9039       465.9519       462.0090       425.3473       448.7576
       438.0955       440.7124       418.1797       430.0754       402.7819
       418.1394       406.3436       397.8633       372.5144       394.2583
       365.7329       361.1307       352.7358       359.9408       326.4487
       330.8163       310.7343       315.3046       292.3911       282.5920
       230.6327       214.3301       183.5079       192.4803       173.1099
       175.4207       158.0105       160.8537       132.8464       145.3038
       126.5941       139.8322       118.5403       90.06396       36.98039
       49.39264       27.41798       28.48719       8.972120       17.24907
      -7.023582       19.35432       6.517883      -6.776566      -52.12766
      -39.10568      -52.15992      -36.01469      -49.43144      -48.83505
      -78.64789      -40.65651      -35.51482      -30.40144      -69.57365
      -78.58682      -95.94031      -63.44684      -88.25620      -93.72656
      -113.0366      -96.18387      -112.3359      -86.62247      -92.04843
      -74.54100      -89.37701      -70.20378      -81.01611      -76.59006
      -117.1604      -102.1949      -93.77386      -77.84186      -106.9052
      -94.05939      -122.2751      -117.4282      -118.4460      -105.2082
      -125.4097      -100.2448      -110.8191      -106.1308      -123.6068
      -105.1978      -125.0801      -111.6436      -119.6685      -102.6371
      -117.5349      -101.6634      -111.9730      -105.2787      -129.5903
      -111.7154      -126.0893      -120.3400      -135.4850      -117.4232
      -131.5128      -132.0374      -130.9796      -88.70331      -136.6621
      -152.6584      -134.5300      -116.8927      -159.8784      -137.2170
      -139.4099      -121.8274      -132.3716      -131.6038      -150.2626
      -109.2192      -119.4567      -126.1708      -133.1969      -99.06970
      -122.7205      -114.6400      -102.7057      -81.20453      -112.7189
      -93.24493      -79.02286      -49.93268      -71.58679      -66.45453
      -67.35767      -28.28593      -28.20776      -9.461365      -16.80674
       6.220146       9.447876       36.66277       13.03328       25.30122
       26.48376       54.87076       51.06940       77.05070       74.37900
       105.3254       99.08527       117.1721       112.3037       131.5424
       116.9127       150.6797       162.8350       176.8015       156.0248
       189.8007       196.9577       197.0000       187.0522       222.8291
       218.3156       222.7629       214.2626       248.0547       233.0493
       235.7959       238.7141       265.6918       244.7558       251.4774
       252.2992       287.2638       282.2002       294.0513       280.1382
       299.0320       289.8624       302.2537       299.4401       324.6696
       304.6116       313.0503       303.5393       320.1010       315.1454
       331.3439       313.9439       319.1094       296.3383       307.1804
       296.5688       307.9150       293.7479       299.3066       280.4780
       299.6830       289.7321       288.5823       270.9071       279.1494
       246.7740       239.1057       230.0250       246.6970       208.9763
       188.6282       176.3431       200.4597       166.8122       143.1153
       109.5727       112.6238       92.31104       92.55376       69.37515
       70.36278       40.45302       32.39943       5.864954       4.543419
      -35.74728      -54.11600      -87.06671      -88.34702      -112.6364
      -124.5876      -157.6180      -148.4741      -162.9558      -178.7239
      -213.5421      -215.7489      -245.9882      -260.6988      -291.1986
      -288.5242      -317.9390      -325.4495      -341.9485      -347.6018
      -385.2949      -389.7761      -414.7686      -421.0945      -445.2650
      -447.2893      -482.8901      -483.6877      -502.3459      -492.5026
      -513.0592      -515.2920      -545.0696      -548.6224      -565.0010
      -548.6560      -568.6689      -574.5450      -602.8981      -587.6133
      -599.7048      -599.4517      -619.0360      -608.7620      -633.5701
      -630.3280      -637.3428      -624.3584      -643.0444      -631.2334
      -647.2832      -644.0823      -645.9161      -627.9877      -638.9368
      -623.2140      -637.9281      -627.7692      -631.3500      -615.8381
      -641.6760      -628.4570      -616.9639      -603.0643      -625.3398
      -617.6624      -627.3239      -601.5946      -600.5111      -584.1223
      -593.6021      -589.1260      -600.4933      -581.8308      -585.9337
      -564.0930      -572.9541      -552.5901      -551.3396      -526.5120
      -533.6437      -527.0649      -543.4276      -516.4574      -519.5009
      -494.7705      -492.8330      -477.6387      -494.9436      -473.6063
      -475.2705      -451.5750      -450.0021      -425.2749      -425.8414
      -395.7288      -396.2314      -371.7458      -360.0900      -346.9521
      -369.4537      -340.1547      -330.8307      -308.0400      -308.2941
      -285.4839      -286.2003      -260.7717      -253.4817      -232.2357
      -234.8151      -203.0521      -205.3193      -181.0936      -173.7567
      -144.6913      -146.4940      -116.9283      -109.5953      -89.66982
      -93.83931      -46.15123      -36.89588      -32.82947      -38.48003
      -5.337532       4.660934       39.11911       40.26849       67.93100
       65.96863       99.29834       110.7859       146.7201       154.6476
       183.8881       180.5312       204.4155       212.6595       248.5950
       248.9132       288.2452       296.4713       318.8304       327.1156
       356.2555       351.8247       392.0172       400.1914       427.0569
       420.0648       442.1725       437.1943       489.5474       524.4711
       542.3220       515.8864       539.8839       542.1626       582.6965
       608.6248       649.2789       633.4700       645.5752       649.9442
       682.1326       687.3625       713.1362       689.0513       699.7642
       704.7305       729.6951       721.4812       747.6877       750.1106
       763.9688       751.3667       773.3901       762.9751       780.9209
       767.1006       775.6238       756.9211       765.8274       755.9590
       767.3770       755.8262       778.6409       762.8474       774.7715
       763.5000       771.7551       748.1809       746.1050       727.0942
       745.0806       742.3132       752.4998       700.1326       757.6562
       1179.939       3005.586       9140.312       21617.85       31439.94
       25443.47       12721.67       6593.980      -4800.578      -21953.62
      -37383.27      -41373.66       2364.672       60392.79       54160.54
       1472.953      -56220.78      -68380.28       4789.188       51543.89
       6665.980      -15647.65       15669.86       13939.96      -9954.680
      -10776.09      -21568.36      -21914.27       5981.242       8761.836
      -14297.55      -15830.55       15213.54       21387.80      -12483.94
      -6197.711       15108.21      -1530.203       642.9824       12317.49
       4435.482       5873.531       17939.13       2081.555      -39795.77
      -43781.06      -4617.234       19840.34       18324.30       13787.21
       1645.227      -10361.58      -7431.992       2310.230       9353.463
       8687.189       2341.452      -4602.860      -1643.845       4827.984
      -8309.099      -11431.50       12283.57       7873.898      -11801.81
      -3762.771      -363.8174      -4864.223       8187.741       8994.869
      -9956.443      -3615.955       9762.410      -5072.336      -10276.56
       3806.336       7595.232       7471.963       7176.979       3044.066
      -1544.047      -10788.26      -16494.41      -14301.17      -9647.107
       2310.773       18781.89       23730.22       15543.41       9043.107
      -5633.883      -19881.49      -7826.117       8672.816       8739.277
       3818.684       716.4922      -14840.85      -21146.98      -154.9531
       11510.63       10409.76       9515.140       4283.474      -25.83203
      -9548.234      -23364.47      -20656.99      -7863.789       4411.398
       17684.52       15922.49      -1874.542      -3366.425       6346.362
      -2910.213      -10221.80       1631.271       1658.133      -17292.04
      -16668.13       9250.355       22328.99       16443.75       8227.858
      -3157.301      -8601.137      -4257.723      -10366.93      -15241.99
      -2351.992       2685.372      -1456.147       998.2183       567.8047
       1253.926       7959.443       7017.963       2786.449      -2253.000
      -8733.668      -5996.898      -6530.592      -7646.052       1372.936
       2224.900      -2939.781       3650.352       12616.85       8820.148
       263.7363      -1484.412      -3094.369      -1915.458       1640.361
      -6946.902      -10767.47      -3103.524      -1812.020      -3997.565
      -1660.156       3080.328       1220.741      -4091.978      -5488.250
      -5416.410       102.9561       3691.196       3191.535       4571.179
      -1953.683      -2811.196       4637.200       462.7930      -5891.470
      -4770.461       222.7324      -2204.959      -7582.319      -1741.719
       799.9604      -17.05664       3264.791       4669.608       2576.526
      -2403.289      -3117.154      -1947.141      -7867.590      -7012.246
       7553.188       8014.236      -5906.251      -5226.722      -828.0518
      -5406.894      -1695.176       6444.223       8553.059       5817.473
      -3455.371      -11507.99      -10691.82      -811.7344       9202.052
       5207.230      -5572.339      -3517.689       6245.732       6235.551
      -2048.208      -5014.882      -256.5591       2044.164       3594.827
       2336.402      -5670.491      -4470.838      -2280.400      -4291.238
       3079.793       5909.021      -963.8174      -5507.016      -3638.434
       2266.304       1381.401      -2874.227       5665.893       10954.80
       1121.050      -4454.441      -3057.447      -3188.311      -6778.901
      -4716.380       2325.627      -3102.009      -6611.258       9842.066
       14908.48      -344.5801      -4398.554      -729.5593      -1136.502
       491.9199       4160.255       4199.290       858.2148       2507.184
       2823.027      -675.8750       3731.620       4084.852      -4496.878
      -4790.780      -262.7495       995.3699      -15.23340      -1256.283
       3206.621       4890.691      -3654.993      -4766.922       5137.512
       8175.350       5184.385       4708.553       693.4609      -7559.857
      -8552.457      -1025.255       4940.286       3431.229      -787.2227
       3388.369       8840.017       6.659180      -4757.452       3215.569
       1642.005      -1215.543       2526.072      -2550.747      -6795.274
       1190.724       5681.332      -2499.197      -8915.372      -3701.098
       3637.777       3086.264       2120.519       4448.961       5476.703
       9719.830       9035.504      -200.6519      -3047.351      -1853.758
      -4615.558      -1372.632       4670.780      -750.0825      -3086.824
       5905.909       5057.466      -4156.329      -4868.405       525.6191
       4232.351       4064.636       210.4395      -7447.424      -10037.62
      -139.8125       8027.824       3316.586      -2027.630       1842.555
       7317.080       7045.654       3975.414       3663.502       3455.264
      -1820.733      -6458.951      -2723.158       2029.688      -1733.257
      -3569.858       198.5039      -3534.026      -4453.799       5997.853
       8049.059      -1605.488      -8978.158      -7121.821       929.9473
       4328.594       8470.238       14628.81       7368.660      -6201.691
      -10155.03      -2225.560       5107.717       628.9766      -4025.053
      -1656.297       953.4893       4043.195       4516.372       1120.202
       1434.387       2502.718       2246.219       4571.271       3106.524
       2543.131       4279.115      -5018.055      -9125.920       746.3223
       5454.826       5578.583       6056.340       287.7061      -5545.668
       711.7734       5670.689      -2337.918      -5429.267      -2181.893
      -3429.190      -1782.087       3294.125      -284.6592      -6076.295
