     0.02500000      -39576.50       26994.00      -12345.00      -12345.00
      -30.00001       240.4000      -38.80000      -12345.00      -12345.00
       0.000000       29.59000      -12345.00      -12345.00      -12345.00
      -12345.00      -12345.00      -12345.00      -12345.00      -12345.00
      -12345.00      -12345.00      -12345.00      -12345.00      -12345.00
      -12345.00      -12345.00      -12345.00      -12345.00      -12345.00
      -12345.00      -31.75110      -68.43510       640.0000       0.000000
      -31.23600      -65.83800       0.000000       167100.0       0.000000
      -12345.00      -12345.00      -12345.00      -12345.00      -12345.00
      -12345.00      -12345.00      -12345.00      -12345.00      -12345.00
       253.2646       256.2947       77.64496       2.277177      -12345.00
      -12345.00      0.7903352       90.00000       90.00000      -12345.00
      -12345.00      -12345.00      -12345.00      -12345.00      -12345.00
      -12345.00      -12345.00      -12345.00      -12345.00      -12345.00
      2008       318        11        13         9
       200         6    -12345    -12345     10817
    -12345    -12345    -12345    -12345    -12345
         1         7        13    -12345    -12345
    -12345    -12345    -12345    -12345    -12345
    -12345    -12345    -12345    -12345    -12345
    -12345    -12345    -12345    -12345    -12345
         1         1         1         1         1
BOZA    -12345          
        -12345  -12345  
-12345  -12345  -12345  
-12345  -12345  -12345  
-12345  -12345  -12345  
-12345  -12345  -12345  
-12345  -12345  BHE     
ZL      -12345  -12345  
[...]
      -6674.537      -3220.481      -2657.305      -1866.466       1425.701
       4396.039       2357.151      -1644.680      -93.83203      -1166.364
      -6769.894      -2715.192       3137.091      -3009.116      -5997.109
       802.9102       3940.549       2281.431      -701.8647      -2904.127
      -776.9824       402.7529      -2212.938      -2204.698      -1794.166
      -1986.083      -1055.260      -1539.066      -310.7090       1774.586
      -1716.118      -3415.377       408.2539      -3472.357      -6166.807
       5630.188       9838.496       3286.664       1273.983      -2296.852
      -6624.724      -6124.809      -716.1230       5882.795       4339.196
      -1550.703      -2765.503       1324.784       3515.682      -2905.118
      -6943.401       225.9097       2298.923      -1685.092      -816.2939
      -1958.559      -5624.926      -6432.291      -6571.147      -4605.100
       2427.125       8646.547       9038.814       3173.984      -6126.605
      -5954.660       1105.573       469.0642      -818.8779       1854.531
       542.0984      -1224.375      -965.1216      -825.0991      -352.1406
       579.4993       1496.151      -26.40918      -2349.981      -680.3027
      -473.8496      -3581.936      -2761.436      -1516.644      -3103.732
      -310.8262       6293.683       6761.825       292.1444      -819.1406
       2362.384      -622.8589      -3823.001      -102.9473       4384.408
       1291.853      -4700.395      -3198.692       322.5459       1546.761
       4493.562       5669.630       3428.048       1236.333      -389.1121
       904.0464       2057.036      -1118.673      -1175.379       2125.442
      -1938.670      -6412.887      -148.9268       5475.642       2484.180
       34.70026       468.0521      -648.5980      -257.2759       2184.772
       399.9480      -1663.228       340.7051       1839.251       1895.827
       3398.539       5536.805       2596.659      -3104.256      -1489.055
      -51.01025      -3313.999      -1246.393       1059.766      -555.2979
       2044.725       4484.208       760.3350      -4260.886      -4884.309
      -1391.638      -614.9639      -1580.347       3176.282       6480.441
       2059.407      -589.9409       2048.776       2310.800      -1421.043
      -2359.777       169.3361      -91.06152      -813.4399      -502.3767
      -179.4102       3816.404       6438.281       5226.529       5122.867
       1916.387      -1996.180      -605.0654       1614.916       904.5347
      -943.3651      -610.1133       803.7842      -529.9956      -2313.597
      -1348.123       125.4775      -843.9277      -2969.282      -2803.965
       686.4941       2669.373       2855.970       4942.502       4851.459
       421.3691      -2093.833       479.1587       2439.455      -569.9492
      -3467.488      -1453.880       1052.687      -1183.895      -2074.381
       202.4889      -467.5403      -883.7296       1193.988      -412.8652
      -3310.702      -1676.014       492.4229       798.3066       2612.561
       3170.969       1354.902       2083.668       3802.215       984.0166
      -2847.635      -1961.574       281.4011       379.0732       1879.028
       3721.542       1451.133      -3866.754      -7762.084      -6305.988
      -854.1504       2736.621       3449.839       3580.425       1513.884
      -4016.680      -7023.067      -3343.386       1370.659       3095.820
       1237.196      -3871.611      -2970.471       3566.875       2862.344
      -2787.425      -2051.233       1147.205       320.8247      -1902.023
      -4380.402      -4589.779      -193.1885       2756.997       1666.946
       663.3467       1831.592       3930.078       3695.962      -612.5273
      -5387.631      -5248.815      -471.9834       1799.411       28.28418
      -1687.649      -2399.304      -926.8044       1466.172      -446.0361
      -2494.828      -1157.622      -1518.016      -3448.623      -3940.514
      -3258.715      -2053.501       547.6504       2338.640      -467.5685
      -1189.748       1221.619      -765.0107      -2876.503      -630.9232
       327.4336       580.0264       3960.145       5371.346       756.3867
      -4076.573      -2561.045       3364.695       4855.857      -1879.560
      -5187.059       1141.070       2513.053      -4151.035      -7404.403
      -6004.034      -1977.654       4534.748       9011.193       7314.864
       693.3091      -3023.971      -138.6074       3450.459       3021.373
      -318.4258      -3409.186      -1608.385       2762.762       2519.154
      -646.7205      -1124.739       692.4229       1036.856       770.5410
       580.6230      -1539.061      -1728.712      -554.6228      -1125.688
       1411.807       6100.506       4728.681      -1113.939      -4910.524
      -4093.948      -224.0176       4201.648       4914.438      -1363.693
      -5048.090      -828.1118       1714.265       1070.423       768.7502
      -295.7012       1552.742       5424.897       3467.121      -969.4629
      -3717.007      -2750.665       1694.499       2916.256       1549.587
       1054.820       2008.719       2826.697       162.8037      -2724.558
      -3579.965      -2742.034       899.6025       2818.754      -833.2036
      -235.6816       6333.127       7471.095       2767.262      -1345.561
      -1168.029       1162.694       2636.512       3007.699      -111.0205
      -3813.465      -3625.539      -1816.608       160.2153       115.9424
      -3232.814      -3086.982       859.8389       3135.735       2241.394
       864.1431       323.9766      -3193.203      -7740.272      -5171.152
       1682.888       3069.600      -16.81250       35.16260       2184.014
       1484.738      -3052.828      -5463.008       8.419922       4120.350
       608.3403      -1445.840       239.9183       441.2717      -1227.142
      -1004.168       1807.961       2863.905       1253.536       400.4753
      -954.3306      -651.1763       2433.930       155.6162      -4841.889
      -4266.307      -1646.593       1345.812       1216.920      -2709.282
      -3370.034      -4204.615      -5825.053      -1860.420       2923.395
       4052.955       1722.280      -3509.796      -5536.304      -1713.414
       2386.363       5129.354       5686.423       1973.556      -1744.159
      -3200.891      -5628.022      -5585.054       67.10938       4046.352
       693.3320      -4478.699      -5027.263      -959.7151       1301.866
      -919.2877      -1624.880       1728.799       4410.774       3796.508
       777.7466      -2650.835      -2512.575       1954.291       2346.126
      -490.2939       1541.812       2854.811       2172.681       2738.456
      -415.2373      -2727.414      -2452.229      -2264.687       580.9563
       1371.608      -528.2949       711.6704       2286.235       1902.441
       2029.765      -38.96631      -3008.369      -208.4561       2009.621
       1695.809       3540.296       4236.108       1942.546      -1200.065
      -2268.920      -2295.190      -2881.155      -1502.115       137.3147
      -248.5432      -1579.397      -848.0513       1408.803      -135.4346
      -3454.769      -3099.421      -2415.978      -491.0332       3697.480
       3077.759      -746.2202      -1622.194      -559.5039       1865.391
       4421.549       4225.174       1481.591       1324.661       4259.318
       2872.161      -732.5669      -335.4771      -646.5278      -2513.794
      -2500.389      -2147.826      -599.6035       2976.033       3428.752
       2044.883       2626.072       1645.781      -1054.792      -369.8008
       2533.268       2405.110      -35.78406       114.6787       1760.245
       2899.679       2499.664      -1310.410      -4851.270      -2302.955
       960.7737      -732.7402      -2321.354      -2156.602      -2205.784
      -581.0347       1639.839       2177.525       2213.122       2113.948
       883.3184       1074.993       2387.523       2840.883       4322.822
       5215.903       2854.738      -164.0151      -2610.577      -2764.070
      -310.2466       1934.206       1258.118      -1673.796      -2917.159
      -1785.342      -2311.049      -4762.675      -4750.480      -933.5078
       4353.967       6077.729       2607.796       293.3853       1091.486
       1660.573       892.3120      -1215.871      -3958.094      -2713.104
       1951.336       3113.821      -772.1611      -3419.691      -2170.035
      -836.1233      -1357.518      -791.5789      -20.36230      -1776.023
      -5108.895      -7409.834      -3423.655       1691.754      -167.5953
      -949.9847       467.7925      -965.8496      -1891.862      -354.0396
       1239.079       521.7915      -1499.690      -2348.658      -2198.583
      -1350.642       217.9463       2818.154       2490.990      -508.6404
      -871.5876      -542.5688      -1824.763      -2712.208      -1866.635
      -1374.340      -1643.708       1081.290       2798.693       1468.920
       824.6914      -912.4961      -3312.932      -3402.679      -1833.274
       1453.520       2632.343       1009.838       1015.803       1260.792
       765.1958       1214.681       1227.844       283.8091       358.3354
       1836.140       773.5156      -1261.818      -564.6113      -708.5801
      -3460.016      -2940.319      -807.4398      -694.0664      -634.2119
      -2728.459      -3130.687       1189.175       1854.555      -1543.641
      -2681.987      -523.1953       1368.463       55.48975      -2083.710
      -640.1279       1180.272      -540.2578      -3011.954      -3145.921
      -2187.716      -1003.225       1216.100       2748.815       1109.085
      -1430.226      -2857.696      -3091.576       136.4795       3581.497
       2823.287       1767.939       50.97729      -1111.804       742.3926
      -137.4180      -2337.816       38.62769       1076.644       233.9585
       1445.039      -102.0479      -3372.842      -3106.032       1119.223
       5753.530       3750.198      -342.8516       1948.262       4559.093
       1773.653      -1078.462      -1190.100      -566.6045      -1228.396
      -653.4766       2918.485       4094.894       1997.243       896.3677
      -1614.189      -3891.391       146.7324       5180.186       5738.201
       4409.479       613.8223      -2125.541       59.42249       817.8682
      -1924.420      -1251.793       2004.372       2855.321       1260.721
       1396.932       3115.096       1636.952      -169.6133       443.6858
      -103.1082      -1010.302       680.7678       2072.963      -60.94336
      -2724.792      -3399.579      -140.6367       3561.216       2127.828
      -468.6479       268.6864       717.6360       122.9854       1977.067
       4809.980       5914.050       4663.912       1320.288      -913.9443
      -1502.502      -2241.511      -3050.160      -2057.732       196.1355
      -134.9858      -2331.766      -642.5137       3194.652       3202.991
       169.5178      -746.1858       58.04529       355.5674       1189.701
       2424.100       2231.096       228.1384      -1568.890      -84.47754
       2558.209       1451.173      -1035.237      -80.85742       3224.519
       3769.271       603.5195       312.9414       1444.426      -138.9979
      -747.0837       282.7241       2211.489       3649.459       713.2910
      -3196.940      -3042.117       720.5486       1977.042      -1155.082
      -1582.666       1834.014       1782.154      -803.4253      -233.4033
      -580.7295      -3454.426      -1774.000       1938.922       1172.489
       791.6621       3229.271       2409.394      -398.0840      -1132.977
       672.7710       1209.093      -3213.363      -5813.149      -3217.186
      -1466.662      -1177.104      -1836.835      -2941.734      -2128.464
      -128.6177      -785.3672      -5047.122      -6241.160      -1751.854
       2474.574       4198.518       3557.091       2193.283       2646.354
       2906.141       1741.892       417.6543      -2952.463      -7589.555
      -12664.34      -18466.27      -19780.19      -11381.15       733.1602
       7236.775       8736.232       7335.660       6493.967       8202.945
       5510.609      -2658.008      -13993.26      -25350.56      -28374.51
      -17237.48       2984.266       16685.17       16632.75       14616.63
       19102.70       18066.29       1824.926      -16112.70      -25186.55
      -29921.11      -23148.82       229.2227       16657.04       15683.53
       12609.64       8639.376      -607.4980      -9694.682      -12883.71
      -3503.984       8804.844       4893.483      -3572.250       3547.812
       16140.13       22604.82       19225.45      -2102.992      -29060.45
      -32456.98      -7288.566       18481.41       23055.99       14698.83
      -755.5156      -25731.12      -39576.50      -24022.53       721.3945
       12313.64       12966.95       13836.20       19006.24       12234.58
      -5965.008      -3618.527       12169.78       12309.09       2534.553
      -5051.585      -5414.786       2116.560       3891.553      -7150.363
      -14634.74      -10792.90      -8694.748      -4090.828       11807.99
       22297.83       20480.22       13756.34      -3294.141      -19372.61
      -15208.10      -1768.766       6943.271       9551.148       5119.910
       1346.103       1771.195      -1136.106      -4021.733      -1598.187
      -514.5898       748.5781       6962.410       9494.482       7789.400
       7712.092       3915.455      -2533.205      -6733.789      -6419.087
      -2312.670      -4850.590      -7010.093       2972.850       9414.039
       3291.648      -5935.797      -13157.91      -14909.23      -11543.47
      -9958.297      -3198.396       8587.731       6534.976       896.4316
       7375.592       8081.873      -1686.723      -7033.938      -3445.320
       4910.119       5260.874       83.46680       6039.255       8778.838
      -3101.979      -10965.18      -6452.438       4724.598       12924.68
       9010.121      -4319.836      -12887.35      -5310.621       6068.411
       6545.707       2450.592      -5740.957      -16208.21      -12511.73
      -20.67969       3898.243       2684.874       1369.895       1062.416
       2381.910      -1775.359      -3429.142       3089.596      -1557.375
      -14346.30      -7620.430       12868.87       17954.76       9183.567
       4036.254      -2756.797      -14270.11      -16780.78      -7754.445
       3094.252       7965.045       5550.070       6724.826       12028.38
       6804.716      -1911.057      -3123.668      -4565.988      -5814.514
      -3793.729      -2806.351       2327.238       11176.04       9426.022
      -1811.230      -7167.308      -2906.933       1679.758       5037.539
       9785.371       9950.777       5928.447       4929.662       5517.420
       3870.359       3081.238       4251.300      -346.3398      -8777.707
      -9551.256      -2565.754       4935.734       6582.990       4988.467
       6509.459       5077.126      -469.5894      -3153.793      -412.8789
       7070.978       7397.315      -2851.487      -6637.636      -409.9155
       2817.286      -2414.537      -9601.398      -13286.20      -11501.68
      -2332.080       7736.900       7806.607       3269.456       5499.964
       5113.812      -6646.930      -12724.08      -7458.889      -4321.336
      -208.2207       7543.918       10588.37       11748.54       10159.93
       728.0352      -4182.121      -436.0615      -813.8164      -6930.500
      -8582.213      -1692.600       4110.094       3266.550       2653.956
       1437.946      -3935.774      -5457.973      -2919.256       107.9766
       6922.012       10575.27       7174.984       5356.707       3178.661
      -2285.535      -3217.818      -3873.816      -10709.17      -10137.56
      -62.61328       6776.230       8253.904       5351.306       21.10522
      -1816.892      -16.58350      -986.2217      -3545.146      -1524.969
      -622.5957      -4725.691      -7053.646      -5148.289       454.9180
       6282.705       6997.947       3856.229      -2361.363      -7833.489
      -4875.620      -1157.018      -3717.266      -1718.740       2864.206
      -8.181641      -6907.703      -11276.37      -6701.543       4538.781
       10455.93       9779.260       8401.931       5717.537       2642.702
       1366.359      -1253.363      -7511.410      -15932.48      -20182.31
      -17029.08      -9443.393       216.5996       6911.338       3832.195
      -2352.885      -216.3525       4136.199       2674.572      -273.6323
       83.28906       2535.072       1000.256      -2601.308       391.1309
       5610.662       2383.967      -3768.289      -2752.347       831.9414
       3433.242       8190.514       9101.506       4065.205      -2464.410
      -10532.10      -13496.96      -9843.909      -6110.371       516.7109
       7345.387       10520.34       12807.25       9522.073       363.1885
      -4962.150      -3048.579       86.54150       764.1172       2108.011
       3556.313       2328.492      -94.92419       24.92310       1450.095
      -1450.225      -9186.293      -13351.10      -7547.896      -546.8663
      -184.6328       2375.523       11151.86       15641.79       12995.30
       6545.570      -3235.559      -9935.893      -10494.94      -4321.312
       8956.430       17766.21       12997.65       3003.495      -2299.194
      -3579.859      -4118.984      -1405.210       3253.006       1208.922
      -4817.092      -5839.852      -4574.312      -4599.300      -3071.555
       300.4130       560.8115      -2578.489      -1303.592       5992.041
       8942.605       5194.779       4409.752       6375.678       2877.916
      -716.9194       2180.123       1436.637      -5742.261      -6352.828
      -1248.613      -500.6680      -1694.731      -263.9873       287.5508
      -4330.004      -7853.658      -4517.779      -2802.291      -4931.467
      -2470.997       3681.990       5460.103       4250.931       3250.033
      -1491.270      -7329.895      -7107.206      -1684.434       2494.701
       334.0996      -3747.077      -3584.594      -3785.246      -6254.978
      -2297.410       6076.361       7234.858       761.7676      -4236.078
      -3296.914      -964.7278       37.02881       2106.433       3289.836
