     0.02500000      -31233.25       37132.90      -12345.00      -12345.00
      -30.01001       250.5650      -48.91000      -12345.00      -12345.00
       0.000000       36.82000      -12345.00      -12345.00      -12345.00
      -12345.00      -12345.00      -12345.00      -12345.00      -12345.00
      -12345.00      -12345.00      -12345.00      -12345.00      -12345.00
      -12345.00      -12345.00      -12345.00      -12345.00      -12345.00
      -12345.00      -31.28310      -69.41950       1383.000       0.000000
      -31.23600      -65.83800       0.000000       167100.0       0.000000
      -12345.00      -12345.00      -12345.00      -12345.00      -12345.00
      -12345.00      -12345.00      -12345.00      -12345.00      -12345.00
       341.1453       268.1983       90.04813       3.067303      -12345.00
      -12345.00   -0.006496512       90.00000       90.00000      -12345.00
      -12345.00      -12345.00      -12345.00      -12345.00      -12345.00
      -12345.00      -12345.00      -12345.00      -12345.00      -12345.00
      2008       318        11        13        19
       310         6    -12345    -12345     11224
    -12345    -12345    -12345    -12345    -12345
         1         7        13    -12345    -12345
    -12345    -12345    -12345    -12345    -12345
    -12345    -12345    -12345    -12345    -12345
    -12345    -12345    -12345    -12345    -12345
         1         1         1         1         1
CALI    -12345          
        -12345  -12345  
-12345  -12345  -12345  
-12345  -12345  -12345  
-12345  -12345  -12345  
-12345  -12345  -12345  
-12345  -12345  BHE     
ZL      -12345  -12345  
[...]
      -2596.933       743.2354       3528.615       2119.454      -200.2731
      -207.3925      -106.5808      -250.9177       1073.391       1608.538
      -120.7111      -883.7219       395.1118       807.4608      -53.46948
       404.4463       935.5372      -520.2448      -802.7012       1399.974
       2823.244       3190.974       3188.154       2026.509       492.3391
      -310.5498      -819.9539      -1187.503      -1086.939      -981.8311
      -1419.449      -1611.080      -1139.279      -963.4346      -686.1245
       760.1543       2294.625       1603.765      -730.0249      -1118.852
      -8.964233       362.6804       501.1427       487.8389       382.7780
       534.2126       682.4019       1449.511       1386.999      -1198.940
      -3319.261      -1906.976       949.7310       1509.804      -147.4614
      -1536.316      -905.6162       1502.483       1961.149      -404.2869
      -912.2739       796.1797       65.98926      -2247.194      -1769.524
       277.1396       1104.339       1970.236       2335.120       339.4794
      -773.9424       527.7173       1403.151       1687.016       1445.997
      -201.4907      -1446.033      -1056.959      -266.2659       603.3613
       1256.865       1392.765       954.4055       270.3696       423.1900
       368.1227      -479.6091      -758.6973      -1401.685      -3120.158
      -3986.821      -3013.753      -1625.634      -938.0415      -74.88525
       1418.340       2403.086       1800.517       464.5259      -668.5498
      -2427.306      -3456.556      -2407.643      -114.3945       3194.482
       4662.845       2156.061       36.26294       578.0254       185.8506
      -1320.322      -801.7888       255.6904       269.8143       250.2551
      -725.9094      -1368.167       247.1703       815.1787      -1484.986
      -3482.107      -3791.565      -3576.786      -2576.825      -1031.489
      -912.0103      -2296.100      -2474.825      -661.9883       863.5820
       1677.581       2153.219       1835.107       1733.997       559.8262
      -2455.455      -3015.749      -1250.000      -1069.583      -1360.763
      -283.0449       653.3208       791.7954       1121.622       1314.418
       3.084961      -2125.021      -2662.730      -1719.578      -1296.144
      -1815.952      -1248.070       587.2758       353.1616      -1160.751
      -1781.304      -2735.059      -2975.183      -1709.109      -857.9896
      -202.7924       153.3643      -563.9185      -531.7626       323.2051
      -914.8574      -3309.136      -3627.116      -2387.539      -1223.831
      -436.1936      -372.6146      -701.6755      -242.0521       14.79248
      -1306.565      -1935.560      -507.1865       1861.074       2954.858
       791.7935      -1649.389      -1554.640      -843.7927      -539.2218
      -566.1166      -703.1699       397.7886       2188.895       2220.409
       198.3027      -1494.058      -1375.491      -502.7742       683.0918
       1901.371       1558.001       82.01665       41.88757       147.2290
      -995.5222      -1417.825      -782.0108      -101.6848      -242.6489
      -910.7275      -941.8843      -251.5037       155.3860      -653.1008
      -1291.117      -760.2220       106.8926       795.8423       1019.851
       893.9189       1691.831       2776.380       1661.307      -799.6382
      -1677.861      -1185.258      -1217.197      -1618.168      -825.0894
       602.3403       1068.134       871.4844       719.0480       390.7390
       269.5525       151.0553      -273.8623       424.2529       1973.893
       1457.586      -475.4927      -584.5840       1102.351       2280.398
       1962.653       1538.535       1164.688      -960.1587      -2647.413
      -1380.139       745.8096       2114.267       2230.265       1254.511
       819.7622       1467.983       2533.226       1837.087       929.2920
       2858.809       3940.563       1458.013      -1002.464      -1700.128
      -1845.111      -519.5156       2230.155       2792.540       937.1533
       153.3564       885.9271       573.5952       370.2920       1326.811
       750.6340       456.3604       2105.717       2019.972       801.8130
       1033.909       1378.303       1144.812       1082.155       845.6808
       149.3041      -130.0139       781.6431       1805.853       1417.721
      -249.7339      -959.0071      -145.1475       309.2186       161.1855
       682.1260       1231.071       1540.407       2035.351       1781.822
       1782.896       2592.397       1873.806       81.54053      -1144.812
      -1484.362      -249.4175       1540.547       1925.163       1606.898
       2071.181       2549.629       1315.750      -258.6565      -420.7740
       30.28284       86.84473       235.4619       1120.388       2244.979
       2313.738       824.7782      -489.1948       324.7588       1453.150
       1040.146      -227.3809      -1568.667      -1260.197       820.6279
       1730.876       1102.718       263.6736      -138.3967      -567.7393
      -1885.313      -2797.718      -1812.484      -620.3907      -35.51904
       1100.397       2284.654       2774.203       2268.311      -337.1831
      -2414.404      -1101.320       1264.272       1130.368      -603.6028
      -1023.676      -395.6372      -326.3928      -421.4952       210.7246
       1275.337       1592.101       850.2529      -704.5811      -1757.250
      -1580.227      -370.1465       978.5715       667.2676      -1325.215
      -2768.673      -2329.626      -781.3613      -552.6284      -1445.968
      -1390.158      -745.6119      -542.0743      -440.5845       59.73230
       456.9963       154.4739      -357.5518      -1863.671      -3033.007
      -1968.002      -1277.841      -1871.634      -1128.011       931.2314
       2078.754       602.0503      -1370.059      -1391.289      -624.7593
      -954.4932      -2248.131      -2743.933      -1643.615       72.03229
       246.8223      -1270.929      -1837.966      -1396.011      -264.6965
       1015.716       703.2510      -1201.764      -2655.138      -2605.075
      -1805.703      -964.2764      -970.1719      -940.3413       287.8608
       1025.326       1049.737       581.9111       430.3043       551.1135
      -686.5874      -1780.795      -1274.408      -67.88770       1297.829
       1158.302      -646.7109      -1742.030      -1247.524      -456.7009
      -610.9893      -1470.473      -1620.122      -1190.073      -889.9658
      -1021.635      -2164.646      -3601.142      -3197.158      -970.3828
       1178.807       1828.703       1223.222       132.7032      -483.4378
      -154.7643      -10.23486      -1296.808      -2733.003      -2373.178
      -1391.679      -1121.007      -225.0654       738.8728       991.0380
       884.1519       32.35547      -1365.182      -2159.874      -1835.360
      -1119.884      -503.2700       478.6990       25.70996      -1122.395
      -371.4675       620.6367       648.0909       732.6452       62.75354
      -593.0874       815.2158       2084.083       1216.351       173.5702
      -208.7019      -766.3127      -1201.941      -334.4681       198.3999
      -182.5587      -218.7231      -697.3729      -733.5466       272.1741
      -341.8975      -1650.498      -858.7817       893.0449       1114.132
       1133.908       2468.792       2229.457      -331.6687      -600.6147
       1367.678       1516.095      -342.9695      -1099.419       453.6760
       851.7066      -400.4121      -184.6960       539.1826       1001.151
       1730.981       2435.131       2762.841       1885.014       231.6823
      -262.7548      -164.3428      -474.2466      -845.1724      -1110.862
      -1079.727      -736.8799      -224.5117       1106.604       2391.354
       2104.705       1111.043       397.0205       21.98828       665.1172
       1593.479       1656.467       552.2118      -583.3511       361.7061
       2146.728       2398.603       2085.997       1311.366      -79.92671
      -275.1797       418.8047       579.5134       719.1121       568.9443
       548.5157       695.9827      -248.4785      -1200.207      -662.7202
       161.7651       34.66379      -131.9183       561.5999       659.3120
       255.8196       1122.593       1814.440       1226.652       884.2320
       333.4087      -1116.832      -1749.949      -777.3461       156.0327
       1216.092       1834.194       1338.474       1454.647       1754.595
       834.8258      -92.28076      -93.95459      -691.6494      -1491.794
      -33.61377       1616.035       373.3516      -2081.126      -2791.266
      -2200.778      -1569.326      -572.5994       689.7114       1616.489
       2623.666       2597.279       1121.877       351.1777       1122.886
       2015.085       2373.057       2328.700       1685.126       596.8024
      -137.8638      -928.3877      -2076.614      -2250.875      -824.5616
       135.3740      -803.9419      -1393.391      -453.4868       647.4805
       2267.402       3644.889       3705.313       1631.119      -1589.524
      -2674.893      -2255.464      -1848.001      -605.1633       388.8121
      -10.62964      -820.3633      -1459.411      -1996.904      -1042.082
       765.1119       534.8970      -1139.775      -1261.996      -285.5612
       34.76367       1047.720       2873.805       2223.729       261.0029
       287.8364       1572.117       2395.913       2336.093       698.0986
      -1321.689      -1322.676      -340.1604      -328.1912      -529.8195
      -488.2347      -428.6427      -277.6880       9.228271      -178.2427
      -1397.956      -1832.105      -314.8052       809.5210       858.6639
       334.4448      -513.5718      -775.1582      -676.0751      -393.8838
       525.0029       927.9844      -22.87964      -1112.911      -1140.464
       133.6816       1911.815       2028.696       332.9644      -1570.765
      -1654.111      -235.4260       316.6941      -426.2007      -1000.099
      -208.8827       485.3232      -491.9263      -1472.314      -1447.721
      -1619.354      -3049.104      -3705.820      -1760.605       688.1538
       1433.264       808.2601       93.08923       499.6484       914.7354
       864.5956       763.3235       270.5012       53.64038       435.1267
       741.5524       363.4814      -1492.814      -3789.952      -4367.028
      -2510.964      -168.8752       668.2202       323.5674      -417.7839
      -917.7551      -483.6432      -27.00879      -566.3684      -1252.718
      -282.9373       1120.133       108.1543      -2476.893      -3055.364
      -2022.607      -1414.474      -386.1538       1079.135       1312.693
       986.9319       1042.034       382.6930      -531.0859      -790.2009
      -783.3965       770.3958       1924.038      -827.9727      -3399.218
      -2301.087      -1512.663      -1578.404      -486.0115      -494.4740
      -922.6289       1334.055       3494.570       2875.803       1011.346
      -986.6777      -2688.606      -2953.039      -2067.360      -1000.730
       259.8438       1690.720       2972.281       3836.382       3189.436
       1859.897       1195.276      -90.25439      -2128.065      -2856.481
      -2010.305      -1121.769      -322.7646       1029.584       1455.424
       414.7615      -800.2078      -1302.847      -870.1807       317.8181
       1080.741       82.42310      -1515.648      -1035.470       524.8037
       1144.251       1669.381       2035.911       1689.149       2262.031
       2662.170       976.3232      -1513.337      -2400.248      -1358.109
       143.4697       1666.868       1799.230       225.9564      -259.6040
       948.0693       2559.081       2313.638       318.2890      -184.6447
       364.3540      -670.8491      -1405.725      -501.1006      -652.3818
      -1807.639      -2385.405      -3080.243      -3352.530      -2963.177
      -2470.923      -886.4565       1727.948       2410.167       1125.179
       967.5601       1798.569       1824.812       490.2777      -632.6304
      -395.1885      -777.3564      -1336.884      -1628.590      -3127.936
      -4752.296      -5121.694      -4304.585      -2184.336       141.6407
       658.6162      -1004.044      -2463.371      -2025.470      -1700.296
      -2082.601      -1526.357      -1912.662      -3934.611      -4446.898
      -3021.652      -1629.729      -231.6711       148.3291      -1664.654
      -3559.539      -3874.452      -3467.906      -1987.436       1746.465
       5451.008       7219.617       10527.93       14866.80       15034.83
       11599.87       7520.883       4910.766       6287.809       10271.36
       12634.83       9083.785       325.1953      -8982.168      -16353.81
      -19936.01      -19147.79      -15889.42      -10506.02      -2149.453
       9410.391       23887.12       36280.80       37132.90       24619.60
       7810.651      -2893.213      -6610.305      -12269.64      -23079.45
      -31233.25      -30373.36      -21243.90      -9969.990      -2023.152
       5585.590       17908.02       29042.78       30558.00       23877.70
       14095.43       3267.521      -5500.650      -9905.803      -10159.89
      -5820.275       1637.379       6676.341       4343.633      -4178.344
      -13307.54      -17518.61      -15688.58      -11588.83      -8882.619
      -7265.547      -4407.412      -2355.102      -1645.559      -2043.131
      -6567.254      -12661.79      -13499.30      -6709.266       2947.070
       10430.41       13350.74       11562.02       10330.94       10614.41
       9894.018       8488.465       3745.918      -1526.840       1538.229
       6849.024       5329.135       1660.129      -1856.881      -6263.447
      -7747.686      -6674.260      -7940.734      -9945.150      -6948.073
      -2492.054      -1454.695       1357.068       6129.077       3401.043
      -6284.809      -11854.54      -8724.538      -2091.262       3321.316
       6818.184       9664.172       12025.36       11338.62       8977.312
       7424.606       4074.933      -742.6328      -5377.434      -11032.89
      -14747.64      -10921.53      -3012.767      -390.5039      -187.9688
       8174.855       19278.77       19780.86       9887.383      -650.3164
      -5618.316      -6718.707      -7457.418      -9005.480      -10017.37
      -3898.027       10040.13       20275.48       16009.25       1778.809
      -7926.146      -8925.122      -5983.556      -1515.970       2669.106
       879.6797      -9436.535      -17901.83      -13834.01      -589.7578
       11091.60       15855.75       13838.37       6913.783       316.8872
      -1953.981      -1486.868      -1624.469      -2678.402      -210.9883
       4579.307       4218.729       121.1396       476.2383       5795.086
       9858.055       6587.502      -3249.389      -8368.563      -4921.553
      -1432.276      -218.8600       48.98730      -1546.141      -3866.312
      -5438.580      -8249.453      -11228.56      -9522.307      -2713.557
       5765.066       10944.66       11911.42       9113.777       2004.762
       213.3262       5580.195       6063.101       1600.839      -1539.766
      -2994.741      -1001.736       3736.688       7589.800       7316.471
       1749.776      -1925.818      -2192.258      -4001.033      -5326.583
      -4887.907      -1239.488       4078.726       5149.171       2625.427
      -469.3730      -3537.230      -5543.858      -4853.647      -2486.012
      -1124.345      -346.8569      -635.2410      -1930.606       243.2852
       5281.308       6372.936       2992.734      -1161.567      -2137.656
       674.4229       2834.355       3317.568       4649.549       5255.862
       1025.302      -3824.105      -2965.158      -902.4895      -753.9624
      -1435.213      -4161.443      -4851.921      -1385.320      -1276.303
      -4252.615      -1813.012       2338.752       1883.695       1530.087
       3901.112       4614.445       1395.441      -622.5049       1174.793
       4392.634       6467.720       3423.027      -1462.326      -3054.703
      -5460.232      -7701.597      -3913.222       1426.770       1304.365
      -149.3444       310.5487       211.7221       352.4629      -1697.514
      -7109.340      -10700.94      -9930.138      -4234.178       2032.308
       2785.153       207.9844       83.46191       3887.576       6257.598
       4960.092       5727.746       7405.967       6362.982       3907.292
       1044.826      -38.10986       1538.930       2248.941      -145.3906
      -2897.588      -3853.724      -3492.834      -1059.261       16.42578
      -3433.359      -6708.281      -6166.459      -4846.260      -6760.242
      -10830.48      -11967.00      -8945.381      -6030.265      -3069.953
       1442.393       3865.354       3406.021       1170.748       505.5591
       2322.162       1660.391      -1305.597      -1269.530       1745.488
       3017.621       2316.440       1945.627      -4.704102      -2632.003
      -2698.333      -2339.090      -3163.744      -4297.790      -4912.568
      -2794.389       1259.033       3473.869       1840.227      -537.9634
       1161.258       3177.417       296.5601      -2450.356      -2191.602
      -1659.883      -1303.054      -1277.906      -1785.410      -1319.896
       855.8135       2692.052       3486.949       2950.428      -1240.887
      -6753.932      -8503.211      -6939.799      -5135.263      -3645.807
      -1831.732       584.1045       2473.338       3845.568       4890.688
       3621.251      -140.8604      -2956.005      -2508.441      -1560.613
      -2786.472      -2425.560       872.8838       2691.891       3959.727
       5909.336       4284.696       535.8845      -655.0674      -2185.930
      -5502.076      -5077.222      -1495.438      -296.3413      -1818.556
      -2957.093      -2163.134       164.7598       2507.256       2298.128
      -1112.625      -3121.729      -1469.699      -212.2740      -171.8428
       950.2305       1389.430       342.7605      -307.0656      -511.4004
       1016.603       3700.821       3942.147       1171.964      -1594.171
      -1512.088      -1310.648      -2334.126      -976.0571       2072.823
       2204.593      -678.2371      -1432.315       476.3669       953.0530
       661.2778       1952.240       3445.506       2526.893       1583.439
