     0.02500000      -27425.28       30988.21      -12345.00      -12345.00
      -30.01001       250.5650      -48.91000      -12345.00      -12345.00
       0.000000       36.82000      -12345.00      -12345.00      -12345.00
      -12345.00      -12345.00      -12345.00      -12345.00      -12345.00
      -12345.00      -12345.00      -12345.00      -12345.00      -12345.00
      -12345.00      -12345.00      -12345.00      -12345.00      -12345.00
      -12345.00      -31.28310      -69.41950       1383.000       0.000000
      -31.23600      -65.83800       0.000000       167100.0       0.000000
      -12345.00      -12345.00      -12345.00      -12345.00      -12345.00
      -12345.00      -12345.00      -12345.00      -12345.00      -12345.00
       341.1453       268.1983       90.04813       3.067303      -12345.00
      -12345.00      0.1967465       0.000000       90.00000      -12345.00
      -12345.00      -12345.00      -12345.00      -12345.00      -12345.00
      -12345.00      -12345.00      -12345.00      -12345.00      -12345.00
      2008       318        11        13        19
       310         6    -12345    -12345     11224
    -12345    -12345    -12345    -12345    -12345
         1         7        13    -12345    -12345
    -12345    -12345    -12345    -12345    -12345
    -12345    -12345    -12345    -12345    -12345
    -12345    -12345    -12345    -12345    -12345
         1         1         1         1         1
CALI    -12345          
        -12345  -12345  
-12345  -12345  -12345  
-12345  -12345  -12345  
-12345  -12345  -12345  
-12345  -12345  -12345  
-12345  -12345  BHN     
ZL      -12345  -12345  
[...]
      -905.6853      -1290.411      -942.9851       137.8271       1681.776
       1597.495      -305.6672      -1602.903      -559.8975       2102.109
       3168.171       1224.022      -1316.871      -1691.422       738.1777
       3327.075       3088.529       911.1218      -1005.757      -1879.887
      -963.3606       1222.765       1694.308       242.9049      -670.7563
      -709.6882      -246.6099       344.4529       395.3030      -461.1280
      -822.1946       714.4333       1583.735      -414.9937      -2271.455
      -1455.187      -509.6649      -165.8125       1442.014       2425.537
       1173.628      -276.2686      -340.7296      -277.7148      -817.9307
      -1024.852      -1698.278      -2325.134      -1217.244       387.0132
       775.4170       1028.996       2295.268       2947.257       2364.707
       1942.233       1068.716      -642.0244      -1327.157      -1116.991
      -911.0588      -727.4478      -1643.281      -3007.374      -1608.402
       1859.901       3255.604       2432.401       1198.149      -93.18823
      -1135.920      -990.3500      -7.313721      -375.5581      -1723.158
      -1083.478       1168.361       1612.733       108.6445      -864.7777
      -283.6443       815.0283       942.4226       647.2026       1352.842
       1780.048       373.9297      -580.1196      -628.4907      -1397.872
      -752.0520       1358.245       1186.587      -795.7754      -1023.470
       368.3086       1199.693       2207.700       3813.451       3185.587
      -274.9229      -2488.087      -2283.704      -1984.113      -682.1538
       965.9028       224.0793      -1180.420      -942.6931       590.7002
       1630.560       1355.877       591.5745      -386.2671      -595.8442
      -320.2476      -1492.342      -2437.568      -1596.458      -909.8900
      -542.6768       181.9255       116.0953      -174.0951      -170.1621
      -411.1237      -153.3140       136.2356      -769.6484      -1482.093
      -560.7603       1335.433       2898.033       1831.472      -692.8696
      -1103.990      -187.4512       293.4543       489.2598       1235.657
       1704.591       1329.766       873.8511      -813.7383      -2327.479
      -1757.794      -915.6367      -410.6959       465.7919       733.7307
       54.38330      -546.0037      -724.3677       107.3047       1290.317
       909.8638      -721.3867      -1747.765      -1815.633      -1807.305
      -1483.815      -765.1636      -382.9011       334.3672       1907.089
       2996.971       2959.719       2779.194       1813.804      -1045.298
      -3414.015      -3141.083      -1802.263      -1262.918      -1305.558
      -821.0835      -375.1218      -747.7372      -473.9869       543.9292
       472.6804      -590.9402      -1193.912      -646.2690       464.7285
       1433.738       1679.909       730.9512      -1099.258      -2676.652
      -2375.505       42.89551       2071.010       1948.151       797.1450
      -149.0518      -1322.762      -1992.267      -1297.956      -946.1621
      -1245.641      -565.6936       740.5487       185.2791      -1314.811
      -406.9932       1567.347       2095.267       1641.889       280.0332
      -2510.199      -4621.910      -3148.077       841.9492       2998.826
       2254.477       609.8093      -428.7998       446.4321       1680.973
       826.0364      -941.1034      -1168.684       608.8130       1700.762
       944.0826       558.9067       784.1790       1037.024       1329.678
       1068.849       801.0317       1304.691       2311.114       2969.743
       2013.916      -931.9331      -2985.730      -1543.964       1064.147
       1517.379      -395.8350      -2499.355      -2977.695      -2249.335
      -490.2935       1460.397       1259.830      -111.1182       390.6836
       1627.817       791.8795      -743.9976      -473.2627       849.6677
       1346.905       587.4788      -435.2823      -379.1331       613.6820
       990.5464      -24.53052      -1380.649      -613.0547       1730.085
       2105.405       864.2175       1229.469       1643.892      -215.2268
      -1281.476      -304.4337      -96.64868      -967.1498      -1075.054
       217.9854       1601.616       1263.804      -81.35034      -19.04749
       660.7090       187.0222      -479.4902      -729.3704      -632.6162
       613.5176       2286.693       3032.756       2771.380       1709.496
       821.5355      -17.21875      -1126.700      -1488.194      -1419.998
      -1091.959      -819.5405      -1040.898      -938.9200      -9.571014
       400.9697      -349.2743      -735.0037      -167.7386       222.8972
      -418.8359      -1447.435      -1066.530       666.0518       1705.323
       1985.503       1904.370       790.9854       129.8762       250.5505
       32.11987      -443.2021      -1807.227      -2961.947      -1199.911
       1748.940       2584.858       1479.297      -77.57324      -1293.705
      -1686.876      -1797.936      -2005.846      -1248.827      -125.8649
       63.55994       582.3690       819.7188      -820.0962      -1889.827
      -716.7778       331.5051       188.1685      -245.7058      -621.4976
      -1154.411      -1972.242      -1843.911      -344.4629       671.4858
       1012.516       1564.790       2169.138       1868.280       591.2085
      -306.0640      -837.4082      -1623.688      -1848.410      -1237.498
      -486.3837      -174.2957      -359.6997      -150.2787       93.35400
      -865.6021      -1512.345      -815.5274      -85.43921      -774.6807
      -2088.341      -2445.484      -1958.611      -496.6060       1321.863
       1860.055       1512.783       1039.320       532.0000       1079.680
       2034.769       854.6326      -723.9858      -630.7664      -704.9592
      -1195.198      -653.4277       602.0450       501.7732      -792.0800
      -718.0972      -80.16577      -366.4340      -540.9531       537.7319
       1879.392       1408.546       354.6299       232.5695      -77.27527
       233.6606       681.1221      -314.7026      -775.9368      -179.8918
      -463.7937      -839.0601      -249.0295      -272.0703      -1037.166
      -972.8018      -912.1774      -980.2283       336.3555       1933.545
       2224.383       1794.572       684.8058      -108.6357       574.1440
       1564.846       1659.233       460.5171      -1789.212      -3433.291
      -3362.940      -1954.271      -491.7573       311.3945       1107.254
       1964.533       1761.726       1311.980       973.1157      -270.2273
      -567.0652       1042.930       1638.507       901.5723       928.1252
       1374.890       617.7375       103.7646       746.6285       329.2880
      -498.6123       1106.090       2483.351       418.5391      -1870.529
      -1382.283      -227.4117       88.58069      -107.8723      -779.6104
      -1465.896      -1360.627      -541.0511       28.28247       392.3174
       1449.775       1663.965       964.8877       1361.565       2789.146
       2859.432       887.1084      -757.8853      -1003.708      -894.9079
      -300.2561       435.5537      -508.4639      -2253.458      -994.0654
       1791.617       2000.090       384.8486      -988.9475      -1457.669
      -509.4231       1128.472       1679.616       649.9489      -260.6851
      -781.3530      -1529.148      -1671.249      -1030.912      -192.0393
       577.3578       452.2062       389.0693       1071.826       1235.287
       501.8201     -0.3135986       71.95221       271.5356      -30.29248
      -483.3474      -794.3904      -1022.717       40.52197       2197.600
       2837.664       1433.300       188.3503       2.611572      -789.9038
      -1512.899      -1096.120      -682.3157      -492.8979      -62.06812
       300.0400       1062.375       2054.412       1512.438      -1079.217
      -3296.114      -3194.635      -1272.971       761.3093       1449.349
       1055.446       135.7927      -1084.805      -1730.596      -1715.016
      -1339.587      -1216.629      -765.2423       232.6140       741.5840
       1301.193       2354.701       2220.084       825.2150      -128.2988
      -869.8735      -1361.447      -484.5734      -138.6367      -1578.395
      -2867.915      -1519.778       1185.938       2033.656       1388.898
       626.3131      -563.2637      -908.7899      -210.4463      -75.65796
      -175.6733      -218.6737      -548.9822      -721.1128      -1185.661
      -1382.399      -700.6693      -37.20093       320.3477       877.0576
       1005.176       560.6470       81.83582       370.1877       935.3595
       822.7843       10.20752      -1342.131      -2429.607      -1591.035
       567.9521       1078.401       1.477646      -144.9421       166.0903
       91.41733      -25.59491       165.3719       226.6537       371.7664
       556.9641      -109.2871      -961.1836      -761.0228      -304.3586
      -402.8008      -703.0685      -456.0316       56.01926       32.78427
      -31.49512       330.3934       144.4818      -227.2244       53.98779
       673.2832       1425.853       1758.141       9.833984      -2437.104
      -3109.661      -2154.207      -1537.032      -1578.054      -594.3745
       738.0596       652.4565       261.6016      -78.83057       152.3682
       1017.569       825.8374      -276.5562      -515.3107      -3.532471
       448.5020       600.7393       996.3799       2163.625       2604.806
       587.1040      -1930.559      -2758.304      -1832.193      -252.3175
       539.8596       345.2329       653.7197       1070.838       351.8663
      -504.8986       203.2654       819.7107       57.73047      -503.3716
       285.5830       1574.310       1797.291       1396.808       1701.179
       1347.385       306.6836      -197.3860      -398.6765      -557.7185
      -811.8542      -1130.301      -314.2378       683.7029       770.2244
       847.7679       830.0709      -154.1350      -797.6948      -653.0222
      -735.9512      -1068.505      -541.3610       411.9355       532.8973
       235.2138       127.8952      -47.45044       956.3218       2223.669
       1749.518       1228.136       1653.945       514.6919      -1325.017
      -926.6769       608.7521       483.9883      -865.1289      -1432.367
      -1101.640      -807.8137       212.0784       1142.588       748.8779
       329.0884       1443.849       2362.714       1462.818      -222.0068
      -1161.008      -1488.280      -1217.654      -455.0016       131.0708
       1095.235       2774.662       3135.423       2044.662       682.2275
      -480.0571      -983.9468      -1181.254      -1113.687       127.6050
       474.9066       35.37231       759.3081       1315.973       1512.705
       2930.248       3781.385       2060.601      -790.9531      -1817.780
      -1206.944      -264.0580       258.0071      -162.7380      -1243.967
      -1412.756      -813.7618      -566.4800      -542.7714      -112.4124
      -164.8953      -1041.395      -564.7339       1168.345       726.8246
      -536.6990      -219.1260       665.8035       963.0063       863.6360
       386.2285      -917.2246      -2647.886      -2819.281      -1895.917
      -1129.098      -250.7056       1039.274       1926.534       2445.908
       2210.604       671.3848      -1509.621      -2300.792      -1851.125
      -1591.095      -1109.619      -93.86679       58.63879      -294.4886
      -396.2871       227.0696       1009.153       1514.299       1849.426
       1662.703       214.4941      -1896.092      -3759.027      -4134.137
      -3504.908      -5321.746      -10339.04      -14120.09      -15399.03
      -14784.61      -12763.64      -11764.29      -12723.49      -12745.65
      -11102.29      -9444.910      -8781.988      -8833.369      -8956.943
      -7539.070      -4221.423       846.6875       6857.156       11583.36
       13374.19       13755.54       14925.98       16413.24       16743.47
       16510.91       15039.00       12454.20       8146.513       505.9355
      -5969.744      -3703.719       5558.418       15213.08       19340.36
       14108.27       4674.512       2870.691       10855.98       19041.51
       19462.88       14227.88       7770.842       293.2422      -9468.258
      -17369.09      -18259.89      -16919.74      -21826.08      -27425.28
      -22525.82      -7969.898       6303.730       15073.81       18018.93
       15725.88       8337.215      -1685.693      -8508.672      -11146.85
      -14051.76      -16759.25      -17492.73      -13732.46      -6271.497
      -885.5703       2194.781       6235.875       8805.471       5207.016
      -3900.625      -11586.78      -15207.57      -14584.67      -8001.916
       544.3877       2479.311      -1373.376      -1085.484       9955.781
       24780.81       30988.21       25696.98       16547.97       11074.57
       7749.995       4177.616       3810.604       569.2930      -9972.344
      -14420.47      -2799.609       15228.91       22925.31       15397.30
       3321.454      -3996.312      -3170.657       299.5703      -6344.148
      -20210.78      -25734.38      -23000.29      -20767.17      -17162.66
      -6645.465       3582.598       9507.125       17501.86       25127.34
       24414.16       16097.74       3399.875      -12206.99      -23062.85
      -19017.30      -6431.938       1175.389       1979.023       180.3862
       251.0215       6835.461       16187.88       20007.34       16019.82
       8419.937       113.8733      -3173.299       3461.105       9778.934
       4213.289      -3943.086      -6706.371      -11559.36      -15461.21
      -11271.04      -8338.008      -8349.541      -901.7109       12120.95
       17574.40       9071.494      -4332.469      -7785.621      -5017.199
      -4375.204      -2113.108       563.4819      -958.3271      -3921.961
      -6346.508      -8845.441      -9577.902      -4280.775       7185.695
       17182.66       16490.52       7936.411       1005.763      -47.26562
       3399.326       6983.147       1585.180      -13138.66      -21833.68
      -18062.03      -11116.83      -6800.893      -7294.699      -9572.670
      -5899.089       2681.266       6407.936       4055.199       2298.746
       4501.004       11861.87       20395.89       20637.70       12538.90
       2853.991      -588.7778       958.0004       287.1063      -149.5715
       1177.766       9.067749      -755.4551       901.4355       1927.534
       1753.254       394.0684      -2552.629      -5534.855      -7274.475
      -4144.405      -795.3301      -3313.038      -4479.300       150.6924
       4166.990       972.2656      -5839.746      -6700.086      -5389.531
      -7592.749      -7169.805       414.8340       8474.871       9410.709
       4341.192       804.3362      -372.5747      -2093.786      -2955.418
      -2162.727      -1482.403       745.5361       3910.457       1765.455
      -5324.344      -7769.096      -5010.373      -5622.414      -10116.46
      -10294.24      -6053.685      -2346.553       3534.242       12517.45
       16634.01       12192.26       4327.645      -701.4614      -2233.953
      -446.9883       3242.492       4532.549       2565.999       693.1538
      -572.6865      -2742.577      -3292.522       1510.519       5617.119
       3006.838      -590.4014       1691.666       5470.626       4520.749
       41.61523      -4670.852      -8855.312      -12447.32      -14502.36
      -11642.48      -5959.039      -3015.495      -2689.042      -1132.918
       3544.352       8716.986       10379.96       10096.21       9331.020
       6575.048       1234.078      -1713.364       130.1919      -186.9360
      -3207.207      -1531.970       1865.784       2270.908       2165.183
       2399.099       1222.431      -1270.736      -3635.105      -5457.020
      -7354.361      -6372.883      -5107.125      -6681.143      -6571.312
      -4408.555      -3059.751      -880.4583      -4.425781      -2478.867
      -4013.974      -1501.287       3161.402       6520.328       4944.549
       951.1758       1232.947       6392.848       9121.871       4814.335
      -2095.054      -3688.724       667.0342       4602.223       3796.863
       300.5078      -5430.102      -12493.56      -15663.92      -14336.79
      -12200.01      -8727.178      -4125.983       1468.754       8049.688
       12304.45       12737.71       10735.34       7049.169       4525.682
       4032.396       5419.232       8077.787       7574.729       3571.833
       913.3423       844.7434       582.3340      -2867.207      -6310.039
      -6764.523      -5187.914      -3955.490      -5803.135      -7308.058
      -5142.062      -3270.315      -1322.179       1960.363       3180.261
       2657.451       4083.836       6439.559       7721.037       6883.102
       3079.268      -57.78711       2140.045       4120.351       619.9033
      -2027.922      -452.7449      -418.1975      -1485.522       27.15723
       1588.649       1512.202       1105.712      -277.5601      -2134.912
      -3480.710      -3833.242      -3406.806      -2611.970      -1631.623
       153.5522       2061.743       2217.172      -750.5176      -4693.746
      -5113.613      -1980.669       1248.024       3778.486       4149.751
       1994.242       256.2126       571.1453       614.9805      -1904.227
      -4489.475      -3017.862      -339.8916       1284.909       2442.584
       1466.810      -114.2161      -180.4575      -873.5801      -2132.202
      -1195.212       2231.736       5121.379       6213.338       6348.352
       6251.170       4723.208       1378.186      -2138.000      -4388.096
      -6152.291      -6393.916      -4384.179      -2631.228      -2186.497
      -2168.121      -848.6221       2803.305       5602.596       7041.600
       7616.191       4995.544       147.8596      -1936.503       349.1465
       3027.566       3266.424       112.5020      -5235.595      -5629.167
      -1754.064      -1070.407      -2805.636      -3097.831      -3466.419
      -2767.854       722.4453       3724.100       5663.033       8055.959
       7954.033       4672.291       1806.085       1616.701       1861.476
      -1629.914      -7064.559      -7293.540      -2249.919       2880.726
       3835.875       138.5137      -3158.670      -3513.928      -3036.393
