     0.02500000      -29473.29       16154.79      -12345.00      -12345.00
      -30.01001       250.5650      -48.91000      -12345.00      -12345.00
       0.000000       36.82000      -12345.00      -12345.00      -12345.00
      -12345.00      -12345.00      -12345.00      -12345.00      -12345.00
      -12345.00      -12345.00      -12345.00      -12345.00      -12345.00
      -12345.00      -12345.00      -12345.00      -12345.00      -12345.00
      -12345.00      -31.28310      -69.41950       1383.000       0.000000
      -31.23600      -65.83800       0.000000       167100.0       0.000000
      -12345.00      -12345.00      -12345.00      -12345.00      -12345.00
      -12345.00      -12345.00      -12345.00      -12345.00      -12345.00
       341.1453       268.1983       90.04813       3.067303      -12345.00
      -12345.00    -0.08498808       0.000000       0.000000      -12345.00
      -12345.00      -12345.00      -12345.00      -12345.00      -12345.00
      -12345.00      -12345.00      -12345.00      -12345.00      -12345.00
      2008       318        11        13        19
       310         6    -12345    -12345     11224
    -12345    -12345    -12345    -12345    -12345
         1         7        13    -12345    -12345
    -12345    -12345    -12345    -12345    -12345
    -12345    -12345    -12345    -12345    -12345
    -12345    -12345    -12345    -12345    -12345
         1         1         1         1         1
CALI    -12345          
        -12345  -12345  
-12345  -12345  -12345  
-12345  -12345  -12345  
-12345  -12345  -12345  
-12345  -12345  -12345  
-12345  -12345  BHZ     
ZL      -12345  -12345  
[...]
      -68.26357      -81.12175      -77.00214      -92.92911      -91.85507
      -115.9319      -115.5577      -128.6998      -117.4849      -138.8274
      -148.5548      -174.0236      -171.0743      -186.5756      -189.8149
      -216.8955      -215.5227      -228.9904      -234.0441      -260.5076
      -261.2699      -283.6770      -284.7017      -306.7280      -314.5085
      -329.4225      -329.7509      -350.2484      -361.5542      -384.4524
      -384.6399      -406.5518      -408.8804      -427.0426      -428.1094
      -444.8163      -449.0791      -461.4670      -461.8884      -482.4371
      -484.9677      -503.2297      -500.6042      -519.1069      -516.9307
      -532.0063      -535.9883      -556.2646      -551.6447      -559.1331
      -553.2502      -566.4976      -559.0889      -576.7437      -575.7859
      -578.0698      -567.1191      -582.1304      -580.6866      -587.9904
      -564.6196      -577.7561      -575.2694      -594.8943      -586.9573
      -584.6620      -588.5654      -603.6792      -576.3527      -590.7705
      -587.7007      -595.0208      -577.9868      -580.5714      -572.8765
      -577.2522      -560.0588      -579.0791      -566.7063      -566.0422
      -546.6050      -564.5786      -561.8433      -559.0509      -537.6877
      -538.3376      -522.7876      -530.9702      -504.7826      -517.2205
      -501.3428      -499.5896      -481.7018      -479.0618      -463.4697
      -466.2567      -450.4675      -449.7384      -417.6094      -421.5107
      -406.1357      -412.1329      -406.3737      -395.0957      -373.1349
      -377.0908      -344.6705      -355.8295      -334.1436      -323.3051
      -303.5754      -294.3909      -275.1298      -284.8127      -257.1990
      -262.3659      -241.0718      -244.4763      -211.1755      -195.6529
      -180.7271      -183.7348      -156.5125      -158.2936      -137.3826
      -137.4019      -107.8293      -93.83675      -65.50612      -68.39859
      -53.22903      -49.89546      -22.87073      -21.64839      0.9198875
      -4.608322       25.78781       38.26526       56.90286       65.41644
       92.55814       86.17297       111.2620       99.64880       124.3789
       130.3475       151.7830       149.2090       176.4657       184.9072
       209.6880       207.0264       238.3590       237.8432       269.0099
       271.5283       292.5610       296.7729       328.3029       315.1862
       335.7432       336.6088       364.8738       374.8468       402.9062
       403.0249       426.8875       422.1538       449.8369       451.6726
       487.8306       489.5154       507.8035       515.1715       542.4783
       530.4082       551.0671       544.1953       561.7876       556.7026
       577.6113       570.1287       597.1208       600.0417       623.8243
       611.2927       634.4204       629.1333       652.0057       649.8247
       663.1475       660.5010       686.3313       675.5620       701.3706
       688.7935       717.0518       712.6543       724.0527       731.3630
       747.2285       740.5273       766.8145       756.7988       768.2427
       762.0200       795.2004       803.2800       818.3191       808.0393
       827.9404       830.4705       840.8794       819.4648       839.8066
       830.3689       846.5918       856.2446       874.7705       861.5439
       866.7742       845.3401       868.6357       865.9858       878.8320
       863.2759       869.6206       860.6340       861.1125       843.4871
       869.5515       855.9631       862.3828       845.2493       853.5281
       838.1028       843.3677       826.8008       836.1646       825.6763
       824.2351       792.4155       804.7283       781.2886       776.3628
       762.1414       769.3923       746.0730       742.6802       717.7302
       727.2400       696.6052       696.0480       673.7388       675.7070
       642.0270       633.6013       607.3838       607.0033       569.1132
       570.1749       527.7122       514.8687       482.3713       478.4554
       449.9015       440.3381       400.1873       399.3867       368.5940
       363.4930       334.2869       330.5012       289.1635       270.0039
       232.2066       222.7143       189.0743       190.3229       151.7483
       144.6336       112.7699       98.25874       55.63541       47.77022
       3.135841      -3.331528      -36.65900      -42.48618      -85.19971
      -100.5357      -139.6361      -140.8412      -174.5020      -183.5288
      -229.8027      -235.4411      -281.6108      -297.2028      -339.0156
      -352.3955      -385.3948      -396.2373      -440.2118      -454.0176
      -502.6045      -505.5165      -549.3503      -556.9041      -592.6899
      -614.6772      -652.2065      -668.9429      -714.7708      -716.6814
      -761.1899      -767.5034      -805.2378      -810.5962      -835.1772
      -849.8406      -897.1084      -916.4072      -958.6538      -966.4756
      -1005.150      -1007.136      -1042.057      -1043.068      -1067.038
      -1070.259      -1088.773      -1083.982      -1120.079      -1123.717
      -1150.393      -1145.274      -1178.883      -1177.904      -1191.932
      -1181.019      -1194.747      -1177.668      -1198.711      -1179.479
      -1191.717      -1176.466      -1186.451      -1165.227      -1182.063
      -1164.837      -1173.887      -1158.757      -1179.028      -1152.994
      -1165.831      -1154.830      -1171.329      -1152.397      -1155.093
      -1122.760      -1123.768      -1097.366      -1109.325      -1090.415
      -1100.906      -1059.200      -1058.580      -1042.971      -1049.156
      -1006.912      -998.4077      -974.0144      -972.0764      -920.9851
      -924.1973      -894.0127      -897.3694      -858.7224      -846.4966
      -804.6104      -798.9238      -747.3765      -729.9028      -699.3130
      -695.9224      -635.3738      -626.8252      -589.3767      -581.0803
      -541.3965      -523.1504      -484.5524      -478.8269      -431.0881
      -429.7426      -390.0222      -389.6139      -338.7445      -330.5719
      -294.2357      -287.2285      -253.4373      -253.9537      -214.7172
      -213.1023      -167.2983      -166.8479      -128.6047      -122.8671
      -85.28027      -81.29752      -50.31880      -43.70467      -4.176354
      -6.230606       27.65276       22.75092       60.80637       61.95319
       94.66315       102.9653       133.0356       132.7809       163.6526
       169.6458       210.9952       206.9897       243.5347       240.3595
       264.8594       274.0857       310.5939       308.0983       330.3809
       339.9584       376.2788       366.1599       410.7083       420.4818
       441.0524       440.7982       482.9512       498.5042       531.6912
       533.9373       582.3188       588.9692       629.8778       639.7058
       677.4353       681.4727       714.3535       722.7563       757.6875
       766.1458       815.9121       813.5901       840.5000       851.9141
       894.9197       900.9294       939.1106       945.8533       980.1924
       979.3296       1016.199       1015.999       1044.902       1048.801
       1083.491       1071.667       1101.608       1101.892       1127.385
       1114.940       1139.957       1143.195       1176.445       1160.147
       1182.169       1162.927       1175.601       1169.352       1196.783
       1177.113       1195.352       1175.220       1178.427       1152.693
       1174.901       1154.320       1165.456       1139.377       1151.309
       1116.708       1121.877       1090.193       1090.567       1055.588
       1064.407       1028.145       1032.632       998.8979       1000.795
       955.5513       949.1519       910.7520       919.6392       886.0288
       880.2795       832.0640       834.7373       786.7837       779.5020
       742.7937       734.1338       684.6458       683.7450       638.5337
       625.3752       572.7285       569.9258       523.3943       520.0450
       473.8894       460.3534       422.2281       407.0398       364.9303
       360.6250       302.7430       284.5996       233.5052       212.3152
       159.5441       136.9171       79.85956       55.11447       2.124382
      -6.469574      -54.59659      -67.58990      -123.2299      -162.5444
      -215.8799      -227.3088      -282.5823      -296.6119      -340.6898
      -362.7352      -420.3992      -433.5829      -493.7328      -506.6251
      -543.2952      -552.6102      -595.3750      -595.6631      -639.1208
      -646.8232      -693.8850      -688.7197      -718.8931      -716.6404
      -757.6628      -760.0552      -788.1724      -777.7688      -809.7949
      -801.2104      -819.9922      -804.6362      -845.8289      -838.3896
      -861.7856      -845.3555      -863.5203      -848.2620      -865.0127
      -843.3647      -864.5020      -840.2063      -842.3833      -815.2979
      -820.8542      -795.7900      -818.9639      -801.3960      -804.3213
      -774.3057      -789.5171      -766.4780      -775.9438      -751.1023
      -750.8838      -721.5386      -731.9688      -700.6716      -698.5742
      -672.4879      -686.0339      -659.3569      -651.9719      -622.1035
      -631.0326      -597.5161      -595.4490      -559.0537      -558.4193
      -539.0100      -537.7885      -504.0306      -509.2642      -486.3931
      -487.3264      -455.4647      -450.9854      -415.2792      -408.7906
      -380.9712      -379.0740      -344.2640      -340.9391      -304.7356
      -295.7133      -263.9996      -255.8415      -226.0270      -230.2790
      -192.3395      -202.5912      -182.3833      -177.1613      -147.3052
      -148.2257      -104.7346      -96.28836      -67.31931      -73.59091
      -49.82153      -59.36575      -27.12940      -28.16467      -3.177090
      -4.099907       31.81659       28.68510       52.63095       47.20964
       69.02109       64.05586       84.53427       65.00642       83.10883
       68.56528       92.33252       84.64410       102.5313       85.70038
       108.7489       103.8009       121.7387       122.1769       145.7644
       123.9533       139.5911       116.4858       120.4993       97.19366
       113.5427       97.65747       105.0073       84.91577       98.08040
       78.04147       96.27756       92.64056       109.1768       84.87903
       96.81261       70.81577       67.74469       45.69173       60.47650
       45.22815       59.20589       26.36207       22.41646       2.515995
       15.09086      -2.620533       15.31981      -12.60689      -13.61957
      -45.72443      -48.84441      -70.59708      -48.24155      -77.64804
      -73.50018      -88.68701      -79.40219      -100.9729      -81.13110
      -97.18219      -87.29523      -117.3989      -112.4073      -142.3181
      -130.5505      -158.5167      -146.7269      -163.3934      -150.4783
      -163.4664      -153.4119      -174.0752      -146.0494      -172.5798
      -162.5321      -174.4854      -163.1420      -189.6792      -175.9463
      -199.0505      -177.9539      -181.8447      -167.3026      -187.4771
      -172.4078      -192.4879      -180.3673      -192.8497      -177.7381
      -194.1937      -177.9926      -194.8925      -174.3065      -174.2100
      -153.2640      -172.2174      -156.6727      -176.5066      -157.8596
      -162.0179      -143.1808      -151.4630      -126.2100      -139.8650
      -111.0100      -103.2792      -83.68456      -96.54999      -57.68219
      -64.79225      -52.97710      -57.64457      -29.97610      -35.81269
     0.08380508       5.203377       35.92160       42.74789       80.83929
       69.78757       106.3971       103.4250       118.3960       112.8127
       137.5756       139.8522       180.9979       173.3062       198.6693
       207.1764       237.0471       231.5372       262.7391       256.9168
       276.5305       269.1238       289.9757       284.7062       307.5281
       293.2195       309.1876       304.4618       329.2593       321.5294
       339.1637       319.4941       330.3022       314.7364       332.3588
       324.7518       337.6869       319.3378       335.5771       312.3237
       328.5376       320.9851       331.4589       312.5403       329.8659
       310.0372       321.6155       302.4532       312.1222       289.2589
       303.6610       285.2975       289.0731       262.6999       265.9758
       240.9413       252.8843       235.4166       246.9210       222.6863
       231.7735       210.4669       218.3602       195.1078       220.9878
       275.0266       572.0171       1260.043       2499.275       4289.104
       7000.887       10475.07       13462.79       14373.07       12076.41
       6275.621       475.2161      -410.5205       2422.138       3287.030
       862.7891      -6253.039      -19657.55      -29473.29      -22104.22
      -4541.812       57.89844      -10811.70      -15081.82      -4711.029
       4437.190       2396.148       2322.016       7012.611       3331.422
      -993.1309       5875.633       13977.11       9334.371      -2753.405
      -4955.737       3479.652       8991.182       4854.316      -1663.117
      -5566.984      -7476.771      -6626.760      -5822.238      -3938.902
       4216.891       12342.80       11019.55       3535.293      -972.0439
      -1803.246       154.5469       6985.488       7493.625      -4685.383
      -10309.75      -6491.904      -3814.904      -408.2476      -431.9297
      -4231.490      -1665.038       4847.656       6082.921       4223.380
      -196.2441      -8790.574      -8262.418       14.28125      -813.1963
      -5640.161      -4788.823      -3495.188       363.5684       7307.805
       7926.302       3820.928       1775.485       3298.818       6032.607
       3493.756      -5228.160      -8913.466      -594.3447       5179.286
       2267.418       3336.670       4850.053      -1831.619      -8546.617
      -8206.180      -1821.639       6475.949       9914.489       5796.297
      -233.6309      -4612.467      -8078.635      -7434.558      -2180.763
       1643.528       3673.807       6085.736       8768.369       7643.066
       49.32910      -5226.367      -4902.816      -7038.451      -7808.167
      -1175.308       2983.226      -754.0520      -1747.216       3024.132
       5094.806       191.3613      -5191.772      -2948.880       1350.472
       727.9365      -243.0771       791.6267       1445.526       526.4626
      -592.5525       256.8184       2805.689       1632.506      -4056.918
      -4897.031       1834.441       8018.663       6594.781      -2703.527
      -9185.073      -5513.851       1559.960       3582.106       1617.297
      -845.5388      -1311.479       1685.341       4833.893       4213.020
       219.3730      -4422.482      -7430.646      -4007.349       2974.162
       3615.752       1144.671      -495.5151      -2207.568      -1514.702
       1280.347       2966.071       2780.949       1788.384       694.7468
       214.2739      -265.4092      -3153.934      -3651.222       1321.601
       3790.041      -99.05469      -3986.020      -3431.833      -1395.047
       7.809021       710.5864      -876.2263      -1076.715       671.6881
      -229.6847      -1354.597       787.5918       2932.222       3417.120
       2598.710       82.75830      -1659.023       273.5195       2527.281
       1615.669       22.27832       1359.803       3195.074       1170.029
      -3249.090      -5023.307      -942.5801       4305.248       3330.977
      -779.0244      -3359.546      -4647.316      -3454.642       511.8857
       2638.335      -962.4785      -5742.118      -3411.522       1394.005
       778.8362      -749.3293       824.7437       1414.508      -563.0781
      -1645.525       1696.391       6212.893       4517.294      -1256.225
      -2086.253       737.1294      -958.3027      -5650.518      -6090.368
      -3672.652      -744.7363       2862.788       4700.619       4119.850
       2636.228       1909.547       617.3896      -2780.998      -3328.240
      -944.5249      -1367.790      -3028.030      -1844.902       542.2227
       1917.706       726.7964      -2350.521      -3537.758      -2730.413
      -1459.760       450.7098       672.9067      -392.9075      -671.7914
      -337.2793       1271.862       3386.836       3553.060       2614.014
       1322.903       870.6802       1439.226      -508.6094      -4823.199
      -6494.380      -4237.901      -2150.983      -2215.355      -1643.319
       332.4336       1987.778       2387.048       706.7048      -1504.890
      -141.3203       2021.073       1678.478       1578.954       1400.333
      -720.9766      -1895.258      -1770.975      -3221.783      -4961.136
      -4106.101      -2188.931      -260.2178       1964.402       3373.500
       3263.124       2701.053       1031.644      -2288.852      -3932.375
      -2151.000       538.8516       1229.834       283.9204      -233.1561
      -402.2000       293.2197      -503.3281      -3831.611      -4330.683
      -2560.947      -3699.215      -4463.600      -2055.121       789.0581
       2047.273       1813.127       1864.722       2725.713       2321.594
       496.9902       979.8662       3449.737       2291.187      -1108.000
      -1627.977       817.8638       2535.598       1142.107      -1401.135
      -1675.412      -978.9785      -1665.225      -1510.979      -470.4462
      -723.7864       123.0928       1567.716       1501.005       1473.633
      -226.6846      -2948.990      -138.8252       4265.153       2524.271
      -1306.656      -1212.904       1025.884       1738.325       510.9619
       1097.892       2911.031       1574.222      -49.90613       32.99805
      -1803.678      -1921.320       1026.243       623.0386      -946.1335
      -179.2578      -1443.946      -3411.288      -956.0146       2680.178
       2214.455       426.9282      -750.8345      -1542.947       135.1650
       2041.519       1582.170       2116.825       3307.631       2679.319
       2631.975       2877.241       1965.223       2964.254       3214.389
      -219.7732      -2050.214       204.0466       1101.529      -509.5579
       221.1182       1774.891       605.1465      -209.9404       666.0801
       1732.181       1712.095       1031.950       717.3497     -0.3463135
