     0.02500000      -33186.95       33286.65      -12345.00      -12345.00
      -30.01003       252.9650      -51.01000      -12345.00      -12345.00
       0.000000       38.79000      -12345.00      -12345.00      -12345.00
      -12345.00      -12345.00      -12345.00      -12345.00      -12345.00
      -12345.00      -12345.00      -12345.00      -12345.00      -12345.00
      -12345.00      -12345.00      -12345.00      -12345.00      -12345.00
      -12345.00      -31.20700      -69.62850       2369.000       0.000000
      -31.23600      -65.83800       0.000000       167100.0       0.000000
      -12345.00      -12345.00      -12345.00      -12345.00      -12345.00
      -12345.00      -12345.00      -12345.00      -12345.00      -12345.00
       361.1678       269.5320       91.48770       3.247323      -12345.00
      -12345.00     -0.1034855       0.000000       0.000000      -12345.00
      -12345.00      -12345.00      -12345.00      -12345.00      -12345.00
      -12345.00      -12345.00      -12345.00      -12345.00      -12345.00
      2008       318        11        13        21
       410         6    -12345    -12345     11320
    -12345    -12345    -12345    -12345    -12345
         1         7        13    -12345    -12345
    -12345    -12345    -12345    -12345    -12345
    -12345    -12345    -12345    -12345    -12345
    -12345    -12345    -12345    -12345    -12345
         1         1         1         1         1
CASP    -12345          
        -12345  -12345  
-12345  -12345  -12345  
-12345  -12345  -12345  
-12345  -12345  -12345  
-12345  -12345  -12345  
-12345  -12345  BHZ     
ZL      -12345  -12345  
[...]
       1742.252       3684.509       1346.835      -1316.537      -1779.634
      -2154.482      -1816.980      -333.3794       311.9248       1656.231
       2031.119       379.4980       298.6414       1113.994       686.8442
      -1007.902      -1959.787       188.0598       445.2312      -1086.947
       1631.509       3788.713       2552.524       1103.485      -790.4209
       1035.771       3667.115       948.9893      -2313.025      -2248.799
      -595.1997       1768.078       1659.563      -819.4536      -908.5322
       1963.257       2454.480      -340.9976      -1181.716      -24.33936
       694.8342       775.4780      -70.45932       174.6997      -787.4229
      -2657.334      -1748.447      -598.0453      -898.5405       247.4927
       2389.289       2442.755       1340.313       869.9595      -944.0225
      -3220.630      -2693.360      -33.87567       464.8567      -599.9528
       31.01733       923.0157       372.6548      -1023.796      -1858.769
      -683.5868      -123.0142       698.2256       3006.654       3142.500
       909.6102       108.6951      -16.71387      -1197.847      -2579.146
      -3381.896      -3183.562      -2444.591       188.9717       4277.039
       2316.732      -2998.743      -3475.233      -618.3174       1845.706
       2676.351       1108.313      -1292.464      -3299.127      -4232.559
      -1577.635       2478.224       2579.668       714.5293      -2486.954
      -3121.672       618.5127       1654.426      -68.58081      -1117.809
       67.61670       1949.005       815.1450      -2173.709      -3737.078
      -2654.171      -1326.580      -171.1331       539.2930      -1516.129
      -3070.501       597.1128       2347.451      -539.1493      -517.6187
       2115.467       756.3220      -1765.406      -368.7676       2761.329
       2830.581       227.8634      -388.4879      -208.0857      -839.4008
       12.24097      -588.5669      -2334.997      -933.2440       615.2930
      -345.5820      -1726.124      -1853.866       183.3496       1906.843
       2199.882       833.7280      -1415.950      -2270.713      -1098.623
      -215.2725       185.5815       1276.652       1814.953       1167.518
       614.5724       400.6318      -1310.853      -3736.870      -2144.153
       1345.663       3155.418       2720.652       213.3066      -2316.077
      -2276.605       919.1133       3833.679       1579.848      -3503.228
      -4057.512      -25.57275       2037.642       1304.976       1551.771
       3307.224       2943.507      -404.4316      -3191.435      -2052.692
      -72.65967       1026.022       2550.007       2422.655      -374.6650
      -2461.581      -685.6410       899.7075      -2078.713      -2822.081
       1103.031       2338.497      -415.4895      -871.5710       890.5874
       1966.863       3244.339       3863.940       1364.084      -2160.475
      -2212.432      -11.26050       452.2014       871.5848       513.2793
      -2180.613      -4026.999      -3279.783      -2606.605      -1605.415
       463.5664       3186.490       5685.675       5131.617       975.3892
      -2602.344      -2698.378      -1234.431      -283.5957      -1048.403
      -2251.514      -1912.311      -1554.089      -1951.261      -2089.684
       1076.412       5090.121       2780.651      -2357.616      -2453.041
      -316.2041       1439.443       2675.335       2785.002       2218.981
       1180.693      -1083.850      -3837.570      -3287.870       719.2119
       1152.823      -3093.235      -4961.998      -2331.903       1426.032
       2784.107       682.0420      -761.7490      -1641.955      -3259.624
      -4261.092      -2764.948       331.2405       1000.335      -548.1367
       796.6807       3241.526       1973.357      -120.1333      -255.1399
      -573.0704      -667.1342       91.00879      -674.3613      -3295.293
      -3840.002      -2211.963      -811.3491       859.8428       2911.712
       3342.515       2440.237       1321.896      -465.2920      -2161.674
      -1713.192       285.9507       2258.256       2363.629       1172.121
      -711.0156      -2331.930      -2554.458      -1484.373      -1726.228
      -1650.522       2618.509       5065.478       1965.126      -512.3184
      -753.8271      -2235.721      -3637.136      -2002.891      -21.21179
       1110.766      -290.0049      -3699.302      -3162.828       570.8154
       1855.592       2486.597       4519.683       3925.448       1955.561
       2453.406       1222.499      -2688.891      -3659.530      -914.6663
       406.5005       1779.928       2453.944       342.6733      -858.1787
      -1181.612      -1142.862       1055.047       2995.417       1702.427
       305.3918       1039.127       332.7593      -524.8618       2.139160
      -1.929565       135.2529       1586.958       2496.802       2451.971
       469.7603      -1832.068      -468.1351       327.5396      -2487.283
      -2294.114       701.1475      -203.1038      -2208.302       1032.290
       4857.524       3870.875       1356.266       360.0913       688.1138
       1837.632       2344.048       3266.246       3131.299       200.2480
      -3255.261      -2651.084       1956.437       4680.590       3041.447
      -745.4253      -2013.453      -149.8896       1888.309       3494.190
       2273.504       951.5859       2885.112       3149.577      -539.0938
      -4155.421      -3573.871       1324.854       4399.833       1735.688
      -304.1328       2968.868       3727.371      -939.0879      -3944.072
      -1725.603       380.5352       686.7764       1068.165       1606.446
       2544.354       2725.512       2207.057       1728.429       1530.106
       868.5187       5.188232       261.0720       930.0667       555.2510
      -1617.835      -2281.897      -1189.243       683.0845       2816.697
       2367.980      -737.5342      -3380.625      -2672.044      -302.3843
      -839.1296      -1903.136       21.67700       1635.892      -900.3081
      -2999.740      -684.7637       2629.575       3103.650       1106.767
      -274.2769      -847.5054      -1500.255      -1016.151      -845.8516
      -2605.614      -2960.969       226.9551       2645.233       2007.910
       860.7397       348.3047      -978.0879      -2732.129      -3342.548
      -2592.346      -2274.574      -827.5708       1019.136       1350.749
       954.0500       48.22241      -423.2891      -1083.486      -1962.787
      -1022.779       767.7906       494.0173      -462.2358      -1015.396
      -3077.338      -4546.751      -3849.261      -1026.456       1700.746
       276.6570      -1080.852       1015.050       2197.375       44.66309
      -3031.226      -2736.081      -1917.028      -3787.587      -3975.194
      -15.40613       1213.528      -1250.322      -2427.864      -1585.244
       393.8730       1541.815       1931.554       1580.952       12.48145
      -1429.326      -2569.573      -3197.171      -2101.321      -517.8938
      -561.7369      -28.88690       216.8328      -585.1191      -736.0645
      -1348.484      -941.4766      -1606.687      -4778.200      -4196.263
      -620.4788      -343.0745      -730.2737       977.3401      -286.2053
      -1666.920       435.4910       1439.762       1167.716       340.8779
      -1530.051      -2034.081      -911.8796      -249.0626       22.56250
       1246.918      0.6575928      -836.6296       1241.946       1088.734
      -1060.984      -2687.463      -4057.896      -3846.942      -1345.017
       2.604980       557.3130       1748.086       296.3207      -1093.514
       232.8193       1303.846       2114.589       2274.995       1581.908
      -536.0757      -2038.052      -718.9702      -72.58545      -1530.577
      -1480.125       2317.172       3192.672       1549.182       1038.076
      -351.6709      -1589.766      -2211.920      -3110.160      -4903.368
      -4226.646      -156.2598       2819.087       4053.367       3645.005
       2101.799       1315.285       74.14648      -2740.283      -3511.561
      -1987.521       209.8975       3897.414       3818.566      -335.0789
      -1170.062      -489.3535      -1800.723      -2042.354       1257.446
       5252.844       5464.506       3929.581       2259.600      -376.3584
      -2584.643      -2762.793       218.7339       2340.494       1862.738
       985.6437      -198.1068      -434.7495      -64.18530       1249.658
       1595.225      -1821.666      -4867.095      -3214.874       644.6895
       2007.611       5120.902       7976.752       5022.737       202.2344
      -1565.371       765.8218       1252.391      -2196.922      -6408.826
      -6292.944       237.7305       6109.141       7026.564       4417.034
       1592.880      -389.1946      -676.4799       477.5078       383.2061
       803.8857       1568.390       1962.057       1756.832       963.0215
       427.0273      -2641.723      -6614.374      -5706.594      -1280.778
       3147.488       5186.323       4084.187       3107.156       3053.599
       2659.510       1073.544      -1811.317      -3293.961      -1835.171
      -1028.578      -1406.115      -1249.887       222.0605       3751.777
       4558.781       2610.643       3036.580       2643.846      -16.49316
      -876.5854      -780.0938      -1230.467      -621.6016       1066.505
       2245.037       2716.449       3258.301       3393.952       2328.886
       1214.769       612.0854       554.3296      -194.0034      -1440.221
      -1389.520      -1152.276       55.02832       1763.111       1004.276
      -1965.542      -2798.273       137.9084       1591.517       89.62598
      -1989.554      -2475.745      -804.2842      -620.4087      -646.4082
       664.3262       1576.695       3078.692       3315.851       1814.091
       460.2723      -130.2558      -469.7896      -28.35254       1917.298
       2530.000       284.7344      -2717.340      -3567.683      -2947.463
      -2274.227      -679.2246       2348.729       4331.561       3270.096
       1461.969      -993.8252      -1917.894      -795.5623      -1072.214
      -600.0625       1615.590       1366.374      -1167.057      -673.0884
       912.2500      -1259.847      -4005.687      -2430.536       1572.320
       2870.235       100.3599      -2673.229      -636.5107       2259.673
       2700.589       3240.919       3487.684       2220.162       903.7872
       100.1053      -1018.402       309.0928       3876.499       3727.312
      -1690.562      -6568.813      -3755.874       1794.766       1878.777
       708.1992       1729.666       1030.004      -2192.369      -3446.242
      -1421.759      -173.6807      -1862.188      -5147.789      -6175.219
      -1778.223       4306.223       5288.014       2378.031       125.6523
      -1210.962      -3748.984      -5349.685      -2612.181       1699.743
       3185.352       2110.831      -101.8145      -2543.880      -3402.004
      -4071.069      -3480.646      -507.6113       1340.174       607.3638
      -294.9374      -35.87842      -38.33350       532.7363      -1500.570
      -5912.232      -7777.117      -8520.994      -8708.958      -5119.863
      -994.6655      -574.6509      -491.6055       3201.775       7321.584
       6322.240       1169.414      -3123.633      -5316.743      -4902.889
      -2380.476      -2792.169      -3619.600      -673.9844       288.6455
      -1005.450       586.9102       1878.034       517.1094       1510.771
       2890.110      -462.1875      -3407.218      -1649.938       506.7419
       835.2759      -230.6875      -2917.496      -5395.593      -4008.376
       131.1982       2624.327       2603.214       3901.130       4888.786
       2035.570      -596.2991      -222.6206       910.1616       1875.249
       2000.835      -1216.312      -5376.079      -5459.191      -2296.906
       3809.520       14187.55       21870.32       18683.13       8388.066
      -1417.441      -7271.438      -10553.84      -15963.59      -20519.35
      -18428.87      -11184.38      -4258.455      -1039.402       2376.249
       4180.315       109.5898      -8246.559      -10775.01      -1033.637
       9572.539       14820.35       13203.07       7199.848       5197.855
       1835.786      -1626.131       824.7979      -791.8672      -7878.535
      -10956.11      -11005.98      -6559.811       2639.258       10799.37
       18953.09       26304.48       24343.83       10752.15      -6761.156
      -21906.94      -31365.88      -32550.89      -25522.47      -16437.38
      -6538.258       11285.69       24168.97       22600.67       23483.74
       24526.81       16357.14       7226.768      -876.7852      -9214.938
      -21389.66      -33186.95      -29216.55      -12246.77      -3841.954
      -2149.590       8686.891       23497.05       33286.65       29096.45
       6044.199      -15819.03      -15467.76      -1359.207       5068.057
       5921.255       5132.358      -2928.414      -7697.564      -4604.734
      -4527.082      -10153.63      -8841.597       1107.316       2542.813
      -4548.172      -6271.548      -2705.324       1282.801       5281.098
       7898.770       15948.23       25737.52       20995.84       6755.176
      -542.9375       2349.548       4455.598      -2413.250      -11240.50
      -14596.65      -8074.450       1626.033      -1051.861      -7775.002
      -8071.281      -8352.789      -8936.451      -8034.609      -4922.638
       294.0254       3933.867       5706.297       12555.62       16904.28
       13606.88       11694.26       6627.491      -3332.432      -7827.334
      -4230.745      -981.3623      -3579.965      -7044.330      -8661.977
      -4018.344       6603.191       9009.535       5720.000       12295.99
       21563.45       21641.24       14691.75       2999.121      -12881.32
      -21469.90      -18321.26      -13623.38      -6943.711       3192.723
       12343.31       15298.09       4776.315      -4880.134      -977.7285
       6815.197       10701.86       6328.703      -9933.141      -25153.80
      -15365.94       3443.856       4593.884      -1553.261      -5701.408
      -2242.533       5638.755       5856.605       2110.660       4632.561
       10677.87       9911.734       4916.621       3748.756       3325.327
      -1822.867      -8461.598      -13265.64      -14898.96      -8407.943
       4415.121       9534.055       2025.706      -1285.846       2000.965
       5611.430       12473.44       13341.03       4764.056      -2391.539
      -8534.578      -15251.31      -14652.71      -4763.094       5237.020
       11179.40       17585.21       20293.26       10692.86      -702.3438
      -5685.945      -8552.682      -8231.789      -8053.688      -11453.98
      -13041.95      -8779.115      -4529.962      -2162.932       4835.316
       11864.61       12264.36       5769.946      -305.8691      -3436.957
      -9056.418      -12592.24      -9711.418      -7426.340      -6122.653
      -492.3105       6547.367       5946.301      -1449.305      -5864.453
      -5078.848      -77.62744       4013.175      -820.8379      -9132.722
      -8833.656       2072.723       14362.23       16653.55       7424.157
      -2.290039      -2303.049      -7606.523      -8622.867      -1886.712
       455.5081       614.1831       945.8840      -1253.978      -460.1577
       1909.895       607.6367      -4488.309      -8340.430      -7700.141
      -4431.874       139.6387       6014.131       10638.30       8271.158
      -683.0195      -10017.58      -13050.37      -11459.76      -7100.224
      -649.1282       1363.887      -1843.517      -909.9844       4316.244
       7093.014       9269.554       7014.188      -1989.527      -7807.355
      -5328.388       639.2208       689.6089      -147.4395       4666.859
       4030.605      -5199.188      -11816.02      -13198.71      -9780.860
       104.9336       9568.559       11551.05       9752.841       6661.904
       940.6375      -1574.675       1175.383       2775.404       72.79395
      -2866.486      -1493.999      -9.364746      -1226.795      -3850.117
      -8276.430      -10208.89      -4590.230       1230.829      -357.0156
      -5995.808      -6781.407      -1919.335       2880.437       3751.334
       1551.668       1317.275       5919.998       7146.072      -4163.109
      -16498.35      -14398.74      -4793.348      -1755.694      -4719.037
      -1030.629       8643.109       12772.34       12275.96       9833.627
       5606.690       362.9912      -3437.506      -371.1760       2499.269
      -1088.907      -2535.283       1.160400      -50.15625       2566.133
       10784.30       12962.63       4429.250      -1297.686       15.59668
       1095.329       2469.184       2036.070      -208.2539      -1072.698
      -2760.629      -3447.956       1026.422       5514.060       3330.453
       1803.834       3886.684       3768.031       2721.730       946.5137
      -3572.935      -4745.414      -4933.925      -5454.794      -1720.945
       2888.023       4892.000       5587.104       8101.191       6180.536
      -1717.129      -4441.204      -1639.811       1315.741       468.7188
      -6158.939      -11802.02      -7982.850      -636.9191       645.9535
      -444.3530       925.1237       1178.732      -917.1191      -1314.453
       2505.843       5794.742       3193.574      -375.5059      -1394.501
      -2583.492       1600.840       6608.642       4233.816       4504.496
       8603.488       7408.032       3653.659      -406.5918      -2525.405
       215.2930       4181.738       4045.909      -364.2682      -848.7415
       2023.490      -903.8711      -4644.772      -2044.525       970.9243
       302.7383       1084.230       1914.897      -268.3401      -758.8594
       3255.043       6527.906       3891.020      -3025.826      -9067.203
      -9860.321      -4695.532       343.9312      -4.560547      -2317.910
      -1332.019       252.0168       1090.703       744.9922      -2077.810
      -891.6409       1353.197      -2657.996      -3758.224      -34.24805
       950.3525       1583.330       2475.716      -344.1680      -1760.020
       3473.609       7860.181       3597.822      -2287.303      -4856.740
      -6506.783      -6737.114      -5386.697      -1095.230       6169.994
