     0.02500000      -47230.73       46023.73      -12345.00      -12345.00
      -30.01003       252.9650      -51.01000      -12345.00      -12345.00
       0.000000       38.79000      -12345.00      -12345.00      -12345.00
      -12345.00      -12345.00      -12345.00      -12345.00      -12345.00
      -12345.00      -12345.00      -12345.00      -12345.00      -12345.00
      -12345.00      -12345.00      -12345.00      -12345.00      -12345.00
      -12345.00      -31.20700      -69.62850       2369.000       0.000000
      -31.23600      -65.83800       0.000000       167100.0       0.000000
      -12345.00      -12345.00      -12345.00      -12345.00      -12345.00
      -12345.00      -12345.00      -12345.00      -12345.00      -12345.00
       361.1678       269.5320       91.48770       3.247323      -12345.00
      -12345.00      0.1584898       90.00000       90.00000      -12345.00
      -12345.00      -12345.00      -12345.00      -12345.00      -12345.00
      -12345.00      -12345.00      -12345.00      -12345.00      -12345.00
      2008       318        11        13        21
       410         6    -12345    -12345     11320
    -12345    -12345    -12345    -12345    -12345
         1         7        13    -12345    -12345
    -12345    -12345    -12345    -12345    -12345
    -12345    -12345    -12345    -12345    -12345
    -12345    -12345    -12345    -12345    -12345
         1         1         1         1         1
CASP    -12345          
        -12345  -12345  
-12345  -12345  -12345  
-12345  -12345  -12345  
-12345  -12345  -12345  
-12345  -12345  -12345  
-12345  -12345  BHE     
ZL      -12345  -12345  
[...]
       2176.776      -2767.950      -6110.734      -481.2500       2250.436
      -287.2095       645.2822       2321.513       2548.107       2334.841
       521.0112      -1456.131      -1748.111      -170.8232       2325.671
       2388.680      -1205.732      -3611.659      -2481.183      -1009.981
       485.1904       1140.286      -1607.535      -1554.264       615.0981
      -2356.393      -1183.678       6159.748       5641.951      -945.3887
      -3048.500      -2226.947      -2004.557      -2868.986      -1601.669
       3504.578       5256.681       2902.753       665.6758      -1575.361
      -3066.793      -4090.449      -3837.680      -2274.883      -2250.871
      -769.8657       2109.797      -215.8210      -1609.972       2968.693
       2838.599      -1657.691      -1022.355       2594.999       2621.645
      -1364.925      -2078.879       582.3008      -1416.996      -4179.776
      -4001.917      -3475.420      -2184.284       2059.555       4600.684
       750.8604      -2584.652      -1546.865      -1506.932      -2994.657
       381.9341       3615.075       67.86279      -2927.337      -1304.558
      -1370.840      -4024.106      -2521.401       677.6328      -64.40869
      -319.6084       1821.019       2549.917      -725.1240      -4025.486
      -125.5732       2697.657       925.8467      -1114.042      -3884.812
      -4061.205      -1246.921      -2104.625      -3701.750       1739.815
       5074.371       1631.240      -247.5828      -518.7854      -939.2186
       354.5527      -966.2705      -1930.399       346.6221      -1749.001
      -4142.660      -1532.108       1186.922       1223.652       1171.649
       2625.010       1375.764      -3197.785      -2238.890       1044.104
      -2438.152      -5626.519      -2947.703       1149.701       1493.733
      -362.8613      -909.5864      -887.0786      -1268.088      -1088.447
       845.7240       1227.401      -1065.765      -555.2363       3943.954
       2018.532      -2269.374       500.6880       2801.066       910.2925
      -2354.981      -3232.560       490.7427       2861.626       2029.159
       1500.626      -2133.374      -2967.894       706.3521      -1518.691
      -2242.627       1228.426       460.7212      -1887.139       356.7568
       5077.109       3296.354      -640.7480      -1382.530      -2706.072
      -1697.850       1338.338       1984.411      -754.1074      -2158.159
      -1143.400      -1902.321      -2347.567       621.4697       3132.684
       1818.911       574.7664       1270.740       902.8315      -2.779785
      -1101.681      -1962.835      -1143.393       18.02734       668.1790
       999.3604       993.8926       966.9395       2064.468       1055.314
      -1912.540      -736.0264      -646.7339      -2376.572      -803.4158
       130.0868      -883.2886       136.4639       3723.708       4380.126
      -878.2661      -3078.209       837.0872      -27.67090      -3476.834
      -1774.753       3026.139       6469.744       4431.596       759.8984
      -1054.781      -1717.885      -1533.418      -2811.257      -3464.251
      -2215.248      -639.1777       1155.912       2874.113       2494.815
       64.08203       1238.261       4149.596       1854.079      -3031.079
      -2346.857       1619.269       3557.930       4325.321       2622.206
       722.5027      -344.3477      -3344.648      -3866.211      -2560.328
      -2299.480      -847.7539       2739.705       3030.471       478.1211
       1042.350       152.3344      -1078.081       744.3115       2075.700
       471.3972      -1774.962      -360.6921       11.18359      -3240.409
      -2853.500       2708.799       7028.473       8012.619       4357.182
      -890.4473      -2282.440      -2740.902      -1210.431       1782.295
       2829.622       3230.549       1708.820       329.6553      -1166.449
      -3012.017      -2050.051      -332.1113       1455.568       5514.389
       8441.601       3806.217      -2647.489      -245.8643       4263.088
       876.8608      -2170.664      -644.9902      -1082.835      -1850.322
      -611.1772       2276.412       3637.361       1701.406       1637.717
       2008.593      -1056.834      -3456.746      -3425.340      -1405.320
       2011.684       2927.439       2856.442       2425.980      -1168.490
      -1814.686       3377.975       5638.989       420.0078      -4709.885
      -4136.700      -1723.709      -718.4141       3271.797       6862.852
       4197.015       1865.328       2759.357       1626.554      -780.9468
       259.4510       1113.776      -1255.450      -131.4619       5178.073
       5463.646       622.3540      -1794.766      -943.4985       1686.555
       371.3574      -4088.106      -2965.070       289.0752       1369.423
       1105.122      -100.1650       889.4492       3062.326       1822.426
       229.1328       2294.742       1096.555      -793.1270      -1201.844
      -1076.542       1761.121       1475.836       1686.707       1730.144
      -391.3127      -969.4175      -281.0186       3062.047       2012.439
      -3579.408      -4176.505      -1604.522      -1223.646       504.3892
       3586.532       253.6406      -4374.744      -1532.224       1244.237
      -929.8817      -1056.688       487.4165      -1497.486      -5130.207
      -5250.979      -943.2568       2277.969       920.9880      -569.4941
       1094.027       579.8257      -717.4824      -1067.255      -4188.802
      -5145.594      -1784.797       835.7358       1408.132       560.5889
      -1368.063      -702.0132       1245.441      -398.1353      -1896.616
      -658.8147       1544.076      -281.1562      -4518.192      -3683.395
      -322.0612       578.1177      -709.6948      -1576.627      -2408.576
      -2698.553      -3754.238      -5033.003      -2030.021      -661.3914
      -468.1460       2293.483       2490.983      -1078.222      -2122.014
       427.0869      -2386.662      -5500.428      -2001.643       545.7163
       1475.095       639.1963      -2717.594      -4034.727      -2992.767
      -2192.459      -988.9961      -212.5654      -1190.887      -579.4297
      -610.2681      -2421.610      -622.0289       4.571777      -1516.583
       1158.491       758.2979      -3206.913      -3362.672      -2402.868
      -1496.618      -493.1250       1661.605       3059.714       1455.374
      -221.8406      -266.4805      -527.2227      -2871.412      -4930.741
      -2682.241       2386.668       3039.781       382.3528      -333.8022
      -1757.863      -2634.909      -1247.639      -1452.495      -1069.679
       2021.515       3962.720       1397.272      -1767.867      -1782.945
      -1257.662      -2108.664      -2800.942      -1429.793      -1577.717
       145.3682       3037.426       180.5449      -2894.539      -2684.765
      -1023.186       249.3687       427.6309       1380.362       2385.025
       936.9341      -2513.524      -2665.107       201.9668       1040.855
      -544.8145      -2298.830       897.6729       5212.645       3571.021
       2280.331       3407.200       2575.542      -423.4336      -3317.677
      -4804.566      -3429.736      -607.7593       829.2704       824.7654
      -976.0502      -1363.786       1554.179       3837.837       1618.952
      -2773.294      -2204.159       1649.968       2601.543       2189.943
       2097.990       2059.493       2156.007      -221.3535      -1184.320
       1834.666       2481.592       357.7780      -909.6570      -78.27148
       1707.728       2508.381       1781.941      -1187.128      -851.9380
       2125.949       1531.757       1299.016       157.6709      -1696.326
      -317.7334       2165.617       3272.597       452.4871      -632.5591
       1711.603       1129.260      -675.8901      -286.9639       2285.104
       4559.110       3545.034       2356.943       1691.246      -903.7307
      -754.3306      -584.0616      -1215.193       1799.768       2073.001
      -1459.276      -2791.081       879.6436       4995.229       4766.790
       1634.384      -1578.020      -2506.722       435.3457       3505.184
       2354.539      -380.5527       430.0098       3273.142       2998.653
       1227.073       2031.399       2557.870      -596.5215      -3041.707
      -4431.153      -4532.438       962.4336       6901.199       7341.771
       4220.393       180.1016      -2482.026      -1226.999       1274.944
      -134.0054      -2119.913      -381.0837       1232.716       1374.313
       1464.958       2921.576       2860.976      -1091.826      -2076.104
       731.9087       2246.547       1627.691      -111.2168      -1694.445
      -948.5430       3214.621       4749.199       633.9805      -3320.446
      -4515.812       182.3096       4865.913       1833.194       579.6426
       3184.253       1123.910      -4284.498      -2305.606       990.7998
      -937.7510      -2005.622      -2440.728      -176.0996       3370.053
       4157.996       785.1465      -1824.158      -1355.019      -2120.978
      -2938.628      -2395.079      -1394.878       69.02686       2497.726
       839.5146      -2643.929      -2133.372      -588.1079       887.8499
       1463.022       705.1646       337.9244       535.3470       589.3032
      -696.0662       279.2676       1806.892       475.2568      -2480.498
      -4666.348      -1838.299      -1296.400      -2854.228      -744.3357
       838.5576       2377.925       3246.805       75.55664      -4645.584
      -4818.895      -4170.533      -4093.406      -90.42090       2273.146
       895.6533       1310.844       2415.617      -572.4639      -3995.041
      -2321.448      -79.83984      -2163.509      -4985.814      -4946.844
      -2926.075      -1531.457       648.5835       605.1841      -2995.031
      -958.0571       2591.477       1096.629      -258.0283      -606.7471
      -1391.003      -1775.724      -477.6744       485.7393      -1105.978
      -1340.658      -279.4177      -604.8892       187.1104       2750.854
       3799.914       654.3428      -2019.005      -921.5205      -1354.457
      -1769.652      -2445.322      -6164.648      -6824.424      -3984.235
      -914.6289       2051.411       4133.439       3435.612       586.8227
      -113.0857       367.4216       692.1233      -321.2241      -1695.667
      -1543.351      -2209.584      -3104.144      -1352.332       2173.399
       2098.476       789.1450       1317.710       1164.406      -266.7461
      -897.5205       677.6436       3384.840       3126.686      -790.3574
      -2742.041      -2627.931      -343.9380       2113.663      -497.9404
      -3213.926      -1455.749      -1297.408      -4754.657      -5814.787
      -2747.987       132.3989       1374.104      -108.9585      -1891.290
       830.7324       2290.194      -627.2402      -3342.990      -2239.809
      -1179.420      -3982.224      -4370.654      -392.3418       2424.227
       2400.748       2028.177       2201.406       2864.710       3693.175
       2946.743       235.0225      -1982.274      -868.0076       453.6641
       1253.034       2358.035       694.8994      -2342.452      -3421.154
       103.8857       2099.990      -1211.622      -594.0312       3775.953
       3741.065      -129.6438      -606.0312       2085.223       1757.417
       832.1934       2540.080       2421.227       1295.481       2508.575
       2208.615      -88.09473      -228.4844       1962.615       3968.939
       4182.914       2473.150       2469.619       3462.349       760.9028
      -1699.434      -1069.560       974.1500       1312.935      -1386.233
      -1662.813       10.29935       440.6895      -463.7930      -2170.374
      -3537.558      -3251.801      -1433.637      -495.7996       723.1812
       1044.258       1585.082       3468.484       1337.161      -3759.147
      -5373.216      -1575.062       4087.812       10060.12       16458.45
       16796.91       9253.489      -493.0059      -8552.834      -10388.59
      -5625.279       1714.291       6715.787       3870.656      -4311.195
      -10192.41      -12825.78      -11411.85      -3764.459       4824.002
       5557.730      -673.5967      -3779.991      -2794.175      -2349.883
       3030.662       10964.36       7081.991      -2325.215      -6856.551
      -7522.481      -1770.824      -2882.273      -12822.88      -9439.384
       1401.238       6209.383       10767.30       16993.28       22298.85
       26878.38       32107.06       24282.70       150.0137      -10912.19
      -7018.445      -10144.04      -12942.43      -6925.395      -7666.820
      -11879.06      -10517.47      -8503.734       6379.867       22730.15
       11840.57      -4126.949      -4815.211      -12400.98      -36403.16
      -47230.73      -32499.04      -15470.12       3970.805       26741.86
       35099.19       38025.00       41336.37       33054.61       19762.00
       6425.527      -13090.62      -33206.20      -42809.41      -38284.36
      -25509.71      -16711.54      -22056.39      -11719.90       29386.88
       46023.73       34096.40       22793.30      -3057.914      -23961.73
      -17935.34      -10691.69      -5878.893       8631.406       16576.42
       4659.495      -481.4526       6300.742      -7110.516      -25083.53
      -10318.01       11370.73       10683.73       13734.55       26315.62
       13584.76      -13481.76      -6740.383       12652.34       1844.285
      -13049.84      -11090.96       2719.785       15456.76       5200.359
      -7667.918      -9564.688      -8761.910      -11603.16      -20236.65
      -18716.50      -7288.930       7409.133       10146.24      -757.7109
       990.3359       9686.824       12971.12       8020.744       1606.225
       5660.078       9944.604       1394.332      -13441.56      -10662.08
      -1613.393       915.0352       6390.817       2109.010      -8583.978
      -10137.66       5588.598       20289.63       12796.18      -5098.594
      -21861.09      -25768.29      -15950.10      -3012.625       5673.020
       9893.934       10782.14       9100.438       11292.31       4898.377
      -3873.162       2362.027       10031.85       9329.455      -3233.469
      -11402.83      -13822.69      -19380.40      -13889.29       2739.609
       20831.80       20537.58       9982.230       9851.579       6531.227
      -10785.29      -23198.20      -10173.46       11596.78       17676.60
       6862.512      -3764.901       1338.709       8568.322       4931.555
      -5906.387      -19083.57      -20155.41      -14062.82      -4638.925
       3502.600       5621.539       8648.406       8385.791       5071.406
      -5097.312      -9109.378      -1043.488       12605.68       20836.22
       8453.879      -1031.176      -8334.750      -19937.37      -19747.76
      -1423.283       12777.65      -12.42188      -5834.854      -5456.836
      -14329.89      -15267.87      -3740.758       19389.69       29928.33
       15110.23       3364.550      -1321.055      -6819.920       2531.201
       10166.61       1271.855      -4028.734      -2937.441      -8927.152
      -15785.59      -10443.31       2772.197       10840.74       1373.703
      -11624.98      -14592.20      -13517.57      -3505.914       10776.48
       20544.59       20203.71       12459.44       10241.15      -43.50977
      -10370.29      -4602.139       1709.335       604.1152      -3531.429
      -3280.214      -2570.446      -1176.918      -3589.641      -5995.132
      -2809.871      -3505.004      -13059.44      -14353.21       7152.898
       19943.98       14562.73       8195.332       2543.630      -788.1582
      -1674.586      -2814.382      -3915.047      -153.0571       1851.663
       654.2266      -4405.188      -15790.82      -12176.88       2723.646
       6446.977       7450.103       6719.098      -1934.670      -7060.285
       350.8203       11440.51       13076.86       9531.461       4023.842
      -2425.031      -3953.083      -3508.145      -4176.119      -6533.656
      -8720.953      -8675.949      -4259.927       638.4460      -198.1914
      -1486.024      -69.47632       1064.764      -2144.782      -348.5469
       7303.254       8832.727       8451.897       4916.701       516.3879
       981.7578      -4224.309      -14382.55      -12940.24      -1473.985
       3544.060      -1100.802      -599.9717       3373.369       3611.280
       4028.168       7314.951       12191.21       6531.685       1097.582
       625.8984      -9664.455      -12868.67      -3066.885      -1467.119
      -1811.163       3514.110       2681.957       3430.442       3991.253
      -2011.453      -771.5723      -97.80664      -4338.560       676.0327
       4110.885      -3270.463      -2036.129       9532.746       5841.508
      -4704.095      -1342.036       5763.559       5018.665      -2588.434
      -7660.694      -4103.021       3892.008       9207.889       8266.233
      -1465.601      -7809.219      -194.6484       1509.342      -9515.109
      -12451.63      -7564.500      -8656.816      -949.4297       16298.02
       14620.79      -915.5215      -7832.512      -7807.816      -1379.424
       10033.82       11528.39       4725.199       4282.803       4744.380
       2923.649       1908.229      -1856.250      -1317.372       922.9019
      -1583.661      -1705.352      -1587.505      -1306.038      -1721.049
      -7894.344      -8552.757       1535.561       10273.56       6504.373
      -3033.910      -780.9238       7231.795       7973.236       91.05078
      -11871.96      -12630.79      -3395.306      -1056.567       2258.920
       8219.802       7008.300      -277.4316      -6748.672      -7706.885
      -10272.20      -5552.628       5352.820       7489.903       902.8184
      -5582.849      -5200.735       942.2422       3559.631      -3033.654
      -3871.273      -480.9971      -898.8574      -830.9062       5076.328
       9967.084       3080.841      -2372.455       4259.527       8263.264
       5677.687       3661.430      -4500.387      -12207.69      -9148.918
      -3318.408      -5354.840      -12279.97      -12450.52      -3309.100
       6042.105       12406.40       16841.96       12293.56       7669.439
       7767.221       1818.476      -4128.846      -2859.463      -1375.928
