     0.02500000      -49246.38       44115.84      -12345.00      -12345.00
      -30.01003       252.9650      -51.01000      -12345.00      -12345.00
       0.000000       38.79000      -12345.00      -12345.00      -12345.00
      -12345.00      -12345.00      -12345.00      -12345.00      -12345.00
      -12345.00      -12345.00      -12345.00      -12345.00      -12345.00
      -12345.00      -12345.00      -12345.00      -12345.00      -12345.00
      -12345.00      -31.20700      -69.62850       2369.000       0.000000
      -31.23600      -65.83800       0.000000       167100.0       0.000000
      -12345.00      -12345.00      -12345.00      -12345.00      -12345.00
      -12345.00      -12345.00      -12345.00      -12345.00      -12345.00
       361.1678       269.5320       91.48770       3.247323      -12345.00
      -12345.00      0.1273448       0.000000       90.00000      -12345.00
      -12345.00      -12345.00      -12345.00      -12345.00      -12345.00
      -12345.00      -12345.00      -12345.00      -12345.00      -12345.00
      2008       318        11        13        21
       410         6    -12345    -12345     11320
    -12345    -12345    -12345    -12345    -12345
         1         7        13    -12345    -12345
    -12345    -12345    -12345    -12345    -12345
    -12345    -12345    -12345    -12345    -12345
    -12345    -12345    -12345    -12345    -12345
         1         1         1         1         1
CASP    -12345          
        -12345  -12345  
-12345  -12345  -12345  
-12345  -12345  -12345  
-12345  -12345  -12345  
-12345  -12345  -12345  
-12345  -12345  BHN     
ZL      -12345  -12345  
[...]
      -1220.826       1267.689       2432.987       4.504395      -1349.754
      -955.6614      -1167.363       60.14355       1029.448       186.9199
       1271.978      -425.2856      -2310.347       872.5798       545.4468
      -2685.430      -1711.835       2856.747       4376.856      -163.0640
      -2678.271       599.8701       3174.078      -185.6719      -3652.229
       1192.778       5423.787       2220.314       262.4902      -705.1738
      -3046.652      -1118.163       2240.567       1047.625      -2507.768
      -3070.723       1891.380       2960.203      -3307.440      -4238.465
      -14.79932       1669.101       2132.566       1236.246       1976.691
       2372.685       796.1172      -512.3564      -3950.291      -4448.938
      -79.29541       2300.524       3067.191       3347.530      -75.64453
      -2441.826      -1021.820      -1174.174      -1165.445       2089.065
       1604.660      -955.9987       130.6274      -1089.229      -3291.513
      -2237.391       2333.391       4848.738       854.5920      -1294.637
       2299.738       2681.021      -1762.316      -2009.807      -1013.691
      -632.4004       1972.610       1886.823       321.9572       101.7812
       732.4819       2075.904       545.1377      -2811.477      -2517.508
       318.9609       2333.821      -493.9175      -3345.913      -125.8542
       1289.372      -222.3359       1719.655       2508.800       1133.672
       129.2716      -666.5400       1311.690       2382.068      -764.8037
      -2210.868      -338.2234      -271.3154      -1243.301       1190.633
       3419.084       707.0068      -1420.026      -1743.343      -1431.602
       1851.347       1579.995      -52.48633       1468.104       1326.283
      -540.3477      -2686.094      -2124.797      -252.6071      -374.5898
       930.2109       2321.084       2231.818       69.37305      -3902.968
      -3548.960       40.19214       215.0291       228.7041       2977.927
       2836.785       1401.442       1318.935      -1346.990      -5853.057
      -7868.046      -2207.441       5733.219       5234.579       64.70331
      -532.0122       439.0620      -2101.154      -1940.071       1840.166
       799.5820      -2867.487      -1204.692       1078.236      -1179.748
      -1334.303       2311.033       2452.487      -2139.405      -3791.051
      -2257.649      -236.3789       1249.307       20.85352       847.2939
       2979.353       992.0195      -1434.725      -2893.285      -4580.022
      -2321.516       1720.099       2239.616       779.9326      -1297.562
      -2698.408      -1955.842       1191.087       3877.523       3523.716
       121.5352      -4588.219      -6414.610      -4730.140      -1160.515
       1647.366       786.5918      -174.7588       1619.465       2425.200
      -199.9847      -826.8523       1678.325       677.9579      -653.5811
       1255.453       1990.715       1318.722      -198.6133      -4150.193
      -3914.832       503.5657       187.0708      -280.2896       917.6755
       1039.377       1460.514       152.7349      -1874.812      -2093.358
      -166.9678       2442.871       1448.684      -1079.834      -2527.363
      -1705.769       1653.872       1895.287      -568.3682      -256.1787
       2927.212       3491.133       1282.235      -1419.708      -3850.589
      -1852.266       745.2695       1033.377       1641.975       308.0212
      -388.6274       1898.933       2010.407       929.8088       1023.709
      -477.0840      -2214.731      -1592.978      -230.4912       1715.487
       3530.048       3283.719       1707.641       565.6702       391.7036
      -2130.912      -3526.352      -1389.530       573.4656       1675.974
      -208.6294       584.1445       5721.215       4566.888      -1316.247
      -3900.925      -3004.476       843.8623       3461.012       920.1030
      -658.0332       613.3057      -598.0156      -1933.967      -381.0957
       1358.227       2154.785       2284.405       1444.961       55.02051
      -344.2715      -335.3135       351.4542       891.7598      -2127.812
      -4339.590      -1441.810       2819.146       2804.646       599.6755
       1054.953       492.7168      -2719.969      -2185.094       677.2129
       980.0107       2423.065       3799.400       2878.517       1058.376
      -396.1342      -142.8374      -381.4573      -914.0630      -506.5625
       935.6689       2517.316       1668.622      -1865.541      -2672.116
      -82.48315      -826.2979      -1869.409      -245.4268       139.6708
      -164.3276       958.7930       4717.781       6650.271       3805.106
       1621.581      -762.6963      -3233.055      -3689.077      -3335.371
      -721.6299       331.3452      -1304.498      -817.4023       2199.455
       4088.749       2265.532      -234.2742      -193.1099      -492.5371
      -2948.499      -2468.785      -942.1643      -916.6675       374.9854
       1052.907       1995.513       631.5044      -2494.898      -336.0342
      -1221.268      -5156.335      -228.4844       3845.255       189.4790
      -1275.076      -881.0333      -377.1943       2668.932       1416.415
      -1572.455      -792.0234      -857.6709      -1649.034      -2724.952
      -3644.729      -3193.576       187.8516       3575.970       1779.047
      -1397.464      -3164.743      -2255.173      -407.2261      -934.9365
      -406.1539       478.5239      -661.1621      -2060.132      -204.3276
       3120.964       1109.268      -561.5865       405.8811      -1237.924
      -1583.812       94.16846      -212.4775      -2465.184      -1609.522
      -66.93311      -1126.200      -160.8774       1286.560       1286.985
       515.8516      -844.5898      -3458.115      -4439.935      -531.5391
       2928.608       3461.502       1888.345       264.5850       1163.220
       721.3892      -1667.244      -2037.205      -2096.065      -2791.976
      -3358.877      -2532.146       258.4447       811.9614      -549.7539
       500.3472       2436.146       1589.757      -1213.827      -1189.645
       362.3352       744.5200       1826.537       874.3892      -2299.794
      -1909.167      -409.2393      -2033.078      -2504.729      -454.9907
       1185.299       2221.419       3193.837       2035.850      -1468.841
      -3295.098      -1629.503       108.0269      -564.5225      -2332.122
      -1511.416       1145.914       1950.689       1167.824       686.7498
       507.9346      -1065.108      -1168.114       1029.645       1314.030
       883.0391       2064.018       1630.190      -848.6895      -2940.505
      -2822.565      -914.9958       169.2207       1296.225       1360.993
      -21.29224       1128.054       915.0593      -233.7852       2853.448
       3197.417      -1115.855      -2149.468      -68.45178       114.0938
       591.7246       3128.320       3298.661       2072.900       1663.253
       948.0078       267.5967      -1617.042      -3085.053      -1480.224
      -1467.341      -3335.178      -2114.256       742.2622       1608.068
       1089.423       1604.849       1781.272       1181.293      -111.9746
      -2548.591      -2767.260      -2739.350      -2548.987       1085.785
       3924.681       3045.567       1612.724       1167.753       942.2178
       1938.324       3615.047       1082.877      -3872.470      -1945.383
       1573.952      -983.2117      -1672.986       1858.754       3541.950
       2118.545       642.6919       1069.013       1326.177       1170.772
       1108.850      -1431.733      -2675.081      -23.48315      -404.1455
      -2790.148      -1209.010       1107.202       2286.912       2049.886
       597.1145       849.7529       1639.491       529.7384      -706.7738
      -386.8589       221.0049      -857.9107      -352.2738       1257.992
      -618.6823      -422.6733       1905.449       1473.508       1783.024
       1879.747      -969.7095      -2248.709      -975.9998      -1089.516
      -1183.053       612.1157       1754.781       1687.143       1774.783
       847.0837      -1151.985      -1458.015       189.8472       2109.312
       3278.689       2565.233      -1314.351      -3453.326      -1471.195
      -373.8152       323.1680       971.9512       1371.505       1869.738
      -91.30023      -802.3334       930.8354      -1237.511      -3211.984
      -1416.893       859.5718       2604.153       1300.955      -930.3682
      -937.3950      -467.5420       939.5315       1864.111       299.0813
      -910.9151      -31.24820       150.8049      -814.1865       894.7900
       2951.436       1748.254       1676.187       2557.387       763.0220
      -976.6543      -3115.151      -5916.834      -4228.563       667.4736
       3730.474       2818.539      -815.1042      -1249.912       1553.794
       2292.508       1293.724      -28.53198      -1074.471       55.09082
       2560.215       1830.558      -1629.697      -3028.495      -1875.363
      -208.8872      -304.2213      -718.6478      -149.0431      -549.0048
       18.35474       1081.393       986.9917       30.86133      -1945.464
      -1276.772      -227.7891      -1406.149       142.4709       1482.907
       993.9785       2171.224       2390.886      -660.2627      -2500.129
      -625.8711       131.3740      -1347.341      -3368.863      -2606.671
       360.3334      -209.7046      -1222.919      -859.1553       1026.823
       4291.975       3884.079       1216.768       572.9734       108.5234
      -2762.373      -4994.780      -4340.045      -2777.506      -782.4346
       968.8008       1337.346       541.8696      -2127.722      -3232.120
      -494.0381       1718.023       4690.173       5852.271       456.1055
      -3493.066      -2272.242      -2270.482      -2628.293      -1667.208
      -1065.187      -320.6699      -596.2087      -603.2649      -299.8877
      -2234.759      -1945.587       2027.999       2958.356       1544.203
      -951.4785      -3450.998      -1429.015       763.4053       1442.240
       1544.251      -259.2153      -2608.257      -2875.932      -240.1743
       1188.112       1149.943       152.0155      -444.4326       2514.701
       1707.843      -2683.054      -2390.539       179.0660       1138.645
      -350.7831      -961.8594       209.2739      -1145.255      -1541.808
       927.6377       1023.982       190.1377      -1645.000      -5343.904
      -3107.842       2455.498       5104.184       4167.396       635.8813
       710.3701       1309.501      -3215.904      -4184.375       804.4840
       1368.301      -1946.038      -3143.070      -2149.190       236.9062
       1881.977       1615.120       1168.613       2402.156       3006.540
       2574.816       2952.501       48.77979      -3103.231      -983.3833
      -316.0205      -3455.804      -4209.045      -2167.930       657.4258
       2494.733       1844.982       1977.509       2100.813       270.2188
      -2978.732      -5472.998      -1819.197       2107.695      -511.5317
      -1753.958       294.4905       139.7720      -2001.764      -2042.501
      -693.4600      -2437.188      -4748.109      -5540.936      -4559.148
       159.8789       4379.150       2761.801      -5792.738      -12732.32
      -10624.57      -4873.603      -643.1055       2307.285       5404.059
       7883.511       2858.014      -7549.326      -7270.145       2807.277
       7910.031       7438.164       2894.668      -6675.859      -12885.34
      -8657.689       5446.844       21261.63       26255.31       16124.98
      -735.1484      -14137.61      -15803.44      -4495.992       1104.889
      -5105.595      -3946.291      -1903.008      -8465.811      -2541.145
       15226.64       25382.39       25708.77       14609.21       6221.148
       18954.77       29267.15       16476.90      -11298.96      -38797.84
      -45790.00      -23991.08       8068.082       19346.93       2550.791
      -12779.81      -5861.701       2572.930       3415.025       2558.268
      -5746.066      -8768.704       2870.188       14243.39       9535.371
       6195.705       12388.26       6252.504      -10445.77      -18484.57
      -5744.273       11916.18       14731.50       5162.122      -1163.316
       8756.543       17407.18       4072.359      -13052.17      -18820.58
      -24586.28      -13102.62       4935.934      -8979.195      -23408.47
      -14525.27      -906.8359       11219.56       12057.74       9420.422
       21257.18       20925.37      -93.85449      -126.9414       13179.43
      -5983.375      -27360.22      -11488.31       9458.906       17124.67
       13002.29      -4938.078      -22210.95      -23973.95      -637.8984
       22655.35       32186.04       44115.84       33343.22      -701.1680
      -17281.20      -30987.81      -49246.38      -44027.22      -32840.36
      -21002.85       37.64844       14000.31       11854.13       8297.977
       24242.14       38413.15       24860.67       375.4414      -10928.44
      -2334.947       4962.078      -311.4092      -4787.298      -4565.369
      -4780.058      -1398.833       4254.988      -4614.321      -6892.365
       8400.362       5900.105      -17456.44      -15948.06       16993.16
       28676.82       11387.27      -4788.551      -11309.47      -12884.02
      -12605.19      -8759.621      -214.0020       8019.589       5991.762
      -2621.676      -7885.271      -10037.20      -1374.641       12627.34
       25591.09       38753.86       26363.95      -16553.09      -44094.94
      -29457.23      -7845.979       4785.049       9510.698      -2894.680
      -2581.781       14703.78       12954.51      -1221.958      -4659.789
      -6858.635      -6658.130       4937.022       3463.723      -12892.68
      -10579.50       186.9375       6599.969       14818.05       8065.461
      -2450.711      -563.1416       1298.378       1401.270       8230.891
       16466.01       5376.387      -12872.25      -11336.98      -4424.137
      -9127.258      -10728.17      -285.1719      -2776.527      -18962.12
      -16724.79       1648.777       13966.97       17291.96       8380.910
      -6948.502      -8023.146      -764.4883      -3928.844      -14277.86
      -7441.109       11539.83       18168.05       16931.72       3827.871
      -17643.77      -16075.91      -4496.137      -10258.27      -13957.66
       28.40625       23068.72       31314.95       17737.87       10524.09
       10112.66      -5031.367      -21407.36      -18038.58      -5105.717
       6736.535       13610.41       10138.22       3872.098      -1537.242
      -8920.902      -13916.46      -10089.61       2125.369       7324.557
      -1879.305      -8435.584      -942.6924       4461.265       3843.277
       2491.445      -3360.778      -378.7871       4046.866      -3026.461
      -13406.67      -18438.91      -12823.44      -5339.801      -1553.556
       737.3867       3882.552       3911.119       798.3711       1631.332
       5945.723       12243.69       11283.56       2592.643      -6970.117
      -12460.45      -8606.315      -2903.324      -4834.059      -10457.93
      -6772.402       4931.398       13445.54       10392.97       3542.156
       1377.979      -2865.543      -3986.685      -803.2939      -524.1904
       3842.237       5716.893       3283.172       10120.15       15345.81
       10272.23      -2582.820      -13628.48      -5055.883       12285.44
       15577.98       4858.617      -4398.363      -9585.418      -12977.01
      -8974.402      -6470.568      -9694.189      -3396.488       6907.394
       7032.226       1517.627      -5404.158      -6689.805      -2356.228
      -2336.541      -5336.752      -4571.276      -3173.541       293.3438
       5930.246       9496.621       14921.02       12352.50       2163.329
      -1022.588      -769.5488      -5996.402      -10353.56      -9056.359
      -7723.098      -9923.281      -11886.47      -2888.535       10085.96
       13573.32       10547.41       4804.658       3027.511       4693.579
       3137.116       3088.318       7426.283       9758.560       5595.003
      -2392.854      -10445.54      -8126.449       5193.089       5547.138
      -767.9805       6324.730       8708.724       363.0156      -6034.797
      -4508.576       1392.422       6161.877       8552.633       2484.047
      -10130.66      -16503.71      -11518.01      -5457.988       1055.273
       6829.831       5638.248       4482.890       4054.715       2465.607
       3778.912       2038.436      -2753.372      -4771.255      -3353.531
      -361.0137      -2954.963      -5728.233       2099.895       11716.64
       6165.631      -7400.289      -14569.51      -13827.36      -4793.021
       6172.402       10737.80       11116.77       13222.32       9243.443
       3800.373       5294.751      -90.57812      -3770.107       1528.621
       750.6714       641.3857       6522.004       1445.359      -8550.111
      -6926.231      -4126.091      -3876.646       1201.324       2907.227
       4090.945       11545.61       9325.938      -2580.398      -11402.47
      -13880.54      -8861.295       725.9180       6065.917       1285.228
      -4504.033      -5580.762      -5018.832      -3459.316       966.4561
       3589.257       2106.342       3630.973       2742.907      -1355.187
      -526.0977      -1104.770      -1929.469       4686.516       1533.271
      -10234.54      -5689.264       1382.463      -6979.285      -9338.232
       4740.117       15691.06       11715.01       2355.381      -3567.289
      -6513.806      -5889.709      -3801.323      -2406.213      -3676.939
      -7260.661      -5018.629       5019.832       9780.615       4870.878
       2268.824       3800.845       2895.108      -1450.971      -2340.573
      -1254.954      -5091.076      -1895.438       9856.633       10904.56
       1843.430      -5135.305      -4914.851       2687.312       2549.863
      -2268.104       1507.458      -1629.707      -8249.230      -4016.335
       443.3330      -791.3569      -3022.483       483.1250       6075.639
       7587.807       7273.879       1266.039      -4711.973      -5250.859
      -6535.688      -6106.366      -3194.424      -3856.016      -7544.628
      -3265.560       3792.038      -541.1409      -1684.412       6516.631
