     0.02500000      -213589.7       222903.0      -12345.00      -12345.00
      -29.99001       231.9850      -31.39000      -12345.00      -12345.00
       0.000000       23.44000      -12345.00      -12345.00      -12345.00
      -12345.00      -12345.00      -12345.00      -12345.00      -12345.00
      -12345.00      -12345.00      -12345.00      -12345.00      -12345.00
      -12345.00      -12345.00      -12345.00      -12345.00      -12345.00
      -12345.00      -32.27420      -67.18850       649.0000       0.000000
      -31.23600      -65.83800       0.000000       167100.0       0.000000
      -12345.00      -12345.00      -12345.00      -12345.00      -12345.00
      -12345.00      -12345.00      -12345.00      -12345.00      -12345.00
       172.1127       227.6703       48.37765       1.547534      -12345.00
      -12345.00      -1.016093       90.00000       90.00000      -12345.00
      -12345.00      -12345.00      -12345.00      -12345.00      -12345.00
      -12345.00      -12345.00      -12345.00      -12345.00      -12345.00
      2008       318        11        13         1
       790         6    -12345    -12345     10480
    -12345    -12345    -12345    -12345    -12345
         1         7        13    -12345    -12345
    -12345    -12345    -12345    -12345    -12345
    -12345    -12345    -12345    -12345    -12345
    -12345    -12345    -12345    -12345    -12345
         1         1         1         1         1
CATA    -12345          
        -12345  -12345  
-12345  -12345  -12345  
-12345  -12345  -12345  
-12345  -12345  -12345  
-12345  -12345  -12345  
-12345  -12345  BHE     
ZL      -12345  -12345  
[...]
       4552.088       6560.148       8416.273       7482.366       1473.325
       1790.563       2152.911      -990.6367       9080.867       20517.08
       20569.72       16822.79       2833.678      -4184.215       11440.54
       17869.19       5791.059      -6093.084      -9030.982      -3607.216
      -1302.988      -7877.102      -10820.45      -6219.396      -4791.795
      -6040.865      -6222.203      -6120.730      -4245.258      -3868.609
      -2846.821       1840.812       4488.562       1489.619      -7223.615
      -11232.79      -2009.928       3855.277       809.8550       631.1318
       2616.407       1627.107       8.281738      -1059.796      -5076.776
      -2279.133       9673.410       12475.92       7301.634       4418.171
       1186.490      -4101.419      -5696.451      -717.6833       2764.222
      -1006.885      -1919.262       2436.693       619.3438      -7021.559
      -11456.08      -8724.822      -1922.002       3386.895       7336.527
       13138.72       17019.59       10536.67       2008.258      -2417.584
      -6393.720      -5609.887      -2846.350       869.5898       6105.473
       6143.167       5279.143       5337.875      -2095.750      -12516.25
      -12398.48      -4596.951       4486.602       8638.808       4674.600
       3383.289       2561.860      -2043.012      -2326.305      -4734.266
      -11824.85      -13813.67      -12453.40      -6515.594       4647.439
       8018.553       9239.453       7599.948      -3696.803      -3399.704
       388.2554      -2930.754       6825.973       14899.76       7625.549
      -2370.324      -12870.28      -18880.17      -11173.88      -2000.091
      -4789.042      -2593.227       7973.588       9172.978       3834.150
      -3380.939      -9507.137      -8128.001      -475.1016       8359.402
       11612.96       8809.965       8577.004       6229.481      -3206.196
      -4934.858      -1513.236      -1287.857       4482.957       7032.447
       4155.820       10572.77       18202.92       15618.98       6775.094
      -9258.672      -20591.00      -10199.02       3307.173      -108.7109
      -11457.55      -18311.38      -13186.68       2274.016       14540.47
       10343.03      -1400.091      -3695.284      -4266.342      -3764.573
       4062.511       3191.402       597.7578       8435.910       6939.115
      -5077.491      -6999.027       834.9238       6392.736       6050.510
      -1787.312      -12838.64      -18534.49      -17750.26      -7841.740
       4060.141       8522.730       13572.40       15830.43       13399.86
       13306.95       2749.223      -9636.283      -8121.125      -9670.209
      -11290.17      -2374.488       545.7510      -3569.155      -5030.283
      -577.9844       10816.35       11888.96      -533.1768      -5411.720
      -4032.104      -3130.582      -4133.170      -6684.714       286.7891
       6894.769      -1046.441      -11945.93      -15354.51      -8695.879
       1329.279       5748.758       8026.428       8060.203       2748.975
      -1791.163      -894.7812       2467.719       3869.633       2659.390
       900.7666       1224.024       651.7104      -1448.083      -1064.182
      -2923.658      -4045.677       1589.082      -790.1484      -8375.889
      -6585.232      -3416.457      -886.7285       1659.455       1059.067
       1902.644       1222.746       986.6133       5281.217       6029.514
       5584.696       6155.561      -1736.582      -9394.684      -7397.213
      -5601.399      -2138.672       7127.770       7883.440       349.8926
      -4577.574      -9347.867      -11055.63      -6465.837      -4186.146
      -978.1289       5245.330       3694.121      -3341.862      -6318.195
      -2537.511       2115.701      -253.8721      -4870.949      -6151.395
      -5502.235      -2419.824       1205.781       135.3081      -902.2129
       4906.846       11668.93       8848.284       421.3740      -1839.955
       1066.016       6812.586       15699.06       14284.48       819.1875
      -5962.172      -5256.281      -7536.209      -7428.628      -910.8926
       5409.142       5765.325       215.5347      -3335.475       608.2646
       3296.646      -1419.988      -5843.910      -5512.612      -3153.163
      -1996.188      -6165.768      -7017.034      -749.1477       61.79651
      -439.6025       2785.291       3160.523       4724.199       8861.297
       12800.55       15687.12       11847.29       1011.162      -6905.631
      -7675.855      -5718.203      -4274.238      -2533.469       3420.035
       10921.25       6455.656      -4583.770      -5367.991      -1291.209
       1427.117      -16.75000      -7658.331      -6426.752       1721.885
       3574.201       4490.965       2869.832      -1257.480      -1750.070
      -4569.349      -3187.436       7738.871       14321.06       12264.21
       4555.773      -4520.457      -7036.961      -8564.217      -10378.94
      -3325.621       6067.277       6779.289       444.6523      -3838.098
      -452.8750       5143.340       7829.844       9376.268       9099.082
       7208.164       8375.309       9290.261       5523.790       2126.765
      -1162.449      -6681.812      -3885.856       2563.957      -2306.854
      -8294.258      -9827.961      -11237.04      -4192.487       3745.283
       2658.833      -983.6338      -3729.823      -2212.383       1524.379
       160.7422      -3533.239      -3464.489      -2424.243      -4275.391
      -4956.236      -5270.423      -4271.789       3491.719       10230.69
       9237.738       4658.866       812.0977       2607.147       5379.025
       740.1914      -4121.233      -1995.766       2377.371       7550.707
       10566.36       4578.891      -4022.285      -8086.941      -10419.68
      -8108.566       220.9062       8441.057       9268.312       3640.932
       3071.656       5001.506       1107.395      -1345.075      -163.2754
      -1027.070      -6065.010      -9674.084      -5333.776       1883.582
       7091.047       9876.885       7291.389       5295.578       9301.351
       7494.979      -2366.561      -7896.918      -10771.32      -13372.28
      -8581.090       1157.281       7296.262       7497.900       4511.545
       1130.504      -1334.340      -4575.309      -11202.62      -11759.48
      -1506.484       7955.051       12984.71       11570.67       525.3047
      -6963.075      -4545.357      -2081.112      -1862.856      -1342.962
      -1498.144       96.45312       3969.184       7503.820       9004.066
       6806.258       5282.051       6171.792       5648.871       4880.273
       2666.292      -129.1855      -2125.549      -4827.230      -6192.664
      -8534.871      -10085.83      -5874.944      -1109.965      -411.3037
      -1333.211      -1360.533      -2987.024      -4701.468      -2620.375
       370.9189       1467.056       2460.594       5553.828       9126.875
       7083.498      -2347.348      -9437.938      -9770.590      -9093.828
      -5088.375       4216.582       9593.548       6446.155       1300.392
      -2771.527      -2755.820       1860.367       1791.005      -1596.614
       960.9082       8668.389       12643.90       7209.813       885.7997
       516.8027      -962.4297      -5926.754      -7532.023      -3964.284
       695.7192       2894.682      -1670.254      -10188.03      -9493.865
       245.3555       5040.401       2917.095       2358.102       2987.825
       1933.412       1736.789       2440.229       4923.679       6454.462
       778.6719      -8059.285      -12662.87      -8525.687      -1246.481
      -2444.558      -4256.254       2340.131       7107.289       6778.811
       3063.234      -3701.297      -7539.537      -9274.742      -7920.387
      -107.0674       4682.474       862.5664      -6652.430      -12707.81
      -13370.38      -10293.44      -6439.196      -1955.662       1715.037
       3942.895       3426.606      -702.5684      -2971.082      -544.3955
      -1582.268      -5768.539      -3561.408       1719.109       4763.629
       5564.912       5392.094       9241.469       11815.30       7464.682
       5764.406       8080.882       4672.703      -1832.090      -4887.731
      -5823.001      -3268.813       2051.155       2835.189      -1457.012
      -7971.672      -13271.07      -12744.49      -8883.138      -3852.654
       3010.488       8183.057       8583.421       3834.855      -3409.691
      -5703.985      -3209.146      -3292.050      -2656.602       517.2783
       1880.197       3575.764       6808.922       9181.504       6978.583
      -69.00488      -4870.753      -4568.034      -2161.191      -2983.652
      -9461.160      -12602.84      -8736.983      -5268.803      -1254.664
       7671.316       14099.01       10614.85       3580.643      -1319.957
      -4337.212      -3753.662       190.5176       3855.846       2811.364
      -447.8975       516.3547       1258.520       52.73633       5100.037
       7956.419       701.1577      -2791.847      -1405.771      -2215.921
      -207.2721       906.2656      -3706.959      -9531.277      -12495.47
      -8899.570      -2985.215       1689.715       6414.807       4409.382
      -1295.442      -221.0128       675.3462      -1799.929      -402.1787
       324.5449       568.5605       4981.889       6627.678       4640.019
       1670.099      -2052.954      -181.9375       5326.189       7130.561
       6784.423       5139.161       1737.662      -856.7808      -1746.366
       579.7217       4805.839       4190.881      -1915.141      -7913.920
      -8284.422      -1515.004       4178.639       4009.275       1102.711
      -3416.351      -4093.486       1656.801       6431.742       10506.03
       13001.63       7613.268      -515.8750      -6105.132      -7064.891
      -1614.896       5182.271       8737.568       7311.415       2518.156
      -1228.096      -3126.760      -5296.024      -5853.264      -814.4219
       7305.988       9114.291       1302.946      -5058.258      -1723.401
       2093.009      -816.2480      -3651.097      -944.7754       3543.411
       2392.445      -3756.024      -5780.143      -2526.707       4049.871
       11218.73       10645.18       3850.595      -840.8125      -3579.603
      -4440.060      -1382.914       2560.226       3950.375       2398.644
       787.5059       541.3926      -1137.165      -335.1528       2087.085
      -466.7942      -451.7617       4111.461       3962.905       1322.806
      -675.2861      -1615.742      -3711.695      -10020.89      -11016.50
      -2732.021       4599.689       5584.792       1546.853      -3355.798
      -4202.708      -31.11230       4156.928       5526.297       5452.425
       4710.898       1020.979      -7105.094      -12651.22      -8298.564
       3131.242       15394.52       18839.71       10889.69       2001.425
      -2034.650      -4079.613      -7738.459      -10490.28      -7245.550
      -4116.665      -4066.719       330.3359       4931.296       3544.780
       1897.713      -2213.773      -7305.562      -6589.418      -7040.066
      -7907.787      -5120.259      -5705.304      -4431.934       730.5020
       273.7915      -853.2695       4333.881       9367.645       10213.20
       6181.094      -793.5742      -4514.666      -5303.960      -5676.314
      -3209.749       306.2236       3139.524       4737.142       2187.129
      -2552.422      -4174.645      -3919.355      -6429.078      -11205.96
      -10460.17      -4153.986      -384.2188       1424.619       3589.844
       3066.929       2595.436       3374.042       3005.554       2655.180
       4511.627       6804.429       3729.230      -4069.523      -6890.378
      -4891.160      -3883.404      -2543.802       1353.588       3990.297
       5289.074       8560.402       6946.121      -1572.545      -7650.797
      -9893.610      -6084.988       1065.421       3489.567       3886.758
       4447.705       4584.891       3994.732      -1092.795      -5363.750
      -6289.668      -7658.143      -6498.028      -4986.450      -4704.371
       1664.607       8666.781       9895.082       8940.812       6199.425
       2340.632       567.4775      -1569.639      -2951.119       728.7090
       5115.058       4404.332       3433.107       8423.324       15246.51
       15055.28       8648.531       2305.628       1115.115       5523.773
       13238.58       17047.85       12001.70       8186.879       14744.92
       27421.43       37036.29       28871.29      -743.6953      -33865.98
      -44114.92      -22384.51       8363.631       11568.38      -29056.34
      -96523.16      -156049.6      -189057.9      -204293.9      -213589.7
      -211363.7      -187415.1      -135535.5      -52894.00       57141.12
       165170.1       222903.0       219872.1       195199.4       180215.5
       168467.0       138280.4       88904.03       31397.06      -25129.56
      -64621.56      -77311.62      -74682.97      -65281.64      -47356.33
      -25400.09      -1503.766       31733.09       65028.69       78890.34
       77617.11       76850.05       68966.39       49813.21       35942.77
       31641.32       20458.64      -5266.781      -35893.94      -61506.44
      -78611.80      -83030.89      -72458.84      -46808.11      -15134.88
       11099.05       28841.98       43329.28       69723.31       103870.5
       102426.5       50094.48      -14826.50      -55218.69      -63071.69
      -53626.64      -50966.53      -67119.47      -102371.5      -135171.2
      -130295.6      -82031.30      -12376.23       58123.44       104255.2
       112559.5       102635.3       99841.59       100390.8       88166.72
       64340.03       37268.27       3110.484      -37491.23      -74946.12
      -93536.52      -73582.69      -24020.93       20733.42       46986.20
       54020.72       38739.61       220.8125      -48617.36      -81861.00
      -92878.31      -94236.09      -85545.28      -64364.73      -40195.79
      -23146.48      -8673.641       13053.69       42766.12       72525.03
       89899.34       91104.69       84735.84       64392.50       25724.06
      -11836.57      -34299.86      -31506.97       5177.281       47289.38
       74707.47       100526.8       116097.3       99639.33       53256.70
      -5454.125      -61408.28      -109785.0      -140796.8      -146447.2
      -130490.9      -97929.56      -53774.24      -6441.922       35236.61
       60315.34       63863.31       51697.37       31012.29       1514.312
      -30345.70      -46459.40      -39086.52      -25342.45      -23661.04
      -33921.25      -39856.69      -23526.56       11546.09       41068.88
       53335.75       49015.20       31985.64       17329.58       16374.13
       18327.12       6224.496      -15274.14      -19895.51      -2819.016
       13357.21       15124.31       9729.648       8766.967       12094.07
       6184.441      -10142.85      -16306.61       76.71094       22274.60
       28861.05       15014.98      -4707.084      -11649.67      -5148.701
       3379.264       6922.756       4082.008       2315.184       6977.043
       13116.43       10572.07      -3495.984      -21321.00      -39888.97
      -55169.22      -51234.08      -29127.05      -6613.620       4581.387
       6210.727       10053.39       18940.66       25020.81       27572.57
       27402.52       23062.12       13101.48      -1039.094      -14190.43
      -21647.38      -24669.86      -25472.88      -19231.78      -1221.555
       16387.58       22317.22       23663.55       23724.80       15506.52
       2145.820      -10404.86      -21911.05      -29738.74      -24277.59
      -2049.250       26725.33       43693.59       37843.28       15567.66
      -12318.34      -38632.61      -52144.70      -46024.30      -22692.68
       3748.816       16315.38       15100.56       8681.544       314.6704
      -1341.453       7372.828       18584.84       28243.53       35156.48
       33050.38       22744.77       15553.09       17348.02       21733.63
       20707.66       7371.188      -17394.16      -41399.92      -51273.25
      -43223.61      -24131.17      -6850.501       260.7803      -1049.711
      -7577.391      -21489.37      -36777.28      -42039.64      -30815.98
      -4802.031       23121.78       39157.02       42116.31       39337.50
       37320.87       36738.82       36720.37       29100.24       8478.449
      -12631.53      -26284.80      -34592.80      -35370.59      -31015.63
      -21721.33      -10008.13      -6172.732      -7971.947      -5702.477
       1093.824       11097.42       20661.09       23059.85       17680.28
       10154.66       62.92188      -12084.06      -19209.50      -17443.39
      -7065.599       4176.754       6884.211       7505.711       11000.01
       9924.418       2712.303      -3445.571      -1473.906       10820.40
       19893.92       17371.39       14708.98       10697.52      -6045.758
      -27930.91      -40005.43      -31855.60      -8136.816       10813.38
       15330.95       13271.40       8665.676      -2261.648      -16964.52
      -24495.68      -22491.32      -16922.15      -10015.17      -958.1992
       10946.27       25569.70       34172.49       30507.50       21735.06
       11864.72      -4307.492      -24152.45      -35444.29      -31045.16
      -16167.37       368.9727       13657.69       21401.01       21241.51
       17471.22       15159.40       12845.50       7117.213      -4085.414
      -17191.47      -24187.20      -22123.36      -15075.98      -8238.768
      -1835.765       1541.343      -2068.648      -11529.33      -18827.34
      -16882.29      -11091.55      -9679.984      -11479.52      -10462.43
      -2011.766       10441.18       23505.30       36514.02       41773.20
       35073.65       23174.89       7614.430      -10762.40      -22412.57
      -23122.30      -20291.22      -17084.71      -9421.750       3258.266
       16113.35       21438.99       12810.06      -2614.887      -12254.28
      -13770.98      -8782.873       1109.862       6162.148      -2185.711
      -17865.29      -28891.48      -30640.24      -22247.88      -8229.199
       5046.586       18043.61       28194.59       30028.87       25675.56
       17811.27       10441.84       8548.066       9454.371       9092.094
