     0.02500000      -199899.4       188247.8      -12345.00      -12345.00
      -29.99001       231.9850      -31.39000      -12345.00      -12345.00
       0.000000       23.44000      -12345.00      -12345.00      -12345.00
      -12345.00      -12345.00      -12345.00      -12345.00      -12345.00
      -12345.00      -12345.00      -12345.00      -12345.00      -12345.00
      -12345.00      -12345.00      -12345.00      -12345.00      -12345.00
      -12345.00      -32.27420      -67.18850       649.0000       0.000000
      -31.23600      -65.83800       0.000000       167100.0       0.000000
      -12345.00      -12345.00      -12345.00      -12345.00      -12345.00
      -12345.00      -12345.00      -12345.00      -12345.00      -12345.00
       172.1127       227.6703       48.37765       1.547534      -12345.00
      -12345.00     -0.6115199       0.000000       90.00000      -12345.00
      -12345.00      -12345.00      -12345.00      -12345.00      -12345.00
      -12345.00      -12345.00      -12345.00      -12345.00      -12345.00
      2008       318        11        13         1
       790         6    -12345    -12345     10480
    -12345    -12345    -12345    -12345    -12345
         1         7        13    -12345    -12345
    -12345    -12345    -12345    -12345    -12345
    -12345    -12345    -12345    -12345    -12345
    -12345    -12345    -12345    -12345    -12345
         1         1         1         1         1
CATA    -12345          
        -12345  -12345  
-12345  -12345  -12345  
-12345  -12345  -12345  
-12345  -12345  -12345  
-12345  -12345  -12345  
-12345  -12345  BHN     
ZL      -12345  -12345  
[...]
       2047.512       4177.984       5538.131       7715.589       5312.723
       4705.049       5587.107       575.6099      -2539.129      -1037.359
       5541.727       15707.07       13628.88       2016.975      -1194.185
       1012.722       652.1240       2394.814       6454.054       6529.380
      -1070.660      -11019.88      -13438.79      -9233.816      -3693.203
      -217.0527       2455.422       7636.155       8062.381      -69.51172
      -8254.777      -11745.79      -11485.25      -4574.456       3997.064
      -2674.957      -19165.98      -20777.15      -9880.152      -6202.521
      -4946.502       124.8857       1779.469       6898.062       17085.80
       19987.27       11560.40      -4006.586      -12036.93      -1931.578
       15694.35       20941.38       7179.312      -12013.89      -21726.30
      -18994.67      -8249.057       3648.271       9982.258       9762.684
       8141.361       6131.845       3349.930       2388.590       4420.719
       5195.859       258.4375      -6703.398      -8986.143      -7266.722
      -5147.584       2108.484       12530.71       12138.06       3345.361
      -659.0957       2305.508       6971.789       6405.992       497.9375
      -5455.402      -11589.95      -11747.76      -4360.479       1699.414
       5954.335       6438.462      -285.9531      -5442.493       333.7031
       10481.55       9874.855       871.2979      -824.0850       4679.709
       6340.465       4172.950       769.5137      -5358.969      -9983.239
      -6388.584       562.5315       1293.619      -3035.463      -3729.882
      -18.51172       2847.776       3073.277      -1398.082      -6920.257
      -3420.218       772.5938      -5020.234      -10581.54      -5554.828
       8377.887       18706.76       18017.10       13591.26       7309.694
       2155.350       5096.350       9228.276       5312.289      -3254.660
      -10961.16      -14402.85      -11407.43      -8455.389      -10072.20
      -6631.059       3198.928       5905.188       1040.799       2088.342
       8707.043       10239.60       3351.525      -5755.252      -10625.77
      -11256.33      -4619.656       9571.020       16387.77       9561.221
       632.1602      -2207.049      -3871.525      -5039.142       359.2471
       5624.528       463.0410      -9832.480      -11312.61      -1777.730
       5356.826       3068.555       172.5098       5853.982       11880.55
       6852.117      -1705.706      -4201.045      -3138.800       1023.637
       7077.557       9300.496       4940.128      -1199.105       188.7070
       9504.344       15265.29       10191.80      -3163.008      -14285.82
      -17239.45      -14997.16      -7439.940      -227.3032      -1589.477
      -3086.852       2077.107       7520.723       7966.987       5020.183
      -294.7402      -6544.127      -6959.980      -2456.186      -4140.133
      -8181.090      -5425.145      -1300.950       1985.010       6787.115
       8893.368       4194.646      -6183.338      -10328.70      -3001.699
       4067.162       6149.066       8894.277       8601.529       749.3750
      -7030.092      -9854.312      -9330.561      -5186.600      -5006.992
      -7404.510      -1633.316       7609.344       11203.03       8454.754
       1868.167      -2408.194      -2218.959      -1637.883       732.3262
       4951.229       4780.370       904.6826      -2207.166      -475.6855
       4880.325       6545.000       2560.553      -595.6914      -413.2441
      -4529.270      -12625.02      -9140.967       1639.553       3728.109
       2455.883       4863.695       7106.341       5376.240      -1598.529
      -7421.500      -6210.273      -2546.346      -3316.326      -4006.598
      -1198.416       1131.520       1245.987      -3629.047      -10185.58
      -3590.668       11882.20       14311.17       927.7578      -9591.151
      -6644.889      -2590.178      -7241.551      -8483.535      -1686.516
       2337.547      -1313.973      -8138.631      -10065.42      -5252.614
      -464.7441       2093.125       5473.293       10754.45       12013.76
       6315.365       2748.507       4483.110       654.1670      -4543.391
      -2258.696      -212.1523      -1891.720      -3323.387      -4123.523
      -397.9805       8089.670       12757.02       6836.615      -1242.298
      -1706.841      -441.6772      -1750.970      -1527.885      -1097.004
      -4029.969      -8107.787      -7151.869      -5277.395      -7072.125
      -7022.128      -3921.961      -2635.894      -3898.279      -5375.926
      -4610.407      -2104.864      -1169.812      -3952.882      -4637.391
       2153.453       9984.461       9403.976       3617.041       762.8633
       2714.773       6201.396       6063.283       1693.100      -680.0271
      -1285.329      -1349.717       1063.523       5327.510       7790.560
       4208.777      -3079.096      -6418.535      -6665.160      -6768.281
      -3729.340       3884.871       10107.14       10201.22       6066.358
       2043.792       9.397308      -159.6350       309.2629       663.7646
      -1444.721      -4786.312      -4947.007      -643.9385       4011.254
       5272.355       3840.947       2169.138       2269.416       2323.287
      -1701.971      -4096.653      -3091.907      -4551.965      -4050.037
       1470.047       242.3105      -8577.965      -12826.55      -8480.871
       638.1621       9104.500       10508.98       4793.627      -2044.054
      -3006.633       1891.146       5510.579       3939.821       657.7461
      -2095.253      -3417.443      -3876.547      -3445.255      -3076.352
      -3247.771      -1059.338       1974.108       1476.126      -96.75732
      -874.1320      -405.2588       2157.531       4970.166       6264.057
       7126.973       7389.012       8733.910       8495.793       3874.503
       166.0497      -45.24023      -1224.883      -3036.812      -2699.863
      -922.0149      -568.7203      -504.9209      -1019.396      -4295.048
      -2830.959       7819.189       10740.29      -81.19922      -7319.593
      -4322.518      -1758.873      -2435.884       534.6133       7065.387
       8416.488       2976.179      -2808.658      -2476.984       1738.206
       3060.240       1795.400       4500.678       7299.149       4063.606
      -789.8496      -3072.767      -3679.842      -3179.859      -2580.739
       329.6436       3296.335       1749.589      -1731.998      -4302.867
      -7553.820      -7608.095      -1480.100       4177.545       3936.545
       2970.355       2896.176       1139.488      -752.6885      -2008.772
      -3161.345       436.5967       4600.080       1811.182      -3296.403
      -2757.301       1362.371       1718.694      -1157.026      -2121.646
      -3885.342      -7426.373      -9925.651      -6767.517       1857.196
       6434.011       1977.291      -2225.085      -385.5621       1006.652
      -1262.967       194.8486       5460.294       5089.409      -1024.776
      -610.3516       5758.849       6334.494      -567.9404      -4704.401
      -1.543945       5900.396       2791.604      -213.7285       3411.619
       4274.154       1825.952       792.6522       36.96191       1183.038
       2190.672       187.3896      -2750.394      -2586.951      -1573.607
      -3756.777      -7028.521      -6054.386      -1976.924       903.2920
       2927.965       4412.795       1732.481      -2580.085      -3757.523
      -1930.464      -954.1979       206.0566      -924.2305      -6483.140
      -7160.948       579.0791       4885.930       3422.758       5810.383
       10845.08       8432.980       500.7891      -5048.459      -5520.896
      -4587.650      -5089.859      -4644.444      -1280.342       894.5571
       1498.377       1776.660       2113.087       2330.880       2677.775
       3545.329       3523.643      -756.1758      -6457.381      -8819.191
      -8763.146      -8732.064      -5636.934      -968.9590      -771.2637
      -4188.686      -2680.211       6918.121       14551.71       8134.377
      -3396.512      -6538.423      -4442.615      -372.3896       5710.081
       4290.529      -693.7339       374.2207       3263.393       6309.541
       9756.451       5622.074      -7158.676      -16332.78      -10949.73
      -690.4580       2979.806       1986.153      -763.6836      -6025.271
      -9484.663      -5684.287      -582.5352      -2678.704      -4625.636
      -494.8105       5162.607       7937.518       8478.698       5938.672
      -517.3281      -6556.311      -7914.041      -5737.652       1100.170
       8536.742       9550.605       6814.383       7335.658       9345.439
       7900.874       2634.319      -2540.461      -5653.383      -8660.484
      -13222.91      -11263.64      -828.2305       8066.299       8435.344
       3634.568      -185.4417      -1104.720      -669.0869       2433.660
       8555.246       11778.53       6669.955      -658.9121      -3130.924
      -2756.026      -3444.879      -1350.868       1699.685      -778.1123
      -4954.963      -1363.934       5641.531       5157.014      -470.9443
      -1927.871      -2796.152      -4493.969       1254.617       8589.080
       4217.051      -2728.047      -2660.266      -4737.664      -11854.89
      -11187.62      -3087.651       1760.536       1147.335      -1219.451
      -2915.756      -4174.976      -4240.766       2295.457       9320.494
       8993.369       7907.227       8085.582       2798.771      -4609.732
      -7374.861      -5524.680      -6423.180      -8003.656      -1797.607
       6303.146       5773.934       3548.840       6695.398       8567.542
       5343.894       2970.916       2226.566       1138.052      -1093.996
      -5365.979      -9026.299      -6392.891      -1111.670       2238.822
       3713.859       2729.613       901.8997       95.67578      -2719.789
      -4990.326      -4336.196      -2833.944      -473.2524       2294.635
       353.1299      -2000.699       1690.791       2941.515      -2593.666
      -2586.733       4526.377       5695.168      -4833.836      -13243.35
      -10359.76      -3637.462       1654.006       5119.942       4441.001
       3276.596       2354.513       617.0142      -797.7197      -3842.358
      -5385.451       777.8633       8352.787       10859.51       8115.504
       3262.758      -2515.500      -10086.25      -14177.65      -6589.281
       5064.559       8821.271       5492.107       2223.909      -772.1582
      -6095.662      -8143.415      -2216.367       2056.223       1507.617
       1055.860      -736.0000      -3035.553      -622.0889       2650.899
       2663.842       529.3962      -1074.965      -971.6926      -365.8418
      -1104.750      -1977.932      -2154.465      -642.0945      -418.8027
      -1853.062      -2769.596      -5869.783      -7774.640      -850.6816
       5109.209       877.6963      -5160.996      -4023.442       560.2246
       3813.285       5500.568       6946.891       8519.162       9701.484
       6322.282      -2.393066      -2351.038      -2307.692      -3282.676
       531.2031       9819.879       16764.90       15017.18       10090.40
       8044.707       6711.809       6060.125       7475.102       2562.262
      -11161.87      -23931.09      -28599.62      -26982.55      -21605.98
      -14599.73      -15051.03      -33655.28      -56183.50      -57317.49
      -36677.20      -12874.62       127.8672      -6455.547      -28227.11
      -44904.89      -36492.17      -2809.133       28699.02       27296.19
       4073.760      -6121.199       7728.469       41132.12       95857.97
       150766.6       156624.7       94811.03       10121.83      -46654.84
      -68685.22      -71566.78      -59613.10      -33564.99      -8077.727
       7792.305       29088.11       54646.41       55140.49       25018.83
      -3036.488      -11369.99      -10577.07      -14190.59      -32992.34
      -61594.06      -70481.14      -43136.97       9464.047       59463.81
       72961.89       39183.38      -14064.34      -43160.10      -22578.93
       21173.61       37575.87       10602.34      -33954.80      -52953.43
      -29891.67      -1502.904       2631.032      -569.4141       8618.668
       17598.73       4593.898      -27117.80      -50166.34      -46099.81
      -17411.76       15881.11       28462.84       12150.20      -14139.44
      -26350.10      -21135.75       3455.375       65804.16       146657.2
       188247.8       168042.3       106989.0       36621.41      -11072.78
      -31878.97      -48151.84      -79800.31      -129819.6      -178864.7
      -189971.0      -135125.4      -30890.47       66022.75       114906.9
       118727.2       107012.0       96627.22       74123.70       28464.03
      -34273.53      -112188.9      -182505.3      -199899.4      -144132.2
      -33852.88       85760.41       165130.9       184215.1       154191.3
       99546.02       42259.73      -9375.438      -57566.62      -94303.56
      -106266.3      -100897.4      -95766.31      -83375.09      -40414.88
       32169.50       100054.8       132083.6       120163.4       83647.19
       55007.45       44695.16       39923.03       24264.51      -7041.891
      -41810.81      -73759.75      -98142.97      -105325.9      -94672.33
      -65915.77      -18544.95       28918.03       59331.50       66364.11
       38225.45      -15191.36      -53735.23      -57936.61      -38804.21
      -10536.73       18189.59       44940.00       67234.64       72783.50
       58417.49       31106.84      -8220.562      -54405.88      -92183.12
      -108385.0      -95199.23      -56503.46      -10418.11       22733.78
       40153.81       53199.06       63750.95       64358.06       63092.38
       71863.67       81595.69       77066.31       53502.31       14575.98
      -20921.38      -35855.43      -34327.48      -29628.10      -26230.86
      -21520.68      -15865.83      -17460.62      -35180.61      -63930.03
      -81844.52      -72185.06      -44053.13      -21982.16      -8484.250
       10323.78       33923.94       53482.30       61337.72       47117.11
       13579.20      -19866.27      -36248.59      -36541.82      -27112.50
      -8370.766       9417.443       10314.77      -1455.493      -7870.127
       1159.641       20309.11       39717.50       49378.73       39002.99
       6642.000      -28992.19      -41461.89      -27796.71      -10126.73
      -3469.329      -360.7188       8350.215       14417.70       13225.94
       12104.54       8770.658      -6934.773      -26842.82      -34009.75
      -30338.11      -27569.59      -28223.84      -29097.95      -22964.06
      -7231.582       5059.133      -601.6289      -15919.69      -21267.11
      -9085.422       14151.86       32669.17       33962.56       27345.70
       24165.34       21587.08       19348.97       22922.20       30857.33
       38898.19       46647.34       48723.56       34973.23       14250.64
       3496.740       369.7500      -6881.453      -20057.87      -33022.06
      -41956.45      -42451.66      -20895.16       16887.22       37790.84
       28250.66       7112.387      -9398.367      -14858.81      -6887.859
       7419.539       14341.93       3706.574      -17926.40      -27243.36
      -17594.19      -4399.660       1127.537      -3.865234      -5128.688
      -17763.76      -36887.29      -44732.84      -31881.53      -10909.62
       3458.627       6866.252       1584.375      -8683.086      -17308.38
      -15822.17      -6323.020       4963.941       16988.42       27731.66
       30390.00       23405.44       16059.66       15704.62       15853.65
       8838.906      -2122.004      -6089.207       2635.320       17476.30
       24767.10       18255.43       5723.886      -59.73633       1308.737
       3023.163       3425.680      -1571.516      -15211.96      -25767.41
      -21908.79      -7284.546       2354.174      -4442.574      -15284.42
      -10133.52       6624.656       16762.35       14259.79       9507.691
       9596.977       10856.58       12006.72       12891.34       6051.586
      -8659.508      -20302.73      -23003.62      -20281.01      -13400.88
      -2793.199       6480.398       12816.80       18352.26       18189.98
       11441.21       5554.107       5129.782       6718.041      -33.42969
      -15469.94      -22168.39      -15746.94      -7807.083      -2332.862
      -777.9219      -8942.129      -20805.22      -23897.58      -16907.14
      -7636.762      -2421.861      -5146.117      -15880.96      -26523.71
      -24651.24      -6571.789       19018.22       36460.17       39784.66
       35848.52       27315.55       10853.14      -6222.289      -12164.64
      -10500.39      -14397.27      -21886.44      -19620.73      -4823.477
       11203.08       19292.81       21290.83       20659.51       14737.26
       5810.408       621.5911       430.9189       906.0715       272.4102
       906.5801       3342.143       4349.182       4140.584       4292.661
       2163.227      -4550.527      -10698.37      -11343.20      -6271.496
       5079.867       20132.83       26181.74       18314.26       6436.473
      -4499.422      -17337.27      -28820.98      -32429.34      -24837.03
      -10486.03       3449.934       12415.15       11524.11      -652.9141
      -15501.87      -21393.58      -11597.64       5082.877       9770.870
       90.03125      -7260.195      -6076.776      -2736.394       822.3926
       4755.125       2334.383      -6819.555      -9212.743       1049.879
       14197.05       23534.31       25323.77       17591.15       6281.272
      -220.1230      -2083.852      -7509.547      -19364.38      -28020.68
      -28639.87      -26206.30      -20269.69      -5822.832       12696.79
       28098.95       37493.48       37982.74       27717.12       12984.78
       2790.350      -421.1050       1174.229       5055.799       4993.637
       524.5645      -2657.555      -5877.422      -11941.20      -13150.14
      -5195.477       2030.451       771.4219      -4146.582      -10136.65
      -15788.06      -15228.58      -8320.604      -1601.512       2194.463
       3540.147       3634.354       1424.238      -5996.906      -16004.58
      -19503.73      -15240.42      -8560.728       1164.957       13081.66
