     0.02500000      -107137.2       99112.41      -12345.00      -12345.00
      -29.99001       231.9850      -31.39000      -12345.00      -12345.00
       0.000000       23.44000      -12345.00      -12345.00      -12345.00
      -12345.00      -12345.00      -12345.00      -12345.00      -12345.00
      -12345.00      -12345.00      -12345.00      -12345.00      -12345.00
      -12345.00      -12345.00      -12345.00      -12345.00      -12345.00
      -12345.00      -32.27420      -67.18850       649.0000       0.000000
      -31.23600      -65.83800       0.000000       167100.0       0.000000
      -12345.00      -12345.00      -12345.00      -12345.00      -12345.00
      -12345.00      -12345.00      -12345.00      -12345.00      -12345.00
       172.1127       227.6703       48.37765       1.547534      -12345.00
      -12345.00    -0.08163963       0.000000       0.000000      -12345.00
      -12345.00      -12345.00      -12345.00      -12345.00      -12345.00
      -12345.00      -12345.00      -12345.00      -12345.00      -12345.00
      2008       318        11        13         1
       790         6    -12345    -12345     10480
    -12345    -12345    -12345    -12345    -12345
         1         7        13    -12345    -12345
    -12345    -12345    -12345    -12345    -12345
    -12345    -12345    -12345    -12345    -12345
    -12345    -12345    -12345    -12345    -12345
         1         1         1         1         1
CATA    -12345          
        -12345  -12345  
-12345  -12345  -12345  
-12345  -12345  -12345  
-12345  -12345  -12345  
-12345  -12345  -12345  
-12345  -12345  BHZ     
ZL      -12345  -12345  
[...]
       5025.441      -7276.035      -9183.682      -5121.577       1559.391
       13174.32       14235.01       5954.398      -3587.811      -4483.455
       8233.887       9251.652      -7062.363      -14420.93      -9100.137
       2077.076       10859.40      -1181.539      -8220.070      -1394.234
      -3745.848       9908.984       17020.52      -3101.754      -1503.297
       9824.522       4038.815       548.3086       576.2500      -7156.825
      -7710.204       1651.113      -2452.701      -2577.361       5772.221
      -1646.924      -8092.836      -2836.677       190.2748      -52.71933
      -491.4170       493.5740       1805.734      -2276.081       2039.494
       11308.55       541.0605      -7280.228      -3120.965      -4657.111
       2150.961       7713.680       3368.305       8009.684       7231.308
      -5025.780      -3110.262       1470.938      -6717.942      -3048.430
       2196.922      -12029.62      -16940.68       4894.316       22688.61
       14798.95      -1340.072      -12025.07      -421.0938       23332.75
       9930.801      -15039.22      -9768.742      -11645.23      -17462.93
       6407.809       20059.18       2837.321      -3972.736       8392.498
       8579.798      -4408.676      -7128.300       1612.527       3692.173
      -2686.682       6971.955       15953.43      -1683.828      -10449.13
      -2591.044       966.4326       5683.458       460.5566      -7234.423
       2916.850       2709.266      -6985.893       3359.364       4647.496
      -14152.22      -13565.73       6986.340       20269.92       11336.77
      -2050.956       3435.233       751.8350      -7702.391       10342.42
       25272.61       10735.17      -14943.17      -24764.64      -8848.706
      -840.6367      -13097.46      -13754.88      -5033.996      -1742.314
       954.4990       2605.959       6225.264       10477.30       6838.398
       2082.674       327.3926      -4888.371      -9031.258      -4438.979
       5471.219       12397.57       8325.561      -1289.814      -5936.035
      -11057.52      -5532.488       12219.16       10528.94      -3907.209
      -4054.414       6868.941       11319.96       1069.341      -6106.599
       2055.184       3000.254      -7750.152      -11883.76      -12051.40
       1558.512       21389.10       8220.199      -11207.06      -3660.415
      -1413.417      -2557.531       12186.12       9812.945      -13022.97
      -10688.30       9709.651       6312.930      -8418.872      -3261.043
       6904.991       1414.387      -667.9893       6905.450       598.5391
      -13600.48      -10434.74       1839.886       4086.267       101.7793
      -6798.000      -11003.67      -3048.738       9432.633       11701.34
       1943.655       621.9609       14131.99       14295.45      -3483.307
      -9738.824      -5898.479      -7802.275      -6191.860       377.1145
       1932.192      -1374.334      -2775.673       1911.197       8798.982
       8433.111      -296.3203      -7197.453      -6341.757      -1942.082
      -1026.966      -3057.186      -316.8242      -4179.168      -11447.32
      -2950.827       1753.410       2020.379       13394.29       13845.59
      -319.0098      -7720.363      -6384.666      -6474.781      -10918.09
      -8174.146       5964.956       7158.547      -8549.379      -8638.910
       6125.592       8317.938       2285.717       2705.043       8151.178
       12057.58       5689.684      -8305.289      -20304.16      -22812.77
      -4289.127       11629.83       3440.088       4566.283       14081.67
       222.2656      -16137.36      -11926.27       6679.891       15379.53
      -4006.480      -15174.95      -719.5684       2511.689      -4694.725
      -5663.527      -6200.014      -4982.625      -2409.928       846.8828
       3577.149       2759.754       1924.910       1209.083       2172.896
       5993.798      -467.0391      -9757.197      -2524.324       5918.359
       1492.130      -3852.236      -5910.078      -9843.658      -2497.918
       9973.965       835.5254      -7284.773       5911.648       13877.75
       7418.203      -5740.385      -11767.23      -4181.779       861.0508
       1614.635       3455.242      -1455.229      -5480.667       1832.706
       4152.691      -1686.518       2626.211       9622.328       7735.964
       5797.643       1708.650      -4981.547      -4642.172      -3577.591
      -3930.358      -2062.303      -3856.991      -297.8027       9712.967
       4840.674      -6608.190      -4263.427       125.1509      -2560.502
      -1008.988       4868.811       6828.990       1482.982      -4001.727
      -4855.684      -8138.080      -5950.658       2038.936       2799.328
       4512.369       7240.684       4264.027       1711.146      -2336.014
      -6025.227      -3793.851      -2977.218      -2128.939       3836.281
       6752.807       7348.852       8873.395       4758.272       2256.553
       1464.797      -7108.865      -10364.56      -1313.227       8131.363
       10747.97       6280.618      -214.5919      -186.2769       1279.430
      -7306.672      -5419.750       10418.57       6616.472      -5762.719
      -2272.309      -894.0225      -5327.816      -778.4648       4280.826
      -1133.566      -7541.039      -4369.532       5173.896       8482.012
       2854.918      -1206.951      -2321.956      -550.9062       8194.957
       13757.81       6765.745      -3992.615      -2768.625       3463.662
      -1505.363      -6304.652      -440.1123       4155.226       884.3174
       817.2051       4175.748       595.8682      -2163.561      -958.2246
      -2496.183      -3899.924       2098.155       7692.334      -14.57568
      -5800.562       6229.119       10060.76      -7955.416      -9864.448
       5148.967       74.51172      -10239.95      -2118.691       5232.006
      -1372.810      -3991.477       1633.637       2314.481      -1905.859
      -3969.978      -1059.043       2078.672       3758.820       7266.627
       4550.538      -2447.012      -1825.679      -1038.203      -5353.132
      -1238.277       4699.090      -3468.893      -8394.675       164.0415
       1918.656      -1461.561       5215.346       9155.699       1649.089
       32.67993       2491.412      -1069.558      -84.56201       2174.668
      -384.3584       1277.777       5377.570       2063.922      -7350.690
      -7443.465       1179.543      -845.2041      -4714.980       9100.598
       18226.22       8486.295      -3153.211      -10348.70      -12556.51
      -8929.947       1998.383       13982.91       8277.199      -9234.684
      -14912.93      -6411.694       2364.605       1619.417      -2064.908
       4540.363       12338.41       8451.089       4004.253       3753.916
      -4452.711      -18654.75      -24972.94      -13512.17       4019.929
       5143.738       5135.035       14918.66       7512.321      -5409.355
      -3038.372      -3750.033      -4322.101       3844.144       1466.957
      -6522.714      -1066.297       9744.176       13251.62       7008.037
      -3339.130      -5164.127      -175.0742       6641.295       11174.29
       3028.195      -11045.41      -16619.31      -11086.61       856.8320
       9685.639       3916.497      -6343.482      -3170.946       1904.809
       468.4951      -2169.039      -1477.086       2683.529       5386.068
       2114.426      -7226.408      -8551.658       1743.919       1216.998
      -9520.059      -9877.615      -6410.264      -2326.436       9315.998
       13391.68       3270.481      -280.6836       7938.015       5915.531
      -4164.182      -4114.166      -1430.480      -9157.590      -12744.88
      -1278.256       3677.910      -681.2578       10014.88       18688.48
       1029.582      -13632.36      -11068.30      -8143.072       2097.400
       12315.05       2208.027      -8960.893      -4982.417       1648.167
       2139.831      -104.5547       6371.004       15252.96       9392.051
      -3638.748      -7739.239      -1191.146       7740.659       3268.295
      -7122.720      -1791.955       3516.035      -4530.512      -10011.01
      -9717.315      -6388.221       253.1953       7496.445       13004.80
       6822.025      -9519.748      -9192.346       7735.768       11252.12
      -227.6680      -11812.60      -17487.57      -14719.57      -7605.955
       1040.930       6403.492       9909.219       14296.06       2682.066
      -15529.18      -8613.699       6283.350       7980.271       10361.63
       11492.03       2395.238      -12499.96      -21818.97      -10174.04
       5374.310       3293.146      -1119.654       2491.381       3896.476
      -91.88770       158.4375       8903.869       11456.50      -20.98438
      -7761.344      -3750.113       191.1829       593.3179       1725.677
       1878.926      -3563.801      -10325.57      -9282.551      -3887.730
      -2759.045       3079.006       10331.60       3394.962      -1395.549
       7136.703       11384.13       2065.492      -10718.81      -9359.748
       4195.683       7241.329      -3105.014      -6015.235      -2925.085
      -4369.891       1882.676       16515.73       13512.05      -5895.143
      -6517.464       4519.557      -3530.274      -5279.281       10766.55
       3158.547      -17224.56      -9457.506       7902.774       4296.596
      -4300.775       6351.211       19062.07       10261.13      -7217.980
      -13045.00      -8491.812       761.1211       10491.63       11938.11
       4497.595      -4326.107      -7886.629      -7199.996      -9148.458
      -4471.789       8331.617       10442.79       5933.195       6589.292
       6594.631       2496.623      -2617.432      -5459.057      -3641.467
       4810.303       9156.332      -3771.014      -13772.24       2877.027
       15761.08       2236.444      -4214.380       1028.890      -1665.155
      -1927.785      -1502.310      -4294.692       95.56348      -907.9492
      -8571.247      -966.6895       8680.793       6825.154       8950.938
       9704.280       1482.660      -6077.718      -6898.197       2002.177
       4610.225      -5454.633      -2445.809       12143.60       13766.04
       6355.765       2402.190      -1142.191      -12203.40      -19014.45
      -7767.489       1749.886      -404.8955       1107.307       1155.819
      -1152.750       5485.041       10092.16       5806.246      -2574.295
      -9629.246      -5398.688       762.1846      -1424.027      -1597.621
       552.9055       819.9109       979.8613      -1188.161      -2482.050
       837.3828       6714.875       13464.84       11554.09      -6398.551
      -14271.01       494.1602       6883.760       2630.362      -310.1133
      -10656.75      -14242.15      -6129.291      -4689.185      -6419.470
      -1280.417       4474.624      -208.2803      -6702.799       2715.910
       9550.314      -1061.844      -3386.514       4159.542       2336.012
      -265.5454       2278.148      -2015.391      -15501.59      -24588.31
      -12947.00       9142.600       10049.09      -6541.422      -16390.55
      -20872.38      -24506.59      -15191.40       11038.82       36235.00
       43646.78       42804.30       52890.29       52683.24       9708.375
      -46253.38      -76852.86      -88383.88      -77644.99      -36087.42
       220.7285      -469.5703      -7625.109       6784.898       17251.92
       16855.55       41428.00       84073.56       80930.12       16826.81
      -43549.56      -46275.77      -12836.03       3014.070      -3072.566
      -13241.83      -35458.35      -52545.25      -23268.12       40313.03
       74204.12       53967.57       17717.08      -10785.92      -32076.13
      -33826.94      -21516.77      -11105.16       5195.535       15829.69
       8665.387       16203.48       24227.85      -13592.07      -48326.22
      -8836.281       64624.25       91617.56       60610.87       8653.672
      -17813.67      -5606.309       10551.85       5480.586      -17763.86
      -38968.80      -40288.23      -27269.40      -12128.72      -1297.352
      -9873.656      -42688.12      -60305.27      -36539.19      -12196.31
      -6587.922       10467.85       29582.34       28768.73       28550.38
       35455.44       40772.32       45497.02       37389.55       15077.64
      -11299.80      -39038.86      -42052.98      -14175.94       4630.841
       436.1172      -7061.328      -12533.35      -23338.72      -25354.02
      -800.4805       22375.60       13965.12      -11364.14      -37093.82
      -48995.24      -23448.25       25751.16       59778.73       57350.58
       36888.06       39221.34       59740.84       72214.98       74497.34
       56206.04       16915.81      -29534.06      -75880.75      -104506.0
      -107137.2      -94439.72      -69725.69      -39447.48      -24087.28
      -28702.05      -25551.00       566.4688       38332.55       79014.75
       99112.41       77303.36       46414.72       29625.77       10800.13
      -1726.039      -7260.414      -20926.93      -32534.20      -40858.68
      -42467.70      -27665.96      -12823.56      -13980.81      -22339.70
      -22797.68      -11493.06       5396.656       22048.00       37926.62
       55422.42       63794.69       46116.94       13945.69      -1861.695
      -2453.242      -13488.71      -35304.42      -44999.80      -38232.92
      -34165.76      -37480.98      -30209.87      -10256.26       15657.02
       44397.22       56777.59       45662.20       29563.81       12765.31
      -6139.344      -21239.41      -34494.53      -49880.28      -59346.98
      -47026.10      -13919.92       13417.44       22257.68       23722.45
       23151.97       21777.73       27565.93       33506.81       28937.99
       20130.63       8763.494      -5558.523      -14408.56      -17789.91
      -18702.31      -14034.67      -46.80078       17639.59       27054.44
       25561.59       19459.26       12612.58       1653.254      -13856.59
      -20683.96      -19355.54      -18077.84      -11380.43      -9641.547
      -21817.81      -27788.62      -20188.38      -8620.570      -1513.283
       1408.658       7808.156       7974.598      -5568.266      -10242.52
      -810.4067       1327.177       130.6406       13655.10       33654.87
       42240.25       38413.61       28506.54       12175.51      -1445.070
      -8485.227      -18610.36      -24406.89      -16252.47      -7959.617
      -10606.93      -13442.51      -7328.117      -2121.406      -7897.258
      -18474.23      -24905.77      -28829.33      -25533.69      -11264.83
       2157.301       5445.908      -3226.281      -17119.00      -10532.22
       23907.25       52462.23       50570.08       33867.95       22637.79
       13854.59      -2956.375      -15880.69      -5718.162       11642.91
       7719.226      -3914.452      -2938.182      -3507.613      -12917.75
      -11350.18       1278.758       1335.115      -7082.343      -3467.816
       6812.586       18352.94       27063.67       15604.99      -2679.236
      -1542.617       5300.576       4764.904       3125.023      -5799.961
      -21701.09      -28077.88      -27199.56      -30440.37      -26581.09
      -11727.39      -9866.637      -17347.86      -8560.777       10284.46
       17471.08       13670.69       18277.09       29549.21       25215.58
       14056.67       13532.09       11406.30       387.1191      -8484.797
      -12660.78      -15123.62      -12507.90      -6626.820      -5737.109
      -11089.13      -13138.32       5151.695       34117.19       39956.05
       23181.10       9417.287       851.3691      -5147.771      -5580.979
      -5068.277      -3633.391      -5283.125      -10123.24      -2561.224
       2932.535      -11144.40      -19651.56      -14830.32      -18182.20
      -22364.69      -14151.44      -7765.158      -8195.781      -1149.098
       11340.54       19500.01       27882.83       33855.87       25883.67
       10301.41      -1890.068      -7724.842      -8355.719      -10789.79
      -13369.71      -7846.713       48.74023       4159.713       6552.752
       8053.180       7854.381       8690.141       14003.84       21706.79
       21933.23       9861.604      -1028.336      -6119.242      -15003.39
      -20257.32      -16458.84      -9734.295      -3554.276       466.0020
       2663.683       5298.027       5682.440       824.4238      -4046.514
      -6571.035      -5311.833      -1010.449      -7656.305      -22266.52
      -25521.34      -12622.89       7343.531       16801.89       11817.56
       6403.168      -230.0195      -8364.105      -5963.472       2676.584
       2525.518      -2336.925       470.3809       2610.771      -5817.125
      -12305.66      -10865.30      -7299.900      -982.5039       5573.969
       8560.762       11239.72       11725.13       8991.869       6610.644
      -1100.223      -16030.81      -20934.94      -9283.866       2837.129
       7427.482       8916.562       10683.81       15135.79       15517.79
       8384.438       1278.625      -3819.039      -6981.598      -6311.041
      -6753.510      -10018.40      -12731.36      -14714.99      -8817.151
       5221.729       4048.641      -11414.46      -5889.371       14842.72
       15906.04       10298.23       16185.17       19016.38       14282.33
       7478.023      -2098.898      -10859.17      -9082.188       4165.187
       8949.908      -2098.311      -8705.805      -5724.219      -5528.809
      -7919.246      -9136.508      -10583.07      -13702.59      -14647.92
      -8843.359      -1291.271       2693.110       2435.100      -2858.906
      -8425.824      -8142.040      -2229.266       6167.016       12530.85
       9216.405       1577.258       4110.777       11657.04       8319.078
      -5644.055      -14000.62      -9076.598      -2776.434       4101.102
       16229.46       20449.04       13008.66       4733.567      -1816.585
      -5134.603      -2933.208       152.1770      -160.3867      -1765.826
      -1287.226      -497.9375      -3789.820      -6388.053      -4718.242
      -5834.039      -9673.336      -12281.83      -15921.50      -14044.58
      -4928.767       1072.109       6016.781       12825.71       11832.95
       6462.633       10854.56       19421.45       18040.16       10376.17
