     0.02500000      -68014.23       103530.1      -12345.00      -12345.00
      -29.99004       244.4099      -42.79000      -12345.00      -12345.00
       0.000000       32.79000      -12345.00      -12345.00      -12345.00
      -12345.00      -12345.00      -12345.00      -12345.00      -12345.00
      -12345.00      -12345.00      -12345.00      -12345.00      -12345.00
      -12345.00      -12345.00      -12345.00      -12345.00      -12345.00
      -12345.00      -31.90580      -68.77510       1333.000       0.000000
      -31.23600      -65.83800       0.000000       167100.0       0.000000
      -12345.00      -12345.00      -12345.00      -12345.00      -12345.00
      -12345.00      -12345.00      -12345.00      -12345.00      -12345.00
       288.5320       254.3230       75.85346       2.594287      -12345.00
      -12345.00    -0.05280115       0.000000       0.000000      -12345.00
      -12345.00      -12345.00      -12345.00      -12345.00      -12345.00
      -12345.00      -12345.00      -12345.00      -12345.00      -12345.00
      2008       318        11        13        13
       190         6    -12345    -12345     10977
    -12345    -12345    -12345    -12345    -12345
         1         7        13    -12345    -12345
    -12345    -12345    -12345    -12345    -12345
    -12345    -12345    -12345    -12345    -12345
    -12345    -12345    -12345    -12345    -12345
         1         1         1         1         1
CHIL    -12345          
        -12345  -12345  
-12345  -12345  -12345  
-12345  -12345  -12345  
-12345  -12345  -12345  
-12345  -12345  -12345  
-12345  -12345  BHZ     
ZL      -12345  -12345  
[...]
      -278.2206      -317.5627      -291.4240      -333.3661      -302.2341
      -343.6128      -321.4241      -359.6901      -328.9429      -373.4846
      -335.1371      -366.3616      -336.5651      -376.5491      -340.2750
      -375.9839      -342.6528      -377.0221      -342.7772      -376.0608
      -335.2383      -371.2762      -335.0791      -363.7229      -325.3300
      -362.3674      -322.7992      -358.4742      -322.4401      -357.2432
      -321.8055      -357.7257      -321.2390      -356.7108      -318.3384
      -357.2941      -321.0829      -357.7747      -326.5983      -365.1097
      -332.2031      -374.5969      -344.1646      -378.9858      -345.1251
      -387.8945      -355.6326      -393.9908      -362.1200      -406.8782
      -377.3237      -418.6930      -382.1147      -416.8643      -382.3907
      -421.9574      -388.1787      -425.2883      -389.4973      -427.0039
      -390.6377      -426.7836      -391.0693      -427.9314      -387.9399
      -417.8987      -374.1105      -403.7554      -362.8599      -390.4204
      -343.6626      -369.8510      -328.6926      -356.6027      -310.2430
      -334.8367      -288.5576      -311.0663      -263.7659      -288.3468
      -240.6078      -260.6313      -213.4771      -236.1813      -190.2074
      -215.1340      -164.4692      -185.9476      -142.9919      -163.3749
      -113.3381      -136.0119      -90.62363      -113.7045      -65.21678
      -85.11819      -38.95358      -58.83636      -9.341019      -29.03428
       15.52660      -3.115723       45.23709       25.64792       71.40472
       52.55057       100.0577       82.88013       131.1464       112.6200
       159.5161       139.1672       188.3336       173.6921       222.0587
       201.8456       250.1370       228.8339       274.4652       254.9429
       301.2502       272.7369       317.0762       293.1421       335.1590
       309.2017       349.5355       317.9541       358.8765       330.9596
       368.6492       337.6106       376.9656       342.3490       377.3572
       344.9376       379.6051       345.9995       380.7848       342.7441
       379.1309       349.5753       378.9895       344.7477       379.2446
       341.6790       371.7878       342.4849       380.8342       350.4117
       384.7017       356.0382       392.0642       362.1329       395.9186
       360.1244       392.5809       365.4869       400.7797       367.3411
       400.2426       367.4136       400.3422       364.1023       393.8536
       360.4241       388.9508       349.7902       379.0583       339.9332
       359.5710       318.8923       344.0934       305.0712       327.7949
       282.8600       304.2561       259.8018       280.5463       237.1198
       259.9056       220.0018       242.0038       197.9639       222.0022
       183.7427       207.6348       169.0314       196.2231       157.8638
       184.6265       151.8365       179.2259       139.6844       166.6815
       136.2472       166.3403       130.4916       157.0532       123.8337
       156.6454       126.5856       153.3233       120.0998       148.0281
       116.1101       151.8452       120.7245       150.7881       118.2039
       144.4700       114.0472       140.1924       106.7079       135.6414
       105.0236       127.9891       95.07092       120.2944       85.56042
       109.9133       73.54535       96.78090       63.85875       87.80469
       51.84511       76.46703       36.31161       58.56769       22.76352
       46.50260       8.511963       27.13542      -12.18471       6.494823
      -23.65936      -1.177841      -43.70491      -18.36581      -49.73944
      -27.82559      -62.98401      -38.42630      -73.68182      -50.84857
      -82.64288      -60.83649      -91.42645      -62.84790      -96.85257
      -69.46646      -102.2339      -79.56567      -108.4143      -80.34659
      -112.7885      -87.84375      -118.8127      -90.66968      -121.4102
      -91.97635      -120.1506      -94.43652      -129.4361      -101.0865
      -131.0191      -103.8220      -134.2735      -106.7637      -140.3690
      -117.0125      -153.6625      -124.4241      -147.5495      -128.6510
      -166.1734      -135.7783      -167.0975      -136.8594      -165.4412
      -141.6655      -180.7144      -158.5723      -196.3461      -178.7433
      -211.9898      -190.0024      -225.1506      -204.1689      -238.8265
      -214.0814      -245.9601      -227.5377      -262.9200      -247.7861
      -284.5546      -266.4537      -305.8911      -291.0269      -329.7670
      -313.0676      -347.9170      -331.3467      -365.2085      -346.2190
      -381.2031      -360.7888      -395.8334      -381.8633      -415.6136
      -399.3878      -432.1780      -414.2660      -445.8314      -427.8618
      -462.5291      -440.1647      -466.0366      -443.1807      -474.1118
      -447.3408      -473.3267      -455.4906      -479.7882      -449.1338
      -477.4634      -455.3448      -472.9785      -445.8951      -466.0175
      -432.1512      -447.5515      -414.7347      -429.2880      -395.6011
      -408.2415      -374.4692      -389.2791      -355.7427      -369.9730
      -334.0270      -348.9949      -314.0469      -320.7935      -279.1334
      -292.8191      -257.4081      -266.2526      -225.0919      -242.0140
      -208.8419      -222.6942      -182.5661      -190.6544      -152.1898
      -165.1205      -121.8976      -130.2021      -94.49048      -104.0293
      -62.85283      -73.44542      -35.03191      -45.43896      -9.178291
      -24.48174       9.708256      -2.734848       35.54796       21.50754
       54.84586       39.31212       74.41437       57.47211       88.32983
       72.34985       105.0826       86.71689       114.0345       96.25763
       121.1863       99.70181       130.6797       107.1519       136.7805
       122.4686       154.6092       138.1465       167.3804       149.2924
       179.6371       159.3521       194.8970       178.2799       210.5183
       193.3587       232.3582       218.2610       250.1736       233.5388
       264.3450       247.9503       282.0766       267.1652       301.0319
       294.4375       332.3581       316.9893       350.5916       340.8132
       378.9181       362.9846       396.6241       383.6687       413.8925
       398.3805       434.4434       421.5120       453.8223       444.1439
       477.1230       455.1799       485.8878       471.5741       496.5538
       479.2747       512.8311       497.4253       521.1776       501.1460
       523.8046       498.7700       523.5291       505.5634       524.4240
       501.5894       521.0168       496.8438       520.5022       501.0833
       511.0057       481.1052       502.7855       481.0911       496.0458
       472.5836       491.0454       461.4365       474.9553       448.2618
       464.5255       433.0068       444.3822       414.0896       421.9961
       395.4060       414.6152       382.4917       390.9961       358.6453
       366.8917       330.2906       339.6888       313.3251       327.6251
       296.7726       296.7208       246.8113       240.5699       202.9679
       213.6556       184.6437       191.2801       154.7783       155.6357
       115.4434       117.2440       83.07138       90.96950       55.30449
       57.82774       15.60853       18.70707      -13.67208      -2.460480
      -28.46144      -16.97107      -55.24722      -54.18779      -83.09169
      -73.61847      -107.0390      -96.53061      -124.7309      -120.2024
      -151.0867      -137.4807      -166.0176      -159.7551      -186.5449
      -180.3480      -211.9690      -205.5753      -227.4135      -219.5620
      -251.0794      -244.9933      -271.7980      -265.5257      -293.2300
      -285.5483      -314.0999      -303.7293      -326.0687      -319.9736
      -345.6565      -334.7864      -360.5137      -354.4707      -377.9188
      -368.6947      -394.6594      -386.7017      -408.5326      -396.0137
      -407.6115      -396.3264      -418.8860      -410.0175      -429.8741
      -420.0791      -432.4596      -419.5830      -434.4860      -417.7648
      -426.7300      -412.2891      -418.9855      -402.2273      -410.9972
      -391.5928      -394.4569      -374.0751      -377.7314      -357.9802
      -359.6509      -341.4473      -344.5176      -323.1262      -320.3077
      -295.8853      -296.5990      -276.1819      -275.2281      -255.1834
      -247.9531      -218.6700      -212.5013      -188.5770      -178.2572
      -152.1197      -146.5728      -119.7944      -108.1557      -80.79858
      -71.28486      -44.56634      -32.44449      -6.317276       4.516190
       34.30075       44.16846       69.01965       79.96060       104.8921
       114.1091       140.2397       146.3374       167.6033       176.7515
       199.6650       204.6412       224.2513       229.0927       244.2471
       249.2026       266.8619       265.4900       277.7433       279.7209
       291.0560       287.2896       292.2399       290.9712       299.1207
       291.7194       296.3676       292.9456       292.6702       281.4236
       275.2850       262.5834       255.1512       242.0703       232.9644
       214.8111       204.9766       190.6801       179.4745       162.9323
       150.6299       129.2059       112.5177       92.69118       78.63927
       56.46412       39.94648       22.77943       5.300713      -15.00125
      -34.04247      -56.42078      -76.80310      -100.5479      -119.7542
      -135.9298      -155.6257      -178.3350      -202.3522      -230.5324
      -251.0059      -269.8330      -289.2074      -310.8050      -330.2391
      -349.1606      -360.6636      -375.4329      -392.0100      -402.7917
      -410.8425      -424.8168      -436.6268      -448.0770      -456.3158
      -465.8353      -471.4706      -478.9495      -489.9614      -500.3668
      -504.2584      -510.1138      -516.2297      -521.4282      -522.8123
      -523.0007      -526.0205      -525.5851      -526.8536      -528.0305
      -530.0033      -527.8706      -528.5222      -524.5864      -524.5134
      -519.5591      -515.9241      -506.4012      -500.5237      -488.2568
      -482.9941      -473.0293      -463.0585      -446.8911      -441.9283
      -422.7010      -412.0004      -389.2078      -375.9751      -352.7601
      -338.6349      -313.2631      -299.9259      -275.4796      -265.4336
      -237.2556      -219.9045      -190.5672      -175.4444      -150.2503
      -139.0307      -112.3784      -101.7044      -73.09077      -59.36539
      -32.38206      -22.55326       4.776840       18.58685       43.98871
       49.32352       78.20673       90.22021       114.4346       117.4502
       147.2529       157.4550       178.0405       182.7604       208.0173
       211.7426       234.2950       239.6631       262.4443       265.2050
       285.5908       288.8224       311.0314       316.5325       340.0381
       342.5466       365.3826       364.7823       384.3658       380.9633
       396.4818       391.1033       409.9629       405.2413       422.1257
       414.7114       434.4138       428.9120       446.6177       438.2979
       459.5271       451.0192       464.3960       454.2123       470.9739
       455.9324       473.1997       465.7075       482.7648       465.5718
       480.1233       468.2709       492.2964       476.9120       490.2460
       473.1410       483.5463       462.0096       478.7599       457.1085
       471.1805       447.7041       462.0897       439.8413       452.1387
       428.8231       440.7753       418.1349       432.5261       404.4728
       416.7344       393.4758       405.8638       378.2778       393.1561
       364.8357       377.6191       351.8070       364.2502       335.6838
       351.3099       320.7871       337.3830       311.0795       327.6013
       298.5770       320.2953       291.7902       309.5833       282.3420
       302.4442       271.6445       287.0443       256.5406       280.2690
       251.2851       271.2817       239.4862       263.2173       234.1622
       254.6376       224.4247       248.9111       215.4180       236.4519
       206.6703       228.1442       195.2066       213.8045       182.4410
       212.6037       182.0156       195.1032       156.9905       203.5237
       173.8398       157.3784       121.2975       253.5588       499.1934
       2032.457       6614.859       13384.77       19593.41       28992.48
       40268.47       37183.89       16506.52      -3221.600      -2542.510
       6344.070      -20065.67      -60582.09      -53684.45      -26994.86
      -16899.58       4127.703       13894.91      -16172.45      -28990.39
       8970.453       16381.59      -41638.01      -36579.38       59955.30
       103530.1       51209.89      -24980.00      -60443.59      -53458.77
      -28622.84       9856.891       37204.16       49875.24       36380.59
      -27652.42      -68014.23      -35559.94       12022.05       36440.72
       20898.20      -19239.45      -26475.61      -15328.78      -19692.34
       1498.125       33328.14       13112.23      -19159.30      -852.1436
       12931.86      -14956.42      -9016.117       16124.98       10055.97
       5414.234       2642.815      -9217.680       5634.625       26465.80
       14532.65       8240.648       10545.58      -451.9062      -3857.984
      -9522.250      -18593.05      -7229.873      -3678.922      -19627.04
      -15681.40      -381.8896      -900.2578      -1550.099      -1572.172
      -12071.89      -13839.90       1719.312       11219.44       1375.250
       2611.328       14371.87       9938.484       8928.438       25773.05
       32345.97       13577.18      -8999.383      -23313.33      -19972.03
      -5286.062      -6019.924      -3982.973       6031.855      -7329.180
      -17992.36      -13674.00      -19683.16      -16811.25       5258.184
       19854.25       8333.828      -10897.80      -15237.09      -384.9297
       14534.69       9825.316      -3801.583      -4138.234       15781.20
       32897.78       24726.95       2712.396      -9964.721      -11052.43
      -9060.254      -2435.715       2571.562       3482.355       331.9648
      -7376.383      -10956.62      -13826.67      -9376.580       536.8779
      -2464.685      -1361.254       6712.326       3554.627      -3788.688
      -4677.742      -369.6699       6026.789       11105.65       9880.256
       2306.455      -5495.730      -13643.54      -13493.38      -7345.109
      -9468.266      -11877.50      -5018.510       7249.782       7069.802
      -962.3828       8349.484       18595.36       14171.03       11137.32
       6312.334      -7729.004      -16830.61      -15177.98      -5114.147
       2988.784       3868.347       1862.633      -2263.332      -6728.262
      -8829.823      -2865.211       7822.992       14373.44       15725.43
       8897.767      -2529.720      -7267.798      -1317.888       3255.926
       898.9375      -4708.484      -15643.71      -21425.13      -8429.637
       10926.73       17189.91       9267.068      -534.3740      -4753.094
      -2559.213      -2853.740      -9115.530      -2484.051       12458.43
       11895.33       4766.876      -624.8730      -5321.702      -1659.105
       4650.847       3385.453      -1484.143      -1011.915       2347.797
      -5403.449      -14875.17      -8905.711       5027.868       6468.430
      -5440.693      -9813.652       842.9453       11369.10       9358.887
       6093.266       11466.38       14499.09       7960.992      -1575.889
      -2759.937       2304.890       620.7539      -4889.029      -9608.945
      -12925.31      -7655.941       567.4297       5090.042       2066.006
      -5881.762      -6650.976       805.6895       9303.121       12790.20
       11718.89       12847.88       6625.541      -2562.648      -2295.592
      -6133.064      -8264.985      -1567.914      -1805.178      -6230.537
      -3756.490       3851.508       9310.924       8585.393      -2633.273
      -10799.50      -1749.172       7366.082       7265.625       5454.330
      -1182.129      -6449.398      -172.4873       2268.964      -5165.503
      -5990.853       1303.225       5916.032       1173.484      -2043.893
      -576.7031      -4300.170      -7524.507      -1720.709       6371.736
       3102.862      -4000.920      -5273.624      -4678.351      -561.4092
       3240.707       5519.605       4568.370       2872.459       4877.284
       1457.821      -4991.363      -3714.551      -949.6699      -2354.255
      -3633.318      -639.5703       3508.384       4303.960      -488.4863
      -4703.252       74.75781       7957.021       10623.62       7005.358
       956.3340      -3783.638      -4207.561      -3282.283      -5475.053
      -4374.591      -1522.416      -1087.445       3045.263       7037.926
      -1859.770      -9544.678      -6211.706       290.7773       11902.89
       19682.83       10183.42      -6626.449      -16551.66      -18072.94
      -13767.45      -4491.455       8667.449       13341.48       5683.683
       472.7930       4092.123       10224.59       11212.00       8940.120
       4320.461      -2082.207      -8316.414      -11773.51      -7728.723
      -2350.180      -2884.197      -8201.223      -10895.74      -6016.147
      -3589.627      -6424.100      -4361.090       6207.617       12785.82
       5165.550      -2805.794      -1761.958      -1932.728      -322.2305
       7479.742       9216.855       3728.596      -800.6902      -2274.728
       3254.016       7539.928       2286.861      -3988.695      -2373.100
       2089.848       528.4688      -5338.281      -12401.44      -10507.78
       6445.652       20702.44       13026.77      -7287.488      -14667.56
      -6938.148      -252.6216      -21.87500       726.6392       1240.635
      -2561.054      -6740.502      -2429.546       2094.044       93.59082
       2391.153       4727.339      -3565.662      -9193.311      -6643.766
      -8219.880      -7328.469       4910.066       15542.93       16032.58
       11855.08       4997.438      -1750.474      -1773.777       382.3135
      -1796.843      -1055.828       4880.390       4312.110      -1095.144
      -3933.679      -6225.437      -3282.328       1938.147       1454.905
