     0.02500000      -56670.05       51589.19      -12345.00      -12345.00
      -29.99004       244.4099      -42.79000      -12345.00      -12345.00
       0.000000       32.79000      -12345.00      -12345.00      -12345.00
      -12345.00      -12345.00      -12345.00      -12345.00      -12345.00
      -12345.00      -12345.00      -12345.00      -12345.00      -12345.00
      -12345.00      -12345.00      -12345.00      -12345.00      -12345.00
      -12345.00      -31.90580      -68.77510       1333.000       0.000000
      -31.23600      -65.83800       0.000000       167100.0       0.000000
      -12345.00      -12345.00      -12345.00      -12345.00      -12345.00
      -12345.00      -12345.00      -12345.00      -12345.00      -12345.00
       288.5320       254.3230       75.85346       2.594287      -12345.00
      -12345.00     0.07505433       0.000000       90.00000      -12345.00
      -12345.00      -12345.00      -12345.00      -12345.00      -12345.00
      -12345.00      -12345.00      -12345.00      -12345.00      -12345.00
      2008       318        11        13        13
       190         6    -12345    -12345     10977
    -12345    -12345    -12345    -12345    -12345
         1         7        13    -12345    -12345
    -12345    -12345    -12345    -12345    -12345
    -12345    -12345    -12345    -12345    -12345
    -12345    -12345    -12345    -12345    -12345
         1         1         1         1         1
CHIL    -12345          
        -12345  -12345  
-12345  -12345  -12345  
-12345  -12345  -12345  
-12345  -12345  -12345  
-12345  -12345  -12345  
-12345  -12345  BHN     
ZL      -12345  -12345  
[...]
       5391.856      -1992.849      -2609.776       338.5066       590.2227
      -1318.152      -1429.530       2956.801       7522.285       8140.422
       5253.095      -211.8652      -4469.568      -3657.137       203.3762
       1963.669      -99.04980      -1704.260      -1928.552      -2111.047
      -994.8633       2060.595       4340.530       3058.448      -1754.994
      -7924.473      -9446.510      -4084.575       1143.106       1569.586
      -842.5603      -1298.047       682.1113       3784.078       6383.717
       4129.330      -2023.675      -3750.576       1401.590       6224.162
       4537.305       529.6934       365.2305       3352.483       3798.655
      -259.8145      -4615.691      -6822.088      -7360.842      -5301.972
      -1531.334       785.1133       1227.943       3272.471       5349.348
       4282.718       499.5547      -4300.854      -8624.395      -9307.078
      -4744.364       864.9531       4859.980       7821.967       6891.157
       2381.809       228.3784       1061.406       745.5254       1095.727
       2858.328       3124.613       1096.683      -1761.332      -4404.482
      -4519.055       1327.314       7919.566       7174.192       3215.290
       5.839844      -3847.445      -6611.453      -6069.325      -3410.209
       79.41992       2872.840       4254.549       4276.753       4458.818
       3807.711      -855.9512      -4458.705      -1419.237       1252.288
      -936.6440      -2292.276       880.7754       3464.222       2085.389
      -146.8477      -1296.887      -1259.546       792.4780       1459.096
      -3131.537      -9015.953      -9188.316      -4644.505      -520.5332
       1430.195       2539.619       2292.187       1995.880       2748.059
       2571.112       2421.626       3206.173       2594.276       1349.651
       273.4307      -579.5122       618.0947       3033.848       1819.125
      -3383.742      -7151.310      -5625.325      -1231.603       2520.289
       2044.691      -2342.346      -3265.160       983.9639       4266.228
       3328.261      -231.1191      -3068.887      -5569.276      -6016.707
      -1370.046       4221.797       3841.815      -1377.916      -4758.479
      -4457.363      -3645.326      -2279.699       693.3003       2535.905
       985.8975       1493.514       5751.008       7939.149       4628.663
      -1090.555      -3425.139      -1860.852       314.0054       2376.071
       2280.697      -954.7695      -3124.239      -1231.691      -108.2861
      -2852.531      -3727.155       322.1685       1802.186      -332.3779
       815.7715       2880.157      -1312.186      -7776.683      -6580.991
       2111.896       5768.661       295.0078      -4147.000      -2689.139
      -1584.830      -3252.695      -6427.570      -9787.152      -8375.339
       106.4961       6554.226       3541.909      -2623.012      -5095.689
      -5017.085      -2065.742       2621.488       5555.504       7401.656
       9193.147       6432.291      -454.6035      -3564.843      -2545.231
      -2919.059      -3852.437      -3358.491      -2343.627      -3073.127
      -4212.504      -2740.728       776.6533       2239.647       1026.832
       2224.688       6386.762       7468.382       4207.498       216.0376
      -1335.777       273.1914       2754.132       1228.569      -3663.029
      -5832.196      -1879.296       2908.693       3479.343       1440.574
      -2316.049      -5417.831      -3000.305       2150.542       4056.426
       2030.090       83.69385      -657.2832      -2480.716      -5141.014
      -4994.348      -2646.520      -2393.146      -5426.689      -6563.694
      -2433.041       3018.898       5645.736       6482.928       6436.347
       3198.375      -2365.655      -3256.333      -1143.775      -3168.922
      -7554.721      -7806.173      -2382.840       5201.518       9013.719
       6395.142       1269.152      -341.1797       1375.059       2338.291
       1494.934       945.5317       1461.940       2730.145       1690.965
      -2373.649      -4786.233      -1774.934       4552.816       7388.580
       2382.029      -3919.160      -5948.068      -6523.764      -4874.943
       2710.760       9168.021       7038.876       938.7188      -3641.045
      -4320.763       649.0913       4235.601      -291.5176      -7376.514
      -7251.275      -1554.622       2241.740       3101.182       4016.537
       5284.787       6353.928       6052.299       3247.211      -1366.979
      -4695.410      -3138.805       2824.129       7136.408       6343.693
       1802.845      -2669.417      -3771.985      -2352.983      -2024.222
      -2267.027      -2303.549      -1096.678       2654.639       6339.654
       6412.593       3660.760       552.7285      -696.6051      -375.3521
      -1279.299      -2801.375      -1007.554       801.3320      -2158.004
      -6299.501      -5691.232      -1464.488       1435.201       999.1670
       670.2461       3364.357       7583.279       9609.875       7979.510
       4142.277       533.9893      -2196.167      -1467.947       2556.874
       4414.998       1397.969      -4144.797      -6837.839      -3232.544
       2733.719       4891.647       489.0107      -4269.451      -4988.898
      -5353.887      -5424.833      -2344.405       3526.658       8116.982
       5259.403      -1742.233      -5362.532      -5250.753      -4400.641
      -2297.822       2546.252       6339.097       3774.458      -1289.271
      -3491.317      -2503.405       1567.721       6979.754       8221.079
       4107.788      -604.7871      -3270.257      -3668.733      -1943.019
      -1903.338      -4261.239      -4446.043      -440.3555       3603.994
       4997.799       4156.991       2729.216       391.6582      -2925.635
      -4258.307      -2081.441       1417.008       2078.346      -481.6443
      -1524.364       178.8206       1347.581       238.2600      -971.6406
      -1679.355      -2893.179      -2624.507       2036.816       5357.948
       2299.740      -447.4141       2779.691       6998.312       6873.500
       2429.011      -3072.619      -5705.578      -4258.117      -3471.265
      -5149.406      -5775.222      -3022.855       1028.073       1512.581
      -705.9175       340.7500       3484.824       4560.591       3958.900
       3849.768       3277.062       723.8828      -2630.094      -3357.214
       354.4346       5358.316       5394.946       918.0312      -2861.409
      -3223.077      -1041.495       951.8628       617.5359       711.7640
       843.7046      -1340.216      -1654.234       1243.830       1393.014
      -4303.498      -8347.760      -2790.404       4406.418       4896.808
       1962.798       191.6243      -442.6993      -786.6929      -80.13281
       2306.490       3714.588       1576.920      -2221.539      -3560.534
      -2411.059      -412.5811      -228.2544      -1975.326      -2651.460
      -392.7686       2275.348       1191.225      -2400.123      -4760.820
      -6466.080      -7020.319      -3258.052       2918.338       5637.254
       4045.150       855.5330      -251.7917      -76.37793      -1246.436
      -2634.187      -2936.320      -3098.914      -3890.904      -4371.498
      -2556.394       898.4824       4108.673       3932.158      -361.8320
      -4157.328      -4176.998      -2848.721      -2264.069      -2668.582
      -3118.243      -2941.483      -2226.419      -2092.094      -2857.187
      -2596.893      -381.3657       755.8184      -339.5586      -1902.263
      -2796.552      -1947.156       1502.383       5810.609       8934.629
       8841.686       5918.338       2094.706      -1277.869      -3070.297
      -2375.495      -14.53320       2197.182       1650.799      -706.9410
      -990.8555       1251.806       1512.378      -2436.871      -9065.117
      -14043.21      -12560.50      -5646.029       1924.117       6836.750
       6290.923       1685.981      -2262.340      -2613.017      -206.3750
      -136.8770      -4923.643      -7527.169      -2795.070       5029.303
       8202.045       6228.459       1787.673      -4026.211      -7291.977
      -5490.493      -1812.831       906.2729       1945.844       1651.009
       956.4111       1993.574       5866.418       8082.908       4698.823
       357.1177      -934.2034      -477.2227      -1104.308      -2461.293
      -2303.636      -416.5804       615.6069      -349.3523      -780.8591
       234.3438       1168.818       1507.774      -8.219238      -2392.882
      -2021.757       1259.094       2647.654       1655.296       3282.427
       6229.111       3769.738      -2622.279      -7707.023      -9696.882
      -6598.813       634.5469       5264.956       3221.169      -833.1143
      -356.9316       3053.998       4778.116       4141.760       3308.902
       3203.878       3519.689       4003.099       4197.021       2876.579
       1490.479       1691.434       2215.578       3050.685       3634.046
       988.1348      -2421.012      -3642.884      -3646.127      -1735.552
       1868.376       4067.913       4160.836       3669.747       2124.557
      -1443.115      -4474.860      -4233.557      -1871.826      -1441.693
      -2476.830      -1386.618       1791.541       3843.287       3883.149
       3420.059       2818.036       2574.802       3383.847       3253.000
       2521.569       2426.670       1192.546      -642.2775      -541.5652
       77.04053      -652.1084      -2482.122      -3695.335      -3215.077
      -2042.388      -1243.973      -952.6338       514.0078       5502.615
       10110.96       7413.336      -560.1895      -5337.375      -5015.063
      -2893.557      -287.2998       1352.380      -640.6602      -2305.015
      -364.6912       355.7573      -1408.836      -1424.305       1022.211
       3588.744       4188.444       1860.292      -2226.765      -3483.579
      -769.9756       1671.783       1246.910      -991.2329      -2451.187
      -1490.302      -258.5557      -860.0642      -1264.735       58.57812
       1925.334       4857.891       7876.978       6795.042       1920.775
      -840.5732       122.2874       938.5898      -539.0330      -1535.571
       166.0128       900.7393      -2045.182      -4361.304      -3507.708
      -2497.055      -2127.524       202.0312       3336.587       4204.088
       3563.205       3895.590       4256.334       3211.682       473.5938
      -3418.068      -5703.744      -4417.556       77.35742       4504.389
       4766.806       2981.254       1958.788      -336.3945      -3911.634
      -5062.792      -2389.286       1219.797       2759.332       2994.751
       1502.547      -1019.394      -1297.400      -350.8220      -3.875732
      -431.7675      -503.6064       1280.262       2697.249       2207.504
       178.0615      -1790.747      -1956.121      -2534.557      -4314.274
      -4010.388      -1229.994       1921.048       3063.602       1899.769
       69.42456      -1003.278      -904.5571      -956.0894      -1121.766
      -387.1218       725.6624      -47.87695      -2824.250      -4093.237
      -2693.941      -1284.569      -1321.796      -522.2302       567.4648
      -349.2217      -1525.551      -836.0265       230.2988       1199.864
       3021.537       1749.376      -2995.961      -5058.635      -2539.754
       582.1919       1269.529       991.2217       86.37695      -2258.009
      -3815.503      -3086.117      -1882.622      -1782.812      -1771.678
       207.6846       4037.712       6009.454       2285.139      -3972.621
      -6934.166      -6155.454      -4114.819      -2384.960       380.8096
       3593.158       3762.072       1034.912      -1428.484      -347.3184
       3001.771       2575.054      -2238.145      -6036.920      -6077.109
      -4363.166      -3523.302      -2803.510      -1589.037      -1691.367
      -2919.568      -3782.937      -3235.033      -95.69629       3495.766
       3205.341      -62.93237      -1673.569       61.25195       2477.044
       3037.577       1873.726      -383.9746      -4137.074      -7810.227
      -7425.881      -3903.833      -1975.317      -2845.872      -3878.234
      -4000.375      -5060.816      -7393.984      -11567.19      -17680.33
      -22645.58      -23755.05      -22861.24      -22128.95      -20494.16
      -17592.00      -12782.60      -4714.816       3327.539       6901.586
       6666.512       6252.984       6889.758       8385.641       11608.29
       16000.10       19780.55       23546.00       25139.68       19622.85
       8224.350      -1319.998      -3508.494       2731.945       17882.18
       38068.12       51589.19       48422.92       31942.82       16226.56
       8180.353       1667.062      -7934.328      -14292.98      -10903.66
      -4623.453      -11797.50      -35225.47      -56670.05      -56186.88
      -32001.12      -3244.432       8907.813       4409.306       1251.434
       8294.408       12804.15       6596.363       2643.078       12760.94
       27324.43       30526.25       19928.04       3773.742      -7036.244
      -5779.771       1237.057       2183.070      -4288.279      -9078.767
      -3416.109       12856.70       28891.87       31412.97       17481.74
       658.6816      -5855.523      -5905.523      -8550.805      -12098.67
      -11671.35      -9593.301      -10263.68      -12841.33      -14232.96
      -16647.31      -21455.16      -17655.67       86.75391       15159.62
       10968.71      -5516.355      -17019.21      -19433.03      -17795.81
      -13019.60      -5053.407       1827.390       1916.562      -3205.387
      -8853.645      -13056.01      -11979.23      -3311.008       11541.14
       30910.70       45177.12       41010.20       21118.00       6302.812
       8815.352       17068.44       14754.26       2529.496      -4381.603
       381.5474       3232.227      -4312.891      -14028.87      -17739.04
      -16154.86      -9863.791       1574.066       9677.697       8003.305
       5525.156       9016.793       10381.04       880.9414      -14710.63
      -23000.20      -17482.46      -5721.763       3748.496       11233.34
       14086.16       5362.867      -8660.719      -17621.98      -21778.52
      -21794.93      -12595.65       5352.609       22940.70       33117.59
       32493.02       22906.78       13760.12       7168.009       947.4980
      -3246.809      -5986.749      -6079.138       1660.043       11411.31
       10451.98       2251.202       701.4121       6441.385       9102.690
       3220.543      -3970.270      -5247.562      -7238.625      -14944.50
      -17562.60      -9421.146      -335.3008       1594.797      -4527.055
      -13266.63      -11741.29       2023.598       10634.89       3434.720
      -5878.212      -3453.121       4534.271       8005.343       3809.785
      -7333.125      -17761.12      -19139.44      -10124.65       2176.754
       10318.23       9355.518      -1466.426      -11692.51      -11625.15
      -5591.675      -827.9902       2550.457       5381.722       5283.949
       4623.730       6618.222       6478.346       3036.672       3461.953
       4959.230       2179.096      -568.9131      -2101.951      -4841.086
      -5041.336       3784.465       19190.69       26351.57       16821.39
      -926.5977      -12339.73      -10653.09      -1823.057       1097.629
      -4490.252      -7880.395      -5574.309      -5176.275      -8963.377
      -11244.60      -8728.296      -3288.764       4457.523       12060.91
       16652.78       17958.61       15685.00       9999.823       2876.274
      -857.0566       2151.700       4003.176      -4568.289      -19660.47
      -27268.97      -23062.53      -15990.02      -10734.25      -4477.896
       4539.656       12201.11       10190.34      -1920.672      -13575.72
      -13435.67      -2720.053       9142.129       15200.06       9615.295
      -3843.586      -8780.877      -3071.848       425.6851      -1740.659
      -1906.605       3373.451       7946.827       5029.984      -4273.875
      -13295.12      -14427.76      -7554.621      -974.7520      -60.75391
      -3052.006      -3874.523       4999.680       17286.59       18013.24
       5276.250      -8932.426      -15999.92      -13730.98      -5799.621
      -4585.742      -10251.22      -8210.227       2111.340       10968.84
       13514.33       8157.290      -2220.855      -9065.145      -8162.920
      -4817.594      -6035.781      -10237.41      -11567.14      -6985.344
       3124.570       13449.22       12953.38       699.3359      -8279.846
      -4323.223       5582.406       12012.36       10702.77       2054.463
      -5904.762      -7570.078      -9617.684      -13963.35      -13450.36
      -4922.211       7042.789       14814.59       13340.32       4091.570
      -4047.514      -1060.062       10424.09       18912.51       18383.44
       13058.53       9372.012       5451.580      -4975.547      -17454.22
      -23794.87      -22641.03      -15186.23      -2513.316       10518.29
       15943.08       10838.58       2784.229      -496.2317       801.7355
       1138.054      -1460.031      -3833.202      -2285.083       3083.873
       4689.158      -1620.098      -6900.174      -5290.969      -2145.309
      -2894.199      -4991.660      -3408.531       2683.848       8122.598
       10421.83       14222.66       20011.98       20520.81       16047.40
       12970.13       12843.81       11170.47       2327.164      -12553.83
      -21809.12      -19167.72      -10743.88      -2950.252       1979.467
       6480.219       14442.67       21577.70       20472.77       12430.57
       5304.756      -1077.096      -8011.539      -9449.103      -2211.346
       5697.347       4909.540      -759.4766      -3163.727      -4438.365
      -6594.207      -7308.938      -5191.529       688.1016       9820.234
       14515.35       7501.555      -5293.934      -13944.05      -18795.12
      -20464.89      -14885.78      -3495.075       3854.121       2914.070
       252.3745       1992.027       3933.857       747.3452      -2398.312
      -787.7012       1688.045       5836.008       11692.62       14478.25
       15424.35       15501.44       7900.301      -4961.705      -9872.608
      -5710.916      -3106.086      -3578.328      -3174.632      -1072.869
