     0.02500000      -62431.77       47513.53      -12345.00      -12345.00
      -29.99004       244.4099      -42.79000      -12345.00      -12345.00
       0.000000       32.79000      -12345.00      -12345.00      -12345.00
      -12345.00      -12345.00      -12345.00      -12345.00      -12345.00
      -12345.00      -12345.00      -12345.00      -12345.00      -12345.00
      -12345.00      -12345.00      -12345.00      -12345.00      -12345.00
      -12345.00      -31.90580      -68.77510       1333.000       0.000000
      -31.23600      -65.83800       0.000000       167100.0       0.000000
      -12345.00      -12345.00      -12345.00      -12345.00      -12345.00
      -12345.00      -12345.00      -12345.00      -12345.00      -12345.00
       288.5320       254.3230       75.85346       2.594287      -12345.00
      -12345.00   -0.005079060       90.00000       90.00000      -12345.00
      -12345.00      -12345.00      -12345.00      -12345.00      -12345.00
      -12345.00      -12345.00      -12345.00      -12345.00      -12345.00
      2008       318        11        13        13
       190         6    -12345    -12345     10977
    -12345    -12345    -12345    -12345    -12345
         1         7        13    -12345    -12345
    -12345    -12345    -12345    -12345    -12345
    -12345    -12345    -12345    -12345    -12345
    -12345    -12345    -12345    -12345    -12345
         1         1         1         1         1
CHIL    -12345          
        -12345  -12345  
-12345  -12345  -12345  
-12345  -12345  -12345  
-12345  -12345  -12345  
-12345  -12345  -12345  
-12345  -12345  BHE     
ZL      -12345  -12345  
[...]
       5465.205       8308.770       6775.329       4395.577       2540.225
       2745.635       5136.275       5054.153      -372.3945      -6507.531
      -9277.105      -8271.416      -2303.013       4583.516       6570.512
       4234.332       61.06787      -3239.517      -233.4961       7306.022
       6581.617      -1364.441      -2225.606       2298.019       1942.947
       495.8770       1756.611       1393.271      -530.9380      -1804.721
      -976.9688       1728.828       3583.090       3765.852       1089.667
      -2205.032      -193.4502       4108.445       4080.950       648.5474
      -2289.252      -1993.486       1315.646       2085.926      -356.2281
      -36.07617       2102.519       1007.473      -3017.374      -5520.896
      -2609.250       3333.333       4099.186      -1465.128      -5225.484
      -2125.375       3049.830       4285.392       1345.188      -1123.943
       3087.121       8766.085       6461.499       1163.560       689.6777
       3422.914       5841.123       5173.676       22.74219      -5399.184
      -8495.119      -10442.78      -7211.984       2929.289       8169.595
       2542.007      -3545.598      -5472.078      -6871.385      -5292.227
       1316.699       7276.922       7801.700       2749.556      -4001.559
      -5288.621      -3019.719      -5744.049      -9201.380      -5042.927
       409.7008       623.3369      -75.72314      -346.3291      -2839.965
      -3156.716      -102.5149       264.6885       1706.113       7995.514
       10151.98       5528.175       1241.361      -312.5527      -2477.320
      -6942.713      -9033.059      -6619.314      -3710.286      -2054.670
      -274.1572       3367.808       5382.909      -1340.336      -11759.66
      -11810.13      -1180.716       5330.164       1878.816      -881.4161
      -82.26807      -555.7607      -164.6753       1451.701       1596.646
       2404.421       4339.583       1587.332      -3254.512      -4605.492
      -6332.420      -6497.771      -302.6143       5634.368       4072.285
       345.5476       920.3550       1667.449       304.2354      -598.4912
      -2980.418      -6970.840      -7150.539      -3337.501      -859.4863
      -2301.316      -4502.737      -1719.394       2898.250       2165.973
      -1138.324      -1651.266      -1196.814      -3230.297      -4727.057
      -580.3262       4297.491       3919.083       1294.686      -446.7507
      -734.7664       689.1807       1674.560      -693.9590      -3528.513
      -3390.819      -2571.682      -1232.281       2299.271       5007.935
       2480.090      -938.4946       725.1223       1932.299      -2749.486
      -7681.029      -8246.822      -8413.786      -7014.415       596.8320
       9740.570       11759.67       4142.859      -5357.889      -7237.348
      -3115.791      -2050.869      -3912.435      -3795.286      -1637.195
       904.1807       602.9316      -3296.836      -5702.104      -2919.039
       267.1440       1720.827       4678.326       5750.271       1876.475
      -1812.891      -1085.741       1163.643       2692.261       2582.719
       174.7617      -2682.488      -5975.688      -6971.033      -960.9453
       5651.228       2237.402      -6061.496      -5015.678       2325.368
       4161.016       1829.029       2123.020       3685.384       1267.219
      -1973.068      -321.5830       587.9590      -5460.121      -10130.48
      -5717.127      -393.7676       123.0801       2530.096       7956.289
       8905.366       5746.686       4016.908       4612.758       4836.268
       1788.128      -4221.092      -7656.617      -4273.569       713.5967
       2107.979       3462.592       5054.043       3196.972       300.6445
      -1848.435      -3703.045      -2290.328       966.9360      -305.6953
      -5075.638      -3357.785       5577.094       8818.380       1734.666
      -5772.044      -5182.754       1468.420       6395.331       5665.870
       1180.183      -852.0632       715.0912       807.5151      -212.1553
      -264.2227      -151.1079      -992.8154      -2369.013      -1061.680
       4116.396       8660.969       7323.997       3160.296       1182.635
      -163.8352      -1420.996      -212.9380       1829.663       1962.731
       478.7070      -1445.835      -3497.304      -3918.183      -675.9082
       4366.105       6192.242       5398.820       6885.930       9699.176
       8456.024       1752.016      -5741.330      -8459.125      -5339.785
      -1051.733       625.2246       1666.271       3129.854       3990.543
       5086.799       5990.559       981.5918      -9218.578      -13283.12
      -7371.391      -547.9116       290.5292      -867.1445       1970.914
       5525.312       6926.654       7742.458       4971.083      -597.2051
      -3131.396      -3386.117      -3722.041      -3275.569      -796.0283
       3388.451       7312.994       8051.969       5214.801       3532.067
       4786.739       2976.376      -1311.329      -1888.653       2182.891
       7062.969       7886.494       5421.656       2676.347      -189.5947
      -2956.434      -3119.886      -980.9160      -2040.621      -6410.627
      -7434.580      -1934.586       4852.322       7030.447       3731.983
      -1076.253      -3870.194      -2995.309       1292.798       3616.775
       593.5363      -907.3184       2972.248       5097.049       923.2275
      -4602.762      -5954.758      -3099.554       376.6299       2457.292
       3879.670       4772.200       4412.699       2000.699      -2084.977
      -1880.950       4237.046       6866.619       130.4844      -8572.496
      -10241.62      -6529.109      -3978.290      -1299.958       3593.319
       5276.000       1909.768       1338.738       7276.844       11543.07
       5812.637      -5930.891      -12904.19      -12736.15      -9543.391
      -5104.298      -803.8564       2023.051       3000.196       2225.259
     -0.1025391       118.2495       2195.028       979.9578      -419.2534
       2311.729       1280.135      -5764.299      -8656.965      -4660.445
      -617.0293      -948.7080      -3188.186      -3373.062      -2249.631
      -250.1660       3475.629       7046.709       7319.275       3336.077
      -1196.405      -2248.490      -926.6293       472.3118      -249.6680
      -3212.834      -7432.852      -11274.46      -10268.78      -3378.067
       2447.215       5004.025       7058.685       6115.350       2084.311
      -772.3301      -2680.854      -5178.287      -5487.154      -2056.979
      -58.22314      -1089.319      -2162.852      -3124.340      -4890.047
      -4773.102      -2215.842      -2374.696      -4199.417      -1589.520
       3959.070       7137.120       4083.463      -1832.370      -3388.555
      -1996.874      -1585.317      -727.6555       291.7338       10.26123
      -866.8213      -2745.338      -5895.280      -5176.129       255.5898
       3797.476       1598.170      -3637.109      -6500.676      -3710.863
       1713.502       6020.529       8173.347       5218.611      -2835.002
      -8606.998      -7522.611      -2736.907      -25.13940      -369.1838
      -1060.795      -1300.119      -770.1201       590.5551       329.2715
      -938.5039      -374.6195       128.1133       94.67188       3298.340
       4962.134      -188.1465      -6600.254      -6230.674       378.8965
       5885.933       4996.173       186.7268      -773.2402       3398.957
       5072.094       1211.724      -2038.027      -789.8047       1450.135
       2779.326       3062.106       2339.419       2052.824       2895.867
       2421.846      -1554.906      -5922.349      -5677.629      -2518.334
       1202.312       4616.248       3981.209      -119.6924      -2074.153
      -949.7568      -1502.758      -4558.168      -6187.678      -7272.789
      -5972.541       1151.365       8084.281       7300.727       1984.784
      -1582.149      -2615.083      -969.7642       2325.025       1897.357
      -2342.835      -3627.409       840.4092       4786.451       4656.703
       3906.482       3013.849      -387.9580      -2596.033      -1483.970
      -545.3704      -98.25000       2373.238       5878.535       5820.136
       2710.266       1175.851      -517.7732      -1754.272       1049.379
       3740.648       1656.006      -1252.714      -3275.693      -6811.467
      -7611.869      -2157.587       2100.873      -689.3984      -5497.207
      -5592.670      -1760.693       3161.754       7228.402       7294.854
       2033.562      -3526.543      -3571.930       783.3594       3210.568
       2529.461       2952.658       4612.550       4246.949       2309.705
       153.1704      -2095.803      -2296.179      -141.8484      -278.7651
      -2058.486       602.2090       4727.396       3777.263       522.5165
      -436.0229       2120.957       4382.739       3477.726       3877.022
       5906.731       3119.473      -2382.811      -2885.073       1350.094
       2335.960      -798.0275      -1052.914       1752.838      -400.5957
      -7857.379      -10814.66      -5397.516       3032.494       9291.193
       9581.656       4518.959      -930.8105      -2743.229      -1491.744
      -857.3496      -2640.711      -5103.900      -6346.820      -6008.386
      -3282.107       1641.987       3609.272      -22.38086      -4381.537
      -3704.125       1051.289       5979.896       7496.166       3932.299
      -1721.033      -5770.242      -5611.759       202.0762       5298.623
       5115.353       4588.816       4791.440       935.1162      -3484.726
      -3083.606      -2053.503      -2554.028       508.8252       4929.597
       4709.587       915.2539      -1229.073      -1089.309      -2544.934
      -4907.203      -3155.710       1401.486       2943.153       2288.129
       3294.140       2092.430      -2726.212      -4217.202      -766.3647
       1808.922       946.8823      -1608.203      -2445.258      -1474.807
      -2126.527      -5733.746      -6564.898      -1742.422       1596.394
      -843.3716      -2359.888       1258.827       3895.476       2282.785
       858.3984       1145.615       2355.967       5295.623       7659.716
       2969.545      -6991.322      -12359.15      -7983.455       941.9854
       4905.554       1766.498      -468.7017       1896.315       2845.392
      -322.8408      -4511.793      -7347.358      -6317.914      -3311.295
      -889.9219      -25.86523      -3179.287      -7837.430      -6075.850
       1446.938       5714.582       3345.384      -611.4860      -1438.936
       1335.186       5021.287       6119.513       3359.761      -310.0205
      -2231.242      -2026.337      -2210.876      -3025.260      -2530.800
      -1523.764      -308.4487       1874.266       3423.624       3117.900
       1166.273      -521.6884      -322.9324       654.9993       511.4574
      -121.2210      -20.58301      -689.3291      -2967.325      -3596.442
      -2402.510      -1453.793       218.6094       2917.956       3030.804
       1937.890       3448.908       3190.744      -2299.531      -6135.787
      -4870.149      -3102.957      -1978.303       39.55908       1585.086
       2566.107       3029.575       2210.886       205.3066      -2526.791
      -3368.003       1593.716       6434.810       3073.674      -3625.146
      -5616.833      -4323.214      -2722.787       1019.395       6735.434
       9156.641       6817.717       3516.326       1640.182       361.9487
      -1300.344      -3296.337      -4801.903      -4439.709      -2818.070
      -3103.713      -5059.715      -6481.882      -5779.801      -2846.047
       1088.598       3595.213       3872.281       2670.412       741.6836
      -748.9858      -1602.437      -3184.812      -3916.949       1462.648
       11265.14       16448.10       15392.75       10364.86       1590.834
      -8717.719      -10991.29       1710.465       18330.55       23559.00
       16479.19       2789.113      -14153.05      -27923.45      -27859.79
      -13867.93       1711.943       9391.721       9164.138       5434.706
       2651.532       1974.272       1422.937      -2033.760      -6900.088
      -7761.094      -2890.867       7333.859       27258.81       47513.53
       41926.77       10109.59      -18009.12      -29325.62      -34475.12
      -36057.36      -23416.15       5532.602       32822.87       33336.03
       9843.457      -8257.963      -8201.271      -3672.074      -7950.656
      -20756.19      -31861.62      -28118.95      -4984.797       25244.64
       42980.58       37680.24       16345.80      -4657.969      -11556.14
      -2528.467       9198.406       10682.74       8159.703       12474.38
       18191.53       15518.16       3298.266      -18887.41      -47535.66
      -62431.77      -47770.02      -15090.06       14141.62       25471.31
       19075.06       6762.635       2509.480       10598.59       17238.79
       9400.742      -5190.625      -9534.140      -693.1182       6094.097
       960.8506      -4338.184       646.4219       642.4375      -15015.89
      -23125.23      -10772.86      -1843.135      -413.4180       11604.18
       20739.97       8870.331      -3399.402       2508.656       12082.95
       11982.43       6934.970       2980.520      -858.9922      -11269.41
      -26351.70      -29496.13      -14113.05      -1369.867      -5264.839
      -5251.531       12358.02       25532.48       19490.90       7419.177
      -1042.314      -6743.260      -8101.391      -6740.170      -3324.465
       5807.398       14826.65       13609.56       3834.873      -3964.251
      -1775.679       4787.859      -313.6953      -17035.51      -26404.48
      -22191.84      -14659.08      -10590.73      -8626.080      -4940.848
       1638.957       8992.945       13590.70       11201.85       7175.492
       8966.555       8471.898      -61.19824      -1399.627       9534.025
       10231.74      -7081.426      -16177.82      -2531.363       14332.66
       15738.80       6355.385       3689.789       14444.26       19894.54
       3848.008      -18692.19      -24193.76      -13752.98      -175.4121
       10606.43       10865.05      -3216.980      -19074.55      -23864.66
      -19942.09      -16181.18      -16178.55      -16228.16      -9827.627
      -1243.795      -2111.435      -6544.668      -192.1016       7513.877
       4136.530      -1442.133      -3384.572      -6247.513      -5872.709
       1033.340       5962.875       9999.305       24292.15       38627.27
       34540.71       20216.48       12196.57       6519.275      -2859.129
      -6915.625      -4459.170      -7582.508      -15669.49      -13821.44
       1355.031       14274.50       15038.61       9253.863       1765.918
      -5950.481      -6356.299       271.3857       562.6133      -7698.648
      -11400.02      -4805.538      -30.46094      -8750.520      -18497.67
      -10036.68       6146.077       6614.160      -1495.602      -1357.031
       1557.957       302.1963       502.6875       9401.891       22412.92
       22758.36       6948.168      -5582.511      -3593.200       924.0598
       350.2184       555.2148      -1384.543      -10288.84      -12728.52
      -4575.669      -215.3721       1336.363       10220.93       18392.06
       15403.04       6544.684      -2576.605      -11812.86      -15131.28
      -6900.365       5062.498       8414.125       1525.096      -6500.912
      -8221.783      -3991.365       3709.188       11595.70       15932.52
       15234.33       10227.99       1509.479      -8626.508      -13265.77
      -8688.375      -7172.750      -13134.66      -8764.471       5128.924
       7009.507       1666.449       6375.791       7876.055      -5265.047
      -14078.23      -6325.738       10542.62       21765.90       14703.03
      -4177.973      -12949.66      -3327.117       8163.367       8200.543
       2194.787      -3537.434      -9617.312      -16293.96      -19425.03
      -15171.71      -1763.539       13761.40       18201.59       11212.56
       2216.293      -1350.852       2459.629       8205.007       8040.070
      -772.1133      -10763.38      -14471.86      -14929.52      -17874.26
      -17362.88      -3937.715       12431.80       15375.02       7327.261
       393.4594      -989.6104       3421.188       9302.637       8135.943
       753.7969      -7304.160      -11885.70      -10506.39      -6026.590
      -1531.477       4815.738       11740.27       13173.86       8787.750
       627.0078      -7565.365      -8547.631      -3805.948       571.0674
       4510.698       4716.073      -2402.010      -9181.074      -10306.85
      -9367.496      -6706.435      -2630.434      -731.6052       199.1855
       2512.643       2339.194      -1871.212      -4041.928      -2819.184
      -3093.618      -3402.361       1661.367       9810.609       14037.28
       10599.41       2355.765      -2647.496      -229.1152       6241.047
       10458.04       9089.123       4536.829      -237.4434      -4713.099
      -6156.356       393.2617       12855.16       16826.73       3006.484
      -19306.31      -33382.05      -29760.59      -15424.34      -4364.865
      -190.8438       1123.428       3495.020       9506.074       15010.59
       11530.97       921.0371      -7490.816      -11686.78      -13213.49
      -10065.83      -3870.689       1784.248       7365.762       12604.55
       15425.29       14891.84       12254.29       9138.637       4620.887
      -2761.232      -9136.807      -7139.597      -788.7852      -1413.033
      -7764.301      -10900.88      -6945.164       2402.441       7990.880
       5076.863       2115.008       2012.870       652.8760       644.9180
       2806.938       3537.547       2655.869       350.0596      -3217.587
      -4287.616       540.3516       7727.221       9695.199       6618.665
       1321.201      -5359.184      -7483.568      -4647.908      -3066.639
      -1298.736       5348.270       12481.58       11281.80       5325.732
       2673.316       760.7695      -4835.258      -11225.01      -12689.34
      -7287.638       1698.508       8778.906       10412.83       6811.855
       127.3789      -7198.748      -11374.09      -8720.449      -4854.715
      -6311.270      -8351.949      -5333.819       149.5625       3474.961
