     0.02500000      -94783.86       98035.86      -12345.00      -12345.00
      -29.99497       228.9800      -28.37000      -12345.00      -12345.00
       0.000000       21.40000      -12345.00      -12345.00      -12345.00
      -12345.00      -12345.00      -12345.00      -12345.00      -12345.00
      -12345.00      -12345.00      -12345.00      -12345.00      -12345.00
      -12345.00      -12345.00      -12345.00      -12345.00      -12345.00
      -12345.00      -31.06740      -67.28460       921.0000       0.000000
      -31.23600      -65.83800       0.000000       167100.0       0.000000
      -12345.00      -12345.00      -12345.00      -12345.00      -12345.00
      -12345.00      -12345.00      -12345.00      -12345.00      -12345.00
       139.1978       277.3448       98.08951       1.251546      -12345.00
      -12345.00    -0.04363395       0.000000       0.000000      -12345.00
      -12345.00      -12345.00      -12345.00      -12345.00      -12345.00
      -12345.00      -12345.00      -12345.00      -12345.00      -12345.00
      2008       318        11        12        58
       770         6    -12345    -12345     10360
    -12345    -12345    -12345    -12345    -12345
         1         7        13    -12345    -12345
    -12345    -12345    -12345    -12345    -12345
    -12345    -12345    -12345    -12345    -12345
    -12345    -12345    -12345    -12345    -12345
         1         1         1         1         1
CHUC    -12345          
        -12345  -12345  
-12345  -12345  -12345  
-12345  -12345  -12345  
-12345  -12345  -12345  
-12345  -12345  -12345  
-12345  -12345  BHZ     
ZL      -12345  -12345  
[...]
       12384.43      -1519.734      -9455.674      -868.6465       2101.293
       19730.49       12839.60      -13557.07       2334.580       10319.93
      -18336.69      -14693.02       10094.92      -7454.994      -18856.34
       20924.07       10394.11      -33206.40      -349.8438       23657.52
       19472.77       7500.680      -40292.43      -12721.11       49113.84
      -892.7266      -48758.06       16624.92       48984.18      -10981.14
      -29289.36       329.8496       10829.31      -439.3594      -23948.71
      -9593.879       27038.72      -273.3516      -22781.18       13023.12
       9577.091      -13421.18       5460.309       15461.41      -2217.379
      -6747.596      -5911.016      -8969.871       11917.96       16903.68
       4676.742       2556.074      -13832.32      -16067.41       377.9395
       8700.699       7512.409      -4718.923      -3205.344       3550.897
       384.8774       5977.939      -5872.188      -20570.72       6866.521
       18093.59      -14080.05      -15796.12       16925.62       14526.01
      -15321.73      -9461.129       12686.35      -11742.06      -30494.55
       10702.59       36846.05       1336.516      -22259.98       11210.22
       19863.32      -15371.22      -10248.56       17292.70      -4578.785
      -31430.36      -1198.133       19790.25      -4314.316      -6810.424
       10350.64       2369.564      -6560.061       9101.070       12283.93
      -5900.646      -2552.905      -725.8496      -8321.552      -1216.288
      -4108.223       266.8867       8788.182      -7916.455      -5128.965
       21599.97       6720.344      -26582.44      -2427.006       20335.08
      -11798.42      -10772.02       22288.07       12734.32      -11042.30
      -12674.27       4833.855       8457.937      -9341.409      -5090.940
       10355.09      -2696.176      -12884.84       11514.63       8473.867
      -17894.16       579.6445       12507.36      -5121.141       3141.319
       1038.516      -15971.74      -907.5415       4315.246      -4985.653
      -869.2119      -4389.184       999.7969       8329.264       1802.695
       12728.45       1659.469      -14703.24       1979.474       1628.232
      -4894.101      -3914.695      -3534.914       11102.35       12256.20
      -14813.38      -7591.828       22208.55      -4797.918      -23401.54
       14546.95       11475.55      -17456.74      -2723.465       16895.95
       12930.94      -5066.336      -14672.24       4353.255       12576.91
      -11331.16      -10703.44       7328.382       783.3652      -7681.366
       640.1855       5589.022       2034.459       10567.65       3944.178
      -16532.29      -2335.658       6068.814      -2869.685       138.4004
       1294.100       2530.383      -1915.464      -4374.414       3223.092
      -3044.043      -3450.775       12176.72      -1212.279      -13038.05
       11422.56       16550.66      -3236.112      -6917.864      -2518.427
      -543.7952       1097.310      -3568.195       1526.452       1591.459
      -9173.393       238.0449       4433.224      -1282.770       1601.236
       2650.086      -1135.953      -12821.25      -1099.814       15653.86
      -6497.024      -6535.129       16542.01      -3928.854      -14334.52
       7298.820      -2636.408      -13418.10       6815.023       9292.668
      -6182.726      -5228.578       5899.217       8638.637       1680.246
       176.1348      -5889.717      -5166.618       4348.652      -4349.033
       6365.977       20368.90      -4080.598      -16290.70       7123.812
       12836.80      -7214.800      -1806.127       4514.742      -8424.117
      -3272.962       2543.902       6363.102       13920.22      -2733.059
      -20811.09      -4824.344       18055.46       15660.09      -8431.859
      -19055.35       5496.592       10626.04      -11258.06      -6897.941
       4035.930       12373.43       12896.46      -16426.19      -14504.06
       19654.49       2776.166      -17697.07       1861.367       10998.62
       3308.926      -20861.28      -14236.07       32327.67       15764.59
      -28685.80      -4673.945       19065.75       1036.591      -7163.200
      -1514.793       10778.07       6656.551      -16529.16      -9634.000
       12217.08       4087.066      -10226.82      -4962.660       9145.980
       9432.555      -9053.613      -10811.94       6310.013       2270.048
      -9131.013       1616.917       5431.076      -4885.438       2908.939
       5233.448      -5951.763       5233.611       9360.145      -5341.391
      -7344.555      -7239.606      -2328.406       7934.805       2703.654
      -7866.642       1570.271       11860.07      -4899.973      -3265.248
       15921.19      -38.09766      -12228.52      -1150.218       57.97852
       1339.725       3880.688       5866.566       7029.062      -3053.113
      -8188.658      -3731.803       3400.985       3473.869      -4656.041
      -6313.941      -8859.932      -197.1055       18175.88       6539.311
      -12521.90      -6986.272       3333.122      -935.5081      -3441.754
       4157.551       15455.60       9744.238      -17315.55      -12343.33
       8930.902      -4375.430      -17578.21       6977.996       25696.09
       4952.641      -16516.28      -3530.617       20645.74      -836.5195
      -26261.03       7125.084       12099.16      -26664.97      -2219.598
       26512.43      -4856.279      -12837.66       10346.90       9171.967
      -5021.137      -13017.28      -8526.230       18935.46       10725.72
      -22726.91      -5276.673       8526.899       1670.333      -3262.874
      -10205.62       12026.91       8792.664      -16785.58       4745.781
       20163.10       3930.656      -9067.187      -2826.295       14147.27
      -2747.363      -21667.28       7518.637       6162.527      -19516.02
       7425.104       12816.84      -7270.820       16438.75       5890.023
      -30487.56       208.9453       27231.16      -10962.35      -27010.50
       15071.31       17504.87      -13932.96       5641.753       13579.83
      -13614.03      -8342.074       5782.607      -3410.387      -16610.22
       7581.629       36613.07      -10353.90      -43830.79       19981.39
       30310.79      -39474.54      -20971.42       40600.68       4008.582
      -30748.90       12336.48       21559.20      -3328.191      -5592.630
      -4746.368      -1341.758      -2439.409      -12094.16       9012.588
       14727.61      -3344.805       10652.42       5021.479      -12730.73
      -1454.315       3361.688      -6467.055      -9182.892      -1254.712
       3864.905       3347.143       2529.840       5792.620       10667.14
      -9091.008      -24215.76       10917.84       18163.36      -24064.13
      -8069.547       34248.30       7253.365      -17188.08       8140.125
       21655.29       4232.023      -14900.01      -7821.691       5796.668
      -9649.201      -11785.54       10504.41      -499.8672      -10125.54
       4488.654       7571.180       10865.08       8099.564      -6525.088
      -10668.78      -9129.641      -4313.291      -5930.586      -3495.656
       19286.34       7296.102      -15802.38       5552.833       6290.641
      -7882.709       4642.666       10305.52       1202.266      -16225.22
      -7604.223       17494.15       3953.070      -6180.470       3393.844
      -5340.377      -2476.194       4349.017      -8040.258      -1688.721
       8968.505       395.5801      -6668.934      -12465.98      -5727.514
       12582.60       4738.686      -15256.85      -4143.748       11368.23
      -137.2556      -2458.969       2746.852      -2760.318      -4809.648
      -7472.877       3082.600       5103.035      -12038.02      -4734.746
       7727.373       5476.082       5011.258       10945.63       9879.139
      -8012.036      -5695.031       8057.953      -8252.711      -17531.05
      -4471.763       5809.018       2684.336      -1617.777       12592.47
       6936.414      -14356.39      -4222.948       4699.776      -4992.508
       1760.793       10251.93       975.9229      -3447.600      -2505.990
       818.1074       9347.363       4333.332      -7141.652       2916.278
       12864.73      -9869.443      -10223.62       13123.61      -6893.453
      -17535.05       14687.92       16706.85      -15514.03      -16483.57
       3351.898       1665.664      -3325.389      -1351.171      -2210.660
       5505.654       6431.990      -3648.165      -2512.998       3460.608
       1495.602      -14669.34      -10647.76       17405.80       13432.87
      -8555.889      -8330.148       5349.109       7240.844       7265.124
       9576.775      -10131.00      -20370.29      -7906.244       4147.695
       3027.126      -195.7656       13149.42       12720.44      -11041.45
      -10635.06       9262.127       5841.831      -6093.953      -5380.838
      -2454.692      -3513.998       6595.346       14794.24       1151.400
      -5708.226      -56.27393      -2256.777       81.78223       5315.066
      -6083.147      -10361.17       8163.990       3924.392      -13005.14
       7935.262       11420.36      -16027.27      -8244.254       6523.051
      -3135.867       1870.062       17263.98       6198.463      -14089.50
      -4401.415       10003.70      -202.0076      -4063.455       4584.973
       7951.826       6380.371      -3549.454      -6612.273       4583.861
       3203.270      -13999.61      -7335.066       18388.42       8922.113
      -14775.25      -2565.791       15725.45       1790.338      -14552.04
       2795.939       10350.15      -14891.44      -7987.689       13648.89
       2181.473      -6976.843       4154.334       11787.62       8625.018
      -1810.027      -19542.93      -11943.27       7299.705      -3537.579
      -3038.570       15521.09       8217.014      -6838.259      -1931.109
       3227.712      -5723.577      -4850.082      -731.3281      -2765.620
       983.7305       1279.645       2556.443       9329.221       13025.65
       2519.565      -4655.665       6026.197      -5555.828      -18776.25
      -370.8232       3572.538      -8957.520       1257.990       5047.665
      -1256.594       9898.885       700.4258      -7864.717       4899.627
      -3720.473      -4305.497       9241.783      -3043.994      -4047.654
       11922.08      -3344.793      -18516.71       9453.271       17088.42
      -10939.63      -3416.376       2367.816      -9359.142       909.7949
       10995.82       786.7695      -4206.825       5273.439      -7090.330
      -13361.08       3924.253       3792.639       1711.629       4019.096
      -625.1938      -2021.057      -1193.494       5781.464       4478.347
      -3123.869       1986.041       8152.227       8086.368      -4035.305
       1112.457       16419.78      -13600.32      -26702.27       7868.929
       11060.57      -8900.959      -4181.020       7091.632       2239.441
       1359.619       5062.160      -490.3818       4092.521       2039.051
      -14148.60      -10575.81       2383.110       247.1484      -5657.003
      -289.7646       3685.008       2085.902       12994.11       17140.14
      -7627.862      -8930.529       12806.69      -586.9297      -21945.04
      -8018.566       14497.87       6080.730      -7422.627       3009.051
       13637.24       4793.619      -9846.972       1677.560       12184.48
      -11262.33      -17688.46       7169.740       7994.611      -5820.891
       2476.335       344.4360      -6717.193       7512.889       9834.447
      -1042.383      -9644.518      -11109.13       1003.451       3912.999
       794.9551       1652.761      -4051.333      -4914.379       6119.840
       15350.13       800.9170      -9400.871       2463.304      -1267.624
      -6764.147       417.6350      -1776.775       2128.826       10988.34
      -4183.414      -8850.160       12889.52       9813.422      -14107.38
      -11720.15       3225.436      -7269.580      -6232.250       21099.22
       7406.930      -23100.75      -3908.750       11619.37      -8364.986
      -11406.14       18102.95       22021.33      -13629.27      -19218.21
       185.7930       4707.898       17076.36       30366.73       10569.22
      -29744.94      -32275.03       9994.021       15206.59      -22358.31
      -23558.73       4634.066       1282.625      -20139.03      -8774.233
       10735.09      -13366.58      -36107.75      -5940.148       28950.07
       25417.73       1139.992      -12532.91       2408.113       18476.30
       15913.03      -1141.949      -22240.12      -7978.578      -1168.797
      -25844.24      -18809.12      -8276.289      -3548.234       29669.54
       15991.11      -58297.85      -56789.30       36679.94       58468.78
      -34097.45      -74742.55       19991.14       98035.86       65953.87
       10123.09      -34718.69      -86034.00      -91563.23      -21362.75
       27102.81       27411.64       56196.83       67602.66       4786.812
      -35854.38       5299.062       34408.61       19897.33       11007.75
       22254.69       19420.76      -20395.54      -25810.14       14961.14
       16917.94      -37207.24      -44984.85       28959.66       36850.66
      -41307.20      -55612.71       19369.47       61375.81       33571.29
       9179.372       2987.969       9084.762      -1700.602      -30625.69
      -11189.50       34676.12       38279.52      -26816.44      -94783.86
      -66889.21      -2490.566       14849.04       26286.72       31964.61
       2823.227      -23452.43      -8097.656       52077.35       62228.98
      -14499.68      -39150.93       7819.199       18779.83      -7962.012
      -12327.98      -6170.168      -14030.87      -16869.48      -27150.74
      -23046.16       34165.95       42443.40      -13249.99       19750.86
       84381.70       24438.81      -62997.44      -55718.12      -41473.56
      -48789.36      -18340.12       8140.055       8594.094       35226.59
       68467.15       41414.38       14322.77       38490.94       28075.76
      -9755.107       4747.059      -143.3438      -43542.42      -55656.77
      -55040.81      -30356.16       20080.93       34918.21       284.7715
      -16699.04       11366.43       13928.79      -7311.523      -3848.505
       1877.765      -505.8516      -1399.117      -1098.109      -4645.195
      -26464.39      -16455.12       29634.47       38195.60       20453.61
       15639.42       26070.24       23658.46      -7940.281      -33741.24
      -34108.67      -31253.49      -27662.98      -3071.441       17627.89
      -2711.848      -14665.47       3850.898       17155.22       23065.48
       10300.08       15540.56       29389.22      -1219.621      -14260.46
       19279.94       11628.90      -43221.84      -40821.58       7939.619
       15557.89      -2857.215      -9945.103       1999.912       16670.22
      -8366.219      -29498.28      -9620.602       7392.449       18009.91
       28836.46       31542.24       19998.10      -9168.299      -11735.61
       17119.18       10643.77      -12495.11      -13533.69      -18282.13
      -27263.17      -28999.30      -28274.77      -13032.81       13453.08
       3421.559      -23564.36       5856.883       46739.23       27047.40
       529.5078       18284.72       24018.90       1416.870      -4162.630
       2517.275       9502.770       1804.648      -6862.328      -12113.94
      -50207.79      -56271.01      -12611.74      -5917.332      -5469.406
       30792.27       44464.16       27512.31       30521.67       46309.40
       12170.95      -37549.71      -12546.97       30549.12       4058.680
      -36727.46      -22896.95      -371.0547      -23809.12      -44163.91
      -13451.97       8759.439      -6763.564      -1111.562       22114.68
       18279.64       1327.924      -3160.125       8202.805       27342.45
       26234.77      -10770.82      -30177.38      -3546.089       7984.070
      -9373.352      -22428.72      -3376.887       27976.68       2420.732
      -19627.64       24449.84       30976.58      -12145.72      -8525.572
       15892.55      -14724.47      -41261.18       7814.758       40753.50
      -11053.99      -41408.71      -8014.195       6346.594       9346.672
       15942.87       3235.344      -13157.53      -20758.93      -6176.521
       3210.338      -7897.582       6306.578       30383.55       12203.44
      -18021.06      -10722.75       8318.697      -5326.055      -20200.62
       5657.031       25961.11      -440.9727      -22905.39      -10515.44
      -2137.059      -11174.25      -2114.945       15764.06      -6121.119
      -12111.34       29971.70       25847.79       3629.492       31319.27
       35591.80      -7819.043      -20809.58       4257.509      -456.4180
      -10723.89      -445.2578      -12789.33      -13642.54       21984.75
       25555.95      -2342.530       1294.197      -1212.734      -29064.64
      -28292.37       3715.188       19675.96      -3413.953      -21691.53
       1137.398       27309.79       16004.51       4948.621       15025.62
       2486.422      -29800.20      -36332.47      -3232.004       19088.46
       11187.01       8583.934       11865.07       7351.887      -12693.57
      -25170.33      -7031.869       144.3242      -19742.37      -24626.02
      -5910.205       6576.789      -266.5703       13972.71       45834.25
       7208.172      -39950.26       26.17578       30268.44       1249.834
      -9183.734       19342.27       16571.82      -14823.48      -5510.062
       11214.50       2949.810      -1789.985      -580.3691      -7106.953
      -15084.88      -4991.558       5199.344      -2336.856      -5854.574
       5516.809       1730.258      -24939.08      -28388.42      -5909.126
      -448.2148      -12620.52      -8459.559       13298.64       31392.62
       31690.86       16345.75       7234.141       13000.76       9267.602
      -9640.924      -3903.285       15652.09      -1820.484      -26735.47
      -16476.80       775.5898       827.0547       10541.05       21815.09
       472.5234      -21088.68      -12785.74      -285.4512      -1761.117
      -12155.97      -9175.019       10019.03       5282.189      -13273.07
      -1041.654       9425.187      -6325.074      -4371.977       8811.449
