     0.02500000      -198903.5       178468.2      -12345.00      -12345.00
      -29.99497       228.9800      -28.37000      -12345.00      -12345.00
       0.000000       21.40000      -12345.00      -12345.00      -12345.00
      -12345.00      -12345.00      -12345.00      -12345.00      -12345.00
      -12345.00      -12345.00      -12345.00      -12345.00      -12345.00
      -12345.00      -12345.00      -12345.00      -12345.00      -12345.00
      -12345.00      -31.06740      -67.28460       921.0000       0.000000
      -31.23600      -65.83800       0.000000       167100.0       0.000000
      -12345.00      -12345.00      -12345.00      -12345.00      -12345.00
      -12345.00      -12345.00      -12345.00      -12345.00      -12345.00
       139.1978       277.3448       98.08951       1.251546      -12345.00
      -12345.00       1.041035       90.00000       90.00000      -12345.00
      -12345.00      -12345.00      -12345.00      -12345.00      -12345.00
      -12345.00      -12345.00      -12345.00      -12345.00      -12345.00
      2008       318        11        12        58
       770         6    -12345    -12345     10360
    -12345    -12345    -12345    -12345    -12345
         1         7        13    -12345    -12345
    -12345    -12345    -12345    -12345    -12345
    -12345    -12345    -12345    -12345    -12345
    -12345    -12345    -12345    -12345    -12345
         1         1         1         1         1
CHUC    -12345          
        -12345  -12345  
-12345  -12345  -12345  
-12345  -12345  -12345  
-12345  -12345  -12345  
-12345  -12345  -12345  
-12345  -12345  BHE     
ZL      -12345  -12345  
[...]
       9356.289       1076.108       6162.850       1391.184      -21038.35
      -12934.65       8744.062       7139.003      -764.7119      -5347.834
       1653.920       11618.19       6047.401       1074.693       1793.463
      -7905.104      -8418.826       8929.518      -526.0117      -16698.43
       6777.533       10483.83      -7348.085       7763.236       3431.523
      -25888.95      -4075.852       27232.45       1834.816      -16603.27
      -1965.362       2359.827       4898.713       766.2217      -1718.363
       7029.403       1415.604      -4330.633      -4291.529      -1562.962
       3601.858      -2781.172      -4494.355       3475.666       6668.025
      -3913.263      -7617.660       12104.83       18261.85      -11639.36
      -25824.52       9878.959       16936.33      -18522.68      -6700.613
       23203.89      -5100.594      -24096.78       15112.21       24515.85
      -9106.250      -24916.58      -5159.381       12590.54      -2656.749
      -6072.297       16211.81       10959.66      -16509.98      -6646.605
       13256.63      -2019.730      -952.3711       11876.44      -12134.81
      -14990.29       25645.11       21831.32      -19456.58      -11324.41
       12475.00      -2952.824      -17386.32      -6032.881       12641.16
       5655.443      -13069.92      -175.7539       23498.31       6629.504
      -21436.12       1775.438       22043.27      -8476.371      -23867.77
       14371.97       31639.52      -12787.71      -13683.03       20506.19
      -10004.46      -29745.38       14794.24       23611.75      -15849.94
      -25104.22       1808.484       15575.16      -3666.337      -3955.312
       19273.64       7131.661      -8756.035       9911.070       16635.90
      -4020.645      -16304.55      -6411.812       1988.308      -6295.375
      -5217.146       8159.592       7815.716      -5154.911       2229.184
       14720.29      -8596.717      -15206.35       12719.52       1288.156
      -25252.74       6949.941       29519.89      -13005.32      -15413.27
       19095.39      -3746.820      -19684.13       14419.80       15814.64
      -5490.086       2421.497       9862.996      -6407.762      -22201.71
      -4650.062       17032.04       459.3223      -7207.201       14653.79
       5351.812      -10817.66       3834.129      -3085.029      -6822.704
       8631.797      -3412.909      -5109.461       7799.996      -10278.08
      -19245.43       13530.41       20207.20      -3581.045       1048.785
      -10684.22      -29115.35       7328.879       29941.74       187.0742
      -18593.37       3908.438       24168.66      -2810.543      -22146.27
       3107.656       20441.91       2266.684      -12907.65      -28.65918
       3772.988      -16127.93      -7029.727       23808.21       8645.301
      -16304.74      -861.1514       6553.792      -9281.024      -2489.947
       9385.821      -5863.962      -4793.225       12722.29       1978.887
      -17598.34      -9329.879       19173.79       13272.85      -17718.95
       855.8555       19768.41      -3366.879      -6864.408       3087.008
      -6196.339      -5504.301       7004.896       1997.586      -9481.279
       3079.316       19304.43       3523.908      -14118.36      -6369.667
      -2299.807      -6336.372       2138.517       1692.828      -5333.912
       1624.166       1296.451       2456.477       19691.15       9827.094
      -22521.81      -15740.27       6091.488       3709.835      -3083.346
       5530.279       9124.271      -8478.090      -3191.757       10342.88
      -4292.444      -3990.779       6769.052      -3401.708      -5751.635
       9682.518       2150.156      -13286.25       258.1445       9342.371
      -8451.933      -12183.32       8862.132       7477.359      -10964.02
      -4076.583       2051.023      -6004.504       4710.023       15290.37
       2841.878      -4668.906      -482.7811       410.1609       336.6196
      -1098.841      -1478.830      -940.4238      -8607.907       3109.139
       16137.21      -12010.89      -13670.39       14181.52      -2398.078
      -11897.29       14380.61       12533.74      -8887.848      -6631.361
       11418.11       3742.219      -24653.23      -7595.070       28410.76
       5019.309      -21815.13       5444.515       12356.26      -10646.41
      -8006.967       6754.484       9813.251       634.5703      -11071.54
      -5328.443      -749.2305       3708.758       18384.83       5035.591
      -7011.174       2880.416       2509.959      -9705.037      -10149.47
       12166.06       4409.223      -20446.60      -9631.531       5752.212
       3652.186       2934.218       2686.375       1038.252       7000.157
      -2370.301      -12744.95       4450.843       9592.463      -11607.73
      -10637.06       21208.94       13159.86      -20618.18      -9772.231
       8576.979       832.2852      -894.3652       7431.907      -2911.771
      -13627.04       2139.143       4486.313      -8673.856      -443.1328
       15060.81       4795.498      -14898.57      -356.1055       23742.83
       4737.418      -19908.66      -4462.536       5396.928      -7800.662
       827.5820       17341.61      -3387.195      -21963.21      -1627.799
       10941.39       9717.494       266.8516      -15684.45       2035.648
       16927.18      -13675.02      -21017.39       12181.51       10551.40
      -5256.562       7559.539       2281.395      -15849.88      -53.42188
       17359.82      -4686.742      -20310.55       5339.305       23456.80
      -3518.748      -14742.80       8669.993       858.6729      -11431.06
       8755.671       12274.00      -11713.95      -4071.369       13710.41
      -7174.588      -10475.71       2257.986      -3539.453       2119.343
       8327.570      -7333.049      -10222.17       6013.762       5144.738
      -4666.014       1232.672       4195.174      -9744.622      -6128.977
       15639.08       2694.469      -22512.42      -3754.465       22172.16
       731.7480      -12563.34       14983.29       4491.465      -22929.80
       7216.164       22977.93      -10622.57      -5779.641       21119.21
      -11454.83      -25923.27       15293.71       5320.436      -14892.34
       9796.090       14072.80      -8403.453      -14279.89       2079.543
       19605.28       8420.094      -17433.96       2940.104       11305.41
      -21796.47      -480.2422       25505.90      -1617.430      -10388.33
      -3689.625       3322.025       6471.133      -14833.83      -9874.836
       27014.57       11743.19      -28155.51      -7557.594       22946.21
      -6038.766      -20476.64       21628.17       10867.98      -23928.85
       1747.740       12816.20      -4390.894      -2029.874       6905.435
       2361.146      -9456.598       1634.997       6818.863      -15280.13
      -2695.000       10916.20      -10352.06      -9885.324       10432.95
       12459.22       812.3545      -6168.445       7515.551       18074.11
      -7717.861      -16006.67       4628.854      -3039.879      -3073.302
       6886.730      -2822.684       4560.156       18729.18       9271.762
      -17292.25      -16510.29       7732.865       3210.469       856.6250
       12519.73      -6251.730      -7753.604       16216.40      -5960.703
      -23617.29       6085.074       19401.55      -1931.436      -12532.74
       3893.588       1565.133      -21612.98       1882.605       28533.96
      -8699.203      -23299.85       20440.35       20150.16      -16436.64
      -12148.58       7295.717       11906.63       2279.963      -11524.45
      -5290.523       17060.00       18282.06      -625.7134      -1786.989
       3389.637      -16512.34      -16827.93       16992.97       8107.559
      -15041.04      -2733.172      -1018.818      -6689.682       8754.785
       13032.13      -7178.557      -8173.137       9011.954      -1629.658
      -12690.10       8271.887       10660.05      -14416.32      -14962.89
       5360.850       9094.244       4168.420       8035.595       4201.100
      -5775.957      -5857.381       6017.634       5541.246      -10309.80
       3588.276       14122.76      -13452.93      -18562.33       5072.775
       7532.473      -14581.28      -6456.086       25619.83       13073.81
      -17930.92      -10454.50       12844.00      -1296.180      -25914.26
      -1817.258       21928.71       2370.359      -12277.34       3351.798
       9315.238      -11261.02      -3534.332       21115.30       10463.43
      -5309.768      -7965.605      -5065.309      -3987.242      -8458.326
       4249.201       14362.90      -130.2812      -9814.229      -383.6504
      -3641.406      -12950.25       8873.293       16068.57       1245.527
       5874.776       5145.266      -11899.71      -12849.42       4681.527
       10353.77      -2666.410      -12419.14      -8861.237       1532.664
       7712.714       3695.282       1154.996       10594.87      -1421.609
      -19696.07       4811.125       8884.617      -19600.40      -5203.430
       22698.96       4524.836      -18281.26      -3592.545       11123.42
       1432.469      -3498.848       6913.909       5352.771      -2237.963
       3458.113       5019.767      -544.0840      -5652.579      -1357.211
       10312.48      -5003.135      -14485.13       6897.168       32.78711
      -12955.60       7472.244       8420.580      -3318.679       112.8889
      -653.5947      -284.2969      -3982.299      -3765.373       3788.157
       933.4814       5342.374       5483.453      -15995.07      -18336.68
       9226.625       15471.91      -11994.79      -9850.607       17484.02
       6090.917      -11274.13       2946.971       12913.74       2750.771
      -11063.09      -9122.088       6243.471       8353.734      -12.05811
      -3387.071      -647.3682      -2157.135      -9385.486       2275.188
       16743.97       76.68945      -10193.78       9701.741       10201.87
      -16723.17      -18249.38       8620.454       8388.789      -12783.27
      -1575.398       14793.69      -1222.452      -10577.54       5192.550
       2897.924      -9538.396       5393.880       12362.23      -9738.821
      -8016.650       14196.36       3878.620      -9062.344       1375.880
       4766.819      -5510.432      -9143.505       2441.681       5670.900
      -6129.437       145.9502       9128.617      -5881.219      -12517.70
       3157.687       2472.264      -4466.941       11511.13       3559.435
      -6173.449       4562.340      -4778.898      -12.88672       13839.66
      -1824.102      -10201.84       5361.827       2899.441      -18816.73
       1142.039       33115.75       7160.820      -28727.37      -7925.240
       21319.52      -9655.113      -23099.10       17732.48       19571.81
      -13418.18      -10357.53       10792.28      -4043.969      -22167.06
       7121.617       22033.81      -11105.99      -12437.96       16036.82
       9684.335      -7639.340      -2885.754       3225.235      -804.1694
      -4253.400       1760.974       6067.136      -3908.086      -2322.410
       10916.05       528.1133      -9492.495       1030.396       390.2188
      -5941.056       7010.319       6745.853      -10587.19       3250.892
       9011.209      -13631.86      -3537.944       8758.020      -4001.848
       1886.817       9544.297      -5376.414      -5720.464       8320.168
      -1688.004      -13715.01       4038.059       21261.69      -1792.992
      -21849.22       4602.137       14820.52      -7836.747      -6725.290
       7918.880       4050.897      -2070.588       9878.211       1351.266
      -19424.32       5474.367       22291.41      -10241.02      -18183.44
       9117.229       5392.729      -5515.018       6804.205       11650.27
      -709.0859      -15395.46      -7229.260       9660.848       3088.779
      -8051.472      -328.6719       6828.842       6989.349       4454.766
      -8252.401      -6982.334       13466.77       8617.305      -17437.10
      -11839.92       16907.87       5180.393      -16545.68       14033.45
       23552.41      -13408.05      -14216.82       11093.63       6981.285
      -6205.599      -2796.345       5038.502      -1651.112      -8725.924
       8289.596       13893.13      -2448.061      -3949.566       5779.628
      -1800.903      -12099.84       10358.73       18382.02      -6.195312
       13410.38       25475.69       23792.14       20753.11      -272.0898
      -9540.871      -3048.062      -28543.62      -75801.73      -46576.17
       27745.70      -1342.930      -45529.83       32788.33       64863.22
      -22352.86      -70337.59      -91027.52      -77082.14       54474.83
       111206.5      -64935.06      -153983.8       73035.28       171631.6
      -81890.19      -198903.5      -21382.70       82646.80       55048.66
       62146.74       64582.66      -13293.61      -94045.20      -37992.16
       60001.33       61628.36       39881.64       16891.96      -14482.66
       1896.758       28810.64      -7145.416      -20801.80       31561.97
       46398.27       53979.43       43923.52      -68425.58      -119592.5
      -12896.06       5121.625      -122629.4      -78273.12       123706.5
       136970.9       10781.31      -3807.980       3240.406      -44805.66
      -28991.80       928.0723      -10755.66       31936.20       71317.75
      -140.3594      -5355.266       79047.73       24677.19      -91648.70
      -48512.28       67178.86       25750.20      -77107.55      -56309.92
      -17952.07      -49039.79      -17631.50       70702.80       3341.594
      -89664.98       25339.44       117692.9       25361.29      -5233.266
       64289.94      -28614.12      -180824.9      -48194.34       178468.2
       117967.7      -60284.25      -63149.26       17740.38       1682.984
      -6281.836       45663.32       13359.28      -57677.66      -74568.82
      -30264.45       38735.80       66673.42       26595.37      -32014.57
      -22990.23       30019.65       44743.20       33114.01       19196.49
      -29055.22      -45374.78      -37439.97      -74232.34      -25287.16
       73294.70       14113.78      -81437.11       5423.703       102958.9
       18440.80      -31941.31       39444.62       39451.65      -15828.73
      -31546.83      -23905.40      -28041.38      -21472.95       30585.50
       65494.52       20620.52      -57340.81      -67713.10      -28049.25
       15344.78       48632.81       1097.219      -42035.34       18550.77
       55164.67       30135.80       18811.99       6655.172      -21581.59
      -29210.00       18721.22       23461.39      -45943.74      -47861.38
       5433.930       30080.26       28868.20      -14808.64      -58500.21
      -18308.05       56438.59       77395.97       17081.88      -76133.59
      -101044.6      -32617.01       27614.61       16248.21      -29014.70
      -37525.89       66506.34       129551.2       25374.69      -40142.65
      -15644.25      -20205.38      -23780.20      -24085.50      -23034.24
       9192.406       314.4141      -48599.54      -10347.42       81302.73
       55833.09      -29471.29      -15228.69       27128.12      -9426.195
      -45339.27       11317.05       46506.40      -36082.33      -57165.22
       37324.44       49029.92      -19996.10      -1967.461       50974.51
       12268.34      -31134.80      -28088.37      -30707.22      -35637.33
      -39474.76      -20040.16       22298.64       37273.97       52515.75
       54126.77       26053.05       44128.25       39479.03      -36880.77
      -67731.61      -41225.45      -20758.37      -10351.12      -330.1016
       18496.40       30266.15      -365.1328      -44354.24      -16015.22
       52417.68       56678.02       9448.859      -25068.77      -32678.09
      -11398.50       8673.570      -19030.89      -36724.77       359.7891
       30084.23       11135.29      -10766.01       4263.105      -3783.562
      -41206.95      -15676.56       51908.30       68598.24       22902.17
      -4969.234       16347.94       2347.750      -48457.20      -43591.88
       8400.662       18337.85      -12949.31      -11229.88       18961.46
      -845.5000      -27745.48       14337.34       40849.24       5905.664
      -22244.82      -10954.44      -7514.551      -19412.71      -1009.590
       6908.984       7191.203       54490.80       55492.42      -41678.84
      -87779.42      -23241.22       23893.70      -301.9414      -14983.09
       15632.28       21974.89      -15596.09      -18937.26       27383.93
       39180.62       14888.77       18294.34       11321.11      -24702.81
      -29584.82       127.7080       7862.277      -7590.577      -4858.120
       6134.473      -5593.896      -19490.40       7485.742       30289.95
       20357.92       7109.219      -23870.46      -41566.46      -4357.867
       31559.49       440.0938      -35927.60      -13552.18      -3275.027
      -21233.95       3433.988       20508.71      -16116.37      -228.4609
       47041.80       17417.96      -22444.54       2206.559       17837.05
      -12871.85       1.171875       17091.80      -27824.55      -23085.54
       16673.11      -17008.44      -49416.30      -1761.859       32041.88
      -7399.793      -2154.062       49845.20       18293.70      -15301.38
       20818.12       10637.80      -37363.09      -25610.00       9423.576
      -8538.719      -6341.578       55011.13       32093.05      -44642.44
      -20636.81       9415.359      -34690.02      -24865.25       41476.64
       52326.57       15850.59      -11001.80      -22578.12      -33454.84
      -16552.45       12370.33      -3869.506      -19587.49       9656.203
       36810.79       6200.406      -25141.01       14636.84       26603.17
      -28311.05      -23624.14       19893.07      -4070.955      -18530.45
       28215.09       37030.13      -16293.30      -18555.28       39706.61
       6596.367      -59126.43      -11833.42       21037.50      -21084.91
      -12165.23       45188.29       50114.84       14371.01      -3670.252
      -9549.604       727.0195       12871.54       5335.990      -6399.445
      -11696.27      -15576.79      -13204.17       3403.447      -2877.609
      -24257.79       4548.953       40264.60       10557.67      -7919.102
