     0.02500000      -162678.5       191379.3      -12345.00      -12345.00
      -29.99497       228.9800      -28.37000      -12345.00      -12345.00
       0.000000       21.40000      -12345.00      -12345.00      -12345.00
      -12345.00      -12345.00      -12345.00      -12345.00      -12345.00
      -12345.00      -12345.00      -12345.00      -12345.00      -12345.00
      -12345.00      -12345.00      -12345.00      -12345.00      -12345.00
      -12345.00      -31.06740      -67.28460       921.0000       0.000000
      -31.23600      -65.83800       0.000000       167100.0       0.000000
      -12345.00      -12345.00      -12345.00      -12345.00      -12345.00
      -12345.00      -12345.00      -12345.00      -12345.00      -12345.00
       139.1978       277.3448       98.08951       1.251546      -12345.00
      -12345.00     -0.1312814       0.000000       90.00000      -12345.00
      -12345.00      -12345.00      -12345.00      -12345.00      -12345.00
      -12345.00      -12345.00      -12345.00      -12345.00      -12345.00
      2008       318        11        12        58
       770         6    -12345    -12345     10360
    -12345    -12345    -12345    -12345    -12345
         1         7        13    -12345    -12345
    -12345    -12345    -12345    -12345    -12345
    -12345    -12345    -12345    -12345    -12345
    -12345    -12345    -12345    -12345    -12345
         1         1         1         1         1
CHUC    -12345          
        -12345  -12345  
-12345  -12345  -12345  
-12345  -12345  -12345  
-12345  -12345  -12345  
-12345  -12345  -12345  
-12345  -12345  BHN     
ZL      -12345  -12345  
[...]
      -6976.578      -8320.742      -10655.92      -12765.91      -1752.984
       22048.21       26869.83      -20105.97      -26824.35       33563.30
       31325.81      -16009.78      -30919.12      -10463.54       25408.81
       2556.711      -40198.64       4856.609       37299.51      -7946.133
      -24666.33      -5073.254       10245.77       13051.49       3652.570
      -5606.611      -9703.409      -9038.076       3539.441       17721.97
      -1871.320      -17353.92       5125.098       15785.74      -4946.589
      -10259.37       9936.682       2486.928      -15631.05       970.4160
       9037.114      -1582.629       7990.916      -1410.820      -31190.84
      -8264.203       36671.71       19030.83      -22391.09      -6091.887
       16650.18      -2191.398      -13453.90      -8726.334       3386.502
       16338.47      -4640.414      -16033.38       12248.54       2129.359
      -29420.26       4187.332       34433.15      -14760.82      -29093.12
       28050.24       27927.60      -16453.55      -20966.32       2503.652
       11485.32      -8095.551      -11799.70       4640.686      -3998.114
      -11374.21       9797.285       16042.96       1411.057      -1709.952
       3763.247       2259.578      -2840.336      -2215.608      -2457.871
      -6768.983       388.7500       12299.35      -7559.238      -20848.01
       4070.145       18185.04       4887.209      -10212.75       5237.350
       19514.70      -12413.62      -26978.30       12623.32       21468.46
      -16734.41      -13637.59       19864.21       4410.812      -17055.78
       5849.816       16791.23      -8671.883      -20629.09       6735.100
       16175.37      -11500.40      -10091.16       12714.35       9425.680
       4740.482       9908.071       160.6289      -17597.14      -10517.11
       6810.436      -4753.935      -8518.373       5739.973      -4861.501
      -2510.166       13149.90       2922.052      -1644.093       3286.038
       5239.817      -1595.100      -9065.259       4769.247       3238.363
      -15415.38       7742.375       24718.24      -7924.593      -8193.119
       10172.52       366.1543      -8081.172      -12154.70       1574.195
       23187.20       3203.551      -22220.13      -5895.305       5662.754
      -2599.027      -1813.947       11139.94       8996.418      -10445.48
      -12201.26       4265.918       10411.39      -283.4819      -1620.616
      -74.01855      -4759.170       1709.479       9160.329       4156.790
      -6938.876      -1129.160       10023.72      -5446.982      -6725.167
       10529.24       2035.480      -10463.47      -4592.527       16145.79
       16566.78      -16937.22      -5199.477       18646.38      -15013.81
      -16980.45       14750.13       8893.787      -8244.162      -6591.034
      -2068.441       4887.944       2351.052      -5381.639       7293.950
       7605.919      -6651.260      -7887.944      -1404.206       5586.829
       272.5244      -6615.585       2317.882       616.5039       2248.028
       7512.158      -5531.866       763.5132       2220.526      -11268.54
       7839.953       16962.66      -6343.078      -10605.17       2169.468
       4877.540       1396.015      -2237.225       5523.734       6410.359
      -9593.602      -4270.939       4121.568       2321.709       7293.889
       5974.807       1586.840      -6859.430      -15624.59       4026.767
       12692.30      -15348.18      -13197.72       13933.80       7873.964
      -6156.092       5143.988       12776.85      -2235.758      -14464.20
      -10800.38      -4830.717       884.3281       15468.37       9620.455
      -13647.30       4590.928       16233.79      -15609.75      -12822.13
       9675.675      -2858.159      -7865.255       7385.887       3980.416
      -3915.154      -1176.281       4818.881       13513.58       2911.443
      -8377.455      -1054.617      -737.5078       7315.933       8067.059
      -20222.90      -11966.77       21307.24       6452.566      -17873.69
      -9727.452       7741.354       6689.301      -11599.23      -7311.186
       12740.51       406.8037      -8913.660       8663.211       5685.803
      -1893.559      -3005.712      -1980.535       12214.67      -5648.840
      -20398.90       9671.277       14729.24      -8741.330      -11560.81
       6973.056       7777.590      -15443.89      -11859.32       9865.475
       8882.361      -319.4961      -4913.434      -5372.640       5870.667
       7543.350       946.6475       5722.093      -1978.576      -9510.664
       7690.052       6128.215      -7345.083       4365.185      -412.7188
      -15294.42      -654.4863       6130.887      -1961.822      -5151.042
       2012.111       13218.56       932.3594      -10380.40      -1334.998
      -2159.875      -8402.676       2157.500       12563.56      -2964.887
      -18768.05       845.4727       23657.19       797.1621      -16997.51
       4962.531       11608.38      -4624.203      -17477.72      -7443.057
       8031.145      -2900.703      -12074.15       6344.023       19336.26
       4989.502      -5048.941      -4908.779      -369.6348      -1310.395
      -16550.24      -849.7383       20087.40      -9131.402      -10019.87
       20791.08       4661.726      -10892.27       2739.670       1730.145
      -9919.247      -1795.545       6510.937      -565.6104      -1630.014
      -9547.321      -7994.945       16795.25       17075.64      -15095.78
      -24937.50       9953.613       27790.20      -8852.117      -14459.63
       13746.95      -1695.532      -968.6680       10982.72      -10491.57
      -10630.41      -1633.619       3333.985       4121.531      -14476.89
      -2935.770       24373.99      -804.9238      -15873.00       11183.97
      -4935.502      -9211.020       27150.89      -4959.297      -30975.53
       12261.53       19585.17      -6935.534      -3556.726       7916.121
      -6324.198      -9735.143       13205.46       3548.430      -19586.94
       403.7930       19006.79      -1826.777      -19035.16      -29.16016
       19916.62      -5.988281      -14177.38       10181.21       9365.706
      -10120.37       9318.405       4662.750      -21608.66      -3184.043
       12466.71      -6457.842      -12237.85       7330.285       21835.94
       7344.701      -12359.98       7056.414       3214.195      -23409.71
      -288.7178       1622.611      -17776.26       5252.480       21063.40
       6911.382      -8652.602       10339.48       22416.98      -15651.22
      -22264.54      -1716.504       10169.70       15137.43      -15491.38
      -8070.320       33393.21       1360.719      -21194.12       2112.990
       7313.593       6911.637      -9499.349      -13744.30       13277.38
       9947.675      -5134.029       74.50586      -11114.41      -8630.416
       10944.02      -5492.766      -3540.539       27082.97       9224.869
      -16390.87      -3094.636       6854.646      -3821.727      -16002.23
       3951.917       13067.29      -10814.54       2199.363       13733.64
      -8356.583      -4318.586       5860.898       2819.144       2635.614
      -4499.214      -6966.260       3180.268      -480.9209      -5968.399
      -4286.846      -6426.082       7843.785       15950.24       3361.914
      -9206.656      -19903.04      -1333.047       29349.59       7626.070
      -29512.51      -6726.180       23687.02       4525.316      -9499.076
      -3906.609      -6066.468      -477.8110       2423.061       2845.592
       12194.76       2703.188      -15764.99      -5620.596       6165.127
       3998.137       3908.659       954.8359      -4582.632      -5879.443
       4330.644       465.0059      -14530.39       3016.049       16340.38
      -4105.617      -15976.58      -4071.590       12646.65       11812.76
      -12163.46      -13693.75       14327.99       11831.72      -21333.45
      -6306.719       31674.06       2639.367      -25458.83       4037.250
       12878.80      -10497.29      -12043.65       3402.559       5955.961
       11899.62       11401.63      -8796.116      -7775.732       663.6367
      -8764.685      -5688.240       4666.583       2203.001       2155.518
       2863.227      -5396.323      -542.2812       9317.043      -4234.694
      -7201.361       9708.855       148.1523      -15624.90      -8108.174
       8210.150       7426.703      -8488.328      -1422.486       10483.94
       3274.455       9826.732       9496.184      -12906.77      -15651.12
       7626.773       17859.42       420.1328      -13393.04      -4201.539
       11158.92       9801.039      -10594.71      -12743.71       517.2173
      -161.5293       7552.628       5508.238      -5727.808       4265.799
       2327.518      -8055.715      -1015.213       13677.08       4876.426
      -21364.33      -10229.25       23913.45       12265.09      -16945.93
      -5931.746       10923.04       2144.438      -5153.568      -7342.494
       3372.871       20199.39      -2176.812      -9471.434       14434.53
      -251.9746      -12322.07       4125.289       14039.53      -469.5742
      -23502.46      -10278.65       12825.01      -884.3730      -8223.423
       5527.885       5821.100       6481.248       8825.824      -4217.926
      -9495.351      -1600.203      -2474.561       3821.887       17658.67
      -2459.293      -22302.77      -2324.254       15820.41       4726.393
      -7457.146       1228.811       978.9644      -5217.359       8215.309
       11524.74      -1023.995      -3143.207       5348.076       7091.586
      -3441.375      -25416.31      -21271.31       12821.63       20900.76
       1440.788      -5296.855       8505.195       19609.94       4970.387
      -20197.36      -18590.36       4293.470       5883.252      -7611.777
      -2188.312       5352.768       1851.659      -274.8594       4949.391
       14470.74       6912.086      -7409.254      -11446.49      -10203.45
      -2895.308       1612.300      -3023.879       4553.582       13793.61
      -5647.035      -13372.44       8847.788       10355.71      -7692.416
      -12952.78       2841.664       11860.31      -5401.348      -16933.12
       2838.414       18165.90      -1861.286      -10203.23       12168.25
       6373.990      -4125.782       1370.416      -6916.353      -1238.312
       7370.596      -6920.452      -4038.512       9885.832      -5539.529
      -13269.17       11071.46       15964.64      -3463.748      -10128.48
      -5124.449       1801.656       5345.164       7675.022       5075.750
      -11108.54      -4709.919       6693.086      -10114.36      -5862.516
       14582.20       6593.188      -9288.086      -5496.527       12210.80
       6340.297      -15457.42      -10481.50       11671.83       4641.314
      -16125.57       1205.412       18137.03      -8657.483      -7899.279
       17185.71      -7853.887      -15526.25       12167.58       749.4297
      -595.4844       12584.87      -10197.70      -14288.48       12640.11
       4421.574      -27545.83      -9388.496       23765.20       1287.877
      -15509.24       4462.453       11594.23      -3846.884      -5994.057
       12450.36       11622.40      -7444.667      -5691.469       7148.775
      -2309.188      -13487.73       8077.922       19935.34      -7486.762
      -21229.89       1964.790       9903.391      -4020.817      -2177.820
      -1243.669      -7285.443       8075.121       15123.48      -3635.238
      -7763.220       3359.361      -2958.830      -11565.25       525.7383
       8683.643      -8411.130      -9493.822       9779.865       1554.418
      -13185.55       3429.908       12451.68      -2278.838       42.24731
       1817.741      -6525.674       4690.918       16449.73       4542.348
      -19626.69      -17256.38      -330.2192       1190.394       2190.753
       6687.719      -657.6172       10992.86       17610.73      -12069.97
      -11238.71       8531.312      -21.80078      -14614.74      -12641.46
       9135.404       11184.53      -7869.543       8509.965       22571.67
      -9510.238      -21473.26       994.2847       4122.154      -11529.22
      -5408.162       13718.99      -62.57812      -28777.90      -17492.57
       11763.25       14638.55      -10356.30      -44393.75      -80870.56
      -108116.3      -89341.44      -55504.78      -64277.31      -77759.17
      -50463.43       9798.807       21620.51      -18866.67       22229.28
       96472.84       81263.84       32357.38      -2861.102       5857.000
       89862.44       138365.1       70238.81       35890.97       78111.09
       55776.22      -15525.30      -72578.47      -94812.61      -16472.19
       77198.12       75745.88       57661.22       47986.98      -22879.56
      -94383.75      -31979.12       131701.0       191379.3       33066.69
      -157629.1      -138972.6      -20160.85      -20274.41      -77211.52
      -63245.56      -32355.89      -56862.53      -90830.97      -28595.44
       123710.8       188603.7       67854.27      -60598.32      -42551.21
       49017.78       48040.70      -80426.06      -136691.0      -48095.84
       65471.34       109087.2       56532.97       53182.48       110402.3
       20207.78      -162678.5      -151898.3       48857.94       128346.2
       18850.56      -47905.14       18191.27       91169.29       28638.06
      -110916.4      -136577.7      -59079.81      -32725.44      -35079.25
       36768.06       102061.5       28483.23      -58356.82       15468.00
       121103.6       68076.78      -48685.55      -24861.64       76893.96
       34894.11      -67124.86      -55082.98      -35989.28      -30663.64
       28095.19       31794.77       7071.438       87874.05       102411.0
      -57665.16      -120935.4      -30773.69       14083.95      -1286.021
      -82.70312       15482.74       25752.66       23327.66       16148.44
      -9807.594      -55299.27      -60859.37      -28390.16      -10809.61
      -26614.70      -42541.52      -37400.21      -24391.44       22073.56
       72432.59       108887.3       116321.4       26471.16      -49198.88
      -51796.52      -59107.42      -17647.81       23533.88       14455.00
       33953.25       57586.64       26168.86      -35750.00      -58891.43
      -18861.70      -8550.574      -26720.17      -282.1914       19271.50
       2698.465      -20160.56      -25273.03      -19212.38       6234.805
       37329.98       30094.12       29359.26       45084.44       32004.00
      -40079.41      -108866.2      -78445.64      -64.71094       40555.15
       26980.42       24829.45       63449.09       55349.38      -9256.469
      -38358.15      -12721.64      -11176.80      -28271.05       3485.781
       22005.76      -16314.62      -28270.56      -18895.18       1968.234
       55209.11       58218.95       9319.820      -19337.89      -21270.16
       1782.820      -425.8594      -44495.42      -67398.98      -46795.94
      -6434.586       29077.38       35066.61       17306.68       10358.83
       8166.957       5074.371       15530.12       1048.898      -32948.38
      -15283.27       19805.69      -1926.332      -23545.59       26076.28
       62861.08       10390.99      -14837.24       39945.45       40185.91
      -32228.67      -62534.99      -37134.26      -18517.12      -18788.78
      -2301.770       16115.30       14608.75       29604.14       53071.49
       94.67188      -78288.70      -45878.63       18111.50      -21147.58
      -52332.17       10702.65       31031.26      -20955.60      -9018.094
       58079.84       71959.74       26155.23      -6053.261       6879.432
       1812.047      -25461.37      -29371.21      -28370.57      -11069.52
       13407.38      -13913.38      -42110.69      -4856.320       39100.66
       20625.05      -1237.875       24306.95       19997.65      -27476.22
      -63054.91      -52992.96      -22249.91      -11350.61      -3994.297
       16329.31       30264.28       18055.58       4158.328       9727.823
       7125.766       1674.016       14831.81       34693.21       34339.83
      -15382.46      -54543.07      -15132.63       8662.936      -8742.398
       19198.43       36576.69       10908.82       11121.89       36697.32
       39267.72      -15907.91      -43458.48       12494.99       42343.88
       19312.63      -6055.477      -36618.22      -48999.80      -46757.32
      -48790.84      -30978.68      -16244.71      -9907.344       23499.57
       38885.16       26585.03       15513.55      -5545.361      -10321.53
       258.7227      -10305.74      -13406.88       27498.09       47196.03
       2001.371      -23519.55      -3133.110       7603.811      -8523.650
       644.4219       36164.42       18387.60      -883.3594       44584.18
       51349.03      -10645.01      -43011.72      -27998.70      -5521.008
      -4463.078      -31821.92      -42469.70      -19575.70       16690.48
       23975.62      -17231.00      -22239.60       15563.07       7697.523
      -15626.63      -3951.564      -1722.660      -28484.09      -7195.578
       56195.16       63131.45       21373.34      -16878.62      -31792.25
      -24191.75      -12824.62       9514.266       15382.69      -4706.836
      -6856.410      -10852.36      -23227.56      -17467.95      -3028.375
       11909.56       9987.418       5177.453       22647.93       22255.01
      -9388.861      -15619.99       2080.086      -5802.164      -20366.24
      -4574.047       4425.500      -15311.96      -12223.86       15011.62
       24946.26       31329.26       28033.54      -3472.287      -8338.414
       34452.46       33711.12      -7308.156       8198.754       27196.37
      -5431.359      -13259.42       6368.664       13949.16       18077.91
       1408.734      -23158.09      -34426.70      -48114.26      -20239.43
       31172.53       22834.83      -13437.75      -15867.35      -9215.945
      -25389.44      -27801.36       9487.602       33828.70       27256.61
       33308.76       32416.42       8131.289      -12245.96      -33894.08
      -23928.20       7307.945      -21786.49      -45831.82      -446.4922
       17734.88      -1407.698       1176.188       13495.17       20052.78
       27139.28       15153.73      -27638.60      -20467.09       37521.75
