     0.02500000      -56476.33       68996.14      -12345.00      -12345.00
      -29.99999       244.4500      -43.60000      -12345.00      -12345.00
       0.000000       32.56001      -12345.00      -12345.00      -12345.00
      -12345.00      -12345.00      -12345.00      -12345.00      -12345.00
      -12345.00      -12345.00      -12345.00      -12345.00      -12345.00
      -12345.00      -12345.00      -12345.00      -12345.00      -12345.00
      -12345.00      -30.14410      -68.57390       1095.000       0.000000
      -31.23600      -65.83800       0.000000       167100.0       0.000000
      -12345.00      -12345.00      -12345.00      -12345.00      -12345.00
      -12345.00      -12345.00      -12345.00      -12345.00      -12345.00
       288.7206       294.0881       115.4778       2.595864      -12345.00
      -12345.00     0.05796369       0.000000       90.00000      -12345.00
      -12345.00      -12345.00      -12345.00      -12345.00      -12345.00
      -12345.00      -12345.00      -12345.00      -12345.00      -12345.00
      2008       318        11        13        14
         0         6    -12345    -12345     10979
    -12345    -12345    -12345    -12345    -12345
         1         7        13    -12345    -12345
    -12345    -12345    -12345    -12345    -12345
    -12345    -12345    -12345    -12345    -12345
    -12345    -12345    -12345    -12345    -12345
         1         1         1         1         1
CIGA    -12345          
        -12345  -12345  
-12345  -12345  -12345  
-12345  -12345  -12345  
-12345  -12345  -12345  
-12345  -12345  -12345  
-12345  -12345  BHN     
ZL      -12345  -12345  
[...]
      -3290.096      -4139.458      -3170.006      -2068.709      -1690.984
      -539.5376       886.9865       545.7363       267.9863       1687.020
       2756.669       2490.742       1647.112       237.9385      -1894.950
      -3443.276      -2607.081      -94.68274       651.6113      -1066.843
      -1928.275      -1164.960      -263.8829       384.2527       55.67480
      -1469.476      -2995.811      -2753.798      -1690.988      -1763.263
      -1949.910      -1731.370      -1223.075       524.8398       2259.134
       2269.992       1070.060      -114.6313      -568.2754      -567.2451
      -1470.168      -2891.330      -3201.524      -2007.430       98.95898
       2044.544       2474.374       1430.204       1043.112       1237.911
      -326.0625      -2732.355      -3321.509      -1731.907       118.2546
       794.0322      -126.3491      -1449.301      -1864.756      -2083.702
      -1452.574       519.2307       816.6724      -1078.763      -1393.533
       222.5330       210.6172      -1759.333      -3051.894      -2055.155
      -23.37915       1007.260       402.4658      -1396.399      -2653.222
      -2140.598      -694.4795       1307.668       2663.589       1579.054
      -878.6899      -1874.154      -1151.322      -104.5400       952.2295
       2048.212       2414.718       2362.294       2576.088       2269.273
       1078.538      -298.0020      -1647.446      -1558.992       633.6626
       2686.787       2356.279       196.6924      -1435.714      -1643.205
      -1262.672      -666.1025      -858.2808      -1606.422      -903.8214
       109.9417      -685.3228      -1547.663      -812.2087       488.6567
       221.0430      -801.4475      -643.9363      -46.27148      -340.0270
      -572.2017       586.9248       2935.001       4317.500       2777.245
      -169.6030      -1679.198      -1764.508      -1374.363      -958.5215
      -834.4873      -1320.987      -954.2295       1036.455       2787.234
       3535.699       3850.879       3723.511       3823.011       3592.950
       1810.992      -517.2906      -1000.002       267.0217       1083.728
       397.9453      -1075.607      -2827.202      -3015.923      -1346.501
      -335.6557      -152.5815       476.3955       1662.845       2892.948
       2429.777       1246.257       516.0129      -684.6531      -1019.863
       777.9980       2789.206       2486.662      -358.5840      -2196.400
      -1185.519       165.9386       93.26440       61.38989       716.2739
       992.0840       258.9679      -62.22852       224.6254      -30.43188
       133.7080       1693.746       3070.205       2841.083       1373.984
       674.7747       753.6470      -204.9043      -1608.579      -1457.397
       67.51587       1195.996       472.8286      -733.7228      -841.5574
      -181.7158       1003.865       2258.119       2204.674       1213.664
       91.47839       215.6875       1434.223       1443.476       977.5200
       1514.924       2423.877       3025.149       1919.188       343.2089
      -319.7944      -1231.636      -2073.789      -1324.193       485.4758
       1326.792      -39.03467      -1256.433      -1065.835      -752.7194
      -414.8652      -149.8752      -852.0186      -1630.087      -1046.700
       607.6504       1614.215       1251.702      -477.2783      -2188.454
      -2600.157      -1247.820       455.9871       947.5430       933.4387
       836.3904       324.6040       107.5297      -290.8662      -1245.908
      -2418.765      -2506.669      -615.8433       1872.525       2479.007
       1074.160      -602.8889      -654.6143       950.9551       2369.873
       2155.651       981.2296       21.99512      -526.2983      -1197.775
      -1778.917      -2167.656      -1496.211      -596.8353      -168.0825
       272.2805       280.0154      -243.4487      -389.0393      -542.9655
      -749.9438       208.4678       1826.249       2011.547       1223.248
       571.0693      -375.3496      -1675.220      -1729.339      -1252.333
      -1461.153      -1732.647      -858.9265       335.3990       371.0828
      -276.3262      -990.9492      -1785.067      -1124.394       855.3945
       2194.632       1891.245       841.2188      -651.4199      -1382.374
      -325.1156       754.3287       358.0137      -653.1655      -1332.227
      -1123.336      -300.4093       100.8589      -1010.696      -1864.715
      -953.4292       493.2390       1209.965       624.7864      -898.4807
      -1021.235       3.478546       431.5818      -414.5869      -1635.140
      -1579.043      -14.78821       907.5349       9.958984      -1176.545
      -1425.528      -2072.034      -2585.163      -1870.067      -1185.779
      -1704.725      -1843.713      -355.7317       1332.935       362.9023
      -2237.360      -2524.998      -607.3207       309.4527       239.1387
      -164.5778      -344.6995      -162.1981      -103.2208      -3.793701
       533.9951       1305.221       2246.811       2385.450       1019.551
      -1024.937      -2175.579      -2044.299      -1699.091      -2081.816
      -1545.318      -4.663818       813.1842       430.1582      -396.1040
      -882.5707      -622.3210      -217.1355      -624.0649      -2212.785
      -2508.513      -1338.621      -1111.165      -1086.590       159.1104
       1161.137       973.4180      -757.5244      -2903.899      -2528.626
       326.8076       2081.514       1504.456       363.7734       859.7627
       2306.527       2716.001       1352.247       214.4200       470.3279
       303.5508      -1860.084      -4677.790      -5863.802      -3638.653
       271.5801       2446.887       2307.132       1358.641       147.8058
      -273.1743       267.5649       887.3177       622.3643      -480.5635
      -1705.468      -1848.135      -219.8447       1423.790       1498.643
       1012.290      -600.0527      -1855.301      -1127.749       250.3894
       880.0785      -56.02344      -1721.425      -1270.215       292.6744
       426.3016      -411.0527       19.61377       1310.128       1932.115
       2255.637       2099.796       74.20117      -2753.670      -4275.583
      -3310.997      -739.0439       2088.493       3428.077       2578.001
       67.56201      -1913.396      -1464.668       447.5283       1141.844
       1523.115       3051.213       4283.949       3670.090       1346.840
      -831.9189      -1073.800      -821.1157      -1031.762      -916.3638
       749.5664       2914.002       4146.479       4230.949       2806.798
       5.120117      -1804.391      -2275.760      -2343.355      -1847.764
      -628.8082       22.45544      -154.1836       824.3730       2197.272
       1469.219       822.7861       1522.039       2162.520       1674.813
       1192.333       1285.010       830.8003       412.3359       2021.877
       3654.259       3168.472       1465.818       196.8117       122.5469
       216.3110      -1310.018      -3673.788      -5139.455      -3810.784
      -327.6650       2834.785       3766.006       3345.145       2692.625
       1299.906       106.3394       674.5007       1068.397       996.5806
       1779.625       2086.985       1103.118       566.0232       742.6689
       527.2192      -807.5513      -1895.859      -1608.853       899.2598
       3937.422       4430.909       2436.814       312.9800      -951.9492
      -1502.819      -1194.444      -383.7097      -487.0282      -805.2612
      -162.6704       1507.409       1832.806       611.2153       585.6475
       1184.006       560.6250      -173.5317      -987.5987      -821.0771
       854.2808       1677.746       1133.613       488.9407      -529.6340
      -846.2354       654.4102       2289.977       2042.342       1070.902
       1633.471       3709.018       4242.984       3062.899       1351.760
      -238.1030      -991.2109      -1158.441      -972.5139       322.2856
       1384.076       588.6970      -590.2151      -480.5195      -660.9062
      -1245.608      -1724.221      -3129.145      -4501.901      -2814.885
       1023.598       2826.003       1532.878       449.5436       216.8104
       291.3008       1414.571       2678.719       1544.854      -1830.320
      -3745.117      -2604.864      -2088.590      -2876.592      -2523.887
      -212.9380       1869.932       1532.568       135.2880       77.37061
       724.2119       1096.033       893.8856       447.3580       118.1163
       148.9492       1029.933       2518.877       1450.266      -2520.922
      -5725.998      -5257.757      -2289.016       33.45270       233.1838
      -981.4727      -1573.273      -162.8477       784.7080      -714.6133
      -3075.917      -2480.291       1024.920       3559.144       3198.286
       1334.929       247.8213       1151.750       1784.479       885.0754
      -162.2046      -596.0398      -850.9575      -1436.030      -2643.797
      -2953.098      -1642.430       517.7612       1599.466       239.2202
      -1627.613      -1893.745      -2554.318      -3691.240      -3201.847
      -1764.594      -1227.668      -967.6755       329.2764       2420.658
       2342.163      -858.3115      -4334.400      -4783.230      -1823.035
       1468.941       2874.832       3515.726       3354.357       2116.474
       441.2920      -1924.163      -4515.050      -4997.977      -3617.441
      -2042.598      -1446.082      -1432.463       77.69824       3196.698
       4600.726       2441.073      -1200.737      -3257.672      -3553.946
      -2147.872      -307.9221       666.7700       1352.578       1644.163
       729.2339      -980.2490      -2656.390      -3538.283      -3723.511
      -2998.836      -1884.376      -1123.557      -450.4692       738.7200
       1384.375       820.7361       507.1670       1454.283       1852.946
       1789.685       2370.771       1663.755      -1720.032      -4065.040
      -2572.483      -732.9467      -493.9037       257.0782       439.7241
      -188.4731      -831.2725      -2087.900      -3196.852      -2731.756
      -1616.403      -1073.757      -679.1807       60.32739      -191.9922
      -2307.152      -4601.784      -3647.810      -129.9424       1744.005
       1054.398       397.5889       985.2920       1689.801       1432.581
       1157.017       794.5381      -37.70703      -401.0166      -96.21729
      -334.4612      -514.6187      -462.9951      -1279.363      -2093.015
      -1411.925       596.9053       2875.381       3493.112       2096.951
       59.44727      -1232.377      -1217.682       102.6284       1079.124
       1031.595       624.6281      -143.4440      -487.9648       151.0837
       645.5947       1464.519       2290.150       1585.096       279.4479
       36.52209      -142.5571      -732.0991      -840.6478      -558.4822
       362.8525       2518.119       3915.599       3351.463       766.5078
      -2161.112      -1972.586       629.6023       1533.789       487.7285
       1.291504       1115.820       2507.710       2248.782       246.1724
      -1507.387      -3130.411      -3279.293       225.3369       4016.268
       3602.282       322.5869      -1245.330      -500.7513       309.3923
       776.8751       478.7166      -796.0156      -1750.614      -1141.570
      -324.9075      -378.4238      -878.2705      -1273.770      -747.1741
       772.0732       2322.762       2394.215       352.3418      -675.1162
       1078.072       3757.109       5610.490       5829.158       5113.246
       4778.543       4017.621       2041.229       268.6501       136.3398
       1582.135       3941.421       5255.983       3822.031       215.0352
      -2675.974      -2624.309      -351.4449       913.4160      -1543.590
      -6173.965      -8767.639      -8949.551      -9004.852      -8797.207
      -7513.727      -5833.248      -4479.064      -3466.119      -2250.068
       190.6133       3556.380       4900.597       2689.826      -2548.842
      -8884.238      -12354.05      -12513.79      -12354.49      -10856.86
      -6518.628      -1263.406       1607.168      -1735.281      -9862.266
      -14545.40      -10784.77      -858.1875       11619.48       22090.05
       25743.20       22242.77       13222.91       3902.113       2472.582
       10651.98       21343.52       24710.63       18725.68       10275.87
       2972.020      -4884.480      -10498.98      -7665.055       2832.887
       12592.26       14754.94       6526.289      -11156.51      -30699.77
      -36800.35      -18667.34       9355.273       23973.72       24918.88
       20552.71       7342.477      -14253.62      -31721.62      -35114.33
      -26002.78      -13610.58      -1045.180       12797.80       17948.27
       8493.666       774.5312       9828.547       34024.23       60822.62
       68996.14       47613.66       12818.45      -10514.76      -19515.73
      -29876.70      -41842.58      -41335.20      -30174.77      -21630.43
      -15295.52      -1923.336       16452.54       29191.83       34599.16
       36338.29       27311.37      -2053.359      -39824.98      -56476.33
      -44797.80      -28328.59      -18552.88      -7543.413       1731.565
       917.0481      -1633.172       3090.805       11002.13       13561.56
       6570.798      -1595.122      -1820.986      -4303.656      -19038.65
      -30525.35      -21090.10       5542.656       31775.77       35419.45
       10199.69      -21100.00      -27176.99      -1542.562       26387.85
       30029.93       15693.67      -1949.930      -14431.11      -22002.37
      -28969.62      -26864.14      -6897.523       24142.25       46677.38
       40826.41       15280.29       508.6719       4287.784       6725.428
      -885.2383      -8239.035      -8015.041      -2349.447       3054.605
       5696.918       6489.215       6560.588       5901.545       416.0664
      -10309.65      -17085.18      -14656.12      -10964.57      -12135.85
      -12932.00      -6148.727       7132.418       18279.00       18421.68
       8904.337       1759.556       3372.366       3410.906      -9942.438
      -31888.90      -41746.51      -27349.25      -4051.297       1002.230
      -13702.11      -19505.22      -1842.172       20417.62       28306.66
       23720.47       16193.00       10286.70       9674.029       11084.78
       2011.270      -15006.89      -19289.85      -4089.305       14369.43
       23110.16       26290.16       23778.69       9105.008      -11687.88
      -26411.33      -30203.38      -24496.98      -14362.16      -8228.898
      -9875.211      -12309.18      -8511.256       4394.719       22413.07
       33664.05       27525.03       4139.133      -21037.70      -29410.77
      -18840.02       292.5391       19971.09       38594.36       52828.44
       54265.38       37593.96       7514.477      -21657.55      -32901.89
      -24647.73      -15084.92      -14764.60      -14067.83      -6600.086
       3975.102       11915.58       11545.85      -1477.383      -23288.83
      -37752.82      -33457.43      -17704.33      -4029.239       1430.230
      -1147.242      -8202.422      -11874.08      -7933.202      -12.30859
       6665.584       10096.94       10171.02       8311.040       5066.669
       728.1147      -537.4062       6926.203       18763.68       22162.40
       13780.90       1295.764      -8086.381      -9478.046      -3053.812
       5560.529       10251.52       9985.645       7148.172       2631.589
      -2161.885      -3469.989      -3.074219       4282.605       6162.525
       5972.431       3519.446      -223.4341      -3179.635      -1471.172
       4446.629       7516.412       5971.425       1756.875      -4902.035
      -11513.11      -13873.51      -8304.415       1998.723       7434.711
       4469.011       120.3874       12.58838       302.3955      -3076.241
      -4712.860       670.0195       7898.670       8648.539       1524.324
      -7828.115      -11117.19      -10174.34      -14204.97      -20483.38
      -17260.89      -1740.660       13976.26       16873.49       10447.21
       4841.812       2863.928       2698.174       2643.083       2324.695
       3259.412       6908.000       10043.67       5533.691      -6854.293
      -18098.37      -19449.31      -11318.84      -3816.863      -4408.539
      -7519.434      -4674.738       3429.059       10794.31       14432.41
       15584.95       15206.30       10496.74      -591.2578      -15556.77
      -26852.64      -28888.71      -21845.01      -8836.973       3601.000
       11575.12       17263.88       20504.77       19330.29       15364.06
       11436.62       8014.154       5482.430       4704.921       3507.836
      -475.5703      -7172.305      -15367.42      -17332.00      -9598.768
      -4312.168      -9099.805      -14703.64      -13619.35      -10488.52
      -9605.520      -6633.926       2206.242       13596.61       21968.97
       23850.47       18022.52       7468.843      -164.4619       872.6211
       5650.371       6687.511       4527.510       1402.450      -2824.168
      -6602.807      -7380.281      -5553.654      -4702.520      -5012.434
      -1271.713       7933.492       14691.40       11039.69      -2016.977
      -15761.77      -22093.21      -19001.35      -10543.98      -2935.880
      -66.09265      -487.7349      -655.4666       60.24219      -1690.555
      -8939.113      -16325.46      -13950.50      -600.2539       14626.21
       22601.11       22550.07       18209.00       10927.89       1470.793
      -5587.201      -8812.484      -11299.16      -14206.36      -17817.09
      -21191.30      -19218.47      -8279.434       6847.750       17683.32
       21500.09       18928.61       11772.08       4041.238      -2248.881
      -8404.840      -12990.69      -11163.62      -4602.897       124.2656
       3946.115       9731.203       13128.20       8734.837       690.6719
      -107.9844       8918.039       18429.30       20913.49       15337.79
       4911.711      -4682.625      -11506.39      -15856.64      -15878.51
      -11088.03      -4419.261      -213.0275       483.5271       586.2151
       1186.705       989.3354       1480.380       2643.854       2450.390
       829.7508      -229.3345       848.7683       1710.650      -482.3379
      -5029.219      -10541.80      -14732.03      -16157.12      -15109.48
