     0.02500000      -32341.65       28628.85      -12345.00      -12345.00
      -29.99999       244.4500      -43.60000      -12345.00      -12345.00
       0.000000       32.56001      -12345.00      -12345.00      -12345.00
      -12345.00      -12345.00      -12345.00      -12345.00      -12345.00
      -12345.00      -12345.00      -12345.00      -12345.00      -12345.00
      -12345.00      -12345.00      -12345.00      -12345.00      -12345.00
      -12345.00      -30.14410      -68.57390       1095.000       0.000000
      -31.23600      -65.83800       0.000000       167100.0       0.000000
      -12345.00      -12345.00      -12345.00      -12345.00      -12345.00
      -12345.00      -12345.00      -12345.00      -12345.00      -12345.00
       288.7206       294.0881       115.4778       2.595864      -12345.00
      -12345.00     0.05669260       0.000000       0.000000      -12345.00
      -12345.00      -12345.00      -12345.00      -12345.00      -12345.00
      -12345.00      -12345.00      -12345.00      -12345.00      -12345.00
      2008       318        11        13        14
         0         6    -12345    -12345     10979
    -12345    -12345    -12345    -12345    -12345
         1         7        13    -12345    -12345
    -12345    -12345    -12345    -12345    -12345
    -12345    -12345    -12345    -12345    -12345
    -12345    -12345    -12345    -12345    -12345
         1         1         1         1         1
CIGA    -12345          
        -12345  -12345  
-12345  -12345  -12345  
-12345  -12345  -12345  
-12345  -12345  -12345  
-12345  -12345  -12345  
-12345  -12345  BHZ     
ZL      -12345  -12345  
[...]
       1383.805       1040.114       1974.650       4002.230       3627.242
       14.48633      -2482.944      -2294.313      -1749.228      -973.8840
       299.5630       46.86426      -994.0166      -940.4746      -390.5695
       250.1274       597.6548       1135.102       1796.457       1507.991
       1252.987       1468.090       1610.407       1516.583       1601.742
       1467.454       1073.666       799.7983       760.4031       683.6270
      -430.1816      -2142.478      -2447.572      -1448.796      -485.6707
       321.2021       1486.259       3019.029       3509.166       2030.865
       578.4751       318.0760       562.4908       264.2871      -20.67993
       545.0283       1306.939       1417.390       1591.518       1792.451
      -362.9062      -3377.007      -3527.443      -2318.344      -1408.259
      -817.9136      -896.7149      -566.9004       570.2056       1717.457
       2981.580       4073.850       4065.957       2426.342      -327.7329
      -2008.654      -988.0469       1271.577       3063.452       2802.296
       1248.301       1110.304       2221.191       1923.208      -662.3198
      -2340.030      -306.2021       2737.497       3794.325       2756.729
       780.4782      -28.30841       546.8130      -613.9209      -2975.695
      -3767.126      -1906.132       1228.209       1805.562      -121.3513
      -1128.274       199.8867       2117.236       1941.781       477.2922
      -944.7771      -1545.222      -141.1074       1601.861       1262.632
       351.1838       518.9877       838.8199       363.4875      -158.0386
       292.7139       947.0715       530.3721       932.8086       2511.455
       2452.348       30.92627      -1646.104      -267.7412       1751.585
       2222.491       1619.495       864.7310       1506.793       1397.016
      -1415.586      -3621.100      -2083.701       1106.728       2527.499
       1203.946      -898.1416      -1675.960      -2107.734      -2588.408
      -2071.006      -334.1377       2281.584       3056.542       953.5264
      -515.8438       376.5139       1468.453       1026.110       75.53735
      -11.13892      -324.8661      -38.81641       2021.024       3377.581
       2463.828       432.1934      -2225.449      -3772.252      -3284.882
      -1723.325      -488.1307      -461.3578      -323.2410       361.6731
       105.8403      -679.7275      -1741.152      -3113.619      -2613.516
       398.0518       2710.531       2694.160       59.01270      -3034.374
      -2715.896      -860.3870      -602.6379      -837.3633      -288.5449
       91.31836      -1508.797      -3110.090      -2805.745      -1679.287
       252.8223       2816.293       4472.769       4630.556       3449.877
       1786.393       268.8403      -837.9136      -1054.131      -225.0609
       385.0754      -599.6641      -2394.520      -3119.610      -2841.624
      -2259.893      -1185.181       344.7656       622.4653      -426.4744
      -707.3149       1160.239       2901.281       2065.560      -794.4229
      -4012.650      -4900.543      -2590.089      -158.4065       560.2888
      -30.78369      -874.1035      -1631.476      -2063.290      -1876.104
      -2103.159      -2280.387      -449.1250       2322.114       3528.064
       1413.123      -2262.800      -3188.854      -1338.491       259.2686
       491.6577      -546.4263      -1523.022      -1402.305       7.660645
       1934.397       2145.866      -220.5464      -1641.209      -403.6104
       34.07129      -1924.969      -3335.271      -2457.692      -2360.844
      -4518.361      -4958.254      -3400.219      -1871.379      -370.6309
       1161.373       2420.346       981.8350      -2810.375      -3504.774
      -860.4575       1743.563       2044.983      -5.770325      -683.7412
       995.4473       2948.442       4043.664       1978.511      -2104.720
      -2738.041       324.9731       2136.196       1370.411      -1125.943
      -3221.532      -3016.872      -1069.753       1421.708       2289.654
       1551.362       497.0186      -1495.268      -2972.254      -2723.668
      -1675.109      -879.9316       705.2534       2302.502       1869.847
       1038.196       439.3223      -2097.778      -4663.027      -4651.487
      -3306.168      -1883.403       200.1143       1745.822       955.4656
       47.69580       1166.035       3338.721       4176.011       2370.676
       607.7853      -5.687988      -811.6138      -1743.934      -2221.464
      -2271.062      -2445.916      -3010.906      -2427.171      -819.5093
       947.2222       2082.198       1078.665      -1271.490      -1729.307
      -48.22461       1077.120       1136.378       1111.986       700.2480
      -585.6641      -2019.369      -1836.018      -57.90027       469.7935
       345.7168       2413.418       4097.610       3447.905       1727.104
      -467.3647      -1656.229      -905.6212      -189.7363       552.1045
       1668.123       2229.452       2374.151       957.2998      -1877.634
      -2724.580      -1594.824      -206.4644       822.3029       230.5132
      -1644.998      -2560.192      -1356.671       892.9912       1735.617
       642.2095       112.1440       924.1934       1616.479       1658.860
       96.43018      -1851.835      -2374.728      -1165.654       224.7876
      -80.57666      -1055.219       20.25879       2951.168       5156.255
       4060.937       697.3156      -685.8024       62.71631       800.7002
       2017.321       2716.008       1760.274       1082.712       383.1406
      -1116.120      -1532.940      -584.4334       127.2380      -410.1768
      -2002.596      -2545.833       75.81445       2836.456       2913.815
       2088.602       1836.502       1629.269       1684.636       1475.192
       170.6547      -1030.248       167.8750       4012.398       6647.941
       5105.318       958.8604      -2726.466      -2766.281       529.9434
       2608.853       1935.920       1215.720       1314.461       1526.525
       1568.471       458.5708      -703.2230      -13.58472       639.3268
      -135.0259      -1539.525      -1223.769       435.4443       674.5176
       470.6748       1315.609       1966.222       1409.927       330.5229
      -461.4448      -1082.064      -2109.643      -3064.377      -1679.588
       1074.464       1500.881      -408.0762      -1926.454      -2118.730
      -1223.286      -392.3951      -480.6052       120.7236       2253.339
       4178.762       5143.196       3923.013       347.8750      -2254.099
      -1316.961       2244.307       4239.651       1667.732      -2224.122
      -2549.644      -24.15723       1495.597       1390.017       443.3882
       470.5317       1674.414       1319.454       450.6047       966.6953
       1934.062       2937.805       2761.641       893.3550      -1696.904
      -3611.410      -3781.561      -3199.074      -3276.717      -2465.758
      -216.6160       526.4580      -680.8398      -1408.013      -1230.377
       11.68945       2036.653       2396.764       1024.807       504.9873
       1007.007       1517.516       1770.725       2362.310       2733.973
       1383.225      -940.5581      -2581.567      -2859.468      -1127.146
       1400.441       1639.375      -317.6958      -2003.954      -2261.246
      -1290.995      -853.3799      -2553.115      -4777.342      -4097.054
      -801.3594       3114.154       4881.712       4135.265       2462.396
      -1435.518      -5656.256      -6433.712      -5040.751      -2958.846
      -261.7373       2656.062       4552.365       3587.880       585.2217
      -1732.690      -1861.134      -513.7815       857.4529       1349.181
       928.1245       938.6680       2315.010       4705.726       5571.521
       3287.458      -117.1011      -268.5928       4076.297       7722.948
       6267.424       2818.652       1393.854       3270.715       7682.254
       9271.238       5025.584      -2404.125      -9545.594      -13109.18
      -12125.17      -9414.373      -7809.578      -7029.127      -7327.662
      -7831.571      -6092.218      -3953.887      -2945.900      -656.0693
       2176.958       4407.053       6161.561       4277.295       310.7714
      -219.2217       2165.177       3792.202       3492.990       2964.578
       3836.501       4415.726       1970.400      -1843.498      -3419.587
      -1916.949       1524.598       4113.988       1131.742      -5470.258
      -8218.668      -6196.641      -3862.404      -1886.498       1579.293
       5076.482       6427.186       5568.087       2198.639      -1692.487
      -3311.854      -4645.054      -5959.864      -2791.712       4237.646
       8426.537       7329.055       5242.010       2673.807      -729.2524
      -1397.984       1069.410       4532.545       3971.879      -3282.389
      -9403.465      -10099.65      -10443.50      -11273.72      -10067.51
      -5134.393       2403.906       6503.195       6270.975       5668.481
       5068.044       1883.980      -5426.727      -11923.12      -10825.85
      -5746.434      -5278.023      -9615.354      -9906.659      -3162.906
       3919.391       10020.77       16140.25       15986.80       6801.070
      -6182.980      -16574.89      -20591.78      -16129.73      -2956.555
       10519.96       12326.03       510.8945      -14941.44      -18965.34
      -4972.305       13935.25       17832.46       8576.008       3358.643
       5537.147       6493.526       1659.279      -4404.184      -6041.662
      -3453.312       1379.719       7351.266       11312.73       7862.141
      -999.8311      -5327.971      -177.0176       7382.969       5502.136
      -4693.713      -9499.463      -3448.504       5870.090       9917.254
       8289.344       4461.624      -1363.281      -10272.34      -20641.29
      -27275.68      -24592.36      -10278.40       10161.12       25009.92
       25137.45       12035.97      -1087.947      -4774.834      -4941.260
      -7531.320      -4824.695       7168.945       16898.14       15975.71
       12037.02       16008.51       25118.14       26720.29       14919.16
      -3198.414      -15939.88      -18793.53      -16145.85      -12421.63
      -9232.352      -8747.184      -10722.38      -12246.04      -11862.04
      -9398.705      -4761.216      -2676.836      -9247.930      -17838.45
      -17949.89      -8565.258       6008.289       16901.85       12796.30
      -6242.180      -22365.95      -21308.50      -11002.02      -5265.404
      -4991.641      -1426.379       7459.629       14847.82       17183.19
       15925.95       13396.82       10506.61       8040.708       5777.395
       2130.786       1213.707       7399.027       15267.70       17373.18
       12569.33       2211.109      -10068.24      -15743.53      -9459.064
       2945.676       9167.367       5927.743       2371.955       3967.380
       5010.413      -1875.035      -12298.05      -17070.51      -14500.07
      -8413.206      -2046.430       5778.219       16599.23       25602.13
       25082.28       13814.47      -1027.084      -9168.395      -6500.330
       1290.604       4846.251       1987.881      -2386.703      -6347.848
      -11323.89      -16055.45      -17086.04      -13398.53      -5289.809
       3872.283       7698.204       4545.962      -1443.566      -5040.016
      -5376.787      -7170.887      -11825.90      -14370.50      -9862.574
      -25.77734       7733.340       11269.71       13191.47       13216.09
       10943.18       9042.658       9775.266       12288.53       14544.52
       13975.98       10549.90       3980.941      -7844.938      -19861.10
      -23103.39      -16306.07      -7292.286      -1617.768       2278.621
       6207.703       9640.705       10672.17       6937.625       896.9355
      -1881.582      -2439.639      -4774.742      -7923.848      -8609.506
      -5239.769      -1505.306      -1157.696      -1968.075       94.66406
       8290.023       19136.62       23984.27       19713.55       8745.777
      -5229.148      -18125.08      -26261.45      -27572.91      -22020.24
      -12537.00      -2756.541       5602.742       11095.66       12861.26
       13071.51       13391.73       11643.77       7115.372       2883.363
       171.2764      -1587.900      -1424.029       1268.383       4918.297
       7978.770       8561.333       4499.497      -2516.594      -9284.930
      -15207.37      -18411.32      -17086.84      -12508.02      -4061.863
       6772.938       12831.91       11272.27       4773.823      -2892.652
      -8204.531      -9583.088      -8490.529      -7867.121      -8158.531
      -6277.339      -990.0039       5963.758       13983.52       22792.29
       28628.85       27382.98       18041.23       1529.672      -16253.33
      -28125.77      -32341.65      -29095.09      -19259.17      -6906.912
       3430.797       11491.31       17179.48       17302.29       12129.92
       3859.379      -8042.367      -19288.27      -22619.55      -16670.18
      -5247.104       6035.805       12707.14       15765.00       17422.93
       17555.39       16665.58       16401.49       16158.29       13798.54
       9239.660       3903.962      -225.3364      -996.3618       1386.908
       4263.783       5089.108       4785.175       5226.065       4247.348
      -1567.344      -11580.69      -22666.60      -29288.52      -26623.73
      -16371.80      -6159.203      -1381.536      -597.2755      -107.5664
      -1137.891      -5327.293      -8540.539      -7751.801      -5919.479
      -6266.215      -7710.047      -8721.367      -9891.004      -8809.100
      -3368.199       4358.500       11498.68       15744.67       15739.72
       12588.55       9161.777       7672.625       7330.650       7036.414
       6096.205       5408.320       6193.793       8273.629       10587.19
       10965.10       9319.039       8501.566       8320.214       5607.558
       14.39844      -5219.203      -9951.594      -14501.90      -16125.71
      -14196.20      -10596.64      -7679.910      -7806.836      -10568.21
      -12184.92      -9502.527      -6218.677      -5064.523      -2522.399
       2381.102       6335.306       6256.019       2052.688      -1313.881
      -1270.183      -773.3701      -1880.551      -1991.131       2161.098
       8419.246       10983.31       8727.867       6346.098       7851.715
       11632.30       13968.78       14139.75       13781.57       12160.80
       9115.689       5668.190       1589.256      -3021.207      -6853.324
      -7825.402      -6158.508      -5748.289      -7849.355      -11503.65
      -15676.34      -18457.97      -18391.85      -15970.56      -10186.63
      -979.5781       6115.098       5835.408       929.5762      -1565.789
       126.8076       1823.090       1726.848       1763.525       1840.386
      -1645.195      -9033.555      -14778.47      -12753.27      -3723.066
       6863.125       14633.21       19461.79       21794.88       20049.52
       14039.24       6036.630       3.701660      -1025.251       817.7285
       2165.551       1741.364       109.0020      -2368.125      -5117.451
      -6676.539      -6503.525      -5455.637      -5577.281      -9236.348
      -14581.43      -18232.33      -18903.39      -17810.98      -15426.00
      -10426.53      -3207.010       4076.549       9518.914       11680.02
       10871.17       8032.943       5398.463       4638.410       4884.803
       5518.637       6304.739       4708.315       577.5234      -3167.287
      -5040.308      -5138.882      -3320.315       174.0576       3091.107
       4300.084       5526.406       6909.848       7500.775       6011.140
       3203.310       1971.604       3044.876       4092.479       3069.213
      -686.3184      -4861.930      -6443.883      -5826.051      -5346.986
      -4387.963      -1430.568       1774.382       2512.788       1181.542
      -528.7725      -3042.377      -6087.736      -6822.730      -4816.434
      -998.6201       2370.143       4245.834       6611.875       8332.193
       7074.316       4778.993       3432.599       2542.943      -303.9102
      -5612.385      -9883.551      -11326.77      -12182.12      -12330.61
      -9471.221      -3852.801       1943.844       7145.129       12313.20
       16841.10       19012.37       17834.40       13177.50       6811.002
       1448.874      -1510.684      -2577.983      -2747.499      -3184.838
      -4787.318      -6325.131      -5500.835      -3100.654      -772.9334
       125.6963      -1210.170      -3818.395      -5824.293      -7136.422
      -7874.303      -6088.771      -1408.802       763.6167      -1250.927
      -2176.001      -233.3235       1205.520       1582.006       4208.816
       8857.984       11646.79       10887.15       5935.552      -1512.414
      -7398.641      -8729.797      -6915.587      -4569.807      -2130.187
      -605.5176      -1632.117      -3776.453      -3747.301      -1532.783
      -535.2396      -146.8291       1236.007       2420.285       3544.871
       5727.961       7672.332       8445.797       8692.182       8362.288
       6021.285       1907.622      -1675.312      -2308.044      -133.1826
       1903.054       1322.396      -955.1562      -3439.810      -5161.303
      -5440.287      -5061.015      -4578.031      -2205.863      -61.89551
      -2229.943      -7211.965      -10369.50      -9392.217      -5399.377
      -1935.007       310.5391       3396.211       6244.396       5867.480
       3403.022       2333.444       3852.568       6509.672       10210.76
       14441.86       16028.39       13663.41       10977.20       9707.033
       7963.231       2754.992      -5508.219      -11518.83      -12747.73
      -11917.14      -10999.84      -11636.03      -14858.94      -17730.88
      -17387.74      -14570.95      -9159.755      -2771.313       1659.230
       3231.231       3799.172       5488.646       7975.104       10007.12
       11247.99       11618.21       11439.00       9940.559       7141.096
       5197.684       4377.717       3240.902       1923.648      -1636.229
      -7764.406      -11843.63      -10965.07      -8366.484      -7235.793
      -5795.472      -1246.203       5397.797       10911.96       12561.42
       10520.33       7304.226       4144.670       222.0410      -2861.478
