     0.02500000      -58735.80       48677.47      -12345.00      -12345.00
      -29.99999       244.4500      -43.60000      -12345.00      -12345.00
       0.000000       32.56001      -12345.00      -12345.00      -12345.00
      -12345.00      -12345.00      -12345.00      -12345.00      -12345.00
      -12345.00      -12345.00      -12345.00      -12345.00      -12345.00
      -12345.00      -12345.00      -12345.00      -12345.00      -12345.00
      -12345.00      -30.14410      -68.57390       1095.000       0.000000
      -31.23600      -65.83800       0.000000       167100.0       0.000000
      -12345.00      -12345.00      -12345.00      -12345.00      -12345.00
      -12345.00      -12345.00      -12345.00      -12345.00      -12345.00
       288.7206       294.0881       115.4778       2.595864      -12345.00
      -12345.00     -0.2557646       90.00000       90.00000      -12345.00
      -12345.00      -12345.00      -12345.00      -12345.00      -12345.00
      -12345.00      -12345.00      -12345.00      -12345.00      -12345.00
      2008       318        11        13        14
         0         6    -12345    -12345     10979
    -12345    -12345    -12345    -12345    -12345
         1         7        13    -12345    -12345
    -12345    -12345    -12345    -12345    -12345
    -12345    -12345    -12345    -12345    -12345
    -12345    -12345    -12345    -12345    -12345
         1         1         1         1         1
CIGA    -12345          
        -12345  -12345  
-12345  -12345  -12345  
-12345  -12345  -12345  
-12345  -12345  -12345  
-12345  -12345  -12345  
-12345  -12345  BHE     
ZL      -12345  -12345  
[...]
      -4267.466      -2522.649       242.5569       1035.505       555.7969
       1182.510       2048.055       1221.547      -915.4619      -2238.335
      -1576.084       430.6875       2399.200       2242.746      -716.8965
      -3886.600      -4240.395      -1126.635       2294.421       3506.461
       3614.904       3568.470       2592.111       46.94971      -2067.146
      -1267.917       1813.668       3825.831       2086.309      -2100.127
      -5424.428      -5945.314      -3081.096       963.3691       1898.951
       773.6494       811.3057       1164.624       239.4565      -152.7144
       1158.222       2478.046       2248.531       476.0757      -1813.228
      -3808.698      -3855.587      -1897.520      -610.4898      -338.4790
       173.5315       707.7516       419.7815       362.3906       1451.421
       2268.849       1520.892       606.8330       1866.979       3970.402
       3373.270       1015.512       548.7305       1740.781       2145.886
       2282.939       3005.116       2833.253       1656.139       1166.194
       1563.353       853.7954      -1226.620      -2154.170      -1680.851
      -1461.162      -1882.655      -1085.066       773.1262       1112.831
       84.93890      -149.7285       1162.631       2778.002       2982.342
       1488.132      -465.6328      -1260.483      -683.3461       304.7815
       646.1489       497.8761       503.8292       279.9883      -676.0837
      -910.1597       200.9512       1517.691       3037.045       4077.048
       4180.974       4137.790       3414.943       2230.133       1341.038
       1013.234       1138.427       1045.479       375.8510      -243.0259
      -454.7124      -880.0396      -1404.961      -929.7148      -1409.740
      -3667.363      -3973.368      -1960.043      -17.10791       1429.763
       1577.510       422.1541      -286.2128      -93.69830       188.7058
       611.4595       1391.654       2657.254       4468.533       4501.804
       1022.094      -2246.903      -2357.253      -23.06250       2793.324
       3946.807       3435.077       2486.121       1653.029       934.5378
       148.7161      -1002.173      -1995.692      -624.3135       3354.511
       5581.579       2166.705      -3571.359      -5986.889      -3548.964
       1049.028       3180.001       1715.030      -165.6378      -404.1758
       156.6031       161.0115       13.95557       834.8262       2608.834
       3216.388       1204.779      -1676.083      -3125.164      -2300.304
       64.41602       1479.619       1185.021       1087.388       1878.778
       2257.359       814.6074      -1616.105      -2733.364      -3075.185
      -2981.239      -2055.296      -1716.687      -1301.013       840.5508
       2687.022       2321.672       979.3384      -357.5874      -1551.282
      -1994.667      -1487.468       11.88867       1782.245       2028.505
      -275.0596      -2699.021      -2698.288      -244.3667       2017.965
       1150.792      -1731.213      -3545.271      -3260.630      -2248.337
      -1224.198       407.0112       2237.266       3140.363       2123.540
       415.5456      -206.0110      -345.3171      -886.4839      -1024.384
      -304.2223      -238.2131      -1160.425      -781.3135       1251.436
       2948.276       2510.605       371.7041      -1359.857      -2332.181
      -2026.942      -956.0605      -1051.828      -924.1487       367.3848
       1539.551       1736.363       972.0303      -471.3291      -1987.189
      -1579.990       469.3262       1024.249       223.7867      -177.1949
      -130.0454      -386.8218      -1385.178      -2851.769      -3726.030
      -2635.627      -354.7075       589.6460      -320.7178      -1564.257
      -1718.365      -762.5840       1088.833       4234.736       6124.936
       4186.759       929.3464      -660.2437      -82.11731       774.4258
       412.9507      -284.4028      -1387.644      -3228.076      -3899.040
      -1649.244       1249.105       1823.326       602.5305      -564.0438
      -560.2278       313.2393       1453.230       2439.523       3132.107
       3198.580       2161.049       424.2534      -760.5251      -767.8804
      -1686.344      -3185.582      -2276.850      -1144.780      -2740.984
      -3621.206      -735.7402       2418.506       2245.630      -1361.303
      -5313.890      -5475.126      -2401.438       1018.146       3012.073
       2753.661       1203.315       16.11194       203.5508       1164.324
       1398.704       992.4663       491.2262       417.8654       342.0312
      -884.7930      -1875.850      -1360.206      -316.7400       648.0026
       1147.688      -323.2959      -2802.386      -3447.244      -2304.501
      -577.9482       1227.987       2774.528       2928.013       97.39355
      -3422.292      -4310.810      -2436.458       836.9570       3312.034
       3184.569       903.7573      -1214.641      -2225.714      -2278.027
      -1677.753      -1604.896      -1667.246      -740.3138       391.3618
      -49.07129      -2090.253      -2792.628      -837.4307       1459.830
       2008.248       829.6976      -571.6809      -809.1924      -770.3262
      -1317.628      -1360.990      -192.6589       877.1877       406.4371
       214.7861       1422.331       2635.685       2859.723       1092.225
      -1707.566      -3509.292      -4109.427      -4555.643      -5144.123
      -4070.669      -1177.903       388.5791      -711.6245      -2737.107
      -2686.940       159.7246       3280.821       4863.942       3869.102
       1197.001      -1758.545      -3422.159      -2171.538       167.7944
       2018.246       2317.773       894.7770      -488.0957      -195.0431
       783.6802      -298.7852      -2789.368      -4793.935      -5224.973
      -3623.979      -1493.622      -898.7207      -1196.652      -260.6631
       302.5986      -1011.188      -3015.213      -3932.198      -2175.687
       1160.719       4086.152       5336.010       3730.546       376.2388
      -2088.735      -2526.062      -697.8975       1699.640       1491.768
      -1327.289      -3194.664      -1580.925       227.8242      -1029.922
      -3401.936      -4260.139      -2949.918      -50.79102       3583.229
       6123.291       4509.008      -46.72314      -2529.465      -2035.567
      -1282.185       19.47705       1838.756       1370.659       353.9812
       1046.822       689.5508      -1046.604      -2484.374      -2577.964
      -966.9531      -107.8873      -203.1582       1317.519       3129.911
       2453.542       939.3744       446.9868      -50.90210       190.4326
       1687.855       3092.542       3523.429       2702.613       1149.730
      -795.6025      -2747.697      -3610.588      -2795.606      -819.4170
       748.9763       886.9805      -551.5020      -2881.889      -4942.801
      -3390.248       2783.781       7665.928       7687.978       5243.857
       2214.427      -681.8584      -3221.500      -3480.461      -231.2246
       3787.230       5844.142       5216.659       3615.646       1662.901
      -1521.248      -3146.587      -1727.385       487.3330       2051.777
       2844.446       2725.794       1116.233      -892.1895      -785.4480
       250.1143       412.8562       542.6777       1412.312       2309.115
       1863.950       356.9652       72.15527       1408.314       2439.227
       1875.570       581.9332      -52.06763       386.1104       1124.355
       464.0977      -1168.298      -2785.227      -3467.167      -1254.599
       1815.418       3963.045       5488.991       4673.917       1998.412
      -587.6558      -2337.540      -1656.936       896.7119       2909.240
       3880.916       4122.105       3054.130       1539.508       1621.361
       2854.334       2751.305       1943.512       1563.256       79.73340
      -1896.087      -2371.799      -1351.462       436.7725       2496.000
       3016.647       1334.647      -615.1343      -2401.458      -2808.265
      -1329.859       787.2778       2526.529       2992.088       2877.859
       3270.495       2982.272       841.6599      -994.4623      -646.1641
       396.7614       356.6694      -855.6782      -1894.872      -1957.583
      -1738.413      -446.2158       2726.036       5176.410       4022.744
      -406.9258      -4023.075      -3292.078      -1651.987      -2556.052
      -2048.117       402.2930       2131.539       3536.583       3258.141
       1051.349      -204.1558      -807.3682      -1428.480      -770.2738
      -322.8062      -991.2509      -626.8838       375.0605       762.8816
       1058.582       1291.087       1272.535       1031.295       314.9976
      -1038.762      -1786.563      -807.1885       839.3276       1960.665
       2459.147       2850.409       2983.690       2276.133      -64.59570
      -2412.941      -2267.074       10.52197       2311.525       2433.566
       862.3833      -499.1064      -1248.933      -1829.938      -2603.144
      -2652.440      -1357.061      -258.2542      -310.0701      -854.0425
      -1592.703      -1933.273      -1598.349      -1186.242      -676.7627
      -683.3081      -1429.707      -1384.632      -765.1365       493.4600
       2462.620       2657.636       960.4731      -1343.542      -2531.842
      -2032.139      -1716.059      -871.9730       148.3984       757.5049
       1795.688       2125.307       1564.592      -368.1758      -3576.877
      -5475.766      -4715.256      -2524.225      -777.0277       146.9917
       531.7891       1153.182       1947.555       1725.639      -29.81348
      -2105.603      -2528.188      -1576.650      -400.8090       754.7107
       227.6855      -2328.105      -4304.271      -3907.202      -1248.983
       967.7335       345.1409      -524.9966       505.9775       1466.928
       1273.927       345.5601      -481.3229      -184.4776       104.8105
      -250.9827       213.7123       905.0350       126.0986      -1626.147
      -1449.796       1106.953       3203.150       3337.560       1379.198
      -1274.532      -3079.610      -3343.811      -1222.179       2243.876
       2862.317      -932.8105      -4131.010      -2938.116      -335.9419
       762.0684       1885.536       3895.527       4117.131       1094.609
      -2643.970      -4708.049      -4775.470      -4165.939      -3095.197
      -685.0664       1975.597       3923.269       4092.599       2150.737
      -292.5332      -2162.408      -3067.715      -3585.174      -4526.881
      -5576.789      -7237.809      -9697.883      -11499.14      -11930.82
      -11359.34      -11043.52      -10734.46      -9998.406      -9478.146
      -9126.582      -9195.637      -9787.662      -9018.062      -4564.896
       2559.375       8583.633       10124.85       7538.163       4576.468
       3097.213       3344.406       6628.227       12961.30       19530.11
       22392.14       19900.74       16243.46       15785.23       16076.58
       12322.57       3308.094      -9301.309      -18744.95      -18125.84
      -10899.33      -4345.564       57.24219       5354.734       11949.47
       14547.65       8633.609      -5207.234      -22450.62      -35085.77
      -32092.39      -11903.94       11212.92       22507.65       20273.99
       15584.38       17100.49       18523.40       10771.70      -3561.988
      -14488.96      -17139.04      -14525.03      -8399.305       83.03809
       3875.079      -495.0742      -6474.347      -5366.927       2789.037
       7592.546       523.6055      -14624.02      -25369.07      -19739.90
       2835.859       27707.84       33265.99       12097.36      -16186.95
      -27652.59      -19679.44      -5901.219       3215.973       8382.096
       9987.777       4213.262      -8520.820      -21829.48      -29549.69
      -28947.54      -20269.65      -5928.234       11401.75       25110.48
       26834.92       16560.64       5936.027       7253.508       18784.47
       26636.34       20095.51       4062.730      -12453.49      -19853.35
      -11547.75      -174.9453      -4306.117      -24431.01      -36656.52
      -19260.10       15910.20       40331.48       39736.49       23398.10
       7012.529      -7064.949      -19160.89      -26309.42      -28175.63
      -19429.75       2278.227       27792.57       38973.76       19462.11
      -16302.41      -34307.71      -22654.47       4160.008       22942.27
       21977.92       10112.77      -1219.084      -7442.919      -4541.760
       3504.758       10337.06       11218.42       2852.647      -5042.000
      -2777.014       8199.172       18447.89       15210.82       2494.078
      -4867.303      -8390.672      -13416.33      -10886.49       5900.289
       27813.41       35424.57       21520.48      -3037.750      -30761.52
      -53124.73      -58735.80      -49225.57      -32320.08      -14075.75
       3069.023       16358.29       20655.39       23817.47       36460.89
       48677.47       43997.59       19613.76      -8289.703      -18640.08
      -11409.08      -2950.047      -4249.875      -14267.57      -19180.76
      -8061.758       7856.604       9774.414      -711.6914      -4015.553
       7720.340       20131.64       19491.55       5903.576      -9894.605
      -15491.93      -11396.73      -4541.398       4676.316       15704.34
       23658.36       23123.61       11316.08      -8846.078      -27742.62
      -36048.52      -29235.59      -9691.875       10060.68       15935.65
       7801.096      -2914.629      -8759.449      -8338.309      -1703.871
       8881.879       15758.71       13765.95       8229.498       3400.716
      -1311.365      -7810.066      -15120.21      -12084.24       6348.180
       25439.94       31291.53       24344.85       12848.60       5425.498
       5000.715       7501.533       5964.682      -2851.391      -15868.75
      -24682.65      -24110.71      -18599.97      -11782.57      -3687.217
       5940.332       16278.59       22570.03       21897.57       16745.49
       9093.295       3390.355       3170.547       1409.957      -5809.285
      -12390.45      -15909.79      -16685.79      -11368.06      -1433.910
       6567.992       8457.430       2762.010      -4368.137      -1077.426
       14087.39       25216.25       20637.27       8827.867       818.6758
      -5364.656      -13454.49      -18224.87      -15697.45      -9739.400
      -5445.108      -3961.546      -1943.515       2486.222       4428.060
       3155.475       6410.000       14900.14       21407.85       19769.58
       11593.58       4292.441      -4538.383      -17174.45      -25864.87
      -25821.14      -17146.01      -4580.884       4509.442       5143.061
      -646.2148      -5631.262      -6738.293      -5273.628      -2573.780
      -1685.348      -5042.537      -7279.418      -2302.863       7848.238
       16890.37       18149.22       10787.33       2725.813       905.7188
       2911.132       2725.530       1288.242       4428.320       12597.70
       18517.84       19331.59       18685.45       14904.97       5125.344
      -8184.766      -19357.21      -23825.91      -24562.70      -26911.01
      -28046.19      -20450.59      -4102.027       11284.93       17511.77
       14639.62       7245.928       1455.121       633.3711       2768.818
       3536.138       2016.459      -818.1406      -5258.320      -11040.32
      -17182.43      -19397.51      -12613.00       332.5508       13149.09
       18903.28       13673.13       4289.508      -4137.379      -11598.08
      -16518.67      -19270.95      -17633.42      -9756.807      -1687.554
       2284.875       7846.016       17688.13       20325.75       7544.318
      -9735.609      -16346.68      -11113.12      -3754.363       384.0449
       1568.342       2493.066       7768.840       16872.27       23536.24
       23922.26       19376.27       12154.43       3657.445      -5301.234
      -12393.71      -14080.04      -14469.39      -20562.34      -29404.17
      -33073.01      -27912.08      -16671.06      -6674.707       430.4395
       7681.164       14155.22       17757.59       17089.58       12066.06
       6190.216       1921.986      -1286.500      -6644.266      -14364.90
      -17173.95      -10206.18       2084.410       11534.04       12178.27
       4360.904      -5579.211      -11065.35      -11107.85      -8809.970
      -4400.744       2937.473       6963.623       3212.711      -2700.568
      -4707.454      -2225.376       416.7090      -1782.891      -5696.145
      -6230.270      -3987.105      -987.1631       2164.121       6984.250
       13221.04       15706.15       12006.97       4613.290      -3514.211
      -9108.844      -9161.615      -3713.518       2981.449       4060.878
      -97.21680      -3069.340      -3982.257      -4902.998      -5955.241
      -6190.544      -2682.141       4286.859       10293.33       12305.76
       8937.100       1853.288      -2975.557      -2994.620      -1379.237
      -2636.730      -9162.117      -15491.01      -13535.84      -5998.402
      -386.8936       1134.025      -992.4316      -3513.864      -3097.743
      -385.6582       3847.121       7813.828       10220.80       9748.104
       5032.670       1013.402       2330.727       5305.412       6032.804
       3289.525      -1210.242      -4064.086      -6282.281      -9576.465
      -10703.99      -6570.768       1651.314       8802.875       9528.485
       5658.479       3700.428       3919.992       3084.114       518.4297
      -5237.750      -13668.21      -18255.18      -15939.34      -11072.68
      -6857.645      -3318.949      -2179.226      -2302.419      -334.2695
       3830.699       9847.645       15351.73       15505.00       9474.459
       984.5312      -5980.223      -8863.248      -6656.520      -258.7539
       9623.117       20046.64       25239.04       23022.12       17474.94
       11731.08       5468.965      -1583.689      -9025.965      -14455.50
      -16283.39      -18069.62      -22487.47      -25271.17      -20287.24
      -8968.718       481.9797       1655.219      -2582.585      -4301.755
      -385.9688       7164.930       15488.30       20933.15       21073.81
       18844.66       18212.34       17585.84       14950.88       11735.75
       9885.082       9569.072       9032.381       4411.232      -5045.250
