     0.02500000      -75681.28       87248.86      -12345.00      -12345.00
      -29.99003       247.3849      -45.74000      -12345.00      -12345.00
       0.000000       35.34000      -12345.00      -12345.00      -12345.00
      -12345.00      -12345.00      -12345.00      -12345.00      -12345.00
      -12345.00      -12345.00      -12345.00      -12345.00      -12345.00
      -12345.00      -12345.00      -12345.00      -12345.00      -12345.00
      -12345.00      -32.11960      -68.98490       1817.000       0.000000
      -31.23600      -65.83800       0.000000       167100.0       0.000000
      -12345.00      -12345.00      -12345.00      -12345.00      -12345.00
      -12345.00      -12345.00      -12345.00      -12345.00      -12345.00
       314.0540       251.0052       72.65003       2.823780      -12345.00
      -12345.00     -0.1536013       0.000000       90.00000      -12345.00
      -12345.00      -12345.00      -12345.00      -12345.00      -12345.00
      -12345.00      -12345.00      -12345.00      -12345.00      -12345.00
      2008       318        11        13        16
       140         6    -12345    -12345     11096
    -12345    -12345    -12345    -12345    -12345
         1         7        13    -12345    -12345
    -12345    -12345    -12345    -12345    -12345
    -12345    -12345    -12345    -12345    -12345
    -12345    -12345    -12345    -12345    -12345
         1         1         1         1         1
CLAR    -12345          
        -12345  -12345  
-12345  -12345  -12345  
-12345  -12345  -12345  
-12345  -12345  -12345  
-12345  -12345  -12345  
-12345  -12345  BHN     
ZL      -12345  -12345  
[...]
       2662.171       2208.223      -1737.148      -3660.370      -1487.450
       969.3372      -68.31543      -2254.671      -846.3945       3286.136
       5227.269       2800.430      -1895.617      -4582.350      -3711.223
      -612.0771       1144.434       138.4717      -1974.103      -2757.732
      -1036.444       657.2664       1058.374       1288.318       992.3491
       656.2598       1205.291       3005.430       3795.943       3001.497
       2831.179       2872.723       2199.007       1316.190       783.0869
       1913.803       3166.062       1597.761      -1232.932      -2867.778
      -3927.026      -2541.400       646.1851       1788.953       1654.324
       1927.507       1039.541      -1446.260      -3322.825      -3834.379
      -5353.152      -5116.897      -1510.542       947.7612       1315.446
       1980.742       4281.271       6273.247       4284.276       889.7969
      -899.3184      -2286.124      -3660.104      -3418.526      -1601.749
       195.2958       607.2125      -185.1802      -1671.120      -2556.623
      -1017.950       1121.894       1345.938       1111.395       432.2021
      -978.6373      -876.9434       2095.711       5485.906       7442.858
       6695.698       2305.057      -2360.829      -4095.090      -4685.488
      -4873.138      -3053.617      -845.5984       18.35889       1807.809
       4076.398       4026.176       1901.655       887.3369       1590.324
       2470.587       1813.782      -356.0449      -2595.656      -4850.607
      -5404.520      -2274.978       1217.195       2344.603       768.7153
      -1641.317      -2011.487      -1051.244      -890.2700      -1200.362
      -589.6641       1310.308       2499.606       2353.817       1561.360
       214.1988      -124.1318       1080.175       984.0913      -821.0386
      -2039.471      -1814.845      -1659.193      -1824.435      -1715.057
      -961.8148       10.86462       286.6536       8.075378      -184.4282
       576.1611       2497.194       3561.832       3167.238       1470.800
      -1116.586      -2742.043      -2456.978      -1069.453       1557.467
       4196.447       3847.953       1250.104       230.9749      -209.9526
      -1520.851      -1726.295       218.4287       3435.720       3978.478
       101.9551      -3378.409      -3258.894      -1310.152      -201.6399
       418.5225       2139.672       4909.738       4688.416       231.1597
      -2881.711      -2214.670      -989.8843      -759.7139      -605.4775
      -369.9629      -2667.467      -6811.248      -8405.602      -5953.812
      -1731.767       1084.292       1335.134       898.6416       2987.438
       6767.135       6489.970       2972.449       323.1421      -1666.333
      -2870.896      -3036.265      -2622.185      -786.2197       1162.838
       1567.104       612.4934      -678.4719      -1406.098      -663.6283
      -113.9658      -1415.938      -3429.823      -4148.057      -1889.967
       3395.383       8589.361       9445.352       4152.001      -3766.848
      -9003.143      -9404.226      -6402.200      -2215.925       1099.618
       3159.979       4465.781       5058.664       4409.792       2245.643
      -46.89233      -940.2324      -1573.709      -3081.199      -4143.762
      -4390.053      -4936.408      -3818.804      -930.2327       610.9824
       440.6694       1096.119       3640.021       5205.480       3188.630
       1172.951       1538.070       1510.927       158.1077      -638.4585
      -1005.176      -959.9995      -359.7094       144.9539       283.8755
      -400.0649      -1497.798      -1436.842      -255.0120       407.9078
       235.6909       995.4712       1645.058       976.2365       529.4475
      -402.4521      -2284.687      -2987.411      -3791.426      -4345.013
      -1756.191       3367.429       6229.599       3544.614      -189.5349
      -456.8086      -105.4756      -1366.588      -1339.750       1877.232
       3295.892      -294.3564      -3485.186      -2411.456      -875.9602
      -1501.208      -788.5566       2992.010       4707.254       1320.621
      -2452.117      -2649.688      -2052.379      -2252.113      -699.0596
       2359.301       3527.677       2767.596       1136.949      -1287.271
      -3073.126      -2656.217      -1705.807      -2011.498      -2280.469
      -1365.509       1212.320       4934.311       7027.299       5014.521
      -292.7148      -5171.453      -7971.750      -8559.252      -7732.441
      -6056.590      -2232.982       3676.797       8510.959       8877.364
       5227.432       2068.763       1521.224       2510.979       2767.827
       1190.591      -637.2422      -1720.930      -2154.010      -2147.647
      -2065.770      -1050.076       741.1167       2481.798       3193.161
       1343.221      -1703.663      -2379.965      -745.2383       1770.768
       3460.142       1587.454      -1522.619      -2920.639      -1658.372
       3044.475       5301.103       3084.931       1183.647      -764.8164
      -4728.920      -7166.285      -6127.689      -3659.303      -857.1802
       1142.598       1830.446       1906.083       1331.643       983.7529
       2437.735       3851.528       2772.623       740.8962      -328.3229
      -395.3784       174.5913       2197.563       3335.284       3246.783
       3893.646       1844.973      -2376.230      -4630.448      -5113.983
      -4299.955      -1675.909       1558.998       3837.342       5610.784
       5539.122       2701.645      -574.8086      -3237.003      -4643.749
      -3845.809      -1781.241       1159.250       3636.910       4178.510
       2415.340      -754.5757      -1301.612       740.4889       894.3580
      -301.4253      -1038.586      -2241.658      -2922.287      -1288.857
       1361.910       3423.950       4378.744       3900.234       1595.826
      -1084.566      -1524.263       447.8623       2966.903       2999.663
      -1457.896      -6989.682      -8483.805      -4232.685       2026.345
       3758.438       750.6069      -1618.424      -903.6426       1547.796
       3512.926       3684.748       1591.163      -1572.101      -3276.778
      -2691.853      -1359.519       36.45947       1587.849       2430.563
       1265.896      -1459.289      -1871.982       1348.199       3878.001
       2365.716      -380.2383      -1459.000      -2976.619      -3934.311
      -2122.451       76.89062       1303.447       956.6392      -1959.924
      -4481.716      -2605.588       1706.336       3777.987       2343.534
      -847.7402      -3261.660      -3270.801      -1112.944       1128.742
       1353.495      -325.3394      -1554.014      -1113.317      -260.8625
       137.2979       686.9277       1542.913       1271.943       486.3345
       1388.075       1314.096      -1854.940      -3573.748      -1931.418
       995.2969       3242.009       2212.789      -1804.970      -4472.952
      -3676.172      -2949.465      -4419.857      -4829.729      -1535.339
       3205.932       5245.492       4378.546       3144.226       3213.602
       4069.981       4120.771       1582.459      -2484.461      -3592.359
      -1946.255      -2519.346      -5585.373      -6420.939      -3113.637
       1522.297       4251.234       4920.545       4965.473       2853.794
      -2214.133      -6248.009      -4965.110      -839.5244       1101.190
       1550.472       1178.015      -656.4506      -1183.775       356.5459
       1184.538      -209.2419      -1167.369      -221.9821       194.1797
      -1253.714      -3418.749      -3694.945       251.4844       6118.891
       9286.020       8688.772       5991.185       2208.707      -2404.554
      -5014.711      -4369.388      -3598.732      -1617.822       1446.131
       2509.316       2035.907       1011.835      -54.06299      -880.8457
      -1329.846      -1140.691      -1688.827      -2928.391      -3995.718
      -3786.705      -979.6660       1916.896       2610.414       2690.949
       2357.120       2834.852       4552.271       4587.077       2778.191
       390.6621      -2418.488      -4457.781      -4579.276      -1665.618
       2967.859       5038.912       3478.590       1221.082      -1223.230
      -2797.168      -2088.310       309.5537       3711.729       5358.474
       3218.464      -212.3008      -2782.662      -5504.473      -8367.490
      -7266.720      -2014.284       2457.350       3903.685       4175.623
       5113.613       6215.617       4877.814       1396.707      -641.3125
      -1432.317      -4147.850      -6431.723      -5808.348      -3752.136
      -2184.442      -1234.152       491.6313       1921.403       2367.635
       2880.729       1993.175       946.0747       1091.477       156.4092
      -2297.557      -4462.399      -4504.241      -1360.914       1876.854
       2081.563       251.5143      -199.0254       1212.230       2842.297
       4635.809       4402.343       431.4072      -2503.764      -2006.648
      -1748.837      -2169.407       488.0229       2659.535      -206.4355
      -3953.112      -3711.923       305.9971       4686.633       6378.064
       4665.812       1047.243      -451.5004      -32.02759       465.1920
       594.0669      -1121.261      -3877.584      -4981.610      -4620.233
      -2965.599      -508.2651       2111.479       3792.602       3294.679
       1655.597      -470.5122      -2606.607      -2366.627      -863.1172
      -131.7681       766.4038       2026.359       2024.373       1188.398
      -181.2607      -1089.851      -730.7280      -493.6040      -1178.942
      -1644.211      -163.7544       2034.211       1412.896      -59.78711
       1172.348       3450.674       3427.311       2455.202       2255.386
       1458.011      -178.4255       616.8096       2176.616       105.1318
      -4110.655      -5897.897      -2926.866       1487.290       2414.313
       1350.932      -45.64844      -1459.661      -1715.313      -922.8417
       94.38110       1081.161       694.9968      -250.7952      -684.3993
      -494.6755       857.9683       2112.303       2754.044       3199.927
       2330.596       1288.096      -216.9214      -2137.348      -2388.030
      -1916.353      -2400.745      -2105.269      -167.2441       2693.746
       3729.488       1878.890      -295.8240      -620.9946      -688.1436
      -720.9727      -1131.615      -3440.526      -4572.579      -1573.489
       3044.954       5126.753       2746.695      -1072.277      -2912.344
      -787.5596       2440.135       2794.729       1321.690       457.5217
       38.67120      -120.9424      -748.3418      -3000.975      -5016.597
      -4389.729      -3650.889      -2457.548      -356.5277       194.5198
      -359.2202      -602.2874       200.9014       3433.031       6425.940
       5925.776       1851.214      -2491.086      -4092.432      -4549.082
      -4823.197      -2570.673       1087.839       4340.750       5041.068
       2207.044      -1201.481      -2056.157      -1746.312      -2648.368
      -3723.983      -2682.354      -2052.834      -4114.133      -7772.883
      -9612.322      -6930.318      -1448.743       2227.539       2985.192
       1858.728       787.1367       1814.594       5285.250       7614.008
       6747.397       4494.338       1869.105      -1801.621      -3941.362
      -3564.734      -2821.074      -2772.466      -2223.229      -1318.961
      -1063.552      -799.3052       395.4736       427.0010      -935.2368
      -2019.615      -1091.091       666.8108      -278.5557      -3502.022
      -4186.833      -1743.422       1229.323       2857.242       2453.929
       447.3760      -977.0117      -2130.508      -3931.605      -6811.648
      -10254.73      -12443.20      -12613.37      -11339.33      -9608.566
      -9656.691      -10956.38      -14428.67      -17621.75      -14715.68
      -8357.020      -6093.908      -7496.607      -7761.595      -3862.543
       5716.891       19251.38       29444.23       31446.40       28388.91
       26722.35       25784.50       18440.39       1196.047      -13756.22
      -11603.00       6029.102       22312.15       22460.50       9145.841
       596.9609       7614.812       23484.94       33380.31       27584.26
       4664.922      -28882.22      -58304.98      -65981.97      -45697.81
      -7276.398       28810.19       43858.89       33605.37       11439.27
      -7025.957      -14049.07      -9703.881      -864.2100       1023.906
      -5578.156      -12242.70      -18632.05      -27088.59      -27288.35
      -13737.82       6133.578       25335.53       40872.58       45166.44
       34573.98       16928.79       4232.507      -715.3828      -11129.39
      -37968.06      -66811.11      -75681.28      -56918.99      -16310.06
       33839.83       74306.20       87248.86       69736.91       36716.09
       4756.840      -14240.55      -14155.01      -4054.525      -1405.680
      -8682.926      -13663.04      -6008.541       6599.556       4980.766
      -13059.20      -24823.02      -14002.75       9372.297       21398.02
       12099.11      -7336.176      -19486.88      -19169.34      -12969.49
      -7787.341      -4262.720       1363.984       6767.451       640.7031
      -16485.93      -30423.25      -29517.37      -13518.64       6550.578
       16655.28       17232.18       17066.40       17542.88       16608.24
       16505.43       15363.12       6809.984      -7439.738      -15459.05
      -8700.910       7399.422       18533.71       20031.33       14255.27
       6658.793       4829.977       9672.195       14076.92       15036.59
       13368.63       1872.555      -26495.91      -56746.39      -63248.84
      -41468.34      -14007.99       4354.781       20065.64       36761.05
       42961.57       28679.94       683.8672      -22287.09      -30482.37
      -25821.57      -13731.91      -1894.803       3610.810       3073.413
       558.9531       3502.891       11734.48       15988.86       12746.27
       7778.926       4778.802       3105.383       1481.055       1654.855
       5614.812       11379.48       10963.51       2258.805      -5734.756
      -5557.433       387.3867       7025.908       8440.360       1818.576
      -8515.664      -14234.77      -11368.92      -3906.336       1789.907
       4651.025       5351.361       5427.699       6314.447       5640.586
      -1412.137      -11692.58      -15682.36      -10399.55      -4232.773
      -2609.099      -2742.354      -3732.395      -7032.517      -6711.208
       1424.990       9484.299       6612.143      -3477.982      -6585.786
       2719.479       10432.21       2600.123      -11133.05      -12916.81
      -6044.966      -1619.357       1958.154       6830.137       6393.562
      -946.4062      -9717.844      -13783.15      -12086.54      -6588.663
       1469.980       9332.215       12307.42       10779.86       6569.618
       969.8794      -2879.477      -1153.859       5604.840       10694.58
       7459.683      -42.03662      -3031.155      -514.4828       715.3223
      -1700.912      -2185.560       538.1553      -1383.355      -7248.756
      -7464.597      -243.4707       6253.398       6381.917       2586.152
       1596.213       3142.739       3738.720       3617.777       2520.482
       188.4072       1043.623       5821.124       7651.840       140.6719
      -10725.69      -12909.04      -6387.727      -2488.592      -5028.730
      -7310.744      -4579.329      -868.7698      -77.20215      -1246.072
      -1661.681      -759.9395       1782.133       5396.648       8603.523
       10019.75       8984.498       5417.773      -1063.225      -8595.717
      -10929.22      -7805.600      -3641.694      -1646.339      -2281.329
      -2380.939       588.2969       4531.082       6744.934       5861.255
       2740.297      -945.6846      -3170.548      -3151.720       803.0781
       8180.631       11703.99       6298.598      -1912.211      -6410.012
      -6606.699      -5476.104      -6158.648      -6792.540      -2252.579
       4311.658       5018.177      -1772.676      -8653.998      -9404.588
      -7295.771      -6486.263      -4584.032      -323.1406       5036.193
       9325.320       11069.96       9551.602       4305.683      -2765.012
      -5584.481      -2028.512       2461.211       2169.110      -671.5790
      -682.8652       1324.347       987.3442      -78.40527       1890.651
       5184.306       2996.436      -4907.891      -11422.93      -12640.39
      -9856.340      -4512.004       1290.334       4660.434       3397.149
      -888.6147      -3197.983      -88.97168       3671.694       2534.803
      -1158.738      -2278.634      -930.7480      -737.4971      -2895.459
      -3567.812      -1069.947       1847.353       2599.728       1304.648
       56.41211       2107.742       6568.584       8080.414       3798.590
      -2230.064      -6166.988      -6918.218      -4084.037       976.9277
       4166.430       4154.245       2988.190       1362.330      -1355.273
      -4086.832      -6405.980      -8100.955      -8596.639      -6072.377
      -198.7930       5879.227       8873.848       9752.996       8923.492
       4969.580      -734.7666      -4029.011      -2901.968      -322.9580
      -1033.445      -4743.541      -7719.535      -6007.481      -7.019531
       5424.074       6868.488       6021.816       5145.813       3622.209
      -51.09375      -2703.448      -704.4521       3088.535       3874.900
       1086.605      -1971.727       39.92578       5672.314       8625.527
       7279.141       4118.903       1383.389       569.0430       507.2637
       951.8364       1598.039       594.4639      -2011.111      -4275.705
      -4787.949      -3519.590      -2329.092      -795.9424       2135.433
       4564.690       2961.121      -1413.270      -4747.885      -5880.604
      -5056.238      -2043.489       1643.351       3300.634       1095.222
      -2775.676      -4279.984      -2970.491      -1539.010      -441.0449
       1443.363       5415.434       10641.64       12651.33       7176.143
      -3237.816      -11519.94      -11978.39      -5498.006       2880.256
       8829.973       10662.04       7525.502       403.2422      -6519.955
      -8839.605      -6053.623      -1055.171       2190.422       3247.063
