     0.02500000      -92512.28       81093.44      -12345.00      -12345.00
      -29.99003       247.3849      -45.74000      -12345.00      -12345.00
       0.000000       35.34000      -12345.00      -12345.00      -12345.00
      -12345.00      -12345.00      -12345.00      -12345.00      -12345.00
      -12345.00      -12345.00      -12345.00      -12345.00      -12345.00
      -12345.00      -12345.00      -12345.00      -12345.00      -12345.00
      -12345.00      -32.11960      -68.98490       1817.000       0.000000
      -31.23600      -65.83800       0.000000       167100.0       0.000000
      -12345.00      -12345.00      -12345.00      -12345.00      -12345.00
      -12345.00      -12345.00      -12345.00      -12345.00      -12345.00
       314.0540       251.0052       72.65003       2.823780      -12345.00
      -12345.00     0.03009667       0.000000       0.000000      -12345.00
      -12345.00      -12345.00      -12345.00      -12345.00      -12345.00
      -12345.00      -12345.00      -12345.00      -12345.00      -12345.00
      2008       318        11        13        16
       140         6    -12345    -12345     11096
    -12345    -12345    -12345    -12345    -12345
         1         7        13    -12345    -12345
    -12345    -12345    -12345    -12345    -12345
    -12345    -12345    -12345    -12345    -12345
    -12345    -12345    -12345    -12345    -12345
         1         1         1         1         1
CLAR    -12345          
        -12345  -12345  
-12345  -12345  -12345  
-12345  -12345  -12345  
-12345  -12345  -12345  
-12345  -12345  -12345  
-12345  -12345  BHZ     
ZL      -12345  -12345  
[...]
      -157.5645      -188.9440      -239.3442      -270.5415      -319.8865
      -346.4852      -400.8650      -432.8667      -488.1506      -516.6287
      -569.1941      -595.8696      -647.2969      -680.4888      -736.2092
      -764.9775      -814.6433      -836.4380      -889.8621      -916.5139
      -963.4370      -984.3623      -1032.516      -1057.778      -1101.777
      -1119.096      -1162.166      -1182.004      -1219.299      -1232.591
      -1271.601      -1283.934      -1313.736      -1328.644      -1363.601
      -1358.330      -1385.454      -1391.299      -1412.315      -1410.284
      -1432.948      -1432.579      -1447.787      -1439.536      -1453.021
      -1445.119      -1460.163      -1447.958      -1456.958      -1442.326
      -1442.434      -1429.983      -1438.733      -1413.681      -1407.914
      -1391.121      -1387.074      -1367.683      -1363.177      -1336.494
      -1329.560      -1300.138      -1294.574      -1269.494      -1248.902
      -1220.356      -1214.377      -1181.354      -1163.662      -1133.849
      -1116.604      -1086.014      -1074.003      -1033.177      -1011.671
      -988.1475      -969.8369      -929.3428      -917.0273      -884.8438
      -868.0093      -838.2107      -818.1543      -771.2307      -757.2388
      -721.2515      -703.0763      -663.4025      -642.1941      -611.9480
      -589.5742      -549.4727      -530.7461      -493.2001      -473.5480
      -431.2029      -401.6804      -361.6658      -345.4059      -310.4401
      -289.7905      -248.4695      -226.9539      -192.5739      -167.3564
      -126.9576      -101.0067      -62.60500      -42.39248      -3.751724
       24.15036       59.87433       88.60968       126.4910       138.8810
       179.1614       209.1567       235.7765       255.9351       297.1683
       317.2131       355.2932       377.0117       411.0939       432.7712
       470.9689       487.9705       530.2227       549.9902       586.5068
       611.5408       643.8805       664.1399       705.4365       718.0527
       756.0610       778.3140       817.3213       831.7319       862.8635
       881.8428       917.9907       934.9714       967.7329       982.8916
       1016.172       1028.178       1063.997       1075.513       1099.233
       1107.968       1133.494       1144.928       1169.424       1173.142
       1192.609       1195.224       1210.654       1206.090       1222.199
       1223.114       1233.626       1222.020       1228.751       1226.263
       1232.575       1220.862       1218.753       1204.422       1206.865
       1191.331       1186.332       1163.934       1163.931       1141.580
       1130.834       1114.272       1111.570       1081.828       1071.513
       1045.468       1034.618       1009.277       998.3032       969.1780
       956.8972       932.2974       915.9207       884.9180       867.7031
       833.6646       822.8069       788.7546       767.2825       739.3701
       723.9985       688.1619       667.0651       628.8140       609.2020
       579.8789       566.9324       526.1256       505.5858       475.1094
       455.9150       417.2373       398.2566       367.9598       350.3405
       324.3472       313.4556       271.5633       256.0182       234.8082
       222.9508       197.5997       188.5790       161.4017       151.8228
       136.7975       123.5324       100.2045       103.6302       75.44112
       77.24673       60.48440       44.19353       33.00871       37.97931
       13.88233       14.04797       1.770750       4.828102      -16.16293
      -11.05776      -30.40427      -28.92294      -35.47174      -35.00594
      -53.32330      -47.62068      -62.59087      -69.63965      -81.73679
      -69.73230      -91.37518      -94.09427      -109.1624      -108.7597
      -117.6897      -111.9174      -135.3566      -130.1354      -144.0467
      -146.9473      -155.7335      -155.7900      -181.0853      -179.6951
      -185.7444      -188.2169      -206.7640      -208.1027      -219.7441
      -214.9550      -228.5618      -237.9344      -255.4220      -250.1135
      -260.5665      -260.0329      -276.9014      -283.2379      -291.3633
      -291.0369      -309.4880      -317.6339      -330.0012      -322.5374
      -338.9871      -343.8438      -358.1934      -361.5051      -371.3984
      -375.5125      -391.2299      -390.5568      -406.7344      -411.2646
      -425.9298      -430.9858      -449.2058      -456.8239      -471.2480
      -473.9368      -495.8784      -498.2520      -519.7222      -524.1788
      -545.6320      -556.2802      -572.1191      -568.2849      -588.7563
      -603.6780      -614.9629      -623.9265      -643.9313      -632.9316
      -667.6099      -676.8569      -683.2554      -698.4419      -729.5588
      -717.5659      -726.1074      -735.4255      -746.3621      -755.0776
      -775.0750      -763.3022      -781.6929      -786.4492      -797.8391
      -804.0696      -812.4465      -811.3779      -829.0100      -818.2393
      -830.4907      -833.0383      -829.3169      -825.9653      -843.5942
      -828.3560      -835.1548      -834.2913      -836.4026      -815.9199
      -821.4082      -806.8687      -806.5039      -804.6143      -802.3203
      -772.4958      -772.4280      -769.0796      -769.2139      -737.5930
      -732.0537      -718.1812      -714.1714      -691.3098      -684.3704
      -664.0828      -648.3994      -625.1085      -616.6841      -587.7703
      -576.6915      -564.4374      -549.2063      -513.8658      -493.8948
      -474.9434      -464.7092      -427.7068      -416.0077      -375.3502
      -350.7413      -325.8755      -296.2729      -269.5555      -249.8136
      -208.0593      -183.1556      -155.7531      -138.9977      -101.6525
      -73.46289      -54.90335      -33.21254       5.772247       28.12570
       65.53699       81.28076       114.6729       140.9272       166.0974
       192.0337       224.6138       237.4695       265.8052       287.7051
       317.8220       326.4727       357.0078       375.2251       393.7604
       412.6434       433.8921       444.6201       465.5815       470.7134
       499.8533       506.1304       521.3384       537.0984       551.0308
       558.5032       566.2717       566.1438       581.1272       588.1372
       607.2996       605.4917       608.8481       607.8091       615.9656
       621.0347       625.0162       624.6233       626.7687       617.0991
       624.7517       618.3190       613.4052       611.4443       610.1885
       598.7531       599.9635       591.8525       581.4626       573.1036
       570.8271       545.6714       540.4917       537.0090       516.9961
       507.1750       513.0520       484.7612       472.8119       450.2911
       443.6583       426.7759       414.0614       410.5033       393.6631
       373.1169       362.5803       348.7477       332.9192       302.2505
       308.5079       297.3470       277.8082       264.1789       242.1270
       230.6190       228.6855       221.6381       209.7550       192.9087
       184.3712       160.6681       159.9607       155.6069       135.8463
       126.5094       125.7076       107.3528       96.51974       101.3521
       103.6481       81.22995       75.96362       70.06097       60.74789
       48.97287       34.76309       28.39163       31.16542       16.82933
       9.403370       12.85083       12.86947      -6.071495      -8.244068
      -2.345108      -16.45518      -27.76289      -3.873028      -10.64889
      -34.06235      -43.47421      -42.86901      -41.45957      -29.59762
      -25.60783      -28.75452      -30.84259      -10.24296      -34.89661
      -52.69880      -27.65222      -19.03720      -8.269817       6.301579
      -14.01780       9.844694       7.291197      -7.441910       20.73637
       34.64588       29.49799       30.87674       43.85172       71.14636
       67.60168       66.54175       72.61584       78.91943       106.4657
       99.57825       104.4460       133.0695       126.6114       149.4261
       170.8420       166.0577       167.5706       180.9941       191.9279
       200.0793       211.1024       232.2555       243.9865       239.5763
       251.7781       291.5946       293.6596       277.3075       297.8651
       311.9182       311.0661       328.9012       342.9274       366.2097
       368.6495       382.3380       398.6875       400.7734       406.1389
       407.3196       420.9364       435.0321       435.1499       447.3602
       448.0095       450.8916       448.3875       450.6086       454.4595
       448.6188       442.7572       443.1019       442.6526       437.9436
       423.8599       416.9548       411.6295       409.9109       400.8140
       393.5618       384.4946       361.0094       349.1987       341.0207
       327.6797       332.7540       322.2314       291.3360       286.4754
       286.9230       271.2153       256.3836       236.4037       235.8035
       234.7995       205.1194       191.1068       182.9823       175.4290
       178.5457       158.2846       139.9179       133.6260       121.6407
       108.5610       95.88489       89.45279       78.87350       75.89748
       53.44103       30.95352       24.15551       5.622622      -2.293434
      -2.091438      -29.25519      -44.84744      -57.55783      -76.52338
      -94.47333      -111.1379      -115.7604      -132.6516      -160.1371
      -180.9500      -199.7269      -209.7955      -228.8644      -251.5721
      -269.3967      -284.8198      -310.7220      -333.5616      -351.2657
      -379.0874      -391.7598      -400.2250      -426.0732      -443.1493
      -460.6672      -482.0117      -500.3223      -516.1274      -538.0698
      -547.2830      -566.6104      -592.5142      -607.0081      -618.8843
      -640.0658      -650.5337      -672.7925      -690.1777      -708.5999
      -721.2104      -733.6064      -749.4832      -764.2761      -775.5747
      -789.5010      -798.7246      -808.8320      -820.0215      -826.1099
      -837.8044      -858.7688      -861.5811      -866.1182      -868.4697
      -879.5134      -882.4421      -881.8086      -886.9131      -894.3755
      -886.5178      -890.7578      -900.6128      -897.1472      -890.9277
      -889.1450      -877.5444      -888.4502      -876.2961      -857.5288
      -858.2783      -853.5803      -840.8696      -836.2100      -819.1968
      -804.9189      -786.4868      -784.2761      -758.4897      -740.3293
      -727.7104      -712.8298      -686.9548      -671.7711      -643.6458
      -627.4048      -605.3816      -583.1499      -546.1836      -532.0552
      -518.6986      -487.2814      -455.3748      -440.4186      -395.0117
      -374.0109      -348.5425      -319.8857      -285.7590      -270.8942
      -231.9773      -210.4930      -189.0667      -153.2337      -122.0495
      -112.1629      -67.20735      -49.78511      -33.14263      -8.879662
       22.91919       43.67188       69.70645       81.33762       110.7848
       126.0452       152.4207       168.2662       187.5084       198.7864
       212.6274       223.0934       250.8728       260.4720       283.6047
       296.8612       306.4498       308.4913       328.0620       339.5708
       360.8589       366.5239       383.1580       389.2909       401.7732
       409.8093       431.6852       435.2367       452.0865       457.6504
       475.9725       486.0146       497.6399       507.6130       528.5804
       531.0647       548.0642       560.3455       583.5388       589.4788
       605.6924       613.7708       625.2734       644.9756       651.4414
       653.7939       681.8716       683.3596       696.8396       702.0552
       706.0791       713.7949       720.9919       719.8745       725.2920
       723.1973       733.4854       727.3274       725.3901       725.5220
       722.2549       710.7747       699.9883       687.3121       684.9272
       678.3240       671.0616       647.0869       646.3486       640.0688
       631.8782       829.9912       1820.625       4688.617       10860.58
       19988.02       25846.17       20610.39       10551.77       11727.89
       19157.84       4762.449      -16113.97      -6697.518       2350.953
      -12651.73      -26302.09      -29165.44      -17565.83       1496.260
      -3885.398      -22894.00      -24418.02      -17547.95       453.7988
       14052.18      -12443.85      -41363.11      -12050.91       30756.59
       28745.19       42729.25       63823.35       15301.23      -34512.01
      -17169.54       1873.998      -7745.252       2295.900       8181.078
      -34542.52      -54907.27      -9994.562       21433.62       37198.84
       81093.44       80071.11       7488.500      -49010.91      -74196.16
      -92512.28      -70166.84       5554.922       77640.42       78521.88
       27910.02      -4058.688      -11638.61      -28464.28      -40704.06
      -32974.55      -20335.40       5308.219       34833.34       29007.63
      -3752.695      -19701.75      -11908.15      -11903.87      -17626.80
       15397.78       55470.80       32241.03      -21847.67      -47215.98
      -39348.30      -4826.711       31192.52       40967.98       41724.62
       37085.78       12697.16      -12265.10      -25671.80      -31289.74
      -27508.69      -21914.62      -18123.25      -7844.975       8266.389
       13691.69       2175.756       2607.613       18149.32       12405.29
      -12321.27      -27001.87      -27263.31      -12242.85       12596.77
       19697.81       12361.80       21554.57       33935.50       16508.71
      -16088.87      -31943.47      -24853.91      -8349.514       4326.157
       7007.797      -6538.760      -13419.21       7517.387       19528.78
       5904.667      -1782.497       4568.328       3980.909      -213.0271
       2147.195      -4003.447      -9336.418      -133.0332      -2031.195
      -13676.16      -6454.328       7403.493       6810.509       1921.217
       5873.564       5919.900       3882.094       8752.892       1114.055
      -16967.66      -16158.00       6732.684       15613.59      -1286.949
      -13517.25      -9418.673      -1211.359       3393.840       5475.613
       8897.734       15054.42       17970.50       8792.656      -2187.795
      -3373.020      -2241.555      -1956.949       163.1272       1087.506
       915.0518       4196.293       2900.186      -6674.395      -9651.305
      -4486.783      -3955.261      -5674.397       2300.664       13973.48
       12070.35       1116.535      -6282.746      -11220.56      -10563.02
       1165.361       12148.42       5708.992      -5350.852      -4463.439
      -711.7793      -3480.034      -5165.988       7515.410       19927.90
       16682.27       7185.744      -4826.924      -11558.26      -3002.262
       10715.17       15379.95       9181.041      -785.4961      -6253.848
      -6361.573      -4252.023       453.5430       6631.367       11412.80
       10500.74       2098.812      -2826.314      -2850.035      -10654.17
      -18332.09      -11242.92       3731.447       8958.775       4453.787
       7250.348       14186.91       10381.96      -861.1719      -7567.221
      -4120.488       168.1201      -3738.884      -6164.006      -502.6328
       5646.611       7896.873       8804.459       4474.303      -4094.201
      -7959.633      -9363.379      -10233.58      -12129.57      -15705.64
      -13649.06      -4559.283       4285.643       7085.711       9966.250
       11948.16       5594.696      -43.98828       1489.118       4145.276
       430.7529      -4455.816      -6887.506      -9020.727      -4061.811
       1699.146      -2734.400      -8595.571      -4546.872       922.2163
      -148.8496      -4813.535      -10042.69      -7350.072       3797.215
       9836.340       5408.804      -1390.359      -4596.667      -2544.284
       2202.191       5973.275       6994.222       1686.211      -4810.146
      -6570.460      -3646.847      -1474.685      -4477.908      -3380.226
       178.0312      -1668.229      -2645.183      -772.6562      -2931.303
      -5128.072      -898.3164       3181.889       4003.197       5082.930
       9785.668       14275.93       7309.428      -5132.730      -7413.808
      -3471.975      -4197.555      -8245.711      -8822.291      -4385.090
      -2800.281      -5871.058      -5536.921       33.57031       5200.457
       7234.555       4230.533      -2327.445      -2721.628      -598.6250
      -2184.041      -2259.363      -1570.893      -2169.333       435.3525
       5372.160       1027.765      -6291.931      -1147.328       4146.141
      -4060.844      -14001.06      -12848.89      -3309.890       3136.490
       322.1855       767.6738       9421.709       7954.027      -4893.387
      -8882.826      -3128.426      -5376.328      -13475.17      -10965.62
       876.1289       8414.025       6786.092       1888.250       1786.770
       8448.346       9499.306       593.9346      -4816.531      -5428.896
      -3602.197       2099.261       4241.953      -352.8281      -6641.080
      -8100.832      -846.6816       5637.268       5258.252       4289.771
       1267.547      -2957.761      -2558.375       86.50241       85.48584
      -540.9504      -198.5581      -534.0811      -1020.044      -3227.561
      -3863.272      -186.5342       2204.424      -1274.723      -6658.761
      -4992.969       7297.711       15343.51       5176.611      -8210.146
      -7549.016       2388.957       5622.558       1606.663       797.7383
       2249.712       2087.511      -124.1855      -2234.125      -5723.191
      -8962.396      -2737.312       7879.405       4518.993      -5335.896
      -964.3047       12926.48       18045.86       9432.848      -1889.000
      -6406.604      -4471.567      -97.53467       2399.395       332.5615
      -1284.848      -2284.411      -5078.038      -3960.986       2830.489
       6600.572       2428.854      -157.6523       4163.100       9706.520
       9818.281       4988.009      -370.0383      -2010.897       336.5469
       2060.566       1995.774       1595.531       2599.739       1743.365
      -2529.332      -1746.184       3193.592       6495.780       6255.535
       3055.286       1532.164       1120.833      -627.7402      -2854.043
