     0.02500000      -75280.22       50494.41      -12345.00      -12345.00
      -29.99003       247.3849      -45.74000      -12345.00      -12345.00
       0.000000       35.34000      -12345.00      -12345.00      -12345.00
      -12345.00      -12345.00      -12345.00      -12345.00      -12345.00
      -12345.00      -12345.00      -12345.00      -12345.00      -12345.00
      -12345.00      -12345.00      -12345.00      -12345.00      -12345.00
      -12345.00      -32.11960      -68.98490       1817.000       0.000000
      -31.23600      -65.83800       0.000000       167100.0       0.000000
      -12345.00      -12345.00      -12345.00      -12345.00      -12345.00
      -12345.00      -12345.00      -12345.00      -12345.00      -12345.00
       314.0540       251.0052       72.65003       2.823780      -12345.00
      -12345.00    -0.09353070       90.00000       90.00000      -12345.00
      -12345.00      -12345.00      -12345.00      -12345.00      -12345.00
      -12345.00      -12345.00      -12345.00      -12345.00      -12345.00
      2008       318        11        13        16
       140         6    -12345    -12345     11096
    -12345    -12345    -12345    -12345    -12345
         1         7        13    -12345    -12345
    -12345    -12345    -12345    -12345    -12345
    -12345    -12345    -12345    -12345    -12345
    -12345    -12345    -12345    -12345    -12345
         1         1         1         1         1
CLAR    -12345          
        -12345  -12345  
-12345  -12345  -12345  
-12345  -12345  -12345  
-12345  -12345  -12345  
-12345  -12345  -12345  
-12345  -12345  BHE     
ZL      -12345  -12345  
[...]
       2801.583       3225.688       1100.218      -178.5635       1234.785
       4784.666       6962.522       5286.758       3696.046       4190.414
       4186.506       1466.711      -4210.900      -7959.818      -6584.032
      -2031.141       2868.334       5132.136       2513.952      -1606.380
      -1216.368       1156.700       1005.109      -44.55176       1432.541
       2942.830      -955.8945      -5823.504      -6101.132      -5054.066
      -4224.069      -1821.172       990.8420       937.4105      -87.40381
       1773.695       4615.992       4655.229       1012.178      -1799.164
       558.7002       4635.779       5271.454       2832.126      -1116.301
      -3881.681      -2420.405      -1485.507      -2851.881      -1545.182
       1698.939       2511.493      -377.7588      -3846.268      -4941.614
      -3116.350      -214.4469       335.8765       993.6445       4489.189
       7396.150       6966.073       4151.738       648.2695      -3270.508
      -6782.697      -7261.757      -4933.544      -1091.794       3349.039
       5468.572       3890.333       990.4401      -460.4611      -566.2678
       659.2051       2579.276       3889.898       4785.847       2412.617
      -2603.793      -6335.359      -8373.082      -7946.871      -6500.074
      -4097.586       520.2402       3048.727       2334.901       4016.797
       7909.344       5121.518      -4785.527      -11183.63      -7747.742
       819.3418       6486.426       8042.359       7213.914       3508.131
      -761.0920      -799.0898       2453.816       3001.716       865.7422
      -1279.160      -2880.785      -2173.562      -650.1655      -440.6484
      -283.9440       67.38147       128.7507       561.1299       1629.732
       2045.331       1763.260       1626.332       686.1973      -2218.244
      -5258.138      -4064.699      -11.59619       224.0430      -3378.830
      -5502.071      -3372.341       2096.730       6701.020       7269.750
       5459.143       3807.619       2676.181       1558.361       1409.611
       3126.284       2877.941      -2157.896      -7230.775      -6982.812
      -3409.393      -1829.844      -2296.880      -2021.360       637.8867
       5958.871       9744.049       7425.920       1570.555      -3207.246
      -5909.584      -5652.572      -1982.059       1097.453      -48.84766
      -2434.747      -2228.724      -22.08301       2277.734       3524.807
       2908.937       1795.457       1473.158       1839.364       4467.518
       7477.387       5977.461       1553.075      -1178.052      -904.7231
       184.9484       149.3584      -1065.085      -4096.152      -6433.656
      -4786.890       222.7715       5339.174       6307.033       3945.409
       1864.868      -1217.240      -4517.985      -1776.070       5702.150
       8767.754       3334.266      -4909.859      -7889.208      -5609.397
      -2485.124      -349.1477       171.0620       1015.052       2791.852
       1372.146      -2472.423      -3896.683      -3629.354      -3195.362
      -2245.025      -1229.745      -870.4156      -390.3892       1478.742
       1289.530      -3498.202      -6419.846      -2326.844       3007.152
       4330.952       4036.025       3830.678       742.9629      -5227.975
      -6606.332      -1513.339       2133.373       532.5989      -965.9912
       899.2051       535.1631      -4281.043      -7662.820      -7637.964
      -5755.216      -1835.215       2967.175       5067.746       1728.018
      -3169.363      -2708.950       1887.951       5121.075       5384.604
       2551.416      -1127.646      -3008.963      -4182.681      -4372.607
      -3086.223      -1755.756      -643.6938      -782.4570      -2700.355
      -3642.812      -2143.672       330.7075       2156.992       3460.438
       4863.021       5345.721       3990.879       290.2539      -3951.243
      -3985.626      -1559.578      -1053.700      -1832.930      -3924.441
      -6651.363      -7031.458      -5620.884      -3954.185      -1473.991
       1922.127       2675.358      -788.7979      -3067.004      -2090.919
      -283.4761       1710.483       2773.050       1425.932      -1031.948
      -1463.280      -1160.939      -862.6484       2292.590       4475.366
       2848.576       919.4434       1519.928       4136.873       4425.097
       1402.604      -1574.028      -2335.611      -1584.231      -886.5649
      -1073.569      -641.8857       1192.027       1272.612       874.8213
       2004.093       765.1533      -2051.831      -3192.691      -3621.218
      -1996.604       1279.533       1747.174      -872.1289      -4102.675
      -4152.297      -212.6758       3184.074       3449.304       1077.402
      -1938.383      -4014.499      -3799.366       793.9395       6701.428
       7975.679       3795.622      -1594.141      -4234.056      -3941.575
      -2019.251       650.4126       1947.403       1348.426       1843.799
       4567.391       6386.407       3310.859      -2517.148      -3666.115
      -608.3627       491.7935       293.6084       1035.449       666.2148
      -1227.582      -2484.165      -1831.045      -1648.308      -2461.154
      -795.1504       3187.967       6129.230       6454.785       5503.521
       3305.365      -585.4590      -4293.143      -5746.047      -3818.447
      -256.6592       2480.062       3728.963       3744.898       3387.066
       2397.380       469.8467      -1056.830      -1071.957      -74.60114
       5.552002      -640.3303      -260.1548       411.9053       612.3995
       932.1211       186.2686      -1712.515      -3720.214      -4997.639
      -2951.357       2400.123       7251.498       8897.189       6750.441
       3781.716       1051.947      -2594.323      -4268.080      -3349.509
      -1826.013      -892.5306       266.4517       1677.132       1595.649
       720.9873      -31.02393       1100.487       2945.027       1654.495
      -2827.445      -6578.852      -6263.543      -3077.668       506.9175
       2086.957       800.2552       34.97290       1110.201       1591.089
       1543.276       2541.734       5609.014       7770.060       4269.979
      -1309.376      -3653.701      -1851.216       1434.316       3579.269
       4455.446       2397.936      -705.3579      -1149.873       1623.012
       5931.404       7094.674       3334.043      -2012.832      -5635.445
      -5929.805      -3432.192       357.6113       4068.496       4155.454
      -521.5503      -3509.948      -973.0547       2812.426       4576.249
       3775.415       1520.545      -1279.489      -3994.091      -2312.550
       2151.281       1940.630      -2330.643      -3942.594      -2109.701
      -1713.040      -1640.562       744.9619       2907.051       3402.969
       2605.645       1189.327      -156.3718       315.7061       3000.699
       3640.561       1382.099       773.9238       1956.345       1829.562
       859.1746      -151.7407      -1622.446      -2612.304      -382.5332
       3635.674       1897.961      -4034.605      -5394.798      -3030.016
      -2208.363      -3406.062      -2058.471       2023.394       1708.308
      -1877.213      -3025.834      -2908.031      -2568.479      -279.5000
       3447.983       5588.100       4703.959       2530.904       1003.664
      -419.0586      -2002.262      -879.1030       1486.383       1022.787
      -98.84619      -815.7070      -2897.553      -4124.671      -2017.838
       239.4414      -1493.672      -4981.928      -5759.646      -2855.911
       852.1826       2711.501       3088.165       3118.131       2878.613
       881.5664      -3213.139      -6329.472      -4284.087      -2.140869
       148.2930      -2589.529      -3208.762       356.4268       4275.227
       5988.334       6067.265       1335.242      -6383.164      -9339.190
      -5122.424      -393.2305      -1420.865      -3518.491      -2657.859
      -2568.714      -3626.398      -2208.254       1717.752       4766.745
       3476.799      -353.1182      -1846.910      -1234.134      -1398.412
      -2485.432      -1300.865       2716.125       5038.061       4363.905
       2674.527      -711.2246      -3708.663      -2649.345       397.6934
       3152.619       2530.804      -2712.250      -7322.049      -8828.223
      -7079.074      -3214.002      -59.60254       1978.015       2901.860
       2951.415       1824.046      -955.7246      -2267.608      -352.9707
       1355.113       2418.550       2609.689       2189.417       3256.554
       2772.861       1154.128      -923.9805      -4617.520      -7166.668
      -7889.363      -6135.455      -1508.263       3146.526       4636.823
       2760.027       1383.484       2391.195       2715.850       1661.250
       1421.915       48.57031      -3983.252      -6993.528      -5831.747
      -2408.854      -1021.895      -1299.612      -1511.153      -1982.001
      -555.6367       3515.031       7109.733       6693.080       2554.208
       68.65381       1320.821       2353.548       1346.164      -662.5879
      -2771.380      -2953.414       651.4375       5888.969       6574.024
       2874.823       209.4795      -1084.375      -2071.705      -3537.269
      -3384.323       332.8286       3011.341       2081.792       295.5220
       923.5742       3418.917       4402.046       3480.110       840.4541
      -2945.705      -5680.909      -5215.693      -2175.149       358.4082
       1985.686       3473.286       4434.881       3994.392       2138.091
       1054.790       1245.818       990.3367       779.9530       759.4053
      -1099.325      -3573.778      -3234.078       53.61133       1986.413
       1350.378       676.6946       324.2637       943.2314       2012.423
       2333.294       2694.138       1823.307      -285.5459      -1703.637
      -2068.359      -1311.298       633.5742       2732.389       2911.736
       1004.365      -730.4371      -479.5704       505.5310      -195.8857
      -1290.675      -2695.759      -3423.033      -1003.521       2438.941
       4371.521       3262.591      -431.0869      -2583.931      -2080.951
      -1190.883      -61.54297       1733.736       3658.473       3836.312
       357.8350      -3251.988      -3522.579      -2452.829      -1563.141
      -874.1689       546.2334       3003.035       3288.009       439.2256
      -1927.208      -1757.732      -1065.948      -1118.939      -476.1343
       952.3486       2288.549       3291.308       2554.495       686.5615
      -1715.775      -4789.263      -5216.507      -1289.568       3490.723
       5541.221       4411.314       3562.377       3113.477      -340.8438
      -4095.321      -5131.223      -5448.789      -6095.957      -4657.468
      -114.1479       2706.043       837.6562      -1325.164      -600.4794
       469.7725       825.5225       1566.328       1455.600      -551.5957
      -3607.356      -3844.975      -958.3823       486.2000       1148.258
       644.6968      -2098.183      -3925.366      -2996.583       703.3389
       3852.622       3398.229       882.9595      -1957.049      -4893.547
      -7193.237      -6020.959      -1566.281       2486.204       3737.079
       3042.050       2747.889       1759.846      -54.31458       127.9592
       1488.198       1020.242      -1206.240      -1600.069       862.7344
       3049.921       2404.292      -1141.640      -4498.701      -3118.040
       1356.932       1318.975      -3843.943      -6878.333      -5366.482
      -2011.368      -422.8169      -1541.655      -3221.042      -4518.270
      -3591.242      -279.3340       3453.768       5500.722       3770.419
       222.1250      -3086.922      -5384.855      -5911.615      -5684.228
      -4203.834      -948.9111       1218.286       1875.161       2206.464
       1138.638      -1211.636      -3227.683      -3241.212      -1699.748
      -558.4127       74.76379       10.28809      -1228.104      -3447.770
      -4765.572      -3224.125      -470.8655       1222.463       1348.301
       753.9395       1573.883       4076.357       5795.506       5975.306
       4697.100       866.5479      -2781.291      -4516.980      -5039.023
      -4561.189      -5018.785      -4822.649      -1832.244       2427.914
       6218.541       7970.127       6808.597       3891.950       1019.478
      -3139.289      -6657.604      -5419.851      -1428.099       3105.328
       6246.552       5454.621       2236.061      -266.2932       277.2830
       1249.145      -756.1328      -2702.814      -2710.539      -4985.055
      -11932.80      -17997.05      -17494.98      -11955.04      -5073.689
       147.4375       5277.055       12952.69       21245.08       30847.39
       41950.83       50494.41       50104.41       36508.34       14591.23
      -10407.25      -37241.02      -62031.25      -75280.22      -68134.75
      -41552.12      -4776.984       30007.70       48767.90       45343.27
       31146.13       19193.90       10207.27       2885.064       1509.762
       9942.012       18606.47       11406.42      -10508.82      -32032.73
      -43301.30      -42478.16      -28776.79      -4596.773       16447.43
       22476.58       18086.35       13368.80       12862.35       15404.36
       16587.70       12137.44       2289.456      -4512.452      -477.1055
       7072.805       9260.855       10485.68       9620.281       1861.998
      -6811.871      -8765.602      -3825.549      -779.2598      -4729.637
      -6931.016       1413.594       17938.24       32576.66       32887.46
       12390.62      -22299.22      -52128.16      -59097.83      -46234.00
      -26384.29      -4599.652       11315.80       14126.46       8993.412
       5767.469       10703.24       24042.17       37969.61       38428.38
       23247.30       9483.463       4496.057      -1692.547      -9481.828
      -10981.39      -10248.49      -14019.22      -17661.87      -17376.29
      -16991.49      -16186.83      -9942.336      -1155.711       4618.402
       9792.477       17400.61       23544.48       19808.81       5839.727
      -6672.499      -6950.785       5919.609       19561.15       19108.49
       3132.766      -17411.61      -28902.70      -27734.04      -21708.37
      -14753.76      -1458.250       16738.32       26850.25       23761.23
       14619.66       6660.845       2780.224       790.6597      -1502.887
      -1978.074      -4697.164      -14423.95      -22587.80      -20621.39
      -11764.97      -5027.520      -4008.456      -3649.671      -67.32227
       6994.391       12479.10       9872.986       3700.549      -195.0781
      -4599.801      -12574.67      -21396.90      -23391.21      -12827.19
       5970.258       22284.04       29750.94       27482.32       16802.84
       3512.410      -4267.762      -6356.734      -9787.758      -15973.78
      -16337.22      -6619.019       2613.067       2801.990      -152.9613
      -1354.679       911.7402       8712.340       14753.53       11916.53
       5326.636       2049.407       1937.253       2645.806       1846.005
      -770.7649      -928.5435       788.2710      -177.0059      -4446.977
      -12629.69      -22733.01      -26718.57      -21901.38      -13780.22
      -6075.945       1798.234       8442.941       11326.99       12449.83
       15544.71       19484.58       19156.85       11689.57      -1336.613
      -14208.92      -20809.83      -20137.10      -14108.44      -7499.277
      -5085.426      -6734.281      -12081.43      -16746.97      -12535.72
       390.4961       12653.38       16736.32       12372.25       2151.680
      -9346.320      -15307.77      -12077.27      -3920.665       1303.149
       293.1074      -2261.318      -1774.002       239.7300       1508.407
       1389.610       1805.779       4204.258       7490.617       10096.99
       9156.169       3202.195      -4188.363      -6723.478      -4505.718
      -2634.115      -2241.692      -3561.492      -6457.359      -7928.069
      -4444.168       4306.809       12120.88       12075.94       4452.973
      -3510.295      -6104.584      -6155.984      -6058.636      -961.7812
       8621.008       14503.70       10691.99      -2292.035      -14522.84
      -17093.89      -11910.87      -5506.237      -1406.645       3325.914
       11420.07       18901.15       18772.80       11555.49       4811.623
       2439.067       3207.029       3549.323       1107.264      -3976.805
      -9078.211      -11152.55      -9641.859      -4079.477       2402.448
       5102.795       4588.654       3531.689       4018.676       5526.137
       4289.714      -1034.344      -7582.508      -12780.12      -15277.53
      -12437.44      -5169.260       746.2930       2742.445       4903.629
       10386.36       16035.21       14915.64       5683.425      -1856.932
      -2482.430      -1684.125      -1747.746      -217.2090       4389.379
       9657.467       10500.96       7507.367       6326.104       7006.375
       4684.548       278.9304      -305.7715       782.9717      -1829.324
      -2740.599       1414.432       2034.102      -3265.258      -5855.040
      -2319.413      -215.8613      -2635.271      -356.7402       8425.762
       12469.01       7924.358       1272.284      -2262.826      -2445.184
      -1204.980       845.1206       2808.230       2208.916      -757.7480
      -3495.869      -5370.858      -5907.709      -3749.921       616.4551
       4382.328       3209.431      -501.8486      -1257.249       233.5469
       3880.719       10139.77       14716.21       12063.12       3075.264
      -4234.262      -6169.449      -6177.074      -6832.671      -5641.300
      -1836.498       1806.031       5604.633       7489.621       2572.992
      -5487.125      -9964.328      -11262.18      -10404.18      -4020.852
       5556.555       8840.697       4738.848       2217.730       3668.577
       4498.901       3366.173       966.5791      -1895.686      -2566.154
       1470.068       7006.656       9475.062       11546.22       12944.57
       8680.676       296.8438      -7948.402      -12949.23      -11444.30
      -4766.509       26.54688      -2339.320      -6286.166      -3092.959
       3172.298       3460.332      -498.7822      -3812.258      -7473.090
      -10751.64      -9833.667      -5563.272      -1238.588       2041.777
