     0.02500000      -30568.92       21712.46      -12345.00      -12345.00
      -29.99999       233.6250      -32.70000      -12345.00      -12345.00
       0.000000       24.45000      -12345.00      -12345.00      -12345.00
      -12345.00      -12345.00      -12345.00      -12345.00      -12345.00
      -12345.00      -12345.00      -12345.00      -12345.00      -12345.00
      -12345.00      -12345.00      -12345.00      -12345.00      -12345.00
      -12345.00      -29.93570      -67.10960       688.0000       0.000000
      -31.23600      -65.83800       0.000000       167100.0       0.000000
      -12345.00      -12345.00      -12345.00      -12345.00      -12345.00
      -12345.00      -12345.00      -12345.00      -12345.00      -12345.00
       188.8245       319.4426       140.0865       1.697694      -12345.00
      -12345.00    -0.06933232       0.000000       90.00000      -12345.00
      -12345.00      -12345.00      -12345.00      -12345.00      -12345.00
      -12345.00      -12345.00      -12345.00      -12345.00      -12345.00
      2008       318        11        13         3
       100         6    -12345    -12345     10546
    -12345    -12345    -12345    -12345    -12345
         1         7        13    -12345    -12345
    -12345    -12345    -12345    -12345    -12345
    -12345    -12345    -12345    -12345    -12345
    -12345    -12345    -12345    -12345    -12345
         1         1         1         1         1
COLO    -12345          
        -12345  -12345  
-12345  -12345  -12345  
-12345  -12345  -12345  
-12345  -12345  -12345  
-12345  -12345  -12345  
-12345  -12345  BHN     
ZL      -12345  -12345  
[...]
       1046.992       341.7169      -729.3431      -288.6790       667.4326
      -327.0890      -557.0706       683.6688      -188.1067      -791.4802
       92.38110      -541.0693      -1051.471      -564.0640      -349.2051
       1129.130       2721.389       1673.796       301.4460       778.8489
       313.9907      -359.6470      -830.1191      -2524.671      -2269.647
       542.5396       1974.000       1020.909      -399.4088      -524.2205
      -130.4560       15.21606       477.8198       632.7643       410.3037
       802.8010       1217.054       687.0381      -765.6447      -626.5160
       655.8853       295.5085      -504.4990      -393.1631      -61.08740
      -909.2432      -2304.660      -483.9766       2128.410       1019.895
      -1314.742      -1381.757       93.03540       599.1926       124.5376
       744.8477       1161.158       316.2388      -946.0718      -1181.101
      -44.04846       431.2767       268.6268       414.0217       378.8560
       907.3628       1785.732       1275.227       77.34271       75.09985
      -514.5156      -533.9601       949.4484       546.2880      -1055.978
      -374.6672       1118.684       269.1846      -1254.549      -989.4277
      -1541.152      -2492.000       565.8706       2775.261       505.3032
      -659.8877      -626.4814      -731.5484      -135.5079       66.64258
      -376.9371      -277.6125       903.1157       1955.699       980.8723
       455.7690       1517.705       1376.290      -10.11987      -783.6472
       363.0708       1910.422       552.4573      -1231.004      -1803.382
      -1223.671       700.4847       643.4775      -1311.666      -547.8257
       1257.383       374.7242      -500.6735      -324.6797      -328.9613
       645.2748       234.2867      -718.7915       1198.681       2483.087
       1357.251       98.66455      -1270.811      -1456.008      -1077.359
      -1025.316       224.4918       947.8904       144.2688       601.3530
       1493.571       697.9434      -1476.936      -1790.536       1036.258
       982.3169      -2227.579      -1575.690       1044.512       1434.421
       957.1871       360.5373      -192.1772       582.7925       504.1973
      -974.8755      -1183.044       19.99512       1260.036       1621.603
       101.3535      -1345.553      -1103.525      -448.4102       263.5942
       1009.769       540.6676      -114.5415       327.4902       1474.842
       1612.610       176.2100      -1552.823      -2616.387      -2161.058
      -184.8452       1849.901       2873.541       1653.021       499.4266
       912.4507      -383.0308      -1943.432       105.6177       1787.501
       967.8357       405.7811       646.9546      -190.2129      -2425.159
      -3379.320      -2060.568      -681.5444       615.3628       2195.197
       2407.075       609.8049       67.75342       1189.888       829.9034
      -393.9185      -674.2509      -884.7478       149.3672       1965.613
       656.0469      -2626.388      -3248.537      -694.9165       2651.393
       3272.740       491.8965      -1904.914      -1835.281      -1480.194
      -882.4268       965.9600       2716.117       2153.016      -183.3428
      -1597.538      -1150.202      -129.7015       386.4523       482.3420
       257.3102      -663.2367      -201.7855       779.1042       256.1875
      -1186.762      -2178.419      -571.6426       1969.918       1375.079
      -266.4620      -782.3630      -473.5206      -18.41895      -1038.043
      -678.0328       1009.450      -208.3086      -1503.932      -388.6137
       394.3652      -708.2799      -563.2944      -22.00903      -882.4831
      -753.0412       610.6364       138.4805      -1664.283      -946.1598
       331.3362      -601.6599      -1072.402      -722.4729       105.3967
       678.9204      -275.8427      -113.0620       1591.717       1533.645
       504.5946       64.33093      -135.3301      -432.4961      -1327.495
      -2109.798      -510.8931       1111.738       538.5713      -714.6489
      -1234.442      -1385.947      -1927.853      -1056.627       1342.789
       1097.192      -445.0908       64.74707       1669.130       1023.466
      -1253.263      -1077.209       339.2885      -196.6011      -1259.395
      -746.3188      -985.0361      -2024.026      -565.2866       803.2677
       635.3245       483.4226      -85.58398      -2051.904      -3238.445
      -1533.105       1176.000       2391.837       2364.785       768.6724
      -1472.396      -953.6340       833.4556       41.21082      -377.4393
       594.1582      -481.0518      -2652.880      -1842.633       801.6851
       1497.518       585.7188       3.803589      -46.51611      -957.3623
      -1754.959      -893.8560      -866.1714      -141.8652       1488.405
       903.1101      -588.2243      -363.6323       1026.659       1263.129
      -464.8203      -1473.057      -500.4039       42.68152      -651.1089
      -160.1444       588.4314       773.1311       941.0903       808.4226
       1073.769       303.0278      -2157.334      -1735.156       1424.578
       1138.934      -1893.560      -2205.295      -580.7930       1307.364
       1843.394       591.1666      -102.4780      -903.9810      -1620.131
       1072.413       3250.757       1945.459      -683.9873      -2736.819
      -1773.694       1143.603       2559.804       2089.454       737.7491
      -128.6523       675.0781       1890.989       1247.780      -959.3516
      -1955.177       281.0292       1292.414      -1569.909      -3361.889
      -1420.161       1739.712       3643.897       1234.352      -2028.237
      -1811.459      -432.9312       1032.392       2377.176       3075.206
       2946.544       493.8396      -1315.814      -432.6898       5.355042
      -352.9627      -249.8141       37.03418       1092.707       897.4624
      -1157.996      -855.7344       1855.722       1800.869       290.3804
       404.5413       933.1094       686.2856       892.3838       2112.442
       1695.275      -225.7571      -535.3149       574.7646       1736.286
       1026.677      -92.49341      -513.4066      -487.9548       629.1707
      -293.8145      -1645.000       423.6548       621.8647      -1591.725
      -1836.135      -755.1852       85.95166       1584.375       2521.566
       1425.388       102.0195       1135.239       2731.414       1704.171
      -998.8774      -2156.812      -943.5576       1300.175       3013.850
       2696.844       616.9231      -898.3325      -2162.732      -2208.395
      -315.6338       2378.186       3960.473       2119.627      -1085.703
      -2330.980      -1272.190       948.0583       477.7151      -552.3599
      -328.4124      -1077.858      -570.7549       1341.510       431.5182
      -1141.455       968.8882       2592.989       868.0957      -515.0928
      -2026.950      -2537.055       515.9824       3017.645       2078.982
      -463.2502      -1621.560      -82.38086       1499.071       2018.165
       1037.787      -949.2695      -1339.053       98.38721       806.4130
       319.5674      -1436.675      -2850.418      -1806.588       555.1851
       1217.051      -106.5632      -569.7710       1110.029       2353.131
       1601.170      0.2204590      -794.6868      -759.8931      -1270.420
      -1894.025      -1479.133      -1695.636      -2503.661      -1926.147
       244.5947       2073.580       2874.754       2599.421       1808.711
       805.4595       569.0664       300.6130      -859.5835      -786.5702
      -281.7607      -301.7719      -36.95117      -740.9238      -1837.883
      -1954.664      -697.2722       1178.198       1086.295      -2075.083
      -3364.429      -1624.310      -739.7090      -220.7529       972.6794
       891.5527      -304.5278      -1099.559      -686.8093      -36.94000
      -22.79346      -610.2490      -1261.443      -635.8096       1409.352
       1505.065      -183.6342      -197.7614       375.6406      -1582.905
      -3261.729      -2105.555       67.56091       638.2510      -831.0449
      -1812.827      -535.8785       651.5419       708.6537      -287.5034
      -1726.097      -609.9805       1919.517       1400.754      -969.8350
      -2304.062      -742.0774       1845.792       477.9536      -2036.574
      -897.5454       733.8531       739.8087       93.51016      -187.7249
       580.2788       1395.112       264.9890      -332.0719       877.8730
      -416.2295      -2677.420      -2083.746      -2072.019      -1511.010
      -425.1245      -1645.677      -844.2002       1866.293       2252.365
       1921.229       184.1113      -2098.535      -665.6382       1687.435
       1255.380      -29.41504      -1105.175      -1559.451      -1336.280
      -950.9929       87.37842       2163.170       3101.173       1630.595
       103.4640       186.6021       810.7260       1055.202      -344.5386
      -1710.881      -435.3179       1821.296       1113.681      -2115.577
      -3701.876      -2627.293      -2005.307      -707.0337       1481.335
       1516.886       1224.060       1300.500       28.15552      -768.7717
      -562.6177      -621.2659      -340.7122       755.7329       66.96338
      -1326.186       712.1182       3672.328       2444.964      -655.4441
      -1345.738      -855.4268      -2411.284      -3411.494      -1131.304
       1306.134       1198.104      -1001.321      -2645.299      -540.3057
       1568.298       1753.402       2831.280       3148.279       1327.638
       145.1934      -387.1304      -1316.119      -1687.510      -727.3554
       154.8809      -780.2729      -1827.500      -1115.545      -7.550293
       967.6172       951.5908       1224.897       3472.096       3306.305
      -286.6660      -2314.189      -2148.296      -1290.347      -700.6851
      -303.8793       111.8454       19.76257      -16.10693       1239.350
       1782.538       405.1018      -921.3843      -850.9824      -288.5186
      -733.3018      -1469.172      -126.0149       835.9438       999.1787
       3089.854       4039.231       903.1626      -2043.320      -1462.276
       436.7964       1615.327       2897.427       3767.396       1846.928
      -1419.497      -1474.234       212.1753       610.0964       895.9763
       870.8750      -632.4600      -1311.813      -1396.265      -2068.582
      -1718.132      -197.8958       960.0654       1623.586       1473.996
       960.2371       957.1609       637.3053      -73.21631      -877.7478
      -1269.111       398.8639       1022.759      -410.9011      -122.6357
       1651.005       1378.044      -584.7659      -1261.685      -54.08887
       1605.051       2116.186       600.7739      -1069.589      -1037.406
       233.5252       375.1372      -247.7852      -1330.152      -2985.768
      -2014.022       1107.073       1913.026       934.0591      -338.7009
      -1262.509      -925.2533      -286.6782       818.4861       1584.035
       341.5923       628.3699       1474.098      -461.4312      -1975.383
      -1422.493       198.7031       1914.039       1835.714       496.9199
      -1044.834      -1418.938      -380.2671       950.3408       1965.645
       2531.330       2745.014       1756.680      -291.1523       92.46826
       1185.654      -715.7051      -1887.979      -454.2020       120.6572
      -1140.936      -1837.037       405.4019       2287.901       753.0271
      -968.1917      -929.3345      -936.1865      -538.9858       626.3652
       827.9733      -167.5267      -399.7595       375.9093       140.8750
      -1144.084      -1145.564       249.1214       748.8997      -757.3516
      -1587.447      -329.5784       1266.760       1457.554       782.7621
       663.9183       55.87549      -1326.410      -1596.160      -1348.394
      -912.0086      -165.1324      -569.3593      -499.4019       1551.229
       2129.265       504.7095      -1612.545      -2974.309      -2607.752
      -2181.273      -2799.971      -2402.509      -986.8389       172.1255
       50.47461      -1280.673      -2269.752      -3621.527      -4412.471
      -2572.865      -2008.350      -3029.082      -3537.559      -6095.260
      -8533.219      -8569.088      -8753.146      -8030.613      -4475.976
      -1722.024      -3332.204      -4627.705      -3029.619      -1550.682
      -808.6705      -219.7246      -428.8854      -465.8643       1715.594
       5837.805       8244.777       5918.814       260.3203      -4104.830
      -5570.983      -4445.103       1001.965       10013.44       17691.64
       18584.99       12678.07       6737.529       6481.453       10004.77
       11372.82       8827.469       1350.205      -6449.414      -4521.992
       6275.465       16691.31       20047.39       14354.84       4814.756
      -2149.555      -8496.738      -17297.98      -25448.16      -30568.92
      -28616.53      -17212.40      -2552.787       7285.283       8433.799
       3895.791       1501.582       6508.676       15913.27       19550.94
       12926.61       1901.256      -5356.785      -4105.388       2491.765
       5464.531       1257.389      -6716.461      -13454.97      -15715.94
      -14190.42      -9669.463      -1980.395       7091.637       12505.65
       8989.013       421.0884      -2228.934       4360.814       9770.410
       8239.933       2945.290      -3349.791      -5074.112      -506.3071
       3383.663       1456.441      -904.8125       2417.976       5520.162
       1594.760      -5199.279      -5971.749       1262.664       13381.97
       21712.46       14376.63      -4994.949      -19383.94      -17466.07
      -2355.691       13563.35       19284.59       13141.85       2897.188
      -8743.859      -18355.31      -18745.92      -15193.96      -12746.99
      -7343.940      -236.8242       3934.977       6296.133       8859.273
       11606.88       13953.85       11230.67       3813.521      -3184.193
      -9232.469      -11619.94      -10077.95      -6889.582      -451.6562
       4485.085       2875.652      -2393.039      -3645.600      -441.9297
       1195.722       2543.753       3978.816       3612.156       454.3145
      -3583.546      -4575.963      -5933.961      -5347.115      -120.9688
       3380.156       4406.778       1924.921      -4346.176      -8595.211
      -9700.620      -5704.096       2018.014       4988.918       3383.578
       3872.316       7675.203       9111.773       5386.634      -356.3516
      -5358.740      -6157.518      -2051.445       1983.229      -26.64258
      -4844.137      -6876.654      -7366.629      -5636.945      -2306.902
      -983.9541       708.0703       4673.971       8790.191       12693.66
       14456.33       10506.45       2219.822      -7311.562      -12819.25
      -10402.21      -3002.415       4477.277       7505.348       8261.093
       6520.483      -1118.110      -5481.347      -3075.079      -652.0845
      -43.92822      -1248.353      -2374.893      -319.3325       883.7290
      -1750.861      -2504.824       1368.127       4030.052       1107.103
      -2760.714      -1751.663       2631.424       6017.901       4427.185
      -689.1533      -3704.170      -5954.064      -7771.027      -5033.487
      -1390.136       1865.021       7431.418       11236.83       8541.707
       2661.309      -1276.016      -3800.272      -4544.952      -3969.492
      -3901.159      -565.1953       3990.824       2449.244      -2775.071
      -4319.706      -2210.236      -525.2388      -241.9673      -790.2969
      -3342.648      -6145.864      -5919.782      -3191.537       627.5273
       5532.166       8840.109       7054.688       3042.569       1903.535
       1998.750       973.6519       1296.269       725.4116      -1614.225
      -1909.084      -1355.400      -1043.030       1032.545       3714.083
       2568.858       278.7113       326.3115       441.5303       1617.124
       3407.615       2927.925       996.1172      -3511.861      -6610.927
      -3133.660       276.3896      -2506.016      -6995.258      -5962.982
      -2777.618      -2923.045      -2125.368       1001.429       3977.451
       6742.836       8511.543       8636.392       6289.378       1434.829
      -640.0571      -1080.174      -2512.917      -1135.338       280.7370
      -206.9102      -234.0505      -875.8425      -125.8726       1340.521
       290.7949      -1981.729      -3280.009      -1308.188       2400.826
       3460.295       2205.490       2509.422       3048.040       809.8071
      -1657.217      -1997.504      -2643.624      -5229.763      -4873.820
      -1507.856      -767.0449       176.5249       2110.435       535.9042
       14.81348       1264.338      -992.7617      -5495.074      -7229.421
      -4994.596      -3191.847      -4288.029      -4809.837      -3042.593
      -806.9995       1621.732       2685.830       1677.336       1231.968
       750.7607       744.0947       2291.540       3905.314       4474.146
       4011.035       3446.057       2174.463       180.2578      -1203.055
      -1884.882      -775.1777       2286.918       4929.242       4688.338
       1212.803      -2735.600      -5149.250      -7401.984      -7649.551
      -2540.631       4303.062       6175.881       5600.783       5770.152
       4163.083       2063.140       976.3640      -485.4351      -778.7720
       1355.484       3508.598       3712.854       1703.901      -1417.463
      -3604.850      -4552.596      -4380.103      -3263.746      -1537.992
      -860.4785      -1531.131      -1204.460      -571.7200      -542.3452
       707.8477       2717.252       3886.278       2611.229      -1735.125
      -6093.958      -4814.524       1064.833       3854.197       2528.428
      -198.1675      -2333.020      -2132.926      -1156.117      -1084.503
      -3379.816      -6685.416      -7111.496      -4424.116      -929.5483
       683.3760       1375.898       2355.272      -358.4160      -3053.363
      -2976.284      -3645.162      -3121.349       240.5234       3067.342
       3077.561       1884.902       2792.624       5454.678       4377.650
      -667.9844      -1369.092       3526.301       6065.326       3894.972
       245.7358      -1980.765      -2947.865      -3077.022      -1070.702
      -14.63672      -905.8208      -1821.991      -1180.011       611.3479
