     0.02500000      -13542.78       16447.19      -12345.00      -12345.00
      -29.99999       233.6250      -32.70000      -12345.00      -12345.00
       0.000000       24.45000      -12345.00      -12345.00      -12345.00
      -12345.00      -12345.00      -12345.00      -12345.00      -12345.00
      -12345.00      -12345.00      -12345.00      -12345.00      -12345.00
      -12345.00      -12345.00      -12345.00      -12345.00      -12345.00
      -12345.00      -29.93570      -67.10960       688.0000       0.000000
      -31.23600      -65.83800       0.000000       167100.0       0.000000
      -12345.00      -12345.00      -12345.00      -12345.00      -12345.00
      -12345.00      -12345.00      -12345.00      -12345.00      -12345.00
       188.8245       319.4426       140.0865       1.697694      -12345.00
      -12345.00      0.2858998       0.000000       0.000000      -12345.00
      -12345.00      -12345.00      -12345.00      -12345.00      -12345.00
      -12345.00      -12345.00      -12345.00      -12345.00      -12345.00
      2008       318        11        13         3
       100         6    -12345    -12345     10546
    -12345    -12345    -12345    -12345    -12345
         1         7        13    -12345    -12345
    -12345    -12345    -12345    -12345    -12345
    -12345    -12345    -12345    -12345    -12345
    -12345    -12345    -12345    -12345    -12345
         1         1         1         1         1
COLO    -12345          
        -12345  -12345  
-12345  -12345  -12345  
-12345  -12345  -12345  
-12345  -12345  -12345  
-12345  -12345  -12345  
-12345  -12345  BHZ     
ZL      -12345  -12345  
[...]
      -1270.331       1518.991       843.1365      -305.6538       1048.904
       2740.660       3313.843       1553.346      -1720.512      -1234.382
      -947.9453      -3345.099      -1591.771       2141.783       2560.854
       1787.096       1423.180       634.0443      -490.5463      -354.4883
       879.6753       1798.997       1758.621      -154.0098      -1875.839
       589.2876       2611.665      -78.91992      -2169.028      -1800.393
      -408.7539       2246.694       4513.975       3713.554      -251.1729
      -2584.854      -810.7910       1724.047       1775.737       1657.282
       2310.548       823.7324      -2211.758      -3685.976      -2307.730
      -92.94727       1127.297       440.3193      -830.6132      -266.7909
      -358.9668       8.769287       1271.860       1125.801       1787.824
       2803.986       1617.223       361.5899       175.8470      -360.2788
       336.2397       1764.625       587.9971      -2005.980      -2494.580
      -1439.550      -210.7344       2386.257       4095.229       2567.959
      -39.94086      -363.0654       1254.651       559.8652      -1611.619
      -1089.529       911.6675       2041.697       1678.851      -132.5034
      -1604.676      -1843.270      -1029.505       978.9199       1965.207
       891.7969      -1833.117      -2993.257      -648.2529       872.7678
       702.3699       723.4111       320.0366       178.0222       565.9778
       721.0579       54.81293      -318.3223       1260.201       1197.801
      -1010.918      -792.2008      -86.60449      -840.1511      -753.4438
       368.6680       1328.566       1584.797       24.61963      -1984.349
      -2312.704      -1592.942       157.8389       1744.022       664.0181
      -2162.191      -3188.604      -815.8062       2350.917       2321.349
      -239.0549       259.6133       2418.418       1772.726      -349.8979
      -1596.148      -1515.910      -926.1322      -281.2530       221.4094
       38.36328      -1264.646      -2330.137      -1023.591       1136.006
       1277.120      -786.6128      -1864.632      -1192.710       4.663086
       1655.080       1311.018       2.666870       659.8260      -240.0286
      -1523.180       214.7062       548.2780      -169.5891       78.45801
      -2011.560      -2582.542      -463.4238       272.1919       1252.943
       1894.260      -360.6123      -3186.308      -4021.479      -1656.119
       1205.938       145.4392      -1265.177       239.2598       981.2719
       248.8179       709.1641       2345.029       2300.375       388.8677
      -888.9565      -1835.728      -2731.655      -1895.329      -744.8762
      -74.92383       1148.891       1749.124      -162.0107      -2134.971
      -1539.685      -1661.316      -2331.711      -783.4429       1659.845
       2608.815       164.4038      -2080.445      -524.2285       550.7827
      -1611.883      -1872.932       109.3726       1861.907       2712.787
      -62.17969      -3156.533      -2242.676      -352.6672      -196.0010
       663.8545       3118.185       3118.908      -329.5361      -3478.833
      -2960.389      -169.9067       900.7639      -652.8564      -2220.358
      -2113.406      -1239.519      -1072.131      -1533.037      -2193.338
      -2166.325       826.6797       4071.531       2632.638       411.6668
       174.1943      -705.6538      -1051.063      -820.1216      -1822.093
      -1768.528      -855.8138      -797.8198       356.8965       1787.782
       2010.177       1593.724      -312.0664      -1966.870      -1627.586
      -244.2310       683.7100       1455.122       1234.431      -91.16272
      -314.5298      -953.6704      -2145.237      -1512.676      -911.0699
      -828.4191       91.59497       1158.861      -529.5957      -3241.940
      -2126.374       453.8389       2587.663       3164.699       965.0151
      -231.2606      -104.1187      -1268.315      -3241.063      -3103.855
      -1355.916      -626.9375       22.38916       2433.213       2536.781
      -822.9038      -1738.116       199.8764       31.16187      -1029.695
       444.5107       1770.904       1548.110       869.8801      -354.7656
      -1712.610      -2062.290      -96.38013       1184.080       435.6544
       467.3105       100.5117      -2200.055      -2996.537      -1904.397
      -592.0168       1067.420       1418.805       1185.018       804.1998
      -210.6094       1065.598       2102.351       556.9628      -87.48914
      -232.6155      -1070.001      -231.4187       1076.016       1039.603
       716.2285       1326.130       1615.105       1225.979       113.7285
      -2534.165      -1661.329       2764.994       2417.068      -2720.379
      -4474.578      -530.3188       2456.480       2318.511       740.6195
      -154.8552       1238.943       1308.789      -420.1647      -491.6926
      -117.3765      -678.0591      -1509.898      -774.3374       2103.732
       3765.029       2092.921       470.7838       622.6243       89.17432
       392.2388       1700.737       349.1133      -1151.581      -1034.166
      -664.5701       669.6782       299.9626      -1910.681       391.7617
       3184.825       1301.588       165.0435       962.3379       1238.385
       1808.080       353.1450      -1977.662      -2021.950      -1280.739
       1393.190       4927.507       4467.512       493.2168      -2466.369
      -2208.130      -393.2717       910.1306       1408.861       865.5449
      -1517.028      -1512.173       1558.071       3074.728       1972.793
       563.5371       323.5571       620.0615       555.1587       715.1660
       1119.608       663.4170       562.6357       2120.636       2170.856
       446.5054      -66.22705      -182.5889      -719.6909      -1549.370
      -1720.350       666.4888       2034.240       966.7061      -332.8948
      -1479.754      -938.3713       1118.703       1560.077       196.7422
      -494.1356      -106.2571       235.9844       1666.016       2615.043
       805.4441      -928.8964      -611.1635       274.1279      -112.6669
      -814.6968       242.5527       1718.313       2226.338       870.0093
      -635.6240      -1236.042      -1429.010      -449.7252      -3.866699
      -1048.086      -2028.272      -1494.720       773.7080       2093.697
       2962.416       3599.438       3447.068       2652.435      -439.8867
      -3124.989      -2274.031      -573.7778      -444.4321      -942.7578
      -2035.216      -2089.754      -199.0547       443.6772       969.0100
       866.9497       1011.438       2529.421       2727.764       1312.119
      -1617.948      -2734.092       753.9346       3263.813       1814.887
      -874.2549      -3373.666      -3427.901      -2205.310      -2682.025
      -487.4810       2765.592       1835.209      -156.7814      -312.3182
      -73.89746      -396.9312       852.7124       2698.624       2599.548
       1665.649      -1202.203      -4443.192      -3398.033       750.7388
       2608.119       2540.704       2287.781      -47.54883      -2785.302
      -2005.173       163.9139       467.8916      -42.54541      -717.0647
       183.6938       2205.629       78.81836      -2981.807      -1735.660
       877.5652       736.3608      -1604.806      -2005.548      -456.4604
      -977.1318      -2467.417      -1867.417      -434.9373      -81.27551
       18.65430       1215.354       3177.385       3789.735       3181.186
       1441.936      -545.4014      -2314.708      -2952.800      -672.5797
       849.9526      -1013.320      -2933.467      -2860.330      -1374.468
       1022.753       3081.470       3466.674       1776.703      -1725.181
      -4582.782      -4889.225      -1922.604       1091.474       1526.074
       1011.971      -339.9138      -1064.736      -993.0991      -2021.709
      -936.7395       1111.688       483.4419      -1162.336      -2678.081
      -2506.629       478.1377       2045.147       1038.941      -243.3008
      -1256.751      -1666.442      -662.8374       1872.658       2096.476
      -1303.728      -2350.652      -1069.270      -274.4438       59.94751
      -1160.508      -1459.985      -112.6094      -652.3633      -1913.698
      -1580.375       76.39038       1472.489       149.4526      -1671.158
       289.0479       2978.237       2077.408      -1525.290      -3987.863
      -4100.322      -2331.458      -485.2726      -99.75195       868.7900
       2498.741       1427.379      -455.1056       111.1508       507.2057
      -456.7898      -204.9688       753.8428       131.3208      -1202.379
      -2298.445      -3992.279      -3753.401      -919.4883       2204.913
       3455.975       1923.337       15.47144      -1040.210      -655.7734
       2067.273       3929.471       1905.645      -1823.736      -3442.101
      -2085.450       616.5225       1766.692       1791.297       2045.365
       525.9878      -1433.411      -405.6561       34.09033      -1681.104
      -2542.186      -2209.988      -487.7520       2795.917       3794.094
       604.0078      -1876.884      -1559.280      -716.6323       1019.627
       1968.285       522.6084      -2031.175      -4078.996      -4156.849
      -1446.778       2153.227       4043.941       4445.904       2149.625
      -118.9170       1606.150       3000.549       943.6816      -2722.312
      -4045.886      -2774.466      -2175.502      -2856.284      -2092.924
       565.4062       2901.495       4007.586       2845.908       31.62387
      -336.4704       436.3046       75.99133       298.1918      -110.5569
       80.44788       582.3242      -1474.459      -1310.781       1515.597
       2267.758       1323.538      -44.79907      -1098.211      -664.7322
      -667.0215      -2277.290      -3304.094      -1675.441       1155.641
       1505.516      -83.79980      -787.5825      -927.4485      -982.4265
      -146.6289       1335.986       1231.385      -855.2827      -1473.449
       67.95032       468.0435       997.0063       1191.923      -32.84705
       406.7279       950.8929      -7.786255      -303.5371       1070.379
       2993.365       3428.667       3177.161       2010.911      -148.0435
      -1140.250      -2167.226      -2477.179      -412.6543      -123.9355
      -1194.228      -754.6504      -863.9238      -2381.916      -2040.021
       1594.440       3508.596       2999.046       2439.005       22.74805
      -1670.219      -2063.326      -2763.875      -2291.741      -693.2163
       668.0311       353.0542       140.6143       2946.839       5076.334
       2671.008      -129.2888      -980.6738      -1672.008      -1651.389
      -158.0801       2386.041       3670.528       3528.686       1596.904
      -1375.605      -3290.787      -3986.159      -3106.355      -2637.946
      -1295.368       1960.700       2195.192       528.6304       115.3176
       628.9795       953.4492       399.5562       1116.718       2168.466
       1657.874       1164.378       1131.600      -324.0645      -3289.875
      -3315.321       833.3408       4765.581       5361.561       3268.386
       685.6798      -418.2842      -646.2717       258.0859       2833.119
       2083.274      -1483.292      -1783.957      -370.9072       1601.902
       2264.446      -1210.414      -2785.145      -481.3394       1031.230
       1997.617       1905.801      -55.47885      -216.9960       633.7365
       474.6114      -12.04150      -881.7533      -861.1728      -119.4382
       472.5469       757.5844       28.71729      -1547.230      -1732.878
      -1019.567      -888.9274       111.9023       1742.471       1301.725
      -523.0969      -313.8071       1840.355       2671.777       1182.456
      -392.9121      -1781.309      -2255.731      -113.5840       2004.284
       2265.130       843.5461      -1109.319      -732.1772       1677.999
       2839.161       1071.777      -1515.236      -2928.891      -3416.804
      -2118.997     -0.4169922       1513.834       3263.306       4770.532
       3827.621       1082.355      -176.9277       373.5342       1342.231
       2048.306       961.7490      -1157.486      -1606.035      -1472.531
      -1056.772       257.4755      -74.18195      -210.9224       1081.851
       890.6074       28.11072      -361.1924      -1258.452      -1270.020
       414.2815       628.7891      -2085.736      -4978.363      -6847.910
      -8078.473      -7761.941      -5034.494       29.70410       4440.289
       6358.957       4574.150      -2404.525      -8979.855      -10172.90
      -7149.976      -2387.180       810.2197      -114.3037      -2298.523
      -782.0801       4109.652       8809.447       9736.967       4908.000
      -2988.846      -8650.178      -8294.186      -2373.072       2201.532
       1577.587       451.8867       3816.387       11712.73       16447.19
       11764.30       3231.321      -1035.392       285.1738       3326.014
       2834.200      -2418.578      -7435.246      -7878.137      -3793.721
       463.5298       7.246094      -4927.039      -10334.47      -9833.841
      -5269.329      -4700.012      -4971.078      -1719.648       3395.406
       8792.951       10221.91       6236.769       665.0151      -2622.031
      -1922.864       36.47180       9.789551      -1875.492      -1222.564
       5599.535       11336.60       8205.487       835.6272      -2767.330
       1552.592       7860.515       5479.955      -3422.496      -7949.359
      -3340.354       3175.931       3766.357      -488.3672      -5600.520
      -7567.773      -4752.354      -982.4111       876.8691       3228.281
       5877.984       5402.968       868.4336      -5345.428      -9010.203
      -7704.135      -3277.220       1564.469       3457.494       540.7637
      -3501.139      -6276.142      -6074.274      -386.8682       4482.439
       3145.253       520.7000       34.53979       627.5719       521.5142
      -164.5342       126.8126       889.9182       177.4648      -2411.410
      -3772.665      -1017.707       4601.293       7669.151       5286.578
       525.0513      -2307.720      -562.4434       2614.114       3416.746
       1169.391      -2952.227      -4617.801      -5367.307      -9566.113
      -13542.78      -12744.49      -5920.133       5463.328       14275.76
       15647.22       10125.62       2652.924      -1031.475      -1889.586
       68.89941       2597.681      -864.0918      -5104.225      -2179.531
       1171.311      -1162.312      -4513.966      -5079.315      -1174.624
       3823.402       5069.328       3244.058      -601.0400      -3348.733
      -2602.441      -1525.959      -3442.529      -7194.801      -8847.657
      -6060.585      -2009.652      -1306.020      -980.8672       1744.371
       5045.807       7516.992       8295.018       9105.246       8441.416
       3859.630      -372.4482      -2304.264      -4944.227      -7958.773
      -7936.604      -4797.489      -2688.100      -3954.674      -4452.331
      -2090.772       1617.413       4464.795       3781.412       1723.604
       1437.567       2366.789       1969.380      -115.5737      -369.7640
       126.3721      -1865.668      -3019.317      -1097.792       2453.840
       4177.304       2751.943       2901.010       3104.303      -59.83740
      -636.2063       1223.021       507.0553       377.3229       257.5303
      -2501.893      -4220.451      -2268.976       1744.047       6296.010
       9426.783       6431.436      -2162.637      -9382.672      -10432.95
      -5741.369      -2420.561      -4136.447      -5014.487      -2091.076
       954.6182       2159.766       3055.266       3440.394       1720.434
      -749.7764      -2199.339      -2247.483      -560.6104       2016.147
       4862.069       6293.083       2374.130      -2716.490      -2346.341
       1882.811       4890.666       3222.394       1594.477       1645.936
      -206.4377       27.83496       2977.321       4329.323       3716.843
       2522.230       2146.125       1725.749      -76.29297      -1090.249
      -855.8469      -1357.291      -1307.856       1760.887       4540.036
       1742.196      -2469.473      -2240.297      -331.9113       612.2166
      -303.5928      -2597.025      -2316.226      -162.2822       1145.625
       1931.634       1801.548       3162.568       5171.938       4516.107
       2975.573      -258.1450      -2276.304      -1062.800      -1135.125
      -1852.945      -2939.628      -4153.265      -3716.920      -3223.634
      -2167.183      -628.2910      -1273.517      -2389.938      -2055.198
      -2063.822      -1700.588      -332.6068       634.2712      -441.8394
      -2598.200      -2974.629      -2865.687      -2699.265      -2014.809
      -880.3408       2315.307       6440.023       6993.207       3653.327
       2283.969       3080.212       1840.855      -206.3733       315.0820
       2724.576       3704.656       2777.080       1259.293      -1069.418
      -3210.081      -2982.566      -1653.720      -1777.250      -1276.012
       1555.679       3197.743       2666.361       2144.802       1835.275
       1857.518       2546.783       3985.123       5433.756       5001.506
       2861.480       969.7693      -579.9567      -780.2286       672.6472
       186.5742      -2007.517      -763.5278       3059.804       1837.589
      -3232.527      -3351.113       163.3628       2244.827       1865.873
      -721.9023      -2905.426      -3591.640      -3420.609      -2308.784
      -656.0017       902.5005       1553.299       1858.914       2186.381
       721.5562      -1906.696      -2729.346      -1903.830      -742.0168
      -538.7988      -2882.889      -4867.888      -2861.061      -493.5720
       218.2771       1095.033       516.4600       97.24658       1920.586
       2161.084       40.58984      -2530.145      -4228.231      -2371.519
       441.8501       295.5742      -1677.988      -2465.713      -710.7830
       218.4390      -580.8022      -2149.042      -2773.388      -248.6602
       3232.374       5274.774       3714.073       439.0087       129.3081
       1055.459       309.3076      -1569.540      -2525.632      -1306.872
      -1117.385      -2491.172      -1258.712       1048.391       2571.864
       3012.316       411.4199      -2061.412      -653.8389       1726.042
