     0.02500000      -20722.63       26442.20      -12345.00      -12345.00
      -29.99999       233.6250      -32.70000      -12345.00      -12345.00
       0.000000       24.45000      -12345.00      -12345.00      -12345.00
      -12345.00      -12345.00      -12345.00      -12345.00      -12345.00
      -12345.00      -12345.00      -12345.00      -12345.00      -12345.00
      -12345.00      -12345.00      -12345.00      -12345.00      -12345.00
      -12345.00      -29.93570      -67.10960       688.0000       0.000000
      -31.23600      -65.83800       0.000000       167100.0       0.000000
      -12345.00      -12345.00      -12345.00      -12345.00      -12345.00
      -12345.00      -12345.00      -12345.00      -12345.00      -12345.00
       188.8245       319.4426       140.0865       1.697694      -12345.00
      -12345.00      0.6620931       90.00000       90.00000      -12345.00
      -12345.00      -12345.00      -12345.00      -12345.00      -12345.00
      -12345.00      -12345.00      -12345.00      -12345.00      -12345.00
      2008       318        11        13         3
       100         6    -12345    -12345     10546
    -12345    -12345    -12345    -12345    -12345
         1         7        13    -12345    -12345
    -12345    -12345    -12345    -12345    -12345
    -12345    -12345    -12345    -12345    -12345
    -12345    -12345    -12345    -12345    -12345
         1         1         1         1         1
COLO    -12345          
        -12345  -12345  
-12345  -12345  -12345  
-12345  -12345  -12345  
-12345  -12345  -12345  
-12345  -12345  -12345  
-12345  -12345  BHE     
ZL      -12345  -12345  
[...]
       1130.267       921.4585       322.9403       501.4668       45.86963
      -1201.208      -434.1758       1187.872       555.0327      -1023.158
      -1377.221       196.8352       1272.189      -311.2570      -954.8975
       414.6167       1312.708       1231.277       446.7020       411.3616
       1063.914      -369.4980      -3015.384      -2244.628       430.1094
       1259.400       1066.737      -482.8223      -2357.975      -1714.471
      -153.9492       566.2866       1592.718       1309.582      -933.6724
      -1714.498      -564.4680       544.8599       880.5170       476.0336
       119.9058      -414.4993      -732.4919       273.5321       76.18787
      -889.6517       228.9684       897.8462      -257.9487      -1673.878
      -1609.917       1162.024       1855.269      -1102.465      -1619.645
       614.7068       743.1309      -1379.071      -1470.548       206.4446
       244.9365      -990.4717      -2085.654      -2318.413      -510.6246
       598.1055      -1088.426      -1163.369       1026.010       1465.871
       553.0977       282.5186      -307.0029      -1075.103      -661.9773
      -659.2334      -1770.608      -1423.454       897.6255       1588.057
       437.7614      -194.6954      -164.5627       695.8279       1169.804
       412.4526      -624.1060      -1210.834      -1260.682      -895.4661
      -512.9980      -1282.479      -2275.291      -493.0737       1950.732
       1124.324      -257.5081      -100.9100      -93.40048       220.0818
      -436.7236      -2502.487      -1171.547       2278.080       2023.180
       2.976196      -78.75928      -240.3389      -1804.435      -855.4023
       2092.913       1294.813      -911.9824      -843.1384      -1178.094
      -428.3237       2090.394       932.5522      -2094.312      -1980.113
       93.67468       1021.792      -112.5095      -199.1990       781.1060
      -270.4712      -1692.152      -961.4703       41.51489      -509.8257
      -1100.176      -721.1226       524.2375       1529.789       1042.142
      -280.7570      -44.45190       1416.397       112.5576      -1331.831
      -321.0947      -1024.104      -1360.049       251.3057      -288.3213
      -1540.119      -1433.847      -1023.749       625.3008       1646.338
      -210.2378      -1584.260      -127.3369       1697.879       986.0811
      -1543.819      -2911.263      -2051.499      -1128.757      -995.7954
       905.7246       2018.136      -257.5205      -1873.104      -1457.406
      -115.5869       478.2440      -194.3506      -140.1728       174.6277
      -100.9351      -535.4419      -1119.627      -861.7827       1038.347
       2484.903       1335.459      -575.2087      -1151.112      -639.1565
       663.5958       594.9653      -116.0276      -110.3516      -1929.995
      -2141.399       653.1592       1197.708       705.4351       1702.687
       687.2769      -1491.021      -544.4172       1263.297       983.2151
      -282.6910      -667.3015       322.2142       809.0898      -57.14238
      -111.5205       78.40747      -1223.542      -478.4102       1650.422
       223.0459      -2185.952      -1204.649       444.3020       146.6771
      -262.0605       663.7676       2524.822       2832.374       488.0718
      -1915.214      -1679.160       1040.797       2011.177      -876.9775
      -3412.762      -1811.068       2384.837       4202.805       1300.477
      -1544.678      -1065.623      -396.5742      -318.5818       279.6025
       515.6174       725.4009       971.3707       836.2979       348.4453
       249.1829       1378.845       1002.046      -1418.722      -1211.452
       130.3813      -1084.023      -1184.389       627.0181       1746.214
       2518.740       2401.647       1674.286       1075.146       16.01508
      -264.9722       564.9199       1391.434       1275.263      -198.7753
      -305.2156       237.0972      -1204.568      -785.6992       1602.402
       1159.609      -911.2922      -1480.610       162.4414       2343.716
       2451.300      -15.04395      -2231.885      -1034.986       2358.151
       3100.958       963.2444       139.9935       278.1428       93.67899
      -175.0184       78.97461       1352.878       2080.723       1677.108
       326.1687      -1229.712      -1498.314       88.82715       1248.326
       614.2170       947.6019       912.9438      -692.8927      -97.53271
       1349.812       507.3398      -1049.634      -895.6125      -270.5051
      -294.3232       951.5339       830.5135      -1071.674       349.6787
       1732.231       58.24854       221.0518       2096.874       2361.681
       783.8909      -524.1383       527.5663       984.9409      -811.2627
      -2095.059      -2319.372      -1228.823       602.0566       328.0526
      -209.1758       884.8993       945.3474      -11.94159       140.9330
       393.5193       249.9253       958.8682       2006.971       2126.694
       850.5752      -1498.760      -1052.821       1036.054      -585.5454
      -997.2469       223.2588      -945.5037      -257.0081       689.9731
      -406.6702       483.5068       2131.270       445.0684      -2215.047
      -2174.000      -1817.964      -2434.065       35.81934       4052.871
       2444.351      -1763.115      -1563.900       303.6814       650.7063
      -647.1406      -1987.292      -1246.765      -778.7664      -1087.656
      -566.7832      -785.3066      -298.9644       940.4412       225.6530
      -194.6765       303.2603      -215.8438      -262.5004       322.9468
       119.2679       220.1575       913.4919       693.9722      -326.4084
      -631.1204      -567.2783      -1111.800      -754.0207       479.0227
      -351.4409      -2122.164      -1694.088      -910.5630       99.44189
       1348.054      -2.043945      -1973.478      -1297.738      -89.00177
      -301.0959      -305.4182       68.84814       675.8847       294.3398
      -1119.987      -466.3380       284.3062      -399.2200      -729.1130
      -728.4478      -1344.677      -955.9995       1469.916       2388.692
       1401.113       1648.715       1834.022      -434.1494      -2553.933
      -2043.680      -1541.760      -1607.178      -774.7144       1201.188
       2291.072       948.2449       879.3245       1302.256      -529.6006
      -1423.325      -983.3326      -112.1768       837.3572       788.9326
      -672.2324      -2572.585      -2775.524      -1945.347       571.6797
       4691.844       4286.756      -445.4219      -3178.455      -1935.715
       925.0664       1910.150       920.1450       888.5662       1402.863
      -41.43750      -1900.457      -1875.548      -739.8997       1012.292
       2583.017       939.8354      -2511.295      -2418.107       617.6777
       3023.451       3348.562       1377.787      -1425.483      -2445.735
      -2694.183      -3299.299      -2118.452       224.0010       1478.522
       1613.872       609.8264      -804.0164      -621.0654       1509.604
       1818.431       17.84546      -532.9263      -1272.186      -1830.710
      -443.9612       608.0234       1173.137       671.8357      -1597.994
      -1332.619       1636.414       1737.458      -256.8096      -1143.372
      -1419.008      -1269.389      -1315.388      -362.3135       1688.301
       1388.211      -124.2835      -214.1201       314.6675       401.8806
       901.8737       30.65186      -1816.459      -1798.583      -1504.780
      -786.8566      -270.9946      -1215.012      -817.2351       760.5122
       2144.719       3086.588       1858.698      -930.8545      -3111.723
      -3973.270      -1792.766       1387.022       2286.299       799.2333
      -415.7085       1137.500       1949.163       613.6118      -551.6162
      -2450.692      -3286.102      -1472.269      -314.4648      -1268.039
      -1043.639       533.9749       862.2656       1710.355       2289.624
       319.5767      -1694.584      -1159.527       334.8354      -600.4521
      -2077.862      -1829.438      -1923.708      -1615.393       24.48901
       162.8036       557.7776       932.6062      -759.4998      -1135.495
       100.6727       698.4456       510.8328      -648.7341      -1428.554
       95.23438       2203.493       1142.999      -1430.298      -1245.684
       504.2583       1821.806       2164.889       1145.514       175.3057
      -1616.389      -2931.643      -1582.947      -1304.426      -2330.441
      -856.2847       1381.017       1230.114      -478.0464      -1298.906
      -949.9624       541.0303       2333.280       2451.724       1123.206
      -569.7131      -1439.112      -422.1548       847.2269       543.8867
      -1340.632      -1635.873       1136.360       928.4014      -1992.271
      -1917.250      -170.2769       1542.153       2578.004       2433.744
       741.2035      -736.8746      -134.3459       434.7415       437.2681
       1069.837       824.7246      -465.1289      -1599.016      -1761.844
       630.2129       3869.334       4487.052       2296.200      -820.0201
      -1068.703       1033.991       422.2227      -2102.438      -3145.876
      -1506.000       1146.248       1386.800       528.5869       2548.691
       5979.879       4919.648       375.6362      -2214.127      -2635.032
      -2172.077       42.77942       1027.314      -980.0808      -549.3252
       2466.131       3292.621       2137.757       454.9663       632.3315
       1903.261       820.6350      -358.8405      -210.2369      -405.7095
      -242.5166      -1424.531      -3062.394      -1379.613       1514.625
       3306.293       2515.981       638.3442       1329.419       2411.508
       1766.629       229.8115       119.0232       1187.969       82.03467
      -945.0684       403.4756       1642.737       1686.604       1145.790
       928.3374       982.5950       269.2905      -1722.218      -1813.190
       764.8374       1753.624       849.1250       279.8095       193.4014
       168.1430       128.3911       665.5908       400.5653      -864.6865
       453.5869       2791.653       1479.124      -1415.795      -1313.854
       900.4226       895.9787      -267.0162      -76.16803      -109.5063
       843.8906       2370.245       852.1707      -617.8936      -466.4570
      -304.7566       898.6240       1650.962       1162.344       151.9600
      -1343.466      -1666.559      -670.5295      -375.5874      -547.0798
      -48.73083       41.51660       585.8713       1213.778       395.0044
      -654.0361      -846.2070      -856.0750      -528.6895       2031.197
       3927.490       2287.696       223.2368      -1310.656      -2056.200
      -1260.702      -988.1982      -2035.977      -2118.553      -560.6865
       1591.839       3106.726       2033.946      -147.4980      -225.7000
       858.8572       954.3673      -49.37305      -431.5463      -190.5728
      -894.5000      -1169.916      -98.24036      -228.8286      -1305.734
      -1176.608      -420.5920       312.8733       896.5425      -47.47992
      -644.7372       539.9655       443.0625      -341.4865      -110.5527
      -512.3032      -1533.102      -1339.000      -691.5356      -1991.902
      -2643.031      -517.1110       830.4680      -443.9294      -1169.144
       137.8511       1196.920       1356.963       917.2632      -17.08594
      -919.8965      -2069.305      -1785.497       619.5179       997.9390
      -1395.546      -1611.115       850.6377       1818.224       1274.028
       1897.794       818.9932      -1746.160      -2068.775      -1544.476
      -399.8096       843.0229       564.1953       1278.099       2731.226
       2407.387       910.9868      -1404.907      -2969.905      -1131.323
       612.0952      -880.1855      -1964.619      -1478.329      -1154.502
      -147.1479       802.2150       450.8099      -130.6560      -414.8682
      -950.1777      -1292.383      -1532.218      -2309.371      -2215.230
      -1371.970      -3366.908      -4905.983      -3381.086      -2841.532
      -2624.874      -2771.209      -5456.725      -8355.121      -8799.408
      -7584.129      -7099.871      -6727.324      -5078.805      -6211.195
      -10977.79      -13628.88      -14821.36      -16711.37      -16352.47
      -11631.73      -4564.285       2549.730       9260.336       12249.64
       8481.162      -140.2734      -8605.742      -10889.41      -4614.871
       6191.777       14231.80       14769.18       8679.732       2577.723
       2405.598       8344.836       15629.87       17067.58       10790.94
       4952.574       5682.355       9411.551       11092.68       8282.996
       2292.167      -3470.436      -6397.297      -7686.871      -12905.88
      -19000.62      -16290.29      -2336.641       15077.16       25358.98
       26442.20       21553.88       12551.43       5464.740       4547.375
       3915.049      -1146.307      -8229.961      -12546.06      -10900.38
      -7961.752      -7098.870      -5490.908      -1914.815       3369.537
       6840.475       2968.322      -6582.527      -13705.12      -11137.80
      -93.53906       10186.49       13086.18       9208.111       2474.189
      -5581.887      -14150.95      -17304.97      -11727.57      -64.86719
       14341.98       24877.26       22768.85       10000.47       467.7744
      -54.88672       2208.639       2135.246      -2023.164      -8202.160
      -13236.94      -17601.39      -20722.63      -16638.15      -6101.411
      -322.2188      -3404.750      -9107.949      -10168.86      -954.4297
       11534.43       12714.63       3444.966      -3493.720      -2029.955
       3350.491       5868.479       3749.469       1280.841       809.5811
      -1280.852      -3409.426      -1210.333       3667.914       7842.934
       10285.81       9713.084       6386.744       2746.059      -937.2305
      -7677.137      -14229.65      -13165.13      -4051.779       6797.449
       8430.315       1315.602      -2001.386       363.9316       3068.051
       4132.234       3473.038       2372.650       3375.665       2556.105
      -4699.967      -9445.889      -5123.165      -227.8054       168.7363
      -511.8447       754.9062       5796.461       12262.62       15267.24
       13390.13       7065.551      -926.6816      -5426.444      -4050.161
      -854.6837       145.8240       820.9766       2435.737       266.6094
      -5456.994      -8305.616      -4693.137       3217.113       9443.766
       13252.13       12636.56       2228.873      -9404.426      -11493.18
      -7677.450      -3197.702       1911.957       4317.313       1293.913
       522.0000       5475.040       5822.432      -19.05859      -5267.224
      -6536.228      -2598.070       977.0214       550.1230       84.42236
       564.5459       2714.076       7124.066       9898.465       8324.094
       3397.362      -1344.541      -4879.438      -6994.741      -3573.394
       423.4468      -619.0537      -1469.887      -2009.576      -3661.568
      -3861.426      -4183.318      -6284.590      -5189.636       2803.363
       10127.57       11473.38       8145.421       2539.600       2158.285
       6675.896       5213.298      -731.2412      -3935.740      -5176.507
      -5524.072      -4804.618      -2148.130       1213.297       2906.545
       2644.821      -758.2363      -4698.182      -4999.719      -3046.115
      -2879.025      -4564.750      -6074.221      -5754.616      -984.8447
       4470.416       5046.033       5395.623       7811.473       9524.160
       10421.61       9343.079       3853.227      -1744.318      -2562.575
      -1796.976      -188.1211       1250.507      -368.4742      -116.5667
       1201.070      -1856.627      -4709.646      -4109.297      -2918.784
      -1880.902      -2305.971      -5383.512      -7845.783      -4959.355
       2442.022       5811.833       1306.328      -1488.365       610.0249
       1180.286       1411.659       3260.238       3736.382       2176.794
      -632.0547      -4021.531      -6852.801      -5883.422      -1589.686
       1525.158       3894.117       5769.885       4127.003       1037.139
       257.2920       470.6289      -2215.617      -7670.828      -10355.38
      -8235.171      -3399.878       1476.297       2073.619      -441.9277
      -2736.676      -4420.109      -3498.198      -701.6943      -2106.207
      -5974.247      -5363.218      -2481.110      -820.8330       2526.443
       6625.729       6100.505       2621.372       873.1665       1138.540
       2653.476       3913.898       5961.049       7782.546       6007.796
       2952.750       3119.049       5988.510       6514.625       4110.107
       2420.337       161.2207      -3294.515      -4693.465      -4799.443
      -5499.615      -4522.727      -2386.323      -969.5344       526.5078
       1154.352      -276.8418      -2325.327      -1772.851       1997.394
       3898.843       1985.035      -250.8364      -1849.348      -2384.206
      -1670.868      -1186.169      -501.5234      -1906.392      -3199.345
      -869.0674       833.0647       488.0889      -757.0107      -3149.162
      -3449.163      -451.4155       295.7168      -3473.922      -6722.410
      -6262.002      -3067.856       245.3596       380.2766      -739.8289
       116.1971      -84.95117      -1536.739      -1247.374       881.6758
       2419.627       955.8291      -2616.051      -4296.687      -2481.411
      -209.0088      -74.80853      -387.1858       333.4453       1560.425
       2321.576       709.2861      -1853.745      -2029.609      -2311.900
      -3047.795      -1227.809       1169.397       2262.051       3120.091
       3042.750       1488.784      -808.6499      -1608.281      -1296.725
      -1436.013      -139.9414       1313.092       2085.054       3262.776
       2688.960      -846.9238      -2726.388      -922.8066       37.00195
       277.6482       602.8340      -1225.651      -2853.419      -1636.005
      -308.1279       1334.950       3711.025       5100.110       3950.343
       425.8018      -1740.545      -2268.777      -1649.463       556.2451
       2841.350       4349.230       4348.047       1240.354      -3838.655
      -4308.139      -666.4830       774.1401       78.16772      -403.4365
      -1233.358      -2534.200      -3060.418      -3089.930      -2697.208
