     0.02500000      -117834.6       149220.1      -12345.00      -12345.00
      -30.00999       236.1150      -35.11000      -12345.00      -12345.00
       0.000000       26.48000      -12345.00      -12345.00      -12345.00
      -12345.00      -12345.00      -12345.00      -12345.00      -12345.00
      -12345.00      -12345.00      -12345.00      -12345.00      -12345.00
      -12345.00      -12345.00      -12345.00      -12345.00      -12345.00
      -12345.00      -31.12380      -68.07400       912.0000       0.000000
      -31.23600      -65.83800       0.000000       167100.0       0.000000
      -12345.00      -12345.00      -12345.00      -12345.00      -12345.00
      -12345.00      -12345.00      -12345.00      -12345.00      -12345.00
       213.5054       272.7637       93.91577       1.919659      -12345.00
      -12345.00     -0.1978848       0.000000       90.00000      -12345.00
      -12345.00      -12345.00      -12345.00      -12345.00      -12345.00
      -12345.00      -12345.00      -12345.00      -12345.00      -12345.00
      2008       318        11        13         5
       510         6    -12345    -12345     10646
    -12345    -12345    -12345    -12345    -12345
         1         7        13    -12345    -12345
    -12345    -12345    -12345    -12345    -12345
    -12345    -12345    -12345    -12345    -12345
    -12345    -12345    -12345    -12345    -12345
         1         1         1         1         1
CONE    -12345          
        -12345  -12345  
-12345  -12345  -12345  
-12345  -12345  -12345  
-12345  -12345  -12345  
-12345  -12345  -12345  
-12345  -12345  BHN     
ZL      -12345  -12345  
[...]
       452.8945      -1753.925      -312.9048       1531.169       909.2344
       21.87744      -2847.355      -1722.897      -2169.082      -4536.954
      -18.38086       3780.443       4912.906       3787.299      -1304.263
      -4410.888      -2360.218       3325.921       1821.354      -1402.774
      -171.0605      -3399.749      -6436.377      -2402.161       2366.986
       1982.609      -3037.354      -3742.754       5303.840       12503.84
       4950.844      -6801.283      -5528.883       2189.632       3970.415
      -1815.282      -6414.919      -3197.373      -1749.780      -3787.818
      -659.7734       4473.076       4208.683       697.7979      -4841.796
      -4779.879       5353.102       11997.02       7168.063      -4077.062
      -11609.65      -9053.350       46.89062       3241.500       3827.117
       6796.643      -1174.055      -8874.519      -4044.263       2824.739
       3838.868       2040.502      -945.6426      -653.7625       1239.131
      -4147.332      -5948.730       1902.514       5914.633       3560.709
       5784.938       6162.222      -4228.916      -10678.24      -4906.438
       5325.290       1461.354      -3903.007       2928.495       1056.781
      -3731.310       2324.576       3343.739       14.01172      -1665.656
      -7043.664      -3203.788       2723.599       2771.396       7192.093
       6529.183      -3573.510      -7970.036      -4208.494       4148.777
       10138.24       4860.428      -1784.953      -6376.965      -6492.833
       1019.845       5952.642       2639.004      -5280.684      -4992.895
       1225.605      -2204.498      -1656.322       1279.891      -408.4512
       2291.712       3448.652       6581.239       7976.107      -957.3599
      -2019.746       1292.659      -3197.785      -2477.721      -2260.851
      -1271.942       1501.139      -4265.125      -71.91992       7469.732
       8065.279       4503.387      -7390.852      -9743.752      -968.1741
       1611.021       1192.083       1980.434       24.85254       565.9697
       5320.050       4839.675       624.1299      -2438.817      -1891.536
      -168.5830      -2690.945      -3357.066      -1354.441      -1088.267
       3725.877       7508.618       6413.135      -1291.344      -9301.690
      -5277.273       1230.289       5058.352       7969.896       6326.525
      -1940.611      -7694.017      -3645.756      -2113.311      -5748.574
       97.83008       8378.330       5148.977      -1387.150      -3780.102
      -1139.906       2243.941       5216.631       5343.664      -706.4512
      -5327.186      -3390.021      -2390.418      -4545.057      -5066.134
      -425.9727       7441.910       7624.111       1503.199      -291.2832
      -2331.568      -4755.833      -2479.877       313.7065      -50.01221
      -3784.742      -366.7705       6068.615       2777.654       897.9614
       1752.713       311.5195      -2988.889      -7248.752      -5160.915
       1957.332       5580.210       5441.245       1638.955      -404.6201
      -551.1338      -2167.388      -1985.460      -2127.560      -856.0955
       812.4663       993.5793       1596.315      -421.8379      -2319.874
      -894.2783      -893.3643      -1056.310       2404.391       1471.891
       165.1396       1307.453      -1339.340      -2888.423      -2091.651
       802.6523       3560.075       2584.099       1313.707      -1357.294
      -5015.855      -3734.887       4617.724       6630.822       1742.244
       63.99512      -2554.273      -3439.684      -4932.291      -4967.688
       1969.143       3714.646       1264.924      -236.5366       1377.488
       5343.578       2701.166      -2049.772      -2537.726      -1043.146
       233.6436      -1890.839      -4069.939      -2855.488      -1080.458
      -817.7617      -2058.971      -1725.543       433.8018       108.1353
       2246.124       3442.606       428.6519      -1723.358      -3547.103
      -2295.696       901.6870       2293.156       1832.944      -1314.562
      -1151.317       1242.841      -1840.576      -5615.801      -4903.741
      -627.5596       4538.820       6576.132       3794.518      -1129.796
      -3004.989      -524.9238       4143.099       4399.790      -548.5410
      -3293.342      -3293.362      -2212.743       3783.481       4804.508
      -2734.583      -3118.521       500.2617       1436.154       2970.165
      -2402.006      -8812.781      -5341.979       2744.114       2241.557
      -4522.919      -947.7949       5539.408       5268.104       109.0898
      -8041.510      -10800.18      -2819.424       7642.553       6044.223
      -905.0063      -1538.990       1563.020       4886.704       5337.710
      -1044.571      -5650.883      -3786.821      -1105.771       4118.905
       5820.648      -2621.371      -8727.186      -4327.443       2668.412
       4450.341       4318.930       1829.084      -4582.354      -5921.687
      -272.5640       1997.602      -66.44495      -738.0867      -196.6274
       2308.618       2072.347      -622.1804       333.8544       935.4731
      -955.3521      -2558.681      -113.1223       587.5896      -1360.769
       49.19824       1947.822       1178.618      -1882.137      -2767.100
       1330.504       3653.685       145.7627      -2848.051      -3891.394
      -1677.580       1663.274      -736.9434      -2123.632       741.0078
       6625.328       7882.241       2037.385       599.8997       609.2002
      -4182.431      -4508.085       544.0295       431.0586      -3521.561
      -4681.897      -1980.549       4797.932       9138.342       4395.029
      -3357.524      -4666.701      -2461.630      -296.7200       1072.397
       1108.894       400.3418      -1384.544      -1676.613      -810.7124
       466.8203       2530.926       1231.154      -1156.600       729.9839
       2183.626       648.8755       1903.489       3626.268       3053.481
      -1459.988      -5930.756      -3380.594       2028.737       4801.376
       2049.697      -2791.691      -2573.791       1664.189       5726.716
       5224.863       1501.550      -299.7366      -68.51147       169.0752
       835.7646       2395.880       4438.490       2517.846      -4072.675
      -5957.536       1395.736       5206.052       395.0361      -2781.300
      -2924.353      -2360.031      -1563.826      -486.4580       2917.065
       4403.175       2250.639       873.8315       1989.004       662.3359
      -1531.774      -1163.547       1687.576       4755.138       1096.471
      -337.2207       3416.687      -203.4219      -5837.541      -4759.974
       1413.770       5528.774       2482.139      -2456.625      -2759.853
      -1073.615       612.2913       1077.672       819.0200       1489.895
       1387.615       1153.768      -920.2590      -1573.537       4364.660
       5894.379      -209.4492      -5418.764      -5756.645      -1305.316
       1419.590       47.10156      -1823.766      -2471.013       920.3496
       4403.196       3099.143      -1469.729      -3986.141      -973.8418
       1534.113       2305.562       2361.413      -186.5762      -2266.515
      -3286.054      -1618.854       1903.873       2968.562      -1297.775
      -4395.948      -2360.250      -925.3091      -68.18750       2568.479
       5718.752       1205.352      -7986.330      -4274.985       3475.684
       663.6621      -2257.677      -2063.667      -4492.476      -3256.467
       1456.855       2397.844      -280.2145      -425.7031       1706.081
       704.1555       10.17383       1573.577       1545.496       1754.728
       1137.580      -2839.033      -2977.503      -203.7057       13.74121
      -665.0176      -2561.365      -969.5850       2999.197       2543.252
      -163.9990      -3235.881      -7133.992      -4246.086       2147.469
       3409.072       2153.161       859.3938       253.9258      -2320.005
      -3077.989       1343.467       2496.868       487.1960      -954.4766
      -1746.010      -752.5217       34.09277      -3170.529      -4448.537
       465.7695       3212.635       1504.223      -223.7491      -247.7099
       170.8244      -814.4658       676.4435       444.8876      -647.6782
       1567.660      0.2805176      -2345.509       1415.751       5717.149
       1339.633      -6342.084      -5646.214      -1669.495       364.4746
       1740.451       2275.719       3594.894       4051.835       411.1045
      -2786.979      -3405.279      -2997.601      -898.7181      -258.9507
      -155.0613       451.7295       1093.715       5757.955       4094.462
      -2922.483      -4234.015      -1249.079       2572.539       3625.992
       4727.236       2148.074      -3982.981      -4440.090      -3682.676
      -3193.865       94.76367       3204.873       3542.988       2117.408
       336.7549      -227.8496      -2225.957      -4286.563      -1344.218
       4724.863       7691.130       3450.256      -3149.964      -3299.180
       731.2632      -848.5742      -4612.487      -2257.469       2805.279
       6384.239       6119.512       1727.032      -3480.414      -5545.765
      -3294.197      -422.9434       919.4980       1374.064       1907.372
       2368.355      -2607.824      -4043.414       70.31885       1195.729
       3543.718       1611.664      -3228.219       231.1973       3810.932
       743.8477      -2734.604      -3686.112      -1561.565       2344.810
       2512.811       1323.597       1063.365      -399.0049      -1948.050
      -3023.877      -143.5508       5994.879       4401.120      -2328.926
      -2106.634       765.3457      -3314.594      -6557.472      -1739.271
       4859.919       4615.849       288.7549       947.1553       4410.154
       1878.028      -2297.679      -879.3229       470.1919      -1047.859
      -689.0786       965.9319       1003.293      -932.7778      -2025.517
       1751.469       4817.362       1860.518      -1370.674      -2204.071
      -974.3535       132.0651       839.7998      -551.9868      -3270.516
      -1164.488       2531.574       1523.720      -2941.013      -3691.607
       1145.659       3690.188       2834.953       1082.481      -1525.288
      -3650.226      -3209.229       56.98730       2965.144       2891.104
      -508.4395      -4008.113      -1827.351       1252.652       1483.795
       3562.937       6144.854       2833.797      -2795.733      -3673.900
      -1874.950       1287.584       4144.253       3539.558       102.3301
      -3588.414      -2128.907      -640.7251      -2049.693      -141.3672
       2861.673       2459.587      -584.2798      -2607.325      -916.4370
       1852.789       2459.953       3340.041       2883.817      -33.86072
       99.05066       669.5730      -272.7207      -2555.089      -3318.003
       217.3779       1777.477       211.6702       624.4456       1030.318
      -20.70337      -472.3750      -2843.575      -4581.803      -1481.006
       3743.508       3701.499      -2612.029      -3253.695      -630.9707
       1271.566       3463.419      -607.6113      -4846.025      -117.6758
       6012.412       5746.984       2183.917      -607.7070      -4084.242
      -5724.518      -1469.601       3782.648       4979.592       2251.027
      -1053.883      -1462.509      -861.5994      -829.6566      -436.8809
       1036.130       2383.971      -137.5176      -3470.788      -249.4346
       3605.233       1740.141      -2648.376      -4816.552      -2481.419
       944.2642       1502.542       938.5352       807.2610       1251.344
       311.4658      -2197.733       96.99805       4633.195       3485.047
       1398.825      -265.6372      -2842.963      -515.6421       3016.164
       55.71680      -5066.544      -5375.745       561.0254       6905.646
       8397.590       4935.963      -2462.688      -14774.80      -28261.85
      -30305.61      -13881.75       6924.349       8952.977      -11449.88
      -35867.48      -54251.78      -77039.28      -95394.36      -72928.44
      -8798.062       51076.25       75536.97       71946.11       53360.52
       33081.92       22789.51       6285.719      -19017.23      -28826.18
      -26576.34      -26847.97      -36683.36      -50208.55      -38360.04
       4665.375       52663.38       87771.56       94740.42       75201.97
       54901.23       36729.11       8002.422      -22039.77      -38923.06
      -43082.64      -25890.63       7680.164       32846.55       47598.45
       42044.79       15574.98      -8087.727      -29423.86      -48524.75
      -51282.75      -43663.36      -41567.95      -47789.50      -27829.38
       39747.50       108538.2       126258.0       82128.28       20869.14
      -27141.84      -80448.72      -115770.0      -83457.80       10321.25
       109693.3       149220.1       95425.29      -1692.312      -68215.66
      -84885.94      -59798.25      -18250.33       4664.482      -1081.965
      -14284.48      -25932.09      -24362.91       12138.95       44575.19
       38946.97       25650.22       22868.57       3544.484      -62181.88
      -117834.6      -88620.95      -12813.62       42492.44       53587.15
       28558.15       1455.559      -17566.24      -27024.37      -15252.90
       11307.30       41239.08       47299.52       28489.26       21559.58
       38454.70       59327.07       38438.50      -27966.03      -75007.05
      -57617.80      -16428.70      -8262.266      -14526.30       614.0312
       32286.62       38422.68       6241.500      -16911.84      -15971.84
      -15761.95      -29736.25      -49851.45      -49254.93      -16595.70
       21609.97       44825.28       60215.61       60477.80       35559.59
      -77.30469      -30759.69      -38456.27      -27980.15      -18278.53
      -15788.54      -18081.85      -11546.06      -12633.13      -22819.12
      -10431.34       19802.09       31538.91       15900.20       12127.39
       26051.44       22938.38      -2164.914      -21266.42      -10710.47
       14329.91       27246.03       30994.11       27180.27       5895.773
      -15244.24      -13156.61      -1257.294      -296.3359      -15718.80
      -31425.90      -22812.78       1171.867       28570.74       45944.66
       28083.61      -1306.922      -17411.22      -35466.85      -46559.84
      -38114.69      -26964.95      -15592.74      -8162.918      -11914.92
      -16557.84      -10611.30       9667.156       26176.66       28294.80
       22730.77       12638.27       9707.086       13868.13       18048.43
       23830.72       15023.90      -4413.980      -16510.77      -15579.48
       815.8438       9688.035       6311.488       11099.93       17986.80
       11363.53      -5234.438      -18334.20      -29377.80      -34894.94
      -19114.03       2369.961       7594.959       1883.326      -1549.553
      -608.0586      -142.9531      -13290.34      -29809.38      -21318.48
      -505.8438       10653.94       14627.54       21237.69       23546.56
       9660.348      -4452.191      -1745.484       5707.994       3634.878
       1941.045       5042.840       6141.797       7622.324       11584.02
       18573.54       24381.84       24520.53       25727.74       18453.31
      -3736.984      -16908.43      -6031.969       10912.03       8120.359
      -10355.30      -23844.24      -28777.77      -29694.56      -20815.52
      -1979.395       12106.88       20986.45       19254.29      -1102.863
      -19193.40      -22005.08      -18314.77      -13025.39      -8792.246
      -91.52539       8080.699       3634.537      -8481.635      -14532.82
      -1431.055       12393.91       10656.46       3123.342      -3128.768
      -6925.746      -6359.060       46.21680       3821.887       10616.17
       25746.90       24798.96       5619.017      -308.1045       5656.252
       1136.855      -10621.17      -14321.27      -10154.24      -7554.215
      -8956.055      -8904.164      -4413.194      -2157.256       49.13867
       6984.436       8990.285       1469.988      -8490.477      -13067.69
      -17876.10      -20195.38      -10220.71       282.3145       3253.418
       7885.207       15798.66       19647.84       18200.38       11265.35
       478.1841      -4887.625       3108.914       16267.96       14598.16
      -5714.129      -20211.63      -14123.59      -1388.148       7904.126
       8083.282      -70.65771      -2824.709       4802.055       12453.20
       12054.81       5442.779      -3730.617      -9962.016      -15276.78
      -14528.97       1700.571       8330.969      -4507.668      -13671.99
      -10359.32      -3480.591       845.1821       3861.544      -2329.924
      -8797.879      -1593.461       10243.40       16714.04       13405.43
       9520.461       6474.018      -1468.635      -6890.088      -8218.094
      -7431.777      -3821.082      -4349.566      -11095.20      -14201.11
      -8746.984       827.6504       8187.961       9805.043       10801.59
       9591.271       1470.793      -3400.341      -2983.150       2838.059
       7736.598       1707.695      -1088.796      -1176.589      -5139.998
      -5365.797      -3592.512      -40.59473       2884.650      -5104.922
      -16878.58      -14861.89      -1695.207       6248.041       4275.747
      -1834.975      -1174.232       7787.523       14911.30       21417.49
       27408.55       19295.13       2090.873      -2531.725       3101.659
       5897.705      -1179.844      -20612.38      -31173.11      -20544.61
      -4610.273       7841.824       13281.98       10017.75       2293.339
      -3127.549      -1812.732       2326.996       4187.242      -2437.852
      -12797.58      -10663.71      -5859.582      -9337.962      -4389.021
       1163.902      -7298.656      -12601.82      -1830.047       18446.30
       31028.61       27797.64       18155.64       9672.926       3330.500
      -6376.221      -12085.89      -1940.555       7630.606       1661.516
      -8252.898      -12873.85      -18647.42      -21793.78      -13526.99
      -3877.288      -2316.342      -3888.660      -4577.533      -2221.887
       4488.934       12392.62       22185.70       26126.09       15909.59
       2250.814      -4085.527      -6929.104      -8872.053      -5519.710
       6.515625       3276.345       3859.159       1334.891      -4468.953
