     0.02500000      -93955.20       104053.6      -12345.00      -12345.00
      -30.00999       236.1150      -35.11000      -12345.00      -12345.00
       0.000000       26.48000      -12345.00      -12345.00      -12345.00
      -12345.00      -12345.00      -12345.00      -12345.00      -12345.00
      -12345.00      -12345.00      -12345.00      -12345.00      -12345.00
      -12345.00      -12345.00      -12345.00      -12345.00      -12345.00
      -12345.00      -31.12380      -68.07400       912.0000       0.000000
      -31.23600      -65.83800       0.000000       167100.0       0.000000
      -12345.00      -12345.00      -12345.00      -12345.00      -12345.00
      -12345.00      -12345.00      -12345.00      -12345.00      -12345.00
       213.5054       272.7637       93.91577       1.919659      -12345.00
      -12345.00     0.07539729       90.00000       90.00000      -12345.00
      -12345.00      -12345.00      -12345.00      -12345.00      -12345.00
      -12345.00      -12345.00      -12345.00      -12345.00      -12345.00
      2008       318        11        13         5
       510         6    -12345    -12345     10646
    -12345    -12345    -12345    -12345    -12345
         1         7        13    -12345    -12345
    -12345    -12345    -12345    -12345    -12345
    -12345    -12345    -12345    -12345    -12345
    -12345    -12345    -12345    -12345    -12345
         1         1         1         1         1
CONE    -12345          
        -12345  -12345  
-12345  -12345  -12345  
-12345  -12345  -12345  
-12345  -12345  -12345  
-12345  -12345  -12345  
-12345  -12345  BHE     
ZL      -12345  -12345  
[...]
       6613.159      -1239.541      -3929.314      -4608.986      -4277.264
       1490.283       5695.185       3552.263      -1163.271      -3291.746
      -5077.060      -3138.541       2833.941       2294.986      -878.3848
      -2577.609      -4690.552      -6.658691       2378.822      -1613.668
      -3845.392      -4064.691      -2779.744       3537.693       9314.927
       4762.449      -4634.666      -8204.534      -2391.973       5939.726
       4859.228       1713.136       809.5625      -2415.846      -4095.156
      -2162.740       2247.779       5396.890       3473.516       1048.410
      -1720.192      -2680.350      -4211.406      -6276.949      -1469.036
       4087.657       1202.621      -5249.303      -7448.823      -2159.543
       5036.103       3687.543      -934.9385       3508.430       7068.130
       2590.938       1603.069       3026.301      -1865.906      -3016.323
       1652.646       3681.051       2235.987      -753.5249      -704.8853
       3233.325       1405.178      -2620.759      -3081.825      -3807.966
      -3512.347      -2915.065      -3775.669       1144.613       4820.070
       826.7715       1453.959       5816.457      -2701.902      -14251.66
      -7583.611       4355.531       7800.044       5207.133       313.9648
       2348.999       3653.209      -90.29492       3380.544       6589.739
      -2378.789      -8159.756      -4336.072      -1143.568     -0.9501953
       2198.632       2915.239       1108.824      -1364.202      -3803.078
      -6565.988      -3098.387       4941.466       5403.902       2334.609
       6043.044       3434.748      -6799.075      -5864.438       4668.180
       7958.293       4132.361       1637.175       826.1777       2491.927
       3784.286      -4425.256      -9642.411      -628.3906       4496.596
       325.7275       1766.652       3800.335      -774.4006      -278.3071
       2629.570      -6577.594      -12033.15       761.8457       11507.51
       5847.124      -3.325195       2141.543       623.6777      -3722.316
      -435.5527       4012.750      -3568.449      -9497.146      -760.3555
       7222.630       3413.711      -2785.136      -3587.574      -5147.004
       427.1973       7725.021       3906.280      -1333.035      -5960.145
      -8801.566       1948.592       8920.981       6756.993       1280.359
      -4760.423      -3148.477      -2608.189      -548.3838       4732.337
       6149.438       195.9238      -8879.371      -7447.874      -153.0771
       4503.243       4762.500      -238.1394      -1213.762       2470.806
       3723.227       3289.577       495.3242      -957.7617      -3089.939
      -7491.375      -3525.033       4202.383       599.8496      -2110.541
       751.4746      -1618.595      -4330.489      -3803.468      -2467.745
       3374.959       6454.980       1600.271      -3621.545      -7078.613
      -1414.191       9257.572       5257.115       191.3354       1370.135
      -2488.375      -1541.023       3258.100       5673.012       2787.166
      -3388.394       1437.504       4549.701      -1058.020      -6102.987
      -7211.034       999.7510       5949.208       1005.738       97.34058
       463.7344      -4648.269      -4674.945       1226.166       385.5343
      -544.2170       741.3208       548.9844       3043.739       2811.848
      -1462.238      -2371.452      -1138.827      -1831.416      -5072.373
      -2329.547       3853.064       3074.073       3261.801       4468.174
      -822.6079      -2598.746       1919.008       4489.021       794.3457
      -4690.807      -5687.240      -4038.991      -1545.739       2360.167
       2442.961       129.1753       1410.736       2051.824      -2786.787
      -2249.431       5386.414       4754.519      -3150.938      -3232.470
      -1937.365      -6974.004      -6025.359       1262.836       4581.071
       3270.128       1631.164       2074.549       2213.552      -877.5801
      -3211.864      -1478.456       447.6328       2338.745       3004.550
       5464.157       3701.774      -4001.875      -6020.781      -5974.625
      -5806.281      -5221.676      -4309.262       6561.096       14369.40
       3420.957      -7952.434      -3302.222       4353.609       3939.158
      -1423.873      -4485.407      -3138.169      -2019.482      -28.20361
       3473.402       735.1963      -3487.753      -2127.317       1355.352
       2648.225      -1025.108      -1985.713       3879.382       4432.422
      -2954.211      -5738.286      -221.0527       8120.732       9409.126
      -1109.145      -5744.982      -2679.617      -3099.466      -4177.897
       1531.877       6165.293      -2759.385      -7009.559       1932.448
       3148.334      -470.7373      -1929.224      -2850.438       3075.803
       5315.851      -1573.888      -3279.029       211.6704       2071.081
       532.4795       523.0083       2978.860       362.2793      -3439.993
      -1463.290       1334.003       1998.134       3192.312       241.1328
      -6948.363      -5441.216       344.7000       1376.018       801.1736
      -823.9858       313.0615       4077.797       1744.547      -3081.512
      -3213.007      -41.93945       1950.167       1633.892       1841.452
       1376.310      -2278.999      -2441.960       3157.193       3719.697
      -2496.450      -1842.810       3252.818      -392.7725      -4593.490
      -2180.167       455.6631       3179.710       2001.257      -1333.664
      -1678.937      -692.2363      -3141.409      -4732.856       1234.086
       4342.094      -784.4819      -3609.352      -179.5771       5339.862
       4165.572      -4857.842      -7051.295      -2253.607       3009.043
       7828.707       4525.072      -3706.779      -9832.810      -7082.082
       869.0737       855.4580       1425.697       4242.781       500.0581
      -1903.069       221.2441       3929.741       4944.796      -436.0908
      -4457.066      -526.9062       3745.257       3677.726      -1847.484
      -7143.103      -2995.181       2059.770       5610.689       9335.147
       4413.837      -1359.146      -1147.346      -2593.580      -5955.938
      -3864.935       741.3145       325.8809       1661.451       6766.782
       3061.870      -1336.206       1432.965       1801.654      -367.6523
      -4585.600      -7939.755      -2031.303       2479.015       500.4521
       2456.804       3447.516       3614.623       6285.413       3600.826
       1784.631       422.2725      -4593.007      -2610.726       1639.312
       3720.485       4641.104      -2407.223      -8254.900      -770.8438
       7119.527       3512.155      -474.6467       590.8257      -416.5293
      -5872.834      -7949.224      -2383.541       5204.760       6027.878
       2520.535      -1023.779      -8005.350      -10190.83      -2460.407
       3733.112       3611.239       1317.311       3133.980       6329.298
       51.37695      -7343.065      -6981.746      -979.6426       10357.65
       12451.79      -556.5977      -9519.229      -6133.093       901.0132
       3759.725      -1948.098      -7859.159      -720.6191       10241.63
       8220.338       39.26172      -3882.283      -6461.162      -6253.311
      -1337.693       881.1934       2748.545       4920.307       2174.731
       1393.717       1274.965      -2646.883      -5076.541      -6641.484
      -6860.053      -2214.631       3426.219       6802.467       6517.864
       4407.642       1947.335      -2690.194      -3562.684      -208.3662
       1739.110       2380.493       655.0293      -3956.847      -4305.712
      -111.3145       3755.571       4007.205       2941.704       5718.594
       3527.326      -5163.363      -10514.28      -9661.846      -4989.238
       373.9043       6119.496       11611.27       8802.642      -2602.479
      -5782.825      -1382.854      -2473.421      -4680.328      -732.8818
       2762.854       3216.871       2309.646       988.8628       1270.500
      -2632.500      -7794.396      -3400.914       5701.986       9844.027
       7503.665      -1446.387      -8439.127      -6528.925      -1956.066
       1985.526       2790.332       309.2380      -71.78125       1600.684
       3808.587       2666.110      -2285.830      -373.5986       4363.140
      -814.5088      -5862.519      -902.3774       1911.876      -1578.011
      -4350.792      -3245.064       2137.065       5378.325       3397.153
      -743.6060      -3185.870      -1681.710      -709.5303       1264.706
       4123.435       958.1694      -2449.048      -982.6200       87.53613
       1102.679       4023.661       3375.484      -2532.209      -5158.146
       368.9766       6114.457       5911.739      -1968.641      -10526.38
      -6926.755      -775.7686       329.3306       2960.164       1691.626
      -3860.938      -3351.830       3438.350       9306.926       6259.572
      -5482.359      -11446.27      -3834.996       4425.450       2751.366
       191.9426       620.7771       800.7488       779.3110      -1252.149
      -3000.639      -3772.210      -3033.845       2347.488       6700.014
       5641.499       4003.189       978.5391      -6779.025      -11190.86
      -2456.301       8194.321       6941.818       1900.580      -3801.520
      -6967.842      -2236.413       1455.709       4122.164       6506.139
       5954.682       1900.195      -5833.094      -11135.90      -10242.34
      -621.1641       7351.191       5829.923       2192.851      -826.3782
      -1155.393      -805.2969      -3344.687      -2818.927      -2467.992
      -7348.219      -4653.535       5493.016       8928.975       6342.040
       3929.469       913.9072      -1941.386      -2132.845      -3939.098
      -1938.388       3720.927       1795.192       541.9287       2672.154
      -1800.463      -6990.121      -3893.003       256.4224      -203.1538
      -821.6318      -1208.902      -1983.748      -2157.208      -1714.590
       1578.014       5587.196       4818.683       620.2590      -1811.360
       2298.047       5609.679       1424.787      -2211.578      -917.1191
      -1291.662      -5509.644      -5800.281       1742.920       7029.583
       3590.443       108.1797      -661.8105      -2347.943      -1837.981
       1602.906       2954.530       1638.800      -1702.466      -2110.611
       1921.841       500.8220      -1568.693       2610.306       2479.307
      -2442.040      -1077.112      -673.6152      -3841.104      -1112.957
       524.9967      -622.7893       1729.443       580.8967      -1655.532
      0.1733398       1574.263       2174.310       436.6333      -2411.826
      -2608.698      -723.6777       894.3354       2169.833       345.6714
      -1432.925       3415.758       7581.161       4117.852      -1467.971
      -5513.967      -6153.500      -1162.866       946.1484       493.9716
       1299.506      -1706.460      -3362.418      -603.1243      -427.9934
      -787.0488       1515.501       1615.452       206.8459       973.9988
       386.8184       1803.182       5300.597       2908.653      -645.1484
      -1813.371      -5480.084      -6166.232      -2276.143       3064.762
       7039.314       3669.390      -2191.212      -1856.588       2039.787
       1270.328      -3281.845      -3314.720      -612.2124      -475.5114
      -273.1436       811.2520      -351.2554      -2105.494      -740.5463
       266.8682       462.3672       6236.184       10383.27       4330.077
      -4069.052      -5048.145      -2805.626      -2033.510      -2744.597
      -2621.382      -454.5254       2193.285       6303.407       5797.290
      -1287.543      -2781.188       463.6772       1681.134       2997.106
       2068.635      -3179.068      -8312.418      -6474.152       5005.115
       9534.717       2691.678       351.6445      -997.0283      -6040.927
      -2917.784       5316.246       5984.233       1983.393       909.9790
      -427.8457      -3427.110      -4557.694      -103.8506       4236.335
       56.55469      -5096.738      -2454.435       1894.664       2067.025
       1287.357       1537.046       107.9707       1499.319       6030.540
       3736.654      -790.5469      -1511.832      -3251.264      -4412.264
      -2665.006      -97.60852       154.3379      -1154.005      -1896.887
      -2213.226      -1362.237       3232.047       6704.504       5245.886
      -666.7217      -4555.598      -4041.175      -5415.486      -3474.388
       2088.473       1509.728      -300.3164       3873.951       10347.41
       9707.908       2175.400      -3378.784      -3536.160      -4756.486
      -7316.276      -3705.068       5892.832       13863.21       15344.36
       7509.938      -15954.58      -53593.23      -81864.55      -61012.92
       21403.00       102255.7       104053.6       27397.95      -60198.34
      -93955.20      -61055.00      -1450.828       35218.15       35957.99
       22143.61       6861.772      -3314.961       20.25391       9588.827
       5696.766      -14052.45      -31528.56      -39319.70      -33200.17
      -705.5156       39096.14       59452.11       54683.62       34880.55
       20596.07       9962.887      -4425.852      -18308.52      -37636.83
      -50260.98      -41829.23      -30941.94      -18049.68       11437.32
       17496.12      -19715.95      -33892.38      -5731.617       1486.984
      -22121.33      -15461.88       21714.55       28401.71       11821.21
       5383.891       13129.95       30765.27       35299.87       26472.52
       18757.80      -2881.219      -30410.27      -43277.69      -46783.45
      -49627.44      -28665.78       22541.62       45458.92       15287.68
      -24955.04      -26450.25       33876.88       99213.67       86781.59
       25983.84      -4061.117       5902.906       28510.66       29809.27
       6447.594      -34640.92      -79285.11      -79482.59      -26932.17
       25238.28       47361.50       53287.02       40930.98       14796.26
      -4614.867      -13947.77      -24535.85      -27298.22       6901.742
       46028.80       28392.98      -29538.38      -62016.91      -43998.14
       4057.500       38912.13       29792.43      -11832.19      -53352.28
      -61386.02      -31044.50       6152.562       21338.69       11266.87
       6646.352       12539.08      -2787.219      -32213.96      -31169.64
       3316.203       36553.61       48996.78       36500.75       20395.03
       9347.438      -11347.44      -24508.05      -21132.68      -18079.23
      -10784.47       987.5439       761.3359       7285.656       31772.26
       40321.37       11148.54      -20144.33      -18515.44      -366.1328
       8544.777       3754.295       1843.266       7580.801       3792.296
      -955.0132       1185.012      -7655.367      -28116.22      -30899.30
      -6095.980       12531.73       14360.07       15826.14       8556.047
      -20781.77      -41012.07      -23641.27       1376.906       14280.65
       17399.16       18441.30       11788.64      -7613.172      -17636.87
      -14689.05      -9553.830      -304.2695       8607.258       22911.97
       37611.66       20189.39      -12710.24      -7525.191       12086.25
       3517.404      -6159.118      -2799.476      -1910.520      -2652.486
      -5632.842      -9790.145      -673.3662       5912.348      -411.1289
       8511.438       13965.70      -4439.391      -20808.48      -22608.91
      -6386.574       16655.60       11181.03      -8327.656      -6010.115
      -2747.902      -14539.79      -15577.34      -1514.582       11167.40
       17787.00       15653.85       5054.371      -7450.199      -6743.039
       12833.16       20980.66       5144.066      -10556.26      -7602.340
       7090.398       19512.10       20130.79       2910.820      -19807.07
      -22733.38      -6051.677       3044.286      -1845.132      -113.5156
       10263.33       3929.844      -15363.02      -18305.09      -6537.760
       4419.605       11822.91       16388.31       8355.354      -1605.145
       7192.893       13101.32      -1664.852      -14697.94      -15795.20
      -9450.480       3523.340       13344.88       9760.757      -763.6621
      -6503.580      -4901.023      -1243.555       3971.609       5650.014
       3446.547       6911.034       6419.141      -8724.527      -21590.29
      -16292.99       1473.697       10409.42       2884.490       1341.164
       7497.662       9312.559       11308.60       4040.336      -16907.77
      -27863.34      -11388.98       10897.91       19167.93       15549.68
       3504.980      -7842.271      -9680.001      -1946.938       7294.982
       6617.520       4130.991       6896.112       2377.167      -4451.451
      -3031.648      -5812.867      -15792.39      -19826.56      -16849.08
      -13531.62      -7407.082      -2414.270      -3992.056      -2716.570
       11493.52       25818.45       26282.09       19152.26       7891.221
      -4652.738      -12871.70      -15746.94      -11982.25      -7365.841
      -5285.638      -3238.891      -1831.398       3395.855       12792.98
       5507.285      -13551.36      -13886.30       764.9102       8051.569
       3756.421      -5666.154      -8598.955      -3490.562       3804.050
       7524.142      -987.4736      -7730.705       951.9004       7512.157
       4757.577       3401.636       4072.648       2481.033       3396.064
       3983.969       6375.500       16767.90       12279.47      -7444.871
      -11147.45      -5362.363      -10912.89      -15646.04      -6230.356
       475.4111       2239.211       10111.09       13218.95       3000.312
      -11175.56      -17655.29      -15947.06      -11494.29      -4218.947
      -1004.556      -5781.022      -1760.973       14732.16       14892.87
      -2450.537      -5704.461       3024.327       5758.641       1695.695
      -3754.194      -620.1011       3735.740       245.1074      -6095.400
      -6888.063      -1039.550       3690.338       8748.398       10729.79
       5389.803       2961.510       7127.639       10356.98       5509.041
      -3022.938      -12736.53      -13575.73       2917.602       9444.688
       811.8882       1186.820       3326.315      -550.3229      -1894.113
       1937.959       6914.293       8788.250       3982.201      -5791.949
