     0.02500000      -94224.72       81929.37      -12345.00      -12345.00
      -30.00999       236.1150      -35.11000      -12345.00      -12345.00
       0.000000       26.48000      -12345.00      -12345.00      -12345.00
      -12345.00      -12345.00      -12345.00      -12345.00      -12345.00
      -12345.00      -12345.00      -12345.00      -12345.00      -12345.00
      -12345.00      -12345.00      -12345.00      -12345.00      -12345.00
      -12345.00      -31.12380      -68.07400       912.0000       0.000000
      -31.23600      -65.83800       0.000000       167100.0       0.000000
      -12345.00      -12345.00      -12345.00      -12345.00      -12345.00
      -12345.00      -12345.00      -12345.00      -12345.00      -12345.00
       213.5054       272.7637       93.91577       1.919659      -12345.00
      -12345.00     -0.4016355       0.000000       0.000000      -12345.00
      -12345.00      -12345.00      -12345.00      -12345.00      -12345.00
      -12345.00      -12345.00      -12345.00      -12345.00      -12345.00
      2008       318        11        13         5
       510         6    -12345    -12345     10646
    -12345    -12345    -12345    -12345    -12345
         1         7        13    -12345    -12345
    -12345    -12345    -12345    -12345    -12345
    -12345    -12345    -12345    -12345    -12345
    -12345    -12345    -12345    -12345    -12345
         1         1         1         1         1
CONE    -12345          
        -12345  -12345  
-12345  -12345  -12345  
-12345  -12345  -12345  
-12345  -12345  -12345  
-12345  -12345  -12345  
-12345  -12345  BHZ     
ZL      -12345  -12345  
[...]
       1778.855       5505.734       6086.473       3084.248       3900.169
      -1610.971      -4986.809      -2104.334      -2306.319      -1819.013
       2310.471       849.1201      -4450.203      -5075.713      -2992.672
      -905.1504       2723.958       7489.790       1054.555      -9278.365
      -5834.225      -1207.625      -1660.896       3830.326       7339.958
       1826.164      -3208.798      -1497.980       2372.473       5992.067
       5873.207       30.61914      -7900.904      -10764.74      -3139.509
       2251.209      -1017.044      -1681.332       1288.806       2226.484
       2163.338       8877.469       6459.014      -6980.230      -8656.066
      -971.5610       3286.857       782.7640      -913.7080       2300.385
       1489.357      -4137.156      -7480.702      -4953.243       1428.777
       4719.313       3278.529       687.2441      -2753.090      -7557.542
      -5006.614       3923.824       5374.012       1011.344      -5060.671
      -4164.479       146.6375      -2474.234       1189.297       8329.010
       5903.106       2754.468      -2544.361      -558.2417       2839.224
      -2984.973      -1867.454       4130.684       6556.329       1957.870
      -934.5205       4410.617       704.9570      -11106.34      -12810.66
      -7847.202      -4466.490      -3077.334      -3625.136      -2476.707
       4060.176       11986.81       10044.98      -3816.237      -4975.399
      -257.7334      -4398.555      -694.3867      -4093.444      -2124.021
       7808.496       6238.773       7899.934       3751.789      -7298.111
      -6030.801      -3451.938      -7968.774      -4886.722       1481.389
       6070.355       9622.957       2695.015       1787.535      -5096.664
      -13295.63       532.0977       9325.123      -301.9697      -5681.153
       3253.519       1357.959      -6628.747      -3304.896      -207.6582
       933.9219       7373.173       6867.111      -6076.633      -5890.384
      -4822.153      -1480.630      -901.2549      -7986.897       6655.371
       662.8564      -8490.434       15942.66       17101.08       2331.629
      -6333.438      -25965.57      -15992.06       1741.014       12.89844
       9794.102       10881.63       11577.55       3642.186      -5007.520
       3606.166      -7992.199      -10582.74       101.5508       3168.400
       12955.75       1511.467      -2585.312       8751.198      -3121.177
      -6973.968      -1766.427      -1281.336       10446.75       84.13672
      -17181.36      -6416.214      -2442.807      -2629.031       2145.529
      -3478.321       3250.633       7278.702      -4611.527       3265.354
       3887.626      -4604.519       3267.255      -2751.129       3448.811
       11205.88      -2658.678       3735.163      -1369.439      -6668.174
      -3725.562      -8950.684       4588.285       10410.26       5154.286
       1811.703      -5516.537      -4662.332       9707.514       8726.151
      -4535.703      -7358.833      -3164.653       395.4639      -1376.799
      -3323.573      -1493.516      -921.6904      -1616.645       4302.768
       8087.405       2526.458      -2770.251       2471.775       5978.593
       1690.542      -1057.406      -7113.309      -4272.206       5846.762
       5091.980       4043.960       3022.083      -1750.715      -5304.400
      -6093.684       440.6758      -109.7422      -3886.180       5434.879
       12882.50       3321.191      -7231.057      -6868.957       2830.159
       7828.915      -1077.271      -7770.111      -5146.288       263.8071
       2750.211       1852.905       2500.754       5136.687       3854.320
       5869.029       8256.677       3292.920      -4540.969      -11374.28
      -7418.023      -1062.092       3705.941       3025.734      -1574.217
       4931.162       6141.749      -5991.024      -6616.306       2689.419
       1174.257      -4505.347      -4170.079       2152.818       7234.016
       3586.875      -2556.137      -2275.584       1169.561      -842.9482
      -2005.084       409.8167       1058.294      -847.3389       2677.486
       7092.498       7696.809       8055.938      -43.06641      -3112.063
       1178.867      -5813.564      -10098.43      -4296.522       2329.414
       2824.543      -383.5671       151.3550      -918.3828      -4634.026
      -2116.089       973.3677      -1755.615       1031.762       5427.229
       5588.558       6547.226      -583.4121      -3961.849      -375.3750
       944.5635       4244.573      -1212.891      -2150.001       4184.952
      -686.3208      -2719.839       397.9082       2658.843       3092.756
       1327.757      -1616.803      -4866.333      -2976.310      -1122.965
      -3780.081      -823.9531       6037.214       4742.554       1821.278
       1941.557       992.0078      -4981.887      -7773.226      -1178.389
       5209.957       6415.852       595.6699      -2761.659      -3376.067
      -153.5103       2995.851      -187.4216      -858.5789      -520.7012
      -1442.052      -3453.092      -5410.192      -2697.577      -549.4111
      -1973.678      -1425.170       1749.625      -570.8057      -5343.130
      -2051.223       4141.838       8495.951       5159.133      -2781.860
      -2804.966       2928.484       3180.030      -3186.090      -3786.774
      -3343.681      -3084.272       1491.870       1135.311      -277.9590
      -2257.398      -5250.771      -1978.465      -1849.266      -4594.300
       1426.365       8161.594       4645.649      -637.4141      -2967.695
      -3431.594      -2035.889      -1133.218       1005.081      -1409.362
      -4681.081       1382.040       1138.335      -3327.262      -404.1104
       2943.956       1723.395       437.9102       2070.887       2368.403
       975.5078      -4571.250      -6388.183       68.54492       3287.957
       1484.505      -1792.326      -1637.975       31.64355      -2394.341
      -4344.212       381.1924       2998.829       980.0361       2488.238
      -114.8359      -6950.900      -3328.318       5757.950       7117.115
       1222.166      -5660.407      -4651.250      -3060.583      -5930.357
      -940.6396       4050.490       635.5615      -1159.102      -1860.318
      -4667.461      -3598.980      -1678.793       703.1846       4223.202
       4021.356       3233.772       2439.050      -1803.744      -4514.775
      -4835.089      -2277.217       1649.581       1003.325      -834.8101
       1504.402       2480.222      -2265.134      -4421.818      -2667.159
       103.5879       3876.486       3985.745       2129.126      -2168.045
      -3321.209      -289.8441      -869.2822       505.2656       2855.025
       2763.422       6572.285       9816.007       4347.174      -4373.402
      -10162.75      -9333.482       426.0625       9717.637       7037.816
       2178.440       2924.846      -2692.373      -8133.518      -2865.811
       5929.739       2438.068      -9446.947      -8120.396       1250.482
       6417.256       7129.474       5970.041       4237.810       2761.136
       2414.138       815.1338      -2864.718      -3474.361      -560.6855
      -4586.445      -7451.227       2220.670       10241.62       3561.521
      -2216.533      -1234.346      -3424.894      -2344.952       4395.514
       3960.229       2316.883       7545.082       5791.440       4721.656
       4144.005       1081.403       732.3467      -2730.745      -1470.072
      -988.0781      -5227.084      -5214.874      -2470.116       577.4014
       1547.431       273.2056       1368.068       4398.052       2335.184
      -353.1699       3723.160       2563.643      -2602.866      -510.8555
       2000.650       3079.566       2994.396       2266.629       2734.998
      -177.6443      -254.7949       2611.277       3053.361       1795.055
      -6668.111      -12672.29      -1150.656       9775.465       6703.951
       5266.018       2956.664      -5870.062      -11124.98      -5740.822
       4014.905       5581.554       4349.542       958.8027      -4021.458
      -4155.718       1387.443       5685.002       1708.739       621.0498
      -510.1562      -3852.815      -739.7378       1031.247       1028.508
      -4247.252      -6697.277       981.0991       86.38184      -691.5381
       768.6309      -5862.358      -3218.215       3461.001       4442.697
       5659.726       1896.058      -150.0469       61.03516      -3003.676
      -3997.887      -3968.072      -516.9414       3677.142       348.8877
      -4576.190      -1408.022       1415.339      -1935.565      -1540.738
       4261.252       6762.786       2278.266      -1697.508      -1511.303
      -4539.809      -8085.571      -4631.546      -911.5059       2925.090
       3952.139       2626.165       3327.086      -871.7151      -1525.368
      -243.9785      -1498.694      -2639.274      -5046.933      -1488.247
       2061.260       4533.719       5929.761       1034.569       29.06311
       1186.742      -1932.910      -4066.110      -185.3445       1653.710
      -3310.351      -3673.002       991.1660       57.94336      -5719.055
      -6876.434      -2952.202       1441.148       4954.943       5128.888
       1023.447      -2443.334      -1752.547      -183.5554      -830.4141
       190.5791       3463.122       1713.590      -5421.293      -9946.387
      -5766.068       1787.570       6253.545       6557.993       2182.429
      -146.3271       3680.663       1151.457      -5087.877      -2517.292
      -670.2905      -1935.640      -1854.902       1417.850       5209.458
       4060.549       4024.807       1759.248      -6967.580      -11043.69
      -6745.954       1026.766       3021.111      -422.1904       1874.364
       2436.819      -2980.119      -2120.995       1123.173       1477.353
       757.6587      -991.2966      -843.3887       1969.076       2405.486
       160.5352       2474.003       4450.948      -2031.377      -4527.857
      -3323.426      -8595.930      -7870.779      -1457.253      -246.8018
      -3867.324      -2339.816       3881.744       3776.652       2680.842
       2996.615       2128.957      -1241.118      -4455.133      -2602.847
       1108.188      -48.30566      -4128.035      -124.7559       4445.677
       125.7578       486.2686       2819.991      -1085.913      -3550.165
      -2457.042       994.8999       1948.826      -1844.961      -174.7568
       4722.184       216.7720      -3509.465       782.9434       2823.566
       388.8378       775.5238       325.6670      -2000.974      -1288.135
      -4307.624      -3886.127       3882.879       7845.707       2757.622
      -1829.790      -3461.744      -734.4111       4586.003       2632.486
      -1735.836      -5668.750      -6309.248      -3254.109       1819.355
       5873.410       6254.812       5766.540       12.18164      -6424.752
      -8302.070      -4165.072       3360.960       4808.722      -860.0967
      -1847.623       5221.173       6126.629       54.69458      -2099.393
       656.3903       1110.296      -1768.802       266.3438       4041.824
      -11.18311      -3551.372       872.4189       3398.479      -575.7383
      -2208.892      -357.3887      -1898.435      -797.4155       1289.902
       2576.089       2960.545       3133.393       4058.537       528.3032
       1144.931       3666.984       974.5322      -1549.731      -1203.356
       1196.023      -437.8828      -3882.082      -928.5420       3826.348
       1935.119      -432.6083       640.4775       1084.674       1903.451
       3940.192       4638.287       203.7822      -4583.817      -4079.999
      -298.7695       7575.744       9856.139       1327.193      -6657.138
      -3849.997      -2538.009      -3030.723       2351.116       4486.734
       4524.949       656.1226      -2500.633      -101.2954       1208.575
       1113.023      -948.6785      -500.3398       3234.143       6327.945
       5758.441      -428.5020      -4423.205      -5679.649      -5597.734
       3380.526       4138.691      -4284.191      -2317.928       2097.516
       2162.845       1042.275      -2016.509      -1603.169       1869.906
       3683.615       5640.349       2892.456      -3732.982      -4479.992
      -4123.417      -3215.287       1182.243       3515.852       8570.518
       10831.24       4093.882      -1629.764      -3290.884      -2114.085
      -3710.025      -2039.528       3854.195       4217.477      -288.6816
      -3097.082      -2006.099       1210.406       1493.695      -3709.026
      -4056.124       1139.535       281.4912      -2824.323       202.4609
       9079.836       15025.43       11516.85       1949.117      -10538.31
      -25150.05      -32361.09      -34702.77      -29658.01       3185.344
       56276.83       81929.37       42663.20      -38068.16      -94224.72
      -79450.42      -9222.812       56948.91       79043.20       53073.88
       7587.332      -19215.66      -24171.70      -20648.07      -16598.15
      -13890.13      -8823.918      -28.60938       15422.34       19373.40
       11143.73       18389.68       30307.13       33494.26       29884.20
       18224.37       12124.30      -8996.781      -49188.72      -66765.09
      -54602.75      -33357.48      -26458.90      -30467.13      -14935.88
       7420.703       13324.51       6835.523      -13473.14      -24646.67
       3.031250       18749.75       7638.188      -3131.893      -3174.922
       15583.34       45920.33       61646.06       55487.80       25230.61
      -9912.844      -43084.03      -77908.03      -77432.27      -36659.95
      -6409.605       9821.000       39161.81       53753.40       27426.84
      -26248.69      -64657.12      -27925.09       30974.88       48547.36
       56999.16       57095.54       31690.41      -8466.891      -46342.75
      -62632.38      -43657.95      -7243.016       18932.62       34785.98
       35408.55       9647.430      -26499.40      -35930.24      -4120.156
       32516.91       53796.59       43153.20      -4799.914      -26641.36
      -17428.70      -2791.246       10820.64       12885.55       4397.949
      -12068.93      -24266.00      -38749.31      -42949.24      -6651.625
       38018.31       41010.80       13457.17       3805.445       22987.40
       32048.46       9065.539      -25121.56      -35512.15      -14654.77
      -5752.484      -19552.68      -31531.19      -36079.86      -16596.58
       22644.73       39992.05       29482.06       17001.81       16572.27
       17492.39       4476.648      -22438.73      -44590.23      -32280.20
       28.42188       10990.77       7434.296       5684.566       1508.904
      -2650.410       2261.473       7561.078       4703.070      -18718.02
      -35353.02      -19696.55      -6647.422      -1801.508       8628.812
       25112.99       37347.21       30215.55       5125.211      -19068.23
      -31113.74      -33019.01      -18005.15       9668.953       28771.64
       25713.21       15029.80      -3281.375      -39536.91      -50949.87
      -19652.10       15910.44       25210.35       5313.195      -10775.49
      -9856.667      -6776.539       5301.078       30018.70       39686.93
       22819.86       837.8633      -7331.229      -7327.070      -9094.307
      -7907.092       2829.520       15786.57       13489.91      -5191.805
      -18370.12      -7325.758       12580.93       16069.72       6975.039
      -6891.578      -12386.42      -1647.539      -633.6445      -16576.61
      -13210.28       11274.53       21139.43       9027.016       1260.539
       11011.55       21635.91       9558.043      -11319.95      -12742.63
      -8994.531      -17940.00      -30292.22      -31349.66      -14113.01
       7671.609       13447.18       9314.836       6269.158       5208.514
       4784.732       6875.520       14832.34       13095.48       4757.045
      -766.2207      -5023.922      -10484.64      -14062.68      -3118.609
       17580.06       27494.44       16489.24       1744.453      -5654.528
      -6107.825       390.7598      -3734.125      -19929.50      -25979.93
      -9249.441       12757.15       17305.12       6424.594      -6923.020
      -13371.14      -8271.594       8456.023       26788.57       22028.75
      -3947.848      -20210.45      -17230.15      -2548.660       12055.63
       9917.640      -329.1802      -83.59570       4601.975       9327.143
       9193.138       794.0388      -3657.453       3639.541       11553.91
       5414.566      -831.7871      -4648.484      -9133.555      -7902.055
      -12820.52      -21653.75      -16620.90      -4812.648      -2369.510
      -605.0156       7926.715       11659.55       12698.81       12019.43
       6502.914       6366.258       9950.248       6704.018       4433.219
       9412.555       13723.23       11354.38       6354.972       2195.113
       3.756958       768.4858       370.6055      -5101.656      -10313.66
      -4717.633      -5037.422      -25465.62      -36511.38      -20502.32
      -1348.758      -1441.089      -619.5039       12521.57       18356.55
       12684.80       6359.928       5895.453       5203.685      -1651.256
      -996.8027       9484.260       11160.82       1238.206      -5183.758
       56.21094       9128.084       11577.57       4394.438      -6104.984
      -18977.66      -29611.69      -25904.68      -12653.01       4852.535
       19595.42       24255.07       22241.38       10480.17      -7125.340
      -13350.38      -10218.56      -11355.43      -17669.48      -16801.88
      -9071.781      -4765.159      -2258.898       2683.238       7742.539
       12923.73       16736.52       9375.046      -693.6638      -1289.354
       4574.141       12551.17       14892.94       13379.36       8893.434
       1903.346       1111.381      -2397.410      -12064.91      -18646.23
      -18466.54      -8262.599      -1877.399      -4311.836      -7563.059
      -8399.232      -8155.978      -4786.832       8561.648       15376.28
       9548.282       5786.018      -545.6953      -10122.28      -4532.229
       10463.85       8205.848      -3961.918      -12383.93      -18421.06
      -13922.56      -8588.625      -9965.902      -10719.87      -14946.26
      -12621.41       4344.145       17841.23       16074.33       9990.120
