     0.02500000      -15611.14       18104.01      -12345.00      -12345.00
      -29.99999       247.0250      -45.65000      -12345.00      -12345.00
       0.000000       34.67000      -12345.00      -12345.00      -12345.00
      -12345.00      -12345.00      -12345.00      -12345.00      -12345.00
      -12345.00      -12345.00      -12345.00      -12345.00      -12345.00
      -12345.00      -12345.00      -12345.00      -12345.00      -12345.00
      -12345.00      -30.94920      -69.08270       3184.000       0.000000
      -31.23600      -65.83800       0.000000       167100.0       0.000000
      -12345.00      -12345.00      -12345.00      -12345.00      -12345.00
      -12345.00      -12345.00      -12345.00      -12345.00      -12345.00
       311.2015       275.0289       96.69666       2.798048      -12345.00
      -12345.00    -0.01570796       0.000000       0.000000      -12345.00
      -12345.00      -12345.00      -12345.00      -12345.00      -12345.00
      -12345.00      -12345.00      -12345.00      -12345.00      -12345.00
      2008       318        11        13        16
        50         6    -12345    -12345     11082
    -12345    -12345    -12345    -12345    -12345
         1         7        13    -12345    -12345
    -12345    -12345    -12345    -12345    -12345
    -12345    -12345    -12345    -12345    -12345
    -12345    -12345    -12345    -12345    -12345
         1         1         1         1         1
DOCA    -12345          
        -12345  -12345  
-12345  -12345  -12345  
-12345  -12345  -12345  
-12345  -12345  -12345  
-12345  -12345  -12345  
-12345  -12345  BHZ     
ZL      -12345  -12345  
[...]
      -977.9443      -964.4685      -950.6104      -936.4575      -920.3499
      -905.4485      -886.6499      -868.8491      -854.1628      -838.0830
      -819.0144      -801.3828      -779.6631      -763.0056      -743.3882
      -721.4648      -697.9497      -682.9790      -664.6555      -643.7493
      -618.0706      -602.2412      -581.1748      -559.1606      -536.7672
      -517.7449      -493.3345      -471.6180      -446.0469      -424.5231
      -399.1270      -375.1475      -351.2623      -327.3970      -299.5974
      -274.0870      -248.8148      -221.3260      -193.1175      -165.4551
      -140.1944      -113.1093      -84.83289      -54.26891      -26.85671
       1.972656       33.07547       63.32773       88.35724       119.4744
       149.4110       178.5137       205.1740       235.1335       264.9070
       296.0224       321.5104       348.2188       375.2589       408.6062
       433.5483       458.7708       480.5278       506.9348       528.9729
       551.3137       572.8540       595.2202       611.7280       632.9832
       651.9685       670.2021       684.9114       703.4612       717.6416
       731.7544       745.1899       761.6562       773.5654       787.6531
       798.4807       810.5581       821.5605       833.5056       842.3884
       853.6326       856.4741       865.9539       874.2590       878.0908
       881.4592       884.2620       886.8469       889.7710       888.3364
       890.3623       888.3828       890.8008       887.0027       880.8030
       877.4570       873.7251       864.0828       856.7078       850.5110
       844.2830       832.4858       821.2107       812.6028       803.1787
       788.6228       774.8191       761.7349       749.5339       735.7534
       720.4436       703.8618       688.5337       673.4021       661.3306
       647.2872       629.4546       609.3149       596.2211       578.9507
       560.9186       543.2727       526.2950       506.0970       486.9602
       467.1001       449.6459       430.6486       409.8884       388.5143
       368.6611       347.3057       326.0821       303.9622       282.0167
       262.8185       241.3432       218.2612       196.7596       176.5520
       156.5004       136.3431       115.7004       94.47086       77.53232
       59.36533       40.18974       24.01556       8.149742      -10.35266
      -26.07736      -40.34532      -54.26016      -69.13269      -84.46661
      -98.65637      -113.6643      -128.5923      -139.7924      -152.3926
      -168.1525      -178.6517      -192.3032      -206.4448      -214.2378
      -226.0397      -243.0115      -254.0738      -263.1138      -275.6982
      -286.8707      -296.1411      -308.1810      -318.8029      -330.4509
      -340.9723      -349.0308      -358.2511      -367.0267      -377.7100
      -389.9978      -398.9490      -407.4420      -417.6567      -427.7756
      -436.2932      -445.1367      -455.2253      -465.7427      -473.7806
      -479.3813      -487.7919      -495.9690      -498.2913      -504.1830
      -513.2632      -516.9042      -521.9697      -523.6448      -526.8204
      -529.8599      -531.0835      -531.3745      -535.5085      -532.9169
      -535.2448      -535.8101      -539.0046      -535.9314      -535.6200
      -532.7532      -537.4037      -532.1296      -532.5178      -530.5338
      -531.2173      -526.4180      -526.5356      -524.4158      -528.4868
      -525.7255      -525.8835      -523.2556      -524.3713      -520.8003
      -523.4951      -520.6711      -520.8843      -518.3506      -517.2969
      -511.3768      -513.8308      -510.6719      -506.3345      -500.7860
      -497.8950      -491.0665      -486.7755      -476.4347      -469.7134
      -463.3730      -455.8147      -450.4531      -443.3469      -432.5291
      -424.7582      -416.4324      -408.3679      -398.1484      -386.4655
      -378.8464      -371.1371      -358.3027      -347.7222      -337.4266
      -325.4870      -309.8201      -293.9749      -279.8861      -266.8889
      -252.3807      -236.0549      -219.0672      -201.9689      -184.0243
      -168.3753      -151.2259      -134.7873      -118.6374      -101.9368
      -84.93704      -68.95953      -54.11008      -41.40584      -26.35675
      -8.975300       4.430878       20.49046       36.40547       50.71286
       67.13153       82.72021       96.61200       114.5351       131.0963
       147.0239       162.0567       178.5455       197.2112       210.9458
       226.2231       244.0298       256.4926       271.1005       288.6479
       307.1394       322.0458       336.6434       352.1643       368.8997
       383.8046       399.9705       411.3331       426.0723       441.0872
       453.4934       462.1647       475.8499       487.3950       499.8081
       511.1462       521.9354       530.1757       540.1934       550.8958
       559.0945       567.7700       576.1350       582.8513       589.2458
       593.8711       600.3903       608.1538       611.5032       615.9031
       621.0396       624.7449       626.0790       626.7742       627.5448
       628.3125       625.2031       626.4297       623.4510       619.3386
       613.1589       610.7273       604.2007       598.5149       590.7517
       586.7534       576.3086       566.7441       557.3469       550.3633
       535.7444       527.8634       516.3325       506.6483       496.1971
       487.3871       474.6008       463.5549       451.4871       441.4993
       431.1948       422.6099       411.7759       398.7566       386.8577
       376.5205       368.2684       356.6028       344.2023       333.8275
       325.6777       311.1672       300.9127       289.4102       279.1438
       268.1310       255.9103       243.2181       232.7130       220.6821
       210.1876       197.1549       184.6916       172.7365       159.5136
       143.8581       130.0566       114.2997       101.3599       87.34012
       73.48474       57.89554       45.06957       32.33426       22.52251
       4.844604      -7.484985      -21.16862      -32.25060      -44.21201
      -54.22012      -68.49648      -74.74124      -88.72150      -99.13382
      -109.6826      -114.8354      -124.1206      -131.9432      -140.4703
      -141.9780      -151.3852      -157.1893      -163.0710      -167.3297
      -173.9504      -176.1204      -182.2189      -184.4307      -188.9868
      -191.4997      -197.3874      -197.7970      -201.7120      -206.3821
      -211.1856      -209.8384      -210.2755      -210.9999      -215.6452
      -216.1119      -217.3859      -215.4376      -218.3813      -217.0621
      -219.7373      -218.6659      -218.6910      -216.8887      -222.3930
      -222.4117      -225.5353      -221.5835      -225.1064      -221.7570
      -226.8639      -228.4505      -233.5276      -232.6682      -238.8723
      -240.0381      -245.6841      -245.6822      -253.0850      -256.0713
      -261.3369      -259.9557      -266.3184      -270.0876      -274.7755
      -276.2226      -281.7848      -281.9927      -285.9897      -286.2787
      -288.1143      -284.3997      -288.2407      -288.1816      -289.2507
      -284.1051      -284.5716      -284.1104      -286.5242      -282.1442
      -282.7856      -278.3700      -279.6959      -273.9493      -273.1919
      -271.1425      -275.0799      -268.8215      -270.1212      -266.7415
      -267.8938      -261.2238      -263.4290      -262.1505      -264.1933
      -260.0701      -261.9896      -260.1254      -262.4213      -258.1437
      -260.7391      -257.1334      -259.1669      -258.4809      -261.0435
      -256.7449      -259.0970      -255.9047      -255.7136      -250.3011
      -249.1672      -245.5418      -244.7957      -239.2682      -239.3661
      -233.7355      -231.1435      -223.2941      -219.9705      -215.2132
      -212.3760      -203.6079      -199.2950      -193.7698      -190.4570
      -183.5684      -178.6359      -171.8165      -167.0133      -161.6204
      -156.5482      -151.7199      -147.5554      -143.1665      -138.8315
      -134.0945      -128.8062      -123.6345      -116.3492      -113.1156
      -109.6965      -102.1663      -97.72046      -97.09433      -92.23352
      -92.10391      -90.28860      -90.30533      -90.86230      -92.02176
      -90.07718      -91.01883      -90.95374      -89.39734      -85.55762
      -87.95728      -92.13980      -96.64835      -100.4592      -99.32306
      -95.36734      -95.96179      -99.58850      -102.6076      -105.1796
      -107.8069      -108.6877      -109.1406      -108.6253      -105.2934
      -107.4770      -107.9905      -106.9601      -105.8117      -103.4686
      -97.74661      -96.55658      -91.41174      -88.51263      -85.67542
      -82.07599      -72.10007      -65.32544      -57.22742      -51.68391
      -43.39330      -40.07422      -35.65830      -28.65893      -17.05482
      -8.773120      -2.221844       4.028679       11.73949       15.96524
       21.65589       32.24251       41.16565       46.19116       50.67426
       57.24780       65.70612       75.85191       82.50815       90.99612
       99.27386       105.3717       112.5951       120.8787       129.1948
       138.3021       144.7716       153.6389       164.0649       172.2844
       179.1174       190.6092       199.3925       205.2712       211.1591
       218.6273       222.4882       227.3312       233.1688       240.0390
       241.7397       247.4290       249.9204       255.0046       256.5984
       260.4968       260.7491       264.1066       263.4794       266.1244
       262.4263       262.6577       259.8406       260.5361       259.1799
       259.3152       255.1577       253.8303       251.5129       249.2343
       244.6917       243.9395       240.0326       235.3079       231.5816
       227.6101       221.2906       217.5848       213.7898       206.5233
       197.3820       191.5337       187.2592       184.1442       177.5219
       170.7502       165.6483       159.6899       151.9813       146.2523
       141.1203       135.7295       130.3438       124.8743       119.9801
       117.3258       112.0094       108.3633       104.6787       101.6486
       93.98209       91.48810       87.31119       86.07373       80.38760
       73.13228       68.06348       69.57767       64.65596       60.46069
       52.95607       48.99771       45.20247       40.32529       33.48106
       30.55524       24.05166       19.72373       14.53428       10.21721
       3.107047      0.1060934      -2.012012      -6.979958      -12.33210
      -15.49046      -20.04538      -21.55869      -25.64768      -29.16398
      -32.03748      -32.46710      -37.40348      -40.35248      -43.25871
      -42.79535      -46.14011      -44.57928      -52.43300      -56.38998
      -58.39545      -57.07185      -63.82195      -66.67528      -69.81561
      -70.36723      -74.95410      -75.12267      -78.73225      -81.85538
      -86.42581      -87.47278      -90.66891      -89.49734      -91.53076
      -90.72708      -90.86893      -90.50082      -90.02847      -89.35474
      -85.93491      -81.39044      -79.35252      -75.95596      -78.53342
      -74.42908      -70.44397      -66.64659      -63.71843      -56.07562
      -53.19370      -50.61554      -50.79109      -44.18335      -42.32690
      -37.60307      -35.83244      -31.58350      -31.94424      -29.47879
      -29.43205      -27.71855      -28.10420      -26.57825      -29.74535
      -29.18980      -31.57979      -29.24616      -23.36191      -6.831436
       23.07404       86.54700       195.9705       378.1379       693.7280
       1195.976       1875.194       2634.718       3264.396       3510.323
       3486.467       3758.854       4002.640       2816.735       750.1555
      -9.436523      -274.9072      -2128.151      -2451.939       3233.500
       9429.037       5589.918      -5890.426      -11236.85      -3929.096
       4255.149       396.5576      -4774.216      -197.4355       3759.143
       8.574219      -6738.316      -9744.385      -6250.330      -917.0596
      -1250.200      -4526.503       1402.598       10549.44       7620.932
      -87.22510      -2474.716      -1895.417       2452.488       5487.219
      -587.2188      -8322.201      -11043.51      -10051.85      -4486.078
       2424.366       3259.311       847.7769       499.3242       3372.053
       9206.291       6617.299      -7361.250      -13068.97      -3589.696
       5737.033       6021.664       315.3428      -3940.432      -712.7227
       8153.414       14315.30       6720.453      -6414.604      -5965.095
      -1718.672      -6551.900      -8319.860       1835.971       10680.95
       1812.066      -7862.998       2671.560       9030.642      -5880.102
      -11611.61       7608.754       18104.01      -991.2969      -15611.14
      -5835.938       1286.246       1712.609       9446.056       8897.886
      -1820.809      -4724.969      -3171.147      -228.1855       4646.586
       2381.385      -5013.207      -7494.971      -2324.237       3511.835
       4986.132       5302.172       768.2051      -6315.059      -5786.462
      -1074.162       4721.414       8675.668       2704.008      -6219.362
      -6935.074      -1559.983       4342.570       3952.073       217.6885
       1703.692       725.2275      -3543.355       428.1855       3855.268
      -3055.411      -5853.690       796.3096       3177.583      -569.6670
      -3249.004      -2078.196       4002.538       6192.164       1359.287
       1234.044       2384.542       202.6841       2018.210       2066.586
      -3035.823      -2254.150       2119.139       837.8755       1655.725
       4841.763      -727.6904      -4134.908       2322.467       3964.077
      -1106.646      -2533.084      -2379.122      -2801.347      -314.2471
      -838.4807      -2029.762       2706.691       5177.303       3191.929
       87.14160      -2743.335      -1182.910       1582.244       901.4955
       803.7952      -211.5981      -2620.192       741.4578       2283.255
      -4090.445      -5936.423      -282.3867       2845.459       1041.734
      -367.6934      -77.49341      -578.5454      -723.5146      -1973.556
      -4713.023      -358.5010       5165.932       414.1875      -4843.341
      -3541.481      -871.9668       1980.328       2274.100      -2739.567
      -4965.126      -564.5846       833.3872      -2750.242      -1877.978
       3744.032       4526.389       201.0737      -1825.632      -1569.144
      -1325.779      -242.4788       513.5288       797.4995       1387.176
      -235.6084      -3437.677      -3975.658      -722.1221       2281.534
      -403.3301      -4479.960      -2752.197       2556.645       4440.702
       1306.673      -1946.114      -3686.060      -2158.533       3667.566
       4623.357      -1347.226      -4924.830      -4507.356      -2483.505
       1618.014       3296.535      -142.6050      -1990.581      -320.6685
      -663.4561      -3118.653      -1502.356       2160.609      -965.5107
      -4040.034       1062.265       3872.863      -543.3135      -2328.025
       162.8734       25.43408      -1858.777      -1447.530      -78.32202
      -333.1158      -44.69434       1439.480       82.63721      -2542.038
      -1902.143       1101.851       3057.364       3157.517      -52.11719
      -5273.857      -4851.139      -495.7773      -2004.067      -4803.911
      -1663.202      -58.68237      -191.5176       2805.143       2790.070
      -1503.383      -4948.826      -4302.145      -1060.043       1019.321
       3997.747       4397.148      -1343.127      -3305.650       232.6476
       176.9805      -2165.496      -454.9636       1909.637       280.6895
      -2365.557      -1655.593       384.0698      -499.2861      -748.5054
       1009.622       1437.034       1860.315       2398.942       1546.773
      -1579.478      -3539.155      -183.8848       2455.429       212.8282
      -1269.060       759.2793       1976.830       673.5345      -227.6604
      -396.7817      -1720.898      -3907.854      -3955.133      -1846.584
      -1362.235       15.28125       5705.008       8116.755       1280.316
      -6869.222      -5953.624       859.7559       3896.522       3745.401
       4081.333       2861.554      -272.5840      -2093.215      -162.3678
       1445.007      -1963.426      -7097.652      -5697.931       3321.080
       7278.652       2744.011       443.6138       1945.248       3062.093
       2904.610       2351.966       970.5645      -3360.468      -6449.311
      -1302.206       5659.464       4015.509      -22.51294       698.9659
       476.2031       415.4355       4283.673       3615.752      -678.6641
       461.0117       4110.270       5374.979       2739.910      -1273.681
      -1585.731      -1971.004      -3976.318      -251.2754       6193.879
       6914.495       3124.881      -461.0703      -1964.324      -2479.747
      -3436.543      -2558.423       788.0850       3584.620       4190.704
       2705.370       2565.291       2360.396      -622.5864      -1607.043
      -427.2051      -1330.734      -2197.117       3249.838       7489.888
       2641.916       1213.944       3606.853       268.4443      -2188.019
      -2104.085      -1610.455       949.6240       192.3042      -1005.980
       3109.430       5101.191       2724.248       2359.646       4668.493
       3367.221      -2871.709      -5027.834      -1266.649       1606.231
       2524.669       2607.364       2564.230       1621.187      -773.5881
      -1335.248      -1002.929       417.6182       2822.513       1137.747
      -1266.102      -2084.302      -2231.243       628.7402       2241.848
      -495.0801      -3619.903      -2245.698       1183.865       1520.598
       1948.395       2137.097       89.37500      -84.76343       1414.348
       998.1708       128.9460       682.1865       387.7520      -1242.667
      -2014.007      -1027.482      -500.7490      -1721.711      -1327.724
       495.8076      -1044.292      -4261.594      -2816.479       1925.068
       2811.856       1033.045       1448.295       933.8042      -2272.703
      -2903.616      -23.58191       794.9373      -1204.587      -475.5645
       2534.271       2821.864       1725.445       356.5107      -2620.472
