     0.02500000      -20666.58       20399.01      -12345.00      -12345.00
      -29.99999       247.0250      -45.65000      -12345.00      -12345.00
       0.000000       34.67000      -12345.00      -12345.00      -12345.00
      -12345.00      -12345.00      -12345.00      -12345.00      -12345.00
      -12345.00      -12345.00      -12345.00      -12345.00      -12345.00
      -12345.00      -12345.00      -12345.00      -12345.00      -12345.00
      -12345.00      -30.94920      -69.08270       3184.000       0.000000
      -31.23600      -65.83800       0.000000       167100.0       0.000000
      -12345.00      -12345.00      -12345.00      -12345.00      -12345.00
      -12345.00      -12345.00      -12345.00      -12345.00      -12345.00
       311.2015       275.0289       96.69666       2.798048      -12345.00
      -12345.00     -0.1295746       90.00000       90.00000      -12345.00
      -12345.00      -12345.00      -12345.00      -12345.00      -12345.00
      -12345.00      -12345.00      -12345.00      -12345.00      -12345.00
      2008       318        11        13        16
        50         6    -12345    -12345     11082
    -12345    -12345    -12345    -12345    -12345
         1         7        13    -12345    -12345
    -12345    -12345    -12345    -12345    -12345
    -12345    -12345    -12345    -12345    -12345
    -12345    -12345    -12345    -12345    -12345
         1         1         1         1         1
DOCA    -12345          
        -12345  -12345  
-12345  -12345  -12345  
-12345  -12345  -12345  
-12345  -12345  -12345  
-12345  -12345  -12345  
-12345  -12345  BHE     
ZL      -12345  -12345  
[...]
      -55.33423       292.6476       539.1533      -515.6897      -1216.647
      -734.7134      -1262.662      -2240.000      -1463.405       126.7912
       230.3574      -670.7778      -790.6362      -33.30811       1410.909
       650.5225      -2298.293      -2911.605      -1933.085      -1675.890
      -1782.743      -2522.812      -2741.392      -2206.239      -2133.148
      -1701.126      -1263.674      -1772.392      -1473.938      -470.5291
      -482.8958      -1165.682      -1555.613      -1354.396      -1087.794
      -1009.602      -473.9253       519.9668       1122.305       127.5566
      -1322.267      -1534.209      -1443.120      -2095.389      -2524.941
      -2078.020      -984.7262      -63.64868       534.3837       486.4209
      -1322.949      -3015.843      -2285.484      -817.8254      -258.4114
       162.6904       1221.797       1712.206       1591.758       1409.219
      -414.0752      -2278.862      -2810.199      -3329.204      -2652.099
      -2309.076      -3529.197      -3382.290      -1802.229      -601.0410
      -8.762085       200.0962       294.6289      -300.2837      -1125.624
      -1436.450      -1631.644      -1725.292      -620.9666       647.7936
       305.1738      -361.5068      -1142.527      -2649.649      -2959.944
      -865.9557       875.9602      -266.8223      -1439.966      -980.1228
      -927.8594      -1204.230      -387.6797       676.5583       1188.031
       906.6016      -553.1841      -1386.551      -814.3215      -42.87012
       928.7852       1195.466       1202.172       1646.864       606.6274
      -1494.691      -1611.274       256.1982       1820.466       2306.976
       2010.012       539.4316      -1333.276      -1947.115      -1447.797
      -667.6046      -326.1409      -577.3185      -318.0291       22.69189
      -93.06641       780.2603       2004.297       2428.246       3060.882
       2498.750       454.4323      -187.2141      -27.92493      -2.383301
       1466.215       2597.240       1335.003      -297.8695      -622.5566
       300.1406       1445.562       1145.882       678.2283       457.1718
      -229.1599      -196.1162       573.9790       1470.216       1585.243
       905.8994       1217.696       1833.894       1214.400      -191.6970
      -1056.953      -872.6074       45.69940       433.9620      -214.0514
       34.89453       1536.414       2124.536       1757.230       1709.119
       1194.994      -185.1232      -536.0488       186.5583       655.9404
       1415.573       2299.225       2776.536       3257.181       2625.696
       1343.272       1132.765       735.4634      -749.2771      -922.8540
       1189.110       2574.733       1408.546       498.6299       527.5117
       1150.439       1205.957       292.6388       784.3461       372.8035
      -1243.748      -1050.130       44.14282       949.4365       2093.716
       2826.600       1744.178       318.1357       261.0210       1248.796
       1754.831       1164.825       516.9121       876.4756       2324.197
       3262.877       2586.502       1701.966       487.7513      -606.8242
       109.5483       1352.022       1963.887       1568.241       497.5984
       217.3701       526.4268       1599.814       2884.788       3875.418
       4033.281       2362.979       425.9966      -1204.313      -2434.371
      -1622.276       376.3486       1323.960       1491.933       1948.961
       1250.029      -1008.073      -2307.227      -1613.496      -467.6118
       710.1797       2027.398       2305.859       1049.448      -294.4326
      -1423.319      -1913.681      -933.3789       906.0918       2231.556
       1967.063       260.8096      -1544.778      -1711.836      -1093.066
      -304.4365       1823.700       2852.083       1279.622      -191.2631
       250.3331       398.8147      -682.2908      -616.8511       511.8591
       666.5803      -17.52771       125.3187       20.61816      -1249.240
      -1140.895      -586.4233      -1023.002      -1302.408      -681.2695
      -784.6621      -2011.409      -2397.661      -1031.517       396.3287
       84.21436      -366.6538      -631.5112      -1064.945      -699.8016
      -39.97241       268.6904      -706.9121      -2401.172      -3267.325
      -2952.817      -1466.869       757.8120       2348.600       1610.960
      -306.7486      -494.4259       20.29550       157.8081      -26.22925
      -486.1431      -1347.420      -2745.686      -2466.100      -861.4478
      -430.9631      -628.1650      -313.9777       40.49512      -571.9275
      -846.1338      -948.7036      -2138.983      -2238.744      -324.8077
       206.5469      -1418.893      -2844.785      -2983.842      -2516.154
      -2125.076      -1285.172       255.6104       932.7091       522.9150
       496.7646       805.6152      -463.2383      -3729.548      -5361.882
      -3477.563      -1207.615      -286.3560      -485.1353      -1574.028
      -1680.933       13.52344       849.5186       999.2854       1156.030
       342.4311      -181.0392       167.2319      -576.0347      -2125.289
      -1823.147      -881.0178      -1465.863      -631.5725       1162.667
       622.1333      -756.7593      -1285.417      -1561.121      -2233.740
      -2633.082      -964.8447       1417.605       2472.787       1916.856
       246.6967      -527.1868       65.89355       596.1700      -52.02246
      -1257.439      -1886.580      -2357.505      -2472.409      -2245.485
      -278.2373       2061.388       1789.274       804.8275       88.12543
      -31.89954       578.7583       620.3123       435.4634      -162.7915
      -982.3047      -1984.394      -1900.702       861.3354       2615.617
       784.6782      -1491.226      -2137.355      -1674.776      -1340.466
      -1635.489      -2399.303      -2368.383      -1869.577      -2115.634
      -1330.617       648.0264       2062.334       2435.290       1609.815
       1084.627       1387.974       1009.497      -336.4917      -1428.112
      -1910.603      -1326.304       41.73633       1090.222       1210.185
      -1053.156      -3821.242      -2629.923       120.3564       1334.654
       2153.518       1642.307       49.85321      -122.8734       408.6590
       240.3042      -679.4143      -1359.080      -792.0695       174.1057
       841.5518       1126.692       1180.206       2095.142       1967.222
       281.8110      -1151.743      -1244.580      -535.4688      -1486.323
      -2458.743      -1316.874       942.4014       2495.434       2309.254
       1924.889       1318.137      -544.9858      -2520.198      -1894.343
       73.31323       805.7017       608.1561      -332.8552      -972.2285
       351.0723       2526.345       2843.316       1271.399      -14.59448
      -590.6089      -799.1619      -348.3359       1421.686       2404.529
       1311.497       675.9592       812.9366       561.5197       473.0039
       535.2471       1289.741       2395.657       1941.160       866.4774
       206.3265      -668.3047       358.4771       1743.517       37.69971
      -2202.759      -2470.860      -1613.522      -257.7146       960.6670
       1766.207       2664.560       2582.567       1674.025       1339.274
       734.2708       322.2183       612.0596       1615.760       2264.849
       2068.721       1882.381       1091.306      -221.9644      -892.7715
      -610.3215       739.8931       2198.255       1883.473      -114.9517
      -1483.103      -1175.951       170.4224       1716.380       2932.818
       3220.347       2314.843       531.4329      -40.79102       937.4232
       405.1794      -689.2703       588.4834       1915.442       1085.841
      -73.12500      -513.5331      -709.5479       542.0498       2460.982
       3254.572       2138.217       1126.526       1936.578       1989.191
       672.1526       417.9814       1864.837       2084.023       878.1125
       614.0471       59.31641      -556.5739      -477.3850       437.2812
       1694.039       1900.100       1059.923       434.5683       138.0309
      -409.6670      -237.6362       684.0293       1849.327       2833.313
       2434.295       1036.379      -898.7378      -1882.395      -938.6837
      -76.40039       470.2898       1276.619       45.33789      -2031.010
      -1431.083       1195.544       2638.530       2122.457       894.2167
       431.0300       758.3037       117.0338      -775.1219      -395.9199
       347.1162       1066.449       1103.433       1118.431       2159.629
       2156.747       591.6606       564.7849       975.9860       34.82324
      -735.5850      -1012.361      -674.5608      -697.4011      -892.5039
      -807.1123      -2077.265      -2722.788      -1185.883       325.2449
       441.6163       683.5811       369.3525      -1495.157      -2293.294
      -1086.563      -270.6414      -138.9280       386.7465       557.3907
      -191.4036      -34.01855       656.2516      -122.5302      -472.0161
       78.18555      -455.5029      -850.3792      -382.1407      -108.1282
       252.9651      -40.31006      -2097.384      -2697.439      -2227.406
      -2929.197      -2598.569      -1437.587      -933.2334      -987.9224
      -1388.173      -1572.274      -937.6763      -253.1740      -181.7601
      -154.0449      -379.9009       207.3535       835.0786       502.4104
      -250.1123      -1585.188      -2717.123      -3128.038      -3792.547
      -4813.137      -5679.395      -6307.545      -6443.820      -6562.480
      -6455.801      -5696.430      -6466.828      -7874.117      -8948.859
      -9782.719      -8174.891      -5645.736      -3435.594      -101.4277
       2622.317       3275.720       3144.686       3677.703       4166.854
       4507.652       5447.914       6785.922       7431.977       7794.969
       9186.367       9872.199       8864.121       7263.802       4447.752
       574.8447      -3420.419      -5469.141      -3895.876      -1599.215
      -2212.422      -4738.611      -6800.252      -6498.477      -2884.267
       806.7109       263.6445      -5278.246      -11558.22      -12221.54
      -6456.987      -1030.203      -1322.561      -3134.415      -2266.220
       569.9414       3567.500       5760.035       7638.215       6555.333
       964.4199      -3858.275      -2471.660       4578.883       8560.866
       3776.816      -3644.967      -7711.184      -8973.402      -9694.277
      -10290.39      -7737.318      -2584.659       1322.346       3203.712
       1457.951      -2983.406      -4469.729      -4744.334      -7153.359
      -7939.342      -5109.057       726.4453       8718.914       14607.47
       17888.75       20399.01       17842.90       8305.406      -2700.273
      -9217.527      -9235.909      -6345.732      -3329.579      -507.2217
       1011.271       3435.014       9183.152       13192.94       10926.30
       3994.428      -5792.871      -12699.42      -10690.44      -5085.756
      -718.3555       5283.773       10785.84       10341.20       4800.094
      -4310.477      -13677.40      -14617.31      -3393.375       8821.703
       9447.886       2536.647      -1217.373       529.6309       3222.729
       3458.399       1273.186      -804.5862       304.0414       549.7988
      -2770.569      -5470.196      -5330.542      -1777.730       5115.883
       12251.23       13591.24       7113.282      -1196.303      -5674.180
      -6557.205      -6626.354      -3805.951       3663.111       8128.550
       4379.155      -1594.469      -3047.869       2294.684       10433.50
       13486.37       8346.091      -1180.945      -7973.055      -10186.38
      -10120.73      -6005.472       810.1934       6172.375       10779.06
       16299.95       17621.15       7837.957      -5951.035      -10950.72
      -5596.674       3703.125       11108.59       13729.46       10851.82
       6377.499       2223.650      -4886.809      -10917.11      -11368.43
      -10199.57      -6566.726       1161.454       4887.071       444.7344
      -3690.542      -2023.006      -863.6055      -5915.070      -12407.19
      -13782.91      -9230.207      -2587.646       1914.271       5054.770
       9312.770       13028.69       13637.97       11558.65       6742.459
      -16.43945      -5057.605      -5887.086      -1688.895       3820.031
       5318.786       2892.001      -61.77515      -858.1406      -1404.941
      -3819.275      -5273.359      -5299.044      -5613.506      -4851.288
      -2220.341       1079.866       3227.335       2238.901       166.0955
      -169.7308      -36.25461      -353.8945       399.7812       3585.135
       7265.465       7699.348       6728.908       7649.035       8090.590
       8074.619       10246.06       11154.97       6151.252      -3800.816
      -13204.89      -18621.11      -20666.58      -19707.21      -13860.41
      -3660.248       2077.017      -2505.623      -8794.031      -7195.633
      -1073.834       2215.795       2566.174       1704.756      -276.7812
      -2596.488      -3836.559      -2315.420       766.8108       1462.190
       768.8369       2951.456       5198.064       1512.292      -5101.449
      -6149.694      -1280.586       3716.979       6003.232       5494.981
       2621.217      -706.2393      -2442.569      -3200.092      -3113.001
      -2040.566       284.3232       3879.379       6464.771       6789.902
       6324.268       6851.848       7350.786       4366.347      -320.1504
      -1414.480       637.7041       2096.207       1509.072      -109.4717
      -878.6646      -838.4116      -1217.754      -2499.363      -3674.326
      -3287.285      -2601.478      -1323.860       2279.535       5498.617
       5849.416       3017.761      -1089.770      -2871.281      -1942.786
      -1103.001      -1101.669      -1180.406      -1905.430      -1924.616
      -681.2971      -5.226074       1210.864       3052.363       2285.323
      -972.2217      -3783.613      -4798.023      -3639.381      -1081.224
       974.8014       1177.731      -1157.936      -4272.753      -4790.028
      -2639.222      -731.2368       223.0850       1568.243       1381.577
      -1452.031      -4047.028      -3961.223      -2347.748      -2008.845
      -2285.947      -1208.005       120.6797      -870.1982      -3358.260
      -3684.370      -2564.811      -2830.875      -2963.685      -978.3394
       867.2615       286.0944      -613.5430      -36.32666       784.1133
       2877.412       5961.967       6506.383       4078.843       1590.592
       2109.697       4980.205       5821.896       2681.995      -648.2916
      -318.2412       995.6543       1713.521       2693.359       1771.448
      -154.8418      -1404.880      -2316.346      -1935.742      -1905.182
      -4289.358      -6172.517      -3766.661      -498.7224       256.5039
       2156.553       5424.754       6485.256       4110.280      -618.6406
      -5473.361      -8352.598      -7076.555      -2956.132       571.7207
       2375.236       2557.114       1610.360      -90.25586      -2586.695
      -6079.992      -7512.380      -4019.625       1063.746       4040.748
       5342.018       6895.148       6084.894       2232.041       257.0811
       1109.607       3063.462       4552.366       3357.624      -711.4395
      -2885.067      -1038.287       638.1274       966.3081       1568.765
       1743.324       1763.746       2505.053       258.0762      -4767.211
      -7312.617      -6687.101      -5055.611      -3670.421      -2177.028
       515.7334       2174.567      -433.8984      -5883.293      -9101.988
      -7074.046      -2127.011       286.8557       162.0703       2137.175
       3801.776       2630.437       2151.158       3379.964       3140.270
      -443.4189      -3838.631      -4208.469      -2184.053       1578.697
       4265.681       3295.640       1029.464       739.4209       2165.360
       3433.608       3630.537       2939.826       1988.666       185.5195
      -2670.294      -4710.344      -4950.978      -4757.126      -3450.458
       287.1992       4005.234       6039.598       6229.146       4461.601
       2301.650       608.0394      -43.01318       1765.441       3623.689
       1865.653      -1060.453      -2512.369      -3140.301      -2801.516
      -2460.882      -3795.129      -5872.961      -6728.168      -5191.646
      -1753.705       1639.662       4069.057       4585.804       3258.467
       1082.694      -2031.826      -4450.819      -4049.635      -1330.443
       563.8621       326.6323       382.9028       1178.999       1024.177
      -210.9482      -1520.056      -2608.698      -3347.385      -2817.096
      -2773.624      -3880.877      -2960.704      -1373.971      -2068.529
      -3712.996      -3140.982      -862.8994      -1373.264      -3704.064
      -1928.056       3900.559       7705.691       7684.357       7004.421
       5764.455       2028.110      -2338.056      -3137.575       172.4736
       3301.105       2176.127      -468.3887       1454.746       6382.615
       7800.775       4601.341       1851.108       2508.004       3004.048
       262.6387      -4358.910      -8314.629      -9868.765      -6687.888
      -265.6621       4047.988       4931.397       3189.387       1442.001
       1008.636       247.3840      -153.1484       851.2422       2441.245
       1843.300      -993.9214      -2255.566      -1066.089      -191.0190
      -605.7567      -647.0137       1020.664       4114.037       6997.342
       7431.388       5001.044       2616.234       1522.604      -324.0098
      -3893.932      -5833.155      -3645.153      -1630.427      -2361.545
      -1344.697       2647.560       4378.079       3385.161       2756.541
       1982.556       1900.911       3088.084       2443.906       33.67383
      -1788.237      -2153.377      -1848.432      -1531.632      -1124.637
      -1526.126      -2408.754      -3807.838      -5134.150      -4650.492
      -4502.474      -4651.861      -2353.496       1195.836       3949.645
       6115.682       7653.526       6404.666       2730.523       71.50665
      -66.89771      -211.2871      -2188.326      -4264.563      -3821.956
      -1104.894       365.7100       1616.494       5327.117       8293.203
       7340.718       4227.308       2473.572       3457.582       4607.201
