     0.02500000      -28993.45       25812.76      -12345.00      -12345.00
      -29.99999       247.0250      -45.65000      -12345.00      -12345.00
       0.000000       34.67000      -12345.00      -12345.00      -12345.00
      -12345.00      -12345.00      -12345.00      -12345.00      -12345.00
      -12345.00      -12345.00      -12345.00      -12345.00      -12345.00
      -12345.00      -12345.00      -12345.00      -12345.00      -12345.00
      -12345.00      -30.94920      -69.08270       3184.000       0.000000
      -31.23600      -65.83800       0.000000       167100.0       0.000000
      -12345.00      -12345.00      -12345.00      -12345.00      -12345.00
      -12345.00      -12345.00      -12345.00      -12345.00      -12345.00
       311.2015       275.0289       96.69666       2.798048      -12345.00
      -12345.00     0.04901694       0.000000       90.00000      -12345.00
      -12345.00      -12345.00      -12345.00      -12345.00      -12345.00
      -12345.00      -12345.00      -12345.00      -12345.00      -12345.00
      2008       318        11        13        16
        50         6    -12345    -12345     11082
    -12345    -12345    -12345    -12345    -12345
         1         7        13    -12345    -12345
    -12345    -12345    -12345    -12345    -12345
    -12345    -12345    -12345    -12345    -12345
    -12345    -12345    -12345    -12345    -12345
         1         1         1         1         1
DOCA    -12345          
        -12345  -12345  
-12345  -12345  -12345  
-12345  -12345  -12345  
-12345  -12345  -12345  
-12345  -12345  -12345  
-12345  -12345  BHN     
ZL      -12345  -12345  
[...]
      -1752.906       405.7148       540.1478      -331.6393      -221.9392
       31.69031       164.0889       1188.033       2809.420       3135.204
       1363.203      -1161.289      -2298.920      -1570.466       635.7041
       2376.724       1234.240      -902.9408      -502.7900       977.4420
       1102.007      -447.1455      -1605.314      -2236.629      -3027.011
      -1081.400       1690.961       821.6375      -476.7574      -513.4425
      -241.2979       1058.635       2025.094       667.9543      -931.7229
      -1305.845      -1057.631      -291.5023      -104.1577      -1183.322
      -1659.367      -927.0640       750.8945       2304.547       1612.562
      -1112.636      -2642.928      -2532.901      -2265.389      -1118.179
       1381.554       2668.017       1205.799      -853.0767      -1002.837
      -649.6795      -512.2783       791.9673       1793.260       692.2269
      -141.9724       197.7092       571.7256       873.8074       889.6627
       264.7126      -124.3602      -259.2075      -806.9458      -1480.028
      -1759.724      -2610.179      -2307.970      -171.4346       1091.450
       1437.435       534.7812      -1615.017      -1435.082       497.1934
       1631.000       2064.814       1677.550       582.6593       496.0183
       328.7129      -849.3701      -1724.236      -1476.460      -346.7605
       671.0762       1279.277       1210.778      -836.8730      -2421.482
      -2014.107      -899.4128       790.3916       1574.755       783.9060
       736.6693       608.9104       357.8521       1463.765       1430.658
      -488.7168      -526.7033       477.6304      -10.35645      -1461.440
      -2544.036      -1979.139      -744.6551      -517.2800       698.9004
       2080.238       1133.035       90.49121       883.5205       1038.136
      -155.9565      -201.9697       1447.483       2305.779       1305.117
      -516.4257      -769.2427       626.7188       2235.482       2395.090
      -3.000000      -2131.808      -1304.221      -193.1017      -427.9183
      -303.0658      -288.5011      -839.7041       962.6973       3161.605
       2039.760       468.3786       429.6735      -388.4801      -315.6835
       629.7701       333.4458       795.3975       2825.900       3665.539
       2248.919       138.3778      -186.3345       858.7227       596.3164
      -798.0793      -910.3938      -685.1521      -993.3862       299.1362
       2393.912       1595.702      -855.5286      -1630.396      -285.7563
       864.6675       1328.357       1826.826       1550.836       139.7754
      -1319.187      -1034.939       1136.547       1447.258      -88.85101
      -452.6409       536.9521       1595.991       1579.760       952.9152
       676.7278      -116.0137      -946.6592      -1498.355      -1191.608
       715.9209       2378.182       865.3335      -1494.275      -502.5898
       1130.821       501.4255       420.0879       790.9796       319.9789
       310.6801       528.4235       461.9224       958.3037       1309.819
       1112.268       141.9701      -573.5171       355.4346       1580.239
       1038.642      -69.50879      -536.1924      -952.1279      -1459.120
      -1648.959      -1581.029      -354.6475       1355.359       1830.179
       791.1562      -699.4426      -1289.889      -514.9382       1000.280
       1987.723       1384.156       262.3770      -1146.283      -2254.666
      -1078.806       1529.639       2588.860       2251.733       1039.251
      -674.7782      -884.5473       3.179688      -795.2480      -2041.140
      -2121.239      -1473.739      -515.1086      -331.0635      -1218.386
      -1809.902      -1541.670       226.5747       1837.904       1114.142
       148.1514       483.9561      -577.3525      -2259.121      -1589.555
       264.0238       744.0994      -585.0625      -2026.875      -989.3140
       996.8329       955.3900      -50.08667       231.8000       521.9312
      -541.6597      -1996.686      -1664.095       246.3828       2025.958
       2802.456       1837.412       148.1563       52.39624      -354.5273
      -2170.427      -2250.576      -104.9618       709.0405      -451.9800
      -1474.402      -1904.386      -1812.980      -166.4296       914.9149
       66.33618      -628.1812      -1120.522      -1603.106      -913.9454
      -417.0669      -177.0283       1.125977      -376.4816      -166.4788
       1169.326       1361.708       379.8342       229.8635       404.8545
      -244.0483      -1037.127      -1429.873      -1577.578      -1763.223
      -1068.057       101.2807       80.32678      -636.0146       22.21118
       1176.827       782.8408      -640.6077      -1325.989      -864.2859
       969.1445       1686.336      -316.8745      -2031.896      -2078.472
      -1723.406      -430.4075       1043.315       853.8589      -444.2822
      -1176.494      -1028.713      -218.5857       121.9597      -328.6786
      -102.6874       607.0851       272.5952       618.9709       1099.433
      -1244.825      -3800.269      -2522.267       355.5073       903.2423
      -441.9263      -731.9528      -96.21051       156.1880       176.3551
       406.9214       683.8606       266.5781      -1301.960      -1749.285
      -504.3917       164.8882       490.3857       1281.478       1308.949
       432.1724      -986.5986      -1321.161       339.0913       1468.507
      -13.65820      -2125.152      -2182.189      -509.0391       634.1523
       1166.227       971.2361      -309.2820      -897.9252       109.4429
       305.0298      -326.7405       417.4358       677.5901      -529.5095
      -209.1819       553.0724      -56.74597      -129.4150       1092.674
       1816.847       1616.990       914.4741      -591.3726      -2550.740
      -2570.660      -1085.190      -69.48926       670.6884       660.0015
      -694.9238      -1528.168      -119.5811       1608.625       1449.305
       1033.250       414.6342      -666.7358      -451.2300       681.5203
       734.8190       162.4398      -459.2498      -172.9551       1256.665
       1455.331       734.1392       929.1584       1040.547       813.5939
       458.7178      -110.7416      -391.0386      -193.4434       82.89551
       1293.948       2402.942       1375.027      -219.7012      -152.7574
       3.083191      -291.1280       85.48969       208.7647       67.49097
       667.2651       414.9702      -807.7661      -1058.290      -355.9897
       259.3501       1294.118       1996.795       1036.085      -940.6526
      -1543.065       224.6145       1397.076       63.89209      -347.4360
       1557.795       2553.523       893.6027      -54.88135       717.0583
      -254.8257      -1950.875      -1346.894       94.65381       1317.989
       2623.760       3532.605       3475.348       1647.600      -1131.553
      -2041.917      -680.7520       682.5532       115.8945      -1535.744
      -2504.894      -2187.220      -604.3716       1485.551       1675.948
       281.2997      -222.5242       419.1196       594.3557      -904.0493
      -2270.803      -1292.799       178.7092       651.8586       620.6421
       734.8601       533.6809      -173.9653       234.0259       1769.172
       1511.582      -337.7524      -1441.509      -1376.974      -269.3081
       1096.870       1577.070       1088.170       30.85925      -475.6267
      -480.8358      -505.9688      -612.3740      -387.7562       134.9448
      -404.9360      -1481.193      -985.9551       32.47339       52.91309
      -764.7461      -1487.685      -975.7629       485.7979       999.7559
       1474.882       2825.160       2923.042       2036.566       1622.097
       895.2196       281.5186      -380.3020      -1307.886      -1278.117
      -654.0760       8.609863       981.0093       1474.222       1188.947
       846.2529       375.7493      -1000.679      -1606.606      -1089.749
      -966.2119      -1349.076      -1617.611      -1197.285      -605.0240
      -138.9204       656.1711       665.6467      -501.3510      -335.3364
       1450.973       1624.658       680.9597      -394.5640      -1332.605
      -322.8811       968.5662       666.6853       456.9637       98.91736
      -673.6609      -169.6366       642.5092       122.7966      -800.1060
      -1373.458      -1167.941      -342.2315       184.6042      -85.65649
      -361.3005      -340.2540      -437.2512       68.84296       361.0574
      -687.2537      -1107.979      -399.9025       82.47021      -1014.694
      -2698.951      -1944.779       170.2098       120.0251      -1089.196
      -674.5938       477.0996       667.3374       925.3564       672.7238
      -392.1636      -278.0498      -472.7822      -1914.724      -2276.098
      -1222.844      -164.8113      -566.4595      -723.5269       715.8730
       1869.899       1600.041      -41.61841      -1373.140      -481.3225
       667.4464       588.4517       554.2433      -23.99463      -732.0398
       337.6821       1676.791       2213.176       2800.509       1942.516
      -552.0649      -1051.533      -277.9392      -905.1360      -1140.479
      -369.7661      -141.1228       199.6579       143.3801      -787.3685
      -421.9653       1026.921       907.7140       142.1951       262.0751
      -198.9521      -661.2427       69.54199       953.8833       987.1821
       748.8418       1654.575       2147.418       1157.553       113.4880
      -838.7212      -1803.795      -1989.108      -1157.140      -19.76831
       532.2642       811.6045       1125.566       1304.015       1226.839
       785.1863       138.9964      -191.6633      -22.57227       1013.267
       2252.958       656.6958      -2508.513      -2183.031       641.7993
       2496.914       2182.117       267.4482      -1125.609      -1039.595
      -660.1168      -683.5745       113.5085       835.6852       124.0488
      -318.0674       130.7161       260.2391       156.2534       611.7437
       800.1218       575.0074       375.2318      -75.73303      -279.0049
      -355.3384      -1081.303      -1225.198       435.0796       1392.214
      -310.9858      -1402.468       59.63672       1567.854       2327.497
       2215.813       196.5010      -1834.437      -1902.411      -1051.549
      -218.9739       273.9272       892.0576       2626.357       2359.333
      -500.6880      -1705.469      -1250.081      -693.0591       248.2341
       558.9131      -235.1499      -831.1924      -1263.440      -1011.238
       339.9731       329.3784      -837.3281      -419.3486       1696.227
       3008.921       1516.670      -791.5408      -975.1436      -134.2036
      -138.4956      -574.6182      -421.2276      -60.24878      -619.5850
      -1461.657      -1252.648      -264.3441       566.1890       512.9758
       386.1851       1083.966       1131.620       523.4243       786.8409
       892.9294      -57.41699      -1523.768      -2918.074      -2135.260
       458.4263       1142.834       494.6346       322.5496      -334.7390
      -308.0544       925.1216       1304.678       573.2847       530.5293
       1094.774       1074.459       831.1175       417.5222      -330.3928
      -1138.341      -1463.545      -1480.249      -1941.474      -1324.848
       147.5944       68.31836      -1426.209      -3249.587      -3979.676
      -2481.029      -471.1184       830.7290       1853.926       1769.868
       841.0320       549.8623       624.8904       7.633789      -1934.594
      -3591.631      -3382.210      -2828.274      -2987.342      -3191.722
      -3966.500      -5435.133      -7214.746      -8929.258      -9009.021
      -7720.256      -7769.883      -8832.979      -8073.638      -5148.958
      -1254.547       2574.875       5420.426       5971.581       2746.457
      -1717.741      -2316.890       1796.131       6767.559       8836.394
       6381.103       573.2266      -5599.973      -8379.730      -6609.406
      -3763.595      -1693.179      -145.3008       34.39624       534.2500
       2579.989       3490.745       1842.265       231.4266       139.3477
       1162.283       4444.242       11555.76       21160.26       25812.76
       18642.13       5068.283      -4971.648      -8927.062      -10116.46
      -9250.557      -5071.764      -1.175781       3990.994       7149.912
       7961.146       5162.856      -452.9297      -7947.387      -15811.88
      -20645.62      -20102.48      -14535.41      -5158.615       5117.074
       11666.55       14828.28       17197.88       17863.90       16329.96
       14395.20       12660.66       10413.23       7865.754       5205.219
       4098.055       10380.55       19964.17       19440.06       9295.296
      -149.1855      -4919.426      -4626.701      -4689.133      -12562.68
      -24249.78      -28993.45      -23565.12      -15197.18      -12514.75
      -15164.66      -16955.89      -13629.21      -5379.668       2479.857
       2433.809      -5732.543      -11448.64      -5338.234       9334.328
       21282.03       21739.05       13881.61       7885.861       4037.016
      -5067.695      -15535.23      -15330.17      -3917.648       6667.691
       8378.334       3166.241      -2409.941      -5858.098      -9444.816
      -10665.52      -5988.571       699.1523       5916.918       9201.510
       7506.057       3584.277       6440.131       9627.383       2914.055
      -3489.827      -1794.006       54.13477       1084.779       4732.848
       6610.594       4376.319       2022.142       1479.406       630.3428
      -1340.485      -2369.753      -1101.829       519.7266       560.5762
       2911.527       8858.182       11726.00       8740.020       5089.198
       1966.963      -4331.730      -12317.86      -14554.03      -6694.302
       3430.725       4630.080      -2075.307      -7668.977      -8665.344
      -9013.369      -8005.797      -3327.549       1265.156       5154.711
       10127.96       13586.08       11899.62       3956.230      -4644.150
      -8146.277      -7750.281      -6946.428      -5756.642      -1836.963
       1579.169      -968.4453      -8416.121      -12925.39      -7480.787
       2051.809       5210.808       2964.318       2156.480       4576.139
       8032.969       10267.21       12939.64       15155.98       10342.56
       728.1426      -3445.372      -161.5828       1915.447      -3151.361
      -8046.648      -6219.788      -2456.918       517.6777       3556.958
       2012.493      -2729.309      -1864.371       4369.578       9889.109
       10396.31       5142.999       683.1358       194.7286      -156.0352
      -1577.275      -1098.320       3121.150       4785.659       224.3906
      -2206.551      -381.4199      -919.9600      -3925.964      -2769.925
       2760.514       5027.058       2781.685       1162.941       2033.285
       3463.822       3584.724       3337.220       1254.887      -4984.047
      -11274.11      -9723.200      -1006.325       5624.739       5157.054
      -280.9082      -5513.836      -6476.195      -2640.031       3371.574
       6592.841       5725.066       3815.939       2445.027       362.8281
      -3921.652      -8208.693      -7831.176      -4436.070      -3964.084
      -6046.735      -5073.553      -3089.234      -4277.010      -4762.685
      -4123.081      -3339.781       1923.740       7757.604       6706.250
       1604.456      -1291.024      -1630.583      -2071.904      -2973.756
      -1823.492       2257.561       6062.874       5785.580       2604.279
      -586.0317      -2454.791      -2218.250      -1313.458      -700.1963
       598.7910       1026.792       1121.610       2609.073       3050.359
       756.3359      -3287.203      -6218.260      -4582.202      -611.3232
       1356.596       1800.108       3281.992       5121.070       5775.205
       5768.287       4712.976       794.7930      -3526.656      -3188.799
       2033.727       5848.595       4578.784       1918.407      -518.8350
      -3606.498      -4889.396      -3706.810      -1032.384       1204.085
       7.451172      -3530.098      -5638.996      -6739.893      -6994.795
      -3938.215      -34.88770       1411.723       1140.395      -1059.373
      -3677.824      -5694.684      -8764.771      -9748.712      -5297.690
       937.8789       4134.944       3364.833       1315.039       75.48535
       63.33398       1983.834       4908.092       6149.041       5182.770
       4396.121       5586.082       5394.577       1008.313      -3537.033
      -4404.704      -3870.931      -3583.572      -3156.450      -2454.827
      -268.8047       2798.785       2972.728      -620.9238      -3785.055
      -3715.758      -2862.787      -3247.512      -3505.862      -2746.030
      -2315.964      -1633.168       694.1567       2139.862      -8.060547
      -3412.854      -4806.572      -3208.335      -1246.226      -1604.368
      -1768.770       976.9209       4315.933       3927.864      -477.8179
      -2795.465      -1845.661      -1609.997      -1288.938       299.4707
       2575.383       6315.566       9090.312       6366.348      -1386.568
      -8097.240      -9419.902      -7010.607      -3688.326      -17.57422
       3512.509       5210.759       3578.606       2016.063       1864.369
      -444.2715      -2601.043      -1310.054       445.4932       1758.420
       3469.156       3070.302       798.2081      -460.4287      -99.56836
       2055.848       4938.437       6136.076       3111.684      -1646.002
      -2386.088       390.0879       1259.502      -187.0574      -399.7427
       178.4728       252.4741       1349.372       2879.922       2686.761
       271.3364      -2492.710      -3477.738      -2519.180      -959.0629
      -242.9158      -464.5137      -2187.801      -5706.803      -7489.128
      -5969.253      -3660.412      -2159.031      -796.4639       1120.098
       4125.998       6569.662       6169.318       5158.160       6309.699
       7607.789       6366.748       3505.622       1102.999      -644.4709
      -236.7188       2951.957       5727.566       5352.565       2246.501
      -242.3641      -209.0505       7.795410      -1011.735      -1620.762
      -896.0354       314.3633       1511.770       1927.228       1238.430
      -840.4551      -3453.497      -4896.923      -4042.160      -862.8809
