     0.02500000      -26747.73       20328.46      -12345.00      -12345.00
      -29.98998       245.7600      -44.54000      -12345.00      -12345.00
       0.000000       33.94000      -12345.00      -12345.00      -12345.00
      -12345.00      -12345.00      -12345.00      -12345.00      -12345.00
      -12345.00      -12345.00      -12345.00      -12345.00      -12345.00
      -12345.00      -12345.00      -12345.00      -12345.00      -12345.00
      -12345.00      -30.83090      -68.94810       1673.000       0.000000
      -31.23600      -65.83800       0.000000       167100.0       0.000000
      -12345.00      -12345.00      -12345.00      -12345.00      -12345.00
      -12345.00      -12345.00      -12345.00      -12345.00      -12345.00
       300.2919       277.8015       99.39724       2.699950      -12345.00
      -12345.00     -0.1522400       0.000000       0.000000      -12345.00
      -12345.00      -12345.00      -12345.00      -12345.00      -12345.00
      -12345.00      -12345.00      -12345.00      -12345.00      -12345.00
      2008       318        11        13        14
       940         6    -12345    -12345     11031
    -12345    -12345    -12345    -12345    -12345
         1         7        13    -12345    -12345
    -12345    -12345    -12345    -12345    -12345
    -12345    -12345    -12345    -12345    -12345
    -12345    -12345    -12345    -12345    -12345
         1         1         1         1         1
GUAL    -12345          
        -12345  -12345  
-12345  -12345  -12345  
-12345  -12345  -12345  
-12345  -12345  -12345  
-12345  -12345  -12345  
-12345  -12345  BHZ     
ZL      -12345  -12345  
[...]
      -763.5327      -773.9287      -781.4158      -797.6968      -802.1882
      -809.5408      -812.4717      -823.5127      -825.6121      -833.4177
      -829.4819      -836.0044      -832.7524      -838.0662      -835.7041
      -836.7944      -825.9312      -828.8274      -822.1025      -819.8765
      -811.6719      -810.9624      -800.0559      -797.9194      -786.6846
      -783.4941      -767.8982      -762.6653      -749.4373      -743.4768
      -732.2566      -722.5618      -703.7139      -699.2673      -684.0117
      -673.4749      -657.9377      -657.4338      -635.3175      -616.5547
      -606.4038      -601.1973      -572.5753      -560.6328      -550.8816
      -542.9510      -513.7133      -505.9536      -496.9395      -485.5157
      -459.7812      -454.1104      -437.7791      -426.3916      -408.4480
      -402.4148      -381.8320      -372.3459      -356.2134      -347.2238
      -330.4641      -323.2042      -308.9722      -297.5591      -281.4397
      -278.4542      -264.5073      -258.0579      -246.9073      -245.5944
      -234.6752      -231.6337      -221.9663      -221.8806      -213.5818
      -211.9904      -212.3042      -215.7006      -209.2570      -211.1683
      -201.2075      -210.2973      -207.0406      -204.4354      -204.4105
      -211.1788      -202.9481      -203.1727      -208.3174      -211.4290
      -197.8746      -201.0643      -200.0071      -196.0931      -194.1371
      -202.1682      -191.3313      -185.5979      -178.4816      -177.7452
      -178.2241      -165.9450      -152.0343      -165.2343      -151.5797
      -135.9164      -131.1038      -133.9178      -113.4888      -99.62866
      -93.71280      -89.57086      -66.89598      -55.81325      -43.99345
      -39.78649      -16.91047      -3.960915       8.517365       13.16090
       47.17947       63.66869       66.65002       77.15912       118.1213
       120.5559       130.0403       155.4803       182.0009       184.5259
       209.8563       223.6354       246.2743       252.4965       273.0454
       291.0873       307.1942       312.8923       339.5688       356.5427
       369.8854       369.8938       397.4070       412.1432       414.8879
       419.8134       450.2538       455.0968       464.1238       473.6987
       496.8433       504.2279       510.1965       514.0006       535.3131
       535.8850       544.7490       553.5824       568.6091       569.0092
       579.7656       595.6681       611.0999       600.2104       610.7361
       633.2559       632.2218       624.7102       659.7417       667.5685
       657.4392       669.2549       698.4517       690.3369       687.0259
       710.1169       724.7163       708.2827       724.8613       746.3027
       741.0776       732.2471       757.9124       767.9585       755.6562
       756.8240       784.1318       778.1477       771.3616       785.7576
       799.2783       783.8293       790.0229       806.7195       809.9656
       796.0916       801.2566       817.5288       814.7642       787.4336
       810.0234       828.7852       798.8701       791.8442       821.6758
       804.8047       787.4033       799.0879       806.4094       782.4907
       778.5410       786.7310       780.3782       760.4722       752.8147
       748.2112       746.9609       727.9595       711.4219       703.8662
       707.8369       690.1379       666.7900       659.2631       645.5723
       622.1115       628.7688       600.9786       570.5885       583.5771
       567.5359       527.1655       523.6992       512.2048       482.9442
       459.5688       450.7290       430.4653       402.9753       388.6799
       369.6406       349.2089       317.2723       300.8353       295.4655
       254.0927       239.8829       222.5603       182.5225       188.3998
       165.5243       100.2205       97.92944       125.0906       64.25873
       14.55803       50.64232       22.07130      -24.65171      -21.99687
      -45.73839      -50.16376      -62.69879      -106.0450      -105.3083
      -104.0939      -130.2379      -140.1517      -146.9551      -163.4160
      -165.0480      -175.5066      -186.2375      -182.7991      -194.3043
      -199.7738      -205.4087      -217.0241      -210.1801      -215.4356
      -219.2715      -220.5543      -232.6838      -229.0533      -219.3415
      -236.3465      -247.0466      -237.0967      -240.8840      -248.8989
      -240.3694      -246.4768      -255.6483      -247.1217      -249.3523
      -262.5444      -266.1893      -259.3779      -258.5133      -275.2719
      -265.1309      -265.7125      -277.0725      -267.8865      -265.2471
      -283.7971      -274.3120      -280.7937      -301.0021      -287.7762
      -286.3522      -302.4844      -314.8594      -306.4535      -322.1615
      -345.7183      -330.3384      -344.2952      -366.2249      -367.8677
      -385.9048      -410.7064      -415.1078      -415.4703      -449.2710
      -464.4609      -463.9518      -483.1508      -519.5208      -517.0630
      -526.6407      -560.1931      -583.5349      -585.4661      -599.2528
      -614.3044      -646.3870      -644.5039      -660.7898      -684.4141
      -701.6191      -705.3877      -707.4927      -731.5508      -752.3032
      -743.3538      -761.7268      -769.5842      -775.7891      -785.9189
      -800.9561      -796.5527      -805.6865      -816.6003      -818.0632
      -809.0525      -825.6643      -830.2996      -822.6096      -821.3594
      -837.5195      -829.8083      -823.3899      -829.8455      -825.3870
      -813.6460      -818.6509      -813.8271      -808.5662      -801.7676
      -796.7419      -794.2319      -782.6921      -774.6194      -769.3245
      -751.6372      -740.8315      -733.8345      -718.8320      -705.8975
      -694.5269      -678.6433      -659.1509      -644.8667      -629.3137
      -606.0679      -585.7441      -568.7518      -552.8358      -530.2008
      -503.9561      -484.7104      -466.6821      -434.5421      -413.7869
      -397.4117      -367.3999      -335.1652      -321.2939      -300.5732
      -277.0075      -253.3125      -232.0207      -200.2117      -181.9411
      -162.8118      -139.6521      -112.9798      -99.90396      -71.28284
      -53.18027      -31.18718      -14.85622       2.970604       20.84732
       46.16180       61.85706       86.13123       89.56955       114.0309
       131.5338       142.7123       158.0033       178.1462       191.7257
       205.0409       212.6926       241.8134       244.5085       253.8958
       269.2596       283.7703       290.5759       310.0340       313.4293
       331.6143       338.5625       350.5359       353.6650       370.0839
       372.2295       384.1539       385.1853       404.6755       404.6538
       414.4932       413.4006       426.5862       424.3510       434.4203
       429.4575       441.8430       436.1675       445.3502       439.5099
       448.9009       443.7177       448.6219       442.1208       451.9902
       438.6487       440.8285       434.4193       438.7902       427.7078
       429.4825       417.3859       418.2837       403.2704       407.4733
       392.9004       390.9045       375.8396       372.3392       359.8860
       360.2735       339.7076       337.7087       325.2246       320.7853
       304.8821       302.7885       285.9039       284.6614       269.9554
       267.1842       253.8027       251.0088       236.4435       230.3893
       220.5070       222.2524       207.0287       207.9911       192.4949
       189.8874       185.8459       187.9243       168.4462       164.3710
       152.3826       152.9170       147.2788       148.9467       132.9077
       137.2188       127.4323       130.7698       121.6071       123.9052
       111.3937       113.9318       109.8445       112.3108       98.51471
       109.5765       101.3652       115.0857       107.4009       102.5625
       101.9684       122.2278       102.5949       109.7252       116.4045
       120.1301       116.4260       123.7453       122.5575       131.5825
       120.4922       132.6923       128.8671       137.6535       133.3528
       137.9473       136.6538       144.4032       135.4381       147.9716
       142.3029       143.9042       141.8588       150.7401       141.9386
       146.8759       140.3305       151.0942       141.8535       141.6855
       132.3376       136.9705       129.4092       131.7115       127.3752
       134.5513       120.3197       122.8492       113.8771       124.3832
       113.9425       114.4266       119.0045       124.0727       105.0024
       124.9724       122.8151       111.9496       118.4228       129.4576
       121.8295       142.5742       126.2830       139.6396       144.5391
       151.2422       145.2246       162.2988       162.0714       168.2289
       167.0610       183.8274       184.2242       188.4070       187.0161
       207.0873       207.1735       215.8322       216.9265       237.7657
       237.9318       245.0560       247.8510       273.1803       266.7228
       272.4117       293.1148       305.9412       293.7238       314.3546
       323.8684       337.7858       332.9108       341.9664       353.5830
       365.3777       363.1038       373.3390       374.3037       384.6798
       383.9126       383.5579       391.3158       400.7180       378.5269
       398.8629       399.4034       385.2731       383.6174       396.9620
       389.4141       377.6995       369.8386       382.7505       360.9454
       359.2278       351.8088       350.5110       339.9521       329.8978
       324.5715       317.4102       297.2613       298.9598       285.7446
       272.6580       261.8915       257.4553       245.9894       235.0934
       217.3190       230.4612       206.3491       189.7623       188.0144
       185.9728       167.4004       161.6922       147.2319       151.0956
       131.3214       123.9665       109.8022       101.5771       96.95126
       87.60229       72.39787       73.52499       54.91672       54.09825
       28.43076       33.40309       30.70673       16.73114       1.019176
      -2.116425      -14.36143      -9.338814      -27.32503      -34.93381
      -43.24493      -46.99026      -59.80289      -65.04716      -75.31830
      -76.83939      -94.87573      -88.26825      -94.62579      -106.1873
      -121.7345      -123.7781      -135.3277      -131.8880      -150.2963
      -158.1401      -173.8312      -190.2216      -190.9869      -201.6381
      -224.0178      -220.2001      -241.5261      -260.0573      -272.2463
      -269.6383      -304.6732      -318.1882      -320.2700      -338.9485
      -359.8628      -382.6975      -395.2358      -389.6414      -436.4702
      -448.4094      -453.3408      -473.6785      -484.2317      -504.4041
      -522.2295      -528.2527      -557.7692      -573.5905      -585.8899
      -587.0283      -622.5779      -630.7327      -647.3730      -666.3885
      -675.8152      -683.1631      -699.5098      -707.3040      -729.6714
      -725.8474      -759.0208      -777.1760      -764.8213      -774.2832
      -800.7717      -809.5657      -824.2075      -805.7451      -829.7124
      -851.4763      -834.7502      -847.7888      -858.2444      -846.3250
      -875.9836      -854.8052      -847.5386      -855.0264      -864.9683
      -865.4727      -862.9373      -848.8284      -845.4292      -850.6777
      -848.8398      -830.5425      -841.4575      -832.1111      -816.8999
      -818.9507      -816.3596      -802.4333      -795.7666      -788.2859
      -791.7344      -774.0308      -767.1489      -762.5239      -754.9407
      -740.8296      -732.4331      -722.7847      -731.0562      -705.7490
      -696.6050      -697.0620      -674.8420      -665.9849      -662.5752
      -627.4878      -639.5914      -624.8977      -603.1147      -593.8743
      -588.7292      -567.7466      -557.1874      -531.2217      -521.9069
      -510.1912      -491.6074      -472.0049      -465.0134      -443.7200
      -433.4883      -400.7847      -390.2043      -374.5159      -345.8759
      -325.3816      -329.1570      -295.6785      -269.5389      -253.3221
      -238.7826      -218.4147      -197.0299      -159.8806      -154.1742
      -139.3487      -115.7744      -87.66101      -72.42233      -49.91936
      -40.03883      -10.32089       7.194969       27.12418       43.46443
       67.12692       76.58115       104.5405       135.0010       189.2961
       263.1482       386.8230       594.0493       901.9307       1285.548
       1810.872       2479.082       3345.396       4441.447       5502.938
       5935.825       5418.592       4224.812       2693.355       465.4492
      -2354.125      -3002.274       726.8438       7615.457       15613.45
       20328.46       15936.91       1547.480      -16922.05      -26747.73
      -19307.46      -7068.166      -6834.863      -11687.19      -5908.461
       6651.043       11562.55       7558.783       3210.855       349.6738
      -6556.617      -16800.63      -20026.54      -11537.82       4058.270
       14697.94       11086.72       4206.588       4563.739       5184.557
       1348.843      -3453.789      -2869.078      -43.46826      -2250.211
      -2725.758       2802.219       5900.398       4142.857       2250.617
       2181.003       4426.677       2475.978      -3386.202      -497.5283
       6773.792       3107.505      -5619.085      -4127.491       2516.601
       3111.555      -127.9590       822.3604       4711.207       2355.509
      -637.3457       4002.984       6455.396       4067.970       651.3569
      -1893.724      -796.3710      -214.3555      -1257.208      -1362.318
      -789.2207       1285.173       2112.917       470.4951       716.9297
       1517.002       61.38293      -723.6926       231.7056       96.92773
      -2729.467      -4413.538      -859.1196       1629.663      -1191.390
      -2047.182       1810.914       6175.349       5465.436       1646.061
       2772.122       4879.791       1116.717      -3043.920      -2289.491
      -195.1934      -1285.848      -2242.601       2141.195       7152.656
       7871.671       6373.816       3001.135      -273.9639      -217.1072
       271.0293      -2558.643      -4712.243      -3812.689      -974.2129
       2632.434       3569.653       1740.666       351.6450       850.2231
       2243.987       2054.970      -1411.761      -5220.562      -3930.960
       140.0103       1822.964       811.3404      -580.3174       710.0439
       907.9277      -2682.085      -3079.083       104.7109       1753.492
       794.3569       262.8677       1713.331       1977.570       1578.206
       2687.900       2585.069      -214.4912      -2385.379      -1520.951
       227.9133       799.0620       796.6279       1065.612      -47.79004
      -2782.985      -3660.474      -2109.336      -989.3081      -1742.851
      -3113.702      -1697.281       1873.497       4308.810       4276.876
       844.2490      -1564.624      -1194.320      -3266.650      -4147.020
      -804.9561       3262.462       4303.908       1245.341      -373.7952
       345.1580      -683.2026      -1608.575      -1020.457       674.5304
       898.3306      -1233.332      -2310.423      -1935.930      -1721.928
      -2815.807      -4040.178      -2888.825       157.8369       2542.077
       2472.661       1096.693      -63.18555      -2050.510      -4005.506
      -2815.747      -435.2905       770.8423       1327.779       1312.284
       1516.776       1737.701      -2.861206      -492.1282       596.4695
       786.9301       599.4438      -276.3174      -1244.866      -1614.747
      -679.4946      -39.49341      -459.2021      -1053.612      -1958.132
      -1770.704      -2225.577      -2962.577      -1371.510       518.2095
      -805.5801      -4674.980      -7498.158      -5062.347       797.6470
       2254.514      -107.4629      -1941.892      -2446.110      -849.5927
      -136.8857      -1647.818      -2225.361      -668.0481       1221.763
       1123.940       108.3606       323.5203       229.6244      -500.3735
      -348.7867       561.8624       142.4324      -1107.245      -569.1675
       1933.991       3155.237       1463.744       420.4795       1234.102
       496.5608      -1120.664      -1315.164      -933.5647      -880.8523
      -1146.314      -1722.781      -1520.030      -543.6328      -799.7607
      -2355.446      -3351.888      -2962.693      -3610.363      -5412.346
      -4615.997      -2891.364      -1961.713      -1015.687       23.85034
       823.5513       1368.111       1526.250       727.9404      -830.9980
      -2898.371      -4220.161      -1607.260       2306.782       2470.028
       1458.881       2595.259       3774.403       2243.814      -2085.020
      -5813.074      -7080.609      -7451.737      -5383.292      -457.9326
       2755.611       1753.158      -908.4053       226.3611       1896.625
       2.279297      -730.3091       76.50488      -1053.493      -2793.647
      -2461.214       494.2910       2936.677       1639.200      -1701.794
      -4743.568      -3679.906       882.7969       3250.198       2281.807
      -862.4668      -1970.068      -1285.641      -1011.428       1684.271
       5734.271       5029.269       961.6055      -1511.759      -1267.466
       616.9272      -465.5109      -1231.473       1198.538       992.0371
      -1951.194      -2721.391      -346.7119       2217.971       3603.514
       3442.743       2091.828      -1442.842      -6569.085      -6771.517
      -607.9238       5555.066       8520.258       6364.062       2588.130
       908.7382      -194.4563      -34.23096       690.4683       1455.366
       3009.993       3927.721       3215.901       3051.679       3762.543
       4742.900       4991.453       2978.568       114.0498      -3136.980
      -4938.141      -4789.748      -4714.935      -2332.469       2413.621
       4618.216       3658.008       2196.063       1999.887       2438.050
       712.9717      -2084.262      -298.3057       2223.530       1220.460
       426.1804       564.4514       553.8767      -812.2178      -2368.623
      -1604.822      -705.4805       862.1104       4091.146       4459.966
       3177.909       3546.870       3670.328       2900.631       1948.182
