     0.02500000      -34709.98       47166.85      -12345.00      -12345.00
      -29.98998       245.7600      -44.54000      -12345.00      -12345.00
       0.000000       33.94000      -12345.00      -12345.00      -12345.00
      -12345.00      -12345.00      -12345.00      -12345.00      -12345.00
      -12345.00      -12345.00      -12345.00      -12345.00      -12345.00
      -12345.00      -12345.00      -12345.00      -12345.00      -12345.00
      -12345.00      -30.83090      -68.94810       1673.000       0.000000
      -31.23600      -65.83800       0.000000       167100.0       0.000000
      -12345.00      -12345.00      -12345.00      -12345.00      -12345.00
      -12345.00      -12345.00      -12345.00      -12345.00      -12345.00
       300.2919       277.8015       99.39724       2.699950      -12345.00
      -12345.00     -0.4497970       90.00000       90.00000      -12345.00
      -12345.00      -12345.00      -12345.00      -12345.00      -12345.00
      -12345.00      -12345.00      -12345.00      -12345.00      -12345.00
      2008       318        11        13        14
       940         6    -12345    -12345     11031
    -12345    -12345    -12345    -12345    -12345
         1         7        13    -12345    -12345
    -12345    -12345    -12345    -12345    -12345
    -12345    -12345    -12345    -12345    -12345
    -12345    -12345    -12345    -12345    -12345
         1         1         1         1         1
GUAL    -12345          
        -12345  -12345  
-12345  -12345  -12345  
-12345  -12345  -12345  
-12345  -12345  -12345  
-12345  -12345  -12345  
-12345  -12345  BHE     
ZL      -12345  -12345  
[...]
       26.17480      -1907.153       1399.747       3170.744       492.2864
       227.7319       1542.768       1398.874      -232.6254      -1035.467
       1214.141       1830.907      -55.73047       724.2212       1777.730
       764.2036       895.6711       936.9978       564.6108       1146.828
       338.9834      -1724.041      -2513.338      -1314.211       660.6953
      -761.4343      -1803.782       1275.147       2297.189       2234.187
       3106.351       2711.996       1556.486       489.6018       1099.336
      -1110.531      -4909.036      -2817.220       844.3271       1768.583
       2114.285       3023.554       2947.388       244.9569      -823.1959
       477.0212       471.7319       818.2644       1671.884       26.98145
      -1707.770      -999.5576       806.2881       3401.030       3399.700
      -287.6855      -3017.661      -3620.089      -2650.864      -319.3389
       3367.340       6559.810       5277.652       1263.067      -1077.389
      -2433.820      -1999.310       181.2764       1599.479       1936.326
       1435.022       63.16479      -909.1289       1043.946       4669.413
       4026.437       290.8206      -295.7241       1217.897       1359.174
       612.5496       227.4121      -536.3857      -2222.739      -2539.473
      -263.1060       1478.746       989.6882       1224.578       664.4736
      -1248.188      -2123.771      -2592.661      -1390.212       350.8320
       853.4414       2399.354       1337.701      -3045.076      -4353.121
      -3079.548      -1863.049      -187.6392       883.2607       1054.170
       467.5400      -348.5546      -508.2487      -85.63721       1916.381
       4182.966       1949.971      -1516.443      -2177.614      -3198.155
      -1887.446       3403.979       4718.367       1843.209       936.2855
       290.5586      -1374.763      -1364.616      -105.6684       427.6392
      -492.1553      -1759.836      -2052.043      -1006.653      -686.1562
      -947.8159       520.3340       1608.408       248.2601      -410.2505
       247.8159      -510.6072      -1070.820      -259.5394       157.0078
       730.1086       1119.960      -802.6875      -4279.632      -3078.364
       2426.607       3072.383       11.58740      -818.2019      -491.3418
      -541.2036      -1676.337      -1287.074       1196.242       3306.172
       4546.029       3496.945       659.6689      -1315.847      -1382.349
       1584.537       3614.612       95.30469      -3366.329      -2798.845
      -2972.941      -3467.405      -61.30566       3146.903       1802.907
      -1001.164      -897.9409       2385.871       3290.267      -258.3369
      -3245.345      -3844.945      -3462.316      -875.2520       2473.976
       3078.836       1699.209      -135.8018      -2504.564      -2335.245
      -60.66309       880.7461       725.8739       2.325195       320.9595
       1201.618      -975.6318      -3062.955      -2073.895      -82.98730
       1815.721       1577.399       32.05188      -602.2799      -692.5858
      -158.0015      -748.4172      -1154.663       170.8179      -326.5620
      -1852.601      -1260.074      -1191.554      -2146.392      -1968.371
      -1045.358      -412.6802      -1596.006      -2563.384      -355.5200
       1573.358       488.8860      -724.8671      -140.8049      -178.5398
      -259.1206       1780.739       2856.593       454.9870      -707.8854
       4.307251      -642.7039      -474.9570       189.1885      -1402.921
      -2967.805      -1779.140      -171.1318      -689.0161      -1195.195
      -1161.232      -3092.668      -4712.999      -1038.289       3876.837
       3654.714       533.6924      -2068.214      -2964.301      -1151.796
       803.5015       1251.334       373.1592      -1576.993      -2677.130
      -3447.361      -2483.225       1362.883       2604.694       705.5979
      -388.9666      -452.2991      -1010.272      -1720.482      -1409.600
       178.1846       1130.414       266.1934      -897.6262       453.3906
       2049.451       2125.719       1783.700      -1521.362      -3595.859
      -2196.988      -2649.550      -2020.995       1180.553       1762.870
      -235.6375      -1054.017      -362.8745       268.3389       997.2714
       545.3335      -1948.033      -2193.320      -675.9166      -406.7557
       110.8704       504.2823       409.0527      -1081.797      -2716.597
      -18.94238       2215.370      -28.69775      -1517.048      -478.6573
      -96.10107       194.2139       2306.107       3227.418       913.2751
      -821.7871       328.8413       2475.983       2536.058       775.7537
      -530.3213      -1534.036      -2187.097      -1218.398      -585.7795
      -737.3276       806.7043       858.2029      -917.9412      -208.0271
       362.6226       373.4668       1202.657       2002.064       3144.434
       2507.802       18.42090      -1559.450      -1342.446      -190.4075
       347.0469       1198.649       2116.561       1764.543       891.9024
       348.2869      -391.6008      -822.6362       865.8911       2490.516
       1789.143      -613.4707      -2824.028      -1413.744       1213.187
       1835.978       1728.389       1194.288       1160.495       665.4365
      -1063.973      -31.02075       1040.120      -368.0500       229.7856
       1875.925       1023.289      -272.5680       201.1004       577.3384
      -533.0508      -1587.025      -1767.869      -1132.081       159.8584
       882.4316       1478.787       2959.917       2605.734       302.4611
      -241.9927      -152.0479      -438.5286       939.0583       1156.138
       494.2432       1526.950       1956.901       1274.178       980.8843
       1465.623       2092.694       1370.554       80.15112      -721.5002
      -1012.539      -632.7021       720.7749       2469.128       1956.869
       1901.429       3348.517       1318.358       169.7266       1769.825
       1007.998       931.3687       2298.600       610.3394      -2367.776
      -3280.261      -1445.854       1469.711       2750.889       2002.236
       670.7915      -793.8071      -2104.716      -2514.994      -42.82422
       4164.046       5024.507       2475.789      -16.81299      -1304.837
      -1615.601      -691.2056       1383.798       1953.663       911.9317
       98.58032       228.7354       1779.590       976.7490      -1848.996
      -1703.544      -1591.848      -1475.390       1675.274       2373.559
      -319.5044      -1887.337      -1561.445      -42.89404       1546.333
       2053.595       1085.286       514.6323       1051.489       1270.292
      -220.7559      -2647.030      -2040.024       1536.164       2526.434
       1144.851       804.2488      -352.9609      -2857.796      -2799.950
      -298.4767       222.9927       233.1301       621.2666      -623.7197
      -1072.984      -822.8363      -456.9094       1044.102       958.4805
      -312.3560      -514.4545      -748.7604      -108.7185       1119.121
       982.5142       1078.278       643.2850      -246.5835       695.0090
       933.6697       15.70203       130.7100       1281.526       1601.205
      -200.5996      -1096.139      -856.0791      -2137.881      -2890.146
      -1948.975      -52.42322       53.15967      -2045.772      -1867.461
      -794.7012      -2004.724      -1862.418       253.6672      -261.0151
      -734.1465      -611.3779      -4381.494      -5800.979      -3553.909
      -1667.605       1831.003       3044.224      -52.49902      -2966.633
      -3332.987      -1389.334      -708.2900      -2060.043      -2317.081
      -1898.616      -874.6553       2248.802       4130.308       2122.736
      -2087.772      -4845.501      -2851.035       229.3823      -485.9180
      -1992.823      -758.2344      -751.0786      -2421.474      -313.4551
       3244.181       3058.745      -164.3955      -2419.824      -2511.630
      -2519.581      -2560.372      -1162.834       1547.621       2522.272
       87.53369      -2200.326      -2755.239      -2635.556      -829.9048
       1283.636       1411.066       1176.119      -301.9404      -4824.885
      -6100.138      -3003.341      -2026.423      -2019.934       605.3345
       2914.129       582.8135      -2881.745      -3582.132      -2717.223
      -349.6133       2917.021       4184.782       1788.712      -1359.191
      -2186.882      -1694.219       218.5234       2779.454       2412.371
       567.4302       141.9902      -1561.344      -2797.626      -87.38965
       3260.271       3971.202       1887.963       600.9141       971.1255
      -33.95068      -2296.007      -2532.627      -1060.149      -1541.915
      -3554.019      -3872.100      -191.1680       4011.396       4154.462
       1968.856       464.3584       752.2900       2501.700       3434.131
       2814.350       2882.373       3013.965       717.0767      -2217.746
      -2153.989       186.5135       733.2139      -396.5654      -639.1323
      -1220.745      -1949.678       115.8516       2052.556       1381.228
       834.9385       1844.479       3303.637       1887.590      -870.0107
      -1355.546      -1362.168      -942.4922       1269.553       3492.255
       2336.058      -1262.349      -2700.105      -1649.138       215.2471
       1408.296       1439.520       759.8267      -589.3019      -304.1865
       1483.320       1398.235       655.9883       1315.632       2102.035
       2526.694       1475.240      -1309.218      -1548.302       1167.104
       2751.291       2969.731       1550.636      -883.9813      -597.4927
       1522.027       1870.102       384.8962       410.4058       1930.040
       868.5322      -2054.094      -1478.012       2148.709       3045.329
       2568.473       3192.421       1948.259      -87.72949      -718.8013
      -1059.832      -1290.301      -513.5394       521.6890      -142.0850
      -714.7739       833.1421       1526.131       759.2139      -115.6122
      -225.2981       1167.356       918.2621      -276.0479       467.2072
       376.5719      -397.1284       279.5620       1334.565       1636.749
       1408.358       1482.050       1925.043       1978.521       807.7534
       343.6512       535.8179      -912.9645      -823.9756       1184.337
       1206.389       487.0415       270.2079      -56.35254      -442.0566
      -2836.576      -3811.091      -138.9614       2625.155       2633.419
       1809.521      -793.5312      -2046.624      -350.1086       627.2139
       1661.032       3021.800       2396.299       1554.533       887.9980
      -785.9812      -499.7556       664.7114      -1016.646      -1741.680
       43.17368       251.9066      -427.7380       532.0112       1887.384
       829.2849      -1461.832       74.20605       3280.266       2153.164
      -1508.894      -3033.497      -2168.092       262.1133       2445.039
       3806.273       4119.141       838.7764      -2700.642      -2461.741
      -1660.680      -1487.118      -233.0176       738.9545       228.3040
      -260.7026      -146.9321      -259.0239      -1211.908      -2850.310
      -3702.485      -2931.763      -1516.187      -1667.927      -2904.441
      -1732.785       1057.072       2579.408       2480.595       1937.788
       403.1265      -887.7683       740.0581       1961.083      -394.5396
      -2484.646      -2173.887      -2584.090      -3649.160      -2388.911
      -29.00464       18.00903      -927.6729      -607.7086       377.2764
       1272.441       1835.894       1984.729      -135.9277      -3052.932
      -3080.268      -824.9810       1236.900       488.9590      -2637.533
      -4203.436      -2072.483      -149.7622      -1984.132      -2791.459
      -785.2930       606.9888      -239.8643      -1643.562      -1597.462
      -548.7522       952.2783       2184.263       1470.664      -1042.818
      -2599.646      -2574.379      -2586.882      -2736.548      -2315.376
      -1945.768      -2929.875      -3064.360      -1389.719      -432.5300
      -436.9844      -1712.203      -2986.856      -1269.794       837.2510
       361.7299      -541.3242       538.5771       1521.559       369.8516
       547.7295       3035.688       1967.427      -770.3462      -758.4287
       96.73730       2082.512       3238.126       2410.643       3354.818
       4435.639       3972.651       3461.979       2090.734      -1170.977
      -6733.258      -12440.95      -13156.15      -11621.11      -11599.73
      -9330.272      -5560.701      -3656.275      -2985.560      -3002.982
      -3091.613      -4919.451      -9027.148      -9839.260      -4185.592
       1356.344       4411.090       9806.109       15385.55       15119.44
       7934.857      -2751.352      -14401.25      -23716.67      -21864.84
      -4080.070       20822.34       40408.59       47166.85       34448.07
       5176.805      -23658.06      -34709.98      -27178.85      -10587.61
       10706.56       28260.32       31654.35       24819.57       12908.99
      -2463.766      -16146.60      -25961.59      -28229.80      -14993.39
       7361.438       22649.82       23361.16       11869.96      -2680.135
      -9900.906      -9327.316      -10780.19      -18015.66      -20015.02
      -9457.797       5082.582       15357.07       20108.58       16209.37
       1792.625      -13737.75      -18025.35      -15374.03      -14653.02
      -14453.29      -9827.832       1174.480       14186.98       18426.93
       9283.872      -2639.455      -7428.449      -4629.703       4943.816
       12979.86       12247.19       5919.473      -4754.617      -15805.82
      -20575.83      -14790.73       5194.344       24938.16       24600.93
       10522.92       1159.320       824.1309       2770.595       1073.964
      -1012.980      -931.8926      -3916.718      -4091.500       7364.074
       15035.57       4953.082      -10957.78      -19642.93      -16579.11
      -280.6406       17023.71       18628.96       3699.891      -14329.96
      -23756.44      -21593.51      -10000.37       5345.227       15944.24
       18199.18       13973.39       8167.499       2596.677      -1806.721
       3759.207       13733.41       14451.15       11629.32       7467.670
      -1902.586      -7561.115      -4241.166      -778.7939       1764.213
       4351.438      -1738.648      -9473.869      -8934.522      -2264.881
       7234.945       11270.27       12523.60       13841.26       7011.783
      -6915.906      -18216.57      -16948.93      -4646.839       3037.396
       1101.591      -1063.280      -1948.025      -2971.811      -1551.281
       619.4117       1255.396      -1393.387      -4850.160      -4118.769
       860.4778       2498.180      -2868.490      -4914.031      -506.3008
       4366.242       10227.14       15651.15       16822.13       7998.467
      -7854.363      -16338.02      -14156.06      -5409.293       4152.445
       6703.010       5352.733       5219.152       5628.414       5770.543
       5536.396       3814.753      -489.8359      -6656.526      -6529.034
       1323.446       4363.210       2003.133       423.6084      -1580.804
      -1900.586      -2507.287      -8438.363      -13428.28      -12801.42
      -10137.62      -2353.635       9374.314       10604.15      -299.5752
      -5348.354       3616.969       12197.29       5341.791      -7063.791
      -9431.293      -6417.666      -4324.983      -353.6230       3680.108
       4597.624       2107.018      -3684.184      -9297.025      -9931.988
      -3885.329       5298.631       8345.898       4589.310       1258.663
       666.8254       611.7211      -743.3057      -530.7520       4988.527
       10318.27       5770.613      -5116.975      -9481.148      -3476.545
       5858.535       9851.452       6567.596      -1730.398      -10798.22
      -15054.04      -11724.41      -5162.151      -613.6030       11.84033
      -1975.630      -2874.845       337.9258       6466.625       11497.77
       13108.20       11990.13       8437.564       2452.915      -2987.645
      -3408.542       1683.269       4038.199       2571.090       3717.507
       4092.875       1891.838      -2555.203      -7772.562      -6388.534
      -934.2939       886.3438       4306.787       10808.78       10233.00
       1244.114      -5125.150      -4802.769      -756.8809       4592.777
       6757.855       3078.307      -3130.668      -6839.457      -8087.598
      -10908.38      -11704.37      -7611.863      -4397.331      -2320.744
       278.8896       2009.913       1329.182      -1602.508      -1875.141
      -2343.181      -4611.903      -3512.499      -2408.772      -3152.929
      -1376.250      -3020.467      -7285.815      -4121.409      -123.6387
      -2137.401      -4952.603      -2588.991       4193.549       5947.084
       3683.418       5437.367       7092.836       6127.724       2538.771
      -2741.695      -1977.938       2389.267       4241.559       3783.720
       2968.663       3866.309       2548.745      -2902.400      -7141.529
      -8287.996      -4126.535       4398.496       10785.05       11966.41
       6370.992      -5081.203      -10332.95      -3649.813       3740.291
       5224.609       4747.342       4400.568       243.0986      -3611.922
      -2400.581      -1314.249      -334.2249       1064.878       848.3838
       1234.432       1631.554       823.2271       1398.483      -665.2490
      -4747.215      -6274.088      -9033.250      -9731.461      -3677.252
       313.4678      -1097.115      -2009.706      -3315.586      -5263.109
      -1935.969       5178.842       9558.576       8217.705       6025.383
       8263.346       9353.150       5787.160       1863.022      -1801.576
      -3997.743      -1627.339       672.9512      -2403.918      -6147.680
      -8173.238      -9331.648      -5477.610       406.5188       991.5034
      -723.3506      -416.2197      -1492.762      -3962.193      -2676.153
       1680.387       4759.824       5365.398       5937.408       6030.986
       5968.426       5554.083       1801.397       434.5793       1991.919
      -164.5576      -2163.766      -2405.133      -3240.651      -2796.141
      -2171.171      -651.3789       3085.113       2396.283      -4057.094
      -9599.062      -9644.219      -6774.496      -6352.588      -7023.552
