     0.02500000      -32252.63       29729.12      -12345.00      -12345.00
      -29.98998       245.7600      -44.54000      -12345.00      -12345.00
       0.000000       33.94000      -12345.00      -12345.00      -12345.00
      -12345.00      -12345.00      -12345.00      -12345.00      -12345.00
      -12345.00      -12345.00      -12345.00      -12345.00      -12345.00
      -12345.00      -12345.00      -12345.00      -12345.00      -12345.00
      -12345.00      -30.83090      -68.94810       1673.000       0.000000
      -31.23600      -65.83800       0.000000       167100.0       0.000000
      -12345.00      -12345.00      -12345.00      -12345.00      -12345.00
      -12345.00      -12345.00      -12345.00      -12345.00      -12345.00
       300.2919       277.8015       99.39724       2.699950      -12345.00
      -12345.00       1.925936       0.000000       90.00000      -12345.00
      -12345.00      -12345.00      -12345.00      -12345.00      -12345.00
      -12345.00      -12345.00      -12345.00      -12345.00      -12345.00
      2008       318        11        13        14
       940         6    -12345    -12345     11031
    -12345    -12345    -12345    -12345    -12345
         1         7        13    -12345    -12345
    -12345    -12345    -12345    -12345    -12345
    -12345    -12345    -12345    -12345    -12345
    -12345    -12345    -12345    -12345    -12345
         1         1         1         1         1
GUAL    -12345          
        -12345  -12345  
-12345  -12345  -12345  
-12345  -12345  -12345  
-12345  -12345  -12345  
-12345  -12345  -12345  
-12345  -12345  BHN     
ZL      -12345  -12345  
[...]
      -2378.709       1201.154       2698.029       2459.312       1560.257
      -1689.247      -3580.829      -310.9214       1692.910       788.3157
       667.9346       1748.965       1909.146       92.14807      -694.2141
       799.0354       420.2764      -46.15137       1806.307       1401.644
      -415.9768       634.4341       2254.145       829.2871      -1920.266
      -3153.534      -3733.770      -2211.649       1312.543       2597.679
       2785.404       3924.946       3098.363      -65.39111      -2676.985
      -2682.594      -1659.560      -482.8414       456.7249      -246.7761
      -1205.695      -1235.666      -1547.271      -792.5361       2003.962
       4202.329       3187.697       1121.072       415.5835      -567.7258
      -1028.317       671.2996       898.6953      -528.5135       69.28888
       679.5514      -663.8288      -404.7068       566.7383      -1182.138
      -4315.444      -3766.405       934.4600       3376.257       1650.176
       137.0992       9.872711       92.35010       308.3894      -156.8413
      -750.0972      -715.3613      -1814.071      -1102.807      -277.7021
      -2511.278      -2499.409      -938.7441      -2065.311      -1873.498
       1497.348       4178.443       4489.230       3228.946       592.6943
      -1242.032      -773.9329       225.5408       113.9018       108.6053
       407.1206      -751.5625      -2889.980      -3384.554      -789.3555
       2211.110       820.9746      -3610.774      -5450.093      -2911.738
      -1058.052      -812.2051       1002.565       2386.350       1508.225
      -261.1368      -178.9185       1096.125       747.1387       1148.685
       320.2598      -1473.700      -1695.393      -2324.545       221.0801
       3784.429       1877.807      -754.2993      -1297.118      -1406.585
      -1573.019      -2671.089      -2937.032      -1180.094      -441.6897
      -973.9623      -606.3384      -580.8501      -2052.687      -2162.688
      -192.2157       941.1187      -39.53589      -62.35498       1349.938
       752.7004      -1127.920      -1827.338      -2814.495      -2729.173
      -1266.854      -427.2861       1116.677       2318.900      -776.8418
      -4272.505      -2901.744      -419.3571      -125.0874       364.5791
       1299.048       1095.597       516.1514       791.2278       235.6853
      -1279.952      -1512.637      -1566.739      -2619.558      -1364.962
       454.2103       381.8088       305.1284      -713.0635      -2356.590
      -1385.759      -1012.830      -3319.458      -3214.153      -772.6483
       91.70508       1264.982       2854.960       2444.755       437.8462
      -802.1938      -1010.636      -1541.351      -2104.110      -2933.086
      -2783.443      -479.2079      -148.1870      -1259.670      -1515.894
      -845.1768       1516.989       2274.000       56.04883      -889.5840
      -1384.034      -2091.461      -204.8590       764.0024      -1844.588
      -2610.507      -693.9331      -461.4924      -1344.959      -395.2065
       645.6748       1911.707       3075.157       1036.088      -553.5654
       992.8062       1631.498       1339.483       769.6035      -875.0017
      -1826.588      -157.5229       870.5039       757.9551       2081.402
       2000.850       1669.580       2856.553       1750.893       907.2517
       589.3335      -1179.624      -1728.978      -1433.883      -725.5215
       1481.494       2754.869       2105.865       1435.591       1713.187
       1630.969       699.4414      -1295.405      -2436.930      -1480.753
      -823.9843       159.8691       47.61719      -1676.319       838.6328
       4168.265       3590.560       1467.676       17.02783      -1104.179
      -2518.507      -554.6035       3587.177       4137.974       2836.472
       613.5493      -662.8818       1242.909       2106.386       911.5219
       82.62646       974.2354       3447.178       2626.998      -88.40369
      -83.28931       1069.520       1338.089       592.9324       682.5967
       1743.331       1294.105       742.0814       181.1299      -610.4051
      -763.3589       613.7695       4091.200       5019.160       1978.658
       129.0159      -932.5059      -2168.834      -342.3672       2436.922
       1541.526      -197.2986      -682.4360       832.0479       3369.021
       2938.613       348.8040      -1396.584      -210.5581       2417.944
       1019.739      -2265.741      -2026.521       110.5974       607.3604
       1558.193       3286.252       2102.641       123.5833       83.20264
      -553.2567      -886.8755       34.70801       559.1571       237.5143
       574.9819       838.6119       53.15405      -42.05957      -195.9827
      -920.1790      -499.8510      -54.34357       205.2409       54.14917
      -367.6037       115.6396       68.00140      -358.2098       160.2931
      -114.8223      -158.7854       532.3777       535.5361       352.5859
      -707.3994      -2913.207      -3459.924      -1639.551       598.8193
       1376.373       1190.166       128.7383      -2076.109      -4242.526
      -4608.572      -2399.146       446.2710       1438.295       1329.643
       346.9492      -787.8926      -686.1055      -697.1606      -1756.202
      -2328.679      -628.4521       2054.950       1380.982      -47.96814
       101.9307      -1340.935      -2306.864      -12.37231       981.0039
       935.8064       1844.909      -244.8535      -1654.633       659.4359
       575.7346      -668.6084      -555.0049      -1544.009      -1801.119
      -662.4380       240.5244       1845.705       2528.272       2683.314
       1874.463      -1438.489      -3886.327      -3454.838      -1555.144
      -28.74487      -254.7183      -1750.730      -2393.130      -1169.267
      -848.8485      -372.0161       1675.314       1875.499       819.6350
       133.5253      -458.5824       205.1226      -1194.171      -3447.648
      -1897.971      -742.7700      -1478.473      -638.3387       669.5929
       30.67212      -1126.212       567.9368       1185.622       260.2651
       1340.254      -54.49512      -3331.378      -2813.794       2.615112
       676.0255      -715.2998       1234.370       2938.870      -373.9219
      -2153.437      -1691.822      -3306.895      -3542.362      -1048.865
       1719.580       3778.876       2750.248      -241.7500      -659.7598
      -1008.448      -2771.233      -1797.666       532.0342      -1047.147
      -2927.857      -1202.861       330.5303       1049.265       1670.986
       2066.386       3134.934       1283.366      -1662.978      -1349.457
      -826.3936      -1781.865      -2842.762      -2287.874      -397.6782
      -799.3018      -1209.526       533.9004       1798.325       962.6782
       90.32568       1842.906       2364.511       768.9590       836.5337
      -983.4990      -4267.456      -3076.050       287.4395       1122.688
       948.0752       816.4496       392.0062       622.8745       469.1295
      -422.9438      -510.1030      -1223.042      -1902.906      -1829.960
      -1724.530      -927.8981       262.7632       1168.359       461.4077
       558.3086       3304.706       2775.121       142.2822      -723.0361
      -1927.232      -1410.588       2027.712       3875.299       2622.606
       1449.303       600.4133      -816.4492      -1022.733      -1654.709
      -1208.324       1280.693       1640.513       259.3789      -1781.335
      -2050.826       1571.734       3413.505       2294.171       944.2925
      -856.2119      -2047.438      -2502.513      -2652.849      -1020.041
       1534.308       2844.570       2818.854       1983.119      -377.9591
      -985.6475       1740.441       2425.748       110.8918      -282.9313
       588.3082       139.7265      -111.4279      -456.2804      -461.5786
       1023.182       1760.339       818.8916      -1372.584      -1300.407
       2150.105       3708.657       2458.392       1199.810      -419.5239
      -1010.390      -510.7905       153.6810       776.5106       239.5537
       881.2737       1790.644       46.88391      -922.7634       760.4133
       1293.470       852.1807       1960.390       1268.597      -80.71387
       653.4653       611.1526       766.1050       2054.593       351.3115
      -2052.208      -1849.237      -924.2471       1155.788       2662.450
       1599.821       1298.195       1509.167      -187.1929      -2155.284
      -935.0740       1264.592       343.1575      -128.7300       2143.496
       2062.047      -238.8291      -977.1748      -1559.009      -2070.375
      -1506.988      -130.1653       1539.872       173.1335      -1765.393
      -23.38086       2270.848       2064.479       991.9863      -719.0410
      -2728.514      -3447.033      -2939.097      -900.8511       956.6538
       1053.680       1667.305       1675.960      -796.3369      -2822.943
      -2136.688      -1475.167      -2027.136      -72.78125       2549.500
       1932.109       1059.889       364.4377      -864.6235      -668.5361
       115.6387      -380.2520      -2301.908      -2613.236      -830.0894
      -771.8365      -406.7007       1444.562       1455.229       262.4907
      -357.9087      -1804.714      -2512.800       192.1924       2439.627
       1323.131       424.5187      -20.00757      -1157.901      -1006.173
      -894.4634      -2101.254      -1846.273      -1189.404      -1433.803
      -714.5966       19.56506      -382.2936      -831.6790      -5.781738
       1194.085       1425.246       1792.110       561.1089      -2387.488
      -2688.690      -695.6641      -140.6799      -991.8816      -1273.619
      -1541.980      -1828.022      0.5095215       1282.587       974.7617
       1900.465       1333.808      -988.9316      -1451.330      -1611.911
      -1458.859       643.5830       1673.842       716.2068      -310.6289
      -2238.885      -2687.156       908.4253       2390.314       44.46887
      -576.5928      -800.1260      -1470.027      -500.5382       342.8052
      -36.47473      -384.1568      -118.7363       25.37622      -519.9277
      -793.6528      -1299.778      -1722.595      -688.8574       996.2422
       2469.405       2185.782      -360.5591      -2056.577      -1456.734
      -680.0211       12.42212       898.6531       1206.131       514.8618
      -1586.776      -1314.782       1871.392       2039.006       327.1133
      -238.1245      -1287.364      -1631.586      -862.1940      -142.5391
       1554.112       2984.404       1521.971       277.0461       80.89502
      -1900.365      -2020.347       411.4614       908.9410      -128.6680
       176.3120       2024.381       3062.986       2471.006       739.9685
       421.7446       1392.887       202.0903      -767.5696      -531.2109
      -1109.812      -1280.831      -919.2153      -641.5491      -674.6556
      -896.1367       216.7100       2704.053       3636.776       2797.282
       2091.447       601.1670      -1643.325      -1946.409       297.0085
       1315.326       416.2910       1408.718       1553.041      -759.5620
      -253.0830       1706.645       1262.905       630.0264       327.2756
       86.93994       2145.954       3358.013       696.9382      -1444.124
      -878.9438      -498.9973      -312.5981       458.6924       777.8193
       1029.106       1267.552       2207.171       3573.192       2480.040
      -320.9478      -1652.133      -1317.819      -1019.157      -744.6101
       204.7773       1085.318       1985.706       2722.827       2147.448
       951.6230       723.7729       776.3325       1113.760       2363.070
       2582.571       2075.273       1390.141       528.5706      -470.6836
      -1822.553      -1778.956      -1971.662      -3248.626      -3054.011
      -1359.972       1709.193       4129.830       3717.483       1801.369
      -1178.393      -3219.037      -3359.868      -3992.471      -3311.014
      -2848.171      -4662.289      -3968.294      -1915.905      -2755.652
      -3441.008      -3964.805      -6735.279      -6830.624      -3200.129
       707.6074       4101.195       5869.179       5916.372       4306.176
       2441.410       359.9980      -4792.164      -10697.13      -15100.10
      -18621.33      -18479.29      -15205.74      -11836.67      -6254.192
       1642.373       5383.200       2731.255      -581.9287      -2441.332
      -7644.438      -15531.35      -15457.76      -5133.037       6651.844
       18964.73       29729.12       29356.95       18590.08       10543.03
       12679.89       16822.30       12667.91       3489.201      -1907.428
      -229.5703       7952.844       17329.20       22635.28       25205.90
       24749.94       23492.66       24352.85       20679.89       8063.930
      -9665.281      -25428.75      -32252.63      -25195.10      -9182.251
       1642.022       2139.137      -856.6060       253.5908       4356.237
       3250.568      -5383.562      -13706.25      -15215.03      -13694.10
      -13984.01      -11224.05      -2313.680       8951.000       17331.84
       16711.38       9729.357       3349.286      -2774.113      -7543.074
      -11262.68      -15360.80      -11579.77      -3380.953      -5796.215
      -13386.13      -11022.34       696.6221       6075.893       988.3428
      -498.1018       821.2041      -3047.371      -2260.377       3416.649
      -797.4102      -14040.43      -23352.16      -23865.95      -15373.11
       2128.324       18930.16       22137.01       14559.47       3055.699
      -10751.84      -17862.76      -15921.24      -13330.81      -11007.65
      -7807.482      -2790.887       5948.242       17049.78       25827.88
       26345.74       16754.91       1706.918      -11768.63      -19447.89
      -15669.95      -3430.343      -480.0605      -6182.759      -2737.207
       11438.86       24632.37       24999.69       9094.480      -6152.387
      -9535.382      -6619.203       672.2480       6098.802       4320.432
       68.89355      -3698.644      -3828.833      -2167.596      -4570.201
      -7037.938      -7307.146      -8712.193      -9239.012      -3265.262
       9162.805       16983.47       12476.04      -2131.379      -13922.67
      -11710.87      -4678.008      -644.0000       5247.535       8316.501
       3081.313      -3238.674      -5595.967      -5558.125      -7344.871
      -10318.51      -6581.193       5329.434       17227.12       15294.85
       1516.634      -4305.157      -1415.070      -4558.316      -10759.55
      -11359.78      -9328.932      -4599.850       4018.373       9343.679
       7327.188       369.7129      -5746.625      -7245.345      -4906.424
      -1023.111       4.834351      -714.9589       472.4335       316.2222
      -1564.118      -1279.315      -1238.339      -3435.178      -3369.768
       352.3672       8084.357       10682.22       899.6597      -3062.609
       5370.004       12619.32       17124.37       16811.98       8085.895
      -3747.395      -11428.66      -9270.093      -951.3931       2979.453
       1028.943       1017.582       5575.805       5844.525      -2802.457
      -11936.03      -16000.02      -16188.05      -7248.359       10067.47
       19403.05       15997.07       8635.871       992.4773      -1931.592
       2473.354       6188.005       1077.658      -7929.338      -10461.55
      -6079.923      -1674.295       1186.217       4759.031       7308.398
       7788.871       11450.90       14165.07       7932.359       2694.625
       3362.724       915.7207      -4006.941      -7771.270      -8162.427
      -748.3945       7633.443       8369.648       5474.133       4217.959
       5708.961       6351.435       2168.673      -1484.621      -1370.890
      -2146.036      -1102.801       3960.299       6623.712       4152.977
       443.4844      -4178.104      -8298.576      -6348.357      -1628.144
      -2113.061      -6498.250      -10080.57      -10478.08      -6578.631
      -1271.260       3114.279       6441.137       6772.790       2528.273
      -2338.569      -2676.968      -611.8374       1361.454       1098.715
      -2981.180      -4982.743      -1209.328       1042.111      -759.7996
      -170.2461       830.9639      -176.7017       1284.217       5110.315
       4543.495      -2830.753      -5437.144       78.54883       3682.731
       1535.303      -4050.289      -7199.159      -5384.007      -4253.617
      -3543.937       1047.973       6134.598       6885.655       3622.278
       2270.526       2089.055      -2348.598      -5470.104      -5124.722
      -4576.901      -814.0977       5225.113       7162.392       3727.342
      -2213.894      -5150.023      -619.4668       6586.051       8119.061
       2317.068      -5839.635      -10885.45      -10559.35      -6235.829
      -1365.828       2263.137       2374.658      -1176.058      -4282.324
      -5942.503      -6150.695      -3882.693      -1610.287      -89.84766
       2953.464       5185.212       4379.812       4084.345       4234.511
       2766.106       1490.089      -1255.277      -7082.770      -9439.043
      -4154.736       5388.873       11087.07       7840.234       2482.230
       1071.947       174.3228      -381.1514       3947.600       7572.503
       3941.521      -620.6602      -3908.053      -5970.973      -3600.240
      -2163.689      -3477.766      -2121.934      -654.8193      -2321.212
      -3227.095      -2722.191      -3558.546      -4718.202      -3006.503
       1448.578       2837.168      -28.85938      -2742.305      -4563.318
      -4032.739      -817.4333       592.3927       510.0120       988.0901
       723.5438       96.57167      -51.95218      -151.8557       430.4902
       3061.617       8910.352       14769.86       14129.03       4672.106
      -4684.713      -5133.194      -2603.407      -1774.280      -768.9044
      -47.14526       832.9084       401.6738      -2541.131      -5558.676
      -7628.783      -7202.638      -2013.234       3666.588       5309.327
       4969.938       3096.702      -1232.933      -3660.880      -2387.184
      -1212.234      -456.9185       1261.585       1632.276       438.9414
      -1320.535      -2588.287       385.0039       2820.397      -908.0088
      -3773.001      -1055.948       3619.510       5533.663       4896.324
