     0.02500000      -169613.9       264469.1      -12345.00      -12345.00
      -30.00503       240.1949      -38.88000      -12345.00      -12345.00
       0.000000       29.17000      -12345.00      -12345.00      -12345.00
      -12345.00      -12345.00      -12345.00      -12345.00      -12345.00
      -12345.00      -12345.00      -12345.00      -12345.00      -12345.00
      -12345.00      -12345.00      -12345.00      -12345.00      -12345.00
      -12345.00      -31.32870      -68.47560       746.0000       0.000000
      -31.23600      -65.83800       0.000000       167100.0       0.000000
      -12345.00      -12345.00      -12345.00      -12345.00      -12345.00
      -12345.00      -12345.00      -12345.00      -12345.00      -12345.00
       251.3622       266.9755       88.33858       2.260048      -12345.00
      -12345.00      0.7034364       0.000000       90.00000      -12345.00
      -12345.00      -12345.00      -12345.00      -12345.00      -12345.00
      -12345.00      -12345.00      -12345.00      -12345.00      -12345.00
      2008       318        11        13         9
       280         6    -12345    -12345     10809
    -12345    -12345    -12345    -12345    -12345
         1         7        13    -12345    -12345
    -12345    -12345    -12345    -12345    -12345
    -12345    -12345    -12345    -12345    -12345
    -12345    -12345    -12345    -12345    -12345
         1         1         1         1         1
LAJA    -12345          
        -12345  -12345  
-12345  -12345  -12345  
-12345  -12345  -12345  
-12345  -12345  -12345  
-12345  -12345  -12345  
-12345  -12345  BHN     
ZL      -12345  -12345  
[...]
      -3565.777      -12690.29      -9353.885      -1379.451      -1042.868
       250.6172       5826.101       5948.727       3630.898       7693.359
       13319.55       13990.21       12556.90       9615.932       4609.329
      -716.6602      -5828.984      -6034.629      -3546.469      -10465.83
      -21226.20      -21060.20      -12654.70      -4241.113       5360.148
       16026.24       19154.83       9342.145      -625.5553      -402.1826
       2685.358       3896.470       1490.330      -4320.005      -5363.598
      -1612.455      -2751.385      -6664.070      -2546.768       3124.633
       2743.723       5191.666       9573.760       7327.070       1819.890
      -1997.509      -2613.787      -519.1421      -437.4023      -5344.918
      -12183.37      -14895.39      -7916.648       5378.652       15043.60
       15962.77       10843.80       6319.806       3257.736      -3583.504
      -9499.537      -6358.751       969.9409       3621.909       300.0176
      -4499.508      -7644.537      -7548.235      -2657.834       4152.475
       9821.941       8947.638      -435.9912      -6600.727      -1818.885
       4329.716       726.7812      -10202.77      -15379.32      -8482.209
       2371.930       8864.730       10022.56       7494.870       3464.251
       188.3457       2381.562       8792.082       7727.796      -926.2227
      -4147.350      -1268.483      -406.0176      -3218.145      -5788.502
      -3435.228      -3.228516      -3129.372      -6356.631      -2861.859
      -302.9586      -1652.720       1574.824       8635.713       7711.889
       1225.609       3334.803       10389.28       8834.720      -547.0508
      -8510.414      -11621.03      -12427.85      -8372.758       1170.925
       5714.073       2057.923      -3228.564      -6624.791      -7384.136
      -4663.480       1510.604       8275.287       7521.727      -827.0139
      -1665.751       5532.492       4326.887      -1784.590       1267.267
       5646.959       1804.465      -2465.942      -2689.527      -2057.075
      -1879.863      -1399.818      -414.1270      -1047.044      -3601.102
      -3452.905       414.6423       1031.507      -752.0210      -844.8281
      -4757.342      -10246.23      -8872.273      -1419.914       6533.795
       7064.036      -1548.016      -9243.162      -9661.824      -4335.902
       5079.602       13126.29       10969.14       1202.896      -3086.447
      -443.0176       2472.572       5681.197       8670.566       9575.788
       4635.703      -8590.742      -18982.75      -15824.67      -2432.166
       8337.263       6727.052      -1595.516      -8759.604      -11742.76
      -3975.287       10202.62       13287.05       2487.773      -6206.297
      -3933.256       932.2236       1016.154       154.0049      -223.5176
      -3160.980      -6517.641      -6598.338      -3755.511       994.9663
       2370.803      -4638.236      -9627.328      -2053.252       7377.433
       6957.193       1100.145      -2636.746      -2945.802      -2102.196
       479.7480       4385.359       2966.967      -2732.411      -3216.080
       3579.918       10770.05       9837.270       1917.300       561.7207
       7163.012       8150.266       3566.347      -11.49219      -6386.238
      -12832.66      -11001.97      -3809.364      -263.6934      -1528.864
      -2506.596      -1779.911      -1101.290      -1200.305      -1929.928
      -3824.647      -4583.352       1638.020       8522.261       5898.032
      -768.0278      -2654.242       168.9692       2379.112       699.3413
      -2030.033      -3586.953      -813.0742       5534.791       6248.497
       1986.353       1670.349       3935.654       2681.520      -2131.361
      -5639.271      -4499.657      -2234.041      -4482.529      -7046.696
      -3639.061       659.5307      -18.83716      -635.0645       3440.777
       7602.793       7519.328       5359.559       2864.387       192.0586
      -2606.260      -4558.402      -4962.200      -5037.275      -5664.103
      -4800.713       1155.438       8998.521       9383.144       4115.271
       1893.715       2399.312      -1466.635      -8011.115      -7686.180
      -2629.732      -2291.577      -4062.585      -716.8359       7011.424
       10507.04       7928.814       6580.342       5094.966      -1558.697
      -4791.163       670.8621       2727.144      -3006.943      -5457.620
      -4045.579      -4975.781      -3863.810       2815.332       8475.535
       10650.68       12570.46       12447.25       5146.039      -6246.570
      -14567.23      -16551.23      -9083.848       5379.271       12421.76
       7360.067       1260.602      -719.2773      -2354.645      -4903.811
      -6294.180      -5753.869      -6785.068      -7749.478      -2370.414
       5957.984       9417.496       10815.13       11571.99       6830.107
       1951.057       5540.918       10155.42       6538.275      -771.9165
      -3131.689      -951.7999       64.43311      -1499.617      -3635.028
      -5285.776      -4996.986      -4618.383      -5856.965      -7195.910
      -8363.451      -9835.205      -9897.396      -7306.574       277.0781
       11671.38       17735.55       13449.75       4586.614      -1178.867
       581.0762       5713.316       7573.909       2912.676      -6403.227
      -11070.98      -5696.354       606.5723       448.4106      -1987.965
      -877.9678       3187.076       6836.131       7025.374       2626.236
      -1596.545      -1080.159      -2028.326      -6863.316      -10604.74
      -12707.16      -12604.58      -6935.792       1189.736       5717.062
       3692.742      -516.7686       1269.793       7435.266       9220.771
       7215.811       6997.424       9723.623       9451.298       985.1328
      -9996.104      -12858.91      -6509.986       2156.880       5971.445
       3294.560      -2335.572      -2587.102       4677.979       9121.136
       4568.970      -3278.096      -9122.797      -8158.120       436.2764
       6223.479       3177.156       360.8633      -1519.328      -9576.793
      -15813.81      -7597.648       5463.816       7261.479       3966.348
       5338.219       3222.023      -3797.988      -6168.555      -4302.908
      -5006.970      -3006.191       4107.233       5592.210       1086.146
      -1053.504      -3690.773      -7058.437      -4305.822       2829.114
       5805.606       2985.552       439.2119       3015.371       5652.768
       3703.327      -1444.674      -5269.668      -4958.938      -3383.782
      -997.4102       5306.461       10189.71       9704.829       5643.301
      -1141.396      -5606.247      -2690.185       1017.878       1906.226
       743.3496      -2654.087      -4139.504      -2354.216      -2294.525
      -4956.299      -8369.473      -7743.901      -1055.115       6156.762
       7625.495       4050.815       922.3203       2509.080       4214.724
       2705.563       2225.047      -969.5312      -10741.23      -11477.21
       285.0117       8539.852       9547.604       7249.291       818.4326
      -5489.264      -5481.039       1987.270       9259.203       9629.170
       5069.488       478.6021      -1987.745      -2680.916      -6099.594
      -11662.12      -12926.12      -7331.365       1421.906       8823.500
       11255.06       5936.879      -5958.836      -12458.03      -8724.439
      -2678.879       4188.957       13525.35       15197.69       6321.766
      -931.0654      -2061.253      -2840.448      -2022.600      -307.6465
      -2100.393      -6043.068      -8313.053      -7313.649      -1531.654
       7476.012       13436.24       6859.121      -8576.379      -15232.23
      -5882.393       6291.400       10446.35       7896.977       2217.835
      -3758.441      -3719.387       3586.551       11866.77       15496.85
       12735.06       3197.023      -6755.586      -11667.55      -10704.40
      -5752.835      -3360.566      -6556.020      -8365.761      -4669.958
       3654.285       11013.74       11941.64       7412.826       1744.400
      -3781.963      -6711.488      -6152.258      -5359.748      -6567.891
      -6973.632      -5498.116      -1707.292       2893.110       4780.145
       2592.830      -1020.847      -3599.094      -2084.843       3306.688
       7439.172       6826.285       5011.051       1581.079      -4703.344
      -5535.261       1512.028       4594.891       3104.598       1433.914
      -3617.842      -8151.345      -4283.943       2283.344       4182.393
       2171.497      -88.96387      -900.9197       563.6318      -752.0391
      -5464.574      -7188.669      -5864.139      -2839.027       888.0469
       1878.447       4450.514       7825.535       8112.379       6316.657
       2471.744      -4465.988      -9083.978      -5001.802       2480.917
       1257.300      -4291.469      -5533.385      -6539.641      -9988.186
      -8640.164      -698.9980       8753.426       15385.64       18381.59
       15938.20       7180.049      -5260.262      -14849.18      -15815.51
      -7598.909       970.6426       4388.406       4641.927       3887.700
       645.4873      -3730.224      -4085.857       1757.447       6682.707
       6146.108       2981.662      -294.4297      -6390.531      -12423.36
      -13016.76      -8089.539      -1160.689       4992.139       7375.076
       5423.036       594.6025      -3576.975      -3431.322       1737.958
       4778.032       1473.074      -5308.250      -7903.603      -1680.734
       9430.598       14732.29       8699.419      -1827.438      -5229.067
      -2305.086       515.0999       756.8234       280.9722      -205.1992
      -2258.216      -4518.503      -2621.086      -190.0341       230.6484
      -1791.584      -5666.490      -7654.379      -4443.952       2780.227
       9950.641       11111.20       6411.651      -354.9941      -5835.277
      -6891.583      -2526.715       986.6123       1999.800       3312.146
       4234.169       2892.668       380.2305      -2760.303      -2099.877
       691.1987      -1566.714      -5703.568      -3775.353      -37.34570
       1433.815      -730.6094      -4663.279      -3882.596       2296.672
       7842.178       10225.56       8658.566       5613.732       2985.279
       3297.237       5497.001       3690.195      -5880.098      -16823.29
      -19779.72      -11436.17      -858.7676       4907.750       6979.689
       7354.070       5671.660       5341.006       7367.963       6000.464
      -1520.943      -7100.322      -7728.736      -7452.733      -6270.719
      -2252.703       746.7148       2637.678       4804.773       7691.859
       8007.192       4118.569      -1006.753      -1947.900       1524.301
       2521.238      -2102.670      -3076.178      -121.1392       151.6152
       2577.506       9159.149       7770.756      -202.1191      -5071.227
      -6964.270      -7930.005      -5051.472       17.95312       3706.101
       2407.449      -1512.182      -2936.937      -1290.920       72.39221
       627.3652      -1081.486      -3227.914      -3175.133      -1200.743
       1311.645       5434.018       7390.809       6349.436       6046.178
       6543.573       4310.998       100.3047      -4362.148      -5698.981
      -3338.965       523.5654       281.8184      -5326.305      -10918.91
      -9558.102      -2764.449       4615.785       7842.198       5678.708
       1935.319       530.0243       121.0348       310.0427      -965.6332
      -714.7358       1894.020       2167.197       31.33081       335.8740
       1557.790       766.2900      -1191.351       941.4141       5283.699
       5278.028       880.4414      -2609.487      -5174.843      -3271.543
       2827.172       6115.254       5763.073       5519.203      -406.2344
      -12012.28      -19363.69      -17856.93      -14796.83      -11720.37
      -6158.818      -2541.195      -3857.839      -163.1680       12007.22
       23437.95       25684.89       16072.64      -12956.39      -59510.41
      -108451.7      -144381.1      -155137.0      -128351.9      -69262.14
      -3302.125       52995.69       105037.4       147254.6       167088.4
       161486.0       134102.9       98639.66       75078.23       58600.58
       33052.22      -6594.547      -63838.12      -130966.3      -169613.9
      -155171.7      -100558.8      -24244.50       58037.94       107857.6
       100192.0       54161.09       1480.555      -34506.60      -34942.04
      -7177.320       27746.14       56890.34       66918.98       48714.64
       21149.88       6789.652       2334.375      -14875.12      -51894.78
      -86642.97      -90492.64      -62916.89      -20567.50       15850.58
       27633.38       538.7344      -63732.78      -123512.7      -111223.7
      -2342.312       154872.5       264469.1       260714.1       163948.4
       41751.38      -64516.50      -132013.6      -137934.2      -96531.62
      -52906.62      -20761.01      -3290.059      -6775.211      -21854.29
      -39703.73      -49586.95      -36913.47      -16812.32       2566.344
       36533.42       63697.09       46075.70       6740.326      -9514.922
       4070.188       25591.87       24958.07      -7382.984      -31535.46
      -21918.91       3930.547       36200.72       68299.72       69560.83
       30214.66      -25896.34      -80345.38      -121259.4      -126231.4
      -85999.48      -9382.688       72742.78       116001.9       104867.5
       64450.83       22896.21       618.5298       1324.844       4252.656
      -7368.789      -25122.77      -37646.52      -36257.76      -15422.87
       14712.10       17821.72      -23340.45      -63395.95      -49159.97
      -1369.875       29130.45       38181.17       46735.02       53531.18
       46284.29       13853.34      -33817.05      -63200.39      -56191.13
      -28900.06      -7390.477      -9131.016      -20012.51      -9849.492
       16545.30       31652.98       39380.53       42544.38       24497.28
      -2110.498      -7637.100       2492.523       5863.250      -8045.938
      -35681.88      -62554.86      -70862.73      -62684.04      -38531.53
       4247.562       40794.23       56097.09       66946.30       70396.59
       57517.69       40532.97       31239.09       33689.77       36970.93
       14341.18      -26823.78      -52191.48      -48778.84      -28507.32
      -14640.17      -21552.01      -32064.12      -34039.55      -31593.05
      -14885.30       18835.52       43209.09       41707.18       23719.76
       12848.82       16427.42       12552.91      -13954.47      -46148.94
      -64103.95      -62467.38      -41526.76      -13373.65      -581.5332
       3958.531       22465.39       49526.61       66844.42       69383.88
       60602.86       45590.40       26911.51       12592.92       4575.984
      -10207.70      -38811.70      -66454.39      -69969.56      -41195.60
      -1491.281       24172.09       32347.58       30975.88       19239.24
      -653.6367      -17132.98      -26538.02      -30917.97      -25510.62
      -17831.19      -15873.97      -10240.10      -2040.952      -3209.394
      -5106.469       5338.930       22556.62       28888.71       22327.26
       15211.38       8737.318      -502.3799      -3270.050       2643.859
       8497.686       8999.031       6071.383       5979.660       9553.354
       7252.311       306.7915      -1765.543       3624.742       11688.07
       14764.11       10112.14       3801.891      -5050.797      -21504.70
      -35918.11      -36168.09      -30420.28      -25117.26      -18674.46
      -18929.75      -24764.20      -13578.60       22670.08       58251.91
       59550.41       30108.41       6096.305       9274.195       27478.21
       38459.36       27840.05      -2716.945      -31177.57      -37603.28
      -34499.66      -41211.63      -44868.30      -27532.30      -5102.524
       3903.156       3684.467       1308.338      -443.6719       3293.500
       10548.49       17618.82       18362.99       5946.445      -12098.90
      -22725.97      -22183.55      -6672.445       19980.27       37609.86
       32722.98       14020.51      -4875.328      -15422.09      -14830.18
      -6821.274       2016.881       6984.340       8816.945       11673.51
       15467.11       21553.59       26531.43       18325.12      -5148.500
      -28661.30      -41542.29      -44616.95      -39351.34      -29281.56
      -20618.44      -11951.32       360.0547       21220.41       50085.84
       65542.58       49832.95       17759.24      -9929.281      -29102.37
      -35912.54      -25974.88      -8982.424      -490.7539      -8126.406
      -22018.34      -27092.12      -16962.97       5884.812       27826.09
       35244.61       28036.55       9040.867      -15472.66      -31565.70
      -31627.94      -19829.96      -7798.143      -5681.712      -5790.500
       7050.789       29433.69       45213.50       51090.57       48222.41
       32395.02       11156.69      -4555.734      -16176.41      -22139.34
      -22654.48      -25887.40      -28839.57      -22397.38      -11493.42
      -8893.398      -15244.74      -16132.88      -5794.512       5858.934
       12784.19       14541.88       10858.30       7592.277       10191.06
       17388.53       23666.00       21124.38       6511.633      -11378.95
      -22295.45      -25948.13      -24609.93      -19341.51      -15098.39
      -11116.65      -773.4180       12786.00       19801.76       13388.64
      -3656.559      -16490.42      -17208.58      -11990.57      -6344.197
       2429.805       13910.38       19511.64       17941.73       14239.36
       4085.219      -11857.48      -17484.88      -9402.463      -1135.641
      -887.4121      -7896.133      -12985.04      -8494.773       75.48438
       8597.273       21375.47       36404.53       48691.09       56076.84
       51490.52       32422.74       8250.023      -13410.38      -30616.13
      -41003.41      -40139.88      -27658.98      -16291.62      -17028.51
      -21870.85      -22198.05      -18434.57      -9308.938       3469.934
       11421.62       8644.160       2033.580       3683.484       15575.51
       28469.34       29511.27       15662.93      -3975.117      -20118.65
      -25797.23      -19233.93      -8457.910      -2672.392       58.08594
