     0.02500000      -108828.8       161735.0      -12345.00      -12345.00
      -30.00503       240.1949      -38.88000      -12345.00      -12345.00
       0.000000       29.17000      -12345.00      -12345.00      -12345.00
      -12345.00      -12345.00      -12345.00      -12345.00      -12345.00
      -12345.00      -12345.00      -12345.00      -12345.00      -12345.00
      -12345.00      -12345.00      -12345.00      -12345.00      -12345.00
      -12345.00      -31.32870      -68.47560       746.0000       0.000000
      -31.23600      -65.83800       0.000000       167100.0       0.000000
      -12345.00      -12345.00      -12345.00      -12345.00      -12345.00
      -12345.00      -12345.00      -12345.00      -12345.00      -12345.00
       251.3622       266.9755       88.33858       2.260048      -12345.00
      -12345.00       3.024754       90.00000       90.00000      -12345.00
      -12345.00      -12345.00      -12345.00      -12345.00      -12345.00
      -12345.00      -12345.00      -12345.00      -12345.00      -12345.00
      2008       318        11        13         9
       280         6    -12345    -12345     10809
    -12345    -12345    -12345    -12345    -12345
         1         7        13    -12345    -12345
    -12345    -12345    -12345    -12345    -12345
    -12345    -12345    -12345    -12345    -12345
    -12345    -12345    -12345    -12345    -12345
         1         1         1         1         1
LAJA    -12345          
        -12345  -12345  
-12345  -12345  -12345  
-12345  -12345  -12345  
-12345  -12345  -12345  
-12345  -12345  -12345  
-12345  -12345  BHE     
ZL      -12345  -12345  
[...]
       17626.43       20921.50       13792.71       3355.977      -7601.379
      -16452.21      -14854.35      -5860.598       6681.234       18156.39
       18652.48       4165.215      -13434.78      -17239.96      -14568.79
      -15791.87      -9411.568       10230.53       17141.95      -720.6641
      -15702.95      -11378.05       842.9688       9710.371       13183.68
       9225.936       3709.095       5419.303       524.4609      -10586.18
      -9190.109      -73.08447       2270.857      -1906.749      -4114.113
      -3279.814      -5739.990      -10193.06      -7228.182       2190.551
       5307.327       1401.319      -871.0547       2254.899       2161.742
      -6189.734      -11780.88      -5847.363       6924.699       16240.56
       19752.23       19966.75       13311.60       1164.840      -6517.406
      -6612.722      -4350.463      -315.2708       1547.568      -6021.844
      -14255.86      -11531.95      -6979.059      -9446.221      -12282.33
      -7922.540      -23.63672       3223.887       4458.180       9754.457
       11561.49       6683.255       1099.111      -3185.546      -3164.686
       180.7399       210.1466      -135.3901      -490.8010      -1725.012
       712.0898       2165.525      -3892.188      -8034.979      -3836.008
       1984.422       4945.076       5951.880       4373.764      -1141.096
      -7143.137      -6205.901       84.28027       4165.904       2746.648
      -1775.496      -4858.701      -4871.461      -2914.322       2453.932
       8951.168       11854.13       12906.35       12643.00       4531.184
      -6210.773      -11759.91      -13751.93      -10579.98      -5942.879
      -6197.317      -3680.903       563.1885       2546.373       8381.785
       14833.74       15553.24       11130.22       3717.775      -3133.484
      -6032.197      -1715.296       443.9746      -5038.482      -6750.688
      -2297.527      -50.19434      -2533.891      -5960.186      -7434.032
      -6847.273      -2100.154       3987.062       6701.215       9794.789
       15792.31       11659.31       502.2578       851.9941       8677.199
       12443.73       10145.42       3186.793      -2411.873      -5493.328
      -9541.129      -13292.93      -9976.703      -3525.270      -587.5664
       1384.287       1691.535      -981.8389      -2774.558      -3488.102
      -3835.152      -5115.020      -7549.866      -6908.048      -383.9902
       4363.906       2275.654      -2373.971      -4793.892      -1585.896
       5142.281       10868.14       13348.15       9070.316       4151.988
       4836.727       6342.896       4108.445       1392.185      -1713.609
      -5078.150      -5814.436      -6468.371      -7795.793      -3720.476
       807.9287      -2311.523      -7139.088      -10358.75      -12082.80
      -4600.357       4999.204       3608.852      -2436.261      -2697.045
       509.4277       5436.062       7829.599       4080.695       1728.919
       3769.603       3923.175       2542.125       516.7627      -2774.773
      -4293.894      -1817.836       2981.867       6796.184       4096.232
      -3856.223      -8132.572      -5625.275      -1049.378       3030.707
       613.9668      -8392.340      -12580.86      -7363.970       1229.438
       7852.182       8553.010       5312.182       2081.119      -3524.379
      -9829.142      -7660.038      -430.6064       2114.240       803.8955
      -832.3301      -624.7148       6326.047       13070.81       8850.661
      -3393.299      -9932.482      -4433.056       1400.226      -2454.348
      -5946.202      -5435.622      -4830.777      -696.5273       3078.007
       2426.250       4026.181       6249.043       3451.658      -1901.404
      -5406.621      -6874.938      -5756.458      -1137.316       5900.219
       7985.277       2700.586      -968.5430       3521.000       10024.36
       9357.586       528.1729      -4683.417      -909.6704       2936.833
       1768.847      -2492.418      -6523.309      -5239.081      -2921.672
      -4160.744      -6767.527      -8553.504      -6297.283       998.3926
       4674.342       1794.588      -1521.488      -3277.092      -3171.576
       497.5156       3543.847       4856.154       6693.943       7340.244
       5269.119       4387.508       2098.744      -1594.733       2061.629
       9787.225       11213.16       7189.686       1429.205      -4376.871
      -9467.422      -12490.13      -11061.25      -5371.611      -2446.917
      -1212.391       3969.695       7475.755       4320.431       1162.677
       1047.822       4773.391       9474.834       5396.227      -5392.910
      -9582.775      -6813.560      -1791.744       716.9609      -4781.891
      -11023.45      -8627.172      -1124.863       4665.217       5134.842
       6030.984       7711.508       3539.399      -3029.096      -4076.955
      -1961.328      -183.0225       3429.404       7183.107       5921.635
       2699.269       949.7529       1645.779       1316.799      -2360.430
      -6574.648      -8550.818      -6224.835      -1286.543       1860.227
       3279.853       2092.475      -2136.534      -4199.756       439.7305
       6180.840       8591.913       4870.924      -2716.358      -4394.499
      -927.7832      -2666.479      -8263.822      -9024.843      -1064.730
       8012.672       8944.293       4957.998       3834.144       3358.680
       288.0615      -2756.948      -2543.852      -41.29468       1017.919
      -1741.898      -1318.818       4253.479       5859.024      -1804.148
      -9257.316      -10424.92      -8604.039      -2679.693       5548.965
       8812.014       7039.269       2764.788       343.8423       1749.971
       2570.335       1134.105       3847.373       9287.828       9552.804
       1862.215      -7821.543      -10587.00      -4897.873       2082.254
       4261.521       957.4976      -2190.070      -1429.490       1451.496
       453.9580      -3829.122      -5896.368      -2688.470      -18.57715
      -3546.518      -6413.577      -4668.196      -1351.699       5322.408
       9290.944       5963.009       920.4092       296.4238       5081.977
       11783.13       14256.51       8713.667      -994.0215      -6621.123
      -8373.998      -7253.667      -3547.117       2223.207       7528.457
       8322.292       4294.852      -1440.859      -6844.529      -9307.244
      -7502.904      -3693.494      -3219.518      -4881.958      -3579.261
      -957.3540      -2141.505      -3661.717      -1433.355       5660.484
       12128.17       8937.396      -40.51611      -2549.040      -256.8770
       2487.117       2603.213      -2430.967      -7874.744      -8681.863
      -2704.264       8689.473       15177.98       11350.91       5207.985
       4442.512       2786.270      -3729.238      -9740.379      -10971.55
      -9493.976      -6507.338      -1544.005       3597.754       4618.419
       2389.207      -581.0903      -1602.622      -18.60840       1262.898
       985.0693       1970.580       3455.191       1485.639      -3797.475
      -6790.262      -9295.531      -13672.52      -12254.58      -536.7422
       11596.80       17359.10       16108.48       7949.648      -1930.797
      -8683.512      -10861.25      -4233.964       3764.406       2457.491
      -2736.774      -3552.553      -2567.086      -125.5215       5809.762
       10096.17       7509.945       2475.108      -3169.391      -7162.426
      -4764.691      -59.48486      -1082.415      -2161.533       518.2786
       1100.917       183.1313       579.7448      -188.1914      -1181.191
      -2043.133      -2166.575      -841.3071      -185.5850      -2152.391
      -5939.342      -7676.395      -2270.944       4124.680       5827.063
       2816.055      -5608.666      -10751.01      -3438.460       4561.435
       3057.975      -534.4658       814.1274       2726.778       1356.919
      -996.3762      -522.5703       3372.587       6518.453       3108.723
      -249.1055       3643.254       6143.228      -749.5898      -9879.789
      -14981.58      -12268.88      -2915.824       6112.568       8085.771
       3287.234      -3238.851      -6161.988      -1916.926       5000.101
       6503.224       2852.050      -1820.553      -3704.342      -3114.532
       259.0664       5846.158       8322.199       2712.387      -5230.262
      -10710.65      -12204.64      -3937.969       8916.755       8940.512
      -1639.051      -6464.188      -4672.637      -3156.887      -2028.720
      -1136.435       180.7979      -1044.543      -6026.086      -10849.68
      -10294.81      -2754.328       7012.145       13040.65       14747.98
       10772.18       3109.010      -1499.559      -862.8401      -575.1719
      -2354.621      -3873.686      -4076.474      -3541.747      -1705.233
      -607.7939      -539.6045       1803.062       5274.387       5323.250
       240.1172      -9508.691      -14388.34      -8411.978       2189.898
       9201.285       11196.60       10504.06       8516.162       3659.485
      -3002.040      -5000.691       1264.033       6774.110       4004.674
      -2586.705      -6901.000      -8157.071      -5693.686       65.23047
       6184.945       7314.605       4096.159      -69.23828      -2627.776
      -2166.112      -1003.451      -3695.342      -6831.670      -4672.161
      -1187.804      -808.5518      -1411.733      -2726.003      -2999.364
      -1051.072       2259.376       4141.350       4547.510       5061.184
       5095.418       6264.297       8601.398       4523.144      -3805.514
      -7261.408      -2905.118       4509.348       6790.390       2861.266
       443.5015       1610.441       2209.940       1250.582      -1325.353
      -4606.340      -2890.808       2072.479       6932.027       8475.452
       4026.576      -3151.820      -9292.480      -12733.07      -9194.772
       542.8086       8573.758       8514.083       2956.876      -1670.035
      -1368.451       2827.193       6420.479       6336.018       3478.030
       109.6719      -820.1396      -1969.176      -5008.447      -5269.514
      -1159.601       2304.879       5154.908       6930.437       2690.180
      -3753.184      -3690.016       1020.781       5266.796       5528.479
       310.7324      -4943.024      -5192.937      -5089.959      -6177.021
      -5832.212      -2441.288       4416.916       9642.143       8094.577
       3413.791      -1251.970      -2857.584      -935.4189      -994.6167
      -2376.137       1243.072       6081.231       5880.436       1985.295
      -829.3069      -825.6685      -149.8423      -1425.158      -1948.645
       1219.990       5164.875       6856.832       6333.377       1478.237
      -3962.487      -5209.070      -5411.728      -6004.665      -4222.170
      -1358.120      -299.5088      -3025.439      -5403.744      -1920.408
       6497.672       15229.66       15957.09       7001.594      -1335.477
      -5602.568      -6985.689      -5665.525      -4160.484      -4450.322
      -6603.836      -8625.543      -6017.073       1503.723       8830.135
       9569.926       7042.836       7346.400       8501.197       7485.630
       2980.266      -4131.789      -10919.27      -14838.26      -11968.95
      -3729.338       3222.203       4902.135       3490.229       3170.139
       5238.926       6452.258       4365.142      -1011.214      -4920.388
      -3224.618      -992.8906      -3881.914      -8676.469      -10210.61
      -7532.649      -1976.688       4621.297       10238.29       13546.56
       12118.53       6460.871       54.04785      -2121.891      -1666.504
      -5856.695      -9547.768      -5071.328      -3507.395      -9252.174
      -10089.18      -2706.271       6301.068       9415.587       4693.298
       521.9160       1809.195       5087.249       4520.249      -1479.754
      -7918.441      -10950.58      -9756.491      -4375.604       19.87836
       88.98340       554.1904       3943.457       6940.883       7699.223
       5275.649      -876.4688      -6442.145      -7574.314      -7817.815
      -6022.679       501.8555       5743.586       6874.834       5242.793
       2681.600       4035.502       6726.312       5364.775       1520.289
      -2791.863      -5957.123      -7355.527      -7107.855      -3185.048
       802.3497       498.2319      -878.6309      -4569.648      -13426.35
      -17926.45      -8438.004       7372.883       12267.03       6105.313
       1647.363      -2803.322      -10163.41      -10931.93      -4868.814
       3424.969       14681.98       22342.49       19658.87       9064.480
      -7820.609      -34527.27      -66968.19      -89145.64      -91699.77
      -73230.47      -27162.19       42061.16       110293.5       154494.2
       161735.0       128598.7       71533.91       16019.05      -24723.00
      -49050.03      -61542.20      -71507.12      -88737.72      -107873.0
      -106002.6      -73767.66      -30679.25       4043.469       36927.59
       74587.31       102151.2       103411.6       71893.19       16732.05
      -33997.34      -60108.25      -59545.61      -39332.68      -16913.86
      -5301.259       1517.578       13360.06       31538.53       45963.73
       42322.36       23603.85       10756.16       12647.35       7300.656
      -29448.69      -79069.22      -108828.8      -107647.0      -75155.51
      -22219.72       37177.25       90289.12       114716.4       92888.91
       36381.41      -11455.82      -15682.37       15565.76       41147.56
       24135.87      -18487.29      -33303.42      -15637.96       1918.719
       12408.48       11554.07      -19956.20      -67233.50      -85050.92
      -61827.59      -24650.38       9739.359       46340.00       77926.95
       83014.20       65377.75       46478.03       30087.61       11868.08
      -5343.914      -19289.80      -31223.12      -43262.72      -47021.03
      -36217.41      -23461.80      -23280.14      -30173.00      -21806.09
       3518.422       20415.62       22326.88       25726.34       31777.13
       30780.34       26212.33       16250.07      -5958.555      -27208.31
      -32946.45      -31141.84      -25641.26      -4087.875       28077.09
       48857.00       49163.81       29555.97      -3416.992      -32309.72
      -39440.73      -27346.62      -14768.25      -12661.29      -17135.33
      -17707.79      -4252.422       14829.27       16408.14      -1327.304
      -11393.39       9021.391       49379.64       76052.72       72960.48
       51701.30       26365.98       1040.781      -23466.23      -48481.97
      -72020.59      -79595.59      -62916.27      -34781.57      -3974.977
       28448.67       47639.23       45828.81       39801.64       34238.45
       18384.40      -8227.469      -37917.86      -59605.67      -61685.98
      -40353.18      -5523.414       24344.24       32970.74       14414.92
      -13559.55      -24868.44      -14858.01      -1848.493       1345.646
       2111.977       8732.875       20552.72       26732.22       17050.57
       6482.953       13373.73       28761.81       33132.74       22874.21
       14819.72       19963.02       23962.54       14256.23      -465.0840
      -6584.660      -11708.45      -30244.89      -49125.75      -52223.14
      -48072.30      -45303.37      -40395.38      -26870.64      -3974.977
       15358.33       22380.40       30304.84       48684.59       61596.36
       51842.45       29807.28       14150.57       3403.332      -12990.56
      -31530.34      -44847.03      -52909.39      -54157.51      -46708.75
      -31353.00      -8847.539       13149.75       19433.62       11759.20
       11717.20       24821.20       35249.56       33464.66       28657.44
       28079.43       27100.43       24014.81       16677.78       4649.363
      -5216.141      -17826.55      -37219.20      -46172.28      -37733.08
      -26887.73      -17256.69      -4435.287       4768.067       6149.829
       827.4375      -12650.84      -20919.57      -8102.230       9793.098
       15606.67       19468.22       26997.38       34288.17       40876.82
       36409.81       14076.61      -9998.016      -26921.42      -42538.67
      -53250.56      -50021.59      -35113.25      -19826.22      -10382.78
      -3065.605       7519.172       23032.94       36528.73       36813.67
       28413.94       21762.20       8668.953      -13849.50      -24156.01
      -12578.85       3621.262       8217.705       193.9941      -6985.924
      -769.1250       12002.20       14937.83       7385.807       1360.207
       2735.355       9909.852       10953.22      -2791.926      -17360.68
      -23332.97      -22210.37      -8892.656       14255.86       35029.50
       40701.46       27234.77       8336.617      -2775.777      -7007.477
      -12251.66      -21528.53      -27786.66      -26275.77      -24414.22
      -24548.99      -14256.31       6532.188       23343.88       30053.14
       22061.78       2141.820      -14099.79      -16429.17      -6177.527
       4716.773       7576.588       6979.164       9563.219       17416.90
       25853.63       24468.03       8321.062      -11321.59      -21266.41
      -25438.28      -29356.81      -27740.51      -21769.13      -14273.90
      -1142.059       16451.84       30750.50       34933.14       31106.69
       24599.45       14545.40       5048.668       5657.703       12154.53
       12804.34       7147.783      -1223.797      -13349.52      -27680.41
      -37477.63      -35722.43      -17173.12       8937.625       26300.28
       29514.89       21862.09       11415.46      -1231.773      -19878.70
      -37058.08      -43510.89      -38635.38      -27665.49      -14252.16
       4667.867       28761.62       49287.33       59365.73       57573.19
       45893.02       26312.87       1979.820      -20799.69      -37538.45
      -44018.78      -37481.88      -25908.02      -19263.34      -16647.59
      -6743.863       12394.09       24780.11       24543.62       16598.15
       2245.387      -9399.461      -9567.305      -2184.693       2480.262
      -5584.945      -20542.59      -21431.84      -3222.703       15803.33
       23054.25       22387.39       17676.51       12505.71       10937.24
       5851.398      -9537.031      -22259.35      -18246.69      -4782.180
