     0.02500000      -122594.0       95486.97      -12345.00      -12345.00
      -30.00503       240.1949      -38.88000      -12345.00      -12345.00
       0.000000       29.17000      -12345.00      -12345.00      -12345.00
      -12345.00      -12345.00      -12345.00      -12345.00      -12345.00
      -12345.00      -12345.00      -12345.00      -12345.00      -12345.00
      -12345.00      -12345.00      -12345.00      -12345.00      -12345.00
      -12345.00      -31.32870      -68.47560       746.0000       0.000000
      -31.23600      -65.83800       0.000000       167100.0       0.000000
      -12345.00      -12345.00      -12345.00      -12345.00      -12345.00
      -12345.00      -12345.00      -12345.00      -12345.00      -12345.00
       251.3622       266.9755       88.33858       2.260048      -12345.00
      -12345.00    -0.02254163       0.000000       0.000000      -12345.00
      -12345.00      -12345.00      -12345.00      -12345.00      -12345.00
      -12345.00      -12345.00      -12345.00      -12345.00      -12345.00
      2008       318        11        13         9
       280         6    -12345    -12345     10809
    -12345    -12345    -12345    -12345    -12345
         1         7        13    -12345    -12345
    -12345    -12345    -12345    -12345    -12345
    -12345    -12345    -12345    -12345    -12345
    -12345    -12345    -12345    -12345    -12345
         1         1         1         1         1
LAJA    -12345          
        -12345  -12345  
-12345  -12345  -12345  
-12345  -12345  -12345  
-12345  -12345  -12345  
-12345  -12345  -12345  
-12345  -12345  BHZ     
ZL      -12345  -12345  
[...]
       555.2280       574.9028       579.9482       560.0459       524.5507
       481.2620       457.2488       437.1075       412.6412       354.0837
       285.9068       202.6838       124.8082       63.15120       44.44363
       43.14523       62.82318       103.8480       161.3750       192.0833
       218.0932       211.0608       169.7411       74.46213      -28.65741
      -129.9352      -191.4196      -203.6290      -174.0114      -136.9923
      -115.3764      -112.2665      -125.4674      -170.3596      -200.1613
      -226.3438      -229.1204      -264.0643      -313.4883      -378.7870
      -453.7740      -529.0854      -564.4451      -568.1763      -553.1340
      -521.5396      -452.7610      -392.3033      -344.0413      -331.4637
      -322.9525      -368.8406      -467.6985      -576.2664      -655.5205
      -700.8683      -696.8118      -641.7261      -581.7688      -566.8644
      -553.7209      -570.4226      -599.2635      -627.0558      -628.9236
      -639.2043      -656.6797      -714.9766      -776.8496      -854.3752
      -902.1384      -928.5593      -919.4187      -896.4202      -837.8447
      -758.5554      -677.9685      -640.8088      -612.4780      -620.0986
      -671.3865      -772.4053      -868.8086      -954.3076      -971.2795
      -946.2273      -875.9939      -819.3030      -793.0017      -788.8025
      -805.9714      -841.4365      -851.2500      -856.3691      -847.6870
      -872.6394      -921.1299      -988.7009      -1044.053      -1092.851
      -1108.396      -1085.433      -1021.168      -950.6335      -868.8340
      -792.2158      -726.8367      -704.2488      -708.4365      -779.4451
      -870.2212      -968.2998      -1029.363      -1031.232      -979.3374
      -892.3257      -833.9258      -804.1826      -780.9014      -796.1938
      -812.1389      -824.0232      -799.8228      -792.4138      -817.9180
      -867.1174      -915.7949      -961.0286      -988.7554      -987.1558
      -939.4932      -869.8198      -773.5944      -669.7241      -582.0840
      -526.7378      -490.3862      -500.8958      -561.8103      -653.7354
      -724.2739      -755.6062      -727.8942      -646.4153      -541.5879
      -483.3187      -439.4116      -415.6738      -421.1206      -424.7646
      -409.8956      -385.4067      -369.6368      -392.5142      -430.1033
      -475.8284      -507.2628      -520.6035      -491.5122      -425.2965
      -358.7233      -261.2580      -127.0745      -30.95768       12.89835
       44.35041       53.10533      -16.77594      -104.6006      -163.5739
      -181.2047      -156.3317      -68.85544       24.18637       76.87729
       125.2702       143.1889       125.9763       128.9728       149.4009
       182.4141       172.7226       132.1969       83.10968       51.49761
       12.48696      -7.159180       34.01862       102.4708       171.3885
       282.1140       394.1178       463.2539       499.8706       522.5323
       477.5039       399.3936       322.1921       247.8049       242.8163
       298.1078       374.7554       445.6277       490.5792       526.0919
       516.9493       494.9205       491.8447       512.3177       522.1213
       516.9569       476.2908       419.2659       370.3582       327.9807
       307.7273       343.7235       410.7637       480.3059       580.9795
       681.4194       746.9058       775.9587       782.9985       722.7744
       615.7368       531.3835       477.8606       471.3865       521.3235
       610.0601       677.8069       707.5703       729.9126       726.0535
       709.2209       690.7913       704.7729       719.0499       688.3063
       635.1033       579.0083       520.9138       475.1309       468.1008
       513.4672       568.0876       658.8276       763.3228       836.5845
       890.6521       922.7795       907.6782       821.7820       715.4563
       614.0078       566.5361       577.7883       627.1272       701.6218
       766.1289       796.9773       790.1423       765.4290       747.3850
       727.5684       732.7896       724.7946       675.8740       610.9442
       544.6035       468.9934       412.0870       421.1719       464.3530
       517.7799       604.7329       704.4199       757.5027       780.6155
       782.8494       731.3506       617.0044       490.2778       387.9440
       338.1938       344.1040       395.1991       461.9287       503.6401
       516.6561       504.3446       469.9254       427.8301       403.9908
       404.4939       369.0342       301.1155       225.5904       133.0642
       65.24701       34.15979       35.09518       77.81317       143.0635
       231.5681       303.8882       353.5856       374.9714       362.0856
       297.0580       184.3431       71.66249      -19.57549      -35.13107
      -13.37729       48.26801       113.8034       140.7736       157.7612
       140.9413       109.1949       80.31233       74.78653       75.65245
       38.14880      -16.98236      -84.65845      -158.7346      -218.9127
      -230.4188      -202.8501      -164.7637      -87.18934       15.72009
       87.05493       133.4697       152.7068       144.2162       64.79515
      -47.53760      -144.2408      -199.3756      -211.0733      -178.1261
      -96.57674      -35.32175      -15.09396       1.047043      -16.50195
      -42.75009      -55.90114      -46.83936      -63.54102      -99.12061
      -147.7266      -207.7657      -274.2609      -303.0704      -304.5480
      -266.9129      -204.8852      -119.8602      -22.75732       54.26694
       98.45145       117.6953       88.65102       3.618042      -98.25909
      -169.0233      -222.6622      -218.8782      -161.3169      -79.46767
      -34.93509      -7.699894      -3.051781      -26.38736      -47.81836
      -59.22775      -56.12315      -62.47534      -106.9174      -159.3370
      -223.9576      -279.3245      -312.4769      -303.5434      -260.0630
      -209.7595      -125.7309      -32.76199       25.42490       55.24768
       71.65087       28.52631      -77.10596      -172.6049      -257.4666
      -293.3523      -268.3054      -191.6522      -125.1175      -99.73752
      -75.42719      -84.68103      -114.4778      -132.9541      -130.6579
      -129.6276      -161.4780      -212.6517      -275.1742      -349.6301
      -405.9423      -442.8748      -435.3414      -388.9031      -315.2266
      -230.5372      -142.6937      -82.44138      -53.95589      -63.41495
      -129.2318      -241.0291      -351.4222      -446.5381      -481.0000
      -452.8655      -381.4877      -330.5896      -309.5862      -296.1940
      -323.9962      -365.8580      -384.7046      -389.2115      -401.1458
      -440.9194      -504.0996      -576.4623      -656.7180      -720.8457
      -754.5745      -734.4775      -690.2556      -625.7946      -532.7659
      -457.2466      -409.9065      -386.5908      -397.9958      -478.5815
      -591.6238      -686.9424      -772.9438      -784.1704      -732.4438
      -661.5833      -611.2048      -577.1282      -565.9897      -592.3569
      -610.4468      -622.6763      -615.9237      -609.8730      -643.6099
      -699.9246      -769.1196      -828.1206      -881.9285      -887.3545
      -848.5825      -797.6592      -723.2090      -616.3508      -528.5504
      -485.8730      -454.6107      -458.4049      -526.9761      -623.1541
      -712.7422      -749.7043      -731.7783      -669.8822      -579.0402
      -522.5878      -478.3434      -471.6406      -481.6595      -480.0520
      -468.7928      -448.7185      -424.7799      -433.3744      -476.1206
      -530.2090      -574.6616      -586.5032      -554.4417      -489.2146
      -399.5231      -283.6933      -169.3534      -85.02908      -14.24361
       31.40976       18.04408      -48.24167      -111.1636      -167.1210
      -182.9377      -139.7676      -50.06993       43.42712       98.86264
       144.0128       168.9255       170.9735       184.7921       205.6998
       239.5487       240.3915       212.3368       174.0673       125.8085
       87.84558       79.41907       107.3148       170.0329       249.9231
       370.4629       474.6448       544.4686       581.6564       609.8420
       567.7426       488.3020       404.7161       330.0374       316.6785
       349.2322       430.0859       523.2356       558.6976       580.2698
       574.5063       561.7825       548.6412       557.4475       569.6738
       555.7891       506.7554       446.3472       386.8651       346.2911
       335.3342       355.0504       401.2974       484.4705       577.9912
       662.6958       717.7024       760.9316       766.5027       687.5300
       575.1715       489.7310       410.8553       383.8827       435.8052
       518.6772       566.8811       593.1570       610.0933       597.8293
       563.7152       559.9736       568.7054       556.8936       516.6884
       469.8701       391.1584       323.2610       278.5371       272.9320
       293.8005       353.4053       435.3462       530.4961       611.7224
       662.7644       675.7600       658.1576       571.9130       467.6096
       365.9821       310.9980       323.4432       384.4790       463.5188
       501.4497       522.6597       536.7202       505.2881       485.4313
       479.8822       503.7810       499.5720       461.1943       392.6366
       317.1575       244.8189       194.7824       207.3685       255.9179
       303.8663       400.0234       480.3704       545.4607       580.3677
       600.1044       563.7441       479.3035       372.2455       278.5225
       227.7578       240.0059       296.0546       359.1522       377.9485
       407.7548       392.9384       354.2444       336.5215       350.2355
       331.6295       302.9003       249.4178       180.8245       88.05695
       26.82848      -9.037273      -4.884155       32.22467       105.7842
       185.0268       260.4110       301.6797       324.1187       319.2026
       275.4153       156.6299       56.36453      -27.84256      -55.55797
      -25.27597       48.64243       103.1265       129.9289       147.0181
       125.5911       80.22472       75.09349       58.18578       49.44084
       48.23534     -0.2018433      -98.88843      -158.0907      -210.0133
      -257.3670      -225.3283      -153.1012      -87.88297      -1.270386
       91.35675       148.5925       153.7138       147.2825       82.62241
      -19.91171      -121.9916      -191.8432      -195.4765      -159.4520
      -82.72826      -25.91446      -2.752548       25.89680       10.01624
      -21.77585      -48.11642      -47.62444      -46.32123      -70.13330
      -129.4714      -201.0855      -262.3851      -325.0117      -351.2792
      -313.2242      -264.4007      -189.5331      -91.31649      -7.922607
       27.31556       46.01585       18.63324      -61.10461      -163.4814
      -259.8083      -329.8501      -324.3966      -275.3695      -203.4014
      -151.6190      -124.1624      -119.3132      -140.7898      -176.2708
      -194.6564      -190.9781      -188.3918      -243.3221      -310.5447
      -370.7831      -429.5166      -490.2201      -499.8519      -457.8613
      -410.2125      -334.2399      -237.4619      -167.0819      -129.8448
      -125.1163      -156.2992      -247.1211      -353.6362      -457.0374
      -500.6621      -481.4907      -436.5149      -361.1572      -322.4786
      -300.4373      -293.2181      -316.1759      -340.6846      -355.2388
      -361.0322      -368.7781      -409.4507      -480.3579      -547.9155
      -598.8864      -640.9763      -637.6013      -591.1268      -528.3235
      -453.0930      -354.1866      -279.9391      -255.7652      -241.6816
      -275.5742      -375.8848      -474.8567      -557.1196      -592.3136
      -572.4357      -502.4578      -430.5769      -400.4916      -383.1931
      -392.4918      -415.0519      -426.7059      -414.6726      -404.7324
      -413.6481      -460.4183      -538.1748      -602.3873      -641.4819
      -659.2059      -638.8748      -595.6953      -527.8466      -426.4340
      -344.1082      -297.6072      -245.2831      -228.6952      -302.4762
      -412.3491      -482.6829      -550.7292      -574.9357      -519.9673
      -428.4291      -363.6866      -343.7924      -319.8251      -330.9996
      -356.2429      -375.6096      -363.2118      -338.8896      -362.3119
      -423.2334      -478.7550      -530.1589      -575.0659      -600.0430
      -548.1704      -482.5195      -396.2180      -306.2418      -205.7481
      -131.5372      -97.62344      -130.3575      -186.0438      -245.1333
      -313.8927      -435.7003      -296.7607       655.7617       4179.031
       14402.12       35433.72       61299.88       73857.15       56160.48
       2896.969      -71696.62      -122594.0      -85075.55       26152.27
       69822.23      -31499.84      -121951.9      -31409.50       88535.78
       37854.82      -20220.14       37062.17       17577.77      -64120.18
       3819.766       75144.40      -33405.52      -71862.98       47873.03
       22759.43      -82499.78       17387.36       95486.97      -40608.44
      -74475.80       60953.05       76658.81      -19900.23      -37838.68
      -7846.359      -23321.88      -5582.609       60002.41       29542.62
      -57193.34      -58575.04      -16864.56      -11429.14      -8550.156
       42742.48       63520.29       8107.801      -1734.336       31428.70
       15547.80      -29702.59      -59074.61      -35942.86       20084.86
       32491.15      -1627.887      -15023.68       5539.406       32533.35
       10656.28      -58654.75      -27428.07       63435.82       26169.35
      -43148.44      -11112.91       28845.04      -2177.758      -41186.14
      -8954.578       42215.02       26469.69       1811.562       22502.63
       14875.75      -29041.37      -25797.20       13882.18       12665.89
      -10635.64       404.4912       10718.16      -11016.54      -22301.87
       613.3350       12194.44      -12826.91      -19383.89       11160.28
       31774.19       26742.37      -5880.242      -36887.45      -16507.18
       6587.235      -4086.639       667.4688       19341.77       24453.86
       21611.55       12057.27      -2978.797      -20780.11      -35558.98
      -19735.51       13481.83       11789.77       34.80469       21620.78
       24067.59      -15980.99      -23384.19       2590.404      -3025.898
      -18471.07       553.4766       21152.62       6909.761      -5923.350
       121.4805       2599.748       7018.211       5340.715      -2806.473
       5520.567       5755.400      -14248.40      -9276.395       12044.48
       4360.066      -4800.031       11402.40       2233.164      -31253.42
      -21007.60       10975.93       5367.855      -18408.24      -16126.88
       11334.89       23408.09       10948.58       3342.408       4890.988
       8096.996       11536.11       8897.195       7104.792       6368.004
      -2534.805      -12013.96      -10755.68      -3604.910      -5480.042
      -7536.699       65.21582      -1516.679      -6547.389       6575.695
       15339.11       4917.314      -2758.785      -1939.910       5313.748
       7379.043      -11537.92      -22930.38      -6637.818       4238.715
       142.5645       2919.391       6415.629       2116.117       4363.643
       11108.20       7039.190      -2522.094      -5989.143      -4503.975
      -4738.125      -8094.068      -10849.26      -5703.461       1543.770
      -7171.284      -9267.967       6854.574       1236.490      -14467.43
      -2700.266       10749.99       3447.605      -6596.640      -3943.297
       5036.473       9657.219       10986.27       4425.941      -975.5801
       6949.361       6907.706      -3393.838      -5517.406      -6243.123
      -8617.475      -6103.378      -329.6270       6880.691       10847.79
       11800.23       10123.70       1763.858      -4059.196       1962.807
       1909.207      -13155.99      -13633.46      -4003.961      -11354.42
      -11053.25       3402.295       7338.854       8084.449       7553.420
      -92.78125      -1137.844       84.05273      -6768.506      -5963.976
       1298.487      -4443.709      -6463.392       5113.667       5771.436
      -2044.900       752.6426       5813.652      -1576.371      -12103.00
      -13517.08      -9125.584      -786.5938       7315.943       6593.001
      -1579.066      -18.73047       14223.14       14198.85       2731.606
       2062.755       4750.708       3484.178      -7276.609      -16730.89
      -5643.004       186.9199      -8102.686      -532.3672       12212.20
       10291.58       5916.166       2743.389      -321.6848       2800.172
      -2461.348      -17052.20      -15780.66      -7578.037      -8957.420
      -4644.344       9071.703       15629.39       8916.805       1220.309
       3832.912       6705.934      -2380.604      -6791.473      -478.7461
      -8292.113      -20002.98      -5240.156       15774.58       17614.11
       10884.30       4945.137       196.2695      -8240.312      -16333.72
      -6597.479       5942.514       2871.711       1706.649       5135.508
       121.2117      -1989.699       4213.646       1697.949      -7811.957
      -12793.68      -7216.998       10830.71       9483.805      -11593.02
      -6114.980       12260.69       12435.59       14878.81       16572.94
      -1545.209      -9268.818      -2883.832      -12082.64      -14579.10
       4385.400       10920.42      -5222.412      -9932.270       5884.701
       6860.617      -4624.835      -3195.781       1536.545       2664.269
      -933.3809       2197.664       16289.86       7133.691      -22286.32
      -23074.05      -2472.355       8931.809       18105.57       11238.86
      -8689.100      -2258.942       3776.863      -18421.36      -15551.17
       12417.35       13087.57       5397.761       8642.602      -1270.479
      -13141.67       350.8501       8693.973      -14508.27      -8786.688
       33712.74       24876.80      -11492.90      -3972.863       3681.715
      -15271.36      -11591.83       8622.572      -1496.316      -17276.89
      -262.4219       9543.092      -4131.060       1970.180       10137.29
      -4850.924      -10260.16       2437.840       14447.85       16264.84
