     0.02500000      -41299.93       35539.98      -12345.00      -12345.00
      -30.00000       250.0750      -48.50000      -12345.00      -12345.00
       0.000000       36.89000      -12345.00      -12345.00      -12345.00
      -12345.00      -12345.00      -12345.00      -12345.00      -12345.00
      -12345.00      -12345.00      -12345.00      -12345.00      -12345.00
      -12345.00      -12345.00      -12345.00      -12345.00      -12345.00
      -12345.00      -31.80160      -69.32410       2472.000       0.000000
      -31.23600      -65.83800       0.000000       167100.0       0.000000
      -12345.00      -12345.00      -12345.00      -12345.00      -12345.00
      -12345.00      -12345.00      -12345.00      -12345.00      -12345.00
       336.9924       258.3718       80.18580       3.030003      -12345.00
      -12345.00    -0.06661917       0.000000       90.00000      -12345.00
      -12345.00      -12345.00      -12345.00      -12345.00      -12345.00
      -12345.00      -12345.00      -12345.00      -12345.00      -12345.00
      2008       318        11        13        18
       900         6    -12345    -12345     11204
    -12345    -12345    -12345    -12345    -12345
         1         7        13    -12345    -12345
    -12345    -12345    -12345    -12345    -12345
    -12345    -12345    -12345    -12345    -12345
    -12345    -12345    -12345    -12345    -12345
         1         1         1         1         1
LEON    -12345          
        -12345  -12345  
-12345  -12345  -12345  
-12345  -12345  -12345  
-12345  -12345  -12345  
-12345  -12345  -12345  
-12345  -12345  BHN     
ZL      -12345  -12345  
[...]
       3271.365       1591.818       438.6565       1099.038       88.81274
      -711.2876       628.4062       547.8955       536.2314       3087.500
       1750.985      -2570.713      -1209.040       3308.470       4506.606
       3515.336       2738.120       1808.037      -2022.393      -5387.933
      -1562.229       4761.912       5967.533       3404.404       1413.014
       3042.926       7421.443       8598.643       2725.077      -4313.213
      -4978.260      -7.940430       2865.390       177.8065      -1012.578
       2424.008       4211.454       1639.605       707.2500       2647.744
       3682.002       4183.030       1814.860      -2536.031      -3561.066
      -2897.514      -3354.271      -775.6934       5171.778       5951.329
      -132.6309      -5011.036      -2866.442       2209.503       2455.194
       949.6152       2966.403       2731.646      -1899.871      -2622.342
       747.5913       3007.731       1481.166      -4379.631      -6274.461
      -1846.002      -847.1870      -3242.516      -94.46680       4866.152
       3639.471       1512.454       1433.765      -64.93457      -2864.189
      -2304.705       2184.746       2870.744      -794.7812      -3016.094
      -2346.782      -452.9144      -27.66602      -1010.379      -2457.292
      -4622.090      -4053.532      -410.5186       711.1660       1175.656
       3032.226       2220.253      -1204.416      -2774.361      -2388.088
      -2909.368      -2394.390      -407.4240      -102.8906       1116.580
       3341.559       2695.257       409.2734      -1860.838      -2799.099
      -1400.336      -320.0234      -2556.172      -4545.195      -2642.592
      -849.7362       112.2571       507.6318      -871.2178      -3022.353
      -4519.350      -2765.403       734.8562       817.4404      -2514.975
      -2241.708       1051.673       1093.175      -930.4521      -3416.287
      -3708.325      -1097.958      -302.2803      -1349.641      -2364.550
      -3855.028      -3755.268      -3043.351      -1572.227       1954.811
       2027.911      -1257.443      -1033.866       2208.299       2517.409
      -913.0803      -1882.390       1954.703       4790.348       3510.065
      -607.3721      -4260.751      -4611.296      -4006.413      -2645.254
      -449.4590      -1326.624      -3448.317      -1976.351       1886.688
       2893.767      -458.1016      -1911.071       1093.213       2600.944
      -1380.361      -5836.379      -4229.384       140.6660       3329.303
       4460.867       278.0078      -4479.158      -4257.568      -886.1738
       1350.854       750.4143       767.0059       1467.395       896.1982
      -817.6318      -2172.144      -1780.510      -846.3997      -357.5493
      -893.6245      -2085.125      -2441.111      -2487.880      -2477.477
      -1641.178       424.2861       2789.161       1713.000      -1194.765
      -712.0151       2196.219       2800.021      -285.6880      -2311.133
       252.1133       3581.344       3117.970      -417.4414      -1464.126
       526.0894       1258.276       1709.026       2452.348       35.29395
      -2727.013      -1440.202      -466.8234      -1189.487       555.5674
       1902.089       580.0889      -1207.298      -3707.850      -3551.827
       17.41699       2228.518       4165.316       5386.317       3691.681
       163.3682      -3383.773      -2983.716       152.4971       1487.103
       2433.816       2328.208      -525.1846      -3069.213      -1713.789
       1813.325       1894.047       1281.429       3029.110       725.4858
      -2931.547      -181.2598       3088.279       2376.400       1670.172
      -297.6846      -3413.253      -2519.543       2844.896       5228.589
       896.2266      -3633.471      -4260.589      -181.9316       4277.525
       1572.469      -2856.632      -2112.365       1443.950       3609.501
       2136.188       114.4810       842.2905       1828.115       484.6133
      -2936.288      -5349.826      -3257.284       1221.943       2287.047
       629.5459       1751.397       3840.615       1592.694      -2402.436
      -1929.161       1170.435       1031.199       698.6055       3541.066
       5198.184       3576.413       1603.901      -136.4043      -2026.948
      -1183.457       2257.276       1299.984      -3660.781      -2704.122
       1663.797       1609.636       1126.052       2059.960       1972.230
       660.9829      -1830.253      -2186.085      -597.8859      -401.3730
       1218.861       3031.016       2232.449       1068.938      -26.41211
      -1749.753      -3043.759      -590.1221       3812.284       1973.628
      -3129.412      -1578.620       2070.692       189.9231      -1347.272
      -434.6560      -980.5179      -459.2964       448.5276       279.3252
       2672.255       3917.562       1665.521      -201.5342      -2894.893
      -3431.776       1272.718       4050.122       2962.109       475.0669
      -1364.340       409.8738       1845.238      -1330.595      -3871.424
      -1798.418       914.7842       2668.946       4245.582       3025.596
       143.7026       1083.853       1195.523      -3722.580      -2743.683
       2842.192       3250.649       715.8640      -1453.838      -1061.097
      -81.22656      -2693.213      -4662.394      -1849.797       2207.231
       3355.134      -19.37402      -4640.578      -2395.721       4085.979
       5357.905       3000.976       1263.185      -945.4326      -2872.719
      -1112.413       1907.705       563.3164      -3499.976      -4271.458
       239.6216       1411.873      -2545.257      -294.3379       4597.831
       598.7441      -7308.430      -8981.170      -3157.310       2776.416
       2586.198       1703.012       3003.160       3379.027       3968.479
       2226.652      -2806.123      -7654.438      -6934.883       1611.879
       7322.741       3703.850      -1623.303      -1015.775       1794.286
       131.4893      -3374.065      -4901.691      -4052.207      -712.8564
       3395.640       3612.041       1586.806       574.4624      -1200.600
      -1534.598      -1639.448      -1660.849       1943.582       4410.440
       1690.625      -4793.072      -8559.072      -3774.644       2281.122
       439.4189      -3331.047      -763.3574       4102.926       5581.082
       3680.876       608.4160      -2226.211      -3376.985      -1961.972
      -1384.599      -4142.680      -6908.145      -4198.736       366.1592
       1494.632       2127.307       1883.889       952.1108       1658.296
       1128.402      -683.6396      -1126.718      -176.8698       15.47333
      -565.0444       668.0181       2307.024       1658.789      -1649.842
      -5132.055      -4182.162      -728.3750       1577.706       1891.501
      -390.4116      -1446.794      -416.9500      -857.1636      -1420.723
      -1147.409      -1908.509      -2374.415      -841.7954       569.9702
       760.9907       1657.438       2876.198       1912.025       1744.007
       1671.938      -1083.015      -1887.402      -566.4448       418.7552
       332.3955      -1110.335      -2022.733      -2623.682      -3534.596
      -2948.728       976.2891       4009.800       1714.827      -1430.316
      -1082.018       2745.349       5632.418       2535.274      -1490.087
      -357.3540       1393.615      -225.7842      -1455.145      -759.1343
      -420.3535       774.6914       3831.381       3077.283      -1984.506
      -4672.775      -4302.541      -3037.445      -165.9023       2877.545
       3387.471       2684.800       1330.057      -990.1852      -865.1279
       1050.141       1095.602      -419.2114      -2490.973      -3065.050
       287.7686       3637.774       2202.710      -672.0314      -316.3232
       1176.081       238.6729      -1714.736      -1256.187       1936.214
       4766.028       3333.253      -477.4851      -1749.956      -43.99463
       2158.009       373.9980      -2492.085       373.2173       2538.271
      -554.1425      -1326.611       2019.271       2333.918      -1612.946
      -758.1094       5534.023       6679.938       1806.177      -1990.574
      -785.8701       1989.241       1186.901      -462.1672      -264.4412
      -590.7595      -1573.630      -324.3735       1292.144       699.1240
       1106.152       2454.406      -197.4932      -2847.646       165.9316
       574.7700      -2974.277      -1740.839       2026.935       1843.068
      -919.6445      -976.4893       1900.940       1442.204      -978.0703
       1850.697       6095.389       6925.396       3874.285      -3124.092
      -5927.978      -1196.378       1685.803      -1010.042      -2731.169
       283.3062       2207.757       249.8704      -888.2568      -779.1479
       425.9648       2500.164       2591.739       1013.461      -887.0027
      -1528.806      -859.2780      -1020.439       672.3008       3697.311
       3995.564       3338.397       2733.562       1206.721      -600.8545
      -1855.844      -3343.902      -4099.610      -1787.433       1330.244
       1522.019      -21.79688      -520.6609      -60.38281       1362.305
       2904.712       2456.122      -176.4058      -2265.069      -1658.879
       230.2031       2201.850       4857.650       4993.997      -807.4453
      -7543.488      -7500.246      -1445.771       3361.666       4668.465
       3647.867       1301.591      -879.9014      -2937.407      -3364.566
      -1566.686       373.1816       1881.341       1530.771      -687.3416
      -1314.167      -702.3350      -1746.076      -3251.872      -2219.497
       679.9370       1824.209       1366.713       2312.457       1784.733
      -2231.530      -4217.084      -2681.956       29.50684       2545.624
       3606.012       2363.276      -1970.287      -4579.562      -2990.513
      -1912.852      -496.7988       2643.854       4529.812       2422.107
      -3577.922      -7013.333      -4674.930      -971.9058       998.7620
       498.3906      -1592.743      -1939.593       302.6313       189.7051
      -2825.642      -3508.747      -2563.317      -2411.436      -1349.406
       385.9482       720.2734      -417.8047      -605.7734      -243.1256
      -882.7930       3.971191       1356.438       352.2959      -658.1838
      -655.6296       1086.438       2514.837      -671.2974      -3263.887
      -1450.767      -1933.572      -4259.759      -3164.894      -650.6812
       1629.270       1811.789      -100.4587      -176.8828      -815.3096
      -2490.477      -2983.732      -4345.597      -4413.656      -1692.198
       87.42065      -118.8203      -1867.376      -4258.164      -6593.559
      -7446.438      -6163.314      -6310.330      -9694.852      -13223.34
      -12885.03      -8998.199      -3885.117       961.6243       1818.412
       348.2573       1138.492       4087.719       9351.637       15659.04
       19839.90       18780.42       11041.45       2334.297      -5052.742
      -11389.01      -11947.60      -5881.727       4190.531       12040.33
       10093.00       1314.664      -9264.586      -19295.83      -21027.92
      -12887.74      -1132.828       12838.74       26820.16       35144.48
       35114.09       29230.35       22839.26       13348.20      -4681.234
      -23767.17      -34742.91      -33336.04      -20785.98      -4248.332
       5784.584      -885.4375      -14908.32      -17623.72      -7805.979
       3114.170       5293.324       5117.285       14667.69       25704.72
       21713.34       6412.735      -5096.395      -9100.354      -8584.238
      -1790.955       6343.312       9094.686       10697.59       11003.45
       6297.238       127.9404       1657.211       12313.85       13500.68
      -1815.625      -16609.59      -26234.75      -34906.81      -30432.78
      -7103.883       18661.77       30671.37       28603.21       18488.60
       2485.477      -13673.60      -15985.15      -648.8828       16536.22
       19653.67       8345.221      -3530.552      -4264.850      -248.5491
       1715.236      -1211.992      -14429.47      -27838.20      -30070.17
      -24801.88      -15940.82      -4034.062       9318.391       16039.64
       11844.89       9197.578       17759.22       27029.38       24338.71
       8823.172      -5582.715      -5939.467       4247.152       17120.51
       20649.65       5631.348      -10914.03      -10682.04      -3272.957
      -4836.566      -15800.45      -23699.13      -23213.97      -22247.58
      -21384.75      -11844.96       4607.035       16727.22       21166.79
       20924.34       19404.96       12864.79       257.9336      -5801.668
      -3253.310      -2630.592      -4347.133      -5488.285      -7227.684
      -7614.968      -2204.957       6237.402       15563.30       29419.66
       35539.98       21734.41      -2933.398      -27296.02      -41299.93
      -34010.36      -6518.068       14475.93       10281.15       1413.783
       1279.100      -5311.188      -17050.24      -15387.12      -765.0078
       11890.73       15161.13       14143.65       13774.11       5833.605
      -11603.77      -23706.02      -18606.62      -137.9336       14566.25
       12745.37      -1843.473      -17730.81      -23649.57      -13401.73
       11160.02       33376.11       26867.80      -4353.027      -22477.19
      -9221.074       18790.42       31161.66       17597.54      -2477.877
      -7961.227      -2515.418      -6949.262      -19434.81      -18456.35
      -7180.102      -1065.033       4673.934       13465.98       13925.44
       4623.647      -1734.944      -1577.855      -3484.084      -7620.606
      -5772.378       291.4517       32.95898      -6512.734      -10387.83
      -12377.89      -12970.58      -3199.574       11648.74       22060.77
       25200.44       16321.45      -707.7031      -14881.50      -16099.39
      -3637.770       5387.917       3139.243       3297.963       4805.026
      -2930.771      -7693.300      -2333.730       3319.432       5326.669
       655.2197      -4162.686       2749.096       9008.039       2913.459
      -6954.172      -10811.57      -10952.36      -14049.08      -11116.05
       5444.180       16923.91       13097.04       5822.049      -1609.066
      -7509.912      -6509.402       1201.133       10866.21       13346.81
       9311.010       2236.441      -10078.78      -18824.68      -14562.83
      -4960.669       130.1548       729.0117       862.0006       1148.184
      -1691.140      -4739.896      -642.1816       5303.526       4600.357
      -366.4102       2675.516       17102.37       21927.15       2915.750
      -22376.84      -29824.47      -15736.11       5320.312       15328.21
       7302.962      -4571.666      -8475.666      -8877.584      -6075.234
       1231.689       5913.604       3831.092      -557.2163       348.3711
       6092.018       6543.911       2136.818       2437.333       2715.836
      -1467.765      -220.4238       7201.463       6559.259      -2685.260
      -5462.392      -815.4583       1824.759      -1093.930      -7837.875
      -13121.80      -16057.74      -13367.37      -3298.548       4404.394
       3147.170       769.8594       4789.771       9052.688       6512.373
       1002.913       2260.809       7635.894       5725.459       2948.365
       4142.787      -1286.340      -11185.09      -12615.71      -5644.964
       900.9170       3495.047       3692.691       1412.994      -3612.229
      -6070.648       392.0859       11645.01       13197.97       2110.391
      -5009.014      -4443.934      -4203.363      -2857.656      -1493.840
      -1137.714      -728.7925      -2085.209      -2519.142      -1373.357
       2.495972       594.4187      -217.6895       2131.525       5014.971
       5551.326       10160.36       11972.50       6081.360       1672.779
       847.7100      -1332.271      -5042.760      -6652.270      -4990.328
      -1765.122      -956.3223      -3613.131      -5992.015      -5291.989
      -1745.608       1116.309       2226.332       3653.072       3660.745
       643.3877      -3940.814      -7713.679      -1753.121       12524.99
       17709.87       9570.012      -2621.252      -11244.87      -8130.488
       193.5347       1285.062       1562.328       4375.168       3934.534
       3583.637       1632.104      -5644.029      -9652.215      -8215.898
      -7185.304      -5421.365       289.2676       6248.746       8025.166
       4723.594      -5131.766      -11216.29      -5030.153      -486.5693
      -4748.035      -6761.358      -1833.061       4892.191       7653.029
       6316.305       4095.667       1175.241      -3124.529      -2433.492
       4285.715       8297.396       9825.875       10282.59       5811.968
      -2322.755      -3496.814       6187.912       8796.588      -1322.383
      -8317.480      -8295.471      -6807.479      -4675.856      -3299.669
      -573.3008       6301.273       10648.93       6484.295      -939.5137
      -4597.055      -5289.163      -4635.178       1465.695       10637.11
       11535.52       3556.850      -126.1777       5359.072       6250.291
      -3269.928      -7425.277      -194.0859       6037.570       2734.013
      -3571.559      -3648.127      -1215.376      -915.3770       1148.769
       4343.908       3077.287      -2899.949      -7358.338      -8642.172
      -7797.127      -4756.863      -563.3347       1585.773      -1332.638
      -3686.125      -1818.247       1242.753       4303.188       6236.879
       6120.893       4789.021       3531.373       3699.225       2637.894
      -3363.018      -7376.700      -3128.889       2040.586       2364.017
       1052.971       1664.211       3899.696       4018.442       2594.985
      -441.3291      -4131.471      -2050.964       2140.042       27.91797
      -5662.049      -5801.542      -119.6143       913.7002      -4026.798
      -6034.860      -2245.123       2512.647       3847.417       3960.204
       5018.990       2894.471      -1763.209      -3548.113      -3419.731
      -1370.357       3985.752       5545.762      -1033.012      -6861.557
      -4537.982       1764.499       4485.377       2924.990       1813.828
       484.4993      -1004.978       27.78662       2065.753       172.6680
      -5682.273      -6554.130      -2464.039       942.5325       2047.492
