     0.02500000      -46377.76       48260.96      -12345.00      -12345.00
      -30.00000       250.0750      -48.50000      -12345.00      -12345.00
       0.000000       36.89000      -12345.00      -12345.00      -12345.00
      -12345.00      -12345.00      -12345.00      -12345.00      -12345.00
      -12345.00      -12345.00      -12345.00      -12345.00      -12345.00
      -12345.00      -12345.00      -12345.00      -12345.00      -12345.00
      -12345.00      -31.80160      -69.32410       2472.000       0.000000
      -31.23600      -65.83800       0.000000       167100.0       0.000000
      -12345.00      -12345.00      -12345.00      -12345.00      -12345.00
      -12345.00      -12345.00      -12345.00      -12345.00      -12345.00
       336.9924       258.3718       80.18580       3.030003      -12345.00
      -12345.00      0.1011664       90.00000       90.00000      -12345.00
      -12345.00      -12345.00      -12345.00      -12345.00      -12345.00
      -12345.00      -12345.00      -12345.00      -12345.00      -12345.00
      2008       318        11        13        18
       900         6    -12345    -12345     11204
    -12345    -12345    -12345    -12345    -12345
         1         7        13    -12345    -12345
    -12345    -12345    -12345    -12345    -12345
    -12345    -12345    -12345    -12345    -12345
    -12345    -12345    -12345    -12345    -12345
         1         1         1         1         1
LEON    -12345          
        -12345  -12345  
-12345  -12345  -12345  
-12345  -12345  -12345  
-12345  -12345  -12345  
-12345  -12345  -12345  
-12345  -12345  BHE     
ZL      -12345  -12345  
[...]
      -598.9199      -618.3044      -619.4547      -631.1692      -632.0106
      -651.1411      -645.1538      -658.0251      -656.8473      -667.1716
      -662.5669      -672.9575      -664.0161      -670.8269      -664.4734
      -674.5649      -666.9609      -675.7241      -666.5507      -674.6753
      -663.1462      -666.4916      -652.8479      -659.6921      -647.0837
      -652.2551      -640.4309      -649.0236      -635.8878      -642.8848
      -631.4277      -633.2289      -621.9546      -632.0266      -616.4163
      -619.3916      -604.7872      -611.7092      -602.6587      -608.0771
      -595.2029      -598.0430      -579.4335      -584.6759      -572.9263
      -582.4854      -569.4034      -568.7770      -553.7932      -563.7397
      -549.3566      -549.9333      -533.4528      -536.2625      -516.2220
      -516.0713      -499.1294      -497.2500      -476.8979      -478.6071
      -460.9556      -457.1631      -432.0815      -429.9659      -406.2194
      -395.7014      -366.4703      -359.1648      -331.2329      -315.0321
      -284.2215      -275.6403      -244.9448      -224.4952      -187.8854
      -174.5190      -140.2627      -121.5428      -87.85260      -71.58143
      -29.06544      -6.782272       31.24774       48.65121       86.56836
       109.2172       151.3073       169.2774       207.5820       226.7239
       269.8395       291.3177       327.5848       345.4639       385.8654
       399.9586       435.3892       449.9547       483.8304       492.6920
       523.4227       539.7205       576.3329       580.0914       604.3047
       609.6859       641.2939       647.9365       674.8906       680.6418
       704.4468       707.2878       735.3279       730.9714       760.6436
       764.3423       785.9241       783.4492       803.3638       800.2966
       823.3516       822.7139       847.5081       837.2324       853.9553
       851.1499       867.7241       854.9744       877.6021       872.7183
       883.9292       866.4668       883.9297       876.2996       887.7759
       873.0034       886.0425       871.1892       880.2368       864.1072
       875.9434       857.2703       870.5745       854.9966       864.7209
       851.6201       862.7732       845.6301       857.2041       841.5222
       854.1448       840.0549       849.9468       833.5828       847.3997
       832.9504       844.4297       825.3240       836.8330       818.4966
       825.0166       807.5352       820.0046       800.0898       807.8679
       784.0828       791.8088       773.7603       781.5781       753.2048
       762.6021       747.5002       752.6174       716.5908       720.7429
       700.2617       700.1177       671.7065       677.1611       643.1544
       638.9775       613.1534       613.8157       577.8419       572.0569
       534.6278       529.2250       494.7268       489.7537       449.0972
       444.4001       409.4060       399.6725       358.5801       350.5514
       307.8431       299.7191       263.1083       251.0549       204.6812
       192.9072       150.2414       138.9954       99.70210       89.49271
       43.62817       34.55576      -9.769333      -24.32686      -64.96075
      -75.17352      -124.0745      -132.8364      -175.7488      -189.6863
      -236.2775      -247.8732      -290.9443      -303.3987      -347.3167
      -361.5151      -401.6311      -408.2424      -451.5328      -459.6460
      -501.0619      -506.8711      -544.9875      -548.4253      -583.0985
      -587.8701      -623.9714      -620.4941      -656.4454      -652.5977
      -685.2144      -680.7346      -708.7510      -699.8354      -735.1484
      -727.5066      -753.3621      -739.2842      -762.9678      -749.5715
      -777.3042      -754.9851      -773.5671      -761.0327      -782.8237
      -757.9470      -773.7188      -755.7097      -774.4033      -755.7480
      -771.6558      -746.5901      -765.1130      -739.3718      -751.5928
      -730.7812      -750.8745      -729.6743      -742.5215      -715.4460
      -730.7520      -708.5479      -725.2134      -696.6152      -706.2590
      -680.4794      -689.7504      -658.2963      -672.0400      -643.2705
      -647.1880      -612.5479      -617.2004      -583.8669      -592.3358
      -559.6460      -564.5841      -532.8855      -535.6440      -496.4769
      -496.7660      -463.8552      -467.7400      -430.1753      -427.5984
      -387.6732      -388.3606      -350.3253      -350.3698      -313.6022
      -314.5829      -278.8763      -285.7074      -249.9514      -250.5989
      -214.3826      -219.9616      -186.9305      -194.6488      -158.9592
      -165.1929      -131.1293      -144.4273      -112.9204      -121.2644
      -88.08755      -103.0933      -72.51234      -81.32410      -49.30023
      -73.05318      -45.63089      -60.03041      -34.68839      -53.60855
      -25.77194      -45.72475      -25.39102      -49.66389      -23.49527
      -44.14516      -21.93140      -46.59890      -24.47141      -43.18175
      -19.45610      -45.08141      -27.89149      -52.36238      -27.31398
      -47.17088      -26.13100      -49.06830      -28.01450      -50.48573
      -28.56355      -50.54030      -29.01620      -54.46420      -32.92987
      -51.61646      -25.28481      -46.02063      -22.75225      -43.89462
      -16.88083      -37.66590      -8.820621      -27.22507       2.619316
      -19.37069       4.492966      -17.54955       6.588001      -18.16389
       7.975829      -15.33643       15.78618       1.484077       30.39469
       9.496513       40.26236       13.46072       23.87951      -15.42566
      -3.217022      -29.63198       11.91982     -0.3596764       28.68826
       6.001717       37.86905       6.725452      -2.675385      -52.55035
      -21.40710      -51.21704      -43.23735      -70.02527      -48.05643
      -87.00534      -62.51288      -90.05573      -76.92816      -119.1074
      -104.2977      -126.9558      -91.37479      -135.4149      -140.1960
      -188.4466      -164.4006      -186.3588      -174.6765      -226.1867
      -205.2400      -221.6765      -194.3868      -228.6199      -210.8388
      -245.8585      -222.3329      -243.5530      -221.7931      -259.0399
      -239.4473      -272.0602      -244.5669      -267.7796      -235.5793
      -250.7098      -228.3823      -253.5322      -213.0859      -224.9918
      -193.1937      -211.1955      -172.6336      -195.0211      -162.3211
      -165.1806      -123.2006      -151.6251      -113.4702      -105.1308
      -58.55144      -79.72973      -39.64383      -35.12125       17.21325
       5.710434       48.23315       44.60413       86.77536       75.16623
       123.4993       116.1902       147.0828       134.6016       184.7062
       182.6057       221.3787       209.2958       261.4139       260.0797
       297.9860       285.9263       330.6324       321.1123       364.4703
       350.5043       392.1664       377.9269       422.1783       412.4213
       458.4139       453.6392       508.0293       494.2295       535.2444
       527.9069       584.4225       566.8986       603.2097       604.1804
       657.4758       640.3394       687.7700       682.5015       726.4739
       710.1230       756.4341       748.8887       790.5532       777.9780
       819.7825       805.7542       844.7629       826.0420       863.6404
       850.0618       888.6514       869.5964       900.9336       876.3752
       911.0505       885.9321       904.5359       878.2390       914.1082
       881.5356       900.9746       871.9656       897.6917       857.4094
       880.8022       853.3967       874.8738       829.2983       850.4756
       816.9343       829.3975       784.5632       810.0483       769.6582
       783.4192       745.8943       763.6372       723.9331       741.3853
       697.2446       716.0588       678.5912       695.6804       654.4309
       668.1515       624.9800       644.4006       605.7534       619.1829
       572.3118       593.8988       554.4426       563.7742       519.7520
       544.0325       500.3594       510.2412       463.1678       478.8103
       435.4089       446.8750       402.1620       419.1039       369.5104
       369.7687       322.0439       336.4041       281.9956       286.9808
       245.3674       252.2349       200.6948       206.4700       155.3753
       166.0159       117.0699       119.3187       66.82463       76.11831
       24.01819       26.58577      -26.01614      -19.96024      -69.40053
      -65.14441      -119.0947      -112.2352      -163.6173      -163.1650
      -217.3589      -205.2722      -247.7931      -246.7551      -298.4647
      -289.1910      -332.5416      -318.5509      -368.9983      -365.0259
      -407.2122      -393.2847      -440.3698      -430.7905      -472.0494
      -456.5999      -503.6127      -490.6824      -531.8307      -511.8618
      -555.5010      -543.4551      -580.3821      -559.1235      -607.4912
      -593.2894      -626.5131      -605.5298      -643.4819      -621.2667
      -657.1948      -634.5927      -672.9222      -647.1321      -677.8894
      -658.2401      -692.4055      -664.4451      -698.0529      -672.4539
      -704.1396      -685.1853      -721.0823      -693.0547      -725.2600
      -705.9536      -736.7026      -714.4812      -749.3582      -729.0242
      -768.0488      -749.9353      -783.1462      -760.9812      -799.7148
      -785.5835      -825.1335      -806.5754      -840.6443      -827.9158
      -870.5095      -851.6655      -892.4668      -879.2021      -919.0615
      -906.1213      -947.8521      -935.6423      -975.8032      -958.6711
      -995.3328      -971.2603      -1003.416      -983.7998      -1019.443
      -993.9163      -1027.176      -1000.344      -1022.654      -987.9751
      -1014.694      -981.8230      -1001.360      -963.7021      -979.4666
      -940.3701      -957.7649      -914.8650      -926.4253      -885.0283
      -894.8853      -850.1313      -855.6096      -802.2017      -807.6973
      -759.1533      -760.5776      -706.3074      -707.9978      -660.5044
      -664.2755      -617.2107      -618.9573      -563.6746      -565.8668
      -515.8176      -517.6582      -473.8263      -477.7841      -430.9746
      -433.1000      -382.3380      -381.8066      -332.0324      -329.3821
      -279.6332      -285.5134      -239.2520      -239.5190      -191.6790
      -193.6465      -147.0158      -147.2062      -99.22385      -97.40056
      -50.09804      -52.74841      -7.909189      -10.87047       28.64693
       21.11151       70.41095       72.33981       114.4117       105.5448
       148.3990       140.2598       183.5515       184.8852       222.8054
       211.7248       261.3352       257.6250       301.7474       300.4308
       342.0583       336.4430       377.7826       374.0465       416.2515
       406.8212       456.0609       455.8884       493.2185       485.0420
       527.0535       522.0293       566.5986       560.2161       594.7551
       586.6323       626.0505       612.9133       646.1128       638.5776
       676.2821       662.2427       689.6401       675.9988       713.5195
       695.2456       723.6614       710.9111       737.7827       715.0637
       735.9409       715.4146       741.3596       716.0249       731.6548
       709.3550       731.8838       704.9609       716.8652       684.4082
       700.6462       667.8176       680.0343       648.7670       655.2827
       615.6746       627.6132       592.6221       599.8832       560.5638
       561.0750       519.4707       529.6023       488.1621       488.2676
       447.3575       453.0256       406.6461       407.8379       371.6648
       381.7626       340.3538       340.4508       298.5067       308.0261
       268.8600       279.7454       241.9420       246.1918       205.1909
       214.8322       183.4374       203.0731       165.9568       176.2416
       141.4656       161.9988       127.2003       141.6651       114.6422
       133.0159       104.2261       127.5201       98.97443       118.6390
       94.32251       123.8798       100.6499       124.5435       104.2595
       133.8961       114.2768       145.1462       127.6456       151.6448
       134.9141       171.3444       157.6663       189.7931       172.8889
       209.7562       197.9644       227.6671       214.4157       251.1990
       240.1107       273.7568       247.6960       237.7125      -17.53223
      -905.9365      -3237.219      -7629.859      -14453.02      -20875.30
      -19760.84      -6671.391       14665.53       34492.63       34827.93
       6719.359      -31477.38      -45761.43      -20187.29       21580.02
       47451.39       38844.71      -1656.172      -35422.18      -33956.58
      -4112.797       34133.30       48260.96       8119.102      -46377.76
      -38506.74       17505.12       45286.91       21006.64      -18298.21
      -37955.53      -20943.77       22576.41       39087.15       8348.609
      -31895.11      -33749.90       7638.438       32893.23       9325.898
      -22109.62      -26059.26      -9294.953       18843.07       41378.36
       26147.11      -16382.34      -34784.30      -5270.664       32383.73
       30953.67       4580.828      -13815.29      -20580.54      -16060.81
      -688.2266       9582.161       4377.248      -932.3828       4519.312
       14085.31       8039.531      -17579.85      -17762.01       15625.71
       20220.93      -20488.74      -34060.92       13184.80       36456.88
       2805.234      -25401.13      -18641.64       5407.586       15850.25
       2580.199      -15183.48      -8194.967       13504.59       11001.54
      -10121.81      -4474.637       17659.55       9104.609      -11125.57
      -15517.65      -2453.930       20322.86       19434.47      -15358.70
      -35230.29      -7943.352       16364.38       10926.82       12241.36
       11299.55      -14086.80      -22504.24       8876.676       19424.87
      -7297.377      -17134.22       2601.012       20935.20       7810.594
      -19254.73      -20213.35      -6866.759       2002.801       14039.24
       14835.47      -2222.234      -10069.18      -8029.566       575.7891
       17019.99       14217.26      -11180.40      -23772.57      -4325.379
       21408.16       18683.04      -7442.059      -22161.98      -10296.47
       2316.969      -60.45410      -1158.553       2008.402       653.9788
      -310.4087       1128.204       1066.379      -509.4414      -2928.008
      -5151.572      -9451.516      -8116.051       5952.225       3646.796
      -5712.840       12947.41       25330.91       10970.22      -2985.551
      -14265.13      -12620.28       7467.574       13009.28      -450.8203
      -12001.96      -10785.63       6263.963       12955.36      -998.5801
      -6095.195      -3447.602      -11356.33      -13053.97      -1625.332
      -1798.051      -12100.46      -8095.445       6742.656       12028.74
       4777.434       3497.236       2798.820      -16894.87      -24440.69
       1358.861       13569.94       685.4492       1516.446       8608.770
      -933.7417      -5228.861       6048.428       8748.184      -4460.971
      -12454.66      -6234.344      -2131.726      -2441.572       2815.307
       5976.530       51.32617      -7607.008      -8065.340       1595.936
       10295.61       3246.779      -7336.876      -6971.219      -863.9551
       5495.385       10681.43       8775.279      -3847.547      -12618.11
      -5777.894       1863.885      -3452.647      -7986.631       2428.094
       13084.01       12060.74       5314.926      -3479.262      -10424.31
      -4797.307       4934.851       2526.043      -2493.116       8.294922
       7282.843       8536.827      -3384.992      -8182.843      -1915.815
      -1359.908      -688.5830       2025.207      -3601.664      -9926.297
      -2761.369       6348.886       2010.690      -226.9365       4631.305
       1861.036      -4490.915      -843.3477       7232.914       5771.642
      -1332.377      -1045.301       4318.971       5254.907       61.43506
      -3598.465       872.8840       2344.758      -3414.948      -3181.815
       2176.191       3237.986       4544.451       8174.849       2301.582
      -5152.175      -1590.494       1982.628      -1811.686      -3740.979
       1287.924       6763.141       5627.253       1348.505       3373.975
       4281.103      -1914.698       991.8535       8812.092       4939.038
      -2840.062      -4675.826      -1301.023       5366.097       6680.513
      -1068.428      -4678.967       2048.055       4065.595      -760.4072
      -1772.263      -3444.290      -4518.466      -311.5486       520.5840
      -882.6282      -1247.957       1469.031       5677.240       3228.662
      -301.7778      -305.1826      -68.09961       3022.196       5047.996
       1099.059       879.0986       6521.211       2106.266      -8369.184
      -4202.049       5152.330       1172.343      -5517.476      -1209.113
       7611.777       4307.938      -6361.534      -4087.756       5122.206
       4030.126      -3397.842      -7774.625      -4541.148       2518.627
       603.4902      -7580.857      -3543.061       3113.342      -1406.918
       2361.695       13204.86       11121.29      -557.4668      -8817.318
      -2610.258       8477.713       5862.961      -3575.883      -5350.863
       399.2070       5293.062       2367.466      -3182.217      -4176.600
      -6346.299      -8444.234      -527.4766       6325.555       1689.551
      -2398.496       2889.503       5673.315      -537.5293      -3014.160
      -6261.840      -10642.42      -3084.740      -735.1797      -7428.061
      -3829.915       5819.500       4037.649      -2368.529       791.1768
       4416.349       1363.938      -3867.051      -7952.103      -6217.811
       97.97314       3399.539       450.2871      -6419.998      -5801.562
       5571.904       6173.650      -1568.612      -451.3718       86.60400
      -2534.847      -1717.427      -72.01514      -759.0916      -1058.601
       2533.715       1423.043      -9050.857      -11841.62      -1523.492
       6151.985       6781.936      -375.7930      -8474.792      -6925.192
       1584.879       5884.823      -1135.576      -5199.971       2782.291
