     0.02500000      -54883.59       44576.34      -12345.00      -12345.00
      -30.00000       250.0750      -48.50000      -12345.00      -12345.00
       0.000000       36.89000      -12345.00      -12345.00      -12345.00
      -12345.00      -12345.00      -12345.00      -12345.00      -12345.00
      -12345.00      -12345.00      -12345.00      -12345.00      -12345.00
      -12345.00      -12345.00      -12345.00      -12345.00      -12345.00
      -12345.00      -31.80160      -69.32410       2472.000       0.000000
      -31.23600      -65.83800       0.000000       167100.0       0.000000
      -12345.00      -12345.00      -12345.00      -12345.00      -12345.00
      -12345.00      -12345.00      -12345.00      -12345.00      -12345.00
       336.9924       258.3718       80.18580       3.030003      -12345.00
      -12345.00     0.02755734       0.000000       0.000000      -12345.00
      -12345.00      -12345.00      -12345.00      -12345.00      -12345.00
      -12345.00      -12345.00      -12345.00      -12345.00      -12345.00
      2008       318        11        13        18
       900         6    -12345    -12345     11204
    -12345    -12345    -12345    -12345    -12345
         1         7        13    -12345    -12345
    -12345    -12345    -12345    -12345    -12345
    -12345    -12345    -12345    -12345    -12345
    -12345    -12345    -12345    -12345    -12345
         1         1         1         1         1
LEON    -12345          
        -12345  -12345  
-12345  -12345  -12345  
-12345  -12345  -12345  
-12345  -12345  -12345  
-12345  -12345  -12345  
-12345  -12345  BHZ     
ZL      -12345  -12345  
[...]
       460.2925       495.4574       481.7881       517.7059       508.5398
       543.7207       528.0381       560.3873       545.3784       575.7051
       558.2372       587.2549       569.3464       597.2351       576.4885
       603.2303       581.6119       605.9065       584.5498       606.2725
       582.0281       602.5000       575.1517       591.6338       560.0348
       576.2646       550.5896       565.9082       528.7305       541.0664
       510.4333       522.4011       486.1807       494.7297       459.4856
       467.6118       429.5286       434.2219       397.9480       403.6003
       356.7002       357.5229       319.0200       318.8801       277.2723
       277.1278       230.5847       229.7993       184.8392       180.0568
       130.6982       127.7258       79.31000       71.07462       20.36059
       14.83749      -35.33322      -42.23969      -93.60461      -98.81989
      -149.6243      -160.7219      -213.4149      -223.7821      -276.0363
      -286.7927      -339.2322      -346.9197      -397.2969      -404.2557
      -455.1440      -465.5786      -512.9575      -517.1373      -568.5715
      -576.5120      -619.3168      -616.7036      -659.6599      -661.4609
      -700.0901      -694.0923      -729.5283      -723.6479      -758.8018
      -749.2378      -782.9438      -770.3367      -797.0596      -788.7786
      -814.9055      -794.3630      -821.0557      -805.2542      -827.5378
      -805.2290      -825.3428      -807.4756      -825.6846      -799.9880
      -821.0076      -794.8552      -811.2642      -789.7378      -804.9622
      -782.9568      -800.7939      -774.8828      -793.1809      -766.5264
      -787.8528      -761.9517      -780.9924      -761.3552      -782.8345
      -758.4912      -783.2427      -759.3491      -778.4060      -758.6760
      -782.7556      -760.5723      -781.4121      -757.3967      -774.1370
      -748.7717      -762.8662      -734.2778      -751.1973      -728.1086
      -744.8599      -718.2180      -729.2285      -697.8765      -707.7695
      -679.6420      -689.3687      -654.4268      -663.0034      -630.3787
      -637.2620      -603.6874      -614.6531      -580.0874      -584.1333
      -545.8282      -549.0564      -511.8300      -516.1625      -479.2310
      -482.6799      -441.4087      -443.2394      -403.7870      -406.2852
      -361.7052      -362.5604      -321.0857      -316.8207      -268.3993
      -265.7888      -219.2968      -212.2438      -164.6834      -159.4070
      -107.5970      -99.13118      -47.00190      -38.60542       13.84400
       22.54634       76.79657       86.61551       138.2885       146.6728
       198.6404       208.8527       261.9957       272.8942       323.4918
       329.2097       378.6565       388.6550       440.2646       445.6261
       487.1013       495.0029       546.2866       547.3445       584.7832
       582.0579       620.3997       621.2230       662.2698       656.2827
       691.4783       686.7839       726.2888       719.0747       747.0388
       737.4482       772.1875       758.8892       787.3684       775.4438
       806.6743       792.2061       814.2349       798.7583       820.3762
       799.2041       819.5806       802.4546       827.5405       808.3828
       825.7205       807.1975       825.9395       802.0242       822.0820
       803.8145       819.7400       798.0598       814.6145       789.3369
       808.2476       786.3428       806.3269       786.0586       799.0283
       778.1208       797.4824       774.6897       793.0620       775.5549
       788.4272       763.2695       779.1113       759.5078       772.3845
       753.0459       765.3848       742.9668       754.7239       738.1135
       748.1812       726.2627       738.0132       712.1946       720.0664
       699.0938       707.6133       682.2874       694.4106       668.2148
       675.9315       651.3228       659.8198       631.6039       638.4358
       615.0884       625.3076       591.3864       598.1378       574.3428
       582.8674       554.9987       560.1534       527.8997       534.8079
       505.4380       507.0562       478.4240       485.0963       454.7920
       457.4058       428.4296       430.3342       401.3640       406.3772
       374.2228       375.6521       349.5208       354.8171       325.5323
       328.3734       301.6647       304.6644       278.2394       281.7615
       255.1379       258.7925       231.4249       235.2340       208.1190
       212.3798       189.9753       191.9956       165.4368       168.4189
       141.7731       146.3155       121.0587       124.5605       100.9978
       100.6458       71.16193       72.67392       43.39709       41.90422
       14.06615       19.79601      -5.718899      -6.871277      -36.44534
      -35.46997      -65.52466      -65.78326      -98.71381      -94.09811
      -120.2347      -120.0509      -153.0646      -152.0090      -182.7942
      -180.5732      -212.2686      -211.8928      -241.0950      -241.6449
      -274.0752      -274.3415      -304.2591      -303.3981      -334.5481
      -336.3218      -364.3162      -365.9834      -392.6312      -390.3679
      -416.4603      -412.7600      -440.1564      -438.6155      -466.2869
      -461.9159      -482.5452      -480.2068      -504.9598      -498.1135
      -520.3164      -510.4725      -530.2556      -519.9320      -539.7415
      -526.2145      -544.8723      -534.5022      -554.3699      -540.2126
      -554.9541      -541.9773      -554.6143      -535.9089      -545.1748
      -529.0276      -541.7748      -524.3907      -533.6635      -515.2197
      -526.3757      -508.2158      -515.7413      -497.2363      -506.1167
      -488.4625      -495.2555      -473.5990      -481.0798      -459.9971
      -468.9492      -452.0088      -455.9055      -441.5996      -451.4629
      -425.9059      -426.5415      -401.3165      -406.7227      -394.2556
      -404.4802      -383.8665      -386.3240      -373.6538      -391.1830
      -366.3502      -361.1300      -338.0110      -358.2748      -352.4843
      -365.9359      -342.6863      -348.1884      -332.1409      -342.4928
      -326.7325      -341.4476      -326.5050      -341.9036      -328.6306
      -347.4901      -343.0861      -363.0548      -347.5559      -363.7505
      -353.6660      -369.9871      -358.5232      -374.4773      -363.5457
      -383.2302      -377.4149      -397.3267      -392.5656      -411.8040
      -399.3579      -417.5095      -408.6011      -424.3909      -413.4917
      -431.6110      -424.8612      -442.7679      -433.0443      -449.6340
      -442.0011      -464.2764      -458.6257      -475.9727      -463.0615
      -487.6389      -484.4907      -502.4910      -488.9192      -504.3589
      -500.3324      -521.0428      -511.3328      -525.1559      -515.0117
      -538.7115      -528.3738      -537.7097      -530.6832      -546.1433
      -533.3276      -551.5028      -541.5819      -552.5405      -537.3326
      -550.0991      -539.2679      -549.4470      -535.6871      -543.1462
      -528.8196      -540.1575      -524.8398      -533.6887      -514.9282
      -516.2178      -495.3031      -498.3889      -477.3376      -477.6301
      -457.6919      -459.3164      -429.1025      -427.3992      -404.4954
      -397.7954      -373.0706      -369.9519      -342.1370      -337.6199
      -313.0801      -304.3928      -275.5265      -265.9130      -236.6201
      -229.5812      -201.0755      -191.4292      -163.0626      -152.3365
      -119.9992      -111.6335      -83.65164      -71.32508      -40.35011
      -28.93339       2.969696       13.33813       45.24258       57.70169
       90.19684       98.51422       132.3267       144.9644       175.3842
       184.4589       215.2788       230.3223       265.2007       274.7401
       305.8226       316.2150       346.2383       357.2229       391.2201
       402.4661       435.0414       446.1073       475.8779       483.6687
       514.3812       528.2400       557.6345       563.2288       591.4351
       603.7842       631.9698       637.1311       665.3408       676.8127
       702.0469       711.4414       740.6982       750.1680       774.5032
       783.5381       810.1582       816.0828       840.4790       850.8745
       876.3733       882.0588       905.3748       913.8877       936.7327
       944.8677       969.7095       973.0645       989.0552       991.5771
       1012.129       1015.201       1031.997       1033.052       1046.472
       1047.669       1063.821       1056.967       1063.817       1059.858
       1069.042       1058.861       1063.763       1055.236       1057.716
       1041.657       1040.058       1024.990       1021.858       1001.815
       991.8809       970.5947       965.6094       941.5479       928.9131
       905.8281       896.0491       873.6045       865.7729       844.1545
       833.9080       807.3816       797.5051       776.9814       765.1553
       743.5664       735.6724       711.5344       701.7427       682.2739
       669.4722       648.2544       642.2407       625.5920       616.2654
       596.5417       587.7644       574.6040       571.1147       554.1084
       545.6420       532.0288       526.9722       511.2086       509.2330
       495.4882       489.6937       472.4059       468.7856       456.1183
       452.9806       430.3643       421.4792       402.8718       394.0876
       369.2598       359.4273       330.7695       316.9192       288.6869
       271.4090       242.1559       223.7235       187.6835       168.0110
       131.1776       108.5868       70.93498       42.90458       4.628082
      -20.33124      -63.52899      -92.14801      -128.9801      -159.1489
      -207.2686      -234.2893      -275.3098      -305.0078      -346.2657
      -379.4160      -423.4250      -453.8318      -493.6504      -519.9153
      -555.6686      -585.2350      -624.0548      -649.3000      -679.9644
      -708.2646      -740.5659      -759.9460      -789.7612      -810.2639
      -834.3225      -854.5771      -880.5693      -897.6936      -922.8174
      -936.4290      -956.4688      -968.1467      -986.0830      -996.0391
      -1016.451      -1021.448      -1033.905      -1040.695      -1048.528
      -1045.667      -1055.047      -1052.099      -1055.949      -1052.327
      -1056.641      -1050.842      -1050.724      -1041.693      -1038.247
      -1028.988      -1024.823      -1012.288      -1010.679      -997.6406
      -986.4631      -975.4314      -965.3547      -943.6687      -936.2161
      -920.7031      -908.0281      -889.1125      -877.9519      -857.0693
      -843.5586      -825.2317      -811.3044      -788.6660      -772.6086
      -753.1299      -739.6938      -715.7058      -702.7510      -685.5593
      -668.6013      -647.4421      -632.2831      -612.7908      -597.3469
      -573.3196      -554.3652      -532.6758      -515.1492      -495.5186
      -478.3833      -452.4525      -429.9260      -410.7812      -390.8746
      -362.5209      -338.1815      -316.1851      -291.4600      -269.7211
      -248.5261      -221.2136      -196.8564      -174.0120      -146.3570
      -118.4285      -94.69307      -70.03017      -44.13229      -18.01437
       5.754364       27.78253       51.74313       73.79825       94.03363
       112.0248       136.8138       158.5475       176.4530       190.8693
       202.7386       213.5517       232.5959       243.6253       249.9045
       257.1136       266.3311       272.8617       278.3365       279.3320
       287.6589       289.9740       294.1255       295.0887       296.1846
       292.9061       294.1700       290.3195       286.7311       282.4386
       284.2455       279.8347       278.7632       271.8877       268.9591
       263.5700       263.0134       256.0525       254.4123       248.9279
       247.0527       235.6807       231.4246       225.8800       222.5001
       209.4854       207.6740       196.7864       195.0238       184.6417
       179.8962       167.0052       165.4302       155.1713       155.9357
       138.8019       131.6116       116.6576       116.9869       105.9445
       103.7338       88.08344       87.17188       78.50822       79.81168
       66.40366       72.39865       68.00101       67.85257       57.13278
       65.35416       57.40347       61.07104       54.26538       61.21736
       53.42523       58.33038       45.08885       53.60028       49.03745
       57.40097       46.60277       54.55981       48.76074       54.73045
       43.41446       58.69759       48.83612       51.75578       38.79179
       56.10173       56.45215       81.04688       174.1509       764.5654
       2677.957       6943.348       14364.59       24875.00       32216.98
       25264.26       3980.312      -23667.41      -51141.73      -54883.59
      -19707.47       26917.40       44576.34       27107.49       6004.047
      -12455.66      -33373.69      -26905.03       2541.301       8297.648
      -15012.18      -23140.21      -216.7031       22470.37       23378.93
       10283.02      -2583.613      -6265.867       10252.02       32430.98
       19092.04      -25607.95      -41196.45      -13461.44       13412.98
       24897.16       21170.54       1982.477      -15118.15      -16493.20
      -1862.518       12302.86      -4008.391      -29322.57      -23029.18
      -1721.869       10275.22       3483.686      -8045.986      -4299.802
       452.7473      -1795.152       3542.703       12568.33       11076.88
       7977.176       7891.219       6401.404      -4654.277      -14174.53
      -1980.418       3186.294      -4458.416       1446.885       7022.706
       3728.814       6850.529       892.2969      -15464.01      -10325.72
       5325.277      -5871.922      -30786.10      -14336.88       25085.00
       30858.86       12660.48      -5700.680      -13851.43      -5871.546
       3128.620      -1936.734      -6684.748       3666.559       7145.592
      -4847.774      -5790.619       3094.480       4657.461       18942.73
       35942.14       13525.97      -19572.43      -22004.21      -12141.34
      -1431.724       4053.484      -6743.986      -11968.24       2892.969
       17664.53       10200.46      -10735.36      -16115.39      -8656.697
       1219.688       15746.47       13128.83      -4445.508      -14456.16
      -14788.10      -1982.709       8785.815       7558.920       270.6621
      -9153.957      -2148.539       12578.23       14779.14       10755.79
      -1412.512      -15266.99      -6628.162       10089.59       5369.424
      -4444.339      -5198.230      -3221.228      -2829.482       2120.078
       12715.54       11425.50       3941.079       1512.494      -5216.242
      -14334.99      -6988.117       5201.850       1833.619       1294.592
       8730.951       603.6172      -15741.12      -12334.16       134.4512
       4628.938       4766.295       3480.631       4483.918       3765.156
      -3145.643      -4460.418      -1811.930      -4613.934      -4807.961
       1923.119       9671.307       8538.819      -1287.852      -4183.990
       536.4512       3423.426       8731.482       7727.602      -5611.711
      -9321.194      -767.4399       1303.509      -3914.261       204.5938
       7154.028       2315.063      -5498.312      -4086.635       4854.349
       5450.098       2321.195       6228.814       4413.203       867.9197
       185.0820      -3170.892       1061.127       4663.150      -4691.006
      -10562.78      -5245.063      -1874.466      -213.9697       5468.783
       3537.436      -6059.748      -8640.604      -3461.468       341.9773
       318.8623      -3674.108      -2925.608       3731.646       4370.641
       4880.863       5854.074       383.7949      -3749.020      -1703.638
       1919.820       3571.198       3070.137      -758.6641      -4760.570
      -4735.059      -2997.688      -3681.205      -430.0127       6736.841
       1399.904      -6033.711      -1512.546      -2011.073      -4949.413
       2672.876       7868.362      -268.3779      -6126.192      -1308.503
      -489.5703      -5824.130      -4921.783       2136.057       5395.687
       4959.229       3178.718       815.4221       912.7637       1190.191
       1768.935       426.4834      -2503.075      -323.3521       3056.469
       1715.450      -2876.501      -4470.611      -1467.303      -160.1816
      -587.1033      -225.5527       1225.012       2034.168      -1571.998
      -3385.041       1219.982      -425.6157      -3857.601       1534.743
       1660.669      -4056.608      -2626.934      -122.3052       966.9443
       4240.161       1988.380      -3487.940      -2657.453       939.8857
      -1003.657      -3488.654       17.74219      -1717.162      -5549.386
      -532.2836       1645.606      -1934.263       1045.740       6593.653
       4224.715      -1742.846      -2300.585       984.0688       2731.331
       861.1338      -3476.356      -4406.393      -388.0640       2812.658
       449.7175      -1915.333       1129.166       1730.299       1317.295
       1960.225       891.0820       4577.216       6808.842       583.3955
      -3024.887       1609.890       5660.410      -324.3848      -5974.201
      -223.8193       6312.995       1714.650      -7575.808      -5152.688
       3806.747       5430.812       1163.022      -2605.762      -3262.566
      -3976.624      -1985.083       3687.038       3058.223      -6333.875
      -12779.49      -10239.23      -2472.223       3694.773       4087.688
       3335.857       4783.268       6011.637       6737.225       5445.935
       466.8584      -4884.060      -6034.587      -1905.218      -476.8652
      -2739.467       484.0134       1867.303      -101.1157       2667.703
       1655.066      -2432.059       3922.391       10211.15       3876.544
      -4586.512      -5817.846      -4219.473      -5022.212      -4225.604
       96.28418       2834.395       2458.892      -1811.695      -6933.132
      -4278.270       2819.469       6372.737       6059.823       2821.983
      -1201.269      -2589.936      -2602.955      -4158.393      -3185.817
       1200.114       3218.323       1393.493      -1992.913      -3068.257
      -348.6357       3960.704       6752.447       815.2383      -7215.338
