     0.02500000      -286730.0       209906.0      -12345.00      -12345.00
      -30.00998       226.9900      -26.56000      -12345.00      -12345.00
       0.000000       19.61000      -12345.00      -12345.00      -12345.00
      -12345.00      -12345.00      -12345.00      -12345.00      -12345.00
      -12345.00      -12345.00      -12345.00      -12345.00      -12345.00
      -12345.00      -12345.00      -12345.00      -12345.00      -12345.00
      -12345.00      -30.39490      -66.52800       752.0000       0.000000
      -31.23600      -65.83800       0.000000       167100.0       0.000000
      -12345.00      -12345.00      -12345.00      -12345.00      -12345.00
      -12345.00      -12345.00      -12345.00      -12345.00      -12345.00
       114.2571       324.5233       144.8751       1.027281      -12345.00
      -12345.00       3.416269       90.00000       90.00000      -12345.00
      -12345.00      -12345.00      -12345.00      -12345.00      -12345.00
      -12345.00      -12345.00      -12345.00      -12345.00      -12345.00
      2008       318        11        12        56
       960         6    -12345    -12345     10281
    -12345    -12345    -12345    -12345    -12345
         1         7        13    -12345    -12345
    -12345    -12345    -12345    -12345    -12345
    -12345    -12345    -12345    -12345    -12345
    -12345    -12345    -12345    -12345    -12345
         1         1         1         1         1
LLAN    -12345          
        -12345  -12345  
-12345  -12345  -12345  
-12345  -12345  -12345  
-12345  -12345  -12345  
-12345  -12345  -12345  
-12345  -12345  BHE     
ZL      -12345  -12345  
[...]
      -328.2455      -253.0990      -297.9346      -274.6572      -302.2372
      -264.5916      -319.3644      -241.5278      -307.7250      -272.7344
      -309.1304      -272.6138      -298.9199      -256.0435      -305.2565
      -254.5900      -317.8004      -263.5856      -297.4860      -254.4185
      -306.0930      -233.6920      -281.5353      -265.7597      -297.3767
      -241.3417      -289.1741      -246.7662      -266.1368      -207.3838
      -276.1516      -265.6572      -295.0853      -213.4698      -258.6542
      -292.0154      -305.5043      -200.6212      -309.9443      -448.3230
      -206.8896       1484.664       6724.617       18991.35       39470.43
       33677.45      -38964.31      -64040.45      -26188.70      -18849.11
       18642.00       48685.07       22972.04      -26896.30      -59938.27
      -5138.172       72744.20       36818.86      -34830.62       531.2246
       9708.266      -41447.09      -17063.25       10007.24       8012.902
       27211.53       10984.62      -27527.78      -25849.85      -16545.29
       4680.609       34108.93       11740.50      -11164.20       16377.19
       25103.95      -35011.02      -62759.67      -13886.70       32321.66
       33706.01       15936.13       24049.29       7046.953      -40969.85
      -33584.29       11682.84       14945.09      -1443.791       12730.24
      -5100.381      -18978.87       17206.54       3986.852      -19581.73
      -4211.518      -10086.23      -4520.250       31161.91       35165.48
      -4052.727      -34655.07      -24231.57       1087.262       6759.215
       17843.42       17210.03      -8102.896      -1196.469       9079.701
       3186.566      -10444.74      -11063.72       9849.050       2162.086
      -3731.258      -17637.81      -29594.07       8337.055       20847.55
       7903.320       27159.39       21849.53      -28642.72      -24065.19
       13524.58       1445.921       1862.488       9671.678      -2194.222
       5247.172       1281.672      -15473.79      -8493.539      -3913.255
      -3556.154       13816.80       8724.980      -16725.66      -11314.44
       1033.440      -7172.355       1399.559       20985.21       12353.82
       8500.000       13490.02      -1666.363      -6342.763      -4683.603
      -5248.958       473.9883      -7038.930      -14161.42      -1659.562
       18675.96       14805.75      -4496.988      -8549.152      -7510.896
      -12462.64       1583.148       28603.85       13481.32      -19333.65
      -10937.34       8293.992       7802.896       3670.311       2804.592
      -296.8730      -9371.742      -13270.49      -2327.386       8174.051
      -3597.074      -14056.62       6345.418       10285.69      -3529.760
       9655.736       10584.66      -4299.963       722.4473      -5739.627
      -14073.70       7368.717       16065.94      -1362.125      -6187.119
      -252.2461      -320.9941      -8685.823      -4592.479       13383.38
       6315.461      -11379.45      -5565.526      -309.6816      -8000.145
      -3620.395       8265.855       11495.09       6676.129      -11185.42
      -15103.83       4345.484       10514.71       6067.133       5960.190
       1643.195      -4020.777      -6219.948      -4509.804      -3781.355
      -7378.910       520.0645       9348.457       5847.291       6230.243
       4812.145      -9735.316      -14136.04       2343.690       3544.462
      -4741.125      -169.8149      -203.8604       1529.596       6945.390
       2501.984       4674.650       9873.426      -3092.256      -11887.62
      -3269.125      -3712.427      -231.3223       9425.042       3676.324
       116.8652       3671.218       2787.590      -11363.19      -14744.70
       4361.726       4126.730       2029.874       4856.535      -13278.06
      -12074.79       8262.680       5871.118      -6858.412      -3646.727
       14206.48       16977.03      -2307.934      -12838.27      -14116.19
      -10020.76       9345.328       14185.34       5661.329      -11.81250
      -5348.264      -3450.145      -13290.07      -8840.676       21247.90
       15605.37      -7687.198      -5466.201      -849.7549      -6547.269
      -1259.695       9439.410       2031.946      -5972.626      -2445.293
      -2125.663       1308.616       3688.748       2214.748       3692.042
       241.6660      -2352.131      -6866.922      -8191.334       6789.429
       4416.307      -8480.620       1134.655       5165.388       365.1147
       4488.552      -993.6641      -9835.156      -3972.719       3161.127
      -4128.134      -6007.576       11298.94       8183.580      -7472.508
      -2079.419       99.50391      -3873.490      -7072.752       3001.850
       11256.91      -4587.250      -4484.565       1220.364      -2504.090
       4342.893       2663.580       863.0547       7373.038       1021.902
      -7247.566      -7417.540      -2045.393       3156.896      -729.2310
      -868.3506      -449.3848       3483.023       13232.71       4963.662
      -2995.104      -7682.170      -12942.17       6890.951       13257.73
      -8288.781      -11753.22       2621.628       7608.080      -1972.579
      -5125.621       1278.778       1040.720      -1869.477       279.6846
       3051.892       308.5955      -177.0488       2714.096       491.8296
      -2899.832      -864.7812      -878.3564      -3257.650      -2460.411
       2380.959       6056.857      -2284.383      -4167.039       6262.265
       3380.250      -2746.774      -4988.738      -3760.321       3463.765
      -513.3020      -1912.387       5307.515       2997.467      -2576.278
       366.9404       7839.980       195.8115      -4621.920       4030.928
      -7916.305      -15199.65       3043.170       8833.387       7256.946
       6332.852      -238.8701      -4725.486      -4852.397       3358.958
       2613.432      -5997.150      -3615.232      -743.0789       1036.549
       1354.478       807.7578      -1388.170      -1126.676       6821.685
       6384.957       1976.676      -3911.711      -11475.78      -6436.355
       3048.758       10571.48       7603.587      -2513.683      -3724.566
      -2707.563       250.6709       2076.055      -5035.594      -1857.872
       8300.958      -1807.697      -5648.920       7526.805       7732.233
       2671.085      -5433.326      -6859.406       2034.713       4488.902
       6867.035       5823.875      -2169.826      -8255.051      -3508.506
       2512.178      -1923.717       56.21338       2881.128       346.6377
       2296.885       1577.877      -1137.722      -1379.138       706.1611
      -1984.031      -8399.179      -5565.605       6972.973       11363.66
       2403.150       673.7070      -518.7510      -4527.357       3986.864
       6026.994      -8541.924      -9182.065       6121.049       8005.357
      -549.5723       2516.215       4228.904      -2684.634      -1909.081
       3627.016      -576.6436      -5979.129       3195.414       7892.647
       1615.544       1841.321       3046.134      -1315.970      -4562.091
      -2904.590      -797.2852      -47.17139      -438.0635      -4314.250
      -6248.577      -1914.721       4751.971       9210.346       533.1479
      -2464.148       9490.277       6040.569      -3262.456      -3562.972
      -4023.927       440.5410       3204.193      -769.8408      -2483.566
      -1795.699       1796.529      -333.4463      -6667.617       704.2266
       7151.892      -1574.474      -5309.129       1590.701       2346.537
       313.7129       1287.112      -3135.423      -3203.484       4199.955
       2492.563      -531.5845      -1212.943       190.0977       5277.061
      -1294.747      -6328.101      -967.9766      -3107.630      -922.8027
       6525.144       4141.976      -436.9141      -7326.574      -9413.604
       6066.201       13875.33      -1205.680      -7818.562      -1500.808
      -1596.491       687.0142       2316.371      -5731.207      -10434.58
       1894.424       6935.658      -1027.180       1744.804       1109.962
      -758.7598       4728.443       835.5498      -5378.934      -1723.275
       2419.722      -1686.640      -3423.621      -2039.656      -3335.531
       816.6875       3713.316       2840.246       4538.350       1693.379
      -4978.901      -6384.169      -729.1875       3028.563       4507.951
       5441.277      -1901.820      -7778.848      -1327.970       5652.070
       2215.192      -2593.839       1700.193       4394.147      -1825.426
      -6427.636      -1213.840      -1773.313      -5999.217      -1052.751
       3467.186       6413.459       2577.581      -2293.250       3213.269
      -3034.870      -6954.584       3917.317       828.0758      -1011.855
       3093.922      -3011.865      -4629.527       2538.526       557.4283
      -3707.748       6975.429       8822.407      -2399.010      -5903.518
      -1842.963      -76.11499      -2487.637       1092.521       11015.52
       5687.170      -8102.919      -2821.052       3381.597      -1846.922
      -1760.443      -1038.486      -3305.831       1395.180       4482.347
       694.2061      -1640.380      -3453.157      -2630.961      -3526.515
      -4760.023       647.1494       4837.797       3279.464      -1982.675
      -2986.198       2732.805       6516.861       7522.177       6953.970
       1077.475      -6813.757      -1572.956       5155.453       1066.013
       1969.137       4302.530       131.1191      -5041.267      -1190.137
       7477.555       7157.162       2161.052      -4454.398      -7405.646
      -8510.153      -6623.136       2363.607       6089.633       6711.613
       9179.202       3237.248      -7291.799      -1941.451       6475.445
      -2796.355      -7985.165      -2470.760       1754.748       4303.018
       3407.188       907.6108      -1358.037      -314.8340       5870.037
       4083.977      -6715.523      -9658.094      -2407.111      -3196.486
      -10246.38      -736.2617       14139.47       9414.377      -2037.576
       757.7759       3095.791      -1698.077      -1252.006       1983.311
       4888.910       272.7891      -6648.738      -2612.210       3024.621
      -3774.369      -11644.27      -805.7266       14652.53       5772.535
      -8766.938      -1723.026       2158.330      -2080.199       4471.528
       6652.687       241.1631      -2421.569       200.1526       1970.516
      -226.5513       2443.699       1947.486      -5831.579      -2080.288
       1305.003      -853.9873      -1069.014      -3945.203      -2693.113
       1059.838       2376.065       2506.957       3571.807       5045.402
       993.5928       1447.873       1481.412      -6756.966      -3775.355
       3206.370      -2641.670      -6387.162       3404.114       6943.382
       568.2280       3083.026       746.1055      -6366.499      -3853.085
       2792.004       1098.919      -6053.239      -118.7471       531.4839
      -3737.017       4415.404       3486.168      -3863.575      -2266.592
       5694.586       7306.234       305.7012      -2215.264      -5629.146
      -8488.917      -3800.717       2631.656       10107.60       11365.70
       495.7109      -11510.73      -14293.40      -10517.99      -409.4453
       13502.60       14131.13       253.3643      -5175.081      -1.779297
      -501.9531      -7299.761      -2640.176       4056.081      -1937.077
      -2724.318       2128.997       3523.612       1411.420      -1360.572
       147.8926      -1505.503      -5230.653      -451.5488       8426.070
       6284.297      -5093.820      -6612.506       369.2002       797.8281
       5772.416       12749.99       145.7676      -11791.41      -8035.365
      -5611.924       2133.289       7043.805       3347.050       5021.101
       596.7451      -4384.754      -4340.318      -4698.180       1757.497
       2223.744      -1527.108       2634.827       519.3002      -471.3379
       2001.614      -1627.954       2138.019       2862.660      -3679.895
       4196.391       9353.938      -2335.812      -10343.61      -10142.80
      -2547.797       6261.825       3770.229      -2102.633      -506.0480
       769.2717      -2005.040       185.7998       5329.247      -800.4609
      -9095.994      -3433.759       2982.163       529.2158      -3269.672
       1621.433       5917.679      -4524.951      -3460.803       7680.053
       1951.344      -6642.616      -3427.246       1934.993       43.76709
      -28.49414       5177.149       4788.623       5334.232       7836.175
       4956.273       6475.137       14998.21       10020.28      -31005.03
      -92211.59      -118431.6      -80640.28      -2647.062       74770.03
       127615.7       137040.3       70027.03      -76800.88      -230764.4
      -286730.0      -193234.0      -14193.50       137689.9       209906.0
       174042.5       47458.36      -61217.12      -86247.39      -68209.84
      -52097.35      -30634.86       6036.203       34900.16       43095.34
       61101.19       83806.11       70009.34       29917.29      -4852.195
      -34529.03      -55076.13      -41637.60       5372.969       57337.53
       79828.25       60115.25       17717.11       3764.430       27987.16
       23392.60      -17968.98      -35603.22      -18224.16      -12505.94
      -30630.59      -41623.14      -20562.34       7726.633       6560.672
       18487.11       52113.23       40246.66      -8625.062      -43009.78
      -59057.28      -65721.67      -37474.97       26129.59       67855.39
       69242.40       46264.22       5354.391      -31127.62      -49094.34
      -46310.87      -10852.04       37374.52       41830.15       7112.751
      -4504.066       6605.364       3919.062      -9697.938      -20977.12
      -28947.87      -30185.92      -17136.97       5405.539       23298.82
       28182.73       8995.391      -23693.40      -29727.77      -8972.273
       25290.12       62619.70       60380.57       24817.69      -2575.105
      -12263.55      -14767.17      -23154.44      -25309.80      -9395.881
       8517.387       11300.54       4668.797      -13425.37      -34950.42
      -31120.21      -7217.578       20198.11       43269.57       39085.35
       11006.89      -10842.36      -16106.25      -6387.000       11206.17
       19255.55       13055.55       7439.878       4573.605      -10280.98
      -25565.55      -20424.42      -8899.227      -64.59180       7331.916
       6455.419      -2178.896      -3882.572       1040.273      -11203.08
      -22967.65      -17246.24      -14239.52      -8071.406       9701.023
       17320.48       13697.03       22724.62       32847.93       29640.10
       18269.06      -3625.000      -16658.99      -9472.566      -4476.000
      -10522.69      -16279.77      -17778.67      -10173.21       9568.562
       22393.39       10506.67      -9064.012      -9718.352       2981.586
       5954.452      -3047.977      -14636.34      -18112.82      -794.2969
       24423.19       29792.36       14935.74      -2529.012      -9873.340
      -8129.128      -2640.387       2198.611      -4086.504      -6710.543
       2336.713      -2933.152      -12740.51      -7462.289      -647.5254
       5620.582       14818.30       7183.664      -18367.74      -23591.43
      -5709.801       5992.822       6622.138       3402.190       337.7764
      -4603.913      -1103.910       6360.881       6090.285       9120.037
       7972.277       2705.461       6948.879       11717.27       11180.99
       7388.822      -2254.078      -11840.91      -9354.613       522.4446
       2396.375      -3742.531      -10433.21      -10698.72      -2497.034
       3993.455       6964.105       4392.049      -107.1328       5278.543
       7163.878      -5016.178      -4565.117       13625.24       18898.54
       7914.148      -3479.742      -11413.89      -14451.90      -6016.739
      -49.20996      -1619.928       486.5195      -1433.585      -4658.252
       686.8154       3136.868      -2603.396      -3436.844      -1264.976
       2067.434       9528.953       13720.23       8565.531      -4543.652
      -13766.06      -15361.70      -12480.73      -2341.971       8561.803
       7125.774      -4333.203      -12383.86      -10600.51      -6176.535
      -1314.867       9428.578       13725.52       5630.973      -1697.208
      -1798.223       2602.268       4520.664       2521.535      -767.2637
      -5645.241      -1917.133      -2478.484      -12664.90      -5972.833
       5712.809       10197.58       15348.93       12740.86       5006.605
       4072.426       1506.508      -381.0215       4313.876       3536.709
      -2370.218      -5504.624      -628.7610       2012.576      -7013.543
      -9469.336       3205.266       12794.14       10947.14       7432.492
       677.2539      -7540.488      -9137.143      -5785.143       406.3027
       5665.548       3975.266      -7412.146      -9759.010      -4461.055
      -6087.277       241.0615       5760.978       45.60938      -7215.775
      -11167.57      -2177.635       8499.514       9312.938       7187.945
      -5440.355      -14205.13      -7942.689      -6202.854      -2839.297
       7244.430       9549.293       4008.311      -829.6680      -6412.738
      -16568.18      -14466.00       2442.766       12595.80       16266.92
       10597.22      -994.4326      -4502.891      -6556.355      -9755.232
      -4788.418       7882.579       7823.211      -5146.557      -11885.39
      -6626.283       6631.193       10221.97      -2343.473      -12506.49
      -7863.977      -280.7612      -1161.643      -4182.521      -4852.704
      -3673.588       90.64844       7328.252       11806.35       6642.607
      -3591.604      -7626.921      -4708.712       1128.207       7129.982
       4642.039       6097.660       13638.61       6836.541      -874.3887
      -3777.934      -12148.75      -13872.71      -6591.677      -415.5527
       6420.331       8266.967      -4716.801      -10079.50      -404.8228
       1662.558       541.7832       7504.562       9701.503       4558.159
       3006.385      -4917.551      -16825.42      -8394.764       11126.40
       11469.62       3787.268       4817.992       2555.493      -4431.941
      -7941.385      -3193.534       3700.700       4748.318       3523.951
