     0.02500000      -128222.2       138616.0      -12345.00      -12345.00
      -30.00998       226.9900      -26.56000      -12345.00      -12345.00
       0.000000       19.61000      -12345.00      -12345.00      -12345.00
      -12345.00      -12345.00      -12345.00      -12345.00      -12345.00
      -12345.00      -12345.00      -12345.00      -12345.00      -12345.00
      -12345.00      -12345.00      -12345.00      -12345.00      -12345.00
      -12345.00      -30.39490      -66.52800       752.0000       0.000000
      -31.23600      -65.83800       0.000000       167100.0       0.000000
      -12345.00      -12345.00      -12345.00      -12345.00      -12345.00
      -12345.00      -12345.00      -12345.00      -12345.00      -12345.00
       114.2571       324.5233       144.8751       1.027281      -12345.00
      -12345.00      -1.016225       0.000000       90.00000      -12345.00
      -12345.00      -12345.00      -12345.00      -12345.00      -12345.00
      -12345.00      -12345.00      -12345.00      -12345.00      -12345.00
      2008       318        11        12        56
       960         6    -12345    -12345     10281
    -12345    -12345    -12345    -12345    -12345
         1         7        13    -12345    -12345
    -12345    -12345    -12345    -12345    -12345
    -12345    -12345    -12345    -12345    -12345
    -12345    -12345    -12345    -12345    -12345
         1         1         1         1         1
LLAN    -12345          
        -12345  -12345  
-12345  -12345  -12345  
-12345  -12345  -12345  
-12345  -12345  -12345  
-12345  -12345  -12345  
-12345  -12345  BHN     
ZL      -12345  -12345  
[...]
       377.6907       342.2971       384.6252       355.9901       375.7719
       321.2272       359.0507       328.1951       355.2495       310.7720
       355.4935       327.3339       341.3594       299.8690       339.1224
       296.1302       326.3396       292.4965       294.2592       246.6942
       300.8147       256.7734       266.8204       233.0936       285.1588
       221.0721       208.2070       184.7703       246.2244       181.0549
       185.2081       149.4875       187.6576       128.5399       117.3975
       94.83508       196.8716       96.05228       9.678101       35.67218
       229.5039       68.60632      -140.4245       106.5073       546.9248
      -579.9121      -3737.375      -15303.41      -47061.02      -70662.59
      -1248.000       134108.8       92280.62      -87720.12      -65027.56
       71859.12       57526.80      -54931.69      -79319.68       17531.63
       45934.44       13361.39       17106.48      -19573.84      -34339.39
       17502.23       23893.15      -41887.44      -40444.34       48311.98
       73217.45      -10248.33      -84870.86      -43719.62       40053.12
       56959.39       26322.84      -10497.48      -26098.12      -3553.102
      -16727.82      -23375.46       6643.730      -14982.90       19772.20
       84713.91       11230.94      -62063.93      -29476.84      -7127.377
      -1011.996       21144.77       15499.03      -2229.379       5326.576
       7514.641      -26422.55      -29840.65       10446.02       19804.84
       18213.82       14616.06      -4065.098      -8644.418      -13620.32
      -15747.00       10199.71       12248.61      -18924.17      -6714.664
       17750.79      -6506.389      -18927.82       23155.31       34555.79
      -15435.83      -26003.92       2307.816      -3314.117      -23964.40
      -16661.42       23731.44       36716.23       1856.625      -3358.354
       4378.301      -11128.14      -15631.71      -6883.705       2549.146
       7836.475       3587.461       3962.524       2654.504      -20199.06
      -8858.508       11619.24      -18432.18      -4348.945       39262.50
       17796.14      -20197.80      -29701.48      -4900.312       28346.11
       9049.848      -15926.90      -2865.461       3813.784      -3390.375
      -1493.938      -3749.626      -8803.166       11005.56       11042.18
      -15891.56      -9800.166      -2225.127      -6739.662       6693.504
       15147.70       10421.61       5696.523       7136.719      -1428.238
      -17696.89      -11133.82       4096.214       6647.465      -3815.346
      -11959.59      -2294.624      -203.1836       5578.062       23035.75
       1981.570      -23694.46      -18912.71      -7432.754       8304.876
       8024.774      -922.5391       6089.744       11541.88       6618.943
      -8952.242      -10786.06       5581.642       3140.229       4104.892
       3417.623      -12414.28       5171.562       19544.13      -5674.590
      -21879.13      -12143.02       4378.064       10281.52       7399.771
       3643.666      -2148.503      -1414.911       4343.395       7050.927
       1567.180      -8754.816      -5923.785      -980.5830      -2382.774
      -3.688477      -1932.401      -268.1885       5510.128       39.38770
      -5075.431       275.5166       4374.651       2620.093      -2254.570
      -5852.598      -4528.814       3614.328       12126.28       2704.146
      -8703.145      -7398.892      -6091.058       2101.055       10712.45
       16491.58       12762.45      -6202.699      -12531.96      -11197.26
      -14325.60      -658.4531       14715.24       8441.558       4575.521
       167.2559      -9272.346      -5071.795      -5236.941      -6953.209
       8602.117       16908.82       8817.521       1539.109      -7334.202
      -2863.062       5597.893      -10080.35      -13022.75       655.8555
       3044.855       10808.29       12710.34      -3135.633      -8737.227
       291.3477       10083.19       14784.61      -2053.775      -12914.92
       191.0146       4783.742       3913.678      -8178.018      -11561.95
       9745.705       3634.873      -7044.744       8227.844       12734.22
       4207.092      -5361.404      -6240.844      -4327.957       77.63818
       6403.802      -6546.166      -2817.297       21797.15       7152.559
      -21277.15      -9553.223       8754.388       5494.438      -2978.415
      -4332.261       2583.318       5506.512       10935.75       9490.734
      -12294.43      -14283.82       3716.089       4975.037      -1931.910
       9009.535       10484.09      -9249.635      -10679.62       161.3755
       1931.877       242.3125       9385.172       7197.352      -11236.36
      -5602.627       847.9688      -198.2852       8871.924       2660.713
      -9344.282      -239.7188       8783.259       3765.027      -2012.805
      -3707.477       6943.337       5259.969      -13821.46      -8438.098
       6090.715       5439.268       2484.228      -768.2332      -1228.405
       4392.417       1950.060      -3637.265      -3365.485      -2390.693
      -1930.642      -4728.428      -1402.602       6463.230       9342.155
       5221.110      -4169.938      -420.6660       1747.504      -9412.715
      -8473.672      -5595.166      -3289.750       9465.570       10422.38
       2197.259      -3642.473      -8901.584      -104.8887       10157.64
      -3480.611      -10227.61       7170.015       5591.457      -7171.522
      -2373.273       1331.943       3219.509       4960.741       1419.106
      -1070.186      -3546.966      -7187.945      -389.8633       7088.199
       4365.714       3060.047      -3614.160      -9877.302      -5353.468
       2140.789       6880.789       965.8582      -1513.621       2154.111
      -1461.366      -4990.325      -3878.957       2742.054      -1017.064
      -5927.715       6002.125       5957.042      -2127.536       1376.329
       1383.708      -1196.535      -2809.438      -11379.06      -6901.448
       6121.426       5625.641       2905.959      -397.9512      -3635.560
       2280.035       3329.745      -3875.104      -797.7773      -678.7158
      -5011.744      -1039.458      -850.0420       2775.755       6059.618
       4072.523      -2064.760      -12105.30      -1057.370       5777.401
      -4792.120      -4290.234      -4238.015      -2411.744       5195.571
       4997.194      -1407.132      -2323.055       2964.229      -4008.124
      -7855.879       5099.321       5320.770      -2485.100       1584.955
       776.4424      -3810.315       64.55078      -1079.054      -3847.498
      -1116.129      -4936.653      -6360.416       5373.569       7367.362
       1187.660       7723.113       6741.128      -4479.223      -5381.321
      -1738.351      -3870.269      -4900.794       7045.002       6866.307
      -10314.23      -6196.299       6830.999       3228.421      -1337.822
      -2524.711      -7390.517      -555.5469       6477.008      -7103.385
      -8839.922       8102.907       7334.605      -4493.319      -3008.291
      -2548.914      -4936.662       2573.056       4143.842      -1996.882
      -3543.638      -23.22949       5012.125       2050.870      -5605.650
      -551.7285       8254.604       3675.930       405.5283      -62.05469
      -5193.822      -9565.074      -8233.590       4169.652       12190.06
       6065.845      -3027.605      -2736.636       1265.786      -2481.761
      -1024.749       4642.807      -1558.446      -5748.014       2184.402
       5045.204       432.6978       676.0029      -1643.917      -6566.354
       56.65967       3331.659      -2328.770      -2665.885      -3309.522
      -4558.500       769.0801       9470.237       5688.777      -12031.80
      -7788.176       11708.91       11471.84      -738.6543      -7476.222
      -2795.460      -792.7017      -1037.768       2377.684      -2816.679
      -7514.498       1895.337       5213.962      -1601.988       7140.519
       6926.988      -8792.298      -6900.516       3426.377       2982.211
      -5205.928      -1068.429       5058.666      -267.1816      -2766.023
      -271.9575       342.5366      -16.42773       6585.664       9106.566
      -4881.793      -11520.39       2767.227       12577.11       6694.910
      -1173.295      -2915.161      -1779.189       3060.794       2544.655
      -3745.272       852.6996       937.1677      -3746.424       3988.877
       7778.601       2236.868       87.78149       1310.415      -3927.540
      -4570.275      -208.2500      -3109.964       531.4359       1301.007
      -1589.931       3547.514       2624.484       831.4805       5085.782
       1476.356      -6020.515      -4247.373       2885.701       4079.290
       1804.070      -1458.207      -4422.269      -3712.022      -1020.223
       3585.594       3558.967       6527.609       4876.543      -8863.305
      -8068.326       4980.577       6695.461      -4934.863      -10346.06
      -6661.768       2638.488       10160.36       3643.818      -3570.212
      -3363.145       2227.842       5777.273       7550.859       4583.236
      -6967.697      -3457.814       7217.130       3447.935      -2551.823
       422.2312       1146.987       1087.879       11288.42       8268.229
      -5148.230      -3250.629       1665.805      -2502.146       993.3555
       6303.654      -3556.241      -6573.372      -1982.873      -3277.157
      -3436.812      -3986.214      -4684.933       234.5671       3199.509
      -2975.143      -8027.636      -2785.327      -785.7871      -8988.086
      -6064.355       8565.980       5761.380      -5018.266       8344.016
       17556.11       6532.482       372.0010      -5048.514       2688.771
       10730.05      -1463.773      -13033.67      -19625.81      -11471.79
       4943.074       9563.516       3424.662      -1874.970       4339.365
       6782.088      -1944.754      -8181.881      -5967.438      -2556.055
       1940.543       13937.67       16697.89       4691.620      -3928.830
      -3857.400      -4483.875      -6753.950      -4011.414      -4009.863
      -9081.691      -835.6270       7109.011      -1127.260       3199.499
       8667.545      -2162.459      -4877.645      -3084.850       346.0391
       5127.984      -5486.531      -10862.19      -3331.016       5869.412
       9410.768       2423.813       1262.718      -193.6104      -5126.044
      -1067.303       4686.471       3478.877      -104.5792       885.2622
      -1336.554      -3410.883       3312.146       2867.062      -6351.029
      -7952.753      -1278.163      -567.7473      -3189.900       4036.709
       9432.268       1263.120      -4339.767       585.4873      -222.2363
      -3116.352      -6717.574      -11924.43       1097.434       13618.71
       7925.975       9054.051       5766.252      -6739.211      -8384.244
      -7067.720      -1372.118       2170.257      -4298.331      -2877.858
       2611.200       3743.444      -111.0127      -451.2480       9733.074
       1619.314      -12060.54       436.3145       7055.189      -82.61914
       2130.189       5725.346       6165.067       4702.610      -443.2344
      -2418.533      -4146.548      -2688.648      -4123.671      -8137.298
       2093.459       1192.321      -5736.885       3743.795       1969.073
      -5054.125      -1865.286      -4210.186       382.6963       6761.562
      -1057.104      -2100.154       4265.381       5853.633       1880.295
      -171.3711      -2185.040      -6016.707       231.8359       8972.586
       6152.395      -5845.973      -16681.83      -14294.52      -1812.686
       4455.803       2884.840       1327.947       2288.158       2787.437
       147.6855       2938.123       4835.357       325.2305      -1292.168
      -5961.119      -7491.639       1926.945       5251.125       6578.764
       9500.406       261.4902      -4464.839      -1705.279      -5600.209
      -5213.017      -1519.088      -947.7676       2323.690       3084.626
      -1733.467      -2751.093      -355.9238       3779.866       4638.329
      -963.4287      -4118.981      -2466.983       3150.715       9129.600
       6792.352      -1723.111      -9887.659      -5001.979       8233.677
       6029.419       3100.515       5145.562      -3862.289      -5994.959
      -2466.369      -5902.444      -3741.535       6221.004       9951.356
       2273.108      -92.09033       1769.873      -6844.970      -5307.711
       856.5635      -1062.971       5495.701       6281.318      -3522.988
      -7931.773      -12667.51      -20301.71      -18940.16      -19820.03
      -24453.53      -11142.95       17644.03       40476.86       22709.61
      -37524.69      -95044.03      -128222.2      -120714.3      -44741.88
       64286.59       138616.0       129897.4       41839.96      -26096.50
      -18959.34       29290.09       96519.03       120373.8       73859.91
       30472.58       33704.39       33929.16      -10762.58      -57854.65
      -45584.05       12205.75       27250.02      -3347.766      -26497.14
      -37687.90      -24911.27      -13372.78      -24551.12      -10359.40
       22793.08       18054.40      -28149.89      -78683.91      -71015.98
      -10769.23       28245.35       23463.26      -7327.394      -6137.867
       21348.39       14146.88      -9520.734      -28043.78      -25867.92
      -1178.828       27571.91       44357.02       43601.34       42697.45
       20694.77      -34509.58      -71464.19      -68146.91      -40376.64
       9136.344       54714.72       55964.46       23865.80       7646.021
       10507.04       484.0742      -17833.04      -26477.80      -18445.64
      -2224.289       6289.352       14599.04       31181.55       38509.07
       25821.08       5886.547      -17161.76      -36114.95      -26634.41
      -3933.715       7527.500       11982.38       7461.164      -4434.012
      -8697.590      -4824.250      -11582.84      -28281.31      -28257.81
      -7670.834       12382.10       14096.80       6975.242       14954.14
       30686.96       20254.32      -16321.62      -42522.59      -35487.42
      -16138.89      -6049.840       5279.559       10265.57       11008.77
       17388.87       8598.443      -9341.293      -11314.70       6195.961
       23621.86       26794.98       15238.50      -5498.863      -12802.96
      -2583.999       2597.908      -4684.969      -6046.914       4152.797
       4153.005      -1675.622      -1485.621      -9016.664      -25950.86
      -28297.85      -4000.973       15773.26       3682.617      -20239.18
      -23465.04      -3899.750       6333.781       8027.016       24451.59
       40835.38       35840.77       17661.98       913.3750      -12561.95
      -23403.63      -22463.23      -13867.54      -10078.30      -3062.474
       4175.071       2299.896       133.6582       5317.570       9318.879
      -698.9824      -10049.51      -5676.114       4245.979       6229.182
       1053.826       4599.172       10031.84       3698.018      -6616.098
      -8965.539      -7793.898      -14489.87      -15129.68       1570.355
       14050.05       15905.28       12488.05       369.2578       1668.725
       8627.615       2081.999      -4211.436      -6328.930      -5709.619
      -7941.254      -11130.41      -661.4297       13836.19       10481.88
      -3814.855      -11610.15      -13381.85      -16460.92      -17877.30
      -6813.638      -898.4497      -4007.949       4032.723       17277.07
       22293.43       18492.88       9251.477       596.7354      -2663.214
       213.6719      -714.4004      -11567.91      -8558.688       13884.12
       18565.77       4905.414      -5244.283      -10719.56      -3389.598
       8564.379       12005.78       7852.973      -5815.596      -8011.133
       2855.428       2519.564      -2369.720       743.8154       3693.775
      -2595.992      -16051.89      -21425.28      -13936.65      -5909.869
      -548.9414       3261.956       3291.975      -4051.893      -7501.877
       4346.465       8962.275       6127.369       6678.246      -189.9746
      -8865.635      -5141.402       4602.616       2844.079      -2161.797
       2395.730       11704.61       13256.53       307.5127      -2791.547
       6291.383       4070.707      -2726.699      -1306.285      -5623.330
      -12809.12      -4652.902       4119.521       3175.342       2726.305
      -5714.754      -13202.97      -5692.688       5106.648       12959.81
       7764.877      -6368.699      -9227.523      -12475.11      -13332.27
      -1288.971       3892.347       4183.824       6619.525       7093.086
       9511.771       5858.577      -1544.196      -1651.668       2550.453
       6343.902       3039.203      -3065.973       391.1094       4832.258
       1899.143       1139.875       4874.129       4565.943       4530.191
       1502.707      -11958.71      -17673.63      -5121.113       9593.752
       12836.23       6021.385       5515.277       10688.82       9177.781
       1649.135      -5095.205      -7287.347      -2515.404       114.9863
      -8861.141      -7097.248       2013.244       3995.423       8057.814
      -6154.117      -19663.17      -1967.523       13505.20       12494.93
       7570.447       1021.996      -7743.156      -10130.44      -4556.008
      -1664.896      -931.2148      -4259.057      -8386.491      -7708.456
      -791.3828       8279.938       8668.914      -5625.645      -18792.82
      -13554.09      -3479.293       4051.609       8934.762       5106.381
       2786.691       3287.909       151.7478      -1757.562       2168.074
       7608.249       3555.046      -6296.511      -6629.428      -632.0391
       4862.185       2412.178      -5822.807      -1468.855       5542.125
       4082.334       6004.453       7760.622       4693.351       1110.092
      -883.5635      -4652.264      -6313.425      -526.8379       5584.501
       2522.382      -4216.774      -3236.490       5438.324       8969.087
       4459.663      -64.88281      -6590.810      -5796.242       8636.848
       15856.12       6187.640      -5317.624      -5347.063      -1041.432
      -5422.135      -10270.02      -5053.907      -1582.796      -1949.830
      -2167.516      -5759.355      -11304.02      -12016.63      -7759.542
