     0.02500000      -163641.0       192556.4      -12345.00      -12345.00
      -30.00998       226.9900      -26.56000      -12345.00      -12345.00
       0.000000       19.61000      -12345.00      -12345.00      -12345.00
      -12345.00      -12345.00      -12345.00      -12345.00      -12345.00
      -12345.00      -12345.00      -12345.00      -12345.00      -12345.00
      -12345.00      -12345.00      -12345.00      -12345.00      -12345.00
      -12345.00      -30.39490      -66.52800       752.0000       0.000000
      -31.23600      -65.83800       0.000000       167100.0       0.000000
      -12345.00      -12345.00      -12345.00      -12345.00      -12345.00
      -12345.00      -12345.00      -12345.00      -12345.00      -12345.00
       114.2571       324.5233       144.8751       1.027281      -12345.00
      -12345.00     -0.1982086       0.000000       0.000000      -12345.00
      -12345.00      -12345.00      -12345.00      -12345.00      -12345.00
      -12345.00      -12345.00      -12345.00      -12345.00      -12345.00
      2008       318        11        12        56
       960         6    -12345    -12345     10281
    -12345    -12345    -12345    -12345    -12345
         1         7        13    -12345    -12345
    -12345    -12345    -12345    -12345    -12345
    -12345    -12345    -12345    -12345    -12345
    -12345    -12345    -12345    -12345    -12345
         1         1         1         1         1
LLAN    -12345          
        -12345  -12345  
-12345  -12345  -12345  
-12345  -12345  -12345  
-12345  -12345  -12345  
-12345  -12345  -12345  
-12345  -12345  BHZ     
ZL      -12345  -12345  
[...]
       309.4498       311.4080       286.2233       301.2692       291.4688
       321.1030       318.6979       297.4325       316.9260       290.4060
       311.9146       327.0174       309.8444       326.0386       309.0986
       302.3223       310.8650       320.9209       333.2277       344.8918
       330.7496       325.1824       306.0569       310.5922       311.1374
       294.7578       317.4598       315.5073       310.7886       317.5555
       308.1360       316.1983       305.3671       316.7656       329.2362
       327.1659       316.1017       306.5609       316.7183       312.2557
       301.0464       306.7515       301.3738       293.7712       275.9210
       269.5346       270.8146       275.1514       263.4656       243.7159
       233.3685       230.4288       220.4952       215.9789       204.0557
       200.9824       199.1689       197.3254       181.5129       180.5617
       161.4587       164.0936       148.5045       128.3406       123.6639
       132.5371       119.5317       109.0192       88.41449       71.01447
       56.48874       69.64716       51.70158       32.66696       12.56048
       8.515366      -10.27598      -16.11804      -31.60283      -40.56128
      -44.39200      -56.91913      -75.64427      -75.61169      -94.47894
      -105.5866      -134.0014      -119.9789      -120.3664      -131.4049
      -140.5791      -159.9135      -174.8418      -164.3472      -175.9875
      -182.2398      -195.5735      -209.7922      -216.6879      -205.9990
      -224.5684      -227.2837      -246.8502      -238.4209      -237.5375
      -251.9602      -259.6111      -273.0748      -281.1586      -264.7806
      -273.3323      -279.7656      -301.8185      -304.0079      -302.1142
      -314.4418      -324.9987      -330.9098      -338.5778      -328.4210
      -338.5646      -342.1606      -352.2034      -350.3386      -357.4419
      -361.8982      -361.9766      -367.7212      -374.5356      -386.2168
      -388.4974      -382.7847      -389.6389      -390.6890      -404.4166
      -388.8577      -384.9966      -393.1785      -400.4231      -402.7825
      -405.1841      -393.5092      -381.8447      -382.7222      -389.6394
      -374.8750      -381.0685      -364.4843      -369.4176      -368.8169
      -370.1349      -364.0991      -365.9592      -370.9592      -373.4817
      -372.7271      -384.5664      -368.5981      -375.1808      -366.5510
      -373.7344      -371.4718      -372.6287      -371.0333      -374.4778
      -373.2002      -368.7552      -351.8668      -372.7329      -360.9507
      -355.6404      -341.0342      -327.7437      -333.2130      -325.2549
      -315.6860      -328.0204      -308.8461      -312.0405      -308.6556
      -291.2586      -273.9286      -286.3542      -287.4150      -281.5864
      -248.2216      -249.7010      -248.0146      -251.5109      -243.7667
      -226.3929      -214.6910      -208.2050      -186.0616      -193.9727
      -177.8522      -180.7454      -179.1145      -169.3367      -158.2987
      -145.1056      -133.0699      -137.9739      -117.7511      -106.9175
      -83.56381      -83.04726      -66.68985      -43.40788      -33.54170
      -33.01417      -19.18287      -6.095734       15.46397       21.86193
       29.51579       20.14108       30.79501       59.76578       80.77225
       73.19861       91.60516       101.9804       129.5153       150.4688
       159.0735       162.4844       183.4019       187.8115       206.3796
       216.2914       233.1375       227.7504       254.3650       255.1022
       260.1471       264.1099       295.2861       297.9126       315.5089
       313.8513       323.0686       325.1388       338.4232       352.0106
       378.7581       372.5264       398.1990       400.9883       412.0134
       406.9764       423.5763       420.3372       453.2605       463.8945
       468.5170       468.9574       487.2134       486.3926       490.1774
       487.2534       517.1084       517.3647       527.9023       524.7417
       526.5038       520.1450       532.5291       532.4659       544.5902
       536.9968       547.3582       543.9524       542.5243       533.2295
       538.3396       530.4790       533.5461       524.0010       523.8046
       518.5544       519.3916       505.6317       510.4587       488.4562
       486.4651       472.1810       485.4902       476.0265       452.0586
       434.3373       431.7505       409.3268       418.6389       394.8750
       401.3647       392.0415       375.0222       368.0038       357.4111
       347.9924       344.1713       319.1154       344.6415       308.0819
       295.5502       284.0488       270.0053       248.0519       237.2313
       232.4349       234.6161       215.0525       218.4575       188.4524
       170.4066       148.3264       156.7077       157.3875       150.2176
       114.7894       105.8786       81.39488       83.36401       68.11314
       59.77658       41.82358       34.16767       12.77799       18.03364
       2.844175      -2.349461      -17.68378      -13.65900      -39.38635
      -37.83122      -56.13768      -69.28436      -78.26039      -70.02319
      -90.48666      -93.20007      -110.0187      -120.7400      -130.1779
      -127.2365      -161.7651      -172.3190      -189.6933      -170.5028
      -180.7079      -194.4326      -215.3317      -188.5281      -189.5519
      -190.0368      -204.3165      -205.4125      -220.7814      -204.5663
      -223.3636      -224.0936      -229.2323      -235.7723      -242.1692
      -231.3519      -245.5525      -238.8380      -247.3353      -237.3439
      -242.2169      -231.2061      -233.2662      -228.6533      -236.8822
      -226.7526      -235.5173      -214.9564      -223.2622      -214.2603
      -223.1904      -215.8015      -209.8469      -196.4404      -216.6946
      -205.4431      -204.3613      -183.0513      -185.3914      -179.4551
      -193.2300      -183.9969      -187.7407      -177.5809      -178.9778
      -162.3358      -176.2208      -167.4034      -174.2460      -157.4470
      -175.9779      -179.2148      -189.6609      -178.6111      -177.3833
      -162.2045      -181.2043      -159.7515      -166.6296      -173.8778
      -193.5114      -181.0438      -165.4995      -149.6237      -174.1115
      -172.9073      -191.2026      -176.5455      -183.2205      -167.9686
      -184.2706      -181.8247      -194.6347      -185.5547      -193.4635
      -174.8725      -204.7977      -214.5297      -222.6978      -196.9280
      -200.9717      -182.3733      -208.6191      -222.5957      -244.4712
      -214.7990      -216.3669      -211.0651      -232.9013      -233.8770
      -250.4814      -233.7568      -257.0999      -247.9642      -278.1708
      -265.7384      -262.2611      -266.0092      -279.0531      -261.1837
      -290.0291      -288.9416      -298.5732      -272.9791      -279.5880
      -278.3804      -282.0464      -269.1091      -295.4425      -297.0537
      -309.8267      -274.8278      -268.0898      -257.7858      -284.8424
      -281.3682      -290.3501      -273.6389      -266.2086      -255.9753
      -274.4840      -252.4769      -239.6608      -226.0359      -238.4557
      -217.0883      -242.1797      -227.7468      -226.9574      -217.3472
      -248.5309      -219.9258      -225.5027      -223.6307      -220.0828
      -222.5925      -209.8630      -164.7148      -173.4181      -159.9819
      -208.2363      -182.2243      -167.3500      -143.8588      -133.0222
      -119.2304      -132.6123      -128.6286      -121.8626      -77.77972
      -83.76501      -85.51303      -76.13657      -60.35763      -51.57621
      -23.92371      -42.93031      -36.02073      -47.51846      -20.81236
      -19.12103      -13.34047      -17.61198      -1.197154      -7.225153
     -0.8642807       12.07213       34.82471       38.98854       56.90588
       43.68077       61.26924       51.00273       63.89432       65.95030
       83.17059       71.20883       101.7001       89.97009       104.2999
       120.2237       115.2872       133.2350       176.5903       143.0601
       146.0007       126.0731       136.7577       154.7900       174.8740
       157.9563       160.1199       154.4542       203.0551       224.1371
       215.3865       168.2570       194.2599       216.1101       216.2361
       192.2562       215.2708       222.9042       229.7605       208.2764
       228.2864       243.0936       245.2527       226.4933       238.8912
       224.9283       249.5183       237.0865       245.7867       247.8884
       265.3814       274.3785       289.1732       271.9910       276.5034
       271.9369       303.0838       303.7838       305.6467       307.0320
       323.1553       324.0337       351.9921       351.1926       369.4541
       365.8517       391.6598       394.3330       395.0697       388.6439
       399.6578       380.1078       367.4668       359.0127       377.0497
       386.0081       412.2168       392.0850       388.6852       378.4531
       391.3732       412.3802       437.5878       421.3887       422.7903
       397.5845       409.5781       414.6963       433.1689       436.7780
       436.8674       416.1233       408.5767       424.7321       438.9504
       431.5872       426.8356       401.1089       414.2578       394.3212
       410.4467       420.8988       407.8890       399.9092       391.3953
       367.3184       367.1638       356.4186       362.6442       342.4956
       342.5969       337.2522       324.9749       315.7984       316.0022
       299.6403       298.3906       283.4000       283.9346       262.0774
       252.1710       239.7528       216.1530       207.9795       218.7346
       202.9614       184.4619       164.1254       173.5827       150.4376
       135.1042       120.2466       119.0769       114.3741       104.5127
       71.38794       58.76065       53.50217       59.87228       50.26791
       49.98411       25.94889       24.99628       25.64678       24.54709
       11.10068       9.134430      -31.15991      -45.94046      -38.75551
      -43.58803      -57.14169      -68.16373      -86.89050      -78.65631
      -96.49213      -86.76965      -107.0069      -126.2051      -153.1936
      -161.2019      -162.9164      -164.7589      -170.1970      -182.4790
      -203.6324      -204.8036      -224.2269      -204.0507      -213.0724
      -221.5332      -235.7181      -241.6724      -242.7849      -255.9869
      -296.5500      -294.8658      -306.3754      -322.8187      -318.0560
      -308.0563      -299.5539      -315.4764      -336.9453      -324.9817
      -330.0626      -317.8907      -318.0875      -318.9078      -331.1259
      -335.3939      -332.4365      -335.2488      -338.8190      -331.5881
      -335.9871      -346.9235      -339.4332      -327.4237      -322.5109
      -297.7797      -305.4296      -315.9292      -322.9734      -328.8192
      -312.1389      -308.9692      -305.5538      -293.3430      -321.4116
      -324.6071      -291.4513      -280.8747      -274.4890      -257.7754
      -271.2155      -270.2948      -272.4677      -264.5823      -257.0466
      -237.3995      -224.8829      -214.7567      -225.1327      -219.5713
      -205.0547      -196.1121      -194.8446      -188.4619      -181.8156
      -171.1345      -173.9259      -162.4478      -173.8927      -182.0168
      -166.1951      -148.7765      -126.9684      -113.7840      -126.0868
      -119.3167      -109.2219      -88.07047      -73.87106      -54.25615
      -64.47159      -79.17561      -69.71629      -42.92789      -41.74274
      -40.63161      -37.26723      -31.89135      -22.12278      -5.532646
      -8.858532       5.838593       23.82347       3.756065      -12.30323
       3.388992       30.69728       40.20667       53.28640       39.89939
       16.73920       28.12776       45.83981       44.62383       52.12025
       38.66058       42.54008       51.62010       65.67058       53.79869
       43.10674       29.08409       35.54353       44.21387       56.62257
       53.48447       50.69220       41.67041       50.84553       37.62625
       30.52730       32.02246       30.53982       32.25378       28.26553
       23.17999       27.78127      -3.043808       4.443947       14.03883
       21.09293       27.07511       20.44712       10.49071      0.4060402
      -22.30032      -14.88538       19.78324       15.33820      -29.26486
      -19.04572       44.47584       36.03303      -39.09536      -21.91202
       86.78165       60.88599      -70.90061      -43.42700       194.2734
       94.15198      -288.4591      -152.6869       937.0747      -100.4277
      -3777.703      -10127.03      -58188.34      -163641.0      -120454.5
       115579.2       192556.4       70235.00       13264.62       19250.48
      -26298.37      -35570.03       5894.990       3623.703       4864.660
       21286.99       8156.312      -50144.55      -74320.09       17155.42
       74640.29       21910.51      -22983.38      -31933.69       7378.867
       44567.76      -2653.336      -49362.43      -24082.04       30716.80
       45054.08       15239.16      -30889.77      -57035.98      -27250.42
       11919.78       33482.45       26538.52       13785.28       13184.32
      -10773.03      -19357.89      -14425.45      -6953.562       28142.99
       31392.78      -7327.094      -22749.35      -8969.285       694.9727
      -13033.97      -20635.34       18547.14       58736.35       41411.52
      -11110.70      -42621.43      -25515.21      -654.5527      -1016.911
       3911.020      -5582.750      -18630.67       9433.840       15850.94
      -5228.867      -508.2744       6445.236       2547.914       11263.09
       12222.16      -1287.867      -18418.18      -37993.97      -16207.65
       22814.06       23958.42       9602.619      -1431.234       461.6235
       2124.141      -11847.84      -5624.385       12053.97       3307.232
      -5381.115       5426.570       3088.107      -11103.12      -554.2671
       6634.445      -7861.162      -9195.111      -5838.896      -6638.684
       5285.314       8995.100      -502.9766       5279.109       17225.13
       15022.98      -429.5625      -8138.774       1901.637       7309.984
      -7039.523      -16612.38      -10032.83      -13259.78      -14791.69
      -1197.457       4925.283       2664.863       1531.098       7172.605
       14224.85       12723.79       1517.553      -4665.846       1471.545
      -2679.965      -8203.258       1812.562       11366.88       4697.333
      -6499.144       1843.766       8419.604      -6791.652      -14106.05
      -2412.806       4311.047      -3050.949      -3368.805       1616.584
      -1052.244       2161.574       6442.940       4669.385       2400.611
      -6292.162      -10435.88       651.2686       4171.118      -666.5234
      -4348.570      -8123.820       6344.238       20630.45       10139.18
      -3697.502      -8298.113      -3911.965      -426.5399      -554.8074
       1957.689      -6172.335      -4445.453       15314.38       12897.65
      -5567.125      -12928.18      -9795.839       2327.649       8029.126
      -194.3730      -3164.822      -4635.085      -1257.715       4949.798
      -3932.500      -7825.133       3559.357       11825.85       7461.334
      -5074.202      -8382.105       4316.287       3377.391      -11598.21
      -9756.360       1707.816       12139.12       18069.17       9515.079
      -1674.043      -3191.586      -3754.591      -3668.589      -659.2114
       1132.583      -1755.133      -4530.106       313.0693       3531.385
       1550.287       1230.172       2807.989       2974.021      -3955.082
      -8790.404      -1682.145       5325.396      -811.9727      -6052.438
      -1950.934      -3313.552      -1559.513       4035.007       1590.283
       5810.762       10159.41       486.1445       764.1533       7125.223
      -3461.279      -12683.40      -4658.348       772.0918       484.1055
       3738.889       753.4229      -4169.604      -6199.771      -8921.170
       3205.160       13136.29      -1665.388      -3111.765       6103.127
      -1055.717      -8696.902      -6328.143      -2582.829      -1021.537
       593.9785      -5551.731      -2461.387       15233.42       11680.79
      -5294.973      -7553.808      -2091.438       1758.948       2029.564
      -353.5084      -1286.009       1706.980       2895.238      -1664.082
      -824.5605       4349.500      -1370.145      -4101.485       1169.573
      -1500.123       1303.990       6433.604      -1239.078      -8027.486
      -4994.757       310.7578      -1211.165       2880.597       6955.765
      -3181.952      -3467.571       1652.734      -2112.805      -4431.146
       1084.605       6663.665       2208.743      -3256.481      -5928.240
       643.1113       9912.443       4724.098      -7751.564      -10542.31
       943.9961       5250.845       1601.993       2857.079      -137.8521
      -2476.253       2832.901       1542.826      -6349.637      -6245.646
      -1239.383       533.7285       4513.501       4259.943      -2358.456
      -3801.940      -5725.312      -4241.598       4221.189       6040.586
       6428.342       6701.066      -4176.902      -8790.673      -910.4087
       2211.357       994.1807      -1731.713      -2285.277       1952.910
       2912.575       2643.773       1785.341      -1774.228      -206.3721
       221.6289      -6281.854      -3988.717       3371.831       1712.717
      -1092.737      -3297.493      -3261.380      -102.0107       1808.156
       9886.348       14953.76       5407.646      -3413.320      -4083.066
      -6275.683      -4803.034       452.9976       1705.424       3282.788
      -1651.729      -8966.389      -2725.616       4801.454       827.7979
      -2749.140       3548.115       6685.163      -1729.195      -2782.837
       4509.336       2176.168      -6471.484      -8772.638      -528.6094
       9096.549       7625.186       2456.929       1958.934      -2686.146
      -7283.558      -658.6636       4189.067      -1272.158       76.84131
       3041.459      -895.7017       1352.710       3418.533      -3448.103
      -5162.338       3446.326       4684.302      -392.2246       2429.519
