     0.02500000      -58478.01       46560.05      -12345.00      -12345.00
      -29.99998       237.4000      -36.40000      -12345.00      -12345.00
       0.000000       27.66000      -12345.00      -12345.00      -12345.00
      -12345.00      -12345.00      -12345.00      -12345.00      -12345.00
      -12345.00      -12345.00      -12345.00      -12345.00      -12345.00
      -12345.00      -12345.00      -12345.00      -12345.00      -12345.00
      -12345.00      -30.16080      -67.83630       1442.000       0.000000
      -31.23600      -65.83800       0.000000       167100.0       0.000000
      -12345.00      -12345.00      -12345.00      -12345.00      -12345.00
      -12345.00      -12345.00      -12345.00      -12345.00      -12345.00
       225.5154       301.3973       122.4126       2.027591      -12345.00
      -12345.00    -0.06050080       0.000000       0.000000      -12345.00
      -12345.00      -12345.00      -12345.00      -12345.00      -12345.00
      -12345.00      -12345.00      -12345.00      -12345.00      -12345.00
      2008       318        11        13         6
       800         6    -12345    -12345     10697
    -12345    -12345    -12345    -12345    -12345
         1         7        13    -12345    -12345
    -12345    -12345    -12345    -12345    -12345
    -12345    -12345    -12345    -12345    -12345
    -12345    -12345    -12345    -12345    -12345
         1         1         1         1         1
LUNA    -12345          
        -12345  -12345  
-12345  -12345  -12345  
-12345  -12345  -12345  
-12345  -12345  -12345  
-12345  -12345  -12345  
-12345  -12345  BHZ     
ZL      -12345  -12345  
[...]
       1490.008       762.8325      -1050.012      -4107.256      -4658.286
      -2728.861       637.2932       1559.259       959.9712       755.0088
       3107.194       6139.125       2560.208       2105.608       2619.772
      -2727.335      -548.5308       370.5791      -3464.083      -2163.416
      -1555.880      -665.9233      -1417.077      -2055.869       1731.022
       1293.157       330.8823      -438.4624      -2546.183       3053.043
       7568.023       4603.322       2329.211      -2689.247      -4267.932
       2779.838       4463.797       821.6738      -2237.488      -7869.025
      -11005.54      -5358.152       2831.936       4603.275       7038.953
       9949.434       3141.252      -2331.723      -4272.773      -11011.23
      -11309.17      -3276.791       6112.988       13907.79       9188.846
      -1897.525      -5785.092      -4210.934       1638.400       5235.816
       4097.421      -1763.464      -5971.542      -1512.659      -1185.377
      -3155.752      -602.0391       4446.702       7867.384       635.4824
      -1236.386       4356.263      -2411.107      -9114.299      -4745.908
      -122.4453       2504.799       4386.473       1339.901      -1298.716
       2822.327       1200.756      -4144.783      -4130.095      -3184.312
       652.9702       3382.316       929.2432       1047.646       2221.244
      -3490.346      -7468.880      -175.6270       7010.764       5061.920
      -2396.113      -4264.685      -185.3574      -1215.765      -3391.133
      -2834.440       305.0215       4886.418       6020.451       4563.567
       2994.062      -600.1914      -9896.459      -13551.82      -5119.273
       697.2510       2627.656       3304.283      -1887.792      -34.74219
       8326.861       9534.527       4750.146      -2298.947      -6871.471
      -7707.726      -7210.662      -587.6543       6503.082       4620.362
      -1336.900      -2069.843       2281.621       2532.268       2061.196
       4384.569      -2576.575      -7452.671      -1218.859      -1300.462
      -2757.612       3353.302       6776.278       607.2725      -5460.043
      -745.2190       1364.513       796.7280       4686.640      -1982.705
      -9898.518      -6493.913      -3839.229      -1739.208       1131.085
       2172.810       1792.718       3238.156       4341.805      -1516.820
      -4868.951       1435.043       5253.830       5396.039       8569.996
       3980.566      -6097.559      -9636.945      -7771.789       119.2151
       2137.404      -3516.068      -5431.406      -5896.197      -1097.355
       6235.377       4506.702      -1166.873       3507.594       12777.58
       7839.273      -3333.179      -5363.490      -3175.448      -5072.144
      -4159.060      -2094.273      -3371.270       4302.318       9789.227
       3793.023      -342.6016      -5125.253      -6516.567      -384.1309
      -2.591797      -2965.435      -1109.123       1454.660       5282.641
       5013.853      -1709.145      -1322.912       4214.106       2806.714
       296.6729       1457.321       1705.307       640.3885      -194.4259
       202.4608      -218.0352      -498.0166      -1880.826      -6632.532
      -4747.102      -78.61328       4526.773       7207.938      -913.8447
      -3958.417       2142.286       4132.165       4642.250       2597.041
      -4235.980      -8654.535      -5932.483       1863.301       7647.915
       6346.046       1932.460      -2145.424      -1408.234       1670.255
       227.8584      -2710.812      -3617.524      -435.7539       5394.717
       7293.896       4033.114      -3223.843      -5637.545      -3567.882
      -3264.836       4916.782       8562.803      -768.7056      -2184.497
      -1034.829      -4034.140       122.8022       2461.103      -349.6831
       1885.325       2448.621       1256.249       3576.541       4391.117
       1263.409      -3283.188      -4206.922      -2902.203      -4340.008
      -4300.649      -1852.566       2682.773       7240.100       5311.830
      -296.6426      -2684.524      -3517.454      -4906.662      -1230.713
       5073.317       3940.041      -2097.398      -5284.835      -3621.103
       560.2656       4033.604       3220.589       1650.268       4904.395
       8110.138       4203.520      -222.5537      -1404.672      -3364.121
      -4330.580      -4984.738      -5466.788      -1934.887       2880.368
       5330.465       5040.253       4339.677       671.3262      -5028.893
      -6655.006      -7491.656      -7708.000      -2768.922       5344.941
       11946.56       9182.205      -1655.863      -7943.758      -2546.824
       1616.829      -1862.876      -1637.664      -2719.518      -8211.310
      -5797.684       596.3262       4373.713       8667.681       7947.779
       84.44727      -5985.672      -8748.700      -4890.042       2972.848
       3397.431       898.1890      -75.49902      -122.3984       4314.332
       7563.644       4865.339      -3547.674      -7739.637      -2946.042
      -459.9751      -2202.338      -3172.629      -4437.517      -4914.216
      -2844.120       1277.680       5929.689       7196.533       2673.750
      -695.4072       2005.063       2294.522      -2750.162      -4784.223
      -6014.986      -9710.447      -10040.32      -1356.898       9464.680
       13318.17       10960.07       5369.071       361.1738      -3108.275
      -7028.879      -8696.215      -6072.878      -3192.747      -2652.538
      -1433.125       3507.824       5598.844      -2780.491      -5332.175
       2991.067       5405.152       2190.904       522.3162      -1076.424
      -1294.637      -1568.009      -4188.954      -6289.498      -3809.449
       2065.347       1839.775      -4316.371      -6097.193       270.9609
       9303.357       7822.786       1152.521      -642.7219      -514.4668
       1985.460       2207.967      -1457.958      -2041.350      -3181.330
      -4993.375      -1909.486       3465.818       5500.346       4411.666
       2129.891       261.2744       2145.906       3723.831      -1123.976
      -4337.493      -1819.981       3577.721       4502.281      -2437.559
      -8693.260      -10001.21      -4365.789       4906.199       7434.289
       4951.893       1058.055      -413.4004       1409.110       2215.940
       3301.001       216.7500      -3676.037      -6943.617      -13393.92
      -6871.941       4985.539       8079.357       7823.703       3733.166
       4128.811       8573.352       6155.213       4137.373       2419.027
      -2762.736      -8310.611      -9011.137      -3189.747       2502.809
       5363.328       3330.304      -3727.711      -6485.544      -1626.139
       6256.268       8268.074       3772.612      -550.3430      -1987.833
       1213.991       2876.953      -2154.838      -5681.483      -1217.700
       2897.799       1300.970       1031.134       9.393555      -472.0654
       4314.518       4449.613      -2278.828      -2964.207      -1540.816
      -773.0465       151.7651      -1111.159       2544.422       4271.817
      -289.2614      -636.7344       709.1924       3724.277       8446.969
       6547.095      -1755.521      -8641.883      -7427.723      -2782.631
      -635.7285       3987.088       9201.178       8707.970       2417.297
      -1530.844      -3943.168      -5625.254      -1421.042       960.9616
      -293.9111       1094.598      -636.2549      -2693.740       823.4521
       4254.114       5449.709       4243.767      -1304.186      -7144.672
      -6811.134      -2530.763      -941.6129      -551.5403       771.8579
       59.75195      -253.0488       5172.559       6895.474       2366.703
       2800.671       2897.933      -4122.762      -3113.874       2726.348
      -113.1050      -1999.009       2777.765       1789.060      -5067.369
      -3509.185       1870.502       61.07300      -1444.355       2474.001
       5977.672       3263.027       2156.071       4256.701       992.3975
      -4144.314      -7502.389      -10289.62      -10027.95      -6790.906
      -765.5293       5906.416       6177.491       3749.991       4912.751
       4140.791       1101.369       515.9695       1997.093      -502.2637
      -3408.102      -4220.520      -8998.791      -10768.71      -2612.555
       3863.912       6880.928       9484.005       4526.346      -2262.026
      -1084.164      -1831.359      -7289.476      -4695.844       2274.713
       3166.702       1086.787       229.3125       195.2764      -3054.492
      -7419.006      -4839.070       3697.936       8260.828       6086.801
      -319.7910      -3131.910      -2310.129      -2411.862      -249.8711
      -2948.225      -5030.818       1505.811       1974.502       3318.705
       8207.942       3000.387      -4295.896      -4256.496      -2255.263
      -1431.207      -1747.957      -4301.910      -4713.554      -536.5479
       2287.511       1771.201      -2153.867      -5806.926      -5771.664
      -4644.499      -655.4180       7391.512       9339.656       4782.832
      -153.5498      -4837.002      -5597.983       72.38184       5581.917
       4279.762       34.47803       792.5199       636.2217      -379.8330
       2645.675       2674.388      -409.4648      -5737.984      -11451.32
      -5721.727       3892.417       1361.484      -5109.834      -2018.528
       4551.831       3691.106       738.0081       1827.929      -179.6206
      -1542.740       426.6239       364.7214      -26.15308       81.18359
      -2730.541      -8909.426      -12181.13      -1192.582       10918.89
       6627.574      -2676.371      -3661.874      -1101.915      -2435.119
      -1635.411       954.0835      -1160.297      -1356.740       1184.415
       3890.275       5764.393       3655.704      -1233.542      -2153.619
       27.69287      -1347.652      -2891.222       264.4775       2489.879
       905.5995      -164.4707      -1680.779      -4684.103      -2390.313
       325.2666       1713.102       3778.224       103.1715      -1343.317
       1724.314      -513.2651      -1662.144      -2466.385      -4264.176
      -1185.872      -929.6943      -3898.581      -881.1685       856.2383
       1134.659      -301.5801      -6193.752      -5023.183      -505.5498
       3160.451       7703.686       5666.152       4921.166       5161.215
       286.7324      -3923.664      -6669.628      -1979.908       2746.841
      -257.8877       3170.240       1850.331      -5099.423      -395.6294
       2284.427      -1188.764      -826.3945      -1523.305       568.5312
       3344.235       1959.281       631.2764      -2986.768      -2272.919
       4185.733       3736.428       513.6025      -1509.659      -3791.682
      -1717.239       2718.758       3319.028       131.8008      -3945.191
      -2910.964       635.4403       156.8696       174.0454       1806.710
       1093.028       95.16382      -32.36914      -2206.633      -6072.417
      -6090.800       8.752930       5545.288       44.08838      -2707.598
       779.0073       62.44531       5678.207       10844.24       4907.637
      -1754.447      -3671.573       183.9937       2127.976       6.109009
       195.3604      -1252.794      -2112.314       2167.672       3324.415
       3748.834       5182.730       3183.600       6130.982       8626.518
      -596.8359      -9613.367      -12589.49      -8885.533       1301.170
       6892.960       3303.060      -1231.078      -2703.912      -2672.169
      -2646.373      -1118.855       1040.523       565.1982       3556.994
       7524.055       6641.545       7173.168       1894.212      -5262.723
      -4019.821      -259.2656       4947.731       5799.119       2743.511
       3427.816      -229.7559      -6211.953      -9271.709      -9297.505
      -4776.018       866.4922       6308.748       7280.838       4341.560
       3830.318       751.8086      -3021.462      -2683.127      -3217.663
      -4136.603       539.1748       5325.606       3490.485      -2400.232
      -6490.057      -9563.768      -8388.522      -740.1270       6816.164
       14342.16       15582.62       7165.601       3203.213       5296.594
       8432.492       16171.27       23518.02       26812.67       20852.65
      -235.4531      -17289.31      -22381.36      -20431.30      -16772.73
      -16683.89      -11906.66      -4992.787      -1693.051       1306.209
      -5687.469      -16268.32      -12021.66      -6311.680      -8586.918
      -11695.23      -12501.21      -748.8447       9198.879      -4947.375
      -27804.54      -37639.55      -34559.38      -15900.35       19358.56
       44568.39       45780.33       39599.37       37901.48       34443.00
       29780.54       40807.77       44632.85       16309.96      -25638.77
      -58478.01      -53673.04      -14566.98       13740.09       21655.40
       18355.52       2609.348      -7515.141      -11540.30      -30389.24
      -42429.35      -31393.92      -17434.19      -894.8047       26685.20
       28343.55       317.5664      -13886.69      -17551.44      -15067.06
      -700.2969       18730.76       30705.19       12973.10      -10654.79
       8531.578       33656.39       26337.74       23957.50       10884.84
      -23912.10      -36410.01      -14224.40       12466.23       11579.19
       9941.135       16824.38      -1136.891      -30839.20      -47528.02
      -44851.95      -21396.20       10754.73       21272.88       10329.37
       15693.05       32653.66       29890.73       18361.56       931.0938
      -27923.09      -34697.41      -19071.03      -8034.312      -256.6914
       7948.477       23846.69       36284.41       25259.03       1353.641
      -23774.19      -27881.18       1590.398       24114.41       28541.98
       28280.22       18071.05       3272.727      -10781.13      -13689.34
      -14097.32      -24899.06      -39332.17      -50209.68      -39073.68
      -20296.65      -8303.008       19603.69       37699.69       22047.34
       1687.258      -18940.20      -31679.21      -23675.22      -6912.598
       15073.75       29329.85       23181.99       15518.80       13369.55
       9593.457       7244.845       4811.453      -961.3867      -9149.490
      -13739.82      -3597.279       7917.820       12187.05       17924.66
       15366.73       9927.004      -3636.961      -30310.65      -35892.11
      -21132.93      -8738.002      -6452.580      -8200.678      -3951.758
      -5006.104      -5932.229       387.2754       1050.965       502.8711
       1697.836       9358.055       23580.18       28328.27       12712.25
      -14592.55      -28551.84      -28045.66      -24307.65      -9815.801
       7510.842       10644.70       6344.209       7221.066       11319.51
       6785.934      -7995.910      -15493.11      -84.50781       26647.40
       30589.36       13030.03       166.0845      -1732.209       8344.201
       11223.17      -7856.049      -12704.96      -92.76172      -5600.387
      -18400.77      -23323.60      -28979.88      -32671.27      -26962.38
      -6959.297       18426.47       37247.91       46560.05       36609.09
       19404.21       8643.092      -2526.100      -6551.204      -5648.393
      -1260.087       2928.070      -9018.578      -21923.02      -19283.98
      -16773.78      -16416.15      -8084.924      -4363.176      -6956.273
      -10735.48      -14530.63      -7561.955       5403.625       15265.04
       14043.35       2215.655      -2359.977      -4277.004      -9725.150
      -394.9062       13205.41       16428.22       12455.39       1644.594
      -771.7168       4127.516       4381.988       6363.588       5722.510
       2986.656       584.5659      -2925.323       1324.184       13614.29
       17506.56       4349.760      -7654.258      -8839.075      -3979.354
       2956.295       1288.702      -3140.839      -661.3564       2692.830
       2711.229      -1534.770      -6942.712      -6225.401      -2940.764
      -1597.737      -2079.323      -2723.480       3681.789       12299.12
       10646.10       6060.564       4670.609       5060.095       4191.945
       137.6123      -1842.174      -4591.105      -9609.898      -12641.29
      -15299.88      -15354.19      -13445.04      -13764.99      -12254.45
      -4737.508       8097.859       23491.12       28598.27       20828.44
       13954.46       8182.774      -790.0889      -3301.383       4725.945
       12371.06       10747.72       8567.352       7644.477      -780.6055
      -6306.281      -4810.883      -8389.029      -8707.656      -2606.013
      -1825.689      -2721.943      -3877.961      -13488.11      -18774.38
      -7896.928       3928.662       8500.777       11348.00       12604.55
       12345.93       9374.012       2918.987      -793.1897       151.8440
      -1000.434      -1449.395       39.37207      -3180.973      -4609.182
      -3611.008      -6310.971      -7313.090      -8779.245      -4386.338
       9776.922       15444.68       14325.79       18630.13       17369.28
       8738.137      -78.29688      -6999.287      -6415.144       629.5195
       6169.638       4055.188      -3693.109      -10057.21      -15942.21
      -18316.11      -8639.098       9278.246       16497.02       2521.566
      -12331.30      -13138.60      -9929.018      -6897.562      -2224.578
       4519.172       8868.608       6537.963      -441.1406      -5227.054
      -2787.668       2340.246       6538.926       10004.01       11717.65
       9849.156       2283.587      -636.0107       4345.197       4582.350
       2770.477       5291.371       1550.089      -2935.576       1349.271
       2285.413      -2553.854      -2425.515      -755.0723      -3405.273
      -9270.309      -16553.62      -18006.02      -12013.89      -7189.592
      -7033.967      -5755.366       1482.539       6419.302       1675.875
      -6811.316      -13633.74      -14724.49      -5106.738       6146.695
       14399.03       20522.43       15581.76       3305.556      -4924.843
      -2210.992       10288.72       17105.56       17943.27       17394.23
       13653.15       6361.712      -2596.855      -5411.434      -10923.57
      -15308.98      -5528.583      -1157.188      -2971.407      -2640.439
      -6723.254      -6931.719      -4293.888      -4762.919      -494.9336
