     0.02500000      -95334.59       99275.84      -12345.00      -12345.00
      -29.99998       237.4000      -36.40000      -12345.00      -12345.00
       0.000000       27.66000      -12345.00      -12345.00      -12345.00
      -12345.00      -12345.00      -12345.00      -12345.00      -12345.00
      -12345.00      -12345.00      -12345.00      -12345.00      -12345.00
      -12345.00      -12345.00      -12345.00      -12345.00      -12345.00
      -12345.00      -30.16080      -67.83630       1442.000       0.000000
      -31.23600      -65.83800       0.000000       167100.0       0.000000
      -12345.00      -12345.00      -12345.00      -12345.00      -12345.00
      -12345.00      -12345.00      -12345.00      -12345.00      -12345.00
       225.5154       301.3973       122.4126       2.027591      -12345.00
      -12345.00      0.2230382       90.00000       90.00000      -12345.00
      -12345.00      -12345.00      -12345.00      -12345.00      -12345.00
      -12345.00      -12345.00      -12345.00      -12345.00      -12345.00
      2008       318        11        13         6
       800         6    -12345    -12345     10697
    -12345    -12345    -12345    -12345    -12345
         1         7        13    -12345    -12345
    -12345    -12345    -12345    -12345    -12345
    -12345    -12345    -12345    -12345    -12345
    -12345    -12345    -12345    -12345    -12345
         1         1         1         1         1
LUNA    -12345          
        -12345  -12345  
-12345  -12345  -12345  
-12345  -12345  -12345  
-12345  -12345  -12345  
-12345  -12345  -12345  
-12345  -12345  BHE     
ZL      -12345  -12345  
[...]
      -133.1755       1090.226      -940.3672       1393.281       3278.164
       530.0889       253.1445      -1331.886      -2608.171       281.7217
       2092.357       633.3335      -3139.631      -1916.904       5497.433
       6183.144      -620.2036      -3982.876      -217.6533       3412.829
       831.2412      -2622.162      -1821.402      -201.9127       260.6440
       1432.963       2291.313       1118.514       338.2742       491.0137
      -1523.312      -4286.922      -1656.245       3510.561       1991.717
      -3222.081      -2983.780       1375.242       4022.178       2331.261
      -1361.857      -1077.433       2959.945       1932.000      -3165.387
      -2692.493       866.5352       1195.926       2165.340       1122.700
      -5224.533      -3601.557       4989.916       4343.800      -245.7471
      -2663.562      -3193.933      -79.72900      -1282.575      -4729.512
      -1022.996       3553.615       2601.570       588.6777       1145.825
       2057.630       1735.516       1085.469      -543.0410      -1510.035
      -296.3877      -1163.399      -1152.877       1357.565       1982.962
       1458.798       131.3632      -377.5352       1827.013       3542.153
       3193.737      -198.9885      -1538.885       2055.388       1408.153
      -3674.632      -4441.869      -3523.260      -1321.693       2882.500
       1493.420      -2127.835      -599.5918       2321.535       2831.333
       2136.437      -309.4746      -4699.597      -2681.811       3396.129
       2587.494      -2120.958      -826.2559       5438.121       4702.246
      -3973.333      -4174.146       3422.026       1777.049      -3743.590
      -2722.392       412.2384       771.8186      -1291.171      -1006.467
       2343.131       4918.621       122.7646      -5699.771      -2132.709
       1053.638      -3088.098      -6486.249      -2136.382       5664.939
       5816.818       174.3174      -3124.162      -511.6426       5315.658
       4725.378      -1375.036      -1612.910      -37.92090      -3520.201
      -4010.169       1462.349       3877.972       532.5405       775.4355
       5785.928       4849.923      -609.3804      -1977.326      -1626.243
      -3606.122      -3419.496      -2129.126      -2137.552      -738.1943
       3075.688       3268.896       1.742798       256.1510       1356.437
      -1390.022      -2084.343       345.6331      -437.1482      -946.3872
       1925.059       2137.434       1498.040       3815.812       1383.041
      -211.2480       1276.732      -1570.363      -893.0381      -228.1191
      -2507.734      -4004.329      -4030.443       1440.009       4914.775
       1542.470       760.8140       1968.313       1943.413       198.0410
      -3001.074      -5434.149      -5852.487      -3314.600      -173.2832
       2383.792       2893.393      -190.5864      -1695.734      -810.8425
      -1323.608      -332.8613       2797.070       1198.837      -379.2593
       1963.415       2037.450       2485.818       2228.589      -3414.628
      -4114.830      -752.1982      -2721.211      -6479.900      -4032.680
       5911.051       9417.001       1669.383      -1688.922       356.6382
       1994.192       3237.313       121.5391      -3812.952      -2865.358
      -1611.442      -947.1797      -2479.683      -4780.990      -1720.811
       1233.156       180.1240      -1113.163       695.7761       1898.647
      -2057.761      -3888.978      -488.2122       1928.530      -418.6084
      -331.5430       2463.087       1153.752      -1624.667      -2561.997
      -2835.641      -8.473145       2982.872       225.6782      -2422.961
      -1400.681      -3363.156      -2738.619       3428.587       2146.205
      -2912.807      -89.54199       1716.307       1548.127       2736.719
      -575.4004      -2778.958      -451.8628       333.8115      -1717.235
      -2729.632      -1412.079       1426.908       3780.584       1476.776
       505.9641       1548.789      -1308.688      -3344.241      -3424.585
      -2699.196       1558.772       2428.073      -558.8459      -559.1140
      -505.6692       95.73584       1217.343      -3387.203      -3083.393
       4638.895       6616.563       4125.417       775.5645      -1732.898
      -1059.840      -3156.287      -4105.491      -872.5366      -253.7646
       500.8242       3270.684       3927.818       3715.290       438.6777
      -3285.222      -1737.785       13.59180      -2565.211      -3873.807
      -364.6855       3120.354       2210.281      -1222.545      -2700.834
      -1396.518       1381.980       3085.181      -1198.685      -3609.808
       3251.143       7104.353       500.0156      -4186.192      -2100.149
      -485.1616      -1452.386      -1563.446      -55.19336       2649.770
       5705.767       6288.254       2639.568      -2318.057      -6362.461
      -6978.984      -4457.748      -2640.988      -2279.562      -1007.584
       2138.571       3710.718       1861.372      -161.8999      -1726.823
      -1472.839      -695.4691      -173.4064      -300.7097      -402.1846
       2486.587       3945.708       1524.257      -367.1621       365.0601
       1386.635       1005.285       2183.576       2482.432      -526.2275
      -1800.769       2662.149       3678.967      -2950.623      -7643.276
      -4919.342       3498.778       5656.409      -3247.127      -5116.696
       1940.025       3194.056       328.1973       1328.570       1830.847
      -1701.728      -4304.744      -1814.535       3101.089       5512.239
       2743.999      -1608.025      -2132.821      -663.1345      -1142.067
      -1352.152       1388.428       4067.795       5046.927       4433.152
       1878.972       2692.590       2665.780      -1460.718      -3843.099
      -3700.870      -4118.320      -4995.749      -2895.728       2364.810
       3126.252       1262.069       4279.172       5173.434      -518.5371
      -1902.470       4227.352       5757.054      -3193.582      -10252.90
      -6659.137       606.2402       3666.303       3259.526       1270.585
       2700.842       6721.073       7006.269       2368.420      -3844.688
      -2662.904       4073.708       3754.658      -2705.492      -7628.017
      -6684.606      -1746.916       617.9727       1372.868       2784.682
       2701.537       1772.667      -931.5620       1269.720       2627.010
      -4123.692      -4732.579       222.5789      -610.5006      -791.8921
       3366.346       1954.444      -1475.661       4130.402       7218.922
       1791.436      -1890.613      -496.7427       1984.545       1492.146
       1086.259       2499.801       2459.749       340.9180      -1716.970
       1069.982       2575.662      -979.8516      -3574.382      -3511.647
      -1453.235       2695.652       6855.373       4658.061      -299.3359
       3125.997       5118.096      -503.8823      -1911.323      -775.0967
      -3313.475      -4241.383      -3293.693      -1677.752      -414.5264
       2814.098       7359.884       5675.526       1311.309      -896.0784
      -1854.728       148.8438       2339.933       248.2344      -5643.896
      -5550.237       1423.480       5359.750       3071.822      -488.2041
       1597.910       4703.586       1721.258      -14.15137       1835.236
       1775.452       465.4990      -914.5312      -3391.997      -2591.494
       476.9604      -1669.131      -2440.354       3294.159       3206.422
      -92.87012       267.7627      -2412.879      -4650.049      -575.4204
       2682.008       2349.217      -103.4209      -2074.296      -2351.294
      -1995.954       799.2217       3161.914       734.8682      -2838.220
      -3120.930      -396.0562      -330.7676      -1657.272      -760.7383
       653.5535       1337.152      -668.0791      -2418.573       1524.009
       3421.656      -1348.453      -4020.687      -1499.751     0.02978516
      -695.7822      -225.9272      -46.83789      -1478.591      -1152.726
       223.2886       1311.366       1751.294      -151.3223      -1523.911
      -1570.048      -3469.903      -3341.279      -2711.669      -3574.060
      -466.5698       2843.177       657.7383      -1238.061      -594.8398
       1686.551       1879.092      -1259.757      -697.1476       639.7939
      -2200.908      -4654.006      -4854.521      -2866.591      -1896.419
      -2246.492      -411.1729       2721.323       2549.230      -2783.271
      -5944.785      -694.1592       2420.969       1732.112       2859.223
       2195.402      -978.5996      -4142.069      -3608.733      -1944.150
      -2109.621       2020.121       4174.610      -1549.656      -5096.479
      -2470.883      -558.3914      -496.0394      -431.3807      -219.6943
       1254.641       2361.919       238.6445      -3651.414      -4511.791
      -1673.158      -1289.665      -1597.856      -297.1733       309.0566
      -1773.025      -4465.146      -3489.709       518.9629       2602.729
       1411.248      -787.3008      -2823.542      -954.6021       1902.091
       500.0693      -2697.232      -6184.177      -6608.823      -2176.223
       2692.830       4588.052       5363.432       1430.513      -1953.344
       1414.515       1743.234      -130.0815       1677.714       593.6494
      -3645.602      -4148.118       159.8330       2788.778       438.8770
      -3989.633      -3440.057       1390.205       3165.070       2130.219
      -908.1953      -5917.987      -5008.947       250.5322       501.5547
       509.3359       5630.951       5509.514       726.8877       1131.535
       2176.185       207.4565       468.8936       2387.273       2576.932
       56.59424      -2177.799      -991.9762       496.2578      -1617.702
      -3069.131      -2354.268      -2816.222      -2409.197      -703.6222
      -577.7505      -854.6777      -1154.829      -896.9021       334.1016
       2074.500       3412.664       3375.618       1742.534      -641.6323
      -1937.174      -800.5045       265.7563       250.7627      -1793.525
      -3768.875      -1488.438       2097.911       1992.873       2087.391
       6198.801       5185.246      -1065.192       280.0210       2971.269
       1636.572       1268.334       776.7837       1205.799       2646.441
       2220.695       2811.502       3552.164       443.4258      -2816.826
      -2285.145      -2696.984      -3027.657       1288.559       4488.531
       2316.142       686.9786       154.7168      -1756.411      -1050.767
       4385.625       6700.915       2938.249      -1082.722      -2144.316
      -1192.184      -1228.094      -1824.626       1480.686       2561.368
      -270.8027       1871.893       3718.263       652.9385      -1313.768
      -970.3115       3124.017       5741.841       2735.647       628.2012
       2235.234       5615.363       3418.752      -4193.949      -5145.076
      -1074.627       722.0757       1452.905       2767.990       2147.104
       350.9569      -313.5608      -63.59302      -109.9163      -698.9265
      -1124.865       1506.318       5967.183       4581.415      -1454.827
      -2808.146      -1826.997      -2464.749      -395.8447       3573.795
       3669.335       714.4698      -545.7023      -173.8589      -801.0580
      -1094.093       486.9824       3169.072       4181.326       3243.215
       4455.642       5798.847      -367.6680      -6095.390      -4451.359
      -1532.313       1910.516       4908.634       3259.547       2438.778
       3353.195       264.0811      -3864.227      -4773.638      -1729.582
       1651.697      -101.3223      -417.7676       2669.358       2447.817
       1341.676       2104.462       772.8681      -646.1497       999.8218
       419.6611      -3585.207      -4899.821      -1730.870      -732.2607
       723.8184       9392.066       10676.10      -605.0918      -4828.166
      -213.9512      -1543.393      -4376.273      -1166.430       3133.009
       2372.344      -996.4758      -821.1068       553.5997       326.1143
       831.7153       1583.331       726.8218      -2283.452      -1727.343
       2021.377       1296.278      -2014.089      -4505.420      -5826.578
      -2796.403       648.3096       1557.679       2514.936       1955.184
       2244.128       3161.857       1289.574      -224.6494      -2008.583
      -4086.102      -1966.067       2631.276       3839.021       3390.101
       1668.240      -2838.500      -4994.596      -4917.318      -5867.471
      -6976.891      -6805.361      -7878.938      -9966.371      -10813.45
      -16570.45      -24545.30      -21781.54      -10241.34      -6327.555
      -12008.01      -18139.95      -26983.03      -37909.08      -45632.78
      -57020.67      -65210.77      -49913.00      -14083.50       20335.02
       34155.49       34662.89       50238.72       82243.12       99275.84
       76477.18       29983.12      -848.5312      -13621.34      -26033.73
      -30676.82      -22204.29      -8635.281       4936.594       25002.42
       49094.74       48265.02       31345.52       42154.28       64656.47
       55809.52       27581.66       1185.094      -33488.20      -69814.22
      -79437.34      -50801.16      -20146.42      -29835.92      -50579.87
      -41282.89      -18556.39       2002.211       29884.61       53609.99
       47745.53       7328.930      -34438.31      -49233.62      -35276.79
      -11582.33      -22925.88      -39514.90       9077.438       84276.31
       92242.38       41519.39       3707.664      -31069.75      -60029.82
      -27572.06       9940.332       4368.234       352.4531      -23887.66
      -67414.98      -61360.65      -6027.531       44683.00       70716.36
       81898.28       66797.12       42772.91       27259.07      -5883.965
      -22606.95      -1873.906      -2537.742      -33835.76      -38027.19
       2309.531       38669.81       35329.43      -5081.719      -64291.47
      -95334.59      -60537.53       8820.328       52427.60       48040.16
       13132.31      -7229.461      -8680.281      -32252.90      -38995.73
      -5530.725       7955.062       3003.986      -314.6719      -21420.07
      -28514.72       5905.164       40880.73       45988.87       18523.04
      -7914.229      -1060.495       4065.288      -7378.266       1350.547
       24973.23       32850.57       20517.68       12432.57       22545.34
       21449.42       12113.20       4268.484      -25758.95      -62604.28
      -71561.86      -50678.75      -20821.55       1365.625       18307.64
       38433.09       50778.38       36982.11       3013.031      -27971.53
      -31307.26      -1352.227       27139.63       21937.49      -9892.188
      -33492.13      -25490.62      -12969.12      -18774.20      -26683.93
      -19411.09      -1243.328       5597.812       15635.73       38866.52
       40887.63       17876.27      -7899.828      -18992.54      -22390.57
      -27173.62      -8637.836       18046.45       20020.71       10642.76
       6687.953       13709.45       24487.83       20059.33       9419.373
       10565.32       9097.211      -3403.672      -21128.84      -35589.70
      -42579.06      -50565.77      -37041.64       14233.84       57999.38
       53042.60       21323.87      -1098.932      -5749.047       4444.469
       14198.50       11372.19       7351.426       4989.854      -7478.227
      -11122.06       5524.209       2867.547      -18773.30      -18242.23
      -10996.36      -11877.57       4213.184       19764.53       8781.166
      -3923.947       3729.508       18246.81       12243.65      -10995.68
      -11739.88      -86.00586      -10988.60      -10446.03       8155.119
       10856.05       9943.977       14663.48       18749.40       14306.13
      -1713.297      -13148.81      -9353.054       3666.065       8252.126
      -1012.074      -7073.725      -6569.633      -13146.00      -17247.42
      -9437.069       67.51562       16633.46       15426.00      -14160.00
      -21865.94       88.27344       20566.38       20123.04       8595.859
       5741.840       9436.539       12801.69       6010.652      -3500.307
      -5435.726      -3791.777       3571.445       10774.47       11349.23
       10215.41       10086.59       6808.793      -6327.988      -14678.36
      -3911.112       4260.418      -4323.992      -14830.66      -15122.49
      -13748.46      -19091.29      -21813.41      -12088.66       2176.078
       4093.311      -2.626953       1881.869       6993.965       10317.23
       6345.049       2104.324       8687.562       16330.21       13010.45
       7837.199       5832.619      -1960.468      -5168.347       1328.693
      -3677.562      -15544.67      -11125.14       2494.906       9265.629
       14580.41       20738.51       13705.52      -3947.009      -6540.273
       6657.599       8537.250      -2194.117      -9064.914      -17801.04
      -30632.42      -31943.99      -22883.50      -15034.81      -11021.46
      -3290.766       10760.29       16548.18       11700.25       5869.658
       2000.200       3579.890       2771.328      -224.6836       7960.578
       23342.27       29045.46       19834.19       7487.970       1773.025
       6023.750       11070.10       5310.525       715.7920      -1002.266
      -10159.52      -15693.30      -16566.93      -24054.31      -31425.81
      -32052.84      -27658.44      -19011.25      -12440.65      -6269.668
       7360.809       17539.12       18481.30       23131.45       27436.75
       23026.99       14431.51       3686.346       97.30078       8342.965
       12279.13       2802.293      -6766.760      -5734.721      -2826.090
      -6252.117      -10005.40      -10259.35      -10540.07      -13614.49
      -17622.59      -19914.69      -17308.52      -7511.809       124.6221
       1721.273       7278.412       10255.85       3405.659       440.1406
      -106.6016      -5714.151      -4491.660       3057.482       7678.570
       11294.82       12566.52       7791.288       1869.141       2053.220
       4495.285       2632.882       1608.746       1768.837       667.2305
       1512.865       919.9912      -2412.225      -3468.715       1044.935
       3495.765       631.8973       135.6665       361.5781      -3844.188
      -18358.77      -32812.98      -30389.60      -23289.04      -18804.34
