     0.02500000      -114481.9       139165.5      -12345.00      -12345.00
      -29.99998       237.4000      -36.40000      -12345.00      -12345.00
       0.000000       27.66000      -12345.00      -12345.00      -12345.00
      -12345.00      -12345.00      -12345.00      -12345.00      -12345.00
      -12345.00      -12345.00      -12345.00      -12345.00      -12345.00
      -12345.00      -12345.00      -12345.00      -12345.00      -12345.00
      -12345.00      -30.16080      -67.83630       1442.000       0.000000
      -31.23600      -65.83800       0.000000       167100.0       0.000000
      -12345.00      -12345.00      -12345.00      -12345.00      -12345.00
      -12345.00      -12345.00      -12345.00      -12345.00      -12345.00
       225.5154       301.3973       122.4126       2.027591      -12345.00
      -12345.00      0.1719133       0.000000       90.00000      -12345.00
      -12345.00      -12345.00      -12345.00      -12345.00      -12345.00
      -12345.00      -12345.00      -12345.00      -12345.00      -12345.00
      2008       318        11        13         6
       800         6    -12345    -12345     10697
    -12345    -12345    -12345    -12345    -12345
         1         7        13    -12345    -12345
    -12345    -12345    -12345    -12345    -12345
    -12345    -12345    -12345    -12345    -12345
    -12345    -12345    -12345    -12345    -12345
         1         1         1         1         1
LUNA    -12345          
        -12345  -12345  
-12345  -12345  -12345  
-12345  -12345  -12345  
-12345  -12345  -12345  
-12345  -12345  -12345  
-12345  -12345  BHN     
ZL      -12345  -12345  
[...]
      -1874.990       147.2649       1419.202      -769.5830      -2486.546
      -1438.434       665.6826      -471.0000       1599.981       5188.023
       2694.114      -1741.169      -2293.093       692.3591      -82.97070
      -3544.771      -2028.829       320.1904       1049.459       709.6841
       195.5620       1917.335       3816.017       1651.846      -2608.604
      -4685.523      -2297.801       1960.973       2105.539       471.9198
       848.6838      -889.8950      -2321.613      -345.6575       758.3201
       5.270996       913.0452       1509.838       17.85400      -2776.211
      -2411.640       1110.248       1041.244      -1626.911      -1380.157
      -471.3546      -693.7422       1092.263       2575.455      -419.6738
      -1823.494       762.3779      -961.7861      -3516.193       2567.618
       2261.777      -3711.862       116.6011       2721.139       710.6130
       645.7317       136.6377      -2091.876      -4907.769      -3822.755
       628.3716       1933.415      -1752.219      -1293.964       2255.520
      -635.5923      -3874.029       108.9355       3475.321       3163.928
       3536.697       353.8887      -3780.731      -1798.674      -3816.807
      -7475.918      -4278.131       1951.496       7422.039       6203.390
       661.6201      -2957.484      -4941.395      -2044.289       587.2517
      -369.9268       2340.925       3887.904      -1805.940      -4161.208
      -3033.563      -3235.576       2008.068       7013.493       813.2651
      -3776.153       78.21680      -1886.641      -8751.578      -5761.463
       4839.939       8202.875       2151.745      -2214.167      -862.0161
       822.3909       939.1440      -555.2576      -1558.886       3758.115
       4164.608      -1797.857      -4029.812      -2097.422       2869.614
       1473.777      -4046.774      -1635.783       3313.750       1244.961
      -3290.912      -2084.072       293.1433       819.8691      -2303.860
      -3764.158      -39.63916       669.3081       684.3105       2976.572
       3448.179       1484.251      -2440.491      -3352.905      -47.26074
       1773.829      -387.3232       1470.738       1193.294      -4919.026
      -805.0117       6744.071       3768.554      -1488.435      -2198.537
      -1660.446      -944.0447       1345.198      -553.1455      -1352.979
       2182.127       936.9067      -1714.310      -726.7432       1722.877
       2628.229       2549.764       2262.803       1184.632       105.7891
      -2279.658      -3059.774       724.5811       4577.206       509.0454
      -3018.879      -1305.616       837.6030       2038.299      -2536.238
      -5157.593      0.4729004       1299.411      -1780.627      -857.6035
       4125.840       3606.893      -654.4941       2569.300       2566.076
      -5445.920      -3640.794       3676.593       2944.991       569.4841
       22.21094      -3440.387      -5474.871      -4420.628      -200.0000
       5599.966       2797.187      -3523.137      -2854.178      -981.2056
       1288.017       2881.001       311.4766       316.0703       5517.948
       4877.277      -3271.946      -3343.235       2870.084      -792.2065
      -3426.188       64.52307      -69.19434       1190.950       2287.281
      -986.7153       655.0117       3846.223       1212.614       104.7600
       683.2051      -2469.921      -3381.876       1647.604       2610.598
      -1966.049      -2009.586       481.9937       1944.037       1526.656
      -13.35059       902.1987       2583.358      -961.5537      -3206.907
       3229.527       7269.912       2240.070      -2780.290      -1894.828
      -146.1016      -1793.479      -1100.181       345.3666      -743.9958
       121.9163       1119.028      -1856.581      -772.0874       3238.439
       1248.476      -3203.057      -6518.910      -2910.381       4822.400
       5263.131       2232.402      -429.7207       583.2041       4311.586
       3236.801      -637.1328      -2149.697      -712.2727      -1139.023
      -1153.858       2665.721       1136.885      -2279.401       84.21338
       2062.145       994.7432      -1349.963      -4404.558      -2704.692
      -694.3303      -411.5420       2885.137       1710.718      -2766.249
      -2304.496      -151.9531       1691.042       2056.650      -262.6340
      -1191.476       2170.383       3815.428       1005.236      -1559.575
      -1298.978      -844.9102      -406.5562       1857.462       2444.167
       2332.987       2563.839      -1332.149      -4048.435      -3435.009
      -1025.562       184.6724      -2059.813      -55.97852       4602.864
       3029.203      -2339.858      -4314.646      -1192.325       2243.278
       3881.078       4553.253       3434.383      -1577.428      -4787.239
       251.2727       3025.105      -2589.152      -4403.952      -923.5681
       405.8716       1249.512       3762.947       3806.833       47.23047
      -4545.334      -3085.495       440.6016       456.0811       1985.700
       2561.911       2867.190       3418.812      -1928.066      -4262.239
      -1813.166      -2457.899       1883.589       6493.916      -195.8496
      -6620.015      -3211.933       3328.051       2282.865      -303.0975
       798.3667      -1509.351      -3974.015      -696.7568       3890.134
       3280.210      -1361.479      -3797.797      -238.1094       4117.889
       1404.825      -1428.394      -121.7239       91.50391      -709.3789
      -712.2505       777.2227       2581.455      -25.53711      -4777.947
      -7897.899      -4773.824       3314.886       3583.794      -1922.639
      -3372.290      -694.6626      -121.1938      -3147.313      -467.0488
       5586.502       4416.566      -2202.142      -4144.731      -705.6016
       2366.204       3683.717       3738.868       2789.992       619.6963
      -2763.694      -3566.436      -2567.689      -2815.332      -2270.061
      -1244.945       439.7236       3466.206      -547.3506      -7197.705
      -1296.525       6502.237       1405.473      -2451.745       1582.525
       816.7275      -4254.922      -3841.016       2645.190       6259.980
       2244.931      -3533.435      -5577.626      -3563.199       1694.488
       7401.350       5888.860      -702.4531      -3102.213      -2923.135
      -2648.118      -283.6831      -1169.763      -1330.065      -279.1729
      -3547.198      -1861.978       2860.215       1881.300       1344.798
       4079.397       1295.652      -3946.159      -1292.869       693.6140
      -1394.704       183.1392       1463.062      -670.5254      -3025.005
      -3039.848      -1561.094      -1089.603       809.3496       3200.927
       1357.702      -4125.076      -1672.674       7120.696       6473.540
      -209.6304      -2288.164      -157.2700      -702.1631      -3823.861
      -2638.770      -2613.262      -2912.851       1884.208       882.3176
      -2182.586       2204.646       4471.872       2565.529       67.06641
      -4061.710      -4685.038      -58.47266       3969.653       3078.890
      -1502.146      -3334.678      -2880.379      -2790.419      -1281.553
       2874.493       4316.412       790.9795      -1534.839      -2047.351
      -1604.812       163.9746      -1055.208      -1388.718       4363.162
       5119.111      -601.7207      -997.1094      -547.4668      -2738.308
      -900.0742       772.7026       1461.189       3718.536       2875.659
       1259.545       2918.366       3498.031       2027.210      -477.9805
      -6424.752      -6944.811      -563.8101       2172.982      -1310.651
      -3131.511       2245.470       4134.160       79.49463      -691.4658
      -1417.812      -4026.176       624.7188       8702.715       3450.512
      -7457.058      -3143.548       4444.633       458.7378      -1514.702
       1743.903       1295.190      -1370.463      -3069.852      -3970.671
      -3884.955      -541.8066       5001.352       7590.705       5318.131
       860.9976       572.2748       1580.503      -1580.438      -2694.358
       4089.916       8129.102      -949.4609      -7274.416      -3051.020
       1724.173       3561.778       168.6211      -4185.574      -3349.274
       102.5283       2465.612       3358.289       1257.752      -1885.352
       1614.821       5665.152       2330.005      -553.5332       1372.950
       1241.947      -3675.001      -3804.298       4680.062       6207.703
      -2150.788      -3224.974       439.2168      -2629.000      -7304.840
      -2599.838       6858.660       5634.784      -1599.592      -2692.807
       1523.102       2840.486      -1005.349      -653.6514       2751.775
       1498.844       1253.647      -326.4648      -7160.201      -5645.262
       1939.226       2657.200       2288.593       3585.208       2727.998
       2663.998       868.3385      -704.4321       2090.607       2067.440
      -1233.989      -3314.768      -2427.445       851.3569       290.2402
      -2438.084       1236.041       5437.086       2232.421      -3325.289
      -6267.658      -5989.458      -1795.812       3215.342       3733.162
       292.8098      -1066.870       1857.346       996.4634      -2052.986
       153.9922      -2537.433      -5740.988      -131.2363       3025.016
      -881.2126      -1851.597       1268.065       511.0283       387.8057
       3711.386       4391.372       652.2236      -3814.628      -2003.774
       2434.311       509.2837      -2566.037      -546.3682      -1504.727
      -6094.234      -4889.665       383.9717       3868.446       3583.390
       221.4238      -680.0193      -187.1440      -1542.644      -1498.501
       90.83521       248.3408      -989.6792      -1823.093      -2615.907
      -1551.967       3143.439       4381.353       2228.919       2592.013
       1806.186      -2974.629      -3609.884       1683.699       1187.907
      -4330.679      -2530.434       2400.398       3050.582       1545.090
       677.4207      -93.84082      -2783.034      -2836.835       823.7773
       2836.049       621.5513      -929.7275       3059.801       2721.319
      -3031.195      -3684.821      -2722.695      -3872.199      -3016.998
      -298.1553       1549.327      -508.8990      -857.0483       2171.305
       2090.059       1040.905       1606.887       3864.487       4404.029
      -786.3320      -3704.919      -1732.450      -834.2646      -1237.257
      -2292.492      -1298.459       2700.857       2843.985      -1459.582
      -3357.268      -1087.183       1603.883       3377.355       3221.408
       1941.376       285.1509      -969.6001       561.1279       3570.720
       4430.399      -486.1719      -6250.934      -3577.210      -173.2515
      -1591.618       291.0284       1003.415      -2170.019       209.2412
       2807.899       1499.871      -1454.176      -2711.293      -625.1296
      -289.1396       1868.362       1922.893      -3537.618      -2441.804
       24.18140      -1124.257       172.9766       3031.021       4673.718
       3193.771       538.1553      -1747.887      -5586.925      -5159.839
       2604.328       6259.555       3082.701      -694.8721      -4403.040
      -4109.797       140.3525       4015.115       1399.286      -3810.856
      -2595.021      -233.5693       1620.998       6692.275       7110.061
       568.8296      -2482.822      -422.4141       2703.204       2174.796
      -3790.345      -3283.616      -480.9922      -4531.695      -3641.546
       3237.022       3844.190       1273.758       3376.618       3463.931
      -4551.807      -9532.212      -1113.672       6709.331       1480.753
      -1561.722       904.2910      -410.6992      -3770.572      -4011.707
       110.3728       1434.148       53.34229       2212.730       1863.218
      -1789.753      -2921.715      -2359.627      -2384.151      -2532.285
      -1767.475       627.2967       443.9985      -1737.144       3805.877
       8912.738       4561.611      -642.6943      -5237.524      -2530.219
       3109.137       1567.545       1616.667       2486.136       297.6060
      -2139.241      -3054.215       190.3125       2130.464      -788.2153
      -2482.061      -2890.934      -2022.168       1898.422       1490.569
       725.9980       2405.848       2759.364       3290.752       944.7930
      -2060.443      -3815.523      -3474.846      -246.0791      -1787.424
      -4043.785      -2678.242      -2402.953      -6388.875      -9688.414
      -13511.97      -19196.09      -20902.89      -25502.77      -30130.34
      -25206.21      -19832.19      -24253.06      -31397.96      -31238.39
      -29826.70      -35732.58      -42947.11      -37953.06      -30560.03
      -34222.00      -38298.66      -30888.21      -5698.016       33105.16
       64312.97       78932.19       92028.66       117058.9       139165.5
       135082.7       105745.6       69222.81       30104.96      -11846.91
      -46712.31      -67318.73      -69015.53      -56081.99      -21914.94
       44307.91       99915.94       99912.30       70264.39       50948.30
       34620.48       10633.34      -11802.59      -45770.47      -93319.97
      -103733.7      -66917.94      -38342.75      -34648.83      -32823.66
      -35483.22      -46976.53      -45218.38      -19452.48       16561.66
       47137.75       44120.30       12216.99      -4983.383       14841.22
       25639.97      -21500.56      -60478.75      -34417.43       4972.348
       14403.79       3117.312      -28764.30      -62364.86      -37523.47
       18369.97       36028.50       72347.28       133987.8       90018.22
      -25671.88      -96433.31      -114481.9      -56057.22       48887.38
       117696.1       125580.2       69264.58      -5305.453      -40444.70
      -25595.59       1021.609      -4356.758      -31463.03      -48045.05
      -29956.10       16901.25       51322.54       33294.01      -35854.47
      -91762.95      -96748.41      -64816.36      -11729.41       12283.77
      -839.6211       4151.254       21029.12       22663.01       26340.45
       38091.77       28235.41       1675.411      -4440.142       243.0781
      -6900.055      -17024.51      -20446.51      -15108.14      -9097.852
       3643.500       37449.86       67570.25       55898.79       17050.27
      -18699.09      -30785.42      -6656.984       12764.88       9433.648
       20274.28       32560.59       16010.04      -3580.875       4417.441
       15328.60      -1279.641      -21492.50      -24443.58      -25304.57
      -14983.68       7829.844       23755.01       26849.20       689.9297
      -34940.25      -44057.11      -31892.60      -1401.805       22090.67
      -1341.312      -49510.48      -67543.59      -37574.74      -1760.105
      -2608.826       71.61719       24407.97       34859.71       31234.85
       18207.74      -5722.867      -19833.13      -9982.257       995.6250
      -3976.465      -8698.633       1695.117       22457.76       10576.50
      -16100.04       12192.70       52274.73       37354.07       4545.594
      -8991.391      -23680.52      -37030.80      -24506.30       4363.164
       26703.83       31720.13       18367.62       3226.886      -521.8789
      -1738.117      -2829.935       522.7695      -2821.883      -27273.56
      -57340.22      -61882.12      -28445.08      -1161.100      -3859.913
      -4514.227       535.7793       4717.205       4357.637      -2163.484
      -3763.867       6711.062       31661.99       43610.71       21347.95
      -876.2678      -41.46875       3247.539       11992.78       31156.85
       41897.22       29990.13       2245.490      -7301.371       7084.496
       14821.69       6344.702      -3581.164      -2915.961      -7169.398
      -28723.32      -37430.75      -14259.85       6992.461       12924.28
       26494.48       25991.84      -7847.008      -30891.85      -26386.96
      -21561.24      -22840.06      -12453.02      -7369.512      -19201.71
      -14786.12      -941.8838       4008.501       4220.379      -9345.820
      -17097.28      -9534.289       6735.633       33169.01       42809.41
       31976.59       22752.08       12245.33       2755.976       1770.992
      -10398.40      -21836.43      -976.7656       14341.83       3952.362
      -4441.820      -6297.542      -4018.828       4370.340       13844.79
       15019.79       7572.410      -7485.016      -28467.80      -30741.52
      -16172.60      -9645.183      -7078.483       1252.100       7050.836
       3796.277      -6727.078      -17521.21      -19680.56      -15211.25
      -512.1836       20991.23       21885.43       5455.030      -1863.518
       3700.715       8197.934       6521.609       13814.36       23614.53
       10617.01      -997.3386       370.8320       841.0898       9520.689
       13735.57       140.5410      -7872.293       204.2109       7854.875
       8478.861       5824.139      -1807.500      -20276.67      -35953.22
      -26570.78      -10724.77      -4550.106       682.2793       7956.553
       7209.688      -1222.113      -8902.652      -17482.05      -17602.77
      -5454.236       5145.461       5436.423       173.8322      -138.7900
       881.0078       2381.285       6564.328       8012.912       6071.715
       7974.852       20338.16       29214.22       26800.88       30768.03
       24350.89       4620.343       559.8516      -8260.297      -26584.82
      -27464.75      -29559.64      -36075.25      -27395.60      -19784.68
      -18961.97      -10620.12      -1914.561       1831.590       7225.930
       14387.92       16824.00       20001.51       32346.80       32406.95
       10599.90       2257.615       8019.105       6179.207       8222.309
       16303.67       15862.08       3635.562      -12064.48      -16441.72
      -3841.299       9803.855       7281.750       1745.024       301.6367
      -8630.590      -19576.56      -20976.78      -15781.71      -9902.939
      -3190.694       1116.498       756.4692       286.8179      -721.2695
      -4645.178      -9828.625      -9268.492      -10823.58      -12221.70
       1603.711       18048.72       24413.08       21748.71       14768.33
       10619.79       2802.746      -11552.70      -19268.66      -16579.16
      -15564.47      -9483.447       8560.906       16370.54       9104.395
