     0.02500000      -174756.3       213790.0      -12345.00      -12345.00
      -30.00004       231.8499      -31.30000      -12345.00      -12345.00
       0.000000       23.34000      -12345.00      -12345.00      -12345.00
      -12345.00      -12345.00      -12345.00      -12345.00      -12345.00
      -12345.00      -12345.00      -12345.00      -12345.00      -12345.00
      -12345.00      -12345.00      -12345.00      -12345.00      -12345.00
      -12345.00      -30.68660      -67.50870       990.0000       0.000000
      -31.23600      -65.83800       0.000000       167100.0       0.000000
      -12345.00      -12345.00      -12345.00      -12345.00      -12345.00
      -12345.00      -12345.00      -12345.00      -12345.00      -12345.00
       170.8483       290.4574       111.3127       1.536105      -12345.00
      -12345.00       1.004782       90.00000       90.00000      -12345.00
      -12345.00      -12345.00      -12345.00      -12345.00      -12345.00
      -12345.00      -12345.00      -12345.00      -12345.00      -12345.00
      2008       318        11        13         1
       700         6    -12345    -12345     10475
    -12345    -12345    -12345    -12345    -12345
         1         7        13    -12345    -12345
    -12345    -12345    -12345    -12345    -12345
    -12345    -12345    -12345    -12345    -12345
    -12345    -12345    -12345    -12345    -12345
         1         1         1         1         1
MAJA    -12345          
        -12345  -12345  
-12345  -12345  -12345  
-12345  -12345  -12345  
-12345  -12345  -12345  
-12345  -12345  -12345  
-12345  -12345  BHE     
ZL      -12345  -12345  
[...]
      -2880.081       6700.342      -4460.996      -11160.95       5054.020
       15509.64       6038.660      -6156.988      -7738.527      -5751.310
      -5218.985       4173.710       6219.929      -7680.036      -6399.078
       7308.348       7905.069       2552.361       303.2649       1957.061
      -4378.430      -11054.41       3005.250       10505.27      -1368.396
      -3110.342      -5470.781      -7521.376       1456.140       5619.800
       3350.062       2191.722       1450.040      -2011.926      -7178.977
      -2786.616       5035.439       3271.601      -2583.699      -750.5667
       1276.139       1445.159       1336.619      -2564.992      -5248.441
      -290.7090       7237.357       3765.873      -8687.924      -6512.607
       3595.820       3293.385       1408.592       4087.416       2357.567
      -2441.536      -3762.366      -278.2374      -1093.103       252.2026
       3500.463      -1823.557      -7742.029      -5569.544       4169.625
       7085.918       220.0562      -1563.008      -2223.117       2200.598
       167.9307      -5879.564      -2444.461      -1317.438       1606.452
       5899.552       1865.337      -2293.930      -2514.979      -455.6606
      -380.7246      -3710.863      -4292.447       2535.088       3172.712
      -156.7723       254.1501       276.5952      -1642.322      -914.8716
      -1483.704      -1626.848       5945.065       8334.001      -3048.518
      -7133.548      -2920.338      -1154.732       732.5664       4186.384
       4716.435      -1468.025      -6390.322      -520.9333       1377.069
      -4533.514      -2379.770       3899.405       2229.657       2408.101
       4401.260      -1879.757      -6519.656       31.46008       795.0791
      -2227.450      -510.5410       3046.656       5693.754       4473.672
      -179.8000      -966.5947      -91.44727      -3624.973      -3310.405
       4095.535       4286.984       759.3096      -2449.657      -4308.882
      -1775.809       2001.475      -88.61426      -2284.869      -2745.412
       7.543457       2395.295       287.7617      -2662.538      -2356.193
       197.4688      -3043.588      -6819.215       591.4941       9793.817
       8083.338      -2237.343      -1769.340       6621.702       5386.628
       1671.471      -813.4688      -5411.886       901.4023       6231.832
      -2409.363      -12192.92      -7651.824       3919.961       7289.627
       1453.932      -2871.989       343.2656       7968.827       3871.980
      -3414.687      -2432.762      -1672.319      -4850.744      -4992.272
       5184.195       10239.70      -1131.810      -3986.529       5717.269
       7600.151      -1770.922      -5528.836      -4052.630      -3545.479
       1865.942       5659.053      -1210.208      -2367.947       1062.936
       222.6035      -3743.326      -1301.377       9203.477       7013.344
      -5047.637      -6690.301       4418.990       9459.591      -95.29297
      -4935.623      -8455.038      -3408.168       9811.936       9026.022
      -2853.311      -7792.726      -8270.972       3254.641       15899.79
       5540.263      -6855.823      -191.0601       2499.354       1504.478
       5889.066      -5055.650      -7837.687       4211.642       761.3604
      -2162.955      -4120.432      -4556.266       1539.374       1110.817
      -2122.369       5062.566       9762.857       3341.724      -4295.463
      -1133.030       1490.312      -6664.840      -5662.255       3184.622
       4970.315       804.8696      -3189.012       1388.260       723.3052
       549.3455       1994.026      -6565.369      -5194.812       10371.18
       5019.856      -5594.152      -653.2551       868.0703      -2479.392
      -278.6562       2481.600       7921.930       7635.902      -9060.266
      -9731.679       2139.491      -2160.976      -2609.792       3610.531
       1371.429      -2904.703       5441.492       6944.230      -6371.004
      -4451.838       6218.932      -1680.170      -2230.315       3094.367
      -7678.858      -7280.163       6876.979       5885.265      -1985.821
      -1378.695       5148.838      -1664.368      -8982.499       2591.037
       10484.58       3616.889      -6931.133      -13732.72      -5168.257
       7095.157       5387.031      -2210.609       1995.644       420.9834
      -3408.688       7061.160       4331.803      -7860.748      -789.2559
       3519.551      -3127.485      -4194.490       2180.208      -22.89941
      -5181.272      -526.0840      -1205.739      -4376.576       804.0000
       5732.276       3088.199      -1659.195       35.31067      -238.3110
       1220.416      -334.6211      -6587.449      -6377.964       530.0762
       3564.020       5797.106       5287.524      -2992.256      -6200.903
      -2713.836       70.01172       6251.381       6130.815      -599.6660
      -3255.012      -2557.878      -1312.390       3503.330      -1091.819
      -7555.485       2032.642       2865.627      -12005.50      -6556.764
       7405.658       9734.229       2248.480      -6605.252      -371.2246
       10433.21       1173.424      -8729.778      -3063.395       988.1133
       1058.494      -615.5708      -2775.419       6083.087       6040.752
      -2590.067      -2958.126      -3857.202      -5579.286       1719.613
       2283.646      -6485.543      -2352.391       6925.346       885.2441
      -5512.962      -4115.419      -124.2664      -596.1113      -2384.065
      -2608.937      -2259.438       4398.699       5840.764      -2998.746
      -4935.479       1125.393       8340.252       4306.866      -2182.038
      -568.3257       282.0176       1589.286       5780.796       1570.921
      -2541.013      -3318.263      -1316.261       1910.593       2423.130
       3811.643       4289.984       264.2705      -4611.427      -3924.019
      -272.2412      -3036.873      -4622.414      -5783.844      -819.0078
       5295.043       493.7070      -10088.64      -3663.879       12443.61
       10937.26       4145.277       518.4763      -1974.759       3563.263
       160.7930      -11649.28      -7811.799       6725.522       4532.469
      -7816.295      -3313.421       7507.224       1083.003      -2316.026
      -576.1042      -507.9248      -133.6689       2465.402       4756.569
      -405.0146       179.1987       3542.864      -5479.818      -4865.143
       2799.420       5249.219       7106.211      -1559.378      -7160.312
       4021.601       5436.257      -3319.147      -4903.739      -1320.079
      -518.4939      -227.9365      -2564.215      -1293.413      -1334.199
      -2454.129      -2408.175      -3957.010       3465.338       9074.779
       3105.967      -1410.204      -3003.936       568.9277       912.5054
      -392.7910       5342.086       8296.816       2166.018      -6505.252
      -6365.278       2692.119       1565.932      -4585.708      -421.6636
       4789.553      -2167.571      -2035.749       4168.342       2104.255
      -3246.056      -5374.760      -3589.755      -1009.152      -1080.116
      -2007.567      -1724.187       1954.713       914.3301       81.47852
       5348.647       3972.743      -4784.964      -2369.979       4191.610
       2380.568      -3790.651      -1904.507       5403.972       3875.303
      -1579.196      -657.6836       2941.869       4294.245      -2995.449
      -3465.559       1566.418      -1136.578       339.3730       648.6929
      -2407.589       4498.616       4885.466      -2362.911      -4101.794
       590.4155      -935.0566       57.78320       4089.127       503.6348
      -2322.723      -4013.447      -2229.677       2446.767       812.7637
       5509.504       7303.854      -876.9346      -2227.117      -3986.910
      -6742.827       3275.890       4164.570      -3808.638      -750.8770
       5701.894       4236.228      -4016.928      -4923.146       2897.419
       1966.665       1509.477       5137.416       1532.693      -6888.742
      -7997.883      -4415.844       378.2080       4812.916       3339.709
      -2191.459       1618.894       3545.758      -3378.286      -3208.025
       2228.581       3131.544       2137.683       1009.749       5593.224
       3177.062      -1872.309       3688.825      -563.8965      -9648.865
      -4965.491       3429.984       6657.780      -1917.996      -2395.865
       4576.130       1965.501      -1473.885       935.7646       1046.867
      -3258.082      -5594.091      -1244.919       2752.127       2703.454
      -2277.893      -6513.086      -4911.405       1383.236       8358.500
       4380.372      -3830.221       719.9220       1549.674      -1476.202
       3682.017       6073.283       1455.131       155.6588       928.1895
      -718.2314      -2678.246      -5476.175      -5907.636       5548.014
       7646.856       2139.592       900.5439      -3574.761      -2679.021
       2220.682      -204.3828      -6719.576      -10299.64      -713.4492
       7829.548       5048.617       957.3436       77.46924       1034.488
       5379.762       5982.279      -432.0088      -3468.202       1694.289
      -1940.609      -6509.406       3612.520       8308.186       1382.135
      -5407.805      -5850.150       1644.728       3258.173       1361.729
      -4906.634      -7290.254       2504.729       6113.480       864.3589
       3128.586       1542.550      -4940.085       1983.596       6559.127
      -1266.961      -7213.467      -2586.488       2281.408      -5121.900
      -2717.742       4610.035       1723.244      -1884.646       6570.871
       6406.626      -5319.988      -3268.434       346.1219       70.85645
       1401.229      -4477.476      -2749.073       2889.632       1532.053
       1943.271      -1331.958      -5319.629       3770.211       8991.559
      -1516.961      -5397.254       2628.080       717.4814       1290.130
       4946.811       39.20703      -2576.635      -7642.059      -12924.36
      -4791.712       3632.256       4865.989       3629.125       2293.939
       5113.539       8680.712      -1627.871      -12469.06      -5589.211
       3983.411       3392.973       3456.328       2572.897      -1650.578
      -2229.755       891.5273       7076.464       9054.256      -3163.078
      -10115.55      -7641.359      -1258.665       2364.587      -3396.810
      -587.9590       8173.713       4545.665      -1418.561      -3353.940
       3240.268       3147.363      -7742.004      -2737.541       6333.645
       4018.526      -88.41113      -1379.906      -1170.075      -2787.125
       1108.021       2571.240      -57.57422       208.9492      -6146.108
      -8261.824       1455.495      -127.9590       930.2695       8848.099
       3575.551      -424.1543      -2522.434      -5661.494       2252.721
       1731.857      -1425.336       313.4121      -6571.222      -6195.845
       5010.163       6365.043      -415.2300      -3477.204      -979.6953
       5263.525       7126.107       130.3954      -465.4819      -668.1055
      -6477.930      -3823.577       1814.658      -2165.682      -1971.655
       3198.392      -219.1309      -1812.847       1183.426       2463.469
       3978.258      -3657.431      -2360.361       7676.249       1893.206
      -2268.822       1489.021      -2822.299      -9297.873      -5358.104
       7215.274       8133.032      -1537.856      -5037.341      -4002.055
      -1818.503      -19.66772      -1969.588       3095.197       8658.035
       2751.548      -2761.101       2193.090       6529.344       3477.104
       1424.060       1765.123       3066.039       11690.04       15923.07
       3732.328      -13553.02      -23126.48      -25541.93      -26320.27
      -29265.11      -35568.44      -51203.67      -50013.66      -4998.672
       32978.04       1005.906      -53492.84      -26211.06       66423.03
       108611.8       74718.95       15120.85      -18699.48      -20903.06
      -19922.84       13258.04       44514.43      -2520.836      -34350.84
       5408.812       42190.91       73828.77       52072.80      -74944.94
      -158955.2      -120406.0      -67075.80      -27695.09      -41160.31
      -112359.0      -71699.51       12864.51      -21587.90      -10908.09
       84090.07       64994.70      -4811.665      -10578.94       8871.312
       77590.34       145323.8       166456.3       191600.2       163357.7
       59086.09      -80789.47      -174756.3      -142433.3      -68152.62
       5234.406       108438.2       138103.1       55712.88      -52358.16
      -109826.4      -79570.64      -15178.22      -2348.529      -9214.812
       34421.14       81387.09       50726.28      -34752.19      -92248.69
      -133943.6      -169455.6      -125401.7       38465.56       198172.2
       213790.0       110129.2      -33259.31      -118243.2      -84692.17
       42598.02       102848.4       20695.84      -4360.219       66628.80
       72076.24       19262.16      -36897.12      -74842.88      -65690.14
      -54060.18      -41841.72      -32993.02      -40265.50       5944.453
       76488.38       72387.49       13838.24      -31122.17      -53586.18
      -52277.57      -17641.60       26086.42       39497.89       13433.25
      -6777.082       12420.76       7092.984      -28419.05      -58108.57
      -45527.11       52256.62       128623.2       95914.18       15924.59
      -55058.09      -100390.3      -70891.89      -3095.109       53125.05
       81924.69       35464.38      -19506.55      -51306.92      -49787.96
       10983.93       44661.81      -4698.141      -64383.96      -40807.18
       3045.355       383.2109      -956.4062       36680.39       81111.46
       63919.24      -9053.266      -62638.63      -31097.64       11742.91
      -17481.14      -25170.07       5171.586       7328.875       30160.69
       39690.97      -25921.40      -59093.95      -10893.07       34395.82
       39486.53       16609.31      -40955.16      -73861.43      -33521.79
       7066.471       5716.547      -875.1250       21972.94       59697.80
       70419.62       33975.62       6384.589       10712.09      -7354.430
      -30290.69      -41138.03      -45319.52      -32252.38      -29631.36
      -36457.40      -27775.70       8466.781       47035.73       31828.11
      -16233.13      -18787.40       20584.36       41858.86       29369.48
      -9602.039      -41005.70      -32549.17       273.5625       24412.62
       26306.92       18555.73      -3668.277      -15857.68      -752.5938
       14761.38       9392.789      -23077.00      -28389.50       580.1562
       13076.97       13482.43       3769.447      -523.2852       12641.81
       19628.79       31943.82       31722.33      -3574.688      -19304.39
      -20769.92      -31495.57      -5680.547       50777.50       71023.95
       40419.77       13309.09      -10099.06      -35463.32      -22132.18
      -10523.84      -27797.78      -42552.94      -51330.77      -43261.41
      -19667.31      -3536.195       8221.070       25411.77       29892.95
       25629.78       34058.88       32900.74       7592.586       1073.383
       16657.50       2209.551      -14944.77      -25251.52      -55784.17
      -43024.43       6231.680       29303.26       20682.90      -1132.328
       5383.141       24948.40       30169.34       10214.67      -13611.19
      -3786.566       2782.293      -8820.367      -14317.80      -4460.873
       9052.340       2057.335      -2362.037       7828.885       2874.432
      -7450.443      -6827.547      -13804.78      -34538.58      -36360.57
       1251.836       27627.22       13782.28       332.9846      -138.2051
       4069.936      -5002.711      -22416.02      -24559.48      -20237.30
      -4132.582       17648.97       25876.99       13338.17      -584.7051
       8703.961       14247.12       9232.254       18109.05       17922.09
       3686.429       1275.633       5814.283       2997.515      -1862.656
       5427.455       6849.457      -3440.031      -13558.82      -21819.55
      -14084.44       2149.783      -3768.242      -20937.57      -17625.69
      -15989.38      -21606.05      -21949.46      -16028.92       5943.656
       29355.66       36522.52       16987.54      -3216.536      -3095.859
      -2639.590       10609.20       27916.94       4851.945      -20306.03
      -112.5234       9765.961      -15588.87      -20314.74      -3423.645
      -8437.445      -24107.47      -27535.04      -4811.758       29631.68
       24427.73       7329.352       22998.18       20773.62      -3884.973
      -2614.625      -3124.307      -7090.139      -5853.859      -16454.13
      -20165.20      -22730.69      -22963.38      -1064.472       8116.824
      -3068.334       4462.957       16196.40       12550.65       6507.676
       17495.09       29453.93       19768.97      -7294.699      -18149.75
       2865.090       12239.30       9157.273       11326.96       11841.44
      -716.9375      -28312.84      -27346.96      -550.3115       5276.546
       472.2676       269.9238      -4625.062      -18092.09      -22410.09
      -5991.918       8781.148       6004.754       8730.410       18028.67
       5518.113      -8095.383      -10699.57      -7200.682       6544.008
       14230.94       6328.225       435.8926      -776.0000      -14515.39
      -21992.73      -10112.96       4544.512       11997.42       16987.31
       16177.58       8807.277       12597.08       12432.75      -11479.33
      -23596.15      -7800.006      -4207.543      -14447.88      -13418.95
      -4650.650       2884.852       5437.336       10973.53       20686.63
       10481.99       1007.957       14818.11       18291.08       2968.012
      -14247.46      -15753.50      -4467.105      -3891.188      -7558.649
      -223.9282       3239.118      -1223.194      -4751.318      -4658.378
       766.3398       9283.779       15631.63      -131.2344      -15519.24
      -5464.393       2056.018       183.5742      -9612.000      -21615.86
      -15530.44      -3070.935      -109.9734      -1216.291       2291.043
       15043.58       25828.27       24485.00       10626.66       900.5449
       9394.987       7023.312      -15569.04      -23607.52      -7404.369
       4696.219       2145.039      -6037.912      -10909.92      -4195.778
