     0.02500000      -226646.9       306157.1      -12345.00      -12345.00
      -30.00004       231.8499      -31.30000      -12345.00      -12345.00
       0.000000       23.34000      -12345.00      -12345.00      -12345.00
      -12345.00      -12345.00      -12345.00      -12345.00      -12345.00
      -12345.00      -12345.00      -12345.00      -12345.00      -12345.00
      -12345.00      -12345.00      -12345.00      -12345.00      -12345.00
      -12345.00      -30.68660      -67.50870       990.0000       0.000000
      -31.23600      -65.83800       0.000000       167100.0       0.000000
      -12345.00      -12345.00      -12345.00      -12345.00      -12345.00
      -12345.00      -12345.00      -12345.00      -12345.00      -12345.00
       170.8483       290.4574       111.3127       1.536105      -12345.00
      -12345.00       1.043169       0.000000       90.00000      -12345.00
      -12345.00      -12345.00      -12345.00      -12345.00      -12345.00
      -12345.00      -12345.00      -12345.00      -12345.00      -12345.00
      2008       318        11        13         1
       700         6    -12345    -12345     10475
    -12345    -12345    -12345    -12345    -12345
         1         7        13    -12345    -12345
    -12345    -12345    -12345    -12345    -12345
    -12345    -12345    -12345    -12345    -12345
    -12345    -12345    -12345    -12345    -12345
         1         1         1         1         1
MAJA    -12345          
        -12345  -12345  
-12345  -12345  -12345  
-12345  -12345  -12345  
-12345  -12345  -12345  
-12345  -12345  -12345  
-12345  -12345  BHN     
ZL      -12345  -12345  
[...]
      -1597.050      -484.2871       2468.025      -257.8953      -2580.345
       2683.853       953.2598      -4971.701       1492.854       1077.119
      -10595.97      -7729.192       5256.963       9729.113      -381.0449
      -12138.86      -3545.541       6954.160       3905.013       825.0771
       3296.418      -347.4355      -10534.92      -8650.915       3716.129
       9652.057       3406.916      -3037.932       1774.882       2671.785
      -3364.578      -2379.639       942.6128       834.7456      -540.3848
      -4985.128      -4348.536       3199.625       6558.249      -963.1982
      -6368.691      -3240.802      -1627.999       2579.505       3535.074
      -4075.614      -3717.591       4102.037       9669.381       3535.476
      -7612.914      -4274.246       3692.518       128.4150       2247.468
       7248.030      -2351.461      -10616.44      -4422.386       4542.734
       2857.673      -4971.307      -4279.115       1687.518       7706.658
       7719.849      -2498.863      -7062.260      -6563.220      -6205.849
      -876.5078       1992.770       4197.324       4177.322       1363.365
       760.2767      -744.5098       889.7637       5901.749       2589.610
      -2850.267      -61.29980       2729.391      -5770.188      -8373.363
       833.0254      -2440.937      -7619.778       2340.389       8110.521
       3314.892       997.3184       4408.204       4246.197      -2434.029
      -7900.863      -5471.657       2737.683       4415.962      -529.1895
       3754.214       7450.949      -935.4248      -7708.441       1581.902
       3290.996      -8830.213      -4132.345       3352.032       1243.584
       1754.272       2521.965       995.5029      -3139.218      -538.9805
       2089.246      -40.86328       2394.307       1884.635       2118.656
       6771.738       1309.023      -6697.929      -4741.729       1286.679
       1320.961      -3393.419      -2338.480       4938.318       7454.347
       4103.177      -371.3170      -734.4615       205.0376      -2414.219
      -2270.771      -264.0771      -4084.092      -5267.082     -0.5410156
       4281.990       4036.654       3403.440       4503.915       2454.934
      -348.0889      -1526.023      -6466.198      -5819.203       2195.896
       5005.916      -698.3423      -3424.756       1778.343       3717.892
       2986.571       3855.759       800.5430      -3645.806      -5504.796
       668.1570       3099.116      -3516.011      -3987.857      -3474.831
      -1481.854       5678.514       5642.146       121.6458      -353.4380
       2817.084      -95.88135      -3109.480       219.8428       4244.326
       2965.302       85.40601       489.9174       230.1604      -2010.547
       313.7915       499.4238      -3402.271      -4345.351      -5679.054
      -1636.158       11061.27       10559.02      -2764.695      -7613.761
      -975.6816      -1431.486      -7070.954       3033.962       7435.003
      -1138.868       64.09717       4022.902      -518.3379      -9525.278
      -4468.084       8751.484       6460.523      -2315.437      -1736.523
      -99.10889      -1955.716      -303.0874       2852.243      -1875.644
      -2401.790       3126.469       2539.586      -2171.781      -6594.663
      -1912.210       5493.151       1089.423      -1658.896       1288.012
       1232.312       1851.645       1336.703      -1086.912      -3645.383
      -3858.012       822.4460       974.3943       422.0129      -337.5327
      -1126.521      -2853.448      -2549.390       3421.930       799.1538
       271.4771       4464.216      -1636.348      -4321.570       503.0693
      -4130.373      -5353.619       7537.135       7416.674      -5410.493
      -6773.583       4516.944       3655.014      -3634.073       287.0581
       2932.043      -4313.266      -4250.988       4761.935       2842.605
      -4886.501      -7497.385       588.8369       5812.969       387.7432
      -41.89893      -1555.552      -3251.444      -850.4912      -2110.479
      -1773.430       1259.692       2726.159       3309.770       3184.107
       8771.008       2389.348      -10604.45      -8168.267      -5463.484
      -597.0859       5101.881      -854.7422       1199.195       6504.779
       329.9387      -347.7549       4530.459       3190.556      -776.5801
      -8741.354      -8468.003      -1780.300       4896.520       7821.809
      -814.7539      -8789.176      -7254.220       1656.963       2855.065
       690.5645       5769.665       6039.638      -3064.312      -7532.034
      -4318.323      -126.7803       1448.457      -4000.054      -993.6387
       6103.908       6875.131       3468.324       2508.381       3500.904
      -2810.062      -4924.195      -6437.221      -8857.178       2298.031
       9889.630       4954.012       499.6709      -999.7988      -3934.355
      -1916.992       5063.099       2581.239      -263.3760      -2280.623
      -5921.019       1359.831       386.0649       245.3799       4270.213
      -6587.110      -7793.744       2688.277       3370.510       6192.969
       6844.065       3095.538       870.3740      -5118.065       1228.098
       4554.299      -8371.152      -9792.408       198.1357       2864.819
       349.2020       25.82178      -1034.617       1012.516       1386.830
      -2799.165      -1845.336       7024.382       7534.641      -3796.613
      -4132.953       2488.393       2028.884       2451.723      -2450.902
      -8646.962      -2183.220       3699.233       4533.471       2315.130
      -3817.614       327.4028       5163.038      -2834.940      -5111.452
       153.6605       177.2191       487.9451       840.8455       1416.136
       693.9927       901.0811       3255.731       2208.505      -811.6035
      -3247.719      -2125.442       81.95996      -2568.854      -6451.925
      -881.0576       5621.595       3000.536      -612.5063      -550.5000
       2978.257       693.3075      -1236.256       2009.391       2165.193
       166.5239       510.6562       2968.053       235.7749      -694.3301
       6006.529      -93.94824      -6870.666       361.5889       2173.431
       1338.475      -496.5210      -2859.520      -444.9453      -1519.281
      -1379.084      -2643.802      -1629.879       4662.783       7140.259
       2749.743      -6449.799      -2394.715       5071.123      -3340.898
      -4166.953       3775.766       290.5867      -1551.293       6549.449
       4095.434      -7520.918      -11673.26      -5429.789       5410.709
       8760.393       7024.799       8835.382       1793.809      -8830.050
      -8677.547       1261.978       7693.408      -1887.559      -10363.17
      -5124.164       4539.562       6705.429       3882.922       2346.951
      -4724.051      -5425.530       2467.866      -66.22266      -5065.273
       94.51355       1078.201      -2021.425       2682.910       8799.758
       2559.813      -5189.209       1598.261       2363.854      -5335.481
      -2561.557       1063.581       1664.547       1682.176       2498.428
       4130.932      -2100.828      -5518.759       227.2793       3595.273
       2305.221      -547.4619       1828.257       2648.230      -1665.314
      -3415.443      -759.0554       1346.704      -78.00488      -1149.322
      -2257.358      -5683.283       624.3555       13249.99       6984.490
      -7152.604      -6271.666       957.9961      -550.3770      -7339.570
      -6682.167      -3274.467       1075.730       9926.527       11135.63
       4251.073      -899.7109      -4500.121      -1648.004       259.4871
      -91.54102       3129.538       4724.721      -338.6016      -6493.594
      -2959.303       3832.248       3863.250      -4691.167      -8148.466
       3115.562       8469.732       790.0488       2047.219       6770.349
      -3072.482      -6351.957       1660.532       2875.837      -4059.951
      -5316.951       2892.658       792.2529      -3810.790      -1965.640
      -2110.626       514.9121       2801.433       4064.922       4021.850
      -52.82520      -5976.057      -4293.126       2460.713       1192.322
      -1023.524       1424.999       580.5322       2086.113       2911.891
       777.7870      -39.97412      -1819.961      -3158.084      -8340.355
      -3779.371       8583.403       7146.910       1360.913      -3377.473
      -6068.954      -3132.855       988.7217      -2721.201      -6877.736
      -1563.049       2825.734       1723.565       2130.165       2231.553
      -121.3359      -1330.323      -4246.313      -930.0898       6810.094
       7737.882       2200.402      -6478.463      -1759.697       6929.741
       3459.837      -398.0918      -1912.773      -2221.775      -726.8374
      -2257.911       426.8672       2866.365      -4345.774      -3788.332
       2540.049      -1593.025      -5398.676      -3593.532      -3320.529
      -5211.449      -888.1816       4724.156       1992.039       7909.818
       11349.36      -5354.238      -11314.80      -185.7236       7560.115
       62.44141      -8830.947      -2052.748       6482.565       5631.706
       367.8020      -1134.302       1408.585       1704.032      -2281.841
      -4106.455      -334.6582       1511.172       1893.419       1595.726
      -3295.809      -5690.001      -4347.002      -4113.841       644.7900
       2689.704       1172.765       4542.939       2935.513      -3141.335
      -3296.825       3076.330       5812.137       550.0107      -3252.809
      -3496.384       876.4902       4672.195       1375.060      -499.6074
      -2852.053      -6680.083       65.22168       5552.806       2905.948
      -2927.034      -2790.706       4806.491       5029.812      -256.5430
      -5143.162      -6217.795      -1284.099      -762.8081      -1396.253
       2414.826       2273.860       1270.921      -1306.903      -851.2715
       3258.134       2828.043       3805.187       2436.044       1905.914
      -1380.430      -4902.750      -430.2637      -2383.374      -4875.803
      -3527.761       2019.832       11526.84       7899.647      -150.8945
      -1374.588      -4425.818      -6543.455      -4687.330      -7.559570
       3981.310       2939.480       6538.610       4475.129      -5335.481
      -2665.266       4250.691       3735.725      -2200.104      -2034.429
       5139.159       1197.308      -3305.005       2092.689       3555.047
       637.0334      -1103.226      -1699.820      -1644.920       35.27979
       1447.995       681.7344       2372.227       1042.086      -1592.581
      -3475.540      -1573.504       6836.711       4781.588      -1310.299
       1455.545      -929.2344      -8149.360      -4299.732       5202.523
       6416.115      -2610.830      -5545.578       8813.010       8990.838
      -5151.666      -716.4937       4713.555      -6839.285      -10603.88
       536.0410       5310.633       1922.148      -1722.527      -33.29297
       10646.66       11803.28      -2.740234      -7385.002      -7266.230
      -3601.745       154.6797       4150.977       7878.699       3815.831
      -881.5049      -714.6299      -2050.260      -4559.328      -8895.062
      -2641.867       7401.035       4067.687      -1677.411       94.13086
       2052.807      -4366.062      -4212.018       4667.555       8570.697
       6741.115      -2768.748      -6738.828       4509.613       5253.289
      -4070.492      -9759.547      -9670.866       2735.076       5334.939
      -5506.822      -1865.119       6804.025       5594.330       4056.735
       1263.884      -2247.845      -2552.216      -522.0430       1350.037
       675.3322       1835.532      -2001.812      -4591.707       4557.122
       5584.703      -5166.599      -5534.147       571.0781      -4340.857
      -5472.046      -1270.836      -1088.009       1777.867       4214.654
       7844.315       3314.688      -8040.318      -8540.520      -1297.383
       3555.033      -707.9602      -1653.789       5914.906       4665.475
      -1609.764      -2790.387       1864.824       3037.572      -8825.500
      -10329.35       5426.680       7184.638       384.3438      -1647.204
      -3804.776       940.4631       2247.187      -2496.408      -2643.922
      -3394.592      -6011.090      -8275.035      -9565.273      -16206.43
      -30247.76      -38204.83      -46670.30      -71876.53      -99710.84
      -97670.08      -48425.62       7015.775       8979.703      -37802.77
      -49106.06       58496.19       197239.5       189063.8       66059.20
       16217.97       76542.98       104993.1       14898.17      -89437.45
      -66694.22       29596.77       39634.54      -21483.73      -55854.19
      -90487.19      -157482.4      -226646.9      -221312.8      -53350.38
       185697.5       306157.1       300861.8       212442.6       41038.16
      -91083.84      -127180.1      -118145.2      -55639.55       26068.77
       59413.34       98655.06       162537.8       88751.78      -65784.28
      -104064.2      -110387.9      -157258.4      -134836.2      -63023.39
      -11025.77       60338.25       113813.2       102021.4       59553.21
       28791.17       11114.02      -59361.12      -104557.6       6823.812
       127905.5       86208.80      -29940.93      -31021.70       54588.08
       41860.43      -12386.42      -16097.12      -44170.92      -88323.59
      -64462.41       597.5566      -185.0078      -32001.04      -20095.27
       13565.89       44312.84       58346.94       23683.47      -41187.91
      -77930.98      -59530.10       1841.207       29595.52      -2642.391
      -117.9375       66567.33       71344.50      -827.1328      -30726.09
       10969.42       43972.73       11048.48      -13105.49      -19774.44
      -50000.17      -31099.92       52101.45       72882.08      -5696.195
      -46406.27       10373.56       48990.01       12113.17      -45395.00
      -69396.48      -32014.45      -9808.867      -38837.72      -32260.58
       24871.44       68351.20       85817.39       83046.27       26062.91
      -43823.73      -41418.47      -12972.53      -44222.19      -81283.05
      -30591.78       64438.53       100823.5       63553.86       7392.859
      -33272.34      -61133.94      -56288.27      -29170.11      -6006.441
       16101.77       36364.23       40079.34       3494.344      -47461.20
      -46584.89       14867.76       49748.96       16345.57      -16929.57
      -16055.97      -6883.575       3147.816       14471.15       2327.531
      -33304.23      -42847.02      -12824.28       23409.95       53077.23
       43992.34      -6855.439      -18243.26       11943.99       791.3594
      -47818.91      -53392.57      -3421.180       35156.73       24426.64
       21527.59       37390.16       4003.000      -48134.77      -40123.91
       592.4258       4392.242       2771.645       16587.60       19147.93
       1769.016      -29881.27      -36425.02      -9809.906       13579.65
       14902.35       8050.029       4431.074       4800.383       13804.73
       32806.77       50782.06       42535.81      -3600.344      -42213.23
      -41151.67      -17526.15      -10631.49      -28325.23      -19927.34
      -4015.193      -9156.744      -2217.430       25471.82       34101.94
       11629.38       12861.82       18341.95      -11063.07      -24963.60
      -16991.28      -17198.60      -9072.064       6650.264       3695.070
       1022.688       21723.30       23975.11      -19641.15      -31131.80
       9948.227       13393.69      -16831.72      -19136.59       3214.758
       17653.55       30769.88       45462.61       39280.51       11355.34
      -13765.44      -21825.17      -34756.61      -41574.53      -31442.75
      -24288.98      -14871.28       3156.594       17253.91       9947.568
      -7281.785       5953.227       29846.97       20118.15       4334.639
       6114.029       138.9375      -18663.98      -35353.18      -36491.48
      -10256.64       17882.07       19760.17       6237.227       3616.230
       15807.10       10897.78      -4410.034      -1410.639       5169.121
      -12249.32      -28455.30      -9829.238       10196.37       16916.51
       8250.732      -6177.342       3574.602       20438.70       39592.57
       36279.24      -871.0156      -21725.34      -25766.25      -33910.04
      -26504.96      -5674.104       553.6172       2129.453       11133.31
       6852.211      -9122.072      -2960.945       13365.73       12059.20
       16146.72       22814.12       9139.004      -10765.23      -16679.86
      -19548.80      -23801.09      -18247.43      -7257.109       8809.711
       23584.77       30928.28       29362.71       13416.89       5085.926
       14835.20       31346.78       39297.55       22113.28      -5661.555
      -33848.72      -59267.70      -60447.33      -29949.24       800.5078
       9718.814       10038.16       2110.730      -3794.597      -286.6875
      -6699.488      -10213.98      -4428.406       1645.195       9735.773
       9155.715       13231.18       17971.42      -2501.914      -21191.54
      -12207.64       7677.227       16167.92       10514.14       626.3945
      -12827.94      -21569.96      -16640.92      -8887.539      -2483.410
       6792.752       7501.348       1751.750       4907.684       15644.84
       15525.98       1626.700      -4447.346       3606.078       17227.25
       33698.63       32915.05       4925.148      -16413.73      -24152.58
      -38192.33      -43974.73      -16829.64       4820.938      -11034.21
      -14827.34       6325.689       15010.06       2383.425      -4449.234
       8767.293       17112.57       5024.503      -4292.288      -1579.269
      -154.5391       2921.541       3356.010       2155.105       9759.424
       11651.43       3734.479      -4771.310      -7611.299       669.9971
       316.4766      -11957.59      -9897.236       9257.910       21036.45
       6940.201      -8281.086      -3197.158       6506.285       17142.24
       22589.97       8237.094      -12765.42      -27748.53      -27782.15
      -8474.972       9023.944       5047.424       197.1328       13428.44
       13059.50      -14552.46      -27101.89      -8687.523       5148.008
       5571.289       15661.64       22734.48       6239.700      -6491.922
