     0.02500000      -82896.94       96157.37      -12345.00      -12345.00
      -30.00004       231.8499      -31.30000      -12345.00      -12345.00
       0.000000       23.34000      -12345.00      -12345.00      -12345.00
      -12345.00      -12345.00      -12345.00      -12345.00      -12345.00
      -12345.00      -12345.00      -12345.00      -12345.00      -12345.00
      -12345.00      -12345.00      -12345.00      -12345.00      -12345.00
      -12345.00      -30.68660      -67.50870       990.0000       0.000000
      -31.23600      -65.83800       0.000000       167100.0       0.000000
      -12345.00      -12345.00      -12345.00      -12345.00      -12345.00
      -12345.00      -12345.00      -12345.00      -12345.00      -12345.00
       170.8483       290.4574       111.3127       1.536105      -12345.00
      -12345.00      0.8013708       0.000000       0.000000      -12345.00
      -12345.00      -12345.00      -12345.00      -12345.00      -12345.00
      -12345.00      -12345.00      -12345.00      -12345.00      -12345.00
      2008       318        11        13         1
       700         6    -12345    -12345     10475
    -12345    -12345    -12345    -12345    -12345
         1         7        13    -12345    -12345
    -12345    -12345    -12345    -12345    -12345
    -12345    -12345    -12345    -12345    -12345
    -12345    -12345    -12345    -12345    -12345
         1         1         1         1         1
MAJA    -12345          
        -12345  -12345  
-12345  -12345  -12345  
-12345  -12345  -12345  
-12345  -12345  -12345  
-12345  -12345  -12345  
-12345  -12345  BHZ     
ZL      -12345  -12345  
[...]
      -9195.287      -9942.668       3351.318       6934.066      -5076.686
      -8152.412      -652.7344       3695.512       7030.990       9180.194
       5264.026       1683.553       1356.598      -4320.408      -6512.946
      -2429.499      -403.7207       5901.976       6266.796       1936.213
       2629.201      -6521.102      -12830.30      -3691.058       318.8584
       1316.461       6624.884       6380.331      -236.3486       892.4414
       7336.946      -1613.391      -8633.688      -1842.291      -2048.486
      -4404.883       1429.973       6998.291       4898.555       4299.154
       2818.305      -3003.699      -336.3496       686.4902      -6131.705
      -7933.771      -2424.430       2252.729       3157.623       2337.897
      -2338.198      -849.4277       8738.939       8078.062       1239.371
      -2074.218      -1701.700       1537.600      -2699.655      -2806.440
       4000.878       2914.572      -578.3059       19.63623       2802.566
      -234.4717      -2958.890       1163.216       1281.391      -843.8462
      -1958.287      -1058.546       3298.637       3848.404      -587.4888
      -3466.467       103.9961       2717.258      -909.0776      -2102.754
       3565.839       5039.057      -2048.412      -2744.797       938.5930
       1972.356      -588.3418      -3804.497      -578.2627       2478.167
       324.8477      -3094.234      -2898.995       94.41911      -122.4741
       35.04688       6690.750       13031.93       6845.068      -5115.896
      -3235.738       2863.568      -4366.973      -9480.600      -933.2520
       7182.560       6112.462       2431.299      -2174.404      -7520.008
      -4514.225       4754.869       4890.631      -3144.497      -3700.468
       1623.198      -2338.794      -6909.950      -2280.730       4665.429
       5948.458      -201.8079      -657.0928       4778.881       2297.028
      -2401.306       543.3950       3928.721      -547.3008      -5243.721
      -4423.697      -1989.819       66.94531       4301.846       7416.391
       2167.043      -3955.609      -2583.940      -342.7804      -533.9556
       2282.260       3110.972      -2788.162      -7504.538      -7297.047
       219.4509       1786.287      -7655.144      -5798.629       7231.684
       8817.926       726.1476      -837.3535       472.1123       2214.207
       6077.241       4283.062       539.7520      -1792.527      -4887.836
      -589.3418       5081.969      -913.4108      -1279.213       1610.080
      -3981.211      -4587.837      -894.7520       2325.928       3825.777
       1220.367      -3858.658      -8000.424      -9950.018      -2900.260
       7763.150       4650.699       471.0244       5436.981       2247.808
      -7048.951      -949.4600       7422.075       2006.755      -3678.218
       4594.908       7450.798      -123.1143      -2907.746      -9106.557
      -6665.184      -1233.356      -3935.992       452.5742       9135.479
       8277.967      -1021.546      -4924.109      -5989.217      -4459.969
       3202.568       8736.408       5027.889      -5654.451      -9390.795
       3062.763       3504.721      -7840.898      -7742.025      -4616.023
       7191.814       12732.78       3383.972      -3468.818      -2717.699
      -192.8691      -5700.571      -2750.806       4013.379      -271.3027
      -4581.569       1386.197       7971.906       4224.737      -6298.131
      -5490.573       4931.754      -3648.512      -12419.62      -1065.088
       10656.74       12541.40       2982.403      -6994.208      -1366.223
       1615.744       402.4578       3494.162      -4178.077      -4878.053
       7256.867       7617.827      -4649.265      -4597.243       1147.054
      -1227.486      -5595.066      -7800.372      -2945.406       4916.492
       9847.633       6970.028       3124.679      -2460.914      -8104.709
      -4067.051      -8310.180      -14536.28      -306.3398       12723.39
       11689.59       7950.639      -3085.846      -6091.324      -1717.908
      -5419.435      -7352.607       200.3506       7297.998      -2159.652
      -5254.250       6259.408       8113.107       7876.941      -3790.666
      -14970.49       1109.281       9690.268       2111.271      -3151.611
      -1534.879       3340.575       2742.196      -1333.052      -4167.279
      -2832.601      -1433.368      -547.4048      -1783.279      -4019.483
      -1936.375       2067.448       1463.661      -891.7109       4267.814
       7451.643       1652.277       3549.086       6880.183       493.7180
      -312.3711      -970.1094      -8793.932      -8525.421      -1323.143
       1751.353       698.3447       2218.614       4203.152       3777.799
      -3828.785      -9113.248      -373.9697       4594.121       765.2471
       2157.557       4348.854      -1212.919      -3839.187      -1027.493
      -1366.264       1201.076       4415.398       4421.079       4081.870
       263.6406      -975.5181      -1431.157      -3388.433      -2340.033
      -713.8867       2197.385       4115.394       4001.759       1399.339
      -42.98413       1501.960      -10.14258      -5965.688      -6839.140
      -3368.850      -2795.697       141.4375       6019.012       5932.455
       4117.364       2910.252      -2387.048      -1970.321       3161.770
       1594.593       73.09326       2862.322       1773.558      -468.1351
      -165.0479      -1447.242       2410.348       4310.741       2051.564
       1403.021      -5551.810      -6035.611       1923.995       2727.022
       2212.563       368.2632      -2039.839       2077.828       3638.982
      -4433.062      -7432.542      -2312.955      -1608.105      -187.7251
      -776.5601      -3565.896       2741.260       1704.469      -10332.32
      -9012.568       3444.023       6131.876       2582.848       6798.154
       10110.93       4066.643      -3901.647      -7114.062      -467.2729
       2773.438       42.46777      -1833.368      -4913.774      -3633.598
       330.6262       911.1392      -2995.632       19.49023       5072.714
       967.3105       2943.281       1464.312      -7771.144      -3997.664
       7712.381       7980.271       2524.017      -1155.604      -5336.567
      -3932.310      -1460.908      -721.1582       1344.664      -539.0498
      -3022.805      -4003.917      -2942.856      -636.1846      -2471.088
      -6199.549      -3160.012       3815.718       4370.373      -1910.504
      -5190.800       1948.514       6892.609       3661.416       1897.413
       3162.000       3964.341      -1283.015      -5683.179       270.7656
       7745.426       4850.668      -4749.524      -6255.643       1946.634
       3793.307      -5376.160      -9996.637      -498.0137       7803.902
       7133.345       1987.960      -3710.902      -2597.362       4865.295
       4813.344      -4696.525      -7831.796      -4810.880      -2532.125
      -1918.447      -2526.418       4191.080       9339.588       5177.350
       1855.280       1574.876       494.1602      -6061.379      -7810.551
       3089.716       5548.595      -2979.621      -6741.207      -1606.339
       3933.413       276.7847      -3015.653      -614.5107      -275.8984
       5483.887       9449.078       673.7539      -5530.186      -5218.217
      -2829.078       2016.729       4638.013       1460.837      -4237.500
       397.6143       6475.845      -995.0391      -6981.175      -2575.412
       4526.708       5648.718      -1523.779      -3084.323       2466.593
       4239.871      -380.3223      -2184.408       1197.080      -1239.737
      -4321.679       2421.969       6868.707       524.3516      -4418.118
      -3375.913      -2438.630      -1796.174      -1300.590      -3485.461
      -3199.580       5335.225       6715.697       222.6235      -1779.949
      -2505.715      -1036.290       768.5568      -641.0576       1462.610
      -1097.488      -8104.293      -2723.477       9723.367       8434.799
      -201.2510       4096.704       5157.062      -1411.306       492.1089
      -910.0244      -2911.504       506.8301      -1839.821      -2125.353
       3281.821      -2172.213      -6800.675      -165.2290       2994.845
      -4422.674      -7862.401       2645.420       9218.219       6498.528
      -526.1953      -7121.287      -4586.050      -1724.825      -3049.792
       659.0625       5779.665       3077.379       1129.356      -1448.155
      -4656.752       5135.149       8609.439      -2015.016      -2096.418
       4243.183       5979.030       4187.144       1982.183      -1560.395
      -5849.669      -3810.856      -2727.549      -6499.732      -6494.166
      -1083.871       3737.335      -527.5947      -4528.119       1904.758
       7493.170       4074.492       451.2490      -1072.890      -3864.631
      -4582.264       2292.682       8075.898       5155.869      -729.3750
      -5142.652      -8597.572      -10648.09      -3281.697       7779.912
       5118.096       1983.426       7817.179       4713.716      -4606.066
      -4930.718      -3250.232      -2913.938      -1162.281       163.4336
       705.2114       746.5391       2590.618       4271.687       5197.365
       154.6699      -4495.539       3180.282       4527.744       2177.902
      -3397.344      -11478.81      -3129.169       1084.023      -6744.514
      -2890.027       7719.272       6902.248      -567.9621      -239.6216
       1913.728       1347.163       2803.407       5051.751       4317.519
      -4257.453      -9186.015       431.1035       78.99219      -7310.100
      -1238.624       3276.655      -965.7891      -2207.850       2893.624
       2905.152       139.2180       1755.405       207.5496      -355.9707
       3155.622       6389.578      -998.5723      -9757.336      -2344.582
       1809.072      -3786.497      -3035.846      -1285.359       1476.100
       5358.881       4218.545       4091.363       5030.683       1295.070
      -4523.335      -4486.210      -544.8428      -542.3447      -627.9333
       81.02539       121.1279       2529.769       4640.636      -1590.592
      -7781.729      -3246.924       1004.452      -2876.856      -1838.750
       2085.014      -3440.183      -5770.775       2953.619       9738.010
       9334.735       1159.270      -4278.436      -4002.431      -1379.091
       5773.264       2785.161      -3354.282       2197.127       1658.564
      -6533.465      -5584.669       3408.239       1509.973      -8029.228
      -2064.031       9167.486       1080.598      -11552.82      -5661.791
       9188.945       12907.47       3559.733      -4065.766       702.9629
       7716.711       7357.002       3835.373       4610.267      -1006.961
      -9807.282      -3905.040      -981.3730      -8291.838      -6458.538
      -4639.270      -5668.110       3584.422       12167.52       9249.107
      -62.50391      -3834.676      -2478.993      -2240.675      -2338.703
      -4131.170      -141.0859       6633.240       7025.263       156.4062
      -5201.512      -3580.816       1999.465       7308.892       2420.228
      -6692.106      -2350.354       6943.154       5795.732      -2710.079
      -3460.580       1218.685      -298.6372      -2910.033       712.1426
       2343.092       1595.833       3633.340       1655.198      -4680.909
      -5977.053      -1568.920       1112.070       7156.811       6172.452
      -2276.896      -95.40820      -5222.465      -9422.436       1809.363
       8869.242       3894.135      -5138.341      -5074.530       1382.959
       579.1367      -5897.436      -9334.431      -3589.524      -68.97168
      -952.0127      -2407.972      -6559.529       3945.703       21418.79
       22006.23       16915.68       9785.711      -849.2305       6289.926
       23231.67       10482.31      -25202.64      -42574.64      -22722.65
       12111.20       19587.95      -1579.758      -15920.10      -7133.020
       11688.23       13235.34      -7733.062      -31288.16      -32411.37
      -18155.87      -1473.492       17884.18       36340.50       35168.67
      -12640.86      -63013.69      -80985.92      -81682.37      -55220.75
       6171.828       74113.16       82650.04       40200.10      -3645.000
      -21154.34      -14251.39      -24569.23      -29196.54      -12500.66
       22941.47       75159.16       92783.41       60615.45       11788.31
      -9854.391      -20147.13      -35685.99      -20176.65       4995.652
       9850.566       2587.514       927.4180       18392.75       12956.77
      -28884.17      -47337.83      -40192.58      -35390.96      -7301.666
       11575.29       3942.625       28035.52       52365.16       28782.30
      -32238.62      -82896.94      -65159.16      -12542.25       45109.91
       96157.37       72639.45      -16410.70      -51067.14       7104.500
       58452.19       29672.81      -21353.38      -19185.55       18334.22
       35164.19       2392.680      -39309.75      -25345.39       17081.39
       18767.69      -8789.492      -36863.08      -36209.77       1341.852
       18952.32       17478.62      -3371.422      -43948.31      -40868.71
      -14409.89      -27271.80      -42340.26      -5645.516       52950.95
       64815.00       53013.25       57348.74       42333.41       4866.938
      -20113.98      -30435.90      -40430.40      -36241.09      -18051.29
      -3211.898       8071.422       18856.36       33123.07       35318.12
       8411.062      -40597.44      -78763.75      -70926.61      -12262.06
       58568.23       75619.47       45262.21       27990.38       15470.60
      -555.8281      -10849.65      -32992.15      -40606.52      -27281.64
      -14540.79       4328.093      -904.1367      -11128.96       3092.958
       803.6367      -7079.093       2471.977       7957.488       10984.66
       15742.20       10624.44       9563.797       16849.14       8893.736
      -7551.363      -12873.95      -11822.36      -1764.082       10622.24
       16114.98       14550.53      -20983.36      -59345.66      -48969.57
      -13651.59       16012.02       38065.38       45297.06       26316.58
       11090.82       6438.062      -18077.41      -50895.97      -58211.05
      -32919.98      -9906.951       5769.934       18026.08       23154.49
       22754.98       10834.52       17934.49       38976.95       34332.17
       1571.559      -23197.68      -11242.29       5516.020      -1379.727
      -19493.79      -26992.28      -22613.61      -21165.40      -13013.30
       20702.84       48468.32       30378.31       1472.834      -3969.910
      -4844.681      -3863.028       2219.298       2477.077      -5836.595
      -5294.103       6444.336       5813.233      -5554.029      -10386.45
      -8839.217      -788.9482       4049.958       185.2048       1715.020
      -4001.029      -14375.29      -1046.305       22069.08       19982.25
      -13957.02      -44163.58      -35780.20      -4213.414       20962.91
       24554.46       11765.84       1448.877      -1428.004       3367.582
       10617.54       13134.06       9656.108       2943.018      -6076.176
      -15688.65      -16432.62      -6083.529      -1636.644       387.6562
       15018.51       22308.79       10912.61      -11729.20      -25307.67
      -1741.375       21295.93       8798.101      -7345.291      -8363.143
      -1656.596       1206.039      -4654.043      -14363.62      -12314.22
       1580.587       870.6865      -2725.726       2415.805       10222.34
       24388.79       23114.88       2251.859      -19238.80      -27017.01
      -16484.63       329.9219       22567.98       41877.03       34787.01
       16007.09       11807.17       7839.660      -5918.273      -16122.14
      -12980.40      -7087.070      -7684.863      -11057.83      -20603.15
      -37085.86      -42822.24      -17754.59       19306.77       36937.88
       32076.55       25041.19       27732.64       17149.80      -8597.625
      -25654.30      -24038.54      -15263.76      -12974.49      -6545.639
       6352.676       13970.70       11291.22       1127.289      -2476.092
       5689.270       7825.062      -4191.447      -11191.19      -10308.69
      -8229.273      -1034.043       5839.449       10456.06       16137.61
       18280.52       10697.61       1707.941      -6295.662      -10543.02
      -9076.706      -5545.373      -4140.898      -17168.21      -22377.55
      -5488.777       11278.07       16992.43       12254.03       7580.898
       7327.842       2040.797      -3521.042      -5241.188      -2663.469
       5446.511       4401.566      -6587.180      -13547.16      -17870.66
      -20858.99      -12387.31       7819.660       19453.21       15012.15
       10556.59       10204.31       4994.293      -6791.094      -13908.70
      -8373.875      -1753.572      -2940.141       6536.312       22135.70
       21177.35       14488.98       7709.975      -5277.828      -19645.16
      -19150.23      -4279.399       600.2676      -5205.500      -8367.709
      -4084.032       3822.105       2309.395      -9991.266      -13234.59
      -4132.201      -4878.361      -12281.75      -4738.848       10599.22
       20492.12       23246.51       9140.545      -6920.594      -5664.559
      -6094.248      -9325.414      -4383.907      -3593.088      -9192.781
      -6764.105       5519.461       17124.25       14266.28       2198.145
       5389.342       11782.27       7368.898       3012.262      -3616.078
      -12368.86      -12727.05      -1442.133       10055.21       8872.371
       1543.541      -3426.670      -8536.342      -6931.817      -341.2637
      -315.6382      -739.8535      -2343.195      -10278.36      -10624.19
       1660.290       5568.633      -6978.771      -12844.49      -4539.686
       4610.111       3645.283      -3570.973      -5236.621      -1749.820
       6948.656       19942.51       18127.64       6316.223       8015.871
       5518.563      -2189.213       3436.445       9874.181       6029.660
      -10191.86      -18812.90      -10152.01      -8890.891      -19603.66
      -20169.01      -3329.355       4888.820      -2990.184       2461.672
       17683.35       18220.21       5845.155      -5749.398      -4908.914
       8154.191       16780.29       10015.72       1052.376       2950.182
