     0.02500000      -41685.14       43840.12      -12345.00      -12345.00
      -29.98999       225.1100      -24.69000      -12345.00      -12345.00
       0.000000       18.54000      -12345.00      -12345.00      -12345.00
      -12345.00      -12345.00      -12345.00      -12345.00      -12345.00
      -12345.00      -12345.00      -12345.00      -12345.00      -12345.00
      -12345.00      -12345.00      -12345.00      -12345.00      -12345.00
      -12345.00      -30.81820      -66.60730       966.0000       0.000000
      -31.23600      -65.83800       0.000000       167100.0       0.000000
      -12345.00      -12345.00      -12345.00      -12345.00      -12345.00
      -12345.00      -12345.00      -12345.00      -12345.00      -12345.00
       86.83720       302.0396       122.4342      0.7807593      -12345.00
      -12345.00     0.02451807       0.000000       0.000000      -12345.00
      -12345.00      -12345.00      -12345.00      -12345.00      -12345.00
      -12345.00      -12345.00      -12345.00      -12345.00      -12345.00
      2008       318        11        12        55
        90         6    -12345    -12345     10205
    -12345    -12345    -12345    -12345    -12345
         1         7        13    -12345    -12345
    -12345    -12345    -12345    -12345    -12345
    -12345    -12345    -12345    -12345    -12345
    -12345    -12345    -12345    -12345    -12345
         1         1         1         1         1
MALA    -12345          
        -12345  -12345  
-12345  -12345  -12345  
-12345  -12345  -12345  
-12345  -12345  -12345  
-12345  -12345  -12345  
-12345  -12345  BHZ     
ZL      -12345  -12345  
[...]
       78.33249       94.72231       86.41212       31.42406       65.37583
       36.10681       27.19955       16.41742      -24.69114      -5.340973
      -23.88741      -58.52936      -44.09360      -68.88440      -77.60916
      -119.0573      -127.1777      -112.4814      -130.8031      -149.2869
      -158.0806      -163.4724      -160.8798      -189.0090      -195.6628
      -220.4929      -202.6288      -230.2545      -251.2112      -217.5199
      -266.1296      -290.7455      -232.4354      -313.1294      -304.1991
      -290.1115      -346.8092      -308.6470      -326.9838      -379.4530
      -308.7363      -369.5818      -361.5420      -336.5065      -389.3678
      -373.1934      -378.8986      -394.6838      -377.4371      -398.7860
      -392.0728      -378.3176      -375.8298      -412.0754      -382.1951
      -375.2744      -388.8796      -413.7776      -396.6393      -390.6423
      -390.2628      -411.3738      -410.5306      -413.8347      -377.4127
      -402.9316      -424.1707      -355.5830      -401.2573      -401.1074
      -355.2515      -393.4714      -319.1453      -384.2648      -368.8275
      -343.5062      -385.3972      -352.9985      -346.5602      -361.3525
      -335.2659      -333.0021      -314.6789      -334.5427      -320.9343
      -313.7181      -334.3774      -278.8904      -296.7000      -377.4404
      -282.4674      -305.6736      -300.0586      -280.6878      -289.0887
      -284.0767      -268.7396      -273.3498      -261.6735      -232.8630
      -221.8778      -230.1293      -230.8798      -256.1852      -214.7009
      -209.1320      -183.0295      -145.1295      -154.5078      -194.5778
      -111.2174      -123.9073      -196.7275      -112.9457      -77.44482
      -160.9671      -122.8677      -126.4989      -78.88031      -86.94580
      -148.1518      -110.9883      -68.29190      -84.48608      -66.94843
      -112.6416      -96.59186      -131.7605      -88.89600      -32.79056
      -124.8940      -115.0586      -55.05832      -90.06776      -62.93139
      -32.21448      -6.090576      -35.23782      -23.57893      -3.501215
       6.964432       12.83286       2.306320      -33.12661       19.35418
      -18.16615       17.61123       29.67843       3.669647       11.54395
       21.89407       23.60059       2.509779      -9.752457       10.34840
      -39.20568       30.65919      -1.449848      0.1625557       34.55347
      -35.22252       13.51803       3.015648      -42.38607       12.50182
      -32.30579       18.13895       27.38644      -19.33569      -23.09588
       8.823921      -41.19262       13.83349       38.42712      -14.31111
      0.9963226       48.26983       20.12719       19.91219       22.95004
       71.96284       4.747162       46.59985       71.91230      -21.43033
       46.75215       69.07233      -4.030411       49.52854       24.36729
       36.28772       52.09669       37.54834       35.53217       74.85772
      -5.182220       65.17862       95.48213      -21.28114       65.21132
       86.58958       13.30154       95.74446       44.76147       33.42412
       59.12732       54.41409       67.51907       74.97650       24.09842
       107.4521       92.87898       65.35809       117.2721       68.49762
       75.83661       105.5464       89.36227       112.3314       101.8734
       130.7584       79.01498       153.8026       105.5439       61.40024
       151.0879       112.5555       77.95691       194.7978       133.4911
       96.54712       186.2363       153.4514       117.8819       224.9837
       158.1345       142.4185       231.6030       169.0763       178.8733
       216.1309       129.4441       222.0272       181.2852       167.3028
       219.7430       218.8167       168.4947       182.2753       251.5267
       225.2469       237.8112       263.3953       206.4528       253.3133
       244.3508       235.2864       254.8318       260.6974       247.0981
       302.8257       237.9532       298.3564       329.6327       221.1916
       338.2485       326.5878       256.4973       374.5918       272.5278
       323.3107       347.3668       269.8101       322.6838       334.5894
       271.7239       329.8959       324.7100       293.4953       310.9355
       364.5994       301.1049       313.5685       345.9191       288.1089
       288.6622       336.3248       269.3082       295.2119       338.2763
       274.7618       280.8538       324.6306       230.4229       283.3176
       293.6802       240.1619       254.7228       299.3974       257.2153
       252.1056       288.1573       264.2458       209.0749       262.8846
       252.3840       225.4181       271.9776       264.4651       175.4517
       274.4965       234.9210       194.5767       258.2697       216.6691
       195.7676       216.4008       165.9260       184.4094       154.3018
       184.3792       130.9714       130.6611       145.5795       102.0385
       113.7230       114.5974       50.57675       105.0870       81.81061
       46.90520       50.17999       43.91779       32.28545       48.39558
       6.837463       17.42560       28.52854       14.60724       5.931767
     -0.9152069      -21.04977      -29.82805      -71.61748      -23.69777
      -47.93878      -63.85814      -84.05107      -47.26813      -100.2994
      -89.55457      -89.76562      -146.6170      -101.3796      -119.7806
      -174.1359      -108.9462      -167.0531      -155.4295      -164.0630
      -170.0184      -153.7665      -186.2467      -179.9972      -143.0862
      -226.1507      -164.1013      -162.7036      -234.0205      -200.8051
      -173.5190      -246.5778      -212.8566      -183.7652      -229.1636
      -240.6053      -186.4772      -242.3553      -249.3724      -230.1689
      -210.2148      -234.3974      -231.3954      -239.3268      -235.9470
      -268.4161      -203.8663      -231.8331      -279.5193      -221.9093
      -213.3067      -285.6307      -227.6495      -231.1613      -279.3498
      -222.4387      -232.6654      -272.9071      -190.9581      -290.1368
      -245.3658      -220.9101      -278.5338      -252.1365      -227.6752
      -287.1350      -257.2082      -228.4523      -230.6473      -285.8377
      -211.4937      -266.0068      -265.5170      -186.8657      -263.3503
      -223.5629      -201.0422      -244.9006      -212.6765      -257.7609
      -220.9462      -241.6862      -205.4021      -266.0121      -240.4292
      -192.8395      -241.3039      -234.5492      -194.8578      -224.4190
      -227.9987      -239.7792      -181.2418      -236.9673      -193.2732
      -179.4904      -220.1375      -165.4693      -215.6058      -223.6483
      -168.2692      -211.6002      -142.4945      -188.0428      -160.3929
      -146.6534      -176.3373      -185.5551      -140.8944      -167.2721
      -155.1925      -103.6891      -146.4915      -159.4865      -68.70108
      -127.3280      -114.0576      -102.0378      -113.6865      -82.07086
      -100.2482      -91.74915      -80.61456      -146.8951      -38.66656
      -88.40378      -93.78256      -23.42567      -58.70180      -50.57153
      -11.44044      -67.72625       2.204857      -33.21669      -19.36535
      -3.045345      -5.770691       8.160044       11.28040       3.922855
       23.55509       3.091110       62.26460       26.72171       34.20494
       69.41879       43.08641       44.06927       79.90982       43.21027
       100.3710       67.94000       102.8535       98.80484       109.3405
       111.2220       97.50516       146.8020       142.9368       97.87408
       162.0715       103.6117       162.0005       155.5364       132.6920
       149.3328       149.3873       143.9735       180.9259       163.7462
       158.0762       160.5133       206.9478       122.7324       165.5950
       200.1378       182.6093       176.8167       185.4777       189.6271
       220.0217       186.1340       185.7734       186.5935       220.0931
       155.6315       205.0598       208.6794       200.9427       192.5450
       195.9142       195.7741       203.8037       179.1611       200.4430
       163.9112       204.4265       184.4114       181.7441       193.6145
       259.0005       162.6050       191.4869       253.5413       204.0903
       152.2684       239.9368       211.8919       155.8539       178.2817
       226.3116       180.2943       173.7468       197.2756       188.3592
       138.8444       226.0905       145.1970       182.7420       168.7130
       146.8421       147.5800       142.2391       143.5315       116.2764
       98.12335       144.9109       99.11383       118.3071       79.13736
       123.3694       80.36484       75.84204       83.22180       92.42865
       100.3695       95.16583       52.72765       94.87511       58.31494
       83.63895       76.24570       74.47655       79.85898       90.13425
       16.45605       97.72990       53.12604       37.76886       98.42730
       47.56353       14.42030       73.17690       31.13579       37.81097
       10.04608       53.32055       11.40873       24.24072       2.593905
       8.365929     -0.8008909       1.965789      -3.422012       6.560173
      -61.55299       17.55585      -7.585442      -39.36284      -8.554398
      -17.00676      -52.73090      -41.23063      -49.72289      -22.32841
      -100.0776      -50.25305      -40.16183      -101.7526      -106.9997
      -51.32916      -120.0889      -86.92728      -104.8665      -116.0535
      -88.62000      -132.4774      -159.1594      -59.95154      -174.1611
      -157.5611      -149.8472      -154.1179      -165.2864      -142.4242
      -130.7324      -153.4525      -187.4774      -149.5380      -197.8990
      -160.1287      -168.4975      -189.2274      -166.3285      -141.2833
      -235.9127      -129.6549      -172.6270      -215.8899      -111.5939
      -183.6178      -218.8356      -71.40759      -187.1947      -157.6414
      -145.8636      -146.1119      -166.9915      -146.6275      -140.2462
      -155.0231      -158.9453      -124.8623      -173.9493      -135.1198
      -127.0604      -89.36499      -152.8905      -126.8844      -90.47076
      -132.6384      -148.3880      -70.77576      -126.7566      -82.88727
      -103.9375      -103.0199      -78.46931      -67.50372      -103.3295
      -46.04408      -96.42427      -21.10886      -46.73534      -69.38699
      -44.73514      -45.82716      -42.09787      -19.22767      -31.26014
       5.166401      -30.06766       1.605114      -38.87802       17.58228
      -11.34117      -4.353662       1.769016      -8.591344      -5.755856
       21.41551      -17.15751       34.35946      -42.48528       39.34162
       20.89172      -19.17226       23.72573       16.10240      -12.96583
       20.83494      -29.96092       8.911564      -7.665216      -4.671589
       9.796673       5.046574      -25.38233       39.22445      -23.80499
       13.56234      -3.890263       22.03883      -45.65520      -18.00041
      -5.588161      -17.67879      0.5033588       10.86861      -41.58248
      -5.072838      -51.25736       3.294632      -25.79358      -17.76737
      -17.46426      -5.263580      -28.64348      -19.45562      -11.45776
       6.328907      -30.49419       17.15100      -4.090725       15.70864
      -31.07172       52.30485      -31.56172       14.70424       64.42360
       1.946724       16.91829       36.51955       16.58429       66.36675
       2.826736       67.52741       55.04118       13.53979       47.38394
       87.33185       18.14203       104.3769       61.24258       73.67114
       70.06989       103.3250       102.9888       99.47212       55.17334
       111.3644       104.7755       89.78680       91.97101       114.9670
       110.6617       130.5837       65.08130       133.1996       107.8570
       112.4649       89.72449       130.9677       98.15356       102.0361
       113.2276       111.0872       99.32932       122.8674       76.14124
       113.6577       100.2153       93.13089       91.18597       120.2221
       70.04974       120.2915       58.32468       82.27585       106.0909
       72.97177       105.1044       81.34930       31.77185       126.0251
       44.50333       82.87390       58.77994       69.54419       67.11308
       61.48383       66.80534       88.86996       60.65240       65.21796
       72.11305       70.35519       55.05383       204.9974       107.5068
      -569.6465      -1991.070      -7797.484      -17959.91      -18233.86
      -8174.635       6739.371       18628.16      -617.8789      -16404.59
      -8693.098      -10345.06       411.9141       15407.09       13398.71
       9239.393       10610.91       441.5645      -13027.27       23554.14
       43840.12      -37965.42      -29187.13       42320.61      -26409.84
      -17985.79       37916.37      -30399.49      -10540.40       39757.98
      -3961.836       16066.66       19525.06      -41685.14      -38167.72
      -3667.797       23096.48       30648.91       4620.305      -5753.559
       2258.848      -12620.79      -14829.04       13189.59       5317.020
      -21915.92       3090.836       36994.54       16556.50      -14660.80
      -18228.98      -12117.64       6538.785      -1634.554      -13545.38
       19898.66       28777.77      -15431.32      -33170.48       21461.31
       42621.55      -19793.50      -37985.41      -1993.747      -4281.748
       6310.543       9634.432      -11633.24       18073.56       18541.00
      -22635.21      -9808.033       5750.900      -3782.512       1941.415
      -9341.035       5866.266       27357.40      -861.0381      -7458.239
      -1253.469      -9826.561      -4379.387       12666.05       16333.20
      -10514.06      -21130.79       10248.70       8470.892      -7295.562
      -713.4219      -9523.053       5022.947       18901.89      -10153.56
      -11061.19       6472.895       2380.836       5406.488       8377.078
      -12626.91      -18633.29       11101.92       6866.681      -435.1406
       8447.538      -2801.953      -3974.945      -7005.262      -7165.010
       4510.138       7599.974      -1991.889       2979.672       12799.43
      -3454.166       263.4902       1520.473      -16491.53       10067.02
       12788.50      -27379.10      -6284.312       20281.95      -1768.560
       2267.985       10450.83      -13461.84      -4435.426       11947.51
      -1746.460      -1368.930      -3906.961      -11574.75       1021.056
       7813.449       713.9238       5095.917       2701.750      -7654.372
       3314.723      -283.6677      -1947.934       7146.053      -11617.41
      -6083.602       10563.81      -1854.913      -4997.328      -1049.913
       5338.156       5751.384      -6337.264      -2138.488       10378.77
       691.5664      -11556.94      -3285.568       8469.668       7965.855
      -3672.635      -7781.980      -5388.633      -1051.425       3344.791
      -3239.374       506.8916       7171.566      -478.0059       249.6348
       7825.513       5199.033      -3656.785      -10500.84      -10223.28
       1533.140       3882.591      -2384.896       2160.852       4783.542
       3456.177       3031.988       976.9209      -4391.235      -4805.735
       2562.359       6784.714      -1763.924      -12341.47      -439.6680
       11352.16      -1597.741      -2105.945       4244.109      -5494.082
      -6810.415      -3549.319      -2109.125       1629.102       2885.029
      -1054.648      -2600.242       6842.289       10445.46      -273.0176
      -8298.432      -2666.620      -466.6709      -4821.888      -3471.602
      -612.8223       4322.550       6170.894      -1342.777      -4377.851
       1535.348      -1420.883       2930.655       9418.440      -8577.377
      -6581.305       4157.196      -7919.498      -730.8301       10410.98
       576.9722       751.7671       2739.320       2073.143      -999.6289
      -11731.58      -3104.437       5542.456      -2584.327      -1273.027
       10406.45       9416.198      -3700.812      -10491.10      -8729.730
       3592.279      -79.34131      -7820.865       8167.414       9466.828
       627.8691      -5996.825      -4195.963       8876.502       5872.822
      -12144.61      -12896.87       3773.355       4268.511       4947.677
       1361.762      -4778.420       256.2041      -3966.174      -474.1523
       12098.75       6401.121      -18565.10      -21094.01       3499.113
       9711.387      -2442.804      -5182.025       5667.382       6477.768
      -374.1543       1613.961       6035.575       3107.723      -2310.025
      -3323.602      -1139.564      -5795.570      -5169.623       6583.741
      -3718.230       3502.061       15505.72       1202.773       6300.444
      -3215.258      -12384.70      -5663.125      -8896.023       1814.314
       6479.504       7060.561       7687.165      -5912.949      -10250.28
      -1518.066       8376.628       7392.585      -68.66553      -1936.165
      -769.4980      -4570.357      -7420.657      -1554.339       4737.904
       963.3760      -6821.235      -845.1113       10128.55       1285.887
      -9861.508       7442.676       16830.11      -3351.865      -10135.06
       3001.227       1497.620      -1302.672       3483.805       2217.942
      -832.4004      -8481.834      -5037.855       774.7207       4870.296
       7123.844      -4479.410      -6328.469       10154.54       7772.202
      -6139.984      -2660.184      -4322.266      -1532.192       2696.038
       519.7598       8917.496       11304.43      -2834.724      -9002.320
       3005.831       7078.271      -1560.191      -9098.464      -5218.309
       816.0498       4349.918       2806.979       749.9004       4100.626
       285.7930       6604.059       6077.857      -3401.324      -2459.850
      -9282.062      -8350.938       4318.435       704.1582      -12022.98
      -6011.676       9866.449       12122.56       3799.502      -640.6733
       292.3926       5455.626       1891.801      -8719.050      -1349.172
       7853.526       3456.950      -62.04883      -7526.196      -7775.434
       2667.057      -3602.178      -2756.834       9756.996       11242.12
       10856.74       3146.094      -6418.375      -7728.809      -2292.610
