     0.02500000      -92962.92       104212.0      -12345.00      -12345.00
      -29.98999       225.1100      -24.69000      -12345.00      -12345.00
       0.000000       18.54000      -12345.00      -12345.00      -12345.00
      -12345.00      -12345.00      -12345.00      -12345.00      -12345.00
      -12345.00      -12345.00      -12345.00      -12345.00      -12345.00
      -12345.00      -12345.00      -12345.00      -12345.00      -12345.00
      -12345.00      -30.81820      -66.60730       966.0000       0.000000
      -31.23600      -65.83800       0.000000       167100.0       0.000000
      -12345.00      -12345.00      -12345.00      -12345.00      -12345.00
      -12345.00      -12345.00      -12345.00      -12345.00      -12345.00
       86.83720       302.0396       122.4342      0.7807593      -12345.00
      -12345.00      -1.375842       90.00000       90.00000      -12345.00
      -12345.00      -12345.00      -12345.00      -12345.00      -12345.00
      -12345.00      -12345.00      -12345.00      -12345.00      -12345.00
      2008       318        11        12        55
        90         6    -12345    -12345     10205
    -12345    -12345    -12345    -12345    -12345
         1         7        13    -12345    -12345
    -12345    -12345    -12345    -12345    -12345
    -12345    -12345    -12345    -12345    -12345
    -12345    -12345    -12345    -12345    -12345
         1         1         1         1         1
MALA    -12345          
        -12345  -12345  
-12345  -12345  -12345  
-12345  -12345  -12345  
-12345  -12345  -12345  
-12345  -12345  -12345  
-12345  -12345  BHE     
ZL      -12345  -12345  
[...]
       422.8892       472.8308       442.0291       382.4679       426.3142
       423.2615       346.6190       395.6196       356.1570       351.6827
       343.9685       314.9987       313.8313       336.3148       274.4294
       296.1000       259.4550       285.4144       236.7662       262.6504
       229.7453       220.8568       222.6178       214.3688       171.0863
       163.3951       169.6829       152.7941       133.7725       143.5067
       89.62445       135.2802       73.17352       84.05516       68.21721
       51.98001       45.58708       30.10631       36.30005      -1.048489
      -34.01758       34.17973      -55.72455      -39.36375      -38.02719
      -101.7125      -75.43839      -49.36145      -175.8881      -82.31323
      -107.4859      -189.1657      -123.2320      -170.4521      -196.4077
      -166.9019      -210.3939      -172.5553      -226.8300      -240.3255
      -232.7538      -244.8945      -273.9801      -251.4724      -294.9139
      -259.0509      -299.2532      -320.2175      -311.2954      -363.9442
      -152.7354       378.3711       2060.289       5571.918       6046.735
       625.1953      -5412.862      -5459.418       4523.578       12304.22
       1902.539      -10980.56      -3237.992       8835.344       3730.078
      -2888.182      -9647.818      -8506.859       6645.336      -2844.348
      -20551.68       9440.781       25010.17      -14934.98      -8413.461
       15589.33      -5024.186      -12569.38      -2798.125       13779.21
      -1379.125      -43061.18      -2239.359       55066.60       16422.95
      -26700.30      -11889.16       903.4883       6135.860       9665.301
      -21681.69      -17508.46       29340.79       12561.23      -16942.94
       6591.215       10199.75      -22583.20      -31001.39       14377.23
       25214.68      -22647.52      -1197.695       44840.43       12677.81
      -31756.39      -30484.99       3457.254       21776.09      -9745.879
      -27106.24       4443.477       31709.35       13832.15      -16410.09
      -256.7070       15988.41      -24161.18      -35209.59       20296.12
       33786.82      -1716.367      -12218.94      -8942.689       9336.791
       19790.94      -12583.68      -14872.68       894.5254      -6785.926
      -3149.883       15805.00       19727.28      -8194.373      -16280.90
       2575.003       1372.795      -8363.825      -3960.102       4838.631
       9171.108       333.9282      -2670.857       10961.30      -4184.734
      -13012.23       3800.035      -9294.680      -13426.62       18170.63
       26606.70      -1859.250      -13645.33      -3785.410      -13730.66
      -4824.332       25542.63       9682.551      -8181.078      -1707.602
      -8805.238      -7211.890       2175.976      -1104.695       3197.574
       12953.34      -1882.922      -14362.42      -5033.790      -2884.711
       656.1055       13652.16       8007.865      -10655.04       2318.848
       13136.12      -15814.07      -10679.09       21424.98       4682.383
      -22408.52      -6629.277       15604.69       10399.80      -3664.795
      -1973.989       7881.256      -7808.467      -11269.15       11136.08
       4341.941       177.0215       4532.110      -5.082031       7192.051
       2770.583      -6272.884      -5341.971      -4399.265       4176.094
      -757.3877      -8409.640       5405.305       2507.434      -9670.492
       5583.900       15961.34      -8513.348      -24702.99      -2295.619
       12514.20       4512.828      -929.3086      -8050.549       2572.676
       20464.86       2280.891      -15574.80      -1378.492       14325.17
       4943.871      -9315.260       4790.242       14495.66      -7474.135
      -14736.84       4837.908       4744.717      -11216.18       3821.867
       17544.07      -10894.00      -21025.81       4701.859       5675.209
      -602.7422       8781.008       7684.754       3197.679      -3397.355
      -8266.092      -3228.988       1180.353      -745.4673      -2669.762
       7710.877       13300.84       13.61133      -8337.867      -992.2178
       3831.211       4423.327       6095.007      -2607.904      -7777.390
      -553.5811      -5311.299      -4635.305       10712.14       5090.853
      -5091.641       7475.994       11542.63      -7070.629      -13527.21
       1615.578       7803.277      -2418.271      -8496.180       4912.855
       14176.55       1447.551      -10161.08      -13058.91      -2127.682
       10554.68       8143.890       3440.690       309.8652       7084.234
       2478.289      -18033.11      -7742.715       13306.66       10010.34
      -1435.791       284.8215       1640.470      -4824.923      -1902.690
      -3521.439       1549.624       6548.092      -6637.484      -3304.736
       8031.231       142.6875      -10603.92      -10002.98       3145.508
       22315.62       21370.72      -9999.109      -26370.43       4271.057
       16971.54      -6242.938      -3501.835       802.7178      -3862.105
       2905.591       1986.075       700.0830       5802.605       2689.812
      -9413.474      -1196.905       7206.102      -14939.57      -14242.28
       9693.488       11015.47       516.9551      -7483.254       1575.297
       11371.05      -4371.491      -6278.818       4553.386      -278.0918
      -4258.510      -4575.590       1891.149       2898.378      -5503.641
       5355.949       9891.449       3202.666      -395.7949      -7189.888
       3201.918      -2131.162      -14052.07       2578.892       1112.442
      -4422.350       266.1055      -8222.102       2202.705       13837.80
      -8499.391      -8473.613       9726.650       1680.951      -7614.531
      -3242.914      -366.1523       4429.967       9393.559      -9446.391
      -12506.88       9963.003       558.9492      -11195.89       14789.23
       23749.13      -6339.033      -13552.72      -3506.680      -16442.38
      -9221.930       15453.45       7417.334      -5353.836       1966.450
       7936.090      -94.90137      -5866.918       3283.496       7963.826
      -3063.712      -6222.709      -2884.633      -5531.214      -1655.621
      -1047.844      -3515.638      -4764.516      -6510.263       5502.842
       10037.41      -8406.204      -10136.50       8656.938       3029.777
      -7279.133       7452.531       8621.730      -5971.005      -3231.385
       2389.284      -1230.111       606.6650       4292.625      -80.14941
      -7395.695       1741.594       6794.935      -10571.79      -109.2607
       9798.264      -13779.85      -4749.339       12765.36      -15375.10
      -12886.53       23174.42       10288.22      -7065.547      -7067.666
      -11641.66       6446.503       8097.381      -8081.700       1236.533
       3122.863       2269.597       7125.355      -6156.287      -5697.174
       4046.766      -844.4478       616.8120       2435.710      -530.9609
       1881.293       1221.735       2168.292       2802.693      -6310.936
      -10775.94      -1193.029       8283.492       822.9648      -11467.88
      -4843.924       11103.33       11377.34      -995.5371      -5336.210
      -1423.734      -4848.463      -3470.705      -854.7871      -6991.574
       4218.672       15757.90       1092.254      -9731.062       4647.797
       9665.723      -6728.146      -7551.131       7790.153       5547.773
      -12211.24      -10291.95       6691.855       3177.266      -8687.770
      -1622.591       5999.389       4100.914       3594.660      -7113.720
      -1730.171       9380.160      -11369.17      -9180.440       7298.491
      -234.7422      -2870.757      -4408.279       427.7695       18388.35
       11476.83      -4045.611       2134.342       525.3770      -9615.390
      -9296.615       2813.395       14685.71       6383.400      -9761.285
      -5232.398       11413.14       7920.596      -5582.112      -85.53906
       9784.655      -299.9648      -11503.54      -8156.775      -3386.745
       3117.609      -115.8379       2068.400       12552.16       263.1797
      -9907.287       1007.527       15455.64       4759.414      -15928.73
      -5229.208       10388.16      -420.1836      -15230.89      -7384.043
       15191.75       20101.20       3231.867      -12155.90      -17177.82
      -2858.557       10221.05       4667.987       5273.521       2781.777
      -12327.36       185.4453       24615.34       5963.715      -19308.18
      -6717.712       7849.902       3461.865       5183.219       1718.025
      -6105.397       4764.263       5921.816      -8709.525      -13324.90
      -2323.282       2306.338      -1713.340       5292.543       11109.00
      -3126.945      -13826.06      -1131.916       8736.656       1078.414
      -6916.424       3486.518       9684.210       39.54492      -5563.546
      -5918.977      -2286.438       3598.813       6640.645      -4313.722
      -4949.546       8009.834      -1732.125      -2056.899       8316.772
      -1328.389       3778.373       13105.13      -512.0234      -12460.50
      -10300.52       5905.553       10982.69      -1384.265      -157.6157
       163.7793      -7446.300      -2431.872      -187.3828      -2931.807
      -6359.179      -2815.695       17611.43       17364.33       1076.859
      -4849.406      -4904.121       106.0488      -1665.029      -5361.090
      -5711.758      -5184.107       5092.977       14289.47       7986.320
       34.41406      -2541.061      -10483.50      -6251.584       4931.123
       4075.603      -1397.675      -6284.476      -1267.727       12283.25
       11451.64      -7011.521      -9047.176       8902.436       15657.28
      -1117.375      -17145.13      -10168.43       455.9785      -941.0566
      -6564.704       249.5703       9041.898       1131.159      -3002.972
       424.7759       3031.559       1532.771      -5336.894      -3985.500
      -6865.386      -6074.585       8597.824       3312.434       4097.859
       23113.94       7371.266      -16235.63      -3304.878       8852.434
      -8408.016      -13797.25       193.6697      -1045.533       4532.104
       10710.08      -7546.959      -2399.227       17353.87       4876.359
      -5508.936      -4407.527      -7589.701      -8490.191      -12057.74
      -8630.986       3460.471       8229.559       6943.320       4387.075
       149.0303       2152.061       2171.982       5695.109       8896.539
      -10308.56      -19080.90      -4211.877       2938.040      -536.7754
       6269.285       19032.31       5831.814      -8402.928       3879.878
      -1699.309      -12586.95      -173.1848       473.9648      -2155.750
       16744.39       18914.04      -5856.223      -15337.19      -5731.552
       4768.931       2243.111      -4220.566      -26.37402       3090.303
       147.2900      -6175.003       326.4551       10073.47      -1747.404
       360.7051       9890.930      -9585.914      -12484.97       3807.723
      -2244.477      -13662.72      -13071.33       2452.871       5961.924
      -492.8828       17686.96       18636.00      -10264.87      -12418.12
       3710.406       5401.711       8580.973       5285.738      -4745.916
       583.2917       2803.986      -1970.943       2494.068       9310.929
      -525.2070      -13296.66      -6648.846      -5806.275      -8914.820
       6883.469       10905.06       4165.367       9039.805       2970.091
      -1177.824       1646.859      -10854.57      -10990.55      -23.30859
      -4698.931      -9602.215       3955.344       18034.70       9848.097
      -2715.271      -1463.273      -6189.841      -6028.555       15352.99
       12835.20      -3303.710      -855.3828       383.3945       4071.230
       9840.227       1255.598      -13471.89      -7308.851       3495.516
       352.9727      -2643.692      -4369.975      -3990.652       2274.312
       4823.416       1150.031      -200.2148      -6451.135      -496.7051
       9743.262      -7266.789      -16746.34      -1807.473       6998.033
       11128.12       8980.627      -7900.852      -7771.971       930.8467
      -1963.063      -439.9229      -2822.734      -2713.934       14937.17
       17908.22      -3656.117      -15841.71      -2122.104       5913.248
      -5820.704      -2270.231       7195.065       728.3369      -4603.303
      -309.5664       4119.828      -2771.406      -20579.73      -43141.89
      -57129.48      -46075.78      -34417.54      -34169.70      -12279.15
       11464.39       15037.82       9776.164      -9948.406      -32685.33
      -39054.20      -14757.34       34984.53       72247.14       76028.91
       44433.23      -14574.42      -57999.34      -51266.27      -20599.45
      -2814.141      -9313.734      -24845.66      -37302.30      -62932.44
      -85796.08      -61470.02       5184.031       74789.53       104212.0
       66998.23       7371.961       5969.781       39408.49       32498.65
       12134.76       11562.96      -2200.330      -16168.44       8614.219
       9212.859      -52693.77      -76815.67      -22123.36       35247.38
       60192.80       70037.52       47357.38       15645.73       24717.01
       22590.35      -15878.07      -29631.64      -18245.86      -6790.065
       5680.805      -3988.305      -20072.55      -13248.85      -9262.328
       347.4141       28012.94       32408.67       12643.66       6406.641
       17811.83       35313.42       42198.95       6306.906      -59587.22
      -63056.22       15477.44       69109.18       32844.89      -44725.53
      -92962.92      -76301.03       2264.297       55900.64       30747.30
       302.5117       7832.125       26798.75       33605.39       16475.68
      -22117.03      -51534.06      -37914.88       1311.348       17529.05
       18391.62       37351.42       55860.34       48111.06       6017.234
      -51083.59      -51287.49       14729.09       60868.69       62492.11
       31291.93      -18177.50      -29216.85      -22260.19      -44697.82
      -52519.79      -6977.594       50065.78       48033.38       1941.922
      -18085.74      -20891.35      -11516.55       27894.06       39270.86
      -598.1250      -33441.26      -36736.13      -27477.23      -13060.29
       1180.933       2236.121       4183.324       19931.50       15296.74
      -9332.680      -15586.95      -12505.17      -6494.168      -829.1406
      -17797.00      -21431.08       20044.70       36122.85       655.2266
      -16316.08      -9494.961       3197.414       25660.13       12881.90
      -39290.38      -45997.04      -806.1543       9629.875      -17342.31
      -29586.61      -9967.453       22901.72       36221.61       23710.18
       4356.986       3069.070       13828.52       7365.744      -12767.33
      -14047.55      -4415.277      -13202.62      -8973.629       18384.01
       31749.07       11979.48      -24004.18      -30648.83      -11942.38
       1357.180       21272.39       31719.73       5517.936      -12134.20
       579.0195       3549.742       2625.836       15770.49       18624.26
      -1418.660      -16649.09      -9776.789      -9480.023      -20829.44
      -26580.62      -15115.75       12450.74       14433.03       1306.250
       16432.58       21616.79       2684.003       3530.549       6806.312
      -8783.648      -16958.36      -13399.36      -15273.73      -14505.66
      -3248.381       369.3359       3099.285       12364.77       3648.957
      -14672.93      -11226.15       8420.129       12673.87       2472.455
       5157.820       15865.06       19146.33       3758.578      -22635.19
      -27100.79      -20160.44      -14885.28       1176.332       17476.96
       18260.55       7583.571       1415.020      -4503.965      -17838.96
      -9475.301       19485.69       30546.26       23544.12       8159.212
      -3731.343       1342.307       5285.451       4646.617       10792.25
       15938.85       3771.770      -2838.770       8666.416      -6723.332
      -17037.20       12050.65       13030.82      -11498.92      -18709.58
      -22320.27      -17450.51      -16209.24      -24995.65      -15381.87
      -6227.592      -4236.617       4920.219       9088.035       4607.070
       4270.859       13581.96       17228.50       13647.80       12592.43
       10498.98       6347.404       5985.931       5078.790       1675.443
       4042.813       817.6738      -8391.944      -4321.946       122.7891
       1540.266       16961.25       14030.84      -15482.05      -28213.70
      -17302.53      -1116.779       4769.906       5050.385       5587.393
      -7807.102      -16693.27      -9851.699       1156.129       19214.50
       17205.47      -6624.817      -5914.922       7915.852       5932.816
      -5527.338      -13127.29      -1790.342       11282.71       7618.621
       8247.555       15255.42       7226.994      -5970.422      -7128.469
      -8306.020      -11446.77      -13512.72      -11397.97       690.6523
       10762.26       2933.484      -21845.85      -34116.79      -16131.65
       18060.91       41433.73       37420.85       9686.422      -11744.97
       2219.129       16391.69       482.3848      -10866.17      -7148.988
      -8014.962      -4702.586       7028.762       8188.162      -5834.244
      -2592.625       20154.90       16328.56      -14885.46      -20257.32
      -2690.861      -3452.959      -8944.500      -4747.611      -7863.035
      -12302.34      -3278.781       428.7148      -6475.883      -9281.555
      -1310.953       13443.59       20904.94       21697.94       18218.83
       10088.92      -1281.539      -21403.92      -26770.74      -4296.787
       9504.742       9391.156       16175.82       21566.59       13765.53
       1925.359      -1991.167       1357.257       1204.549       3037.896
       4910.529      -1501.359      -11797.04      -27936.83      -24556.48
      -9668.477      -9882.639      -8109.355      -13787.18      -15096.79
       8649.543       19621.56       1666.715      -9469.048       1794.342
       11156.60       5410.352       1656.054       2700.393      -10971.67
      -6992.414       17306.38       10631.92      -12868.91      -17107.77
       3892.975       13389.52       1217.359       1044.578      -2034.125
      -20972.30      -13772.78       8974.783       3049.564      -5054.615
