     0.02500000      -55343.50       78766.55      -12345.00      -12345.00
      -29.98999       225.1100      -24.69000      -12345.00      -12345.00
       0.000000       18.54000      -12345.00      -12345.00      -12345.00
      -12345.00      -12345.00      -12345.00      -12345.00      -12345.00
      -12345.00      -12345.00      -12345.00      -12345.00      -12345.00
      -12345.00      -12345.00      -12345.00      -12345.00      -12345.00
      -12345.00      -30.81820      -66.60730       966.0000       0.000000
      -31.23600      -65.83800       0.000000       167100.0       0.000000
      -12345.00      -12345.00      -12345.00      -12345.00      -12345.00
      -12345.00      -12345.00      -12345.00      -12345.00      -12345.00
       86.83720       302.0396       122.4342      0.7807593      -12345.00
      -12345.00     -0.6151586       0.000000       90.00000      -12345.00
      -12345.00      -12345.00      -12345.00      -12345.00      -12345.00
      -12345.00      -12345.00      -12345.00      -12345.00      -12345.00
      2008       318        11        12        55
        90         6    -12345    -12345     10205
    -12345    -12345    -12345    -12345    -12345
         1         7        13    -12345    -12345
    -12345    -12345    -12345    -12345    -12345
    -12345    -12345    -12345    -12345    -12345
    -12345    -12345    -12345    -12345    -12345
         1         1         1         1         1
MALA    -12345          
        -12345  -12345  
-12345  -12345  -12345  
-12345  -12345  -12345  
-12345  -12345  -12345  
-12345  -12345  -12345  
-12345  -12345  BHN     
ZL      -12345  -12345  
[...]
      -364.7062      -352.1663      -368.0023      -329.0100      -358.9506
      -311.2271      -330.3792      -282.0499      -338.2607      -263.3525
      -313.6189      -260.5059      -289.0701      -266.5782      -243.5945
      -270.1519      -266.7676      -193.0483      -281.6700      -194.2708
      -228.2162      -190.6047      -230.6080      -186.8466      -219.8739
      -175.9634      -196.9053      -167.6540      -177.1104      -136.9969
      -193.4985      -119.8365      -144.3560      -135.4109      -151.3802
      -98.52209      -132.2407      -99.88431      -90.95020      -79.38101
      -113.3034      -24.00803      -97.09404      -40.88757      -60.37750
      -13.49352      -45.15310      -24.70361      -2.216978       11.39462
      -39.82651       52.34927       13.69839       49.98148       33.78073
       61.10321       61.93204       99.92380       47.79712       118.3111
       90.00888       131.9239       103.5291       135.0376       149.2706
       203.9843       138.9230       182.2296       194.3815       216.6013
       180.3873       237.9305       220.0795       267.0924       235.3878
       298.3629       238.5563       282.0063       303.5526       328.6021
       281.6062       354.0498       329.7336       351.0778       351.2524
       376.5997       150.1399      -420.6533      -1209.637      -2482.338
      -2705.419       1251.283       3627.572       3709.590       855.1777
      -7628.907      -4276.329       2871.399       2247.488       6501.871
       4250.734      -213.9121      -833.0723      -4449.928       2352.590
       3664.727      -1756.441       655.2070      -9867.000       735.6602
       15675.09      -9577.473      -8559.620       5514.845       129.1230
       5800.906       8726.117       22519.38       2418.570      -36110.31
      -9130.672       12412.98       14633.43       16797.99      -10486.58
      -14920.21       9756.291       13188.14      -7790.517      -12592.94
       11038.67       4663.848      -2351.855       12892.12      -13984.27
      -19245.19       15454.28      -1347.086      -9549.000       27784.67
       13406.20      -20563.18      -7052.249       3061.313      -432.3867
       10391.54       9656.504      -2265.859      -11425.57      -16449.91
       1200.117       16991.25       2821.903      -6337.434       3346.919
       5661.479       2254.350      -3397.133      -7879.137      -1069.131
       5306.707       10132.29       8709.348      -7781.508      -12482.78
       5408.275       13176.68      -3781.615      -10571.56       5793.319
       2812.559      -9859.068      -7896.249      -5342.279       1830.789
       8775.358       7324.250      -7135.634      -11076.29       16225.02
       8865.600      -13221.75       4804.748       6248.479      -5276.031
      -3439.953      -3973.829      -4225.270       6733.211       18047.57
      -1700.004      -13320.60       1543.917      -1433.188      -6201.081
      -835.2546      -1463.197       2148.965       9371.740      -948.9268
      -5519.713       7916.441      -4315.590      -16222.50      -2140.081
       6460.166      -96.32227      -9958.888       698.8750       9847.033
       780.4097      -1988.030       951.8081       3442.134      -3224.109
      -3867.080       2316.916       1926.406       5611.371      -3228.484
      -12484.48      -784.6462       3036.515      -1979.390       4335.802
       4508.868      -6851.804      -2582.648       4106.228      -2084.528
      -2403.570      -3608.240      -6203.975      -3728.103      -2925.141
       5699.443       12860.51       5413.861      -6890.744      -10628.70
      -164.1543       11287.69       3470.172      -12214.27      -12577.71
       248.2734       8835.122       4661.621      -2310.767      -3169.835
       2235.238       5620.127      -198.4258      -8436.811      -2507.647
       9036.045       804.2041      -8188.839       75.00879       7377.782
       707.9658      -6722.394      -3328.213       3092.902       4112.267
      -1265.314      -4622.494      -2823.707      -212.8695       179.4756
       1520.535       2164.159      -2751.830      -2730.298       1960.203
       4764.626       17.69043      -6184.990      -1943.188       3005.478
       5302.274      -1295.809      -12248.61      -111.5391       11081.72
      -1776.246      -3223.137       5582.118       3924.527      -1588.605
      -10428.50      -4711.564       6558.775      -4869.989      -9708.475
       3601.484       7346.676       2743.993       2578.548       4795.979
      -7677.496      -7412.207       17735.16       7432.553      -16038.80
      -4948.520       3700.206      -517.6841      -43.21875      -1733.827
      -207.7285       9812.467       4604.180      -10947.50      -6376.975
       4961.388       1128.896      -4546.461       1018.835       3810.385
      -4831.334      -7466.744       6120.354       15053.84      -7.451172
      -9651.248      -1918.746       9609.699       8548.109      -13171.47
      -17503.82       5879.121       16611.57      -1470.500      -9685.851
      -374.3945      -5440.247      -6796.393       11161.10       8401.398
      -10542.19       4178.519       9427.463      -9932.670      -4911.412
       2012.684       3299.726       4286.936      -4538.482      -1165.807
       10428.74       5845.812      -7693.838      -7100.269      -169.3662
      -1573.834       8481.462       11156.82      -6864.762      -4575.613
       4417.166      -261.5791      -2141.322      -4390.690      -9530.057
       3774.674       13553.67      -4266.809      -3277.636       5103.220
      -3480.219      -1810.850       1044.116       953.5952      -1970.146
       2421.812       8863.316      -7368.547      -10629.39       1680.641
       7331.077       3365.848      -6466.051       5181.566       14708.86
       442.0469      -13587.35      -4477.584       12362.48       5022.902
      -13322.02      -14104.75       12173.25       20444.16      -5043.158
      -7226.686       2927.690       3114.286       1235.811      -4535.778
       2330.458       5471.367      -2806.908      -5786.682      -10207.81
      -7183.453       4669.904       4133.013       2232.617       11506.91
       6841.152      -9394.574      -13490.53       4274.859       15591.63
      -101.1787      -2892.584       3229.212      -3657.943      -4994.082
       841.8418       5319.730       7893.691       6076.359      -8818.668
      -14728.32       7526.023       8741.264      -16346.28      -5859.924
       15741.92       5756.481       1841.113       4582.699      -17605.70
      -10369.70       23325.66       4526.170      -9536.174       3650.647
      -5144.092       217.2188       9003.007       5093.469      -1137.070
      -14959.99      -12073.82       4758.654       11385.95       3823.494
      -5105.616      -4709.262       3731.846       9579.275      -3530.113
      -17500.17      -5935.258       10748.84       9942.133      -700.1143
      -5405.243       1090.736       442.5933      -2732.587       5687.330
       7041.339      -27.50830      -2547.946       1467.545       6122.484
      -1056.098      -10313.78      -6252.760       6577.879       6914.433
      -8157.231      -6483.277       4000.529      -286.6660      -4195.155
      -7110.154      -992.2422       17930.09       9460.895      -11249.17
      -4047.405       1391.464       969.0869       6317.258      -3221.244
      -8820.604      -880.8516       4412.523       3695.604      -4582.580
      -3885.261       39.38086       1277.361       8950.177       4876.645
      -9034.368      -9666.808       5325.455       10042.04      -2338.171
      -6584.181       910.1875       9394.218      -1866.062      -12823.91
       7400.184       12385.73      -4440.686      -2503.958       983.0000
      -6215.365      -5795.739       274.0474       2105.229      -3862.244
      -5674.359       4466.479      -1309.294      -7197.018       4907.217
       4138.232       8382.848       12506.87      -8314.530      -5421.487
       4934.917      -6569.982       4631.276       5839.545      -13109.96
      -7556.823       2277.719       1435.777       1473.510       5849.406
       3316.598       870.1953      -2825.207      -18118.18      -4891.535
       18201.57       805.2617      -13517.14      -4462.712       3290.147
       2049.694       554.5488       7514.363       3174.080       1324.780
       1062.867      -14094.94      -9505.441       7010.844       10489.86
       309.6992      -14108.55      -5718.340       12951.46       11522.60
      -3986.195      -7566.106      -1362.000      -2748.963      -1015.218
       1170.642      -2439.876      -428.6758       8284.365       12819.83
       3443.275      -7639.682      -6072.262      -528.4675       10.69971
       62.35352       4180.058       3151.987      -3134.621       2518.818
       8961.514      -1017.155      -7231.947       2738.166       8037.729
      -6249.371      -10631.16       1496.587      -917.4028      -1907.012
       5192.605       11304.02       9698.844      -10488.24      -12387.36
       6327.256       5358.406      -4825.155      -4557.919      -564.4883
       3394.452       2810.254      -3728.369      -4846.110       616.1064
       5108.442       1619.870       415.1055       4008.569      -5749.516
      -8317.303       425.4297       2243.859       5964.518       8423.812
       2639.559      -6306.859      -12010.83      -9465.436       3213.338
       9246.617      -1561.921      -5877.161      -230.1064      -1021.653
      -6650.650       1653.777       14679.33       4047.265      -3212.386
       3822.392      -2216.337      -5080.973       1981.225       566.9668
       4456.057       10644.34      -1683.600      -6242.498       844.8896
      -3047.459      -7751.797      -8183.356      -4183.512      -3295.684
      -955.7617       10376.95       11500.75       1264.277      -882.0664
       6918.971       6823.960       795.4297      -5988.874      -5266.346
       1977.914      -3881.639      -7276.072       4251.109       7404.896
       1952.879       7616.639       8685.685       984.0400      -355.8633
      -3855.891      -14101.40      -16214.74      -1897.401       4202.390
       94.58105       5966.594       2461.454       1316.855       13219.34
       3639.118      -2721.302       5814.940      -1056.420      -4051.840
      -4400.863      -13550.57      -8037.990      -638.5762       5301.641
       20518.47       8346.574      -16876.94      -10155.61      -3526.025
      -3638.023       6087.017       4774.609      -1320.667      -3256.447
       3845.668       8625.660       4756.562       9939.855       2601.830
      -9408.250       1914.917       3476.346      -10600.69      -8090.630
       875.1274      -2778.220      -1516.602       7705.270       5740.697
       2218.857       1062.823      -673.1680      -2314.486      -6074.971
      -6064.758      -4256.114      -3611.232       1369.207       12622.24
       9009.848      -1151.131       2239.332       2655.490       2599.062
      -6314.622      -12388.65       10998.41       14615.77      -3150.135
      -1773.405       1286.490       2297.536       6635.290       1180.354
      -3886.314       305.0117      -6683.105      -17685.43      -8189.756
       9426.082       7159.876      -3778.948       2102.230       5571.323
       4112.258      -3997.418      -20509.05      -10090.22       5663.244
       2431.072       2542.797       2174.250      -5923.438      -4515.762
       12564.21       9731.973      -5826.609      -55.84180      -963.6875
      -14962.37      -12331.35       9498.551       20093.32       5054.412
       3387.938       9966.000      -7825.818      -10387.06       2950.742
      -2754.810      -2381.012       8234.604       1744.594      -12756.57
      -1485.777       11784.67      -1747.889      -11438.19      -8060.983
       1668.098       9139.918       2709.717      -7863.398      -10305.42
       1913.703       12475.85       1199.326      -6230.686       7881.875
       10889.39      -2489.176      -4481.159       1589.121      -1816.767
      -6646.172       197.4668       7941.318       3686.980      -135.6870
       1905.577      -2700.367      -3831.841       4016.266      -1739.861
      -11768.05      -7815.966       754.2041       6031.869      -810.8281
      -5226.566      -12464.12      -28272.05      -18134.53      -2607.016
      -6186.980      -17853.72      -16022.92       16.50391      -960.9453
      -14802.86      -17889.36      -14675.80      -11498.82      -12889.06
      -27073.67      -32898.58      -36500.30      -51370.19      -49788.57
      -24592.84       7874.062       19097.59       24101.06       54466.72
       78766.55       71379.47       47969.25       34967.59       37966.82
       34652.34       23838.13       927.3047      -29306.46      -18460.92
       30220.03       61984.01       55421.91       14771.38      -20171.22
      -6662.754       8960.809      -13335.93      -18416.85       12857.11
       26875.42       2634.203      -28355.30      -33542.71      -6172.305
       22598.89       13680.15      -28362.36      -55343.50      -36077.85
       10293.32       35449.34       14587.26      -18921.27      -22401.71
       7252.734       23694.83      -4552.801      -17734.58       257.4629
       1633.184      -13060.75      -39755.31      -41323.66      -5899.479
       2100.359      -10930.90       590.0625       38860.61       61419.48
       38688.63      -3751.797      -37751.42      -31714.61      -1698.605
       9772.098       15802.52       6430.248      -11598.39      -1188.696
       3533.709      -10527.21      -8633.164      -5658.637      -13674.29
      -12914.34      -6862.832      -13949.56      -15137.82      -6315.378
      -5911.195       8354.883       34058.00       30158.24       6187.483
      -562.5566       5502.898       20508.86       28491.19       7153.484
       9086.297       37771.28       30950.08      -1647.883      -19842.42
      -28951.96      -38720.25      -28686.29      -5818.578      -9296.695
      -26454.64      -23901.69      -27289.16      -38533.09      -19157.06
       7711.859       17245.83       31652.68       36643.26       14766.96
       1137.592      -2231.660       297.4609       21764.09       39011.56
       27441.56       3108.270      -10363.36      -5147.666       8071.210
       3603.793      -5320.137      -7457.891      -11281.66      -5555.297
      -7200.871      -15796.97      -6759.859      -3573.570      -13743.12
      -6498.252       7023.619       5587.436      -1296.291      -6022.793
      -1118.117       15939.29       11446.52      -21544.19      -22766.24
       2090.066       7506.055       13945.78       16440.54       5257.560
      -4176.576       1615.922       23070.55       21464.66       14905.35
       18564.35      -5562.250      -20455.75      -5836.422       8275.984
       14274.59       12143.37       4983.693      -5091.043      -14067.80
      -17989.70      -24421.82      -26064.45      -16526.79      -3225.980
       3999.564      -2971.088      -8044.368       633.8174       7121.479
      -1834.643      -9401.356       441.8652       8146.656       11409.96
       21509.20       14319.64      -5953.220      -2029.602       12769.58
       15687.18       4178.953      -18831.45      -26080.50      -4448.049
       5954.495      -6430.902      -165.6421       7237.636      -9364.062
      -3999.781       19029.00       18248.42       12558.22       13816.63
       2376.340      -2751.436       1959.855      -15246.36      -26993.44
      -17475.39      -17520.63      -7261.089       2632.570      -8825.711
      -13699.33      -6672.654      -556.9941       3793.137       15021.54
       13853.62       1988.391       7011.395       12519.99       8746.722
       3711.785      -332.8184      -1723.324       9098.715       20961.99
       4621.998      -9189.809       153.9548       1774.304       506.1562
       4777.160       9921.418       14764.00       8503.811      -2752.215
      -7073.432      -7930.866      -1612.699       12279.48       21362.21
       473.8984      -32557.53      -20150.86       15388.41       14963.20
      -13185.92      -29352.06      -13983.39       5840.952       1409.341
      -4155.312       10772.01       17113.39       2784.098      -7115.992
      -15226.86      -21998.39      -12145.40      -8441.016      -11946.00
       8006.695       22883.42       5170.213      -9437.613      -16132.59
      -20631.80       795.1875       20945.54      -1232.137      -19242.11
       6789.445       19846.47       12736.15       20069.33       10147.19
      -1115.170       8228.180       4042.746      -5490.733      -4869.154
       2580.719       6205.481      -3001.209      -5325.725      -2649.571
      -33.69727      -920.7188      -9510.785      -12912.57      -11614.38
       823.3203       12598.84       6305.626      -1133.748      -6019.374
       476.5293       10256.43      -3359.199      -15068.02      -5746.936
       3451.849       5110.660      -5628.367      -21170.64      -12971.27
       5525.504       4814.188      -70.07422       9537.203       21992.97
       15094.89      -1815.927      -5412.309       5609.910       15290.32
       12491.69       1242.789      -4632.066      -6158.328      -10620.97
       1036.586       15884.04       1177.246      -18444.91      -12145.23
      -6158.242      -30781.27      -37960.45      -10008.43       1643.205
       5899.066       18830.18       10387.63      -3447.634       2427.984
       2545.404       3557.367       16370.77       18175.21       24784.63
       30117.50       9094.465      -7305.680      -8552.375      -17496.82
      -26924.13      -16022.80       5173.516       18138.90       15057.74
      -16.14148      -166.0898       1023.885      -5948.812      -13225.10
      -29725.88      -24712.35       1225.793       8219.270       9015.750
       22599.68       23608.41       2578.516      -18548.01      -21147.62
      -1284.883       9384.550       1800.994       6126.385       10620.61
      -5489.066      -6612.669       254.2812      -14305.20      -21664.57
      -21730.54      -9988.133       8891.090       7703.863       11981.08
