     0.02500000      -33260.35       36086.70      -12345.00      -12345.00
      -29.99505       240.6549      -39.57000      -12345.00      -12345.00
       0.000000       30.20000      -12345.00      -12345.00      -12345.00
      -12345.00      -12345.00      -12345.00      -12345.00      -12345.00
      -12345.00      -12345.00      -12345.00      -12345.00      -12345.00
      -12345.00      -12345.00      -12345.00      -12345.00      -12345.00
      -12345.00      -30.93890      -68.49280       993.0000       0.000000
      -31.23600      -65.83800       0.000000       167100.0       0.000000
      -12345.00      -12345.00      -12345.00      -12345.00      -12345.00
      -12345.00      -12345.00      -12345.00      -12345.00      -12345.00
       255.4401       276.7255       98.08969       2.296690      -12345.00
      -12345.00     -0.1407249       0.000000       0.000000      -12345.00
      -12345.00      -12345.00      -12345.00      -12345.00      -12345.00
      -12345.00      -12345.00      -12345.00      -12345.00      -12345.00
      2008       318        11        13         9
       970         6    -12345    -12345     10827
    -12345    -12345    -12345    -12345    -12345
         1         7        13    -12345    -12345
    -12345    -12345    -12345    -12345    -12345
    -12345    -12345    -12345    -12345    -12345
    -12345    -12345    -12345    -12345    -12345
         1         1         1         1         1
MONA    -12345          
        -12345  -12345  
-12345  -12345  -12345  
-12345  -12345  -12345  
-12345  -12345  -12345  
-12345  -12345  -12345  
-12345  -12345  BHZ     
ZL      -12345  -12345  
[...]
       2910.307       3988.957       1052.404      -2755.482      -4392.162
      -2304.544       215.5820      -508.0664      -3539.748      -6550.986
      -7651.040      -4573.539       3651.562       11044.44       8641.327
       37.33301      -3565.472      -1980.653      -1970.188      -3981.404
      -5138.121      -2909.142       2316.968       5571.848       3356.982
      -701.3989      -1484.204       807.2581       1323.368      -913.8164
      -2572.645      -2935.702      -2355.454       1039.859       5030.708
       2430.113      -4951.645      -6392.513      -2471.739      -691.3887
      -1734.393      -3364.314      -2950.241       1649.844       7512.986
       9562.321       4874.788      -1967.432      -3874.293      -2391.573
      -2085.503      -2755.928      -2668.604      -3238.594      -4310.479
      -3034.976      -1218.019       53.50977       2392.810       4210.773
       2849.892       848.8989      -1303.177      -4030.483      -1891.688
       2618.590       1084.142      -2605.637      -642.4727       4511.578
       6468.164       3843.027      -1630.078      -4569.620      -1718.460
       3229.784       3802.751       364.6680      -2026.685      -1688.139
       853.6523       4269.919       6229.820       3659.181      -1987.871
      -4710.911      -2687.708       542.0476       1193.352      -659.8457
      -4402.982      -4297.841       2066.709       6115.710       3831.827
       715.1025       785.5459       1260.279       832.2085       1290.901
       2237.569       1780.978      -1471.692      -2929.460      -344.9941
       1602.628       1078.682       729.4346       1191.876      -9.290527
      -1001.824       1328.114       2966.825       1366.838       1069.807
       3403.152       1984.757      -4043.845      -6475.596      -2662.025
       211.4934       530.2090       2056.531       3098.532       2248.836
       2999.422       4485.000       3116.613      -493.7383      -2705.842
      -2043.931       185.4150       1566.355       1383.590      -212.7290
      -300.8711       2965.756       4004.913       953.2472      -1005.541
       871.0195       2431.013      -423.7168      -3362.168      -1571.982
       2733.085       2880.238      -1530.493      -2054.021       3067.500
       3647.275      -1995.072      -4528.946      -2044.179      -441.0513
       60.22986       710.2393      -1140.934      -3846.688      -3352.859
      -1222.696       145.8496       2049.982       3348.197       1398.296
       362.7764       1293.261       496.3214      -788.7683       81.68506
       1569.660       327.2695      -3661.402      -6630.051      -6727.054
      -2731.935       2049.694       2216.753      -2.543579      -513.2817
       1589.582       3622.079       2107.430      -1103.311      -2341.709
      -369.0723       1259.192       399.6189       33.89026      -324.3213
      -1003.504       1023.584       2124.121      -342.2490      -2465.960
      -1527.135       630.8542       314.9707      -2904.750      -3493.083
      -703.1782       768.2441       2222.735       4656.566       3879.575
       599.4138      -707.9893       129.3877       744.7109       874.0039
       2166.858       3433.634       626.7666      -3506.792      -3040.752
      -366.1445      -1274.273      -3641.064      -3336.340      -1252.732
      -824.6216      -1567.436      -1399.984      -1045.045      -902.0672
      -397.8601      -2.294434       1407.873       4776.982       6583.436
       3999.245       150.4879      -744.5032       182.1226      -112.1541
       517.4597       1978.726       8.393066      -2814.802      -190.9043
       3292.164       2515.226       1050.171      -671.3955      -4434.437
      -5609.146      -1818.685       1217.955       1253.976       1578.635
       1609.480       402.4109       467.3574       2879.462       4308.359
       2446.740      -702.2534      -1941.967       208.5244       3325.738
       1739.226      -3253.841      -4660.071      -1560.445       987.7471
       1676.460       2610.365       3415.170       2515.068      -201.7588
      -2302.208      -1680.575       10.20264       1018.507       559.4619
      -46.70459       327.3428       1551.650       1985.888       341.6846
      -1770.782      -2422.279      -2543.686      -3311.834      -4032.012
      -5666.225      -6497.572      -2397.738       2990.891       4391.198
       2802.202       2557.670       3779.720       2179.297      -2302.368
      -4728.934      -3570.933      -2164.989      -2079.211      -1943.207
      -1524.219       124.4409       1940.999       2126.890       1530.828
       1614.073       4082.648       5928.737       2866.572      -834.1621
      -2947.662      -4495.396      -3221.742      -1340.759      -2406.979
      -2071.410       1737.896       3683.110       1691.591       885.0454
       2248.901      -156.9844      -5267.811      -6047.209      -4141.630
      -3348.312      -372.6660       3895.507       3254.934       340.1726
       734.6812       2533.115       2115.511      -488.3857      -3329.287
      -4027.727      -2334.599       342.3042       1339.281      -455.8320
      -3075.889      -3775.695      -1168.268       1435.883       224.7495
      -2228.365      -2491.721       148.2461       3815.560       4117.239
       376.8467      -2333.696      -2040.381      -3268.252      -7847.465
      -9358.303      -5126.565       450.3018       3636.857       3592.120
       1295.192      -1274.491      -29.31250       4897.944       5687.019
       2038.078      -1521.873      -5169.816      -5751.263      -2427.096
      -764.0020      -1886.676      -3536.489      -2274.387       2030.621
       1822.186      -2838.175      -2956.437       1266.103       4388.557
       5252.359       4175.492       577.6055      -1617.956       462.9351
       2813.076       2007.727      -489.0293      -1675.456      -533.1802
       936.4412       475.1656      -181.1377      -224.7705      -2198.232
      -5314.689      -5312.725      -2406.302      -1413.117      -1014.592
       1925.877       4266.646       4181.167       3672.301       2901.057
       1316.815       189.7617       1696.282       3010.350       510.7451
      -2871.980      -3845.322      -4691.909      -4661.493      -403.9062
       3635.488       4096.877       3815.631       4070.861       4170.998
       1226.720      -4129.678      -5454.503      -310.1855       6018.193
       6535.400       1367.265      -1827.443      -302.6074       1858.366
       3008.490       3300.618      -432.3418      -4393.804      -1228.748
       3312.671       3412.599       1418.932      -155.0603      -643.3965
      -2503.972      -3200.797      -146.0820       3148.242       3412.008
       1555.028       786.6985       339.5709      -426.9650       298.6340
       1222.370       695.5498      -1559.514      -2840.237      -798.2983
       2304.865       3837.208       3130.473       1574.129       1637.274
       2812.078       3108.540       3213.979       3469.459       1301.089
      -1679.900      -1842.066      -741.1921      -297.3789       1887.457
       5391.492       4164.064      -2248.672      -7074.533      -6969.276
      -2625.133       2504.917       3979.703       1759.990      -509.8003
      -870.2583      -626.6221       30.70312       1719.199       2432.937
       941.4229      -1445.146      -2013.766      -872.0679      -156.7002
       1188.514       3247.379       2415.321      -773.4420      -1293.136
       1031.728       1588.726      -261.5737      -1659.186      -1079.518
       809.9131       2688.397       2551.634      -1613.826      -6040.134
      -5176.647      -178.0073       2904.499       647.7729      -1559.401
       446.9714       489.5996      -3800.623      -4486.820      -1061.752
      -1390.576      -4354.562      -2785.777       1777.534       3004.556
       180.4851      -1320.704       952.4255       1682.188      -1357.648
      -3440.663      -3216.646      -3307.310      -3295.051      -1858.170
       735.2988       4673.805       6673.846       4090.444      0.1621094
      -2051.954      -2736.824      -2911.330      -738.6582       2846.715
       4364.293       2623.137       171.1204      -1142.275      -307.5669
       2170.016       3567.238       2834.000       140.8828      -1678.038
      -1791.365      -2581.706      -3619.174      -1618.551       2510.241
       3609.237       1320.853      -201.4155       1076.103       1364.581
      -580.8207      -1098.618       283.8789       2600.098       3796.472
       2184.730      -1936.289      -6337.348      -7624.182      -4649.367
       662.3838       4144.363       3934.503       2636.064       3147.433
       4831.080       4671.634       832.5332      -4553.441      -6309.714
      -2784.369       1554.712       1895.552      -474.6183      -699.4722
       1981.739       2757.604      -821.0439      -3822.921      -1895.030
       1510.507       1382.763      -2323.751      -4344.926      -2102.398
       1186.940       4086.433       4792.646       2031.957      -135.4546
       650.1860       1802.471       1496.788       295.9863      -1581.972
      -3616.711      -2814.011       1113.000       2753.277      -255.5420
      -2450.616      -1405.397      -1267.146      -1830.966      -913.7480
      -852.8018      -1461.098      -69.84717       2359.457       2965.804
       706.6289      -1886.946      -2937.559      -3177.670      -2741.376
      -268.2520       3456.482       2855.185      -2836.479      -6102.048
      -2365.993       2617.347       2530.328      -698.1445      -4288.176
      -7010.136      -5682.624      -412.4443       3356.326       2609.773
      -522.3359      -3042.604      -2518.950      -30.66779       127.9796
      -335.4590       1889.677       3276.217       1620.355       687.2314
       2339.680       1728.118      -2844.141      -4850.530      -2102.546
       520.0757       1152.324       209.1997      -1927.378      -3709.886
      -3200.184      -121.1621       2918.958       3660.518       648.3164
      -4069.091      -4486.858      -1418.919      -301.3525      -2913.622
      -5068.302      -2566.787       1034.709       2438.549       2926.910
       1658.862      -1342.689      -1908.650       1355.232       4539.652
       4117.812       537.0198      -1517.478      -132.9067       540.2373
       1445.099       4974.808       6321.527       3524.239       596.7476
       1702.846       4144.164       5026.827       4604.691      -500.8828
      -6461.492      -4042.449       3825.770       6614.887       3519.804
       498.5317       405.5811       3394.371       5234.660       2849.749
      -2028.145      -6313.662      -7869.462      -5382.521      -307.1699
       2343.613       1125.589      -1795.496      -4940.277      -6349.064
      -5544.881      -5752.771      -7273.613      -5873.443      -3359.264
      -4170.428      -6573.039      -7123.895      -7645.660      -9546.039
      -9258.827      -5437.268       540.8105       6288.617       8169.240
       7837.174       6486.735       1097.027      -6297.166      -9870.445
      -7963.533      -3793.511      -479.1055       3153.176       8973.258
       14337.75       16536.43       16662.31       13463.10       3887.139
      -7968.754      -13578.65      -10792.94      -4511.381       867.9258
       5496.223       9602.430       12979.36       13171.86       9906.709
       7473.432       6426.641       6469.322       7046.831       3366.287
      -5637.551      -13892.15      -14972.35      -11369.08      -9828.348
      -8667.427      -4494.063      -1220.660      -2305.501      -5513.631
      -4855.669      -651.7695       2838.898       8102.289       16870.58
       23716.38       21769.32       11167.60      -1356.250      -12445.71
      -20631.05      -22078.22      -16123.37      -6843.822      -398.8652
      -1244.294      -4142.188      -3053.740      -1610.517      -4124.081
      -4399.963       2889.562       9803.852       12853.55       19302.54
       28510.77       30720.37       18987.81       666.4590      -7393.936
      -5735.934      -7941.492      -11985.16      -10567.77      -4366.466
      -766.5801      -4937.998      -7733.208      -3489.340       1329.281
       4539.383       8543.191       11731.25       9723.076       5499.953
       5292.410       9355.820       15380.51       17788.12       7888.297
      -11026.89      -25863.81      -31519.64      -30096.73      -20627.09
      -7321.428       629.8987       1468.978       54.98047       1464.188
       5364.996       6497.370       1185.682      -5894.695      -7906.404
      -5174.152      -2520.104      -4501.594      -6516.005      -292.0547
       14565.22       30315.55       36086.70       26623.54       11140.46
       3161.407       3882.449       2102.586      -10007.88      -26200.27
      -33260.35      -23468.88      -5593.908       7497.637       14270.98
       15365.23       14286.32       11861.33       3102.852      -8485.555
      -15265.58      -17224.45      -15449.91      -10737.18      -3990.144
       3849.363       8473.496       4065.246      -7517.582      -15722.17
      -14757.80      -6010.117       6903.391       16026.43       17143.21
       15003.31       11807.15       7586.227       5984.935       1842.703
      -10679.48      -21503.06      -18357.50      -6578.670       1550.715
       7856.488       16868.79       21778.11       18744.25       12982.97
       6997.750      -2326.180      -13818.00      -21181.89      -19835.99
      -10970.29       1936.027       12095.65       15109.96       13391.04
       9944.562       4800.967      -4227.000      -16667.88      -27673.83
      -28847.80      -15665.91       4984.094       21179.03       27753.41
       28020.11       22909.39       12033.94      -300.3047      -8465.055
      -12211.84      -14318.41      -14863.70      -13361.62      -12169.27
      -11511.51      -8097.688      -1512.410       3370.072       2087.973
       655.6250       6280.250       13239.46       15070.59       13211.64
       10004.79       3692.453      -4674.566      -12530.49      -16058.36
      -11719.57      -967.2852       11765.76       18585.66       17999.37
       14015.28       4174.500      -11553.00      -22657.05      -20967.04
      -13568.41      -9819.361      -8410.259      -5562.560      -2682.342
      -996.9401       140.6123      -1020.240      -7332.684      -15633.22
      -17284.71      -9058.938       2795.602       12484.65       17170.04
       13108.77       1972.612      -4670.932      -3199.047      -840.9941
       2051.703       9106.410       15335.49       14100.68       8262.258
       1398.955      -6691.277      -13538.35      -18773.24      -21730.17
      -17229.57      -3437.234       14079.55       27255.87       29617.41
       21414.38       10478.80       2443.277      -3546.430      -7851.381
      -10189.16      -10213.60      -9359.930      -8899.179      -3944.485
       3762.968       3378.002      -4131.840      -9740.293      -10777.81
      -10117.91      -7882.367      -2685.406       3645.809       8104.281
       9342.748       7882.785       5340.160       3756.484       2873.418
      -78.45508      -5200.512      -11472.57      -17533.63      -20384.16
      -17012.60      -7436.840       3216.215       10364.02       14312.38
       13470.52       10109.77       11444.77       14977.12       11993.90
       4080.210       1209.837       1468.799      -5209.977      -13394.22
      -12196.43      -6065.275      -4396.265      -4844.760      -2672.816
       1076.532       2884.213       2344.809       594.6577       430.6387
       4181.733       6325.151       3056.214      -1892.949      -5568.975
      -6926.706      -4018.852       3204.734       9185.119       10437.52
       8137.104       2009.469      -8085.219      -15288.86      -13323.45
      -7101.465      -3198.913       1187.193       8893.141       13885.56
       9879.769       3889.744       3596.293       5340.232       5915.494
       6287.712       6277.076       3735.278      -211.8071      -1008.077
      -838.9912      -1832.791      -3181.529      -7466.707      -12211.14
      -10957.25      -7072.896      -6698.043      -7413.731      -3406.910
       4540.188       9591.323       6779.095      -428.4590      -4037.053
      -3215.285      -2635.168      -2092.793       545.1699       4702.926
       7348.660       8374.918       9560.125       9636.689       6320.162
       1055.309      -2351.791      -3066.322      -4065.410      -7221.605
      -11606.68      -12591.27      -7129.666       1971.176       10698.81
       15828.62       16627.68       13960.02       6497.373      -2923.059
      -8355.082      -7553.675      -1060.324       7341.834       11366.54
       8921.443       4616.746       2386.684      -227.4414      -3774.488
      -5871.758      -6231.455      -5113.511      -4333.084      -6336.828
      -8995.744      -9030.981      -2375.738       10605.09       22107.69
       24924.92       19072.30       9713.421      -341.2500      -10653.23
      -17127.44      -15537.31      -8103.492      -496.1631       4147.139
       4009.843       1012.933      -1211.388      -1631.108       298.2944
       2913.455       1850.143      -2692.987      -5816.380      -3429.746
      -843.3047      -5796.570      -13373.11      -13810.89      -6747.286
       175.8638       1323.055      -1339.533      -3694.001      -3981.709
      -679.0234       6446.367       13950.27       20030.54       21514.79
       18014.96       14094.56       7435.635      -4776.160      -15806.52
      -18857.07      -16016.62      -14760.84      -15469.43      -13123.75
      -8297.661      -4746.091      -741.5801       6390.859       13030.35
       15597.20       16136.26       15282.26       11943.00       7280.181
       3882.259       1826.688       605.1697       982.6633       462.1475
      -2944.316      -4238.116      -1425.896      -1806.543      -9447.129
      -16131.11      -16671.66      -15137.01      -11976.19      -4023.195
       5496.945       13444.50       21384.27       28387.83       28444.62
       18592.57       2411.387      -13892.04      -23701.77      -24483.67
