     0.02500000      -35980.72       42077.91      -12345.00      -12345.00
      -29.99505       240.6549      -39.57000      -12345.00      -12345.00
       0.000000       30.20000      -12345.00      -12345.00      -12345.00
      -12345.00      -12345.00      -12345.00      -12345.00      -12345.00
      -12345.00      -12345.00      -12345.00      -12345.00      -12345.00
      -12345.00      -12345.00      -12345.00      -12345.00      -12345.00
      -12345.00      -30.93890      -68.49280       993.0000       0.000000
      -31.23600      -65.83800       0.000000       167100.0       0.000000
      -12345.00      -12345.00      -12345.00      -12345.00      -12345.00
      -12345.00      -12345.00      -12345.00      -12345.00      -12345.00
       255.4401       276.7255       98.08969       2.296690      -12345.00
      -12345.00      0.3000981       0.000000       90.00000      -12345.00
      -12345.00      -12345.00      -12345.00      -12345.00      -12345.00
      -12345.00      -12345.00      -12345.00      -12345.00      -12345.00
      2008       318        11        13         9
       970         6    -12345    -12345     10827
    -12345    -12345    -12345    -12345    -12345
         1         7        13    -12345    -12345
    -12345    -12345    -12345    -12345    -12345
    -12345    -12345    -12345    -12345    -12345
    -12345    -12345    -12345    -12345    -12345
         1         1         1         1         1
MONA    -12345          
        -12345  -12345  
-12345  -12345  -12345  
-12345  -12345  -12345  
-12345  -12345  -12345  
-12345  -12345  -12345  
-12345  -12345  BHN     
ZL      -12345  -12345  
[...]
      -4296.965      -2777.896       2495.863       7112.631       5146.773
      -932.7773      -4569.609      -5256.672      -5360.078      -6131.254
      -6903.998      -5266.723      -1906.506       112.0742       2253.471
       4946.165       5638.712       2814.965      -1906.929      -4767.174
      -5039.397      -5182.072      -5509.427      -5342.845      -3155.688
       654.8889       2100.609      -459.7324      -2572.191      -1403.337
       315.8923       195.6826      -96.74805      -792.8770      -3920.555
      -7868.401      -7023.257       95.93164       7976.807       9504.462
       4431.167      -505.6047      -1087.479      -234.5088      -1463.815
      -4304.717      -5283.155      -3759.085      -2466.673      -2802.344
      -2883.825      -2786.458      -2831.575      -708.1758       1890.771
       887.9243      -1611.582      -2783.184      -2537.959      -2117.066
      -2459.163      -2512.424      -869.2672       359.5254      -1086.021
      -4211.553      -7172.266      -7915.294      -4261.980       628.1870
       2725.525       2122.338       2475.876       4613.318       3539.162
      -41.13501      -32.99805       2156.811       2701.974       1794.689
       276.5000      -1909.720      -3009.544      -2147.336      -108.4458
       1554.129       1710.334       1277.861       1249.688       504.3660
      -388.5601      -1007.552      -2918.133      -4264.707      -1968.956
       1320.484       2561.596       1276.002      -1360.043      -3380.678
      -3623.367      -3070.846      -2759.365      -3345.519      -3188.077
       34.60156       4139.568       5107.373       4292.008       4390.783
       3749.965       2120.531       3116.377       4282.938       1776.854
      -1898.111      -3353.015      -3162.842      -2251.253      -964.7700
       389.6074       2222.417       4325.930       4985.853       4146.233
       2411.180       328.1381      -867.8522       7.589844       1240.031
       1663.769       1427.910       37.45605      -1808.726      -2239.427
      -1371.651      -901.4568      -52.32715       3487.996       7091.621
       6957.827       3071.707      -1614.080      -4527.910      -4115.833
      -597.3662       2841.867       2397.240      -41.89258       831.5098
       4995.773       6366.302       3152.653      -233.5486      -503.9297
       1483.087       3911.427       4014.657       721.0063      -2634.858
      -2364.125      -65.93738       299.6650      -2117.985      -3102.947
       747.4883       5352.287       5531.493       3739.986       2808.215
       2351.891       1912.385       2313.887       3754.783       3980.158
       1927.571       427.5549       101.4395      -1116.474      -2637.236
      -1761.966       800.5557       2762.083       2100.061      -939.1929
      -2716.622      -1196.667       1754.140       3647.794       2209.504
      -1340.875      -3100.118      -1859.167       228.7637       2173.377
       4160.180       4517.073       1235.592      -2511.530      -3351.572
      -1648.531       268.0430      -709.9561      -3787.228      -3001.711
       2491.193       7037.291       6755.393       3869.213       1696.184
      -444.3926      -4381.945      -6725.199      -3933.861       365.2725
       1765.799       1872.137       2314.021       3098.017       2849.092
      -67.91309      -3752.481      -4083.810      -2141.988      -1739.690
      -3105.051      -2888.668       963.8086       5129.021       5161.685
       3126.907       1638.181      -81.59680      -1197.524       752.1396
       2595.693      -595.1738      -6009.893      -7369.144      -3678.993
       727.1267       1148.260      -961.3721      -1865.760      -330.1841
       1427.915       1103.292      -859.8574      -2983.847      -4835.938
      -4839.746      -1115.383       4189.128       5712.361       2442.506
      -1795.068      -3247.307      -2730.709      -2321.381      -1551.027
      -873.0923      -2064.666      -3733.549      -3743.445      -1787.605
       521.3291       2294.101       3636.830       3734.296       1769.317
      -449.8413      -1049.321       36.69995       1173.504       642.1860
      -1154.817      -929.2012       2003.020       3849.893       2179.126
      -904.0264      -2996.488      -3262.159      -2130.698      -839.1163
      -610.1814      -821.4146      -1088.598      -1660.557      -2046.923
      -1419.866       161.1904       1955.872       2285.603       653.5232
      -764.3281      -454.1294      -800.3525      -2172.949      -2360.876
      -1080.641       538.1948       2379.309       3241.600       877.4160
      -3343.713      -4551.595      -2326.671      -58.60596       512.0789
       190.5925       73.65015      -562.3066      -2045.173      -1756.266
       119.9396       388.6528      -1296.686      -1582.550       712.2129
       2828.134       2557.489       601.3755      -1662.861      -3134.515
      -3719.745      -3224.839      -2786.121      -2536.417      -862.6183
       331.9968       4.017578       1498.734       4494.609       5564.547
       4304.263       3279.683       1562.492      -2104.154      -4532.776
      -4924.732      -5078.189      -4477.745      -3553.270      -1867.442
       766.9863       2798.377       2969.812       693.0312      -2541.461
      -4002.954      -2670.193      -11.68750       1411.979       1583.907
       1837.544       3408.021       4962.411       3769.359       407.9678
      -2966.639      -4453.216      -2705.120      -671.7856      -784.4619
      -1961.354      -3547.391      -4171.049      -1689.918       845.5551
       442.8735       580.6660       3889.395       7647.791       9431.516
       8055.117       3870.058       652.1040      -1031.092      -5222.609
      -9456.714      -7616.739      -1147.905       3077.771       2602.349
       221.3165      -521.3633       1279.513       2657.541       1184.582
      -280.7704      -71.05942      -92.10742      -25.50439       851.7280
       1127.001       501.9297      -1003.168      -3376.748      -5473.596
      -4883.072      -1136.029       2537.875       4748.771       6289.040
       5126.731       744.5645      -2635.465      -1116.062       3097.863
       4687.979       1544.391      -3257.688      -5493.751      -3781.998
       197.1523       3312.439       4058.361       4062.502       4166.851
       3409.914       1038.080      -2476.677      -5087.412      -5156.037
      -4202.891      -3501.263      -1517.660       1580.482       3621.041
       4937.811       5809.705       4489.070       1548.543       703.2842
       2008.168       2757.868       1331.682      -2079.300      -3567.631
      -1557.568      -210.6499      -6.548828       2431.277       5927.660
       5103.295       311.8281      -2452.713      -2594.112      -3498.621
      -5186.516      -6538.585      -6326.559      -3220.215       1533.770
       4988.934       5825.424       3965.345       1079.688      -285.5337
      -762.0613      -848.9473       531.4524       1243.651      -959.2734
      -3678.438      -3034.760      -360.7646       1849.070       4019.914
       5326.216       4503.593       2194.807       548.5520       506.5239
       696.6980      -117.1836      -3045.107      -5368.134      -4429.346
      -2717.454      -976.2354       1076.339       832.0996      -1719.188
      -2827.256      -1726.666      -578.3494       625.5176       1642.802
       856.6118      -1250.188      -3309.939      -3925.008      -1264.007
       3166.052       4975.884       3702.982       2054.389       1036.982
       1168.042       1853.140       1404.533      -166.8887      -1664.182
      -2216.507      -1697.435      -810.7661      -629.6528      -1891.154
      -3404.764      -3308.923      -1827.865       698.2207       3527.706
       4023.288       1893.180      -397.6508      -968.1995       238.4810
       1952.508       2443.730       576.1318      -1542.552      -1572.212
      -743.1927       130.9846       909.1369       342.6335      -989.8569
      -953.0295       703.5977       2757.822       4363.453       4863.869
       3800.454       1930.292       440.0615      -1129.200      -3469.953
      -5525.502      -5860.508      -4303.598      -2284.565      -788.4111
       1490.381       4441.899       5241.858       3307.743       1746.415
       1544.462       4.582031      -3143.408      -4895.969      -4918.670
      -5194.767      -4815.415      -1282.288       3947.934       6195.318
       4442.246       1714.801       143.2542       256.7122       826.2524
       1164.601       1493.871       1554.681       1668.032       650.2207
      -3076.555      -6229.543      -5265.689      -2082.906       959.4385
       3600.637       4297.821       3059.916       1937.123       530.6328
      -1501.257      -2170.922      -504.4121       1930.652       2251.858
       466.1509      -1196.396      -2304.613      -2144.484       403.6104
       2326.719       23.48438      -3279.090      -1888.449       3004.258
       6235.237       4364.164      -1120.278      -3961.158      -2116.177
       707.0671       1562.393      -433.3677      -2212.612      -964.6802
       1647.334       2741.957       1001.515      -1562.503      -1357.234
       1404.114       2983.005       630.3018      -3179.706      -3900.351
      -1991.242      -584.9824      -29.30469       479.2231       1435.246
       3340.037       5280.857       4505.534       1571.965       242.4766
       1024.807       859.2598      -1617.139      -5090.975      -6114.319
      -1767.103       4789.065       5753.598       175.2549      -4537.785
      -3819.641      -272.1523       2832.613       3804.626       1741.335
      -1503.160      -2745.083      -1233.584       1978.960       4952.058
       4913.104       505.9629      -4868.711      -6573.343      -3869.464
      -85.98730       1745.121       1590.423       737.1299       607.7432
       3412.391       7006.883       5953.842       660.3945      -3295.201
      -3559.912      -2424.548      -2493.795      -2326.588      -1313.183
      -1685.387      -2560.504      -1609.827      -254.8826      -276.7036
      -402.2219       35.16626       457.0996       2275.073       4747.174
       5092.390       2573.571      -491.4062      -1697.930      -1422.925
      -386.9187       1187.700       1283.458      -407.9580      -1886.906
      -2361.949      -1813.574       322.3252       2703.583       3190.359
       2235.819       1270.441      -643.2793      -2666.439      -2983.198
      -2953.220      -2924.254      -1434.092      -166.1428      -468.8284
      -1247.203      -944.3711       1581.809       5073.066       5203.180
       1626.203      -1121.279      -2180.230      -3760.287      -5108.629
      -4920.075      -3604.464      -2186.241      -501.5264       1350.311
       4013.250       6907.488       6647.553       2145.777      -3538.891
      -6414.161      -4892.094      -989.4458       1998.631       1682.878
      -775.5542      -1933.128      -165.2842       1342.959      -700.2715
      -4591.492      -6220.008      -4958.298      -3398.000      -3987.773
      -7365.824      -12259.69      -17501.30      -22449.33      -24187.29
      -21663.95      -18620.49      -17720.29      -17907.71      -18138.77
      -16129.78      -10645.63      -4535.967      -1475.909      -1985.910
      -4214.092      -7421.459      -10587.96      -9735.959      -3323.375
       6542.062       16344.58       23339.11       27023.57       27197.52
       23138.75       16293.46       9293.896       3857.367       59.09131
      -1143.568       2158.422       11105.32       22587.59       29551.59
       29003.18       23868.02       16787.00       10744.56       9259.242
       12934.67       19074.72       25707.67       29137.03       23283.64
       6794.586      -11046.40      -16494.93      -5498.527       10140.15
       15301.60       8427.572       184.0850      -4123.631      -7581.984
      -12448.48      -16868.62      -19174.91      -19329.57      -16547.73
      -8512.910       2627.281       9600.127       8865.236       3344.332
      -4190.078      -11590.07      -16184.88      -14656.95      -7666.449
      -2858.115      -6343.266      -15414.78      -23827.11      -26585.29
      -23648.57      -18106.27      -9400.855       4398.961       17387.98
       21295.46       17321.41       12224.37       8644.861       8732.352
       13411.36       16912.04       9975.705      -7791.422      -24184.91
      -31496.96      -35462.73      -35633.77      -24318.59      -6211.609
       5482.539       10893.75       19076.38       27554.90       28601.18
       24078.04       16737.69       6653.273      -2104.318      -5548.440
      -6217.045      -2986.465       10976.91       31512.75       42077.91
       33231.56       11169.50      -10883.38      -27071.23      -35631.38
      -34056.03      -24073.86      -11763.53      -2888.466       2306.439
       5400.696       3268.914      -6042.070      -16965.07      -19284.27
      -14051.76      -10537.58      -7822.189      -274.8789       6361.293
       4535.317      -638.0723       537.8945       6953.203       9701.213
       4364.285      -5651.316      -14775.94      -18338.49      -14224.92
      -1626.648       15488.85       26792.52       28607.41       26621.57
       21874.00       14418.85       9046.891       7522.896       4860.495
      -882.5938      -5527.203      -7450.650      -9900.465      -12728.84
      -11285.43      -3532.640       4178.627       5240.291       2978.559
       3081.993       3439.857       1497.627      -2164.643      -6231.978
      -7127.707       656.5508       16305.12       27620.84       22640.48
       4557.789      -15268.28      -27958.37      -28617.92      -18373.64
      -5389.471       2756.131       5234.383       7952.168       14881.97
       19900.78       17530.85       13361.01       10395.81       2152.402
      -12949.73      -25076.30      -28539.21      -25177.17      -14621.77
      -934.5830       4020.605      -1702.304      -5269.125       2368.555
       12944.07       17150.83       18320.38       21169.73       24934.87
       24946.61       15463.65      -2844.805      -21577.52      -27704.90
      -17210.21      -1017.238       12383.37       21847.36       21213.64
       5823.570      -16577.67      -31175.24      -28662.17      -12943.49
       5345.504       18396.12       22178.46       18564.96       13565.75
       11636.80       11370.35       10175.19       7775.881       4782.205
       3064.342       4502.883       7521.479       7357.843       1694.736
      -6992.293      -16500.44      -21123.44      -14822.00      -2543.040
       3707.043      -209.7578      -5696.430      -6419.270      -7180.877
      -10081.75      -12311.91      -14796.34      -18485.41      -19780.97
      -17709.80      -17114.13      -18666.68      -14881.18      -3485.648
       8045.779       11938.76       8459.197       3916.115       4837.512
       12840.04       22936.81       26733.38       21087.06       11866.96
       5474.238       2200.109       55.74609      -3764.430      -11366.30
      -22033.34      -31203.66      -33660.11      -26692.20      -12955.91
       2206.016       16845.53       27069.93       23507.35       8337.760
      -3382.015      -4643.533      -2708.795      -4942.443      -7762.971
      -6330.562      -5229.227      -6108.272      -3437.979       2509.898
       3024.937      -3631.459      -8565.479      -4932.617       4802.793
       12725.69       15306.33       16018.15       15939.14       13556.89
       8766.508       2858.710      -1717.659      -2796.908      -2456.291
      -3778.170      -5878.951      -7150.449      -8879.111      -10092.65
      -8599.951      -6406.789      -6006.020      -5184.718      -2234.002
       268.7539       1618.951       6020.031       12572.88       14689.21
       12773.77       13141.24       13318.82       6638.197      -5534.160
      -14812.03      -15614.86      -11105.98      -9648.328      -14144.86
      -18714.16      -16926.52      -10807.43      -5070.355       1042.785
       9116.676       15277.95       16910.69       16975.64       18584.41
       20165.97       16429.66       4541.113      -9049.512      -12942.60
      -4134.990       6044.816       7536.847       4017.367       3934.080
       6942.246       6839.905       962.5859      -6568.035      -10562.62
      -9977.557      -5196.269       1232.258       2589.356      -1488.427
      -4188.715      -2495.864       7.186279       952.7349       1260.709
       211.9316      -3012.350      -6659.453      -8795.648      -5009.967
       4308.293       9654.135       6695.051       3499.404       6352.543
       10602.40       8551.230      -1997.398      -15498.44      -22378.36
      -20290.73      -14260.48      -7028.088       1743.938       9319.734
       13784.40       15168.31       11857.41       3099.127      -8462.336
      -16503.46      -15561.49      -9760.028      -5363.466      -2333.169
      -308.1001       213.3828       4112.570       12792.34       16799.07
       9625.967      -2351.352      -11612.48      -16639.78      -16373.00
      -8360.578       6450.406       22282.26       30549.55       27057.71
       14285.68      -1184.535      -9629.425      -7034.157      -745.6191
       1864.340      -1161.887      -6772.938      -10977.91      -12356.85
      -8643.926       1491.410       13408.53       20585.30       19657.34
       12257.34       1923.596      -6742.666      -10244.79      -11435.69
      -12820.26      -11769.24      -9334.818      -6958.038      -3369.774
      -545.8864      -530.9434       1110.965       8476.309       17396.20
       20503.67       16779.67       8317.969      -2079.217      -7442.799
      -3117.426       4770.145       6256.802      -1348.707      -11431.03
      -16031.02      -15837.70      -18042.15      -22787.66      -23382.91
      -16777.56      -5864.715       5464.734       13518.57       14443.17
       7111.354      -3232.861      -8676.991      -5450.238       3246.652
       11519.56       15037.62       12785.12       7283.199       3277.750
       5141.469       11545.35       15635.95       15577.56       12750.68
