     0.02500000      -75821.47       57603.61      -12345.00      -12345.00
      -29.99505       240.6549      -39.57000      -12345.00      -12345.00
       0.000000       30.20000      -12345.00      -12345.00      -12345.00
      -12345.00      -12345.00      -12345.00      -12345.00      -12345.00
      -12345.00      -12345.00      -12345.00      -12345.00      -12345.00
      -12345.00      -12345.00      -12345.00      -12345.00      -12345.00
      -12345.00      -30.93890      -68.49280       993.0000       0.000000
      -31.23600      -65.83800       0.000000       167100.0       0.000000
      -12345.00      -12345.00      -12345.00      -12345.00      -12345.00
      -12345.00      -12345.00      -12345.00      -12345.00      -12345.00
       255.4401       276.7255       98.08969       2.296690      -12345.00
      -12345.00     -0.5866849       90.00000       90.00000      -12345.00
      -12345.00      -12345.00      -12345.00      -12345.00      -12345.00
      -12345.00      -12345.00      -12345.00      -12345.00      -12345.00
      2008       318        11        13         9
       970         6    -12345    -12345     10827
    -12345    -12345    -12345    -12345    -12345
         1         7        13    -12345    -12345
    -12345    -12345    -12345    -12345    -12345
    -12345    -12345    -12345    -12345    -12345
    -12345    -12345    -12345    -12345    -12345
         1         1         1         1         1
MONA    -12345          
        -12345  -12345  
-12345  -12345  -12345  
-12345  -12345  -12345  
-12345  -12345  -12345  
-12345  -12345  -12345  
-12345  -12345  BHE     
ZL      -12345  -12345  
[...]
       1127.559       5753.441       6009.888       3257.260       1435.699
       2737.709       5851.699       5933.063       1105.891      -2471.782
      -2002.888      -1822.748      -2799.312      -1540.064       333.1455
      -1468.713      -4682.039      -2573.663       3528.441       7714.205
       7186.592       1503.062      -5259.489      -5942.340       367.6582
       8872.043       13376.94       12320.04       8505.407       3460.167
      -3159.611      -9596.609      -12533.45      -9737.805      -2842.416
       4413.197       8501.761       7082.579       223.3008      -7117.791
      -10257.51      -8406.055      -3733.270       1233.844       4579.193
       5546.258       4800.133       3630.251       2319.854       2495.749
       4628.220       5633.875       3214.666      -1119.094      -6546.852
      -10839.51      -9472.345      -3010.233       542.1301      -1463.154
      -810.1250       6704.955       10797.10       5253.299      -801.2510
      -917.7861      -1116.913      -2132.321       420.7090       2293.220
       722.2771       666.9578       1264.404       904.4741       1876.039
       2845.672       340.5918      -4323.564      -7358.208      -6509.034
      -1771.969       4597.078       8008.146       7127.026       3623.168
      -827.0107      -4641.141      -5524.517      -3674.725      -1673.750
      -921.2695       697.9521       3932.908       4603.761       42.34766
      -4745.993      -5436.793      -2991.385       1103.039       5963.074
       8048.174       6204.876       3301.995       685.4434      -2994.236
      -6125.156      -6747.854      -6202.434      -5418.721      -2535.769
       491.0510       439.0933      -793.6196      -1002.097      -1683.571
      -2021.618       189.8965       3813.814       5092.406       3423.084
      -857.7598      -4462.360      -2971.569       1316.880       3185.971
       2173.481      -613.3594      -4279.996      -5966.638      -3415.957
       315.0752       2649.980       3073.214       1210.033      -829.8574
      -1122.180      -2827.033      -5106.493      -4194.153      -1925.568
      -1022.534       786.0527       3919.026       5258.091       2695.360
      -1239.271      -2875.177      -2111.745      -1107.520       430.9684
       1204.129      -1450.422      -5010.385      -4998.701      -2750.709
       927.4570       5500.117       7106.869       5948.197       5372.588
       3252.750      -778.2998      -3200.759      -2447.029      -1346.588
      -3294.184      -7132.002      -7599.832      -4525.264      -2924.031
      -4380.746      -5534.471      -4673.708      -3018.419      -2385.905
      -1995.843      -1675.651      -2379.152      -3013.997      -138.3984
       4517.559       6062.689       5163.554       4173.204       1738.514
      -902.8359      -1362.704       260.7539       2667.741       3865.243
       624.5000      -4994.797      -6752.484      -3586.631      -1606.970
      -4077.059      -8076.678      -8577.397      -3852.415       2864.479
       6814.789       6813.356       4277.392       2860.202       2359.209
      -886.8145      -5182.128      -5985.855      -3886.639      -2112.932
      -2457.384      -1414.100       2071.391       3015.984       376.2793
      -1756.323      -3633.605      -5927.315      -4990.230       538.6719
       6011.211       8577.146       8082.575       4806.461      -211.0459
      -3961.669      -4356.951      -1692.358       1178.110       1704.826
       958.2041       2129.101       3750.777       3767.539       3095.909
       2414.770       1362.776       1476.309       2775.861       1918.689
      -3426.223      -9295.557      -10150.79      -4643.461       3683.992
       10305.30       11898.88       9451.582       5156.447       8.898438
      -4691.609      -6700.396      -6344.828      -4680.466      -2460.478
      -295.1260       1330.387       2817.936       3685.097       2362.638
      -555.2642      -216.9160       3934.152       6954.576       4468.035
      -2211.293      -7202.793      -5627.280       200.8340       4989.369
       7069.688       8546.838       8943.562       6555.723       2229.965
      -20.01123       1069.081       2345.981       896.9482      -1864.379
      -3575.686      -2481.258       1035.359       4051.647       4053.384
       3521.495       4515.522       5021.390       2941.727       624.4351
      -726.6807      -2745.555      -6597.586      -9250.590      -7103.695
      -1052.932       5062.070       8025.896       5822.279       1882.438
      -193.2305      -1123.917      -1358.588       530.5605       2837.779
       3578.124       1897.950      -603.1924      -2812.226      -4636.816
      -4189.431      -1238.220      -1059.160      -4651.896      -6503.025
      -3043.250       1120.388       1492.806       438.1816       1318.301
       3314.701       5870.643       7331.031       6982.410       6592.693
       6533.492       4101.645      -1119.736      -4930.847      -2808.580
       1747.290       2383.619      -2148.129      -6422.148      -6184.368
      -3526.001      -2116.710      -821.2285       1920.383       4597.213
       4457.212       2277.796      -130.3384      -1546.809      -1651.914
       48.09229       2205.818       1971.364      -1002.466      -1767.276
       964.0604       1787.995      -1691.854      -3842.789      -2534.736
      -1059.421      -922.5166      -988.0156      -1614.331      -1805.706
       253.9590       3204.835       3078.872       527.3008      -1545.521
      -1812.180      -1179.308      -1787.676      -5224.371      -8805.455
      -9718.391      -8330.443      -5862.639      -1277.378       3460.645
       7117.928       10299.31       10131.28       5117.004      -235.6035
      -3863.199      -6296.539      -6945.641      -4699.040      -1104.952
       2611.017       5135.987       4158.564      -1011.273      -6756.934
      -9823.397      -7676.046       137.4824       8493.725       9855.040
       5021.801      -429.9014      -3685.727      -5072.386      -4208.485
      -1316.198       989.2456      -974.9844      -6064.172      -9298.521
      -7794.412      -5381.314      -4656.797      -3266.304       84.89453
       1936.461       2247.254       4039.941       6449.680       5438.666
       1564.706      -1113.750      -1034.380      -499.7596      -19.06702
       267.1636       847.0486       1394.548       1097.979       467.0840
       413.0381       625.5547       2135.988       3396.218       2539.725
       669.9551      -1095.537      -2671.601      -2753.442      -2353.046
      -1356.319       984.5537       3154.037       2805.182       1757.252
       2649.650       4286.806       3072.388      -1463.410      -5961.062
      -5844.814      -1518.099       3771.295       5598.220       2790.865
      -80.99223       10.95085       116.4183      -128.7388       78.96802
      -425.8770      -2189.761      -3224.822      -3731.592      -3540.547
      -840.9043       3950.971       5932.312       2316.304      -2082.609
      -691.0186       4044.714       6161.573       3859.023       904.8174
      -625.0090      -1106.708      -323.0859       2015.738       3245.090
       289.6621      -5727.004      -8012.066      -3547.957       2903.324
       4995.943       3880.686       2861.091       1559.176       82.18652
       941.6865       2394.720       2784.234       3782.571       4915.783
       2733.091      -2822.404      -8263.080      -8261.497      -4841.269
      -2980.589      -387.7871       4866.703       7948.744       6857.251
       4277.729       2974.088       1951.246       801.5996      -918.1484
      -3083.859      -2870.067       418.5132       1871.230       878.4785
      -814.9346      -2804.467      -2889.297       392.9062       2356.008
       276.4365      -2166.880      -1514.607      -642.9766      -2011.613
      -4497.211      -6296.459      -8275.236      -8661.410      -3223.053
       7220.750       13409.21       10779.93       4262.517      -565.6797
      -3016.629      -3852.280      -3932.119      -3129.568      -1028.000
       4005.137       9585.660       10794.57       6479.855       971.0166
      -1942.844      -2050.973      -2372.084      -3546.370      -3581.970
      -2019.261      -3415.922      -7398.137      -7118.125      -1458.880
       2031.424      -225.6758      -3559.159      -2050.212       2527.198
       5022.038       3668.068       1393.900      -405.3633      -1645.938
      -3006.244      -3669.292      -2610.585      -1005.476      -504.8428
       1837.445       6561.051       8576.020       5292.204       896.2812
      -2299.335      -3771.509      -1733.681       2524.414       3147.910
       463.6792      -1427.240      -2298.949      -5501.111      -9473.651
      -7906.921      -135.5654       4949.684       3111.569      -1917.090
      -5684.054      -6161.666      -1780.297       5680.855       10701.83
       8390.635       644.0254      -6852.137      -8992.553      -7450.332
      -6627.731      -6121.230      -1979.338       4969.836       10335.18
       10623.76       7163.063       3144.045       977.5142       180.2261
      -764.1743      -2133.960      -1798.695      -494.4780      -1314.041
      -4295.290      -5081.819      -3243.079      -1350.681      -1105.528
      -2281.462      -2475.902      -302.5054       871.9688       1252.610
       1821.519       1158.886      -748.4785      -2403.800      -3520.747
      -2508.302       452.5508       2245.252       339.0049      -1874.865
      -1466.797      -714.6365      -1094.210       574.7002       2272.334
       256.2725      -1962.649       29.80371       2543.532       2801.390
       1609.566      -17.27295      -843.9307       1394.596       5452.604
       7141.511       3622.561      -544.4541       680.4707       5464.863
       5532.094      -600.9258      -7821.922      -10979.51      -8499.667
      -2347.571       2701.369       3419.188       286.0796      -2226.603
      -1411.760       2231.094       5163.419       5252.128       4104.945
       3950.006       3115.635       1120.793      -911.4277      -3200.479
      -6907.066      -9065.908      -5964.786       1097.863       5336.925
       4764.779       1902.009      -1673.785      -4307.853      -3089.228
       1373.945       5357.792       4904.060       942.6182      -3043.355
      -3882.381      -1320.255       2021.401       2420.250       869.3296
       477.1045       1223.651      -166.4084      -1816.750       533.4746
       5294.518       7544.844       7447.171       5708.335       1012.068
      -4958.209      -6607.013      -3869.284      -1227.213      -1861.086
      -3803.455      -4426.470      -3958.213      -3785.995      -2925.436
      -1664.404      -1494.557      -2680.600      -1165.462       4106.818
       8035.369       5719.176      -930.2500      -6223.582      -6198.740
      -3427.270      -2444.226      -3894.358      -4656.394      -4196.639
      -2969.339      -1837.927      -2047.826      -5087.932      -8158.927
      -6885.252      -1392.912       2838.584       2866.962       24.34082
      -3785.469      -7625.209      -9248.633      -7952.663      -3144.166
       2974.464       6081.951       3173.369      -3978.719      -10912.80
      -11489.05      -2919.062       10012.41       20570.80       26842.98
       26097.66       17396.77       6444.168       1727.270       4866.043
       10688.79       12023.73       9293.867       7848.297       7137.037
       3397.599       397.2041       2611.184       7151.227       8424.957
       7456.918       6454.065       4903.594       3009.400       2573.453
      -486.3281      -10638.48      -24209.80      -33055.67      -33305.53
      -25577.96      -14640.89      -4154.324       4411.348       9497.225
       7541.207      -6034.062      -32387.62      -58990.50      -67651.94
      -53703.02      -29442.04      -8448.389       3501.797       10248.60
       16801.22       24607.66       32718.45       37705.02       32901.10
       18705.15       7486.605       7036.635       8002.928       3920.876
       785.3164       4720.344       13590.22       25210.21       37990.16
       45314.68       40467.83       26650.81       8879.680      -9974.570
      -23704.44      -22496.23      -3050.531       22112.61       29002.76
       7591.070      -24806.20      -41350.83      -37488.12      -31860.52
      -35969.32      -36366.52      -19310.17       6506.398       22533.07
       23646.91       15636.18       7790.461       8464.422       20440.27
       36769.30       44488.02       37597.75       21651.92       4092.607
      -3194.051       5901.867       16779.17       12441.75      -944.0078
      -11305.41      -21125.28      -38432.64      -61327.06      -75821.47
      -62681.93      -20634.03       27680.55       57603.61       57023.83
       30468.13       733.8359      -14822.67      -16861.77      -8771.324
       9150.664       28862.42       37557.78       30328.96       14659.86
      -2717.812      -23039.12      -46243.89      -59871.31      -53826.26
      -34865.60      -15949.42       2.492188       17769.17       35660.92
       44847.23       44555.48       41549.38       36614.36       21490.74
      -856.1484      -15636.09      -15974.51      -8008.093      -162.1191
       3714.691       1487.059      -8933.594      -20961.30      -26642.42
      -24699.01      -15351.31      -1227.639       9382.701       11974.03
       7863.529       1966.015      -27.57617       2170.905       2386.428
      -1592.609      -6545.852      -11451.45      -14774.00      -13469.16
      -13173.41      -20553.40      -30478.77      -30161.41      -14377.57
       8142.852       20735.68       13836.11      -1531.231      -2968.664
       13739.14       35558.16       48374.03       42501.58       17576.04
      -17274.86      -49267.12      -65862.56      -58758.27      -31666.43
      -1932.570       18159.32       29378.17       38353.16       49354.97
       54224.19       37600.85      -1331.625      -44259.42      -67888.14
      -63124.34      -39110.41      -9283.180       19692.25       42813.38
       51317.32       42657.27       26030.70       8313.105      -8984.703
      -25206.05      -40196.84      -48141.12      -41106.65      -20983.12
       5647.281       33106.56       51514.09       50527.38       33191.02
       13117.47      -2615.086      -16124.46      -24354.22      -20233.86
      -7170.342       3542.250       7351.075       4621.142      -2985.324
      -10995.03      -16539.64      -17379.02      -13290.97      -10208.96
      -10038.84      -8008.459      -2699.348      -1983.191      -12041.55
      -22717.55      -19940.40      -3242.242       22004.72       46955.55
       57066.69       47316.11       26433.50       2841.703      -19193.44
      -32719.21      -28079.27      -4836.516       23948.84       40300.38
       32867.02       4146.891      -29799.91      -50205.15      -49187.71
      -31089.44      -8191.863       5925.916       7901.066       4785.764
       5659.102       13505.27       20927.40       21162.15       19574.14
       20612.79       18258.77       8811.234      -4182.094      -19218.72
      -34821.23      -41356.01      -31411.22      -13830.01      -2770.402
      -88.71777       2527.422       9974.324       17356.34       17837.50
       13754.63       10648.60       5576.832      -6103.867      -15651.37
      -11473.72      -796.6819       1918.305       195.1875       6050.574
       17178.48       24693.38       23845.56       10362.73      -12565.67
      -31849.43      -37128.04      -29677.35      -16960.46      -3865.852
       6634.586       13896.13       20015.75       25307.13       29418.74
       32798.72       35164.66       34468.09       26995.88       12527.05
      -4373.547      -19558.20      -29025.26      -30180.59      -27347.20
      -27320.64      -29312.84      -27904.05      -21441.96      -12908.76
      -4021.789       7105.625       19453.34       30122.16       38372.17
       41347.12       33774.63       16679.30      -122.6094      -7011.173
      -1891.385       7049.233       8179.299      -3013.352      -20729.88
      -31090.07      -25311.68      -9020.648       6519.727       14243.17
       13974.91       8546.878       1327.592      -2438.404      -555.5088
       2506.435       2104.441      -1623.434      -6274.371      -7686.920
      -2515.906       8005.688       19400.35       23736.07       15200.18
      -2931.523      -23147.22      -37086.88      -36763.53      -24046.56
      -9936.187       580.6484       10450.07       19319.50       23747.07
       22908.16       16632.34       5854.515      -3807.559      -6678.413
      -4421.902      -2326.410      -2400.462      -4739.221      -6636.279
      -2916.672       5916.938       13177.67       15318.95       13227.73
       7404.104      -3115.031      -15711.86      -22114.62      -17546.38
      -5204.418       8838.023       17249.12       14613.91       5012.737
      -2840.367      -7171.016      -11503.11      -16161.89      -16901.73
      -9775.939       3324.273       12963.79       10221.74      -339.2715
      -5399.091      -1606.571       3341.689       2921.165      -1691.479
      -5349.070      -6713.467      -8077.961      -8617.965      -5418.904
       87.81250       2758.757       1576.652      -151.1870      -1519.083
      -1325.223       2013.049       3400.105      -4313.199      -17991.66
      -24002.83      -15262.47       1972.223       17759.95       25423.92
       23994.59       16462.58       6788.411       256.7131      -495.4580
       1990.410       4072.906       1928.293      -6374.008      -17747.63
      -26384.27      -26073.67      -14133.68       2604.000       10283.35
       5011.807      -645.5820       4421.242       17851.58       28736.65
       28383.31       19363.31       10663.97       4647.570      -4409.750
      -18402.54      -30682.07      -32887.63      -22560.89      -5901.939
       6789.695       8809.566       3186.302       163.6245       2326.490
       3375.416       3409.877       6703.625       10352.02       8589.059
       1401.625      -7447.934      -13874.10      -12073.03      -3035.830
