     0.02500000      -123262.0       101386.8      -12345.00      -12345.00
      -30.01001       234.3900      -33.31000      -12345.00      -12345.00
       0.000000       25.21000      -12345.00      -12345.00      -12345.00
      -12345.00      -12345.00      -12345.00      -12345.00      -12345.00
      -12345.00      -12345.00      -12345.00      -12345.00      -12345.00
      -12345.00      -12345.00      -12345.00      -12345.00      -12345.00
      -12345.00      -31.57700      -67.87020       833.0000       0.000000
      -31.23600      -65.83800       0.000000       167100.0       0.000000
      -12345.00      -12345.00      -12345.00      -12345.00      -12345.00
      -12345.00      -12345.00      -12345.00      -12345.00      -12345.00
       196.9171       258.4047       79.45855       1.770532      -12345.00
      -12345.00      0.1828058       0.000000       0.000000      -12345.00
      -12345.00      -12345.00      -12345.00      -12345.00      -12345.00
      -12345.00      -12345.00      -12345.00      -12345.00      -12345.00
      2008       318        11        13         3
       710         6    -12345    -12345     10577
    -12345    -12345    -12345    -12345    -12345
         1         7        13    -12345    -12345
    -12345    -12345    -12345    -12345    -12345
    -12345    -12345    -12345    -12345    -12345
    -12345    -12345    -12345    -12345    -12345
         1         1         1         1         1
NIKI    -12345          
        -12345  -12345  
-12345  -12345  -12345  
-12345  -12345  -12345  
-12345  -12345  -12345  
-12345  -12345  -12345  
-12345  -12345  BHZ     
ZL      -12345  -12345  
[...]
       47.24721       71.27003       61.17191       82.14439       73.28778
       95.51941       85.13757       105.4778       97.93018       119.9831
       110.4818       131.3736       121.6462       140.3475       129.3632
       148.0924       135.7319       153.4407       141.1302       159.9391
       148.0518       167.6311       153.1202       170.9170       156.7493
       175.7197       161.7526       176.5533       160.2487       179.2390
       162.5229       180.2126       164.7534       179.9192       163.2672
       182.0936       162.8811       179.0157       160.4769       172.4310
       152.8300       167.8172       149.0766       164.7412       144.3553
       156.2585       134.4718       147.8726       125.4139       136.3354
       114.1066       127.4454       104.8556       117.1489       94.28235
       104.7166       81.43210       95.60825       69.29926       76.88795
       54.78464       66.36371       39.56754       51.32086       27.76909
       37.07602       10.70131       19.45547      -6.003395       8.253136
      -14.10086      -5.166862      -31.87737      -20.87930      -43.84363
      -35.12724      -62.96112      -53.12741      -77.82776      -67.14078
      -93.41571      -82.06830      -106.2372      -96.12152      -120.1046
      -107.2666      -129.9085      -120.6105      -145.3219      -133.1678
      -155.5586      -146.3302      -169.9102      -159.3622      -183.2163
      -173.9063      -196.1523      -184.3743      -206.1463      -195.1736
      -219.6797      -207.7269      -229.2361      -217.8997      -239.6235
      -227.3373      -249.5447      -236.8685      -260.0554      -245.3369
      -266.8543      -255.8929      -278.8560      -263.0164      -280.1664
      -265.3171      -287.7828      -274.2888      -291.7631      -272.4144
      -289.2131      -273.9562      -290.0409      -270.7471      -285.1821
      -265.7192      -278.9908      -258.9064      -270.7484      -249.6259
      -260.2230      -237.1591      -249.1596      -222.5573      -229.5052
      -208.1660      -218.3740      -190.7624      -199.9135      -174.6508
      -186.9092      -159.9230      -169.6652      -146.1859      -157.1726
      -129.4229      -136.4849      -106.7382      -114.9254      -86.31079
      -95.02362      -67.31775      -72.67056      -42.30927      -51.46715
      -24.19262      -27.09317       1.407971      -7.272972       23.98521
       19.48521       47.92531       41.92270       72.35941       67.23978
       96.93384       94.68048       123.7192       115.9059       143.4240
       139.4374       168.8313       160.4426       187.5914       177.8326
       201.8207       195.0811       224.6207       216.5857       242.6134
       233.8638       262.9489       253.2722       278.6447       268.7031
       295.9307       285.5548       311.4570       299.4624       323.6776
       310.8844       337.5438       325.0671       349.9840       335.6626
       362.0847       350.5710       373.1334       360.6934       387.0187
       375.3942       399.0544       383.4276       407.8220       394.2229
       417.7015       403.9967       429.0170       413.5148       437.4275
       425.3740       451.5248       432.9697       455.8469       443.4047
       470.0363       452.9076       477.4146       460.6260       483.1458
       466.1521       489.3082       470.9216       495.5685       476.1619
       500.1090       478.5629       498.5061       483.2340       505.6799
       480.5447       499.1980       483.5040       503.5208       481.0354
       499.9517       479.5220       494.4746       474.3962       489.3942
       464.3441       477.6152       455.4038       468.9563       444.4059
       455.3875       431.0415       442.9109       415.8608       425.7410
       399.3423       412.0831       382.8743       391.0448       364.2689
       375.4055       345.1849       351.7294       320.3830       329.9800
       298.0011       304.4324       271.6637       282.3424       246.9164
       252.6677       220.1816       230.1536       194.0184       200.1163
       168.9048       180.4776       145.3972       147.9377       110.7038
       117.4098       81.24016       84.90018       47.30376       52.49648
       18.33839       23.92192      -14.92563      -11.13058      -48.44290
      -49.14935      -86.47183      -81.25653      -121.7834      -121.7147
      -158.1298      -151.5446      -187.0986      -186.3173      -227.6388
      -224.5677      -263.1122      -259.1595      -296.2845      -294.2922
      -327.9114      -321.2200      -355.3718      -352.9414      -389.4054
      -382.9596      -411.3884      -405.0720      -436.3522      -428.3203
      -456.3925      -449.4780      -479.1405      -468.4569      -496.7283
      -486.9109      -514.8188      -505.4170      -532.3167      -523.2855
      -549.0159      -534.5820      -557.2747      -544.6257      -570.4272
      -558.9502      -583.1417      -570.5544      -596.3413      -584.8770
      -607.8392      -592.8494      -615.2202      -603.1084      -624.3687
      -607.2777      -629.8911      -613.9142      -633.6327      -614.4878
      -634.5803      -616.8213      -638.6938      -621.9385      -642.5781
      -624.0938      -643.2803      -625.1956      -645.4346      -625.8511
      -644.7424      -625.0486      -641.9082      -619.9894      -636.1885
      -612.4236      -628.8207      -607.4705      -619.9325      -600.3879
      -617.5374      -591.7562      -606.5100      -583.6293      -595.0000
      -568.4939      -579.7003      -554.1193      -567.4103      -540.3088
      -550.6407      -523.8470      -535.4255      -508.3339      -520.9082
      -495.5466      -503.6962      -478.1498      -490.9976      -464.1672
      -474.3341      -448.5510      -457.0879      -428.6537      -438.6307
      -411.2637      -420.2722      -392.2428      -401.6805      -375.6420
      -385.0024      -353.8037      -363.8026      -333.7072      -341.0088
      -311.5970      -319.7524      -288.7129      -298.5988      -264.3310
      -272.5301      -243.6131      -254.6962      -222.3307      -230.8743
      -196.1940      -200.4658      -168.4401      -180.8660      -148.2392
      -154.9918      -122.7465      -132.0507      -100.1808      -112.7479
      -84.64955      -92.58398      -58.31923      -67.23138      -40.44034
      -51.29842      -20.72636      -31.01606      -2.961163      -15.45876
       14.55962       4.037971       33.69645       27.50438       58.02710
       45.72269       72.41687       63.28622       90.48770       79.85724
       110.6979       101.7026       133.4692       126.3073       155.4634
       147.5349       179.1835       171.1450       202.1281       196.5240
       225.5356       218.4810       250.7063       242.4110       270.5760
       261.4089       291.1925       287.5558       319.7770       315.7601
       348.3312       340.1713       368.4901       361.9231       395.5510
       388.8623       415.3684       406.6825       437.0447       426.5991
       456.5087       451.9078       482.3921       470.8058       502.1412
       495.7776       527.7083       519.3257       549.6965       540.7787
       573.5312       564.6167       596.3667       586.7205       617.8760
       611.3883       644.9016       637.5735       670.8032       663.4285
       693.8940       684.7354       715.7539       711.6001       744.7651
       733.9595       762.4678       756.5684       785.7183       775.1936
       807.7188       795.3264       826.0002       822.9150       841.9958
       822.1204       854.6814       849.1597       869.9050       852.7188
       868.7332       852.0676       877.0449       857.4766       867.5488
       852.0627       866.6326       844.7175       855.5942       833.7612
       841.0298       819.2720       827.3308       794.5752       797.5859
       773.7419       774.2539       740.7871       743.2319       710.7612
       707.1611       676.7412       674.3320       634.9491       634.7358
       595.9714       592.0898       555.8333       546.0356       504.4966
       501.6694       460.7125       454.6765       417.1573       415.2581
       373.5706       367.2721       329.0330       324.6195       288.3450
       283.6456       244.3556       240.8860       203.8258       199.6791
       163.7055       158.8372       120.8177       118.6985       81.55353
       76.66884       43.45709       43.53637       4.688156       1.323502
      -30.18442      -34.13332      -69.79552      -69.70352      -105.9081
      -105.5543      -138.0489      -135.2183      -169.1234      -168.2083
      -199.1736      -193.9161      -225.0056      -221.5706      -251.7723
      -244.4248      -274.7856      -270.3580      -302.5735      -295.4358
      -320.6497      -310.8182      -337.2255      -325.8838      -347.0477
      -333.7053      -357.7494      -343.2775      -362.1666      -349.5269
      -370.4176      -353.6942      -373.3486      -359.3499      -377.2395
      -360.5210      -380.1001      -364.5000      -380.9047      -364.2651
      -383.8864      -366.1169      -382.1820      -367.9712      -388.8314
      -370.7125      -390.1917      -374.9114      -398.4111      -384.9044
      -405.6617      -389.5502      -411.6780      -397.2986      -419.2249
      -402.9360      -424.4502      -410.2692      -432.2235      -416.6295
      -437.6719      -422.5499      -448.1136      -431.4348      -455.6021
      -441.3912      -465.9941      -455.9084      -480.8168      -464.0978
      -487.6218      -475.8326      -501.6090      -489.1302      -515.9114
      -501.5153      -526.8049      -515.5933      -541.7349      -530.4203
      -555.7905      -542.8772      -570.2064      -557.8173      -583.4478
      -565.4746      -588.5771      -577.6366      -604.6824      -589.3539
      -613.3726      -600.1433      -625.0989      -608.8258      -632.6387
      -619.6686      -644.1401      -627.1338      -648.1392      -633.5773
      -657.3699      -641.6610      -660.7667      -649.5458      -669.0132
      -652.6248      -670.1777      -657.5605      -675.8167      -658.5770
      -675.8982      -663.6978      -682.6133      -661.3137      -677.0201
      -661.0643      -678.1968      -657.2615      -670.0894      -647.5322
      -662.7542      -644.0371      -656.7043      -633.6505      -648.1913
      -625.2056      -637.4606      -612.5872      -620.4712      -596.6436
      -605.3005      -579.4324      -588.6509      -563.6104      -571.7207
      -542.3501      -549.7766      -520.3672      -524.0757      -494.7163
      -499.2875      -465.0005      -467.6851      -438.9885      -442.0249
      -406.8132      -407.1851      -369.4276      -370.3701      -336.2795
      -335.5108      -296.6097      -293.4728      -256.9547      -254.0760
      -217.1109      -210.5435      -170.0540      -163.7617      -122.5811
      -113.8163      -69.51323      -65.73686      -27.79205      -18.56344
       24.65529       30.76509       72.38696       78.60184       125.1876
       134.2438       178.3325       187.4250       230.8348       240.7727
       285.6929       294.1083       338.1892       343.3564       385.9231
       392.8129       432.4452       437.4594       481.1899       483.4888
       519.3101       522.0861       561.4130       562.1030       600.8815
       599.8025       634.9644       632.8546       667.3811       664.8745
       697.7812       692.5940       721.1411       713.3999       745.9814
       736.4153       761.8638       755.2556       784.4285       773.3687
       797.7915       783.8604       805.5527       793.0947       819.3740
       804.6055       823.5552       806.1848       827.4854       807.5691
       825.5603       803.4883       821.0127       798.0337       812.7205
       792.0391       807.9963       778.3174       790.4697       769.4316
       778.9773       749.7581       760.9263       733.0398       743.1470
       716.4602       721.7095       686.7124       691.5052       664.7570
       673.2559       640.6190       641.1254       608.6069       615.2979
       578.3860       578.4119       544.8643       541.9558       500.7413
       502.3544       467.0107       465.4192       427.3820       426.3545
       388.2493       386.2771       349.5212       351.7290       314.6226
       308.2869       267.0538       268.2982       232.9534       233.0856
       192.5097       194.8363       161.0330       162.1773       118.4397
       129.1435       99.32834       92.50406       38.62581       64.22020
       31.34957       17.46634      -39.80984       54.79628      -72.86229
      -110.5898       255.2559       2758.578       14050.44       53223.78
       101386.8       80196.06      -11658.47      -104277.6      -123262.0
      -29511.00       60372.73       17459.02      -43238.96      -7791.453
       30105.00       43022.08       23393.38      -33386.30      -46047.25
      -27637.08      -17112.21       1790.682       8124.168       4924.477
       27225.34       10631.57      -37464.83      -22150.67       8079.439
       3034.581      -2548.404       12988.35      -7231.367      -51215.26
       1782.656       67041.95       32289.62      -4872.031      -24286.12
      -42050.07      -9449.789       18468.87      -467.6675      -4968.680
       17281.86       8457.964      -11025.54       7524.121       15526.91
      -9000.453      -24847.54      -24297.09      -4975.898       32193.73
       32913.05       3029.834       6151.878       5137.246      -20234.49
      -15322.56       592.3203      -8425.270      -21270.96      -9208.043
       8235.973       12228.32       26406.91       15875.69      -12778.74
      -8184.078      -10454.65      -20620.79      -3201.893       6038.824
      -15720.74      -13206.80       26380.18       32315.25       807.2891
      -12136.14      -11543.31      -7464.189      -2132.533      -1822.594
       12581.38       20379.45       7381.646      -5182.188      -7749.727
      -6533.687      -7503.702       661.1408       9.865234       507.1309
       11967.11      -135.2266      -18093.14      -12798.81       14243.54
       29312.05      -305.3828      -32518.38      -19937.88       5922.391
       8632.371       2686.501       814.2754       6627.467       14430.21
       3767.605      -14754.69      -8761.295       9869.211       11890.63
      -3967.414      -20629.64      -14156.64       6774.406       20470.63
       19150.08      -1181.461      -25538.41      -23709.85       1885.814
       11916.92       4040.615      -705.2354      -876.1743      -2072.060
       1035.758       9853.258       5131.815      -6946.787       1096.908
       10738.98      -3753.484      -12358.44       4184.566       13466.36
       6254.722       471.5684      -1726.358      -2649.300      -4008.667
      -5581.654       697.6719       7583.020       713.0820      -5734.895
      -5740.907      -7357.357      -957.2910       7004.529       6180.265
       2002.209      -1745.579       299.2188       5763.042       4103.958
      -2106.269      -3219.621       2658.525       8068.120       1235.438
      -3972.684       1182.701       5306.523       9044.364       3959.793
      -6935.090      -7264.470       1874.807       7275.949       3966.223
      -6991.629      -16929.78      -13669.81      -1212.762       7111.877
       8086.906       9458.950       4989.967      -6399.067      -6649.322
       2502.207       5080.131       1588.382       1225.003      -805.2715
      -1842.320       10379.75       14598.13      -2444.812      -9312.305
       127.3750       3278.962       3772.927       1047.832      -11784.81
      -10421.07       2824.373      -147.5225      -5305.635       6516.941
       13293.65       3408.309      -4696.445      -6354.266      -9168.646
      -8730.365      -6424.239      -2038.818       6967.771       4472.439
      -7854.461      -7762.249       5381.781       12266.42       8616.963
       5526.630       6668.731       1843.717      -9830.301      -9857.604
      -4064.923      -1006.888      -18.07812      -6965.445      -9913.642
      -1808.984       7689.385       11814.19       4675.059      -3583.464
       927.9414       7185.682       7751.014       6486.170      -2435.184
      -13448.32      -7836.264       10850.26       17322.12       2632.473
      -14703.77      -14153.89      -7161.801      -5842.900      -769.9053
       2448.410       5705.361       9761.713       2211.180      -714.2966
       1335.369      -3710.301      -3064.996       1404.551      -3358.494
      -10210.66      -4159.805       4807.680       6892.150       6267.141
      -5599.531      -11529.32       4746.703       13921.20       6371.680
      -3229.430      -8381.813      -4503.516       1888.567       4114.295
      -1791.381      -7720.984      -2324.980       4352.599       3355.813
       1341.863       3176.772       1013.824      -7012.918      -8392.768
      -198.4883       6933.443       3512.633      -5947.314      -7039.678
      -1173.794       2211.669       5533.018       2669.391      -5334.381
      -9065.574      -10102.30      -946.7773       10100.33       2692.885
      -8347.657      -5368.711       3622.631       6789.801       6707.029
       8558.986       1575.279      -9101.351      -6429.880      -1382.815
      -1465.640      -1296.248      -989.0719      -652.8926       2726.768
       9833.533       9481.249      -3214.389      -8890.264      -1985.348
       2305.026       3378.511       1226.569      -5230.144      -26.52539
       10004.62       1421.607      -10201.09      -3871.817       4460.013
       5191.044       637.5273      -8777.143      -9852.995      -4121.723
      -200.4805       4607.023       7250.934       4353.145      -2858.642
      -2342.728       979.8164      -5287.517      -6041.768       484.4639
       550.4180       3197.445       13254.91       8306.780      -7584.145
      -7730.977       2039.030       2869.340      -5082.219      -6407.711
       2229.652       7177.379      -447.7432      -6616.189       188.5415
       2329.027      -4426.438      -2298.430       3321.295       1145.244
      -4939.597      -2493.498       6954.522       7570.570      -1501.834
