     0.02500000      -98906.69       146692.1      -12345.00      -12345.00
      -30.01001       234.3900      -33.31000      -12345.00      -12345.00
       0.000000       25.21000      -12345.00      -12345.00      -12345.00
      -12345.00      -12345.00      -12345.00      -12345.00      -12345.00
      -12345.00      -12345.00      -12345.00      -12345.00      -12345.00
      -12345.00      -12345.00      -12345.00      -12345.00      -12345.00
      -12345.00      -31.57700      -67.87020       833.0000       0.000000
      -31.23600      -65.83800       0.000000       167100.0       0.000000
      -12345.00      -12345.00      -12345.00      -12345.00      -12345.00
      -12345.00      -12345.00      -12345.00      -12345.00      -12345.00
       196.9171       258.4047       79.45855       1.770532      -12345.00
      -12345.00       2.819665       0.000000       90.00000      -12345.00
      -12345.00      -12345.00      -12345.00      -12345.00      -12345.00
      -12345.00      -12345.00      -12345.00      -12345.00      -12345.00
      2008       318        11        13         3
       710         6    -12345    -12345     10577
    -12345    -12345    -12345    -12345    -12345
         1         7        13    -12345    -12345
    -12345    -12345    -12345    -12345    -12345
    -12345    -12345    -12345    -12345    -12345
    -12345    -12345    -12345    -12345    -12345
         1         1         1         1         1
NIKI    -12345          
        -12345  -12345  
-12345  -12345  -12345  
-12345  -12345  -12345  
-12345  -12345  -12345  
-12345  -12345  -12345  
-12345  -12345  BHN     
ZL      -12345  -12345  
[...]
      -1229.038      -458.0566      -588.6006      -2641.280      -2082.132
       2563.528       617.3516      -7778.122      -6068.732       4793.219
       9190.461       8876.068       9520.395       5660.002      -4377.016
      -11254.35      -6456.060       1611.737      -1018.778      -672.9199
       6444.624       5388.193       927.4702      -529.4365      -2867.691
      -8900.613      -15556.29      -5674.559       10533.67       9960.844
       277.2290      -2445.229       4490.344       10415.95       6696.053
      -4999.430      -14074.70      -6073.909       728.6094      -2381.017
       1187.422       4816.021       3037.117       6453.639       10919.23
       3588.906      -9027.141      -9740.155      -2736.047      -51.84814
      -2667.813      -2206.609      -2201.229      -3462.486       2262.917
       6015.831       1546.593       1446.069       2769.948       2041.679
       2523.049      -3781.338      -7250.109       7631.783       15472.76
       987.1035      -7258.203       1408.174       7280.334       4999.223
      -222.3008      -1056.468      -1893.918      -8654.146      -7314.416
       7507.748       12755.07       3597.561      -3498.367      -8229.281
      -11089.68      -3260.627       5543.812       356.5254      -8869.311
      -5333.062       4008.764       4321.676      -9037.306      -11435.18
       7613.492       14843.36       6308.360       3373.155       850.9512
       4563.191       16118.75       6146.375      -17515.62      -12553.60
       7537.789       7697.698      -1034.427      -1478.484      -10754.03
      -24163.52      -11627.81       7934.065       2099.272      -7256.785
       1568.754       13767.10       9291.319      -2624.811      -1838.146
       7086.086       10639.76       7864.233       91.43164      -3805.386
       80.72852      -2672.613      -17906.00      -21327.25       818.3789
       21031.80       12121.74       265.3008       7113.190       3248.467
      -10200.15      -6959.609      -8463.812      -12932.46       7604.180
       22755.68       7528.873      -8679.986      -10224.02      -4506.545
       639.6172       8153.246       7637.510      -2645.719      -2820.194
      -1046.836      -7639.348      -8644.990       1587.244       11330.65
       6583.928      -2200.528      -207.1311       1231.949      -6419.867
      -6236.096       1804.408       3754.312       2479.505       1442.144
      -1923.272      -4276.617      -5312.463      -1592.446       3810.895
       1353.380       60.96094       5449.825       97.09961      -10401.78
      -8703.441      -677.4668       3741.957       3814.217       3030.705
       6272.838       4932.254      -2969.254      -10687.52      -13188.74
      -5354.352       2397.240       1765.061       1196.742       7382.660
       18924.50       15891.56      -1030.062      -7347.804       158.2266
       5706.039      -1773.020      -13153.38      -11486.04      -3272.231
      -556.4438      -374.4082       3388.592       4745.267       2258.880
       1971.783       3210.739      -2098.555      -12696.59      -16443.39
      -8678.064       828.9199       2659.970       2673.066       8571.584
       8073.296       2210.020       3997.906       4465.877      -6239.276
      -4050.465       17018.79       18692.34      -2303.098      -13274.56
      -12595.04      -14388.41      -14013.30       2383.912       11327.70
      -1518.874      -4410.763       5474.815       2197.860      -2962.180
       5335.393       8981.058       1729.262      -1564.395       1092.482
       4215.880       1438.053      -3410.045      -7460.024      -7157.994
       183.1641       2273.269      -668.7383       3683.738       10529.42
       10674.21       1802.625      -6562.325      -3382.074       2392.894
      -4103.908      -8231.115      -910.7034       1809.047      -4860.342
      -8199.440      -2329.589       4055.210       2533.149       1347.328
       3459.884       3430.764       617.3477      -2732.611      -1426.731
       1505.937      -1096.516      -1377.488       3561.449       7349.091
       2307.586      -6379.970      -6818.855       2992.814       8995.557
       2721.109      -5217.822      -5936.807      -460.9707       8334.008
       12975.39       10022.39       1099.086      -9476.430      -11980.83
      -6597.215      -1794.071       1926.474       1262.782       1787.078
       7735.178       8043.000      -2477.666      -9337.226      -3964.034
       3369.909       4333.172       553.0898      -4151.489      -2853.933
       2635.061       6003.863       6931.995       5216.602      -4924.023
      -9317.155      -2320.194      -3894.493      -7595.852       2974.934
       15126.18       11404.70      -3917.445      -11922.38      -7428.949
      -739.9678      -2634.106      -6325.887      -2985.328       3873.042
       5259.733      -867.4868      -2845.361       5074.295       6281.962
       391.7588       2285.414       7058.698       3475.904      -2788.866
      -2798.064      -372.2207       552.4106       2704.043      -1390.256
      -5399.365      -905.7275       2668.442       2299.445       2181.232
       826.2983      -1060.456      -122.1689       2609.457      -906.8164
      -6367.344      -4602.423      -151.9951       897.2124       1390.174
       4456.856       5524.575      -299.6699      -5399.764      -2492.140
       5777.725       4558.342      -6323.348      -11117.91      -7124.938
      -1419.111       4005.869       4590.383      -2177.727      -6749.121
      -3330.895      -827.2852       1581.244       5244.795       3167.115
       5061.762       13660.43       10046.29      -1087.150      -5858.615
      -3965.145      -4750.729      -5576.930      -639.3927       1198.407
      -706.4419       1307.307       4641.107       3310.216      -3227.149
      -3406.962       4063.428       4670.237      -533.3833      -751.5215
      -2907.010      -7456.061      -5034.670       1249.895       5022.617
       5102.927       1411.252       569.8643       2258.455       1059.030
      -2382.622      -3833.529      -2972.724      -168.5640      -421.7285
      -3258.195      -2587.303      -3119.203      -5879.470      -3551.782
       1272.787       5565.115       9723.711       10974.97       4264.824
      -2878.224      -4929.299      -5543.552      -3145.408       102.2588
       940.1826       3859.790       2301.479      -2352.926      -1208.061
      -1988.249      -5962.155       424.3340       8433.963       6072.596
       1647.680      -673.7998      -4171.761      -1278.041       3392.116
      -819.6021      -2509.232       3606.154       3347.896      -2910.828
      -5732.092      -3436.468       450.5552       1415.991      -2967.852
      -5664.948      -644.1406       6479.334       6789.716       2442.229
      -1705.154      -5376.154      -8883.175      -6331.079       2772.076
       7856.370       3394.214       466.2400       1362.281      -3235.511
      -4823.142       1386.635       555.4844      -1551.770       2777.703
       3831.026       1962.435       3618.588       3829.966       1707.702
      -999.2705      -4101.860      -5646.316      -2599.451       3174.342
       6730.486       6165.701       2563.537      -4066.789      -9099.461
      -7369.892      -1021.621       1282.493       1602.023       4586.479
       4634.853      -1643.303      -7032.723      -7749.987      -4766.530
      -460.0742       6048.047       12165.10       8996.308       334.6782
      -1415.597      -1735.289      -4917.474      -2562.332      -180.6809
      -2226.588       646.2822      -901.4277      -8973.994      -8170.512
       3143.625       12001.06       9369.271      -788.2949      -6275.593
      -4806.549      -438.4258       3760.307       3047.884      -2906.140
      -2022.812       3738.329       1766.387      -953.6244       770.0713
      -2470.465      -5376.074      -1789.842       1346.440       899.3408
       3163.195       4873.644      -1747.313      -7378.354      -154.2344
       7447.767       5818.273       3164.554       2184.098      -16.15134
      -202.6635       790.6328      -3125.082      -8904.401      -4606.133
       1323.298      -1475.143      -3863.998      -622.2611       560.8984
      -2485.141      -1418.627       4289.173       4193.717       2811.992
       7118.819       6110.689      -3583.610      -5647.768      -145.4590
      -2525.607      -6238.680       3079.064       8568.451       894.4805
      -4377.425      -557.3428       4883.867       3220.308      -2572.026
      -1619.510       5134.605       7750.973      -2573.352      -12190.28
      -5744.548       4312.160       7079.673       6087.030      -78.83398
      -7992.430      -8907.978      -2153.396       4372.896       3899.744
       955.2988       3326.797       2873.157      -991.4561      -1253.225
       254.7559       3980.499       5438.440      -2634.211      -6285.387
      -3369.304      -4611.271      -3372.023       5279.945       10841.78
       5673.174      -3591.699      -7354.889      -2554.942       2923.674
      -612.4619      -2370.466      -1123.519      -4026.380      -6095.322
      -4038.769       3518.580       9019.563       3689.628      -3172.085
      -5731.817      -1439.113       7931.604       7700.896      -2385.666
      -3636.285       960.5847      -806.5413      -810.2578       3347.738
       3557.501       4651.697       2005.759      -4734.488      -4445.276
      -3734.482      -3956.521       1242.481       2892.928       757.0261
      -48.36768      -900.6445      -1826.034      -2266.539       875.6230
       4618.268      -1171.404      -6850.658      -3883.060      -35.17773
       2280.340       3871.424       1832.173       812.2487       1008.820
      -2078.700      -4148.497      -4050.376      -3762.695       1442.560
       5606.542       2585.303      -287.5651       379.6689       1275.093
       3000.116       3973.995       1667.495      -3461.806      -5066.811
       320.5610       3035.628      -2355.209      -4345.910      -628.9261
       764.2778      -1632.673      -1605.816       1781.604       4191.841
       5465.243       3614.178      -2301.207      -3903.637       937.9968
       3457.154      -2956.990      -9987.791      -5281.929       4112.819
       3158.121      -2116.958      -1503.280       1186.511       94.21875
      -1321.046      -1813.796      -1235.428       1615.889       3461.039
       5075.574       8160.977       5710.217      -3355.490      -7080.362
      -1504.007      -1267.932      -7451.392      -4223.989       5116.593
       3764.260      -1507.978       248.4551       2523.640       1041.070
      -2671.210      -4115.645       1925.792       4749.296      -581.1621
      -274.3223       4769.005       295.2051      -7353.281      -5460.194
       971.6489       2149.014       670.7021      -1828.906      -6006.396
      -4867.823       1570.618       2894.868       1165.473       1433.254
      -249.9736      -2421.946       403.7686       4843.712       3677.312
      -4025.276      -5967.944       1444.986       5653.947       4499.981
       3933.411       3269.751       2300.707       431.4849      -1780.809
      -4155.830      -5373.710       261.9648       5204.540       52.73730
      -4826.875      -5036.349      -5137.649      -3490.072       662.8760
       4195.113       5221.283       5316.134       5021.265      -25.95312
      -6038.266      -7218.093      -4510.637      -352.8711       3342.490
       6754.266       8643.438       3919.425      -4459.546      -6536.510
      -2446.939      -1203.650      -1135.370       1845.865       5727.787
       6480.062       983.4590      -3167.656       1422.139       5799.076
       4740.210       1224.461      -4519.525      -6728.873      -927.1719
       5488.323       6074.009       2810.922      -956.1348      -4266.865
      -4738.483      -3677.026      -1162.434       3536.499       2638.965
      -3985.604      -3232.189       3325.846       5812.996       5835.009
       5542.859       160.1172      -12569.78      -24694.47      -29132.75
      -34141.72      -47498.03      -61814.17      -66842.73      -62496.53
      -52995.80      -35927.89      -5654.766       27565.28       52459.36
       74321.84       83395.00       69407.66       46124.22       25569.77
       17807.27       18982.09       4099.492      -22150.67      -13845.73
       37027.78       77032.09       57414.57       7276.604       2024.840
       11485.91      -37667.88      -87886.83      -68504.12      -20676.23
      -6990.047      -26558.16      -29034.87      -5152.359       13764.72
       40482.30       64547.70       22091.31      -65255.91      -87221.22
      -30421.84       13252.55       39586.94       111754.0       146692.1
       29901.12      -91260.70      -48078.25       28783.13       12218.10
      -9139.957       1291.578      -18008.55      -47286.06      -52599.47
      -50470.27      -38063.02      -2847.219       47481.73       81771.02
       65703.44       8260.949      -23552.95       16028.69       65504.20
       35537.44      -41476.66      -51364.19      -1206.445       3918.625
      -22705.82      -12110.43       5884.759      -600.9453       6492.250
       38015.77       49352.41       20457.86      -39411.16      -98906.69
      -88603.77      -11966.95       21329.59      -13439.62      -18513.16
       41083.86       79229.91       27409.83      -43639.12      -48880.40
      -11881.40       14664.33       6022.793      -14663.21      -5561.680
       17377.49       13504.88      -10123.01      -19531.05       3988.625
       37557.67       34392.69      -5101.594      -27231.83      -11534.79
      -2373.914      -14173.08      -20734.98      -14534.13       6331.688
       27489.02       22782.40       5340.241      -1347.064      -4605.371
      -11472.39      -10867.15      -3913.316      -11355.36      -27155.99
      -21736.16      -6286.521      -6220.646      -6677.297       12174.95
       44633.55       66671.53       54413.56       23717.15       9346.355
       8454.902       4565.561       3168.682       2326.430      -11024.66
      -21279.85      -10380.87      -3453.758      -27922.62      -66070.03
      -76379.90      -41715.16       12146.64       47008.48       54124.14
       43015.79       18133.55      -6112.610      -3200.330       8628.234
      -10945.20      -39267.06      -38569.80      -13780.16       15563.07
       33453.26       34884.33       26249.31       11377.17      -13027.97
      -33009.30      -29929.39      -6742.039       15324.84       16179.29
       6008.625       7972.328       21881.96       22797.50      -4246.055
      -37041.14      -48257.05      -37544.29      -19361.09      -6673.167
      -713.5625       10504.48       25171.49       27096.36       12089.67
      -3337.085      -3211.934       7830.258       20968.82       27827.91
       14065.70      -13548.65      -24508.42      -12424.67      -1818.652
      -1208.893      -2256.260      -308.3955      -931.7031      -10595.62
      -23379.11      -26663.46      -11532.09       17437.34       38722.68
       33439.44       10781.27      -4696.369      -9327.178      -8692.609
      -2173.395      -2197.920      -9518.218      -3443.840       12344.07
       20394.09       14467.18      -2234.539      -19842.45      -34151.39
      -38689.47      -24771.46      -397.8125       17309.75       16681.62
       8773.184       11260.53       16224.61       11603.78       4122.049
      -272.5837      -2451.762       3142.023       23223.03       40407.81
       30024.16       4331.836      -14944.67      -27754.00      -24996.53
      -2551.715       13588.06       7017.172      -5407.216      -4023.613
       7651.493       8550.340      -6448.186      -12391.65       2720.297
       17921.68       15242.58       4339.971       2438.713       1861.022
      -2103.221      -2497.137      -7567.664      -18111.18      -23414.67
      -23968.91      -21388.20      -10292.79       5090.000       8149.266
      -3997.002      -10877.70       2147.438       14789.17       7433.809
      -7905.562      -11734.53      -1958.907       1679.242      -6247.828
      -9562.105      -6429.766      -6017.849      -6539.560       79.09766
       8247.973       16173.64       24994.24       19089.67       2964.562
       864.4541       7720.583       865.0430      -11520.14      -10149.45
      -4537.965      -5775.332      -12855.98      -17809.88      -10074.07
       1750.674       1430.797       695.0293       7322.545       2829.820
      -713.9453       12119.45       12707.07      -1558.773       3371.406
       22413.70       25979.27       17921.42       20008.47       32176.08
       29319.52       7664.086      -3139.186       2885.479       2339.125
      -5249.814      -7159.439      -7169.144      -5917.590      -1980.062
      -5832.211      -19272.47      -27570.84      -21382.07      -8738.129
       5063.379       16924.41       16359.81       11216.00       6497.477
      -9781.078      -25883.05      -24774.79      -17578.34      -21684.05
      -29525.07      -19904.86       2674.684       12960.43       7552.887
       1800.625       7148.285       18155.10       21058.84       17351.40
       19800.40       27157.98       19051.47      -1070.555      -12141.59
      -14493.80      -12049.81      -6597.154      -8394.031      -13054.27
      -5996.586      -6484.945      -25756.34      -34176.48      -22632.80
      -7722.037       1389.020       8236.270       16101.02       16887.19
       12035.38       11706.48       13758.50       8284.654      -4504.588
      -9076.803      -3224.234      -3021.465      -3638.090       3489.994
       5268.287       975.7949       1461.566       6148.559       12532.72
       12952.71       737.7812      -10800.25      -6388.568       7977.523
       13972.01       6560.168      -2126.651      -1270.176       7249.350
       7906.266      -4067.934      -12885.70      -12221.94      -8471.535
      -1198.395       7851.406       8316.113      -97.51172      -7160.274
      -6783.125       1416.352       11121.26       11290.56      -285.2734
      -12024.31      -15713.30      -10928.08      -373.1738       7565.473
