     0.02500000      -90706.70       73793.71      -12345.00      -12345.00
      -30.01001       234.3900      -33.31000      -12345.00      -12345.00
       0.000000       25.21000      -12345.00      -12345.00      -12345.00
      -12345.00      -12345.00      -12345.00      -12345.00      -12345.00
      -12345.00      -12345.00      -12345.00      -12345.00      -12345.00
      -12345.00      -12345.00      -12345.00      -12345.00      -12345.00
      -12345.00      -31.57700      -67.87020       833.0000       0.000000
      -31.23600      -65.83800       0.000000       167100.0       0.000000
      -12345.00      -12345.00      -12345.00      -12345.00      -12345.00
      -12345.00      -12345.00      -12345.00      -12345.00      -12345.00
       196.9171       258.4047       79.45855       1.770532      -12345.00
      -12345.00      0.7179075       90.00000       90.00000      -12345.00
      -12345.00      -12345.00      -12345.00      -12345.00      -12345.00
      -12345.00      -12345.00      -12345.00      -12345.00      -12345.00
      2008       318        11        13         3
       710         6    -12345    -12345     10577
    -12345    -12345    -12345    -12345    -12345
         1         7        13    -12345    -12345
    -12345    -12345    -12345    -12345    -12345
    -12345    -12345    -12345    -12345    -12345
    -12345    -12345    -12345    -12345    -12345
         1         1         1         1         1
NIKI    -12345          
        -12345  -12345  
-12345  -12345  -12345  
-12345  -12345  -12345  
-12345  -12345  -12345  
-12345  -12345  -12345  
-12345  -12345  BHE     
ZL      -12345  -12345  
[...]
       15551.04       10397.09      -3128.639      -11415.70      -9386.438
      -8924.828      -8623.183      -2479.175       3826.799       5987.391
       7461.988       12037.73       14446.27       13062.46       9131.395
      -1115.318      -8176.084      -3848.257       2359.902       2428.504
      -5684.625      -14073.51      -10805.03      -2731.889       1516.148
       9232.992       17436.73       14057.33       986.4102      -10866.40
      -9908.542      -3432.779       1369.652       8060.407       4959.079
      -3931.247       956.5000       9370.137       4002.805      -6759.961
      -10285.43      -5301.515       707.6333      -165.6172      -5221.863
      -10057.86      -10413.42       519.3711       15167.07       11983.92
      -4516.902      -6032.389       3680.381       7749.793       8454.154
       4440.208      -3087.805      -7214.355      -11680.45      -12648.69
       2417.488       14130.38       4988.851      -2197.059       3702.895
       6547.887      -1995.852      -11129.47      -9506.974      -1389.680
       4556.301       3556.562      -2945.757      -4086.122      -1134.523
      -5127.979      -5090.312       2809.200       3540.690       225.8857
      -774.6865      -2416.329      -3886.225      -3700.230       992.4062
       8244.057       6404.207      -5255.080      -8802.174       1790.023
       10392.31       13220.15       13197.34       4136.180      -6242.457
      -9620.672      -12046.43      -12978.48      -5592.953       3548.967
       4072.359      -2733.861      -3865.186       6284.424       10066.24
       6165.574       9054.015       4972.371      -11092.59      -13577.53
      -6198.201      -8164.211      -3935.971       7171.145       459.8359
      -13004.11      -5805.430       11631.09       15737.86       11930.60
       6637.881      -6372.758      -21097.74      -25031.45      -10429.94
       9275.430       13246.70       9123.084       8764.387       3611.022
      -6264.361      -5415.845       2867.281       5336.309       5972.971
       8871.396       6143.283      -6118.668      -12590.81      -5238.331
      -673.6162       2224.697       8564.122       5497.882       3037.206
       5911.974      -388.6992      -7610.166      -8972.934      -13375.78
      -15327.88      -5117.641       9276.324       14945.00       10493.13
       1335.793      -6634.074      -5637.568      -2116.659      -2449.855
       4628.668       14479.69       12127.46      -3593.676      -16728.51
      -14126.01      -8160.596      -4025.059       5023.354       9690.943
       6354.320       359.2734      -8257.949      -9995.992       1839.414
       12624.72       10511.55       4813.194      -1068.348      -11414.01
      -10115.04       3297.972       4594.758      -4242.811      -7358.966
      -297.1777       8851.673       6480.148       1240.272       1033.238
      -788.6729      -988.1660      -3875.449      -7875.592      -1191.657
       4518.594       497.3936      -4711.406      -1992.404       6586.933
       6493.166       487.4082      -2465.232      -8642.863      -14650.84
      -9459.029       2149.903       6122.631       3258.227       5017.488
       10259.67       9937.312       6306.292       4320.788      -2488.299
      -9436.413      -6648.454      -1093.099       1041.633       800.0498
       3064.931       5976.695       2538.067      -1477.146      -4028.402
      -7016.243      -5772.722      -4836.527      -5677.250       346.7188
       11652.28       15847.73       9738.034       1053.479      -3822.211
      -7513.503      -8159.281      0.6987305       1038.233      -3828.040
       1032.476       3074.472      -1345.206      -864.7109       3520.627
       3507.642       1087.453       4684.018       8891.766       6865.457
       3248.282       3792.463       1978.748      -8863.770      -14827.73
      -7365.978      -1005.627      -4422.264      -8620.469      -4138.225
       8129.002       12668.23       2263.596      -5238.005       385.2246
       9427.695       10950.79       5122.975      -1288.912      -7701.766
      -10381.57      -8180.949      -4535.372       3208.808       6690.865
      -2604.756      -9850.612      -2644.076       9018.537       11174.97
       5274.308       1195.168      -2107.871      -4333.883       1656.508
       7203.722       899.3569      -1416.506       6721.979       6101.471
      -3583.480      -10708.61      -8669.927       550.5754       1644.273
      -3676.753       955.3457       7703.098       3931.100      -3629.570
      -6505.523      -3705.002      -1672.119      -716.6797       6251.371
       10503.60       2471.717      -5264.333      -1324.678       7038.074
       6303.811      -5883.062      -11356.31      -3156.378       794.8190
      -365.4631       1114.643      -4102.180      -11735.43      -6928.793
       646.3809       3534.998       8110.717       5307.568      -2842.973
      -1740.062       2531.391       2010.867       1345.285       2658.568
       4624.590       10063.18       12229.09       6795.856       4461.979
       1050.504      -10139.85      -18328.44      -14909.00      -2163.027
       6422.129       3756.498      -982.7812      -4554.711      -7817.717
      -5992.042       4681.479       12686.46       3789.901      -4938.809
      -1461.194       349.9565       1180.847       2957.393       1907.407
       917.6279      -1340.164      -5045.566      -6388.488      -2459.357
       2404.387       1261.849      -1801.794      -3373.706      -2789.783
      -829.8105      -2071.062      -562.4766       5545.666       6866.615
       2286.989      -3030.315      -2461.781       2372.745       2737.458
       2221.162       2318.391      -3835.204      -6626.925      -1588.464
      -497.7068      -1497.976       1301.042       2056.256      -1952.977
      -6209.172      -5831.174       1652.688       9221.584       7658.374
       1462.088      -2226.248      -7949.133      -12897.42      -5779.104
       7607.258       12719.80       5089.901      -5780.024      -5929.877
       2112.537       6519.318       7231.228       2488.350      -7782.057
      -8283.505      -1436.979      -1929.748      -869.1758       5147.176
       3607.192      -1566.996      -1998.895      -1984.517      -2360.946
       1103.434       3897.980       1937.172       811.7524       869.8057
      -3620.164      -8262.862      -3218.275       3893.092       3485.562
       539.0691      -181.3125       2399.109       5005.448       3711.449
       170.0312      -482.5488       3471.555       3999.327      -315.3189
       196.4453       382.1426      -5221.309      -6588.439      -6099.488
      -5186.697       4021.656       7593.335       1974.744       3309.836
       6097.398       4913.256       4737.462       2329.436      -3206.576
      -8309.822      -9526.833      -5449.015      -875.1465       3588.478
       5836.548       1541.091      -2056.786       839.4902       5523.145
       4758.189       577.6680      -294.0332      -4726.361      -11823.55
      -8058.600       4022.605       11721.01       8445.575       179.1812
      -2429.693      -583.5067       20.06378       455.9951       103.4600
      -4522.276      -4949.827       1779.951       5491.256       7092.391
       9735.445       9483.197       5105.013      -1021.842      -5230.725
      -6088.803      -6636.812      -7461.212      -4540.238       506.2266
       4497.542       6422.944       2079.974      -4932.389      -4795.777
      -1576.657      -3320.916      -4522.129      -1724.243       517.5522
       1870.672       3721.268       4705.005       3095.916       1584.640
       2184.297       1128.454      -2153.784      -318.4629       6066.993
       4453.258      -6100.717      -10917.61      -6918.673      -400.0566
       5352.585       3543.754      -2275.344      -977.3809       4373.565
       3910.063      -357.8203       40.23047       2549.105       2348.488
       3208.416       7642.151       7271.836      -3470.254      -10645.77
      -5099.170       315.6250      -3266.074      -7174.410      -3552.992
       1082.444       2152.509      -130.9453      -4679.870      -3278.382
       2052.479       5058.094       5593.847      -630.9277      -7311.802
      -3221.449       5393.974       5918.844       1938.459       2141.711
       1351.551      -5403.818      -9104.266      -3220.303       3835.989
       2582.850      -4097.556      -4562.340       3248.668       9388.482
       10477.20       6079.063      -3352.139      -8899.596      -9525.236
      -11253.29      -7980.004       852.5020       6065.145       7970.482
       6768.520       1337.850      -1828.749       1493.090       6157.432
       5757.381      -96.58984      -8638.777      -11381.93      -4646.271
       1823.495       4253.265       5340.189       3103.929      -1318.135
      -177.1621       7721.406       9372.904      -804.5469      -10830.84
      -12413.69      -8334.191      -3834.732      -1487.450       2277.537
       6909.750       8708.701       7636.451       1349.123      -4385.591
      -2962.917      -894.6670      -1516.253      -2263.256      -5463.619
      -8045.277      -4822.561       25.28247       1559.156       217.3662
       2163.181       4477.794       1814.164      -1182.830      -1879.249
      -26.37891      -209.6045      -2679.212      -2780.438      -239.2227
       8622.227       15020.40       8867.856      -913.2031      -10388.41
      -16224.54      -10950.82      -2984.745       756.8545       2972.035
       2550.355       2748.973       7055.809       9405.836       4549.253
      -2122.115      -4557.952      -4471.012      -2766.686       1147.465
       5111.797       5157.422       551.8291      -4757.077      -6002.033
      -2592.527       3746.215       11198.78       11151.20       673.9980
      -6982.386      -3404.133       2511.564       2953.368      -634.2480
      -4820.076      -4635.877      -1478.357      -847.5850       824.6885
       4555.657       3641.823      -1156.732      -3728.258      -2967.980
      -742.6055       4653.867       10376.66       7838.842      -1626.279
      -7627.099      -5057.375       1455.931       4750.329       1080.673
      -5101.719      -5468.883      -500.3545       1759.293       852.3989
      -800.3838      -2689.888      -341.6270       2865.668       2502.594
       369.5527      -1791.470       673.1758       5835.080       4178.479
      -2385.766      -5151.564      -4802.723      -3184.037       845.3169
       2437.853      -427.4385      -2182.319      -41.28516       3439.004
       3182.575       537.2039      -127.9580       1762.029       5493.275
       5206.956      -2269.123      -7469.978      -2986.621       2335.263
       3178.518       4838.078       3453.581      -3589.184      -8167.637
      -4403.609       2696.863       5681.948       4925.838       1401.418
      -2922.359      -5831.657      -4108.473       2849.785       6173.154
       4307.958       1870.531       317.9871       416.9929       307.0718
       259.0400       2121.415       2177.233      -706.5156      -2913.965
      -4117.932      -5943.730      -7816.014      -8693.658      -7729.107
      -1768.990       5229.227       6801.475       5453.057       3732.846
       4077.058       5145.880       837.6172      -6208.250      -8196.513
      -3511.356       2265.538       2850.237      -1477.815      -4767.875
       173.5742       8318.894       4930.608      -5130.365      -8543.746
      -6996.507      -4121.946      -479.4189       2389.512       1901.341
       809.7378       2961.699       2182.592      -1431.623      -1083.873
       345.6953      -1141.682      -2381.093      -70.47168       1931.987
       568.6562       1604.675       4871.765       1736.565      -4031.484
      -2980.607      -598.0806      -2983.029      -1386.516       2446.820
       1258.442       1116.530       2981.312       1648.199      -5033.924
      -11308.66      -8670.960      -954.4531       4292.557       7116.162
       8415.110       6120.028      -650.1562      -8453.662      -10666.48
      -7019.737      -1503.742       5471.105       8611.949       6001.445
       4618.422       5103.461       8937.645       14059.39       9122.244
      -3725.195      -12511.47      -13864.46      -9545.395      -2939.438
       175.0103      -1830.870      -2830.979      -1783.959      -4489.129
      -10093.33      -10706.33      -6783.483      -794.6211       12576.81
       25885.75       32842.69       42135.47       49715.28       40749.69
       2437.953      -52717.98      -76573.14      -49410.07      -11904.99
      -4085.492      -18025.11      -9691.531       34181.94       64286.64
       67647.70       62318.63       12331.86      -67260.50      -90706.70
      -49371.69      -17048.77      -33692.65      -46749.07      -7557.949
       23034.18      -3895.352      -30132.03      -23401.20      -13762.84
       7501.062       42398.43       32464.17      -34871.70      -78895.27
      -29038.16       57335.98       73793.71       35824.92       7040.156
      -5502.371       1347.359       21362.91       25106.93       9772.094
      -21416.22      -50186.41      -21879.91       44527.58       64744.42
       22609.37      -20337.95      -17142.14       280.6421      -1834.242
      -612.6145       1273.155      -6532.340       10583.95       32752.65
      -2043.844      -57270.64      -50574.02       4155.797       33455.77
       15656.83      -20274.14      -50537.80      -49159.87      -2942.594
       45099.28       55188.91       45491.34       40670.41       40457.94
       31660.02       11695.05      -2306.848      -14756.11      -28407.55
      -30803.26      -34844.23      -36787.79      -13172.41       20881.54
       34629.86       30188.59       24302.46       5095.359      -42706.20
      -74286.96      -46854.59       7106.062       48532.08       63453.66
       45353.73       9465.916      -13123.09      -1673.594       14569.37
      -8399.523      -41176.26      -25557.88       22552.20       44977.16
       35684.38       24873.85       17026.60       6719.076      -4268.727
      -23495.97      -53951.03      -75886.42      -69379.77      -43247.38
      -9283.398       31278.22       59634.66       62095.15       48387.42
       32089.22       14183.76      -13553.91      -45736.19      -65054.11
      -59789.96      -30714.65       6477.742       31775.15       29048.36
      -863.5859      -20808.66       3504.203       44247.10       44656.40
       3903.172      -25495.50      -20592.54      -15750.83      -26805.12
      -21690.28       4016.727       22266.50       26457.09       26620.91
       26268.54       22448.84       10184.44      -9916.629      -23149.89
      -19144.95      -5524.548       897.9375      -9813.859      -22136.77
      -16478.07      -2859.674       294.1958       140.6797       4446.975
       6237.090       10994.60       19479.87       13490.67      -2125.205
      -6951.234      -4894.332      -11287.75      -29838.22      -35473.36
      -771.2031       46468.98       61264.52       41386.20       4847.750
      -28632.48      -37031.45      -18765.90       1047.221       2192.614
      -3708.605      -290.2139       973.0020      -588.4863       8014.801
       5645.328      -21276.42      -41905.44      -36452.34      -16381.50
       3485.191       16401.20       24968.38       30555.31       33213.19
       37592.55       32499.71       2283.375      -30510.55      -37204.92
      -29204.01      -20946.70      -13611.11      -8373.016       1378.621
       13596.19       18008.46       19109.00       20582.58       19358.73
       15355.56       9376.730       6912.723       6858.438      -1966.883
      -16573.54      -18171.08      -6109.891      -1686.328      -7451.638
      -6206.653      -2083.354      -4996.412      -2312.273       142.9688
      -11746.57      -16889.01      -2941.328       10931.92       13192.21
       5498.785      -5919.395      -7113.841       1599.112       1944.984
      -6201.742      -5640.318      -2282.084      -5757.450      -1613.812
       5931.623       5407.359       9544.344       19341.44       20680.48
       12961.33      -1213.777      -18162.31      -25629.67      -20394.15
      -11976.30      -3643.586       5179.258       13563.33       25791.31
       37926.98       37086.45       22306.69       11476.26       8853.824
      -4163.438      -24748.18      -32681.54      -23095.09      -7957.963
      -3863.766      -13109.76      -19270.82      -13667.78      -3870.970
       1204.117      -2077.797      -4100.714      -774.2988      -3162.270
      -7713.273      -4449.666       6468.602       18134.97       17428.64
       2903.291      -10854.35      -13591.11      -1079.945       20918.66
       27363.78       13424.13       5627.709       4651.113      -9147.266
      -26616.41      -27115.85      -11018.74       3999.820      -1533.422
      -19682.09      -25899.66      -13558.75       10893.59       30577.00
       26689.92       8487.577      -2060.154      -2055.885       3294.656
       10901.01       14370.38       4472.293      -13575.24      -21369.70
      -22716.77      -23826.97      -11960.15       264.7588      -3349.635
       2523.844       22542.46       26076.18       11535.78      -895.1191
      -6114.516      -9631.746      -9161.713       821.3984       13592.24
       21070.47       23435.29       20110.43       5291.758      -17463.67
      -30953.13      -24588.93      -6325.839       3304.384      -1045.479
      -4018.673      -420.7168       1953.145       3143.805       9719.602
       17218.11       20617.54       18374.15       8221.494      -6217.590
      -18622.96      -19197.50      -13505.44      -12539.31      -6172.184
       1971.680      -3256.594      -14357.36      -9800.242       13486.37
       23624.09       6332.500      -8668.154      -7074.809      -3022.469
      -6686.992      -15947.89      -17437.67      -5518.061       7264.059
       16643.05       29148.38       42438.59       44806.02       30608.82
       10214.67      -2667.772      -1284.291       8016.031       2735.922
      -19819.42      -34143.16      -30627.91      -21512.41      -14240.05
