     0.02500000      -101566.2       97576.03      -12345.00      -12345.00
      -30.00502       225.0950      -24.83000      -12345.00      -12345.00
       0.000000       18.28000      -12345.00      -12345.00      -12345.00
      -12345.00      -12345.00      -12345.00      -12345.00      -12345.00
      -12345.00      -12345.00      -12345.00      -12345.00      -12345.00
      -12345.00      -12345.00      -12345.00      -12345.00      -12345.00
      -12345.00      -31.19940      -66.74700       697.0000       0.000000
      -31.23600      -65.83800       0.000000       167100.0       0.000000
      -12345.00      -12345.00      -12345.00      -12345.00      -12345.00
      -12345.00      -12345.00      -12345.00      -12345.00      -12345.00
       86.71101       272.4479       92.91670      0.7796333      -12345.00
      -12345.00     0.07286225       0.000000       90.00000      -12345.00
      -12345.00      -12345.00      -12345.00      -12345.00      -12345.00
      -12345.00      -12345.00      -12345.00      -12345.00      -12345.00
      2008       318        11        12        55
       230         6    -12345    -12345     10205
    -12345    -12345    -12345    -12345    -12345
         1         7        13    -12345    -12345
    -12345    -12345    -12345    -12345    -12345
    -12345    -12345    -12345    -12345    -12345
    -12345    -12345    -12345    -12345    -12345
         1         1         1         1         1
NOQE    -12345          
        -12345  -12345  
-12345  -12345  -12345  
-12345  -12345  -12345  
-12345  -12345  -12345  
-12345  -12345  -12345  
-12345  -12345  BHN     
ZL      -12345  -12345  
[...]
      -246.3389      -268.1738      -232.7109      -258.0908      -224.7828
      -245.6685      -208.7584      -226.3046      -191.3472      -207.2974
      -164.8617      -185.7829      -149.7798      -165.2545      -122.2363
      -139.8904      -103.4189      -118.1387      -80.86115      -98.23050
      -54.70918      -71.71371      -33.57884      -46.14487      -4.804573
      -23.74671       16.48979      0.8897934       36.45604       16.68033
       53.44516       36.29306       70.64003       51.72110       90.18068
       67.43115       105.6031       81.51837       115.5564       94.96939
       124.9980       98.85559       135.7953       106.0871       134.3604
       104.7938       136.0883       108.3849       136.8626       106.7896
       141.5535       111.9811       137.2812       106.5012       133.3982
       100.9286       128.1469       90.46417       115.9685       82.67862
       102.0496       64.64691       116.4844       193.9326       564.1426
       1142.264       1147.593      -663.9580      -2829.590      -2422.368
       1164.229       3457.636       1576.355      -111.2656       1044.599
       100.0701      -2024.423       359.4496       1472.073      -1182.617
      -458.4995       908.3486       1998.279       1984.598       525.3389
      -1480.100      -4681.510      -73.49951       2644.210      -1762.390
       1112.078       3994.989       485.8672      -6879.110      -3993.466
       5166.135       467.4131      -687.7363       5952.294       3472.844
      -2079.677      -1453.267       1293.465      -2058.045      -2662.038
      -145.6621      -2166.490       1077.816       6146.085       2862.553
      -4481.222      -7758.455       39.12793       6723.543       2710.688
      -854.5815      -1804.021      -3301.985       144.8975       5538.029
       1013.878      -5086.063      -1125.054       1106.388      -2784.350
      -1391.979       4562.444       1242.126      -4693.751       984.1729
       5970.190       862.5825       1465.647       2006.578      -6898.323
      -7425.163       1098.271       3920.655       2124.003       1642.199
       181.7797      -49.68701      -63.79004      -5832.469      -1706.746
       8448.982       1995.954      -289.0273       8274.885       428.2930
      -7348.353       1626.566       3487.361      -6136.030      -4829.664
       1110.735       2244.568       3236.289       49.63257      -1302.157
      -1515.746      -2750.489       1979.534       3360.217       555.3159
       1639.527       518.0537      -4099.314      -2276.999       3035.937
       3243.790       3976.468       3255.042      -3741.277      -4771.073
       594.5938      -2730.813      -4585.979       3173.329       2768.723
      -2613.097      -1552.789      -251.6956      -2444.086       2883.411
       6991.308       1506.873      -2021.160      -4854.917      -1999.246
       6476.448       4719.810       337.3101      -814.4580      -2395.871
      -2978.692      -3149.092      -1494.645       96.19128       427.3931
       596.4424       3640.812       4634.473      -3597.363      -6987.586
      -2130.905      -725.6426       179.5430       5790.178       4841.977
      -754.9479      -3.160889      -483.1641      -1513.740       1118.997
       715.9419      -1095.886      -1055.082      -3867.214      -5056.751
       718.1768       3354.836       1560.038       1385.621       1539.186
      -412.2954      -2768.431      -1216.288       1484.692       281.7466
       1266.014       2081.348      -338.2454      -907.0986      -931.8789
       621.8679       2517.295      -2328.973      -6480.508      -1173.662
       4409.884       3648.309      -459.5410      -2163.000       2569.321
       2060.869      -4302.475      -2914.290       800.9729       252.7954
       1144.089       2516.058       1130.642      -1147.861      -2416.020
      -1093.455       2833.084       3118.091      -102.4268      -3631.957
      -4177.163       3153.489       6794.381      -1133.995      -3442.924
       560.5295       316.7081       217.9756       1169.166       86.44824
      -3607.796      -4000.016       851.1523       1790.281       1146.447
       336.6665      -1225.325       1028.870       1856.697      -727.6519
      -1635.454      -3617.859      -3582.837       1086.015       1453.304
       581.0146       3063.218       2049.636      -577.8896      -2421.003
      -1805.848       247.8875      -112.6860      -551.6699       1230.325
       3880.925       337.3467      -4374.705      -2272.567       885.9508
       1306.665      -1653.653      -2611.015       825.6367       2006.588
      -1102.401      -3198.645      -963.8984       3867.942       2952.233
      -110.9297       2111.472       643.7666      -3453.366      -2714.476
      -800.8345       2276.547       1799.734      -4374.891      -4186.809
       1462.647       1267.684      -826.0822      -226.9502       458.9199
       3746.297       5730.605      -191.1250      -4442.643      -2364.098
      -807.6235      -672.0703       2421.125       4666.355       698.3555
      -6028.740      -7852.273      -3685.792       502.1738       3442.357
       3842.765      -483.5078      -2691.142      -995.4792       183.3145
       2050.518       4627.620       1776.618      -4060.523      -3754.129
      -551.8721       1188.245       3466.373       5375.714       3834.884
      -782.0020      -4383.398      -4529.079      -1144.760      -186.1631
      -2576.845      -3115.584       94.86792       219.2061      -2205.305
       544.7227       5757.057       7567.974       4079.975       2673.625
       2352.637      -2224.418      -4713.094      -3807.692      -3323.558
      -3833.801       536.1406       7959.349       5878.494      -1241.197
       933.9138       1222.234      -6804.017      -6664.554       429.3818
       2345.336       1314.301      -509.5542      -8.823242       4736.238
       6519.942       2196.006      -1796.119      -1599.960      -1539.469
      -3775.025      -3735.906       3196.086       7936.747       789.9961
      -5588.429      -2598.403       2247.072       1803.921      -852.4558
      -747.3259       553.7988       469.4280      -1136.689      -936.0098
       2159.420       4512.859       1411.697      -3534.598      -2388.648
       3091.901       2252.094      -2257.315      -2626.276      -2674.302
      -902.1230       1002.506       3150.244       3127.947      -257.5635
       602.7305       1356.715      -2593.767      -3121.270       1763.570
      -211.1401      -2494.968       4561.982       2752.730      -3711.088
       72.07910       2086.063      -1353.377      -505.4233      -627.5996
      -5252.180      -5254.582       553.0674       5890.991       577.2812
      -5611.562       2251.459       7585.731       2102.298      -1677.363
      -1851.069      -1601.296       1612.198       373.8574      -5926.592
      -7261.184      -2047.025       6853.823       5689.704      -4250.781
      -3062.541       3543.339       3073.782       1783.494       3924.555
       814.0938      -6549.869      -10602.61      -4524.996       4667.016
       6109.106       4201.036      -43.42969       1099.389       4162.458
       1740.753      -2759.698      -5909.298      -926.9492       5446.379
       7270.572       5836.316      -807.4707      -5793.114      -5692.759
      -1630.612       4285.621       2540.703       478.9590      -1577.597
      -3973.212       697.0518       588.9946       44.90625       2919.392
       2770.922      -592.6953      -5108.641      -2796.867       5066.551
       6299.230      -564.0156      -1395.447       1686.869       29.81982
       334.5488       4700.581       4078.021      -2333.171      -4951.723
      -3596.621      -3362.798      -3770.872      -2498.156       6059.277
       9244.482       150.7432       1668.771       5093.318      -3089.244
      -6036.968      -5410.607      -2913.006       3800.123       3185.130
      -1366.762       1140.011       1704.742      -3835.443      -2885.070
       1778.072       1094.881       1940.381       7048.098       4812.093
      -3243.328      -218.6543       8155.233       2600.209      -4234.553
      -4781.652      -7151.062      -3646.977       1423.700       44.78394
      -1288.495      -874.6655       505.4941       5191.411       4216.972
      -1781.814      -2151.742      -2467.495      -5743.149      -208.4922
       6332.221       2022.967       428.7861       872.3813      -753.1855
      -1191.711      -810.6689       1311.087       3958.486       794.3491
      -3336.154      -1022.266      -2690.582      -1982.776       2217.603
       473.6895       1452.428       4376.521       387.4683      -2277.629
       280.7861       304.4722       1880.309       2799.681      -2016.765
      -3703.486      -24.79785       1533.826       2507.419       5036.704
      -402.3145      -7458.873      -3516.483      -1157.026      -1681.400
       1214.747       3253.851       4055.315       3091.705       2090.602
      -4148.186      -11309.65      -5869.723       4968.205       9765.508
       3959.047      -4335.053      -2583.944       2420.583       385.5527
      -3575.432      -4491.660      -3961.310       731.9495       3342.899
      -3205.492      -4812.440       986.0088       3896.090       5852.006
       2657.359      -5116.242      -5839.584       26.55469       2067.768
      -609.3899       38.97186       43.80139      -888.5705       188.1936
       39.55176       1186.096       5556.174       8907.219       4929.916
      -3072.159      -6792.888      -2595.042       3210.330      -3566.424
      -10879.83      -2269.438       7574.625       5263.119      -1800.974
      -4151.432      -3820.750      -2919.033       115.4570       3300.139
       3248.428       651.8047      -1413.902      -4384.634      -3296.572
       2743.825       1154.422      -4528.938      -4158.353       320.9575
       4353.165      -724.0254      -9627.938      -5692.465       6801.215
       9674.133       4362.779       3354.836      -43.52246      -5197.439
       914.8999       4567.008      -1075.130      -5575.619      -4865.337
      -388.5679       290.0966      -779.3337       668.7505       2206.646
       2703.996       1399.077      -775.5762      -2436.332       207.5752
       3825.780       2399.413      -2471.631      -7593.008      -2364.336
       7724.749       6104.640       1417.336      -3327.344      -7446.607
      -1236.602       6623.457       7367.301       866.8535      -9802.682
      -11400.02      -5401.124      -2255.894       826.5552       2391.704
       611.3535       3113.683       3880.161      -1851.719      -5765.908
      -1798.946       3069.469       1331.400       4248.037       9017.957
       4581.099       2400.754       6467.652       6080.342      -1653.036
      -5825.085      -3129.709      -1900.212      -2534.481      -63.81787
       3039.245       2057.458       1878.628       3045.362      -688.1572
      -4470.554      -1010.667       2809.211       833.6816       2242.500
       7437.391       6242.367       1339.726       729.6660      -694.8691
      -4594.049      -2004.373       3667.680       1174.143      -3040.258
      -2063.542      -1639.620      -4577.511      -3798.293      -103.9570
      -2392.005      -6596.638      -1239.551       9482.879       10863.40
       3045.683      -2292.366      -514.2100       4869.006       4221.396
      -996.8237      -2334.264       1482.396       10526.44       9375.797
      -4656.031      -7447.384      -652.9126       1240.958      -212.2625
      -23.13965       2536.160       5976.918       9364.453       12216.84
       7570.987      -2222.932      -6303.636      -5551.777      -3838.881
      -2495.758      -4759.698      -5426.461      -1617.672      -1295.320
      -5907.141      -6405.429      -1661.896       4418.949       8567.596
       6459.608       102.2734      -4562.354      -3761.434      -1893.888
      -1012.451       2325.076       3935.212       2908.185       1640.787
       618.4248      -1543.049      -5705.273      -16359.45      -33809.36
      -53037.12      -69914.09      -80480.28      -84815.56      -82631.92
      -74058.56      -63290.03      -51691.87      -37238.83      -19002.30
      -2810.078       10807.62       30199.69       56377.97       75848.20
       80245.34       75043.75       64904.39       46912.54       20965.41
      -10745.38      -45465.17      -66406.34      -54933.66      -23044.83
       11848.38       46994.19       72765.92       81909.09       80694.61
       68874.80       46493.48       29161.19       28270.20       34999.83
       39020.89       39719.35       40857.98       43463.73       40824.99
       12171.53      -47468.06      -100187.5      -101566.2      -52621.80
       1274.133       22228.48       12633.10      -5990.414      -19806.55
      -33670.75      -48920.20      -51942.81      -32422.76       9578.859
       61947.47       97576.03       91546.55       41039.44      -28509.67
      -80757.39      -92919.04      -58874.52       2027.312       38337.36
       22427.91      -11520.24      -29113.55      -29358.31      -10098.41
       28014.05       65353.73       67010.47       26180.59      -22522.38
      -41553.49      -21248.54       16937.81       52490.00       75641.72
       77797.96       55514.57       3585.156      -56470.06      -85699.45
      -78119.22      -52902.30      -22887.50       5469.094       23237.59
       32091.88       34220.32       16257.32      -8574.570      -13903.31
      -10599.33      -18772.12      -29808.27      -36342.96      -39571.18
      -26498.24       2610.047       22913.37       28265.29       25931.28
       14268.30       2139.777      -5049.074      -13861.17      -11987.05
       2940.164       11979.12       8927.774      -228.6875      -4206.969
      -4376.422      -18727.59      -36491.85      -29266.33      -4560.812
       19806.69       43760.00       54163.12       46828.49       26486.93
      -7990.453      -38163.56      -47567.45      -44881.80      -38490.81
      -28450.00      -14814.36      -2324.562       6335.869       7873.047
       1110.590       772.8750       15074.27       25480.59       22855.49
       17940.65       9406.766       1206.791       4328.549       1448.348
      -11801.04      -15763.88      -10704.60      -11543.45      -10362.20
       7129.602       23376.97       30389.08       39976.14       37265.30
       20920.71       11336.94       914.5469      -15792.13      -18601.49
      -14510.91      -24182.19      -27054.25      -10820.21       1147.535
       828.5273      -10460.09      -27167.89      -42466.11      -50314.52
      -34483.59       5143.016       38404.48       49652.27       50725.77
       41036.71       18487.80      -4471.148      -20151.88      -25789.79
      -25596.81      -19897.80      -15271.80      -13906.58      -2384.391
       12179.74       10331.68      -1389.762       2257.891       22462.68
       35886.61       38149.62       33722.81       23388.41       14110.02
       6397.711      -3365.324      -16079.92      -31547.53      -38733.24
      -29171.75      -12346.31      -10252.16      -27788.20      -38933.25
      -28025.12      -16352.04      -8302.680       13784.47       38840.77
       54183.05       62672.91       59960.88       49184.25       38160.43
       22190.90      -1784.109      -21961.09      -30977.39      -32372.06
      -34265.92      -31718.75      -23212.02      -25397.94      -35726.42
      -42464.36      -44025.90      -33753.81      -17584.31      -6143.172
       3395.180       13656.05       26331.77       39284.62       38497.86
       22280.50       12710.45       18901.58       16316.00       1878.956
      -652.1748       5309.416       5831.264       1717.717      -5101.464
      -7486.574       3418.461       19753.68       23610.41       14098.50
       1979.695      -7456.240      -9163.389      -5519.280      -5213.369
      -4123.403      -205.1431      -161.0518      -3467.339       1124.557
       7709.336       2431.607      -6879.293      -9331.359      -3571.547
       5378.735       3600.094      -10755.00      -22268.60      -18242.00
      -7691.484      -6548.711      -9040.553       168.1328       18201.86
       30496.66       30921.00       18858.91       2525.695      -3141.009
      -1368.918      -2876.406      -7395.277      -5587.328       440.8738
      -194.0859      -2950.213      -3516.306      -3205.100       6240.387
       16748.50       12881.62       3850.437       2843.090       1991.119
      -2049.146      -3254.121      -4349.576      -8554.414      -11510.12
      -13220.00      -18629.82      -23864.32      -22929.98      -14272.34
       4220.539       21845.20       24434.63       18931.41       19634.45
       22273.13       19786.38       12335.74       147.3047      -9825.582
      -11008.96      -3429.043       5346.348       3341.238       372.7285
       4806.299       7459.858       4644.473      -4818.797      -16330.37
      -21390.74      -22438.15      -16928.19      -5241.335      -2350.867
      -9399.641      -14602.59      -15147.25      -7997.914       3621.363
       9747.523       9452.019       5807.934       461.6191      -3749.023
      -8166.164      -11806.01      -11597.74      -9029.969      -3055.312
       6772.139       11560.02       9215.877       4736.913      -4.697266
      -3987.356      -1079.416       8146.447       9818.686       4202.217
       2559.031       9360.758       21575.73       21262.09       7683.626
      -3137.035      -8300.105      -12989.85      -14360.58      -2325.113
       12018.42       8673.652      -3331.969      -10500.51      -12401.59
      -10381.19      -8866.213      -6568.388       2190.130       6230.784
      -963.3662      -6264.306      -1621.278       2876.878       2586.941
       3529.520       9098.105       16442.71       17308.03       9581.491
      -41.77930      -4511.330      -4789.102      -8456.707      -10857.45
      -5469.004      -714.1348      -3134.380      -4237.760       1511.756
       7948.242       11884.23       13201.20       9126.112       1351.643
      -7937.660      -15684.35      -20307.85      -20866.48      -17933.77
