     0.02500000      -92337.41       75444.60      -12345.00      -12345.00
      -30.00502       225.0950      -24.83000      -12345.00      -12345.00
       0.000000       18.28000      -12345.00      -12345.00      -12345.00
      -12345.00      -12345.00      -12345.00      -12345.00      -12345.00
      -12345.00      -12345.00      -12345.00      -12345.00      -12345.00
      -12345.00      -12345.00      -12345.00      -12345.00      -12345.00
      -12345.00      -31.19940      -66.74700       697.0000       0.000000
      -31.23600      -65.83800       0.000000       167100.0       0.000000
      -12345.00      -12345.00      -12345.00      -12345.00      -12345.00
      -12345.00      -12345.00      -12345.00      -12345.00      -12345.00
       86.71101       272.4479       92.91670      0.7796333      -12345.00
      -12345.00    0.004390367       0.000000       0.000000      -12345.00
      -12345.00      -12345.00      -12345.00      -12345.00      -12345.00
      -12345.00      -12345.00      -12345.00      -12345.00      -12345.00
      2008       318        11        12        55
       230         6    -12345    -12345     10205
    -12345    -12345    -12345    -12345    -12345
         1         7        13    -12345    -12345
    -12345    -12345    -12345    -12345    -12345
    -12345    -12345    -12345    -12345    -12345
    -12345    -12345    -12345    -12345    -12345
         1         1         1         1         1
NOQE    -12345          
        -12345  -12345  
-12345  -12345  -12345  
-12345  -12345  -12345  
-12345  -12345  -12345  
-12345  -12345  -12345  
-12345  -12345  BHZ     
ZL      -12345  -12345  
[...]
       378.8433       337.1481       363.5345       327.0527       359.6105
       317.1866       343.1319       310.5365       336.8634       290.8927
       325.2879       286.9609       310.6851       271.1077       301.1884
       257.0128       277.7445       241.1471       273.8939       232.5313
       261.2034       222.1429       251.0447       210.2927       244.6693
       208.6399       236.9129       193.3990       226.5181       187.7855
       209.5080       161.9747       191.8456       143.9561       170.6347
       129.2142       159.3907       110.4781       136.3960       98.23044
       131.4300       88.10468       116.4458       69.07672       93.09351
       47.82063       70.94936       19.45687       44.73703      -5.528137
       20.98120      -18.83033       10.41674      -34.34200      -2.875839
      -44.54767      -13.99546      -52.59191      -18.98138      -67.38315
      -39.00218      -77.76346      -47.71362      -92.14047      -54.45392
      -100.3144      -64.39485      -95.73511      -60.45889      -108.4853
      -71.65533      -109.9923      -74.70407      -118.9656      -86.75015
      -131.3107      -94.91718      -135.0920      -101.2167      -144.1351
      -106.2234      -152.1045      -120.0638      -153.3771      -113.5693
      -165.4493      -126.5387      -97.47827       201.8169       955.6484
       2268.168       2272.875      -238.9648      -3189.679      -2902.895
       147.5869       1157.288       251.1948       2188.737       3240.491
      -1050.871      -3612.517       1360.635       2260.561      -3731.678
      -2972.705       5124.938       6906.107       1707.148       2086.856
       2253.319      -3730.708      -3268.336      -2101.588      -429.7617
       7140.688       4247.064      -5131.960      -3761.617      -190.9922
      -6710.234      -12208.78      -417.8667       2901.071      -7658.272
      -1747.290       3576.249      -1217.027       345.8088       1701.002
      -4022.844      -6783.847       2110.239       6206.907       2932.987
       1932.037      -775.6372      -2843.671      -1983.976       641.7422
       1240.857      -5900.295      -7272.148       1849.385       6516.653
       5219.977       2804.265       790.9990      -957.2627      -3991.719
      -3929.968      -2103.520       334.1733       1581.015       456.1128
       580.9774       561.0093      -262.7764      -2588.682      -6923.272
      -4792.115       573.7832       1397.771       5419.866       5846.588
      -3322.227      -3000.350       625.6094      -5547.834      -9233.449
      -4778.454       752.6279       3751.926       3145.338       2132.779
       2868.228       1561.289      -1699.349      -2800.126      -578.5172
       703.7563      -1310.310      -1110.410       4179.792       7933.439
      -438.8975      -4501.112       3022.169       764.8525      -3769.554
       1269.647      -703.0547      -5069.369       820.4692       1246.996
      -1060.518       2571.541      -1131.621      -4466.591      -1281.402
       1006.024      -2413.751      -2282.854       3415.054       2246.231
       428.9102       2091.700      -26.75586      -6177.370      -5611.948
       1825.479      -778.5977      -9870.779      -7729.490       3559.865
       7890.317       1250.124      -3673.037      -954.7910       1807.360
       2276.209       2218.992       3052.358       704.8047      -2177.479
      -3969.215      -1286.025       3827.769       910.0039      -391.7374
       523.6256      -565.7244       2130.219      -483.6553      -3679.744
       813.4496       854.5752      -3533.596       2.190430       4562.564
       1183.418       308.3320       4707.501       2733.130      -925.1240
       807.0117       1540.174      -2764.752      -5181.669      -921.8430
       189.6260      -4480.766      -3920.875      -1690.160       918.1182
       4138.866       825.8831      -56.66650       2209.113      -4212.685
      -2906.678       5277.921       428.2129      -4059.925      -1167.028
       400.4439       532.9788      -872.0625       2180.428       6670.483
       3452.700      -288.2788       1451.580       1126.340      -40.88867
       2875.625       3840.713      -611.4023      -4319.309      -4105.883
       1090.219       4740.847       2672.891       2313.264       951.3315
      -2682.533      -1959.127       419.0977       2943.661       2437.958
      -277.5613      -1156.020       902.4409       3438.941       453.0815
      -3244.124      -1204.802       119.0186      -323.9385       2432.691
       3860.948       2342.482       4573.113       2759.307      -2100.458
       582.6699       2138.223      -1371.818      -2409.415      -2196.404
      -3043.365      -2281.328       3129.529       5940.882       1803.576
       242.1895       1689.067       23.89990      -1275.009       160.1309
       3556.876       3597.972      -67.51465      -3494.674      -2874.248
      -923.0310      -1731.131      -637.8047       4147.482       4689.062
      -2124.332      -3113.828       2777.054       930.0669      -3086.862
      -664.2427       1908.461       374.8625       869.6187       1174.159
       69.35547       2870.601       2471.793      -1233.784      -495.8557
       573.9961      -915.4038      -1828.106       107.6260       2393.421
       3096.301       3076.268       3809.082       1701.188      -4269.947
      -8964.994      -8622.362      -2970.451       4359.326       5411.189
       2053.010       3226.655       5593.604       2652.116      -1164.785
      -430.1824       282.7607      -3932.811      -6529.237      -5735.636
      -1553.392       2259.291       545.9888      -2114.957      -1847.765
       1346.480       5031.199       6427.076       7030.568       5951.499
       2867.632      -935.9619      -2539.979      -1970.369      -1149.514
      -2920.828      -5285.564      -1925.178       345.0283      -3794.891
      -4945.188       1510.691       6645.194       3284.146       1159.030
       1717.697       181.6479      -165.5508       1679.285       2285.847
      -2739.389      -7025.734      -3206.443      -239.4062       1506.650
       3843.118      -1340.451      -5848.701      -1458.631       738.8550
      -2027.250      -3373.440      -688.5547       2509.886       799.0830
      -4338.881      -3720.454       1161.660       1925.000       1156.816
       2200.313       4531.851       5574.463       678.0420      -2697.724
      -101.2734      -1157.880      -4446.834      -1923.955       1667.971
       3994.985       3066.260       1274.804       2857.892       431.1064
      -3960.233       731.4507       3686.390       396.7275       2260.140
       805.9609      -7737.844      -8333.322      -3261.135      -5335.802
      -5322.803       4610.352       9731.440       3924.316      -5310.290
      -5444.404      -1846.243      -1548.729       2065.103       2789.112
       831.9343       363.3223      -3760.393      -6328.659      -2507.710
       130.1992      -2071.723      -3663.633      -1491.831       1285.785
      -1825.764      -3437.379       1566.947       2609.279      -4985.436
      -6329.018       2990.566       6744.564       3782.845       2123.198
      -140.2197       13.31641       4118.220       5234.874       516.7227
      -4198.052      -1990.390       2212.035       1558.585       910.3994
       2414.292       2849.472       325.3464       238.7627       398.5410
      -3112.840      -1550.500      -1127.273      -8110.870      -7207.382
      -1071.937      -1731.827      -3136.117       2208.162       5925.341
       4602.502       2989.885       692.0649      -2427.093      -936.6367
       5793.396       6664.223       1839.627      -2833.144      -4803.154
       1598.392       3706.731      -4973.171      -4704.534       3118.423
       3282.592       1828.125       4977.650       8210.021       3084.785
      -4866.436      -6717.684      -4607.387       808.8604       4627.864
       477.7285      -3300.957      -3986.486      -6662.934      -7955.566
      -6986.549      -7751.785      -4399.043       5384.912       7670.171
       1318.437       1019.499       297.5723      -4141.599      -1154.690
       707.8293      -1199.850       3403.037       3688.656      -3529.332
      -6837.014      -7040.721      -7242.387      -6721.807      -1515.371
       6334.394       4723.575       316.7300       2147.011       1049.500
      -2888.205      -1784.585       1984.449       6364.205       9010.025
       5372.395       496.4448      -390.7896      -567.7812       3564.870
       2032.694      -3904.992       164.3076       4256.109       4520.888
       3798.297      -1213.466      -1279.616       4354.553       2952.082
       1211.469       1687.415      -687.5015      -1064.209      -2172.416
      -4341.420       940.6709       7090.319       144.1084      -5702.186
      -1477.344       2356.049       2221.558       1418.949       1498.611
       2546.010      -740.7383      -5894.396      -5452.204      -4664.279
      -6166.007      -3332.307       2557.716       2169.882      -148.9836
       835.1028       709.0577      -133.6309       980.7798       1615.083
      -1037.471       2703.348       9217.264       7679.752       5782.146
       4392.146       1296.208       842.2740      -971.0762       1496.136
       6137.187       3339.531      -379.5692       479.7168      -358.4336
      -5686.195      -11044.76      -10040.49      -2026.182       2295.685
       2206.382       4205.864       3748.351      -3157.778      -6686.405
      -2098.135      -236.8506       678.6484       5820.348       8557.766
       5470.696       1401.777      -2458.818      -6959.538      -4979.100
       4044.092       8324.354       5319.257       382.5977      -4316.469
      -6586.639      -5183.032      -4790.351      -3646.480      -511.0537
       2537.449       5938.672       6353.720       4139.382       1151.570
      -2488.343      -3276.938      -1708.269      -575.3057      -2457.866
      -2415.625       2394.233       4915.176       5305.826       8872.283
       9584.862       3829.556      -366.5310      -753.0596      -1445.363
      -4674.515      -5145.099      -888.9302       761.5293       1151.409
       2404.276       635.3965      -3024.640      -2848.367       4202.463
       9514.408       1772.391      -5974.253      -4860.390      -2790.135
       3631.145       10016.08       4498.520      -4580.686      -8735.781
      -7005.102      -92.58594       1719.053      -1961.445       2495.705
       7891.706       1358.850      -5391.628      -2540.007       1132.862
      -1404.017      -4444.578      -5150.844      -4943.570      -2582.818
       1516.016       7105.654       7265.371       3246.659       4212.826
       5185.959       3606.944       4688.670      -196.4512      -6237.578
      -583.8005       2137.571      -1717.393      -4667.496      -7697.521
      -5600.031      -2771.229      -4759.776      -4395.719      -2574.196
      -4046.209      -2065.519       3846.426       6409.317       1468.002
      -5817.568      -7679.220      -2974.316       1994.813      -1365.920
      -5691.524      -1326.079       4851.777       5384.337       3146.477
       1768.616      -1878.678      -2065.322       7235.609       13533.28
       10379.32       5800.938       2729.879       1753.044      -544.7266
      -6497.430      -11852.03      -16563.05      -14838.74      -6303.021
      -2699.220      -2742.495       1208.637       4780.784       2057.716
      -807.1514      -228.9873       3880.406       7863.527       4274.694
       7.870605       1195.449      -209.9160      -5484.324      -6928.467
      -3075.008       2331.512       6694.041       7972.506       7379.945
       7253.076       5210.684      -370.2441      -16.15625       6762.956
       4663.886      -3442.708      -2812.746       3139.233       2350.321
      -3450.245      -3353.463       3169.920       7178.941       1237.559
      -7438.736      -8318.792      -6113.499      -1988.089       463.8730
      -3257.709      -4924.690      -3502.531      -2264.248       1062.787
       3693.099       1565.461      -1227.165      -1483.353      -1333.970
      -2340.858      -4087.848      -7878.830      -8710.269      -4746.097
      -2519.327       823.0339       1080.459      -3231.487      -3156.408
      -3024.449      -2002.837       3074.481       3936.084       468.5377
      -1527.850       1484.881       7369.086       13898.68       21619.86
       26824.16       31357.45       30336.34       14170.42      -5032.969
      -17918.45      -30654.00      -43445.58      -52440.34      -53105.63
      -35190.34       1680.984       38639.06       60678.05       64982.61
       52174.37       25965.02      -16219.89      -64597.69      -92337.41
      -92171.86      -75402.17      -50924.75      -22973.39      -985.1211
      -465.8281      -24178.08      -49384.62      -48088.27      -25671.78
      -4439.633       11600.47       23788.34       34062.61       41126.67
       33259.28       16192.22       8885.184       11561.56       13868.73
       17161.25       17609.85       810.3672      -27324.45      -38408.70
      -20638.60       6740.172       29840.47       53081.89       73336.16
       75444.60       52362.80       17489.50       1169.719       14620.46
       22534.86       15110.79       27163.45       51300.30       55672.16
       40419.38       15377.26      -6999.430      -17399.47      -29766.27
      -47202.81      -40309.02      -8104.859       18617.43       22670.91
       252.6719      -31643.22      -47801.11      -46399.57      -34488.85
      -7967.438       25942.57       37103.85       15268.28      -12862.92
      -23896.64      -21437.59      -20533.46      -27676.09      -32354.35
      -18693.86       6565.594       22346.68       22377.26       9051.785
      -11889.67      -27744.92      -27726.62      -14165.71       1591.006
       10379.66       11795.23       8960.004       6625.508       7048.390
       4285.670       6018.242       19794.83       28519.32       26555.26
       26883.45       25826.45       12996.71       4310.785       5806.176
       8809.938       14533.18       17103.32       14478.19       11359.00
      -1698.953      -23397.67      -33350.99      -29600.61      -18688.49
      -3999.598      -4142.203      -20957.23      -31046.69      -28529.12
      -25415.82      -18778.07      -258.9219       20903.66       35138.80
       41547.11       34830.01       17822.92       1736.617      -16545.41
      -37600.39      -48688.78      -48111.20      -37140.06      -14134.95
       16815.12       48543.00       67408.88       63791.70       39750.16
       10509.06      -175.3430       1229.242      -237.8750       9161.352
       25833.81       28751.02       22116.14       11785.48      -1994.594
      -14693.53      -27382.62      -45815.03      -63968.44      -65733.41
      -52577.22      -33007.34      -10618.60       4280.008       10675.49
       14209.07       20491.67       21970.23       5210.172      -16278.54
      -26411.96      -26391.46      -21265.17      -12215.55       5197.602
       21630.94       20237.86       6141.288      -2538.071       885.2617
       9409.320       13264.15       13251.58       11452.88       4601.713
       2646.402       14882.45       22531.91       12857.28       5063.105
       12869.66       25075.16       32615.28       34552.54       29998.70
       19592.21       9701.340       5414.748       407.6133      -6812.629
      -9967.438      -12656.43      -14704.97      -11653.77      -12147.43
      -19779.33      -26521.42      -31218.22      -39749.33      -48510.91
      -46198.22      -38880.27      -33068.27      -28521.65      -25211.82
      -17056.98      -427.8281       22145.95       41701.03       53337.50
       58996.61       59162.53       53895.76       39137.26       16751.88
       5916.629       11836.51       14240.25       6564.570      -8153.918
      -19552.86      -15985.45      -9790.234      -13477.57      -22990.30
      -26980.66      -22231.62      -17332.82      -12501.65      -8395.051
      -12284.63      -19226.88      -19157.49      -13150.72      -2389.633
       7847.547       16961.66       32239.36       40910.62       30736.51
       8826.953      -14540.96      -26900.06      -28648.14      -33083.02
      -35835.80      -26232.76      -8476.703       11405.09       25036.43
       25437.74       18557.58       8792.883      -2263.241      -2482.430
       8558.938       20356.49       28352.58       27868.22       22938.83
       21216.65       20394.63       16701.71       8329.332      -4890.609
      -21680.41      -35116.76      -37247.82      -30869.05      -24631.51
      -19567.25      -12657.93      -4609.948      -946.8135      -2518.939
      -3841.331      -52.39453       8515.176       11708.13       4774.646
      -2125.781      -5803.270      -8262.895       1213.148       17234.28
       12800.83      -5558.574      -10858.36      -8177.371      -13617.80
      -16550.40      -6429.008       8642.719       20471.66       23088.32
       17340.51       11821.41       7987.975       2492.933      -196.8003
       2456.468       347.1670      -4280.389      -347.7207       5033.913
       3238.086       3648.178       9946.543       10327.39       5462.242
       2693.245      -188.0127       970.2969       9532.240       13068.10
       3886.559      -5840.148      -9897.320      -10458.99      -6577.109
      -2947.840      -4831.223      -9604.842      -10642.72      -6224.633
      -3257.873      -5802.389      -6600.947      -4304.586      -7237.440
      -8420.919       1084.102       10093.05       6366.123      -2916.520
      -4381.676      -901.7812       1248.742       4473.480       8172.289
       9691.330       4238.127      -7123.863      -16083.01      -19517.80
      -21021.30      -17822.04      -6006.031       4989.645       9564.523
       12597.75       16816.93       18319.68       15440.07       14635.19
       16264.93       16433.69       13577.18       7110.213       2837.777
       4132.846       5714.828       4278.096       1579.512       1619.356
      -1607.781      -12848.69      -18383.22      -11434.25      -3401.932
