     0.02500000      -102715.9       153162.0      -12345.00      -12345.00
      -30.00502       225.0950      -24.83000      -12345.00      -12345.00
       0.000000       18.28000      -12345.00      -12345.00      -12345.00
      -12345.00      -12345.00      -12345.00      -12345.00      -12345.00
      -12345.00      -12345.00      -12345.00      -12345.00      -12345.00
      -12345.00      -12345.00      -12345.00      -12345.00      -12345.00
      -12345.00      -31.19940      -66.74700       697.0000       0.000000
      -31.23600      -65.83800       0.000000       167100.0       0.000000
      -12345.00      -12345.00      -12345.00      -12345.00      -12345.00
      -12345.00      -12345.00      -12345.00      -12345.00      -12345.00
       86.71101       272.4479       92.91670      0.7796333      -12345.00
      -12345.00    -0.06899412       90.00000       90.00000      -12345.00
      -12345.00      -12345.00      -12345.00      -12345.00      -12345.00
      -12345.00      -12345.00      -12345.00      -12345.00      -12345.00
      2008       318        11        12        55
       230         6    -12345    -12345     10205
    -12345    -12345    -12345    -12345    -12345
         1         7        13    -12345    -12345
    -12345    -12345    -12345    -12345    -12345
    -12345    -12345    -12345    -12345    -12345
    -12345    -12345    -12345    -12345    -12345
         1         1         1         1         1
NOQE    -12345          
        -12345  -12345  
-12345  -12345  -12345  
-12345  -12345  -12345  
-12345  -12345  -12345  
-12345  -12345  -12345  
-12345  -12345  BHE     
ZL      -12345  -12345  
[...]
      -461.4132      -437.0348      -467.9989      -447.4515      -463.6830
      -440.4843      -466.3378      -442.0066      -463.8108      -438.8094
      -456.3403      -434.0326      -462.6339      -440.6093      -463.2421
      -445.1746      -462.7950      -435.4489      -462.1458      -437.8513
      -451.1547      -422.3250      -439.6622      -409.0299      -431.5909
      -407.1133      -420.7799      -395.8958      -417.7151      -386.9758
      -407.0297      -376.3571      -384.3032      -351.9092      -370.3434
      -334.8802      -348.0831      -315.0244      -333.7430      -300.7058
      -319.9748      -289.3240      -303.2437      -265.1707      -287.3567
      -256.6894      -274.2119      -232.2261      -249.7938      -222.6027
      -228.9741      -185.7961      -285.1699      -577.0430      -1608.556
      -3389.059      -3848.516      -112.8828       5444.310       6746.434
       2208.108      -722.3613       54.44922      -3458.727      -8085.882
      -2980.527       5210.721       4366.024      -1732.708       82.75195
       5270.014       661.2754      -6209.402      -4793.487       526.8701
      -346.2285      -986.2793       7265.571       6773.890       1869.314
       1142.284      -4939.779      -1811.338       9543.367       9482.604
      -166.1504      -2999.551       1786.228      -2749.610      -6434.023
      -589.5640      -1373.222      -4916.756      -2636.481      -1996.975
       1428.699       3839.660      -1175.426      -3217.931       260.6836
       3243.544       3259.486       2216.264       727.9309      -1122.106
       2063.981       6617.998       1525.635      -6163.865      -5916.510
      -5901.088      -7508.221      -1929.551       8561.783       11717.67
       7503.377       5683.699       6484.773       5259.822      -1497.703
      -11955.07      -13972.95      -6635.366       46.84082       3251.406
       6837.047       7802.708       3327.217      -1188.681      -752.0625
       1933.556      -396.8467      -4929.795      -2122.468       3686.297
       5635.693       6236.738       1155.578      -11996.77      -17496.36
      -11013.79      -551.2441       8847.770       11357.42       8618.373
       6379.000       5569.812       1394.160      -6182.686      -8226.287
      -6938.054      -3642.809       2244.125      -710.2646      -1230.487
       6304.541       27.63916      -3033.062       9766.168       10008.89
      -4223.158      -10712.90      -7252.258       1233.198       6252.654
       2134.534       3089.617       5148.557      -7395.066      -10866.19
       2293.926       7220.438       2326.467       2731.521       3551.929
      -3478.786      -5924.043       1539.951       5483.853       344.2656
      -10378.66      -16649.02      -3414.441       9667.508       2498.232
      -3644.390       2390.439       10680.36       7209.651      -1422.023
      -7067.527      -13055.26      -2904.508       15782.29       16005.07
       2732.408      -8876.109      -13150.48      -9787.654      -2828.277
      -1270.288       1328.193       5387.043       6348.832       7881.585
       2739.639      -1961.550      -2247.934      -3579.963       1066.363
       3216.103      -910.6028      -941.6689       2591.869      -635.9648
      -5471.610      -3173.997      -864.8479      -47.27686       2328.365
       1160.077      -584.4805       4576.842       5698.581      -117.2510
      -2731.986      -4582.460      -3846.491       2114.436       3235.249
      -2911.079      -779.4155       3901.355      -272.6870      -2575.637
       2904.418       4181.751      -1744.140      -855.3750       3239.031
       1138.585      -4022.043      -7665.244      -3878.080       2988.750
       6205.332       2477.436      -1901.286       1502.312       5172.516
       2939.028      -3720.713      -8529.123      -3215.257       1893.319
      -91.92969       1319.813       4304.830       819.7891      -2520.586
      -436.1173       1176.878      -1060.888      -651.3320       1990.533
       1771.156      -154.6616       402.9004       4239.793       7866.874
       3499.463      -4457.197      -4547.918      -2530.010      -5145.648
      -7008.935      -5046.437      -1301.540       1104.113       4812.734
       9060.092       8803.216       3396.625      -5647.537      -8834.277
      -4904.659      -2886.698       840.0098       4822.187       3309.372
      -1098.587      -2136.063       366.2544       1142.032       1329.683
       4714.251       2246.633      -4167.672      -4310.523      -3063.898
      -3570.713      -2980.521       430.6045       3830.024       3451.002
       2422.765       477.3057      -4252.954      -5717.903       246.9258
       5074.301       4725.811       6190.311       7333.808       1217.842
      -5058.732      -6632.832      -8235.257      -6927.304       318.5708
       2294.264       2717.772       2495.706      -5692.963      -6565.238
       2179.178       6671.020       9269.967       8946.290       1357.135
      -4646.825      -3353.770       152.2505       3378.889       575.4062
      -7538.895      -8323.484      -5108.818      -2440.177       4524.363
       9437.564       8675.201       1846.664      -6479.494      -6776.601
      -3191.905      -3236.094      -1136.650       138.9983      -1429.400
       4640.852       10762.15       3199.833      -4750.604       3096.281
       10390.85       502.1348      -9906.645      -10120.09      -4591.350
      -1451.076      -1501.209       1682.795       2409.078      -615.3992
      -468.7920       3325.543       5189.195       3100.929       259.0952
      -1968.907      -1157.982      -1986.085      -2660.017       1423.004
       4768.479       2026.043      -3725.530      -5283.317      -2491.200
       326.7202       352.9004      -3558.807      -5479.585      -2128.838
       3589.936       7396.051       6810.124       514.3438      -6508.896
      -6412.139       853.0747       4297.770      -1754.207      -5086.434
      -4090.692      -1142.928       6062.375       8819.460       4749.393
       145.8782      -419.7969      -1330.074      -1546.821       2249.842
       5042.341       1723.119      -666.9541      -2147.517      -5592.332
      -1498.003       4077.208      -929.5195      -9119.070      -4139.100
       8372.736       10018.09       3066.448      -3554.929      -5100.877
      -1967.341      -398.3105      -829.3379       4225.060       6565.748
      -3621.008      -12018.22      -7473.218      -1023.108       1536.259
       4291.573       4187.723       1763.766       2845.628       2626.577
      -472.6943      -2168.369      -3058.227      -5133.212      -2868.248
       2433.201       2263.174       3589.503       5665.693       156.9741
      -1794.348       12.78210      -440.3162      -429.9434       3234.493
       6729.328      -569.1152      -9054.315      -5143.449       2389.969
       7831.527       10052.18       7587.953       4518.329      -1234.986
      -6926.820      -10779.54      -12169.98      -6575.772      -4264.848
      -944.5039       7440.406       10116.91       6287.870      -1589.865
      -8871.102      -12560.86      -11478.47      -2120.848       6671.785
       13327.30       13739.03       6278.687      -274.6738      -9760.932
      -9933.729       511.1458       914.7456      -3835.098       1013.465
       11981.16       8228.779      -992.7119      -2225.258      -7484.236
      -8840.353       719.3672       9827.125       12573.09       6256.701
      -2342.050      -4586.180      -3958.555      -7406.215      -12832.52
      -9736.479       1652.682       8794.469       6130.784       3124.688
       5528.289       7570.566       4973.931      -6289.463      -6872.970
       6266.572       4041.477      -5918.041      -5919.216      -1106.041
       4817.414       6245.734      -905.3867      -5759.997       228.1719
       8384.519       7569.349       384.5537      -2018.920      -3436.454
      -4517.420      -1235.367      -4650.480      -9520.131      -5331.895
       1405.109       11030.25       15779.46       7068.241      -4258.228
      -5986.297      -1823.092       2375.896       1022.871      -5925.578
      -6108.056      -467.1152       5316.053       9331.513       5570.184
      -2287.434      -8757.672      -10294.14      -6299.927       3106.508
       11067.74       10770.86       8777.859       1626.098      -6986.036
      -5329.630      -3864.997       83.00977       5394.427       867.2295
      -3387.805      -470.1782       2203.155      -564.2446      -3072.633
      -805.7974      -604.3770      -4603.824      -6213.768      -895.5117
       7431.703       7804.512      -4072.328      -14184.55      -10293.59
      -2929.943       2155.523       10736.48       11787.98       1241.022
      -4869.111       455.2891       3456.070       1482.172       5436.359
       9411.162       8732.408       6117.765      -476.3555      -7584.829
      -6641.373      -452.2334      -3891.645      -8250.561       134.0977
       8582.046       6482.527      -4842.543      -12367.01      -4434.977
       7753.816       14814.52       10933.66      -594.4697      -4373.864
      -985.8926      -3224.469      -9442.201      -6778.072       2567.987
       2220.144      -349.1562       5228.448       5976.281       4094.375
       6855.068       4787.281      -2017.154      -3542.534      -2289.037
      -663.7197       584.0723      -3428.800      -5284.686      -1781.761
       4319.960       5234.770      -3892.727      -9000.891      -4643.771
       1595.109       4765.480       4388.633       4058.536       871.5483
      -3157.012      -1709.682       67.15527      -3198.770      -3063.973
       1088.389       2324.017       1500.178       2980.166       7591.877
       8025.345       2653.289      -635.2174       1256.029      -1152.139
      -7400.344      -9334.312      -7813.133      -2863.263      -1662.393
       164.3711       5884.069       4665.758       1907.338       3906.180
       5957.129       9286.572       8854.961      -2952.047      -11680.92
      -7233.702      -324.3921       4187.877      -412.3086      -11065.80
      -14102.89      -9480.020      -6429.868      -7063.130       836.6973
       9980.189       8615.508       10025.52       14419.81       12647.10
       10190.93       5283.842      -7056.500      -14563.29      -14688.60
      -10937.81      -324.8691       9559.223       10062.72       4401.007
       753.2916      -47.04980       1176.887       6844.133       9489.418
       5267.366       1878.525       654.5078      -5228.246      -11073.21
      -9622.715      -12041.98      -20026.77      -20757.15      -13041.52
      -969.3555       11283.14       19368.30       18851.23       16160.21
       13923.37       3642.917      -5434.216      -3888.569      -1387.342
      -2451.068      -1002.481       878.6538       868.2461       5122.506
       9178.558       4219.760      -3398.420      -3111.668      -816.1724
      -2069.547      -1983.516      -5964.852      -12520.65      -10760.12
      -5480.166      -1051.051       7179.258       20122.41       27190.49
       16627.38      -3414.875      -16903.77      -15944.97      -4794.056
      -541.3945      -5790.420      -8855.409      -1721.355       6909.416
       4599.337      -1588.792      -3592.311      -3615.044      -3468.363
       4409.004       13865.46       11459.65       1349.365      -4468.333
      -1795.189       170.4985       966.0640       992.2539      -7383.246
      -15907.35      -9509.559       589.5020       4729.035       10097.84
       12920.90       10934.39       4817.203      -5459.955      -10670.10
      -1036.162       11401.99       9748.961      -3619.828      -18831.80
      -17441.92      -521.6133       8765.098       10472.15       12782.97
       10908.11       1879.694      -4416.187      -5040.973      -3633.143
      -4175.145      -16696.41      -26287.39      -24558.98      -24219.31
      -18452.16      -4822.327      -567.4023      -8797.383      -19196.30
      -31368.44      -44675.36      -54134.42      -57157.66      -53050.03
      -39431.64      -15930.36       7093.953       17654.50       16561.43
       14371.75       8214.297      -13110.58      -39917.03      -61603.72
      -77978.56      -76069.84      -43329.52       5066.258       39619.77
       47165.56       25464.14      -12045.33      -31298.43      -17737.30
       16179.97       52945.22       75032.03       67294.49       35467.75
       8739.070       9867.547       28068.86       30485.02       12432.51
      -2158.488      -2479.446       4560.437       6539.281      -5703.906
      -25126.33      -30805.05      -1335.703       62474.50       125352.6
       153162.0       139424.6       102117.9       60565.02       8972.641
      -57360.75      -102715.9      -95453.33      -58397.56      -24988.25
       7354.844       50114.19       76797.91       47990.19      -11540.91
      -33854.60      -11751.07       17534.19       41614.80       45938.84
       3884.328      -64773.19      -93328.34      -72560.09      -51531.16
      -46499.27      -37841.48      -15912.26       772.3185       471.5859
      -143.7266       13208.20       32365.05       40813.81       32912.34
       22571.61       21751.77       24668.31       24441.35       12975.20
      -5998.461      -10713.94       697.3633       6263.980       3863.900
       6662.138       7959.180      -6306.391      -27577.94      -39933.20
      -46222.71      -43951.73      -23406.36       3978.070       22128.05
       30122.80       24943.43       13939.89       20335.00       29006.46
       15828.65       1234.516      -1081.158       2156.241       6918.494
       1495.844      -14695.40      -20379.24      -12798.54      -8554.709
      -7125.703      -2596.988      -5438.828      -27831.59      -51090.03
      -47105.25      -23802.47      -332.1406       21147.91       46728.31
       69538.27       65696.64       35223.41       1663.203      -24224.29
      -40162.23      -45619.52      -44110.20      -35710.62      -17886.96
       7936.312       34466.97       55954.25       72362.89       73346.16
       45745.01       3226.250      -24300.76      -29581.84      -21940.75
      -12049.69      -9442.629      -10797.62      -8889.420       63.67578
       3974.035      -5076.055      -10662.05      -18902.98      -38521.40
      -41499.90      -22948.68      -2963.594       14416.84       21460.82
       20778.75       26694.70       33206.54       23768.79      -927.2891
      -27523.41      -54671.69      -69208.91      -54105.28      -26502.17
      -4813.404       6136.672       7942.031       7596.754       7190.363
       12266.31       20900.61       23458.99       24117.25       25037.69
       20614.72       16073.11       17372.59       18682.91       15964.83
       7675.930      -372.5391       6331.023       23536.50       34295.05
       37995.67       38549.36       29801.24       12253.94      -579.6758
      -6543.266      -17926.09      -30010.01      -29676.34      -17905.87
      -834.6582       1646.312      -20358.00      -44315.61      -53923.41
      -50582.20      -44120.86      -38579.82      -23814.88      -7535.796
      -4204.387      -5144.581      -2612.992       5442.289       18889.28
       27822.08       29332.48       26132.05       12678.44       74.46680
       7226.750       17797.57       16696.99       13239.40       8603.773
       2494.747      -6.300781       325.2002      -1757.695      -10915.50
      -20570.46      -19883.70      -11342.05       5377.477       25681.36
       23594.16      -4496.242      -28247.04      -26323.94      -8906.283
       2106.451       7531.547       15827.02       17300.26       11244.93
       9555.266       6154.475      -6233.816      -17903.40      -19420.08
      -11373.46      -637.3391       1342.871      -6470.688      -5185.867
       10537.46       20916.48       15019.55       1453.641      -8068.566
      -6472.178       3501.441       11427.49       14457.04       19153.59
       24098.91       24641.35       25274.57       22520.50       10747.64
      -4481.594      -17595.50      -24162.87      -23000.09      -17336.92
      -14835.87      -16770.51      -15150.23      -11293.83      -6993.113
      -4544.531      -9723.555      -15547.76      -7937.188       12001.28
       24704.36       19959.18       4830.418      -10654.25      -17442.26
      -14716.82      -9863.205      -9399.934      -10606.91      -14895.94
      -24122.25      -21510.28      -418.4922       21074.73       23613.91
       8373.974      -4678.514      -5879.491      -3.527344       8266.766
       11382.99       9233.898       9848.535       8952.643       679.9570
      -6994.828      -3994.857       6021.691       13931.29       12657.17
       4595.012       3834.088       8710.719       13637.30       19373.34
       21359.33       20791.11       12741.68      -5729.508      -18916.59
      -19955.92      -17319.44      -15104.82      -13968.60      -9746.875
      -2037.819       1882.091      -310.7227      -10186.45      -19771.29
      -16829.04      -4677.781       7205.852       13148.37       7581.578
      -10028.21      -23999.23      -22176.90      -10666.16       3533.578
       15722.02       19662.83       14453.57       4895.982      -6228.066
      -11050.52      -9163.293      -12386.17      -12812.05      -2999.664
       6176.633       13142.46       21257.16       23279.12       18394.23
       11724.11       4176.115       3180.727       10564.85       15799.37
       11468.39       2715.949       1066.166       7010.047       9431.921
       5443.412       1316.969      -5265.555      -11121.12      -12075.26
      -10843.12      -8590.883      -11145.07      -15605.86      -14247.95
      -15196.80      -17644.89      -12288.73      -8506.612      -6904.913
      -579.7129       4976.297       8970.422       10877.46       10256.39
       9226.928       7684.893       3858.730      -5723.762      -17634.80
      -20824.92      -11482.21      -549.7454       936.7549       841.3281
       10009.17       17151.74       11752.14       4212.858       2054.080
      -113.8938      -2053.377       3821.344       13431.60       14250.90
