     0.02500000      -16762.48       27514.91      -12345.00      -12345.00
      -29.98999       251.9100      -50.19000      -12345.00      -12345.00
       0.000000       37.80000      -12345.00      -12345.00      -12345.00
      -12345.00      -12345.00      -12345.00      -12345.00      -12345.00
      -12345.00      -12345.00      -12345.00      -12345.00      -12345.00
      -12345.00      -12345.00      -12345.00      -12345.00      -12345.00
      -12345.00      -31.03680      -69.52500       1657.000       0.000000
      -31.23600      -65.83800       0.000000       167100.0       0.000000
      -12345.00      -12345.00      -12345.00      -12345.00      -12345.00
      -12345.00      -12345.00      -12345.00      -12345.00      -12345.00
       352.3000       272.6440       94.54160       3.167577      -12345.00
      -12345.00     0.02886593       0.000000       90.00000      -12345.00
      -12345.00      -12345.00      -12345.00      -12345.00      -12345.00
      -12345.00      -12345.00      -12345.00      -12345.00      -12345.00
      2008       318        11        13        20
       590         6    -12345    -12345     11277
    -12345    -12345    -12345    -12345    -12345
         1         7        13    -12345    -12345
    -12345    -12345    -12345    -12345    -12345
    -12345    -12345    -12345    -12345    -12345
    -12345    -12345    -12345    -12345    -12345
         1         1         1         1         1
NUEV    -12345          
        -12345  -12345  
-12345  -12345  -12345  
-12345  -12345  -12345  
-12345  -12345  -12345  
-12345  -12345  -12345  
-12345  -12345  BHN     
ZL      -12345  -12345  
[...]
       383.7583       894.5510       168.8073      -480.9467      -507.1653
      -671.3267      -673.1113      -869.2129      -1773.685      -1411.073
      -187.1674       130.5854      -172.9064       103.9383       239.7155
      -492.4805       88.03320       2569.840       3785.133       1355.261
      -1955.409      -2447.261      -1563.208      -1302.540      -1615.187
      -1468.531      -1091.725      -634.7274      -351.2636      -4.583618
       59.02246      -1503.429      -3152.540      -2425.988      -57.95850
       813.7361      -250.5457      -829.9875      -1064.454      -1460.519
      -1290.543      -562.6180       4.231934       734.3198       1208.516
       1278.912       1095.951       371.7988       44.52368       982.7305
       1678.554       888.2246      -1018.255      -2751.243      -1821.810
       742.3212       420.7427      -1458.348      -1976.626      -1072.992
      -103.7755       257.0315       779.5413       934.7385      -493.9829
      -1599.385      -1146.245      -314.0498       657.6497       1043.232
       595.3131       692.9978       231.3795      -427.6257      -490.7573
      -1163.038      -1694.150      -805.0150       467.4658       1083.658
       544.1202      -395.2878      -1103.291      -285.4766       1567.068
       1736.390      -266.6016      -3671.572      -5153.770      -2125.587
       1836.283       2700.720       196.0337      -1456.976      -373.7974
       911.5537       1841.385       3067.974       2874.824       1436.239
       681.4008       258.5327      -748.7397      -890.8730      -761.8506
      -1103.497      -772.3687       560.5801       2930.369       3840.662
       2157.677       168.1375      -1293.302      -1259.068      -1136.414
      -2008.077      -2044.517      -240.1567       1866.207       2046.662
       648.7725      -872.1217      -819.4741       435.8938       495.3374
       715.5745       521.4497      -783.3115      -795.4407      -168.8906
      -956.2344      -600.2080       1197.869       2055.628       2659.488
       2971.837       1749.093       962.5308       1282.621       463.7119
      -1503.042      -2258.078      -1037.469       642.9124       900.6057
       300.3049       13.94165      -393.1869      -448.9720       366.4888
       357.2788       883.4570       1932.993       1026.219       64.11023
       237.4806       501.2124       716.4585      -506.1882      -1446.468
      -237.0701       1270.423       814.2024       566.5557       1259.182
       887.6565       815.6375       855.5728      -731.6768      -1869.040
      -1170.583      -806.7871      -1629.216      -1585.889      -657.4006
      -69.02490       617.0811       1620.656       1542.210       985.6912
       989.5596       1102.789       404.8752      -122.3896       279.9089
      -377.7894      -776.5806       936.2297       975.2036      -707.9136
      -1711.008      -2335.213      -2532.453      -1903.986      -542.2168
       1314.287       2374.443       2178.239       620.6479      -1137.527
      -1454.147      -1033.418      -617.5850      -244.1272      -751.9456
      -899.7268      -507.8621      -599.9697       121.4135       768.4490
       142.2368       798.3691       1871.399       1263.622       192.2080
      -144.7646      -355.4897      -266.3918      -452.0698      -1243.255
      -1233.315      -293.1143       156.0815       1058.742       2480.578
       2292.340      -371.2061      -2569.002      -1966.874      -812.8735
      -19.06104       1117.956       1083.863       203.6699      -273.2675
      -634.5857      -508.0649       427.2646       197.8741       130.3096
       1408.716       1770.695       536.3013      -925.7037      -650.3408
       1239.735       2080.646       2220.484       2156.979       590.3867
      -1965.263      -2655.773      -1113.086       571.3223       1450.333
       1256.485       395.9907       522.1069       1001.812       1281.250
       791.4293      -148.7698      -219.3160       172.1436       550.9275
       727.1578       316.8641       131.0239      -136.7290      -793.8921
      -1531.135      -1164.482       197.7218       456.8420      -295.6426
       188.1309       1199.118       517.0658      -706.0972      -205.4894
       552.3228       414.7042       317.8027      -118.6419      -325.9639
       828.0767       1058.303       345.7665       129.7736       129.5612
       45.56293       314.1719       19.67285      -1337.798      -2238.931
      -1181.526       529.8113       724.3580      -290.5044      -409.3135
      -642.5918      -1939.587      -1482.382       226.3529       343.2964
      -637.9736      -1511.000      -1000.812      -36.23267       529.0547
       1742.743       2142.757       89.14545      -413.5293       1044.205
       1482.047       1314.391       934.2314       596.4590       430.0474
      -533.9260      -1190.307      -1009.385      -406.8640       673.6057
       1197.093       901.4409       625.6384      -521.0439      -2230.410
      -2944.370      -2486.404      -2267.626      -2358.675      -2405.069
      -2042.450      -1059.232       624.9521       2412.519       3398.757
       2297.471       564.8716      -639.0703      -2279.197      -2783.635
      -1331.388       735.8152       1647.956       436.4912      -1331.397
      -2237.298      -1594.599      -463.5303       672.9775       1590.893
       1914.761       1383.502       271.6429      -380.9334      -14.78625
      -358.4507      -518.4512       867.2861       1370.253       644.1182
      -218.1304      -1638.793      -2346.737      -2002.804      -965.0027
       296.4944       423.9437      -37.15771       645.0179       687.3472
      -1265.541      -3066.454      -1738.386       1462.973       2745.663
       2694.034       2594.479       1125.855      -419.8503      -1002.304
      -1157.421      -850.6910       49.60474       664.7265       484.0310
      -911.5000      -2076.210      -1588.223      -931.4097      -45.71533
       1020.196       393.5293      -640.5789      -1014.882      -636.5863
      -188.8276      -874.6816      -1035.969       352.4307       1079.744
       1008.730       516.2178       530.5164       767.3499       92.77734
      -648.6304      -1022.604      -1170.433      -630.8409      -309.5566
      -728.4785      -606.7891       64.75403      -111.3832      -488.2197
      -481.8062       408.4268       1626.768       2186.451       2240.248
       1711.180       1044.719      -134.5972      -1894.611      -2298.950
      -1500.984       387.6021       1466.582       245.1206      -1600.802
      -2407.576      -957.8433       1155.961       1156.416      -319.6071
      -916.5762       676.2148       2591.938       3570.296       2815.273
       925.2236      -496.1316      -976.9219      -1139.020      -663.9434
       456.4089       660.1196       1173.485       1735.476       477.4353
      -1139.065      -995.0625       1841.724       3020.038       202.7715
      -2044.507      -1243.448       328.1045       1799.646       1946.079
       380.0454      -826.4470      -1022.529      -217.1951       730.3042
       477.4409      -415.6141      -390.6323       1584.969       2964.929
       2733.198       1413.140      -171.3848      -1077.451      -1870.610
      -1955.904      -799.1895      -248.5325      -512.2418      -789.7582
      -347.5816       16.38367      -102.4478      -347.4729      -858.0344
      -1123.561      -494.6055       355.2686       504.9841       41.65717
       155.0961       597.2385       512.6799       606.4624       1928.970
       1613.367      -626.8696      -1465.974      -1191.359      -930.8164
      -847.8062      -1112.456      -564.9438       468.2903       1071.557
       490.5345      -220.0144       267.0294       305.2161      -906.2357
      -651.4131       1298.647       2469.067       1276.585      -158.2173
      -340.2322       71.15314       274.5530      -515.4585      -843.6970
      -566.7456      -1394.789      -1614.390      -567.1241       328.4233
       925.5078       1818.075       2066.746       1922.604       1110.354
      -359.8755      -1636.295      -2656.368      -1686.751       864.6185
       730.4248      -1264.542      -1828.229      -1414.441      -664.5769
       581.2890       545.8525      -748.9431      -929.1418       755.1660
       1864.940       1644.648       1071.345       133.2095      -1110.826
      -1426.050      -741.4387      -306.7245       115.0659       1522.656
       2294.319       1573.056       216.5054      -1158.930      -1302.083
       827.5723       2244.519       1261.319      -517.4282      -2335.435
      -2786.708      -1918.658      -1994.108      -1677.483      -368.5830
       437.9507       1549.086       3025.396       2670.517       1784.027
       1561.509       890.2653       103.6221       464.2361       1109.902
       596.3052      -600.7192      -1119.979      -877.9658      -1324.838
      -2275.768      -730.1318       1378.552       1446.987       660.4177
      -175.0837      -546.8643      -588.3674      -503.3217      -63.87820
      -122.4297       243.8372       785.7739       247.0259      -365.1929
      -890.7827      -1055.172      -456.6782      -1332.830      -2699.681
      -2902.703      -3145.584      -3831.598      -4246.666      -5101.287
      -6048.744      -7298.436      -9235.516      -10082.66      -7889.803
      -3988.099      -1932.525      -1531.440      -885.8684       34.46558
       1289.031       1014.707      -294.9430      -443.9399       699.2021
       2544.477       3573.573       2790.619       816.7756      -1161.683
      -829.9414       2770.438       6834.344       7178.907       5105.639
       3635.758       3012.700       2651.562       1116.779      -2075.023
      -5659.461      -8942.414      -10992.96      -11035.51      -8163.053
      -2219.879       5853.742       12778.68       15298.32       13240.38
       9718.645       6857.631       3250.369      -690.1177      -2096.358
      -1375.022      -255.8809       2431.488       7261.629       12557.41
       15962.85       13665.24       7426.499       1663.779      -4415.605
      -11248.50      -14589.97      -11770.42      -3538.411       5042.891
       9857.184       10499.54       5457.825      -259.4375      -1539.625
      -1919.152      -2881.443      -6146.164      -12735.38      -16762.48
      -11517.28       99.79688       8932.297       11021.85       9279.820
       8327.568       9239.771       6336.707      -2996.627      -10465.77
      -10185.87      -8080.283      -7983.834      -8184.024      -5224.892
       1435.998       5452.858       4056.060       2502.599       3291.211
       3910.241       4920.381       5672.567       2460.206      -2688.414
      -5471.103      -5601.091      -4110.676      -1564.373       325.3994
       2035.760       5248.506       8024.887       5016.172      -2365.451
      -8583.527      -13652.66      -14737.10      -6241.441       7655.863
       16862.19       15941.02       9406.781       5994.660       6869.030
       5114.699      -3214.809      -11426.32      -11043.10      -6872.544
      -4952.750      -3395.339      -1208.821      -460.7642      -1738.403
      -375.4473       6535.254       12159.14       7930.007      -1734.918
      -9041.287      -10273.54      -2654.059       6582.145       9439.639
       9581.305       9027.871       576.8789      -12016.00      -15248.51
      -5010.475       8751.346       11610.54       465.9922      -11538.58
      -13462.93      -8652.354      -2347.562       1860.592       8.506104
      -2062.771       2761.555       7617.473       8325.184       8109.020
       4356.543      -1924.357      -5411.874      -6198.629      -2556.322
       5687.029       9442.021       4454.881      -3730.910      -7437.624
      -5746.575      -3850.514      -1143.440       131.5605      -6628.391
      -12103.58      -4672.936       8522.748       13425.33       5768.652
      -1549.488       1128.767       3354.818      -2366.486      -7637.791
      -7935.195      -7771.960      -5828.712      -1756.659       1212.656
       2437.345       254.2524      -1220.031       4815.574       12779.70
       13186.03       8762.204       4647.638       748.1782      -682.7246
      -3615.859      -11693.01      -15701.00      -10650.75      -3090.746
      -525.9814      -2739.200      -3236.653      -1296.016       1055.508
       5413.417       5641.145       763.9072      -850.2705      -1413.530
      -2258.838      -1163.133       452.5225       3452.727       5048.548
       2310.642      -2410.547      -7609.047      -10706.98      -8329.477
      -3546.742      -3433.471      -8401.936      -9143.893      -1826.234
       9650.711       22220.00       27514.91       24349.37       17799.59
       7899.104       1289.797       1747.928       614.2266      -4454.838
      -8318.438      -11302.60      -12560.91      -9295.875      -5788.979
      -5147.920      -4853.642      -4685.241      -1275.178       3890.650
       3975.597      -1788.018      -5977.194      -482.0625       8239.619
       11029.17       7578.173       1219.859      -5795.395      -9785.658
      -6494.150      -2329.255      -4595.929      -6321.956      -1958.476
       1875.545       1822.592       3150.438       9346.082       14854.11
       15524.04       11496.50       3982.008      -3390.742      -6407.062
      -4320.228      -2642.206      -2700.988      -2637.754      -2093.876
      -2953.869      -6231.195      -6691.701      -3614.634      -353.5098
       2600.238       3154.846       267.7335      -1007.624       1173.977
       3226.638       3769.760       4748.303       4202.195       543.3643
      -1310.531      -2138.384      -3830.797      -3981.502      -1690.609
       3736.758       7373.118       2663.375      -4144.670      -4349.674
      -1568.772       483.8555       2593.861       4073.261       4787.402
       6616.762       7547.659       4448.934       1184.540       1351.342
       5218.393       7743.854       1030.729      -8918.684      -12911.46
      -11530.70      -6173.873      -1047.129       324.6152       1897.566
       4762.594       4805.407       2052.610      -46.08691      -2095.008
      -3832.576      -2464.032      -876.2578      -3373.531      -6486.506
      -5404.435      -775.1250       6481.039       11127.68       8722.365
       4909.364       2236.679      -250.5244      -2137.219      -4176.379
      -7576.693      -8976.302      -4745.408      -1962.107      -3085.680
      -492.7139       4371.857       5977.674       6338.865       5915.372
       3747.357       3854.301       7863.625       12000.21       8820.274
       132.7402      -4591.465      -6254.088      -8337.941      -10274.01
      -11153.03      -7674.153      -437.6543       4008.156       5844.539
       7294.172       6426.789       6900.504       10599.79       11772.14
       8604.394       5710.115       4767.684       4863.331       2141.545
      -5937.055      -11103.29      -9053.682      -5327.551      -3354.672
      -4532.736      -6027.586      -5271.922      -4268.491      -1843.062
      -1907.186      -7142.037      -11065.75      -10163.45      -5810.723
      -2837.201      -682.2422       3973.781       9854.492       11180.42
       6448.075       2701.481       902.7598      -1338.276      -1647.625
      -1482.518      -4226.162      -6309.822      -4049.769      -612.6094
       1467.733       2946.685       2046.965      -313.5679       514.3438
       3203.438       3936.080       986.3496      -3987.180      -5807.055
      -2939.146       126.6484       913.1108       1008.621       3859.430
       7775.457       5189.395      -1233.330      -4062.479      -4569.680
      -3554.399      -2763.820      -5763.449      -9121.014      -6768.833
      -64.12793       4584.936       5193.637       4303.036       2935.594
       437.9629      -2025.969      -2717.688      -855.2808       1154.125
       2511.821       2047.035      -2607.133      -6430.886      -5958.602
      -1283.156       3588.890       2971.044       404.1802       731.5208
       1686.065       342.1567      -1209.733      -640.9518       504.0029
       811.3508       508.5640      -542.4644      -1138.296      -1629.610
      -3331.130      -3331.017      -273.1895       3385.521       5861.066
       6939.780       5770.478       3661.561       1567.520      -978.6455
      -3513.279      -4727.856      -4978.154      -6067.865      -6956.254
      -6694.865      -3491.124       1689.030       4217.250       3670.901
       3144.074       2556.550       951.3291      -1415.955      -3944.732
      -2934.394       1441.381       3297.328       1435.293      -519.2734
      -1520.091      -2231.314      -1685.666       379.5747       1521.974
       1439.699       1106.933       783.4490       271.0962       911.9106
       786.9531      -2924.991      -5343.294      -4516.316      -3488.525
      -3893.887      -5652.669      -6088.980      -3264.163      -635.9346
      -1153.727      -3372.865      -4564.200      -2318.112       1831.619
       4172.857       4195.622       3124.129       2733.509       3718.150
       4021.919       4373.385       2842.079      -1481.602      -3707.236
      -3308.277      -1711.292       778.7480       2745.879       3267.015
       2882.321       2197.856       1140.469       895.9961       2148.700
       1780.150      -1015.879      -2512.553      -2793.479      -2702.441
      -672.3076       1807.979       2641.135       2421.033       1801.146
       1124.854       30.57178      -1626.329      -2097.107      -588.2405
       1038.666       27.65820      -2980.551      -3797.002      -2805.580
      -3446.831      -4004.893      -2815.886      -835.6421       1367.319
       1633.635       519.5623       574.1541       996.1348       1448.773
       3739.020       6626.975       6097.413       3241.453       1889.551
       1274.767       300.7832       1638.712       4113.586       2311.784
      -408.1899       90.91406       1442.804       1897.544       867.8433
       723.9512       1670.968       2301.897       2388.706       1928.612
       2080.991       1099.014       284.2935       2057.560       3612.502
