     0.02500000      -18838.42       26383.46      -12345.00      -12345.00
      -29.98999       251.9100      -50.19000      -12345.00      -12345.00
       0.000000       37.80000      -12345.00      -12345.00      -12345.00
      -12345.00      -12345.00      -12345.00      -12345.00      -12345.00
      -12345.00      -12345.00      -12345.00      -12345.00      -12345.00
      -12345.00      -12345.00      -12345.00      -12345.00      -12345.00
      -12345.00      -31.03680      -69.52500       1657.000       0.000000
      -31.23600      -65.83800       0.000000       167100.0       0.000000
      -12345.00      -12345.00      -12345.00      -12345.00      -12345.00
      -12345.00      -12345.00      -12345.00      -12345.00      -12345.00
       352.3000       272.6440       94.54160       3.167577      -12345.00
      -12345.00     -0.4290097       90.00000       90.00000      -12345.00
      -12345.00      -12345.00      -12345.00      -12345.00      -12345.00
      -12345.00      -12345.00      -12345.00      -12345.00      -12345.00
      2008       318        11        13        20
       590         6    -12345    -12345     11277
    -12345    -12345    -12345    -12345    -12345
         1         7        13    -12345    -12345
    -12345    -12345    -12345    -12345    -12345
    -12345    -12345    -12345    -12345    -12345
    -12345    -12345    -12345    -12345    -12345
         1         1         1         1         1
NUEV    -12345          
        -12345  -12345  
-12345  -12345  -12345  
-12345  -12345  -12345  
-12345  -12345  -12345  
-12345  -12345  -12345  
-12345  -12345  BHE     
ZL      -12345  -12345  
[...]
       138.5506       139.4611       131.1114       136.5060       131.9763
       125.8965       117.3990       110.7189       96.61401       86.15720
       79.15047       77.38829       61.50102       53.92918       50.99510
       46.10480       33.74604       23.46156      -6.619316      -14.90495
      -15.46205      -35.09142      -50.94731      -54.81863      -71.18843
      -81.18863      -86.08527      -81.24805      -98.10068      -107.1642
      -113.9678      -121.4744      -132.2222      -128.3434      -136.5611
      -135.9171      -137.0258      -135.8184      -152.4515      -151.2039
      -152.4516      -146.6026      -155.5267      -155.1422      -153.0063
      -138.4442      -136.3218      -123.7648      -113.8610      -106.2550
      -113.1685      -105.6537      -99.67703      -88.33913      -83.75986
      -74.45827      -73.19797      -60.25243      -50.50598      -35.01384
      -33.40200      -12.23442       2.951336       12.78557       33.37500
       46.62701       43.87750       64.15186       74.75568       93.06256
       101.6652       114.4749       128.5690       148.4244       149.4908
       156.5800       180.0576       195.4481       202.2371       219.9285
       224.8723       245.6295       255.6726       264.4061       261.6722
       269.1047       279.7272       292.7129       291.5385       312.1679
       331.8052       338.9202       333.5056       348.5602       353.8501
       361.5576       358.7367       368.9628       382.2463       388.6824
       384.8828       394.9968       402.3876       406.4915       404.5624
       401.2334       403.8806       409.4229       396.3633       396.0522
       416.3993       415.3447       403.6411       405.6460       405.7454
       402.3594       397.1713       388.0344       378.9552       369.3525
       358.8748       352.6875       345.1699       336.7779       343.8002
       329.8286       317.4876       315.4452       294.3783       270.9117
       264.6636       255.8151       244.9060       237.8389       222.8339
       210.8699       195.8946       181.0607       179.9544       164.4293
       143.2862       139.5214       118.5031       100.0083       98.55988
       88.36307       77.43295       72.12845       66.33658       47.17595
       21.40296       17.03779       10.92088       2.595188      -5.986313
      -6.902115      -21.94150      -28.60557      -29.38658      -37.73578
      -42.82071      -34.50716      -51.74313      -57.71844      -63.32715
      -68.60545      -77.00908      -80.67142      -85.94754      -87.95917
      -87.78033      -90.37164      -97.33307      -99.47418      -115.4158
      -117.9176      -120.3950      -124.4769      -128.8270      -123.8791
      -129.7634      -137.1433      -136.4717      -144.1702      -156.2934
      -143.0896      -142.9975      -151.6936      -150.8224      -151.6203
      -150.8999      -143.0532      -149.2494      -147.5487      -150.4879
      -149.1332      -154.2601      -154.8581      -147.7134      -150.7679
      -156.7948      -146.9861      -159.3417      -156.8664      -154.6470
      -166.6010      -168.8618      -169.1945      -182.2349      -184.3115
      -194.9252      -211.0405      -210.8665      -213.8848      -239.9089
      -231.9622      -223.9297      -242.5200      -256.1127      -263.3251
      -277.8168      -289.3556      -304.1203      -302.2732      -311.0195
      -318.5589      -320.2523      -327.5278      -337.4490      -332.8711
      -341.9866      -350.0503      -352.5812      -355.2170      -353.8071
      -347.5278      -362.1464      -355.0629      -350.7173      -352.9435
      -351.3821      -359.2502      -352.8635      -347.4049      -347.9704
      -334.0226      -331.0498      -340.5935      -338.0564      -329.4335
      -324.5714      -317.3229      -306.4869      -291.8500      -291.0909
      -282.9830      -272.9287      -271.4310      -264.7305      -255.5373
      -250.9034      -244.6923      -228.6664      -223.0393      -230.4290
      -214.6833      -207.2050      -192.7088      -172.3205      -162.1766
      -160.8918      -149.7333      -131.5430      -127.8155      -127.9563
      -104.9061      -107.2921      -98.57346      -84.12003      -84.45059
      -79.12097      -59.97833      -58.51001      -46.61698      -39.80934
      -30.18407      -19.31957      -9.224392      -7.829914       7.414246
       23.91841       36.57664       44.31711       63.08095       64.34355
       77.78656       80.37585       92.28064       105.4897       115.5310
       131.4181       141.0830       140.5234       157.9406       159.7606
       163.9728       168.5293       183.3814       182.2562       195.6295
       204.6746       209.7050       203.5421       209.8761       204.0571
       205.0365       202.3938       214.4528       222.2744       211.5286
       210.5229       232.8036       216.8600       206.0325       206.4427
       206.2747       201.3234       202.9459       193.6270       184.1082
       171.0153       174.7989       173.4939       166.4616       161.1411
       157.6336       138.8767       136.7548       132.5222       115.8667
       109.9592       115.2654       97.54651       90.78625       92.16774
       81.59149       74.33865       69.59036       56.30363       44.84270
       29.25388       20.60831       12.35921       2.315186      -6.376593
      -7.480591      -10.41626      -18.65961      -24.22871      -30.83240
      -47.92538      -52.32965      -65.01967      -76.76569      -85.31973
      -101.7881      -94.08298      -90.40253      -105.3729      -104.6677
      -115.8006      -121.9551      -120.2820      -131.7115      -133.2689
      -126.7326      -134.3598      -140.8888      -139.4611      -137.9136
      -133.6141      -126.0176      -127.7837      -118.6568      -118.1067
      -118.9881      -113.2271      -109.7246      -105.7521      -93.62360
      -89.94006      -89.81233      -73.75128      -69.39798      -65.89187
      -39.94449      -34.73058      -37.07597      -20.23090      -1.942544
     -0.9911480       6.166397       18.89212       38.85934       54.41840
       69.51666       81.60162       100.4984       104.0090       116.2813
       131.6599       139.2929       147.9357       158.1293       166.3508
       189.2125       201.7198       219.3563       237.1284       246.2513
       248.6931       256.2556       262.9224       278.4667       287.6649
       292.4140       296.7246       316.4111       324.3501       318.7136
       328.8339       339.9339       331.1414       335.2401       345.4088
       348.6333       352.4167       361.6045       364.2461       371.5977
       380.1716       382.5115       380.8594       387.4376       379.3816
       373.6366       380.4553       379.6672       383.7614       389.4492
       393.0629       402.1328       395.2665       394.6243       392.3643
       389.4686       383.6763       379.1599       376.9969       375.4417
       367.3690       365.6681       364.5876       361.2413       350.0309
       354.1583       345.5952       328.4276       321.8097       319.2568
       308.7590       303.3845       292.1340       288.7504       274.9155
       262.6883       246.0500       227.6788       220.2014       217.7173
       204.6158       192.3269       177.5802       162.2087       150.0717
       139.1543       115.6670       103.6044       94.08398       78.70511
       70.91614       56.88000       35.97980       23.59484       15.26350
       8.133507      -14.07897      -28.12524      -45.46982      -72.01788
      -94.19110      -101.7304      -110.3026      -121.0146      -130.2874
      -136.9393      -148.5601      -160.5475      -179.5300      -201.2228
      -218.1698      -224.2906      -239.1804      -250.5652      -265.1257
      -274.4000      -278.2213      -293.6786      -307.1066      -315.4816
      -322.1733      -323.3596      -328.1897      -337.9480      -336.5122
      -351.2324      -345.5489      -335.1648      -346.2083      -354.3325
      -351.1760      -349.9006      -360.6315      -367.4257      -365.3213
      -367.4860      -367.1589      -362.2091      -364.7228      -365.2615
      -357.3140      -361.2612      -360.2495      -353.8354      -356.8882
      -348.0256      -349.8975      -352.2599      -341.8469      -340.9218
      -332.7147      -330.3705      -338.4418      -324.9065      -313.2423
      -318.4348      -301.4207      -301.5713      -309.1243      -297.3226
      -297.4092      -284.7045      -266.3054      -272.0934      -260.9283
      -245.2861      -245.1257      -234.5956      -226.3964      -232.6930
      -229.1042      -224.5899      -212.1526      -201.4202      -203.2751
      -201.5632      -192.2059      -194.5721      -194.6885      -191.1107
      -189.9645      -192.6718      -185.7227      -192.6116      -193.2540
      -198.3596      -188.6558      -202.0064      -201.1154      -190.7407
      -199.4269      -205.1878      -184.6421      -198.4639      -206.3411
      -209.0965      -211.6389      -215.4969      -216.5603      -228.5538
      -216.7825      -223.7150      -227.9819      -218.6983      -204.0424
      -220.0518      -232.6038      -228.6443      -221.0109      -238.8722
      -224.4414      -221.2089      -230.2679      -226.3544      -219.1841
      -226.7342      -224.0587      -226.3702      -217.4367      -217.3391
      -214.0948      -210.1132      -206.3452      -220.3279      -215.9846
      -213.2462      -211.7181      -207.9543      -192.1936      -197.6873
      -187.1041      -181.4680      -167.8908      -155.6004      -151.5978
      -151.0404      -142.7141      -149.0197      -132.2611      -120.1468
      -115.5309      -108.7150      -102.6813      -102.2411      -87.52341
      -81.41281      -67.61038      -67.51599      -57.19577      -49.25266
      -39.09805      -40.74757      -29.50502      -27.45048      -10.53228
      -14.29521      -8.776215       2.579666       12.39857       8.417915
       27.29881       20.83497       22.24208       42.88528       52.05164
       46.11244       65.41006       64.22842       71.24066       78.70935
       92.77136       90.32953       111.2399       110.8150       120.8467
       131.6337       140.8810       147.0856       167.3242       172.8147
       191.6656       198.8398       212.9483       216.3461       233.9815
       232.4005       253.9263       252.3376       264.7882       279.9171
       294.5725       287.0930       300.5447       296.6760       312.6902
       322.0063       346.1404       350.1965       367.1908       363.9851
       372.5524       379.1069       400.7721       402.4961       422.9275
       424.7264       443.3619       446.1793       460.4175       466.1515
       475.8503       467.9935       493.8672       500.8590       511.0889
       521.2947       543.1318       527.3717       535.3118       541.4639
       554.2966       556.4728       573.7202       562.2678       566.4823
       566.9177       584.7908       576.4855       578.2437       576.4119
       586.6002       570.9888       576.8379       557.5647       561.2313
       548.0481       550.8044       544.2483       543.0112       523.3579
       533.3385       508.0526       510.7971       495.0564       496.0436
       487.1835       490.7058       463.0999       459.0295       442.7523
       430.6639       410.9281       423.1655       395.8027       401.5249
       387.4896       374.0122       361.1133       352.8076       329.8208
       342.6331       320.0569       321.1315       306.9502       296.6947
       283.9650       276.7353       238.4291       244.5333       225.0572
       203.2151       181.7145       183.8375       159.5671       157.1458
       133.8012       130.7100       115.2457       105.6186       71.25653
       63.72456       45.68970       39.42405       14.68159       8.553570
      -7.406483      -5.128510      -31.28970      -35.09000      -44.99686
      -53.85913      -78.52411      -69.69424      -85.13391      -89.05856
      -100.4154      -100.1334      -124.2613      -120.1542      -133.0863
      -129.0856      -149.8716      -142.4132      -154.2480      -157.5181
      -181.0880      -200.9525      -275.2195      -387.3496      -613.6472
      -901.9800      -1299.736      -1810.607      -2484.145      -3035.067
      -3001.890      -2496.966      -2414.709      -2636.921      -2280.178
      -1069.009       601.4380       1608.407       845.2993      -342.0459
      -911.4584      -800.3840       314.0808      -247.7949      -3170.707
      -3464.790      -2529.738      -4112.883      -4482.502      -3848.223
      -7419.629      -8769.914      -1718.393       3704.020       6657.680
       17280.22       26383.46       21282.01       8720.309      -1913.473
      -9170.309      -9437.670      -3075.461      -791.8457      -5127.245
      -5540.556      -685.2334       3683.234       4782.115      -3625.527
      -13636.09      -6870.035       5302.434       8027.734       10658.50
       11458.53       1501.289      -13391.85      -18838.42      -9628.375
      -3032.563      -2676.824       5545.887       12956.54       10262.21
       6612.617      -1220.352      -13181.15      -9657.562       4926.405
       6862.711      -2012.566      -8155.092      -7983.414      -5822.472
      -5646.561      -3676.288       1179.996       2002.119       823.9727
       2271.549       4246.469       4686.403      -381.2334      -6095.131
      -2205.832       4641.391       7350.184       7264.590       1846.272
      -4294.439      -4181.301      -1917.347       238.2793       3018.285
       4537.833       3297.430      -369.3613      -4462.756      -9086.434
      -12804.88      -9553.371      -1695.648       5250.102       10983.12
       11046.14       7643.630       6035.041       1704.078      -2916.754
      -3751.238      -1760.050      -1368.631      -5174.250      -6803.140
      -3760.337       1635.475       7496.492       8059.359       2652.186
      -1772.087      -3013.324      -4517.151      -5198.881      -4242.319
      -4005.338      -863.2563       3457.863       436.7231      -3194.813
      -1775.889       1643.417       5322.840       4519.521       1218.543
      -1179.316      -5028.661      -4915.149       257.7744       60.49561
      -3338.789       416.4023       4691.776       2419.593      -93.03906
       1017.335       2745.502       2735.749      -90.78296      -1872.995
      -304.9634      -145.7310      -1871.707       247.8750       5427.068
       6902.876       5259.759       1811.302      -2503.096      -1505.448
      -105.4014      -2426.938      -3502.103      -2125.102       811.7148
       3405.975       4479.822       4044.273       772.5195      -5044.158
      -9276.014      -8439.440      -5212.771      -1031.288       2586.003
       2367.848      -329.4648      -2059.823      -2464.332      -1699.307
       144.1807       2116.050       2661.514       1013.084       812.6846
       2582.893       1318.079      -486.2354      -633.5464       200.0430
       3554.623       5879.280       3587.415      -1008.507      -4243.141
      -2292.533       2702.075       4530.290       2755.791       2704.701
       3543.000       2419.716       2664.319       2745.342      -3211.225
      -8101.289      -4096.887      -916.3154      -2591.505      -1660.486
      -267.4365      -2271.768      -4328.783      -2982.045      -400.5527
       624.5913       1479.363       3363.041       3800.582       2549.054
       2116.971       2761.778       2816.310       1404.169      -1333.314
      -3285.456      -2693.158       525.6436       3487.417       3859.011
       3167.325       1715.273       333.7183      -138.5527      -824.4998
      -493.4546       843.2045       1097.567      -357.4875      -1006.215
      -305.4712       113.7925      -665.3584      -1732.864      -2029.628
      -1264.309       438.4919       1167.546      -210.5869      -2080.740
      -2209.725      -840.5087       44.81592       1729.587       3080.138
       3032.796       2441.396       1283.676       382.4875      -612.2556
      -1255.931       144.6895       1460.438       1233.221       67.97601
      -819.1509       832.7969       3739.595       4144.605       3692.131
       2891.503      -198.3257      -1954.846      -120.0122       1237.550
       1891.452       2785.584       2953.098       1699.840       242.8994
       1475.513       1645.360      -885.4248      -1970.766      -2835.359
      -4637.436      -6175.381      -6577.756      -3343.291       735.4066
       164.5342      -647.6011       511.9961       1669.021       3387.180
       5106.103       5142.585       1772.670      -1397.435      -427.8277
       259.1707      -174.1572      -957.3975      -3035.175      -2865.409
      -464.4124       704.1738       1158.257       701.6157      -703.7034
      -519.3018       1566.324       3153.088       4388.942       3050.081
      -1956.843      -5269.251      -3285.593       802.9883       2189.481
       1089.231       259.3699      -484.0234      -392.9946       1942.776
       2994.548       1081.400       629.2483       444.0234       203.0146
       1001.129       429.8735      -1131.588      -1741.092      -1915.901
      -2319.028      -1657.031       322.8695       650.9043      -1253.191
      -2037.569      -862.0205      -524.0537      -1895.726      -2062.643
      -293.2511       199.0194       1.622314      -749.1451      -476.3110
       424.1696      -379.2368      -258.7939       942.2773       2345.650
       4458.947       4115.067       2640.803       2511.925       843.2676
      -2666.641      -5035.368      -3269.649      -204.7039      -313.9233
      -858.6569      -695.1504       615.7297       1648.939       651.0028
      -691.3843      -222.0431       829.9033      -1699.062      -4193.889
      -2012.340       1008.460       1408.983      -424.8677      -1026.247
      -1454.625      -3124.268      -2143.379       773.4360       1415.660
       933.9613       929.0786      -213.6328      -1967.921      -1356.707
       99.10962       695.9910       342.0981      -1019.049      -193.9033
       1250.585      -1757.475      -4494.055      -3475.093      -2620.867
