     0.02500000      -63605.89       44956.77      -12345.00      -12345.00
      -29.98999       251.9100      -50.19000      -12345.00      -12345.00
       0.000000       37.80000      -12345.00      -12345.00      -12345.00
      -12345.00      -12345.00      -12345.00      -12345.00      -12345.00
      -12345.00      -12345.00      -12345.00      -12345.00      -12345.00
      -12345.00      -12345.00      -12345.00      -12345.00      -12345.00
      -12345.00      -31.03680      -69.52500       1657.000       0.000000
      -31.23600      -65.83800       0.000000       167100.0       0.000000
      -12345.00      -12345.00      -12345.00      -12345.00      -12345.00
      -12345.00      -12345.00      -12345.00      -12345.00      -12345.00
       352.3000       272.6440       94.54160       3.167577      -12345.00
      -12345.00     0.01807712       0.000000       0.000000      -12345.00
      -12345.00      -12345.00      -12345.00      -12345.00      -12345.00
      -12345.00      -12345.00      -12345.00      -12345.00      -12345.00
      2008       318        11        13        20
       590         6    -12345    -12345     11277
    -12345    -12345    -12345    -12345    -12345
         1         7        13    -12345    -12345
    -12345    -12345    -12345    -12345    -12345
    -12345    -12345    -12345    -12345    -12345
    -12345    -12345    -12345    -12345    -12345
         1         1         1         1         1
NUEV    -12345          
        -12345  -12345  
-12345  -12345  -12345  
-12345  -12345  -12345  
-12345  -12345  -12345  
-12345  -12345  -12345  
-12345  -12345  BHZ     
ZL      -12345  -12345  
[...]
       40.59451       46.56721       58.96567       62.20920       69.52127
       80.01379       91.91833       100.2291       105.6873       116.2870
       124.6776       131.2991       134.7053       139.4024       146.1822
       147.0099       150.3387       160.0329       165.6061       173.4665
       175.2512       182.9915       186.6949       185.0312       187.7491
       190.4528       190.2430       195.0522       199.9304       202.7593
       210.4590       210.4395       200.6805       203.4741       200.7825
       190.3748       186.2381       189.1030       193.8263       194.1642
       201.8944       206.5882       204.0959       203.4590       200.0380
       201.7053       196.5004       186.1230       187.0109       183.5463
       185.2490       180.2315       176.0927       166.2768       161.5781
       156.7037       150.0953       146.6812       145.4743       133.4312
       118.9769       104.5374       97.43417       79.59677       65.92505
       64.86665       52.85239       45.21901       37.19903       18.64594
       17.70287       6.061188      -9.852325      -16.76377      -30.85681
      -44.25255      -57.03500      -75.55792      -88.15750      -97.72556
      -104.4360      -106.1568      -121.7933      -133.8270      -136.4436
      -150.6155      -157.2783      -160.2085      -167.4855      -171.1396
      -175.3653      -182.1059      -193.9960      -200.7660      -204.9231
      -207.9844      -208.1532      -208.0377      -211.0576      -211.0544
      -214.6611      -209.4893      -207.7852      -210.7094      -205.5096
      -198.1991      -203.5391      -197.3474      -195.9557      -198.2502
      -194.4734      -187.5438      -191.0576      -186.1813      -194.8857
      -190.3967      -185.9892      -179.1845      -173.6119      -169.6171
      -166.5201      -155.2414      -156.3888      -158.5503      -163.0142
      -165.7378      -168.5027      -159.3743      -156.6874      -141.7498
      -136.5768      -136.4681      -136.2101      -131.5227      -137.3756
      -133.4360      -128.9967      -124.1405      -125.8337      -118.7948
      -124.8279      -120.7027      -109.7140      -101.8204      -102.2720
      -97.12964      -94.23442      -82.96802      -90.09689      -83.31946
      -70.60106      -57.85477      -50.68573      -40.17979      -37.91940
      -27.91447      -31.66658      -22.01151      -12.96258      -4.007071
      -5.899654       9.827515       13.72305       28.14070       37.43565
       42.50490       50.29625       70.67908       68.19745       81.65341
       86.03070       91.24249       94.06256       107.5783       114.4304
       125.5458       129.2852       146.0589       146.3176       153.5972
       156.9360       168.7317       181.2206       198.6570       202.3909
       210.0607       211.7780       220.7651       230.6724       243.5139
       250.2773       265.4226       269.3360       288.4845       299.5375
       311.1720       312.6537       320.1472       327.3289       332.4314
       331.7637       355.8956       356.2269       367.7791       383.5546
       386.6636       389.7297       399.5676       394.9501       408.6176
       409.8212       410.5885       416.3383       424.0846       423.3400
       432.2411       433.7520       441.5024       439.7389       446.0679
       441.0420       440.0834       435.9344       436.8975       435.9878
       439.2494       436.4879       441.7026       431.6534       434.2078
       434.4435       437.3193       433.9907       436.6021       426.0209
       419.3597       400.2961       402.3104       394.3831       384.6096
       378.1167       382.4578       369.8833       370.5160       362.4225
       359.5544       351.0483       350.7997       338.0154       335.3953
       320.0161       316.5234       307.1005       304.7722       290.2051
       288.5385       280.3008       282.2839       271.7101       276.2164
       266.1600       258.2614       249.8568       244.6227       228.5626
       228.3306       217.8354       215.7714       201.2097       199.3885
       192.9044       179.9891       164.1855       153.3966       129.6428
       125.1817       108.5504       92.75418       74.98221       60.81573
       42.72166       29.55989       4.840359      -5.465057      -24.51276
      -36.17755      -61.33670      -74.50378      -90.96747      -97.90573
      -111.2846      -128.3135      -141.5662      -146.6671      -166.7465
      -169.9175      -180.3950      -188.0521      -201.9557      -214.5212
      -228.3992      -219.7140      -220.0141      -219.6340      -224.9992
      -222.4774      -220.6784      -212.7034      -226.2380      -223.2369
      -224.5630      -212.7370      -218.8314      -214.9908      -219.1135
      -216.6707      -223.3012      -221.7084      -230.0839      -218.1733
      -219.8746      -212.1934      -217.7938      -211.5908      -218.8544
      -222.3701      -226.8326      -215.7693      -220.0231      -217.9152
      -227.1929      -222.7869      -237.3878      -239.2590      -244.3694
      -245.6670      -262.1516      -258.4865      -270.3422      -268.3794
      -274.4396      -273.3119      -280.9479      -290.7937      -312.3147
      -309.0326      -318.0984      -322.8123      -328.5247      -331.4678
      -343.3829      -355.0294      -365.9531      -365.0391      -381.8752
      -387.1941      -400.3645      -397.8931      -407.4067      -416.0275
      -435.4492      -442.6021      -459.0289      -466.3280      -479.6528
      -483.9490      -492.5723      -489.8485      -518.6956      -522.1997
      -533.0146      -551.4954      -574.9299      -581.7850      -602.2102
      -605.6593      -622.7838      -630.1692      -648.0176      -661.6277
      -688.4448      -701.5867      -729.1333      -732.6709      -740.1719
      -744.1853      -756.6543      -762.1064      -790.3328      -789.6387
      -801.8789      -800.4304      -806.7969      -809.5132      -824.7683
      -814.4329      -822.8628      -817.2332      -819.6821      -811.3303
      -820.2781      -813.8787      -812.4844      -791.9839      -785.4727
      -773.3752      -767.3687      -753.1902      -748.7383      -724.3267
      -711.7639      -693.1248      -681.0681      -651.4929      -641.0134
      -618.0640      -599.0630      -574.5054      -559.7538      -529.6925
      -506.4902      -477.5627      -462.1477      -432.4072      -410.9360
      -376.5427      -349.3329      -309.0753      -289.4000      -261.0252
      -234.0945      -195.8605      -172.6827      -142.8608      -117.7966
      -81.40475      -60.91587      -26.73640      0.6019440       30.77971
       58.91113       94.31094       118.8741       155.0710       182.5094
       218.7140       242.4778       266.4230       290.5096       321.2141
       334.9019       372.5645       393.3694       423.8943       445.1584
       476.1472       492.3000       514.8757       524.6262       547.0881
       565.1251       581.5327       594.4061       619.8159       626.0741
       646.6318       662.9824       679.6121       678.7903       700.0039
       714.8662       727.6292       733.1338       752.4648       763.1311
       784.9917       794.2139       810.6709       817.3711       826.8420
       824.3257       837.4297       844.3547       860.8474       869.0144
       882.9119       883.2178       899.9492       904.1023       907.0776
       897.6523       900.5986       907.9346       914.9468       914.2729
       919.7993       918.5391       921.2949       915.4597       916.0305
       907.1904       913.6428       905.3594       903.2092       903.9785
       904.4253       897.1267       898.6089       888.1187       886.4409
       877.6421       877.8125       862.9084       861.8457       846.3074
       837.5933       829.5620       832.7622       816.7466       801.4536
       787.4429       787.9622       772.2852       764.6655       746.4915
       734.4849       717.3259       700.4266       680.2847       680.0376
       659.3593       647.9324       635.9279       618.6812       598.7786
       580.1602       553.4728       550.8027       533.9886       518.1921
       501.2427       490.5260       467.9412       438.2932       411.0598
       405.5679       383.0713       367.9435       350.4879       331.6482
       305.7668       295.5693       272.6089       255.0944       226.8732
       206.5095       187.3747       169.7452       145.5255       139.6321
       119.5163       99.64256       80.47078       66.23967       46.49393
       32.03923       12.22001      -2.231522      -19.02168      -27.06183
      -44.98538      -58.48611      -77.79684      -93.45572      -110.8606
      -125.2968      -138.2866      -147.7249      -172.8492      -181.2830
      -192.4810      -213.8080      -235.8551      -241.3888      -261.5676
      -284.8570      -298.5269      -308.8267      -330.1841      -336.3704
      -359.0601      -380.1799      -403.1636      -423.4166      -444.3549
      -459.7722      -482.0303      -497.6167      -516.8102      -527.8579
      -542.7184      -557.0146      -579.1948      -600.7900      -613.5229
      -624.5542      -651.6348      -662.2393      -684.0359      -705.6633
      -717.5134      -733.2070      -753.0610      -762.4238      -777.6577
      -794.7607      -814.5488      -825.3352      -846.4751      -864.8066
      -878.3071      -893.4890      -902.2197      -913.9736      -935.6348
      -945.4858      -962.8137      -981.1897      -997.0381      -1009.815
      -1015.088      -1029.588      -1041.812      -1041.669      -1050.748
      -1052.486      -1058.241      -1069.713      -1073.618      -1076.464
      -1071.540      -1056.956      -1052.285      -1050.444      -1059.128
      -1054.361      -1038.051      -1032.360      -1024.830      -1013.897
      -1009.312      -992.8062      -982.7871      -975.1318      -966.8411
      -958.1184      -945.0100      -911.9875      -892.6453      -878.2114
      -854.9409      -843.3970      -832.1892      -813.8325      -796.8152
      -768.2935      -741.8040      -722.5120      -703.3724      -679.9333
      -650.8456      -632.4946      -603.0754      -569.5588      -547.8356
      -517.8439      -488.4723      -462.7662      -429.9819      -399.8241
      -382.0037      -358.2209      -327.2528      -299.3245      -267.5229
      -235.9409      -213.3276      -181.6507      -148.2729      -122.1579
      -85.82681      -47.01897      -12.26028       21.87988       44.16071
       71.11725       96.81821       112.5800       149.0695       183.6911
       200.8977       226.9257       254.0673       281.0536       309.2556
       329.5919       364.0010       385.0229       395.5208       421.4995
       444.4673       467.9062       495.4585       512.6541       534.6289
       549.9905       573.1150       593.9442       610.3708       627.5200
       649.0558       665.1001       679.5447       696.2053       717.1187
       727.1548       747.8833       761.3564       777.0005       784.9443
       791.4663       803.3130       813.6228       810.1880       816.5454
       811.7778       817.8657       820.7568       831.3440       836.3979
       846.0386       843.5444       842.8613       832.6509       835.5464
       829.4446       834.7388       829.3945       824.1528       815.2266
       812.8799       802.7141       807.5466       796.3621       804.5962
       795.1333       785.6367       775.9575       775.1660       760.2751
       760.3762       742.6313       734.5259       717.4915       715.2500
       697.6250       694.2029       687.0170       683.9810       671.2764
       663.9624       642.9413       649.1980       628.8593       614.4272
       596.6450       576.9860       558.9380       551.4392       528.5588
       522.3433       506.5442       495.2874       472.1859       459.0758
       440.7067       434.6384       409.3403       395.1873       375.6097
       352.1798       327.3483       325.3752       303.9836       289.8831
       263.9810       252.9818       228.5492       211.5121       190.1889
       175.7922       144.9573       138.5291       121.1241       118.3115
       131.3988       207.6080       390.0669       761.3066       1341.995
       2135.299       3128.346       4428.785       5932.033       6494.381
       5343.057       3959.101       3464.507       3128.531       1342.308
      -3026.273      -7770.549      -8880.997      -6396.360      -1894.347
       1667.588       1057.909       630.6543       4689.977       7381.182
       5037.643       3392.287       2513.695       1259.074       7175.305
       14756.77       9917.104      -1793.797      -11268.51      -28594.14
      -54318.97      -63605.89      -43310.46      -6344.977       28794.17
       44956.77       35878.97       17283.90       10009.49       8029.272
      -1240.359      -13443.43      -20813.76      -6395.430       24990.55
       33566.68       12693.54      -3126.152      -5547.324      -13782.02
      -25422.89      -19154.17       4800.352       21249.96       17214.55
       2180.559      -13147.28      -16869.87      -6781.731      -2252.049
      -502.0586       11706.03       16952.86       8656.355       3683.898
      -1125.953      -10943.29      -11197.68      -695.4824       4436.878
      -638.3594      -3336.410       4571.211       11460.38       8051.978
       638.0957      -5219.201      -10002.84      -11489.78      -9082.557
      -6998.653      -4210.465       2233.100       8319.291       7010.474
      -414.5420      -5035.588      -5327.964      -3611.491       476.1914
       6019.115       9429.245       5597.997      -852.3828       955.9199
       6335.531       3237.416      -5352.621      -11821.38      -13743.95
      -12208.60      -8121.844       1069.961       10280.25       11827.03
       5952.626       2559.803       5282.105       3646.329      -2427.284
      -2060.700       2935.210       3875.497       1203.631      -4069.992
      -10396.13      -10732.92      -5242.404       1938.078       8675.994
       6512.632      -1984.904      -1718.036       3577.359       2838.221
      -1403.756      -3456.369      -2567.687      -1495.834      -3219.313
      -3338.167      -104.9673      -1296.200      -1994.592       3244.192
       4034.479       95.52002      -1196.071      -1689.539      -4306.020
      -7516.521      -6996.321       31.42969       6883.877       5058.281
       277.0896       781.7981       1210.762      -1746.695      -3068.558
      -298.5020       3075.158       2763.358      -299.9404      -1906.738
      -2589.967      -3584.608      -2058.076      -603.7168      -1504.434
      -2978.908      -3276.134      -231.6191       2988.474       3564.313
       3182.260       3263.812       2917.106       967.8379      -1787.591
      -1121.213       2917.992       4979.939       7575.100       8966.449
       85.41602      -10161.42      -9046.680      -2970.127      -408.1650
      -837.7461      -2711.442      -2845.260      -981.3857      -811.3301
      -2622.642      -3787.927      -1753.349       1995.349       2722.375
       238.3643       270.7910       3682.096       2810.787      -1935.987
      -2973.740      -3041.483      -4006.303       328.8525       5382.376
       4243.702       2536.617       4657.978       4930.852       656.2295
      -4071.271      -5124.653      -1535.834       164.0293      -3631.113
      -6760.504      -6753.931      -4467.287      -659.0269       1620.069
       1199.861       1174.475       3832.146       5922.891       4151.402
       2046.287       2491.624       4078.844       3480.176      -233.4863
      -2024.269      -2036.791      -2265.258      -751.7300       787.7446
       128.9834      -345.2852       2434.921       4368.103       442.3994
      -4089.297      -2501.902       1510.155       3055.917       2513.694
       553.0757      -794.0715      -344.3811      -492.5828      -546.8672
      -1006.095      -4043.207      -6465.754      -5047.304      -1133.104
       1781.526       1598.799       173.0547       281.6836       2779.951
       5863.352       5729.671       1273.854      -2483.969      -1195.076
       1733.562       1178.865      -1958.177      -3308.068       154.3613
       3766.182       2591.874       246.3057      -590.4336       699.8242
       3338.561       3134.697       1782.104       2304.372       1181.099
      -1036.068      -1984.188      -3164.942      -2506.402       1224.283
       4538.307       6764.116       5816.326       1276.315      -3223.996
      -6893.471      -6980.879      -3498.693      -1121.799      -2108.441
      -4154.461      -3343.726      -991.3390      -426.4824       393.0830
       2362.432       4884.426       7288.631       6672.101       2755.249
      -780.7021      -2449.274      -3196.035      -1372.016       1654.268
       3865.755       5293.907       2476.544      -4014.389      -6162.426
      -1361.475       3593.197       4298.986       2091.543      -649.0881
      -1602.736      -216.3564       728.3027       528.0635       1430.732
       5166.648       8354.678       6569.879       2379.331      -1736.025
      -4268.721      -2380.719      -494.0371      -995.6892      -838.2021
      -2017.990      -4788.038      -5507.238      -3928.505      -2593.391
      -2342.305      -244.2744       3435.602       4015.830       1985.083
       991.7754       1672.158       3207.056       3605.103       1362.245
      -654.3267      -792.3716      -918.8872      -1252.199      -1557.682
      -923.5270      -103.0209      -71.29785       801.4648       2137.737
       2211.224       1222.451      -34.58276       388.2391       585.3018
      -1564.785      -2745.711      -3330.784      -2398.500       1618.395
       4803.646       4612.322       2940.087       2234.886       772.0088
      -2157.396      -4255.947      -4502.433      -2311.342       519.7979
       1545.427       1012.796       167.1255      -248.8027      -2067.229
      -4279.567      -5205.648      -3921.086      -112.5220       2480.151
       574.0039      -3316.680      -3652.932      -1168.639       1308.388
       4919.927       6334.309       2376.843      -1691.530      -2301.725
