     0.02500000      -48119.04       86719.47      -12345.00      -12345.00
      -30.00005       246.7749      -45.50000      -12345.00      -12345.00
       0.000000       34.57000      -12345.00      -12345.00      -12345.00
      -12345.00      -12345.00      -12345.00      -12345.00      -12345.00
      -12345.00      -12345.00      -12345.00      -12345.00      -12345.00
      -12345.00      -12345.00      -12345.00      -12345.00      -12345.00
      -12345.00      -30.19290      -68.82820       1323.000       0.000000
      -31.23600      -65.83800       0.000000       167100.0       0.000000
      -12345.00      -12345.00      -12345.00      -12345.00      -12345.00
      -12345.00      -12345.00      -12345.00      -12345.00      -12345.00
       308.8746       291.2213       112.7413       2.777071      -12345.00
      -12345.00      0.1966881       0.000000       90.00000      -12345.00
      -12345.00      -12345.00      -12345.00      -12345.00      -12345.00
      -12345.00      -12345.00      -12345.00      -12345.00      -12345.00
      2008       318        11        13        15
       900         6    -12345    -12345     11072
    -12345    -12345    -12345    -12345    -12345
         1         7        13    -12345    -12345
    -12345    -12345    -12345    -12345    -12345
    -12345    -12345    -12345    -12345    -12345
    -12345    -12345    -12345    -12345    -12345
         1         1         1         1         1
PACH    -12345          
        -12345  -12345  
-12345  -12345  -12345  
-12345  -12345  -12345  
-12345  -12345  -12345  
-12345  -12345  -12345  
-12345  -12345  BHN     
ZL      -12345  -12345  
[...]
       1507.543       1655.750       149.4279      -455.2734       760.0110
       1158.369      -67.73743      -526.2081       100.5787       386.1358
       249.6461      -46.62598      -706.7344      -862.5438      -193.9302
       948.0703       2042.680       1939.102       494.3700      -565.6608
      -109.5793       1073.871       1367.326       957.4326       1309.475
       2340.742       2847.379       2297.673       1043.277       323.5916
       617.4575       1328.122       1221.885       54.97827      -716.3858
      -383.5924      -111.0674      -830.9746      -1659.129      -1699.668
      -1532.313      -637.5122       1242.660       2424.367       2015.233
       1388.062       1402.430       1506.698       578.2870      -470.8825
      -193.8446       354.5586       643.1929       1105.335       1213.971
       1399.318       2048.738       2124.852       829.7875      0.3405762
       507.7895       470.0883      -442.7136      -1083.994      -663.9383
       2.447510      -918.5342      -1859.105      -747.5312       1655.207
       3037.291       2433.590       1431.616       1020.775       358.9055
      -341.9504      -253.1760      -218.5579      -539.5234       246.6138
       1355.754       1588.538       1501.057       1286.323       534.4568
      -796.5579      -1390.907       366.5117       2316.380       1875.616
       96.47949      -1282.231      -1471.033      -504.4329       263.9777
       369.6038       196.5154       78.40515       102.5898       594.4438
       1079.979       423.3486      -1278.420      -2692.664      -3333.963
      -2679.527      -782.0559       364.3630       411.7681       922.9670
       1378.620       684.4517      -774.5293      -1555.885      -1128.133
      -205.6315       415.9351       592.5883       60.37646      -1359.666
      -2329.719      -1630.827      -800.9606      -639.6404      -688.9750
      -749.9419      -331.7357       166.3784      -10.77283      -252.6472
      -497.1107      -383.3569       599.6145       1344.625       417.7324
      -1004.849      -1104.750      -633.7897      -429.3109       199.9801
       497.3198       82.01996      -238.9178      -444.3530      -1133.190
      -1789.952      -1774.031      -1743.872      -2165.917      -2113.292
      -1724.568      -1758.913      -1707.885      -645.0991       642.0452
       766.7762       246.3291       678.3604       1288.402       959.7341
       551.1807       811.3582       1250.555       445.3887      -1648.198
      -2523.060      -1778.483      -1233.677      -1274.369      -698.4482
       308.1802       584.9528      -58.47363      -534.5244      -194.8951
       237.3950       210.0000       105.7830      -549.6455      -1745.582
      -2389.495      -2054.018      -1753.646      -1880.863      -2037.445
      -2753.930      -3358.487      -2239.113      -304.4541       1197.343
       1811.583       1007.072      -506.6958      -752.9504      -191.9529
       549.9834       1354.254       1236.472       1220.795       1438.851
       167.3765      -1266.503      -1244.722      -512.8940      -611.8789
      -979.6743      -1258.626      -2149.780      -2515.212      -1351.569
       384.2026       1845.499       1865.084       609.5779      -572.5879
      -1767.656      -3314.453      -3995.283      -3179.241      -1551.537
       96.57910       1050.877       680.2806       205.1846       450.3760
       339.4556      -805.3008      -999.1962       450.2556       884.4692
      -428.1895      -1372.060      -1771.439      -1655.970      -448.2083
       665.6097       95.83838      -1055.937      -1323.593      -536.0928
       848.7534       1769.161       1919.253       2092.497       1429.169
      -127.7695      -1022.840      -1179.765      -912.6509       38.54639
       154.6965      -966.3074      -1524.531      -1021.750      -223.5195
       245.8998       256.7793       1082.558       2632.330       3446.841
       2868.523       1937.070       1126.441      -47.98682      -755.9187
      -810.2999      -554.4829       923.8506       2217.923       2249.436
       1957.963       1604.560       807.7419      -449.2800      -1124.013
       73.67285       2121.911       3301.458       2643.925       894.0988
      -67.53125       755.5596       2225.497       2917.950       2319.500
       1161.939       654.3347       1026.545       1352.598       1123.042
       813.9263       725.5417       774.9790       1179.051       2005.351
       2651.602       1437.489      -399.6296      -201.6592       1160.005
       1687.720       1921.377       2330.588       1728.744       587.3208
       566.8596       508.7592      -111.0989       128.1636       1153.334
       1545.811       1225.616       1057.911       1142.666      -113.4600
      -1821.998      -1577.082       3.307129       1512.178       2534.356
       2127.348       865.7732       735.7617       1734.573       2239.597
       2184.904       1696.375       772.6642      -61.94580      -522.0203
      -497.6192      -367.1400      -3.895996       1356.039       1909.397
       1265.179       315.2905      -971.1372      -1466.617       5.702148
       1783.148       2165.516       1676.847       811.6641      -485.7441
      -1525.390      -1930.804      -1040.833       144.7754       469.6650
       383.1806       116.6111      -565.1245      -1007.908      -725.1016
      -142.6876      -292.5352      -1432.438      -2330.038      -1804.407
      -357.3101       1120.308       1579.515       887.8813       75.49414
      -467.8584      -1603.102      -2660.731      -2566.541      -1449.260
       234.9521       1397.389       814.1523      -505.4495      -1211.345
      -868.0754      -398.5454      -781.9561      -1701.756      -2300.200
      -2001.601      -1161.651      -901.8777      -653.3301      -149.4313
       229.4125       99.90137      -754.8440      -1149.901      -561.8542
      -979.2188      -1855.720      -1632.166      -995.4503      -286.8012
       232.4609      -227.0908      -1657.599      -3200.426      -3206.311
      -1694.053      -443.2800      -543.5005      -1482.541      -2249.118
      -1669.488      -499.6495       263.7061       827.2751       1074.771
      -44.57666      -1838.989      -2595.148      -2656.366      -2644.898
      -2010.057      -1172.166      -253.0551      -26.37598      -1271.081
      -2497.485      -2129.825      -1138.362      -655.8062      -852.8223
      -1423.788      -1852.142      -2056.980      -2096.082      -1568.942
      -662.7652       110.8042       565.0459       1606.901       2396.487
       1177.001      -1473.303      -3169.060      -2905.087      -1571.088
       48.11035       1650.236       1988.329       863.4871      -341.4519
      -751.9724      -924.0339      -994.3356      -592.3657      -186.5439
      -558.6289      -1202.751      -1947.535      -2782.434      -2800.624
      -1434.343      -183.8298       710.8813       1877.290       1793.371
      0.7441406      -1773.263      -2588.798      -1827.615      -76.53613
       1652.161       2417.908       2030.581       1777.835       2513.726
       2782.377       2350.242       1466.145      -737.3652      -3505.184
      -4253.427      -2352.616       136.0010       1629.498       2612.264
       2084.392      -31.87476      -1088.570      -592.4694       282.7269
       837.2863       259.0759       192.6140       1004.244       479.8193
      -1022.721      -925.0886       423.5437       1106.101       765.6604
       585.9360       1254.225       1149.139      -854.1484      -2695.838
      -2230.475      -167.7559       1279.866       2143.411       2423.328
       1757.821       1324.035       1295.655       442.6532      -233.9532
      -216.8824       144.7075       801.8757       1241.274       1290.081
       1388.434       2038.643       3049.768       3222.938       2926.784
       2407.654       1224.445      -370.1050      -1253.044      -1134.406
      -774.7961      -407.4111       870.5557       2884.531       3568.090
       2320.031       1086.517      -298.4458      -1758.230      -1555.754
       502.6914       2394.710       2844.947       2624.667       2215.123
       1251.814       598.0300       391.8909       448.0704       743.5399
       371.4509      -397.8689       305.9727       1633.116       2237.855
       2136.017       1763.743       1623.625       1391.913       303.8003
      -905.8086      -884.8920       445.9507       1037.017       453.2166
       262.2695       1140.213       2032.986       2129.123       1776.285
       987.5883      -241.3547      -856.8872      -717.9067       345.7568
       1634.693       1855.125       492.4053      -1463.934      -2004.658
      -901.5156       279.4697       1404.388       2459.933       3068.772
       3057.798       2181.420       833.9048       650.1680       1297.046
       1025.883      -639.5332      -1955.810      -1878.466      -1213.208
      -490.6213       787.4431       1207.959       103.1852      -282.4502
       611.3633       1563.804       1186.788      -668.2637      -2044.963
      -1954.715      -668.9205       64.37988       193.8312       258.2765
       374.2782       687.3940       644.5073      -293.5852      -646.6022
       94.71167       629.9517       983.1172       1394.717       920.6642
       114.4810      -545.8999      -1303.285      -1936.612      -1821.616
      -1082.618      -286.2908       153.3446       439.7195       66.88123
      -508.3162      -146.1787       935.0225       1715.006       1372.836
      -18.81958      -981.1504      -1669.997      -1957.829      -2080.188
      -2464.863      -2107.977      -1072.067       256.9058       1804.878
       2266.277       952.1919      -1206.541      -1682.622      -922.5303
      -1131.716      -1945.519      -1642.292      -495.7783       1074.678
       2189.727       1739.478       90.91211      -2083.496      -3793.273
      -3601.508      -2168.210      -1361.516      -1283.035       100.2896
       1374.509       694.5859      -504.3171      -1139.399      -1705.225
      -2352.585      -2980.365      -2525.444      -714.3209       640.8902
       20.81177      -982.8533      -1176.139      -1323.621      -1837.796
      -1663.808      -1108.022      -782.4130      -388.8441      -64.31152
      -500.8760      -1577.631      -2528.756      -2165.322      -303.2959
       1647.452       1075.787      -1018.644      -1984.276      -1900.485
      -1641.106      -1236.549      -898.0670      -527.0186      -693.2588
      -1193.376      -1585.916      -1950.708      -2097.176      -1183.082
      -413.4819      -1170.570      -2069.429      -1189.587       913.0249
       2248.987       1093.567      -905.3506      -1871.073      -1862.976
      -1453.107      -566.3744       465.2644       1118.065       971.3010
      -173.3794      -1764.171      -2073.792      -873.2002       1090.688
       2198.542       2180.235       2060.904       1220.749      -1000.431
      -2313.977      -1668.638      -558.6415      -95.37103       105.8943
       274.5057       570.9286       336.3663      -118.6426      -454.9199
      -459.8267       145.5713       1269.482       1304.175      -128.8391
      -985.5085      -524.0652       79.77155       244.1370      -183.1454
      -42.01489       711.5339       1048.594       1045.503       1447.754
       1534.547       889.9377      -241.3563      -690.9399      -487.3335
      -791.5938      -1365.570      -1064.556      -46.74072       1568.269
       2234.649       1126.494       302.1436       1186.547       2334.751
       2966.739       3200.296       2849.959       1599.607       355.1221
      -991.1489      -2098.564      -1504.150       364.9800       1297.328
       1160.947       848.0254       974.8652       1254.606       1322.141
       1153.898       1111.595       1689.438       2496.404       1906.728
       1015.681       427.8398      -253.4218      -232.5728       1053.990
       2175.273       2677.200       2957.784       2553.250       948.3322
      -504.7863      -482.2646       543.9404       1309.457       1835.075
       1833.760       2083.637       2467.488       2379.079       1501.696
      -1109.411      -3999.330      -3762.137      -1893.287      -1462.276
      -2258.005      -2987.570      -3037.793      -2144.414      -1886.076
      -1765.837      -1271.594      -1339.948      -1707.672      -1946.546
      -1934.354      -331.0962       1637.469       2187.426       1348.631
       59.96118      -658.2788      -622.2031      -1547.871      -3648.617
      -6960.727      -13856.95      -26137.59      -39538.97      -48119.04
      -45973.20      -27298.46       6306.641       43850.81       73844.09
       86719.47       77862.77       51848.33       18845.28      -11593.88
      -32439.69      -39708.06      -33827.26      -21665.23      -8631.072
       5884.148       21969.59       30542.16       24532.06       9890.328
      -2596.451      -8320.500      -10073.41      -11389.41      -12259.49
      -15115.01      -20155.29      -20395.40      -12244.14      -2157.130
       2968.283      -1344.883      -11484.64      -14320.26      -5993.336
       4351.738       10945.96       10624.44       5589.375       4933.754
       13349.89       29092.61       44020.81       45046.19       28867.91
       4529.539      -13335.39      -18479.88      -17229.44      -14619.32
      -12965.12      -13049.95      -6400.047       8654.273       18779.44
       16937.95       6656.703      -10624.67      -28757.00      -38960.60
      -38131.93      -22806.67       7317.305       33195.63       35660.73
       19821.77       1652.180      -9488.289      -16793.40      -30288.17
      -42060.43      -33215.63      -1683.648       34543.20       50078.28
       40712.95       30188.52       23765.57       7951.973      -14996.01
      -30671.44      -28639.36      -17062.34      -12962.62      -14194.05
      -9939.775      -2001.249       1548.695       5045.371       14178.95
       20632.71       15523.63       1189.133      -17402.82      -34674.05
      -42777.55      -40293.34      -32275.35      -15129.23       11822.01
       33464.97       41879.20       44143.79       39968.63       25189.46
       2845.344      -19389.20      -32836.66      -31568.25      -17433.08
       2051.984       18888.05       23922.43       15061.37       3635.654
      -3691.019      -5079.275      -2067.347      -1760.715      -6675.672
      -12262.87      -13517.01      -9088.449      -3604.793      -5073.039
      -12886.30      -15508.29      -10851.46      -9531.160      -13149.94
      -9740.426       2153.570       14326.42       25243.53       36499.42
       42238.65       34969.77       17287.05      -2513.730      -17555.85
      -21257.73      -14314.67      -3169.946       4291.961       8989.906
       20862.31       28907.10       13782.07      -11118.45      -23550.77
      -20028.94      -10024.85      -4406.658      -6435.055      -14061.27
      -20860.01      -18165.86      -6769.848       5714.215       12566.22
       10949.48       254.0469      -12034.89      -8783.500       8558.125
       19124.67       17083.58       8620.600      -1772.193      -8739.068
      -10158.96      -6826.170       3303.521       10901.53       6188.852
      -1202.153      -2511.227      -4931.580      -10089.74      -6400.523
       5373.561       7976.459      -2571.184      -11448.41      -7406.631
       2849.697       6036.127      -928.2422      -8243.662      -5910.748
      -346.6680      -1933.135      -5717.855      -4454.265       2779.551
       9978.207       13669.30       18357.94       22549.32       19597.80
       9508.752      -3837.805      -15683.93      -20829.54      -16118.30
      -6575.010      -3004.838      -6115.875      -8186.078      -8212.918
      -6378.834      -4206.561      -1927.398       4261.156       8343.463
       4471.344      -598.1150      -1415.178       2381.354       6342.625
       5827.724       5018.548       5195.121       3535.903       3828.253
       3404.087      -1391.935      -5332.496      -2721.582       6562.441
       14856.23       15214.30       10407.12       5142.791       40.11328
      -3181.984      -3356.998      -4833.340      -6978.689      -6463.579
      -2811.541       2775.723       6921.785       10199.14       12832.25
       11288.31       4331.209      -5526.715      -12561.03      -14069.91
      -12899.94      -10837.10      -6599.808      -4021.349      -3640.387
      -652.7617       4357.766       7374.842       6656.590       4455.015
       2512.566       3179.301       6834.816       7342.919       3453.652
      -957.7891      -3165.416      -3307.439      -3215.011      -2750.374
      -504.0566       2120.247       3061.855       3910.736       4833.707
       1365.082      -5121.977      -6379.659      -1086.321       3102.992
       3276.541       1785.765       619.6406       1998.631       4965.592
       5984.323       4148.592       250.4980      -3110.236      -4958.791
      -6711.562      -6582.693      -3880.903      -2263.013      -2149.649
      -253.3066       4647.711       10209.69       12454.27       11787.68
       11938.74       9428.678      -343.8359      -12018.67      -19553.05
      -21447.88      -17224.16      -10694.32      -5151.556       795.5664
       6044.805       8354.873       9732.211       11232.47       10761.95
       6701.443       1343.135      -1247.088      -1182.638      -363.3228
       1291.834       2424.235       858.8682      -3555.787      -8337.693
      -9172.123      -6645.564      -4548.051      -2653.770      -3036.129
      -8520.391      -13755.24      -12434.36      -4665.008       4715.559
       9460.418       7132.279       2139.044       1144.488       5069.055
       9677.887       11357.36       10456.48       10082.66       10176.16
       8321.811       4413.017       1029.131       1060.806       1328.381
      -2865.277      -9686.312      -13934.87      -10699.79      -1467.836
       5656.379       7110.889       5998.168       5592.711       8078.258
       11198.89       8677.573      -17.50781      -10096.08      -16884.32
      -18893.88      -19317.07      -21087.41      -21610.03      -14669.10
