     0.02500000      -41283.25       40525.10      -12345.00      -12345.00
      -30.00005       246.7749      -45.50000      -12345.00      -12345.00
       0.000000       34.57000      -12345.00      -12345.00      -12345.00
      -12345.00      -12345.00      -12345.00      -12345.00      -12345.00
      -12345.00      -12345.00      -12345.00      -12345.00      -12345.00
      -12345.00      -12345.00      -12345.00      -12345.00      -12345.00
      -12345.00      -30.19290      -68.82820       1323.000       0.000000
      -31.23600      -65.83800       0.000000       167100.0       0.000000
      -12345.00      -12345.00      -12345.00      -12345.00      -12345.00
      -12345.00      -12345.00      -12345.00      -12345.00      -12345.00
       308.8746       291.2213       112.7413       2.777071      -12345.00
      -12345.00     -0.3995731       90.00000       90.00000      -12345.00
      -12345.00      -12345.00      -12345.00      -12345.00      -12345.00
      -12345.00      -12345.00      -12345.00      -12345.00      -12345.00
      2008       318        11        13        15
       900         6    -12345    -12345     11072
    -12345    -12345    -12345    -12345    -12345
         1         7        13    -12345    -12345
    -12345    -12345    -12345    -12345    -12345
    -12345    -12345    -12345    -12345    -12345
    -12345    -12345    -12345    -12345    -12345
         1         1         1         1         1
PACH    -12345          
        -12345  -12345  
-12345  -12345  -12345  
-12345  -12345  -12345  
-12345  -12345  -12345  
-12345  -12345  -12345  
-12345  -12345  BHE     
ZL      -12345  -12345  
[...]
      -2249.800      -2569.975      -1434.456       443.0547       1999.168
       2344.479       985.6465      -895.6509      -1747.351      -1138.647
      -379.3687      -601.2830      -1259.464      -734.3535       1915.843
       4174.319       2976.912       126.0913      -1588.863      -2043.560
      -1407.583       632.4370       2272.496       1993.203       1073.210
       714.0275       3.986084      -965.0688      -1005.706      -510.2927
      -551.7090      -856.9209      -955.1367      -917.5647      -832.3154
      -521.6450      -265.9715       146.7814       340.9015      -71.24072
      -120.1807       502.4810       1334.433       1436.385       695.5820
       456.6731       909.3179       1401.869       1466.496       1427.747
       407.5825      -1363.056      -1816.800      -1314.103      -1528.531
      -1796.380      -1035.251       410.9644       1206.293       1015.626
       555.6101       125.2666      -386.4558      -1010.881      -832.5942
       399.6455       771.7496       527.5162       487.5680       247.4249
       62.80835      -373.2686      -1510.363      -2322.093      -2309.949
      -1959.451      -1692.321      -1666.831      -1756.654      -849.8159
       649.0830       1510.125       1870.451       1646.422       706.7768
       117.2220      -83.17725      -364.7801      -107.4418       557.2073
       932.0117       790.9572       271.0305       174.4100       230.1003
      -161.9541      -736.3660      -506.7545       85.46826      -654.5972
      -1868.828      -1700.564      -968.8091      -720.3984      -890.1445
      -1119.487      -377.4082       1290.631       1992.030       1269.179
       48.15796      -917.9282      -1031.995      -626.6034      -556.2058
      -369.4862       384.4619       886.9167       1016.179       1430.239
       1017.198      -65.18726      -521.5120      -610.0425      -980.4210
      -904.9055       22.70020       733.0088       815.6289       1008.006
       1450.935       967.8427      -643.1658      -1421.964      -873.9626
       229.3052       1165.640       763.7586      -66.24731       236.3838
       1161.167       1663.909      -9.429688      -2785.192      -3007.981
      -698.4674       687.8629       312.6044      -116.9471      -315.2009
      -782.0895      -829.9835      -232.7769       553.0510       1286.319
       684.7910      -778.9570      -1082.970      -854.8564       89.17529
       1570.207       1781.775       673.3280      -126.5613       457.8818
       1650.616       2607.786       2054.338      -719.9404      -2630.141
      -2606.531      -1402.937       770.1670       1734.831       1678.109
       2248.344       2589.777       1727.959      -138.0728      -1155.642
      -971.0273      -1085.363      -653.1846       723.9692       1552.199
       1654.316       758.1365      -239.3998       31.08984       1038.516
       2016.203       2180.944       1753.153       1573.117       1631.289
       1263.957      -316.5264      -1855.811      -2376.750      -1761.869
       61.95020       1932.715       2416.016       894.2166      -651.4575
      -1098.278      -823.1301       347.9318       446.0416      -315.7886
       919.9385       2813.780       2500.201       556.0615      -1456.605
      -2407.000      -1814.917      -802.6722      -431.9794      -247.6800
      -32.71616      -129.3536       35.78076       984.2529       2252.881
       2717.649       1866.413       1052.758       1216.289       1493.636
       865.8800       143.2031      -643.7212      -1641.563      -1178.187
       576.3920       664.6934      -1329.470      -2331.941      -2200.147
      -2513.320      -2110.894      -948.3486      -157.1572       889.5083
       1163.126      -25.81250      -902.3442      -838.0426      -364.3511
      -604.6079      -1325.998      -865.4688      -231.7041      -775.8687
      -959.4836      -528.5210      -375.9453      -450.9277      -819.1672
      -1246.617      -1021.257       349.3999       1975.471       1733.161
      -1076.810      -3265.229      -2805.262      -1935.106      -1337.494
      -85.64038       1304.797       1574.540       1028.702      -89.87842
      -1617.630      -2153.800      -829.8354       775.4569       788.2145
       153.2040      -459.0923      -874.2515      -1579.522      -2837.576
      -2991.092      -1806.847      -135.7747       1394.447       1228.584
      -199.3967      -925.1484      -1487.889      -1857.089      -1326.297
      -1077.759      -1633.170      -1688.904      -656.5586       190.4785
       983.3877       2301.125       2628.286       1340.196      -387.2227
      -1195.219      -1029.715      -897.8101      -1662.676      -2812.256
      -3081.047      -2573.310      -1690.356      -273.7041       1258.783
       1582.025       909.9415       405.3051      -201.5459      -604.9854
      -883.1816      -1545.436      -1435.314      -270.6982       286.3563
      -35.56406      -34.79550       16.19873      -453.0088      -947.7664
      -950.8240      -702.4353      -744.1528      -682.1416      -1166.362
      -1826.807      -1506.798      -629.4805       760.9827       1026.417
      -84.67053      -653.7638      -463.9733       1.446533      -23.06842
      -122.3171       960.7188       2130.311       1027.255      -871.2061
      -676.6406       1230.533       2006.811       176.6025      -1966.082
      -2506.005      -1654.447      -360.8809       982.0786       2217.007
       2444.394       1846.991       596.5477      -176.1165       828.4116
       1875.493       908.6707      -597.0613      -903.0034      -953.7148
      -840.4421      -82.88037       879.8018       1874.172       2007.258
       187.6123      -2176.643      -3985.457      -4190.137      -2312.298
      -606.3662       1615.102       4068.706       4590.141       3622.710
       1606.779      -112.6747      -547.2215      -437.1708      -75.13794
      -82.91400      -335.5011      -187.1975       322.7534       233.9027
      -419.1422      -230.0835       593.1775       1065.037       1206.885
       755.4126       641.5132       2160.388       3223.619       1806.108
      -492.9839      -1525.105      -754.3311       772.7368       846.7040
      -294.4462       57.94531       885.1489       853.4004       1338.436
       2558.233       2997.695       1750.851      -700.5225      -3471.981
      -4092.588      -1426.855       1394.085       2265.602       1928.166
       1828.404       2563.410       3039.843       1832.232       627.1099
       1401.294       2455.421       1967.790       337.0107      -1470.693
      -1888.074      -74.80225       1546.700       1014.210      -258.9197
      -828.0240      -217.9590       851.9570       1507.972       1128.538
      -75.34021      -537.1117      -175.9149       3.074707       805.8447
       1920.665       2253.753       1671.114       386.7129      -783.7561
      -788.2400      -118.8955       619.3525       1775.686       1965.939
       1139.791       794.5771       884.6626       1531.687       2540.123
       2407.890       94.62354      -2265.504      -2439.871      -845.9146
       281.9535       510.2539       697.8232       869.9272       1329.172
       1358.426       900.6578       830.0828      -49.49207      -1039.639
       70.53564       1284.045       947.9611       583.0320       762.5410
       1053.367       371.8049      -988.7876      -1670.668      -1761.114
      -1818.396      -1912.853      -1340.799       1048.312       2679.277
       2171.558       2172.776       2699.237       2047.787      -230.0449
      -2212.027      -2489.065      -1172.476       1153.826       1821.463
       849.4326      -57.73389       246.2456       1839.681       2092.813
      -45.46777      -2125.491      -2267.478      -1133.998      -1078.608
      -2018.083      -1664.164      -923.0818      -849.8452      -35.32324
       1150.948       1727.418       1969.934       786.5459      -1509.902
      -1595.251      -235.9077       1029.029       1943.335       1172.662
       949.7539       1881.838       1616.098       738.0830      -512.5854
      -1336.038      -555.5911       881.3818       1393.784       1150.820
       1209.208       800.7803      -604.3379      -1599.863      -1849.972
      -1962.993      -1338.085      -21.97070       474.1573      -79.95007
      -691.5799      -440.2744       630.5698       1282.965      -337.7715
      -2915.643      -3003.327      -1225.925      -382.5956      -701.5866
      -413.3047       1311.721       2093.498       1494.642       571.1865
      -1474.699      -3358.415      -3126.955      -689.9502       1691.632
       2040.160       1436.439       971.1712       368.8047      -1108.823
      -1971.109      -1371.545      -652.7988       8.158508      -102.4948
      -462.8157       865.8911       1703.785       620.1655      -706.3491
      -1274.790      -583.5700       166.6733      -858.5083      -1666.996
      -836.1473       137.0351       330.1152      -682.1367      -2162.488
      -1751.692       47.88953       421.2809       19.32690      -57.17725
      -878.8853      -1144.208      -249.2527      -159.1823      -752.8611
      -459.3341       132.7357       336.2734      -221.0825      -1040.898
      -1287.889      -1747.794      -1667.238      -630.0972      -596.3728
      -940.6239      -178.2373       223.2607      -684.6416      -1444.747
      -1460.213      -1178.375      -573.7755      -252.2056      -790.7557
      -751.6733      -530.8354      -1252.023      -1898.869      -1758.360
      -1107.416      -1015.638      -1590.311      -1254.485      -468.3542
      -570.7617      -2429.236      -4149.540      -3386.061      -1521.686
      -475.9824      -1423.094      -3096.059      -2867.089      -971.2397
       994.3523       1239.748       370.8779       534.2417       1315.596
       1517.555       299.6660      -2268.888      -2740.725      -695.4453
       735.1669       835.2401      -69.77356      -565.3820       197.1287
       202.7178      -795.7202      -1529.406      -1744.430      -969.0447
      -410.9600      -1531.237      -2318.739      -1515.179       24.27881
       1268.557       1750.652       1642.526       711.1152      -1157.627
      -2736.496      -2841.040      -1628.293      -684.1125      -503.9902
      -750.4039      -586.6580       801.5444       1441.503      -11.73779
      -1682.117      -2333.438      -1893.179      -1134.322       342.3047
       2704.005       3110.243       880.0146      -1372.345      -1723.434
      -669.0458      -12.60791       452.0510       1149.995       1131.027
       35.12256      -2105.979      -3641.277      -2120.179       426.2495
       1177.580       1102.814       1032.094       38.00977      -1421.326
      -1573.566      -1197.187      -2232.693      -3559.724      -3903.621
      -3720.277      -4428.510      -5613.402      -6056.059      -7213.336
      -9571.254      -11509.07      -12368.90      -12888.57      -12979.65
      -10457.56      -6008.538      -2523.138      -7.528320       2290.438
       4622.762       8574.055       14127.02       19323.16       23874.45
       28908.48       32397.14       32619.97       32641.44       32457.89
       25970.77       9927.273      -11536.06      -30498.94      -40235.02
      -37873.46      -25155.91      -8863.576       2270.290       3481.159
      -2942.836      -7778.747      -2856.441       11646.03       27940.92
       35154.34       29725.60       19444.59       10798.85       3908.172
      -3669.809      -12742.73      -21086.78      -24517.36      -18433.04
      -7081.237       801.1895       3584.227       1723.608      -3264.783
      -7373.383      -9302.846      -7926.104      -2378.350       3721.957
       8939.641       13150.75       10747.54      -1493.930      -19225.33
      -32163.09      -27700.14      -7107.609       15958.16       29151.00
       25290.68       10460.63      -2460.927      -6488.857      -2330.531
      -968.7012      -8864.133      -13825.09      -6792.277       3778.707
       10893.80       16490.06       20320.77       19730.90       12126.29
      -3087.340      -17393.40      -20994.19      -11766.94       3280.969
       12128.11       11912.86       9725.957       9216.656       8616.628
       3974.904      -7130.473      -16796.14      -15620.26      -5070.840
       6528.516       11493.94       5517.473      -11890.37      -24971.41
      -11541.60       21563.91       40525.10       26292.99      -1475.379
      -11744.90       1624.219       17668.50       12286.02      -10669.77
      -24771.22      -17552.87      -144.6289       13049.72       16216.98
       13251.58       13843.98       17593.05       20414.96       22341.30
       13457.42      -11664.03      -35537.75      -41283.25      -34172.99
      -28010.30      -23426.79      -12144.38       3699.195       18202.91
       30009.88       33484.05       27153.66       15112.24      -4350.266
      -28042.13      -37552.78      -20921.21       5897.121       20345.04
       18920.80       12437.48       11256.97       13753.62       10480.32
      -1841.023      -14581.75      -15459.64      -5559.085       440.6914
      -5294.539      -15302.41      -16270.65       475.2422       22453.54
       23797.07       7500.426      -5158.898      -13554.73      -23771.15
      -29912.10      -26625.77      -16318.21      -531.9844       15586.64
       23749.95       23150.49       15786.03       6647.139       1667.967
       3593.504       8995.629       8476.910       1474.293      -6996.266
      -12482.30      -9715.733      -2289.378       1403.729       1294.926
       4900.859       12305.06       13824.16       3846.664      -10019.40
      -16758.36      -16370.82      -13338.64      -10522.43      -6294.957
       803.3828       8854.887       16974.78       15866.21       999.0078
      -11397.49      -7721.988       5717.750       13098.34       5769.375
      -9798.281      -21826.11      -23599.12      -17953.88      -13099.51
      -10558.06      -6405.811       1106.279       8809.053       9876.664
       1517.812      -8118.619      -8755.224      -131.3301       9256.625
       10206.26       3812.590      -2483.189      -8114.258      -13950.65
      -14264.88      -4776.398       10422.05       21038.48       19656.78
       9639.182      -1982.059      -8813.912      -6619.522       908.1582
       8217.598       12959.87       11094.23       3449.237      -1467.813
      -1986.438      -2219.370      -3810.977      -6358.611      -8712.908
      -9594.418      -7979.574      -7408.137      -8965.904      -6776.874
      -2161.511       1904.387       9068.488       16727.90       18928.91
       17445.84       15156.77       9121.033      -2068.895      -13580.35
      -19819.01      -20260.53      -18517.93      -18812.29      -19816.95
      -13891.89      -1504.602       7916.408       9892.555       7534.869
       5286.424       4157.305       3246.455       2748.154       2950.098
       3437.895       4693.922       7754.445       11781.98       14078.04
       12729.10       10346.21       8961.135       6039.590       1772.934
      -1918.668      -6026.078      -8878.256      -6463.975       739.2598
       8290.701       11244.43       6386.400      -4067.023      -11486.10
      -11872.50      -10270.18      -11629.07      -15566.85      -18277.18
      -17557.94      -14852.98      -10593.96      -4257.316       1563.980
       6261.199       11111.40       13754.50       12212.33       7663.451
       2329.854      -1752.637      -1789.901       3068.266       8045.242
       8913.641       6300.626       2519.864       520.2422       2610.039
       5747.351       3758.236      -4650.691      -15125.59      -19411.36
      -14085.13      -4740.688       3436.396       9005.062       10826.22
       8593.692       4990.289       486.0859      -5236.527      -9051.533
      -9427.758      -7617.233      -5425.956      -2988.385      -2040.688
      -3268.501      -1443.258       6306.148       15707.12       20345.20
       17404.29       9084.877       1819.468       1417.990       5970.789
       8744.787       6503.286       2107.067      -685.0186      -2102.707
      -2421.787      -135.2598       2259.867       1638.202      -1227.651
      -2430.327      -147.3574      -1012.219      -8896.203      -17032.97
      -18507.53      -13071.47      -6083.389      -1109.868       1790.831
       2777.226       2665.345       2451.102       2740.676       3935.811
       6641.863       10390.42       12851.82       12276.29       8445.760
       3186.105      -1424.807      -5129.088      -8543.410      -11084.17
      -9255.171      -1719.955       6232.535       10803.12       12622.84
       11165.36       6985.271       3396.348       643.5103      -1178.167
      -698.1494      -687.8350      -2269.936      -1991.182       1499.855
       4895.898       3958.136      -38.33740      -2066.705      -214.1829
       1547.082      -928.2539      -5031.908      -6090.567      -3564.395
      -291.6460       79.79883      -2309.148      -4041.934      -4016.139
      -4162.096      -4349.608      -2998.851      -1798.058      -1498.366
      -912.5649       1233.450       4883.695       5421.078       3047.619
       3244.341       4329.935       2159.345      -548.7949       424.4805
       4176.696       4990.007       1148.930      -403.6650       3505.547
       8095.984       8268.475       4029.118       145.4946      -1357.159
      -173.3516       3446.475       6032.953       6251.096       4857.041
       1550.299      -3576.180      -10190.79      -14561.78      -12499.17
      -5804.681       652.9395       3151.574       2705.617       3824.268
       6513.262       7040.117       3541.698      -2141.438      -5174.121
      -3725.405      -1408.665      -929.5078      -2091.109      -4763.336
      -7340.262      -6952.242      -5203.270      -6046.652      -9157.383
      -9947.824      -3800.449       7227.977       13668.97       10266.36
       2945.889       584.0352       4001.299       8993.762       13485.52
       15498.71       12577.89       6308.503       2146.895       1971.166
       2259.589       483.1738      -3030.602      -7664.137      -12588.46
