     0.02500000      -25915.43       21933.94      -12345.00      -12345.00
      -30.00005       246.7749      -45.50000      -12345.00      -12345.00
       0.000000       34.57000      -12345.00      -12345.00      -12345.00
      -12345.00      -12345.00      -12345.00      -12345.00      -12345.00
      -12345.00      -12345.00      -12345.00      -12345.00      -12345.00
      -12345.00      -12345.00      -12345.00      -12345.00      -12345.00
      -12345.00      -30.19290      -68.82820       1323.000       0.000000
      -31.23600      -65.83800       0.000000       167100.0       0.000000
      -12345.00      -12345.00      -12345.00      -12345.00      -12345.00
      -12345.00      -12345.00      -12345.00      -12345.00      -12345.00
       308.8746       291.2213       112.7413       2.777071      -12345.00
      -12345.00      0.2921493       0.000000       0.000000      -12345.00
      -12345.00      -12345.00      -12345.00      -12345.00      -12345.00
      -12345.00      -12345.00      -12345.00      -12345.00      -12345.00
      2008       318        11        13        15
       900         6    -12345    -12345     11072
    -12345    -12345    -12345    -12345    -12345
         1         7        13    -12345    -12345
    -12345    -12345    -12345    -12345    -12345
    -12345    -12345    -12345    -12345    -12345
    -12345    -12345    -12345    -12345    -12345
         1         1         1         1         1
PACH    -12345          
        -12345  -12345  
-12345  -12345  -12345  
-12345  -12345  -12345  
-12345  -12345  -12345  
-12345  -12345  -12345  
-12345  -12345  BHZ     
ZL      -12345  -12345  
[...]
      -308.2145      -316.7476      -315.4833      -327.4572      -326.9671
      -329.7123      -319.9514      -329.7456      -329.9510      -330.6509
      -317.2943      -320.1560      -319.0600      -327.8148      -326.1405
      -336.3704      -335.1874      -342.5818      -341.0183      -346.6649
      -339.2896      -342.5222      -336.6121      -342.0265      -339.0758
      -349.0833      -344.0726      -347.3900      -342.6759      -352.1365
      -351.1532      -352.7390      -337.9382      -341.4407      -347.1226
      -357.3965      -354.7866      -357.6432      -345.8578      -348.0559
      -348.6956      -356.5083      -352.5238      -348.5632      -339.5916
      -348.7616      -351.0554      -350.3922      -340.4058      -338.7228
      -332.2351      -332.6454      -325.5704      -322.8050      -318.6996
      -317.4336      -298.7554      -291.5292      -276.4702      -271.5024
      -259.7179      -260.0300      -253.6963      -249.5133      -230.6618
      -225.4468      -207.5441      -204.2294      -195.7742      -179.4587
      -152.5994      -155.9952      -142.3223      -143.0002      -140.2017
      -132.6220      -107.3362      -104.3978      -91.80443      -83.15701
      -70.19348      -70.00323      -41.97639      -33.70880      -24.40737
      -21.80580      -15.54248      -14.62641       4.468954      -2.156342
       11.51930       33.86652       46.15942       40.63667       61.67642
       60.48978       72.10355       86.23889       108.5225       120.7011
       144.8296       147.2367       169.0988       189.6374       210.7955
       218.0073       238.3728       245.9642       270.1094       280.9307
       299.5095       309.3356       331.5961       338.9795       365.0374
       384.6591       406.1018       404.6409       429.4142       448.6396
       469.0773       477.7015       494.9380       496.4656       521.6343
       531.2960       552.2206       564.2036       569.6722       565.8976
       588.2390       588.0317       600.9463       608.6068       621.5365
       629.2639       653.7737       649.0647       657.9695       662.8580
       675.2498       668.8921       676.9609       680.9053       697.5796
       694.4668       712.6416       718.1904       727.5396       728.4255
       745.7891       737.8027       747.2659       753.9214       766.3118
       763.7939       783.7515       787.4395       801.2395       798.0452
       812.5945       813.5842       827.1079       827.1553       837.1926
       831.8066       853.7368       868.3823       888.9019       884.7041
       899.0464       902.7556       915.6914       914.3936       931.2803
       926.7292       943.5679       946.5305       957.3142       954.9512
       975.3481       971.1343       979.7852       975.4424       985.4229
       975.7666       989.0898       978.1885       981.0039       965.1389
       972.3330       961.8630       957.7578       934.4841       937.4448
       918.9944       919.2725       899.0740       900.2432       880.9922
       873.9009       845.5991       836.8584       806.2852       794.1892
       761.1597       748.9412       721.4568       707.7744       671.5728
       659.4716       630.6161       611.4060       574.1743       560.8965
       527.5486       509.9528       469.6760       450.5122       414.4487
       396.0032       368.0655       349.5642       305.7692       288.1277
       257.8323       249.0606       216.6472       195.8727       159.6307
       142.2962       106.7727       92.46278       62.21912       46.56292
       5.971519      -16.78729      -48.36710      -57.91956      -97.49445
      -111.2908      -138.6645      -151.4011      -190.9714      -212.9838
      -247.0122      -258.6927      -297.2065      -311.7383      -350.9575
      -367.7356      -389.8856      -402.5883      -437.8517      -444.8855
      -475.5388      -486.4282      -520.6425      -525.7981      -554.6838
      -560.9680      -585.6193      -592.9536      -620.5396      -623.4421
      -648.8911      -647.3943      -671.7632      -679.8193      -708.8442
      -711.3218      -731.8223      -733.2434      -751.3398      -747.0083
      -763.8533      -766.7515      -787.5225      -787.2158      -807.8943
      -806.1060      -819.5027      -816.4377      -832.3762      -831.0205
      -842.4985      -839.8652      -860.6558      -854.7197      -870.2354
      -869.0723      -874.4224      -870.5850      -883.4868      -872.0679
      -882.1445      -869.2849      -875.7368      -863.9370      -859.8628
      -849.6172      -865.0806      -853.5024      -862.2908      -849.0764
      -847.0269      -840.7930      -843.0066      -822.0059      -821.4509
      -802.3052      -803.9172      -791.2705      -792.5303      -778.2207
      -791.9482      -789.6357      -787.6121      -760.3660      -757.7576
      -736.7778      -739.9492      -723.3655      -718.2300      -706.3411
      -710.7925      -684.7844      -697.5284      -681.8250      -672.5835
      -653.8960      -654.3071      -625.6372      -627.2649      -619.8091
      -617.7234      -588.9036      -587.1477      -558.8706      -556.2200
      -531.5354      -523.9656      -496.5829      -489.2864      -465.5667
      -463.4700      -442.3743      -435.5894      -407.0980      -402.1434
      -370.0107      -363.5641      -342.9609      -333.3388      -304.0342
      -302.5668      -283.2499      -280.0357      -253.8677      -256.6743
      -239.9388      -236.8464      -209.1893      -211.9416      -196.3420
      -194.7430      -168.5656      -166.5000      -151.0664      -144.3137
      -115.9478      -123.6223      -108.1713      -104.6483      -80.96877
      -78.47417      -58.78175      -57.25588      -34.48428      -27.93706
      -13.17883      -5.047207       22.32723       12.88550       31.96541
       32.20964       44.97586       50.76863       67.15306       62.64935
       85.47778       94.44812       130.0974       130.9461       141.8444
       139.0821       157.2296       156.8344       184.0707       183.0145
       205.8090       209.9325       227.8103       224.7124       252.2418
       254.0223       268.7689       268.3022       286.5600       278.0903
       299.3676       293.3466       301.9822       299.6683       314.6345
       302.4420       321.8584       319.5881       333.3354       324.5120
       336.7065       324.2457       330.6544       320.4979       338.5540
       324.0933       332.6642       316.0887       325.1978       316.8503
       331.3134       322.9321       324.9945       306.0144       319.3234
       309.1517       317.9438       306.6765       313.7898       293.7657
       301.7496       296.3054       316.3440       307.8754       318.5381
       303.7690       318.9680       311.4141       315.1733       297.5475
       305.8116       289.7675       306.0571       299.8090       304.5425
       289.9160       300.3060       284.3296       291.7386       281.6255
       287.5370       272.2041       276.7709       255.9299       261.1090
       253.9846       266.5671       245.3275       249.3765       231.5045
       230.6971       220.5172       232.5188       214.9754       219.1360
       199.3167       199.6984       182.3610       194.1854       178.9104
       182.0377       157.9647       156.8444       138.7208       144.4356
       128.8667       134.3253       117.1398       124.0730       105.4067
       107.5621       96.07532       105.4141       85.66316       86.19135
       70.08804       68.41046       51.12241       63.26642       53.63362
       55.32628       43.77565       54.31631       28.51974       30.47018
       28.33053       34.48598       17.40367       18.53319      -4.854056
     -0.2282524      -7.439695      -5.059467      -17.48464      -4.403278
      -17.14175      -7.068249      -15.75264      -17.94705      -31.74625
      -14.04604      -21.49115      -14.31867      -19.94351      -9.223383
      -12.19490       8.002987      -4.410500       7.534454       4.320801
       18.92026       16.64091       39.35847       36.23759       51.35271
       47.53812       65.82858       67.18872       87.53838       77.08130
       96.39667       93.26093       110.9908       113.3967       139.0903
       141.4404       158.8054       147.9552       165.0127       173.7719
       198.9741       196.3989       217.8134       221.2351       236.5292
       228.5807       247.6602       249.2528       264.0454       266.7930
       285.0613       279.4565       307.2330       321.1806       338.5592
       336.9207       352.0105       346.3884       368.1198       372.4200
       388.2393       389.3447       403.5857       409.2837       434.0818
       439.6677       455.4011       457.4410       479.9587       477.7705
       480.8271       485.3107       502.6666       496.6565       514.2842
       514.3500       527.1045       535.4679       538.9897       522.0848
       528.7377       520.3201       514.1261       508.6831       514.0479
       501.6395       507.7371       502.1118       501.4419       490.7372
       489.1560       468.3057       465.2056       454.0468       451.7104
       444.6514       441.6509       421.0017       422.1934       404.3289
       394.8376       383.1975       381.9393       352.5892       331.9809
       309.0072       300.2286       283.9681       273.9531       249.7577
       236.2535       209.2657       188.3134       168.0904       152.3845
       118.1558       101.2332       74.39499       52.88896       32.24980
       15.53127      -13.43906      -33.85278      -67.01114      -81.26587
      -99.89655      -111.8716      -138.3947      -154.2698      -171.3185
      -183.2816      -203.4938      -209.8083      -224.8885      -238.1794
      -252.1433      -257.2651      -280.1467      -284.9749      -294.8820
      -296.8326      -309.5981      -311.9846      -327.3962      -331.9633
      -335.6250      -331.4204      -348.5491      -349.7761      -363.6200
      -371.9609      -382.9795      -386.5109      -404.0219      -404.9595
      -419.2581      -427.7855      -440.8737      -437.9768      -452.1212
      -447.4717      -455.9617      -475.3488      -497.8154      -502.7972
      -523.0104      -525.0417      -538.7980      -554.8993      -577.2532
      -582.1716      -601.1477      -610.6194      -624.0986      -636.9890
      -664.3478      -672.3992      -683.0249      -690.8381      -712.2195
      -721.0974      -739.5718      -742.3105      -758.2485      -767.1211
      -787.2305      -794.4419      -809.0889      -816.4465      -828.7590
      -831.3113      -847.9900      -845.7722      -853.2468      -860.9399
      -865.4653      -866.0984      -873.8750      -866.0354      -868.6907
      -863.3838      -857.0527      -854.5820      -854.6033      -840.8999
      -840.1851      -835.1138      -827.0054      -811.5435      -806.6865
      -796.1282      -784.4810      -764.0649      -758.4568      -743.9216
      -725.9705      -717.0959      -714.5403      -688.3960      -673.8254
      -661.5327      -651.1426      -632.6473      -618.6133      -604.0704
      -602.4910      -583.2615      -566.0184      -552.4492      -537.5802
      -523.5851      -529.2365      -518.6764      -507.6136      -486.3186
      -474.0146      -461.2668      -459.5675      -442.2448      -430.3721
      -419.2955      -410.2787      -390.4537      -381.2314      -368.0376
      -350.2922      -331.1510      -326.3203      -307.5859      -297.5519
      -285.9634      -262.8707      -235.0203      -217.3458      -193.3541
      -181.2275      -158.9586      -138.6871      -120.4656      -102.4344
      -85.82884      -67.05447      -35.67267      -12.34886       2.717438
       13.62543       42.60098       61.56842       93.22668       123.8185
       139.5406       155.9180       185.5903       198.4213       220.3832
       238.8315       259.3281       278.0707       302.5503       306.2584
       324.4181       345.1205       363.4662       373.0753       391.3813
       399.1499       416.9120       437.0574       458.8057       466.6401
       476.2422       485.8610       506.2646       512.5565       531.9287
       550.4673       565.6586       579.0352       594.6514       602.7244
       617.3170       618.0994       628.8857       638.8643       649.5989
       660.1621       679.5637       680.3496       690.2744       692.0830
       705.8440       723.1426       732.5415       723.7283       735.2095
       742.6582       746.5508       745.9358       794.7134       957.1729
       1382.793       2382.072       4306.369       7030.859       9895.609
       12129.57       12800.26       10610.92       5745.229       236.7344
      -6984.414      -18413.53      -25915.43      -16968.78      -769.5332
       3401.322      -1210.501      -3588.534      -253.3105       4465.110
       2976.673      -14.91992       3070.828       8362.906       7518.175
       3441.296       1511.096      -30.74902       2040.643       6772.415
       4096.562      -3656.479      -5762.468      -3718.488      -2247.195
      -650.3374       1882.440       2733.401       1232.795      -1629.691
      -8573.570      -12140.59      -2814.438       11249.81       15943.78
       7772.746      -2350.152      -4616.133      -3839.234      -6957.215
      -8358.708      -747.8223       7477.991       6118.094       737.3530
      -1132.179      -1340.012      -1759.424      -1228.754       2543.590
       7554.719       5014.917      -4403.426      -7070.199       1021.059
       7880.724       4207.357      -4584.641      -7433.539      -3349.605
       1179.738       2180.394      -734.8066      -2701.999       471.4219
       1543.078      -2234.923      -1103.543       5755.586       10316.85
       8270.071      -459.8672      -6664.212      -3429.158       789.9045
       1652.455      -479.0801      -6731.977      -7297.682       1353.248
       6864.766       5535.987       4291.247       939.4971      -4407.209
      -3710.207      -2116.797      -5537.790      -5562.956       1057.724
       5258.855       4027.756       444.6826      -4884.048      -6159.105
      -257.2871       5979.739       5609.417      -424.3486      -4054.956
      -2552.054       349.2998       3134.592       5432.141       5435.650
       815.8154      -3347.027      -466.5361       3871.966       3513.464
       1245.378       826.3901       2208.697       1228.502      -2685.014
      -3400.591      -740.7938      -91.80298      -1358.778      -332.8291
       2389.530       3225.673       1786.462      -172.7667      -135.6672
       215.0889      -1947.951      -4446.952      -4405.325      -1465.583
       1758.168       2726.086       2054.493       1504.825       2314.686
       2463.449      -228.2656      -3305.553      -4098.519      -3775.613
      -2697.310      -539.3169       578.8301       1687.779       4246.662
       2979.754      -2323.922      -3761.865      -1169.351      -349.3767
      -495.0356       1388.627       2615.513       1252.036       639.8975
       1919.942       2215.241       1140.688      -532.2998      -2721.459
      -2811.445      -1382.212      -1465.984      -113.3232       2591.682
       2050.834      -844.5273      -3023.607      -2419.556       465.6816
       1969.413       776.2775       224.4275       1066.611       344.4990
      -1229.023      -2532.237      -3573.560      -4050.637      -5071.715
      -6895.090      -6824.875      -2660.379       1508.560       2598.250
       2698.256       2734.107       2344.148       1234.969      -598.7363
      -1747.425      -1650.906      -1446.213      -308.9580       1940.163
       2412.157       942.2401      -34.82471      -730.6172      -2167.739
      -3071.832      -2484.428      -1194.514       46.76123       887.7214
       765.0471       426.4044       602.9927       575.3163       305.8492
       291.2131      -211.2202      -1716.747      -2618.003      -1914.473
      -1125.709      -1878.167      -2693.098      -2025.343      -1389.446
      -1501.767      -1201.438      -331.0854       643.4475       1521.303
       1052.842      -230.9985       484.9785       2449.712       3338.715
       3171.344       2426.133       781.4014      -2327.842      -5053.457
      -5561.144      -4161.320      -1865.327      -1046.658      -1409.095
      -987.6505      -98.47021       985.9641       1474.023       887.6753
      -378.8262      -1862.964      -2394.988      -2388.530      -2004.944
      -38.29980       1745.578       2920.044       4397.468       4008.896
       1643.291      -380.7937      -816.6870      -399.8452      -1585.187
      -4434.764      -5924.757      -4986.398      -3294.271      -1659.866
      -370.5510      -372.4996      -548.1350      -48.65698       404.5273
       1464.231       3639.057       4918.212       3098.124       1276.267
       1893.538       1843.801      -362.9277      -2068.961      -1158.951
       1233.169       2522.033       1846.176      -35.96118      -1198.606
      -192.3931       1625.797       2752.770       996.9824      -2427.915
      -4039.664      -4734.502      -3396.311       194.8271       3518.452
       4671.812       2683.598      -204.2158      -2096.919      -1542.532
       778.7427       2006.819       1837.209       661.8906      -1115.174
      -1956.696      -1769.337      -1376.198       492.2837       2524.360
       1980.071       822.8896       1386.286       2287.997       1416.883
      -504.8076      -1558.661      -1776.409      -1610.526      -772.6614
       172.5491       534.7351       564.7356       569.3286       1015.958
       2096.736       2591.374       1086.832      -734.4624      -1000.021
      -1063.602       42.03320       2400.841       2322.902       1100.209
       1221.106       549.4678      -1921.047      -3697.513      -3643.352
      -2669.831      -319.3311       2981.608       4776.723       3765.937
       1935.217       1262.262       148.9966      -2188.330      -3046.775
      -1786.116      -1096.225      -1161.110       551.5928       3653.769
       4148.895       1977.422       872.9058       1209.656       1238.672
       1203.458       1271.376      -461.6836      -2027.906      -1291.610
