     0.02500000      -56095.89       75744.25      -12345.00      -12345.00
      -29.98999       232.7100      -32.09000      -12345.00      -12345.00
       0.000000       23.90000      -12345.00      -12345.00      -12345.00
      -12345.00      -12345.00      -12345.00      -12345.00      -12345.00
      -12345.00      -12345.00      -12345.00      -12345.00      -12345.00
      -12345.00      -12345.00      -12345.00      -12345.00      -12345.00
      -12345.00      -30.20850      -67.28640       945.0000       0.000000
      -31.23600      -65.83800       0.000000       167100.0       0.000000
      -12345.00      -12345.00      -12345.00      -12345.00      -12345.00
      -12345.00      -12345.00      -12345.00      -12345.00      -12345.00
       179.5010       309.0203       129.7566       1.613880      -12345.00
      -12345.00       2.054258       0.000000       90.00000      -12345.00
      -12345.00      -12345.00      -12345.00      -12345.00      -12345.00
      -12345.00      -12345.00      -12345.00      -12345.00      -12345.00
      2008       318        11        13         2
       490         6    -12345    -12345     10509
    -12345    -12345    -12345    -12345    -12345
         1         7        13    -12345    -12345
    -12345    -12345    -12345    -12345    -12345
    -12345    -12345    -12345    -12345    -12345
    -12345    -12345    -12345    -12345    -12345
         1         1         1         1         1
PAGA    -12345          
        -12345  -12345  
-12345  -12345  -12345  
-12345  -12345  -12345  
-12345  -12345  -12345  
-12345  -12345  -12345  
-12345  -12345  BHN     
ZL      -12345  -12345  
[...]
      -1173.548      -1219.842      -1681.098      -791.5962       784.5928
       2082.357       2105.045      -61.51904      -1920.135      -605.2819
       645.0098      -345.1094       868.5923       2612.258       1198.157
       392.4699       786.0693      -556.8525      -1115.286       108.8328
       1058.915       1663.711       1732.494      -200.1245      -2607.357
      -1625.398       1285.489      -245.1670      -3371.041      -1548.255
       229.5623      -1220.602      -374.7207       1563.394       941.1935
      -255.4941      -736.9373      -889.5751       87.63428       1063.114
       704.7653      0.4965820      -893.9941      -2349.978      -2541.607
      -684.9883       1357.672       1039.506      -756.6389      -580.5718
       981.6680       1020.431      -144.2964      -1385.686      -960.2408
       598.4313       368.5845      -655.1230      -953.3843      -1500.828
      -2176.046      -1627.776       337.1627       998.1212       52.07227
      -396.2161      -659.4042      -569.0806       353.3153      -60.79272
      -1403.833      -1274.235      -627.5017      -1074.088      -1032.115
       176.2986       1114.145       377.4834      -1540.223      -2068.246
      -438.8647       1807.419       3007.333       1583.909      -1323.611
      -2525.280      -1552.053       6.135742       1139.401       1046.817
      -136.1860      -1048.225      -908.5481      -733.3862      -459.3423
      -594.8682      -1625.518      -954.7202       1137.333       993.5488
      -828.2463      -1268.751      -405.7502      -441.8999      -1489.824
      -1347.158       492.4761       987.1194      -244.9739      -745.2997
      -83.41602       1134.161       1418.943       147.1904      -1020.900
      -2586.964      -2732.661       503.1973       2981.943       2252.922
       688.7607      -868.4385      -3033.276      -2810.346       269.9243
       1908.691       1662.383       252.3555      -1699.179      -2189.666
      -1430.912      -165.0171       566.2747       166.4363      -28.65771
      -864.4219      -1244.191       357.9519       1216.625       484.5007
      -450.1152      -1718.940      -2493.327      -1225.666       1062.511
       1972.112       1606.048       1145.300       499.6622      -244.7773
      -990.3555      -1544.256      -1040.015       59.15576       801.4006
       815.4294      -566.3325      -2172.131      -1107.339       747.5574
       483.7947       667.2056       1562.163       285.9614      -1225.150
      -490.1428       916.3103       866.5308       919.0273       1424.133
       484.1274      -380.6433      -806.9768      -1238.430      -619.4305
      -107.0872       352.7070       1483.861       2266.326       2170.404
       830.4922      -1992.868      -3229.260       42.78613       2743.988
       249.4360      -2523.070      -1256.981       1917.017       4275.169
       2763.073      -1090.556      -570.0972       2068.293       1334.309
      -135.1198       148.6396       644.8660       873.0146       1784.287
       2617.574       1413.846      -250.7883      -807.1105      -669.7844
      -24.91956      -397.7241      -732.5171       597.2866       1989.813
       1989.869       522.9210      -601.0649      -435.5100       11.09766
       311.5476       560.6606       1078.077       1769.914       1732.538
       576.3939      -15.55127       358.2976       616.8159       1308.550
       1552.536       863.9832       84.57617      -1166.194      -1441.916
      -381.9216      -322.4490      -959.8209      -254.4165       1213.309
       1029.169      -638.5654      -1005.225       696.2075       1631.434
      -307.8043      -1144.913       1651.292       3222.029       1555.692
      -325.0564      -775.4288      -365.0667      -467.7781      -242.4012
       753.6180       338.3059      -1230.198      -1360.494      -793.1755
      -1046.094      -675.7253      -144.9539      -838.1106      -919.0068
      -586.4751      -1132.236      -500.0142       2305.413       3516.553
       1515.509      -489.2021      -1118.379      -409.9492       1234.545
       1932.484       565.4170      -1575.169      -2783.938      -2234.697
       324.5078       973.0596      -1499.609      -2428.707      -2138.724
      -2506.603      -339.1025       2573.516       1341.004      -1388.152
      -1910.770      -469.6375       1505.705       1068.688      -1983.244
      -3310.894      -1060.254       882.2717       10.16846      -1576.696
      -1752.817      -696.5854      -871.9067      -2182.434      -1257.627
       273.2214      -10.59918       33.36127       378.8467      -589.3101
      -1461.812      -1109.886      -1.282349       677.8021       308.8574
      -1161.604      -2679.278      -2129.338      -594.7091      -152.8258
       216.9799       88.20410      -658.4075      -632.5381      -1512.096
      -2851.818      -1857.935      -104.0721       303.5127      -138.7681
      -826.7397      -1701.323      -1698.945       281.6216       2119.270
       969.3843      -1131.960      -1471.315       179.2219       1518.550
      -101.5552      -1585.908      -79.78784       809.9197      -268.0730
      -1035.936      -924.2849      -805.1448      -914.0620      -139.1880
       1293.580       1066.480      -548.3839      -374.7129       1814.238
       3193.229       2948.039       299.0093      -2657.070      -2629.023
      -1264.067      -435.3761       401.1645       348.5605      -1112.687
      -1172.555       1254.750       3336.754       1971.625      -1281.018
      -1473.614       544.9260       975.3130       136.2144       528.9087
       1997.992       2072.612       872.0172       147.3721      -938.9847
      -801.3467       945.9036       853.6238       339.1553       1945.265
       2556.579       173.1660      -2386.156      -2366.406      -23.34375
       1742.478       780.2573      -955.4319      -956.3423       844.8184
       2973.109       3124.372       1066.571      -450.4323      -777.2924
      -243.5898       843.1875       1348.537       1029.436       922.0200
       1436.830       1178.571      -358.8945      -871.9918      -108.1812
       278.0708       711.1099       660.8921      -969.4517      -1424.626
      -3.084229       804.9612       742.2922       715.6039       364.8603
      -41.32654      -249.8882      -922.3386      -1051.815       1042.306
       3243.850       2666.581       646.2523       102.2327      -2.100098
      -1678.759      -2813.826      -615.4102       1735.348       896.3254
      -931.2131      -1113.095       263.9697       1736.543       1873.980
       656.1935      -94.41406       1711.227       3478.150       1921.663
      -566.2175      -405.6533       957.6943       530.1071      -828.8216
      -152.5109       749.2090      -813.7681      -2050.669      -1288.490
      -173.3682       551.2891       1197.281       2923.748       3986.936
       2843.650       1158.322       32.74817      -358.4694       14.49756
       597.4116       1228.860       1234.397       661.1941      -468.5454
      -1838.846      -2464.688      -1939.351      -132.7258       1442.591
       948.2144       596.0420       1640.213       2683.835       2339.685
       1233.691       744.3316       260.8416       53.29077       671.3214
       543.4673      -431.6924      -1272.718      -432.6802       1511.528
       1194.705      -2149.926      -4554.843      -3840.965      -1041.165
       1391.783       1308.039      -108.5441      -545.1656      -170.2578
       645.3350       2011.594       2555.871       1218.828       169.0408
      -880.5767      -1781.890      -131.7356       63.33105      -3822.570
      -4851.934      -1015.176       2300.520       3534.061       3767.392
       1886.952      -748.6289      -1933.190      -1670.544      -663.3639
       207.0264       1534.656       2408.127       145.2188      -2966.023
      -3127.071      -368.9639       1968.708       1947.693       516.0735
      -327.1860      -678.8833      -855.3154      -889.0859      -1592.053
      -2424.141      -2037.149      -698.9678       1016.440       2241.946
       2547.099       853.8618      -2416.225      -3103.337      -105.4521
       2666.536       3313.775       2856.223       2025.998      -627.7754
      -3984.083      -4162.273      -861.5869       1754.188       1281.667
      -1150.232      -2022.648      -1238.767      -113.0117       1480.826
       1629.106       134.9429      -836.5288      -1554.686      -1824.011
      -1183.080       570.3838       2447.732       1527.031      -781.7370
      -10.50964       730.3462      -1136.810      -2084.556      -1937.488
      -2244.415      -1202.325      -749.0425      -1853.648      -813.8418
       1741.138       2374.077       1585.787       783.8149      -391.0002
      -1584.905      -180.5911       1549.192      -191.9673      -2513.733
      -837.7236       2230.816       2475.342       434.8745      -1596.257
      -3138.141      -3315.630      -1460.214       338.6949       369.8009
       128.4639      -782.8115      -2118.228      -1471.701      -202.6213
      -731.1567      -914.5308       469.6123       1546.574       988.0977
       571.5676       992.2350       792.2031      -636.6543      -2023.250
      -2396.448      -1640.007      -375.9129       394.6387      -1022.719
      -3013.850      -2333.215       35.82373       842.3313       681.7686
       1380.677       1724.938       50.94189      -1879.312      -2111.306
      -1076.803      -600.7465      -26.14502       971.6006       1344.653
       520.6963      -715.3657      -1464.875      -1685.042      -2383.863
      -2851.571      -1436.834       1088.014       2722.112       2878.087
       2008.470       1431.522       1058.950      -320.7207      -2845.001
      -3185.856      -1119.138       604.9175       2287.806       3314.966
       1052.464      -2482.543      -3662.569      -1852.941       790.3174
       1954.473       817.8123       179.9424       1031.460       529.2070
      -838.2728      -326.4175      -431.1626      -2332.991      -2788.495
      -413.2090       1965.309       2033.118       1194.600       1557.342
       1319.259      -227.3552      -317.6621       2054.879       2883.318
       1576.891       783.8259      -142.1538      -1718.658      -2088.054
      -1960.110      -2481.271      -1696.165       1245.030       2075.661
      -218.6523      -1559.797      -1004.879      -116.7119       1642.638
       2860.558       2150.886       642.5537       602.5176       2565.284
       4271.529       2622.498      -103.8264      -17.51367       864.4563
       389.2129       1112.981       2415.735       1706.528      -491.2234
      -1107.031      -500.5177      -197.0918       638.3467       2027.515
       1532.587      -677.1604      -877.6724       1315.708       1367.101
      -614.8489      -1536.291       102.9131       3137.609       3949.894
       1951.838       788.4658       902.7226       490.2607      -1191.705
      -811.2197       2549.164       3016.575      -612.4561      -2786.584
      -1637.593       820.7549       1268.460       787.4424       902.2607
      -696.8076      -3393.344      -3170.189      -217.2236       2663.694
       2821.664       735.6769      -193.6328       1538.756       3578.446
       3528.620       1298.319       41.50308       188.9678       54.59564
       27.90039      -583.4712      -1621.541      -384.6636       1277.591
       1185.822      -846.8867      -2304.112      -585.7861       1686.125
       730.3359      -1700.141      -2618.214      -1773.650      -267.7189
       63.15039      -1924.930      -3135.542      -1142.717       2460.745
       3469.450       1912.637       485.6537      -276.6927      -601.6031
      -79.22778       991.1426       1900.747       882.4526      -1684.306
      -2993.204      -2164.172      -1409.368      -1263.122      -956.4453
      -450.2307      -853.5446      -646.8389       1715.760       3733.870
       2027.502      -968.9697      -1160.544       143.4794       158.9937
       229.1703       256.1353      -555.9026      -202.8545       1476.427
       2217.256       1753.535       666.9316       1545.691       3103.232
       2458.658       192.9307      -2248.029      -3769.672      -4804.824
      -8032.914      -13955.09      -20518.28      -26228.82      -30624.72
      -30740.81      -25559.23      -17933.81      -9700.615       441.4375
       11458.63       18176.33       18511.46       14725.84       3430.016
      -14556.34      -25128.34      -20885.36      -14233.70      -15495.73
      -21392.45      -24717.70      -21174.05      -9519.230       6206.703
       19863.86       28815.41       32646.30       33583.39       41028.39
       60033.62       75744.25       63210.17       25567.86      -6708.965
      -19510.16      -24261.80      -30328.66      -35311.76      -35591.51
      -30059.44      -12401.48       13552.35       26835.25       23343.08
       20526.80       22050.39       17909.37       8691.109       11725.16
       23984.57       13110.27      -22630.38      -48246.53      -41585.31
      -8100.172       25193.19       39127.45       40363.81       39291.61
       30695.50       4050.852      -35682.11      -56095.89      -35518.37
       1250.551       19998.33       14066.11      -3144.262      -14645.41
      -20706.03      -31293.06      -42303.64      -43923.55      -30606.54
      -3830.199       16591.61       16865.54       10301.54       8570.059
       5947.791       1585.408       3068.328       5724.525      -397.6543
      -7046.102      -7324.344      -3412.469       2911.320       8595.328
       10121.82       4215.769      -2549.812       7351.750       31254.88
       41732.03       30193.15       13180.62       2238.297      -1623.203
      -7873.211      -21510.77      -30627.34      -24277.09      -4009.562
       14055.73       12321.41       549.8320      -5766.213      -8730.344
      -11746.79      -14566.45      -14994.84      -9930.073      -1485.805
       10115.56       24485.20       35395.53       34704.79       18803.96
      -4584.500      -25164.75      -41810.55      -47336.36      -34004.22
      -14414.34      -728.8359       12514.77       26746.68       35220.20
       32260.34       19875.57       8318.534       2841.242       721.4468
      -407.1289      -4045.609      -11036.96      -15131.57      -9906.783
      -659.5127       984.0537      -4745.277      -6212.502      -1515.724
      -812.1816      -5573.039      -7242.636       104.4453       16057.63
       25445.40       18318.12       4829.324      -8212.539      -20322.83
      -27196.86      -26074.18      -16096.12      -2421.359       6098.674
       5531.040      -2934.717      -9347.668      -3252.100       5485.190
       3436.375      -4183.699      -8234.490      -8820.858      -6279.958
       1541.426       12305.82       17994.00       16003.37       10220.81
       7066.174       8205.246       8889.191       7089.532       2904.643
      -3368.365      -6674.077      -1612.494       6220.698       4830.496
      -1928.642      -1929.938       828.3633      -410.5407      -554.2546
       757.8535      -1946.285      -10728.43      -19146.81      -17868.55
      -6193.488       5018.322       7719.041       7790.195       7940.279
       6040.471       5963.646       6337.691       6113.279       8907.654
       11914.09       7479.354      -3911.641      -10013.98      -5402.207
      -2323.322      -5604.625      -4993.168       898.5938       3754.977
       3902.973       4138.309       4098.191       4033.062       1080.596
      -4658.471      -8414.441      -10635.55      -9233.641      -3213.129
       475.3857       1769.474       3840.563       1255.848      -5585.027
      -8976.072      -7022.763      -947.9297       6855.836       11252.32
       13726.37       15212.16       11662.32       4084.809      -4284.805
      -8247.826      -5523.715      -4978.959      -9164.869      -9967.147
      -3453.611       4218.791       4533.692       523.3489      -841.5225
      -2240.803      -6302.125      -9480.019      -5871.236       2575.034
       5474.143      -260.2461      -7204.283      -9004.273      -2646.842
       8966.863       15802.58       13198.96       6417.367      -1205.879
      -7291.332      -7640.041      -245.1094       12709.57       22242.65
       18147.68       5421.253      -2860.141      -4673.373      -2765.198
       945.7866       1088.609      -2051.174      -3294.053      -2699.519
       404.7695       7045.383       8561.930       3231.353      -912.0156
      -4267.811      -8302.590      -10151.48      -8674.451      -3193.518
       2460.139       4144.785       4609.354       4740.113       452.0957
      -5954.742      -8076.803      -4396.594       2721.578       8347.498
       5720.348      -3149.621      -10031.79      -12801.32      -12876.87
      -8403.975      -1588.010       63.44922      -2991.496      -3824.301
      -2762.556      -2022.423      -1365.667      -2190.457      -3157.030
      -1924.698      -115.2002       2311.439       7047.789       11694.97
       9587.437       1705.406      -3664.520      -4030.636       655.0039
       6749.615       4565.589      -3455.512      -3272.654       5666.283
       10043.92       8073.059       6578.887       7342.496       8787.798
       4869.602      -5435.002      -10964.63      -7830.346      -6036.287
      -7879.794      -4816.781       36.36035      -2342.697      -8915.838
      -11503.35      -8844.578      -3813.091       111.4062       2739.510
       7340.613       12658.05       11976.38       3405.357      -3827.138
      -2057.291       2146.339       2876.798       2960.715       2442.744
      -1676.387      -5657.801      -4098.646      -1599.260      -3373.064
      -6481.051      -6171.947      -96.96094       6452.113       8876.639
       8861.551       7088.585       4001.290       667.8613      -4167.414
      -10071.64      -13540.85      -10812.95      -1381.891       7872.238
       8070.412       571.7754      -6922.135      -10040.26      -7104.903
      -1419.762       2994.467       7769.932       10875.84       10680.46
       7527.613       1893.601       124.1064       3453.754       3637.993
