     0.02500000      -34061.05       35724.18      -12345.00      -12345.00
      -29.98999       232.7100      -32.09000      -12345.00      -12345.00
       0.000000       23.90000      -12345.00      -12345.00      -12345.00
      -12345.00      -12345.00      -12345.00      -12345.00      -12345.00
      -12345.00      -12345.00      -12345.00      -12345.00      -12345.00
      -12345.00      -12345.00      -12345.00      -12345.00      -12345.00
      -12345.00      -30.20850      -67.28640       945.0000       0.000000
      -31.23600      -65.83800       0.000000       167100.0       0.000000
      -12345.00      -12345.00      -12345.00      -12345.00      -12345.00
      -12345.00      -12345.00      -12345.00      -12345.00      -12345.00
       179.5010       309.0203       129.7566       1.613880      -12345.00
      -12345.00      -1.614388       0.000000       0.000000      -12345.00
      -12345.00      -12345.00      -12345.00      -12345.00      -12345.00
      -12345.00      -12345.00      -12345.00      -12345.00      -12345.00
      2008       318        11        13         2
       490         6    -12345    -12345     10509
    -12345    -12345    -12345    -12345    -12345
         1         7        13    -12345    -12345
    -12345    -12345    -12345    -12345    -12345
    -12345    -12345    -12345    -12345    -12345
    -12345    -12345    -12345    -12345    -12345
         1         1         1         1         1
PAGA    -12345          
        -12345  -12345  
-12345  -12345  -12345  
-12345  -12345  -12345  
-12345  -12345  -12345  
-12345  -12345  -12345  
-12345  -12345  BHZ     
ZL      -12345  -12345  
[...]
      -983.6807       842.6743       1991.820       407.1220      -304.4644
       267.7524      -300.5215      -852.3324      -473.9248      -935.2407
      -1580.574      -823.2488      -240.6755      -925.1385      -689.0830
      -207.4240      -107.8250       360.1074       452.9888       1305.904
       2722.680       1797.486      -719.7930      -2709.518      -2082.939
      -88.97900      -431.9248      -1483.175      -340.7404       136.6046
      -665.4562       126.0986       843.0601      -867.8431      -1019.979
       1901.260       2062.253      -1496.442      -2259.768       211.4707
       1776.428       1577.520       133.7207      -1423.453      -489.6240
       1579.438       1472.038       177.1710       181.7189       356.3786
       63.56587      -227.5264       209.7610       639.0898      -1087.588
      -2763.807      -1843.447       136.5029       1345.640       922.3997
       485.6626       166.4492      -642.1795      -565.2588       117.7485
      -980.7075      -2377.198      -694.0449       2676.978       2889.936
       542.8019       251.5093       1269.790       243.6829      -627.2040
       28.41805       81.73404      -201.7474       47.88074       175.3164
       948.0901       1061.591      -570.4111      -2684.615      -3349.216
      -1621.229       243.4611       365.6699       435.0986       1462.267
       2351.989       1308.865      -876.3149      -1870.106      -831.4253
       510.3662       1339.410       1464.374       651.2248      -17.22867
      -130.7334       693.8896       2369.809       2655.081       835.6760
      -1405.309      -1172.796      -575.8545      -1718.816      -1249.680
       1072.618       1760.716       1279.818       952.0977      -111.8064
      -1255.851      -850.5474      -398.0244      -311.7410      -776.1118
      -1735.217      -1491.696      -355.6013       215.8462       1658.176
       2827.349       1501.672       509.4175       1627.462       1905.454
       1395.557       1218.119      -400.1387      -2132.205      -1502.386
      -377.5464       16.87698      -209.4678       443.6919       1746.571
       1384.732       478.6290       492.3613      -227.2454      -767.1794
       685.6423       1518.084       94.77100       657.6104       3015.304
       2766.504       413.1455      -1072.322      -1148.343      -823.6113
      -1328.781      -1297.996       465.4883       2072.199       2565.629
       3169.715       3590.975       3829.531       2587.865      -998.7217
      -3760.799      -3651.828      -2149.464      -723.6523       652.4824
       2779.434       3896.768       3552.257       2725.786       1112.159
      -1110.111      -2162.713      -366.9160       2785.185       2615.544
       612.5260       301.1472       588.4653       524.2498       502.6372
       1185.479       1381.535      -45.65039      -1266.423      -1447.727
       27.55859       1727.876       2031.211       1597.888       749.7979
      -1184.178      -2316.281      -1304.384      -24.57080       776.7446
       2082.161       3503.523       3569.415       1964.717       989.6470
       1740.293       2296.085       701.4316      -1076.229      -2178.487
      -2933.782      -1678.698       1002.299       1625.984      -223.0181
      -1386.120      -803.7642      -597.2188      -934.3867      -1177.435
      -264.5823       1253.527       1023.960      -367.8628      -797.8555
      -1392.197      -1603.490      -734.4058      -491.1576      -98.58691
       661.8228       685.6801       386.0417      -925.2314      -1015.463
       611.2256       1331.369       887.8216      -104.4277      -173.7334
       1313.917       1824.357       205.2246      -1468.889      -2029.236
      -1763.268      -219.4629       679.8555       944.9229       601.1880
       207.7344       1860.556       2330.522       149.7656      -1296.712
      -535.4270       7.699707      -2182.368      -3139.688      -1865.146
      -2426.415      -3505.279      -2335.861      -1756.007      -2410.791
      -1418.829       603.3545       1308.905       1137.405       927.1152
       1341.653       1964.781       1763.982       92.85938      -2793.793
      -4967.984      -3986.687      -1651.811      -1003.099      -796.9509
       605.0232       1253.603       443.2839      -646.5769      -1176.730
      -1292.859      -1901.545      -3539.376      -3597.857      -390.0703
       2673.908       1661.083      -1819.517      -3642.661      -2845.554
      -2004.039      -534.2324       1668.758       949.6724      -1114.706
      -693.7804      -73.26172      -1884.268      -3542.054      -1965.464
      -1014.561      -2993.896      -4183.816      -3162.211      -1817.180
       47.09277       2230.904       2478.823       893.8007       290.2634
       808.5488       1023.317       2.687988      -1356.800      -1006.745
       301.9599       327.7756      -788.5723      -2278.294      -2177.735
      -195.6743       1576.338       1965.430       1547.569       1392.170
       779.2314      -1078.471      -3383.234      -3947.676      -2484.899
      -1357.291       320.8647       1127.639       601.0186       1172.735
       2012.443       944.3228      -1305.289      -1632.457       71.85986
       911.0349      -211.0513      -2382.472      -2951.660      -1415.022
      -95.18335      -406.0637      -1272.218      -830.2295       715.7649
       1137.384       610.6447       488.4663       952.9487       1743.213
       1977.834       981.8369       783.8809       941.3679      -542.0823
      -1475.638      -436.8127       295.3483      -81.64673      -703.9880
      -878.8135      -1185.424      -1434.767      -575.9470       345.9814
       807.6289       1684.657       1641.799       781.5845       991.1558
       1562.272       287.9165      -1216.733      -769.7098       293.3330
      -504.8145      -1651.822      -495.2437       1239.896       1915.760
       2042.086       968.4419      -600.6597      -736.2915       1293.124
       2989.156       1799.108      -288.5099      -26.68640       776.5400
      -750.3433      -1982.858       180.8164       3158.426       3952.831
       2444.790      -16.35791      -2123.228      -2616.559      -1090.559
       1362.066       3090.624       3660.023       2784.625       794.5728
      -1029.594      -1621.150      -1216.335      -945.8440      -968.1663
      -828.2014      -181.9736       1658.572       2771.127       2633.391
       2489.332       2274.660       1039.212      -1477.568      -2906.732
      -1377.463      -311.8712      -715.8452       834.0303       3195.951
       3937.701       3174.666       1061.296      -396.2153       322.2422
       1899.907       2452.361       2226.945       1687.248       1132.258
      -184.0146      -2354.397      -3228.729      -1371.292       1164.315
       816.9976      -1092.916      -1504.907      -886.4486      -64.49622
      -488.4055      -281.0830       1803.388       2574.237       2374.167
       2199.890      -168.2012      -3193.454      -3252.613      -1951.185
      -2360.365      -2022.564       517.1963       2320.454       2608.934
       3025.579       2202.848      -81.10254      -1451.406      -1427.992
      -970.0591       662.0117       2967.022       3979.631       3370.626
       2491.171       1995.168       992.4487      -922.1758      -2122.560
      -1710.549      -825.4492      -1638.366      -2483.592      -42.01660
       2510.983       1686.976       326.1497       669.1023       1349.333
       70.06787      -1407.332      -720.3979       335.7222       639.2681
       1044.882       1254.310       1333.858       564.4443      -1839.369
      -3275.690      -2536.661      -1222.799       384.1387       1409.302
       1764.602       1626.567       186.6748      -1988.517      -3377.937
      -2840.969      -846.8008       996.7114       2161.532       1768.228
      -185.0728      -1892.052      -1740.229      -1067.505      -1574.408
      -1650.725      -769.9506      -506.2461       721.2188       2870.896
       2784.792       587.9585      -1002.445      -847.4021      -34.93652
       926.2173       1220.565      -1026.482      -2083.787       521.0342
       2689.908       2739.125       2145.418       681.5479      -1697.629
      -3576.563      -3394.630      -759.8784       2319.342       2502.165
       79.95605      -2676.872      -3940.269      -2960.913      -1943.230
      -3511.307      -5335.158      -3852.454      -565.9600       1630.207
       2670.020       2680.165       2079.972       1967.216       2097.707
       1899.291       2109.637       2205.601       1161.491      -660.2715
      -2050.085      -2373.927      -2319.550      -3016.456      -3444.598
      -2317.628      -1424.196      -1845.612      -1408.359       369.3507
       1010.043      -1105.532      -2749.860      -1427.537       438.5859
       2143.481       3329.670       2129.388      -14.11328      -1188.816
      -1145.165      -1422.705      -2011.548      -1482.926      -1249.887
      -1170.329       962.7559       3773.847       4625.857       2976.105
       476.2065      -1720.709      -2570.899      -931.6741       510.9561
      -649.9050      -1224.995       338.6042       1240.447       224.5869
      -612.6072      -680.7314      -1413.982      -2519.090      -3562.852
      -5023.712      -5070.941      -2204.891       1581.955       2807.765
       1174.633      -498.3804      -316.3984       1359.453       2478.928
       2204.661       1525.205       191.8418      -1264.036      -1398.896
       97.49780       1335.103       867.0061      -44.49854      -563.4349
      -379.7549       1887.312       5058.764       5479.000       2680.491
      -394.9277      -2126.540      -2593.365      -2459.451      -2611.748
      -3719.532      -4155.481      -2150.415       1475.093       3532.729
       1219.665      -2151.491      -1767.390       1184.022       2626.889
       1709.864       510.5911      -25.77881       784.4385       2442.380
       3731.582       2714.480      -1043.929      -4109.252      -4413.132
      -2991.439      -1383.605      -912.8330      -1019.589      -523.6826
       297.8062       1621.739       2846.549       2833.711       1850.364
      -195.7722      -1434.742      -369.9438       1210.085       1711.290
       822.0059       240.3896       1607.156       2355.249       642.7468
      -1352.847      -1029.853       704.8589       1430.051       2106.838
       2814.858       1089.516      -1082.392      -1522.366      -1571.535
      -1918.466      -2099.210      -2159.519      -2747.427      -2715.270
      -716.9004       1835.151       3422.463       3124.199       2102.504
       1568.280       653.9200       261.4575       1438.807       1590.249
      -234.5630      -1685.350      -2127.172      -1666.039      -440.5474
       190.4131       22.51001      -886.5425      -2184.786      -3669.973
      -3853.936      -999.0596       1690.267       1429.509       1159.437
       2604.454       4205.097       4650.295       4348.480       3335.311
       642.6318      -3406.543      -4625.916      -1483.205       811.6771
       428.6086      -11.15527       936.6855       2708.160       2883.209
       1781.338       1417.042       1430.141       328.9297      -1376.806
      -2207.029      -2240.533      -2137.555      -2100.766      -1915.546
      -1853.125      -1607.880      -121.5830       1610.935       3529.793
       5266.971       5877.976       5545.406       3802.816       1082.225
      -1483.967      -3642.902      -4072.152      -3119.221      -3584.002
      -4947.966      -4049.778      -716.8374       2233.971       2806.311
       1821.961       1436.986       3112.683       5246.128       5666.526
       3195.910      -269.6943      -1522.775      -1376.235      -1888.438
      -2285.116      -1293.335      -42.98535       841.5713       1928.049
       3631.008       5556.279       5816.550       4681.574       4005.213
       3663.938       2725.420       1800.171       1770.339       2499.654
       2071.936      -432.0098      -4238.992      -7477.109      -8691.719
      -9078.691      -9067.922      -7595.927      -4656.570      -2488.760
      -2260.025      -196.7578       5748.660       12383.49       15075.80
       8847.221      -5573.105      -17795.12      -19883.59      -13541.37
      -4710.240       4253.162       11464.56       9253.503      -2436.574
      -12711.01      -18148.36      -21646.48      -18579.34      -8518.963
      -2079.331      -172.7031       6450.695       20578.91       32091.52
       30898.84       20971.07       7803.559      -8762.344      -25043.40
      -34061.05      -33578.09      -30882.76      -30897.55      -28175.23
      -19757.14      -4888.809       16247.85       32944.80       35724.18
       25990.05       12538.34       5206.492       5039.016       9968.340
       17560.07       22296.29       23298.02       23679.04       19547.67
       3859.266      -16362.84      -24353.17      -14827.37      -308.0410
       7738.730       12093.17       14560.80       11386.72       4477.137
      -4731.141      -14552.84      -17487.13      -9485.645       3684.568
       10721.32       7481.553       3147.201       5106.494       7381.701
       2429.516      -8293.117      -18216.06      -21080.10      -16067.70
      -6934.379       2798.160       8972.322       6363.639      -4889.625
      -15764.94      -16323.33      -6580.945       5043.279       10262.91
       4885.898      -6304.725      -11335.14      -6974.955      -539.7969
       5761.676       15378.48       26519.02       33459.80       26233.36
       1156.375      -23415.08      -29826.38      -21043.99      -9182.518
      -2517.248       1782.930       8727.430       15932.79       17845.98
       12025.10       2181.539      -5397.955      -7394.746      -8032.441
      -10268.24      -6832.479       2693.818       9150.594       9755.114
       5657.576      -3133.359      -13110.14      -19690.24      -19901.55
      -15587.79      -13887.54      -13141.34      -4802.695       8958.031
       21946.16       29598.08       29088.53       24777.53       16161.82
      -389.6562      -15770.53      -20613.29      -17004.75      -11051.75
      -5409.114      -308.4922       5004.035       9940.469       10787.14
       7351.361       4652.693       5021.571       5171.928       1036.902
      -6736.199      -12992.14      -14769.65      -13901.18      -12711.12
      -10886.86      -3081.160       9378.943       13082.92       3039.643
      -7576.848      -7543.748      -4145.441      -7847.008      -14846.19
      -16322.22      -9256.211       1979.609       11598.16       17030.09
       16245.75       12505.74       12441.89       12786.70       8285.539
       1450.616      -3283.605      -4690.562      -4908.926      -7473.523
      -13137.14      -18202.84      -18182.39      -11930.63      -5344.640
      -2977.160      -2961.867      -2714.107       2631.539       13359.31
       22083.71       24116.09       18540.48       8826.384       1441.494
      -3511.912      -8172.191      -12519.45      -15672.82      -13693.67
      -6054.242       3491.785       13106.30       19905.41       19466.08
       12032.68       3610.719      -934.6992      -443.6182       2360.936
       2534.540       1206.766       3976.193       7763.393       4536.650
      -4801.340      -12868.32      -16005.80      -14417.62      -10943.35
      -10023.18      -12107.82      -11423.37      -4702.490       2851.684
       6175.281       5737.252       3311.936       1373.376       3802.408
       8413.820       9676.793       8411.771       5334.454       1549.780
      -1121.445      -4546.594      -6655.857      -6107.998      -6723.008
      -8427.381      -8919.910      -6433.721      -256.9473       4512.619
       3263.497      -235.0552      -1156.929      -430.6519       23.78687
       770.8027       2464.203       5101.625       7538.479       6906.734
       2554.431      -1418.196      -1756.845      -884.0020      -2184.176
      -2967.738       940.8926       6012.986       7722.840       7132.852
       6117.572       5700.619       5737.287       5400.787       2870.408
      -2702.865      -7510.352      -8593.211      -7655.975      -5913.452
      -3390.610      -1071.103       509.2876       535.4573      -988.0398
      -786.4697       1608.778       3100.686       3244.429       3324.951
       3934.914       5642.242       6889.618       4787.987       1500.411
       727.8855       1531.402       638.6973      -2392.408      -3992.448
      -1098.199       5547.672       9944.639       8080.252       3381.000
       47.17358      -410.6980       756.0660       368.6396      -2078.314
      -5315.121      -7722.285      -7866.598      -7303.938      -5864.395
      -2854.673      -869.4351      -1461.460      -4165.240      -6356.133
      -5893.321      -4540.691      -2631.177       1683.854       4876.048
       3311.858       410.4221       834.8760       2134.950       888.1450
       377.7344       1712.951       2933.943       3842.398       3976.791
       3685.508       4206.350       5737.754       7122.380       6349.936
       1815.059      -5334.082      -9715.760      -8651.383      -4734.460
      -1591.851      -2052.718      -3912.281      -3320.194      -881.1602
       913.6045       1671.625       1697.886       446.1304      -1806.559
      -4807.402      -7351.770      -7199.311      -5582.416      -4453.216
      -2237.556       1641.105       5358.508       8275.723       11009.81
       13169.09       12812.50       8656.893       2264.012      -3663.889
      -7370.654      -7885.280      -5967.126      -3181.083       24.62988
       3376.320       5165.477       4274.000       2189.593      -486.0352
      -2898.525      -3190.998      -2477.747      -2269.094      -2203.728
      -3707.240      -4896.308      -1000.896       4179.381       4117.206
       1381.172       983.8687       1764.093       1283.550      -1021.487
      -3409.482      -2833.481       4.499023       2578.091       2118.521
      -1879.940      -5381.248      -4412.595      -17.40869       2088.483
       462.1565      -197.0693       2182.124       4331.900       3973.147
