     0.02500000      -64557.23       64196.02      -12345.00      -12345.00
      -29.98999       232.7100      -32.09000      -12345.00      -12345.00
       0.000000       23.90000      -12345.00      -12345.00      -12345.00
      -12345.00      -12345.00      -12345.00      -12345.00      -12345.00
      -12345.00      -12345.00      -12345.00      -12345.00      -12345.00
      -12345.00      -12345.00      -12345.00      -12345.00      -12345.00
      -12345.00      -30.20850      -67.28640       945.0000       0.000000
      -31.23600      -65.83800       0.000000       167100.0       0.000000
      -12345.00      -12345.00      -12345.00      -12345.00      -12345.00
      -12345.00      -12345.00      -12345.00      -12345.00      -12345.00
       179.5010       309.0203       129.7566       1.613880      -12345.00
      -12345.00     -0.2989843       90.00000       90.00000      -12345.00
      -12345.00      -12345.00      -12345.00      -12345.00      -12345.00
      -12345.00      -12345.00      -12345.00      -12345.00      -12345.00
      2008       318        11        13         2
       490         6    -12345    -12345     10509
    -12345    -12345    -12345    -12345    -12345
         1         7        13    -12345    -12345
    -12345    -12345    -12345    -12345    -12345
    -12345    -12345    -12345    -12345    -12345
    -12345    -12345    -12345    -12345    -12345
         1         1         1         1         1
PAGA    -12345          
        -12345  -12345  
-12345  -12345  -12345  
-12345  -12345  -12345  
-12345  -12345  -12345  
-12345  -12345  -12345  
-12345  -12345  BHE     
ZL      -12345  -12345  
[...]
       2937.090       286.7935      -1570.967      -2082.223      -1852.266
      -1872.774      -1329.902       770.5049       1980.985       769.3259
      -554.7385      -978.6292      -624.5518      -103.0140       302.8618
      -212.8577      -1338.325      -1041.393       1073.944       1407.078
      -561.2554      -1176.577      -350.1680      -916.1045      -1621.064
      -882.9143       488.0271       1032.161       1163.373       1868.992
       1308.511      -1799.474      -2789.014      -474.2540       524.4741
      -575.1191      -193.6665       1324.271       1116.074      -626.5802
      -261.6548       1954.341       2390.205       881.4109      -120.5732
      -799.2324      -1145.401      -675.8052      -504.5425      -946.1060
      -531.0109       101.7075       196.4935       409.2136       970.9313
       393.3328      -1093.528      -1404.966      -266.2749       1027.662
       1844.013       943.5206      -287.2092      -701.9077      -339.7931
       249.0925       130.4959      -66.31396       112.7175      -844.2417
      -1720.303      -403.4587       1377.855       304.1802      -1591.331
      -1903.410      -1015.089       534.3486       1596.668       1093.638
       429.5596       315.9864       296.6961      -44.04028       198.8290
       626.6108       179.1257      -618.6365      -952.3582      -130.3145
       1643.434       1246.658      -873.7681      -1210.579       794.8125
       1924.990       1060.536      -547.8988      -1052.679       69.31250
       1670.501       1990.968       661.7495      -1296.296      -1912.865
      -991.2455       33.30542       394.1582       288.9421      -455.3135
      -719.1479      -773.4727      -874.0256       147.0459       1853.767
       2178.130       838.4346      -861.4487      -1482.392      -1430.465
      -390.4701       531.4661       601.6443       947.9592       747.9679
      -342.0038      -317.3118       599.0234       2280.319       3239.553
       1752.196      -222.1924      -1194.259      -1541.010      -107.7190
       1363.395       1026.658       18.76587      -208.5063      -623.2886
      -1484.812      -432.0347       2304.848       2329.238      -317.3594
      -2454.259      -2453.294      -1197.785       129.4238       1213.256
       1310.667       878.9312       1391.022       1047.885       121.7424
       719.1235       2460.882       2555.673       927.6038       289.9746
       787.7623       591.9600       147.3993      -314.7725      -1002.450
      -1250.496       196.0371       1255.053       993.6533       1100.583
       1170.521       161.9678      -1021.518      -1677.830      -1445.254
      -990.0100      -757.1276      -200.7979       1504.246       2938.326
       3302.320       2466.249       721.4331      -910.1372      -1851.159
      -2296.929      -1685.286       134.5815       2162.068       1733.448
      -433.5447      -795.9307      -434.3525      -2022.080      -2775.130
      -1441.800       208.2788       1182.496       1578.579       1123.076
       552.9185       805.4158       266.5537      -1771.485      -2094.557
      -308.9048       542.7385      -540.9172       120.2251       1854.925
       753.1445      -2260.074      -2900.918      -449.3210       1341.698
      -123.0381      -2234.681      -1650.368       1314.038       2045.207
      -315.3848      -1719.390      -1175.108      -949.8934      -754.4508
      -422.3015      -463.2743      -514.3121      -323.8937      -121.9536
       675.8521       1610.094       2080.983       1548.206       105.9683
      -1548.367      -1780.247      -1432.573      -1227.338      -143.9292
       1128.700       532.6421      -1159.653      -1606.196      -810.6697
      -494.9478      -450.4561      -623.8413      -1062.404      -1468.290
      -1415.149      -2036.130      -2780.181      -2304.529      -1092.074
      -152.9329       151.8506       601.2485       1373.500       504.3579
      -512.4701      -470.5195      -627.0751      -654.3638      -334.6785
      -597.4579      -722.0591      -535.3899       80.04736      -166.1279
      -1760.620      -2174.206       16.94116       1397.681       17.28424
      -341.0436       612.8672      -1217.849      -3253.819      -2542.032
      -598.2036       205.0565       231.4380       617.5205       1087.393
       1143.889       783.6169      -22.60300      -32.75104       316.6621
      -982.6665      -2449.571      -792.6285       814.8788      -319.2023
      -465.3892       1599.771       1940.333      -332.7930      -2220.240
      -2072.582      -1551.490      -421.5276       958.5884       976.5117
       523.4014       1624.450       3038.680       2026.876      -790.7476
      -1077.190      -300.6562      -1525.199      -2846.328      -3004.074
      -1943.349       905.3760       3104.223       2990.642       2442.790
       2921.442       2333.220       215.2212      -1794.402      -2110.262
      -941.8500      -188.5508      -715.0895      -788.6532       168.6167
       1329.696       1848.177       1304.188      -449.1416      -2038.509
      -2184.493      -770.0835       250.6022       625.7240       705.3242
       475.9626       889.9482       1729.809       729.8472      -1677.083
      -1802.508       1600.293       4310.557       3395.248       1063.228
       654.0840       954.6091       628.1001       853.6875       1036.244
      -271.4618      -288.8394       1727.733       2904.202       1536.017
      -345.2831      -160.2134       1054.866       555.7998      -641.6140
      -1062.038      -826.6438       11.89624       1204.689       1384.189
       1036.614       1343.886       1642.427       158.9578      -1465.115
      -1107.312       43.77191       387.4010      -253.9994      -521.3970
       1107.027       2526.453       2612.737       1454.734       511.4561
       1574.829       2831.008       1204.419      -972.9290      -861.6558
       249.2214       1158.686       1731.094       627.9406      -369.9176
       217.2129       1138.691       1345.200       492.9272      -531.5123
      -382.3491       343.3662       1710.045       1845.285      -354.5762
      -1740.890      -1046.429      -311.7026       798.4233       1674.924
       1141.724       395.4067       509.0264       474.3682       614.0527
       1731.912       2443.560       1150.582      -132.8215      -735.2827
      -1373.237      -1213.321      -160.7000      -59.98169      -707.3770
      -487.8313       753.5388       1337.922       936.5479       418.9558
       357.0443       260.9740       419.5781       701.5220       1072.846
       1449.858       248.4854      -2777.704      -3395.724      -1268.040
      -116.0469      -943.9387      -1537.817      -69.98901       1483.865
       1080.460       1222.196       725.4756      -2202.292      -3778.376
      -1852.207      -65.50671      -456.6057      -1095.229      -480.8613
      -24.00073      -234.2255      -616.5104      -472.7046       442.2952
       1411.499       723.1184      -797.7709      -932.5265       230.1337
       49.66821      -1230.889      -1464.885      -1318.293      -1048.762
       261.9144       424.5037      -758.8662      -2210.820      -2756.019
      -1160.528       1086.335       1320.042       75.79419      -58.66699
       1681.906       1827.902      -888.0439      -2939.709      -1843.758
      -468.5330      -208.4639       178.3779       1185.609       1777.266
       579.1768      -1579.313      -2683.888      -2297.524      -942.0857
      -966.3833      -1940.922      -1037.737       1337.660       1985.933
       256.6189      -1160.880      -495.9902       382.3978       984.4727
      -43.39355      -2688.636      -2826.691      -419.7676       578.9102
       294.0898       39.57373      -247.6433      -928.9136      -1718.092
      -2496.294      -1657.806       610.2585       1437.320       187.6449
      -632.2621      -162.0647       364.5051      -482.6826      -1212.492
      -790.5743      -74.84180       994.6753       1992.048       1343.192
       679.5100       871.7932      -52.05566      -3097.711      -4662.175
      -2231.363       1151.535       2483.628       2109.415      -467.4453
      -3183.568      -3130.150      -1805.089      -1831.984      -1614.522
      -142.3174       1224.119       1247.192       274.7611      -365.2886
      -660.9165      -1673.634      -1921.555      -582.1414       877.5010
       860.6982       570.8157      -224.5356      -1762.068      -2352.564
      -1410.835       591.5020       2317.576       1137.564      -1132.926
      -679.4434       1548.549       1507.613       52.90353      -222.4308
       108.8707       22.95068      -793.4893      -1784.707      -1048.977
      -1250.600      -2622.410      -2264.589      -2054.807      -3607.512
      -3334.847      -425.0503       1623.066       1283.125       1311.645
       2833.391       3662.377       2472.494       1520.008       1169.433
       212.5756       42.06445       1679.276       1739.428      -397.6570
      -1289.645       40.46826       1230.133       1787.851       1548.377
      -199.1562      -2700.691      -3389.170      -1984.651       48.77490
       669.9809      -171.6816      -531.6249      -150.4762       230.8411
       1128.562       1136.664       203.0258      -39.53833       848.3320
       1893.944       2777.427       2341.590       606.0263      -262.4545
       173.9341      -359.9053      -1741.217      -1771.308       321.5459
       1687.147       1665.792       1856.932       2220.169       2120.012
       1637.684       372.7383      -1310.854      -2180.072      -974.8613
       737.6748       1635.056       1780.395       1949.469       1211.904
      -603.5233      -549.1372       2139.214       3332.030       1464.253
      -1112.909      -2056.171      -1417.520      -52.09521       1216.581
       2263.780       2384.245       2110.331       1216.480      -799.8313
      -1193.730       1898.595       4435.610       3692.854       1576.442
       528.8206       57.72168      -338.5562      -1055.952      -1288.318
       195.7629       1798.887       407.7734      -2013.608      -1602.568
       572.7119       1782.324       2659.688       2771.016       1020.313
      -743.8462       538.5088       2497.433       2981.228       3065.650
       3241.108       1945.591      0.8522949       364.5605       3241.180
       5077.633       3544.914      -289.7207      -3025.831      -3410.096
      -1925.801      -384.3774      -424.3359      -1527.695      -1273.161
       395.5957       1767.552       1988.126       1521.464       397.4156
       14.44568       178.7686      -476.1880      -1327.629      -1061.739
      -348.8422       429.9077       923.7788       1311.460       1443.342
       1460.093       1392.632       2119.127       3093.537       2509.950
       725.5692      -295.8262      -1416.881      -2447.348      -1637.665
       213.9156       148.2744      -606.7850       338.3914       1134.326
      -651.5000      -2486.444      -2066.225      -674.9690       74.40479
       1025.864       781.5928      -1339.477      -2308.614      -602.5430
       1241.229       2130.321       1661.365       303.5686      -585.6790
      -1034.807      -1610.924      -1019.480       51.48975       434.9020
       266.0277       339.3131       712.9039       470.6309      -1582.551
      -3140.948      -2486.305      -1246.923      -1742.656      -2002.109
      -781.3252      -1084.881      -2269.014      -1072.077       691.6558
       1464.182       1247.498       1846.518       3798.987       4740.925
       3411.393       1259.575      -1219.698      -4110.691      -7158.211
      -8450.626      -6016.341      -113.7285       3989.095       3392.146
       1965.269       2531.999       2712.904       2060.168       1800.378
       1045.256      -1955.572      -4577.263      -4007.110      -1992.178
      -1380.085      -1121.808      -110.2905       253.0679      -1115.124
      -1125.021       1496.291       4027.267       3508.599       1070.628
      -535.1040      -416.1816       196.8228      -520.1699      -3157.035
      -5247.654      -5837.484      -4890.214      -2954.474      -503.6274
       2220.448       3308.532       1279.259      -1450.199      -3839.455
      -5349.375      -5406.367      -5008.197      -7383.562      -13345.07
      -20997.65      -28620.82      -33260.05      -31377.66      -24890.23
      -16444.25      -6504.123       4981.477       14083.18       15384.97
       9297.763       2389.147      -37.23633       4181.805       18184.33
       40152.31       57648.03       64196.02       61718.48       50884.12
       31113.47       5228.297      -20020.36      -38744.20      -51977.78
      -60479.12      -64557.23      -62292.72      -48849.78      -28551.50
      -17429.26      -24681.09      -37888.44      -38459.09      -24909.17
      -1201.672       30465.44       57406.33       60509.64       40569.59
       19469.99       9176.594       8685.750       19692.62       33638.17
       37117.91       28936.29       18209.84       7536.766      -11565.85
      -36225.80      -46510.54      -35189.12      -17864.11      -4179.121
       14110.58       29953.85       26193.39       9606.797       1939.250
       11662.52       29091.98       39854.16       39684.88       31054.51
       19305.79       8241.906      -3203.695      -17234.41      -33345.92
      -48139.70      -55030.61      -52511.67      -42332.22      -28183.58
      -13520.52       6192.547       28413.84       36831.20       27564.69
       12340.12       3676.844       7286.648       18191.83       24447.65
       19737.04       6195.324      -9836.492      -25380.27      -36562.55
      -38634.22      -31703.86      -19087.54       1221.422       27374.48
       42250.77       37670.50       26830.42       15662.99       3809.274
      -1428.464       123.1406       1199.531       4137.986       9921.359
       12398.61       9905.887       5007.931      -2195.383      -9408.406
      -13701.72      -16432.18      -20999.66      -22327.41      -15578.40
      -7930.460      -3363.412       5577.141       20129.88       32011.80
       31407.79       16559.77      -3063.730      -13694.72      -12130.41
      -9072.570      -10777.28      -9015.494      -405.8613       5614.372
       911.5352      -11559.33      -24826.66      -29034.79      -16493.41
       4445.359       15022.17       12346.01       5786.122      -413.4233
      -1803.549       6628.867       18013.53       24825.75       23746.05
       8260.539      -16945.51      -33344.57      -33146.48      -20339.16
      -1345.695       15351.46       21199.35       14561.70       3414.914
      -3646.471      -4754.361       2681.711       11638.12       11724.04
       5061.256      -2295.176      -6311.115      -7794.125      -12008.37
      -16498.14      -14222.98      -5938.002       1024.771       4920.456
       4803.801       158.2939      -477.0898       8457.848       16102.82
       13854.42       6959.555       2292.735       532.0225       2473.658
       5385.834       1555.000      -10501.76      -20320.15      -19848.31
      -11729.56      -24.25391       10045.48       11831.94       9023.557
       5528.832      -648.3984      -6510.892      -5466.231      -189.0366
       703.6741      -1178.721       3754.855       14623.03       24980.83
       29728.34       25212.75       13817.88       1273.211      -10208.09
      -17290.77      -15918.23      -11264.70      -12615.59      -15722.34
      -13073.47      -10528.97      -14726.18      -17622.67      -12437.60
      -2681.754       7071.422       14049.95       15268.70       12493.70
       12387.07       13102.50       4964.512      -8143.684      -15098.68
      -13126.68      -7525.977      -4390.810      -3556.186      -1841.678
      -855.7295      -536.0234       2397.658       4461.724       803.5771
      -2.441406       5832.102       9000.074       6275.053       1956.717
      -550.2842      -614.3848      -3137.125      -10332.55      -16602.32
      -16108.00      -10095.37      -2561.754       4536.309       11946.80
       18386.20       18028.75       10031.12       4152.676       4678.516
       7694.842       9269.856       3772.424      -7976.879      -13187.19
      -8844.324      -4856.607      -6347.398      -9723.551      -10312.91
      -7422.723      -5241.880      -5453.756      -2440.372       5025.047
       6318.248      -1026.105      -7199.822      -7014.193      -3302.604
       1182.414       7024.734       14498.78       18035.55       16015.84
       13430.81       12567.79       8966.518       355.2617      -7853.293
      -12334.66      -13969.67      -12565.32      -8695.111      -3550.399
      -374.6279      -1048.648      -3366.429      -4737.980      -5549.583
      -5139.927      -2670.244       388.6396       1879.437       2202.814
       1284.649      -93.08984       2646.477       10062.39       14128.31
       11221.01       7204.373       5974.161       4857.883       2144.936
      -565.3467      -233.5430       4023.145       11578.74       15477.86
       10496.57       3916.805       1028.594      -2851.664      -7358.650
      -8453.836      -7867.105      -8333.812      -8608.055      -6942.413
      -2644.320       1675.631       3680.471       3533.405       1247.027
      -3724.111      -8023.307      -8563.170      -7812.808      -5433.793
       212.6914       2782.973      -241.0767      -1429.403       2755.646
       5036.795       2743.340       785.4292       1045.885       3851.484
       9708.773       10995.88       3503.973      -3260.000      -2133.524
       2328.773       4764.445       3261.873      -257.7109      -3661.426
      -8947.148      -15103.19      -15966.41      -10923.77      -5526.445
      -3611.461      -2850.905      -97.51758       3807.434       6413.454
       5516.851      -550.0195      -6533.951      -6940.280      -4443.183
      -2580.363       2150.129       11401.71       18931.26       19832.54
       13981.82       1222.625      -12040.30      -18740.79      -18374.19
      -12114.22      -4245.688       481.1846       3688.031       7942.631
       11322.21       9376.277       4388.756       2322.414       1675.582
