     0.02500000      -34104.85       37570.69      -12345.00      -12345.00
      -30.00000       254.4250      -52.20000      -12345.00      -12345.00
       0.000000       39.96000      -12345.00      -12345.00      -12345.00
      -12345.00      -12345.00      -12345.00      -12345.00      -12345.00
      -12345.00      -12345.00      -12345.00      -12345.00      -12345.00
      -12345.00      -12345.00      -12345.00      -12345.00      -12345.00
      -12345.00      -31.89650      -69.69230       1971.000       0.000000
      -31.23600      -65.83800       0.000000       167100.0       0.000000
      -12345.00      -12345.00      -12345.00      -12345.00      -12345.00
      -12345.00      -12345.00      -12345.00      -12345.00      -12345.00
       373.1447       257.6820       79.69044       3.355069      -12345.00
      -12345.00     -0.1410274       90.00000       90.00000      -12345.00
      -12345.00      -12345.00      -12345.00      -12345.00      -12345.00
      -12345.00      -12345.00      -12345.00      -12345.00      -12345.00
      2008       318        11        13        22
       600         6    -12345    -12345     11378
    -12345    -12345    -12345    -12345    -12345
         1         7        13    -12345    -12345
    -12345    -12345    -12345    -12345    -12345
    -12345    -12345    -12345    -12345    -12345
    -12345    -12345    -12345    -12345    -12345
         1         1         1         1         1
PATO    -12345          
        -12345  -12345  
-12345  -12345  -12345  
-12345  -12345  -12345  
-12345  -12345  -12345  
-12345  -12345  -12345  
-12345  -12345  BHE     
ZL      -12345  -12345  
[...]
       429.7676       3292.240       6474.479       3158.243      -2565.279
      -1386.602       1342.086      -2646.359      -7334.316      -3332.514
       2966.119       1373.804      -1133.853       2397.917       2513.612
      -3019.414      -2353.710       2586.268       2435.889      -3171.493
      -6004.499      -3308.496      -2471.623      -1697.307       1958.904
       1487.224      -1874.812      -336.0742       2569.377       3665.223
       4852.770       2932.413      -561.2061      -1195.960       53.03760
      -273.1416      -1919.188       286.1387       4322.657       2426.300
      -1198.175      -1150.812      -1343.629      -2164.563      -110.5225
       2547.782       3631.158       1862.866      -1928.115      -2817.736
      -1391.007      -230.2646       1137.238       2001.208      -526.1543
      -2307.393      -48.97217       636.5869       1813.339       5658.707
       3755.883      -1836.795      -956.2092       345.3904       283.9043
       1535.086       337.0878      -911.3345       384.9180       1781.193
       1613.215       704.2949       1228.604       1141.307      -294.2256
       2673.612       5222.055      -1298.354      -8879.760      -7255.115
      -423.4258       3229.104       1303.353       392.5422       1879.960
      -1201.387      -1973.122       2617.151       3338.341      -1623.407
      -4951.547      -2927.640       1103.083       3448.584       3299.486
       2171.384       680.9873      -2939.365      -4137.597       3172.223
       7866.627       2973.087      -1904.660      -4213.121      -5009.549
       418.4492       4915.740       789.8237      -1971.899      -1442.134
      -784.4778       262.6338       1445.014       1492.318      -1672.791
      -3525.923      -17.11133       5119.795       1707.422      -7040.707
      -4161.542       2732.559       2977.637       4537.577       3566.644
      -771.5728      -576.2305      -1248.133      -3067.194       452.3765
       4114.831      -1220.774      -5710.918      -1222.507       1930.915
       222.1836      -3227.409      -3919.343      -2208.826      -466.1292
       273.6836       1338.836       4555.905       4953.301       1739.760
      -3139.771      -3947.304       1032.015       3546.992       1302.413
      -535.5034      -1635.869      -2177.909      -795.8643      -902.7811
      -1304.294       2049.500       3131.522      -1133.894      -3613.048
       184.3521       3555.849      -357.8135      -4058.321      -875.4680
       888.1372      -2432.516      -3790.053      -3145.471      -3551.648
      -784.8340       3850.538       5244.840       4506.288       2333.604
       256.4707      -1478.452      -3946.682      -1709.185       4184.726
       4413.407      -2115.940      -5833.269      -3451.409      -908.2871
      -506.4670      -830.4668       449.6113       3477.744       3534.767
       36.31445       656.3376       1094.767      -2205.649       1549.390
       4094.027      -3620.031      -9165.986      -5630.514       1534.247
       2254.612      -3075.881      -2628.149      -107.8494       564.3816
       1469.078       978.5508       2506.398       4281.077       2950.341
       1700.105      -160.4590      -4831.280      -6207.000      -572.2510
       4803.139       4337.872       2128.108       650.6904       2115.281
       5243.091       2081.438      -3544.432      -7107.366      -6614.753
      -850.4971       3861.363       3456.106       70.32153      -1534.847
       541.8193       1920.888      -405.8677      -894.5601       1290.198
       1086.097       451.4058      -343.3103      -1404.484      -358.5044
       1370.837       831.3523      -1134.797      -113.3384       2261.102
       3553.152       3311.396       432.9766      -1667.386      -1073.059
       681.0476      -354.3334      -1822.768       2027.340       4118.000
      -1880.899      -2706.945       3437.333       2547.722      -537.4907
      -90.10693       533.4834       3420.129       5206.562       2365.025
      -782.5405      -1918.194      -741.9370       772.5830       1000.763
       105.2520      -3010.536      -4529.557      -34.24023       4397.837
       4672.203       3491.639       63.01562      -4436.924      -5278.503
      -535.3447       2668.904       877.1440      -1080.539      -2126.176
      -1804.147      -114.2972       146.4299       135.3833      -499.0254
      -3524.396      -3247.637       706.1064       2242.552       1537.683
       2349.330       1258.117      -2220.622      -885.7446       1966.305
       3264.691       3244.547       164.2422      -2857.323      -2469.600
      -208.7554       2282.505       2212.790      -2494.740      -2492.519
       1181.931      -1354.101      -2749.537      -642.4688      -2016.562
      -2847.436       890.6943       4443.586       3071.439      -1922.118
      -3013.279      -1577.155      -2117.704      -974.4785      -898.2422
      -3329.594      -1633.043       2766.839       1697.868      -101.1865
       3549.359       3556.202      -875.2744      -989.3931       2021.832
       974.6016      -3079.493      -2066.837       3845.222       4937.623
      -358.5430      -4660.783      -3881.282       775.6777       3738.040
       2138.697      -827.5176      -3475.126      -2464.143       1541.015
       1959.806       1033.517       986.4126      -1215.163      -2291.049
      -3210.431      -4758.149       242.4185       3241.637      -233.3374
      -1248.984      -488.3887       1818.001       4683.282       4086.233
       1232.469      -586.4736      -2250.926      -2345.625      -1244.852
      -1880.107      -1791.835       130.8677       756.6382      -1039.284
      -1057.629       1941.358       5007.442       3170.070      -1563.614
      -3931.923      -4218.969      -621.7061       3273.751       1305.914
      -3097.228      -1709.076       2594.079       3155.517       521.0928
      -2863.476      -3313.653      -582.1953       1165.831       1513.928
       2125.193       176.2803      -3350.906      -1903.063       2303.868
       1751.726      -899.3823      -1757.202      -2000.324      -1179.045
      -250.8501       817.0117       1988.727       1585.841       1812.627
       3206.169       584.4016      -1845.911       452.2646       1733.227
       1467.493      -826.0986      -3119.610       665.0452       2541.385
      -3000.119      -3867.313       486.4883       822.9856       845.9834
       2257.193       3340.271       3222.771       1573.434       1746.213
      -200.3096      -3958.171      -2098.212       266.1304      -881.2651
      -1193.337      -1704.611      -4075.310      -4622.382      -1279.492
       2859.951       3055.001       2610.522       2040.883      -1369.624
      -1841.628       298.2041       2815.799       2599.342      -1754.217
      -2568.231      -1439.780       1112.789       4931.431       1143.043
      -1578.134       3026.202       2809.260       1285.572       2235.189
      -1099.617      -1518.480       501.7720      -936.7861      -1207.183
      -1534.345      -1072.598       599.3799       1320.072       678.3567
      -1072.931      -912.1661      -291.9628      -498.1831       1072.447
       1575.469      -1408.307      -818.8691       2067.905      -575.0557
      -4630.496      -3904.376       1835.027       3902.453      -1419.083
      -2975.884       2273.131       2995.621      -1342.837      -822.9849
      -983.7344      -5840.718      -5096.443      -685.4180      -1381.846
      -1763.672       3378.729       6059.201       2222.303      -1653.036
      -740.7452       178.4082      -978.1328      -2262.610      -3940.661
      -1536.493       3269.072       3009.979      -999.0840      -3798.593
      -2535.635       1572.299       2547.891       50.03577      -33.87061
      -650.6367      -1965.234       97.76514       835.9146       1137.124
       2776.217       613.5537      -4146.123      -4265.289      -626.2576
       554.6328      -1834.068      -2781.449      -729.8154       926.8506
       3994.539       3000.610      -2359.956      -1753.493       376.5908
      -2332.234      -2487.387       1050.453       336.0630      -2413.565
      -1321.636       1088.508       1921.920      -302.6440      -2180.869
       280.2091       81.69189      -2109.916      -124.1725       706.7844
      -1792.678      -379.2891       4433.426       4929.427       77.22363
      -3479.250       415.9922       3761.756       751.3394       449.7524
       2425.689       734.1820      -85.40234      -1341.029      -2882.173
      -382.9092       2003.081       2852.709       1958.953       269.7117
       1189.900       717.8149      -2687.780      -1406.167       3617.717
       3845.429       579.3136      -459.3511       1199.307       2392.052
       766.0852      -223.3203       2585.053       2689.294      -1645.023
      -4341.025      -3894.412      -326.1517       1559.303      -855.3853
      -421.4161       992.7017      -952.4619       232.7939       3027.114
       2579.083       2153.081       2019.219       2812.645       2987.276
       73.68701       633.5581       2350.521      -2036.416      -3471.588
       767.3467       1649.340       1036.239       2075.463      -103.6968
      -3084.583      -1260.778      -398.4535      -799.1418       830.6724
      -400.2739      -1919.060      -1585.073      -1319.062       154.4543
       895.7424       801.6656      -211.2710      -1618.826       849.6671
       1541.938      -1355.326       558.9465       973.2373      -2888.586
      -1076.116       1834.020      -1028.379      -3967.048      -3389.588
      -242.8716       2773.557       2477.233       3346.748       5892.713
       3189.484      -2572.713      -4849.339      -4714.702      -2022.767
       3634.499       5576.440       2090.973      -1392.855      -3292.066
      -4109.536      -2930.188      -3266.610      -3652.781       456.3813
       2903.772       519.3760      -3387.493      -3209.072      -303.6362
      -1303.974      -2461.738      -2359.546      -1620.265       1322.889
       1891.231      -638.2402      -2082.919      -2511.939      -3769.772
      -1804.696       2446.014       2854.127       2133.091       510.9199
      -872.5146      -2413.090      -5636.800      -4645.336      -400.5405
       1487.281       1549.639       1484.543      -921.4214      -1785.884
       305.5234       1972.376       2586.393      -765.8994      -4144.251
      -2245.653      -1772.988      -3820.079      -2050.586      -493.1681
      -1010.162       988.7163       1545.356       484.4568       1068.638
      -347.4219      -2185.636      -1529.147      -1289.437      -2562.402
      -3887.629      -1564.642       2490.655       759.8433      -3004.478
      -762.1699       3577.552       2207.879      -1238.934      -69.30444
       1610.266       811.8492       4.159546       283.5874       448.9219
       1152.539       3421.492       6466.079       5489.946      -2298.326
      -6264.697      -2157.061       2026.610       4247.394       1561.171
      -2465.004       839.2686       2772.405       158.3558       114.0214
       285.9053      -2062.785      -3913.232      -2760.145      -15.14844
       4047.455       6253.107       3516.389      -388.3539      -1411.092
       1111.259       3733.535       2333.432      -846.9355      -2919.676
      -5243.495      -5875.475      -1307.863       5563.166       6215.670
       1951.566       1989.711       2744.231       1750.170       1617.752
      -1886.580      -3772.850       2574.231       4607.857      -1443.011
      -2813.941      -695.3679       405.6772       1853.975      -7.991699
      -2043.975       400.6803       909.1885      -1229.029      -387.4492
      -1115.907      -2618.072       4065.715       8846.627       2897.424
       785.9854       4187.588       1118.660      -1105.051       3677.325
       2803.081      -1832.984       2152.381       5814.097       927.0127
      -3533.004      -2930.400      -1685.146      -1821.009       182.5166
       2814.677       1146.817      -1585.689      -3505.984      -3930.000
      -872.8008       2518.453       4595.117       4995.994       1576.787
      -2396.486      -2146.135       1370.365       1530.029      -4304.247
      -4322.433       4062.852       7408.486       3579.467       249.2900
      -1578.375      -2253.309      -866.2144       1009.204       2178.010
       2513.992       3426.740       2350.557      -3751.967      -6329.668
      -2123.891      -1626.910      -5372.410      -6841.291      -6792.549
      -6667.735      -4695.499       3042.984       13860.80       19772.32
       11432.40      -10784.93      -21907.22      -11244.82       3310.609
       21305.17       37570.69       32435.68       16616.76       5405.443
      -6133.836      -15343.37      -12041.86       1921.426       12987.60
       4547.133      -18051.18      -33141.23      -34104.85      -26143.03
      -8838.914       16242.66       28521.63       16683.07      -2601.840
      -11445.64      -5660.117       11001.88       25037.15       20036.79
       3765.941      -6002.016      -12196.55      -20482.02      -22587.42
      -9621.492       11306.92       22578.11       15453.29       1650.523
      -5118.188       2752.719       18396.70       13694.23      -7582.613
      -18984.21      -18217.30      -9966.891       1598.318       5060.422
       4259.867       11139.86       10266.85      -1160.116      -1409.250
      -2870.273      -19724.73      -26412.33      -17620.64      -16462.34
      -19481.43      -11585.97       6659.109       23224.04       21544.30
       11092.19       7242.504       4751.746       1868.090       1625.398
       11854.37       19243.21       8236.789       2013.379       12619.10
       10782.66      -12492.34      -14474.38      -2322.234      -9369.564
      -10975.02      -7036.957      -12385.21      -10225.64      -3436.794
      -3239.333      -1140.258       3323.448       3961.873       2238.772
       221.5762      -1269.023      -12278.22      -20007.86      -9816.404
      -5032.653      -4214.207       3817.799       1685.794      -5491.341
       1.199219       4332.094       8107.392       7479.828      -18641.20
      -31818.58      -16388.43      -4038.535       12863.86       31341.59
       28831.28       15867.76       8031.781      -637.4102      -14440.10
      -20386.94      -10444.73       3231.715       7425.736       2244.656
       5566.684       14660.07       9255.289      -369.8730      -4378.959
      -5339.521      -2315.068      -4998.680      -14089.09      -5767.234
       11536.33       8672.229       1669.662       7259.266       11937.19
       4410.469      -11850.43      -14378.65      -1217.629       2453.109
      -7867.168      -17601.99      -11185.21       2536.414       9400.180
       19495.62       23627.65       11286.80      -161.9062      -9126.539
      -14148.66      -5241.387       2598.434       322.7402      -6521.359
      -15355.69      -13193.58       5321.916       13528.65       131.9199
      -10537.51      -8806.840      -9372.780      -11101.05       5964.320
       21156.88       5030.207      -10730.59       311.8750       19298.76
       23240.45       14564.08       5146.098       743.8213      -2122.086
      -10657.88      -15453.88      -11261.18      -86.75391       8457.198
       5906.602       3916.125       3476.121      -1300.764      -6390.572
      -9144.354      -4431.715       1076.052       1896.447       5600.984
       9794.992       12427.97       10368.37      -932.7109      -12020.34
      -7941.415       2163.996       3448.682       170.0662      -1938.295
       2182.109       8184.457       7106.297      -884.7539      -7455.617
      -701.9219       15872.54       23821.79       11723.21      -7589.230
      -16721.44      -16324.70      -8566.746       1977.704       2948.488
      -3278.346      -6286.325      -5590.202      -1521.353      -1338.385
      -6546.207      -1928.088      -1470.293      -11623.10      -9975.299
      -996.6436       4108.320       7709.201       8697.986       7134.863
       5777.834       3415.557       6246.650       10863.22       6217.245
      -1435.945      -3397.533      -997.4761      -406.7119       675.8037
       5291.771       3896.929      -3131.588      -1419.594       7247.234
       6394.375      -9365.078      -17694.87      -9551.734      -1275.505
       359.2329       1363.198       1829.577      -3534.675      -6292.717
       2094.238       12643.80       9412.622      -2325.102      -7994.120
      -3548.760       3725.091       1433.829      -2815.945      -3100.479
      -3280.319      -732.7600       1775.502       270.0869      -3797.733
      -3418.688       5872.531       9745.125       2672.768      -3176.040
      -2247.721       5329.982       8668.186       4612.166      -4548.117
      -19734.48      -17072.31       6636.312       14420.70       3038.347
      -2406.648      -4690.763      -5367.493       3512.850       7804.963
      -31.19922      -6345.648      -6508.274      -2458.190       3328.998
       9195.301       10480.56       4319.236      -2146.536      -5013.214
      -1899.068       3522.465       2685.512       463.0947       3581.248
       4927.254       801.8384      -976.8154       1133.827      -884.3945
      -7339.094      -5866.786       3192.602       2285.349       430.6855
       4160.182       935.0703      -2842.340      -8709.010      -12243.54
      -386.1914       11647.98       7246.583       1589.563       1882.262
      -2090.138      -5300.973      -3356.375       544.8545       3059.632
       1225.682       860.6387       200.9453      -5772.979      -4233.279
       1264.727      -4145.102      -10378.12      -7371.125      -5415.538
      -6841.037      -2383.908       2563.939       7554.084       11475.93
       6323.515       1961.678      -15.51514      -2777.088       395.1865
       3500.828       2927.293      -3625.705      -9464.348      -236.9902
       7294.234       43.35449      -1102.113       7204.507       5683.908
      -853.6704       710.4133       1766.915      -4095.563      -4805.189
       1777.299       2994.040       2821.291       4138.333       1640.664
