     0.02500000      -33782.86       32116.88      -12345.00      -12345.00
      -30.00000       254.4250      -52.20000      -12345.00      -12345.00
       0.000000       39.96000      -12345.00      -12345.00      -12345.00
      -12345.00      -12345.00      -12345.00      -12345.00      -12345.00
      -12345.00      -12345.00      -12345.00      -12345.00      -12345.00
      -12345.00      -12345.00      -12345.00      -12345.00      -12345.00
      -12345.00      -31.89650      -69.69230       1971.000       0.000000
      -31.23600      -65.83800       0.000000       167100.0       0.000000
      -12345.00      -12345.00      -12345.00      -12345.00      -12345.00
      -12345.00      -12345.00      -12345.00      -12345.00      -12345.00
       373.1447       257.6820       79.69044       3.355069      -12345.00
      -12345.00    -0.01382231       0.000000       90.00000      -12345.00
      -12345.00      -12345.00      -12345.00      -12345.00      -12345.00
      -12345.00      -12345.00      -12345.00      -12345.00      -12345.00
      2008       318        11        13        22
       600         6    -12345    -12345     11378
    -12345    -12345    -12345    -12345    -12345
         1         7        13    -12345    -12345
    -12345    -12345    -12345    -12345    -12345
    -12345    -12345    -12345    -12345    -12345
    -12345    -12345    -12345    -12345    -12345
         1         1         1         1         1
PATO    -12345          
        -12345  -12345  
-12345  -12345  -12345  
-12345  -12345  -12345  
-12345  -12345  -12345  
-12345  -12345  -12345  
-12345  -12345  BHN     
ZL      -12345  -12345  
[...]
       260.0657      -927.6240       589.3286       3245.468       580.8359
      -2778.190      -2340.253       749.5762       3559.332       2459.406
       899.5334      -183.7402      -3123.896      -2319.029      -679.0168
       233.7705       2084.770       2138.782       1534.249      -923.6470
      -2155.200       1539.362       3469.217      -719.1611      -3999.821
      -3586.257      -1526.537       1083.097       1198.493       1889.337
       980.4897      -1043.885       804.6509       1892.346      -362.4283
      -777.5674       2752.029       1452.059      -3186.783      -2447.542
       105.0886       419.4006      -473.2520      -1501.002      -2582.358
      -2803.035      -93.40234       4809.208       5324.767       766.4141
      -1867.127      -2587.926      -2382.544       260.5973       389.8638
      -2213.691      -1731.795       361.1769       481.7290      -1042.865
      -1095.260      -462.5778      -196.1001       1792.588       1322.221
      -254.8673       538.9219      -1714.507      -2813.009       327.1938
      -788.6133      -3959.495      -2722.468       1007.083       2538.974
       669.3027      -959.5264      -1232.239      -1454.851      -567.3867
       336.0186      -1754.126      -1984.514       988.8583       687.0845
      -183.7563      -1825.679      -1896.670       3137.827       2014.188
      -1841.577      -976.6531      -39.19824      -742.1797      -3303.092
      -1989.245       1053.386      -148.9827      -168.1597       640.3658
       263.7650       452.4111      -1876.445      -2672.456      -86.07324
      -581.1807      -1739.126       1247.455       2389.691      -975.3525
      -2886.880      -4433.608      -3349.425       942.9910       517.6582
      -1817.417       1013.900       3386.473       97.89832      -1108.899
       646.6377      -1199.416      -4482.240      -5216.462      -4146.785
      -1523.739       1433.071       2372.797       907.0675      -751.1733
       431.9225       960.8892      -2153.780      -2163.544       120.0159
       587.6141       1230.918      -969.1338      -3650.434      -2100.841
       1092.408       895.9705      -563.9742       130.4312      -1049.775
      -467.8999       1052.843       66.29663       845.3665       1018.863
      -1358.653      -2678.698      -1810.220       360.3540      -9.662109
      -3804.822      -5060.440      -2891.090       1213.697       5169.313
       3353.634      -1011.395      -1107.264       1630.267       2157.503
       811.4294       886.5176       1474.967       1696.833       1978.631
       284.1040      -2017.177      -2034.246      -1671.850      -2734.335
      -2238.386       340.4922       2989.549       4207.610       1749.852
      -593.0355      -415.8230      -487.9581      -359.6675      -797.2832
      -3135.799      -2938.092       1223.295       2385.016       658.1929
       1083.679       2675.961       1983.295      -143.2412      -289.9004
      -337.8325      -2113.500      -1748.658      -303.6558      -820.5864
      -150.1074       1398.599       3122.598       3768.159       2205.938
       2602.053       3206.965       2180.261       911.8311      -1238.939
      -2429.266      -889.0996       715.8552       939.4397       802.0017
      -129.4473      -1077.613      -2326.514      -2503.347      -1772.308
      -780.4521       1670.258       2214.784       945.3201      -240.5118
      -377.9702       945.9116       1998.361       1336.858      -10.41797
      -1866.318      -1411.020       2454.887       6264.137       7777.013
       4688.794       1457.238       153.8145      -1037.177      -652.4180
      -881.8782      -1344.407      -621.3314       876.2056       26.57178
      -2186.928      -614.0254       1175.539       1793.019       1051.704
      -251.2588       2026.531       2156.752      -1529.881      -2859.893
      -2166.612      -1069.236       2156.754       5214.331       2846.399
      -74.29248       1758.521       1969.387      -109.8242      -2811.235
      -4424.428      -127.9570       3490.832       1400.500      -270.9297
       1112.773       1989.080      -324.6660      -2076.489      -2111.892
      -919.4165       1968.589       1168.436      -2671.454      -3292.023
      -1043.359       948.5576       3567.063       4095.569       551.3765
      -1152.657      -1736.548      -1778.601       421.5706       1338.303
       280.6647       223.8616      -781.2271      -1555.529       276.5552
      -417.5460      -282.7964       1126.213       248.2563       818.5323
       935.3417      -202.0317      -700.4252      -588.4189       851.8042
       1957.620      -75.34082      -3193.035      -1647.268       3342.687
       4975.887       725.1221      -2821.235      -742.0674      -1367.035
      -5884.758      -6291.148      -805.4170       3482.537       1868.758
       1604.235       4072.151       2538.882      -904.8257       740.1826
       2113.909      -445.0425      -199.5837      -264.8042      -2096.434
      -863.8879       287.9177       41.03979       415.5251       602.4097
       1147.496       286.9736      -1915.016      -3233.812      -3101.481
      -1379.619      -974.3368       114.1602       1312.102      -1349.304
      -3025.953      -1786.273       436.3716       824.6710      -540.7568
       291.0938       1475.718       1402.980       887.0496      -374.3921
      -1564.441      -2808.516      -3125.930      -1594.648      -512.1509
      -1030.630      -132.3557       1479.409       520.6533      -824.4038
      -956.5586      -328.8759       456.7867      -88.00269       233.5142
       2048.712       1464.032       740.4313       311.1835      -725.0936
       415.0735       898.8007       335.9478       260.5697      -329.8854
      -511.5237      -444.0337      -1508.983      -3694.879      -4179.000
      -1483.538       341.8877      -887.6404      -1486.121       291.6709
       2811.505       2565.465      -813.7346      -1667.034      -677.1500
      -590.3579       324.8195       1117.507      -1246.744      -2340.188
       1970.295       4128.902       1495.458      -1753.634      -3380.329
      -1841.367       908.5952       2155.035       1555.848       1138.155
       332.8447      -2278.355      -4692.837      -3763.588       674.6602
       2767.976       2638.678       2282.466       501.9150       592.1182
       2044.175       1901.892       1481.577       1920.095       1.544189
      -1289.881      -115.4364      -378.5059      -134.9749       935.6858
       1096.941       330.9412      -40.72699      -354.4626      -222.2256
       765.0269       1393.000       1754.906      -37.27344      -2919.131
      -2912.606       1440.574       4122.504       337.2480      -3213.034
      -1895.658       1673.225       2935.601       1209.136      -1342.543
      -1739.442       1779.821       2983.331      -79.44501      -565.7937
       168.5566       371.9209       2182.117       510.5469      -1060.592
       1483.772       2193.455       186.2717      -1147.898      -798.1939
      -635.4976       324.3738       1904.577       263.8442      -2036.988
      -525.1758       2532.093       3142.786       1269.271       2277.286
       3140.836       479.0442      -139.4077      -659.5679      -2475.700
      -1148.698       1903.589    -0.02124023      -2537.059       1436.176
       3006.185      -1069.821      -1861.145       1845.964       4000.758
       565.5078      -3135.556      -1956.240       201.9679      -613.2267
      -496.7913       1333.197      -482.2935      -1849.058      -853.8218
       269.3184       1562.428       1405.055       1977.676       2409.520
      -664.2725      -3319.345      -2059.979      -144.3792      -327.5758
       209.2065       1596.882       1045.183       1088.979       1766.230
       956.4091       72.22440      -327.4841       420.8260       1099.653
      -1593.307      -3632.398      -1301.916      -154.0049      -2745.458
      -2820.260       1936.650       3623.847       1338.939      -804.8242
      -2007.814      -2109.345      -2829.317      -861.0195       2110.694
       1411.382       272.2891       17.62842      -398.9399      -2060.388
      -2908.064      -1.571289       3005.245       2083.866      -366.3662
      -426.6006      -1267.382      -4369.750      -4218.650      -983.4568
       33.97076      -144.3999      -268.6021      -428.5615      -533.5215
      -2809.995      -2585.261      -160.3586      -290.9092      -478.9250
       444.4189       2466.518       4590.002       3607.169       128.2422
      -2562.938      -2054.218       505.9782       453.7590      -973.3748
      -1416.140      -1215.771      -298.6836       889.7686       2438.732
      -76.13281      -3325.317      -1948.467      -1157.790      -227.5735
       1246.438       646.9581      -241.8044      -236.6372      -569.7979
      -2656.381      -4898.498      -3605.385      -1386.623      -2391.708
      -2522.672      -75.90723       2482.667       2881.855       764.6719
      -2186.254      -4264.330      -1973.721       2241.975       1718.144
      -1514.515      -1451.070       1178.902       1521.203      -1769.058
      -4697.896      -3746.705      -871.8652       2657.593       3568.812
       162.0334      -1263.970      -290.0372       126.1079       655.2344
       1804.792       1768.310      -358.9877      -68.62939       2046.701
       1854.941       5.186523      -3245.446      -3289.407       362.2277
       723.7407      -1333.944      -1311.878       263.7500       2009.733
       1748.571      -235.7241      -711.5713      -1764.843      -2632.941
      -1361.996      -739.3716      -959.2833      -159.0393       963.5132
       913.9640      -257.7129       19.19971       1050.037      -1098.325
      -515.0762       3302.872       1714.074       300.5996       2108.960
       996.9941      -1462.568      -2554.683      -574.1279       2032.636
       910.2867      -170.1646       1388.620       676.6674      -938.9316
       1485.120       3366.470       1917.864       992.7534       115.3037
      -2435.782      -1232.050       659.1311      -1252.779      -373.5479
       2000.381       3696.848       3350.549       1133.812       2458.745
       2793.604      -213.0820      -1788.437      -1058.653      -37.05737
      -1001.522      -1710.163       267.8356       206.6666      -1204.090
       430.7482       602.1114       208.3793       594.5081      -727.6509
       457.0742       2612.516       3022.097       1182.879      -1879.371
      -2369.239      -2251.399       195.4189       3772.130       2167.517
       334.1111       832.0615       1826.936       2638.802       289.8252
      -2099.468      -1147.854       1652.750       2768.085       1384.028
       1277.523       846.4639      -1803.574      -1750.236       1172.731
       1670.908       1003.565       870.5986      -1030.920      -4560.071
      -2685.584       3762.971       2549.396      -1605.959      -946.7699
       381.4839       1235.790       1870.620       1498.621       964.9902
       483.1582      -2115.920      -3666.715      -3284.762      -6257.928
      -8773.199      -5045.762      -3952.742      -7798.029      -6537.789
      -3707.583      -4603.984      -3036.109      -350.4160      -2170.851
      -3867.371      -3246.164      -4174.164      -4320.776      -1354.436
       4817.641       16799.97       26406.92       25856.77       21081.96
       14285.86       7041.156       970.7188      -6461.197      -8450.139
      -2442.213       1326.458      -1396.332      -9871.121      -14342.23
      -2884.965       15856.67       23890.74       12080.30      -8116.609
      -22908.04      -24332.21      -13573.30      -5159.480       2014.465
       7592.627       5311.094       8310.656       12152.62      -1533.531
      -15065.08      -13613.63      -4806.148       7465.387       15221.08
       12576.24       9315.862       6470.047      -5283.004      -9447.091
      -1466.609       1681.875       6480.023       10465.42       6891.435
       3599.034       463.3951      -951.2451       2103.933       4290.383
      -2766.852      -19468.97      -21588.11       492.8164       13820.83
       13444.02       8943.055      -3195.694      -4327.044       3144.188
      -2563.539      -13340.07      -20103.07      -19684.34      -8906.021
       5673.730       16242.82       14397.02       7638.582       4863.129
       9756.469       19296.14       15553.39      -4297.078      -22566.42
      -24290.16      -12287.94       1579.979       9056.898       10920.76
       13720.14       14466.51       11482.64       8699.725       7769.924
       4666.329      -2584.992      -6556.922      -15511.74      -32889.80
      -33782.86      -18093.77      -12940.29      -8826.141       11397.81
       30314.38       32116.88       14070.51      -4628.717      -3232.725
       216.2852      -4614.441      -7294.637      -7622.889      -4318.543
      -137.3496      -2414.965      -5820.013      -593.0664       10326.59
       20681.67       24214.52       14435.99      -5329.328      -21603.03
      -23766.01      -16185.23      -9646.045      -7640.778       42.80469
       12234.96       14262.35       8313.854       1644.925      -1806.918
      -5427.641      -15693.14      -18081.94      -7534.316       1835.260
       6141.822       5837.082       4791.273       7051.949       14122.50
       20864.59       12870.28      -6121.598      -15025.06      -11380.10
      -6825.705      -9741.539      -10235.06       4357.414       9504.499
      -2697.051      -10209.14      -19402.38      -26251.11      -18495.33
      -9673.743      -659.5625       17306.89       32019.45       30519.82
       16857.01       1147.725      -7753.461      -10891.29      -9054.688
      -1863.979       6063.070       6312.914      -2574.138      -3966.743
       1253.188      -1193.111      -6102.586      -2093.551       8603.738
       13803.28       13579.59       2725.879      -14330.96      -17150.39
      -14911.42      -9668.674      -6573.559      -12769.13      -8438.577
       727.5391       6292.273       7641.887       2123.826       3439.001
       6942.475       1163.255      -1990.994      -548.8350      -5370.965
      -4422.469       2677.429      -681.5039      -10047.84      -11891.30
      -3282.621       7071.359       13643.72       12700.86       951.0605
      -9218.177      -7909.442       1610.836       10427.45       11708.83
       6435.681      -528.5186      -2624.180      -2344.578      -4611.480
      -4503.221      -1618.562      -4787.053      -9066.350      -4694.303
       2383.254       10156.25       11824.94       6378.395       2859.934
      -6458.437      -8670.631       2632.291       1680.580      -4476.123
      -3379.038      -4850.286       106.4531       12872.72       16861.43
       16206.38       6080.938      -7821.587      -4886.002      -6470.848
      -16362.83      -13565.47      -8817.349      -8729.236       2035.605
       12131.59       4311.268      -1589.404       5270.070       6477.379
      -411.3584       533.5427       2076.733      -813.5586      -1651.504
      -6533.336      -9979.354      -3639.464       2626.352       9043.805
       13898.52       7826.736      -1765.422      -11140.43      -12671.57
      -2738.010       2032.268       3091.586       6188.007       4086.656
      -612.1375      -2480.646       870.3262       6775.590       9203.488
       606.4062      -7471.236       1410.389       6742.107       4329.826
       4660.531      -3257.849      -7021.430       3595.347       1972.576
      -5741.473      -3919.695      -2643.788      -4363.714      -6990.123
       50.30078       5926.475       2497.215       7599.901       7225.272
      -3966.749      -1905.406       7510.820       8692.229       6678.746
      -1517.994      -11127.72      -6005.245       90.10010      -129.8906
       4759.723       12625.06       12186.91       210.2148      -9604.269
      -7622.076       104.1797       4284.035       2988.173       941.8281
       7603.264       10884.00       8198.184       10049.92       6071.104
      -1556.072      -7267.973      -10943.95      -11503.48      -9312.651
      -4488.559      -498.0884       549.4014       2488.729       3389.542
       205.0391       1332.258       2280.353      -341.4053      -2240.772
      -1143.568       4962.446       3395.572       1131.628       5137.526
      -1878.783      -2999.629       6266.352       4684.683       2321.104
       1923.337      -2515.246      -3522.410      -8069.469      -12732.76
      -4147.871       2315.535       3024.482       9970.727       10766.08
       6588.432       7569.193       5030.705       1123.195      -4222.496
      -10891.11      -7984.513      -2122.631       1859.746       8898.977
       8544.871       2896.176       2912.970       541.2915      -2225.252
      -768.2334      -2530.922      -9364.934      -11052.98      -2603.258
       6284.691       8453.787       3398.218      -835.3438       5207.230
       11277.92       4117.625      -5463.174      -6957.142      -5636.375
      -2033.520      -1948.066      -5011.803      -2707.335       2728.826
       1496.121      -3889.821      -1163.672       1757.352       4178.252
       9001.301       6216.526      -1080.148      -6354.856      -4163.730
      -1572.307      -919.9053       2947.170       3389.091       1302.823
      -1917.477      -4252.466      -938.6851       2620.630       2713.326
       326.8229      -840.2169       22.34033      -1675.990      -468.3594
       3249.251       3285.897       1648.889       417.0107      -1861.776
      -3807.682      -1511.832      -6844.797      -13712.69      -6376.154
       1295.664       4510.546       7946.898      -710.0352      -12493.55
      -7131.463       365.3696      -951.8811      -553.0312       3686.209
       2433.326      -4397.411      -3601.385       1713.036       2976.242
       148.5693      -4399.326      -4392.283      -711.1694       1457.990
       2467.282       2974.125       2787.239       2209.759       424.4336
      -2851.101      -4938.156      -1708.799       2808.320       3198.399
       5293.364       4573.970       377.9531      -1035.950      -3335.764
