     0.02500000      -27296.27       32726.18      -12345.00      -12345.00
      -30.00000       254.4250      -52.20000      -12345.00      -12345.00
       0.000000       39.96000      -12345.00      -12345.00      -12345.00
      -12345.00      -12345.00      -12345.00      -12345.00      -12345.00
      -12345.00      -12345.00      -12345.00      -12345.00      -12345.00
      -12345.00      -12345.00      -12345.00      -12345.00      -12345.00
      -12345.00      -31.89650      -69.69230       1971.000       0.000000
      -31.23600      -65.83800       0.000000       167100.0       0.000000
      -12345.00      -12345.00      -12345.00      -12345.00      -12345.00
      -12345.00      -12345.00      -12345.00      -12345.00      -12345.00
       373.1447       257.6820       79.69044       3.355069      -12345.00
      -12345.00    -0.01758728       0.000000       0.000000      -12345.00
      -12345.00      -12345.00      -12345.00      -12345.00      -12345.00
      -12345.00      -12345.00      -12345.00      -12345.00      -12345.00
      2008       318        11        13        22
       600         6    -12345    -12345     11378
    -12345    -12345    -12345    -12345    -12345
         1         7        13    -12345    -12345
    -12345    -12345    -12345    -12345    -12345
    -12345    -12345    -12345    -12345    -12345
    -12345    -12345    -12345    -12345    -12345
         1         1         1         1         1
PATO    -12345          
        -12345  -12345  
-12345  -12345  -12345  
-12345  -12345  -12345  
-12345  -12345  -12345  
-12345  -12345  -12345  
-12345  -12345  BHZ     
ZL      -12345  -12345  
[...]
       366.0122       335.3483       329.4902       364.5026       350.4035
       317.4108       338.7965       324.5913       388.4219       346.7178
       305.2163       317.1990       358.6635       335.5355       321.9392
       287.6111       286.2974       281.6105       311.6038       295.4302
       302.2667       290.4697       294.9402       292.6170       261.2480
       245.4302       298.9562       264.1885       267.3131       262.2557
       280.5028       245.8976       235.6470       242.4622       230.8595
       202.2111       242.5977       202.8812       225.5773       222.0078
       199.9076       195.5775       206.1334       192.4559       188.1050
       171.2118       187.1667       153.0114       145.5745       122.4760
       129.7751       127.9554       154.6373       120.3329       95.89023
       106.2148       126.1234       118.1530       130.2753       81.42200
       99.32269       91.42703       72.44287       77.54785       94.00565
       27.40228       56.25259       30.92342       4.640411       36.97887
       20.32973      -25.14051       29.23653      -13.12955      -43.90838
      -26.08084      -19.80908      -50.58316      -53.20831      -95.61914
      -105.9738      -109.5268      -108.6912      -137.6330      -122.1397
      -171.5562      -164.8483      -183.5425      -201.0646      -187.0944
      -207.9780      -241.8984      -218.2624      -255.2542      -266.7112
      -303.6449      -283.0515      -317.7360      -337.8929      -341.0481
      -351.1348      -383.9736      -358.9939      -402.2806      -398.4695
      -422.3553      -460.5023      -438.9802      -425.8159      -475.1033
      -494.8481      -523.5651      -516.8407      -545.8010      -542.1802
      -548.0481      -517.6295      -567.1816      -590.0986      -560.5430
      -567.9640      -596.9110      -567.3647      -621.4994      -593.5066
      -616.7236      -652.6613      -616.2126      -599.5950      -635.1282
      -647.4241      -639.7548      -596.7029      -613.2842      -618.8940
      -639.6840      -606.7314      -629.7377      -652.4875      -625.2705
      -565.0649      -579.8505      -590.2700      -598.5747      -579.0602
      -614.4878      -577.3453      -549.3146      -564.4028      -557.2488
      -533.8154      -535.4469      -511.3157      -527.3176      -474.4847
      -465.6337      -451.1656      -468.1671      -435.4597      -411.8093
      -394.3545      -388.7207      -395.3582      -401.4257      -366.4113
      -353.4678      -313.2776      -335.1066      -268.5405      -283.7809
      -287.9733      -239.7242      -252.2310      -226.8708      -187.3846
      -215.0814      -156.5692      -186.7403      -147.5405      -114.3560
      -106.4384      -114.0510      -97.87486      -82.48000      -48.76444
      -42.12964      -21.42227      -30.88057       2.503437     -0.1272278
       34.67535       44.40421       42.93350       66.41687       103.6633
       70.85236       95.13269       84.99432       129.1557       159.7545
       150.1870       152.6048       171.4256       147.6409       199.2631
       218.3091       211.2586       210.5489       262.0958       238.8877
       237.2004       275.2361       283.2629       236.5459       266.8977
       298.7634       294.7062       266.3571       318.7839       315.6293
       312.4092       290.3545       326.3533       323.5144       298.5150
       311.8246       325.7369       342.7920       334.4706       300.8842
       322.4725       287.1374       299.4514       295.6187       310.4237
       274.9008       270.1733       272.8073       293.2223       304.6025
       311.9520       255.8604       229.2100       237.9175       254.2293
       227.1014       261.0182       212.1344       203.4569       220.2965
       220.9911       189.0310       221.0174       200.8712       178.9047
       190.2911       199.0158       171.8678       171.3442       171.5365
       212.0552       180.8046       191.4373       172.3835       148.4603
       146.3132       159.7126       143.8536       170.6912       173.4109
       172.9526       145.6761       154.8492       143.6877       173.4417
       159.7249       136.5628       146.1077       177.5360       137.1310
       152.3321       137.6128       144.1758       142.7235       130.6392
       113.8268       146.5472       130.9095       161.0094       176.1892
       145.7661       131.4120       146.6782       109.0336       134.2248
       111.1508       142.7870       144.3359       122.8746       131.7999
       147.0177       140.8778       159.1222       157.8454       184.1381
       146.8215       182.5707       196.9594       207.1479       204.4540
       210.1422       192.5516       232.3163       234.5228       210.9512
       209.8226       264.9126       239.7563       248.2092       220.8110
       240.3763       254.6076       269.1006       255.3484       247.9879
       261.7649       266.7323       201.6313       223.3552       238.7577
       221.2031       177.0385       190.3729       178.5303       204.5511
       165.4529       151.5950       130.3610       159.4833       156.4419
       128.9594       89.27789       78.31444       77.93881       95.19461
       35.33170       39.19398      -2.180672       19.75931       9.244194
      -18.73612      -29.41740       3.599548      -23.51518      -39.48032
      -49.27171      -63.97449      -87.24307      -82.87830      -114.6217
      -56.95782      -35.55902      -74.59305      -108.0872      -56.58505
      -83.02829      -61.00839      -113.8172      -111.7622      -71.76862
      -98.29803      -77.73355      -22.43842      -96.17480      -73.49784
      -25.50330      -37.72672      -87.60579      -54.52851      -19.69107
      -22.54088      -56.78817      -34.64496      -39.40710      -15.18548
      -27.97597      -19.38564      -8.995193       47.19765      0.2188530
      -3.520905       22.17780       45.73424       45.17784       45.43156
       32.39169       68.55031       33.04837       101.8269       96.35187
       72.37064       114.2271       126.0417       59.63809       101.0944
       115.0312       104.0732       102.2575       153.0582       109.6691
       105.1777       98.12164       117.6773       119.2301       164.3780
       139.3005       121.6936       117.9817       156.3551       115.9335
       129.3699       108.7534       111.6666       116.6925       120.6109
       71.86053       112.6815       115.9882       76.41168       62.81671
       119.3541       66.09296       74.31630       80.97856       86.81067
       55.09671       50.97335       17.98271       61.86101       64.54847
       38.13274       18.19117       35.27859       5.555618       30.78777
       33.10288       37.08690       5.254318       43.13651       5.851059
       24.49738       34.89863       11.09263      -18.94059      -5.015297
      -24.89676       4.556458      -51.91589      -46.26715      -4.967926
      -24.28608      -42.21911       15.71967      -22.12155       6.813004
      -26.80064      -51.24263      -36.66232      -41.34833      -84.54501
      -57.20114      -65.61775      -80.81795      -85.50589      -51.59122
      -60.10425      -76.14410      -110.2475      -109.9779      -134.8855
      -103.1619      -115.2363      -103.1550      -98.06845      -108.7295
      -145.9922      -122.4629      -136.3892      -142.0916      -172.5802
      -175.9793      -190.4630      -161.6116      -185.4233      -203.1349
      -224.2362      -197.8370      -218.0806      -225.4624      -226.3121
      -223.5447      -260.5988      -234.8299      -270.4044      -274.0952
      -271.0247      -306.3976      -286.5300      -271.4296      -340.7675
      -306.5127      -323.1880      -315.4188      -354.1847      -368.2373
      -339.1062      -344.6155      -371.3403      -307.2433      -367.9180
      -350.1522      -357.3080      -398.4077      -340.9897      -347.5516
      -406.7440      -365.8500      -381.0017      -398.2649      -423.5464
      -396.2544      -419.9268      -382.4679      -395.8333      -396.6279
      -415.1780      -402.6174      -414.7919      -398.9246      -396.4824
      -357.9139      -373.7004      -430.2777      -426.0157      -393.8901
      -424.1978      -374.4694      -417.8207      -415.6396      -377.7040
      -372.4807      -422.8022      -402.7594      -381.6327      -366.7190
      -377.4657      -347.8196      -388.1616      -364.3768      -365.6777
      -352.5786      -356.1866      -310.0813      -311.0511      -356.1002
      -342.6180      -293.9781      -331.1422      -295.4564      -305.4095
      -290.2914      -307.8864      -313.3462      -289.0348      -239.9852
      -266.5217      -260.3151      -248.5461      -226.8656      -248.0096
      -210.7656      -216.8042      -232.7418      -241.9635      -232.8719
      -231.0634      -179.6686      -208.0123      -202.7242      -202.5620
      -175.6624      -169.2694      -151.4199      -157.1368      -151.1219
      -162.6187      -116.6497      -126.8270      -107.8024      -94.19678
      -91.27139      -79.95217      -32.31778      -46.82529      -21.14669
       8.566544       37.71806       17.19562       32.20578       37.03888
       64.46384       59.24365       77.15521       91.08209       112.9322
       121.9141       150.8116       152.8588       182.8229       185.4968
       220.7440       200.7489       234.6494       252.5602       268.2715
       259.8655       266.9623       308.3230       332.9265       345.9327
       373.8651       357.6140       393.2595       406.6117       459.6339
       425.3542       423.9049       453.4381       480.6339       470.0776
       479.6106       512.5659       523.3174       513.8394       541.2268
       535.4280       576.3513       579.1274       563.0803       543.6687
       591.3375       588.4026       598.2878       610.6007       625.9855
       605.3203       621.6145       611.0791       625.7975       647.3931
       635.0964       627.1880       629.4971       602.0554       630.0179
       612.6006       630.4143       586.4653       582.9800       620.3721
       625.5115       577.6133       606.2717       583.1411       567.4282
       596.2776       579.5005       559.7734       607.4507       550.2891
       544.2871       533.1284       544.9497       581.0237       577.1498
       537.1750       511.4327       476.7914       557.0265       531.9436
       488.3353       509.2015       495.3184       467.7958       521.0172
       501.1077       491.8787       475.2377       455.5535       431.5671
       456.6333       425.1093       404.9375       407.9623       401.9900
       376.5923       384.7866       348.2683       351.9333       325.0503
       323.0794       292.7795       274.7961       266.1889       225.9952
       202.3751       245.2672       203.0857       161.4111       107.8259
       125.7432       140.7807       121.5733       70.01108       71.78440
       39.75526      -6.749954      -29.21506      -38.73175      -74.02328
      -76.04346      -120.6906      -104.1765      -113.4309      -118.8107
      -184.6438      -188.7734      -157.9397      -209.0322      -227.0923
      -219.9620      -298.7059      -263.5217      -294.1016      -312.0128
      -313.7417      -338.7430      -384.9836      -382.2131      -374.6907
      -391.8936      -417.2195      -426.9586      -460.5457      -443.9043
      -484.4739      -485.4091      -486.0009      -489.2448      -557.2329
      -565.9657      -594.9277      -603.3246      -603.0554      -630.0457
      -641.3910      -629.4465      -652.3677      -629.9360      -697.6677
      -707.8816      -676.1265      -687.6592      -720.5312      -702.7896
      -721.3494      -725.7285      -722.1440      -728.2974      -777.9106
      -767.5132      -764.7866      -781.9375      -787.5508      -744.2312
      -780.3276      -748.8123      -714.8435      -732.4177      -745.4043
      -737.4272      -731.9199      -714.2087      -700.4592      -687.0007
      -711.4393      -649.3098      -649.0057      -666.8373      -628.5597
      -608.8201      -592.1295      -523.4129      -295.6167       426.3564
       1786.814       3484.103       4158.138       2959.328       1549.876
       2905.799       6587.305       6932.472       1044.060      -4456.434
      -3955.176       756.6963       5111.933       3172.770      -4849.285
      -11325.02      -14543.12      -16046.67      -13020.36      -4180.738
       7419.430       16706.88       18959.10       12183.72       3232.990
       3074.931       6417.568       601.6797      -14354.09      -27220.14
      -26011.08      -6529.188       14859.31       17147.59       2823.523
      -15130.09      -16951.92       3049.797       24670.80       32726.18
       23358.31      -294.3594      -25603.02      -27235.52      -9202.121
      -4482.744      -5242.492       5478.238       15279.34       19367.66
       13684.10      -7201.672      -27296.27      -25081.93      -5557.484
       9976.465       17654.03       14349.13      -2112.912      -8983.722
       1582.549       10887.12       4274.692      -4467.755       828.8867
      -3052.600      -11495.99       878.4551       8590.252       5909.172
       10172.52       2200.787      -10430.21      -8356.779      -6729.329
      -3722.819       1980.824       3419.771       5167.701       8506.873
       12273.97       5174.564      -9919.496      -13055.49      -7445.835
      -3067.514       6435.445       17360.31       16192.72       2061.539
      -16279.08      -16070.73      -4806.488      -1745.926       2676.701
      -2201.307      -5872.070       8076.012       12947.39       13331.65
       13518.37      -2843.328      -16630.71      -12950.22      -1208.642
       4472.474       4271.543       3171.765      -3736.818      -5528.665
       1496.312       6031.220       4329.734      -442.8838      -3851.372
      -1701.002       7826.722       8476.135      -4768.066      -10606.00
      -7062.489       2163.189       8559.223       2169.323      -2115.067
      -2607.259      -196.8398       4636.991       3518.321      -3.985352
      -1590.181      -152.7002       2420.056       3588.438      -2439.606
      -5780.806      -819.2880      -544.8438       2392.334       9058.493
       1321.490      -11546.96      -8337.542       5704.141       11744.48
       3708.129      -2072.402      -3278.418      -7320.850      -5227.927
      -1118.482       4247.791       6277.839      -681.8125      -2132.902
       739.4722       1496.559      -814.9521      -2956.245      -812.3652
       2209.975       3514.223       1415.738       2297.270       4234.895
       501.1150      -269.6445       3428.045      -1199.973      -11199.48
      -9293.386       1442.390       4808.667       2304.645       637.1504
      -1229.522      -2473.415      -214.4580       2229.323       439.0122
      -454.7946      -229.0132       842.6436       4431.424      -3506.664
      -12885.08      -3332.222       6553.245       3478.065      -206.6699
       2607.415       4839.967       483.9336      -3916.266      -2618.912
       3075.141       5315.642       1355.199      -5624.775      -6884.659
       925.0884       3091.566      -606.9349       188.6997      -278.6152
      -4382.786      -2637.232       2602.280       3225.620       356.5361
      -4507.277      -5358.368      -1306.710       339.0947      -1038.500
      -2042.714       746.6855       2503.626       2341.858       5145.739
       2922.794      -3932.380      -5952.926      -1744.891       1477.488
       2997.148       3880.721       357.1250      -5042.400      -7992.289
      -1342.408       6501.258       3535.719       748.2217      -2104.406
      -4797.829      -1544.047       938.9517      -151.4751      -2734.127
       508.8105       6535.197       8656.555       4449.372      -4003.575
      -5305.695      -4746.908      -2717.560       1962.867       1547.431
      -1358.213      -4764.879      -6701.868      -5895.278      -1309.816
       4640.141       5335.696       2023.067      -1022.486      -851.0547
       157.8574      -3650.167      -7379.214      -1495.861       8153.072
       10041.51       5207.979       328.6680      -3521.563      -4478.737
      -2958.028      -902.1401      -141.0645      -6334.797      -10147.74
      -3170.930       1134.121      -517.2957      -634.5879       3580.789
       6562.347       4120.738       2751.527       3483.384       504.3672
      -5261.743      -5049.485      -956.3550       446.2969       4955.369
       7022.932       2161.373      -1331.739      -4561.450      -6300.996
      -570.6367       7289.700       7077.936       154.2441      -4796.619
      -8443.213      -5930.068       2705.869       5429.499       2119.006
      -1106.355      -259.0864       2390.217       1670.950       903.4092
       2173.784       2376.390      -1086.481      -5013.425      -5501.988
      -3014.981       2020.119       4318.562      -208.1492      -2037.357
       1747.386       4330.479       3658.790       599.2197      -2206.229
      -3350.931      -3620.595      -783.0889       3237.211       5893.663
       5567.930      -1730.236      -5460.315       2159.362       6779.662
       2826.051      -3826.537      -6257.108      -1879.305       3287.762
       9388.170       8465.155      -1643.666      -932.5527       7106.389
       6481.437      -1612.558      -5954.242      -2005.419       1389.932
       2164.138       3736.719       359.5801      -5283.440      -4114.508
       291.5142       1404.754      -435.2617      -4771.995      -5635.062
      -283.1777       4268.675       3908.141       806.4258      -1546.444
      -3262.293       266.3555       5169.238      -177.1665      -3297.272
       1283.200       2725.166       1983.605       330.7842      -1912.241
      -1181.128      -680.2083      -2815.647       2525.812       8281.743
       1139.127      -4067.625      -4140.375      -3698.384       985.2148
       3220.057      -153.3867      -3239.397      -5444.231      -3312.290
       3079.836       4227.684       3088.426       3696.700       1693.626
      -544.3884      -442.3013      -447.0835       7.833008       810.5410
