     0.02500000      -28630.05       30795.20      -12345.00      -12345.00
      -29.99500       235.7550      -34.72000      -12345.00      -12345.00
       0.000000       26.12000      -12345.00      -12345.00      -12345.00
      -12345.00      -12345.00      -12345.00      -12345.00      -12345.00
      -12345.00      -12345.00      -12345.00      -12345.00      -12345.00
      -12345.00      -12345.00      -12345.00      -12345.00      -12345.00
      -12345.00      -30.27030      -67.72450       1286.000       0.000000
      -31.23600      -65.83800       0.000000       167100.0       0.000000
      -12345.00      -12345.00      -12345.00      -12345.00      -12345.00
      -12345.00      -12345.00      -12345.00      -12345.00      -12345.00
       209.9718       300.1731       121.1330       1.887845      -12345.00
      -12345.00    -0.08231644       0.000000       0.000000      -12345.00
      -12345.00      -12345.00      -12345.00      -12345.00      -12345.00
      -12345.00      -12345.00      -12345.00      -12345.00      -12345.00
      2008       318        11        13         5
       120         6    -12345    -12345     10631
    -12345    -12345    -12345    -12345    -12345
         1         7        13    -12345    -12345
    -12345    -12345    -12345    -12345    -12345
    -12345    -12345    -12345    -12345    -12345
    -12345    -12345    -12345    -12345    -12345
         1         1         1         1         1
RINC    -12345          
        -12345  -12345  
-12345  -12345  -12345  
-12345  -12345  -12345  
-12345  -12345  -12345  
-12345  -12345  -12345  
-12345  -12345  BHZ     
ZL      -12345  -12345  
[...]
       3393.924       3375.006      -989.3701      -3296.133       113.2627
       2294.315      -475.6990      -868.0977       2882.194       2300.828
      -566.5322       1005.037       1248.820       9.856934       471.5217
       1290.978      -207.5061      -1455.285       270.4861       777.2282
       259.7559       82.10681       554.1401      -1178.978      -1536.436
       2461.565       3007.974       706.9663      -1215.461      -2183.413
      -1484.144      -60.29834       1799.965       2339.113       680.6165
       105.8803       163.1215       303.8084       418.9742      -646.5168
      -636.8566      -527.3643      -848.4893      -992.5767      -928.7794
       180.8564      -452.7992      -734.7905       1224.943       1511.928
      -1170.313      -1427.885       308.6675      -672.4255      -678.4829
      -55.49512      -2457.434      -1781.485       1166.168      -821.5679
      -2180.637       101.1498       126.8027      -1093.435      -535.1196
      -740.6372      -1759.043       608.1924       3294.559       1019.468
      -3092.042      -3710.720       431.8843       3265.573      -737.5249
      -2580.053       269.4219      -1106.285      -3882.074      -3974.181
      -3922.818      -1331.806       2338.962       3235.757       3555.303
       1273.603      -2460.657      -1084.679       818.1788      -55.54883
      -1235.685      -2744.504      -1321.220       1197.552      -616.0127
      -3071.960      -3146.602      -2063.229      -272.2324       3016.688
       3288.713      -408.4202      -1741.979       87.99805       153.8813
       571.9595       2327.395      -1064.253      -2726.576      -55.83447
      -1393.300      -3706.504      -3863.877      -2737.111      -635.4170
      -1435.431      -2741.802      -716.7046       1929.906       3934.240
       1479.833      -2158.394      -2547.261      -159.9658       2249.658
       316.0719      -237.7103      -20.33521      -1496.511     -0.9603271
       373.6094      -1447.714      -3180.845      -2376.391       2845.379
       3839.121      -1270.522      -1351.738       1496.995       785.2964
      -2086.382      -2369.866      -476.6514      -1939.538      -2541.185
       1198.455       1414.380      -619.3733       650.7446       1187.279
      -120.7041      -1498.673      -2435.017      -427.3750       2511.172
       2660.396       1860.516       940.1147      -569.6836      -1917.398
      -1643.154       814.2058       440.8735       233.3536       1058.061
      -826.0811      -1738.853      -2602.129      -1582.271       2858.241
       2711.414      -190.1548       288.9467       260.0444      -1457.258
      -1829.188      -1616.880       52.98242       1722.016       1880.903
       2501.899       2477.410       1336.997       1115.938       776.0479
      -624.8337      -1210.760      -1059.095      -1097.861       416.7283
       1031.702       404.7339       2158.727       1354.223      -1208.523
       1160.626       1942.207      -465.9373      -1225.724      -366.5911
      -342.3506       1005.214       3439.575       828.8738      -1658.352
      -409.2585       439.3110       1593.031       1254.437       71.07568
      -353.1826      -964.9628       98.18677       1235.451       209.5591
       318.5259       1881.793       1744.224      -246.1548      -2281.508
      -1849.743      -334.5582      -677.0811       1170.268       3280.123
       2834.740       3367.499       3090.691       88.35742      -3154.259
      -3833.400      -2023.139      -1406.708       1412.505       4120.021
       246.3618      -2511.181       791.8936       2504.996      -194.2115
      -828.1021       1481.306       1065.573      -638.6279       307.7864
       1460.702      -3.544922      -2064.437      -1631.784       1057.738
       1604.400       61.77246      -1454.329      -2229.184      -1371.858
       265.2208      -45.07959      -900.1875       2032.224       3774.962
       389.3452      -2019.572      -932.0950       1053.863       188.2842
      -1178.818      -535.6797       1040.985       2662.295       2962.418
       1883.937       110.6948      -368.3990       782.9170      -874.4365
      -2031.929       252.5266       576.5686      -643.2795      -799.0835
       519.8286       1344.598       44.53955      -845.8840      -406.7219
      -198.6305      -567.0039       1245.950       1820.979      -1376.840
      -2130.647      -532.7780      -112.9055       1345.781       806.9358
      -949.5223      -356.5669       849.5115       1042.308       437.4941
      -1256.420      -2665.076       194.1954       1233.145      -1090.436
       300.7666       1579.097       1246.154       641.5474      -1180.183
      -1750.786      -648.5833      -532.3000       95.03314       611.5502
      -541.7295      -897.6465      -1438.170      -1766.676       600.5017
       1005.655      -618.1426       1397.561       2326.980      -1833.564
      -2613.607       1591.285       2493.137       483.0713       1387.282
       1750.322      -261.7207      -2180.756      -4182.997      -3407.054
       502.5898       3014.678       2304.928       64.67163      -610.0188
      -639.9082      -763.5049      -926.1426      -1286.807      -1694.781
      -3209.979      -4395.352      -2429.005       648.1173       540.1416
      -1128.037      -179.8794       973.2422       2363.936       4728.320
       3782.504      -284.5762      -2930.607      -3715.384      -3346.563
      -1943.506       292.1172       2675.174       2361.879       719.4624
      -682.1904      -3981.516      -4807.065      -1689.326       2123.406
       3777.819       2213.922       211.8392      -133.8044       574.9805
       1466.688       1264.463      -127.1250       607.5291       1170.562
      -2610.461      -3807.618      -1537.273      -1697.743      -614.3276
       1790.820       1786.181       515.8462      -1279.961      -692.9534
       200.4255      -160.7333      -421.7998      -1040.670      -1414.830
      -1121.106       1238.438       2099.224      -1186.505      -2278.757
      -1716.865      -1071.162       874.0498       1844.258       2720.635
       2619.609       600.8766       870.0293      -274.7822      -4320.080
      -3108.548       838.1891       920.6963      -1485.394      -3260.104
      -1461.739       1774.648       3122.543       3046.461       2612.550
       655.0615      -1055.264      -328.2883       1042.372      -12.60645
      -2909.478      -3722.969      -970.2212       1589.509       578.6174
      -1336.671      -310.0654       2776.864       3859.857       2988.790
       2403.637       863.7096      -461.8035      -89.67090       1513.767
       881.7285      -1265.018      -1863.077      -1819.750      -1406.257
      -1506.571      -1887.586      -1453.496      -554.6748       1367.502
       1851.676       1166.839       888.8506      -281.5449      -505.5796
       453.2651       564.8809      -529.7147      -575.9196       877.8354
       275.0576      -156.7732      -279.3125      -1172.405      -1180.476
      -1691.010      -2109.010       714.9395       3858.783       4644.114
       3209.163       681.7906       527.5967       772.5901      -418.8750
      -1958.321      -2799.503      -966.8594       1541.240       2523.758
       1347.304      -12.86108      -1012.496      -1187.708       173.8033
       755.5920       195.2774      -495.2777       387.5085       774.8295
      -1208.139       507.8438       3943.545       4424.240       1156.593
      -4231.229      -3579.396       457.3457      -1720.268      -3158.766
       953.5068       2593.507       408.0959      -404.5325       682.1260
       2938.624       3939.618       2155.131       87.55807      -440.0812
       428.1096       571.7058      -863.4648      -1576.505      -1430.326
      -2050.237      -572.7415       115.5693      -2691.512      -1542.803
       932.9619       3094.143       3536.234       1156.263       2013.020
       2030.718      -160.2941      -417.5667      -892.4050      -1231.497
      -1501.710      -3234.283      -2874.728      -1343.504      -1636.517
      -322.4912       1728.355       1334.641       882.7458       1210.074
       432.9106      -1001.384      -3038.639      -3243.395      -398.1281
       408.9854      -1644.305       843.1309       5146.886       3315.073
      -244.7427       85.46924       664.7734       1631.188       3009.534
       950.1846      -1817.667      -3093.603      -2651.142       241.2732
       1524.784       43.53516      -1907.282      -2377.358      -1896.686
      -1173.166       709.1655       2111.897       1451.717       537.8174
       976.8568       1052.107      -1238.911      -2781.274      -1594.767
       186.4150      -324.7666      -874.5571       1803.103       3371.515
       1789.417      -63.23889      -864.0139       273.6377       1385.740
       1805.853       651.0112      -74.90332       1573.386       1486.539
      -1111.380      -2985.664      -2112.769      -457.0847      -504.4563
      -360.0640      -535.4199      -2304.689      -2072.821       936.5381
       1085.900       175.4619       2220.089       3317.168       2565.412
       500.5928      -2247.332       21.50732       1939.318      -692.4150
      -710.2637      -601.5779      -866.2065      -125.9059      -640.8672
       170.9204      -471.4849      -2460.801      -2806.404      -2197.193
      -1023.703       1184.960       1607.130       457.8271       1247.654
       2623.624       2340.191       258.7795      -485.7765      -384.2324
      -856.9639      -42.39624      -528.6016      -769.9119       175.5967
      -228.2363      -2234.154      -4117.919      -2904.100      -680.7914
      -87.92139       753.9253       1193.268       359.0790      -343.5159
       416.9189       2350.816       4652.955       5605.720       2591.097
      -779.0557      -1004.490      -2188.536      -2570.940      -38.31055
       1068.956       1537.966       2363.306       1130.769      -844.4888
      -1017.204      -338.6650       82.40820       1973.771       3386.078
       957.7656      -2781.742      -3342.058      -2779.272      -1723.295
      -187.3479      -445.2661      -1860.118      -2132.605      -200.8982
       391.8218      -615.4417       149.1523       1633.761       1756.937
      -173.5483       28.81299       1920.052       460.7744      -1086.664
      -2045.341      -2569.970       103.8169       2463.786       3150.133
       1461.730      -554.8949      -869.0171       345.2969       2704.030
       1279.607      -2427.861      -3226.099      -2000.640       651.9453
       3154.131       2598.281       114.2300      -223.8798       1126.590
      -205.1689      -2120.222      -1839.774      -1891.518      -1286.906
      -85.89746       1325.000       2281.768      -1410.271      -5580.244
      -3797.536       702.2285       3339.776       3164.312       3509.329
       4295.581       2838.349       2446.476       2741.688       409.8535
      -3536.173      -5652.099      -3405.539      -2522.159      -887.6709
       3703.438       5204.240       3895.487       783.1313       911.4307
       2903.653       942.8308       445.2842       2997.943       3112.415
      -2625.170      -5387.203      -2493.713      -6415.516      -10958.95
      -7592.000      -7953.156      -12804.38      -10905.46      -4308.254
      -789.1230      -1470.645      -5578.833      -6824.419      -1877.971
       6001.258       17476.63       28130.92       29746.39       21227.02
       7331.467      -6423.773      -16368.00      -20028.81      -24933.99
      -28630.05      -19240.54      -8714.906      -5459.883      -5807.980
      -10048.04      -9636.814       112.3906       14448.78       19529.62
       7542.301      -7085.832      -7824.785       8196.523       18362.52
       9468.496       2578.906       7737.523       19592.21       30325.14
       25661.29       8623.094      -4603.039      -11352.81      -13634.03
      -14014.88      -19007.59      -23619.89      -8719.801       12205.92
       7663.668      -10095.43      -14395.12      -4031.979       3721.496
       8780.115       11729.46       5784.209       4945.381       7616.711
       9648.816       16859.34       23863.23       14183.10      -9146.383
      -23230.64      -23450.06      -10056.71       5542.148       5653.171
      -1271.410       66.35400       1288.681      -2947.891      -3392.735
      -2591.026      -3149.124       3043.414       10042.90       8631.247
       4493.983       2036.770      -725.8140      -2727.416       4238.988
       9107.048       4154.040       1728.162      -2738.887      -14052.20
      -20574.04      -13479.91       210.3945       8605.352       19972.55
       30795.20       21090.77       2688.574      -8220.402      -16533.28
      -23322.19      -15747.66       1977.420       7884.621       8314.891
       14522.33       19904.07       16564.81       845.7266      -14581.31
      -15381.97      -10026.45      -9252.674      -3848.066       10020.13
       14077.94       3772.086      -10815.36      -18490.60      -8978.215
       5925.121       15967.36       18305.92       14472.33       8340.582
      -4323.766      -17640.96      -25350.19      -26484.25      -19779.00
      -10429.68      -9012.725      -6837.854       5997.715       15428.93
       15084.13       10374.06       6898.996       7177.453       2995.783
      -7098.867      -10960.79      -7109.525      -637.5566       7998.486
       9559.527      -2191.709      -10894.45      -5543.306       5863.322
       7276.493       1544.429       2331.996       1481.938      -1248.965
       2683.941       8492.052       4553.250      -9075.781      -17605.52
      -12454.95      -5372.449      -5253.797      -5241.533      -7375.568
      -8212.881       2350.102       16617.15       24736.92       22131.09
       7983.425       1165.601       6324.085       1568.785      -9210.711
      -13745.41      -16103.27      -13892.77      -7200.040      -2135.090
       2987.094       4108.358       2015.916       5219.697       7497.691
       6395.285       7099.318       6816.582       2851.979       1337.082
       5431.861       7212.569       417.1953      -7939.562      -10226.60
      -11961.03      -10421.54      -868.2295       3711.534       2346.612
       2115.265       287.6797      -4190.359      -8700.713      -7431.105
      -4997.260      -7111.806      -7441.626       96.28125       9484.531
       12309.98       12684.36       6193.127      -2062.851      -643.9854
       538.0596       1285.948      -81.63281      -5504.797      -5640.381
      -5037.524      -4528.995      -2126.311      -3973.205      -7070.719
      -4473.841       2578.805       9261.848       13783.07       14998.92
       12408.40       6364.240      -3451.627      -10388.79      -6528.002
       1123.894       3348.645      -290.7656       953.0391       11478.89
       12338.52       183.0039      -10841.90      -16513.72      -16133.57
      -11506.63      -5778.879       126.2969       4418.229       3175.404
      -1487.825      -3205.710       1337.816       10342.93       13445.19
       8778.741       1650.295      -4819.544      -3287.128       3769.677
       6653.958       871.5586      -10356.28      -15835.96      -10690.52
      -3204.113       4294.262       12973.33       15688.03       12581.58
       6000.116      -940.9351      -1064.174       2209.094      -806.9883
      -9880.195      -14400.95      -14012.52      -12663.32      -7063.478
      -520.5000       7841.371       17599.77       19313.81       14880.82
       7664.857       871.1402      -854.3486       822.3882       1520.297
      -2931.035      -6845.314      -6169.211      -5333.855      -8071.379
      -9132.479      -2949.597       1007.755      -922.1284       523.1816
       5418.193       4949.246       205.9307      -5217.529      -4586.240
       4472.412       8823.387       7387.557       7108.197       5574.123
       2878.392      -1248.449      -9970.285      -15381.48      -10804.40
      -2901.312       3044.330       6784.006       7954.432       6773.223
       8082.250       11019.10       8689.070       6312.865       8188.740
       8688.066       6318.057       3986.517       333.1484      -6707.473
      -12973.22      -11031.86      -4901.885      -6789.223      -11451.37
      -11356.68      -10890.38      -9505.697      -6051.021      -4605.838
      -5167.558      -3903.717       2388.078       11951.39       14447.87
       6851.146       2385.773       7347.440       7680.048      -4.266968
      -853.9131       3646.661       3224.176       468.4375      -363.2217
      -894.4248      -1098.068      -2050.397      -5743.760      -4409.551
       2208.931       2646.993      -1091.187       144.0254       5072.598
       7275.417       4389.718      -243.2256      -1951.229      -2820.604
      -4427.686      -4245.139      -4646.334      -8853.672      -11008.56
      -7540.701      -4889.408      -621.3232       5101.736       5923.881
       8175.195       12137.57       11684.17       8048.225       5736.458
       4180.106       316.4172       35.09399       720.9844      -4123.727
      -8794.672      -11255.09      -10519.84      -7747.647      -5307.358
       2027.426       7828.908       5004.792       1513.841      -762.6533
      -2474.392      -3016.023      -3887.119      -2605.880      -1136.460
      -1461.908      -1125.003       22.86523       2300.145       2475.143
       577.7158      -1470.388      -4331.825      -227.1387       6909.278
       3754.344      -1625.583      -559.2327       428.7676      -4363.775
      -9393.041      -7535.711      -3772.270       291.8848       6121.148
       7569.683       2340.654      -4079.457      -6478.012      -7561.719
      -6251.330      -31.05298       1613.545      -75.29492       1735.006
       2516.486       615.2759       436.5510       1773.199      -527.9214
      -1656.618       222.6064      -1479.922      -5246.109      -8540.605
      -6506.165       104.6893       229.3328      -885.1924       1419.301
      -1011.709      -2687.167       456.2969       3365.203       7413.102
       10444.74       8364.447       3667.256       385.7666      -805.3496
