     0.02500000      -53779.23       47979.65      -12345.00      -12345.00
      -29.99500       235.7550      -34.72000      -12345.00      -12345.00
       0.000000       26.12000      -12345.00      -12345.00      -12345.00
      -12345.00      -12345.00      -12345.00      -12345.00      -12345.00
      -12345.00      -12345.00      -12345.00      -12345.00      -12345.00
      -12345.00      -12345.00      -12345.00      -12345.00      -12345.00
      -12345.00      -30.27030      -67.72450       1286.000       0.000000
      -31.23600      -65.83800       0.000000       167100.0       0.000000
      -12345.00      -12345.00      -12345.00      -12345.00      -12345.00
      -12345.00      -12345.00      -12345.00      -12345.00      -12345.00
       209.9718       300.1731       121.1330       1.887845      -12345.00
      -12345.00     0.04656628       270.0000       90.00000      -12345.00
      -12345.00      -12345.00      -12345.00      -12345.00      -12345.00
      -12345.00      -12345.00      -12345.00      -12345.00      -12345.00
      2008       318        11        13         5
       120         6    -12345    -12345     10631
    -12345    -12345    -12345    -12345    -12345
         1         7        13    -12345    -12345
    -12345    -12345    -12345    -12345    -12345
    -12345    -12345    -12345    -12345    -12345
    -12345    -12345    -12345    -12345    -12345
         1         1         1         1         1
RINC    -12345          
        -12345  -12345  
-12345  -12345  -12345  
-12345  -12345  -12345  
-12345  -12345  -12345  
-12345  -12345  -12345  
-12345  -12345  BHE     
ZL      -12345  -12345  
[...]
       399.5571       2300.256       1362.214      -1490.044      -1040.984
      -953.7900      -1536.678      -974.6344       30.27075       1194.956
       1312.465       116.6250      -2034.875      -363.3760       3577.887
       2379.582       106.9037       676.0327       201.6384      -1073.018
       13.44531       1356.233       500.7817      -50.40430       1322.688
       1754.001      -1239.458      -2402.503       322.0908       2087.019
       2452.521       1595.859      -1690.431      -4374.601       4.547852
       5368.808       1153.188      -3205.138      -349.3755       1823.686
       1010.704       1405.810       1589.775       996.7447       244.8270
      -571.5001      -47.85352       1320.469       1887.424       1010.929
      -489.9941      -1701.752       888.2407       210.0161      -3554.762
       2096.089       5206.478      -416.4170      -1533.312       288.2675
       376.1868       1056.909       335.4243       365.6377       1991.344
       1708.808       250.1016      -501.6226       419.6689       1863.871
       44.43018      -3164.231      -917.2207       2429.279       746.0010
      -2041.191      -3089.271      -716.9082       3168.841       3586.873
       161.0840      -1481.423       322.5356       57.47803      -2234.821
      -541.7349       2800.666       1190.777      -229.3457       2139.877
       1973.155      -344.7139      -681.4694       230.6412       279.2354
       709.6274       2173.650       1332.399      -1070.891      -872.0436
       426.7342      -207.2466       586.8076       3806.479       1380.178
      -3579.913      -1406.567       268.2480      -1778.767      -2455.692
      -2324.203      -519.9854       1894.715       3532.871       5231.617
       3351.374       452.8745       637.2793      -1301.211      -1682.346
      -909.5142      -2273.432      -1074.506       1447.561       1859.544
       60.26562      -2039.486      -873.5625       1975.693       3505.187
       2786.692      -529.4375      -2069.757      -581.3486       1283.598
       2090.861       2506.771       1777.805      -437.4136      -1713.191
      -682.0947      -1273.844      -6018.643      -5040.305       1628.144
       2465.549      -806.7998      -1618.431       892.8926       4253.256
       3004.938      -1499.221      -2744.313       769.6226       3122.266
      -74.41309      -2338.444      -1223.412      -422.9893       1701.732
       941.8730      -4217.570      -5820.704      -1608.396       3719.771
       3511.890      -756.4624       352.5752       3450.167       2123.351
      -1555.468      -3986.511      -1864.255       181.9067      -67.71924
       878.8118       1206.759       267.5103      -732.0859      -1849.687
      -1338.413      -513.1948      -2125.018      -1462.235       2627.193
       2575.244      -2042.711      -2398.427       848.1565       1090.353
       206.0391      -480.6505      -428.9160       104.0518      -1989.240
      -2822.818      -507.1572       551.4713      -305.2324       680.2554
       1891.710       46.70117      -1783.193      -1409.450      -463.8450
      -421.9980      -1030.080      -682.7433      -19.46088       46.19385
       785.4663       181.1270      -2295.396      -2320.543       406.8997
      -208.2892      -1705.619       1581.355       1555.509      -308.7002
       571.6133      -839.2192      -2082.084      -971.1289       1067.693
       2412.137      -1135.105      -3978.961      -736.4403       1055.178
      -1234.172      -851.2308       1000.044      -791.8264      -1683.769
       711.9597       663.1804      -1517.837      -786.2759       57.05457
       69.95691       552.7759      -1128.586      -1210.310       1032.303
       1277.833       796.0143       9.433105      -1758.451      -1491.115
      -560.4854      -1786.179      -2609.740      -1122.958       506.7266
       2355.559       4305.928       3652.307       932.7964      -262.6372
      -537.3447      -1031.074      -1341.959      -273.9421       1534.557
      -1265.143      -2872.157       1089.675       189.4229      -4111.797
      -2397.886       1284.757       1268.192      -183.3750      -742.5164
      -851.4985      -1010.014       357.4355       2040.885       3833.524
       2927.707      -1155.184      -1255.192       62.14111      -1023.391
      -145.3951       802.3896      -487.6575       907.1633       1855.803
      -2096.227      -3595.092      -895.7637       1583.387       3447.573
       3166.506       2023.811       2247.031       1695.838      -755.1194
      -2175.043       1437.131       2137.469      -1493.182      -748.9578
       1664.737       961.8296      -1291.099      -328.6016       1714.169
       1336.294       307.3979      -2367.450      -2759.038       636.1055
       2134.541       1675.444       727.5928      -2036.463      -2705.119
      -85.14648       1374.028       1333.477       1208.941       389.2725
       318.3760       1390.751       964.2511      -585.0946      -233.6738
       1991.625       1665.224       106.3677       780.6792      -956.5503
      -2067.021       182.4756       683.7715       1029.771       698.5697
      -481.6904       388.9739      -28.07977      -868.8208       716.6738
       1644.455       449.2032      -252.3858      -187.1336       190.3357
      -265.8284      -1645.588       415.8789       2484.179      -343.4771
      -2203.073       1248.690       3917.233       1411.529      -48.26514
       1940.216       1222.568      -3607.125      -4670.124      -506.7783
       3886.871       5094.872       1340.584      -2068.753      -153.7991
       1854.349      -239.9336      -3367.576      -1553.769       1841.478
       1061.112      -285.6826      -1715.843      -2462.052      -1139.990
      -544.3857       1413.519       2437.466       199.6471      -228.0820
       1049.914       1088.456      -1840.314      -5569.103      -2606.577
       2149.754       1062.031       884.9531       2162.235       986.7566
      -263.6328      -2961.876      -3861.651       533.1865       3421.485
       1793.553      -429.5245      -481.4851       1462.011       627.0757
      -2155.784      -893.0742       2813.096       2732.667      -224.1978
      -1662.135      -1535.819       349.7913      -5.156738      -2637.936
      -435.8286       2981.289       1875.473      -2690.735      -4418.429
      -1423.606       125.3267      -1082.232      -1395.318       508.9895
       1090.589       881.7871       2612.885      -499.3457      -5957.955
      -3588.375       2184.398       3184.707       711.5012      -307.5604
       774.3623      -134.4675      -798.5342      -56.48242      -2175.157
      -3217.508      -454.1387       1120.904       457.7358      -1858.296
      -3790.726      -1334.557       2446.878       1950.744      -368.8521
      -1432.840      -1333.228      -108.9409       26.26953       362.4297
       1353.810       417.5988       51.50586      -673.2617      -2296.024
      -2299.059      -751.0200       1263.308       668.6260      -1003.821
       283.8589       1448.597      -272.1307      -1538.654       1356.688
       4021.213       1427.658      -1754.119      -991.8147      -400.9678
      -1212.168      -1109.838       706.8937       1400.905      -1538.239
      -1966.813       1294.245       1993.600      -127.2334      -1425.811
      -2135.241      -1443.511       1234.952       3077.619       3727.758
       1225.284      -2062.526      -2523.960      -2088.776      -1666.203
      -2311.478      -3462.922      -683.2188       3061.350       2625.642
       918.7032      -5.894531       827.6195       1223.837      -765.5188
      -1340.631       959.5586       3267.130       1939.898      -541.4565
      -456.8538      -465.7715      -2830.395      -3193.811      -1983.547
      -346.9346       2571.623       1658.008      -689.2366      -98.60828
      -435.3660       25.47949       1902.661       1632.546      -331.8503
      -1972.657      -58.98975       2544.198      -239.4155      -2749.574
       973.4463       3072.117      -1463.970      -3290.887      -885.6051
      -13.72754       1329.796       2656.239       2586.728       2529.788
       3240.824       3487.917      -889.1719      -4260.434      -1402.237
      -1705.582      -3069.533       957.0217       419.3674      -1061.533
       774.4011       309.1810      -391.8741      -475.1396       1332.129
       3489.798       1476.980       143.7637       3096.898       3047.757
      -1743.690      -4850.678      -2578.469       1086.311      -790.0674
      -3066.986      -989.7694       819.8270      -546.5928      -143.4805
       3606.603       2256.728      -3650.839      -5226.178      -1699.708
       155.0596       113.2852       3683.747       4787.012       55.29785
      -2623.058       236.7471       3368.859       2041.666      -1497.606
      -2862.203      -1970.990       182.0046       1599.738      -70.86316
      -637.1904       1157.119       1153.852       427.6284      -221.8101
      -2026.579      -3039.006      -787.3145       3935.446       5934.346
       1710.673      -2594.045      -2008.830      -1411.805      -2047.432
      -2057.023      -2108.362       87.78857       1786.867       390.6152
      -677.1304       565.5227       1038.114      -418.2175      -1090.036
      -661.8469      -251.2256       1909.348       4395.543       2531.128
      -1586.355      -5090.229      -2713.713       3178.915       1747.620
      -1649.437      -491.7550       508.0312      -643.8777      -1447.113
      -427.1795       346.9458      -1128.635      -1778.134      -1052.222
       1554.816       3634.232       1379.666      -960.9370      -1174.414
       1177.927       2088.564       34.20044      -264.8877      -1327.436
      -1398.641      -701.6035      -1856.896      -1746.289       285.5820
       1612.523       393.3281      -1730.028      -1312.296      -562.8604
      -1509.163      -2185.334      -567.0088       3215.167       2485.877
      -1262.240      -1794.331      -1066.903       860.4697       2202.863
       1014.213      -803.3086      -2027.941      -1348.121      -388.0234
      -1489.252      -2382.139      -2057.380       740.8096       3482.721
       1596.378      -322.2261       1612.179       3498.754       1886.600
       336.6257       1755.716       374.4648      -3819.574      -2589.197
       910.8274       527.5110       525.0146       97.21143      -1945.181
      -868.7390       1568.644       108.1238      -1978.064       589.5605
       3988.820       1718.409      -1921.913      -1889.867      -414.9099
       674.9314       1264.801      -255.7168      -2958.628      -1759.860
       571.5488      -2003.811      -3180.107       1611.824       3370.992
      -258.8855      -1352.985       5.401367      -513.1509      -1205.284
       347.2834       1692.559      -81.56787      -675.6055       2369.863
       1926.841      -1313.360      -1865.782      -254.5229      -249.7314
      -2333.201      -2248.587      -467.1990      -1075.377      -749.3574
       2268.665       2316.474      -1282.767      -1478.354       979.9022
       391.9531      -894.2985      -1100.847       354.1465       2394.810
       778.1953      -665.5601      -982.7168      -2545.718      -1649.737
       689.4292       1313.439       890.5834       525.8059       448.3831
      -259.4023       1258.547       4726.950       5033.272       2837.794
       2940.277       3145.067       1108.776      -2174.499      -3853.518
      -2774.288      -3102.011      -1058.195       6777.469       12413.71
       10287.68       3220.509      -1490.880       1148.098       11453.96
       19129.30       15408.49       7523.460       3442.012       1123.301
      -6132.533      -10918.41      -602.2910       7333.757      -373.3320
      -6928.708      -5683.803      -1667.871       5443.749       6093.328
      -8093.812      -21632.41      -20216.59      -15202.64      -6318.352
       19004.34       44941.46       44594.45       17767.87      -2120.719
       8412.293       22089.68       7397.859      -15196.17      -20700.14
      -22295.68      -31780.58      -45833.91      -37582.52       9078.625
       44932.21       39336.91       13376.80      -25219.61      -49067.27
      -32768.35      -11275.32      -11817.31      -20455.12      -23379.24
      -9885.328       15008.89       27705.51       18829.59       5218.793
       4499.711       15827.52       25729.53       26308.05       25586.89
       23625.82       12372.79      -11339.30      -38926.19      -43294.41
      -20920.81      -2535.125       12276.09       36862.78       47979.65
       46673.29       30830.87      -5851.000      -24804.28      -30638.73
      -49663.47      -53779.23      -25214.39       7788.891       24961.94
       18959.27      -2103.118      -3069.056       2364.316      -13354.47
      -22834.38      -18165.65      -12728.31      -3475.509       2160.772
      -539.9736      -1331.734       10669.65       22028.79       9744.510
      -5635.273       273.9590       9458.109       10279.62       13371.99
       13753.69       1561.473      -1535.250       8469.023       1735.859
      -21416.14      -24024.61       3576.426       22340.79       7439.449
      -20650.36      -25749.71      -9224.693       1151.683       2231.788
       3782.754       434.6133      -6863.219      -6158.104      -1897.434
       6755.078       20246.06       28405.72       25349.20       14596.48
       707.0039      -11497.67      -19124.95      -20876.02      -15205.55
      -2556.266       13219.26       12461.42      -4246.195      -24006.95
      -32513.94      -11049.58       15167.95       23693.36       22128.64
       16474.55       5999.691      -6333.566      -13933.69      -20502.56
      -11485.81       11065.85       8543.641      -7571.382      -4127.988
       3760.906       8009.298       5936.500      -5241.430      -5385.166
       2006.812       3768.642      -2109.527      -8850.480      -11804.11
      -12083.89      -5122.137       4796.842       7285.133       9717.555
       17431.36       19470.94       12566.81      -4013.234      -14095.81
      -9989.746      -5253.621       3085.548       3433.359      -4674.688
       654.6865       3718.406      -15786.30      -32586.71      -21864.08
       1531.352       17459.93       16696.81       8893.921       4741.018
      -2226.057      -10651.06      -8330.898       4880.127       10582.75
       6872.676      -3777.391      -9620.020       413.3242       6112.592
       5282.604       7819.168       9870.562       10870.20       2412.941
      -10860.70      -6944.250       5775.135       5330.994      -2165.895
      -6572.758      -9043.771      -4144.188       2199.782       2925.840
      -60.50879      -5090.714       1234.668       11983.13       9582.659
       2020.889      -4750.570      -11216.89      -14145.95      -10048.90
      -1522.451       6957.789       14374.21       14156.40       4101.236
      -7354.137      -10526.87      -11184.35      -12465.79      -4691.553
       3896.508       4158.691       8648.742       16977.39       15171.88
       2985.106      -6475.222      -4820.461       4390.567       6540.631
      -4351.926      -9254.012      -5738.219      -6341.489      -5551.171
       4159.799       10072.57       1542.994      -10333.28      -11464.04
      -1535.797       5540.676       4995.541       4540.028       4836.759
       2213.458      -1593.674      -5159.688      -5429.217      -1501.214
       4159.078       7736.400       4739.517      -2379.442      -3943.084
       2009.420      -454.0410      -10385.36      -10425.19      -1591.689
       6123.975       4755.977      -1871.991      -4089.406      -426.0762
       5707.279       7821.456       3617.162      -4712.697      -8154.354
      -3544.323       2368.591       5548.312       3541.396       710.8237
      -155.0820      -2151.336      -9144.586      -15408.12      -17020.40
      -13341.04       594.4688       9987.668       9689.322       9636.059
       9930.223       9224.607       5158.303       1860.016      -3616.002
      -9582.678      -190.5977       10661.61       6646.160       2085.149
       1379.711      -1134.712      -3345.243      -848.6387       4496.529
       5027.876      -492.0547      -3368.467      -6122.500      -10619.39
      -4136.198      -1493.652      -11509.18      -10752.63       2359.438
       12207.00       10907.43       1538.045      -3621.670      -1114.861
       3043.891       7382.023       7913.145       5538.010       5095.760
       8231.553       11305.98      -160.6641      -12751.24      -7391.262
       3486.334       4105.513      -1039.911      -219.1277       269.1152
      -4192.102      -10737.11      -9462.555      -1508.148       1557.250
      -554.3892      -2267.804      -963.5127      -2628.414      -4811.397
      -2222.930       1595.076       335.0068       2063.451       5278.533
       674.7246       2079.695       8388.018       7298.830       3126.164
      -216.9758      -748.5840       4070.794       4567.568       3000.754
       8110.035       8707.854       7695.396       10077.39       770.6719
      -15075.59      -19394.75      -9451.990       7446.309       17082.57
       8327.957      -561.2031       3556.284       5408.764       308.7617
      -4511.818      -3164.076       1186.975      -262.1836      -7579.254
      -6335.139      -1367.191      -5963.883      -5891.335      -2077.503
      -3760.600      -5179.314      -3431.088       1937.043       6620.252
       4670.584       2936.655       4068.023       3430.516       264.5566
      -3566.184      -1708.650       1463.219      -580.8945      -7653.824
      -9340.456      -2104.049       2367.902       6870.547       7512.561
      -1636.586      -6791.177      -4309.903      -2432.942      -637.5254
       3286.069       2724.465      -605.9561       2676.106       5447.071
      -972.6621      -117.4590       11229.48       7687.854      -176.7979
       263.7197      -4647.959      -3777.844       6096.834       8775.751
       4364.496      -3077.660      -10168.96      -10997.36      -6412.188
       551.7095       3273.275       370.8730      -1503.574      -2589.648
