     0.02500000      -80807.75       68469.31      -12345.00      -12345.00
      -29.99500       235.7550      -34.72000      -12345.00      -12345.00
       0.000000       26.12000      -12345.00      -12345.00      -12345.00
      -12345.00      -12345.00      -12345.00      -12345.00      -12345.00
      -12345.00      -12345.00      -12345.00      -12345.00      -12345.00
      -12345.00      -12345.00      -12345.00      -12345.00      -12345.00
      -12345.00      -30.27030      -67.72450       1286.000       0.000000
      -31.23600      -65.83800       0.000000       167100.0       0.000000
      -12345.00      -12345.00      -12345.00      -12345.00      -12345.00
      -12345.00      -12345.00      -12345.00      -12345.00      -12345.00
       209.9718       300.1731       121.1330       1.887845      -12345.00
      -12345.00    0.008320562       180.0000       90.00000      -12345.00
      -12345.00      -12345.00      -12345.00      -12345.00      -12345.00
      -12345.00      -12345.00      -12345.00      -12345.00      -12345.00
      2008       318        11        13         5
       120         6    -12345    -12345     10631
    -12345    -12345    -12345    -12345    -12345
         1         7        13    -12345    -12345
    -12345    -12345    -12345    -12345    -12345
    -12345    -12345    -12345    -12345    -12345
    -12345    -12345    -12345    -12345    -12345
         1         1         1         1         1
RINC    -12345          
        -12345  -12345  
-12345  -12345  -12345  
-12345  -12345  -12345  
-12345  -12345  -12345  
-12345  -12345  -12345  
-12345  -12345  BHN     
ZL      -12345  -12345  
[...]
      -469.4644       270.5852      -656.5367      -719.4382       1260.215
       873.4114      -604.1791       99.99597      -211.9907      -648.1248
       1194.423       224.9844      -1764.319      -1268.883      -105.8257
       1483.023       1415.403       22.94580      -971.1734      -523.6559
       772.1943      -725.5391      -2343.353      -1587.134       268.0891
       1168.559       96.13184      -863.7421      -1087.064       322.0288
       254.0269      -2078.146      -599.3678       508.6434      -199.9842
      -27.30139       194.5315       67.78174      -1491.311      -1791.131
      -57.71985       384.9265       319.4109       70.63525      -735.4639
      -823.0361      -2046.401      -1097.306       1414.191       233.9264
      -190.7731       40.41821       1034.110       1723.325      -1196.021
      -2345.031      -1381.612       63.20288       2260.788      -622.3384
      -3668.827       142.5923       2377.410       732.9980      -61.72949
      -1398.863      -1677.963      -851.7249      -577.6205      -516.9498
       259.9576      -126.8956      -1032.590       91.02661      -404.8684
      -1511.440      -657.7390       350.9158       340.7212       346.1292
       1340.037       461.8584      -1556.618      -1582.032      -237.8127
       712.7341       738.1288       506.1372      -648.1104      -2122.623
      -545.8113       943.2889       393.7020      -185.8533      -1533.306
       33.30029       1629.912      -2915.820      -1726.528       4124.346
       1483.543      -1384.526       576.1533       1474.252      -739.6841
      -2553.494       67.06592       1737.747      -214.7732      -1361.625
       1.353333       895.7388      -828.9123      -609.9572       790.4165
      -1309.325      -461.4229       2227.459       356.6583      -874.8921
       855.7793       2317.890       1070.292      -2349.646      -2990.489
      -162.4583       1738.487       41.76001      -1880.169      -309.9688
       3871.025       2766.870      -989.6943       1412.760       1659.130
      -895.2869      -959.6302      -215.8359       1087.241       885.9780
      -1222.469      -3509.627      -661.0850       4197.614       1579.369
      -1915.753       2444.688       3952.024      -2163.311      -2531.175
       2367.233       2474.726       508.3652      -438.6777       266.3574
       2698.483       1616.075      -1636.072      -2333.065      -1073.048
      -151.5044       264.8462       1935.148       983.8243      -564.4821
       445.0697      -220.1764      -929.3169       358.7727       1263.937
       405.4092       661.6421       2101.632       256.2803      -2566.565
      -2249.006       227.4603      -351.6338      -667.1240       3440.545
       2880.157      -1168.296      -836.5878       236.4390      -907.5508
      -947.4717       1294.047       2457.449       2048.619       1162.426
      0.4314575      -332.3403       675.7102       1151.459      -527.0244
      -1436.243       105.4672       47.87646      -1193.315      -999.4883
       1168.837       2090.619      -254.8838      -2268.342      -2332.165
       1502.486       3332.862      -522.2837      -1121.162       332.7565
      -93.77637      -1385.498      -1612.364       592.7273       820.1016
       1351.365       3057.248       975.9336      -1213.338      -1350.854
      -985.4529       810.0986       2213.042       756.5005      -1752.729
      -1149.188       2169.219       2695.685      -538.0723      -4314.385
      -3793.156      -136.0746       697.9781       323.9820       130.2157
      -525.6390       179.3496       1157.885       885.8835       296.7228
       557.4027       182.1868       585.4409       28.81250      -2471.530
      -1419.793      -385.2041      -2076.122      -1753.963       1189.311
       4177.951       2345.127      -2310.278      -1971.816       604.2192
       134.3472      -1273.826      -984.7266       897.2573       1365.959
      -1017.844      -2050.306       165.1926       1818.171      -1080.815
      -3916.515      -689.0729       914.5694       14.97522       839.0359
      -517.3638      -1184.308      -279.4560      -659.6941       993.6387
       2630.988       383.1904      -2445.928      -1100.849       516.1091
      -1497.633      -1139.558       2407.359       2123.982      -1094.106
      -110.5547       3602.555       2519.201      -1669.132      -3294.286
      -1876.645       1452.308       472.2886      -2715.224      -1837.413
      -352.3116       898.2383       115.9722      -1374.705      -69.52783
      -400.1523      -2135.163       45.38330       1462.543      -456.8800
      -56.45898       2023.097       1827.674       440.0779      -1017.549
      -671.4807       1735.492       986.3509       408.6631      -24.21143
      -2725.754      -2006.344      -515.7715       1358.862       2120.574
      -854.4458      -949.9370      -1350.500      -1101.412       1579.053
      -1162.299      -3129.179      -176.3438       3830.700       4867.409
       341.3203      -2303.147      -632.5317      -188.8052       615.4551
       2975.654       2759.669       538.3635      -790.1907      -1411.871
      -533.5594       726.7661       55.72070      -894.6948      -967.5291
      -1686.434      -563.9531       1168.532       204.5066      -384.9397
      -658.7505       223.7759      0.2846680      -2653.126      -846.9668
       2112.188       24.91431      -1602.650       130.4199       327.5829
      -55.68555       1573.655       773.4749      -1646.339       676.6953
       4136.553       2526.723      -408.4170      -1730.119      -2690.696
      -1524.818      -223.1992       1263.658       3009.013       587.5012
      -1099.478       601.0154      -464.5481      -1749.939       792.6309
       2604.306       1025.567      -2495.243      -2900.057      -338.8647
       426.8984       866.6093       357.4602      -470.4697       597.1677
       218.5500      -1053.433      -145.3760       650.6915      -812.2702
      -853.1423       1650.526       947.4893      -1674.669      -218.4817
       1997.318       83.59644      -2039.755       63.94165       1976.364
      -1444.724      -3407.846       297.5503       2355.585       778.9209
      -693.6765      -1026.594      -842.7103       285.9041       863.9490
       549.5398       1585.346       925.9492      -1603.959      -2605.852
      -751.6382       2171.333       1741.437       2209.689       2491.300
      -2206.634      -3698.916      -1130.788       783.0636       1087.348
      -1731.558      -2821.171       1057.550       4412.163       1666.975
      -1679.931      -764.2708      -736.3533      -1171.229       97.71790
       794.9600       431.1279       360.8076      -872.5996      -2517.057
      -624.6227       964.0252      -113.3489       621.3911       1944.639
       1437.993      -274.5220      -2189.414      -2075.347      -368.0552
       1427.835       1116.881       507.6514       1581.628       1710.494
      -142.3374      -2590.951      -1178.436      -344.4575      -809.7837
       2176.233       1145.885      -2220.070      -269.0708       1458.761
      -5.210693      -794.0771      -1753.129      -1279.517       2750.406
       4358.081       1364.991      -528.4502      -562.0864      -2263.030
      -2634.123       989.8738       1224.902      -1030.253       859.1284
       2630.105       330.2944      -2898.008      -1365.357       1625.300
       1150.479       604.8594      -9.501099      -346.8677       366.6606
      -103.1152      -658.1279      -1193.438      -1319.263       971.4009
       2319.379       16.78198      -1977.305       354.4551       3019.191
       1776.268      -2039.090      -4654.852      -1142.551       2038.044
      -35.92627       263.4788       1613.386       439.7500      -1509.423
      -2660.863      -1263.438       496.6514       1550.119       3859.539
       4546.699       1093.362      -2956.643      -2475.116       46.81445
      -1877.389      -2721.419       2009.166       3271.714      -936.5835
      -2192.780       613.7673       1178.223      -2183.240      -2660.693
      -97.22473      -363.5088       764.6182       3473.636       1620.254
      -1570.928      -1422.171      -44.79199       484.5186      -1200.986
      -3150.479      -973.1304       479.4925      -512.1904       1730.581
       2636.276      -350.2708      -827.4519       616.0166      -121.0319
      -1447.932       1021.789       3535.712       619.3301       4.800293
       1383.336      -1368.084      -1700.109       1180.327       654.6938
      -1429.292      -2521.477      -2389.759      -1589.611      -1268.639
       1226.546       1245.737      -1081.524       2001.614       3610.827
      -710.4888      -1640.054       1606.112       1066.338      -1125.982
      -1164.625      -1844.812      -2728.249      -1915.948      -308.6149
       421.5685       97.00330      -319.0562      -113.7083       262.9812
       755.1687       1759.490       409.4348      -86.39526       913.6787
      -1391.711      -3127.016      -1627.242       406.8281       216.9822
      -1744.553       50.21680       3542.165       713.5220      -1597.401
       1014.446       397.2080      -1491.852       1004.844       3770.367
       1341.809      -1421.331      -632.6514      -885.4614      -1528.873
       326.2412       1498.257       1494.042       1123.933      -1013.762
      -1865.753      -65.53882      -423.1348      -2974.418      -2478.529
       1631.684       3181.006       775.7578       373.1636      -334.9028
      -2552.216      -771.0166       1412.097       1359.494      -1159.921
      -2841.481       992.6113       3133.478       2129.991       1275.573
       44.31152       1233.525       2706.986      -999.0200      -3620.944
      -215.5747       1438.838       745.3481       867.7327       1273.550
       990.8960      -1053.095      -1026.256      -1297.614      -4267.748
      -2579.285       1343.072       1887.557       1090.694      -841.8833
      -2629.772      -1272.509       1668.307       2932.845       3134.757
       2402.049       809.6826      -501.1515      -661.1377       1064.069
       265.3438      -2460.061      -1195.767       331.8430      -1234.888
      -472.3857       2024.292       2227.737       947.0671      -178.6729
      -797.4268      -2006.528      -2615.187      -1306.540      -846.8843
      -2428.668      -233.7632       2822.570       1059.377       884.6523
      -895.2446      -2150.039       2418.579       4147.069       3016.748
       374.9468      -3193.375      -1046.725       399.0479      -3606.163
      -2768.356       1886.902       3111.224       1464.428      -1219.432
      -1070.467       1473.240       771.9014      -2903.751      -3038.969
       387.8101       1263.437       1119.546       1728.226       658.4592
      -1123.898      -613.0466       1196.429      -1009.802      -3136.665
       243.0872       1669.784      -1059.301      -2299.061      -2521.679
      -3117.877      -813.4800       2782.181       2197.508       274.7338
       301.1938      -837.1034      -1236.635       600.2533       708.5891
       380.7056      -1280.721      -3607.349      -2213.940       524.5371
       1924.114       1531.147      -91.40047      -105.1134       10.20941
      -521.3472       640.2129       1078.717       1402.112       1338.191
      -1199.031      -1354.821       645.4253      -567.7383      -2797.148
      -1413.179       1423.775       2328.139       1512.893       829.6632
       218.2222      -1010.373      -1438.994      -819.6252      -564.2621
      -50.75537       1831.129       1168.346      -2506.311      -3502.461
      -1350.982       2610.338       4032.830       613.1309      -625.2251
      -1770.590      -4444.769      -1555.748       1819.965      -474.7556
      -1083.161       2018.638       1636.526      -509.0063      -1560.943
      -1536.856      -225.4238       498.4126       2198.274       1057.511
      -1487.674       720.3252       1530.232       3010.666       6698.916
       5677.000       2648.177       2069.755       2321.418       103.8112
      -1064.771       581.2598       3023.645       6062.277       5711.703
       4914.715       8403.926       12783.79       15548.58       17431.33
       17818.08       16214.80       15338.17       17271.01       19422.93
       17863.98       16497.36       13792.16      -4325.984      -32209.77
      -44705.49      -42957.14      -45396.88      -40697.87      -23767.50
      -10992.82      -5324.756      -9120.753      -10942.50       10667.25
       47958.83       68469.31       58560.75       39995.15       24334.49
       10642.73       6125.826      -1281.453      -26221.91      -47138.77
      -34873.26      -7591.633      -20431.31      -66954.70      -80807.75
      -54548.00      -31336.16      -23719.43      -20871.57      -11154.26
       13679.75       39506.48       43036.87       21231.66      -4163.887
      -3680.078       26491.81       47834.50       30061.84       3580.320
       9376.078       41836.76       47456.74       876.2188      -50764.78
      -57149.30      -22912.74       2657.084       7071.423       5616.994
       3761.086       16123.23       25462.04       5840.969      -26165.35
      -26655.09       4056.377       8757.336      -17401.73      -34034.55
      -22408.88      -1701.188       15459.66       27681.38       11117.55
       1039.602       21700.96       24755.88       8034.590      -6252.852
      -9084.459       3199.895       9059.058       5229.652      -8251.031
      -29539.25      -28212.06      -4821.820       17578.42       22427.55
      -915.4082      -8312.562       2581.207      -5673.770      -7401.366
      -4827.066       2872.219       22602.98       30817.91       28317.66
       6351.172      -20345.54      -18124.88      -2390.793       13200.72
       23560.66       965.3672      -27569.30      -23347.86      -23439.21
      -32319.96      -11796.96       21528.79       26322.18       3940.527
      -12990.61      -15626.38       2492.773       27423.60       17245.10
      -4300.354      -1479.776       1804.352      -18365.28      -34656.89
      -22556.36      -1524.023       13849.96       12977.65       10774.68
       21289.91       13136.46      -13101.93      -22122.29      -14351.66
      -2076.734       11906.06       12891.04      -25.52734      -17056.05
      -13165.71       13662.46       17687.16       7391.797       13929.88
       12210.54      -2614.531      -12595.68      -13142.08      -1835.959
      -6484.473      -16334.33      -9553.451      -4227.875       7685.820
       20584.23       23401.22       20855.05       8978.779       6095.852
       8798.355      -10083.22      -28270.12      -24263.65      -11390.20
       6550.803       15184.41       401.2754      -11116.57      -8458.691
      -2638.089       6082.156       1749.237       1382.414       13134.18
       10341.61      -861.6328      -12022.40      -6216.809       12093.96
       6085.385      -13862.85      -6801.158       8998.213       3066.986
       2036.533       9298.414       12034.67       5909.180      -12933.82
      -23705.19      -16900.45      -6409.220       2353.547       11076.99
       11356.74       7530.005       4968.518      -9888.527      -16171.33
      -2237.989       4091.091       1564.840       1579.775       5752.238
       7568.850       5627.092       7510.002       9684.166       4001.557
      -5976.238      -7658.060      -3014.107      -700.7982      -784.8796
      -420.1348      -1999.598      -3156.646       3879.501       7374.492
       528.6187      -2113.373       1513.438       3516.327       1647.718
      -3575.963      -1258.783       7834.777       4283.856      -4132.376
      -6477.539      -961.0068       4955.811       2258.769      -502.3750
      -8460.602      -18222.80      -12135.67      -223.3359       2516.238
       6638.896       7732.195      -6104.119      -9847.363       3080.129
       10934.78       12456.53       10124.78       6115.791       7434.711
       9713.684       7308.364       1991.273      -1841.049      -4184.273
      -9935.551      -15539.43      -11098.06      -5357.914      -11738.77
      -16448.90      -3198.602       15469.15       18248.19       5805.316
       911.7656       9703.690       8162.326      -1595.624      -2202.385
      -3841.337      -4731.191      -5800.180      -7846.584      -3912.595
      -3190.309      -3946.306      -1419.031       32.65723      -2963.217
      -3227.045       1608.524       1587.445       6269.242       16590.41
       16789.89       5770.590      -8236.398      -13047.71      -8480.840
      -6978.039      -6617.146      -4145.750      -2433.722      -611.2251
      -689.4971       1599.429       4005.770      -1648.917      -1137.240
       4709.158       6750.541       10434.20       7806.317      -4504.508
      -10297.31      -2918.233       1228.428      -4870.377      -8607.306
      -3082.656       7244.664       17584.10       14696.31      -606.3086
      -1092.164       7113.215       5210.159      -874.7773      -5641.114
      -4174.123       3053.705       669.6914      -8115.922      -8217.073
      -4784.727      -6839.795      -8879.256      -5372.976      -2008.031
       1552.229       6125.471       3806.090      -3356.230      -6327.560
      -3391.211       3562.176       8290.460       1633.271      -6529.714
       609.1836       14949.95       16337.39       5700.166      -1883.293
       2590.418       6977.009       1904.240      -1503.515      -124.9644
       1992.837      -1230.754      -5157.877      -7423.900      -9252.352
      -2095.933       2006.452      -2579.848      -4499.018      -4257.891
      -6382.484      -8480.684      -5192.127       3242.635       7142.716
       1031.694      -3262.683      -1666.332      -2345.433      -1944.261
      -49.22406      -351.6240       1032.836       7391.765       6775.109
      -7333.633      -11400.37       4786.723       15775.99       10626.46
       1428.750      -2424.053      -5323.418      -7169.986       715.0918
       6728.826       4407.168       2348.882       1847.650       4950.698
       5310.311      -4522.488      -9727.138      -2616.779       3413.996
