     0.02500000      -53894.66       83689.52      -12345.00      -12345.00
      -30.00497       245.8200      -44.38000      -12345.00      -12345.00
       0.000000       33.29000      -12345.00      -12345.00      -12345.00
      -12345.00      -12345.00      -12345.00      -12345.00      -12345.00
      -12345.00      -12345.00      -12345.00      -12345.00      -12345.00
      -12345.00      -12345.00      -12345.00      -12345.00      -12345.00
      -12345.00      -31.51150      -68.98430       1231.000       0.000000
      -31.23600      -65.83800       0.000000       167100.0       0.000000
      -12345.00      -12345.00      -12345.00      -12345.00      -12345.00
      -12345.00      -12345.00      -12345.00      -12345.00      -12345.00
       300.8519       263.3591       84.98940       2.705033      -12345.00
      -12345.00     -0.2744365       0.000000       90.00000      -12345.00
      -12345.00      -12345.00      -12345.00      -12345.00      -12345.00
      -12345.00      -12345.00      -12345.00      -12345.00      -12345.00
      2008       318        11        13        14
       780         6    -12345    -12345     11034
    -12345    -12345    -12345    -12345    -12345
         1         7        13    -12345    -12345
    -12345    -12345    -12345    -12345    -12345
    -12345    -12345    -12345    -12345    -12345
    -12345    -12345    -12345    -12345    -12345
         1         1         1         1         1
SASO    -12345          
        -12345  -12345  
-12345  -12345  -12345  
-12345  -12345  -12345  
-12345  -12345  -12345  
-12345  -12345  -12345  
-12345  -12345  BHN     
ZL      -12345  -12345  
[...]
      -173.7661      -318.0360      -443.9352      -176.3630      -200.0354
      -404.4414      -356.0493      -230.0166      -380.5820      -384.5875
      -307.7981      -340.0743      -407.5350      -385.1880      -405.1704
      -350.7429      -355.9001      -386.5408      -393.8776      -354.1443
      -494.8875      -520.5585      -388.0171      -410.1505      -510.9674
      -362.6904      -451.7865      -519.8855      -438.6969      -472.3894
      -480.3494      -397.1244      -505.0232      -478.4872      -408.7339
      -465.2644      -556.3087      -411.2144      -347.2888      -489.3433
      -574.1420      -358.7250      -334.7555      -478.4545      -497.4216
      -351.1930      -328.6106      -404.5707      -528.3979      -469.3328
      -391.1421      -331.7954      -409.0242      -480.8767      -332.0109
      -249.6082      -444.4606      -294.8173      -232.4805      -352.8972
      -298.4299      -246.2694      -329.0977      -311.5646      -370.7356
      -300.9174      -241.1340      -276.3108      -299.5662      -245.8529
      -195.6016      -169.2399      -272.7899      -132.3904      -32.92041
      -136.1455      -209.6151      -89.95386      -113.3282      -176.2644
      -113.6946      -86.73611      -149.0871      -64.41580      -84.91263
      -67.27048      -6.224411      0.9069977      -108.2013       80.20325
       206.5087       1.131577      -47.37070       166.7995       58.06819
      -64.38377      -59.89532       18.58582       139.0046       148.6529
       49.24774       213.1512       233.3498       143.6250       186.7838
       259.2136       191.8115       276.2979       226.0140       138.5319
       223.2758       233.0149       159.5299       278.5292       285.4824
       310.8442       279.2549       248.9842       290.1698       270.1993
       236.5160       359.6258       288.4297       234.8954       203.6760
       291.7081       338.9763       266.6556       275.5049       384.0121
       314.6097       382.0498       368.8916       224.8945       318.7645
       439.4601       148.9277       192.4808       428.9843       318.0103
       181.4404       358.5032       368.3597       297.5568       308.4889
       375.3267       345.3817       254.7367       186.5748       300.5276
       250.8493       213.8387       200.6279       216.5582       249.6898
       231.9222       253.6052       276.6786       158.9173       313.8259
       321.2123       238.7445       222.0707       181.6391       130.2784
       207.2180       147.8838       106.0784       151.4550       187.0140
       103.0464       204.8251       230.2983       175.9218       171.9172
       241.8428       248.0223       269.5868       162.7316       249.9244
       292.9313       159.5431       162.4458       283.4661       169.8212
       177.6057       296.0974       358.4819       233.3197       281.9334
       330.8086       265.5280       307.6267       424.9928       265.3237
       194.3458       259.7463       305.4613       253.0803       250.9144
       229.9606       302.4657       273.4711       251.9572       310.7909
       319.6178       267.7213       384.8861       263.4742       179.6024
       266.6635       317.1558       231.0871       190.4136       126.0189
       152.9315       202.0005       200.4216       84.40594       208.1908
       293.2403       208.2220       127.1827       197.7353       219.1568
       203.6201       64.70132       39.53532       35.18686       59.24753
       16.69652       65.69394       86.13309       3.610718      -68.31741
       24.29871       9.758194       89.06310       68.76657      -52.59021
       17.79727       110.2241      -132.4052      -97.42769       25.96735
      -71.00464      -188.4190      -156.6774      -112.4753      -51.24329
      -158.8894      -138.5570      -164.2807      -158.9044      -48.96240
      -68.60535      -225.7328      -72.88684      -66.93994      -200.9335
      -184.8290      -71.46613      -145.0284      -195.4778      -230.2345
      -173.1720      -182.3448      -139.2662      -118.3463      -167.5281
      -237.4922      -125.7437      -165.7090      -178.4866      -151.7029
      -147.4907      -206.1867      -168.8022      -166.8921      -154.7426
      -228.3260      -190.3769      -209.1438      -189.6342      -147.9199
      -96.41113      -197.0519      -191.7589      -167.4161      -102.1486
      -126.3750      -191.7933      -216.6816      -134.0743      -231.9828
      -238.5557      -211.3539      -129.4749      -171.6337      -141.7326
      -97.13562      -159.5757      -264.8813      -171.2346      -206.8377
      -141.4949      -109.2113      -200.0057      -223.8949      -137.0587
      -226.9986      -201.5724      -201.7589      -190.4910      -199.5457
      -228.6069      -232.4493      -66.30008      -107.3441      -178.1083
      -127.1538      -31.02136      -111.1942      -87.37582      -107.2479
      -77.76511      -115.0194      -122.0984      -63.92517      -10.22917
      -93.20111      -47.26181      -117.7993      -121.9737      -39.68900
      -38.74527      -156.5825      -67.55905      -57.15741      -22.56777
       4.364532      -48.61691      -112.4458      -29.02823      -82.77538
      -28.61389      -47.98892      -133.9554      -110.4291      -17.11087
      -130.0520      -116.6745      -112.5791      -105.9092      -131.0853
      -92.60962      -151.4621      -134.2379      -74.44559      -40.65245
      -86.75066      -28.97183      -58.92130      -62.43927      -159.9027
      -162.7590      -186.8481      -176.0770      -160.5579      -144.2774
      -191.5400      -135.2179      -168.1169      -108.9517      -85.87369
      -89.43030      -160.9162      -152.0244      -127.9522      -103.0819
      -209.9134      -119.7209      -111.6201      -167.8715      -178.6121
      -146.5267      -259.6144      -205.2946      -127.0971      -128.7392
      -254.3846      -167.9886      -73.34183      -109.6678      -200.6370
      -117.8536      -125.0151      -172.1103      -303.7736      -189.6647
      -154.9655      -195.8491      -155.4996      -53.73706      -139.8531
      -117.1260      -208.2227      -211.7202      -152.3259      -150.0103
      -205.2498      -132.0325      -174.1372      -149.3144      -210.6917
      -171.8037      -118.3702      -105.9323      -203.8037      -118.8588
      -137.3622      -176.7376      -149.9653      -50.27386      -150.8728
      -108.7509      -75.92255      -83.55969      -157.2361      -104.6923
      -64.04036       16.44550      -59.29507      -58.54855      -28.22662
       25.11183      -36.89441       24.81377       10.87427       51.93811
       59.17319       90.27179       107.9967       161.9255       50.66522
       148.0290       171.5314       145.3915       135.6703       208.9622
       201.7856       274.7876       309.3600       394.3450       370.6523
       459.9517       438.5121       417.9878       435.7942       557.2313
       473.2083       447.9574       489.9104       546.2119       485.1147
       571.3107       554.8423       663.2856       703.2263       710.2527
       749.9534       794.3030       651.8147       755.5376       810.7854
       766.4890       686.4001       793.2185       721.4908       640.1792
       645.1624       713.1646       643.8765       747.5244       774.5068
       759.8271       715.9219       760.2942       665.3259       660.5208
       676.4480       693.1947       567.2173       616.2294       598.1316
       537.5029       506.6338       613.8939       554.8789       561.2207
       507.0815       527.8314       465.3264       425.5596       392.1046
       393.4697       308.2719       408.3845       365.3782       377.5599
       387.8381       362.8307       273.7209       297.8571       272.0297
       331.0547       253.6147       196.6384       168.2522       226.4742
       125.1197       106.3091       87.30405       108.5687       80.93228
       159.8624       148.8433       107.4949      -2.704975       35.72950
      -12.83602       20.03760       16.11955      -18.65903      -100.1380
      -45.44806      -94.48871      -129.3014      -170.1946      -100.2536
      -197.8106      -193.8583      -163.8536      -191.0493      -279.5370
      -223.3582      -255.9918      -283.5975      -344.1956      -270.9001
      -331.5319      -360.1978      -402.5455      -330.8297      -318.8036
      -341.0269      -421.7289      -366.8210      -384.2596      -332.5699
      -426.9664      -386.6608      -352.1548      -415.9321      -475.0992
      -404.8580      -488.9634      -457.8567      -460.9753      -438.6582
      -513.4783      -453.2172      -429.3062      -426.6541      -470.1594
      -421.2443      -441.9738      -409.9421      -498.6960      -447.6340
      -455.6311      -448.4749      -454.7036      -438.7179      -505.5825
      -501.3752      -530.0233      -447.4100      -430.1490      -412.7189
      -544.8679      -526.5529      -524.1497      -511.7488      -509.6265
      -442.6125      -508.9285      -518.8290      -555.2544      -549.4539
      -621.8596      -598.7017      -568.8955      -532.9259      -571.1980
      -545.4563      -643.1174      -600.4929      -636.9197      -705.8883
      -637.9341      -537.9927      -722.4181      -674.2144      -591.8345
      -661.0986      -730.5870      -600.6416      -647.4316      -692.4028
      -726.4778      -641.6216      -690.6963      -730.6221      -740.6375
      -666.5322      -671.6387      -643.2781      -692.1807      -644.7483
      -692.3945      -701.6252      -702.1982      -639.2502      -679.5581
      -682.5669      -732.0654      -667.8806      -634.3354      -611.8191
      -682.9753      -687.1360      -717.1638      -616.0814      -647.4302
      -658.9707      -580.6443      -505.2170      -602.5081      -549.2584
      -568.6536      -586.7725      -573.6501      -531.2399      -607.9539
      -542.6335      -515.1035      -497.7914      -523.9478      -457.8784
      -431.0288      -402.5902      -464.8054      -370.4941      -342.2179
      -334.7593      -357.3560      -318.7231      -363.5037      -319.2726
      -323.4552      -263.1270      -256.0695      -201.2553      -187.6411
      -120.5043      -126.5665      -108.9674      -151.0337      -82.20404
      -75.70357      -46.38343      -30.31445       11.71617      -31.10373
       75.72208       86.68509       66.10071       110.5396       265.6292
       187.9624       145.0443       215.7841       277.5835       164.2676
       222.1265       311.1190       326.9619       276.5900       408.9392
       429.8854       377.4745       342.2836       479.5674       534.7723
       573.9225       593.3057       622.8435       584.6409       649.3506
       607.4813       633.0020       663.3590       687.5872       666.8896
       762.2925       759.6682       781.9968       835.5549       888.7085
       880.5520       959.5181       932.8081       987.1975       976.2354
       978.8867       1020.938       1089.846       1038.643       1132.627
       1122.476       1065.519       1105.854       1206.999       1187.764
       1249.088       1192.406       1161.619       1209.400       1354.062
       1316.532       1277.518       1253.824       1278.277       1272.291
       1239.030       1184.997       1305.810       1265.611       1252.987
       1320.580       1345.543       1247.933       1279.918       1201.248
       1151.123       1237.590       1298.028       1164.471       1224.906
       1203.738       1102.609       1052.534       1065.620       1032.234
       1019.622       925.8257       983.6960       942.6287       852.2778
       868.6133       973.0103       848.9060       771.9863       831.8413
       870.5085       691.7021       684.8906       691.9224       605.6281
       564.3933       602.9540       487.0150       493.1310       480.8201
       513.4786       546.7260       469.7273       368.5310       461.4214
       398.0477       351.6097       386.6465       395.4427       293.6456
       310.9094       218.1241       164.2557       162.7657       206.5491
       202.5174       223.9493       179.5507       211.7556       133.0158
       109.1414       128.4604       112.3311       18.67923       61.76238
       8.891525      -88.64371      -63.02821       75.24319      -82.52597
      -151.5965      -65.36331      -11.28198       339.6758       2275.713
       2798.953      -4857.500      -14274.74      -6930.371       10356.27
       14778.60       8096.672       11178.96       16796.98      -10534.05
      -37769.32      -16392.62       13330.25       13704.46      -14536.87
      -30399.95       11373.92       58212.26       29787.71      -42627.03
      -53138.36      -26567.49      -21117.20       44437.89       83689.52
      -10145.40      -38711.99       14928.28      -17109.82      -46617.66
      -2579.695       34152.91       31443.48      -5688.195      -32883.93
      -14379.85       3162.506      -3540.602       2184.523       12332.72
       2328.497      -2162.551       8741.137       12417.68       2132.777
      -17343.67      -19223.56       12165.22       15563.18      -16163.55
      -1176.070       23000.22      -8595.400      -16810.67       9521.871
       3820.811      -5574.137      -11356.82      -24906.66      -4798.766
       28404.75       28955.57       12006.54      -10844.48      -33820.89
      -18399.42       23269.88       24967.09      -3182.281      -14096.26
      -7012.104       9369.828      -5649.195      -32985.66       302.7109
       27838.78      -4614.539      -26123.29      -9634.504       11895.72
       9226.595      -5078.949       2638.355       10091.30       1852.957
       5925.781       7547.827      -953.9336      -9836.656      -27551.80
      -13461.80       19452.94       1879.270      -21409.79      -1965.336
       23422.80       26636.31      -2329.906      -33195.30      -20241.46
       2328.662       6079.238       15349.49       14514.97      -2671.154
      -6142.948      -5505.354      -2989.992       4630.715      -3794.569
      -9553.232       3281.246       7560.381      -3428.888      -5890.323
       1736.847      -822.6699      -6828.510       703.4941       6199.348
      -7128.938      -9550.449       13592.56       20091.59      -2216.324
      -14196.93      -5219.601       1008.482      -5871.148      -8446.684
       7852.508       14775.39       5391.485       4463.373      -3179.323
      -7664.969       7718.977       7700.386      -1422.854       2164.370
      -133.6016      -11259.40      -16685.82      -9179.439       3518.465
       11475.67       4996.598      -7262.994      -5325.161       811.3477
       4665.464       284.2754      -10912.79      -538.1934       10548.59
      -2290.322      -1756.611       7131.233      -2635.754       2342.262
       14222.32       2582.779      -2103.801       865.9375      -8164.383
      -5346.005       5627.101       122.1973      -9903.234      -3408.262
       5647.896      -4957.188      -13107.23      -1994.279       8202.067
       6056.062      -2495.984      -6770.828       5259.965       15961.28
       5488.604      -3022.636      -4296.350      -3458.766       8727.242
       13543.63      -1897.394      -5236.842       7574.701       3567.202
      -2739.933       4938.262      -218.6094      -18204.18      -12751.92
       8790.842       3477.129      -7220.838       7272.797       12499.46
       2121.875       2906.793       300.4619      -6504.578       6833.725
       12181.47      -5411.191      -8086.885      -2274.999      -5560.292
      -3802.957       887.2283       943.9658       2207.334       6650.271
       3939.438      -5453.486      -5476.493       240.9102       3024.169
       4762.220       1503.706      -593.4219       9688.670       13132.10
      -7166.400      -12550.83       5868.951       3012.295      -6160.731
       533.3213       1632.909       676.3838       4303.438       1399.554
      -2050.769       2969.467       6587.962       3447.739      -1255.182
      -5467.768      -2625.660       3670.146       1489.273      -3254.996
       914.6816       2702.694      -6082.953      -5351.116       2533.933
       3674.326       4652.550       2474.046       2266.891       7747.200
       3807.354       750.0371       4617.130       650.7495       565.9373
       2308.128      -3619.362      -2155.420      -635.4878      -3908.414
       5226.838       11584.24      -1664.941      -8618.781      -1418.530
       932.2295       1846.607       3085.271       658.0332      -1216.689
      -3283.064      -1836.244       2549.075       1893.067       1589.363
       4791.498       5252.039      -336.8828      -9405.578      -5320.471
       6665.404       4022.362      -858.6064      -1017.354      -2945.673
      -2311.605      -1563.775       4004.443       6190.223      -10023.16
      -10116.05       9260.301       6731.616      -2525.699      -3938.457
      -8820.172      -6246.354       380.1240       5742.632       1842.090
      -13670.75      -2489.418       17587.20       3250.549      -4309.031
       8793.510       5928.070       5212.011       6882.039      -10880.50
      -12530.10      -103.0835      -3216.068       1682.534       4914.975
      -8354.455       2636.062       15391.36      -7818.523      -16061.07
       1435.554       5430.389      -824.4189      -6578.412      -3185.674
       3892.943      -222.8208      -3122.939       1929.068       4462.541
       6706.270       4783.449      -6578.867      -16249.86      -14205.42
      -1000.146       6132.480       5059.639       6829.657       4025.918
      -3123.400      -5172.461      -3616.409       1574.602       8185.658
       9555.321       7331.453      -6025.645      -16316.71      -2026.266
       9007.467       4078.893       3255.943       215.7305      -12020.74
      -2276.107       13839.55      -5072.199      -13451.86       6352.748
       6623.395      -4499.846      -3703.761      -2744.837      -3563.511
      -1686.098       1145.005      -2731.133      -10887.93      -2274.826
       12481.56       6506.203      -6957.902      -6627.349      -3023.701
      -3371.575       311.0459      -1464.094      -9053.544      -2105.791
