     0.02500000      -93512.41       74762.50      -12345.00      -12345.00
      -30.00497       245.8200      -44.38000      -12345.00      -12345.00
       0.000000       33.29000      -12345.00      -12345.00      -12345.00
      -12345.00      -12345.00      -12345.00      -12345.00      -12345.00
      -12345.00      -12345.00      -12345.00      -12345.00      -12345.00
      -12345.00      -12345.00      -12345.00      -12345.00      -12345.00
      -12345.00      -31.51150      -68.98430       1231.000       0.000000
      -31.23600      -65.83800       0.000000       167100.0       0.000000
      -12345.00      -12345.00      -12345.00      -12345.00      -12345.00
      -12345.00      -12345.00      -12345.00      -12345.00      -12345.00
       300.8519       263.3591       84.98940       2.705033      -12345.00
      -12345.00     0.08043283       0.000000       0.000000      -12345.00
      -12345.00      -12345.00      -12345.00      -12345.00      -12345.00
      -12345.00      -12345.00      -12345.00      -12345.00      -12345.00
      2008       318        11        13        14
       780         6    -12345    -12345     11034
    -12345    -12345    -12345    -12345    -12345
         1         7        13    -12345    -12345
    -12345    -12345    -12345    -12345    -12345
    -12345    -12345    -12345    -12345    -12345
    -12345    -12345    -12345    -12345    -12345
         1         1         1         1         1
SASO    -12345          
        -12345  -12345  
-12345  -12345  -12345  
-12345  -12345  -12345  
-12345  -12345  -12345  
-12345  -12345  -12345  
-12345  -12345  BHZ     
ZL      -12345  -12345  
[...]
      -457.8735      -437.0999      -470.4368      -442.4232      -476.2590
      -412.1931      -356.6580      -444.2542      -461.9689      -386.0363
      -444.8087      -401.4169      -372.6486      -361.9822      -350.3271
      -365.8030      -398.3408      -357.4175      -319.1451      -252.9158
      -306.0814      -326.8618      -342.6398      -364.1969      -335.1659
      -260.9810      -287.3329      -302.4969      -315.0300      -267.4835
      -230.9325      -193.6246      -230.3207      -200.8824      -168.9397
      -171.2714      -176.6121      -125.8110      -130.3445      -101.5552
      -136.6341      -125.0682      -88.69305      -81.42169      -121.7400
      -89.93079      -77.82230      -26.76695       13.95966       63.26678
       100.3483       81.10181       40.75458       115.7332       126.5046
       166.3016       183.0377       218.8898       225.0557       208.3177
       188.8588       282.6362       378.8489       411.0341       330.5455
       356.0176       404.2993       422.6053       400.4503       437.3330
       491.2789       538.8455       533.6982       579.8027       545.6349
       549.6105       574.9788       641.8699       656.5811       662.3895
       639.6334       649.7537       663.6553       674.1736       638.5103
       701.6521       705.4956       726.9392       767.7209       815.5645
       789.4087       794.3523       798.2402       840.6021       824.5571
       832.1589       869.9778       915.4502       892.8232       936.4663
       957.3440       972.1055       951.1145       939.9526       932.0020
       928.0503       920.0928       965.0151       896.8667       922.5127
       976.9380       966.3779       971.5210       966.9758       955.9023
       1043.411       967.9114       902.2832       910.3682       941.8052
       969.1436       1042.257       963.1357       875.2314       913.2642
       990.3037       951.5806       901.9402       853.6855       911.5916
       931.2434       881.8108       824.3550       827.7847       821.4546
       863.0491       848.7107       823.6475       721.1920       654.7820
       712.1482       761.3691       716.6055       689.6921       575.5613
       573.5323       600.8765       556.2922       527.9088       533.4515
       481.1610       511.8553       471.5419       396.9539       401.3179
       434.7483       379.9773       344.6322       293.1700       275.6614
       279.8913       259.4321       205.8512       191.1179       119.7048
       161.2322       205.9108       132.0120      -2.394806      -22.56820
       30.29573       21.25119      -78.84778      -47.99371      -97.32040
      -162.3526      -110.0141      -100.7537      -157.8218      -169.2540
      -253.7245      -214.4355      -170.4814      -262.0274      -301.6056
      -227.4045      -258.6036      -314.4792      -389.8391      -392.5640
      -350.4370      -357.7479      -389.0917      -314.9224      -358.1477
      -470.2697      -495.4486      -437.3853      -463.6470      -466.7955
      -449.2145      -435.4261      -438.3140      -449.4963      -483.1080
      -454.0867      -466.2579      -477.3323      -471.8528      -423.2799
      -451.0872      -501.5341      -520.7225      -474.5312      -483.7079
      -487.8110      -515.5320      -509.7538      -444.1205      -401.8641
      -455.6176      -444.6240      -496.4211      -541.4489      -531.4323
      -499.7388      -504.4821      -504.7229      -513.7866      -504.4919
      -554.3381      -514.5048      -448.7772      -439.2693      -450.3845
      -465.3372      -516.8159      -488.4963      -547.3057      -635.6479
      -609.0559      -528.6873      -576.8938      -609.9856      -547.0754
      -496.6492      -570.4874      -613.1846      -558.6414      -461.3621
      -517.5154      -555.1995      -519.5364      -505.5845      -556.0345
      -609.0371      -591.4233      -488.3772      -550.9883      -634.0884
      -559.6782      -521.5076      -593.8140      -539.0817      -505.9778
      -515.0430      -519.8618      -576.8209      -600.5914      -537.8701
      -556.4116      -580.5917      -628.1819      -624.7012      -562.2407
      -569.3735      -610.9663      -603.1414      -632.0996      -578.4563
      -549.9429      -578.0571      -598.2849      -592.8458      -590.8810
      -588.7574      -629.5757      -596.3368      -598.2883      -590.6545
      -585.8779      -603.8884      -595.6902      -578.9922      -612.5142
      -535.2329      -500.9186      -541.3303      -541.0667      -507.0674
      -512.5359      -525.6832      -563.3251      -495.7018      -472.2809
      -466.1094      -456.4836      -500.6160      -543.2600      -497.5024
      -431.0601      -378.9211      -386.5903      -380.7361      -394.5288
      -411.5276      -445.3690      -411.0493      -376.1858      -351.3054
      -339.0055      -288.7889      -265.5199      -308.7620      -349.5012
      -272.7427      -236.9050      -204.9550      -174.1044      -182.7927
      -165.6014      -133.4574      -193.9093      -167.0439      -123.1490
      -110.8914      -94.35075      -66.50627      -40.84640      -13.81098
      -10.14014       33.85527       52.84499       30.44624       43.64136
       109.7861       86.77826       71.85168       138.5658       211.7823
       251.7603       228.7386       155.9011       201.9575       254.7580
       250.7460       293.1667       324.5708       267.4080       298.7742
       365.5007       350.9381       352.6158       394.8997       388.6455
       416.6204       421.4222       429.2161       425.7140       445.1267
       483.0281       494.2833       488.6416       506.0986       515.2314
       527.4222       517.0536       530.1746       495.7905       508.0334
       554.0693       569.8049       630.3274       664.0037       614.3912
       595.2874       554.4807       566.3992       615.7732       629.0109
       648.6141       662.7717       660.0798       674.8645       656.2241
       658.9199       665.4867       644.0851       669.9260       689.1730
       656.4810       695.8384       727.2307       726.8591       731.0981
       758.3779       784.6135       751.3779       710.7402       714.5364
       702.2865       682.3596       686.8740       721.1831       692.7173
       682.8069       743.9702       714.2366       659.2583       682.7631
       650.3035       632.7031       648.5193       649.6498       679.7158
       675.7781       638.7108       616.8192       610.6292       640.1482
       641.2642       622.6125       604.2844       567.2600       548.8787
       586.5830       631.9664       622.4744       611.0850       607.1316
       582.4601       608.3693       638.6354       607.2611       569.0457
       550.0952       548.8679       543.0691       539.1353       544.2035
       551.6270       557.1204       536.2201       524.3618       521.6239
       531.4004       556.7965       539.1056       502.2301       478.1907
       417.6420       420.3297       475.6672       471.4097       424.2665
       407.4216       395.8206       398.0787       426.2085       387.6528
       317.9927       295.1511       279.8016       287.0844       281.0046
       235.5132       171.6573       159.7188       200.4180       201.8851
       214.8559       211.0754       141.9073       123.9119       135.1841
       83.40064       28.68344       28.85240       11.13395      -26.49291
      -16.70306      -16.31387      -47.05600      -71.98953      -82.36554
      -60.05951      -53.15617      -43.10254      -38.53168      -80.92255
      -101.6525      -127.3268      -171.3487      -179.5242      -198.9736
      -224.6865      -229.6738      -252.0344      -285.5660      -301.1987
      -310.9205      -307.5697      -310.4858      -340.6941      -351.5273
      -355.1790      -402.4048      -427.7698      -430.2972      -445.5186
      -445.9885      -465.7531      -489.4464      -509.1985      -504.9248
      -479.0115      -485.6536      -506.1505      -531.0406      -548.2878
      -542.6323      -572.9905      -606.3918      -614.7897      -605.8801
      -626.8481      -685.1177      -726.9045      -696.6732      -650.0676
      -614.2006      -602.6215      -632.8179      -670.9406      -671.8483
      -662.6929      -634.2075      -635.6145      -647.2495      -682.2622
      -726.7974      -731.0396      -683.7467      -666.1542      -684.2056
      -680.9648      -655.4973      -664.4619      -694.8477      -723.7964
      -725.9451      -737.0808      -706.2106      -664.8274      -653.4521
      -653.4729      -672.2036      -693.9832      -688.0155      -655.5598
      -629.5344      -660.7505      -690.4741      -675.4038      -640.8184
      -637.9805      -627.9690      -626.1069      -632.5991      -642.6106
      -641.2024      -596.5928      -564.3411      -600.4790      -594.6403
      -544.7058      -540.1499      -567.3907      -543.9390      -537.5836
      -533.5911      -504.3881      -479.5636      -482.2439      -483.0283
      -521.7863      -524.0797      -519.6858      -501.1019      -460.8955
      -418.6532      -408.3636      -403.5240      -427.4935      -390.9515
      -342.3348      -356.9255      -374.4696      -338.0056      -344.5409
      -366.4895      -354.1005      -345.0710      -375.1619      -342.8392
      -289.5126      -250.4903      -275.9431      -281.8735      -267.8490
      -269.7371      -265.6627      -261.9437      -273.5218      -229.5259
      -225.5112      -245.0581      -246.7868      -253.7334      -277.0782
      -248.0544      -214.9169      -235.0295      -261.9453      -229.0110
      -225.6554      -224.7065      -237.3964      -246.8853      -252.3939
      -255.2439      -248.5123      -208.1022      -219.6445      -200.9728
      -200.0334      -208.7393      -181.4435      -124.7380      -110.1834
      -122.7501      -145.1555      -156.3442      -166.9136      -130.5347
      -120.4634      -95.90802      -89.19473      -71.97447      -53.57188
      -37.60706      -45.11789      -41.37669      -43.65651       13.65735
       17.04017       5.193970       13.79098       10.13719       9.640411
       56.43756       91.94586       154.8862       188.0963       224.2415
       211.6845       195.7112       204.0677       227.7215       216.6682
       249.4575       290.4351       303.8757       248.8378       254.3842
       321.6262       379.0197       403.2900       431.0966       410.1707
       410.1865       405.5908       446.8766       465.9666       495.5521
       534.7834       523.8838       505.4017       556.8806       576.4272
       580.3608       591.0439       649.2603       646.0854       654.9932
       665.5848       663.5420       675.1184       713.6460       736.5986
       746.2488       677.8451       656.6624       679.0737       721.2852
       746.4744       776.1511       781.9534       775.9353       756.0981
       813.0093       827.9963       816.4375       831.4382       812.0415
       769.2400       810.4822       809.4961       849.1448       855.5364
       840.4456       872.4138       879.3210       823.6650       849.3274
       814.7002       786.1084       817.2356       849.9800       832.8806
       847.3018       794.7207       743.6777       761.7119       802.1785
       770.8000       778.3435       764.0686       811.6401       850.5754
       817.7253       805.5549       849.5217       817.6196       801.2075
       768.0972       749.8545       749.5564       752.3320       737.3757
       768.2620       754.0020       731.3726       692.3062       704.4395
       695.2830       699.3660       676.3054       621.9590       582.9260
       614.2495       618.5278       651.6233       616.0217       580.8149
       540.8112       525.5841       536.2632       556.1934       553.7006
       555.7156       489.6334       477.0780       433.4363       373.8196
       348.0173       365.0881       356.2727       361.5647       305.8768
       279.9270       259.9830       247.1711       193.1233       220.2886
       224.8164       210.9591       172.1888       119.9557       82.41618
       94.28665       65.01144       101.1644       67.25754      -23.28622
      -95.63132      -78.98865      -112.1408      -153.3902      -182.4274
      -158.6815      -172.2941      -184.3736      -213.3383      -211.5410
      -260.9495      -258.3076      -306.1263      -356.6267      -421.6499
      -455.1389      -478.0354      -496.5610      -557.3745      -531.8713
      -545.4670      -584.7838      -632.6823      -634.2434      -666.4807
      -666.8010      -792.8872      -796.4385      -725.3979      -829.3745
      -955.6609      -270.4727       3040.453       16510.17       47992.86
       74762.50       41536.08      -45950.53      -93512.41      -54807.65
       1600.254       13695.50       24701.62       43135.05       12837.75
      -41214.64      -66777.93      -42652.09       19960.72       56582.09
       4004.148      -58371.53      -17562.87       23274.53       10943.62
       31487.97       7353.922      -61119.56      -31404.60       26044.18
       16935.40       4882.488       14306.64       5784.109      -16839.49
      -14292.47       5113.730       5516.107      -2814.903       897.3721
       4796.943       2405.446      -4447.594      -5796.219      -9225.336
      -24197.28      -13678.78       21080.86       30280.40       1449.297
      -46550.46      -51021.38       19332.17       49214.72       12457.31
      -8990.441      -25161.79      -5745.562       52430.48       49305.00
      -19001.75      -45195.69      -15760.29      -15579.47      -32072.24
       959.6016       43580.62       36194.26      -7950.820      -38700.45
      -20251.02       14511.53       25627.03       7557.844      -14909.26
      -4981.590       9704.990       3047.887       5382.374       4717.984
      -6200.761      -1805.594      -2560.235      -6756.002       3524.961
       1039.949      -4395.918       472.7656      -5638.684      -7481.387
      -7144.900      -8635.225       6034.111       5568.194      -7905.870
       3456.774       6159.354      -5042.072       907.5146      -374.3633
      -11265.89      -920.4609       11162.26       8540.295       2955.977
      -6952.619      -6829.968       914.4512      -1696.573      -1111.180
       10495.53       14862.40      -608.9414      -10436.66       2320.440
       3265.969      -11024.67      -11837.32       2009.164       20339.35
       18808.23       898.2373      -3574.417      -1228.549      -1947.653
       1205.097       1612.945      -5509.361      -4759.617       2618.602
      -4700.621      -10017.06       2071.348       3620.498       2597.363
       10468.06       2709.553      -2644.838       3555.137      -3886.606
      -6433.277       12489.59       19473.04       2941.432      -7640.807
      -6131.648      -5557.570      -243.4648       11153.22       9704.409
      -4847.040      -6496.353      -258.1445      -6754.238      -6187.668
       15802.44       24497.20       12149.39       2085.082      -11680.80
      -19848.82      -4815.031       5655.117       4022.068       4774.088
      -5199.859      -15240.77      -7319.367       8633.430       14181.88
       2292.745      -6661.305      -1753.726       1085.178       6799.984
       14917.05       7311.667      -4239.860      -5095.887       5159.484
       12747.50       1986.041      -12101.86      -8487.291      -149.7441
       396.0488       5323.111       10731.54       5763.031       1463.986
      -2849.233      -6502.620       2312.177       5703.102      -3898.892
      -5598.389       1000.472      -1885.547      -7775.234       4561.430
       13727.51       1043.784       972.3340       11334.46      -1450.381
      -8989.233       979.1758      -6394.293      -13817.80      -2298.134
       4847.553       3925.950       2893.910       1211.102      -753.7344
       7091.697       15148.81       1140.740      -11685.93      -2932.422
       5378.965       3332.343       1858.870       2972.681       1801.000
       683.7192      -301.7051      -4086.989      -2301.566       2996.200
       3321.819       275.6973      -3446.127       443.4326       5006.580
      -1531.307      -8463.536      -4267.935      -925.4990      -4529.080
      -298.7090       4123.236       1846.531       6224.548       8936.338
      -2186.674      -9389.010      -3607.807      -1656.241      -2064.882
       1590.962      -1882.469      -3305.101       2981.389       662.7031
      -4737.406      -6427.844      -5125.315       1786.341       4700.405
       4241.645       5902.456       1412.363      -878.6631       3335.346
      -1578.201      -6737.396      -1664.237       2944.664       2751.722
      -870.4922      -5567.529      -5037.444       1517.957       3504.648
      -2885.317      -5865.959       1502.192       6006.142       1141.326
       3337.301       4751.094      -8827.523      -10963.17       1227.995
       4380.951       4922.648       4641.625      -4470.137      -16265.92
      -14537.77       1705.805       8088.328       4438.377       5689.384
       4176.920      -5598.701      -7498.025       880.2949       5787.228
       2344.592      -9905.930      -13986.65      -14242.85      -13896.96
       7207.473       18039.52       2274.616       710.8154       6110.812
      -4875.814      -7704.604      -1259.747       18.72656       327.4492
      -6723.351      -6953.943       8661.148       5590.507      -6503.414
       1447.746       1269.139      -10525.33       952.5645       12291.84
      -5744.977      -15904.97      -2601.134       2731.451      -776.8555
       12067.11       20011.72      -372.0781      -12985.23      -12939.00
      -14993.53      -1322.242       17260.22       12903.27      -3750.572
      -9463.840      -8697.401      -6951.688       3959.992       14020.87
      -1596.680      -13510.96       3245.053       11198.97       2947.638
       3836.915       3880.692      -1813.279      -2529.971      -4921.650
      -3796.475       3985.861       9630.475       2579.658      -8022.270
      -10608.06      -8302.514       6321.746       13800.74      -6126.699
      -17043.01      -1666.697       12460.79       7895.127      -7473.629
