     0.02500000      -71826.08       80046.30      -12345.00      -12345.00
      -30.00497       245.8200      -44.38000      -12345.00      -12345.00
       0.000000       33.29000      -12345.00      -12345.00      -12345.00
      -12345.00      -12345.00      -12345.00      -12345.00      -12345.00
      -12345.00      -12345.00      -12345.00      -12345.00      -12345.00
      -12345.00      -12345.00      -12345.00      -12345.00      -12345.00
      -12345.00      -31.51150      -68.98430       1231.000       0.000000
      -31.23600      -65.83800       0.000000       167100.0       0.000000
      -12345.00      -12345.00      -12345.00      -12345.00      -12345.00
      -12345.00      -12345.00      -12345.00      -12345.00      -12345.00
       300.8519       263.3591       84.98940       2.705033      -12345.00
      -12345.00     0.02359771       90.00000       90.00000      -12345.00
      -12345.00      -12345.00      -12345.00      -12345.00      -12345.00
      -12345.00      -12345.00      -12345.00      -12345.00      -12345.00
      2008       318        11        13        14
       780         6    -12345    -12345     11034
    -12345    -12345    -12345    -12345    -12345
         1         7        13    -12345    -12345
    -12345    -12345    -12345    -12345    -12345
    -12345    -12345    -12345    -12345    -12345
    -12345    -12345    -12345    -12345    -12345
         1         1         1         1         1
SASO    -12345          
        -12345  -12345  
-12345  -12345  -12345  
-12345  -12345  -12345  
-12345  -12345  -12345  
-12345  -12345  -12345  
-12345  -12345  BHE     
ZL      -12345  -12345  
[...]
      -10.81178      -80.99639      -8.077789      -78.05566      -161.6052
       13.10095      -3.480896      -46.93762      -96.09558      -68.21872
      -65.06824      -44.60340       47.84683     0.07998657      -97.38253
      -18.84925      -50.30692     -0.1343689      -22.79352      -41.94673
      -17.91824      -61.24506      -62.37777       19.47573       4.082520
      -15.73703      -114.9031      -73.55204      -1.967725       8.949123
      -14.67365      -7.472672      -47.18591       12.69559      -60.88199
      -131.8575      -47.19762      -16.75302      -124.2793      -22.05024
       44.20761      -113.5091      -167.0007       39.51169      -26.58276
      -131.8346      -6.224579       27.38022      -73.77571       1.759209
      -5.605412       36.79785      -40.22866      -32.68082       70.62791
       12.34529      -5.123718      -15.70902      -59.59839       130.6408
       58.06507      -65.01166       69.01657       166.7106       21.24004
       10.66351       101.0222       115.3901       28.79346       83.16980
       112.1872       114.0472       132.1351       200.1203       126.4853
       123.9692       231.0997       233.0226       97.25604       213.0640
       217.9984       154.0207       204.7326       160.1687       137.3541
       227.7508       141.9780       253.5980       346.5070       186.8701
       149.4261       316.3367       294.5259       254.5501       216.8754
       344.4189       323.9662       269.6201       349.3487       359.7352
       297.1850       295.2676       308.0909       403.8130       360.5489
       337.2257       327.5559       311.8962       248.6281       368.6815
       399.8971       345.8463       337.0488       425.6135       405.1411
       376.9388       346.1562       372.4457       371.4802       385.1889
       318.6117       343.6243       359.6161       341.9872       332.0835
       388.0977       318.7314       265.0842       290.0140       445.3818
       307.6331       269.5771       348.1116       330.9711       316.4501
       326.8571       336.2798       326.1484       228.8430       279.8944
       323.5532       329.3864       184.9427       267.1383       337.1575
       270.3766       241.8439       289.6013       227.7190       218.6180
       261.5464       279.6571       201.7598       255.4594       249.5630
       241.5043       315.9311       292.8301       161.9677       286.1254
       290.2828       240.4649       235.1643       242.5230       173.1276
       198.5768       196.6185       264.6130       260.4354       217.5582
       190.1810       244.8408       192.0837       150.0109       207.4621
       255.4303       149.7231       237.9778       258.1933       200.4380
       170.7569       201.6004       171.1465       156.7840       77.44916
       107.3260       93.15973       111.6553       40.94087       32.28070
       43.18134       58.74586       27.96508       39.40208       27.09152
       57.63313       20.91687      -18.06793      -74.26347      -3.967972
      -4.669380       27.84654      -33.08569      -83.98325      -120.2234
      -177.8011      -187.7458      -103.5949      -149.1878      -134.8138
      -203.7754      -175.1440      -159.6807      -227.6644      -293.3682
      -228.1935      -234.5238      -272.8118      -312.6907      -268.9424
      -345.6750      -394.4626      -413.7389      -347.9358      -344.4868
      -355.3030      -441.8314      -408.1038      -431.6279      -471.7869
      -503.6222      -458.6903      -496.2305      -508.1943      -477.4709
      -526.2836      -700.9434      -583.1189      -530.6572      -637.9270
      -655.2124      -504.7056      -578.8184      -618.5343      -618.3435
      -613.0607      -645.7373      -571.6476      -547.9052      -645.0352
      -708.4846      -541.5095      -615.0916      -697.8469      -637.4969
      -621.0942      -654.0178      -584.1989      -668.0928      -602.9077
      -592.7942      -679.5304      -677.8992      -561.4657      -528.6678
      -555.6038      -677.8440      -601.9733      -571.8970      -605.3165
      -597.5413      -542.1375      -574.3406      -526.0984      -554.1451
      -520.0420      -517.9598      -491.5432      -479.3937      -445.0802
      -456.9517      -430.2468      -507.4410      -456.3196      -395.2500
      -369.8967      -377.0948      -370.0797      -410.7751      -380.9309
      -431.7504      -351.7657      -351.4287      -370.5873      -354.0484
      -191.6521      -241.6261      -349.5712      -296.8673      -169.0881
      -278.4725      -337.8198      -234.4415      -146.7578      -255.9720
      -211.3757      -229.8212      -202.9201      -142.2887      -137.8146
      -210.9487      -114.0742      -115.9291      -76.88055      -60.63428
      -90.69583      -80.88557       20.92191      -56.22064      -73.31709
      -61.41079       17.60532       23.31094       73.54572       72.45058
       72.94339       63.05695       92.65976       42.73096       109.5698
       113.8906       121.8912       138.8524       221.5502       189.8022
       179.6625       211.4597       305.9532       276.2476       311.9796
       279.9351       298.6401       317.4968       365.6357       388.0847
       438.8422       410.0945       458.6123       423.1357       429.3024
       430.8430       462.1160       486.9303       526.3359       442.6290
       471.2998       458.3121       455.3967       443.1400       507.5265
       516.0792       544.4130       540.9015       564.0715       520.2299
       604.9104       596.8867       551.9026       560.8113       590.7979
       540.5173       552.4631       501.1599       566.9866       590.8369
       561.9993       556.1710       634.9232       555.5214       522.2118
       536.0553       593.1035       550.6846       569.7405       576.2705
       547.8892       487.1252       551.6582       535.0256       504.3269
       497.0084       598.4785       508.5571       497.1079       547.0839
       515.0391       489.6423       553.2614       479.8125       507.2937
       473.9655       477.3635       456.1555       449.5391       439.3865
       472.8364       415.3361       445.2207       420.8389       413.4265
       383.0959       384.2039       352.7010       385.7889       403.0491
       417.1235       373.3257       405.0343       338.7386       329.4706
       304.7977       310.9652       306.8579       308.2664       272.5198
       296.4725       229.6699       228.0693       228.2017       258.8181
       200.6310       183.0088       133.0608       113.6983       79.83813
       41.29700       29.68774       84.17709       8.974304       46.82117
       5.680145      -92.08026      -44.80715      -3.081039      -65.93390
      -4.242981      -59.88708      -137.0615      -166.9807      -73.25189
      -136.2126      -233.4766      -176.2957      -123.8531      -245.5494
      -231.9990      -248.3608      -270.9842      -218.1240      -213.9070
      -307.4523      -232.3824      -211.9949      -289.1802      -373.8246
      -244.1029      -223.5853      -346.1281      -313.5908      -209.5547
      -324.4415      -326.4180      -263.6482      -216.6547      -299.4115
      -322.7870      -282.0081      -290.0585      -373.6251      -352.0118
      -322.8136      -220.0737      -273.7616      -351.2618      -329.6008
      -330.0073      -413.9142      -346.4606      -292.5740      -253.9574
      -337.7931      -336.7460      -243.2971      -270.4519      -400.7321
      -333.5087      -326.0857      -367.7954      -361.7872      -357.0011
      -395.3566      -327.7112      -383.5076      -385.4229      -406.1407
      -403.9485      -365.8243      -347.6429      -363.2008      -385.7412
      -431.2600      -405.1710      -439.2413      -400.7286      -372.3336
      -314.8514      -314.1440      -349.3179      -382.4260      -342.9701
      -351.2975      -334.2020      -372.0040      -345.9069      -332.0339
      -419.2898      -469.7842      -365.4796      -352.0643      -339.9830
      -308.5432      -351.8000      -448.4207      -381.4668      -384.1663
      -417.8196      -382.6276      -293.6986      -247.2760      -304.7540
      -365.9984      -285.2623      -323.7131      -326.6365      -311.3539
      -299.3971      -325.8384      -327.0827      -292.6093      -303.2662
      -314.8594      -256.6956      -273.1311      -228.2458      -255.5964
      -256.5737      -233.4700      -223.7005      -218.7614      -200.6900
      -182.4067      -149.5939      -215.2072      -192.5137      -155.6302
      -111.3868      -110.6345      -89.11484      -63.57074      -113.0056
      -133.8957      -68.76730      -95.92607      -56.46693      -19.07005
      -22.90920      -8.291862       49.45595       28.66507       17.59021
       67.46353       113.1704       72.09610       116.0343       128.9635
       147.1282       142.1853       129.8876       95.76199       102.6460
       149.6403       163.2540       143.3108       232.8692       270.5920
       245.7308       215.1027       222.5846       213.6725       268.6208
       306.1133       344.6407       318.4397       297.5078       315.0764
       362.6086       363.4283       383.9768       377.2018       422.2831
       389.2274       351.5151       411.0253       460.0984       418.8262
       420.2894       452.3906       510.5569       436.6548       417.1263
       484.4690       502.3356       491.6851       539.6240       539.2117
       532.5482       521.9232       564.2518       565.1765       570.6423
       568.1543       583.0920       563.5337       534.1587       540.3385
       555.4686       553.8804       578.7441       568.9058       586.9290
       532.3396       542.7538       620.7056       600.5917       525.7682
       576.6353       601.9446       571.1824       543.0813       565.7838
       562.4167       575.2748       574.0278       534.3752       543.4951
       554.8657       467.9144       439.5594       481.0497       472.9272
       422.9117       486.7791       508.0785       482.6844       429.6116
       433.2502       433.5571       374.5839       385.3611       412.4993
       406.8988       406.1110       340.0778       312.6689       261.2835
       280.9180       336.3184       305.2194       278.7994       269.7527
       273.1520       286.5111       244.1102       216.2790       244.6838
       254.4176       169.3621       125.1458       165.0392       147.7491
       85.15359       121.3980       133.2848       105.7136       55.97171
       73.76991       87.58905       56.11710       92.02025       109.7124
       20.07198      -1.881699      -7.633030      -23.17983      -8.235119
       21.83007       7.828949      -53.77344      -77.25958      -44.85443
      -113.7295      -145.2028      -84.80133      -94.53085      -96.44061
      -96.01306      -162.4152      -152.6794      -140.8544      -115.7856
      -145.2686      -217.5179      -203.2084      -217.6252      -258.4917
      -209.8273      -186.6164      -244.9528      -303.0590      -252.0348
      -261.6459      -394.3916      -409.8008      -346.0929      -385.6935
      -444.2856      -479.6521      -480.4514      -425.0822      -490.4016
      -575.7092      -563.4004      -520.4878      -525.6570      -620.1410
      -590.3125      -563.0544      -679.8518      -716.9163      -679.4342
      -664.4336      -720.3069      -725.9658      -711.5266      -744.7046
      -722.3918      -727.9519      -825.2012      -885.5771      -839.4336
      -772.2056      -849.9678      -901.1902      -773.8870      -759.8552
      -886.2744      -850.6243      -793.1086      -822.4812      -853.8052
      -787.1807      -735.6597      -841.6343      -829.7378      -669.6816
      -687.8462      -727.5547      -656.0969      -671.3440      -739.3340
      -747.7014      -754.1328      -717.7847      -665.4076      -661.8281
      -656.6963      -660.8176      -680.2458      -654.0630      -686.5479
      -688.4211      -553.5977      -509.0854      -606.2069      -602.8574
      -567.6946      -557.0688      -560.9912      -593.2129      -555.8872
      -513.8876      -525.6875      -476.2869      -453.2853      -432.5466
      -432.7903      -476.3992      -462.4104      -369.2029      -379.6870
      -456.7151      -403.0747      -309.7373      -357.2868      -348.0739
      -251.0291      -365.4912      -1453.828      -5967.945      -18240.89
      -33219.52      -26476.07       12878.83       46152.89       30500.27
      -16614.20      -39119.67      -27350.66      -11351.10      -3360.727
       12710.67       37039.93       30019.45       10995.76       16515.99
       26346.90      -5049.062      -71826.08      -60215.41       18641.67
       68080.69       80046.30       17794.16      -49859.61      -42922.11
      -40205.34      -28508.65       20073.20       54174.37       36893.85
      -29010.68      -45034.00       2690.641       35539.35       33232.45
      -6252.445      -21902.16       1014.496      -3358.322      -9932.648
       8109.957       17027.86      -6079.422      -31827.20      -8069.234
       31228.12       13247.82      -26384.30      -4961.305       30455.34
       16613.93      -21444.09      -34291.19       4887.922       22898.25
       8179.234       16446.24       9327.055      -16119.55      -20857.04
      -19025.93       789.1953       32645.11       29367.62       5957.852
      -7251.631      -3831.816      -8086.383      -12725.29       5922.868
      -2604.121      -16553.12       14610.38       32921.93       2396.680
      -36306.88      -17970.65       23987.25       3480.035      -22695.00
       3883.836       22323.60       10552.01      -4028.686      -5613.520
       7532.332       2268.802      -7682.830       9350.953       10103.26
      -1778.719      -6176.051      -18451.96      -639.9023       24494.00
       13126.12      -2072.596      -9380.065      -7856.547       2334.422
       8917.562       15510.07       12896.83      -9344.604      -13337.55
       3131.894       5450.450      -1817.902      -7043.149      -1645.512
       5485.397      -2699.588      -7199.653       2532.292       3510.865
      -1234.279      -3948.398      -6291.729       2779.457       8300.803
       10051.37       10894.88      -6925.969      -15437.20       4437.037
       12991.13      -3321.611      -5726.379       10178.73       2429.598
      -9706.112      -635.7241      -1791.451      -3945.801       5212.887
       7698.620      -2388.084      -1824.172       13582.69       4413.219
      -13982.79      -12857.29      -3545.459       753.1562      -3719.063
      -3888.977      -1600.451      -7018.398      -8336.344       2516.117
       13623.57       9013.049      -7916.843      -8976.354       4857.055
       13745.30       18097.99       10638.94      -3708.172      -14164.37
      -15245.21       1479.539       14971.81       9194.414       2952.315
       2169.877       649.2461      -3965.031      -7495.945      -5631.006
       2234.930      -369.7715      -12804.38      -5438.930       2523.033
      -4728.564      -7644.561      -3743.607       516.6387       3634.121
       6576.445       6916.148       4097.457      -3710.023      -9156.895
      -818.3828       11647.90       9621.224      -1561.844      -8454.881
      -6765.049       2728.742       9244.444       5690.672      -5546.795
      -11249.25      -7447.854      -3332.160      -4841.531      -10547.75
      -5582.936       11397.01       15088.33       1824.525      -4074.973
      -10624.43      -15764.17      -2968.610       3245.944      -939.0654
      -4904.047       1162.480       10037.19      -7873.564      -13791.94
       2837.853       2664.189       631.1255       3042.551      -2013.180
      -4297.076       2451.859       7812.078       1388.544      -5055.140
       1085.667       1038.094      -9396.564      -5752.070       5130.795
       7308.863       7752.675       487.5059      -10937.05      -7424.776
       3347.868       1735.240      -8758.740      -6000.166       3670.251
       4777.156       115.2432      -4265.156      -4328.732      -3675.241
       1880.398       5986.242       714.8564       1999.531       1395.759
      -6658.809      -527.9375       8610.598       7430.583      -1005.816
      -9163.516      -5266.604      -1980.857      -3255.277      -1146.300
       832.6771       807.1924      -305.9980      -6725.621      -12940.65
      -6639.602       2192.639       5064.979       2214.402      -5227.063
      -2057.219       7743.552       6871.581       178.4912      -2221.727
       518.4033       2482.469      -4.012695       1073.413       1584.125
      -8004.656      -10001.65       4057.379       11752.68       2573.275
      -6827.432      -1301.016       5919.539      -4825.949      -11951.14
       1249.215       4665.320      -3202.691       2659.441       11581.44
       8634.815      -978.6245      -2503.629       4723.137      -3452.090
      -9558.959       4100.283       8920.275       7653.466       8173.929
      -1557.312      -6490.234       5134.136       7268.939      -7517.367
      -12761.62      -4462.547       1446.906      -2343.140      -927.2578
       13340.40       17446.65       2240.320      -11902.91      -9218.756
      -2719.631      -4051.819      -771.8555       10047.21       10387.75
       904.7100       1582.963       2244.643      -7609.950      -2726.438
       6574.918       8603.879       7549.900      -5680.540      -1797.604
       7292.393      -2576.383       1257.824       15246.64       11268.04
      -9339.520      -25045.73      -11615.67       4970.950      -852.3232
       3065.988       6408.803      -6790.418      -2647.496       3234.938
      -7677.586      -8262.965       5859.008       14364.41       7514.286
       1596.642       3425.355      -3389.102      -3194.986       11070.20
       4605.479      -5637.188      -864.7715       4964.737       5399.303
       2223.059       10491.75       5654.389      -11030.75      -8028.950
       439.4197       373.4165      -2019.659       3701.752       7639.898
      -2356.121      -3782.333       927.3018      -6328.796      -1202.828
       9950.848       5540.951       845.6270      -963.4814      -2177.628
