     0.02500000      -79841.47       66069.37      -12345.00      -12345.00
      -29.99000       243.6600      -42.74000      -12345.00      -12345.00
       0.000000       32.02999      -12345.00      -12345.00      -12345.00
      -12345.00      -12345.00      -12345.00      -12345.00      -12345.00
      -12345.00      -12345.00      -12345.00      -12345.00      -12345.00
      -12345.00      -12345.00      -12345.00      -12345.00      -12345.00
      -12345.00      -31.27110      -68.79910       1530.000       0.000000
      -31.23600      -65.83800       0.000000       167100.0       0.000000
      -12345.00      -12345.00      -12345.00      -12345.00      -12345.00
      -12345.00      -12345.00      -12345.00      -12345.00      -12345.00
       282.0666       268.4452       89.97419       2.536114      -12345.00
      -12345.00      0.1675794       0.000000       90.00000      -12345.00
      -12345.00      -12345.00      -12345.00      -12345.00      -12345.00
      -12345.00      -12345.00      -12345.00      -12345.00      -12345.00
      2008       318        11        13        13
       140         6    -12345    -12345     10947
    -12345    -12345    -12345    -12345    -12345
         1         7        13    -12345    -12345
    -12345    -12345    -12345    -12345    -12345
    -12345    -12345    -12345    -12345    -12345
    -12345    -12345    -12345    -12345    -12345
         1         1         1         1         1
SECA    -12345          
        -12345  -12345  
-12345  -12345  -12345  
-12345  -12345  -12345  
-12345  -12345  -12345  
-12345  -12345  -12345  
-12345  -12345  BHN     
ZL      -12345  -12345  
[...]
       6293.544       3739.910      -8724.449      -16567.62      -13852.33
      -5526.516       3782.746       10385.43       12708.03       8075.328
      -3398.410      -13749.54      -12401.50      -406.2617       8591.727
       3955.699      -4743.265      -1547.176       6990.426       6705.155
      -2586.527      -10526.90      -8160.169       441.9355       6098.714
       2205.732      -5996.793      -5072.183       2920.316       5092.395
       3180.718       3782.011       3819.900      -752.6797      -6946.895
      -8140.372      -1961.397       3242.704       984.8896      -3709.399
      -2377.670       3275.507       2792.074      -4757.877      -8551.949
      -3274.127       2774.130       1579.131       493.6191       3383.446
       2054.765      -3642.932      -4128.533       3363.709       7445.330
      -1819.148      -10570.54      -4643.385       5467.879       6955.885
       3809.269       634.0566      -4144.421      -5752.601       554.1602
       7557.672       6054.478      -2767.101      -4203.984       5577.500
       11139.90       5517.463      -3525.488      -7060.806      -2763.338
       1218.225      -1912.166      -7827.355      -7762.038      -2100.072
       2365.431       4248.125       4605.714       2982.503      -818.4258
      -4344.028      -1701.854       4073.722       5472.209       3130.593
       2398.002       1429.940       545.2598       5066.664       7861.029
       3673.011       593.8816       37.95312      -2176.955      -5511.348
      -5293.397       1482.665       6753.250       392.6641      -6737.903
      -4196.127      -1238.649      -2071.961       876.5078       10699.19
       17147.60       9668.353      -1195.749      -4375.670      -2376.808
       1688.516       5895.879       7925.087       6207.042       1761.908
      -852.5000      -2539.567      -4828.978      -2522.472       4237.847
       6062.362      -470.7168      -7285.743      -6442.457       968.1504
       7756.025       4702.093      -3259.498      -1142.670       7674.828
       9741.594       5633.694      -237.6836      -4061.959      -1896.276
       1867.905       2521.644       2345.766       910.0938      -1823.430
      -3324.524      -2787.820      -73.27734       5041.770       9527.707
       10531.24       7037.930       807.6660      -4245.746      -7599.816
      -7861.170      -2017.616       3392.174       4486.852       5432.813
       2513.531      -5755.146      -6257.533       2755.541       8625.345
       6986.636       695.2949      -2215.716       2140.985       1738.846
      -4925.164      -6795.057      -3484.253      -530.8701       1548.723
       4880.623       5587.465      -1634.230      -6619.779       224.2383
       10114.32       9423.213      -3480.900      -12776.03      -5340.020
       4964.657       3697.577      -1579.156      -3026.249      -2139.293
      -195.6953      -2738.500      -9919.416      -7301.430       7544.234
       16281.18       9178.605      -6255.574      -16610.96      -13924.01
      -775.1445       11353.95       11878.12       2771.693      -3963.950
      -3512.148      -918.1875       116.4314      -351.9121      -1124.927
      -1430.455      -2750.455      -3041.353      -1389.042      -2596.088
      -5235.551      -1264.084       5908.010       7671.255       3111.994
      -3430.377      -5230.312      -1839.072       2321.166       4243.161
      -1931.748      -10856.52      -10627.84      -2418.883       5514.572
       8061.996       5340.540       619.8682      -3190.129      -3222.561
      -2781.985      -5048.995      -2848.210       5247.550       7078.990
      -645.3770      -8221.355      -5334.879       3042.911       4071.117
       528.1111      -884.1709      -1897.810      -2605.062      -1464.014
       2293.859       5174.460       3000.317      -1832.447      -5370.700
      -6190.386      -3972.347      -894.3257       56.31006      -2061.776
      -1635.896       1454.666      -2878.320      -10220.21      -6922.318
       1655.605       4474.164       3055.789       2914.512       2864.552
       1547.451       868.4382       309.4065      -49.95947       911.1780
       634.5195       768.2568       2921.516       3321.257       1408.723
      -2294.828      -8438.475      -9164.990      -1035.934       6496.822
       7453.463       5298.899       4167.365       3839.802       2227.449
      -1586.777      -6340.332      -5834.959       1142.213       5075.143
       502.9062      -7700.090      -11232.94      -4048.045       5354.385
       4084.726      -3293.596      -3702.476       1329.607       3139.052
       2654.015       1563.771      -2772.136      -4616.191       1029.198
       5308.627      -515.2734      -8831.197      -9084.014      -2195.012
       5668.309       8240.676       3740.745      -1551.568      -2540.018
      -182.5435       1372.103       1929.078       5401.965       9090.080
       4137.111      -6110.670      -8021.771      -1048.557       3027.215
       1464.294      -1056.875       260.7090       4934.361       8197.314
       6759.281       1190.039      -2515.539      -2167.409      -1539.384
      -799.4961      -778.0391      -2848.141      -2630.244       1191.855
      -112.0547      -8169.541      -10003.14       575.3496       9752.975
       7232.491       649.6597      -1972.752      -1509.379      -523.7793
      -1696.036      -2296.574       2112.357       5703.262       1868.172
      -1884.104       1317.204       3724.667       66.99316      -4780.664
      -6317.529      -4181.492      -2555.237      -1654.506      -610.7825
      -1299.997      -1275.500       1477.325       2401.888       1782.414
       5096.232       9850.148       5996.423      -4968.131      -10717.82
      -4274.256       9936.383       15566.14       5513.477      -4110.401
      -4114.050      -518.0896       1245.149      -545.8330      -3181.205
      -5417.074      -7435.221      -5316.080      -1028.749      -1894.928
      -6804.229      -5771.236       1693.429       4915.872       2286.869
       1557.833       2439.320       270.6104      -2156.405       961.5977
       8430.832       10497.76       1152.604      -10101.61      -11993.21
      -5434.639       2595.723       7367.786       3894.918      -2794.456
      -1047.363       3173.528       779.1416      -3784.871      -7263.552
      -6866.289      -2329.033      -304.0469      -2865.603      -3463.723
       1560.924       7068.237       6227.578      -1098.479      -6386.857
      -3315.024       1644.458       2940.344       4040.615       6423.479
       4496.028      -3606.160      -8895.393      -4315.354       4430.596
       8323.865       4632.007      -1326.856      -4796.793      -5337.542
      -1197.451       5115.087       4894.739      -924.1562      -3737.698
      -3982.622      -5256.418      -2504.796       3192.238       2988.814
      -1949.849      -1901.047       4712.789       7970.543       2953.626
      -98.76416       2716.566      -135.2832      -10104.77      -12463.94
      -1261.477       6877.196       1341.222       270.0801       8428.451
       6197.113      -6878.836      -12367.85      -5018.777       4497.635
       7004.461       5842.354       5080.864      -769.3574      -9338.002
      -9920.703      -4364.776       950.3418       5054.187       5029.371
       209.3232      -2692.114      -1602.523      -1042.531      -3114.365
      -5326.790      -2615.984       5220.330       8847.037       4707.633
      -658.9053      -4273.673      -5999.785      -3892.223       1432.871
       8075.492       10135.17       2434.838      -6079.836      -3404.573
       4187.684       3647.194      -3047.809      -4979.707       408.4297
       6466.075       4161.969      -5133.670      -7514.216      -319.9480
       2768.703      -2786.135      -6298.102      -1661.787       4647.226
       5176.260       903.2672      -549.6193       101.7776      -518.9102
       1269.541       2986.336      -1181.346      -7260.427      -6540.410
       1904.582       9536.504       7818.465      -2299.449      -7176.838
      -1065.777       5471.325       5479.309       2045.136       1883.771
       6372.863       6488.522      -2222.631      -7551.383       1235.109
       11076.58       7557.183      -2546.424      -8134.643      -5475.624
       1735.188       6544.305       7138.214       2941.035      -3698.448
      -2882.459       6170.854       7757.740      -1341.262      -6190.375
      -2424.532       996.5769       725.4858       864.4336       3632.758
       6737.412       8750.484       6337.720      -194.3252      -3211.385
      -1529.134       1443.009       3513.891       3996.099       3536.688
       832.9854      -2531.697      -2516.884       61.47656       180.9697
      -2868.924      -5035.347      -3181.237       849.3286       2216.717
       1127.858       1100.568       862.7539      -1111.051      -4629.995
      -5863.352      -95.11426       6071.414       3858.938      -2293.794
      -1972.640       3483.870       3919.675       1367.979       1308.384
       1017.544      -190.7451       360.7979       3844.885       8719.180
       8458.275       791.4062      -6493.227      -7520.009      -3905.125
       2455.447       7326.466       4329.244      -3001.572      -6366.238
      -6318.414      -4937.341       378.2539       6874.375       6611.938
      -1061.980      -9311.166      -8661.441       1890.735       7444.208
       349.5469      -5539.865      -1034.154       6756.144       6545.611
      -3818.314      -10579.38      -3219.395       8046.672       9019.770
       714.5361      -5247.084      -4839.424      -1841.777       192.0444
      -718.5479      -1719.970       42.90527       2253.455       3950.120
       2802.430      -6359.688      -15680.38      -11338.94       3176.365
       11949.34       5645.047      -7201.641      -10976.76      -3166.231
       3777.611       1696.030      -798.9971       3400.877       3820.883
      -5555.496      -12956.60      -6995.754       5400.993       7334.189
      -1025.245      -5290.759      -4040.741      -435.5020       5834.047
       5330.202      -3286.925      -6705.141      -2102.376       3777.801
       5013.012       1635.522      -1478.092      -3388.572      -2145.727
       4581.861       9607.410       7160.927       1750.488      -2832.139
      -5784.038      -3840.831       1049.430       775.1992      -5833.101
      -6871.919       1063.598       6856.398       5677.495       204.9365
      -3270.994      -1106.522      -885.2568      -4439.194      -5438.516
      -2753.922       2137.373       6207.507       5570.345      -421.9512
      -5658.322      -3428.951       1406.122       1059.709      -2551.980
      -3523.211      -1704.058       533.8105       145.1738      -2259.482
      -1946.151       1851.777       5486.246       3988.644      -2782.311
      -6743.098      -3661.782       569.7253       654.5122      -278.9121
      -827.5127      -3034.322      -4995.599      -3814.068       2181.025
       7345.893       4606.295      -616.0918      -4126.271      -4565.207
       1908.879       7887.353       3014.547      -4562.842      -4440.257
       526.8672       4163.315       4753.699       6295.994       7623.038
       2537.941      -5570.061      -9894.350      -8076.260      -2637.855
       584.8838       1838.391       5836.626       6393.642      -1936.258
      -8869.598      -6835.175      -653.1191       3165.884       2781.115
       3299.432       4396.242      -943.8711      -8523.124      -7649.322
       75.30127       3419.972       27.38379      -1153.286       781.4590
      -701.4336      -4381.885      -6995.648      -6506.774      -313.6074
       3231.440      -1548.051      -6931.420      -7372.860      -2390.906
       5137.039       8144.140       4969.352      -2478.029      -9830.602
      -11775.10      -12117.13      -14007.72      -14268.29      -16095.48
      -22733.23      -30584.30      -34571.49      -29566.29      -16397.11
      -4512.469       166.7871       1531.379       5248.262       8119.977
       5204.011       1122.004       7909.438       27810.75       41476.36
       31838.84       15071.29       17066.10       30286.05       28817.50
       8915.935      -6528.990       1249.461       19303.93       27066.43
       24903.42       23524.99       24839.44       13868.23      -20327.66
      -59041.88      -71662.94      -50302.52      -21819.68      -16963.87
      -31935.62      -31508.74       6427.781       53886.36       66069.37
       46699.67       35775.25       43370.75       34617.09      -9293.633
      -43503.05      -19489.93       32581.57       47552.80       8748.062
      -50507.66      -79841.47      -55322.41      -5301.008       28238.49
       30004.97       12884.03       3137.324       10838.75       20721.29
       18015.94      -4063.469      -27636.09      -19839.07       4699.902
       5258.359      -18670.32      -36442.70      -26059.98      -4189.873
      -1071.861      -9809.910      -2440.734       29335.30       57891.30
       47192.10       7512.305      -22383.66      -27735.78      -15229.87
       805.8906       10225.09       20694.20       36385.98       45132.11
       32962.61      -1732.320      -34914.75      -35103.44      -13835.99
      -12422.17      -28737.18      -25465.82      -3636.565       6600.844
       995.6265      -902.5547       8995.523       15050.44       5240.223
      -8594.678      -13427.84      -5229.289       17520.95       37540.80
       27951.01      -4767.258      -26083.91      -23501.06      -18741.23
      -17944.83       2098.719       32266.40       27607.36      -16955.77
      -45284.40      -19829.55       23563.16       43911.84       41129.59
       18424.06      -15827.48      -28095.80      -2311.445       24897.31
       16359.54      -14317.69      -28391.54      -7518.285       19330.85
       9159.273      -24518.08      -32017.34      -6886.695       12910.72
       5834.113      -10969.24      -13137.89      -90.53320       7985.812
       10632.50       26251.92       44704.67       43229.24       14603.92
      -27484.95      -38662.22      -4459.586       19123.14      -3945.867
      -34631.51      -31870.39      -7161.916       10664.49       17738.93
       18810.07       5341.426      -16970.66      -19890.31       7325.719
       38051.52       38965.46       10972.48      -17490.20      -30519.73
      -28512.09      -13900.56       787.8059       1976.559      -5037.754
      -4488.191       7181.686       11832.90      -1286.966      -8760.439
       2717.707       13856.53       17224.82       17004.36       7463.602
      -16044.32      -41465.52      -45765.34      -29995.09      -15450.03
      -2119.891       16466.06       27409.73       18389.69      -621.5762
      -8878.006      -6497.189      -6616.107      -2126.178       10998.40
       9061.289      -12812.38      -26000.48      -19751.77      -4077.375
       18590.82       39464.00       41009.83       18329.80      -15220.73
      -31071.10      -13390.09       18868.26       31779.20       13204.51
      -10090.89      -8525.258       7518.990       10096.14      -5794.930
      -23877.31      -32153.78      -25265.48      -4946.842       9780.287
       5850.695      -7446.785      -16891.73      -13271.05       3639.422
       19332.61       20050.74       9886.100      -581.5801      -7527.111
      -7382.051       3056.488       12810.08       11664.59       6155.859
       6373.154       11382.54       4848.656      -19091.80      -33131.27
      -20350.22      -5887.918      -8123.711      -13120.27      -9337.098
       2156.594       16331.48       23242.36       16624.30       9446.703
       8524.523       1504.118      -4590.121       5910.195       23647.88
       26272.86      -219.6172      -33619.43      -37912.19      -19125.32
      -5886.871       1563.867       23491.97       54129.86       56740.53
       24126.64      -2893.151      -1516.032       4819.504      -2634.789
      -14625.21      -16890.37      -11593.45      -14018.91      -24093.24
      -24808.68      -13155.63      -458.7549       5209.752      -3317.359
      -21560.20      -24592.63      -9622.930       4673.930       19994.77
       38804.23       39940.62       12627.89      -20856.16      -31384.21
      -14160.64       8702.734       16049.50       14989.05       16749.31
       12977.14      -4630.102      -26409.70      -33870.00      -23704.67
      -9066.729       2347.993       5899.532      -400.7012      -7086.265
      -5085.113       3361.664       9973.234       8394.780      -444.0430
      -11063.92      -12448.25      -257.4219       12071.83       14064.11
       10272.62       5587.805       4324.812       12113.59       20034.84
       10662.44      -9756.605      -15665.97       901.5977       18090.16
       17546.09       5954.391      -3282.891      -7587.008      -9250.852
      -9948.461      -10608.84      -8257.232      -1150.004       5907.770
       7463.585       1086.615      -3941.702       1330.004       9305.922
       13172.54       13857.13       11064.83       8072.750       4193.285
      -4364.916      -11058.93      -9087.752      -4051.285      -4750.617
      -12271.77      -17713.66      -10352.45       6607.812       16037.09
       13676.06       10280.56       9285.132       5623.223      -604.3555
      -5889.324      -9034.297      -13779.76      -22337.57      -24325.81
      -12994.07      -3131.941      -5122.562      -9362.203      -10463.21
      -12888.31      -11979.87      -1962.709       7605.009       4445.678
      -4286.282      -1018.465       14387.97       25268.44       23980.32
       11696.87      -9718.953      -27957.90      -25750.77      -11831.34
      -7028.840      -5147.611       4475.979       7218.727      -8237.180
      -23286.52      -14429.10       9009.309       17915.60       4529.566
      -9076.381      -3710.945       13681.39       21637.79       12735.62
       1170.351       1040.875       7665.115       7194.687       542.5371
       3983.148       16052.86       15665.40      -4132.234      -22793.32
      -19240.30      -2005.752       4715.145      -2489.873      -7043.382
