     0.02500000      -65390.20       62791.98      -12345.00      -12345.00
      -29.99000       243.6600      -42.74000      -12345.00      -12345.00
       0.000000       32.02999      -12345.00      -12345.00      -12345.00
      -12345.00      -12345.00      -12345.00      -12345.00      -12345.00
      -12345.00      -12345.00      -12345.00      -12345.00      -12345.00
      -12345.00      -12345.00      -12345.00      -12345.00      -12345.00
      -12345.00      -31.27110      -68.79910       1530.000       0.000000
      -31.23600      -65.83800       0.000000       167100.0       0.000000
      -12345.00      -12345.00      -12345.00      -12345.00      -12345.00
      -12345.00      -12345.00      -12345.00      -12345.00      -12345.00
       282.0666       268.4452       89.97419       2.536114      -12345.00
      -12345.00      0.1608063       90.00000       90.00000      -12345.00
      -12345.00      -12345.00      -12345.00      -12345.00      -12345.00
      -12345.00      -12345.00      -12345.00      -12345.00      -12345.00
      2008       318        11        13        13
       140         6    -12345    -12345     10947
    -12345    -12345    -12345    -12345    -12345
         1         7        13    -12345    -12345
    -12345    -12345    -12345    -12345    -12345
    -12345    -12345    -12345    -12345    -12345
    -12345    -12345    -12345    -12345    -12345
         1         1         1         1         1
SECA    -12345          
        -12345  -12345  
-12345  -12345  -12345  
-12345  -12345  -12345  
-12345  -12345  -12345  
-12345  -12345  -12345  
-12345  -12345  BHE     
ZL      -12345  -12345  
[...]
       10890.26       605.7246      -6078.143      -1541.785       5344.112
       2397.428      -3580.230      -1815.146      -185.2324      -4963.484
      -7375.984      -6423.425      -6003.064       419.3320       7770.058
       4805.954       50.40137       2994.208       5327.085      -2004.504
      -8297.697      -2189.683       5629.424       5024.100       3816.914
       7529.987       6870.801      -1925.098      -8218.844      -7535.331
      -4768.863      -664.3359       5556.240       7567.804      -200.9297
      -10377.13      -11297.98      -70.93555       11184.99       7798.514
      -3601.483      -4499.292       5136.141       9789.555       7624.202
       5378.263       2375.632      -1029.065      -686.0573       1003.500
      -3871.666      -11140.61      -8105.756       3627.119       8371.191
       889.5820      -4175.044      -570.5825       1576.586      -415.5420
      -2134.585      -2042.163      -1756.953      -2935.311      -4432.419
      -3902.371      -118.5791       4255.621       3582.559       972.4473
       3778.931       6471.470       2717.552      -2791.901      -4726.232
      -3508.874      -2058.335       409.2627       3648.474       1726.186
      -4092.821      -760.1309       9626.612       8673.924      -3072.322
      -8339.857      -851.0000       9091.400       8898.313       2205.514
      -654.2976      -554.3525       346.8062       2687.648       1000.381
      -5784.925      -7507.581      -95.86328       8839.285       9973.088
       1414.000      -10395.95      -16197.69      -8654.060       3391.271
       6301.316       4689.201       4954.603       2484.695      -866.1196
       796.6733       2987.930      -919.4609      -7748.344      -5983.731
       2467.265       2984.110      -1500.057      -1581.825      -68.93945
       739.9492       3146.144       3157.737      -1627.618      -2656.584
       2428.983       5474.002       3284.513      -1359.935      -4808.197
      -4742.939      -371.6401       3039.383       729.8164      -1976.764
      -33.74023       3949.040       4342.828      -2263.551      -11046.33
      -12282.48      -4348.959       4936.736       5847.340      -1625.187
      -5835.287      -4063.555      -1464.808       551.1921       352.9287
      -3236.877      -5425.027      -1265.175       3840.293       3171.217
      -324.1355      -249.6318       3309.113       907.1621      -7046.330
      -5733.266       5488.473       9393.040       1966.066      -2882.937
      -24.34473       888.3975      -4159.188      -8089.010      -5458.696
       438.0693       4363.767       4333.157       2443.216       1512.621
       176.9678      -3495.033      -8936.414      -12469.54      -8289.779
       1418.980       8316.252       9060.201       3971.336      -4716.828
      -8023.085      -606.1641       7475.424       6989.389       1974.932
      -3102.818      -5654.998      -3943.905      -3475.043      -8031.812
      -9200.225       1033.836       13652.66       11499.95      -2447.699
      -10106.46      -8143.636      -5271.980      -975.7656       7025.635
       9572.674       2767.963      -2123.487      -405.2861       1902.730
       2487.906       2016.403       1259.167       2254.433       3847.449
       2896.125      -3662.254      -11377.65      -10581.38      -3602.938
       795.4336       2131.319       1835.828      -1071.999      -3369.320
      -1562.341       111.8339      -737.2324       1971.840       9146.488
       10069.88       3518.278      -2854.416      -7700.259      -7127.148
       539.2441       4617.962       1139.136      -3167.018      -5204.133
      -5735.438      -2442.813       4166.531       7881.143       7045.797
       7374.656       11444.81       12096.05       2679.447      -10402.46
      -14353.17      -7116.183       1032.491       3906.715       1458.100
      -1851.289      -61.55835       2103.718      -1574.475      -3499.060
      -78.42871       2310.381       2607.697       2708.553       1443.903
       1210.671       4002.653       3527.438      -2594.803      -5017.099
      -943.9980       3872.608       4414.574      -422.9346      -3508.153
      -1188.592      -1492.751      -4522.035      -1542.332       2861.839
       320.5986      -3718.462      -4149.872      -627.5918       4100.572
       3747.406      -165.7354       1120.002       6280.324       8012.928
       5552.361       408.0442      -1951.654       4332.768       8118.842
       129.4629      -6306.426      -2531.191       1461.710       1051.096
      -378.7139       990.0264       4197.341       1379.430      -6354.945
      -6760.513      -807.5713       2195.596       4872.318       8680.930
       6822.539       2885.370       2142.177       225.9141      -4225.869
      -4605.729      -1388.241      -2572.688      -3771.282       2742.531
       7260.405       2247.486      -2359.114      -617.7664       1422.810
       471.2988      -2593.866      -3622.341       1320.686       8207.429
       6320.084      -4246.977      -13362.04      -12121.92       375.2422
       10989.35       11126.55       6666.366       2378.480       1131.609
       748.1582      -3823.272      -6758.558      -2858.936       556.4146
      -1376.593      -2734.674       2885.602       7466.994       3171.068
      -2480.105      -599.2021       3232.287       967.4326      -3635.882
      -3136.639       314.2050      -340.9448      -415.0029       4123.917
       2250.332      -4639.934      -5062.417      -364.9058       2555.024
       575.3350      -3943.923      -5068.049      -3601.479      -3695.379
      -1556.744       7226.086       13188.38       8855.106      -345.7461
      -6732.965      -8684.516      -8342.676      -5529.216       1018.496
       7547.162       7920.273       2245.488      -3726.842      -8326.145
      -8296.854      -2156.284       328.1851      -2858.325      -521.6572
       4903.732       4499.896      -734.3379      -7011.166      -10379.56
      -5757.491       3732.236       9005.632       6812.948      -936.4004
      -6840.577      -3021.028       1870.526       892.4727       2350.004
       8215.908       9578.086       4249.400      -2723.871      -6070.275
      -8089.396      -9635.539      -3934.025       5141.252       5038.125
      -1750.719      -3513.315      -159.6747       969.6709      -2565.258
      -9617.701      -10521.74       1663.129       13602.57       10688.35
      -176.8438      -7063.048      -5458.309       159.5757       217.6484
      -4491.308      -4156.446       692.2598       3878.363       5277.438
       5355.864       3082.231       1722.018      -750.8203      -6324.092
      -8006.419      -2642.414       2878.626       4579.780       3031.928
      -583.9951      -837.9258       5060.895       7454.121       1145.928
      -5628.650      -6684.740      -4833.904       551.2812       6880.893
       4787.957      -3901.646      -6141.683      -919.8481       1997.961
      -1583.787      -4624.938       1354.580       9593.658       8281.861
      -519.0957      -7271.317      -3284.426       6156.551       8437.504
       2008.414      -3956.938      -3989.771      -379.4248       2781.066
       5046.672       5355.250       261.7637      -8986.521      -12275.71
      -5390.496       3849.180       7114.833       3179.663      -3238.483
      -4450.019      -1587.327       427.6587       1356.087       2605.144
       1946.655      -1751.735      -3868.422      -1635.604       442.8695
       162.0796      -1408.358      -1995.687       59.50586       3122.359
       5374.314       6774.391       3288.367      -4381.615      -9620.922
      -8029.616      -587.1816       7861.645       10036.35       4628.754
      -1042.862      -1700.790      -144.3997       789.2720      -35.47559
       656.0908       4632.832       5133.385      -3734.703      -12901.04
      -11185.01      -2461.818       2274.154       4128.170       7443.797
       9035.396       3458.488      -5761.488      -9436.309      -5086.242
       2983.186       8716.434       5818.243      -2481.142      -5364.407
       487.9102       6346.489       5851.482       216.7627      -4028.291
      -3465.430       230.2505       1917.707      -2205.621      -7652.581
      -2714.078       10823.95       17279.47       9011.520      -6882.828
      -18118.10      -15038.15      -535.2266       11734.02       10546.36
       1596.822      -2634.294      -1022.079      -1867.748      -3891.601
      -717.0508       3888.843       2313.574      -1808.597      -1369.266
       2519.158       4684.996       2638.627      -3461.691      -7170.025
      -6886.233      -4173.391      -1005.361      -2280.673      -3717.373
       2964.719       11076.79       12686.10       6894.057      -3356.570
      -11325.96      -10730.20      -5069.603       1325.460       5767.487
       3937.970      -2198.058      -4994.024      -3439.491       931.6387
       4035.364       562.2520      -6673.973      -7051.467       920.4141
       7462.431       5289.774      -642.5703      -3861.835      -4259.792
      -3846.744      -1081.481       1621.787       228.1289      -2752.575
      -2638.750      -1039.312       2033.104       5653.650       8576.234
       10259.20       6143.366      -5193.406      -12170.69      -7283.542
       1503.559       3325.161       1323.776       1427.274       2345.058
       3503.341       4738.440      -58.02344      -10139.36      -14475.92
      -9324.035      -3473.597      -2181.633      -3096.242       282.3857
       2705.368      -1120.805      -2409.080       2795.575       3531.091
      -2829.332      -5847.426      -2642.810       1807.352       6002.814
       5104.095       2561.755       1103.565      -3408.661      -6434.569
      -2908.944       2502.511       2073.799      -3966.440      -4134.982
       1191.181       361.0674      -5810.818      -4694.882       1386.467
       5109.902       6603.568       6518.005       4350.703      -591.0176
      -6553.240      -4457.152       4558.715       7602.396       1793.073
      -1818.198      -418.0767       832.0889      -2428.898      -8144.051
      -10860.14      -7301.833      -941.7969       2827.240       2735.443
       3750.762       8244.750       11255.66       5958.977      -2393.191
      -7188.578      -9323.453      -9745.312      -8404.629      -6826.402
      -4387.855      -6355.578      -14838.20      -21214.38      -18223.94
      -10836.95      -4478.657      -472.4727      -1613.287      -7694.335
      -6935.301       5768.727       19670.96       23287.73       18191.71
       18557.03       36218.02       52759.67       43644.39       16936.19
      -1876.572      -8605.516      -12782.60      -19221.22      -21982.84
      -15139.07      -8779.504      -11383.58      -14153.16      -15213.45
      -17924.82      -16192.97      -3855.255       4678.165      -199.5840
       389.9609       24415.25       55031.73       62791.98       39382.91
       4676.035      -17173.57      -25503.30      -31231.06      -29293.48
      -22944.39      -30166.41      -42969.70      -31887.66      -1479.977
       21662.53       31682.60       34762.66       27592.71       13258.77
      -96.79297      -9476.461      -16589.43      -18604.13      -3782.531
       24648.52       39432.65       27418.42      -1366.816      -23556.41
      -17449.21       9310.613       18095.31      -6408.109      -35100.32
      -37274.78      -9331.539       30935.98       47217.50       31670.21
       22946.24       29382.04       8143.656      -39307.30      -56416.81
      -24663.90       12142.02       18935.21       4171.035      -10222.25
      -10334.62       7888.227       26601.55       30074.22       20215.50
       3482.980      -10072.08      -13792.90      -24448.55      -42893.58
      -33830.66       13347.98       58189.72       61224.52       24522.36
      -16741.12      -38769.89      -37687.98      -14791.57       17726.77
       38066.45       35684.62       13533.34      -16319.67      -39856.81
      -44703.32      -25352.83       4525.418       17470.53       9559.025
      -4649.594      -18045.69      -18763.61       9151.016       46591.33
       52779.18       22735.71      -9341.461      -26871.67      -35538.77
      -30587.69      -1302.891       28674.88       22687.17      -3891.530
      -6638.477       11825.30       16772.28      -1058.691      -16236.02
      -8550.752       6972.055       8251.033       5863.129       12486.41
       19507.45       17053.18       4448.102      -12667.23      -24807.36
      -29155.12      -24737.69      -12635.52       3727.520       15549.00
       13484.68       3169.331      -2609.299      -6377.039      -3883.977
       19480.62       45351.43       28881.06      -27520.80      -65390.20
      -47281.39      -1198.383       29446.00       34148.25       22110.47
       2275.535      -11700.41      -12712.89      -8774.332      -8604.793
      -11800.28      -19147.53      -22500.21      -9136.602       17266.43
       33874.14       24613.05       2907.597      -6046.230       419.4575
       5968.617      -5031.414      -27202.63      -40182.42      -31749.52
      -2649.891       36026.66       58029.70       46199.31       12694.94
      -14229.12      -21938.45      -19749.80      -18097.88      -11811.67
       2320.688       9047.033      -1044.211      -14894.01      -21092.28
      -19184.50      -12768.31       1697.398       23381.60       31387.50
       6425.797      -31406.86      -45282.66      -24868.71       9965.379
       27169.45       11203.94      -12861.60      -9416.289       21549.37
       40182.71       12593.02      -39868.89      -58753.41      -33152.68
      -5044.406       7203.734       16932.09       16042.49      -1549.821
      -9869.473       5569.359       20600.46       16660.67       7825.648
       5513.321       1010.083      -2913.600       2577.929       7734.284
      -1001.391      -11056.30      -6219.197       1786.438      -6176.273
      -17441.18      -3083.438       26163.80       25871.80      -8813.227
      -35447.84      -29085.62      -12862.06      -4837.207       5873.559
       17686.32       13609.75      -1142.719      -3055.184       14647.62
       24713.43       4319.016      -24556.09      -26787.93      -6610.031
       10178.78       13706.76       10685.84       5763.682       5490.469
       11904.13       13147.91       1047.367      -16857.95      -27108.10
      -22696.57      -10019.36       368.5527       3322.402       4073.803
       8505.221       12010.13       7227.068      -6.916504      -2929.730
      -267.1211       5803.609       8319.518       1012.277      -9492.920
      -10726.82      -2901.396       4228.766       6891.930       5312.195
      -3389.203      -20833.52      -27636.45      -11306.18       10278.28
       22930.22       27815.69       21438.89       69.07812      -26820.09
      -36840.87      -18797.33       13134.12       33786.79       28061.22
       1637.664      -17111.34      -9828.387       8158.090       13566.58
       6426.109      -6698.969      -27490.05      -45854.39      -39026.83
      -3996.148       36258.27       52923.68       39074.02       14123.17
      -4442.004      -14141.73      -14601.34      -9714.281      -3113.168
       5444.844       16437.24       23663.90       18747.64       5536.092
      -3674.682      -5638.562      -5323.110      -3858.988       4617.516
       19939.64       36630.13       41251.88       19359.20      -14362.21
      -28872.23      -20303.88      -8649.465      -10807.51      -18541.24
      -10787.08       10313.91       20577.09       15904.20       12233.03
       12424.11       7210.477      -2817.562      -10802.11      -12271.89
      -10533.40      -11904.40      -13086.17      -6573.719       8974.066
       22234.52       12070.48      -14921.23      -27867.85      -16470.87
       2301.801       10369.90       3658.717      -7350.654      -10698.88
      -1681.242       12133.79       17354.46       10071.02      -2317.176
      -10200.03      -9804.730      -9808.422      -11622.81      -6098.949
       3699.215       9685.953       12184.22       5849.914      -10215.11
      -17424.97      -883.1562       26153.02       35179.13       17483.46
      -6533.703      -21415.18      -26662.79      -22023.25      -5915.676
       10881.20       9733.264      -6631.331      -10695.81       9599.867
       32207.56       30171.83       9061.869      -4271.166      -3308.567
      -3870.229      -6785.096       1161.020       17527.90       28041.74
       23656.75       6082.582      -8027.147      -7510.724       532.9336
       680.6406      -11819.27      -23082.23      -21303.77      -11454.87
      -1355.654       4200.297       1974.230      -5889.105      -11329.31
      -10490.88      -5826.637       1162.625       15269.70       31414.97
       32092.68       14881.45      -7022.477      -19942.93      -15714.67
      -2310.758       6063.027       3488.867      -4351.848      -9230.261
      -7171.569      -1564.145      -121.4668      -2250.357      -1198.765
      -876.7012      -4565.097      -3004.051       5819.264       10771.37
       2927.637      -14111.99      -19740.71      -2822.922       18209.15
       21060.80       8224.533      -5225.836      -12975.80      -16505.37
      -14181.74      -3059.531       11955.71       20989.06       17878.40
       597.6719      -19339.75      -23804.60      -11738.43      -1039.726
       1045.307       4526.304       7409.150       315.2207      -5439.158
       2315.980       13558.71       14941.43       5152.160      -10486.20
      -21290.77      -21352.83      -13136.57       2230.270       18713.39
       21492.62       4648.145      -18631.03      -28342.89      -18093.10
       1270.336       10314.49       2680.611      -7272.902      -12484.62
      -17502.28      -18017.57      -10330.78       49.68750       6456.809
       8834.980       8726.574       4855.479       497.7988       4156.930
       11806.69       11816.64       3731.648      -9420.906      -21660.64
      -18943.68      -2482.027       10503.20       13233.36       9995.168
       1759.426      -10920.21      -18995.56      -12871.12       1585.594
