     0.02500000      -103256.1       60541.87      -12345.00      -12345.00
      -29.99000       243.6600      -42.74000      -12345.00      -12345.00
       0.000000       32.02999      -12345.00      -12345.00      -12345.00
      -12345.00      -12345.00      -12345.00      -12345.00      -12345.00
      -12345.00      -12345.00      -12345.00      -12345.00      -12345.00
      -12345.00      -12345.00      -12345.00      -12345.00      -12345.00
      -12345.00      -31.27110      -68.79910       1530.000       0.000000
      -31.23600      -65.83800       0.000000       167100.0       0.000000
      -12345.00      -12345.00      -12345.00      -12345.00      -12345.00
      -12345.00      -12345.00      -12345.00      -12345.00      -12345.00
       282.0666       268.4452       89.97419       2.536114      -12345.00
      -12345.00      0.2486416       0.000000       0.000000      -12345.00
      -12345.00      -12345.00      -12345.00      -12345.00      -12345.00
      -12345.00      -12345.00      -12345.00      -12345.00      -12345.00
      2008       318        11        13        13
       140         6    -12345    -12345     10947
    -12345    -12345    -12345    -12345    -12345
         1         7        13    -12345    -12345
    -12345    -12345    -12345    -12345    -12345
    -12345    -12345    -12345    -12345    -12345
    -12345    -12345    -12345    -12345    -12345
         1         1         1         1         1
SECA    -12345          
        -12345  -12345  
-12345  -12345  -12345  
-12345  -12345  -12345  
-12345  -12345  -12345  
-12345  -12345  -12345  
-12345  -12345  BHZ     
ZL      -12345  -12345  
[...]
       164.2202       159.8297       205.6919       200.0958       243.5549
       235.8287       277.1772       273.5463       315.4417       305.6093
       345.5479       334.5950       373.4320       365.1196       403.4083
       390.9801       429.3809       421.8550       459.8521       445.9106
       481.1980       460.9482       496.8110       483.2123       513.6622
       493.8215       527.9734       507.7638       538.9377       517.3665
       549.3418       526.4614       552.5864       525.8105       552.1931
       524.8340       548.7063       522.0139       548.4827       520.1423
       544.3362       513.4081       537.4409       507.0056       524.1682
       490.8291       512.6394       483.9749       504.3425       476.0682
       499.4370       461.2649       481.7936       449.4062       464.9099
       433.1929       456.6047       423.7413       443.4448       416.1846
       437.4779       403.9277       423.9998       397.9487       422.6442
       394.6824       421.0814       400.4296       422.8475       395.7893
       426.8474       406.8538       430.5299       410.1448       446.8859
       426.1370       452.0963       434.4525       466.4963       446.7709
       477.2531       458.1938       487.5562       468.5635       496.2605
       479.9841       511.1741       482.8406       510.8831       494.9343
       521.0159       492.0902       518.5991       498.4570       519.4554
       490.9697       515.4917       489.9598       511.3196       480.6754
       498.6296       467.6323       486.8651       457.7316       479.1339
       448.6906       468.6562       439.6342       459.3065       425.1099
       438.1483       403.8589       419.7678       388.6562       404.7708
       371.5608       385.5370       349.1985       362.4025       330.0862
       340.5060       300.1225       309.0895       276.1453       288.2523
       247.7166       252.7538       221.6826       227.1980       182.2296
       194.6072       153.7613       156.9271       116.0313       122.0207
       78.00719       73.63499       31.75890       34.23776      -13.96465
      -4.295013      -44.00719      -52.90125      -102.9037      -92.20862
      -139.4953      -151.6409      -192.3411      -188.5036      -240.9357
      -248.3208      -286.0892      -282.9121      -333.4829      -339.3109
      -377.1520      -378.4312      -425.7703      -421.8176      -470.0942
      -468.5394      -495.3674      -498.7798      -556.0255      -544.1909
      -572.7449      -581.1959      -630.2738      -612.2964      -646.8071
      -645.3003      -687.4482      -676.1118      -714.8137      -714.1223
      -746.4983      -728.1289      -765.6311      -761.6558      -786.9336
      -772.6057      -810.7305      -797.4316      -818.2290      -802.7942
      -832.3606      -811.0166      -828.9878      -812.2349      -841.4736
      -818.2998      -838.9026      -822.2017      -845.0449      -812.1025
      -832.0598      -812.4851      -834.0938      -799.7432      -816.6978
      -787.6245      -794.8794      -755.2861      -773.4304      -745.5684
      -756.9824      -714.9500      -727.8835      -689.8228      -697.2285
      -658.3378      -671.0476      -626.6222      -633.0886      -596.6016
      -607.3726      -560.2690      -566.1636      -528.1252      -537.7190
      -493.1206      -499.0138      -458.9573      -467.5468      -425.8480
      -432.4800      -390.0376      -397.7678      -354.9371      -365.1603
      -326.2898      -332.2670      -286.8423      -300.6031      -263.0466
      -269.7272      -232.5646      -251.5902      -210.2777      -219.5615
      -186.3152      -203.0894      -156.0237      -172.4483      -144.9256
      -157.6127      -120.1700      -142.8998      -114.2173      -128.9330
      -94.26688      -116.5349      -90.88962      -104.4161      -68.56097
      -97.70959      -66.30003      -78.82590      -53.16916      -68.61853
      -33.08008      -55.70917      -21.43230      -36.73547      -6.178246
      -23.87405       12.79654      -5.475113       28.98352       18.79504
       48.88037       32.43388       70.76976       52.98697       89.06653
       75.53690       115.8089       104.5858       138.8893       122.7379
       161.7645       149.4480       185.2904       171.0472       204.6888
       183.1763       218.7136       201.4545       234.6613       218.6935
       254.3779       238.6951       266.9243       244.5839       280.3439
       259.8962       286.6121       266.4401       298.0544       280.8207
       307.7645       290.7606       321.9868       301.3777       328.5958
       311.7402       344.9251       322.1482       355.1678       342.1001
       367.9561       350.1204       389.1143       374.9954       407.0098
       390.8960       426.0941       406.9089       440.2236       428.5845
       461.6708       444.8035       480.7845       467.2001       498.9287
       480.6027       519.0178       501.7468       531.9717       517.8633
       560.9705       542.9578       579.2131       566.9301       599.8798
       583.5715       629.5449       609.0437       644.1130       628.8077
       664.3545       648.3998       683.8289       661.3733       698.4597
       678.6294       707.4399       685.6633       720.9612       699.4204
       734.1133       713.7043       743.5610       722.2170       753.2983
       731.0698       767.8696       746.7373       776.0195       751.5273
       776.3689       746.3015       779.0283       754.4294       777.0332
       749.1045       778.4893       748.0811       767.6277       733.5471
       751.9519       718.6133       738.1072       701.7568       720.4946
       683.5588       702.5233       666.4690       677.7561       639.1570
       654.6770       610.9708       620.4946       585.9438       598.0972
       555.0918       570.6392       534.1023       536.4827       493.5867
       509.6392       464.2201       471.0344       430.4927       438.6171
       396.7028       408.2329       365.8961       372.4749       327.5587
       340.3518       295.6362       305.8696       272.3793       282.6685
       233.2874       243.8823       204.4196       209.5098       163.3528
       177.5150       139.5443       148.0975       112.0854       122.9601
       75.13918       84.58398       47.78761       55.86787       14.71257
       22.90980      -16.46656      -8.658905      -49.00777      -31.73154
      -75.13580      -72.69107      -112.7618      -100.3563      -140.3406
      -134.1646      -174.0753      -165.5209      -208.0519      -195.9216
      -233.6942      -221.4784      -264.0613      -255.2640      -295.6327
      -288.8839      -328.6946      -317.6711      -356.5349      -347.2917
      -391.9073      -378.0634      -419.4968      -412.1744      -448.7439
      -437.4617      -476.5647      -463.9795      -510.9785      -502.7798
      -539.7814      -532.7161      -574.6414      -556.4053      -592.0220
      -583.6428      -624.6954      -615.0410      -653.4194      -646.8741
      -685.9072      -669.4243      -707.2783      -700.3342      -741.0796
      -732.0039      -776.4968      -766.2642      -806.0095      -794.6699
      -834.4949      -820.6565      -859.9355      -853.1421      -893.0811
      -886.0178      -922.4858      -910.5630      -955.0488      -945.6721
      -983.8237      -979.6069      -1019.807      -1005.688      -1039.679
      -1029.141      -1064.491      -1048.351      -1078.602      -1071.953
      -1111.829      -1093.742      -1121.928      -1110.240      -1141.213
      -1121.428      -1152.688      -1136.625      -1158.303      -1133.551
      -1161.624      -1147.435      -1167.889      -1145.528      -1171.374
      -1147.501      -1164.060      -1143.978      -1166.097      -1137.727
      -1155.523      -1127.752      -1141.697      -1111.969      -1129.702
      -1098.320      -1105.215      -1067.742      -1076.220      -1034.123
      -1040.814      -1005.156      -1013.412      -968.7732      -967.3105
      -916.0347      -914.9126      -871.1462      -872.5610      -810.5098
      -807.9790      -763.2830      -759.3928      -692.8997      -681.9501
      -625.7493      -619.7717      -564.7273      -563.2939      -503.3555
      -493.5415      -434.5804      -426.6538      -359.5711      -342.0193
      -285.2401      -282.1454      -216.0463      -198.7537      -133.2527
      -118.8232      -55.08163      -40.26651       20.48692       30.98093
       94.64191       109.5068       169.6146       177.3167       234.7357
       246.0277       309.8830       322.9080       379.8070       390.4219
       448.3120       454.2113       504.5057       508.1505       560.9332
       563.7828       611.8468       612.0092       665.2205       663.1118
       703.5334       705.1553       752.1621       752.9075       798.3013
       792.1870       833.6633       827.9128       870.1526       860.4243
       899.9067       899.8550       937.1230       923.9272       962.9458
       962.5525       999.0815       987.7241       1027.951       1020.356
       1045.126       1032.000       1068.676       1060.118       1098.711
       1092.051       1127.243       1110.060       1141.290       1124.805
       1148.428       1138.292       1175.070       1150.726       1176.233
       1158.586       1187.454       1167.528       1191.545       1163.107
       1190.575       1165.954       1187.040       1157.750       1176.168
       1143.828       1167.199       1134.953       1148.241       1118.248
       1136.808       1098.699       1114.671       1080.323       1091.123
       1050.237       1067.511       1033.229       1045.489       1007.205
       1019.696       976.3464       983.7490       951.4888       960.6567
       913.5103       922.3289       879.2896       882.7473       839.7488
       842.6992       796.6406       801.3945       754.9849       756.1377
       708.2588       708.6323       661.6641       660.6426       611.8728
       626.0288       578.5345       568.4031       524.6799       535.4589
       475.9518       473.6719       434.5172       437.3213       377.2017
       377.7766       333.2048       334.4055       282.7188       285.0453
       233.8592       231.8208       180.2016       179.5220       117.0204
       110.4247       70.92944       66.81887      -2.254921     -0.4731903
      -42.61105      -55.03308      -120.4565      -119.3351      -169.1315
      -182.4290      -239.4131      -235.1754      -282.2047      -292.9733
      -345.9275      -342.3860      -394.1233      -403.6177      -450.7197
      -443.8489      -493.6912      -500.6045      -545.5625      -540.9595
      -588.2297      -581.7112      -618.6835      -614.1562      -664.8016
      -658.0758      -684.1294      -674.8945      -722.7583      -705.5383
      -729.2388      -722.7720      -761.8574      -736.0278      -760.8015
      -753.4036      -786.3474      -759.5122      -792.1580      -782.5613
      -804.3669      -782.3440      -816.0242      -797.5122      -817.7495
      -792.6479      -824.0986      -804.4053      -823.4409      -802.3699
      -833.6189      -809.2158      -826.0066      -797.0684      -823.8557
      -796.7300      -815.6597      -795.2234      -823.1096      -786.2981
      -801.6375      -777.9968      -797.4404      -765.1926      -785.7114
      -757.7349      -774.0588      -733.4199      -751.4214      -720.2573
      -733.7817      -692.4983      -708.5581      -670.4420      -679.0347
      -649.2468      -662.3199      -618.7678      -632.9099      -596.8625
      -611.0701      -572.2660      -583.9883      -547.4380      -560.8978
      -522.9575      -534.9318      -499.5786      -515.8490      -475.0864
      -491.3796      -460.1140      -471.7737      -435.2573      -457.5540
      -425.0647      -442.6643      -410.9055      -427.3807      -389.5530
      -405.5763      -370.9363      -390.5831      -356.5518      -372.9830
      -345.0248      -362.4520      -325.2290      -346.2750      -315.1816
      -329.3004      -297.2802      -324.0851      -295.8939      -314.1299
      -285.9335      -307.0345      -278.1666      -295.5454      -266.3834
      -286.2274      -253.5039      -275.0824      -250.9775      -268.7388
      -231.6519      -249.3793      -221.5093      -237.4443      -200.2735
      -216.6197      -187.1029      -205.9037      -165.8472      -179.7906
      -147.8692      -161.7239      -122.0408      -134.9395      -102.1073
      -114.8028      -71.71069      -75.09598       35.79639       366.4463
       1636.777       5119.555       12911.52       26148.86       42972.36
       56492.20       58238.76       39168.40      -4065.828      -54930.66
      -91865.62      -103256.1      -75825.47      -24705.84       13356.86
       40558.70       60541.87       44982.93       8189.248      -4978.332
      -5971.211      -21212.22      -28251.34      -18714.46      -18792.29
      -21249.16      -5107.984       17881.80       33983.53       36720.58
       35220.52       38098.28       18875.49      -25996.80      -45142.45
      -28668.62      -23120.48      -20792.39       4667.852       28242.16
       35089.79       24117.64       6762.140       4430.521      -1558.117
      -21976.23      -25543.01      -10088.92      -2914.665       4775.272
       4503.918      -18530.55      -8480.094       21630.50       8847.613
      -12454.68      -985.0488       9152.680      -3503.914      -2132.812
       9209.621       4300.960       2092.756       7464.513       7403.919
       358.8176      -2111.681       4085.861       4941.670       1561.887
       258.7095      -2021.978      -3115.235      -1374.707      -5360.363
      -12116.86      -6778.718      -241.6553      -3121.882       108.1758
       16439.95       19492.60       4005.367      -4839.801      -5108.889
      -4398.736      -660.9062       4266.699       6382.646       2181.484
      -10107.62      -6895.855       18637.09       22188.85       30.80078
      -6996.836      -4195.973      -17560.09      -26231.25      -13017.75
       4500.969       17588.99       27557.44       24517.24       8794.418
      -559.7168      -6497.539      -17793.23      -18182.87      -7147.443
       1727.701       8509.383       8748.424       2292.478       3061.125
       6453.563      -574.7383      -10693.23      -13160.20      -9194.393
       347.6055       11403.67       13226.85       15142.72       20338.69
       4481.020      -14645.15      -7057.527       2600.033      -5018.526
      -4496.450       4611.162       1513.637       7403.629       23809.07
       14204.75      -11434.46      -12995.72       1267.289      -9391.086
      -25024.46      -8992.352      -1002.484      -26725.42      -32091.80
       493.9619       11318.69      -10409.09      -9663.824       20548.21
       30401.24       11562.58       6898.395       15550.94       6383.598
      -8323.754      -1010.105       8830.516      -3470.434      -11684.92
       343.0171       4040.010      -4276.650      -6881.406      -10277.35
      -8848.121      -153.6133      -3361.641      -6102.779       1208.299
       3824.290       2191.516      -1267.543      -7751.129      -11292.71
      -8676.728      -2803.440      -993.5181      -1738.134       355.7949
       3672.265       3982.402       3234.797       6078.814       7870.180
       7526.451       8046.922       2399.740      -8845.703      -11686.93
      -6049.184      -3181.672      -597.4761       2046.251       276.7617
      -2565.120      -4686.877      -5313.971      -3598.270      -3380.504
      -4680.493      -4257.869      -966.4697      -611.8770      -4348.026
      -2229.895       5306.178       8527.877       7633.662       5734.722
       1526.780      -2596.437      -1355.557      -1911.957      -6807.016
      -5613.492      -3110.009      -5238.613      -1547.351       4356.231
      -613.2393      -5310.562       1304.404       1161.324      -5968.551
      -1124.025       4341.674       2199.629       4736.941       6993.148
       4507.020       2619.578      -32.04102      -2325.292      -1540.666
      -2460.482      -4636.018      -2250.893      -231.0742      -5393.658
      -7902.342      -4244.174      -2261.556       1198.434       7321.914
       7730.307       1852.230      -3762.541      -4995.499      -3888.859
      -3614.803      -3626.356      -117.6797       8384.453       16394.51
       12697.12       459.2168      -4806.913      -2844.465      -814.2539
       1541.175       3073.158       1470.292      -2199.030      -2407.195
       4728.203       10622.17       6896.424       2362.311       5302.990
       9155.262       2602.914      -9549.762      -13970.05      -6530.238
       2170.763       52.39648      -5170.842      -6089.611      -7001.261
      -4321.250       5023.928       8107.883       2207.466       3781.072
       7932.909       5112.164       4131.622       3892.591      -231.1116
      -37.79297       3097.615      -199.8340      -5448.359      -7713.070
      -10231.63      -9255.283      -4206.480       982.3984       7163.221
       10298.89       7554.738       6302.135       8084.328       8605.986
       4667.663      -1129.988      -8112.227      -15409.52      -11550.34
       2992.406       11889.98       11506.93       9374.540       4998.480
       690.6992       1705.469       2793.479      -1702.868      -6903.175
      -588.0859       9846.193       6583.031      -6120.811      -11110.44
      -4645.461      -2999.583      -5101.563       1922.801       1686.992
      -9929.641      -12978.24      -5706.869      -2650.343      -3527.240
       4146.562       12023.95       10417.37       8194.658       5546.089
       527.1758      -4897.593      -2809.812       3044.012      -3051.061
      -9595.441      -5162.984       1555.340       5648.384       4848.672
       2000.560       1668.623       465.4814       2012.166       9236.416
       9322.127      -406.9248      -4182.699       29.84180      -2067.961
      -7962.755      -5036.654       3022.512      -581.1445      -9871.239
      -5870.301       3668.060       3499.846       503.9893       1163.993
      -1031.371      -2592.809       1802.195       7556.230       6974.650
