     0.02500000      -62117.46       61560.16      -12345.00      -12345.00
      -30.00999       247.0650      -45.61000      -12345.00      -12345.00
       0.000000       34.54000      -12345.00      -12345.00      -12345.00
      -12345.00      -12345.00      -12345.00      -12345.00      -12345.00
      -12345.00      -12345.00      -12345.00      -12345.00      -12345.00
      -12345.00      -12345.00      -12345.00      -12345.00      -12345.00
      -12345.00      -31.91720      -69.02180       2396.000       0.000000
      -31.23600      -65.83800       0.000000       167100.0       0.000000
      -12345.00      -12345.00      -12345.00      -12345.00      -12345.00
      -12345.00      -12345.00      -12345.00      -12345.00      -12345.00
       311.5040       255.1420       76.80139       2.800838      -12345.00
      -12345.00     -0.9580644       0.000000       90.00000      -12345.00
      -12345.00      -12345.00      -12345.00      -12345.00      -12345.00
      -12345.00      -12345.00      -12345.00      -12345.00      -12345.00
      2008       318        11        13        16
        10         6    -12345    -12345     11084
    -12345    -12345    -12345    -12345    -12345
         1         7        13    -12345    -12345
    -12345    -12345    -12345    -12345    -12345
    -12345    -12345    -12345    -12345    -12345
    -12345    -12345    -12345    -12345    -12345
         1         1         1         1         1
SOMB    -12345          
        -12345  -12345  
-12345  -12345  -12345  
-12345  -12345  -12345  
-12345  -12345  -12345  
-12345  -12345  -12345  
-12345  -12345  BHN     
ZL      -12345  -12345  
[...]
      -3622.574      -3652.895      -4558.069      -3622.258      -1480.845
       834.1294       2118.058       1349.598      -1260.556      -3530.243
      -2586.438      -1288.591      -2107.134      -488.0312       3721.318
       4457.782       2750.197       744.6953      -868.5098      -1795.636
      -3865.625      -1913.115       6221.730       9393.840       1308.619
      -7564.676      -8558.301      -2793.679       4425.875       5134.351
      -180.8828      -5086.170      -8134.245      -5911.591       808.8477
       2671.509       217.0949      -266.7538       568.8010       260.6155
      -940.6328      -733.8335      -349.7837      -1364.885      -2550.438
      -1039.650       3847.095       4668.308       795.2607      -2238.711
      -2812.144      -1245.292       1962.400       5686.266       5600.320
       2801.273      -1322.268      -5451.762      -5941.738      -4535.092
       174.0547       5079.591       3956.788       510.0601      -2244.562
      -2182.184      -372.5847       78.79236       647.0901       68.39551
      -1873.938      -2264.873      -872.2598       1196.705       2741.268
       1684.842      -1479.634      -2921.436      -607.1792       754.6875
      -3687.672      -6115.053      -323.9834       5067.688       3946.234
      -577.2803      -2733.308      -1921.911      -1975.704      -1457.811
       653.2334       2407.238       3701.898       3357.653       629.0442
      -623.4580      -1595.695      -5632.389      -5611.040      -870.4844
       1714.382       3017.312       2552.608      -1175.328      -3715.632
      -2657.836      -614.5449       250.7800       840.4290       771.6295
       44.74609       728.3140       1882.588       2075.417       6.635010
      -1076.256       570.2749      -304.3579      -1607.601      -357.5186
       1718.859       1706.077       335.2539       2082.638       5221.181
       5817.341       1951.742      -4105.287      -6648.680      -2814.582
       4076.198       5147.501       203.6865      -3350.214      -3098.359
      -1145.568       722.7480       2546.094       1750.905      -672.5120
      -1194.688      -801.6128       831.0145       1082.410      -2012.298
      -3154.005      -1448.182       946.3477       3660.875       4392.999
       3228.925       1066.254      -1464.305      -1850.503       1253.916
       4446.043       2639.210      -1748.722      -2921.141      -1255.656
      -351.9116      -2043.494      -3165.082      -925.8486       2584.012
       4404.662       3442.143       330.6987      -2436.313      -2164.047
      -908.3519      -792.2656       1812.199       4963.254       2724.419
      -815.5137       477.2690       2073.791       1199.628       1843.378
       473.0928      -3813.331      -3817.321      -1897.318      -1119.287
       1074.508       2787.264       3605.592       3549.242       1398.728
      -1256.550      -2778.044      -476.3076       3469.322       5398.388
       5196.956       1877.331      -2681.264      -4301.199      -2431.159
       2202.666       7367.147       6243.996      -2064.803      -8727.151
      -7343.511      -1586.438       2269.535       3122.039       1814.172
       2574.461       4366.245       1384.967      -3772.203      -5324.005
      -1645.949       3622.328       4270.665       1551.359      -343.9395
      -2446.662      -3380.257      -330.4229       3151.500       3944.371
       3628.741       1998.882      -1193.584      -1628.727       1557.496
       3576.895       2509.015       74.65332      -2617.394      -3416.663
      -2118.509      -834.1700      -67.94336       282.2558       60.68799
      -542.9119      -551.5371       1782.062       4271.420       3195.645
      -133.8564      -3610.576      -6055.355      -3221.170       1991.106
       2860.251       2307.668       2492.740       1633.299      -443.3896
      -3796.538      -4924.708      -1573.002       1063.230       189.6677
       42.44385       70.57690      -421.7754       2252.250       3685.037
      -1152.621      -5784.816      -4574.107       33.22021       2323.994
       1569.882       569.0378      -1187.079      -1539.432       2129.692
       5227.121       2423.032      -2584.914      -3828.444      -3003.165
      -1453.563       955.4102       3338.857       2780.582      -718.4961
      -3803.273      -5897.278      -4203.012       740.3447       2404.104
       779.8270       172.3074       756.7490       986.4258      -595.6787
      -3657.992      -4659.430      -3508.094      -1197.467       672.8408
       1981.570       5645.915       6667.947      -835.9941      -8149.492
      -6414.540      -2108.432      -2102.292      -3831.867      -4071.794
      -1493.036       2633.693       7303.164       9148.239       2547.136
      -5894.967      -5609.508      -220.8818       3058.044       3138.123
       1000.465      -1989.918      -5284.311      -6818.539      -2501.074
       3580.306       3605.823      -988.7314      -3564.933      -2872.372
      -907.8716      -1183.419      -1433.687       1569.438       2137.963
       138.8998      -124.5195      -675.5879      -4282.281      -7280.022
      -4120.229       2952.158       9114.345       8073.227      -830.4629
      -7312.432      -7119.880      -2461.521       2227.307       1686.360
       1229.396       3211.885       3695.127       3033.186       79.60352
      -4393.816      -5418.315      -2207.978       2570.534       4299.441
       505.1416      -3665.620      -1822.753       3042.116       4106.412
       1556.203      -1436.026      -3337.799      -1477.383       1239.319
      -1397.530      -4762.691      -3331.841      -2171.325      -1401.567
       1979.001       3976.270       2183.641      -797.5137      -3077.219
      -3290.956      -113.0000       3319.313       3684.987       3587.358
       3619.977       549.4570      -3725.888      -5026.126      -3915.150
      -1226.863       1025.919       1876.531       2579.040       2212.801
      -310.4512      -2869.924      -2529.127       1075.765       3681.214
       2836.650       572.3325      -1089.101      -1402.170      -2644.732
      -1006.924       4611.382       4237.926       685.4082       1566.183
       4107.320       3490.588      -1610.781      -6927.264      -5947.674
      -246.6807       3719.654       3799.025       3239.886       4062.382
       1480.827      -3147.024      -3167.594      -2546.196      -2715.208
       1040.863       4400.270       2760.371       1543.893       1895.570
      -12.31091      -926.7744       1170.985       955.4517      -1253.069
      -921.1006       1597.988       2713.671       1470.926       834.8021
       1233.296      -453.8818      -2191.809      -784.1377       3538.871
       7375.475       6373.922       540.8057      -3599.977      -3060.878
      -1930.260      -1300.072       130.3538       1355.266       354.9028
      -1184.112      -2076.956      -2059.371       2040.340       4039.701
       1650.363       421.2922       452.6699       1073.070       645.5781
      -1258.154      -2046.616      -850.2700       1031.968       937.6212
       59.10059       635.3484       1539.076       822.8564       1258.395
       1988.414       336.7910      -519.2959      -716.3711      -2763.838
      -3337.156      -555.4307       2204.564       2709.189       502.7637
      -2842.586      -3920.515      -2880.672      -611.1201       2049.500
       2283.610       755.6060      -203.3965      -1861.890      -1899.117
       1925.036       5013.822       3977.244       2533.049       1270.890
      -1909.570      -3850.520      -2667.106      -1667.941      -1683.448
      -1262.899      -495.3691      -1593.126      -1671.224       4128.324
       7589.376       1844.306      -3532.268      -4096.996      -2947.652
      -190.2212       1879.506       2716.966       2917.275       226.3745
      -1804.462      -3512.843      -4124.110      -878.6880       864.1401
       607.5840       968.0543       163.3442      -1094.038      -1364.598
      -1447.080      -896.0317       757.6963       1601.480       806.8779
      -900.4280      -1230.096       689.3380       1709.963      -1700.065
      -4669.315      -2963.971       756.2510       2775.963       647.3179
      -2250.594      -1538.463      -605.7271       439.6924       3129.463
       3304.041       1250.836      -31.21484      -2637.702      -5355.164
      -4114.390      -1778.905      -795.8281       937.2695       2771.259
       4906.375       4559.738       1314.405      -1270.066      -3348.730
      -2610.871       1141.213       1433.645       201.0049       1542.274
       1214.490      -34.54578       367.8115      -1901.295      -3842.402
      -974.7334       2327.978       2656.771       873.3672      -1662.261
      -2508.546      -978.7583       2303.758       3877.731       1482.427
       936.4312       3018.264       1149.611      -1507.597      -1535.540
      -772.9429      -386.1372      -1426.709      -2063.801       321.4795
       2473.423       1627.035      -988.2930      -4189.271      -5759.505
      -3746.950       1895.291       7926.738       7393.557       1913.267
      -1708.756      -2887.681      -3372.209      -1816.212       444.6938
       1657.586       588.3584      -3235.659      -4324.290      -3.319824
       3148.684       1197.007      -1571.981      -1829.567      -246.9233
       1998.969       2248.249       2616.104       3092.858       240.7173
      -2989.218      -1679.462       1498.998       1000.536      -201.0874
      -61.29736      -2079.059      -2769.594       443.7852       3159.438
       3264.182       2664.470       628.0708      -1070.176      -243.4769
       261.3052      -1034.179      -2154.166      -1694.725      -1473.220
      -1789.446       1076.493       1504.655      -3234.117      -2853.699
       2611.368       3598.378       988.5718      -1140.995      -3042.506
      -2297.344       2353.724       4665.259       2834.323       724.5811
      -108.5264      -752.8872      -1594.679      -1669.329      -580.7351
       476.2295       1330.874       2143.032       1907.087       1125.910
       900.7927      -873.8718      -1567.293       1011.226       1848.639
      -145.0156      -2919.959      -5626.793      -2388.002       4841.810
       4840.077      -2068.305      -4987.127      -1891.741       1297.224
       2013.580       921.9453      -686.0063      -1262.346      -171.6951
       1243.298       462.4561       1010.951       3254.278       2156.400
      -148.8364      -900.0664      -2674.548      -1772.738       3350.841
       3908.594      -656.8740      -3720.033      -5048.522      -3399.481
       878.5811       3238.664       2191.411       1927.685       2470.555
       698.6845      -384.7719       564.9058      -372.0967      -4100.977
      -5728.464      -1102.539       3730.121       4540.903       2411.234
      -1138.070      -901.8979       1972.564       1294.995      -1831.290
      -3132.335      -1271.387      -200.6201      -91.07983       1137.010
       1116.460      -209.3300      -15.70032       873.9237       87.66406
      -2085.417      -2175.141       1862.473       5718.082       4003.507
       1570.473       1522.771      -492.2544      -2712.922      -1404.249
       326.1660      -387.4043      -2338.202      -3219.352      -2551.516
       450.8154       3669.337       2855.364       604.8135       1602.574
       3047.717       1872.908       68.02563      -123.8125      -2440.136
      -5166.767      -1761.920       1953.630       323.9443      -2037.281
      -1418.963       1740.395       2962.861       1919.730       779.5858
       237.5420      -624.6699      -3689.992      -6144.536      -4448.833
      -800.6218       698.6362       552.3474       1218.848       324.0918
      -1383.919      -1401.261      -297.8086       1135.534       1911.101
      -304.2559      -3042.980      -2496.506      -3839.781      -10948.71
      -18868.85      -23530.39      -23895.11      -18950.16      -8860.280
       611.8945       7132.639       9077.385       2102.670      -6882.932
      -7307.618       1091.340       9252.009       7244.987      -1163.044
      -1987.188       10147.77       23284.55       27097.30       24797.20
       22116.21       21352.98       17451.95       4562.566      -10931.83
      -18390.35      -18826.13      -20614.08      -20276.59      -10724.36
       3451.615       10789.82       5647.789      -6391.938      -11929.43
      -4190.879       10113.53       21101.27       18305.99       2849.336
      -10752.03      -17719.79      -19569.89      -18975.09      -13153.69
       7894.219       40663.02       61560.16       47519.19       1404.797
      -45122.55      -62117.46      -44937.84      -5267.984       32236.73
       41443.44       23055.48      -3236.717      -13600.66      -1166.219
       11946.80       9735.915       1149.191      -4903.852      -10950.99
      -19070.74      -27064.14      -28886.72      -18546.39      -1425.270
       11983.26       19754.95       23105.66       20144.19       11122.34
      -1615.750      -13309.52      -18572.80      -11226.47       5751.973
       18855.76       17888.05      -2477.844      -31758.60      -43527.67
      -23456.62       12939.27       35753.30       31540.56       6267.352
      -20053.43      -26572.15      -12227.91       7652.625       15174.46
       6655.683      -2185.691       1843.422       16376.35       23903.90
       11677.58      -7139.148      -19975.95      -28133.56      -32044.88
      -26682.59      -927.1719       35345.19       53468.62       41841.95
       16652.03       1758.112       99.49609      -2224.465      -10225.03
      -12456.49      -5916.809      -1613.262      -2494.771      -6048.975
      -7110.730      -1146.000       7447.266       12189.95       9921.894
       2279.684      -531.0908       721.0430      -6210.914      -19248.02
      -24551.23      -12897.11       11363.43       31179.29       27987.74
       1787.016      -22736.07      -26370.50      -11798.92       9451.367
       23479.65       17967.19      -2918.016      -15313.04      -7504.469
       7584.848       15725.56       8252.938      -10617.62      -21167.01
      -7468.070       21053.08       34137.99       21102.06       1201.281
      -10512.77      -9989.771      -2427.300       760.2056       1016.469
       5831.125       12096.81       15083.13       14688.98       7304.484
      -8359.492      -20904.62      -25915.63      -28310.66      -26027.56
      -19463.66      -14633.20      -13074.72      -6514.484       10907.54
       29001.23       34112.47       21889.56       1818.867      -11163.88
      -12482.96      -8430.543      -7344.680      -9047.010      -8226.217
      -4093.690       972.2930       4224.418       5052.883       6932.891
       13277.98       18114.95       14506.71       3880.459      -5123.097
      -6332.569      -3605.369      -2678.572      -2283.162       3012.621
       8925.405       7898.582      -725.0977      -13386.02      -20021.77
      -16071.29      -5799.373       3738.543       5970.186       1587.045
      -5289.258      -6027.129       6401.070       21826.36       22899.24
       6915.070      -11080.27      -15927.55      -5231.930       7889.924
       8777.973       1799.786       232.6582       4184.629       6915.691
       7619.274       4837.918      -2994.100      -7994.665      -3244.473
       6630.375       9900.002       2883.839      -3300.247      -4102.955
      -5878.818      -7183.871      -5542.933      -4241.883      -6014.189
      -9821.150      -10953.96      -9857.004      -11474.82      -13679.27
      -10569.47      -2173.863       6411.227       8893.783       6077.584
       5694.842       8082.811       8099.473       2030.750      -6273.609
      -7876.164      -3646.149      -75.76025       568.2290      -1403.241
      -2296.816      -886.8933      -478.9629      -2792.379      -6416.547
      -6205.261      -535.2285       4692.229       3448.586      -2511.587
      -2876.756       5348.371       11762.71       11280.08       6720.054
       1585.275       2206.193       8654.410       13205.83       10976.84
       2969.463      -5969.645      -9168.189      -6264.880      -3919.385
      -6908.438      -14248.05      -17645.62      -10354.97       3423.492
       13512.44       13757.87       5167.463      -5698.896      -10241.83
      -5777.141       1436.338       3230.105       1253.430       1003.524
       1442.630       223.3848      -2266.628      -4641.202      -4677.250
      -1100.576       5218.256       10522.00       7223.535      -5004.188
      -14213.57      -14065.73      -8493.109      -3179.102      -3006.253
      -5764.364      -2206.492       7362.637       11257.53       8242.500
       2807.019      -2116.926       561.5703       4911.452       1830.788
      -4210.732      -5670.097      -202.8770       5944.223       5946.118
      -508.6777      -7446.102      -9902.770      -10281.85      -9985.676
      -4471.211       6608.875       12671.10       7692.779      -2156.451
      -6517.260      -2281.007       2434.635       1424.716      -1702.376
      -2474.823      -2090.510      -515.5891       1005.482      -305.8762
      -935.3350      -1374.008      -4237.548      -3322.283       2921.656
       5492.149       617.9771      -3626.586       582.7637       8524.248
       10974.91       7864.648       4955.908       3823.550       3122.345
      -374.8730      -5650.422      -6444.050      -1660.303       5484.863
       7583.629       1691.676      -4068.501      -3201.996       3580.994
       10145.69       10842.27       6455.787       1058.781      -3595.692
      -5076.007      -2051.206      -205.4570      -2574.135      -4727.704
      -2594.217       1833.664       1422.381      -4515.587      -7447.317
      -1340.092       8657.531       14072.00       10905.38      -410.0586
      -10792.18      -10187.36      -610.5449       8789.582       11076.22
       5620.228      -1788.938      -4357.200      -1898.312      -2586.225
      -5380.179      -914.4854       4182.553       2335.816      -280.7949
      -791.3730      -3960.219      -9827.281      -9089.531       995.9062
