     0.02500000      -114267.3       66897.30      -12345.00      -12345.00
      -30.00999       247.0650      -45.61000      -12345.00      -12345.00
       0.000000       34.54000      -12345.00      -12345.00      -12345.00
      -12345.00      -12345.00      -12345.00      -12345.00      -12345.00
      -12345.00      -12345.00      -12345.00      -12345.00      -12345.00
      -12345.00      -12345.00      -12345.00      -12345.00      -12345.00
      -12345.00      -31.91720      -69.02180       2396.000       0.000000
      -31.23600      -65.83800       0.000000       167100.0       0.000000
      -12345.00      -12345.00      -12345.00      -12345.00      -12345.00
      -12345.00      -12345.00      -12345.00      -12345.00      -12345.00
       311.5040       255.1420       76.80139       2.800838      -12345.00
      -12345.00      0.1900886       0.000000       0.000000      -12345.00
      -12345.00      -12345.00      -12345.00      -12345.00      -12345.00
      -12345.00      -12345.00      -12345.00      -12345.00      -12345.00
      2008       318        11        13        16
        10         6    -12345    -12345     11084
    -12345    -12345    -12345    -12345    -12345
         1         7        13    -12345    -12345
    -12345    -12345    -12345    -12345    -12345
    -12345    -12345    -12345    -12345    -12345
    -12345    -12345    -12345    -12345    -12345
         1         1         1         1         1
SOMB    -12345          
        -12345  -12345  
-12345  -12345  -12345  
-12345  -12345  -12345  
-12345  -12345  -12345  
-12345  -12345  -12345  
-12345  -12345  BHZ     
ZL      -12345  -12345  
[...]
       326.8777       345.7392       318.5703       337.4102       311.7668
       330.0970       305.4810       325.3378       296.3900       312.2731
       283.8082       303.5414       274.0370       288.7910       260.5021
       275.8270       248.5104       266.6201       233.3042       248.7349
       217.6970       233.5431       205.3153       217.6423       186.2448
       204.6575       172.0900       188.3049       159.9995       175.6379
       145.0851       162.4124       132.3324       149.4370       118.8096
       133.7346       104.4793       124.8379       98.24863       118.1399
       92.86270       112.7699       85.49551       111.2420       87.14056
       112.9377       91.64053       117.9425       93.59171       119.4850
       98.84082       127.1761       107.1465       135.8741       112.3465
       140.2473       118.9417       148.6686       126.6483       154.1380
       129.1999       155.5376       134.2251       164.8009       140.5858
       168.4037       145.4934       171.4247       147.2510       173.5247
       148.0069       172.8272       143.6292       169.7252       145.6846
       171.2660       145.7083       168.9483       142.1133       169.2316
       142.1995       163.9836       139.6707       164.3160       135.7430
       161.1329       135.5682       161.0887       133.2092       158.7573
       134.1352       158.1479       129.6260       155.0523       131.4300
       156.8610       126.2294       151.8478       128.7969       153.6212
       124.3251       148.6940       121.0103       145.7755       118.4723
       141.1694       115.2880       140.4432       113.3544       133.0585
       102.9747       128.8478       101.3330       120.3632       91.22198
       112.6119       80.03860       104.5217       77.13995       95.35077
       66.04442       83.67804       50.28871       73.04349       41.39754
       63.68089       33.18953       54.07191       20.41782       39.81785
       8.641697       28.69447      -4.092091       17.46595      -17.78209
       2.456123      -33.53662      -14.04820      -49.04987      -27.60558
      -63.89484      -45.84088      -80.88843      -62.17987      -99.00424
      -80.20233      -117.7156      -97.05548      -133.0083      -114.1288
      -149.0674      -130.8331      -167.8746      -148.4520      -184.7302
      -165.5053      -199.8613      -182.6603      -219.7639      -198.2268
      -234.6271      -214.4988      -255.9070      -238.8737      -272.5608
      -251.4224      -292.9421      -278.0225      -316.1945      -293.8552
      -335.2980      -316.6655      -355.6893      -334.8367      -375.1292
      -356.2050      -395.6798      -376.6355      -415.5784      -396.4624
      -438.4388      -418.8464      -457.1089      -432.2173      -473.7363
      -458.0291      -491.2378      -466.1577      -505.3434      -483.6174
      -520.2863      -497.2297      -530.0405      -506.3904      -542.5806
      -517.6987      -552.9253      -528.5352      -557.7729      -527.6738
      -560.5322      -534.2786      -561.5669      -529.3019      -560.8164
      -532.6843      -563.3165      -531.9541      -558.1279      -526.4286
      -553.3279      -523.5916      -554.5364      -520.2036      -546.7023
      -513.1649      -538.5933      -504.0483      -527.0160      -490.1714
      -519.2336      -482.2179      -507.3832      -469.5591      -497.5916
      -461.4053      -486.7197      -445.7102      -468.0500      -427.6694
      -452.1403      -410.5198      -431.5897      -386.6536      -409.2426
      -370.7399      -392.8665      -350.6908      -371.7722      -328.6705
      -350.0380      -305.6310      -321.3419      -278.1891      -300.1283
      -253.5149      -270.4430      -228.0365      -247.6169      -202.3585
      -219.8863      -175.3860      -192.2866      -145.8533      -166.4199
      -126.7036      -142.8606      -100.6131      -123.5357      -83.10214
      -106.8027      -61.49911      -80.58751      -41.85667      -64.46046
      -22.39222      -49.80030      -12.39458      -34.46826       5.951504
      -19.04298       19.29530      -6.361649       34.90915       8.501266
       43.75932       15.10783       56.80376       31.30183       67.71161
       38.64191       77.59543       53.04602       88.30824       55.28508
       93.51779       63.69766       98.89807       69.58060       106.7213
       77.60880       114.1129       82.07397       119.5149       91.41794
       128.3292       96.67361       136.1273       105.9532       144.4891
       111.1770       148.8756       122.8243       161.7264       126.2178
       164.1837       134.1547       173.9156       145.8983       185.6630
       150.6570       190.6414       164.4453       205.3801       177.4787
       217.6948       191.8346       238.3950       212.1935       253.0942
       225.6545       269.7634       245.4647       290.9012       266.4503
       310.9816       289.4484       335.6212       313.9111       358.5411
       337.5110       382.9004       359.2206       402.9324       379.7659
       422.8177       396.7365       442.7524       420.9697       460.9058
       434.3082       476.2661       446.5909       482.8540       454.7905
       494.1421       463.6945       499.1235       468.9109       503.0081
       469.9729       506.3257       472.3772       507.9543       481.9404
       518.1355       485.8057       523.2312       495.5601       532.9277
       503.5303       539.5137       510.4109       549.8513       523.0671
       561.0146       535.5033       576.6326       548.2810       589.4194
       563.5621       599.3369       571.4944       612.2502       583.0603
       621.2258       593.0083       629.8987       596.5635       632.9753
       602.1506       638.1218       603.1929       638.7473       598.8811
       626.6469       584.7063       618.7498       577.9081       607.8286
       568.8755       596.9133       554.6168       584.5776       542.6404
       567.5398       520.6733       547.0685       499.9988       516.2161
       468.3102       501.1146       450.0620       468.4437       425.6661
       453.3191       400.6442       417.5498       364.0026       390.9814
       344.6360       371.8354       328.3600       348.8925       299.4692
       334.2994       284.5425       301.3649       247.9492       277.6002
       232.7323       255.0289       201.5297       227.9772       180.7673
       210.0116       162.1987       185.1096       131.4374       158.8102
       110.9156       128.2589       73.51877       102.8359       56.03181
       73.51901       17.76127       45.36800      0.1268654       20.95499
      -32.73107      -11.47650      -62.59702      -37.56912      -79.08334
      -52.24652      -104.1739      -80.37820      -130.2036      -107.9716
      -154.3559      -128.5862      -175.5292      -154.7819      -201.7101
      -174.3610      -219.7222      -195.8958      -243.6277      -218.7519
      -266.3804      -241.1148      -288.4917      -263.1064      -304.9501
      -281.0752      -328.9611      -302.0078      -344.5424      -320.7935
      -363.7341      -334.8691      -377.8008      -351.5070      -393.7325
      -366.2156      -406.2750      -377.1659      -416.4165      -387.7349
      -429.4086      -396.9297      -438.2040      -408.0259      -447.2355
      -416.6641      -454.7322      -424.2676      -460.5009      -423.8964
      -466.4830      -436.4918      -475.3683      -445.6743      -482.3269
      -446.6816      -485.7043      -456.5770      -494.8080      -459.2977
      -494.0322      -464.8259      -505.3512      -473.4402      -507.3364
      -474.0016      -506.8124      -472.5176      -509.6228      -472.0967
      -504.4338      -466.8691      -499.1196      -462.4949      -495.9309
      -460.0975      -496.1090      -458.1013      -486.5403      -444.5869
      -476.2006      -436.5635      -469.1111      -428.1648      -456.2286
      -417.4874      -452.0874      -405.4536      -433.3871      -392.0239
      -421.3665      -378.0337      -404.2297      -359.2839      -391.3057
      -347.4731      -378.4972      -336.4608      -364.5441      -323.1245
      -351.7045      -305.1425      -337.9913      -298.0117      -328.5477
      -286.5002      -317.5400      -276.8580      -309.8395      -271.6949
      -302.8347      -262.7188      -295.8568      -258.5499      -295.6676
      -257.2922      -291.7713      -254.9847      -288.3090      -250.8275
      -287.8045      -250.8165      -287.6313      -252.4515      -290.6437
      -253.4930      -293.0328      -261.1516      -300.3622      -266.4059
      -308.0323      -275.7963      -316.2301      -281.1963      -318.4595
      -286.7841      -327.1683      -293.7184      -335.2711      -299.0688
      -334.3143      -300.0440      -338.4252      -298.4286      -336.6251
      -300.8490      -335.0085      -297.3422      -336.1085      -297.4888
      -335.1544      -295.0452      -325.8091      -285.1627      -322.6824
      -281.3448      -311.8947      -268.6741      -299.4785      -258.1732
      -291.2993      -246.4278      -273.9788      -227.7960      -256.1329
      -209.1974      -238.4497      -187.3721      -212.5670      -164.8145
      -193.2169      -147.8655      -179.4423      -129.4424      -157.6106
      -111.5818      -142.8619      -95.07956      -126.5394      -80.37515
      -113.3304      -66.84184      -100.2829      -54.96448      -90.43625
      -48.08812      -86.24959      -44.39307      -82.08873      -38.59973
      -79.44461      -41.94113      -81.56238      -41.87405      -83.03989
      -43.54602      -85.38635      -41.44356      -79.94559      -42.23830
      -79.72824      -36.14120      -77.53763      -38.36177      -76.68951
      -34.10782      -69.52808      -23.98219      -59.62880      -19.00776
      -56.38671      -11.83463      -46.16292      -1.019341      -34.87508
       7.839499      -23.59565       22.26587      -11.48290       33.18467
       1.863640       47.41837       19.24292       68.69443       41.22600
       90.07010       57.91443       102.8914       74.02271       125.0622
       95.47284       140.5827       109.9710       162.3350       136.0131
       182.2921       152.9685       204.3341       173.7054       223.9351
       198.1089       250.7382       220.2647       271.0787       241.9206
       291.5759       266.7063       316.0446       282.0165       329.9543
       302.3416       354.5011       324.8798       376.4287       349.9116
       402.4253       370.9291       422.0388       393.9958       443.4285
       411.6379       461.8788       431.0291       484.1538       453.8789
       505.3066       478.0502       531.6843       499.8511       549.8698
       519.0808       569.0881       540.8004       594.2598       563.1919
       614.1936       583.6827       632.4685       602.6094       654.6785
       623.9946       674.8281       645.3474       698.3677       673.0945
       726.0083       696.2417       748.0361       721.1494       772.9634
       743.3594       796.4912       768.4504       821.8650       790.4221
       840.6716       808.0684       860.3508       826.6233       875.2329
       838.7776       885.6792       851.1592       900.8452       862.7498
       911.0554       872.7720       921.2012       880.2791       921.6836
       877.1392       920.3821       877.3418       920.5293       877.0457
       914.7224       873.7102       914.3965       866.9307       901.8191
       852.6660       887.9929       838.7920       870.1118       817.6392
       849.8464       793.1147       823.6621       768.4033       796.6309
       738.8960       765.9556       707.2610       732.9163       670.1697
       694.3096       631.0615       654.3643       590.2952       611.7725
       548.4299       572.8293       504.9580       520.7753       454.8746
       475.0542       404.0970       421.0188       354.6063       373.3869
       301.1145       319.9659       252.2925       270.8407       196.8978
       214.0159       145.0490       162.5905       89.68896       104.0385
       36.55578       58.47699      -11.48281       4.217545      -65.04260
      -40.62622      -108.4026      -91.21771      -153.9822      -125.0175
      -194.1033      -181.1058      -246.0640      -214.3981      -276.1636
      -263.5034      -333.6075      -297.9249      -357.2388      -350.7673
      -420.7758      -367.7250      -434.3809      -449.7092      -524.6818
      -439.2454      -504.7439      -559.1167      -642.0753      -477.4081
      -491.7855      -246.0117       1771.973       9111.203       23969.12
       46464.56       66897.30       59988.62      -6605.656      -64613.80
      -5503.562       26044.75      -77397.03      -114267.3      -51388.45
      -24976.81      -5798.672       39744.24       45110.30      -1916.689
      -11373.55       37056.48       37411.23      -30797.23      -56750.28
      -2973.020       20568.05      -17343.71      -12826.50       37534.36
       58008.44       33589.69      -14107.58      -36508.68      -16411.04
       9172.485       6777.355      -12817.65      -12649.45      -8457.898
      -21872.72      -22912.12      -2844.141       20304.52       34019.84
       17636.76      -17441.36      -22059.88       1744.080       6893.727
      -12568.43      -20149.27       5000.062       29227.95       7421.525
      -14446.73       1736.928       4861.880      -3954.107       2771.012
      -11384.52      -34099.97      -14381.73       16287.00       4191.336
      -14178.68       3371.652       18673.70       10348.63      -4128.105
      -18602.02      -10907.10       20103.36       29078.62       4120.277
      -16967.62      -11737.18      -1936.012      -4915.125      -9241.450
      -5450.494       4336.619       8773.963       7292.638       2342.809
      -8639.395      -14267.54       1964.441       22261.17       13779.89
      -16728.20      -20397.71       11839.44       18326.50      -14409.16
      -25718.21       1370.934       23050.75       8218.898      -21399.03
      -24544.66      -4620.645       5353.553       7403.035       9411.160
       3844.658       4424.457       13655.07       9703.033       519.0020
       5278.824       11505.57       2089.352      -7748.826      -5229.551
      -2824.213      -3712.931      -370.7366       266.6250       1558.209
       7006.370       2938.906      -3873.729      -6392.418      -12168.44
      -14148.12      -10441.73      -8120.233      -3494.555       5516.404
       8211.222       514.2012      -5896.196      -1790.889       7152.945
       13582.08       11950.58       560.5664      -6457.305       2100.119
       7919.840      -5243.375      -18000.97      -10441.91       4007.559
       8979.168       6115.980       8252.562       11652.14       10798.40
       14329.47       11212.93      -2707.594      -11480.34      -13990.54
      -7654.031       2709.001       2987.165      -487.0938      -6449.639
      -13017.18      -4746.397       3640.743      -789.8105      -4245.285
      -5555.680      -6697.104       1315.078       12401.67       10237.59
      -4635.547      -13346.78      -6234.208       3166.611       1333.479
      -2632.535      -232.7197       1834.389       2562.195       7498.209
       10376.24       7265.664       7319.871       9417.098       5414.656
       1088.174       129.5231       639.0771      -1936.384      -6229.972
      -2140.404       3466.284      -396.8047      -3583.626       1110.704
       4548.686      -2399.010      -9324.404      -7616.721      -3642.788
      -556.4473       2387.127       5373.113       7547.119       6281.215
       4568.083       3402.575      -1796.102      -6871.984      -6321.592
      -4277.192      -1770.270       1851.029      -677.0210      -4182.631
       5400.754       12931.71       7307.189       1602.618       2399.581
       5047.792       3823.214      -1029.318      -5336.271      -7290.940
      -1692.282       5627.979       5360.670       2174.764      -1811.135
      -2726.973       1320.027       942.3022      -927.2500       5795.361
       10613.84       986.9531      -9589.024      -7625.012       1749.934
       5423.131       1003.719      -4188.213      -5218.301      -2597.312
       1768.590       5647.741       6362.555       1877.916      -1676.791
       1839.771       4350.872       1941.226       3958.454       3791.844
      -3981.346      -8105.689      -7245.066      -4391.871      -701.5449
       2522.574       7121.135       7529.621       4836.951       3813.965
      -3971.609      -11646.70      -775.4023       13126.44       8083.055
      -3455.596      -6519.317      -2136.596       5904.556       4002.529
      -6506.039      -10240.11      -4980.434       3493.049       7736.262
       5666.325       3395.719       2854.875       5185.205       10028.94
       5287.969      -7509.549      -10941.23      -5343.830      -2953.665
      -6184.774      -3037.057       6936.947       8732.871       4125.939
       2236.612      -818.9561      -1015.463      -1145.508      -10000.50
      -15060.52      -9126.317      -1702.338       4065.000       6893.581
       6279.150       2124.272      -4144.403      -4727.832      -823.7881
      -1112.342      -4038.246      -2484.240       4531.871       10081.99
       10040.57      -220.5195      -14880.27      -13813.44       4068.688
       13841.63       4558.236      -8243.176      -11289.69      -1603.863
       11305.60       12526.28       2525.049      -8261.162      -9097.369
      -3835.940      -2284.633      -3845.480      -6133.794      -3814.429
       4188.373       6686.510       6929.934       9765.570       5758.961
      -2540.828      -9743.531      -14571.30      -7167.614       4613.854
       6883.850       2701.382      -648.0918       5781.283       13004.68
       6480.398      -4813.049      -8534.545      -1147.049       789.9844
      -8787.383      -13926.67      -13116.89      -7172.312       4128.117
       11522.68       9793.141       5853.863       5234.388       2991.833
       958.7871       525.4082       1862.337       472.8379      -7964.918
      -8552.629       2214.516       7545.475       6294.351       4287.309
