     0.02500000      -56718.60       46079.43      -12345.00      -12345.00
      -30.00999       247.0650      -45.61000      -12345.00      -12345.00
       0.000000       34.54000      -12345.00      -12345.00      -12345.00
      -12345.00      -12345.00      -12345.00      -12345.00      -12345.00
      -12345.00      -12345.00      -12345.00      -12345.00      -12345.00
      -12345.00      -12345.00      -12345.00      -12345.00      -12345.00
      -12345.00      -31.91720      -69.02180       2396.000       0.000000
      -31.23600      -65.83800       0.000000       167100.0       0.000000
      -12345.00      -12345.00      -12345.00      -12345.00      -12345.00
      -12345.00      -12345.00      -12345.00      -12345.00      -12345.00
       311.5040       255.1420       76.80139       2.800838      -12345.00
      -12345.00     0.02217159       90.00000       90.00000      -12345.00
      -12345.00      -12345.00      -12345.00      -12345.00      -12345.00
      -12345.00      -12345.00      -12345.00      -12345.00      -12345.00
      2008       318        11        13        16
        10         6    -12345    -12345     11084
    -12345    -12345    -12345    -12345    -12345
         1         7        13    -12345    -12345
    -12345    -12345    -12345    -12345    -12345
    -12345    -12345    -12345    -12345    -12345
    -12345    -12345    -12345    -12345    -12345
         1         1         1         1         1
SOMB    -12345          
        -12345  -12345  
-12345  -12345  -12345  
-12345  -12345  -12345  
-12345  -12345  -12345  
-12345  -12345  -12345  
-12345  -12345  BHE     
ZL      -12345  -12345  
[...]
       41.38326       32.21219       53.72910       51.63037       72.65616
       64.63589       87.58542       83.60468       105.3598       99.79547
       121.1328       116.5558       137.9232       132.5115       154.7063
       148.9190       170.0077       161.3583       184.0864       176.6991
       194.1692       181.5342       197.0436       188.8407       204.6844
       191.2772       202.4999       186.0967       202.0938       183.2461
       191.2434       172.7031       179.3143       153.1596       158.7483
       133.2754       139.3144       116.9080       117.5788       92.79346
       99.99283       74.97917       73.75151       46.60408       51.21846
       26.36364       26.02743      -3.002106      -5.558777      -34.35638
      -28.08725      -52.29001      -49.85542      -77.42377      -72.12613
      -97.26132      -94.49896      -116.6586      -107.9131      -135.2005
      -129.3953      -152.8965      -147.2442      -169.6049      -160.2817
      -182.0409      -171.6962      -191.9442      -178.4355      -196.0169
      -183.3370      -202.5577      -187.0418      -206.7728      -192.1756
      -205.6073      -193.2687      -207.1573      -185.4149      -205.0442
      -189.0582      -201.0100      -184.5074      -203.1154      -186.2638
      -201.4375      -183.5995      -203.2269      -185.6261      -200.1573
      -185.7093      -199.1547      -185.7051      -202.3683      -181.2286
      -198.3074      -184.5725      -202.7635      -184.6634      -199.3857
      -181.3938      -200.7103      -187.0063      -205.6208      -186.1746
      -202.0707      -184.7097      -200.7578      -181.2407      -201.5121
      -186.6647      -203.3566      -190.8598      -205.6926      -185.2301
      -203.7786      -189.2437      -207.6747      -189.9915      -208.4585
      -191.2808      -211.0419      -192.9062      -213.4528      -198.9856
      -213.8403      -196.3580      -215.8016      -197.1412      -215.5127
      -199.7894      -215.0408      -192.1043      -212.1276      -193.0535
      -209.5518      -191.7466      -206.3258      -186.2869      -200.7087
      -174.6808      -188.6587      -169.8047      -183.4259      -164.2401
      -175.1931      -152.8735      -166.8206      -146.4070      -152.4329
      -131.2548      -144.3350      -119.9664      -130.3935      -113.5378
      -125.8714      -106.3986      -117.1513      -96.67847      -109.5937
      -87.83356      -98.85858      -80.86096      -90.94101      -72.79620
      -86.65540      -65.85471      -82.24619      -67.48351      -82.09151
      -54.61853      -64.06628      -48.53632      -59.62581      -33.29987
      -41.62643      -18.85703      -27.99063      -1.516817      -13.32539
       7.794109      0.4426994       22.45521       14.92715       34.66237
       26.99132       48.99323       41.57974       61.39189       53.99249
       77.00287       64.98767       84.45895       76.52011       99.62671
       90.27704       110.1855       101.9827       121.3384       114.8593
       140.6877       132.0365       153.0365       149.2473       175.1907
       165.7896       188.8167       182.5560       207.6636       198.1469
       220.4848       217.6851       239.9660       229.3000       256.5181
       250.6263       268.0709       261.6073       283.0160       272.9883
       289.7169       280.4810       305.5660       298.7316       319.5140
       311.2917       334.2103       326.3746       347.4636       344.0780
       365.9524       360.1399       383.8672       380.8085       400.5271
       396.9136       423.8936       415.1713       430.9885       423.8431
       446.6132       438.7114       455.5835       450.9791       467.1725
       454.1608       472.7379       466.0084       482.1814       467.8763
       480.0034       465.1382       476.8618       465.3081       477.8344
       465.9625       474.3593       461.8496       476.0219       460.2057
       467.6621       451.1632       460.8499       443.9027       451.4581
       434.0197       446.3889       428.4341       436.9197       424.8931
       436.0852       414.5217       424.6675       408.6570       418.7533
       399.7603       411.5842       393.6265       404.6099       385.7343
       395.7439       379.0398       390.6267       370.1547       380.2278
       360.7489       368.3256       346.3242       355.4943       336.9917
       339.9302       315.4503       323.7489       297.8854       301.0566
       278.7214       285.9932       262.1429       258.1747       230.0717
       233.7415       207.9838       202.0422       175.6362       177.3062
       151.0666       149.9489       117.9060       118.9101       88.98204
       86.30980       57.69872       54.10128       25.45832       25.03472
      -2.611160      -12.22650      -44.40466      -43.21822      -73.21909
      -77.32693      -104.0278      -100.7777      -130.1214      -129.5919
      -152.2072      -148.8589      -174.2305      -171.1777      -196.4017
      -193.3872      -216.4103      -210.0049      -232.0020      -224.3925
      -251.2364      -248.3134      -263.3036      -251.2078      -271.8206
      -266.2892      -283.8051      -273.2743      -292.6777      -284.1089
      -297.7014      -284.8647      -299.6896      -292.8176      -310.4985
      -296.8954      -309.1864      -302.2544      -313.4531      -300.3533
      -316.1864      -308.5421      -318.9979      -308.8937      -325.5363
      -313.5231      -325.5907      -317.0101      -331.3370      -326.1302
      -344.2543      -337.6272      -353.0758      -350.1095      -365.5535
      -353.9084      -367.6082      -364.4370      -382.8679      -375.9274
      -389.4475      -383.2675      -394.9574      -376.0432      -391.8406
      -394.9297      -416.8616      -418.7825      -433.7316      -427.0253
      -448.4180      -437.5139      -442.5686      -440.4529      -453.6965
      -440.6399      -449.3044      -435.2130      -449.7057      -452.0385
      -465.0079      -460.4210      -465.5339      -451.2400      -461.0135
      -454.1179      -457.2434      -439.1157      -447.1980      -448.7528
      -459.6545      -444.5865      -445.8824      -438.1108      -450.4034
      -440.6549      -439.1284      -417.5984      -427.7789      -422.3542
      -428.8739      -417.9507      -424.4453      -408.9635      -415.6335
      -403.3469      -409.8838      -398.3575      -402.4827      -384.4292
      -386.6307      -366.2146      -368.7427      -353.2272      -352.7794
      -329.0972      -331.6489      -315.0090      -322.6993      -300.4850
      -293.5745      -277.9626      -282.2612      -262.0540      -256.7110
      -233.7155      -235.4565      -217.5755      -212.1578      -192.8925
      -193.3174      -171.0721      -170.1487      -153.5690      -149.6470
      -128.3961      -125.4647      -102.7110      -103.2024      -84.71806
      -83.65820      -68.26538      -68.50050      -46.67300      -42.16106
      -21.32177      -20.16333      -5.249485     -0.2364273       18.58018
       19.40102       40.65515       47.89696       65.03064       59.62582
       76.55389       85.31769       99.96896       93.61029       107.3148
       111.5626       124.3651       122.3758       136.6852       139.8523
       146.4440       143.5261       159.4564       160.7394       169.1501
       169.0267       185.1122       188.5784       194.3295       191.5925
       202.5697       205.7919       219.4936       216.7337       223.3794
       220.5935       232.8380       230.8854       234.9565       230.5237
       238.4670       234.6932       238.0189       227.3624       229.9024
       221.1346       221.1301       210.6225       212.3217       201.5296
       199.6748       188.6842       194.1389       187.2139       191.1925
       184.7410       189.8744       181.4578       186.7874       182.7164
       187.1274       186.2225       195.3756       190.4084       201.3555
       203.0198       214.8887       217.9009       232.9388       239.4014
       257.2980       265.1461       278.0333       282.1790       296.5845
       303.7274       316.3209       322.1185       336.7791       341.7750
       349.7959       357.9369       376.8826       376.1902       379.4316
       380.3562       387.6553       386.1636       386.2207       380.9348
       383.9867       377.3296       377.6443       372.0081       370.9923
       358.1467       352.2473       346.1241       344.5046       328.9000
       321.0964       313.4030       308.0268       290.3774       281.0914
       265.5151       255.3978       243.1288       234.5773       214.7371
       203.1267       189.7295       177.9099       160.5081       151.2404
       134.0002       120.8144       103.8652       98.84369       82.26062
       73.29112       59.27390       51.60364       41.00413       34.34680
       21.19280       18.74863       11.13290       5.725849      -5.035713
      -6.225155      -11.95927      -14.94309      -20.47990      -17.53839
      -22.28142      -20.75107      -28.63599      -30.98085      -35.22413
      -34.85316      -41.35201      -42.39951      -46.86166      -44.79819
      -54.83078      -57.85620      -62.10342      -62.80298      -70.48856
      -75.61319      -83.22699      -85.15930      -98.56320      -99.27222
      -102.0826      -106.6228      -118.3210      -123.5409      -130.1580
      -129.3937      -136.1682      -137.6223      -141.7361      -139.6247
      -141.0167      -139.3980      -143.2646      -143.5910      -146.8520
      -145.8402      -149.7048      -147.5074      -143.4218      -140.6406
      -143.6005      -137.2206      -134.5304      -134.8071      -132.9387
      -127.9968      -123.6477      -117.8455      -111.9980      -107.2146
      -101.7947      -98.59625      -92.03760      -83.43225      -71.80629
      -62.12839      -57.87616      -53.63216      -39.32424      -27.29104
      -20.66754      -7.367409       8.293694       17.23390       25.40361
       36.76115       50.73349       59.47650       68.46774       78.70044
       90.80933       98.65009       106.8116       115.2514       125.5914
       132.9210       143.4376       148.0970       155.5242       161.0266
       165.8398       167.4401       179.3675       183.7502       190.1403
       195.0483       204.7018       210.2560       216.2850       216.1003
       225.8904       227.2529       226.7922       227.2486       234.7277
       234.1790       234.0874       229.0730       232.2358       226.1740
       220.9929       214.0105       212.0093       207.4301       204.2792
       194.4517       194.4302       184.7540       178.7719       172.5370
       170.5765       158.2437       153.0808       141.9657       140.3433
       129.0329       131.8002       119.6289       113.0071       97.73157
       101.1572       91.21103       88.61789       72.60265       72.83479
       54.04092       50.35281       37.27900       33.66010       13.74334
       9.336151      -6.814564      -10.71095      -30.88605      -32.48386
      -44.59821      -46.07088      -62.83553      -61.37012      -70.71928
      -72.62250      -87.53909      -84.85184      -96.20987      -92.05353
      -103.5960      -98.44180      -110.8165      -110.1008      -119.8870
      -111.2133      -121.8857      -120.6286      -132.5423      -124.2305
      -135.2372      -131.1455      -139.7395      -133.1080      -144.3558
      -136.7924      -151.1482      -150.9404      -158.2884      -148.2133
      -159.9196      -154.8023      -164.3748      -154.1216      -167.5265
      -163.7801      -172.9207      -164.9194      -174.2306      -166.5087
      -173.3889      -162.5411      -170.8804      -163.4565      -168.0505
      -154.3282      -162.4878      -150.9447      -157.9156      -141.2496
      -147.3604      -135.4722      -141.2764      -123.9873      -125.6667
      -105.5092      -113.7145      -93.15363      -92.48712      -74.88521
      -84.81677      -61.98647      -64.59190      -44.86192      -52.67160
      -24.42761      -24.18785      -5.261086      -13.28514       18.80925
       20.59827       34.59807       20.34782       51.81683       52.91393
       58.56522       39.68680       91.35852       94.29015       74.36459
       29.44574      -23.83740      -695.7939      -2935.570      -7646.496
      -14629.04      -21154.86      -19791.94      -2114.594       12662.64
      -1171.141      -5264.875       28723.23       40100.40       8434.023
      -15636.73      -19070.50      -6276.727       10782.85      -806.1406
      -38888.14      -34122.73       27115.76       40170.49       20885.77
       35108.87       7017.996      -23740.80       22758.54       30972.97
      -40472.02      -56718.60       3683.477       29924.57      -3941.281
      -25440.11      -130.1719       20833.31       883.0391      -11538.06
       16171.79       19185.26      -17507.55      -11690.23       18308.70
       1793.852      -27134.52      -28756.02      -1890.367       32417.12
       23597.98       339.9521       3827.785      -3158.805      -18279.00
      -12695.01      -2549.320      -5313.088      -6795.074       3277.354
       8808.979       5869.117       5854.008       8944.193       10201.31
       9601.116      -675.9609      -9370.031      -4832.508       2332.141
       10189.99       2027.293      -14608.11      -10669.46      -5445.258
      -11321.99      -11106.57      -3219.859      -207.7607       2186.924
       9739.684       7467.750       4468.559       9577.291       4310.584
      -5333.130      -5118.262      -2986.967      -7874.875      -1022.018
       11239.53       6055.562       9840.457       20550.16       9705.453
      -11175.13      -24395.90      -22080.84      -3912.410       18672.38
       21044.66      -4498.406      -22086.51      -5485.721       11285.90
       5506.038       577.5625       4938.377       7984.540       3209.609
      -5998.320      -11839.66      -13572.78      -10393.82      -1641.818
       7452.662       9123.385      -69.38672      -11419.79      -11933.54
      -3619.863       2691.159      -215.0703      -6773.482      -5171.449
       1897.027       5290.830       8047.008       11031.44       12011.34
       15656.49       14898.12       1112.893      -9540.576      -6649.323
      -3513.519      -2839.315      -664.8525      -2915.493      -4784.549
       3311.355       13782.04       9718.041      -1676.461      -10060.15
      -16707.86      -11267.62       1458.696      -184.2754      -7922.905
      -2178.871       6641.622       4391.660       130.1660       2251.006
       1016.229      -7122.480      -7463.369      -2656.504      -7202.422
      -9695.671      -2014.453       9163.438       20968.52       17422.70
       5338.354       755.2129      -5985.283      -8508.143      -427.4141
       8804.816       12867.17       9505.371       3117.348      -3316.620
      -6501.016      -2341.388       4844.694       2926.121      -5240.188
      -12563.87      -16257.43      -10198.75      -5056.383      -8625.648
      -7720.098       6026.504       17876.94       9915.371      -983.4893
       879.7441       6627.160       8560.744       1831.368      -3182.493
      -299.0996      -1637.374      -1408.749       4314.047       3335.879
      -3824.023      -4401.079       2454.404       6732.470       2868.604
      -2330.178      -354.1714       1863.729       2176.709       4692.396
       3937.396      -2154.822      -7563.459      -3679.834       2834.098
       1031.118      -2169.546       894.4973       2318.327      -1055.537
      -2659.245       848.4360       1958.594      -5008.863      -8643.972
      -4568.010       799.3750       6022.055       8082.226       4771.125
      -2667.415      -6421.698      -383.1895       8423.598       13550.15
       14242.73       10248.19       1790.785      -11136.91      -17431.36
      -12040.27      -5689.162      -1779.291       2282.804       3050.654
      -187.6158      -1125.396       1666.707       2927.630       2142.748
      -437.2930      -3021.977      -4131.329      -2399.922       176.9082
       1565.129       7851.664       13006.77       7570.750      -1171.213
      -5740.223      -7467.133      -9235.582      -5434.960       3677.008
       6894.611       3017.938       2377.348       8524.787       9016.729
      -3745.301      -12618.22      -10227.05      -7213.282      -4245.808
       1617.376       5456.084       1310.373      -7598.459      -7685.181
       910.8853       3416.607      -3064.760      -9030.844      -3582.768
       7415.166       7687.847       3313.836       2202.826       2057.712
       1699.641       3358.614       4262.334      -1113.952      -3859.591
      -384.1317       150.4121      -1939.555      -1620.652       530.1240
       1629.122       3522.051       4005.615       1822.941      -928.7305
      -6194.402      -8776.438      -4735.338      -1143.488       2748.865
       6533.264       5076.095       559.5938      -8003.658      -13073.77
      -3783.850       6311.912       7655.430       3383.956      -168.4629
       2022.203       2968.817       845.7891      -2095.014      -7651.689
      -9584.830      -684.4492       8688.801       4374.427      -1662.500
      -820.0518       1769.394       4469.397       2941.876      -2938.230
      -6687.747      -4651.869       745.5283       1593.438      -992.9609
      -3884.281      -4204.994       3030.545       6976.683       2960.158
       1430.935       1943.528       3381.073       3399.550      -2178.420
      -6866.439      -4935.961      -2278.466      -1596.058      -359.6118
      -1406.623      -2933.367       1944.410       6862.688       4792.506
      -45.71680      -3862.369      -6656.492      -8783.188      -6847.303
       2881.648       12515.48       14869.13       10011.32       3621.806
      -2474.072      -9091.688      -12159.50      -7966.104       2022.762
       7442.282       3820.022       267.2295       1266.848       2432.191
       760.5872      -208.2778      -607.2949      -3965.310      -4373.565
       1243.212       4225.146       559.8926      -4645.553      -4386.798
      -2255.743      -1265.291       612.4424       2946.477       5710.166
