     0.02500000      -14034.97       10660.40      -12345.00      -12345.00
      -29.99500       244.4800      -42.03000      -12345.00      -12345.00
       0.000000       31.42000      -12345.00      -12345.00      -12345.00
      -12345.00      -12345.00      -12345.00      -12345.00      -12345.00
      -12345.00      -12345.00      -12345.00      -12345.00      -12345.00
      -12345.00      -12345.00      -12345.00      -12345.00      -12345.00
      -12345.00      -29.14120      -64.06430       218.0000       0.000000
      -31.23600      -65.83800       0.000000       167100.0       0.000000
      -12345.00      -12345.00      -12345.00      -12345.00      -12345.00
      -12345.00      -12345.00      -12345.00      -12345.00      -12345.00
       288.2653       36.78442       215.8968       2.591699      -12345.00
      -12345.00     0.03231520       0.000000       0.000000      -12345.00
      -12345.00      -12345.00      -12345.00      -12345.00      -12345.00
      -12345.00      -12345.00      -12345.00      -12345.00      -12345.00
      2008       318        11        13        12
       430         6    -12345    -12345     10980
    -12345    -12345    -12345    -12345    -12345
         1         7        13    -12345    -12345
    -12345    -12345    -12345    -12345    -12345
    -12345    -12345    -12345    -12345    -12345
    -12345    -12345    -12345    -12345    -12345
         1         1         1         1         1
ESP01   -12345          
01      -12345  -12345  
-12345  -12345  -12345  
-12345  -12345  -12345  
-12345  -12345  -12345  
-12345  -12345  -12345  
-12345  -12345  BHZ     
XH      -12345  -12345  
[...]
       206.8104       210.5246       207.7701       207.4647       208.5025
       210.5381       207.2585       210.2029       205.8210       204.8976
       202.4780       204.8773       206.4943       210.4659       207.4583
       203.7805       200.8422       203.1105       203.3182       207.3636
       204.5061       204.2761       199.8408       196.7028       187.6669
       184.1890       180.3302       181.2144       183.4193       181.6519
       171.4078       173.7361       170.1697       166.6686       166.5117
       162.3336       152.7757       151.5148       145.2759       140.4983
       134.8069       136.1989       130.6686       119.6056       109.6717
       112.8368       108.4957       101.6855       92.80060       90.71210
       81.18961       68.32263       56.17061       58.09320       53.30580
       42.95123       32.51836       31.21439       21.61814       9.285427
       2.899076       3.305504      -11.12845      -29.36716      -43.40875
      -44.54298      -52.36630      -57.68408      -68.16554      -76.87994
      -79.44379      -86.98843      -104.8895      -108.8091      -117.9348
      -127.1627      -135.3347      -135.7350      -145.0817      -161.6843
      -176.7828      -181.6779      -192.1757      -189.6461      -188.5976
      -194.2942      -203.6494      -197.8406      -200.2395      -217.8808
      -229.2993      -224.0518      -234.1815      -250.0721      -258.3964
      -253.3197      -261.4458      -269.0787      -270.3905      -270.8501
      -282.9916      -287.9166      -291.7562      -300.6224      -314.9545
      -316.0920      -315.1780      -318.1028      -328.2545      -320.9192
      -320.7429      -323.1390      -314.9888      -299.9000      -305.8501
      -324.9358      -355.9657      -369.5671      -383.2368      -395.1515
      -392.2429      -370.5366      -361.8483      -354.2814      -340.5702
      -319.7568      -322.8597      -323.6635      -326.1753      -345.0242
      -363.7756      -359.1982      -351.0154      -345.9087      -364.7451
      -376.3315      -371.7008      -354.2896      -334.4188      -309.2868
      -304.6851      -311.4447      -319.7809      -323.6860      -340.5236
      -340.2033      -319.9818      -300.0290      -304.0317      -312.8953
      -318.7845      -317.4761      -328.8324      -330.3894      -317.2880
      -305.7394      -322.3413      -327.6460      -301.0449      -256.7761
      -246.2147      -253.2817      -252.8239      -242.2851      -248.7463
      -244.8056      -231.1317      -228.4626      -233.8948      -212.9045
      -190.4285      -178.9599      -171.5508      -152.0839      -135.9544
      -132.9882      -134.6772      -114.2972      -103.7590      -100.0882
      -87.91814      -65.01106      -50.58237      -39.33881      -32.03288
      -22.92274      -15.59660     -0.5911655       5.746994       16.76007
       32.43406       39.41605       45.29584       67.70657       78.63715
       80.60580       90.71823       105.7578       110.7219       116.7431
       129.8350       143.5554       147.1686       157.1556       178.4579
       194.4961       190.6254       198.2457       222.3859       230.0912
       222.1000       236.0466       253.0430       255.8760       257.8839
       274.3505       288.2494       283.8503       282.4907       301.4824
       310.8098       314.3569       321.1997       328.5472       337.3394
       345.4900       348.5854       357.2605       372.5876       378.7522
       375.4382       395.9534       408.0112       395.0369       381.4456
       383.1931       395.2070       411.4003       424.2480       434.8041
       433.3766       426.3356       416.8176       413.0366       410.7419
       400.4891       386.9446       398.8850       407.7876       402.6731
       399.9526       404.6731       402.3877       401.2854       390.2290
       386.5925       386.9083       386.1665       383.0842       384.3539
       382.8052       377.0287       375.0664       382.6255       369.4753
       358.3492       353.6991       350.7705       347.8497       345.2347
       339.8829       334.4594       318.5309       303.9955       294.4004
       300.5251       304.5164       293.8488       283.9202       290.5957
       285.3551       276.5732       274.8275       281.2275       274.1792
       257.5670       251.6513       255.4443       233.5791       221.3884
       226.3582       230.3718       223.1036       218.0319       207.3353
       199.8394       191.4192       189.6810       181.9172       176.2888
       168.3423       168.3307       157.1899       145.6205       135.9499
       125.6992       108.3087       97.30695       80.07416       73.42336
       77.05249       76.97485       73.77469       85.17093       80.04996
       64.29022       52.89098       48.46778       39.83572       33.59907
       20.20026       11.92951      -6.817879      -33.31241      -40.40382
      -34.03717      -48.31134      -50.58194      -42.42921      -44.29347
      -58.65141      -53.62962      -54.95688      -69.27771      -76.15543
      -72.69257      -79.86459      -87.98087      -106.2916      -114.5469
      -116.1564      -118.1946      -123.2441      -119.7070      -123.6901
      -132.1272      -134.5729      -123.7689      -128.5113      -137.1819
      -148.8760      -159.3619      -165.9624      -171.5629      -183.2374
      -185.3219      -184.2214      -182.8071      -187.4349      -193.5898
      -202.2636      -206.1236      -215.0129      -214.8195      -215.4570
      -222.7284      -224.7684      -228.3219      -246.1117      -251.1913
      -244.8931      -239.8439      -247.9055      -255.7740      -261.3092
      -260.7833      -262.1658      -268.3079      -270.7775      -266.2880
      -264.1571      -256.6578      -261.4493      -273.4033      -282.7871
      -280.9645      -271.0474      -260.9626      -257.5785      -252.2559
      -253.5186      -265.3548      -269.2857      -254.3977      -248.6498
      -256.1661      -268.1096      -266.4725      -264.5688      -258.5964
      -249.5665      -242.9461      -241.4694      -227.6079      -217.2211
      -220.2508      -223.0283      -214.8152      -217.5854      -215.9309
      -216.9621      -224.1260      -223.4033      -210.5888      -206.2596
      -196.8351      -193.5464      -189.7147      -188.3461      -189.4663
      -191.8911      -187.1948      -188.8917      -185.8876      -185.6166
      -179.6113      -170.1832      -159.9481      -150.7050      -136.7610
      -136.6760      -148.3392      -161.6934      -159.8694      -161.2203
      -165.4671      -168.7608      -159.3228      -153.1861      -152.2991
      -140.7686      -123.4484      -124.2823      -133.9642      -142.2581
      -141.6356      -147.1782      -158.5762      -163.5800      -159.9654
      -167.6215      -167.4300      -154.6447      -147.6336      -157.7635
      -161.0830      -157.4852      -157.1918      -171.2708      -177.5816
      -170.6586      -167.3605      -178.7958      -171.5735      -157.8188
      -158.9670      -167.6844      -160.8334      -155.8363      -162.0739
      -169.5947      -160.2339      -158.1025      -164.2906      -163.4911
      -157.6543      -162.5427      -163.4790      -157.9174      -147.8989
      -141.0854      -135.3096      -129.3242      -130.5434      -145.0658
      -147.1410      -135.8927      -123.0254      -113.9741      -109.7414
      -107.5657      -110.1686      -121.4796      -120.6230      -108.5150
      -89.04486      -76.79604      -74.98865      -70.71550      -67.18913
      -71.67404      -67.69693      -58.40904      -43.68529      -35.37734
      -32.70272      -25.41305      -13.83497      -12.23477      -1.032791
       15.90791       19.67364       13.51879       18.38910       25.82141
       27.42909       29.85562       48.22664       59.16650       61.80865
       65.05859       77.60884       83.68155       88.99155       94.38455
       96.32739       98.09854       111.7578       122.8669       134.7493
       144.2616       146.7997       138.8068       145.4323       153.7253
       155.3687       160.1317       175.1407       186.4771       188.8253
       186.1743       188.3082       184.4677       182.6410       186.7294
       195.4144       200.5898       211.1602       213.1970       211.3642
       219.5485       228.1180       224.0010       228.9471       233.5236
       232.3660       225.4720       229.0966       240.8142       246.0341
       244.5850       249.5312       249.3124       250.3070       251.9946
       257.7293       250.2255       237.6296       235.0183       238.6288
       233.4296       231.5300       235.7317       249.1741       249.6039
       238.3834       231.5370       230.6578       230.2722       233.2584
       228.2002       223.4494       222.0067       220.2942       212.1264
       209.0303       211.7359       208.2052       202.0531       198.1352
       197.9971       196.3965       188.8492       190.5641       193.9126
       192.5494       193.4101       192.5111       191.2379       191.2566
       190.2833       186.2839       183.7182       181.1559       183.6282
       184.6942       184.6481       193.2532       199.4272       199.4016
       199.7667       197.9431       197.7706       196.0314       196.0259
       197.9770       202.3007       200.9080       196.1986       197.7960
       201.8044       203.8484       206.6989       210.6572       209.6809
       208.1444       208.8907       203.7598       199.8486       197.4193
       200.1501       200.0629       191.5704       188.6240       194.0644
       194.3107       188.4631       187.1941       186.3783       174.3470
       162.3569       156.0380       157.2136       157.8134       157.9696
       156.8162       154.1805       144.1506       129.4228       122.2256
       118.6584       103.4003       88.71918       79.08734       66.88873
       52.71242       46.84225       46.56920       41.60115       32.56854
       25.90983       16.28493       5.103828      -6.627846      -14.45221
      -19.11387      -26.19163      -31.20247      -33.76953      -47.52539
      -62.74350      -74.41846      -86.39752      -98.22015      -101.3815
      -109.2016      -118.7159      -118.2352      -113.1721      -117.9108
      -125.0289      -135.6818      -144.8937      -153.3173      -164.1244
      -174.0197      -175.4432      -179.9014      -176.5157      -176.8199
      -179.6277      -180.3863      -183.3906      -195.4659      -198.8676
      -200.5613      -203.8894      -216.4282      -225.2181      -229.3097
      -232.5757      -240.9664      -243.6328      -243.0551      -239.0071
      -238.5769      -234.1637      -233.8921      -229.9702      -227.3333
      -225.1292      -227.5547      -224.6310      -224.6725      -226.0945
      -227.4553      -216.0860      -212.5485      -209.9505      -205.4491
      -194.7354      -195.3787      -196.0229      -189.4121      -179.7774
      -184.8377      -176.8806      -165.8996      -156.3719      -152.4650
      -145.1331      -141.9596      -135.7966      -132.5825      -122.8341
      -119.5044      -113.2819      -111.0797      -107.3033      -100.2483
      -88.40503      -89.69093      -83.76553      -78.40833      -72.50194
      -73.47549      -66.92311      -59.70422      -52.25842      -56.67261
      -54.60863      -48.17767      -40.66885      -48.15741      -46.11411
      -38.43225      -34.68944      -43.70030      -39.53115      -36.97360
      -36.74979      -40.47948      -36.27502      -40.83342      -40.05264
      -36.46551      -29.98341      -31.87224      -28.64556      -29.50620
      -30.39117      -37.30981      -32.99944      -34.27086      -31.17740
      -31.23987      -33.94199      -39.68972      -31.41989      -30.79002
      -28.90263      -28.77654      -21.95847      -20.61255      -14.61290
      -14.00194      -10.66372      -10.64010      -4.480782      -1.264112
       3.797106       2.842472       12.58611       15.69328       16.54708
       13.52534       20.87208       24.52422       32.78271       36.17325
       41.37784       36.82465       38.59335       42.35222       50.88364
       49.80965       54.62601       53.67125       58.49951       59.63193
       64.32843       63.62953       67.39197       68.20255       76.39412
       73.51169       77.98705       74.62857       74.59419       71.28027
       72.91443       72.89844       80.70152       77.14233       76.74927
       69.59775       72.91394       69.44754       60.94940       33.78516
      -103.2332      -490.8870      -690.5166      -59.76172       2758.854
       7388.426       9521.549       8034.830       1893.416      -10319.23
      -14034.97       651.5596       8122.752      -2727.346      -6032.761
      -3166.997      -3344.432       1590.062       5785.867       3170.585
      -3162.155      -3467.724       1192.336       1230.036       315.9237
      -723.6136      -173.9810       950.1971      -236.9878       2138.766
       3100.369       651.5629       387.7568       1234.961       2411.244
      -326.0059      -6094.437      -5660.121      -3964.035      -10701.32
      -10930.14       1953.797       6785.992       2026.059       4400.018
       10660.40       8214.728       2730.860       468.5039      -2407.604
      -5811.131      -7744.275      -7336.357      -2994.101       4207.674
       6899.145       4359.364       1340.120       1260.446       2882.837
      -1783.145      -9994.035      -10625.82      -4185.307       2392.041
       5544.590       4773.367       2474.622       1768.905       1245.993
      -2438.299      -4531.938      -936.3564       2712.364       3309.250
       2845.213       633.4307      -2908.520      -5428.705      -5442.563
      -83.17676       5810.005       4074.398      -1462.278      -2248.326
      -859.2136       85.06982       3137.795       1678.079      -2102.414
       142.8730       2557.231       290.3323      -1360.042       610.7261
       70.92773      -2516.529      -1860.812      -1822.628      -2930.310
      -570.9678       1763.062       1147.490       324.2517       468.4082
       1184.665       541.5879       425.3945       1906.718       521.3857
      -2855.317      -4775.438      -1639.500       5904.320       7742.239
       1805.463      -2624.604      -1488.573       881.3247      -76.36426
      -3206.978      -4644.932      -3041.846      -1228.976      -318.0161
       1695.039       3504.265       3025.355       1404.505       807.6896
       846.7751      -223.5852      -805.8164      -2414.363      -3631.380
      -1414.786       161.8232       846.5347       1139.317       345.4253
       1220.723       2707.746       156.0420      -3209.565      -2698.948
      -1057.952       847.0000       1659.609       875.9237       508.5681
       129.1665       236.7358      -515.4668      -2114.809      -1906.299
      -628.8691       746.1899       1781.972       1715.483       749.5930
       34.81689      -582.5288      -1243.472      -227.9478       2103.900
       828.2871      -2728.629      -3092.743      -2211.393      -1638.654
      -76.47070       3277.653       4924.298       1885.912       437.2157
       814.1748      -1563.138      -1699.321       248.3499      -1335.776
      -808.4443       2030.518       944.4060      -562.6709      -623.6362
       502.9917       1448.470       217.8124      -509.0088       104.4407
       841.1884       603.6802      -611.5349      -1644.731      -281.6227
       689.2257      -183.5902      -133.3167      -276.7317      -543.5792
      -453.2695       511.0747       1683.312       291.2766      -969.2261
      -819.6819      -1219.048       245.1016       2800.377       2110.163
      -305.3894      -4.511719       841.6763       387.0157      -271.7889
      -910.1904       1065.830       3013.132       3528.507       2858.751
      -600.8154      -3667.247      -3185.605       254.0837       1573.935
      -621.2228      -755.3186      -60.88794      -1108.630      -450.1901
       825.9546       709.1830       456.5007       23.91455       732.1641
       1877.040       1837.417       1150.502       19.26804       139.6788
       87.23926      -1107.832       487.6992       2970.010       1311.644
      -2009.709      -1261.399       1612.364       1684.529      -65.20459
      -1571.059      -1738.335       180.1436       2594.160       2774.390
       531.1891      -553.1686      -116.3246      -105.3247      -771.4929
      -1051.445       294.5107       1355.328       197.5099      -457.7229
       155.7490      -431.9404      -598.8369       154.9279      -316.5750
      -149.1597       1388.133       2261.045       1753.989       140.6287
      -6.897217       1241.546       272.2842      -1812.202      -2539.982
      -1474.010      -862.1843      -1198.241       496.8906       2098.002
       1315.659       492.0234      -637.1445      -1583.296      -210.4075
       304.0729      -786.0366       1214.375       2761.091       479.6102
      -608.5663       142.2634      -407.4905      -840.0746       269.5859
       430.3849       119.3967       444.7596       20.88965      -1292.897
      -2491.113      -1992.303      -656.8495       198.5903       975.6816
       1915.162       1171.612      -1064.058      -2179.841      -1464.963
       617.0217       1535.994       363.7539      -151.4229       945.0494
       981.7206      -424.0068      -27.39316       253.0662      -1007.327
      -1237.274      -815.0945      -120.2380       409.9685       573.8033
       502.9528       65.46484       752.7975       671.5383      -1141.676
      -1322.108      -104.6559      -26.16479       776.5076       1087.471
      -42.86340       213.6528      -504.0137      -2752.789      -3076.120
      -842.8030       1575.343       339.3218      -1798.929      -879.4688
       206.8452       999.4121       1183.164      -89.87695      -947.3379
      -1155.232      -356.5214       351.2034      -30.60303      -299.8535
       380.5623       1434.950       879.6099      -1161.186      -1884.085
      -127.9927       730.4557      -170.8716       305.8800       84.35107
      -1759.021      -2465.457      -1080.753       1327.997       2354.707
