     0.02500000      -14952.04       14280.38      -12345.00      -12345.00
      -29.99500       244.4800      -42.03000      -12345.00      -12345.00
       0.000000       31.42000      -12345.00      -12345.00      -12345.00
      -12345.00      -12345.00      -12345.00      -12345.00      -12345.00
      -12345.00      -12345.00      -12345.00      -12345.00      -12345.00
      -12345.00      -12345.00      -12345.00      -12345.00      -12345.00
      -12345.00      -29.14120      -64.06430       218.0000       0.000000
      -31.23600      -65.83800       0.000000       167100.0       0.000000
      -12345.00      -12345.00      -12345.00      -12345.00      -12345.00
      -12345.00      -12345.00      -12345.00      -12345.00      -12345.00
       288.2653       36.78442       215.8968       2.591699      -12345.00
      -12345.00    -0.09522711       0.000000       90.00000      -12345.00
      -12345.00      -12345.00      -12345.00      -12345.00      -12345.00
      -12345.00      -12345.00      -12345.00      -12345.00      -12345.00
      2008       318        11        13        12
       430         6    -12345    -12345     10980
    -12345    -12345    -12345    -12345    -12345
         1         7        13    -12345    -12345
    -12345    -12345    -12345    -12345    -12345
    -12345    -12345    -12345    -12345    -12345
    -12345    -12345    -12345    -12345    -12345
         1         1         1         1         1
ESP01   -12345          
01      -12345  -12345  
-12345  -12345  -12345  
-12345  -12345  -12345  
-12345  -12345  -12345  
-12345  -12345  -12345  
-12345  -12345  BHN     
XH      -12345  -12345  
[...]
       937.1863       1213.552       735.0569       354.3171      -181.0623
      -1023.662      -1601.270      -843.3340       1281.848       2533.363
       2063.282       1166.378      -80.28003      -714.7725       477.2168
       1552.184       1285.855       476.2646      -946.9326      -2295.066
      -2181.189      -606.6040       691.4227       640.7222      -27.92975
      -90.17773       604.2944       1054.703       1309.004       1557.717
       657.1418      -782.4346      -1694.535      -1961.269      -1284.309
      -530.4669      -20.46631       835.7366       1286.900       956.7294
       350.4901      -97.36584      -525.4640      -473.4792      -166.4409
      -923.4717      -1814.270      -1164.037      -202.0540       235.9761
       1185.301       1582.855       296.5347      -1335.911      -1420.035
      -76.25659       467.2866       745.2109       1113.455      -601.0098
      -2493.771      -1688.771      -1218.483      -2576.830      -2228.380
       509.2988       2016.976       1116.899       98.29004       186.8884
       570.4907       227.2578      -187.7923      -291.7426      -421.3635
       347.3665       1027.559       821.2412       1109.958       798.8369
      -1103.290      -2106.629      -1931.722      -1809.047      -937.7601
       384.6947       382.2852      -252.4880      -159.3203      -108.9800
      -826.9971      -1909.111      -1381.820       877.3992       1274.494
      -559.7217      -2007.237      -2426.107      -2092.907      -406.7939
       2249.317       3743.883       2672.730       358.5464      -1144.463
      -1800.108      -2271.283      -1745.141      -578.6323      -580.1251
      -393.4912       1679.427       4069.520       4774.564       3176.091
       751.7351      -298.7003      -382.9600      -1102.220      -2266.987
      -3417.602      -2288.757       1353.108       2511.547       651.2584
       160.4810       330.7786      -202.1877      -98.12183      -644.0247
      -1587.549      -836.9863       685.6655       984.7100      -629.7192
      -2236.683      -1039.451       2533.748       5181.812       4888.855
       1918.233      -2242.288      -5040.671      -4242.327      -1335.987
       127.6494       441.5454       920.9368      -21.60742      -1446.641
      -1233.951      -109.1553       1248.810       2705.042       2990.571
       1600.030      -235.9507      -1842.577      -2934.897      -1848.447
       1193.290       2341.661       707.6496      -428.5289      -65.90674
       607.2871       1284.802       1453.709       861.9902       360.8691
      -177.3521      -1194.545      -1537.213      -1392.758      -2014.284
      -919.0312       2008.663       2710.771       1150.920      -224.9487
      -1454.129      -2082.895      -588.5105       1020.472       916.5552
       888.1008       714.7970      -376.0535      -1031.838      -677.1423
      -101.3040       27.63434       219.1822       380.9141       62.46521
       174.9316       815.1270       1101.264       1250.633       1111.716
       24.18915      -272.4053       1087.703       1884.774       1179.643
      -49.29419      -913.4541      -619.7664      -274.0386      -1102.309
      -1285.678       17.99438       718.9143       449.7354       1242.309
       2215.666       1435.308       853.7866       1197.936       276.9180
      -1679.335      -2572.008      -2032.640      -1425.690      -1569.542
      -1568.704      -484.2107       724.1019       298.4131      -1373.356
      -2365.839      -1840.439      -810.5784      -630.7443      -658.7461
       509.7939       2486.647       3288.907       1971.348       64.25415
      -1046.944      -853.3486       809.4976       2465.955       2987.590
       3278.036       1930.635      -1290.497      -2428.204      -1440.110
      -1188.251      -814.4418       582.2623       438.8149      -1338.727
      -1867.385      -978.7134      -906.7546      -1333.900       371.8960
       2234.076       2197.578       2408.822       1797.042      -598.9668
      -1986.158      -2213.618      -1868.259      -204.1406       1468.772
       1566.517       360.3658      -571.8440      -226.2156       329.4380
       371.1157       174.6592       246.3391       651.5298       369.2661
       821.5156       2592.843       2064.764      -99.51514      -1132.762
      -1674.024      -1385.969       409.4468       1951.547       1117.194
      -695.2314      -1212.457      -1368.890      -1258.597       137.0181
       1052.974       425.0274       145.1635       237.8575       258.9446
       973.4072       955.9771      -188.4022      -774.1716      -495.8001
       101.5891       466.7144      -169.3855      -948.2900      -167.3733
       907.9714       286.2215      -352.3221      -128.0269      -624.6652
      -1023.689       197.0566       1980.153       2237.116       1408.326
       646.9150      -577.0259      -1405.183      -565.8481       940.5090
       1531.655       446.0591      -1490.929      -2194.536      -1251.812
      -50.44702       541.2258       524.8771       347.7413      -361.8784
      -1301.001      -1412.370      -1716.580      -1754.618      -43.77637
       1548.251       1788.362       1543.089       230.2349      -1265.026
      -1243.064      -1111.402      -329.2051       1822.011       1315.794
      -1512.895      -2183.346      -1276.064       155.1582       2039.252
       1580.625      -369.0413      -590.8152      -395.6759      -838.2693
       37.59131       1814.391       1611.319      -397.1123      -1824.428
      -2154.503      -2178.728      -1409.105       241.7950       574.5056
      -381.8751      -274.8079       546.4051       336.5044      -14.78149
       655.1526       690.6597      -1045.157      -2332.956      -1628.823
      -531.7396      -551.7069      -632.2246      -605.4385      -1200.764
      -2060.796      -3691.101      -4040.130      -1401.973       1279.958
       1969.671       1473.576       588.0125      -455.1011      -403.8042
       864.9570       756.2036      -804.1890      -1204.812      -770.5266
      -869.8517      -682.7715       317.8159       615.8323      -164.0819
      -541.2245       74.73047       1198.871       1764.372       1658.224
       1572.039       1113.461       1020.053       869.6570      -724.7295
      -1758.935      -1343.277      -941.2186      -426.4451       639.2419
       813.5684      -463.9583      -1284.228      -769.9199       163.2100
       634.2195       923.5916       1349.730       756.2207      -665.0679
      -741.7572      -202.2822      -946.8145      -1809.105      -1088.906
       347.3022       1053.416       1157.768       1535.250       1551.388
       150.2207      -880.8334      -454.7134      -300.7271      -876.9971
      -1678.299      -2525.432      -2434.222      -577.4707       1351.642
       1493.689       844.5449       1211.157       2135.222       1596.260
      -11.09180      -1486.193      -3032.144      -3293.965      -1331.800
       746.7412       2135.547       3772.739       3941.535       1462.753
      -938.1519      -1324.425      -433.2679       242.7656       171.4238
       298.9945       584.5047       318.9683      -418.2193      -425.1094
       756.8750       1641.441       1009.925      -415.0247      -381.4619
       961.2102       1122.788       313.8135      -487.3491      -1824.186
      -2443.194      -1092.176       282.6829       901.1304       1258.950
       999.4001       704.4121       1136.694       1246.853      -374.1514
      -2195.230      -2162.633      -1809.398      -1755.909      -643.8406
       409.0350       68.05072      -198.4634       759.1938       1821.993
       1979.740       1415.318       577.9814       85.87231       344.9841
       549.2551       651.3242       1304.049       1539.677       1060.075
       474.0005      -92.53271      -931.9485      -1173.759      -251.4019
      -59.08887      -1193.377      -2508.266      -3469.125      -3244.832
      -2282.710      -1794.267      -1453.487      -729.0950       365.8140
       999.9727       623.8140       637.1392       1254.896       1098.840
       250.9185      -440.5537      -777.6824      -162.8306       1029.382
       854.1455       121.9980      -179.9675      -1025.434      -1640.791
      -1635.893      -419.0254       1821.885       2455.557       1431.281
       768.6084       493.9789       261.8216       270.9871       313.0204
       207.5822       137.1310      -217.8914      -621.7909       44.66821
       940.8545       1040.817       676.8962       134.9636      -482.0967
      -1689.317      -1884.984      -522.1846       71.48346      -21.74353
       554.3967       878.1379      -294.1001      -904.8544       451.3763
       650.4414      -686.1707      -635.8517       170.6837      -93.34192
      -602.5166      -399.8005      -262.3490       20.78418       1292.322
       1876.598       1715.646       1915.011       1293.431      -146.9937
      -826.4719      -507.0230      -181.3599       62.47803       489.3582
       569.4954       209.0405      -776.9678      -2001.971      -2518.043
      -1915.057      -873.6204      -433.9547      -393.2551      -141.6094
       285.2356      -38.64648      -1248.895      -1333.677      -632.1472
      -741.1155      -935.5371      -1521.403      -2534.559      -1758.681
       343.5500       1316.812       949.0371       813.4702       1156.193
       985.1205       116.6828      -267.2738       409.3148       720.0214
       358.6060       795.3127       1376.412       603.6936      -365.2900
      -75.80475       68.08203       174.4727       1461.419       2103.828
       1034.914      -135.8574      -555.8560      -718.8545      -1036.986
      -1085.205      -211.9290       1101.993       1501.873       1024.409
       667.0187       203.1572      -970.3499      -1360.257       135.0776
       1721.783       1383.109      -112.2764      -1312.183      -1689.249
      -1198.718      -594.2603      -120.2573       617.5811       1078.500
       1251.691       845.6486      -284.9297      -640.9770      -177.5779
      -368.2728      -401.5869       593.5684       1348.041       1529.897
       1650.484       763.5760      -720.8047      -502.2251       1221.798
       1731.408       766.0300      -51.55457      -460.8174      -325.9631
       127.0745      -436.4534      -1001.504      -344.4945       150.9148
      -607.3826      -1418.110      -886.5695       91.87219       76.58691
      -620.5764      -1069.178      -1481.982      -2092.605      -1613.582
      -675.3521      -329.2224       27.98950       435.3577       784.9498
       400.7021      -1172.224      -2050.723      -782.4783       1181.021
       1601.815       851.8846      -198.0116      -567.2887       10.52881
       504.5989       1186.349       1606.740       421.9890      -619.1267
       371.5142       1120.848      -54.94434      -781.3418      -523.3833
      -1143.473      -2141.397      -2083.847      -1270.844      -647.4543
      -529.4149      -273.6145      -257.0861      -437.1438      -200.0638
       359.6318       1089.465       1293.103       1298.023       1514.521
       775.0020      -172.2191      -199.2696      -57.15515      -347.3542
      -376.5809       354.0945       1239.856       1222.767       554.8581
      -71.63037      -807.7847      -1291.440      -941.6565      -647.5027
      -411.5201      -158.1558      -1106.803      -1652.054      -788.1780
      -635.5107      -435.8247       384.1304       802.7700       1196.673
       1246.738       603.9697       811.6021       1381.316       821.0662
       208.8665       155.5483      -222.1304      -802.2783      -887.5420
      -719.9407      -464.5088       1381.047       4631.291       7421.814
       9378.641       10127.02       9492.619       8795.877       7911.061
       6334.304       4610.440       3600.833       2670.741       1134.523
       535.1241       349.8491      -940.1963      -2345.434      -3969.994
      -6675.375      -9152.014      -9747.695      -10180.94      -11579.84
      -12836.21      -12963.45      -10184.45      -4854.018       1057.453
       7185.219       11474.94       12970.57       13690.28       14280.38
       13298.99       11213.89       10340.81       10325.06       10144.38
       10800.50       12037.36       12975.66       13283.19       13144.68
       12886.34       11767.60       8538.908       3981.012       405.4453
      -2064.961      -4611.532      -5807.430      -4159.381      -953.8862
       1374.213       1779.823       1303.268       445.4619      -1572.488
      -2933.955      -2392.608      -2049.332      -3457.033      -4880.647
      -4597.023      -4082.188      -5135.699      -7222.363      -9442.117
      -11547.44      -13602.64      -14952.04      -14811.56      -13312.29
      -11598.67      -9941.596      -7567.492      -5536.816      -5233.044
      -5050.524      -4792.941      -6013.939      -7577.432      -7503.061
      -6818.359      -7433.465      -8171.078      -6752.619      -4537.684
      -3525.485      -2977.864      -2253.046      -2554.771      -3229.179
      -2381.254      -891.0828       290.3330       1541.366       2000.617
       1800.342       1978.592       2591.817       3693.619       5377.969
       6236.889       5078.654       2511.239       191.0562      -1229.885
      -1393.454      -131.6694       1378.397       2345.654       3055.702
       3846.027       5072.582       6057.145       5834.482       4221.868
       1631.666      -1681.170      -4427.839      -4725.450      -3586.243
      -3500.586      -4084.332      -3939.634      -3065.688      -2671.950
      -3004.145      -3000.920      -2220.036      -375.6602       2056.241
       3089.102       3423.624       3826.153       2940.780       1138.633
      -48.01062      -298.4556      -377.6946      -960.4520      -784.0137
       880.4326       2702.973       3848.791       4890.115       6552.041
       7556.760       6572.121       4860.908       2603.294       475.7751
       303.7539       1687.181       2537.771       2334.676       1665.628
       275.5615      -1047.902      -1445.227      -2373.652      -4152.988
      -5787.230      -6761.959      -6641.809      -5756.754      -5528.047
      -6027.857      -5809.832      -4427.989      -2745.735      -2249.609
      -3138.235      -3161.097      -1483.241      -195.5010      -1224.639
      -2704.180      -2330.473      -663.2902       242.3628      -250.0430
      -935.2749      -1398.438      -1233.675       28.83301       1598.984
       3443.432       5617.277       6811.342       6162.301       5171.243
       4720.022       3204.956       280.1270      -2084.731      -2676.611
      -1085.847       1110.694       2426.975       3840.294       4763.278
       3501.330       1137.553      -42.04761      -412.8877      -1387.562
      -2483.564      -3848.444      -5248.172      -5535.103      -4615.885
      -2628.504      -347.1162       713.4531       1249.745       2364.143
       2830.871       1853.357       1789.691       3499.451       4197.027
       4061.448       5018.760       4752.187       2390.716       794.6934
       909.7148       2089.521       3951.287       5200.340       5007.980
       3886.558       1940.174      -294.6006      -1550.566      -2334.291
      -2701.688      -2191.167      -1657.833      -673.6455       1148.014
       1484.885      -342.5591      -1634.608      -1174.300      -950.5886
      -1341.944      -480.8145       1006.303       835.4434      -560.5181
      -1311.847      -1235.265      -1101.270      -499.0516       201.4103
       323.1781       91.16455      -877.2175      -1466.000      -293.0458
       605.3047      -482.4404      -2142.314      -2380.298      -1171.184
       242.1729      -128.9062      -2553.477      -4194.701      -3469.876
      -1778.512      -1276.941      -2223.796      -2720.891      -2345.944
      -2024.380      -1954.648      -1373.979       94.25684       1442.951
       1604.993       1283.084       1616.632       1732.855       244.5093
      -936.7935       311.8149       2167.023       2950.826       3574.896
       3775.429       2655.302       2070.996       3733.376       5418.921
       4801.688       2635.299       1130.527       580.9800       77.77466
      -219.2947      -326.9760      -499.4284      -308.5098       212.9478
      -336.1504      -2338.679      -3918.959      -4872.193      -5089.906
      -3510.281      -1676.912      -1452.779      -1834.238      -1220.569
      -697.1792      -1378.036      -1433.422      -597.9761       331.8081
       2170.197       3844.032       3442.996       2166.985       1588.982
       1811.191       2431.242       2615.152       1421.239       38.06824
      -348.5444      -902.4331      -1886.543      -2987.977      -3630.027
      -2877.494      -1410.620       74.16467       761.5961       64.55078
      -1189.867      -1530.959      -313.3181       1063.614       1597.895
       1841.473       1443.991       503.6479       611.0356       1891.283
       2341.418       1870.740       2716.908       4626.647       4619.475
       2811.578       1453.776       838.7277       514.2302       441.1834
       145.6045      -508.0518      -1256.314      -2581.324      -3590.624
      -2703.996      -846.8702      -176.4385      -1169.960      -1586.363
      -787.6304      -622.4017      -896.9442      -6.311035       1616.301
       2864.107       3233.101       1976.244       463.5713       836.6465
       1970.803       2762.955       2901.886       2176.825       1912.522
       2388.799       1305.263      -1324.584      -2423.029      -1808.604
      -1084.664       116.2162       843.9204       95.01758      -430.0708
      -415.0684      -1399.732      -2774.073      -3378.585      -3633.529
      -3402.372      -2251.552      -1452.812      -1344.195      -1333.231
      -1247.017      -541.9604       731.1274       1541.040       1349.348
       855.3864       424.7217      -29.16870      -155.4834      -1112.238
      -2451.066      -2350.910      -1133.029       261.1421       1298.050
       1663.989       1504.531       1146.058       1061.410       1366.194
       1772.488       1866.576       1550.828       957.3010       411.3083
