     0.02500000      -23340.57       13318.25      -12345.00      -12345.00
      -29.99500       244.4800      -42.03000      -12345.00      -12345.00
       0.000000       31.42000      -12345.00      -12345.00      -12345.00
      -12345.00      -12345.00      -12345.00      -12345.00      -12345.00
      -12345.00      -12345.00      -12345.00      -12345.00      -12345.00
      -12345.00      -12345.00      -12345.00      -12345.00      -12345.00
      -12345.00      -29.14120      -64.06430       218.0000       0.000000
      -31.23600      -65.83800       0.000000       167100.0       0.000000
      -12345.00      -12345.00      -12345.00      -12345.00      -12345.00
      -12345.00      -12345.00      -12345.00      -12345.00      -12345.00
       288.2653       36.78442       215.8968       2.591699      -12345.00
      -12345.00      0.3000454       90.00000       90.00000      -12345.00
      -12345.00      -12345.00      -12345.00      -12345.00      -12345.00
      -12345.00      -12345.00      -12345.00      -12345.00      -12345.00
      2008       318        11        13        12
       430         6    -12345    -12345     10980
    -12345    -12345    -12345    -12345    -12345
         1         7        13    -12345    -12345
    -12345    -12345    -12345    -12345    -12345
    -12345    -12345    -12345    -12345    -12345
    -12345    -12345    -12345    -12345    -12345
         1         1         1         1         1
ESP01   -12345          
01      -12345  -12345  
-12345  -12345  -12345  
-12345  -12345  -12345  
-12345  -12345  -12345  
-12345  -12345  -12345  
-12345  -12345  BHE     
XH      -12345  -12345  
[...]
       1007.511       1818.991       1495.045      -505.3486      -2086.711
      -1282.420       695.3132       1179.703       513.6160       15.03516
      -70.63379       782.5010       1514.351       267.4541      -1468.291
      -1580.836      -113.8719       745.7184       3.899902      -846.9241
      -350.2183       589.5416       586.8330       272.8777       564.3707
       849.0278       331.2576      -1105.743      -1427.561       178.3831
       1277.117       487.6753      -235.3008       41.18518       261.0990
       425.7439       853.1248       761.3815       485.1113      -72.99316
      -921.3108      -1010.404      -137.6932       564.1392       209.6924
      -1126.343      -1168.056       759.6797       1758.638       1219.908
       713.1909       11.36755       10.13388       335.2058      -371.2913
      -483.1377       761.1907       1386.666       758.7609      -32.72913
       273.3184       1325.424       1974.223       1301.499      -70.87500
      -1366.829      -1539.522       162.7881       1610.604       1973.983
       2243.241       1275.583      -311.9385      -1113.112      -1357.930
      -1227.433       3.600098       1828.975       2272.622       668.3569
      -1077.206      -1607.207      -569.1621       1016.925       1036.980
      -1091.829      -2608.452      -1863.931      -280.8962       443.3890
       189.3789       104.9331       793.0684       1809.392       2274.331
       1117.490      -296.0933      -854.5505      -418.7537       387.3311
       862.6523       1192.086       755.7935      -799.4092      -2028.710
      -2117.958      -915.5059       611.9883       1339.612       2084.559
       2465.952       1028.180      -362.5647      -515.4515      -250.4523
      -170.8733       349.2466       1091.337       1043.707       1280.530
       2248.032       1147.756      -1782.568      -3011.548      -1253.155
       963.1936       1356.692       466.1499       282.0841       426.0981
       287.4055       685.5869       1180.482       554.4009      -1401.088
      -2966.409      -1563.887       1435.976       2715.979       874.2314
      -2188.259      -3139.521      -1154.486       1572.828       2354.383
       293.6094      -2078.504      -2690.771      -1715.361      -1112.028
      -1578.613      -1438.483      -511.1091      -423.7100      -819.2751
      -940.1119      -420.4951       961.5205       2608.621       2986.728
       1866.224       565.1963       585.1223       1087.968       568.1349
      -130.7850      -181.3564      -176.8452      -310.0952      -36.36383
       297.7051      -1178.042      -3478.474      -4049.509      -2606.138
      -856.2463       658.0376       1508.577       1268.467       971.5366
       1071.324      -66.65137      -1977.819      -1966.328       211.1455
       1058.145      -601.1094      -1673.615      -644.6233       341.4690
       114.7974      -845.6560      -584.4902       1599.542       2955.766
       1742.131       236.7087      -318.5054      -911.5190      -1712.136
      -2205.442      -2364.117      -1204.457       932.8354       2492.400
       2187.455      -388.0742      -2992.142      -2501.877       137.6714
       1812.777       1574.859       693.3247      -441.9341      -1807.248
      -2747.808      -2390.879      -1501.213      -1859.647      -2915.342
      -2085.297       220.9668       1769.662       1808.771       1444.988
       742.6333      -691.4058      -1560.148      -969.7139      -1262.600
      -2324.692      -1492.789      -37.13281       648.3550       1118.047
       475.5050      -555.3187      -652.1689      -186.5510      -515.5571
      -1184.830      -1490.027      -1359.568      -381.9082       1108.383
       1802.629       827.5381      -1366.272      -2602.346      -1956.891
      -523.7136       780.4321       1258.279      -61.48340      -1650.856
      -1601.369       23.87476       1012.208       373.7593      -57.62598
       876.8784       1638.301       783.4841      -494.9209      -892.3296
      -1481.777      -1335.349       364.0898       1586.678       492.8062
      -1473.499      -2174.976      -1842.260      -1731.946      -991.8989
       720.5132       1614.234       1233.921       973.9897       45.70557
      -1404.471      -1475.393      -854.6855      -919.1908      -659.2241
       1118.641       3269.071       2945.140       417.5146      -2041.041
      -2967.436      -2243.727      -494.9233       306.9768      -421.2592
      -862.8292      -44.38940       996.4451       1324.787       495.8147
      -350.2198      -237.0701      -162.6663      -923.4758      -658.5549
       1094.237       1889.143       1042.881       25.01611      -434.3655
      -377.3846      -41.77612       497.1039       466.5378      -102.1616
      -592.1331      -324.6052       276.5237       339.3823      -619.0825
      -1629.019      -1895.465      -1883.765      -1321.630       178.9611
       789.1508      -152.1022      -602.6379       459.5791       1106.265
       554.3354      -534.9131      -1174.300      -566.5391       1059.022
       2035.825       1539.691       651.5065       552.2314       944.4043
       1491.999       1204.795      -250.0112      -1285.700      -1144.180
      -805.8203      -909.3394      -816.9082       1158.981       2482.709
       1029.762       52.08789       525.3960       769.0718       1315.852
       1525.363       366.7795      -845.2142      -807.2355      -337.0743
       285.7776       942.5560       872.5720       183.0957      -470.6040
      -1393.588      -1211.715       532.1787       2028.929       2150.531
       1004.057      -518.8389      -1011.802       129.0718       1718.944
       1888.867       272.7886      -2114.292      -3000.063      -1416.061
       1261.729       2111.435       1044.375      -28.13330      -862.0552
      -1508.607      -661.2903       807.3259       1360.422       1264.091
       759.9993       221.9966       923.0195       2210.900       2636.143
       1856.431       426.2596      -506.1378      -73.36230       1228.401
       2057.973       899.8029      -569.4304      -460.2493      -337.7000
      -1010.805      -793.7634       457.7432       1467.173       1505.731
       1239.641       802.6755       530.7754       715.0278       1321.633
       1721.834       1285.851       290.4419      -265.1631       97.00879
       546.3295      -87.91699      -786.0176      -581.7714       65.40137
       746.7275       1215.631       684.5641       109.3301       704.3057
       1573.779       1250.465      -181.0364      -904.5972       662.8972
       1502.076      -235.7969      -2349.982      -2706.867      -1336.394
       167.8542       1089.872       1872.718       1705.517       299.6681
      -394.6590       269.2053       480.2529       549.9238       1476.805
       1893.953       1171.649       991.3981       906.2443       140.9902
      -1426.352      -2857.313      -2700.867      -1063.420       854.0684
       2235.126       2026.947       842.6411       739.2637       1656.984
       1229.046      -92.08618      -998.3616      -1166.459       19.91064
       1552.895       1774.168       1171.070       869.8311       1224.342
       1301.624       145.3999      -1380.381      -1485.964      -1142.054
      -787.9268       106.1093       311.4263      -555.0577      -769.9958
      -463.7347      -292.9395      -372.8477      -521.6301      -522.6110
      -163.4968       613.0671       1256.610       1373.305       1173.119
      -240.8506      -1763.822      -1322.262       10.07861       549.6758
       456.0952       249.2179      -109.9902      -1607.339      -2344.380
      -646.2092       1107.850       1393.962       1548.887       1751.018
       1856.249       1254.080      -464.9663      -1781.502      -1791.302
      -2242.921      -2705.588      -1855.498      -1035.158      -1180.382
      -1538.104      -2124.339      -2095.646      -963.3287       361.0863
       411.7051      -983.7959      -1530.849      -1068.556      -1290.590
      -1454.327      -1188.646      -554.1343       516.6599       1313.247
       973.5684       789.1885       1011.551       768.7822       368.7588
      -149.3643      -1240.735      -1799.521      -1110.591       540.7271
       1756.567       1232.690       275.9267      -32.95239      -864.0100
      -1524.475      -1021.332      -657.3945      -1699.019      -2024.103
      -955.6660      -341.3084       85.66760       699.3822       624.3643
      -432.8760      -2378.015      -3101.744      -2225.505      -1075.874
      -3.504761       637.4609       266.9926       18.05640       894.2886
       1605.895       701.4160      -1019.154      -1993.289      -1688.969
      -480.2373       923.5649       971.4586       284.7132       86.70166
      -368.2114      -1320.294      -1579.271      -593.0659       622.6194
       533.6656      -161.1785      -676.5923      -752.5889      -335.9350
      -105.8789      -742.0400      -1265.834      -866.1954      -24.64771
       430.2638      -82.77417      -1136.809      -1737.006      -2442.248
      -2893.012      -1769.688      -10.58044       13.39185      -592.7180
       105.1846       1775.726       2532.267       1364.670       87.74725
      -96.15698      -501.5249      -1228.068      -1648.627      -2024.071
      -2105.226      -1430.330      -1104.472      -1344.542      -1648.544
      -1287.774      -50.14795       1168.717       1423.721       1199.493
       1607.187       2630.209       2587.706       1127.558       153.5410
       863.7534       1657.754       1180.508       341.2219       124.6260
       171.5410       203.6337      -9.977051       175.0645       1173.616
       2413.793       2638.480       1827.670       1160.356       955.5657
       277.4648      -319.7990      -111.7765      -411.2009      -1166.602
      -637.9131       413.8613       1532.296       2733.416       2723.250
       1532.938       159.3420      -982.2019      -1060.701      -588.7928
      -163.0444       641.4248       2133.000       3479.969       3044.121
       1265.024       696.6046       616.7263      -541.0337      -1824.243
      -2027.711      -1238.419      -160.3513       576.6294       1289.518
       1359.874       121.9463      -1108.432      -1062.670      -833.3623
      -1506.036      -1876.350      -675.0273       841.7295       2198.588
       2788.072       2279.853       2303.500       2320.648       846.0680
      -144.8916       826.7749       2162.481       1923.948       563.7657
      -293.1122      -223.2220      -215.3521      -194.9392      -685.2681
      -1567.831      -1182.483       20.98364       835.0496       1155.857
       705.3069       267.1324       263.4392       351.0146       595.6096
       1070.451       753.8674      -367.5195      -1575.662      -1898.544
      -426.0547       1829.408       2596.638       673.7124      -1768.466
      -1214.378       995.8931       1794.162       837.8202      -279.8459
      -378.5292      -63.83557       85.83038       313.8528       295.0066
       370.8495       515.8453       153.5454      -972.6807      -1568.578
      -976.1705      -328.5420       335.1655       870.1442      -65.28149
      -975.0121      -9.598877       1000.550       360.2019      -778.4583
      -996.9323      -279.8601       501.4580       1160.431       949.2787
       447.0602       598.0056       270.9874      -383.0036      -103.3554
       76.80127      -309.6208      -109.8384       948.4502       1709.126
       1504.121       421.5952      -885.0479      -1772.841      -1798.691
      -1074.393      -188.0737       389.1007       255.9634      -1519.201
      -4391.471      -6254.391      -6760.152      -7743.781      -9602.395
      -10503.82      -8852.741      -4666.128      -28.55566       2280.955
       2356.341       1252.250       823.7891       2639.648       5472.902
       7519.922       8927.400       10249.64       10736.46       10879.63
       11805.62       11473.51       8841.307       5241.555       1121.928
      -2662.826      -4421.357      -3385.507      -96.97949       2527.235
       2804.640       2476.845       2199.400       1175.484       256.7375
       662.1963       2361.744       3410.549       3253.635       3439.876
       4594.828       5928.930       6564.562       6954.027       8222.020
       10049.95       11556.20       12385.08       12608.02       11812.22
       9957.320       8416.127       9184.484       11685.25       13318.25
       12956.55       10589.11       6302.178       147.5215      -6848.859
      -11622.47      -13180.66      -13718.34      -14897.18      -16297.17
      -17582.41      -18344.53      -18453.90      -19240.73      -21505.27
      -23340.57      -22532.84      -19625.75      -16208.26      -13280.29
      -11225.60      -9168.781      -6355.600      -2779.579       314.5205
       2464.788       4305.851       5482.144       4640.774       1546.422
      -1609.837      -2895.981      -2858.556      -2748.452      -3097.802
      -3269.662      -2308.124      -651.2573       564.9023       1894.174
       4068.644       5506.430       4599.124       3244.336       3173.991
       3440.231       2334.402      -72.07910      -1901.028      -2810.049
      -3504.528      -3052.257      -1179.561       465.3379       1448.425
       2540.144       2556.751       896.9703      -448.3072      -87.20972
       898.4758       1261.265       1243.228       1785.595       2591.999
       2842.282       2207.979       1134.939       491.0146       278.6191
      -649.2363      -2699.844      -4881.994      -6590.254      -7864.145
      -8728.934      -9253.123      -9267.883      -8735.518      -7084.440
      -3916.108      -823.8237       482.0283       1277.586       2526.890
       3129.407       2987.342       3479.877       4661.977       4940.345
       3663.255       2055.415       1285.164       1396.273       1648.522
       1689.257       1424.899       1195.974       1338.415       1028.920
      -164.4027      -751.3389      -487.5820      -1281.868      -2543.199
      -2427.519      -1588.633      -836.0339      -897.4417      -1310.327
      -346.2637       1736.805       3583.882       4912.617       4272.764
       921.2139      -2362.969      -3124.535      -1701.328       154.7363
       1126.655       1382.134       1150.742       785.5278       646.5732
       670.5112       931.5798       1078.916       975.3887       1179.327
       1467.106       1111.994      -159.0947      -1681.177      -2336.637
      -1334.812       283.3033       857.3860       107.1357      -1185.313
      -1917.136      -1692.302      -1305.617      -1028.756      -815.8047
      -1113.618      -1669.370      -871.0693       1725.938       4024.057
       4239.648       3582.379       3743.230       3714.226       2739.699
       1805.873       1206.888       1850.146       3592.804       3802.448
       692.3984      -3733.785      -5726.666      -5383.380      -4612.135
      -3064.792      -1670.354      -1601.955      -1476.825      -657.8184
      -853.6465      -2937.118      -5153.994      -5411.077      -3708.456
      -1530.913       8.163086       1472.691       2458.859       2264.895
       2063.831       1682.532       193.7177      -255.5605       1894.488
       4071.408       4670.531       5551.742       7079.502       7230.102
       4941.815       2329.849       1641.457       1804.682       1025.847
      -105.1256      -230.9235       412.4943       268.0684      -1104.978
      -2689.144      -2678.436      -144.8848       2875.308       3768.021
       2824.082       1650.680       1208.688       1426.881       1488.162
       1319.720       1162.074       281.3291      -893.2736      -885.7640
       191.2754       849.5742       482.8366      -167.3372      -232.2944
       411.8496       1558.658       2621.141       3327.652       3393.930
       2029.699      -84.37585      -353.4209       1726.957       3546.490
       4021.620       4183.201       4054.599       3152.062       1387.684
      -669.3203      -2832.043      -5398.361      -7528.188      -7335.256
      -5404.270      -4239.074      -3496.287      -2318.254      -1984.413
      -2513.352      -3143.372      -3071.403      -2626.862      -2673.981
      -2499.924      -1931.691      -878.3418       1506.090       4198.537
       5043.667       3242.123       1179.524       1349.853       2535.901
       3001.890       3363.200       3749.919       3385.430       2630.082
       1857.596       817.4473       244.2719       259.0893       204.7244
      -488.8374      -1467.899      -304.6201       2766.084       3998.615
       2464.644      -528.2139      -3091.241      -3403.406      -1769.726
      -261.7603      -75.92798       165.4419       1871.461       3427.569
       3525.053       2679.005       1134.588      -402.1064      -1161.579
      -1366.086      -339.8750       1753.259       2634.259       1929.212
       2041.000       2371.985       1004.704      -1061.606      -2173.356
      -2029.303      -2135.718      -2428.603      -1225.684      -25.50195
      -401.0952      -1208.755      -1425.759      -997.3352       395.7144
       2050.724       2387.086       1792.201       2770.923       4318.340
       3835.584       2209.527      -63.50830      -2150.803      -2279.543
      -1667.093      -1315.795      -1189.256      -1918.468      -3405.762
      -4266.904      -4448.389      -4917.115      -5501.261      -5226.979
      -3620.624      -1473.551       558.6445       2623.311       4064.478
       4486.586       4631.584       5166.937       5102.524       3791.708
       1672.102      -58.91211       36.40723       645.4644      -449.5322
      -2797.393      -4509.614      -4673.588      -4934.492      -5810.014
      -5388.506      -3778.472      -2897.784      -2168.248      -391.9463
       2102.924       4276.230       5036.635       4389.473       3349.071
       2573.765       1957.622       961.6890      -452.2031      -1805.892
      -2257.388      -2000.304      -1760.456      -1130.602       136.2178
       892.8083       746.0361       1099.945       2325.680       2759.821
       2336.478       1934.016       1266.431      -66.78516      -1226.127
