     0.02500000      -19620.23       17045.48      -12345.00      -12345.00
      -29.99999       241.4250      -39.26000      -12345.00      -12345.00
       0.000000       29.10000      -12345.00      -12345.00      -12345.00
      -12345.00      -12345.00      -12345.00      -12345.00      -12345.00
      -12345.00      -12345.00      -12345.00      -12345.00      -12345.00
      -12345.00      -12345.00      -12345.00      -12345.00      -12345.00
      -12345.00      -29.45560      -64.05070       342.0000       0.000000
      -31.23600      -65.83800       0.000000       167100.0       0.000000
      -12345.00      -12345.00      -12345.00      -12345.00      -12345.00
      -12345.00      -12345.00      -12345.00      -12345.00      -12345.00
       261.6923       41.49845       220.5998       2.352809      -12345.00
      -12345.00     -0.1987186       90.00000       90.00000      -12345.00
      -12345.00      -12345.00      -12345.00      -12345.00      -12345.00
      -12345.00      -12345.00      -12345.00      -12345.00      -12345.00
      2008       318        11        13         9
       660         6    -12345    -12345     10858
    -12345    -12345    -12345    -12345    -12345
         1         7        13    -12345    -12345
    -12345    -12345    -12345    -12345    -12345
    -12345    -12345    -12345    -12345    -12345
    -12345    -12345    -12345    -12345    -12345
         1         1         1         1         1
ESP02   -12345          
01      -12345  -12345  
-12345  -12345  -12345  
-12345  -12345  -12345  
-12345  -12345  -12345  
-12345  -12345  -12345  
-12345  -12345  BHE     
XH      -12345  -12345  
[...]
      -1421.451      -1596.104      -796.6173       10.61279       327.4743
       94.52237      -16.56415       205.6348      -258.6868      -768.8396
       223.8074       1095.056       1407.665       2152.064       1609.754
      -1054.240      -3482.926      -4303.675      -4160.612      -3146.078
      -1511.974      -591.1079      -389.0464      -511.0454      -362.8359
       708.7227       2390.614       3191.725       1785.763      -997.3198
      -2860.028      -1980.034       242.4736       1397.212       2659.493
       3070.199       497.5449      -2109.029      -1266.350       899.9290
       390.7524      -1504.634      -896.1255       784.9536       1303.908
       1043.506       132.3164      -960.0549      -1291.415      -843.9396
      -413.8701      -939.1543      -1208.918      -756.6963      -1403.733
      -2035.554      -809.6550       573.7274       509.0289      -205.3198
       68.11499       925.0677       485.9834      -1169.007      -2144.514
      -1740.455      -324.0576       1066.976       1017.064      -540.4933
      -931.1733       426.5786       1320.226       1232.313       678.8826
      -478.3589      -1730.802      -1800.832      -633.7987      -447.2676
      -1108.332      -492.2964       702.5088       1188.988       1829.828
       3228.560       3458.977       1127.377      -1363.863      -1820.241
      -1347.354      -1958.933      -2590.109      -1579.097      -18.50098
       1071.145       2374.080       2575.503       359.1506      -1262.200
      -320.5167       462.7147      -74.96567      -241.7130       487.9641
       988.0869       1132.998       1027.308       352.8823      -319.4497
      -969.4121      -2055.439      -1960.089       274.8105       2189.007
       2133.597       1070.982      -109.8433      -555.1545      -984.2515
      -1315.995      -735.3937       139.2563       1583.587       3104.709
       3335.389       1918.925       159.2457      -477.3926      -781.3301
      -817.6418      -900.1530      -708.2319       461.4165       1208.839
       853.7496      -193.3049      -378.2983       1111.669       1531.417
       641.7423       484.4491       409.1583      -230.7769      -1148.802
      -1841.870      -1034.343       902.7539       2793.996       3548.577
       2182.328       730.1240       858.1417       729.9261      -130.6403
      -624.2271      -208.5264       938.6060       1099.109      -524.3552
      -927.9636       404.7346      -282.5049      -2429.093      -2266.883
      -1315.067      -1017.546      -565.3066      -909.9023      -2101.500
      -2200.866      -762.5586       1047.676       3363.007       4631.399
       3330.131       2325.920       1961.206       357.4677      -905.8960
       91.36597       1530.152       779.4246      -1052.016      -1496.479
      -1161.330      -874.4492      -172.7435       517.4739      -262.7686
      -2309.483      -2286.841       37.81396       1648.298       2315.511
       1085.291      -1517.101      -2735.821      -2486.326      -396.1279
       2587.687       2883.413       1549.267       1190.228       1569.259
       1874.898       1271.556       719.3481       246.4507      -1403.563
      -2377.763      -2161.094      -2166.864      -1678.036      -508.7341
       175.2610       341.2681       788.1348       1489.400       1517.202
       1266.203       729.1548       165.6393       583.6700       753.6691
       173.9827       327.9417       216.6858      -1023.882      -1345.230
      -500.4128      -381.9297      -827.0134      -463.6567       484.9402
       389.6264      -120.2336      -56.59961      -872.7527      -1602.818
      -496.9028       1031.713       1659.896       887.1246      -96.58057
      -194.6455      -1300.908      -2583.946      -1732.788      -483.4023
       27.37793       197.6399       386.8745       611.3896       887.5988
       942.8541       152.1165      -811.3369      -1416.054      -1501.817
      -1280.864      -842.2512       512.2080       1464.365       240.9299
      -1538.410      -1165.217       719.0439       1999.900       2310.406
       2292.717       1068.297      -1094.173      -2358.369      -3249.709
      -3372.239      -1042.357       2092.844       2894.122       948.0422
      -1024.239      -1199.602       17.50708       1066.388       354.8084
      -292.4048       649.3326       419.5647      -1310.479      -1657.814
      -473.1840       481.5308       852.7855       370.3532      -396.3632
      -155.2646       718.5107       1745.455       1571.454      -309.0320
      -1002.862      -514.7395      -841.2180      -808.6414       172.1886
       799.0093       351.0298      -840.8008      -424.5737       2228.473
       2718.290      -385.6240      -2276.078      -1565.979      -1550.555
      -2886.518      -3925.167      -3564.500      -1676.098       333.9949
       1252.653       855.5232       704.9307       1903.671       2655.671
       2312.061       1896.274       1051.739      -741.3511      -1692.651
      -1113.756      -1255.835      -2306.865      -2342.903      -801.6484
       1572.688       3117.332       2239.709      -283.2959      -1913.552
      -1701.868      -1115.455      -833.9020      -398.0662       364.3203
       1309.621       1769.827       1621.524       1114.440      -245.5483
      -1003.723       450.6406       1812.485       1655.492       1307.441
       356.2603      -1752.389      -2076.585       260.1074       1400.445
       986.6519       1150.940       1108.720       251.7368      -502.7173
      -1066.554      -1487.774      -971.1025       543.3301       2355.402
       3387.619       2337.876      -718.9600      -2675.876      -2364.380
      -1580.184      -28.02295       2385.831       3097.641       943.5742
      -1191.075      -1759.611      -1388.403      -490.3989       567.9819
       2059.952       2360.084       551.8726      -1263.114      -1415.547
       75.54919       792.4656      -34.63574       258.9049       790.0618
       17.95667       92.48560       1149.817       1716.061       714.4824
      -1646.825      -2327.126      -1260.073      -557.7550       165.7288
       1130.546       1089.573       319.8641       147.3528      -65.30423
      -241.5732       672.7739       1265.051      -216.9346      -1708.061
      -832.0707       352.9009       132.2361      -794.5215      -963.1980
       392.5182       686.7119      -1454.379      -3187.075      -3199.341
      -1488.385       778.2822       1339.906       569.3911      -675.3896
      -2511.948      -3178.418      -532.5566       2235.247       1449.558
      -366.5549      -365.6740       375.6956      -345.5649      -1424.970
      -613.8286       816.1655       709.9854      -325.7863      -153.2324
       1605.910       2859.396       2181.992       304.9231      -193.1807
       1886.104       3369.335       1933.412      -148.3634      -719.0741
      -249.1279       511.0493       1261.442       1495.980       1270.838
       182.1392      -1351.560      -1545.395      -511.7648       314.4976
       767.3450       634.7897      -205.4932      -921.4250      -1165.588
      -1203.561      -1457.333      -1763.193      -544.7528       935.2094
      -101.1382      -1111.968       381.8027       1260.151      -388.1763
      -2288.405      -2782.775      -1763.469      -76.53012       305.1904
      -329.6655      -1416.907      -2342.479      -1595.208      -318.4624
      -641.2625      -1138.369       448.7603       1467.520      -367.1035
      -1630.930      -1003.003      -251.0750       275.4480      -168.7141
      -1072.615      -136.9104       773.3937       151.2419       274.9829
       995.9956       785.3428       723.3940       1376.116       820.3120
      -1337.363      -2324.191      -1128.033       578.7290       1413.371
       903.2831      -50.20703      -513.4557      -313.2483       588.0105
       1294.663       1419.197       866.8625      -670.0537      -2430.085
      -2547.037      -1045.357       46.50195       178.6462       1071.011
       1615.777       413.4834      -603.9800      -808.4980      -958.5234
      -2005.715      -3135.054      -1810.371       231.5288       612.5491
       703.9005       708.1224       155.8817       248.3641       424.3557
       269.1343       208.7788      -773.2158      -2390.341      -2086.760
      -307.1121       542.0317       332.6905      -46.68066       480.4395
       1703.914       1425.693       415.7574      -31.82227      -1054.652
      -1348.646       521.2256       2046.913       1729.478       621.8705
       142.3053       283.2916       174.9773      -189.4459      -553.1245
      -18.16895       1458.999       1659.338       903.7305       240.1187
      -889.0459      -1833.588      -1601.023      -717.9827      -159.3604
      -20.26660       299.2881       1024.146       1890.132       1477.555
       844.2274       863.4653      -811.0146      -2676.725      -1869.476
       392.2275       2423.390       2826.537       1606.246       393.4102
      -378.4751      -1192.688      -1433.659      -885.4521       92.20850
       1056.849       1806.143       2053.843       1019.624      -807.1470
      -1492.994      -1423.387      -1213.723      -781.5536      -67.04639
       1271.015       1849.939       1095.377       759.1865       770.6471
       497.6426       541.1095       681.3752       306.5182      -286.7620
      -840.0562      -1624.062      -2813.107      -3100.584      -1848.492
      -57.99878       581.8608       136.3481       999.3887       3148.638
       3084.941       1267.980       1004.768       2376.244       1347.479
      -2935.532      -4634.843      -2310.532      -365.0879       512.4478
       1450.560       1801.133       821.3579       14.30273       484.0046
       415.9946      -771.8743      -1251.673      -782.5396      -575.9277
      -1260.141      -1773.458      -999.6783       43.39844      -625.8757
      -1367.605       245.9712       2399.758       1856.906       30.25439
      -489.9541      -575.6826      -1256.038      -1370.999      -317.1909
       87.33472      -880.7307      -966.7234      -327.5050       31.82886
       386.6558      -321.6150      -1182.414      -159.4683       1477.942
       2457.498       1730.545       979.0703       1517.437       360.2793
      -1489.143      -1170.527      -1077.912      -1918.417      -1745.012
      -842.2041       30.87598       1186.298       2609.957       3067.180
       1895.290       407.4038      -1084.845      -1263.086       183.5071
       558.3650      -219.3685       9.266602       883.4487       1407.693
       1309.333       786.2847      -193.9829      -1470.396      -2673.848
      -2444.938      -157.6211       1715.784       1638.790       566.6503
      -649.0140      -149.0056       1004.064       241.1226      -975.6562
      -1001.277      -1197.721      -1717.418      -1403.424      -214.8970
       1036.254       1150.592       478.5442       493.9013       335.0811
      -331.0050      -104.9338       1062.404       735.7495      -1255.787
      -2145.298      -747.3396       81.46085      -347.5620       408.8145
       1206.365       895.7705       1169.705       1512.263       1095.655
       255.9036      -465.6294      -695.8379      -811.7207      -1573.514
      -2761.305      -3244.604      -2540.477      -1598.026      -302.8143
       312.1677      -557.6851      -453.5732       1635.255       2665.069
       1411.553      -319.4668      -1547.517      -2106.838      -2746.512
      -3987.662      -4558.863      -5884.672      -8302.109      -9791.195
      -9685.709      -8359.648      -7435.334      -7180.675      -5453.822
      -1671.014       3302.010       7704.789       10961.34       13292.00
       13631.16       10969.43       6908.615       3780.367       1552.008
      -1619.555      -5156.483      -6026.426      -2858.360       1886.174
       5343.018       6861.254       6319.419       2889.306      -1376.615
      -2504.322       19.62207       2879.975       5827.041       8724.643
       8484.734       5684.283       3934.160       4276.775       5650.494
       6227.531       6852.539       8949.027       10939.66       12094.62
       12608.84       12667.24       14815.84       17045.48       15298.86
       11790.97       9533.605       7845.889       6289.256       5080.658
       3808.606       2148.872       519.9199      -1939.669      -4211.256
      -4250.476      -3375.967      -3096.073      -1657.262       560.8540
       77.75000      -2330.131      -3073.842      -3854.803      -5689.282
      -5699.588      -4828.754      -6347.648      -9362.711      -11299.45
      -10904.99      -10153.13      -11051.33      -12753.69      -15255.48
      -18299.90      -19620.23      -18663.67      -16034.36      -13029.84
      -10309.53      -8898.402      -9143.961      -9298.707      -8306.485
      -5255.684      -1462.574       412.7395       1090.813       478.3877
      -1153.183      -1431.216       165.1152       1974.781       4435.027
       7161.844       7958.762       7803.016       8457.527       8445.846
       7813.443       8829.133       9778.199       7548.359       4447.385
       2731.467       2103.409       2016.830       2111.472       2677.350
       3219.506       3591.549       4093.230       3017.451       491.4502
      -2335.326      -4664.949      -6686.279      -8191.055      -7978.107
      -6289.790      -4530.551      -3925.173      -3727.451      -3317.443
      -3103.716      -2329.975      -1471.188      -900.2832      -1456.688
      -3233.374      -3866.616      -3030.981      -3008.336      -2913.570
      -824.8887       1964.123       4372.957       6078.723       6603.732
       7275.193       7183.346       5540.648       4200.784       3991.814
       3442.501       1894.214       681.3867       982.6748       2171.965
       2642.573       2343.213       2444.438       1084.597      -2019.115
      -3668.357      -3202.161      -2688.146      -3149.530      -4392.184
      -4165.737      -2288.826      -1931.542      -3092.121      -2121.253
       1633.437       4437.073       2882.477      -1658.185      -4847.439
      -6212.715      -7689.500      -7247.325      -5291.402      -4166.228
      -3233.609      -1825.521       390.0088       2342.312       1732.258
       1087.574       2811.904       3689.214       2470.863       2215.031
       2909.285       3512.111       4089.271       3684.470       2536.574
       1522.004       369.7198      -11.32166       329.0092       89.88721
      -1596.163      -4165.500      -5812.125      -5831.758      -5142.647
      -4343.176      -3401.800      -2049.127      -1841.366      -2457.055
      -491.1992       2947.523       2938.498       586.1720      -183.6034
       494.1687       750.1152      -339.4573      -1541.958      -945.7919
      -181.6807      -1120.559      -2534.688      -2407.871      -1390.960
      -1003.676      -322.0801       1558.426       2976.217       3810.730
       5112.637       6372.941       6927.939       6576.441       4244.153
       1037.525      -752.4180      -1404.123      -2123.712      -1894.334
      -686.2483       364.0205       1776.127       1987.222       109.7256
      -1182.352      -2041.171      -2128.229       83.72656       2782.463
       3816.339       3636.111       2817.790       1820.569       988.6811
       11.30151      -498.0283       1094.988       3529.530       4175.900
       3215.665       2755.882       3236.448       3231.849       1240.523
      -1404.916      -2940.973      -3671.157      -3458.463      -1809.191
       265.6938       1542.624       1417.416       15.27490      -1853.884
      -2422.617      -1737.941      -1851.129      -3064.502      -3766.118
      -4093.953      -3565.507      -1480.199       90.00208       99.74731
       124.1328       1141.099       1463.750      -266.3868      -867.5186
       1076.469       2388.839       1339.065      -563.8467      -2509.142
      -2877.425      -1013.367       280.6320       169.9326       585.9927
       1244.051       422.5586      -1426.195      -1780.336      -110.8367
       1255.612       1365.820       1839.336       2129.549       1126.214
       822.0508       2405.141       4342.693       6315.781       6773.062
       4528.692       2345.366       701.1543      -2323.232      -4854.735
      -5240.357      -4364.647      -3509.092      -3273.006      -3049.819
      -2321.099      -1431.893      -597.4229       378.5977       2068.586
       3183.625       3596.850       4174.354       3911.356       3377.913
       3390.455       2422.693       675.4297      -137.0475       189.1754
       170.2192      -269.0365      -165.9543       187.7188       114.9099
       412.9524       982.5898       8.108398      -1501.141      -1681.079
      -1814.750      -1842.020      -1545.476      -1928.456      -1954.269
      -921.0611       146.7239       704.6189       243.4614      -678.4541
      -1035.221      -848.5181      -1731.240      -3207.892      -2768.218
      -1155.964      -538.1370       395.7651       1319.887      -209.2983
      -2216.834      -1847.277      -703.4785      -522.3369      -498.9102
       607.0220       1579.147       1450.178       1699.383       2104.735
       1877.496       1913.298       2224.972       1920.461       995.7192
       840.0212       1143.732       1303.302       932.4067      -350.3701
      -1509.988      -1891.416      -1915.350      -1740.423      -938.0029
       838.5449       2741.402       3682.999       2890.635       1812.661
       1743.591       1318.000       182.7073      -30.42932       222.0308
      -642.9883      -2382.182      -3001.639      -2290.513      -1846.725
      -462.5459       1572.676       1433.157       200.3665      -892.1953
      -1679.211      -1724.533      -1086.295      -185.2437       357.9453
      -556.9209      -2018.668      -1951.792      -1513.073      -1457.282
       191.5137       2327.511       2908.744       3027.519       3679.875
       4315.417       3438.096       938.8396      -495.0371      -986.7168
      -2641.811      -4606.815      -4508.000      -2512.813      -658.4113
       157.0894       705.3074       916.6426       293.5628      -88.74231
