     0.02500000      -7074.596       8331.828      -12345.00      -12345.00
      -29.99999       241.4250      -39.26000      -12345.00      -12345.00
       0.000000       29.10000      -12345.00      -12345.00      -12345.00
      -12345.00      -12345.00      -12345.00      -12345.00      -12345.00
      -12345.00      -12345.00      -12345.00      -12345.00      -12345.00
      -12345.00      -12345.00      -12345.00      -12345.00      -12345.00
      -12345.00      -29.45560      -64.05070       342.0000       0.000000
      -31.23600      -65.83800       0.000000       167100.0       0.000000
      -12345.00      -12345.00      -12345.00      -12345.00      -12345.00
      -12345.00      -12345.00      -12345.00      -12345.00      -12345.00
       261.6923       41.49845       220.5998       2.352809      -12345.00
      -12345.00     0.09749725       0.000000       0.000000      -12345.00
      -12345.00      -12345.00      -12345.00      -12345.00      -12345.00
      -12345.00      -12345.00      -12345.00      -12345.00      -12345.00
      2008       318        11        13         9
       660         6    -12345    -12345     10858
    -12345    -12345    -12345    -12345    -12345
         1         7        13    -12345    -12345
    -12345    -12345    -12345    -12345    -12345
    -12345    -12345    -12345    -12345    -12345
    -12345    -12345    -12345    -12345    -12345
         1         1         1         1         1
ESP02   -12345          
01      -12345  -12345  
-12345  -12345  -12345  
-12345  -12345  -12345  
-12345  -12345  -12345  
-12345  -12345  -12345  
-12345  -12345  BHZ     
XH      -12345  -12345  
[...]
      -220.5839      -231.5756      -223.7609      -238.3595      -262.6072
      -254.1548      -260.7185      -274.5635      -281.5714      -293.4705
      -307.3015      -301.4785      -311.1151      -321.0106      -334.1595
      -331.3105      -340.4148      -343.7124      -349.0261      -364.8284
      -370.3724      -358.5048      -373.4187      -379.7643      -382.7124
      -381.7969      -391.9282      -402.2379      -402.1290      -395.1406
      -415.3652      -413.1726      -404.0132      -403.9883      -415.6971
      -419.0453      -412.1935      -419.9198      -432.2289      -412.8036
      -422.4996      -419.7673      -416.7200      -426.2611      -420.6515
      -412.7915      -422.8704      -420.6560      -426.6001      -412.3892
      -406.9154      -418.8728      -412.1531      -398.4436      -418.3961
      -405.6316      -394.5012      -395.8320      -384.9019      -382.2406
      -394.9521      -375.6057      -360.5605      -363.0214      -369.1620
      -360.3948      -354.4255      -338.9519      -342.0610      -342.0539
      -341.7197      -330.1185      -321.8005      -314.2671      -326.8756
      -309.8257      -300.3142      -303.4761      -297.2506      -290.4492
      -286.3807      -276.8129      -267.6287      -258.8370      -269.9549
      -253.2838      -250.6631      -240.0960      -227.0363      -222.3530
      -228.6630      -214.3046      -199.1531      -197.4021      -191.0360
      -176.2469      -181.3545      -160.9937      -149.7035      -145.8312
      -142.5248      -130.7591      -116.4158      -99.62939      -107.4413
      -104.6145      -90.25801      -66.94638      -66.02771      -60.10999
      -48.47336      -31.16638      -29.06773      -12.59632       1.458527
       13.75069       24.95699       31.46373       38.59599       59.35480
       57.41576       71.86816       85.81677       92.26849       106.3039
       126.9875       130.8476       140.8277       150.4117       165.8557
       166.9865       181.5137       192.2024       212.2894       218.6244
       220.1401       238.0996       260.6221       255.8646       265.1417
       268.7063       278.4010       292.6198       304.4341       310.3706
       316.8600       326.5698       341.6957       338.6323       359.7479
       358.0093       360.7078       377.0657       391.1948       387.9735
       385.4265       394.9005       401.6912       395.5127       412.7733
       406.8618       413.6455       415.2395       419.1970       428.5331
       424.4255       425.9014       429.1726       419.0642       423.9242
       432.6488       424.9343       419.4785       436.0209       418.9458
       420.8445       430.1013       426.7646       419.9452       421.4026
       423.0801       423.0768       412.6284       416.2643       417.1685
       418.9208       412.0433       408.5111       407.3909       415.3130
       401.8542       396.8424       415.4041       402.1646       378.6947
       398.2169       403.1556       377.5791       372.6973       387.7622
       368.4806       367.5933       364.1477       338.0172       343.1069
       352.2281       331.6970       325.2452       320.9829       317.2017
       316.8426       298.3185       278.9656       290.7751       279.6790
       271.4315       266.0200       256.4063       242.6650       240.6766
       246.8796       230.4461       213.9149       216.4679       204.0443
       210.3696       187.1600       176.7579       183.7070       172.9009
       160.3498       145.4794       147.4977       133.5333       117.6621
       119.1925       93.33270       106.8494       92.98151       63.37534
       63.93379       58.87485       50.39896       37.72728       21.40779
       26.55713       10.49554      -1.486929      -1.996628      -16.76168
      -37.10883      -29.84369      -40.22333      -57.77499      -60.36607
      -62.81091      -91.22818      -99.74731      -89.10205      -93.51160
      -118.3973      -131.7413      -124.4900      -137.4229      -152.1484
      -139.6812      -158.1006      -168.0357      -169.0415      -178.0203
      -180.6708      -191.6610      -200.2117      -190.9579      -208.9851
      -214.2716      -218.4018      -217.4384      -214.3953      -223.9422
      -231.4546      -234.9617      -236.0833      -237.1852      -259.0905
      -250.7546      -248.5510      -266.6801      -258.8782      -269.9993
      -269.0376      -263.1932      -287.7748      -272.9354      -273.2601
      -274.2704      -283.4899      -297.0167      -290.5836      -293.2774
      -308.2990      -285.8236      -287.6382      -295.9484      -285.3799
      -299.9752      -291.5448      -284.5928      -302.3961      -290.8398
      -287.0244      -288.1479      -297.2548      -284.3243      -283.3595
      -278.2421      -278.3775      -274.4700      -266.6038      -267.0995
      -270.9930      -264.4952      -254.2622      -262.4982      -265.8272
      -236.9241      -250.2606      -265.2349      -249.3816      -230.3323
      -246.1259      -252.3514      -238.2472      -237.7468      -248.8165
      -246.1433      -247.6404      -237.4391      -247.5171      -260.2184
      -244.8189      -233.3465      -253.5040      -244.0773      -230.9094
      -235.0887      -237.1113      -237.2036      -237.1068      -230.3522
      -241.7420      -240.7324      -232.7812      -228.1215      -237.9764
      -233.7551      -222.3885      -226.5154      -223.8658      -216.2153
      -233.5701      -218.4022      -212.1746      -220.8340      -212.5173
      -217.3523      -220.7964      -208.3184      -219.7942      -219.1823
      -199.6787      -212.8085      -213.0620      -201.9797      -221.1564
      -212.2727      -184.6149      -187.3494      -215.8005      -203.8973
      -191.0774      -193.9098      -195.7463      -195.3799      -190.5658
      -180.3470      -180.5874      -163.8773      -163.6408      -169.8705
      -156.1435      -136.4311      -146.7900      -140.9088      -112.3610
      -118.0685      -112.1068      -85.52126      -85.50076      -79.51227
      -66.76207      -55.58589      -45.32355      -39.12709      -36.73008
      -18.41052      -9.232162       2.517472       1.229568       4.003403
       32.57668       36.06177       28.29889       61.01929       66.67139
       57.29031       77.35120       84.84274       85.33951       103.7589
       112.9723       113.9564       124.5622       129.8168       136.5021
       149.6884       143.8314       150.7999       165.5367       165.4985
       159.6629       178.5958       190.2715       176.6065       182.2101
       197.2374       197.1989       196.4906       200.7999       209.5505
       214.7708       219.9907       217.7709       226.4938       234.2786
       235.7825       243.6088       244.6989       228.4297       244.9802
       264.5342       257.9426       262.2370       276.9904       272.4778
       275.5208       292.2047       285.6729       285.9005       297.2186
       301.9923       313.5217       311.4744       314.9050       321.3894
       326.9692       333.1180       331.8975       330.5291       343.0735
       345.8354       354.0488       365.1343       351.7544       360.2483
       372.9471       373.7151       376.8425       372.3026       370.5576
       368.0015       393.6179       395.9857       378.7059       390.9448
       400.6234       408.4532       404.4739       395.1874       398.6187
       396.4580       398.2322       410.6816       412.7155       404.1571
       388.2755       398.4731       402.6495       377.2662       393.3529
       391.0795       370.1404       371.1678       376.8684       361.0081
       348.1931       352.0890       338.2946       338.7574       339.2303
       305.6006       307.1947       319.1285       288.7657       288.5782
       293.9462       280.6111       274.9364       261.2601       260.9441
       258.9704       244.9608       233.3815       231.1307       233.6753
       233.1239       224.7971       214.7399       210.1386       208.8108
       204.5123       205.0355       189.6939       185.1047       179.0234
       168.4301       181.6235       164.7451       153.7629       159.4027
       149.1113       138.1176       132.5515       129.7312       116.1600
       111.6523       103.4128       87.27016       89.66527       76.34937
       57.21857       64.16698       48.12070       25.18307       26.26778
       12.61285       4.321243      -10.89156      -26.34921      -23.61740
      -47.63817      -56.05923      -56.69525      -132.9202      -109.8596
      -14.47894      -61.84903      -105.9226      -110.5701      -129.7079
      -123.5333      -135.9386      -158.7250      -161.2891      -168.2498
      -194.4464      -205.7246      -217.1036      -224.3989      -228.1450
      -246.8718      -252.0499      -262.4496      -272.0535      -273.5721
      -289.2504      -302.5609      -304.3700      -288.1827      -302.0734
      -328.4888      -328.6080      -335.6702      -323.6466      -326.3488
      -347.4629      -340.9968      -346.6052      -344.6151      -350.6333
      -354.2595      -350.9664      -364.9476      -347.4889      -353.5347
      -373.2676      -343.9197      -350.1396      -363.6301      -345.0090
      -351.1582      -360.6855      -341.7642      -347.7128      -354.3779
      -345.9670      -348.3434      -337.0686      -338.2036      -360.5745
      -349.0886      -334.7676      -343.8828      -357.1510      -350.9094
      -347.3259      -352.6609      -347.0574      -342.1727      -353.2729
      -355.6809      -353.3956      -336.7798      -346.4810      -358.8049
      -339.7046      -345.0989      -355.9478      -348.7141      -345.1567
      -346.0271      -352.3303      -356.5354      -341.8090      -335.6952
      -359.3450      -349.9534      -334.6823      -352.5916      -350.6637
      -336.1317      -345.6511      -333.6958      -339.8074      -360.4421
      -344.1127      -329.7471      -334.0706      -323.6848      -337.8625
      -336.0419      -328.3411      -327.0021      -326.7748      -319.2118
      -313.3739      -314.7775      -308.4875      -313.8056      -310.6766
      -288.9467      -289.6602      -291.5410      -300.3155      -278.5923
      -263.2878      -272.2520      -270.4751      -254.1979      -248.1891
      -254.0459      -253.1994      -228.2303      -219.8127      -228.2734
      -218.4414      -199.4929      -204.2824      -196.5928      -188.5236
      -182.2123      -176.4041      -171.6057      -154.6037      -156.8123
      -149.6562      -125.7675      -138.7161      -125.3157      -108.7725
      -106.4154      -99.55626      -75.71066      -71.21008      -76.73949
      -62.57422      -46.58089      -43.40379      -30.29396      -22.99482
      -11.78599      -15.33996       2.984756       26.11102       23.98140
       29.58537       33.83641       38.13013       52.59995       61.23436
       70.66920       71.33502       89.67047       87.19617       93.63724
       105.7049       105.8867       121.9283       132.3729       123.3682
       126.1689       145.8522       152.2292       138.4971       152.0211
       157.0050       160.2010       160.2916       155.0636       168.8092
       176.9179       159.8509       163.2036       167.1704       167.2062
       167.7789       167.2150       156.8342       157.8532       165.0342
       170.8197       159.4304       156.0428       145.7615       155.8889
       166.7418       147.6934       135.9222       144.7584       139.4456
       142.3981       139.9519       133.7142       133.5214       127.9386
       119.0578       130.4583       127.4943       123.8620       129.9394
       127.6741       107.7623       133.5165       133.9685       117.1671
       123.1518       115.7473       119.6669       138.8480       118.6317
       116.9310       129.5608       127.7618       122.8120       137.4977
       129.0630       126.3668       139.1528       137.7396       134.2914
       144.4741       146.9706       146.4804       153.5674       169.3660
       158.9102       163.4141       168.4680       169.7516       181.5609
       183.5013       176.4204       194.8074       197.7406       195.4627
       200.3663       201.7781       202.8266       208.5053       199.7840
       216.7416       223.3308       220.0873       213.7249       226.9622
       220.7982       208.6953       247.8682       260.3131       183.1340
       83.23560      -507.8315      -2284.015      -2707.559       2685.070
       7738.632       3182.642      -4166.737      -2719.797       3255.743
       3007.258       330.9214      -1209.857      -1793.556       1735.987
       3105.115       2723.204       2672.572      -1636.451      -6417.651
      -7048.507      -121.5918       8331.828       5255.907      -2555.863
      -2723.797       2279.927       5667.917       2420.815      -4190.229
      -6037.171      -2423.709       2165.420       2773.509       310.0421
       59.09204       1497.981       690.6396      -3127.260      -4119.147
       2038.188       5577.542       1810.559      -315.5000       830.8301
       1158.619       686.0605      -257.3786      -649.4750       481.4514
       337.0723      -1696.711      -2824.126      -1902.749       205.3730
       1644.356       2196.476       2400.589       1235.801      -30.03711
       704.2819       829.9681      -239.7536      -401.5073       129.3849
      -189.2188      -1624.270      -740.8301       1383.699       547.4707
      -163.4777       498.1219       349.8231       82.02515       196.2104
       1373.562       2394.331       2244.666       1435.135      -385.1167
      -787.2417      -1875.423      -3276.186       566.6462       2459.614
      -877.2354      -1821.074      -149.9814       1362.057       1106.885
      -53.25171      -209.0052      -890.7261       13.97314       1930.610
       764.2490       73.81030      -230.7539      -1780.467      -124.8530
       2630.763       1510.926      -1294.510      -1259.273       172.5181
      -1201.103      -1782.869       1060.866       1274.231      -929.6860
      -1022.041      -496.1934       1187.057       2837.534       2239.882
       401.7979      -2553.501      -2511.096       155.5127       1460.618
       1707.789      -563.4956      -2307.305      -1048.812       363.3594
      -99.15527      -2304.840      -2286.231      -57.77490       1491.387
       2664.985       2126.123      -1044.047      -2282.511      -754.9885
      -543.5620      -543.5234      -769.9565      -1198.081      -364.8296
      -1088.010      -1566.104      -240.3367      -873.4624      -1484.927
       199.2600       1566.463       711.0127      -1390.546      -445.0696
       1531.032      -592.3281      -2761.479      -2133.128      -506.5400
       1396.144       1443.403      -734.2401      -787.4551       1577.744
       1853.758       1015.789       207.4580      -1643.205      -1626.337
      -501.8420      -598.2153      -170.9392      -139.4341      -1622.463
      -2821.860      -2577.045      -650.3376       841.2371       406.6636
       405.0630       1491.957       1596.343       422.3774      -1335.564
      -2209.940      -1136.687      -183.0669      -620.0737      -1570.261
      -1477.763       275.7696       623.3813      -944.0010      -1266.714
      -259.6958       63.73315      -325.7190      -38.97876      -80.29614
      -1133.526      -1015.607       740.3154       1692.621       850.8728
      -293.7399      -689.5735      -441.5735      -457.9645      -578.6453
       443.9326       2128.189       1423.281      -906.1836      -1610.355
      -1082.888       272.8305       693.4199      -1015.996      -1661.869
      -1037.739      -766.9174      -281.3608       41.00830      -311.7332
      -401.2437       664.5254       2026.971       1710.909      -186.5259
      -1493.721      -558.3271       1086.424       486.0601      -971.2539
      -1185.110      -507.6763       197.4199       233.9033       461.8371
      -19.28223      -892.9867      -169.5425       577.8992       473.3056
       54.82007      -463.9476      -318.6431      -463.2634      -1028.500
      -8.402344       1304.684       1068.598       532.0045       125.4653
      -500.9526      -905.8804      -823.2139      -122.5636       511.5344
       287.4580      -253.2549      -734.0502      -545.1818       158.3226
       505.6152       348.9363      -220.3252      -599.0712      -151.7526
       287.0032      -2.726196      -126.0197      -322.8344      -626.9065
      -376.1477       96.26294       456.7344       445.7892       327.8875
      -561.8958      -1392.227      -473.7230       68.85394      -278.4124
       626.7432       1854.724       1709.194       1137.954       570.6827
      -209.5664      -768.8389      -1608.320      -1400.970      -158.4260
      -197.3911      -662.4873      -1636.066      -2761.526      -1605.713
      -41.88623       424.1982       1425.672       1956.333       1186.853
       194.5637      -816.1248      -750.8513       53.27466       256.7317
       380.1708       215.6601       78.28906       837.9014       1700.054
       1822.587       483.5540      -1346.229      -907.1953       850.1770
       939.9197       445.9102       516.4287       180.5817      -322.3109
      -139.4453       647.8816       838.8789       464.2092       198.5776
       515.6158       860.2297      -295.7979      -1145.083      -375.2019
       165.5334      -56.45068       278.8091       1050.384       1039.295
       819.6372       313.7336      -193.9412      -41.93961      -177.6882
       59.20374       542.5717       411.1230       652.1033       1035.845
       367.9538      -156.6887       742.0581       1055.191       167.1942
       89.90021       417.3643       81.74319      -202.0090       236.3345
       921.3535       742.2645       255.2715       757.8696       1070.449
       722.4829       579.2427       424.5270       431.1588       265.6250
      -135.5232      -82.88165       33.77588      -328.2255      -119.4316
       1583.800       2339.186       1219.574       352.6381       94.72980
      -69.65959      -108.7697       283.8525       235.2435       236.5771
       1311.981       1087.529       64.32104       283.6088       433.0546
