     0.02500000      -14756.70       13535.29      -12345.00      -12345.00
      -29.99999       241.4250      -39.26000      -12345.00      -12345.00
       0.000000       29.10000      -12345.00      -12345.00      -12345.00
      -12345.00      -12345.00      -12345.00      -12345.00      -12345.00
      -12345.00      -12345.00      -12345.00      -12345.00      -12345.00
      -12345.00      -12345.00      -12345.00      -12345.00      -12345.00
      -12345.00      -29.45560      -64.05070       342.0000       0.000000
      -31.23600      -65.83800       0.000000       167100.0       0.000000
      -12345.00      -12345.00      -12345.00      -12345.00      -12345.00
      -12345.00      -12345.00      -12345.00      -12345.00      -12345.00
       261.6923       41.49845       220.5998       2.352809      -12345.00
      -12345.00      0.3952896       0.000000       90.00000      -12345.00
      -12345.00      -12345.00      -12345.00      -12345.00      -12345.00
      -12345.00      -12345.00      -12345.00      -12345.00      -12345.00
      2008       318        11        13         9
       660         6    -12345    -12345     10858
    -12345    -12345    -12345    -12345    -12345
         1         7        13    -12345    -12345
    -12345    -12345    -12345    -12345    -12345
    -12345    -12345    -12345    -12345    -12345
    -12345    -12345    -12345    -12345    -12345
         1         1         1         1         1
ESP02   -12345          
01      -12345  -12345  
-12345  -12345  -12345  
-12345  -12345  -12345  
-12345  -12345  -12345  
-12345  -12345  -12345  
-12345  -12345  BHN     
XH      -12345  -12345  
[...]
      -168.5864      -135.7346      -636.6624      -1253.101      -822.6326
       311.4921       556.5275      -276.6736      -493.1614       58.18677
       476.9364       450.0618      -322.5952      -582.3180      -46.38269
       401.2263       843.5189       706.4565      -22.56274      -793.3415
      -688.3495       770.3250       1068.491       53.26038      -375.3516
      -709.0586      -1146.660      -481.9210       460.5791       218.1641
       4.428711       504.2661       673.3677       322.8448      -191.8281
       121.0891       758.2328       154.1252      -605.8634       99.85425
       1060.625       1283.203       755.5762      -471.3932      -807.5813
       163.5591       817.0906       734.4014       394.4379      -141.4463
      -1337.509      -1961.568      -875.3314       17.25916       130.2512
       944.5073       1692.534       1326.649       258.5030      -282.9450
       181.0970       66.38556      -72.68359       876.2227       861.1215
       12.54346      -839.1801      -809.0757       671.5790       1132.068
      -248.4707      -1768.118      -2160.167      -1366.428      -24.02002
       1224.770       1226.824       369.5007       29.13440       173.6914
       235.3213       1030.539       2476.412       2564.086       1125.593
      -998.9961      -3306.238      -4558.252      -4733.266      -4095.071
      -1929.625       1221.517       3369.282       3663.936       2678.042
       1512.430       491.6101       23.61377      -448.1562      -2528.734
      -4180.689      -2714.196       638.9678       3755.643       4793.293
       3597.317       1002.761      -1865.249      -2994.795      -2223.713
      -919.5583      -116.7886       807.4531       2427.179       2744.188
       1687.393       1052.506       649.8313      -774.3506      -2411.497
      -2999.643      -2882.902      -2687.743      -1905.532      -276.7944
       1140.937       2120.408       2254.628       1301.691       200.6129
      -515.7791      -92.48627       237.6899      -621.3623      -1314.948
      -1655.163      -2251.855      -1639.292       645.8672       2601.370
       2992.746       2202.729       939.3430      -799.5420      -2379.102
      -2037.749      -247.7748       509.1030      -511.1013      -858.3157
      -150.4584       212.1266       460.7808       362.6504       477.6006
       1639.622       2821.161       2337.165      -175.8545      -2654.220
      -3297.083      -2047.567      -507.3499       584.6831       1539.789
       2081.614       1744.501       62.82861      -1737.896      -2060.197
      -2044.744      -2189.560      -1446.948       532.2100       2973.346
       3989.402       2761.741       217.5225      -1950.899      -2223.097
      -1749.663      -1765.916      -1689.167      -982.3867       847.6094
       2737.973       2799.545       2216.041       1520.545      -266.5083
      -2045.250      -2391.030      -1220.841       136.9126       600.1287
       756.8223       1073.195       1488.563       1068.826       476.1122
       605.6533       74.26196      -143.5708       852.3884       1121.759
       889.5698       464.2544      -746.5527      -1543.947      -1500.946
      -1333.691      -1322.754      -1302.626      -440.4893       1527.028
       2531.518       883.8047      -1285.944      -1397.462       896.3467
       3608.740       3678.231       1721.525       1026.898       285.9746
      -2049.510      -2628.323      -427.9556       1311.234       988.2500
      -751.9512      -1792.582      -1150.689      -1373.607      -2347.706
      -1557.012      -368.0269      -1045.325      -1893.140      -1357.516
      -1608.876      -2112.021      -492.8965       2538.194       4498.489
       4527.291       3838.304       2548.834       351.5605      -1383.300
      -716.0156       1280.473       765.3169      -1430.660      -1156.681
       106.8086      -1059.917      -2309.211      -1492.790      -632.6216
      -973.8013      -1516.655      -1543.508      -867.5149       264.7666
       1230.971       2078.239       1702.962      -499.2666      -2070.613
      -1857.867      -132.4404       1953.350       2439.180       1833.096
       1611.058       1495.276       784.1602      -564.2993      -1775.952
      -2418.734      -2201.270      -1519.844      -837.4017       9.360779
      -68.96228      -376.3315       613.4966       1107.251       251.3093
      -524.4318      -679.3392       65.87646       1368.325       1308.852
      -18.55457      -334.5776       661.8665       543.8789      -1454.794
      -2619.146      -957.6372       1788.711       3093.889       2036.634
      -251.0093      -1714.649      -1762.774      -1376.913      -679.4933
       383.6649       796.7543       166.0199      -643.8572      -480.4159
       131.2710      -435.7163      -1629.660      -1969.267      -1290.062
      -143.1589       370.2294       73.71313       293.9980       1211.625
       1479.170       1299.085       1621.880       694.6743      -1670.833
      -3076.521      -2595.667      -1222.937      -67.46191       1224.332
       2753.353       2859.157       824.9131      -1611.111      -2024.325
      -376.9900       918.7932       1194.773       1547.345       1943.478
       1438.626      -72.77441      -1169.344      -1332.325      -762.9368
      -548.5991      -1587.754      -1439.619       545.3833       1830.607
       2117.911       2119.693       995.8997      -895.3638      -1041.376
       7.961014       88.03113      -400.8040      -643.7177      -465.1929
       402.8706       2125.654       2940.649       1002.841      -842.6265
      -796.9978      -880.6379      -1197.981      -593.8252       1050.362
       2146.433       1371.849      -192.8364      -1006.177      -292.9504
       181.8872      -1213.292      -2189.343      -610.9536       1331.333
       482.4297      -1808.563      -2367.900      -1496.148      -825.5933
      -1054.149      -848.3057       900.0898       2841.049       3996.023
       3873.810       1979.135      -429.5251      -1272.333      -844.6621
      -453.4497      -233.4263      -1089.904      -2071.902      -907.3721
       781.8013       1355.157       1614.385       1280.235       31.96118
      -1008.575      -492.3757      -474.1914      -1992.141      -1223.012
       1366.125       2499.447       2365.934       1209.789      -512.1992
      -1441.995      -1433.544      -1392.519      -1226.024      -380.8286
       1078.944       2436.418       3112.979       2350.707       472.0735
      -421.5640      -852.9897      -1877.118      -1806.707       109.2544
       1946.370       1788.776      -18.14551      -1731.399      -1666.580
      -937.2310      -1174.429      -1346.499      -412.3721       1566.302
       2911.983       2454.152       1616.300       491.0522      -1276.819
      -2097.724      -1673.419      -1434.743      -1731.747      -1109.751
       275.3154       1132.754       1954.304       1942.515       1101.114
       673.8450       235.8239       85.83630       308.6880       216.4921
       9.953369      -548.6846      -1303.864      -1444.285      -1382.020
      -1382.479      -731.5052      -54.85779      -28.62915       205.6975
       633.5000       127.5275      -633.2336       376.8589       2012.807
       1624.614      -256.1509      -1269.065      -879.9451      -162.8042
      -475.2256      -2144.270      -2446.162      -850.5150      -237.8741
      -670.6953      -326.1331      -100.8857      -664.5767      -899.5273
      -789.4665      -227.1459       200.5713      -698.2686      -1834.814
      -2532.259      -2604.773      -1097.150       1190.077       2481.290
       1482.721      -779.8896      -1684.044      -546.3915       316.1177
      -715.0107      -1344.893      -833.7947       287.7852       2050.454
       2950.276       2697.476       2299.537       1830.411       207.7490
      -2079.213      -1932.923       845.7715       2384.191       1727.990
       1408.782       1740.912       2207.335       3115.254       2453.993
      -487.1758      -2662.097      -2888.873      -1888.175      -204.9464
       732.8915       100.9204      -1030.638      -846.3242       714.2397
       1646.317       1129.172       17.93799      -933.8867      -1590.983
      -1850.180      -1062.011       630.4746       1453.742       418.3428
      -1643.442      -2829.826      -2202.883      -1151.459      -695.3185
      -582.1943       59.97070       1238.062       1167.357      -142.2681
      -1215.960      -1857.357      -2049.251      -1140.255       333.5562
       1039.102       1238.646       1566.881       1770.256       1878.012
       1467.799       89.13306      -982.9521      -973.4127      -455.2905
       990.2876       2584.520       1745.813       13.21924       455.6187
       911.3561      -188.0321      -535.3119       206.9871       291.4629
      -679.1210      -1111.112       186.8047       1489.890       400.1382
      -1957.922      -2377.174      -1044.948       16.17920       451.5575
       602.6819       742.3097       433.1450      -166.8284      -635.7471
      -1406.775      -1799.454      -1922.283      -2786.611      -3640.634
      -3760.022      -2980.206      -908.3525       1129.040       1904.022
       2368.689       2966.801       2640.287       1386.349       418.3359
      -524.7566      -1012.947      -810.7725      -2104.062      -3582.411
      -2572.477      -120.1094       2184.102       2610.541       1413.437
       1097.242       613.9629      -865.5850      -1089.206      -179.9614
      -418.1382      -1267.885      -1152.404      -695.0645       165.2090
       1126.505       1304.272       1302.415       1523.244       1596.306
       359.7981      -1012.490      -874.1694      -908.7388      -1194.658
      -636.8128      -229.6354       26.30438       415.2183       86.35217
      -328.9007      -5.215088      -247.6362      -592.6729       216.9482
       511.2975      -413.0541      -664.3809       529.3428       2046.427
       2461.348       1081.125      -548.7349      -872.1045      -677.7646
      -558.5483      -710.4209      -1527.135      -1715.009      -402.3286
       720.2686       1283.894       1752.486       1226.716      -92.53906
      -955.6426      -529.0941       389.6364       271.5979       191.5713
       951.3612       788.2479      -409.2803      -444.8217       295.8406
      -362.1211      -2112.859      -3083.828      -2051.060      -108.5986
       968.8750       1591.156       1594.710       785.5098       976.9419
       1850.290       1460.354       46.73096      -1259.731      -1339.131
      -482.9367      -322.7769       237.0439       1687.311       1639.322
       604.7625       215.0839       82.56374       46.23242      -186.2036
      -1454.258      -2265.400      -630.4946       1637.081       2328.484
       1793.964      -1.841797      -1910.356      -1560.604      -617.9114
      -1324.046      -1429.587       1224.123       3133.401       1079.967
      -1413.221      -1561.315       123.6025       1457.195       453.1777
      -459.1506      -12.85669      -656.9697      -1976.387      -1538.600
       550.0732       2439.135       2274.407       605.0343       225.5342
       1271.012       1427.187       1399.990       2222.270       1446.726
       50.77661      -361.3276      -1101.133      -784.6663       768.6406
       859.0980      -57.90442      -37.02222      -224.0415      -1275.142
      -1746.711      -1154.219       288.5098       1599.727       1784.418
       1301.994       1244.646       1227.887       470.8290      -53.23572
       402.8904       497.3254      -75.20203       144.6479       251.0044
      -681.9146      -744.8242       691.3687       2340.775       2644.268
       993.9932      -1019.953      -1350.691      -779.7188      -1145.709
      -2069.089      -2467.143      -1438.602       319.0886       837.4151
       229.7415      -59.26660       823.1348       1752.075       1421.360
       29.22632      -1268.807      -1000.099      -228.4819      -659.9626
      -1121.602      -514.3863       430.7441       387.5908      -764.4741
      -1737.982      -1622.111      -561.8966      -218.4443      -867.5901
      -746.0582      -288.8775      -140.4776       13.31543      -343.7642
      -1000.949      -830.1838       452.3618       1697.470       2111.857
       1457.906      -606.9863      -1938.160      -1508.238      -933.3395
       103.2771       1150.332       376.2141      -1174.688      -1415.665
      -307.2078       978.2568       1725.483       1627.008       1876.335
       3381.812       4919.148       6310.389       7761.340       8844.758
       9324.932       8541.615       6552.271       3854.829       728.3066
      -1886.453      -3902.000      -7544.234      -12430.08      -14756.70
      -13938.28      -12223.28      -9879.775      -5858.253      -2196.783
      -1687.133      -2177.976      -1326.937       414.4795       2443.754
       4024.094       5929.326       9189.199       12085.00       13535.29
       12631.40       9538.811       7256.167       5271.255       2825.722
       2278.577       2691.462       2177.553       2500.895       4573.924
       5123.206       3520.444       2365.236       2565.832       4646.396
       7104.486       7313.305       6270.803       5658.597       5363.725
       4003.785       1417.519       168.0874      -482.0254      -2715.131
      -4433.530      -4292.027      -3402.615      -2057.277      -417.5386
       227.4745       240.3992       1160.036       829.8135      -2265.697
      -4597.141      -4795.047      -5318.178      -6449.227      -7210.344
      -8408.539      -9553.496      -9332.191      -9020.328      -9116.656
      -8178.807      -6973.713      -6888.078      -7983.139      -8884.568
      -8300.214      -6556.064      -3294.906       355.8428       3222.854
       6482.713       8890.703       8377.512       5263.656       2084.933
      -162.4453      -2523.371      -3610.377      -2725.095      -781.4771
       1849.745       4313.078       5791.864       5306.417       3070.688
       695.4248      -1412.054      -4144.176      -7064.922      -8144.244
      -6688.819      -3709.399      -1239.832      -96.28897       239.6980
      -595.8926      -1756.867      -2271.614      -2863.549      -3040.743
      -1903.649      -659.5278       378.5376       1536.127       1851.047
       808.6895      -636.3389      -1206.502      -3466.828      -8759.676
      -11289.42      -8561.405      -5163.289      -2662.622       114.2744
       1745.588       1771.049       1795.592       2354.494       2516.723
       1450.266      -157.4584      -465.6948       516.8623       1511.545
       2900.117       5088.049       6894.043       7526.777       7832.105
       8335.062       8382.693       7171.231       4447.705       1626.988
       62.89014      -487.2910      -594.7672      -780.3584      -147.5840
       809.7986      -491.5264      -2136.498      -1158.182       386.3218
      -166.4609      -2262.660      -4362.383      -5653.932      -5800.781
      -5897.371      -6349.505      -5171.938      -3212.423      -3588.785
      -5008.829      -4311.265      -1992.951      -320.3691       749.3223
       2456.799       4015.538       4566.427       4513.236       4496.138
       4748.198       4262.684       2620.134       961.6904      -437.8047
      -1850.283      -2643.821      -3161.115      -4030.625      -3629.127
      -2050.921      -1146.233      -132.7233      -30.88037      -1911.026
      -2953.301      -2857.053      -2959.935      -3075.834      -3371.973
      -4348.070      -3854.355       128.0430       3801.900       4368.350
       4418.868       4792.423       4161.871       3334.037       2560.775
       1679.218       1740.583       2184.222       2319.844       1892.392
       1270.557       1549.712       1580.100       528.2058       98.64252
       444.1566     -0.1640625      -502.6685      -237.5908      -257.5933
      -670.9532      -539.8428       284.3776       619.0305       15.25269
      -565.1763      -872.5327      -943.8012      -97.70166       861.6251
       576.4295      -56.85986      -627.9915      -1206.882      -1166.825
      -309.1189       1061.112       1916.354       2779.312       3372.112
       3127.450       4090.285       5143.122       3825.955       569.8096
      -2929.900      -3622.666      -1881.434      -836.1133       394.5464
       2002.700       1210.710      -1002.836      -894.7117       809.3402
       855.0562      -439.9673      -1073.294      -948.3231      -710.2347
      -136.7079       618.2537       21.52881      -1746.876      -2435.175
      -2296.199      -2432.831      -2022.705      -221.7070       1868.042
       2107.077       1203.193       633.1404      -153.2693      -385.7010
       595.6873      -101.6035      -2156.144      -1468.069       893.1921
       1328.139      -429.5885      -749.3115       2716.361       5855.172
       6074.068       5062.029       3469.899       2320.782       1717.629
      -192.7109      -2847.003      -3892.505      -3049.023      -1537.926
       423.2852       2514.325       2854.511       741.6293      -307.4685
       695.0845       1005.507       1078.551       1668.812       2105.789
       1355.933      -138.6819       22.74707       1008.477       510.0615
      -1452.929      -2859.333      -1484.277       1040.372       1553.999
       117.6069      -2097.154      -3186.367      -2272.222      -986.9598
       215.2871       1134.869       935.0685       110.1617      -186.4604
       315.2061       32.14355      -1211.879      -1051.501       639.2124
       1390.454       424.8979      -938.4263      -1521.553      -808.6431
       594.5669       592.1440      -794.4065      -814.4064       559.9104
       727.8970       402.8066       659.5537       41.41089      -837.2108
      -674.8282      -191.0831       18.16388       71.45948      -55.10754
       108.7988       270.8967      -383.0269      -649.2446      -655.0298
      -1782.196      -2106.163      -1101.223      -2053.761      -3767.881
      -3229.688      -1602.620      -399.2334       591.1533       1713.605
       1900.586       1327.636       1379.931       1465.178       1341.339
