     0.02500000      -20621.64       29355.76      -12345.00      -12345.00
      -29.97998       239.1200      -37.34000      -12345.00      -12345.00
       0.000000       27.82000      -12345.00      -12345.00      -12345.00
      -12345.00      -12345.00      -12345.00      -12345.00      -12345.00
      -12345.00      -12345.00      -12345.00      -12345.00      -12345.00
      -12345.00      -12345.00      -12345.00      -12345.00      -12345.00
      -12345.00      -29.74280      -64.01430       644.0000       0.000000
      -31.23600      -65.83800       0.000000       167100.0       0.000000
      -12345.00      -12345.00      -12345.00      -12345.00      -12345.00
      -12345.00      -12345.00      -12345.00      -12345.00      -12345.00
       240.9483       47.07051       226.1497       2.166322      -12345.00
      -12345.00    -0.03746907       0.000000       90.00000      -12345.00
      -12345.00      -12345.00      -12345.00      -12345.00      -12345.00
      -12345.00      -12345.00      -12345.00      -12345.00      -12345.00
      2008       318        11        13         7
       740         6    -12345    -12345     10765
    -12345    -12345    -12345    -12345    -12345
         1         7        13    -12345    -12345
    -12345    -12345    -12345    -12345    -12345
    -12345    -12345    -12345    -12345    -12345
    -12345    -12345    -12345    -12345    -12345
         1         1         1         1         1
ESP03   -12345          
01      -12345  -12345  
-12345  -12345  -12345  
-12345  -12345  -12345  
-12345  -12345  -12345  
-12345  -12345  -12345  
-12345  -12345  BHN     
XH      -12345  -12345  
[...]
       949.4180      -2202.839      -1735.439       4839.291       2805.436
      -661.6893       478.5000      -2292.347      -3780.727       166.4884
       1420.457      -1353.901      -2045.076      -612.7939       947.7935
       670.8513      -1033.984       743.9873       2465.618      -34.88745
      -656.4575       1331.160       1023.671      -723.7502      -1151.345
      -737.8605      -436.9736       493.4194       1544.599       382.7439
      -676.6892      -553.9766      -1156.987      -1016.910       115.6484
       1425.077       2608.958       464.3413      -1914.457       440.9780
       1917.123      -341.0977      -1966.293      -3407.241      -2724.570
       1766.282       1937.701      -2100.364      -1103.868       1669.080
       1796.520       714.7534      -1295.615      -769.7871       1933.254
       90.37012      -2358.540      -141.4600      -1079.636      -3828.281
       35.76367       2740.457       132.4272      -14.46619       210.9946
      -1577.565      -15.12598       1306.740       483.1898       645.6299
      -1419.275      -3225.724       97.91589       1579.745      -1170.632
      -2019.719      -416.3398       134.6536      -602.8282      -296.2908
       710.9756       1038.397      -75.59534      -721.7830       76.64426
       238.2324      -746.1045      -2191.300       201.2256       2340.593
      -386.9512      -3310.463      -2157.497       1747.797       3443.449
       1019.127      -3095.987      -1773.922       1603.917      -19.86230
      -344.9680      -557.1787      -2512.838      -732.0172       439.9344
       59.83594       1223.932       259.2201      -214.3994      -674.6143
      -2854.929      -1540.415       307.3273      -98.36136       61.23096
      -604.6792      -1832.114      -201.6362       2959.792       785.9426
      -2210.090       3588.341       5973.840      -3048.309      -4033.604
       1981.499      -97.84619      -2075.072       328.5782       762.6578
      -552.2646       1182.958       3579.962       458.8413      -2096.859
       1845.038       3544.233      -813.4072      -2839.146      -5069.133
      -6313.274      -918.1348       2552.157       2601.496       3018.599
       1991.938       2243.715       3805.360       2966.143       1643.415
      -1146.926      -6113.494      -5763.417      -239.8525       2764.137
       1890.436       668.7520       1799.669       943.0820      -4933.364
      -4416.426       1180.427       884.6123       1869.255       4745.913
       964.8652      -2331.205      -1283.916      -1402.338       571.7241
       2447.523       966.4580       1796.643       213.6670      -4589.159
      -1713.684       5927.622       3815.636      -3052.032      -1479.929
       732.4189      -3808.730      -4243.768       167.2717       171.9482
       333.1133       2899.851       174.7764      -5058.433      -637.4316
       6729.483       3769.465      -152.8022      -334.8521      -1013.025
      -2558.752      -3958.281      -1604.138       680.3086       2435.604
       5144.294       1684.783      -1016.381       2814.192       2448.917
      -2095.780      -4344.093      -2385.062       1951.325       2164.548
       1593.515       1231.583      -799.0674       1043.746       3073.516
       2454.869       1609.518      -750.9531      -3034.390      -5032.534
      -5217.165      -1336.012       1689.581       2007.791       596.9035
      -824.9775       1409.815       2166.547       1101.859       762.8486
      -1758.373      -1811.050       739.6240      -731.5020      -3399.445
      -984.2559       2633.965       1443.897      -465.6172      -2770.201
      -4990.597      -1261.915       3468.652       3742.563       1959.655
       193.7939       1247.670       2452.829      -2318.798      -6858.104
      -1846.101       3637.392       656.7258      -1482.604      -1473.923
      -4165.368      -2000.443       4598.035       5499.175       2302.404
       5043.314       7989.897       3282.385      -528.1470      -396.2109
      -3079.945      -7999.830      -8021.249      -4746.618      -1061.380
       3112.695       2460.829       2326.351       3666.948      -1473.367
      -2473.767       1504.189      -1237.269      -2421.120      -642.7773
      -2616.501      -2021.451       1589.576       1706.796       1859.891
       1653.320      -3503.269      -3266.241       2704.718       2621.022
      -728.3374      -1391.411       977.4209       2965.569       571.1094
      -2004.322       384.8198       2656.668       1423.719       4121.990
       7376.220      -1111.754      -8704.524      -5834.517      -3391.362
      -3090.094      -1338.303       431.5957       1367.381       3590.007
       2945.736      -1526.029      -1387.746       1080.948       1397.093
       1458.375      -583.1934      -2955.863      -2475.135      -2974.710
      -1386.522       3083.232       3491.207       3453.077       3772.065
      -877.6704      -1721.930       1913.427      -558.6377      -2213.090
      -146.8772       909.3662       2275.082      -1166.527      -3595.974
      -148.0894       1262.392       18.23853      -1673.089       1025.431
       1648.355      -2284.405       1050.073       2698.628      -3085.043
      -4535.321       243.6885       4304.713       2540.896      -4032.871
      -4397.311       3052.032       3419.627      -1907.210      -628.3516
       3216.471       2996.519       457.4424       140.1001      -66.26074
      -2113.524      -861.5039       2134.582       1135.516      -2224.582
      -444.5625       2003.724      -2494.831      -3248.481       1809.374
       1171.514      -2497.372      -2023.227      -1721.607      -2053.497
       2028.155       4001.651      -1445.448      -1928.833       2579.863
      -238.9072      -2841.930       1851.018       4629.126       522.4927
       655.4404       4642.174      -2007.745      -5733.922       992.8823
       984.1768      -2630.903       87.02454       1295.197      -1017.162
       1606.320       2870.533      -840.7363      -4032.116      -5061.391
       227.0586       4001.814       2142.471      -462.8208      -1671.039
       1270.448       1189.375      -2083.589      -2003.015       277.1521
       1623.451      -1120.504      -1349.032       1406.008       1512.130
       741.1909      -1600.822      -1769.729       1614.755       3373.278
       1367.032      -1853.266      -83.58862       2081.950      -995.0122
      -3074.647      -285.2134      -372.9365      -4253.141      -898.0791
       4629.533       908.7178      -2649.556       535.5757       1861.257
       1706.563       2481.829       886.7432      -3152.182      -6826.230
      -2989.793       4865.967       5609.260       1783.241      -1577.702
      -2287.183       2073.878       3261.951      -2289.549      -3073.816
      -215.2812      -2107.114      -222.4502       4120.283       2220.475
       612.3125      -1391.598      -2645.665       2946.810       5173.849
      -430.2891      -4206.167      -1180.953       592.0669      -1805.835
      -435.9517       3086.213       2411.764      -667.1616      -67.62500
       2628.249       114.1957      -1424.466       1322.452      -1001.715
      -2831.104       1837.428       2749.672      -143.6206       824.6019
       698.2939      -1779.493      -217.5804       518.4639      -1017.082
      -1417.100      -2829.357      -210.0117       5384.900       4191.812
      -2819.478      -5474.640      -1558.984       1510.811       3397.925
       1354.323      -5298.320      -4476.225       3532.920       2239.123
      -6185.412      -5364.332       1250.358       1585.150      -3691.077
      -3718.981       1750.280       2132.679      -1701.715      -3648.645
       1210.190       4858.589       19.22559       508.6670       5673.136
       2701.559      -2320.500       381.5791       3270.091       1560.071
       1895.290       1682.408      -608.2383       1143.071       3896.234
       306.2334      -3171.398       919.7129       5131.642       1351.160
      -3773.159      -2830.003      -461.8948      -105.4773      -292.5974
      -657.2100      -934.0703      -1373.715      -1528.969       43.62335
       577.9653      -559.8037       1720.358       3622.538      -47.49707
      -1723.045      -942.6135      -1088.204       1494.283       2146.654
       1528.044       1749.268      -1415.416       982.1367       6264.726
       639.8730      -3134.426      -187.2949      -2607.053      -4509.103
      -149.8115       3693.569       1201.715      -2909.924      -2514.458
      -340.9658       1036.012       1649.272       807.6169      -1129.405
      -1454.107       751.3589       3025.205      -295.6279      -5238.740
      -1622.110       3508.878      -269.1187      -3393.881       702.5850
      -551.8643      -5406.479      -596.6064       6059.906       4280.010
       147.5576      -1578.869      -2261.799       61.97070       2406.305
      -314.1416      -2405.598      -827.2822      -1714.077      -719.0244
       2461.449      -1930.810      -4893.086      -804.2061      -677.8296
      -2611.463       1128.759       1121.550      -3385.469      -273.6709
       4343.024       4922.653       1819.111      -2443.068      -1307.520
      -1125.258      -2339.323       386.3081       2217.934       1522.298
      -2232.918      -2949.769       2440.893       1507.535      -1779.476
       940.1631      -357.1191      -5350.574      -3904.347      -1822.793
      -3924.050      -808.5674       2716.654       678.1627      -114.9080
       787.0481       1071.363      -2531.386      -5262.994       999.3579
       4094.816      -2121.130      -3011.885       1035.864       16.51392
      -1761.194       381.9976       1919.369       1004.367      -1887.206
      -3324.606       1837.406       2596.841      -1716.680       1080.573
       2616.109       231.7891       1959.360       4674.893       4022.591
       2502.441       650.5195      -1902.807      -752.0649      -1243.916
      -2378.081       1736.630       154.0488      -3856.153       728.0195
       3721.620      -248.2559      -755.8296       2022.948       1541.111
       150.1802      -1675.424      -4488.322      -3511.956       960.8364
       1976.253      -411.1191      -2160.972      -377.7588       3974.474
       3317.355      -2162.837      -3448.372       766.4358       946.9658
      -2461.369      -1013.107       612.4117      -1151.935       1652.217
       5431.369       1768.801      -1573.249      -3489.291      -3412.015
       4418.136       5808.062      -3044.953      -3267.091       3120.202
       1080.007      -3110.489       778.3838       3839.227      -1829.020
      -3906.069      -227.9673      -2153.823      -1367.998       5424.846
       2586.492      -4167.353      -827.1479      -53.17090      -4849.626
       139.1211       4206.476      -2742.568      -2784.115       2596.000
      -535.5583      -1421.458       213.6670      -3985.068      -3039.915
       1951.803       1898.193      -610.3242       1804.469       4556.877
      -892.4236      -1160.415       1903.709      -2397.621      -4467.336
      -1766.185       361.6149      -540.4883      -33.25537       3096.105
       166.7776      -2862.014       2803.969       4312.098      -527.2373
       1204.038       3467.185      -360.0796      -759.2505       2565.810
       1788.456      -1002.578      -2822.483      -1016.528       3548.517
       2595.320      -317.4956       864.4824       4042.719       3409.763
      -2426.560      -3794.329      -449.3145       1799.037       2932.924
       323.1055      -3495.079      -1576.397       642.1016      -106.4660
       85.28491      -171.3579      -1971.317      -2820.274       1359.434
       3474.468      -1976.607      -2413.747       2856.211      -143.7373
      -5744.459      -1972.450       2278.699       1414.931       1707.389
       1450.856      -907.1609      -1218.104      -315.3176      -931.5479
      -469.6945       165.7874      -642.7170      -240.7236      -2551.769
      -3919.491       56.82007       1114.579      -388.9432      -174.3965
       602.8994       1211.276      -1361.437      -3159.074       660.2759
      -13.43359      -5307.622      -2958.643       2302.247       1046.980
      -566.2109       3400.078       5949.133       6615.141       12423.19
       17988.39       19149.83       19881.21       15510.04       8059.084
       5649.117       3085.727       923.4297       2314.643       414.3071
      -2193.726      -1850.691      -4124.242      -10209.91      -17355.71
      -20621.64      -19525.57      -18347.02      -16424.49      -12317.85
      -7769.658      -6166.627      -7075.462      -3611.797       5145.742
       9212.223       14383.48       26655.66       29355.76       22497.34
       21989.51       23440.50       14241.93       3854.938       6278.613
       10055.94       7294.174       5740.600       7995.164       11082.60
       8674.205       3685.238       493.3750      -5047.152      -10133.48
      -10337.17      -11034.20      -15013.97      -11819.52      -4171.114
      -3214.887      -2995.414      -2549.988      -8358.117      -11432.89
      -7389.730      -8174.523      -10267.04      -6375.449      -6278.109
      -11186.49      -11490.15      -5988.930      -4888.941      -8557.471
      -7846.664      -5641.397      -4988.357      -3839.514      -2595.958
      -2625.890      -2790.410      -1314.368      -370.4316      -1663.465
      -4842.618      -4919.613      -1028.891       948.4160       2393.707
       6420.962       5981.495       924.7676       562.8809       3685.146
       2462.719      -1918.297      -3436.593      -3117.198      -1088.734
       772.6075      -228.2607       595.9868       2389.483      -91.93848
      -5114.848      -5570.465      -5932.141      -10911.11      -8921.813
      -2145.690      -1371.951      -1007.949       4326.229       8619.032
       3855.597       458.6523       6462.609       7763.826       3660.566
       5752.207       8949.943       6400.080       4104.619       4737.766
       2759.349       870.9231       1012.280      -2449.291      -2928.854
      -259.6592      -3499.188      -6257.978      -2651.062       373.7490
      -2750.864      -4044.613      -1126.012       1470.217       3063.595
       454.5459      -2822.376      -1211.722       816.7861      -3006.404
      -6514.956      -4291.691      -2797.266      -5966.541      -8247.397
      -898.8140       4175.001      -359.7314      -373.4531       6312.426
       10330.67       6503.639       4186.797       9745.697       9567.531
       244.2236      -4786.724      -1862.291       1600.505       2029.074
       1436.220      -263.3298      -1124.108       4767.555       6227.294
      -1294.068      -1086.568       959.3467      -2323.879      -1058.174
      -2054.042      -5662.110      -1213.492       928.2087      -1647.950
       553.0791      -2356.758      -5948.643       377.7188       2531.490
      -1652.165      -286.9192       1706.809      -340.4600       2676.914
       7151.250       3600.079      -540.8462      -404.9199      -2359.066
      -3518.125      -2030.104      -2477.951      -1597.770      -3531.500
      -8004.146      -6845.191      -4921.614      -5079.970      -1512.716
       2208.970       282.5869      -367.7729       2208.401       1901.394
      -1898.637      -3969.740      -550.2886       785.1682      -62.63184
       2063.135       2072.219       1539.485       4483.769       2396.532
      -2291.480       764.6855       4188.621       2948.594       1819.163
       1797.981       1467.597       1181.337      -762.3516      -5370.718
      -5373.100      -4809.863      -8371.066      -6002.753      -1029.791
      -1481.657       2134.454       5735.906       1583.506       2142.039
       4818.193       1947.056       1985.899       1874.824      -2480.066
      -1698.918       2613.109       3717.238       2768.836       1842.388
       1044.519      -203.0205       2042.998       2822.453      -47.09961
       3623.412       9479.292       5222.550       371.4346       4000.935
       3500.755       1146.900       5046.624       3593.980      -3962.830
      -3901.602      -1043.998      -6757.218      -7549.336      -304.4077
       233.3140       90.49170       2572.405       281.1724       984.3779
       4295.516       2933.355       3435.765       3641.710       2485.158
       4779.033       225.4272      -4348.217       2549.651       4219.988
      -5311.096      -6346.449       1712.289       1366.562      -1649.079
      -230.4727      -2701.698      -2972.448       2399.372       936.0359
      -1798.974       3299.872       1701.039      -4997.303       2756.531
       9589.456      -1938.689      -6748.358       382.1470      -1560.990
      -3630.169       2975.914       2551.613      -4181.586      -1823.998
       4428.430       4100.260       1098.876      -944.0753      -510.7441
       2487.890       4333.583       4391.709       2952.154       293.7910
       1467.153       2231.383       752.4446       402.6240      -1990.747
      -734.1719       712.2207      -6953.836      -11356.22      -6814.047
      -5779.766      -7504.812      -3760.971      -932.7238      -1140.933
       1438.117       2088.615      -1423.868      -900.5454      -424.8691
      -4408.354      -218.2139       6347.289       456.6201      -5939.261
      -4240.580      -946.1865       1989.278       2889.424       172.3430
       459.7412       2599.966       701.1226      -160.8591       835.7081
       5.640808      -366.3994       1584.732       1786.075      -2470.889
      -4183.485       121.8154       1066.256      -3112.454      -341.7559
       3939.771      -368.2097      -1410.113       4045.108       3179.811
      -2191.384      -1107.641       4336.122       3877.347      -1571.821
      -1747.721       1288.055      -549.8119      -1339.678       1157.865
       1086.291       2066.938       2469.991       22.18164       2799.481
       5953.270       2061.302      -1105.264       3473.764       7306.501
       1224.339      -5757.155      -3161.883       3350.487       2558.584
      -2983.180      -3919.055      -3340.553      -2766.781      -4834.400
