     0.02500000      -21517.38       20329.17      -12345.00      -12345.00
      -29.97998       239.1200      -37.34000      -12345.00      -12345.00
       0.000000       27.82000      -12345.00      -12345.00      -12345.00
      -12345.00      -12345.00      -12345.00      -12345.00      -12345.00
      -12345.00      -12345.00      -12345.00      -12345.00      -12345.00
      -12345.00      -12345.00      -12345.00      -12345.00      -12345.00
      -12345.00      -29.74280      -64.01430       644.0000       0.000000
      -31.23600      -65.83800       0.000000       167100.0       0.000000
      -12345.00      -12345.00      -12345.00      -12345.00      -12345.00
      -12345.00      -12345.00      -12345.00      -12345.00      -12345.00
       240.9483       47.07051       226.1497       2.166322      -12345.00
      -12345.00     0.03195636       0.000000       0.000000      -12345.00
      -12345.00      -12345.00      -12345.00      -12345.00      -12345.00
      -12345.00      -12345.00      -12345.00      -12345.00      -12345.00
      2008       318        11        13         7
       740         6    -12345    -12345     10765
    -12345    -12345    -12345    -12345    -12345
         1         7        13    -12345    -12345
    -12345    -12345    -12345    -12345    -12345
    -12345    -12345    -12345    -12345    -12345
    -12345    -12345    -12345    -12345    -12345
         1         1         1         1         1
ESP03   -12345          
01      -12345  -12345  
-12345  -12345  -12345  
-12345  -12345  -12345  
-12345  -12345  -12345  
-12345  -12345  -12345  
-12345  -12345  BHZ     
XH      -12345  -12345  
[...]
      -3194.128      -749.2323      -1075.427       1958.432       2605.809
       1122.731       2331.662       1078.949       419.0104       1254.533
      -463.1580      -1430.916      -520.2529       243.9377       260.8561
      -146.1583      -771.5948       89.77808       607.5723      -1853.433
      -609.2739       1943.635      -375.8945      -1316.441       1450.168
       2058.904      -412.3391      -405.1443       1595.877       569.8669
      -941.3733       62.14453       912.2078      -791.9399      -1367.233
       1531.122       1149.342      -1441.721       777.0945       1251.198
      -416.3625       1868.721       202.6226      -3551.369      -61.02332
       636.0120      -772.6309       2701.658       1339.890       652.0947
       4045.418       1313.273      -1095.417      -740.0054      -1899.846
      -862.8636      -162.5079      -364.2686       1506.240       3.903320
      -1831.819       1389.451       1133.620      -2899.098      -2348.305
       827.3146       657.9565      -751.6313       812.7812      -736.1016
      -2072.359       2656.644       949.7817      -3588.308       1638.848
       3748.889      -1796.818      -1983.292       1436.901       733.3945
      -2513.161      -2893.915       1466.802       1513.760      -240.7144
       2080.688       76.18945      -1356.962      -638.2805      -1240.394
      -351.8186      -1324.914      -908.9622       1406.534       385.1875
      -1561.455      -2012.954      -1801.985       1079.398       1550.438
      -3440.862      -2385.802       2385.528       1142.572       451.2786
       1922.722      -676.5889      -3338.838      -247.5835       1660.249
      -557.9680      -1118.827      -922.3276      -42.42639      -104.6150
      -463.1592       3115.574       3114.088      -928.5200      -2105.789
      -3859.658      -4694.562       1022.793       3329.084      -1255.967
      -1108.942       1075.925      -2543.898      -1880.575       2323.612
       77.21045       1098.437       3062.114      -1234.018      -2884.766
      -2188.504      -1465.883       173.6533       822.7432       2483.373
       3413.144       1277.414       1517.550       2043.472       221.1470
       375.5031      -99.06494      -1697.950      -1237.783      -2810.882
      -4112.545      -73.58789       2735.885       2926.717       3275.804
       427.1831       290.5371       4327.265       2305.292      -2826.783
      -5595.131      -6353.921      -2240.594       1216.776       2266.730
       6179.495       5555.941      -1668.354      -4208.528      -3418.087
      -3789.007      -2823.506      -2860.711      -474.3164       4671.686
       3922.312       2333.179       4231.939       2485.680      -1576.805
      -1478.758       690.2412      -1369.723      -3403.885       281.5703
       3161.591       2432.981       1215.891      -1316.239      -3707.948
      -1787.578      -633.6602      -1122.284       795.3818       1127.938
       1926.795       2410.358      -1156.146      -3144.567      -491.0356
       3434.398       760.1904      -1747.253       2922.310       2975.736
      -3774.625      -5558.177       1555.487       3314.497      -197.4766
       3181.165       3075.649      -1180.299      -173.1123       449.2539
      -2331.547      -5474.024      -3551.995       1471.592       4500.262
       8130.063       4337.163      -1350.231       1661.017       676.3594
      -2656.645      -1171.297      -461.5137      -3080.848      -5680.715
      -1563.046       2643.238       2050.124       4631.318       3533.262
      -2548.900      -1675.667       1146.240       1743.028       960.8799
      -2271.469      -2805.751      -1804.308      -352.7913       1855.960
      -246.5693      -2520.718      -1279.194      -175.5933      -2264.077
      -2251.210       3927.002       3773.307      -1990.860      -852.0229
       1593.717      -1480.167      -3179.368       428.0049       2961.256
       2393.370       1066.481      -354.9448      -1702.674      -1784.154
      -1419.091      -1039.572       2201.959       5141.351       3890.906
       4133.189       6180.487       4328.619       535.1511      -123.3948
       579.1973      -4738.164      -12261.93      -10071.77      -1249.918
       2762.000       2226.848       5359.168       8795.596       1671.559
      -8001.126      -5474.159       2361.784      -42.42578      -6722.318
      -3393.402       2707.283       3604.288       4358.205       5500.695
       1586.440      -3311.776      -3269.255      -2914.881      -813.4531
       1432.191      -2937.291      -3654.364       3027.010       6964.182
       5526.167       2213.923      -512.2192      -1106.685       1712.307
       2497.733      -1246.912      -2506.357      -2480.597      -4431.961
      -2904.961       654.0570       571.3853      -54.63965       2933.691
       3708.900      -912.5310       935.7861       2153.646      -6618.938
      -6804.033      -1061.133      -2240.482      -2629.296       787.1543
       2445.599       1967.957       4814.782       3309.673      -625.3584
       4701.618       4607.703      -3520.867      -5862.645      -4361.997
      -2034.154      -550.5005       1327.250       5598.502       4724.021
      -2849.224      -3589.049       4960.494       5109.608      -2107.023
      -3319.814      -3280.016      -4680.490      -4332.756      -2710.373
      -1175.152       1763.559       5647.920       3054.061      -908.0420
       3956.350       8468.686       3232.940      -4282.441      -6360.706
      -4623.855       360.5312       4770.570       1743.277      -2104.756
      -2302.466      -3167.592      -2424.631       1063.473       3018.141
       1114.612      -442.1816      -1795.636      -3014.349      -917.8350
      -1662.985      -2487.472       1165.897       2237.942       656.4272
      -898.8748      -591.9526      -895.9160      -3238.468      -2323.575
       107.6594       438.4575       159.4121       4425.632       6624.304
       1331.371       1137.175       1374.051      -2562.763      -2894.590
      -3901.533      -2482.008       2084.500       1478.112      -1900.491
      -2189.607      -557.8087      -217.5430       2428.299       6092.161
       5281.457      -3244.169      -6444.386       2670.667       1151.846
      -3948.600       838.1738      -1528.923      -4590.818       1236.782
       2379.917      -2880.166      -3605.173      -1239.461      -2853.360
      -2688.810       235.3920      -171.1523       131.3438       2913.745
       3362.642      -443.6611      -1745.507       2178.921       3423.188
      -206.1836      -4659.521      -6238.022      -5267.142      -2728.677
       1515.743       2886.009       1468.474      -898.7720      -568.1289
       4208.962       2948.074       273.5803       1087.072      -3045.115
      -2632.715       4137.336       3674.564       445.5059       759.6719
      -2956.503      -5620.415       285.5728       985.7139      -4141.279
      -322.6401       2732.339      -704.3184       2470.438       5548.976
      -44.65527      -3710.677      -2135.046      -576.5850       2086.445
       3880.357       478.2012      -2702.762      -4649.605      -4900.709
       1588.804       3600.451      -547.5227       405.4390       559.7788
       524.2085       2593.481       1294.206      -88.52466       374.1904
       1580.818      -827.3184      -4680.512      -2371.573       1819.631
       3267.272       2158.333       997.8389      -500.3904      -1944.778
      -157.1179       884.0029       512.8047       2160.327       1324.511
      -4158.020      -5094.079      -737.9844      -519.1130      -1587.399
      -52.18750       3223.401       4614.606      -89.38770      -3152.688
      -3897.426      -8057.736      -6946.814      -1715.544      -2441.461
      -1158.386       1437.101      -1231.356       49.03418       4012.958
       3592.012       2083.657       3111.366       4929.290       2207.294
      -1820.537      -255.7568       1552.006       2604.109       5617.717
       4604.594       3552.872       3860.692      -346.9497      -1669.089
       172.8942      -626.8350       284.8516       3697.917       2442.013
      -511.6514       589.8293      -236.8413      -786.7412       3820.461
       5179.905       118.1055      -3584.030      -2396.923       142.6117
       322.8920      -490.6094       1622.096       4187.167       1452.181
      -1080.982      -75.10010      -2000.797      -1028.846       1795.369
       233.4637       682.4132      -47.73633      -1668.990      -396.3181
      -144.5264       692.0626      -551.7002      -137.2637       3973.371
       1809.410      -1114.655       33.99707      -1425.350      -478.5977
       3569.094      -815.4258      -4113.984       1968.451       434.4165
      -3357.410       2083.556       4376.370       1685.722       449.1261
       180.0354       530.9106       2101.323       886.9360      -1235.300
       2186.296       3570.395      -847.7424      -132.0562       3445.339
       137.0811      -1839.947      -870.9844      -3660.942      -2482.592
       1652.994       169.4908      -1036.511       1052.216       203.5972
      -2061.849      -479.6006      -1298.279      -2625.322      -728.0508
      -3211.640      -2316.735       1478.218      -1670.333      -2589.105
       1607.872       2471.698      -145.9541       1353.309       5148.500
       481.1069      -875.9668       4537.839       435.1118      -878.7026
       2133.615      -349.9673       358.0918       2619.730       2493.686
      -114.8633      -2444.956      -1344.157      -1602.072      -2768.893
      -1690.737       1724.978       461.5869      -4139.395       459.3989
       1688.753      -4854.869      -1802.537       3821.062       1810.857
      -378.0038       185.2568       1374.199       2184.513      -45.75586
      -1907.153      -137.5837      -901.8564       224.6719       4237.456
       191.4131      -2287.215      -722.4883      -2884.125      -3485.225
      -1887.776       747.9160      -402.2461      -2525.166       624.0886
       59.44971      -111.8330       5417.265       5481.416      -1618.631
      -4203.940      -51.60010       795.5399       43.63379       1040.585
       417.4893      -807.2247      -1380.951       1174.964       2342.398
      -2091.387      -2846.826       211.6015       198.3823      -1117.606
      -1049.001       2197.747       1941.535      -1772.659       637.2383
       3214.934       1439.194      -1250.845      -2538.518      -840.6115
       55.20288      -146.9350      -56.58521      -301.0425      -1070.638
      -2272.359      -1966.626      -1612.676       391.4292       2930.178
       978.1773      -403.5166       1514.598       1413.763      -954.7070
       553.4700       1741.744      -1257.351      -788.1704       1359.891
       1151.599      -1659.211      -2253.854       765.8730      -1749.167
      -2768.039       679.7240       189.9321      -1202.612      -2293.844
      -2099.910       342.3047       707.7056      -950.5879      -3336.106
      -4301.054      -464.5269       3051.693       1363.515      -154.1660
       1094.713       2576.290       1482.392       830.4907       2972.668
       135.4746      -1549.596       35.63916      -2642.097       539.5127
       2852.856      -2267.147      -465.9592       1349.351      -2362.386
      -2621.127      -641.5186       2493.252       3909.688       2421.334
       1990.572      -1929.468      -2889.090       1756.300       177.8571
      -1058.399       1083.602       719.0583       210.5837      -874.9924
      -876.1807       2194.947       3123.987      -337.9351      -1201.673
       2285.450       1550.542      -883.7961       220.8149      -283.5148
      -233.8086       1680.962       331.9565      -311.3477       3260.677
       2147.573      -2432.500      -1715.858      -2163.960      -3242.325
      -132.5661       192.8620      -462.0508       491.5055       246.3374
      -347.0947      -2007.167      -833.1440       684.3535      -2524.167
      -1461.336       1908.415      -548.6506      -662.8257       1907.802
       1363.245       1201.950       100.3005      -1967.651      -95.12280
       1650.163      -787.7642      -1803.094       1238.958       4016.673
       2202.917      -1655.648      -719.8550       2523.066       1708.813
       469.4838       580.0000      -2025.546      -2288.482       669.8367
      -791.5911      -1362.058       1718.899      -1416.388      -5984.191
      -1675.802       868.4709      -1750.511       1705.590       6855.990
       5545.859       4198.984       7440.156       6263.868      -34.24609
      -3385.102      -7770.602      -12707.70      -12729.30      -16254.08
      -21517.38      -18493.41      -11873.41      -4426.814       4761.305
       12641.52       18111.86       20329.17       19628.32       14233.45
       5108.569       1053.977      -2579.934      -9773.770      -11638.54
      -11281.66      -13876.13      -16136.74      -12996.49      -8141.898
      -8551.707      -3440.453       5953.152       8659.133       10043.98
       9900.414       9373.080       9040.756       5290.582       3398.402
       3351.979       1473.842      -600.6211       1534.533       3931.160
      -27.10254      -4046.959      -6522.562      -7931.514      -6109.549
      -5549.139      -4437.793      -5068.248      -9519.795      -10147.52
      -8186.094      -6053.840      -4170.387      -6522.242      -7998.131
      -4534.178      -3703.929      -4234.933      -1196.706      -363.9929
      -1488.646       422.0664       4254.285       9721.656       13864.51
       12004.78       8681.051       7738.420       4871.790      -680.3027
      -1917.966       571.1309      -977.4565      -2512.490      -70.30481
       168.2267      -646.1816       2151.074       3289.578       4064.268
       7334.367       8394.777       11277.46       11466.41       6067.654
       6424.447       5486.988      -1338.724      -1767.199       1321.736
       771.5352      -1960.875      -2942.768       277.2797      -7.872314
      -1925.126       2740.802       2427.525      -400.7266       4949.813
       3820.734       1004.658       7148.791       7180.902       6388.902
       9149.961       4633.314       374.1211      -828.2227      -1340.604
      -2835.645      -7161.162      -6762.492      -5085.994      -5490.812
      -4148.150      -3824.398      -3280.337      -2911.263      -4757.438
      -3344.323       545.5886       606.0266       158.7529       3184.318
       5128.993       2701.650      -810.5634      -841.3867       2570.559
       2797.868      -421.9966       1268.005       2688.968      -1689.799
      -4126.328      -2661.254      -1720.087      -2256.479      -3182.569
      -2087.982      -46.17090      -1369.952      -1384.626       1171.336
       1554.816       1040.888      -1931.077      -2891.154       1539.437
       1831.238       173.6605       100.0078      -2350.982      -2649.693
       14.07812       4146.174       6858.851       3702.743       150.3123
       422.3862       2513.495       2690.871       280.8359      -217.5166
       3132.278       5832.997       4591.866       3642.724       4255.831
       3273.683       997.1786       226.0459       1405.740       1801.937
       2137.299       1100.314      -3806.023      -5874.486      -5395.945
      -7477.020      -5920.477      -4393.537      -7207.098      -7619.121
      -8615.686      -8190.788      -3073.814      -2641.924      -6080.297
      -4415.076      -2428.186      -3046.967       573.1699       4575.572
       4837.521       6736.957       7697.905       5277.686       4150.348
       3996.531       4666.969       3981.770       17.74908      -779.7087
       687.2148      -2744.014      -6829.446      -5596.486      -4288.537
      -4854.730      -4465.650      -5861.106      -5139.765      -1148.395
      -1631.645      -1365.826       1189.635       2489.357       4494.673
       4639.155       2524.080      -133.6934       2817.761       5393.165
       788.8811       456.6665       1924.521      -2219.145      -3588.118
       1979.960       4257.870       1412.823       2868.246       7217.717
       7560.584       6908.529       6915.199       4588.247       3772.018
       4148.720       2455.943      -580.3672      -3352.646      -2550.338
      -3773.244      -7996.266      -4260.364       951.5322      -3815.427
      -4531.574       1892.369       437.8770      -2300.324      -1758.891
      -1774.940      -404.3066       1087.452       3260.330       3591.314
       2906.102       4507.354       3034.601       1544.682       3617.808
      -344.2549      -2222.934       2899.758      -2596.854      -6331.560
      -100.1143      -2169.253      -3250.047       888.4439       392.6862
      -65.52734      -952.8327      -498.4056       807.1919      -1845.260
      -2499.823      -2298.912      -1611.498      -833.1113      -4242.462
      -4196.297      -1696.441      -1717.373      -1088.839      -2065.462
      -4333.298      -3846.642      -2438.512      -3616.822      -4315.739
       28.32617       4237.574       3428.799       2470.135       3671.912
       4646.801       4822.549       5871.357       4659.000       1143.369
       2565.744       4315.069       896.4420      -695.5371       1619.419
       1361.977       100.6962       361.1172      -1467.135      -3213.186
      -3700.890      -2184.260       838.3008      -1066.479      -4319.991
      -877.8647       2969.171       2078.530       2429.624       4021.969
       3784.755       2352.317       997.4607       215.8660      -1061.972
       376.4956       1833.531      -426.6558       864.5093       2730.491
      -57.44910       70.95789       895.0908      -2824.279      -2556.238
       706.7988      -2396.842      -4892.581      -3043.922      -5574.269
      -5393.133       710.2109      -1303.375      -6676.715      -4363.386
       228.5151       548.0616      -96.85474      -29.58398      -3294.855
      -5165.318      -5190.695      -6349.572      -3963.961      -3306.209
      -3847.215      -633.1353      -1821.418      -1295.182       5183.727
       5923.672       4954.465       6381.868       5556.525       3908.624
