     0.02500000      -28776.29       43878.70      -12345.00      -12345.00
      -29.97998       239.1200      -37.34000      -12345.00      -12345.00
       0.000000       27.82000      -12345.00      -12345.00      -12345.00
      -12345.00      -12345.00      -12345.00      -12345.00      -12345.00
      -12345.00      -12345.00      -12345.00      -12345.00      -12345.00
      -12345.00      -12345.00      -12345.00      -12345.00      -12345.00
      -12345.00      -29.74280      -64.01430       644.0000       0.000000
      -31.23600      -65.83800       0.000000       167100.0       0.000000
      -12345.00      -12345.00      -12345.00      -12345.00      -12345.00
      -12345.00      -12345.00      -12345.00      -12345.00      -12345.00
       240.9483       47.07051       226.1497       2.166322      -12345.00
      -12345.00     0.02379179       90.00000       90.00000      -12345.00
      -12345.00      -12345.00      -12345.00      -12345.00      -12345.00
      -12345.00      -12345.00      -12345.00      -12345.00      -12345.00
      2008       318        11        13         7
       740         6    -12345    -12345     10765
    -12345    -12345    -12345    -12345    -12345
         1         7        13    -12345    -12345
    -12345    -12345    -12345    -12345    -12345
    -12345    -12345    -12345    -12345    -12345
    -12345    -12345    -12345    -12345    -12345
         1         1         1         1         1
ESP03   -12345          
01      -12345  -12345  
-12345  -12345  -12345  
-12345  -12345  -12345  
-12345  -12345  -12345  
-12345  -12345  -12345  
-12345  -12345  BHE     
XH      -12345  -12345  
[...]
       1574.529       2947.436       66.93359      -3532.039      -2154.303
      -205.6709      -3272.780      -4749.494       471.2637       4095.068
       4014.423       1537.405      -247.1313       1936.996       203.7437
      -2336.364      -1850.901       861.9768       2583.732      -2655.945
      -1993.611       2382.957      -993.3284      -1315.293      -999.2651
      -1897.319       486.7661      -1385.059      -1191.937       4787.761
       1833.333      -5733.393      -2128.290       4744.993       2485.515
      -1133.365       556.7539       1705.615      -2607.457      -2396.022
       3255.407      -450.5669      -4158.195       1958.680       3128.520
      -1095.001      -312.7006       627.1128      -1684.905      -2196.895
      -1236.026       1089.853       1388.397      -1392.526       918.4678
       3168.144       510.8940      -1030.677      -1743.634       257.9944
      -51.83789      -3775.218       694.7090       5844.582      -386.6719
      -3957.573       2450.801       1257.393      -4580.190       844.6558
       4114.523      -3767.416      -2787.298       2507.125      -3048.340
      -1301.461       4624.448       755.8429      -710.4873       3474.189
       3568.304      -3076.785      -5308.296       4180.012       4606.321
      -5921.702      -1699.391       4741.853      -2400.448      -3420.893
       4146.039       3050.240      -3574.492      -1020.458       2530.775
      -2501.812      -2522.528       643.8228      -625.4883       1807.642
       2053.583      -4144.266      -2536.402       6599.057       3181.941
      -4325.700      -1565.872       1663.985       2798.388       1743.683
      -1747.749      -3784.146      -3881.378      -790.2861       3212.107
       479.8496      -3033.138       1982.056       3989.674      -1665.518
      -1891.278       2932.163       1874.063      -201.7568      -1810.893
      -7315.511      -5062.426       3139.387       3175.572      -722.8782
      -1205.464       906.0452      -221.8875      -631.5820       3802.107
       646.0308      -2939.522       4925.324       3228.023      -6213.618
      -1662.011       3071.290      -171.7783      -186.2285       960.7097
       360.6023       509.9600       1444.396       1048.514       3104.566
       4453.886      -778.7749      -1869.391       511.6016      -2088.366
      -3908.899      -3374.099      -341.9395       3711.510       2741.273
       5.965820       2120.643       6224.478       4344.677      -2530.656
      -6412.987      -5149.125      -1856.189       344.0732      -1755.155
      -765.0449       5133.729       617.6714      -4867.041       1212.612
       3849.444      -1673.563      -3460.305      -1047.181       2991.400
       3988.175      -367.4961       1032.007       1382.858      -2873.680
       155.9526       2357.841      -2292.542      -3551.802      -154.3745
       2364.799       3005.125       2670.292       1511.089      -1870.925
      -3699.104      -5275.195      -5656.263      -1309.780       1609.323
       3066.616       4696.965      -485.7656      -7914.810      -2215.962
       7767.061       2839.235      -2687.235       4316.447       3137.010
      -4680.672      -2550.674       2034.418       1880.505      -518.9277
       4100.365       4000.441      -7505.064      -4039.273       6663.543
       2444.248      -4082.504      -3566.673      -755.3062       1532.670
       5714.932       5727.639      -2679.292       104.1860       5971.449
      -4668.418      -4978.405       2657.868      -3430.613      -6480.166
      -1744.987       2553.987       1406.920       1035.979       5258.740
       85.34277      -1236.016       4216.843       1498.948      -38.89844
      -2867.543      -5470.588       3.351562       3706.394       3922.048
       27.07031      -5655.651      -237.2944       3984.547      -5443.911
      -4088.689       7543.440       5539.484      -3284.336      -2908.059
       2173.166      -279.9412      -1808.934       2714.688       187.4468
      -464.2539       6558.984       803.4580      -5649.906       932.1226
      -324.5732      -3013.523       3144.800       4456.063      -591.0723
       1226.713       6473.215       4135.557       2489.783       3513.292
       1987.203      -2342.586      -11444.25      -12618.84       72.89648
       2737.818      -4359.192       2522.459       12938.36       5178.668
      -5910.064      -3706.832      -477.6052      -774.8760      -1772.012
      -3708.404       674.0059       7875.022       2257.635      -2822.620
       1910.117       272.6660      -1960.431      -628.6384       333.9929
       1138.297      -2938.173      -3743.141       5755.014       8608.871
       2995.545       2672.750      -211.7729      -1562.729       3756.930
       1267.435      -5331.648      -2368.748       1921.408      -3743.900
      -5501.906       1968.530       1532.661      -5009.349      -1020.270
       4605.463      -1045.313      -1906.339       1786.918      -4521.914
      -6143.502       2108.081       568.9473      -6883.180      -813.1514
       7076.717       739.7158      -1808.686       2559.875      -3152.272
      -2971.756       10837.63       6980.270      -9292.807      -4825.083
       4225.731      -927.6909      -30.68945       6185.903       2011.205
      -5093.144      -6603.231       239.1772       4426.146      -848.8835
       1279.234       1474.156      -5523.259      -2294.040      -944.3245
      -2221.379       3597.974       3755.679      -25.98633      -1667.710
      -3182.742       158.8369       3726.512      -1202.180      -7738.062
      -7127.061       1301.115       7147.316       627.9766      -4459.252
      -661.7893       444.3258      -1324.678       159.1458       1578.989
      -328.3998       63.42090       34.48047      -2710.594      -2354.449
      -6041.853      -9298.504       2238.547       9668.041      -960.6016
      -4479.574       4183.810       829.7822      -6044.950       528.8604
       3326.311      -2487.665      -1463.514       6438.060       6862.374
      -2143.232      -3178.012       2332.542       1068.757      -3564.254
      -4652.790      -2180.297       3126.310       6075.114      -567.0427
      -2238.458       1849.637      -5852.846      -6355.490       6259.864
       4063.047      -5721.267      -1133.897       4373.448      -804.5405
      -1888.384       5017.387       4750.798      -4518.946      -6539.829
       1621.407      -533.6943      -8058.102       512.7607       3527.618
      -2062.625       3168.942       4874.882       56.38184       360.8682
       4482.708       2311.082      -4571.906      -1707.093       5705.767
       1521.480      -5972.008      -5915.675      -5042.095      -3326.137
       3395.248       7414.103       3811.758       4228.482       5078.489
      -1278.312      -4.280273       6154.135      -272.0840      -9438.176
      -5261.484       2754.867       2423.495      -901.1641      -1315.154
      -1866.772       1969.171       6066.814      -2024.280      -5343.248
       5269.350       4311.346      -5778.140      -1752.050       4669.043
       601.0000      -4527.438      -3695.628       1025.377       4538.611
       5610.449       2195.290      -5.088257       1068.663      -1959.944
      -358.5984       2173.349      -1715.335      -775.5529       934.0891
      -449.8389       1096.476       3960.630       3730.681       1189.805
       2393.578       1657.817      -3847.709      -2969.733       1257.791
       403.0078      -1636.466      -1412.003      -1082.515      -579.9800
       1603.884      -236.8721      -5379.269       1616.738       10258.17
      -1318.363      -6875.660       7287.257       3679.062      -10887.89
      -5206.203       1721.927       1972.878       1897.238      -4444.407
      -5417.726      -1888.709      -2665.212      -940.9915       307.1680
       442.2343       712.8389      -2495.808      -3096.813       615.4197
       356.7102      -877.5518       2226.627       1806.587       584.5942
       1573.323       3773.857       5792.134       1073.477       513.9941
       4571.061       2781.429       1753.331       1935.076      -1408.776
      -1561.891       119.5430      -3188.749      -2054.241       2572.060
      -426.5813      -1329.397       2092.332      -543.6899      -291.2852
       3174.025      -2232.874      -6763.470      -443.6152       5614.779
      -140.5068      -4262.100       1238.371       4702.455       3520.815
      -1535.028      -1556.447       2586.483       3784.233       3946.098
      -3030.839      -5108.405       1535.848       658.9734      -772.8384
       1492.845      -1196.379      -2026.472       1873.994      -386.4006
      -2351.640       806.8418      -2103.023      -4520.072       5422.234
       10074.60      -1974.750      -5404.894       2286.584      -101.5342
      -4422.013       336.5190       3263.248      -1441.908      -4398.287
      -1185.189       2799.959       1946.329      -1138.333      -819.6284
       801.2690       1871.267      -3319.028      -6456.228      -453.6392
      -760.0845      -3093.678      -798.5859       1022.830       3637.467
       2952.630      -3458.958      -3558.167       4258.046       5280.496
      -908.8311      -4151.884      -3356.951      -2894.307      -2567.624
      -4544.132      -1666.424       8010.883       2972.298      -6027.062
       838.9351       2477.758      -2047.800       1627.328       1363.565
      -4194.014      -984.0742       6645.090       1284.115      -4812.612
      -715.8389      -2351.245      -2210.938       4764.661       3439.191
      -3859.087      -5857.913      -2878.376      -232.5527      -826.8153
      -309.0654       739.0332      -3846.888      -3245.995       4585.334
       3066.320      -3905.545      -2536.827       2783.833       2991.886
      -1570.230      -2453.066       1373.844      -227.0854      -2290.786
       1076.871       1167.579      -3867.969      -3438.842       2804.364
      -1039.480      -2874.884       2238.486      -3744.694      -5806.273
       2476.668       4311.020      -2789.792      -3476.688       4301.592
       1043.535      -2880.844       7387.146       6756.840      -7967.681
      -5968.651       5475.265       1782.886      -1812.714       3693.562
       2685.704      -1615.133      -890.1547       148.6626      -1433.162
      -3321.174      -1667.889       2184.546       2386.164      -987.5449
      -2630.208       933.8560       2288.152      -3915.159      -3797.143
       2614.336       999.5625      -3292.208      -2056.788       424.6356
       1087.141      -1391.446      -2261.335       3787.972       5037.962
      -1379.829      -3184.448      -185.9717       3481.030       2773.812
      -2066.171       952.8652       5619.650      -175.4531      -4409.331
       1450.776       5905.561      -667.5518      -5501.896       522.9712
       3393.742       437.8521       611.0867       1052.492      -1247.532
      -2703.294      -2310.607      -1102.952       896.4844       2242.155
       596.7810      -792.8701       1717.300       3535.562      -883.2969
      -6332.569      -1845.533       4584.525      -1739.222      -6222.146
       3782.061       6781.287       70.14233       397.6182       2800.600
       2400.663       1060.202      -1562.040      -3204.841      -684.5090
       1786.041       159.2910      -434.5769      -495.6171      -214.5078
      -597.7256      -3118.730       435.8242       5652.774       4060.873
       877.2764      -1596.658      -2057.756       996.9639       2026.949
      -627.0491      -612.9557       485.6319      -493.8777       76.62793
       1488.750       1776.451      -111.4844      -1999.047      -1022.059
       94.74756       787.6213       1471.050      -139.1993      -637.9243
       2847.167       1661.700      -2842.576      -1213.171       1336.349
       486.8247       1350.560      -477.0015      -2834.436       1775.794
       1302.688      -6099.181      -4275.644       6102.563       6600.832
      -3618.694      -4194.945       4424.193       4513.303      -2529.513
      -4430.538       327.6720       889.7593      -1520.466       2032.464
       2627.544       709.3687       748.3545      -3917.061      -5239.571
       1047.824       2105.891      -2080.717      -477.3945       5753.099
       1257.215      -7452.224      -4515.777       563.4851       1497.282
       60.55371      -4645.192      -4405.990       2470.388       976.4551
      -5115.219      -182.9370       1010.938      -8111.920      -7419.643
      -3315.449      -12720.33      -24384.70      -25288.73      -21463.33
      -25221.68      -28776.29      -16767.76      -3592.424       906.3750
       13175.42       30314.81       38943.92       43766.52       43878.70
       35997.29       29733.66       24033.01       7851.125      -8948.672
      -11922.57      -9777.096      -3701.951       7803.258       12100.07
       12529.79       20550.78       23318.80       13358.21       10741.76
       14140.00       7585.779       1102.888       1473.602      -477.8271
      -5042.132      -2841.924       6047.982       9338.438       5460.770
       2929.727       1629.716       2648.901       4742.031       5738.200
       5751.565      -2004.991      -7170.396      -978.1602      -459.3574
      -6958.059      -6576.891      -3936.455      -6163.195      -5517.707
      -7179.293      -14960.51      -16440.98      -17974.83      -22168.18
      -21045.19      -17134.63      -8920.999      -4530.200      -2886.869
       5642.271       7549.929       2318.298       2881.225       4243.430
       1107.863      -1986.191      -2571.780       499.2314       2903.852
      -881.6699      -2685.743      -137.4697      -1074.479      -4915.725
      -7931.859      -7552.182      -4629.791      -5383.500      -7995.463
      -8538.926      -9789.582      -11495.71      -11453.21      -9898.625
      -9081.000      -8517.342      -2606.745       1396.333      -1097.473
       4433.434       13732.83       10785.38       7627.666       11352.35
       9023.977       8507.281       14812.89       9827.913      -789.2324
       1386.415       5346.229      -88.34961      -1382.684       4513.807
       4363.275      -2405.012      -7238.094      -6821.932      -3196.586
      -4534.314      -10349.04      -11798.59      -10170.96      -8490.987
      -4526.717       155.0654      -45.05566      -3491.257      -4303.222
      -2862.629       1400.690       5010.096       1839.386      -1952.244
       4065.785       11692.30       5624.285      -2017.881       3603.324
       9620.943       2564.326      -6667.153      -3858.990       1677.197
      -2643.574      -10926.84      -7415.198       2851.138       1452.201
      -4368.648      -803.6777       2347.151      -692.5259       1025.105
       3877.376       2324.183       1927.144      -1970.567      -2374.672
       4378.933       1605.335      -4330.946      -663.0938       3749.533
       1970.467      -2130.979      -1982.784       2188.513       2928.569
       1853.816       6693.580       10040.03       4950.808       2289.771
       6864.680       7608.822       1434.274      -915.5039       3551.707
       6935.181       4806.561      -423.4678      -1855.606       529.5391
      -1391.422      -6616.044      -5579.774      -2675.077      -3798.872
      -179.1533       4465.712       1803.890      -1732.314      -5910.133
      -6098.597      -757.1094      -3324.223      -8007.297      -5653.594
      -3034.979      -108.1643       1654.178      -5301.812      -8652.978
      -863.6494       1581.205      -132.2883       257.2607      -2984.429
      -3116.034       3764.278       5442.856       1661.604       893.9015
       158.8535      -2033.580      -2385.712      -2550.929      -4153.447
      -4517.612      -1740.043      -264.5913      -2500.499      -2139.669
       1889.998       677.7119      -2787.762       1087.800       3689.383
      -1080.974      -888.5737       1599.203      -2411.862      -1151.772
       3043.056      -2149.187      -2519.396       5570.360       4243.809
       193.2891       5020.605       6643.081       1713.129       2380.811
       8127.145       5164.614      -2673.855      -1522.451       4031.994
       5026.602       4683.012       2966.368      -2345.274      -3533.250
       1041.667       1888.491      -2801.195      -3343.364       1879.102
       1712.771      -4703.826      -3433.474       2438.676      -930.2603
      -2065.286       4975.120       4429.935      -2037.136      -425.2183
       775.4902      -5339.191      -3478.198       1200.091      -56.10254
       2828.597       1180.725      -1779.495       3891.516       312.5654
      -6352.511      -614.3926       1067.984      -4842.916      -4046.906
       1411.103       1335.197      -2324.280      -106.2834       1744.581
      -3359.884      -3018.206       2259.241       3909.208       2287.716
      -1110.564       159.4258       4360.084       1480.265      -2011.479
       2016.763       3115.601      -924.6340       266.9443       3108.345
       2403.316       2754.150       2298.114      -2737.905      -5277.236
      -1167.394       4947.076       3956.309      -1391.776      -338.7902
       621.4229      -266.4863       2593.788      -71.60352      -5872.092
      -1025.603       3138.781      -2224.318      -103.6289       5729.645
       1620.419      -944.0991       2048.061       819.8145      -2513.960
      -3469.840      -3194.558      -858.8569      -890.9819      -3623.587
      -238.6357       4679.465       1130.584      -2649.968       4401.288
       5630.182      -1380.899      -761.8893      -152.1802       637.0950
       1307.127      -4577.027      -5070.651      -372.4323      -39.90088
       627.5093       3248.817       52.96387      -4170.990      -838.9575
       420.5186      -4299.378      -1525.546       3769.340      -2835.797
      -7706.045       251.1692       3458.832      -3782.431      -4034.596
       3156.656       2661.365      -80.26001       556.3253       229.8205
       199.5891      -769.0254      -2354.475      -4347.555      -4286.255
       357.8691       2169.561       116.4561       1149.524       4056.412
