     0.02500000      -42846.70       80317.83      -12345.00      -12345.00
      -30.00002       229.5500      -28.64000      -12345.00      -12345.00
       0.000000       21.04000      -12345.00      -12345.00      -12345.00
      -12345.00      -12345.00      -12345.00      -12345.00      -12345.00
      -12345.00      -12345.00      -12345.00      -12345.00      -12345.00
      -12345.00      -12345.00      -12345.00      -12345.00      -12345.00
      -12345.00      -30.77170      -64.40940       1205.000       0.000000
      -31.23600      -65.83800       0.000000       167100.0       0.000000
      -12345.00      -12345.00      -12345.00      -12345.00      -12345.00
      -12345.00      -12345.00      -12345.00      -12345.00      -12345.00
       145.8188       69.69535       248.9631       1.311066      -12345.00
      -12345.00     -0.8891132       90.00000       90.00000      -12345.00
      -12345.00      -12345.00      -12345.00      -12345.00      -12345.00
      -12345.00      -12345.00      -12345.00      -12345.00      -12345.00
      2008       318        11        12        59
        40         6    -12345    -12345     10383
    -12345    -12345    -12345    -12345    -12345
         1         7        13    -12345    -12345
    -12345    -12345    -12345    -12345    -12345
    -12345    -12345    -12345    -12345    -12345
    -12345    -12345    -12345    -12345    -12345
         1         1         1         1         1
ESP04   -12345          
01      -12345  -12345  
-12345  -12345  -12345  
-12345  -12345  -12345  
-12345  -12345  -12345  
-12345  -12345  -12345  
-12345  -12345  BHE     
XH      -12345  -12345  
[...]
       8134.379      -521.3203       5703.936      -11324.71      -13389.60
       15414.11       1886.182      -9685.250      -2065.797      -14708.23
      -807.6992       14901.73      -1626.742      -7694.641      -10950.83
      -18471.95      -481.4609       17843.25       13290.11       11607.59
      -5982.941      -22596.53      -2916.789       4601.406       8249.684
       25087.27       14623.65      -2122.717      -3360.117      -13010.56
      -14699.03       2666.266       12976.34       10631.88      -1386.878
      -5938.385       2450.718       1959.285       4751.178       9015.148
      -8828.820      -27183.68      -18532.88      -718.9609       6041.730
       15382.74       14978.08      -3762.626      -2615.447       7594.764
      -5443.227      -16374.70      -6910.307       927.2480       1292.645
       9153.676       16359.23       3695.322      -10980.73      -3097.867
       9961.693       504.7646      -5823.878       8436.236      -2136.154
      -12461.59       8994.141       15217.19       4964.218       831.6240
       536.4229      -3559.154      -3158.512       11244.53       18248.88
       1804.641      -18561.07      -15461.39      -6987.578      -12844.04
      -4031.359       10728.67       7160.648       4072.653      -508.4502
      -6696.961       2608.574       12332.95       6153.957      -2013.342
      -778.5640      -867.3916       1508.230       4126.662      -8152.104
      -14101.65      -1000.909       5090.553      -2057.899      -5195.066
      -472.8311       2241.956       1668.354       7356.037       9000.072
       3613.018       5051.596       2571.193      -8322.266      -15174.65
      -6943.340       5299.816       6956.945       8455.732       8609.700
       5296.201       4345.294       843.6406      -4455.693      -5856.371
      -1202.455       220.4551      -3332.556      -3127.312      -6309.434
      -3952.002       8280.286       6331.246      -2589.122      -2176.811
       314.7013       238.3357      -2290.257       550.5254       9032.424
       7253.055       3925.961       8264.932       1842.196      -7794.929
       468.4580       6062.002      -777.1550      -948.6954       1001.729
      -2986.809      -9784.634      -8011.121       1146.551       249.6602
       2671.018       5555.787      -4448.576      -7026.674      -3783.932
      -3775.783      -182.0466       1104.061       488.3496       4859.381
       10146.65       11299.57       4167.088       372.8682       3949.045
      -2525.926      -6303.843      -1179.175      -3191.691      -8737.982
      -7572.151       1705.539       5900.529       636.5869      -2080.119
      -5162.254      -8705.160      -727.0200       3978.834      -6797.967
      -8768.854       1111.771       3861.285      -1769.358      -3939.271
       3891.545       7339.260       6140.971       12058.98       1133.471
      -11649.39       1000.471       3804.034      -2525.227      -6181.765
      -6123.648       6970.622       2013.645      -10164.29      -958.1211
       6110.416       3549.741       1156.125       2435.701       6439.559
       5574.445      -688.1602      -12291.39      -16290.20      -4722.168
       2879.172       7121.632       8463.270      -859.9561      -4633.816
      -3847.395      -4691.898      -1607.929       197.0156       5736.663
       7099.707      -2923.644      -72.69751       3488.988      -3768.940
      -2848.833       1765.693       5709.264       7495.062       1098.821
      -1475.605      -2353.799      -9911.723      -5706.319       576.8828
       1835.230       11830.07       5505.012      -9485.858      -4954.222
      -1546.363      -5780.440      -3637.124      -1038.137      -3526.771
      -4792.615       5622.410       11013.22       870.4141       1512.528
       6174.641      -1721.346      -6274.255      -292.0334       3330.287
      -2425.121      -6227.604      -2928.019      -129.4772      -822.2598
       2308.953       3805.471      -3916.042      -4110.001      -1441.088
      -4732.516       686.2842       2939.903      -1390.652       571.3672
       1029.511      -925.8960       918.8594       5546.204       4188.788
      -4371.204      -5755.812      -188.4561       2596.283       1609.870
       1720.160       2966.466      -64.68848      -5861.783      -3573.589
       4982.510       111.1943      -7953.066       1206.787       8171.199
       1285.917      -1701.907       4380.944       5608.232       31.14355
      -2877.260      -5776.453      -9477.067      -1940.840       11275.15
       13475.31       2107.615      -9049.240      -7636.109      -3481.348
       1052.725       7745.764      -36.03516      -10020.58      -2556.183
       3813.778      -2201.159      -2416.184       8917.711       7086.723
      -4584.238       709.1943       5255.228      -622.4697      -384.9570
      -453.7388      -2769.704      -1206.044       869.3545      -1219.199
      -5858.044       438.8535       9398.607       2719.606      -3042.980
       5665.831       6085.147      -3688.471      -3334.727      -4189.790
      -5612.622       3364.098       1906.315      -7512.223      -2649.381
       9021.752       9192.078       104.9590      -5572.068      -5447.648
      -1822.572       5049.094       8901.507       4043.242      -4434.215
      -5204.197       4751.531       9092.906       361.9639      -5386.304
      -2933.040       3250.574       5849.770      -183.6836      -4266.203
      -2280.658       672.7539       5178.947       9442.311       5494.741
      -4528.194      -1744.201       4345.320      -5086.021      -9849.617
      -4648.500      -3397.370      -2087.520       406.9922       2736.087
       2331.786       309.1880       559.7314      -4578.196      -3789.389
       8788.615       10192.23       4855.500       1702.643      -6528.539
      -11794.58      -6105.651       1159.924       2434.033       6074.908
       9506.625       64.67285      -7187.152      -865.9165      -607.1860
      -2941.688       4065.377       4539.568       3725.899       2361.762
      -2694.390       1764.801       80.65186      -2413.627       6574.368
       1277.148      -8604.588      -5499.967      -931.8848       3865.779
       3229.205      -258.2363      -874.5508      -6828.213      -10118.56
      -4727.143       6700.422       12262.57       3365.690      -3733.913
      -964.0723       3692.242       6567.718       5582.248      -333.3179
      -3011.944       332.5553       725.9253      -1668.111      -1516.745
      -588.7344      -4005.272      -5966.307       1249.788       3923.163
      -3354.548      -348.3481       4912.874      -3289.520      -4293.641
       3376.335      -64.82520      -4454.543       2423.250       6556.823
       2018.783       2897.519       3859.643      -2315.280      -3133.178
      -2848.676      -6524.154      -4480.467       2857.908       4907.150
       1381.697      -3500.463      -8770.407      -3607.190       1518.062
      -2355.101       1994.013       4592.073      -1426.663       2684.111
       5057.208      -1116.252       1228.953       6895.279       3615.645
      -6628.310      -5469.331       4549.672       1380.919      -4594.840
      -4510.673      -3455.108      -612.1802       1219.740       759.6094
      -6305.018      -9395.573       1448.713       3998.211       2363.853
       5014.732       1215.056      -2661.361      -8462.113      -7054.090
       3849.595       4689.823       1488.204       62.61621       1404.346
       2290.231      -96.73438       173.9414      -3081.224      -6577.721
       550.8789       9107.462       5060.895      -14.73975       3950.044
      -1139.305      -12511.18      -8866.738      -1900.910      -4961.977
      -2210.998       2790.073       782.0195       1095.440       2418.788
       4101.748       822.8115      -5912.131       3917.522       9938.934
      -4054.751      -4596.002       2333.449      -7048.559      -8062.037
       2075.849       2324.200       1529.776       3644.086      -973.6084
      -4762.165       676.9014       2931.256      -4619.976      -5692.028
       860.9102       2855.797       4929.834       9789.465       7882.965
      -4604.422      -17839.82      -11774.72       7245.326       10156.89
       2506.562       562.4473      -2504.978      -4332.030       386.0563
       1171.173      -1173.422       3222.696       1176.262      -6763.919
       8.408203       10985.20       2458.816      -13876.23      -9135.248
       4306.978       5752.863       1760.658      -1956.805      -1053.471
       4087.349       6065.695      -1549.778      -6844.909      -222.8428
       1378.222      -1355.108      -305.3750      -5673.108      -7193.854
       4070.559       8654.475       3907.225       6638.352       9869.073
      -882.3506      -5756.451       1257.823      -2904.184      -5116.521
       4353.297       8137.412       1288.280      -5323.845       304.1191
       5059.333       1483.460       69.32031      -5103.803      -6598.605
       645.2080       1960.930       2814.445       3767.598       685.1904
      -2658.984      -9071.637      -6310.312       3048.189       3776.859
       6255.095       5784.330      -4945.066      -4865.114       1681.741
      -1082.167      -4204.742      -2016.032       2955.550       246.3203
      -12386.61      -11679.25       3880.108       5030.792      -3705.453
       472.7139       3850.391      -1987.470      -3487.521       2888.219
       8251.156       4182.214       1806.503       1306.803      -6531.070
      -6487.083       1064.563       4182.081       5591.044       4476.574
      -760.3301      -4975.947      -5649.799       12.21484       9416.633
       10373.46       1498.454      -4698.831       2005.603       7486.756
      -7270.906      -15267.85       4994.139       12817.39      -5097.206
      -3041.432       12432.28      -1058.994      -12277.43       5580.451
       10293.09       616.8882       2799.635       896.1504      -10338.09
      -4664.680       10950.23       3321.832      -12887.47      -10165.76
       2663.632       7829.511      -437.0596      -6244.651      -353.0410
       6836.282       5665.284      -1107.079      -1325.247       5400.437
       3172.229      -7373.887      -3700.083      -1284.309      -9891.744
       1136.971       11020.96       2361.852       387.3496       4474.496
       9065.255       1911.064      -12369.01      -3484.727       7798.000
       3370.301      -1903.698      -6100.600      -4115.928      -2581.531
      -1779.562       3575.559      -3631.014      -9047.291       1511.431
       3717.104      -1880.639       2498.609       6832.165      -137.2070
      -6977.421      -5428.479      -1905.290       1461.833       5933.847
       4149.070      -8687.326      -12439.50       736.1387       5329.203
       50.03345      -309.1263       918.8330      -1637.675      -3301.444
       2174.928       2467.825      -2886.932      -1342.832      -1360.331
      -2710.458      -546.8384       568.7012       4617.290       4057.815
      -3679.475      -2210.533       4617.312       743.8984      -5966.565
      -362.7100       3785.160      -5660.371      -10348.45      -4015.627
      -130.2891       3791.980       12731.84       7334.562      -10513.72
      -11341.02       855.4336       6702.514       5682.427       2244.631
       1700.868       155.8145      -6646.557      -9114.740      -4513.231
      -385.3955       1993.353       4627.985       1916.514      -2298.060
       479.0781       4638.971       6697.117      -426.0820      -7383.688
      -1110.453       991.1324      -245.3276       2350.913       1945.254
       3415.263       2789.185      -711.0566      -2814.838      -3551.782
      -707.3784      -1439.994      -107.4175       2389.199      -4468.653
      -4570.176       2288.473       1961.114       203.7500       3943.953
       8951.364       1364.611      -10774.76      -4353.141       6340.229
       2045.023      -5262.239      -2660.722       1664.007      -2184.507
      -4920.095      -878.1030      -1814.599      -2542.338       6362.127
       7658.738      -2040.260       3997.941       16788.82       2352.289
      -12675.07      -3054.381      -1982.264      -10223.60      -4063.008
       4235.990       4132.037       3320.762       4114.142       2528.559
      -1494.021      -4182.844      -5920.146      -5605.541      -3373.128
      -1416.167      -183.6846      -1894.400       1316.517       4149.279
      -7476.191      -12227.30      -5449.207      -7233.621      -13139.45
      -15600.12      -17998.98      -20348.59      -16227.16      -9955.977
      -3296.312       18113.19       38165.64       31905.03       22438.25
       36465.28       59430.94       74109.06       80317.83       69735.62
       36068.43      -840.1914      -17281.88      -21929.84      -29105.73
      -25424.39      -11370.87      -6466.523      -17174.89      -27029.55
      -16018.04      -3444.427      -2707.166       7037.363       15101.55
       7934.407       4289.454      -124.3281      -8144.574      -1369.019
       4338.056      -752.0972       486.0527       5934.035       7605.973
       5218.232       3723.801       3408.344      -682.8320      -4805.523
      -13739.38      -33197.97      -42846.70      -35042.86      -30717.05
      -24877.23      -14996.94      -11381.49      -3936.453       5273.758
       9844.871       12429.11       12122.27       4876.011      -637.1699
       8372.650       11702.67      -523.9902      -1480.938       12261.08
       15708.69       4032.825      -614.5605       5023.117      -2604.488
      -9701.638      -1415.140      -761.9658      -5078.003      -473.5430
       2232.137      -6876.990      -10916.64      -1503.340      -3247.996
      -14275.11      -14617.74      -10138.50      -10611.37      -11340.23
      -7783.562      -2571.512       4946.062       9906.661       5469.133
       1409.088       2948.627       1266.630       913.4453       8206.398
       10093.67       13324.28       21626.57       11502.40      -1270.001
       2395.776      -1115.750      -14029.14      -12729.54      -1872.160
      -5800.332      -16210.84      -6106.891       11628.53       11512.38
       5930.689       6463.172       5712.322       5514.406       9577.121
       15876.14       16077.61       3723.008      -380.7734       6065.387
       1039.229      -692.8691       5156.756       612.5254      -4651.041
      -715.0059       245.9883      -8835.346      -12397.41      -5673.682
      -373.1528      -521.2461      -4335.893      -8254.920      -10153.36
      -7197.826      -2287.159      -3836.711      -6276.727      -4234.621
      -6294.381      -10718.28      -5635.013       1724.408       2129.333
       2412.982      -1201.436      -6545.660      -7606.258      -10512.40
      -8623.656      -5635.988      -8959.316      -10680.89      -7540.329
      -232.0859       6270.938       7164.598       2844.561      -1282.264
       1041.484       2307.338       396.2109       4135.812       7233.637
       7048.797       10234.17       11223.57       8119.192       2730.967
      -1135.660       5222.275       7931.854      -961.0376      -51.39844
       6979.534       4851.448       1232.207       577.7285      -1746.117
      -4568.579      -2758.530      -2019.925      -4857.550      -177.3965
       4266.083      -131.4570      -5261.135      -9547.944      -6365.387
      -297.1559      -469.7119       358.6787      -2209.352      -3228.846
       6449.814       10022.28       3462.243       820.3489       884.3521
      -2749.131      -1813.039       7730.477       9364.088       3732.371
      -3771.275      -13458.12      -5106.838       9668.448       5131.643
      -213.9697       3661.656       5811.854       5368.211      -510.5273
      -10401.34      -12317.56      -5894.107      -1661.368       63.87549
       1656.744      -143.7168      -3509.867      -5312.383      -5465.150
      -6144.244      -4356.572       907.9023       3049.766       4694.656
       7405.910       6894.461       2710.623      -5003.639      -5248.995
       1334.963       151.7793       1088.519       6593.009       1145.693
      -8418.752      -7631.429      -770.8580      -281.7437       381.5205
       4968.273       2563.280       372.3928       293.7725      -3648.769
      -2732.917       3100.027       8368.033       7281.693      -743.2266
      -2902.879      -2421.002      -5049.892      -1344.488       3692.772
       871.7080      -3137.418      -1690.947       711.5454       65.41406
       4210.322       10722.10       1943.359      -11798.03      -6954.896
       5958.603       6378.999       1174.739       2772.483       2606.602
      -3637.733      -2821.153       1473.707      -3072.315      -3867.388
       2410.967       119.0396      -3787.189       933.5703       6346.313
       4449.787      -3740.559      -4404.140       2379.928       2044.804
       2545.914       5519.141       3807.593       2415.146      -1369.903
      -1477.742       2207.375      -117.1787       3120.455       7056.710
       1603.047      -3357.609      -6749.400      -4644.088       2687.202
       1324.458      -3552.361      -1480.159      -999.9658      -4364.812
      -2436.496      -3057.922      -10886.35      -7440.408      -148.8535
      -4839.725      -5305.523       3328.036       7563.816      -227.1787
      -8622.484       1375.211       16133.19       13392.63       7006.273
       9260.373       8928.817       1003.468      -5613.203       1269.901
       7072.279      -6914.807      -13873.95       2636.153       7913.527
      -9236.203      -13804.38      -768.5876       2299.367      -3321.264
       1889.035       6342.741      -5534.805      -7684.188       7061.594
       5394.568      -8563.688      -5870.289       5781.861       5410.957
       148.8345       2150.311      -1975.875      -13302.38      -11729.39
      -1453.743       4529.693       5063.512       4895.515       5065.646
      -2852.877      -8094.566       1039.233       6525.379       2640.273
       1626.216       881.7168      -3501.846      -6324.168      -5954.171
       533.2422       8501.949       7637.006       6962.428       6862.144
