     0.02500000      -60193.91       56824.16      -12345.00      -12345.00
      -30.00002       229.5500      -28.64000      -12345.00      -12345.00
       0.000000       21.04000      -12345.00      -12345.00      -12345.00
      -12345.00      -12345.00      -12345.00      -12345.00      -12345.00
      -12345.00      -12345.00      -12345.00      -12345.00      -12345.00
      -12345.00      -12345.00      -12345.00      -12345.00      -12345.00
      -12345.00      -30.77170      -64.40940       1205.000       0.000000
      -31.23600      -65.83800       0.000000       167100.0       0.000000
      -12345.00      -12345.00      -12345.00      -12345.00      -12345.00
      -12345.00      -12345.00      -12345.00      -12345.00      -12345.00
       145.8188       69.69535       248.9631       1.311066      -12345.00
      -12345.00      0.4582911       0.000000       90.00000      -12345.00
      -12345.00      -12345.00      -12345.00      -12345.00      -12345.00
      -12345.00      -12345.00      -12345.00      -12345.00      -12345.00
      2008       318        11        12        59
        40         6    -12345    -12345     10383
    -12345    -12345    -12345    -12345    -12345
         1         7        13    -12345    -12345
    -12345    -12345    -12345    -12345    -12345
    -12345    -12345    -12345    -12345    -12345
    -12345    -12345    -12345    -12345    -12345
         1         1         1         1         1
ESP04   -12345          
01      -12345  -12345  
-12345  -12345  -12345  
-12345  -12345  -12345  
-12345  -12345  -12345  
-12345  -12345  -12345  
-12345  -12345  BHN     
XH      -12345  -12345  
[...]
      -2651.539       36533.88       294.1875      -38602.09       7766.356
      -449.4824      -16418.90       2215.570      -14259.83      -17282.20
       11822.74       16402.58       8899.160       11997.05       1638.829
      -2220.832       5911.743       3264.625      -3320.328      -26493.78
      -20147.77       19474.57       12773.19       4766.768       4728.883
      -19473.62      -10445.62       9357.974       521.4141      -504.0391
       20975.72       19720.91      -9518.416      -9295.711      -948.5938
      -10892.06      -6930.123      -1070.549      -6905.727      -3976.073
       2180.868       203.2129       2585.668       11218.70       18739.82
       12481.17      -6390.280      -5656.293       2766.658      -9915.754
      -8597.872       8847.148       5040.258      -6533.512      -11688.78
      -14969.89      -16051.93      -13200.87       3679.590       18820.73
       17220.45       19283.22       16922.19       1033.618      -1992.704
      -564.5781      -8364.570      -5926.922       4664.399      -1521.623
      -11296.47       1610.500       2887.100      -13125.46      -2918.443
       8397.826       4288.285       9635.891       9753.572       4313.328
       6611.250       3680.477      -7010.418      -16124.75      -18391.72
      -6318.141       6544.037       900.2686      -2586.141       2163.465
       3464.445       9086.398       4627.381      -5081.829       3867.457
       9609.121       4709.829       895.2363      -2214.219      -5524.535
      -11552.64      -10736.16      -2893.315       1855.834       2263.881
       3978.148       5530.888       3629.582       8510.787       9888.454
       2898.291      -290.4434      -4285.787      -4423.689      -1583.973
      -4535.637      -2944.438      -1495.121      -2558.165       3538.083
       1096.435      -3861.070       475.5391      -5574.161      -8348.229
       2126.695       5667.625       9532.137       15641.71       8589.866
       58.04980       78.90430      -4504.691      -9580.746      -8651.949
      -9303.164      -7189.645      -4965.644      -2738.857       8823.721
       13108.18       4050.993       2319.004       3728.697      -125.8027
       2683.351       5779.982      -5799.271      -11160.48      -2900.084
      -3579.240       412.3550       3731.204      -38.39648       8049.639
       4467.631       547.6567       1666.850      -9965.949      -6306.627
      -4867.964      -7792.319       7274.450       5825.443      -788.2480
       7845.495       4600.219       182.8801       2379.729      -3202.160
      -6485.461      -7682.253      -1717.083       1926.887      -11907.93
      -5393.539       9589.967       4269.189       7754.298       8392.196
      -2917.093      -1828.271      -213.4922      -2278.892       543.9131
      -2479.454      -1594.030       2908.314      -9270.133      -10704.93
       4905.603       3496.127       179.1182       2845.081       433.2900
       247.8052       961.7690       3130.837       376.7498      -2304.062
       3911.823       3908.537      -3148.949      -9273.231       999.7363
       8807.764      -4652.939      -1189.240       6638.972       1594.321
       434.8467      -2193.704      -517.8965      -1836.995      -3814.100
       8373.721       9196.008      -4201.582      -11257.20      -12680.61
      -5249.000       626.8887       1436.148       9873.704       7600.527
      -4124.750      -4770.987      -2636.912       1165.749       1965.372
      -5069.319      -1310.351       4235.271       602.2900       5121.007
       3059.397      -6158.427       259.9741       2132.833      -81.49463
       3465.429      -2722.135      -6819.006      -7175.183      -3669.807
       10372.28       7845.572      -1797.359       3017.565       219.5752
      -5058.212       932.0040       2223.391      -3501.896      -5066.410
      -1762.199       299.4004       208.1362       2009.976       1177.389
      -5571.896      -2859.893       8203.783       5176.153      -1111.320
       266.8156       462.3818       121.6113      -4657.633      -8036.064
      -5872.843      -4138.377       2601.878       3131.402      -2419.969
       5756.809       9359.535      -753.6768      -1095.699       3332.871
      -2821.562      -6089.709      -1713.814      -2437.129      -430.7617
       3969.851       668.9756      -1510.850      -4889.064      -6850.807
       1585.125       4195.506      -567.8062       323.9097       1596.996
      -962.7544      -639.5977       8055.004       12717.25       529.3496
      -6762.178       789.2515       375.7129      -4878.590       1793.924
       3039.225      -9480.320      -6984.953       8646.951       10570.41
       945.3291      -4714.377      -2864.542      -3528.003      -2013.558
       2188.232      -6834.417      -6934.264       8298.483       4898.610
      -3753.932       3096.649       7729.976       165.8623      -4355.964
      -701.6484      -4455.771      -4891.839       2417.252      -1237.751
      -5919.689       1831.842       8578.320       2703.041      -2027.760
       711.2981      -1010.075      -1625.256       3780.338       2172.218
      -3270.550       121.8674       2248.787      -955.9541       2992.405
       5132.472      -97.64111      -2.026367       4718.596       5678.396
       2420.317       2116.871       1363.500      -3924.687      -3830.170
      -2299.453      -5564.369      -4000.854      -920.7727      -1986.562
       815.0781       3639.015       3192.803       2626.172       790.8955
       2171.822       2631.634       1060.616       44.56055      -6286.007
      -6163.276      -1599.316      -1293.038       3895.380       3959.014
       278.0996       3412.326       4311.958       1203.698      -2934.061
      -3184.387      -2911.818      -5718.926       1284.639       10066.86
       8964.777       2126.852      -7650.685      -3926.283       870.5127
      -7350.830       381.2100       7510.998      -4040.742      -1722.416
       8125.988       4495.982      -233.9548      -1142.545      -167.1460
      -341.2461      -2839.994      -944.8413      -1980.998      -2586.876
       938.8994      -188.6069       79.90039       797.3809       6714.895
       8222.986      -7586.230      -6619.828       3688.083       1222.928
       3214.814      -950.1406      -4689.469       1955.556      -821.1807
      -675.3594       6751.872       2280.367      -7211.019      -6603.479
       1900.877       8430.924       5485.547      -1088.626       2585.266
       3698.501      -4457.078      -5100.697      -5743.266      -7900.217
      -3698.353      -3325.543      -3575.034       2583.494       9388.371
       7114.541      -260.4609       5533.370       4459.564      -9687.203
      -336.2656       7599.434      -4173.109      -1654.492       2855.651
      -2695.747      -1453.168       1578.256      -1491.121      -5085.633
      -1986.324       5715.919       6679.998      -2049.827      -5571.503
      -1708.329      -1175.174       213.4297       3579.645       4758.693
      -4229.420      -11078.90       1743.862       720.4102      -11869.92
      -1654.816       7696.797       4867.501       3942.443       1850.668
       1047.732       3305.242       4633.800       2935.694      -3000.871
      -2733.167      -2704.703      -10856.31      -5312.157       2741.069
      -2886.834       1186.172       11249.53       4109.754      -1448.143
       7203.022       125.1562      -12142.59      -1575.190       2547.896
      -5899.696      -4562.358      -1095.438       3568.612       4956.476
       2407.996       880.6299      -6525.628      -3777.363       2300.940
       1619.057       5640.673      -2434.975      -8865.500       5678.028
       6434.035      -10680.42      -7756.312       3541.570      -2046.650
      -6021.046       489.7188       5334.535       2015.163       3338.316
       6643.784      -3875.227      -4286.043       7459.738       5028.697
      -3561.385      -7780.797      -3354.509       3741.791      -2934.223
      -6941.598       719.2261       1281.976       1032.903       2640.051
      -2676.968      -3088.936      -243.4043      -1951.474      -1424.734
      -263.4775       509.6440       2779.331       216.7617      -982.1013
       2658.570      -2660.591      -4247.880       5274.660       5055.058
      -487.7744      -1922.828      -3570.227      -3219.599       1940.647
       6185.776      -496.8242      -7117.934      -4247.205      -4279.281
       1286.291       11515.67       4394.250      -6952.643      -2994.100
       9145.791       9993.835      -2379.619      -9209.638      -7081.064
       1411.945       9490.342       3941.082      -4401.909       417.2415
       1771.001      -5069.342       1572.904       1254.883      -10262.36
      -2397.486       5807.959       2772.167      -467.2402      -6330.287
      -5596.252       4507.145       17047.59       15464.85      -5683.626
      -8038.540       5639.926      -2572.115      -2462.213       9520.096
      -6072.217      -14330.11       3766.331       5422.696      -7031.150
      -4344.763       4517.085       5076.144       3942.683       198.6738
      -9884.990      -10175.72       2304.879       7922.721       4115.715
      -185.2148      -5303.114      -4820.721       6369.100       10201.08
       691.8691      -6380.671      -3855.939       3536.674       2542.225
      -5656.479      -4845.953      -2194.033      -2505.992       3749.333
       4397.010      -1737.469      -1347.936       26.53955      -1857.639
       1489.416       5984.712      -185.4294      -2777.307       3560.844
       7573.646       6317.447      -2171.777      -4667.862       2429.143
       2380.592      -4725.666      -3716.278       1786.509      -855.3977
      -750.6838       2018.142      -833.1816       1868.941       6180.770
      -399.2500      -8015.560      -5110.560      -45.59705      -837.6367
       1184.973       6124.910       2045.612      -1362.793       9014.215
       9519.577      -7915.920      -8892.066       2918.823       506.4277
      -6220.077      -4238.309       1290.054      -1406.151      -6988.662
      -701.2168       7863.668       8391.287       5231.036       1192.433
       2241.575       395.4414      -12110.89      -12958.95      -1121.519
       1570.704       2465.589       2454.999      -1680.590       583.0117
       4031.445       11557.10       8570.219      -6261.379      -1413.093
       1936.891      -2436.625      -3761.682      -10277.48       1483.168
       11954.75       156.0767       1011.903       2229.240      -5769.912
       474.5503       5280.078      -2608.111      -10020.71      -7234.016
       3390.127       6487.654       3632.919       3084.836       1512.793
      -2557.824      -4398.361      -2586.402      -4720.168      -5647.572
      -92.57019       960.9062      -2335.215       530.9922       7269.654
       4732.771       2197.277       2465.920      -8290.023      -10562.37
      -1885.767       1560.625       2826.785       2549.313       4946.713
       129.8496      -5199.011       5392.996       5481.229      -5960.780
      -5897.784      -1460.078       6333.158       7907.159      -6239.834
      -2175.924       9537.667      -725.0352      -4029.199      -3246.297
      -8498.193      -1971.960       3270.996      -381.5156      -6322.624
      -8108.514       1587.574       7056.642       5212.574       5837.532
       3103.447      -795.7837      -2143.185      -1780.434      -4204.834
      -9637.785      -3688.423       3074.704      -537.9458       840.5479
       4973.416       2738.544      -104.2148       2862.251       5682.392
       4060.938       2949.099      -1333.249      -4250.363      -1752.515
      -547.5518      -217.9053      -3431.818      -2058.079       4111.730
      -1226.844      -7194.084      -6552.249      -2625.158       3352.495
       3916.816       5021.479       4176.455      -4835.385      -7167.249
       1385.729       6577.201      -1111.382      -6172.501      -163.5425
       1545.184       2026.381       4253.194       3325.275       2148.830
      -3711.339      -6784.456      -2186.701      -1045.541      -990.2749
      -1430.712      -667.3486       4678.912       3531.344      -2915.259
      -4078.738       1197.654       1996.992      -6095.358      -3497.881
       8427.381       5012.009      -4625.625      -1989.702       2468.764
      -1024.831      -1180.249       3017.125      -3075.844      -7243.196
       350.3300       734.0234       128.6875       11787.10       19638.92
       18860.06       27505.66       47337.17       56824.16       49874.45
       35686.86       11816.83      -19753.45      -45555.30      -57118.83
      -60193.91      -53003.32      -29450.76      -12383.62      -6572.422
       16156.47       36624.14       32683.05       30934.74       19257.01
      -20137.44      -46671.40      -43281.82      -29063.18      -13342.28
      -667.5273       10751.06       20266.62       24913.76       30355.34
       35381.79       29886.52       12153.69      -3170.859      -7881.352
      -17727.92      -34952.73      -34812.98      -22104.88      -17028.78
      -6913.410       9003.328       12836.34       11222.16       10999.24
       8265.574       7919.555       9238.191       7200.696       6716.061
       2843.096      -5422.658      -6254.727      -4383.020      -4973.375
      -9022.396      -12236.31      -7379.330      -2180.687       1084.811
       2156.895       6131.691       13625.76       10301.76       5187.237
       3356.547      -5914.281      -16176.82      -16436.34      -9279.672
      -10174.06      -13274.11      -2646.157       6714.050       298.3765
      -3138.234       5764.034       2482.359      -12747.63      -10675.43
       3737.478       5022.168      -1396.795       2739.435       6818.980
       208.4199       1191.053       9759.141       10097.84       6660.758
       5506.139       5101.002       3086.609       2925.025       494.6465
      -5068.883      -5791.890      -6625.544      -548.3242       11843.55
       10632.98       2665.613       5817.697       9873.928       989.9980
       576.0303       8866.988      -3391.211      -12624.18      -1085.697
      -3787.840      -15670.60      -8550.082       4139.668       3328.455
      -6114.180      -7216.331       1365.380       2637.125      -1502.275
      -2529.846      -6368.487      -6689.337       342.2380       3142.133
      -2207.690      -6851.556      -735.0151       2097.086      -8098.555
      -9236.408      -929.9648      -2437.376      -5947.040      -570.2500
       10309.31       17602.97       12439.92       5213.949       7375.625
       12203.13       14398.02       8122.644      -3674.815      -6370.444
      -2523.045       1475.566       6763.385       10568.86       8364.199
       3143.652       3330.962       43.48438      -8295.289      -9022.305
      -4876.637       1101.438       116.8320      -4913.197      -445.7451
       2855.514       7121.943       9621.686      -3563.453      -13301.38
      -10102.88      -8637.367      -11675.73      -10703.00      -3709.902
      -3564.436      -9082.001      -5872.524       163.6191      -2352.521
      -7045.966      -29.62305       10123.33       3342.581      -5240.174
       1531.977       5897.034       4716.357       6173.167       1126.815
      -4140.650       323.9937       3328.385       379.7140      -744.3213
       2373.698       1286.912      -6418.941      -5830.990       900.2627
       3502.219       5407.502       4343.273      -1358.900      -5601.906
      -1799.507       3916.225       2077.958       501.2920       2099.154
       1252.725       2679.940       2961.797      -3618.540      -4725.557
      -869.4883      -4886.076      -7928.196       3434.388       9288.392
      -3685.247      -6055.427       4411.710       1118.361      -7535.961
      -7536.974      -3391.548       580.9292       984.7207       3361.469
       10598.07       8912.127       427.4355       1309.562       6061.453
       3954.172       2433.930       4758.051       1331.584      -8003.131
      -9342.788      -2518.182      -5323.688      -12856.77      -8682.348
      -294.6714       511.3252      -4348.434      -5601.459      -3725.938
      -1841.975       4936.342       10522.67       6321.879       1561.493
       5299.609       5328.367      -4392.143      -7224.482      -5830.262
      -8881.328      -3521.449       8856.551       13288.62       5508.051
      -1229.370       3070.414       6528.410       7375.672       8670.019
      -425.3711      -9945.256      -2899.848       4165.238      -67.34375
      -3809.322      -3947.055      -5034.668      -7088.680      -3354.895
       3474.530       2477.707      -398.3809      -1316.269      -3964.652
      -5399.242      -6105.197      -2782.238       2652.541       2185.053
       6491.400       13194.41       6011.704      -266.0859       5188.393
       6354.582       1488.773      -2638.925      -3559.188      -4010.383
      -8235.795      -3784.749       440.2695      -7206.243      -3454.212
       5267.700       1533.871      -2113.484      -2350.633      -5767.199
      -11033.32      -9906.039      -4118.127       1282.973       10872.67
       11360.81       218.9785       1556.414       9565.199       8693.090
       5448.342       862.5165      -1773.363       2473.869       6473.244
       4021.578       1976.801       8172.508       10495.88       14.15039
      -10289.25      -6262.357       1890.406      -5218.816      -18004.89
      -16335.12      -5338.293      -344.5244       2082.150       7513.160
       9335.684       2058.182      -4483.300       1865.296       6078.397
      -5208.633      -9207.664       3958.807       8521.020       5642.416
       8326.570       2115.992      -7294.886      -2424.436       8754.415
       6714.078      -7321.116      -7138.391       1979.661      -2583.801
      -10028.22      -8292.302      -4570.702      -3844.447       4685.117
       15705.10       10555.65      -773.3281      -1389.819       1993.547
       85.48535       1804.766       4772.540      -2515.073      -6634.504
       308.5845       3684.687      -3692.242      -8574.919       914.4512
