     0.02500000      -95824.21       83963.09      -12345.00      -12345.00
      -30.00002       229.5500      -28.64000      -12345.00      -12345.00
       0.000000       21.04000      -12345.00      -12345.00      -12345.00
      -12345.00      -12345.00      -12345.00      -12345.00      -12345.00
      -12345.00      -12345.00      -12345.00      -12345.00      -12345.00
      -12345.00      -12345.00      -12345.00      -12345.00      -12345.00
      -12345.00      -30.77170      -64.40940       1205.000       0.000000
      -31.23600      -65.83800       0.000000       167100.0       0.000000
      -12345.00      -12345.00      -12345.00      -12345.00      -12345.00
      -12345.00      -12345.00      -12345.00      -12345.00      -12345.00
       145.8188       69.69535       248.9631       1.311066      -12345.00
      -12345.00      0.1129825       0.000000       0.000000      -12345.00
      -12345.00      -12345.00      -12345.00      -12345.00      -12345.00
      -12345.00      -12345.00      -12345.00      -12345.00      -12345.00
      2008       318        11        12        59
        40         6    -12345    -12345     10383
    -12345    -12345    -12345    -12345    -12345
         1         7        13    -12345    -12345
    -12345    -12345    -12345    -12345    -12345
    -12345    -12345    -12345    -12345    -12345
    -12345    -12345    -12345    -12345    -12345
         1         1         1         1         1
ESP04   -12345          
01      -12345  -12345  
-12345  -12345  -12345  
-12345  -12345  -12345  
-12345  -12345  -12345  
-12345  -12345  -12345  
-12345  -12345  BHZ     
XH      -12345  -12345  
[...]
       91.20993       90.71237       92.04309       97.44415       94.77283
       100.1010       103.4767       97.73361       97.00790       95.85904
       92.79507       99.26312       92.66016       87.16425       91.21280
       90.35919       89.00165       92.37476       89.26544       93.39832
       92.34509       84.87891       83.67496       91.37656       88.11758
       81.09663       81.60506       84.15219       80.84454       80.65024
       84.40804       86.79770       78.52222       80.07866       80.42043
       82.69287       79.43872       73.35448       77.43912       71.11533
       65.82550       71.19180       65.43266       67.14044       59.93503
       56.02429       47.08828       37.94203       41.94444       37.41908
       24.17847       22.12189       19.80147       15.23710       3.948905
      -1.326279      -4.090858      -8.838810      -18.44366      -22.21191
      -31.27817      -42.45869      -48.60579      -46.60797      -59.72162
      -63.59818      -66.73625      -69.69423      -69.95691      -75.12781
      -85.23511      -81.87112      -83.07672      -89.62183      -90.29654
      -89.42880      -94.11166      -97.20261      -110.9985      -112.0516
      -114.4429      -113.7856      -108.8149      -104.1208      -104.2337
      -103.0301      -109.7223      -110.6354      -114.0044      -107.4160
      -97.04520      -92.81259      -92.78027      -96.69693      -104.0296
      -97.52621      -95.91925      -93.60123      -90.91373      -80.13071
      -77.67886      -77.06665      -73.16734      -74.45096      -72.96407
      -57.53589      -61.10352      -62.64073      -55.32666      -53.75314
      -50.14062      -42.30295      -39.06506      -32.42116      -31.20433
      -30.68996      -31.20164      -25.77851      -22.82317      -23.14201
      -19.88278      -18.11910      -21.27104      -13.08982      -9.428095
      -10.48477      -8.718094      -13.62526      -13.36600      -7.576525
      -5.870528       2.207342      -2.077466      -7.941802       2.645899
       4.747119       1.614639       1.583657      -3.203636       10.51765
       23.03512       18.13303       21.04287       24.40371       30.17316
       29.46143       32.70580       42.32056       38.23576       41.92175
       43.88287       42.36674       46.44580       49.10216       52.38629
       54.49420       62.15634       69.73367       72.46629       71.01288
       72.01636       71.59145       71.51788       77.11130       79.12311
       85.72391       86.89780       83.74573       95.98679       101.8046
       108.8654       110.0923       109.9896       114.9601       119.0997
       125.8158       129.1373       133.4666       145.3567       140.2377
       142.0044       157.8759       159.9875       158.3038       170.2063
       174.8733       171.7411       169.7945       177.3106       181.2108
       177.8512       182.1978       185.5233       191.3258       199.7242
       199.8369       203.1760       195.6598       195.9155       203.0659
       195.2242       199.9125       211.1782       208.3561       206.2521
       206.0005       207.4784       205.3926       202.6548       206.0178
       203.3334       201.2737       199.9700       185.1450       183.6863
       187.9584       187.7009       191.1307       185.7386       179.9669
       179.9854       165.6473       162.0087       165.2764       156.4681
       156.6699       151.8914       137.0952       137.1362       134.8849
       132.3669       129.5156       125.8265       125.6894       118.1559
       108.6622       102.5186       99.04315       100.5264       94.44777
       86.62839       75.83679       71.81165       75.49432       72.73100
       66.16708       63.13783       51.55579       46.29601       44.09669
       31.92830       22.47005       22.84109       23.26071       17.82888
       8.914944       3.251514      -8.103901      -18.18633      -23.43904
      -31.64998      -36.71701      -42.82825      -54.86282      -67.34335
      -81.67740      -75.49384      -72.09485      -91.30383      -104.6018
      -111.2473      -116.5464      -117.0382      -126.4542      -134.9382
      -138.1486      -151.1110      -154.3391      -146.4793      -161.4739
      -176.0446      -179.4442      -177.6021      -177.2240      -193.8283
      -200.7986      -199.9845      -201.2276      -204.3885      -212.0444
      -208.7240      -211.9802      -216.9565      -221.8603      -228.6044
      -231.8105      -234.5797      -239.3033      -236.9885      -237.0814
      -237.1078      -241.3735      -246.0324      -252.6603      -258.7761
      -257.4153      -261.5017      -269.8052      -273.0546      -277.9512
      -279.1832      -282.1473      -279.7209      -285.8243      -291.7963
      -298.2233      -302.7325      -310.5907      -313.7023      -315.5462
      -320.8564      -324.2077      -320.3865      -325.5698      -320.5296
      -320.9690      -328.4180      -331.9014      -332.2623      -335.8734
      -329.9086      -330.9197      -331.9198      -329.8322      -326.7393
      -325.1887      -327.6627      -326.6151      -322.2666      -318.7472
      -314.7622      -312.5901      -309.2217      -314.4250      -306.9623
      -298.7620      -299.7684      -292.5061      -282.8445      -287.8795
      -278.6621      -265.2345      -270.3787      -267.6068      -257.3280
      -246.4105      -238.5186      -239.8063      -229.2737      -223.3922
      -217.8070      -208.5737      -204.3462      -197.3262      -190.2618
      -185.7598      -173.6727      -168.2259      -160.4338      -153.0771
      -149.6392      -145.8391      -138.4131      -139.4391      -134.9729
      -124.3120      -116.6152      -110.0131      -102.2945      -100.7718
      -96.72272      -92.48755      -86.12471      -86.16879      -73.79445
      -67.19795      -64.64893      -57.97690      -53.20007      -41.06424
      -24.65889      -21.18447      -18.43077      -11.74852       2.671009
       7.098885       16.23793       30.56091       41.68170       47.50221
       52.68636       59.07408       72.86438       75.01651       80.74167
       96.19278       109.6570       115.8304       122.2355       125.0560
       136.4261       154.2215       171.0662       172.8130       171.5659
       185.1577       201.0117       205.4641       221.4167       232.4362
       244.2120       254.8641       264.7439       273.5564       282.6171
       290.1141       303.0561       312.5350       330.6860       341.8905
       350.7010       360.4723       367.8702       374.9956       391.9480
       400.2136       408.8140       415.3036       421.8241       438.9460
       449.4865       450.9023       464.0665       463.8168       470.9249
       477.9594       481.4691       491.4719       505.2095       504.8544
       502.5051       505.1788       513.6658       521.4944       524.6112
       517.2078       516.5205       514.2585       514.2947       517.7217
       521.9438       515.1805       511.8293       509.2593       510.0486
       508.7520       510.3708       497.8209       494.7830       489.3354
       482.5542       481.0627       480.3899       470.3425       463.9854
       458.7114       456.4128       441.2294       439.6881       431.5022
       419.3524       407.6025       394.5865       389.1724       381.6472
       364.4717       358.6700       346.4747       332.3093       316.0363
       306.6226       291.4604       283.5454       274.6589       266.4185
       248.5127       230.6798       218.1085       207.0898       188.8129
       181.7729       167.0197       151.9445       143.4987       135.3549
       112.0362       102.3937       96.51096       87.92381       68.44243
       58.93171       46.48024       33.95430       21.35355       12.22502
       3.523323    -0.01931763      -23.43547      -32.58072      -34.89951
      -39.16702      -52.00342      -59.15620      -72.65222      -88.16965
      -100.5008      -101.9548      -112.8412      -116.6257      -130.0914
      -134.6073      -143.0418      -150.7584      -150.4121      -156.7062
      -171.8037      -163.5884      -174.6954      -181.4438      -186.5424
      -191.7164      -199.0443      -200.5292      -204.1996      -205.9855
      -224.4113      -226.9929      -228.5624      -228.2849      -241.2897
      -246.2738      -248.1880      -250.0133      -253.1210      -248.8210
      -262.4731      -270.0774      -279.4849      -281.8635      -286.8215
      -287.9116      -295.1804      -298.2880      -309.4940      -306.2944
      -313.0251      -323.1892      -330.4955      -331.3088      -335.5861
      -332.0602      -347.5275      -352.0233      -347.2217      -340.4841
      -352.1139      -353.9552      -356.7736      -369.3949      -376.4691
      -368.4084      -367.1267      -364.3445      -379.0406      -377.8221
      -378.7717      -382.2107      -383.9784      -374.7911      -372.1309
      -372.9967      -387.8723      -386.7189      -385.6504      -384.3662
      -379.8613      -366.9027      -366.9377      -368.4663      -379.3586
      -365.5482      -355.3970      -351.2646      -350.4072      -345.5430
      -349.5665      -341.2061      -334.0718      -325.1602      -319.8851
      -307.7192      -309.2170      -310.3628      -312.9396      -295.5720
      -276.9669      -265.2076      -270.9525      -258.6591      -251.3651
      -241.8893      -237.1963      -221.0878      -214.6649      -211.8384
      -205.9123      -193.1913      -187.6548      -176.8918      -177.7675
      -160.7381      -153.9929      -142.1777      -133.9385      -124.2524
      -114.5439      -108.7740      -108.2228      -90.11914      -87.13287
      -78.90704      -73.92778      -58.68829      -48.75911      -40.75810
      -38.32896      -34.30627      -29.43666      -13.77774      0.4926758
       18.58205       19.72969       27.55267       36.35609       44.51842
       34.81168       44.98213       47.75464       49.62685       55.02553
       63.81702       62.29590       68.58391       68.30228       79.62320
       80.83057       90.31339       82.30484       84.88586       90.18292
       94.11658       98.59772       106.4661       99.75552       111.8688
       108.3934       117.4796       115.9393       120.0975       128.2614
       139.4115       143.0842       159.5533       149.8644       157.5290
       164.0549       168.6892       172.2603       184.0694       188.6777
       196.3654       195.5139       215.5339       213.7537       214.7322
       221.1589       222.9279       214.9481       232.4152       236.3638
       254.8418       259.8765       254.6263       256.2004       261.5862
       258.6705       275.4062       271.4991       277.9546       277.9690
       281.9402       284.6115       290.7426       289.4491       298.2931
       303.5658       314.7389       310.1063       320.5043       319.4052
       326.1106       319.8345       322.0322       326.1658       329.7161
       323.9913       338.7101       338.2297       339.7220       337.7278
       347.9358       351.2422       351.2424       336.3596       341.3772
       341.8374       343.4532       340.0189       340.0665       332.1044
       347.3821       337.6977       335.9000       328.6693       328.8189
       316.4797       319.9094       310.0220       304.5961       293.3494
       295.2690       283.3271       274.4693       267.9945       274.3112
       258.0202       253.2753       235.1694       232.1371       220.9069
       214.2286       201.1997       202.0724       186.4518       187.0854
       174.8466       175.4518       161.4845       150.2271       135.6754
       140.4178       133.8172       131.4962       118.4403       122.5229
       111.1170       113.6604       104.2762       101.4600       93.58032
       97.96207       88.96915       85.79381       73.78088       85.72206
       77.94676       72.15161       59.40486       59.42418       55.45679
       59.39560       50.67465       58.11932       51.72939       58.75980
       50.95975       54.04701       53.81754       53.75674       43.97382
       53.86834       36.55950       40.63097       33.20122       34.42046
       35.34372       48.36133       47.15195       49.70541       38.62692
       45.00194       40.55867       45.11346       41.53201       50.98134
       40.98288       49.62809       36.44408       40.21772       39.10043
       47.60229       40.65005       47.50943       46.50207       47.30527
       25.95920       46.70964       48.06425       44.75125       16.75220
       40.93108       42.36149       18.27567      -13.70032       75.69913
       118.9053      -106.2266      -4719.641      -20189.48      -57759.95
      -95824.21      -61918.55       14627.48       56622.06       83963.09
       50180.13      -12321.58       9113.016       17418.19      -4938.006
       9395.137       7564.445       2878.430       17218.41       6453.238
      -19156.97      -21471.55      -14686.96      -7881.303       10634.05
       17412.39       4209.064      -6412.979      -2483.484       18175.70
       18399.18      -3758.902      -14334.17      -20703.11      -1176.730
       19335.11       2149.758      -9259.094      -10641.68      -15001.47
      -13342.77       670.9609       20431.31       21631.42       17006.60
       19998.08       9187.652      -6152.547      -11600.18      -15505.18
      -17569.78      -18639.00      -9125.490       9207.762       14409.48
       8595.559      -763.9766      -12515.08      -8836.398       8203.342
       9651.658       3918.403       4407.441      -3519.344      -14308.51
      -9989.764       5298.191       15114.07       6810.686      -7417.148
      -11585.49      -20908.97      -19537.31       6738.469       18789.30
       14546.85       8634.239      -755.8896       1556.932       11021.77
       9075.109      -7294.318      -10863.18       1269.136      -1551.637
      -5469.117      -10080.77      -13011.45       4778.883       19265.70
       10649.32      -5228.531      -10254.39      -6084.585       2016.842
      -320.6953      -5982.868       1928.676       3135.105      -2161.109
      -9763.281      -13306.28       6215.371       15778.95       3877.128
      -2895.234      -2387.641       1633.350      -1861.468      -3245.916
       740.2383       981.7559       9143.215       13236.96       2294.432
      -9565.514      -11161.57      -8641.139      -7915.643      -1283.438
       5233.445       3846.122       3143.753      -569.0068      -6804.981
       1595.916       7422.938       2745.801      -3737.406      -7178.389
       7150.330       10104.36      -1926.968      -2158.996      -3202.049
       16.38477       8576.146       3743.019      -6106.635      -7111.747
      -4039.686      -1246.316       5291.750       7080.854      -408.9785
      -5602.526      -6235.033      -2727.775       2738.368       182.9834
      -3837.703      -2825.066      -4042.809      -2449.817       616.1572
      -181.3848       2459.895       9597.527       5211.596      -936.7480
       4123.424       103.5321      -497.4695      -104.4990      -3613.880
       2118.271      -698.7412       3467.000       8505.494       1674.300
       5801.934       1582.951      -6759.868      -232.1025      -1194.157
      -6247.542      -703.2310       1059.196      -38.29199       3250.771
       4315.423       6764.215       2433.623      -3685.697       902.9595
      -613.4663      -3031.650       499.0933      -42.42090       4489.602
       4790.734      -5516.349      -4161.232       1596.007       3651.576
       6802.708       3120.462       3844.515       8582.744      -2054.062
      -14267.21      -7554.663      -143.6602      -4039.287      -4082.738
      -3410.873      -2319.286       4430.910       7201.409       3704.092
       5794.908       5841.445       1063.375      -363.2520      -7628.185
      -2736.104       4586.596       551.5327       2694.801      -1909.722
      -5835.893       133.6436       4681.697       6555.545       1950.355
      -2379.587      -2228.260      -5362.065      -2950.718       1913.670
      -1041.044       937.0713       4916.290       3003.129       2616.116
      -34.39062      -6097.863      -4108.691      -1365.799      -465.6455
       2969.709       3438.044       3575.424      -186.8613      -1075.650
       2411.729       1109.001       469.6772      -1414.444      -3530.912
       13.63586       776.5867      -1611.761       1564.632       1925.235
      -432.3706       1950.914       1858.141       33.11719       3415.705
       3259.940      -1815.513      -1799.697       791.7001       808.1616
      -741.6097      -1107.615       427.6758       4469.374       3446.434
      -1572.615      -4656.062      -1913.121       5819.569       4368.020
       1308.403      -2085.301      -7845.837      -3706.984      -1056.304
      -1072.830       2494.543       2993.572       3068.016       453.8281
      -3933.113      -6137.658      -7953.228      -4844.343       1941.788
       3476.850      -1941.985      -2856.180       1622.091      -842.2742
      -1306.008       4009.970       1809.317       552.8950       962.3555
      -4125.191      -4882.048      -1057.858       2472.057       2019.764
      -85.39795       2838.874       747.4785      -5194.883      -2913.177
       73.56689       840.9814       2703.370       2468.921      -628.8059
      -1481.236       614.1543      -2999.455      -5733.473      -2498.607
       278.5127       1596.932       1727.586       3916.278       1545.387
      -3611.798      -560.8711      -4143.125      -9847.389      -2153.546
       4136.794       4187.629       3303.604       584.8018      -4665.473
      -5915.035      -1441.618       450.5020       2330.463       4090.010
       3608.116      -172.0762      -5359.727      -3543.490      -820.8367
      -278.9375       2971.467       3279.355      -1032.429      -3885.283
      -1813.872      -1126.524       887.3184       6887.183       3949.572
      -1712.451      -3220.248      -2580.412      -2140.412      -1465.264
       2222.309       914.7083       1024.533       865.5020      -5673.076
      -5933.066      -292.5775       702.4592      -181.7952       1201.719
