     0.02500000      -96238.24       63757.05      -12345.00      -12345.00
      -30.01999       224.9550      -24.41000      -12345.00      -12345.00
       0.000000       17.62000      -12345.00      -12345.00      -12345.00
      -12345.00      -12345.00      -12345.00      -12345.00      -12345.00
      -12345.00      -12345.00      -12345.00      -12345.00      -12345.00
      -12345.00      -12345.00      -12345.00      -12345.00      -12345.00
      -12345.00      -31.13820      -64.95640       1252.000       0.000000
      -31.23600      -65.83800       0.000000       167100.0       0.000000
      -12345.00      -12345.00      -12345.00      -12345.00      -12345.00
      -12345.00      -12345.00      -12345.00      -12345.00      -12345.00
       84.72844       82.87463       262.4203      0.7618065      -12345.00
      -12345.00     0.05637500       90.00000       90.00000      -12345.00
      -12345.00      -12345.00      -12345.00      -12345.00      -12345.00
      -12345.00      -12345.00      -12345.00      -12345.00      -12345.00
      2008       318        11        12        54
       810         6    -12345    -12345     10200
    -12345    -12345    -12345    -12345    -12345
         1         7        13    -12345    -12345
    -12345    -12345    -12345    -12345    -12345
    -12345    -12345    -12345    -12345    -12345
    -12345    -12345    -12345    -12345    -12345
         1         1         1         1         1
ESP06   -12345          
01      -12345  -12345  
-12345  -12345  -12345  
-12345  -12345  -12345  
-12345  -12345  -12345  
-12345  -12345  -12345  
-12345  -12345  BHE     
XH      -12345  -12345  
[...]
       64.65054       66.93369       41.97756       58.19063       5.221565
       28.24252       48.87827       51.04843      -9.532440       16.59549
       58.14402       12.84576       20.80888       76.59810       35.58192
       29.17778       13.29309       62.29300       4.441406       24.79956
       92.23228       65.47634      -9.046654       39.46486       30.48184
       28.88223       82.71584       102.9235       16.17521       8.900391
       41.92131       70.30498       46.34797       22.59547      -45.03357
       20.12006       49.41102      -21.17851      -43.99487       5.447052
      -37.89560      -26.29705      -23.21243      -33.80862      -49.00220
       2.984230      -32.44225      -60.33156      -51.09269      -12.35652
       2.168753       12.83986      -32.65195      -52.65827      -47.74055
      -5.475891      -28.01802      -73.20531      -40.76511       17.71942
      -66.13431      -66.99693      -71.66641      -63.84436      -132.6206
      -99.26837      -87.41907      -128.6586      -127.6808      -166.6651
      -161.1934      -125.0966      -204.8552      -189.7864      -183.8622
      -194.1857      -205.7687      -197.2188      -249.3834      -240.6450
      -255.0762      -194.4718      -199.1281      -279.5111      -262.5579
      -235.7347      -227.6206      -258.7084      -314.4249      -226.9763
      -295.6874      -299.7334      -263.5619      -307.0280      -352.3524
      -333.4083      -329.5058      -330.2751      -361.7936      -326.8884
      -348.8116      -383.6079      -376.4713      -372.1605      -428.5896
      -398.2097      -377.5583      -406.7050      -424.1019      -337.7515
      -371.2440      -404.7136      -396.4752      -444.9785      -416.6934
      -330.7266      -406.3174      -421.9481      -391.5286      -327.4954
      -377.0574      -395.2177      -358.5208      -385.4485      -391.6741
      -362.8861      -407.0984      -361.3462      -370.2991      -370.1633
      -355.8776      -362.6373      -335.1794      -330.7234      -368.7629
      -322.2306      -265.5914      -273.4598      -332.5955      -280.2961
      -261.0811      -249.2478      -291.9023      -236.0641      -174.2469
      -155.6407      -208.3453      -225.8533      -157.2091      -84.86200
      -109.2958      -139.6627      -124.3336      -82.74316      -117.7280
      -61.89780      -4.685097      -45.20667      -3.121803       50.77587
      -57.53534      -8.649078       86.60626       100.9686       51.57849
       93.60776       96.51501       88.71759       156.4441       190.7504
       167.1710       233.7593       176.1707       194.1231       278.8663
       232.7976       199.2501       225.1749       281.7407       327.9490
       221.1779       256.8799       309.6481       272.7351       278.5562
       244.4600       231.2585       287.4701       251.5064       215.6429
       244.3420       276.2388       181.6956       226.9022       239.8669
       209.9435       240.8656       222.2872       189.1336       221.1526
       230.0989       192.3303       206.0957       282.5256       206.1654
       164.7688       193.0100       249.0630       222.8022       175.3932
       213.0394       232.9000       188.7375       205.8822       183.7625
       150.3495       152.8060       178.6498       166.7385       176.0330
       142.1425       94.73657       143.5277       167.2623       102.0992
       125.8632       111.0258       138.8086       103.0965       103.7025
       173.4784       138.4262       90.16302       136.0098       123.0802
       137.5002       121.8656       112.2344       156.0917       126.7661
       141.1511       194.9918       124.3226       129.1805       142.4019
       163.3639       149.7264       107.3208       151.1931       124.7616
       103.1351       127.6586       130.3905       164.4646       68.03125
       79.49896       130.6863       142.8576       126.1667       117.6473
       112.8493       84.86438       102.6364       180.9434       123.8594
       132.5509       157.3203       145.3924       179.3537       165.4576
       174.2458       192.4459       149.5189       189.0222       200.9334
       195.3194       138.1182       129.5096       209.6302       186.6820
       168.9087       149.9813       114.1680       192.0597       142.8271
       82.33740       117.6589       152.6910       169.5848       149.1268
       111.4012       119.8740       77.68634       97.39667       121.9227
       108.9203       61.81372       62.15933       135.4502       137.3111
       16.52603       42.88617       127.6892       92.56542       38.61502
       21.79082       63.31762       24.46619       12.60065       63.11741
      -31.56713       2.354965       17.99528      -48.43074      -22.09120
       4.717041      -55.40088      -45.41068     -0.6398315      -69.84007
      -65.79494      -31.52509      -109.8224      -35.55540      -7.948822
      -83.62485      -74.08685      -47.71671      -72.54517      -72.95267
      -48.79800      -79.88882      -109.2343      -49.76764      -79.20682
      -112.8550      -49.68143      -51.65308      -139.6205      -131.5101
      -37.67416      -53.96881      -138.1041      -122.9254      -71.71484
      -90.78003      -129.4455      -115.3795      -117.5400      -115.4140
      -103.2385      -125.9238      -112.3029      -81.27283      -119.8428
      -92.74283      -87.48602      -121.3020      -113.6595      -109.4883
      -125.0697      -112.6674      -61.04883      -65.29456      -145.5249
      -153.1842      -136.9028      -89.72296      -143.9767      -163.7607
      -105.3275      -153.9262      -155.7634      -141.5754      -150.9359
      -136.3450      -161.3120      -189.1687      -190.4875      -175.7437
      -106.1578      -128.3057      -162.4958      -103.8286      -161.1729
      -188.6821      -138.2764      -84.72653      -87.74652      -145.7312
      -126.2223      -123.0978      -158.9807      -102.4595      -72.94754
      -138.0003      -167.9684      -123.2020      -116.9104      -130.8108
      -174.0458      -193.3372      -137.4785      -138.0466      -164.7720
      -132.0782      -154.9805      -202.2352      -156.9421      -122.2840
      -183.4510      -137.1508      -113.7556      -188.9420      -142.3752
      -110.9791      -110.0103      -109.3843      -106.2191      -125.5632
      -153.9746      -93.14456      -69.62814      -64.87875      -96.06625
      -106.1286      -63.43277      -64.39792      -93.83264      -87.72195
      -90.58022      -99.57024      -55.72275      -64.77206      -89.36649
      -92.31171      -102.5878      -102.1482      -62.52588      -111.9122
      -149.3584      -49.72180      -85.96048      -155.5221      -56.07083
      -42.00146      -97.21259      -63.25247      -54.08261      -86.36542
      -75.91388      -72.03360      -48.39935      -8.102066      -24.10902
      -36.28268      -71.52385      -80.03183      -19.75850      -6.050423
      -14.48338      -60.11898     -0.7354431      -28.37830      -77.50433
      -2.495468      -63.54475      -42.73978      -6.891090      -33.05573
      -11.66717      -8.353523      -14.09320      -49.86224      -19.07948
       39.47872       33.00211      -5.085556       48.98762       44.68855
       4.564270       78.80538       53.60928       2.414917       112.1203
       112.5034       26.18512       67.77563       149.3618       108.8608
       95.57275       131.3282       140.2036       161.8013       141.9964
       129.8690       149.0399       170.8104       216.8410       185.6050
       122.1215       183.1591       261.1863       164.4524       209.2707
       230.5087       142.9137       196.1909       207.4412       231.9218
       263.3602       230.8704       256.3853       211.8669       169.1722
       206.0685       277.4324       246.7368       204.1657       241.3380
       231.9486       215.2397       215.2665       215.1528       212.8107
       247.0200       246.5966       117.1619       183.3568       246.9215
       179.0730       171.7360       214.8064       198.3182       182.4057
       206.1310       165.4440       147.7545       210.1333       239.9519
       233.1433       132.0676       153.1099       188.4691       189.0068
       237.7363       158.6209       123.0142       183.4583       159.8785
       142.9434       145.0354       140.5266       138.7132       114.3892
       83.02899       155.3218       125.4588       86.04858       97.15286
       115.1528       146.7373       114.8164       36.18777       87.34775
       91.08911       58.92264       84.63313       75.60869       28.88120
       94.17114       130.9496       87.29181       92.04230       82.69171
       65.17291       34.76102       23.17714       96.12013       47.00638
       26.91544       33.46768       88.04243       96.66064       7.150242
      -27.34091       17.08774       41.52184       30.90082      -33.34122
      -19.72185      -34.32587      -61.40392      -37.74654      -13.59563
      -14.99469      -70.00607      -96.07326      -28.41249      -41.86212
      -62.72211      -70.16388      -65.15985      -74.57581      -86.01248
      -103.6336      -112.3974      -87.82684      -65.49789      -150.6428
      -159.9980      -113.8505      -118.4853      -131.7021      -147.6146
      -168.5223      -141.7815      -195.3608      -160.0527      -161.4698
      -179.4256      -171.6793      -255.7170      -210.0809      -120.8082
      -229.6013      -221.4136      -181.1019      -201.2117      -217.8977
      -231.0973      -190.2900      -189.6171      -260.9564      -197.8381
      -206.7430      -222.8447      -164.2891      -221.6367      -311.1509
      -199.2975      -215.5195      -256.3196      -175.6383      -198.7522
      -303.8738      -280.2080      -246.8508      -227.7934      -252.0845
      -267.3588      -229.2026      -236.3768      -317.1783      -267.4592
      -232.5768      -263.8856      -256.3169      -247.5914      -291.3729
      -226.6030      -214.6573      -291.8955      -261.8083      -208.0669
      -217.8091      -186.8740      -226.8386      -215.7681      -206.1853
      -236.3268      -222.5040      -137.6871      -183.6961      -190.6564
      -217.3204      -224.2555      -161.4500      -166.7079      -142.4151
      -92.65121      -128.8171      -126.1903      -156.5204      -101.2625
      -79.59033      -86.16238      -33.40036       20.95037      -22.29916
      -15.47720      -12.57974       57.32883       101.6623       76.15125
       65.62402       93.48383       160.3845       201.1038       133.7322
       188.2871       251.1373       201.2361       217.0524       299.1067
       241.6438       290.6332       275.8846       269.8428       391.2682
       351.8181       293.3479       376.6952       339.2788       379.9377
       407.6112       413.2372       395.2085       351.8521       392.3033
       457.6831       431.0636       461.4733       470.4537       418.7419
       440.8381       510.6886       456.5051       447.3645       447.8320
       529.5909       496.4272       435.2533       513.4399       539.8457
       466.5736       436.2407       435.7385       500.1204       500.5918
       516.8352       508.1116       433.6133       444.1578       521.7443
       437.8232       457.8661       478.4384       390.4130       438.0457
       484.6708       407.9703       443.4409       428.0709       411.7603
       412.3153       428.6469       384.1342       430.0859       369.8784
       359.1027       402.0193       358.1682       400.5333       395.0756
       348.7416       355.6631       308.8236       331.6128       295.4563
       368.3639       396.4158       260.4159       264.4302       361.1113
       289.3267       341.8817       320.8431       212.1925       253.0034
       288.1352       187.3705       195.7344       264.2794       272.1290
       199.0512       168.7450       159.0771       220.2238       119.7188
       122.3646       137.3047       86.65576       88.06607       86.47984
       51.31519       37.58112       76.50955       53.71877      -51.02900
       9.108253       6.988068      -37.64979      -62.30637       23.66602
      -62.21936      -70.43610      -56.02118      -135.0637      -95.50034
      -34.26501      -87.50620      -87.65228      -124.9462      -101.8434
      -109.0214      -101.6270      -157.6051      -166.1288      -97.97345
      -127.9034      -183.8697      -86.38306      -167.2126      -218.0352
      -198.6282      -98.21753      -195.4207      -238.1158      -241.0923
      -133.6767      -162.4557      -257.3906      -413.2148      -77.29764
       221.0977      -731.7402      -4031.211      -10294.94      -60068.03
      -96238.24      -25342.86       63757.05       59460.95      -902.1875
       5232.227       25691.16      -2552.502      -1509.203       35942.97
       3490.805      -59110.85       2543.789       59118.38      -1753.633
      -22213.11       15852.95      -1430.285      -20482.75       3612.660
       3350.750      -15189.39      -8507.570      -13455.97      -15955.36
       22203.16       32955.61      -1335.631       4250.135       14218.00
      -20993.08      -30105.01       260.6016       32069.51       27019.56
       5411.182      -7129.973      -19398.40      -11166.91       18424.12
       25428.55      -6078.984      -23518.07      -33519.73      -24029.57
       26127.23       37489.11       6938.855      -7162.778      -6302.094
      -808.3813       4341.615      -3838.730      -15803.72      -25806.82
      -21920.09       5454.219       22931.82       14380.48       2328.547
       6344.812       9931.621       3823.016       6024.390       4092.812
      -13297.09      -18015.01      -5147.754       5107.762       12023.29
       16687.99       3554.023      -24647.13      -29855.86      -5001.848
       19329.64       24219.69       8141.064      -7673.070      -13067.38
      -12875.75      -3744.334       5585.945       13652.67       10892.89
      -2151.076      -5855.693      -2002.211       5223.384       575.4922
      -12172.68      -16183.73      -7701.617       5091.047       6845.095
       2260.883      -4390.139      -7083.723      -2572.498       1045.248
       7681.340       16099.61       12744.83       263.5977      -10514.46
      -11513.99       67.98828       8591.203       1297.592       2226.072
       13267.38      -460.1680      -14333.27      -4941.233       625.0215
      -1045.276      -3182.631      -1757.105      -6003.058      -7627.270
       9320.418       17614.80       7743.009      -1608.692      -1517.379
      -7148.281      -12048.29      -2655.568       6710.703       15083.83
       13189.67      -4431.139      -10152.09      -1776.062       5603.416
       7651.753       136.2227      -5187.979      -4412.376       38.53125
       4894.820       1204.422      -1037.198      -1764.324      -5730.317
      -5015.345      -494.4951       4317.032       4359.192       1722.612
       1075.225      -4224.059      -6133.531       1995.994       5374.957
       2134.539       1394.582      -3043.902      -9069.779      -5700.303
       4132.328       8845.115       3752.704       608.1934       5954.186
       6434.343      -2694.337       1820.607       9111.798      -2756.815
      -5755.939       3593.429       2279.748      -3354.396      -6581.830
      -6989.822      -7671.074      -7914.262      -5093.722      -2573.554
       2807.896       2067.533       2762.379       12285.33       7055.770
      -3557.461       5216.431       10179.26      -5860.214      -8499.943
       2807.767       3381.161       4012.298       2275.683       292.5122
       2728.461       1581.448       147.3530      -2681.027      -55.28320
       8307.566       6782.369      -3352.376      -4041.814       4047.672
      -227.6689      -6899.309      -1199.098       2635.605       5819.137
       8712.326       2248.254      -13167.73      -17910.48       1954.762
       10720.96       3004.175       5415.773       1371.836      -3739.570
       4618.804       3903.328       1372.668       897.2695      -9062.742
      -7276.074       1265.845      -556.9814       1137.627       6835.598
       9336.146       6681.473      -4127.814      -9537.547      -4028.307
       830.4297       6639.154       9622.072      -34.39648      -8093.215
      -1849.648       8114.905       5940.676      -6108.643      -9450.329
      -5857.407      -3696.910       866.7000       792.1006      -3141.277
      -1393.124      -953.8506      -2546.129      -452.9999      -31.68945
      -1582.473      -2777.774       1711.144       4340.195      -4838.828
      -6194.560       842.9209       356.9238       2746.820       9828.983
       6478.987      -969.8623      -2328.770      -3134.569      -2288.581
       4263.371       2693.135      -6391.014      -728.4619       7733.043
      -2392.958      -2042.110       9599.262      -4602.197      -10290.72
       2088.081      -1796.082       392.0557       3819.381      -6168.348
      -6794.266      -4463.799      -3389.993      -470.3633      -5153.113
      -5389.779       4183.857       9395.155       4885.509      -53.05957
       2480.217       5166.585       1350.620      -4011.750      -1653.373
       2843.710      -212.3027      -68.42871       4397.434      -3528.849
      -7597.452       4548.347       2651.523      -7760.207      -3960.175
       769.9570      -1551.551      -4101.625      -5858.367      -7033.518
      -8336.525      -8624.900      -1643.182       9135.217       13120.29
       1815.252      -10127.56      -2107.842       7675.162       4006.188
       7018.055       12178.73       1547.193      -4205.795      -475.9102
      -5362.344      -11559.35      -6063.323      -2056.895       336.8828
       9103.656       694.9180      -9522.613      -1337.080       699.0015
      -335.3281       1961.734      -1768.223      -1771.460       1287.455
       2265.983       2763.569      -3994.608      -5877.424       5204.115
       3266.158      -7014.422      -1476.100       2804.910       3580.160
       5185.324      -1734.879      -5486.145       611.8262       9533.785
       12293.25       585.9473      -10839.86      -2056.985       4089.666
