     0.02500000      -38934.85       32148.51      -12345.00      -12345.00
      -30.01999       224.9550      -24.41000      -12345.00      -12345.00
       0.000000       17.62000      -12345.00      -12345.00      -12345.00
      -12345.00      -12345.00      -12345.00      -12345.00      -12345.00
      -12345.00      -12345.00      -12345.00      -12345.00      -12345.00
      -12345.00      -12345.00      -12345.00      -12345.00      -12345.00
      -12345.00      -31.13820      -64.95640       1252.000       0.000000
      -31.23600      -65.83800       0.000000       167100.0       0.000000
      -12345.00      -12345.00      -12345.00      -12345.00      -12345.00
      -12345.00      -12345.00      -12345.00      -12345.00      -12345.00
       84.72844       82.87463       262.4203      0.7618065      -12345.00
      -12345.00      0.7077121       0.000000       90.00000      -12345.00
      -12345.00      -12345.00      -12345.00      -12345.00      -12345.00
      -12345.00      -12345.00      -12345.00      -12345.00      -12345.00
      2008       318        11        12        54
       810         6    -12345    -12345     10200
    -12345    -12345    -12345    -12345    -12345
         1         7        13    -12345    -12345
    -12345    -12345    -12345    -12345    -12345
    -12345    -12345    -12345    -12345    -12345
    -12345    -12345    -12345    -12345    -12345
         1         1         1         1         1
ESP06   -12345          
01      -12345  -12345  
-12345  -12345  -12345  
-12345  -12345  -12345  
-12345  -12345  -12345  
-12345  -12345  -12345  
-12345  -12345  BHN     
XH      -12345  -12345  
[...]
      -33.54946      -26.28444      -10.65283      -40.81101      -33.40712
       8.794067      -19.76259      -76.54216      -55.23633      -32.21334
      -14.28431      -27.66287      -58.20721      -100.5019      -90.28741
      -60.21902      -71.48938      -145.5818      -89.70001      -36.44641
      -115.4960      -130.8559      -112.0096      -108.8332      -164.7167
      -139.4473      -97.42316      -149.3329      -121.7424      -172.9952
      -140.3945      -103.9634      -177.4330      -170.2588      -132.6973
      -156.2791      -146.4744      -148.4803      -197.1990      -196.8881
      -189.3789      -144.6262      -133.9052      -235.6483      -201.8706
      -181.7940      -163.6294      -216.0582      -256.8384      -170.5757
      -223.1392      -239.7526      -183.3832      -240.2435      -269.3496
      -257.1155      -227.6420      -242.2218      -255.0262      -214.1505
      -216.0009      -267.1727      -229.9260      -231.1097      -280.3588
      -260.0579      -211.5844      -254.7278      -262.7159      -182.5796
      -205.7761      -255.5435      -229.3328      -302.7143      -259.0294
      -182.8293      -253.0023      -287.8621      -246.8873      -188.7062
      -225.5466      -259.7921      -201.9814      -246.6561      -237.5145
      -215.1371      -242.8340      -201.1129      -193.1340      -203.1743
      -168.0213      -189.6305      -145.4352      -153.1576      -178.4315
      -144.6015      -63.96637      -87.60632      -147.8590      -106.7340
      -72.56970      -82.97592      -130.9619      -97.63995      -13.91763
      -18.99716      -76.32135      -122.7105      -46.79403       14.39012
      -10.65112      -77.37228      -48.90991      -30.47556      -71.64201
      -23.10502       46.51162      -27.63489       28.85538       60.22141
      -55.44827      -22.58238       80.82472       77.12524       29.16661
       46.96536       56.70908       28.42584       109.7048       114.4687
       89.17868       148.5095       81.81592       79.86258       186.8120
       108.4026       80.63995       92.36401       172.3701       218.8385
       102.0964       130.9824       222.6848       171.7231       195.5841
       157.0901       168.1258       235.0126       222.3018       178.6047
       241.4486       274.1775       187.7271       241.7306       279.0638
       235.6125       300.1108       280.9833       257.8765       291.9956
       319.9788       261.8970       299.7609       377.7544       308.7794
       255.7208       298.7104       353.8458       340.7984       271.8762
       332.1039       342.0688       310.3365       329.4104       322.8004
       275.1347       297.4025       322.7279       330.4304       332.7128
       311.2996       249.7766       326.6962       345.8135       285.5368
       302.9210       300.9963       311.0862       281.5112       269.7571
       345.4265       281.6118       234.3727       264.0970       249.1619
       238.7377       217.8230       184.2488       233.1081       175.9633
       194.7667       226.2375       147.0231       138.4521       158.5851
       157.6500       146.8953       78.71744       132.7525       88.45990
       66.32428       79.38330       99.65274       108.8982       9.225410
       12.34825       57.60506       53.61957       49.12458       9.930450
       5.040344      -49.62373      -34.31458       31.80901      -35.18717
      -51.58856      -21.49606      -69.65617      -35.97639      -65.47321
      -62.44708      -68.80023      -103.7779      -82.33195      -72.39249
      -85.85159      -146.8279      -180.4669      -73.47269      -111.2169
      -125.4330      -154.0957      -177.7772      -108.1135      -155.8608
      -221.9839      -170.3773      -146.1117      -109.9885      -145.8482
      -177.6924      -179.0933      -225.4990      -211.5155      -169.3584
      -197.2985      -238.8266      -256.8594      -170.4730      -175.5964
      -300.8569      -284.7233      -178.8060      -221.5289      -265.4584
      -294.1598      -232.5612      -277.3915      -273.1263      -221.9454
      -309.4316      -273.7560      -238.5121      -312.5913      -266.4888
      -239.2697      -288.7597      -285.2216      -218.8455      -289.3794
      -265.2988      -229.8026      -305.2329      -232.0422      -180.1247
      -265.2725      -246.8159      -221.6873      -225.7419      -230.1154
      -195.1138      -232.6942      -247.5923      -183.4715      -196.2246
      -235.2530      -148.4316      -149.5905      -235.2539      -221.0752
      -84.71573      -99.51962      -169.6562      -146.2950      -73.92273
      -90.97925      -106.3627      -88.64093      -76.15056      -72.72786
      -42.46405      -65.76031      -28.38012       6.123940      -24.30814
     -0.5436039       16.35229      -22.51963      0.9545002     -0.8470640
     -0.7963867       15.87611       80.22112       75.99098       9.795706
      -11.63751       23.83887       88.84498       34.74556       14.33258
       104.3218       42.14081       60.91895       80.85516       79.61722
       94.71559       81.29489       45.17264       54.25354       65.95197
       152.5501       116.0449       87.42850       144.9779       84.59589
       45.20380       109.9188       155.2546       152.4386       78.08450
       104.8975       95.87936       69.04852       120.8681       155.7369
       78.35339       55.42657       90.11673       107.0571       89.83894
       50.74588       28.89337       102.2479       90.43709       71.56247
       97.99591       81.13106       32.41791       88.70746       113.3976
       59.23566       96.39374       121.7939       28.35614       81.43213
       105.8371       112.5105       94.05032       99.12762       64.99597
       31.96283       94.18326       120.3575       111.2179       90.63081
       68.97153       113.5377       112.8094       94.97021       99.37311
       104.6250       93.53687       153.1465       137.0489       118.9029
       114.4109       117.2154       119.1784       171.4743       117.0678
       85.74805       186.7712       160.1338       79.05829       190.4490
       206.9641       149.6689       180.6709       202.6151       148.4053
       156.9045       160.0077       191.3079       221.1880       210.0378
       194.3362       154.0547       132.3135       213.2097       228.4040
       220.0770       155.6687       230.1597       206.5020       155.5829
       232.0531       176.0223       198.2852       242.3913       202.6674
       234.2163       229.7520       219.0134       163.4512       202.5466
       251.8060       235.0615       184.8196       237.9047       207.7618
       157.2747       227.3948       188.9621       110.3085       226.3970
       209.7304       115.8078       140.8120       213.8316       161.3303
       138.9351       159.3362       167.6609       169.1603       140.6432
       115.8712       127.3411       139.3547       183.4577       128.7779
       63.03693       119.9874       191.6279       66.43280       114.5781
       118.7574       15.66806       60.57669       56.15565       69.69951
       100.3739       44.09660       74.39748       16.58714      -39.84027
      -6.803589       68.79308       19.23048      -30.28996       3.022301
      -5.425659      -34.19205      -35.56042      -35.54756      -31.71917
       5.564323       9.562103      -139.0990      -63.87836       4.599838
      -72.59843      -90.26965      -36.20947      -55.49913      -74.55014
      -54.33481      -95.76810      -121.7655      -57.20036      -23.67770
      -27.30688      -149.9821      -128.8948      -92.02499      -96.03986
      -46.83301      -133.0871      -168.2432      -93.71332      -123.7790
      -137.4979      -133.4267      -144.0195      -144.6388      -165.7728
      -203.0724      -116.7783      -150.3916      -198.7387      -183.9935
      -160.2734      -128.1260      -154.5901      -244.8448      -196.4215
      -188.6689      -225.7762      -208.7700      -213.6672      -266.3926
      -198.2531      -156.2178      -211.2310      -208.7124      -215.8965
      -239.8657      -278.9846      -289.9071      -200.2478      -263.9224
      -278.1126      -266.0012      -209.4592      -186.7867      -282.3999
      -320.6084      -262.2310      -234.5674      -240.1323      -296.3455
      -276.3292      -290.7190      -308.1720      -278.6735      -250.0804
      -229.6077      -287.5616      -314.7280      -224.9324      -235.4528
      -261.1766      -258.5370      -247.1313      -251.3794      -253.7031
      -263.0123      -266.1335      -229.7933      -192.7015      -270.8848
      -274.6926      -213.5117      -205.6409      -204.3190      -219.1725
      -235.0394      -187.5323      -234.8655      -187.2132      -173.4716
      -186.3850      -162.4200      -249.0958      -191.0317      -80.16827
      -187.2879      -175.9262      -132.0965      -146.9534      -158.6140
      -178.6362      -124.0204      -117.9659      -193.4779      -125.7304
      -127.2714      -144.9261      -71.83899      -122.2163      -223.1357
      -98.70715      -96.57077      -141.7895      -42.03558      -61.56854
      -175.5400      -141.4385      -88.12363      -63.57831      -82.50262
      -90.64301      -40.35292      -50.04211      -131.8675      -73.21407
      -20.43689      -50.97853      -40.19656      -34.79106      -75.14153
      -7.869762       12.46466      -71.24745      -37.48230       14.07773
       5.040485       31.67231      -8.850147       4.348900       19.77892
      -23.34672      -1.558105       91.23256       42.71770       30.05082
       2.585846      -7.933319       65.71776       47.10617       80.25159
       125.6046       82.61169       80.55914       45.46747       97.67474
       119.9996       90.27353       146.2621       191.9445       128.8551
       117.3206       114.6096       168.2195       205.0139       156.5157
       131.2381       140.0073       206.5135       228.8568       139.6108
       176.3394       236.1091       157.5221       171.2402       237.3656
       168.1329       217.8792       189.2853       162.2334       300.0322
       238.2188       165.3694       246.1710       204.2615       234.3667
       263.1526       256.8777       243.4536       177.6302       215.1688
       280.4200       248.8582       264.5082       281.3942       207.1698
       220.7705       297.9183       235.3657       204.2282       218.4685
       300.4391       260.4684       179.5441       270.1441       295.0556
       224.7961       182.4570       185.6680       255.8521       265.7026
       278.1785       283.6564       191.1774       208.8463       295.9033
       216.5339       233.3829       271.0238       172.9896       234.2488
       283.3576       217.3760       252.9678       239.0327       219.0541
       238.4438       249.6423       210.7451       259.1526       200.1084
       186.6572       246.8751       183.1920       246.6823       241.8303
       197.0496       204.0057       171.6807       189.5082       163.2200
       241.8774       285.9921       127.9099       144.8157       248.0517
       181.4992       237.8139       226.6512       92.06378       161.7480
       201.4756       103.7209       116.0753       215.3196       217.5385
       152.4262       114.6197       133.2816       201.9451       105.4636
       111.6516       155.2061       95.62061       119.3263       116.5141
       102.9262       92.57721       158.6888       125.3826       41.58688
       109.7515       122.4427       60.53040       58.31763       160.5508
       87.56982       61.23320       97.07896       7.470703       68.52606
       111.1778       73.50150       63.24694       29.85858       40.05890
       49.36489       38.16822       5.485806      -33.23586       39.97607
     -0.2651711      -33.33412       33.14175      -46.97964      -113.6167
      -49.29838       18.10342      -92.90057      -139.6894      -69.92407
      -51.40601      -106.7850      -136.7731      -166.0938      -77.60928
      -18.10977      -3.681641      -155.8467       4316.916       921.7832
      -3696.195       16286.78       20467.75      -13115.35      -30527.14
       5158.510       19997.45      -19425.94      -21871.25       21577.77
       21680.90      -11153.51      -8519.469      -12022.04      -23900.62
      -5100.041       14827.73       106.8438      -9696.609       21684.86
       32148.51       2276.586      -16607.86      -16481.23      -14834.35
      -4897.429      -1528.455       2437.984       24798.48       14265.39
      -17946.40      -10464.53       1072.536      -5789.580      -4157.721
       7488.082       12689.19       3725.322      -8618.913      -3979.785
       13344.71       9534.620      -1259.047      -20226.20      -38934.85
      -6213.852       28733.80       18254.87       6447.230       8802.752
      -2323.188      -22381.91      -26006.12      -3572.742       19279.34
       8383.258      -11987.35      -7414.590       11399.39       14801.60
       7030.580       1587.768      -9070.609      -14486.73      -11139.55
       559.6445       17578.75       18088.05      -318.1367      -15139.54
      -13157.51      -6014.645       3009.477       15914.89       11900.33
      -4119.362      -6217.599      -948.7070      -4880.754      -7038.116
      -455.1152       1909.549       5144.006       9733.715      -946.2656
      -18226.98      -18930.12      -3671.840       14281.77       16369.91
       815.2129      -6957.986       1369.909       3930.055      -5073.431
      -3106.699       5171.936       2947.201       2314.581       5497.415
       4535.207       2693.938      -4903.820      -12811.62      -11644.40
      -1944.114       4694.869       4019.916       5672.917       4750.606
       1145.213      -3292.751      -3335.646       5302.777       6132.204
       1593.307       870.1794      -780.6680      -2258.723      -2874.955
       2092.857       4602.645      -6681.121      -9941.413       2995.840
       6352.773      -1094.557      -3533.975      -4741.592      -4509.377
       1356.961       5305.418       12346.39       17321.37       3659.426
      -9046.600      -781.3955       5177.846      -8659.387      -12021.58
      -1243.886       635.5508       2948.926       4544.732       2043.777
       4100.326       5047.571      -64.37500      -4034.339      -4830.017
      -1967.157       1948.501      -4743.883      -8585.977      -1327.053
       4966.223       11717.74       11738.30       2930.250      -2710.205
       2268.293       10172.60      -3610.092      -12999.64       4329.617
       2263.139      -12715.01       789.7656       7216.914      -4367.176
       4815.529       9451.743       901.8633       3365.439       3936.360
       3494.242       5947.827       5222.284      -1588.109      -9805.000
      -8799.426      -15281.82      -21509.14      -7026.625       6697.141
       15501.95       18080.59       7224.338      -1229.176       931.6414
       1900.580      -6015.883      -11511.30      -4385.352       12101.45
       13102.76      -1422.420      -4928.870      -450.6719       3868.402
       4394.172      -6046.613      -12679.06      -2199.871       7885.586
       7358.938       1650.387      -1251.575      -435.0540      -1231.691
       353.8862      -182.6816      -2938.208       38.14307       2043.250
      -295.5703      -5167.188      -7692.837      -2316.902       4219.717
       7039.031       6679.968       2286.978      -2847.625       226.5273
       5605.918      -2117.969      -10095.15      -6982.783      -237.8252
       2515.711       851.5205      -2027.731      -4864.559       7377.133
       13565.69      -3182.384      -4697.454       3614.631      -1899.669
      -1888.063       1161.086      -9506.908      -9878.074       480.1729
      -1799.584      -3921.084      -3951.578      -2839.988       9673.543
       14364.25      -2235.814      -7426.095       2225.050       3028.426
       4255.690       667.7188      -2926.381      -5026.160      -10927.34
      -2475.969       2150.031      -2507.608       2860.426       6036.226
       3326.936      -3031.807      -5871.458       2570.921       210.8245
      -2133.269       5551.132       6276.562       2694.471      -7382.838
      -12766.11       857.1914       8262.211       1281.769       3453.547
       867.4458      -4281.621       4528.604       2960.461      -3862.497
      -3956.862      -5307.240      -2843.182      -3799.946      -6559.526
       4256.496       12734.37       6335.076      -1949.174      -2881.486
       1808.344      -345.2578      -10393.88      -8548.504       5835.621
       12282.95       3191.004      -4265.949       591.6377      -1088.137
      -8563.242      -1182.129       2081.771      -6519.750      -484.2148
       5235.913      -1168.297      -1908.848      -146.2188      -2823.330
      -5164.996      -2859.656      -3311.578      -2246.049       7969.475
       7402.592       4624.379       16287.29       12562.53      -4819.184
      -8556.016      -7782.205      -10038.91      -2650.566       9309.375
       11432.79       4497.535      -5784.333      -5192.007      -420.0742
      -8191.107      -13382.88      -3270.940       2142.361      -3904.372
       689.4780       1117.803      -3675.600       8429.170       11279.69
      -176.8027       2526.521       9469.904       4071.325       1982.490
       2858.273      -7063.974      -7888.069       1067.875      -7420.449
      -13496.52      -3806.319      -2337.038      -1445.797       5584.426
       6894.986       4686.856       624.7705      -1096.193      -4762.298
      -7633.853       1850.778       2513.628      -2794.146       1420.092
       3205.098       977.1592      -2216.944      -1317.182       4916.281
       6695.648       4684.060       5883.375       2439.749      -6242.286
      -2587.875       3495.918       1001.787       6284.185       6282.040
      -4772.117      -11288.60      -13624.98      -9425.482       4497.688
       12583.78       4822.390      -287.9844      -5254.317      -5288.819
       4062.585       385.5171      -3666.824       4309.354       11823.02
       8517.253      -4389.805      -8773.550      -3105.616      -1420.514
