     0.02500000      -242391.9       239377.5      -12345.00      -12345.00
      -30.01999       224.9550      -24.41000      -12345.00      -12345.00
       0.000000       17.62000      -12345.00      -12345.00      -12345.00
      -12345.00      -12345.00      -12345.00      -12345.00      -12345.00
      -12345.00      -12345.00      -12345.00      -12345.00      -12345.00
      -12345.00      -12345.00      -12345.00      -12345.00      -12345.00
      -12345.00      -31.13820      -64.95640       1252.000       0.000000
      -31.23600      -65.83800       0.000000       167100.0       0.000000
      -12345.00      -12345.00      -12345.00      -12345.00      -12345.00
      -12345.00      -12345.00      -12345.00      -12345.00      -12345.00
       84.72844       82.87463       262.4203      0.7618065      -12345.00
      -12345.00       2.459529       0.000000       0.000000      -12345.00
      -12345.00      -12345.00      -12345.00      -12345.00      -12345.00
      -12345.00      -12345.00      -12345.00      -12345.00      -12345.00
      2008       318        11        12        54
       810         6    -12345    -12345     10200
    -12345    -12345    -12345    -12345    -12345
         1         7        13    -12345    -12345
    -12345    -12345    -12345    -12345    -12345
    -12345    -12345    -12345    -12345    -12345
    -12345    -12345    -12345    -12345    -12345
         1         1         1         1         1
ESP06   -12345          
01      -12345  -12345  
-12345  -12345  -12345  
-12345  -12345  -12345  
-12345  -12345  -12345  
-12345  -12345  -12345  
-12345  -12345  BHZ     
XH      -12345  -12345  
[...]
       164.5424       183.5370       167.9965       174.9447       177.4012
       182.3622       134.0927       154.8447       165.5882       168.9605
       109.8813       171.3343       138.4067       120.9245       118.6459
       145.0795       121.3229       106.3018       120.2812       134.7188
       54.59961       99.68152       126.7289       116.5661       96.53809
       141.4069       82.06165       92.97723       124.0858       156.9550
       104.3126       108.0825       86.30078       119.3927       131.8415
       105.4679       48.63049       113.4480       81.87978       64.85464
       61.28836       70.82272       28.76120       54.96790       34.59393
       13.59334     -0.6375656       50.41981       9.593076       6.808784
      -26.27094      -14.83140      -26.16165       12.43518      -28.28978
      -37.25658      -48.17520       8.621140      -54.01501      -78.65932
      -54.26659      -37.03708      -80.35109      -72.28531      -63.41312
      -71.17316      -127.9584      -83.43304      -129.3196      -90.34982
      -136.8660      -149.6002      -137.4925      -133.2349      -184.2237
      -157.5782      -189.5598      -187.5361      -188.7597      -173.8943
      -198.8057      -214.7754      -250.1163      -167.8328      -213.3820
      -209.9705      -244.0087      -199.6068      -194.9882      -241.6946
      -234.7226      -206.3970      -275.9247      -235.1299      -238.6030
      -235.9461      -285.5361      -260.7021      -271.4618      -284.9973
      -310.9296      -266.8049      -321.2062      -311.4293      -308.5647
      -317.5161      -368.7990      -323.3379      -342.1930      -374.7609
      -383.7303      -341.9429      -387.2969      -325.1246      -373.1619
      -400.7131      -374.8499      -339.8624      -375.1995      -385.8787
      -388.0428      -339.4260      -390.2615      -347.6426      -372.6284
      -357.7356      -355.8010      -363.3439      -375.8309      -336.6781
      -380.0137      -337.5477      -379.5616      -349.9077      -349.9561
      -339.7080      -399.1322      -370.3943      -354.6279      -357.4846
      -401.8782      -371.7603      -362.8453      -364.0142      -426.6333
      -400.5956      -394.5909      -348.8148      -412.5760      -424.9210
      -436.2649      -380.1123      -419.8384      -414.8579      -407.0156
      -411.6595      -468.7812      -400.4230      -460.4281      -459.3239
      -408.4440      -412.8009      -495.7836      -471.6074      -461.5625
      -457.2966      -488.0096      -447.2040      -510.0470      -491.2965
      -493.1006      -503.6851      -487.8728      -467.9830      -555.8284
      -481.8472      -478.9386      -459.8038      -518.6752      -519.0105
      -461.9702      -449.0027      -511.9469      -453.0419      -491.9590
      -444.1173      -463.0417      -476.1902      -477.0876      -423.4132
      -480.5659      -476.1661      -433.5557      -439.7700      -481.9672
      -426.5194      -484.8275      -446.0791      -448.2163      -445.7050
      -481.9617      -416.2415      -450.4861      -473.0851      -448.1278
      -387.6371      -426.1329      -427.7915      -434.3695      -364.3163
      -419.6848      -402.3457      -397.1838      -380.6550      -399.0321
      -344.6439      -374.7970      -361.3651      -381.5602      -357.6146
      -365.4122      -297.7180      -363.9841      -360.1709      -337.0784
      -322.6083      -340.4711      -326.8608      -329.6716      -293.6265
      -372.0913      -318.9445      -308.4089      -315.0923      -338.3400
      -306.3860      -318.4181      -273.8464      -324.0834      -263.4872
      -289.9452      -287.3195      -260.2926      -229.8210      -265.3995
      -242.6028      -256.2160      -191.4977      -250.0844      -200.6794
      -216.5162      -203.5764      -226.6877      -223.7759      -187.6172
      -160.5773      -220.7712      -192.3828      -207.8657      -162.4594
      -184.8316      -127.8857      -150.1406      -161.6041      -136.8368
      -93.18610      -119.4230      -52.16864      -84.93405      -27.70395
      -37.84025      -1.777332       7.560104       28.56652       12.97418
       60.09534       80.39868       132.9367       63.99432       124.8173
       114.5337       167.2838       175.5880       161.1179       172.5027
       262.5206       224.7203       245.5897       223.4993       279.5419
       288.2662       321.2787       329.4927       359.1072       324.1567
       375.2397       395.9590       452.5287       391.3600       434.2151
       501.7593       532.4600       461.3270       526.2646       544.2864
       600.4578       550.7764       610.3557       596.8872       598.1156
       638.4900       650.0894       607.2266       689.2317       646.7849
       660.5588       675.0830       705.2300       644.5225       719.4568
       686.0098       695.5249       727.2764       710.8376       666.1968
       756.5889       720.6934       729.4277       716.3027       757.3445
       711.9319       757.8301       755.6355       749.0581       738.4924
       795.6782       724.5703       758.3691       792.2434       818.5425
       729.9089       769.9429       790.4636       811.7339       749.0684
       786.3149       775.7278       794.9756       768.0654       791.8308
       758.4897       812.4624       769.5107       777.4600       781.4395
       790.9224       756.9224       807.6084       767.7222       798.3120
       779.5071       798.0977       736.2754       761.5435       772.9175
       797.9265       743.9822       730.4512       736.4697       764.0769
       677.7422       736.6328       688.4498       686.4006       652.3196
       657.0669       624.2144       655.9658       617.8459       626.2479
       538.5236       581.6360       565.5146       533.6501       530.2382
       573.2993       504.1776       495.6504       454.5225       513.2079
       463.7145       481.9524       457.5851       445.2449       387.5780
       437.4480       410.8016       399.9868       351.4697       372.4459
       357.3636       392.8141       307.8599       327.9617       305.3771
       304.8970       275.2295       319.9084       251.1837       245.3238
       245.7291       238.0425       178.8635       253.5544       184.5635
       187.1500       146.4435       169.6881       122.2807       150.4709
       134.0439       117.5850       67.86685       88.10616       68.97391
       99.38721       33.69225       52.06674       26.95026       38.55075
     -0.5274162       21.77660      -56.55620      -34.80409      -59.84436
      -50.07587      -94.12897      -86.45929      -171.5441      -129.4110
      -147.2445      -207.2291      -236.7523      -167.8926      -276.0659
      -272.7151      -279.4445      -290.6777      -348.2242      -310.9137
      -360.6178      -351.0977      -408.3887      -422.5574      -458.2806
      -441.9482      -473.4141      -451.7183      -531.3823      -528.3707
      -570.3623      -522.2795      -606.7070      -582.7979      -590.6421
      -629.8235      -632.4956      -630.3542      -698.5117      -659.9004
      -712.4199      -693.8289      -732.9414      -682.5093      -737.5220
      -754.2932      -775.5691      -721.6750      -787.5244      -756.6572
      -757.1064      -782.6172      -793.3296      -713.1418      -813.2122
      -778.8367      -740.9180      -727.9941      -798.5193      -726.3521
      -731.9277      -714.0093      -731.7144      -702.1091      -706.8831
      -659.3315      -687.0864      -652.0557      -704.0757      -645.0540
      -619.6628      -613.2185      -687.8091      -575.6765      -623.3247
      -605.1721      -557.7485      -540.1965      -552.6459      -514.5933
      -542.2638      -468.9065      -505.5216      -420.8239      -394.0055
      -367.4313      -414.1674      -333.2113      -309.1473      -283.2703
      -286.2250      -216.7380      -222.8098      -168.8033      -174.9120
      -157.1007      -172.6961      -33.64645      -92.70731      -91.46507
      -56.46336       2.269745      -42.96358       13.13533       17.53183
       52.71948       65.10907       126.8375       76.92776       108.3989
       97.12817       209.0448       184.4171       202.5927       193.6695
       208.1649       242.1695       302.7321       241.1620       300.8472
       292.9236       334.4603       321.9944       357.3132       360.4365
       422.3094       347.5634       416.8071       428.6112       452.3751
       419.3318       436.0045       428.5181       505.3190       444.8673
       476.4259       475.7131       493.9845       478.1234       553.4546
       494.2726       506.7554       516.1252       547.5114       520.8351
       553.8291       555.6147       589.6226       503.5757       586.4270
       568.3687       597.3225       542.2961       553.6091       578.3274
       623.1156       557.2374       557.0767       525.4097       586.8677
       535.1138       560.1426       542.9132       552.3801       494.1163
       513.4586       519.0360       557.9353       470.6340       503.9678
       485.8372       508.3947       461.7194       488.0686       457.2983
       478.0013       446.8431       447.4049       391.0181       462.3767
       425.2551       414.6418       379.7605       399.9218       366.6261
       392.5073       331.7090       385.3880       311.1204       324.2837
       301.2783       299.0056       320.4164       309.7462       193.6875
       286.4661       241.7321       224.3625       197.6650       219.2036
       190.0087       174.7466       129.3172       201.3549       118.2042
       135.7855       109.9803       80.65814       65.21222       140.8820
       26.26628       45.68853       34.26425      -7.698547      -43.15125
       30.85202      -31.06897      -45.09503      -105.1570      -75.86591
      -118.1071      -139.9061      -186.0059      -128.1962      -206.6427
      -227.6447      -249.3179      -241.0396      -293.8333      -250.3639
      -331.0385      -328.5533      -314.0734      -315.3552      -393.9365
      -365.2109      -420.2782      -388.0762      -430.2191      -423.0295
      -439.0022      -427.0276      -526.2688      -483.1699      -520.1204
      -485.1758      -516.5023      -537.9233      -551.2736      -539.7413
      -601.4447      -549.0740      -584.8901      -539.3641      -592.6106
      -576.5366      -590.2869      -584.2107      -639.9873      -569.8652
      -590.3979      -559.8230      -614.3406      -601.7903      -597.2552
      -545.5260      -572.5798      -568.5865      -612.7734      -522.0728
      -561.2559      -566.4951      -546.8579      -504.8367      -568.2825
      -487.9570      -538.5142      -481.2939      -474.6143      -521.4656
      -501.3995      -419.5151      -498.5026      -430.0048      -465.2910
      -440.8351      -459.3037      -414.2415      -394.8384      -369.5127
      -421.9552      -359.0640      -386.0292      -354.0947      -330.3165
      -303.2252      -368.7612      -279.0837      -279.0978      -242.7689
      -301.5989      -232.0317      -196.2708      -207.4760      -242.2176
      -158.2970      -148.3705      -98.17297      -155.3153      -110.0831
      -126.7833      -87.76731      -51.43336      -17.70316      -91.12614
      0.9027252      -27.55733      -12.77023       26.44206       40.72534
      -3.838486       82.07483       41.89008       95.27701       85.72324
       113.0598       90.80875       162.7863       111.0375       186.0114
       174.4769       179.8275       207.1559       217.4705       198.8894
       269.7616       243.7775       304.7620       278.7889       346.4376
       280.2916       291.4393       367.8464       399.1471       308.0337
       392.6782       336.6746       367.1117       422.6631       410.4286
       355.3081       455.4785       426.1718       414.6322       390.8463
       465.0367       459.7677       483.9857       411.1060       500.8167
       472.4370       487.1482       496.4751       507.2804       491.1364
       546.3728       523.9685       514.2712       513.6199       606.1443
       535.9819       558.2336       565.1034       611.7292       524.7634
       591.4771       579.2909       599.4258       625.4888       609.3838
       561.6936       633.7122       600.7931       633.8279       608.4810
       654.8707       610.9338       635.4277       653.2006       660.8225
       621.1523       641.1750       601.8630       719.1865       669.2776
       598.7275       602.8721       787.2888       641.1763       509.1665
       663.6289       954.5988       430.0400       297.2070       895.4167
       2116.396      -2738.578      -10968.31      -49787.38      -195086.5
      -242391.9      -13614.00       239377.5       218088.0      -16645.14
      -84008.46       17029.22       41190.31       8378.434       22203.48
       2591.035      -34957.03       56479.95       88198.00       9412.288
       2601.180      -3760.359      -57517.34      -33587.57       12701.21
      -12714.33      -2818.898       30633.17       1295.047      -45979.73
      -45600.43      -4848.953       33237.05       50217.59       24664.45
       17508.02       30075.03      -3329.562      -38590.28      -67420.47
      -47866.39       37294.41       70695.89       26368.14      -4934.165
      -5913.511      -2669.238       11655.12      -5227.672      -12643.24
       8129.886       199.4512      -4610.430      -13541.83      -11360.63
      -2311.758      -21467.75      -23344.77      -7631.898       6468.391
       23812.54       25364.96       11829.64       6089.205       2242.586
       12714.34       28454.70       9014.338      -10770.43      -6760.398
      -3888.641      -12814.78      -23607.11      -28757.77      -27009.60
      -12818.43       9708.859       30575.76       32087.24       13756.06
      -3685.180      -15502.00      -16232.88      -8430.938      -7403.208
      -6276.123       3265.711       11112.25       9004.850      -4765.335
      -4760.203       6160.013       840.2018      -408.8662       832.0117
      -8024.047      -13213.25      -5965.083       824.7798      -1556.599
       1798.346       4290.285       6616.484       16018.57       9494.728
      -5786.313      -1675.139       5388.824      -7069.898      -29184.14
      -32294.82      -4799.055       26231.78       15852.23      -10564.22
      -2880.195       7788.777       3805.506      -4023.160      -10988.39
      -7720.104      -1258.082       14548.14       18991.48       610.1982
      -1100.305       13918.45       7745.139      -11162.10      -12633.35
      -15704.01      -19541.82      -10165.04      -1881.281       2107.523
       340.2480       29.97656       10410.54       18676.26       11438.19
      -2890.586      -6071.192       806.0454       2851.210      -239.7812
      -5168.367      -10338.50      -10191.83      -3693.747       1802.331
      -1149.104      -5909.817      -923.8770       8833.036       7222.055
       814.3940       2428.784       2933.608       627.1465       181.9688
      -5804.024      -8386.431       3159.083       5229.941      -4834.134
      -2697.879       5724.077      -458.2754      -10960.89       557.7305
       17263.19       11816.42       5798.974       5566.967       916.4590
      -6143.121      -14656.79      -11878.36      -5108.379      -2364.969
       3683.938       3136.539       8097.117       16803.00       6000.022
      -2512.562      -2175.900      -7368.592      -7259.014      -3187.816
      -1981.490      -434.7969       1464.379       2357.258       6496.777
       5806.338      -3601.933      -3390.584       3456.961       12316.65
       12045.23      -1689.252      -3326.756      -3950.725      -5668.779
       1778.110       42.89551      -3651.188      -3333.619      -1782.011
       2864.970       2592.844       3387.509       1596.010      -5376.798
      -542.8672       9161.958       6335.904       971.5818      -825.5989
      -361.5723      -2198.740      -9796.781      -4705.648       6133.381
       6661.127       4448.686      -3274.660      -8144.545       1801.950
       4847.452      -1650.221       2170.194       3617.002       4159.852
       9055.707       8417.872       5271.296      -32.94141      -5954.707
      -12137.02      -11134.40       733.3242       8185.297       8747.770
       10001.90       5056.226      -4539.734      -4062.686      -2446.059
      -5180.639      -3172.614      -2471.938      -1331.254       8317.648
       13558.60       3269.166      -4693.729       104.6064       2754.536
       1668.313      -693.4463       1713.887       1098.746      -8429.444
      -4902.949       362.0803      -2920.206       2300.682       6752.768
       3723.274      -1804.035      -9039.695      -4268.621       5048.711
       4162.793       222.2212       825.9434       5044.406       2915.712
      -4333.756       216.3936       3854.725      -6560.256      -1516.334
       5479.550      -1829.742      -7762.994      -8508.061      -2659.810
      -1866.512      -2485.047       2641.453       10356.98       12944.28
       5118.895      -1514.014      -7173.526      -7766.296       2333.182
       3891.730      -4817.163      -6942.255      -2136.250       5102.439
       3193.824      -5972.178      -4483.658       1262.567      -4604.641
      -7340.002       8328.305       12536.93       720.1914       1812.130
       5243.433       4644.998       2010.088      -5338.510      -8879.127
      -9195.927       1248.074       10596.25       1219.798      -3456.461
      -4156.329      -5548.465       5421.031       8765.495      -272.1763
      -2201.186       1621.613      -666.7256      -2994.582      -3874.258
      -5942.168       577.8740       5180.631       826.7773      -6471.348
      -10201.40      -7996.092      -2180.201       4549.187       5100.121
       5460.480       7968.972       4331.105       960.5176       2896.508
       8533.668       9426.301      -1399.441      -8063.046      -4121.269
      -625.4126      -210.4629      -1969.464      -3149.805      -1976.198
      -1326.189      -3326.840      -13502.96      -14022.39       2804.464
       5907.144      -998.7783      -3979.624       1468.131       11002.46
