     0.02500000      -194848.5       274343.5      -12345.00      -12345.00
      -30.00000       223.6000      -23.19000      -12345.00      -12345.00
       0.000000       16.64000      -12345.00      -12345.00      -12345.00
      -12345.00      -12345.00      -12345.00      -12345.00      -12345.00
      -12345.00      -12345.00      -12345.00      -12345.00      -12345.00
      -12345.00      -12345.00      -12345.00      -12345.00      -12345.00
      -12345.00      -31.26510      -65.22400       1042.000       0.000000
      -31.23600      -65.83800       0.000000       167100.0       0.000000
      -12345.00      -12345.00      -12345.00      -12345.00      -12345.00
      -12345.00      -12345.00      -12345.00      -12345.00      -12345.00
       58.57466       93.31608       272.9991      0.5266555      -12345.00
      -12345.00     0.08054388       90.00000       90.00000      -12345.00
      -12345.00      -12345.00      -12345.00      -12345.00      -12345.00
      -12345.00      -12345.00      -12345.00      -12345.00      -12345.00
      2008       318        11        12        53
       590         6    -12345    -12345     10145
    -12345    -12345    -12345    -12345    -12345
         1         7        13    -12345    -12345
    -12345    -12345    -12345    -12345    -12345
    -12345    -12345    -12345    -12345    -12345
    -12345    -12345    -12345    -12345    -12345
         1         1         1         1         1
ESP07   -12345          
01      -12345  -12345  
-12345  -12345  -12345  
-12345  -12345  -12345  
-12345  -12345  -12345  
-12345  -12345  -12345  
-12345  -12345  BHE     
XH      -12345  -12345  
[...]
       260.1478       317.5953       253.2247       319.4650       251.5515
       304.2483       236.0967       286.9731       211.3550       273.9229
       201.8270       254.4861       195.0745       250.8470       197.1650
       257.6061       193.0211       248.2736       197.1627       267.0261
       203.6811       266.6431       204.0497       261.2980       204.9190
       270.8232       204.6803       264.5985       211.2191       254.4168
       198.4909       254.9354       191.0388       248.2311       168.2494
       217.1295       154.9572       198.8725       129.9270       182.6132
       115.5039       168.9810       101.6899       143.7177       88.53632
       131.3824       62.25262       120.0236       50.39355       110.1273
       48.71484       96.43411       32.77991       82.63750       25.76727
       79.30438       21.93315       71.42805       13.12392       63.23683
      -9.519882       55.72979       4.982468       32.73098      -28.85107
       26.80892      -44.42714      -1.478409      -62.97079      -16.88190
      -79.44304      -40.09424      -106.4887      -60.21252      -140.9310
      -88.71625      -154.7603      -123.1158      -182.6956      -146.9919
      -208.7894      -168.4174      -229.0672      -184.3108      -255.9586
      -209.9352      -276.3188      -238.0864      -296.6738      -248.2689
      -317.3206      -277.1611      -333.1441      -296.5756      -358.1771
      -324.5593      -387.9633      -339.5334      -404.4685      -358.5776
      -419.9379      -371.8558      -429.5801      -397.1738      -451.4015
      -408.9922      -464.1826      -417.9678      -472.7826      -439.2302
      -503.9944      -454.8745      -523.7676      -482.6312      -531.6115
      -491.5693      -541.4409      -500.6501      -557.3123      -523.4041
      -577.5577      -536.7673      -598.2441      -551.9961      -596.2822
      -548.9590      -614.2228      -563.7220      -604.4282      -576.4109
      -597.3804      -538.9578      -591.1479      -531.9811      -567.7192
      -507.2546      -552.9858      -491.6725      -530.3940      -480.1558
      -519.4110      -461.4852      -489.5927      -437.6760      -477.7953
      -428.9502      -462.4824      -401.8486      -445.7836      -410.5316
      -445.0339      -396.0597      -448.1965      -384.7120      -430.0031
      -396.2144      -432.7371      -393.7662      -424.5051      -375.8643
      -421.6467      -378.0748      -413.8550      -366.4188      -410.5834
      -359.4125      -398.9661      -354.0143      -383.7458      -329.9421
      -360.8766      -312.2327      -331.6458      -274.6241      -304.8484
      -261.6379      -281.2271      -220.1116      -273.2261      -207.0554
      -240.3666      -200.4661      -219.0032      -180.2437      -202.9955
      -153.5882      -193.9254      -137.6749      -155.1441      -121.3307
      -147.3876      -84.50787      -131.3160      -71.02881      -89.03961
      -47.92581      -65.95451      -18.26094      -35.95813       15.23815
      -6.253815       41.87269       20.77603       85.09695       54.89297
       113.3195       98.38641       139.1627       129.9160       183.6683
       155.6727       203.0654       177.1151       210.2531       194.8187
       246.5140       203.1367       249.6424       229.8867       265.1482
       237.8102       279.5240       255.3564       288.9465       259.7476
       296.0485       274.7634       326.9229       289.1888       317.5326
       301.7641       350.1182       318.4927       362.1432       351.8730
       383.0969       360.7499       402.0366       379.7599       442.7069
       422.6417       443.3523       441.5433       484.1960       445.2338
       497.3190       484.3884       507.4966       478.1244       522.8499
       504.1279       529.8137       511.2100       548.3478       520.7761
       557.3291       538.3291       571.2568       554.6421       587.9502
       567.1903       599.9934       575.2761       599.9346       579.9071
       614.8247       590.5636       616.1692       593.9836       622.0908
       607.0549       632.7449       604.9594       627.6653       599.5071
       619.2761       591.7515       611.4456       580.4741       599.7643
       575.2573       592.0378       557.5399       567.9216       550.3462
       573.5339       538.1898       549.7776       530.5120       539.9661
       498.7214       516.9868       496.0132       502.4576       470.0591
       480.1986       448.0219       460.7478       432.2767       437.7211
       412.5137       419.9697       388.4160       397.4570       364.3003
       368.6493       337.6519       345.1866       306.6811       306.1223
       282.2057       284.2608       252.1755       260.2252       232.2589
       235.0297       206.0817       211.4509       183.5052       187.2266
       162.4812       165.9350       139.7578       139.5858       106.0092
       115.3266       94.64172       101.7288       75.75906       73.96451
       51.83682       51.00375       18.52133       19.53266      -2.212189
      -3.781906      -35.23551      -32.23956      -51.38324      -57.99072
      -79.43213      -76.68747      -107.1673      -106.3704      -125.0166
      -123.7395      -138.5774      -140.8376      -163.7985      -162.5115
      -178.0918      -177.6135      -192.4728      -199.5265      -215.2469
      -205.9468      -233.7748      -230.7057      -240.3435      -241.5317
      -244.1301      -240.9896      -259.7878      -266.3782      -279.4210
      -287.7600      -304.8787      -303.0773      -319.9605      -324.8907
      -339.8962      -342.1536      -344.5139      -355.3828      -379.0469
      -363.1654      -382.1953      -385.9738      -380.0487      -393.7974
      -401.6803      -404.2998      -406.2046      -408.5123      -416.0499
      -411.0748      -417.0607      -424.8345      -432.4335      -424.8798
      -425.6968      -433.5988      -447.3080      -441.0728      -444.2725
      -458.4977      -455.2856      -469.4763      -479.7539      -475.3796
      -494.2745      -510.3907      -501.5159      -509.2412      -514.4823
      -513.4014      -512.3545      -517.9905      -520.2969      -522.8311
      -512.9058      -515.6973      -509.4226      -510.8495      -499.4689
      -493.9155      -483.7219      -489.6628      -470.6550      -459.5922
      -451.4602      -449.1874      -429.7219      -433.0409      -420.6135
      -421.5437      -402.2548      -402.6572      -381.3375      -389.6627
      -389.8313      -379.8436      -365.8856      -372.1361      -347.9944
      -348.5978      -321.8044      -332.8926      -316.9996      -318.2350
      -296.2611      -298.3553      -286.9850      -279.9453      -243.6542
      -244.5836      -215.0854      -208.6830      -174.4229      -174.5435
      -150.0563      -142.8690      -101.7118      -101.4390      -75.65802
      -75.33894      -35.52658      -25.81113       6.589165       5.194305
       38.61208       36.50439       63.69498       58.70270       84.48856
       73.06604       110.7932       110.8534       138.8939       133.4334
       156.8855       147.9919       187.1021       176.4791       202.1428
       191.8090       222.2012       218.6526       255.4715       242.5905
       271.6802       258.6570       287.0998       277.8615       312.4492
       294.9698       327.9071       319.9398       352.1813       332.2405
       373.9182       355.3401       377.5067       370.3538       394.6833
       373.9287       411.4843       373.0247       402.7976       380.6271
       409.9218       390.2947       418.9816       390.4355       420.0037
       391.1079       415.8235       389.0802       410.9968       369.0137
       390.9686       353.3733       376.0775       344.2235       367.9664
       322.5237       352.0572       314.7211       334.9266       305.3523
       329.3136       278.2180       296.3177       251.6943       269.1514
       227.5170       252.8121       212.4038       240.8295       193.9336
       225.5781       180.9947       201.6546       157.1461       180.8241
       133.3784       160.5602       112.6761       139.2104       101.1723
       134.8910       82.08789       105.9765       61.72960       94.29886
       38.52658       69.30333       26.46869       52.71637       14.63470
       52.38525      -18.24656       25.00535      -15.70293       4.828934
      -58.20628      -14.48654      -51.46687      -23.69609      -72.83676
      -32.41997      -82.09372      -39.57056      -98.90485      -66.59473
      -112.4814      -70.50909      -120.7080      -60.56342      -106.7567
      -78.08026      -125.1661      -79.90079      -143.4571      -95.90344
      -133.8650      -117.2058      -172.8376      -98.16248      -176.2980
      -113.4110      -175.2538      -173.4325      -189.9625      -136.9746
      -222.4921      -133.0574      -214.3455      -205.8722      -201.6492
      -179.6578      -233.4652      -146.7948      -263.1940      -166.0092
      -216.4496      -182.8014      -195.3812      -187.9538      -239.6016
      -167.5076      -181.5030      -123.2915      -262.2910      -150.0781
      -188.1176      -146.9766      -177.8555      -144.1622      -216.6887
      -138.6337      -195.4676      -133.4478      -193.9246      -145.1603
      -212.6348      -133.1871      -188.3141      -126.8621      -189.6335
      -117.1862      -164.3967      -103.1329      -162.7968      -78.24200
      -138.4029      -79.59650      -135.2310      -50.65736      -101.6732
      -33.49460      -96.76986      -5.060829      -59.43504       7.665508
      -38.28449       48.75600      -11.96941       73.19910       13.28981
       97.12527       28.06779       93.12654       31.73160       117.3747
       56.13055       125.3649       62.06488       148.8241       85.05188
       166.6264       101.9218       178.9576       110.1292       192.2994
       115.1615       192.3481       135.7601       218.3799       140.8663
       225.4081       160.8915       248.2856       174.2441       261.1415
       193.6353       276.2222       209.4856       292.6235       210.8958
       293.0024       216.5495       301.5762       226.9765       311.2021
       228.1445       302.5959       219.7150       309.1196       218.5984
       292.8494       216.1208       293.9957       195.9950       271.2981
       179.0519       253.8995       152.1270       229.6906       134.7164
       205.8228       113.8492       199.7160       101.1693       181.7224
       92.74234       169.4485       71.15503       160.4734       56.42456
       132.9216       44.03635       131.0062       30.58295       115.0616
       22.20660       112.9002       9.895996       100.0023       4.771469
       96.95467      -7.277130       75.79227      -19.41241       75.81902
      -29.50233       54.57758      -43.49069       44.05083      -67.46484
       23.52969      -76.17772       16.09088      -91.44209       2.338577
      -103.8936      -9.351456      -116.6377      -19.87637      -133.6208
      -40.23386      -148.5965      -54.01123      -159.9563      -60.30856
      -161.6686      -59.39856      -162.9943      -70.06006      -183.4446
      -60.29663      -175.9242      -55.32339      -148.9126      -43.14658
      -139.0215      -42.03671      -149.8372      -29.39255      -142.7399
      -13.12569      -106.2600      -6.422256      -105.6519       13.28819
      -98.94025       29.98503      -85.12312       28.15939      -88.08361
       30.85544      -84.94067       29.22017      -79.60950       43.56801
      -66.65337       46.11018      -72.23929       59.93853      -59.58826
       56.82800      -44.70679       86.11806      -34.23621       86.10810
      -26.42352       109.1897      -7.567291       119.5707       13.45026
       156.7799       36.20288       161.1598       49.00198       187.4464
       68.15607       197.9680       87.10474       226.6862       95.11316
       219.1047       102.8932       248.2585       118.1747       239.2171
       113.4028       252.9660       109.0038       219.9164       95.82019
       238.1790       93.48965       201.8071       80.97107       242.4441
       74.09970       183.4272       69.62927       246.6156       64.50067
       128.2308       40.04724       283.0232       64.76259       29.93518
       36.17981       482.2408       245.8599      -944.4375      -1125.746
      -3894.414      -41173.09      -40913.01       25433.97      -36768.70
      -109642.8      -18445.70       23188.50       38580.12       82822.72
       81420.61       90332.53      -25925.44      -172707.4      -51092.16
       82016.92       70947.81       81889.77       18091.38      -134552.3
      -185910.0      -35665.75       190170.8       274343.5       155761.4
      -79273.06      -194848.5      -54717.67       61046.91      -38689.57
      -46652.06       55752.98      -2090.922      -104074.2      -26896.55
       77717.60      -33050.27      -120164.6       12569.16       57589.86
      -30056.79       5655.750       70137.67       70474.98       63697.71
       3491.453      -27653.33       10309.18      -8706.781      -81210.36
      -81426.95      -6718.871       16847.94      -12916.07       6844.705
       9497.141      -38824.78       8999.625       91489.12       66205.50
       43663.89       37575.06       7949.902       2747.562      -24297.03
      -51425.38      -44951.28      -55630.03      -70618.62      -62195.62
      -38159.72       11239.75       76184.44       72276.24      -5764.656
      -33071.17       42916.66       94998.35       51732.87      -13568.16
      -51717.19      -38572.17       10249.91       42157.96       27573.67
      -40758.86      -65742.43      -8049.086       20007.47       341.6133
      -14155.96      -33536.07      -28055.75       13385.18       30377.33
       28338.43       2411.086      -25789.82      -3997.625       23731.88
       26207.89      -7094.531      -50196.48      -47246.25      -5606.852
       28806.30       56623.75       61962.27       23815.99      -3219.914
       12084.49       9778.672      -27298.45      -57944.27      -57456.09
      -21055.65       5435.027      -5735.734      -22172.17      -3545.930
       34186.27       40990.65       35640.77       22749.59      -14275.62
      -25948.33       1002.316       6562.883      -16198.98      -28606.07
      -19387.49      -21937.36      -23639.84       32187.75       69592.92
       19486.41      -18661.97      -161.6406       32895.54       26582.62
      -26685.58      -48350.50      -27430.82      -7443.886       929.4297
       3724.609       16073.14       20913.09       8283.633       9807.414
       26451.20       16620.58      -10502.88      -35857.61      -40349.55
      -14476.35      -7975.422      -19216.19      -7720.719       8977.617
       19373.22       33968.42       28964.13       13597.34       15413.77
       5549.566      -15879.66      -21725.18      -3766.469       15549.96
       19201.20       13866.47       5742.988      -14040.65      -35198.72
      -25982.68      -12518.49      -15385.51       3916.617       10143.46
      -25004.61      -18330.51       10102.09      -15648.25      -28853.84
       2329.867       24952.44       35528.70       40502.77       21486.83
       588.4102       8628.492       13989.37      -6755.898      -20051.02
      -6871.986       6183.422      -19538.28      -36951.18      -3255.656
       21375.18       4608.953      -19493.79      -21873.89      -2361.914
       5724.797       11869.38       41974.17       56761.37       31542.70
      -2244.672      -13249.26      -20850.71      -26800.24      -11383.41
      -13728.26      -29709.39      -19431.28       1203.242       11417.68
       14197.84      -5505.295      -2737.492       34351.95       27127.02
       3553.523      -8822.316      -22169.41      -20399.52      -14221.67
       9090.508       38206.00       28614.20      -371.9414       3387.076
       13813.71      -8051.445      -22025.45      -659.5000      -6983.055
      -28743.57      -19294.01      -11170.84       2065.375       13696.70
       30554.27       41186.08       12590.20       16.37891      -4027.559
      -12863.38      -6844.824      -7881.676      -10849.83      -1264.551
       16217.21       19868.63      -9009.094      -30108.90      -19590.40
      -5093.539       5273.883       17296.11       23392.97       16540.99
       5077.156      -4016.113      -7632.141      -13868.42      -28263.85
      -25349.89      -13553.32      -16500.69      -8776.750       29318.33
       47789.33       13652.63      -11442.61       13020.59       26006.42
       11628.23      -4670.047      -23324.16      -24922.83      -10401.99
      -2796.117      -19017.37      -28120.69       1458.500       24399.65
       23539.73       6157.137      -5434.246       4295.931      -2507.716
      -9652.406       9507.598       23952.54       10593.80      -13151.52
      -16893.94      -1481.305       14999.04       10911.99      -6682.467
      -7650.813      -1325.594      -8641.711      -10941.63      -7355.895
      -12369.21      -11588.58      -3239.207       6116.285       19103.48
       15707.43       2761.198      -2615.104      -4212.278       157.9258
       10330.97       11018.77      -2565.764      -4946.914      -5226.146
      -12850.59       8167.219       31337.12       14636.47      -13271.65
      -11620.12       1596.289      -4934.322      -8642.520       3880.705
       8821.816      -2552.277      -11828.77      -6382.686      -3868.031
      -21044.89      -25406.02       336.5898       6883.960      -4205.379
       974.8867       14861.62       21700.05       18675.77       10901.16
       9127.232       12105.98       485.9062      -12894.41      -13685.61
      -11948.24      -4241.354      -3643.617      -1498.326       10345.79
       2277.787      -10576.77      -4300.236       2244.387      -11278.54
      -18330.75       6747.361       15293.03       1551.372       1224.361
      -3318.621      -15996.74      -11211.20      -4036.062       5623.357
       14915.14      -1628.813      -6770.012       11722.30       16649.74
       9357.552       4962.306       2472.602      -4040.084      -10539.69
