     0.02500000      -367379.5       505274.9      -12345.00      -12345.00
      -30.00000       223.6000      -23.19000      -12345.00      -12345.00
       0.000000       16.64000      -12345.00      -12345.00      -12345.00
      -12345.00      -12345.00      -12345.00      -12345.00      -12345.00
      -12345.00      -12345.00      -12345.00      -12345.00      -12345.00
      -12345.00      -12345.00      -12345.00      -12345.00      -12345.00
      -12345.00      -31.26510      -65.22400       1042.000       0.000000
      -31.23600      -65.83800       0.000000       167100.0       0.000000
      -12345.00      -12345.00      -12345.00      -12345.00      -12345.00
      -12345.00      -12345.00      -12345.00      -12345.00      -12345.00
       58.57466       93.31608       272.9991      0.5266555      -12345.00
      -12345.00     0.02286379       0.000000       0.000000      -12345.00
      -12345.00      -12345.00      -12345.00      -12345.00      -12345.00
      -12345.00      -12345.00      -12345.00      -12345.00      -12345.00
      2008       318        11        12        53
       590         6    -12345    -12345     10145
    -12345    -12345    -12345    -12345    -12345
         1         7        13    -12345    -12345
    -12345    -12345    -12345    -12345    -12345
    -12345    -12345    -12345    -12345    -12345
    -12345    -12345    -12345    -12345    -12345
         1         1         1         1         1
ESP07   -12345          
01      -12345  -12345  
-12345  -12345  -12345  
-12345  -12345  -12345  
-12345  -12345  -12345  
-12345  -12345  -12345  
-12345  -12345  BHZ     
XH      -12345  -12345  
[...]
       563.0837       497.1218       552.3518       501.6238       559.9607
       509.3431       567.5032       516.1389       586.7092       532.5215
       585.2227       526.9109       582.7012       531.6068       588.7498
       530.7510       581.1115       523.7012       588.8044       534.7822
       592.7307       542.9901       584.9604       521.4080       580.6873
       514.0634       550.5439       483.5745       547.7482       489.9797
       534.4233       478.5273       524.1769       462.3070       508.1956
       439.1863       487.8773       415.7473       454.9296       398.0775
       449.1626       387.2273       434.7815       371.8237       415.6685
       350.7743       400.5549       338.1716       380.5703       318.8837
       364.1699       306.8841       360.1010       301.5432       347.9533
       285.3159       336.8357       274.4686       314.0190       249.8821
       293.4482       226.2361       275.0798       225.4774       266.8458
       205.2309       255.7044       186.5410       229.1140       165.0026
       206.0776       142.0116       181.2817       118.8655       174.3921
       121.7558       165.0919       96.92563       138.2229       87.30194
       128.3178       60.94330       120.9871       61.35739       100.6193
       49.15869       89.52005       31.97774       82.43031       18.01151
       64.09325       5.272713       52.67379      -6.827156       34.17303
      -27.15081       18.32561      -42.02216      -2.163353      -54.63214
      -8.556396      -65.07785      -21.67227      -94.95470      -56.09457
      -111.1143      -64.44760      -126.5990      -73.87708      -120.2055
      -82.89838      -140.2579      -100.4008      -163.7688      -124.3423
      -179.5057      -121.3899      -168.8763      -129.8643      -184.7212
      -132.3588      -191.5746      -149.7395      -202.6751      -166.1162
      -222.9391      -174.7994      -226.6023      -178.2361      -230.7908
      -182.1999      -235.2736      -201.6604      -263.0928      -221.8961
      -279.9918      -243.6932      -285.8563      -246.0270      -307.2014
      -236.6822      -294.8716      -265.6135      -317.0005      -291.7500
      -354.5665      -310.2162      -357.1976      -311.3621      -355.7055
      -312.5354      -364.8751      -316.6455      -369.2090      -327.5288
      -377.5646      -335.3268      -383.9902      -336.4886      -378.4391
      -328.6676      -376.2106      -320.6208      -361.1903      -324.6207
      -360.0002      -301.5487      -351.4683      -306.0676      -349.4894
      -301.7470      -342.1567      -295.4747      -342.6041      -288.1017
      -329.9070      -291.6750      -322.4031      -269.4358      -316.9659
      -267.5164      -304.2399      -268.6193      -323.2869      -277.7083
      -325.6123      -270.2845      -301.0138      -262.7604      -295.8044
      -251.9277      -300.4298      -261.2889      -308.8478      -259.1169
      -298.1807      -251.2137      -290.7698      -250.4383      -291.1649
      -241.9146      -288.6950      -251.6384      -284.2340      -241.7956
      -282.6321      -234.5823      -292.1257      -255.6421      -287.3253
      -240.6306      -289.9292      -246.7202      -288.4504      -249.2072
      -282.1942      -248.9639      -301.3376      -262.0381      -317.0853
      -278.7052      -310.6445      -283.0796      -336.4729      -276.8700
      -311.3303      -274.4431      -306.9142      -272.0437      -323.8588
      -275.6880      -309.5263      -271.7219      -304.6578      -248.9601
      -291.4320      -250.3972      -274.9744      -231.5013      -272.5251
      -222.1776      -255.0795      -208.4663      -229.9757      -179.7291
      -210.3218      -159.3162      -195.6823      -158.6296      -181.9091
      -134.9417      -176.7695      -118.8511      -142.9827      -97.99152
      -113.8593      -70.60394      -100.6010      -55.16925      -87.53674
      -29.31879      -56.95468      -17.01760      -33.22215       16.33868
      -16.52602       29.19534       16.14178       66.35394       29.02454
       76.64548       56.04971       90.30045       63.69824       116.6148
       86.84171       136.0491       125.5001       168.1556       138.1921
       181.1496       146.3214       182.1755       157.7231       201.2783
       177.9741       220.6851       198.6841       235.0421       206.1653
       246.1476       216.2943       255.4498       232.3943       265.1611
       237.9923       279.1406       254.1554       295.8540       269.6648
       294.7789       270.0184       310.2474       277.6776       315.4724
       295.1479       332.6221       302.9761       332.2498       307.7393
       342.2812       314.8436       346.9814       311.5323       338.9403
       310.3425       346.3467       325.4429       356.4113       331.2958
       364.0698       331.2906       354.4689       321.8672       346.9467
       321.0173       353.2200       331.8967       362.4969       328.4144
       354.9821       329.9199       351.9562       322.9764       345.5554
       310.9197       333.6925       316.4735       339.0356       301.3869
       332.9546       302.8507       316.2509       285.5533       306.1532
       268.6999       284.0280       251.4520       271.2500       245.5111
       256.8228       219.3018       243.6247       217.4496       229.2721
       194.3221       206.1802       162.8913       175.7230       136.2734
       141.9067       115.2514       136.6997       100.1893       117.3737
       80.04874       79.77733       53.14723       63.11290       18.45628
       29.62955      -8.678040      -9.032829      -42.57678      -28.03592
      -68.28291      -57.78622      -84.78842      -80.43820      -112.5675
      -99.01575      -140.3811      -137.2858      -172.6714      -167.7666
      -182.6756      -173.7867      -215.4526      -196.8129      -220.2038
      -210.2766      -242.9849      -237.7813      -261.6122      -250.0901
      -272.1929      -256.5732      -276.7391      -258.1277      -282.7322
      -270.2108      -291.4590      -292.3777      -303.7302      -275.9537
      -302.2924      -282.9161      -294.3199      -276.1500      -287.0399
      -271.9487      -284.7540      -265.9044      -279.9447      -265.2677
      -280.4883      -255.2380      -262.2635      -247.4355      -250.8174
      -222.1818      -240.5830      -225.8840      -231.5132      -214.2262
      -220.9004      -197.0010      -208.2736      -182.5077      -183.7436
      -164.7714      -169.4374      -165.6632      -176.7220      -145.3990
      -152.4754      -135.0747      -127.5164      -99.61255      -109.3115
      -91.62442      -102.4476      -87.99142      -88.55496      -76.11043
      -76.29886      -46.41818      -53.67839      -36.71955      -30.67752
      -15.40669      -26.23626      -15.26064      -12.90714      0.6957436
      -9.852680       10.03453       7.586655       25.66980       30.34258
       46.03149       43.38297       55.09744       46.34418       51.77110
       41.43658       51.16519       52.70016       63.64090       69.39883
       91.95398       92.90588       103.3315       97.31464       96.55246
       88.91309       99.25574       105.6353       126.2632       133.4183
       135.0818       132.1165       140.6097       139.5164       152.2200
       154.0762       160.2977       161.2233       164.5478       165.1315
       167.4718       156.9131       159.3723       170.7128       171.3897
       168.1171       176.4180       171.5363       160.1249       156.6989
       161.8740       151.4546       151.2991       167.5747       154.3948
       151.4362       155.1818       149.6320       150.7952       143.9810
       143.1008       151.5779       147.3452       154.9487       158.3059
       153.2985       144.7266       150.1108       141.7085       142.9638
       143.4520       149.8450       148.8363       159.8705       150.9554
       154.4620       160.8313       158.5014       143.4659       147.4777
       138.1652       144.2906       132.4172       132.5730       130.8784
       149.2255       143.0933       156.2447       154.2187       152.4986
       137.1986       142.0518       127.3043       131.2440       130.5449
       142.6076       132.6346       153.3008       146.2015       162.2177
       152.5511       150.0437       143.5153       159.4702       140.4325
       150.4310       137.9880       145.0434       125.1235       145.3629
       140.7429       133.8928       116.6313       141.9447       137.3534
       139.0992       112.3139       128.2772       102.7253       98.77527
       74.05334       91.02631       82.65833       101.2458       84.07086
       91.85977       73.06668       86.80237       49.10741       43.80099
       33.73415       56.79392       9.561852       21.97065       29.94031
       49.04176       24.32760       43.54668      -3.688151      0.9545059
       2.286581       14.11753      -3.815979       33.08752      -52.89687
      -52.53305       1.551414      -15.98661      -43.39680      -11.89183
      -87.59224      -4.162460      -14.22598      -36.26239      -47.99545
      -84.93674      -84.04480      -38.43427      -93.33777      -79.62408
      -122.5607      -77.52206      -111.7710      -63.73479      -76.08563
      -86.46265      -110.9148      -105.2495      -131.1328      -109.8222
      -134.6082      -103.5924      -133.2305      -106.6891      -129.5762
      -109.5745      -133.5480      -97.70114      -122.2519      -100.5084
      -136.2802      -108.6953      -138.3325      -112.0600      -149.5471
      -121.0854      -134.1107      -106.5218      -134.8199      -103.9252
      -133.5612      -98.76868      -128.9581      -98.36575      -140.0562
      -123.7260      -141.8456      -106.0001      -150.4239      -105.9849
      -136.9361      -109.6215      -130.8232      -106.3312      -130.9091
      -101.2914      -139.2586      -88.42426      -138.8481      -109.9666
      -118.8273      -87.57297      -128.9499      -82.55234      -115.5801
      -86.99734      -118.0080      -71.96539      -112.6298      -75.70468
      -109.8655      -68.78561      -100.6861      -67.77759      -104.7119
      -55.01328      -97.05399      -64.92590      -101.1530      -69.01566
      -105.9323      -54.53500      -94.36899      -44.37222      -75.68201
      -40.74637      -78.67714      -31.67062      -74.09563      -25.55368
      -64.81897      -21.32851      -59.45190      -9.828926      -45.26905
       10.67913      -28.52866       18.37605      -18.23341       35.73618
      -7.269287       38.48659     -0.3812408       55.37098       4.254288
       58.94701       19.59148       60.96056       22.05621       78.92407
       33.70691       88.30247       29.75446       86.94034       42.38548
       85.55196       37.89365       90.61290       46.06213       107.2531
       62.27441       116.4571       64.06076       109.8687       60.29047
       112.2275       56.34641       123.6508       75.31073       123.4969
       82.69382       148.4593       84.21140       137.4181       82.97009
       148.4010       105.7949       150.0501       94.73160       162.0328
       107.8036       169.8853       118.6290       174.7785       115.1526
       175.0632       121.4121       172.8430       107.9190       183.0800
       114.5877       177.0391       143.0844       196.6000       130.5557
       210.9094       149.1510       201.3418       141.9331       213.8037
       155.0230       220.6024       156.1741       225.5691       175.5743
       241.4188       182.3499       259.5511       195.5470       259.6510
       203.6828       268.7308       205.4207       278.5712       215.2516
       297.4726       232.9642       295.2750       234.2555       312.6746
       246.9672       318.0389       248.5999       332.9296       255.4520
       308.1030       253.5779       329.9838       247.7410       324.5939
       262.6509       352.0406       272.8138       333.1254       270.0788
       352.1165       258.4917       334.0612       272.7017       362.5156
       271.4940       346.0306       285.7334       387.3209       288.1025
       360.0170       302.1622       405.9536       284.8749       357.8042
       308.0448       426.2505       284.2211       366.7061       326.2822
       467.3545       264.7134       327.8389       326.3453       538.2620
       181.3541       263.9731       409.0452       801.4220      -200.3367
       80.55225       778.2446       2810.152      -5202.969      -8529.188
      -38319.94      -277899.4      -367379.5      -42527.97       69758.91
       111376.2       234063.2       71513.66       84550.46       85219.44
      -98349.81       249036.8       505274.9       67828.00      -261085.5
      -339137.4      -317985.1      -31902.30       68410.30      -50072.69
       70353.25       211373.2       172878.6       123454.0       33003.81
      -125495.9      -168262.3      -62002.90       11109.64      -38242.16
      -113886.8      -34867.28       68139.09       35197.23       40946.11
       66048.00       16317.06      -7797.195      -37109.46      -43570.37
       26629.23       77373.25       62966.54       11799.90      -7142.203
      -39359.06      -95666.38      -79222.95      -7109.109       30201.14
       26864.22       46311.41       51403.55       11601.60      -6957.103
       10618.97      -9849.109      -33694.37      -27332.42      -34472.64
      -28901.84      -41865.08      -30307.76       41435.12       76630.97
       82837.31       99356.52       94289.26      -4097.656      -116188.7
      -137301.2      -119513.3      -58160.06       48749.47       90251.44
       49246.02       40098.06       48752.98      -7281.000      -60440.77
      -49914.16      -10758.75       9020.773       15023.92       44497.74
       46521.04      -10129.09      -49838.98      -50891.47      -45133.86
      -44743.99      -30977.58       40315.09       122100.0       114216.6
       43891.76      -5454.062      -41206.08      -70474.19      -61990.25
      -38276.27      -35477.98      -29026.19       13485.98       42166.45
       42719.92       43932.56       40692.96       10205.27      -40385.27
      -36447.74       2682.913       2626.820      -11478.12      -27998.05
      -26549.01       18392.67       33720.30      -9086.680      -39328.23
      -24536.55       28226.75       76901.83       68560.12       9051.719
      -41346.42      -41403.39      -40954.89      -56598.84      -39735.53
       7328.711       47577.98       33512.40       22774.58       45213.01
       35501.81       3969.805      -24768.16      -23080.56      -25241.07
      -42740.30      -30498.05      -31763.31      -32401.75       12619.09
       58488.97       59024.25       43847.84       18824.16      -12959.00
      -8968.021      -1043.355      -14869.28      -22971.59      -18817.28
      -4868.941      -4330.500      -14955.51      -2238.797       19100.18
       14665.89      -15256.98      -29883.38      -20060.55      -4998.070
       21366.66       42343.45       32305.71       9376.824      -8106.898
      -16854.12      -7096.148      -3719.555      -18973.88      -29686.77
      -13489.29       13299.38       31858.09       36471.81       17745.03
      -3155.828      -6545.219      -11750.23      -28965.02      -31579.84
      -9388.922       8021.453       9093.187       4511.754       6929.527
       19976.69       20399.48       9169.343       731.6367      -16483.60
      -30127.43      -22080.09      -5005.887       12716.12       21814.45
       13188.11      -2864.921      -4077.355       7709.715       5535.180
      -1533.781      -22396.83      -47993.57      -30931.58       7276.414
       27682.42       38490.77       32210.20       16483.77       358.6211
      -19802.59      -22356.95      -24032.79      -26644.93      -11917.37
       10711.08       17492.87       8927.898       15363.37       27533.31
       16082.92      -16478.91      -12271.58       7622.938      -10875.18
      -13819.64       8209.715      -3136.016      -36535.62      -28249.08
       7478.137       17657.88       26152.61       36661.97       22096.13
       939.8203      -13302.02      -10910.11       2328.133      -9766.465
      -15976.59       1033.634      -3477.529      -4588.470       1571.641
      -7390.130       294.3428       3223.820       4937.688       17360.79
       2737.805      -17645.99      -11509.71       6824.021       5213.380
      -1439.365       7209.114       1310.719       3115.297       18934.35
       15597.40       2607.807      -7390.196      -4131.225       1011.840
      -6674.831       595.1104       8349.713      -8578.193      -11821.46
      -4264.747      -1469.707       11155.11       24475.57       25008.69
       6498.742      -9745.750      -22115.35      -34324.33      -15790.34
       10008.66       4408.715       8483.871       18261.73       6602.031
       147.0898      -9051.975      -15927.43       3117.745       7472.504
      -11279.91      -10280.09      -3899.484       70.05078       10072.50
       8309.678       7645.695       8433.879       6279.129       11490.82
      -3680.910      -20355.87      -12539.79      -9896.935      -5493.068
       1636.444       4124.777       6751.810       359.2510       645.6172
       10388.74       6776.795       5008.443       8375.914       4808.353
      -1286.949      -5893.355      -8403.271      -11148.56      -1689.710
       1117.521      -11455.24       2975.844       17935.19       10138.77
       9924.225       14406.96       2033.996      -12882.40      -4347.979
      -2624.691      -13366.91      -8309.164       10302.48       22055.94
       8242.053       1419.681       5579.428      -2829.953      -7083.938
      -9588.465      -16355.32      -10665.26       2299.684       11482.95
       11666.76       1612.639      -7909.227      -7118.754      -9595.721
      -10382.09       3858.416       4602.188       7067.355       17962.11
       10919.11       8641.755       7816.320      -4915.047      -9447.980
      -9006.934      -12504.83      -9133.932      -6381.053       4471.012
       18771.55       2772.133      -16325.54      -2214.570       15640.73
