     0.02500000      -117042.0       117389.7      -12345.00      -12345.00
      -30.00000       223.6000      -23.19000      -12345.00      -12345.00
       0.000000       16.64000      -12345.00      -12345.00      -12345.00
      -12345.00      -12345.00      -12345.00      -12345.00      -12345.00
      -12345.00      -12345.00      -12345.00      -12345.00      -12345.00
      -12345.00      -12345.00      -12345.00      -12345.00      -12345.00
      -12345.00      -31.26510      -65.22400       1042.000       0.000000
      -31.23600      -65.83800       0.000000       167100.0       0.000000
      -12345.00      -12345.00      -12345.00      -12345.00      -12345.00
      -12345.00      -12345.00      -12345.00      -12345.00      -12345.00
       58.57466       93.31608       272.9991      0.5266555      -12345.00
      -12345.00     -0.3779342       0.000000       90.00000      -12345.00
      -12345.00      -12345.00      -12345.00      -12345.00      -12345.00
      -12345.00      -12345.00      -12345.00      -12345.00      -12345.00
      2008       318        11        12        53
       590         6    -12345    -12345     10145
    -12345    -12345    -12345    -12345    -12345
         1         7        13    -12345    -12345
    -12345    -12345    -12345    -12345    -12345
    -12345    -12345    -12345    -12345    -12345
    -12345    -12345    -12345    -12345    -12345
         1         1         1         1         1
ESP07   -12345          
01      -12345  -12345  
-12345  -12345  -12345  
-12345  -12345  -12345  
-12345  -12345  -12345  
-12345  -12345  -12345  
-12345  -12345  BHN     
XH      -12345  -12345  
[...]
      -229.9751      -259.7512      -256.7112      -273.7432      -284.4520
      -310.4761      -303.0112      -330.6119      -331.2502      -349.5802
      -354.2352      -381.2261      -376.3214      -399.8755      -412.3879
      -435.6216      -435.6390      -457.0066      -456.3022      -485.5295
      -476.7312      -486.0630      -485.1302      -495.1611      -482.4286
      -516.3988      -521.6152      -526.7029      -526.7263      -547.6859
      -531.5288      -546.0867      -542.2422      -548.5571      -537.8420
      -548.4070      -535.0554      -547.0374      -534.9078      -551.1570
      -546.4241      -551.5599      -540.5618      -550.7537      -540.8470
      -549.4885      -532.6068      -543.7350      -531.3403      -530.0404
      -509.5565      -516.9373      -505.5181      -514.4539      -502.2816
      -510.7000      -500.0554      -512.8964      -492.1094      -498.0034
      -484.8632      -486.9597      -475.0543      -476.5204      -464.3318
      -472.5087      -453.0354      -450.2502      -434.5782      -439.9451
      -414.6107      -416.5596      -396.0186      -394.3843      -376.4163
      -376.1603      -355.1313      -358.2233      -346.3221      -344.7159
      -316.4578      -317.1605      -302.4512      -301.3752      -277.4138
      -281.2645      -270.7630      -277.3533      -268.3939      -282.1464
      -259.4813      -251.9206      -238.4664      -235.3444      -221.5286
      -227.9248      -214.7215      -227.8254      -209.8537      -211.7559
      -192.3843      -181.7399      -167.3825      -169.5461      -155.0484
      -165.9009      -144.5107      -135.6516      -115.9036      -114.6235
      -84.11299      -79.82498      -55.47307      -46.84584      -31.56651
      -23.37967      -3.874291      -5.116566       17.51835       15.47239
       32.13190       39.87491       65.42746       67.46011       96.62799
       99.19537       102.3468       115.0029       135.9335       132.2513
       151.8210       155.3096       175.0448       178.7867       203.9092
       208.5712       218.1426       221.5630       246.6239       255.0695
       279.6232       283.1399       300.6763       318.3765       343.9989
       338.6714       355.1464       370.5969       399.2589       402.8474
       426.3917       429.5537       447.8120       452.0072       465.9540
       470.7732       494.1329       498.8220       507.5822       516.4590
       542.1333       538.6577       547.6597       542.5389       554.0060
       558.2283       573.2611       562.2859       577.4792       585.4915
       588.4460       593.7576       594.1948       578.3674       598.7672
       592.4541       597.5583       595.9901       610.4934       608.9738
       623.1927       619.2080       615.2979       614.7610       625.8751
       613.2034       615.5408       612.9940       611.8484       596.7104
       606.0144       589.7009       587.3958       588.7993       588.9758
       579.8916       586.8892       573.6066       573.8767       570.3518
       568.9786       551.3491       553.3774       541.1924       537.9368
       527.8188       529.8022       515.4801       516.2815       506.3298
       491.1637       478.7837       476.4563       450.2991       442.9454
       432.0538       428.5474       413.5585       407.3367       388.4189
       380.5273       356.3933       340.2722       318.2723       304.1438
       286.1005       270.5228       246.6148       236.2059       217.5819
       210.2260       187.8585       178.0554       159.0627       139.5716
       121.6726       109.5426       85.77716       79.56598       60.48129
       51.51488       31.38165       12.70120      -5.971550      -22.53212
      -50.25723      -62.86731      -85.55170      -96.80408      -105.5674
      -122.4643      -149.1469      -156.6403      -178.5326      -199.5704
      -216.7759      -223.8036      -238.2495      -247.3083      -271.7167
      -278.2198      -277.3606      -292.0927      -309.8280      -309.2493
      -324.5696      -334.4675      -341.1729      -343.8877      -346.0637
      -340.4869      -358.9001      -371.9606      -371.7097      -378.8271
      -393.1357      -391.4338      -394.9052      -407.7782      -414.4652
      -400.9248      -406.6221      -408.9023      -407.8748      -419.9141
      -430.2070      -426.7892      -435.0178      -440.1323      -435.1007
      -440.2803      -447.5475      -448.6115      -456.7391      -455.0498
      -454.0155      -451.6934      -447.7758      -449.4795      -450.9373
      -452.0187      -452.1565      -450.0858      -454.7493      -458.5811
      -460.1467      -458.2539      -461.6833      -466.5979      -457.0349
      -459.1182      -467.3953      -467.5118      -466.3193      -462.5179
      -457.5967      -465.7587      -469.9634      -473.3281      -473.8118
      -477.5217      -470.4049      -470.4807      -476.9468      -468.9373
      -458.8799      -464.0216      -461.1851      -461.6616      -457.9429
      -447.7933      -437.8995      -443.5842      -442.6459      -437.4303
      -437.0786      -437.4401      -424.3914      -420.0359      -412.8206
      -401.4825      -387.8542      -388.8048      -384.4321      -373.1171
      -361.1793      -362.0762      -348.7761      -341.7113      -332.2964
      -323.6426      -308.4091      -295.2073      -272.9564      -258.9885
      -242.6635      -237.9626      -221.9673      -215.1239      -201.3928
      -181.9127      -162.5540      -155.5069      -141.1516      -138.3713
      -121.9111      -121.0851      -106.6845      -87.60133      -76.88657
      -78.70160      -65.91467      -52.30399      -43.01543      -45.31186
      -25.33131      -22.47663      -15.93617      -14.03087      0.6779375
     -0.2142830       9.280807       18.95326       39.12947       37.33369
       42.88492       46.18594       60.51736       65.26508       92.06873
       100.2331       101.4796       97.45093       116.1911       110.5038
       116.6943       122.4728       138.2996       156.4622       180.1660
       170.1315       186.7697       193.8976       202.4122       198.8417
       218.8595       231.1227       232.9945       224.8817       245.9939
       246.6975       257.1284       256.8757       277.7914       275.8438
       295.5603       300.8075       302.1822       306.0524       322.5411
       315.0791       336.8331       339.7239       359.1887       352.6088
       357.8821       351.4746       361.9636       359.9235       363.3978
       364.8433       387.2209       380.7617       389.7698       381.9869
       394.3429       381.7511       382.4163       374.8883       385.4755
       378.4370       392.1453       381.2510       392.1580       383.6632
       387.3950       375.8459       379.9324       374.4404       392.5077
       374.6841       380.4489       370.7985       374.5753       355.6771
       363.3433       362.1454       371.1021       347.2994       342.1054
       317.7191       324.1228       314.3717       326.4041       317.5852
       327.2511       314.3528       316.5962       293.6548       301.1624
       284.7003       287.4032       269.1125       277.9675       275.0626
       291.8644       266.1340       273.4368       265.4395       267.6409
       247.9532       263.2883       247.2158       253.8715       235.1171
       243.9218       231.9796       246.0988       219.8926       217.8127
       201.6629       206.5038       194.8173       203.7300       173.4099
       185.2596       163.5628       168.3486       146.8629       162.1496
       143.2076       134.9977       107.7705       111.8539       78.53069
       84.86505       61.45837       70.10939       48.25000       54.18171
       32.34058       36.20498       10.72931       12.12140      -25.56377
      -23.51897      -43.61241      -35.94977      -68.97580      -68.43842
      -101.9009      -105.8170      -134.5428      -130.2441      -156.2665
      -143.7646      -172.2708      -173.4283      -197.5201      -196.6859
      -232.3538      -227.1869      -253.8271      -243.1132      -264.7646
      -251.8866      -275.9044      -269.9084      -293.7134      -285.3787
      -304.7635      -290.6486      -303.5996      -266.0577      -284.9918
      -281.0861      -303.3182      -291.8545      -302.1177      -288.5582
      -315.0334      -286.2756      -303.3916      -282.7333      -298.7985
      -282.9609      -291.9445      -274.2546      -294.8995      -272.2214
      -286.3391      -268.0947      -286.3549      -254.5547      -261.4330
      -233.8688      -260.5369      -257.1812      -260.1831      -224.0361
      -260.3562      -224.4520      -248.8865      -249.8053      -233.3957
      -202.1274      -206.4617      -176.5321      -254.4010      -220.0248
      -193.3208      -198.2552      -210.4714      -200.3756      -268.3611
      -184.8583      -206.0692      -191.8453      -205.5122      -252.5128
      -234.7705      -183.6368      -219.0005      -186.6393      -253.7417
      -214.1328      -233.3516      -209.0345      -210.7838      -221.1952
      -248.8115      -228.0175      -241.3112      -193.2108      -220.1971
      -199.2192      -226.6429      -197.9897      -221.8527      -190.0667
      -201.0268      -182.2556      -206.3307      -168.7985      -192.9276
      -152.4454      -155.6080      -129.7853      -156.0388      -116.7954
      -127.6141      -95.75882      -112.0430      -88.00476      -113.4338
      -75.40359      -92.14119      -52.43634      -68.33429      -41.61427
      -46.29163       1.460077      -12.43376       16.95371      -9.600746
       29.15208       12.22321       50.89108       39.50476       67.33292
       55.68021       110.9322       79.79349       112.0526       100.9787
       137.1530       118.5132       152.5909       132.4615       164.3329
       143.1353       180.6164       156.7938       185.4249       167.8973
       204.7308       172.9401       213.0803       187.1406       209.4474
       190.1211       224.0620       185.0975       214.0329       173.8401
       203.1210       179.2883       204.8055       171.6423       202.9979
       172.6306       200.0920       161.8069       199.6683       171.1945
       196.5303       160.4361       184.6325       146.9643       170.0723
       139.9167       167.5098       126.4809       163.0704       124.0599
       151.0811       124.8660       157.5358       117.0470       139.3214
       103.3387       132.7891       88.70343       115.8965       81.65228
       111.3482       72.06665       104.9332       67.37871       83.33517
       45.77904       77.33338       27.50198       56.78185       24.99212
       50.31072       6.885078       38.89128      -4.048500       27.46437
      -9.055698       20.36313      -16.85382       11.81485      -28.83678
       15.37420      -24.35814      -4.924484      -45.31533      -5.396980
      -36.47055      -4.504631      -44.25023      0.1685066      -33.01620
       10.15596      -23.44787       17.13842      -19.29869       20.59879
      -12.25674       23.25428     -0.9357300       39.91483      -2.649246
       48.07499       4.496834       51.67238       9.752068       46.63683
       19.82961       57.92813       17.22009       72.19211       36.45877
       82.09079       56.73750       92.87106       59.47644       106.4199
       68.66983       123.0237       97.16779       136.3887       107.1745
       158.4550       120.8547       171.3338       146.7218       193.1918
       151.4243       209.0681       167.5661       204.3314       169.3322
       215.2466       171.5990       213.7708       183.9080       224.1054
       183.4481       225.3093       175.7772       218.0974       170.6091
       209.0625       161.9774       193.4456       143.5272       182.0561
       133.6402       170.0469       120.3669       160.0704       112.5904
       152.2636       104.6056       146.7333       97.99481       133.6841
       81.39636       125.7977       76.07605       120.0103       72.31754
       115.2617       66.51813       95.86906       44.56012       93.81415
       50.36147       93.42171       21.00781       73.29008       44.59660
       84.88913      -5.605835       60.99182       40.03619       103.1673
      -107.7412       41.45966      -2.012939       833.7773      -931.5977
       5363.824       16174.65      -10376.79      -4729.180       52971.88
       19402.00      -6120.504       13391.06      -68619.26      -52345.33
       10713.86      -51211.22       15635.45       45201.50      -60962.52
       22654.41       96362.14       16401.20       57172.84       74816.41
      -80636.28      -117042.0      -13193.08       6939.984      -31552.97
      -80738.27      -112562.2       10269.06       117389.7       64665.12
       70216.53       90826.46       46458.07       7035.453      -84298.45
      -100799.9       1455.801       5005.922      -43234.58      -8661.789
       39194.62       39525.69       18769.10       16530.56       27219.36
      -12405.00      -64792.48      -8369.688       62604.45       18890.31
      -19809.60      -22696.80      -66764.73      -74729.50      -7185.250
       58156.39       68991.49       2037.281      -67320.89      -42451.05
       11905.30       36322.95       65380.38       72244.94      -2061.609
      -85621.36      -85073.32      -24474.14       38775.27       71172.56
       64162.59       21101.12       2584.684       12652.91      -17002.09
      -34306.79       1771.172       2358.984      -52867.56      -70944.19
      -25453.95      -5812.428      -15918.88       6402.625       21852.65
       26135.27       35843.24       13630.45       4667.109       40522.30
       53969.31       13068.15      -11075.63       8784.070      -16388.56
      -79580.06      -90104.09      -44828.67       10493.12       39379.28
       37357.41       38878.70       44765.82       5468.570      -39984.75
      -18036.19       6066.215      -9803.816      -5755.453       17593.95
       36281.34       17006.65      -20932.40      -27967.28      -25695.02
      -17428.06      -10015.85      -4732.373      -9200.609       1372.219
       50878.61       53779.13       7064.148      -21229.75      -37101.57
      -46204.09      -24112.53       17033.72       70614.02       54631.35
      -37685.31      -38991.52       11703.30       4227.498      -13018.36
      -5376.180      -6032.364      -3215.584       4442.453      -22587.06
      -22158.13       25671.28       26211.25      -8796.012      -6999.709
      -4932.688       1086.633       35878.03       43805.12       14694.70
      -24187.42      -51598.44      -55276.07      -41098.88      -3420.797
       32259.54       24752.30       12683.42       37888.77       42922.83
       4730.934      -11838.34      -8718.898      -18567.83      -10815.68
      -596.3418       5940.234       6485.771      -10335.84      -5605.283
      -5556.344      -17959.94      -17639.19      -4249.416       13554.36
      -4483.938      -22979.69       10481.28       50587.11       31726.65
      -15432.51      -18430.62      -17158.84      -16371.90       21039.45
       26859.68      -16591.43      -40191.49      -14795.06       16873.20
       35884.19       31978.93       2113.693       6755.346       14084.54
      -17308.86      -13509.74      -2598.477      -17924.01      -24996.11
      -30209.05      -12592.64       15626.45       18273.62       21038.20
       19774.77      -1940.093      -2995.555      -789.2891      -16391.02
      -9349.172       14462.09       16250.38      -2747.997      -6861.947
       7443.749       5443.680      -4755.449      -11087.20      -14965.02
       17000.97       34592.45       15595.32      -497.2734      -17251.55
      -30761.95      -30177.23      -15124.66       5593.156       26675.48
       24223.50       10926.07       2186.322      -9161.052       299.0703
       17655.43       10162.25      -17223.31      -25972.21      -14867.04
      -17367.27      -19320.67       1455.092       11763.52       976.1143
       2233.414       11804.08       17500.26       33036.58       41090.45
       31133.69       9732.016      -18661.30      -22851.14      -22551.82
      -29283.29      -24942.67      -6879.440       10675.83      -8648.738
      -19227.53       4383.543       13073.28       11606.20       17150.04
       10987.98       3080.186      -4134.832      -12801.56      -12079.74
       1602.934       21909.66       8511.406      -11752.32      -3469.113
       282.0801      -1311.556       1899.751       1751.291      -4636.054
      -6139.646       4708.785       17153.89       8711.164       4101.805
       18140.18       10012.05      -9034.891      -24095.09      -28400.13
      -9402.123      -2423.664      -2255.855       13076.49       15977.29
       3251.105      -7997.142      -10460.93       5356.344       20893.29
       11632.87      -9952.891      -22155.99      -22626.10      -7144.775
       7806.453       4351.387       8537.883       21117.16       18837.26
       6996.632       1176.725       1749.637      -7934.229      -15944.76
       798.1348       12761.66      -1136.927      -3777.387       2101.304
       323.7070       9712.931       7264.441      -18317.95      -18650.18
       332.3809      -3193.617      -4994.211       11580.05       17371.74
       9327.875      -4920.820      -18181.92      -15102.69      -9116.639
      -4279.289       11785.55       15019.42       8258.934       5819.244
      -2825.612      -4807.605       4801.223       10660.53       2222.199
      -12444.15      -4600.047       7242.414      -9196.289      -22772.07
      -14920.82      -4939.410       3622.359       13684.04       15068.85
       14743.37       21207.50       1472.273      -26660.77      -14802.98
       3987.723       9135.208       8477.840      -8673.625      -12169.96
      -8132.611      -15741.54       2594.883       18027.95      -735.2651
      -6594.775       8885.523       14783.43       8011.930       8868.297
       15455.33       15824.77       1138.562      -24205.13      -33503.93
      -21580.37      -4221.689       4122.799       5835.511       3785.297
      -6895.125      -10233.74      -6181.500       2139.910       14938.28
