     0.02500000      -21182.12       16738.64      -12345.00      -12345.00
      -30.00000       228.1000      -27.44000      -12345.00      -12345.00
       0.000000       20.37000      -12345.00      -12345.00      -12345.00
      -12345.00      -12345.00      -12345.00      -12345.00      -12345.00
      -12345.00      -12345.00      -12345.00      -12345.00      -12345.00
      -12345.00      -12345.00      -12345.00      -12345.00      -12345.00
      -12345.00      -31.59730      -64.54960       1192.000       0.000000
      -31.23600      -65.83800       0.000000       167100.0       0.000000
      -12345.00      -12345.00      -12345.00      -12345.00      -12345.00
      -12345.00      -12345.00      -12345.00      -12345.00      -12345.00
       128.8920       108.4407       287.7724       1.158902      -12345.00
      -12345.00    -0.05539590       0.000000       90.00000      -12345.00
      -12345.00      -12345.00      -12345.00      -12345.00      -12345.00
      -12345.00      -12345.00      -12345.00      -12345.00      -12345.00
      2008       318        11        12        57
       840         6    -12345    -12345     10325
    -12345    -12345    -12345    -12345    -12345
         1         7        13    -12345    -12345
    -12345    -12345    -12345    -12345    -12345
    -12345    -12345    -12345    -12345    -12345
    -12345    -12345    -12345    -12345    -12345
         1         1         1         1         1
ESP08   -12345          
01      -12345  -12345  
-12345  -12345  -12345  
-12345  -12345  -12345  
-12345  -12345  -12345  
-12345  -12345  -12345  
-12345  -12345  BHN     
XH      -12345  -12345  
[...]
      -53.47331      -32.49525      -26.69313      -57.23090      -73.05971
      -50.88210      -53.15643      -71.87845      -78.12213      -69.71704
      -94.55673      -85.49716      -90.62164      -103.7968      -101.7596
      -97.58813      -116.2711      -109.6879      -109.3769      -122.4697
      -136.0298      -125.1449      -122.7585      -125.3827      -144.9698
      -134.9727      -137.1168      -138.1494      -152.4023      -144.0577
      -143.1743      -158.3203      -172.3822      -161.7243      -170.1210
      -173.8665      -187.4206      -182.9510      -181.0382      -185.2380
      -193.1193      -183.0447      -191.4200      -187.7141      -200.4726
      -196.5149      -193.2059      -191.9852      -210.3237      -201.7027
      -206.0365      -223.4188      -233.4866      -215.5880      -222.8685
      -218.9694      -224.4420      -230.9976      -233.1526      -220.0820
      -239.8286      -253.8726      -253.8989      -242.7786      -256.9532
      -253.3766      -268.2507      -264.5049      -263.5276      -271.4968
      -285.9380      -272.3434      -287.8488      -282.8126      -281.2542
      -272.8588      -270.1748      -266.2618      -278.8036      -278.3781
      -277.8889      -271.3800      -297.3721      -276.6837      -271.5139
      -283.1181      -280.7920      -255.3601      -270.1832      -268.9694
      -261.2629      -237.9756      -241.5746      -241.6335      -221.5089
      -201.1697      -242.0048      -215.9022      -205.4593      -219.7616
      -208.0822      -181.7727      -185.6467      -171.9630      -160.0599
      -134.0002      -139.1279      -121.7542      -99.88318      -96.55090
      -114.7682      -98.82678      -100.4489      -74.26440      -64.04636
      -52.53949      -53.48477      -37.78488      -34.23238      -14.07991
      -16.30721      -7.744537      -5.591988       10.88329       3.588081
       13.18448       18.04365       40.07246       27.44664       33.04164
       43.90211       51.44421       47.36899       71.74515       77.14854
       82.00314       67.96552       91.25397       94.98444       103.7008
       106.5399       121.0589       117.3107       130.0975       129.8377
       142.1464       142.0038       158.1674       159.7804       173.8542
       166.7642       185.9955       189.5171       188.7957       170.5976
       192.9146       203.3784       207.7197       204.1086       219.7372
       215.1954       218.6355       216.3787       242.8603       228.4840
       221.6701       219.6192       226.7704       202.1891       212.0522
       221.3515       229.6362       219.2173       222.1451       211.4398
       223.1140       215.4064       204.1559       184.0264       208.0882
       201.2545       207.2346       197.6777       200.5900       194.0932
       184.1376       178.8765       191.3199       168.3982       167.9918
       156.1841       177.0529       169.4054       165.2745       160.3094
       158.6168       144.9014       168.0854       154.1083       148.1449
       150.1976       172.4334       163.1870       161.1032       153.2827
       178.2183       173.3801       168.7706       166.4369       169.3568
       153.7047       181.7804       178.1288       179.3884       184.2393
       185.0402       150.5163       188.8464       195.6149       174.3907
       177.5016       191.7117       160.1772       165.7552       193.3603
       216.3507       185.9611       182.9876       183.7475       206.7907
       194.7483       184.9586       193.4600       208.6187       167.1567
       198.5205       205.2443       200.3700       190.5710       193.2040
       207.4568       207.2300       175.4739       201.4941       181.6212
       176.2825       174.6536       171.2355       174.0915       169.7630
       142.9091       171.9183       151.1371       136.8082       132.1619
       157.8895       116.5423       101.4773       111.1292       125.8654
       113.9505       93.88896       78.15714       80.83975       78.34949
       81.46170       31.42163       76.86635       64.72690       48.60022
       46.15793       53.48608       44.05113       15.52777       7.219046
       23.07703      -22.24759      -1.447441      -6.681870      -13.12906
      -39.85813      -36.85756      -43.15872      -26.17642      -49.57324
      -62.70375      -71.51970      -64.68494      -78.28662      -72.74806
      -88.11133      -78.40659      -103.6286      -89.01974      -107.8225
      -115.0302      -122.1426      -113.0491      -122.8101      -127.8797
      -147.1174      -127.2258      -151.4028      -156.1052      -166.9846
      -161.9877      -176.3244      -160.1035      -170.9460      -162.8767
      -175.5082      -171.4409      -188.9213      -185.2220      -197.4500
      -195.0383      -210.5526      -202.5052      -208.7426      -182.6797
      -194.0077      -182.8800      -191.8225      -188.6361      -197.3602
      -175.4885      -182.1747      -183.9869      -190.3489      -159.0745
      -163.8838      -145.7006      -155.6454      -144.3601      -145.9487
      -122.7579      -120.6651      -103.9163      -115.4497      -94.75040
      -86.25955      -73.74640      -101.4551      -78.37447      -65.38312
      -58.25070      -74.73071      -50.42210      -44.56924      -28.15282
      -37.50320      -18.55926      -19.08135       1.698507      -3.914433
       11.93098       11.56779       23.02938       13.16130       38.17842
       35.43588       46.06927       40.48277       62.36807       51.45729
       70.01088       75.53152       75.18039       56.03697       88.83984
       75.34799       76.70627       69.14743       76.14444       58.03377
       78.44931       79.13947       89.55624       82.28458       103.0155
       87.48203       99.50977       93.73767       108.1216       91.28290
       86.76587       76.12833       104.8992       93.18021       89.35452
       73.34760       95.33432       77.22037       81.25029       68.68103
       75.24730       54.33189       64.55565       48.14921       48.43914
       25.42153       35.25257       18.00215       21.72206       10.21421
       15.26127      0.3397541       10.50814      -4.994820       15.25095
      -11.23810      -16.22987      -21.13313      -6.039215      -30.27945
      -27.14405      -30.86674      -10.33080      -38.98129      -33.40134
      -28.42262      -20.16970      -40.25787      -24.62376      -39.28632
      -37.35637      -56.66071      -38.93973      -50.69380      -55.90407
      -68.66681      -41.30579      -65.09549      -78.99615      -98.14203
      -64.26244      -65.71088      -80.27124      -108.0406      -69.57120
      -78.53836      -103.4431      -100.5986      -60.48495      -103.0609
      -103.3805      -91.70291      -68.99109      -114.6821      -106.6752
      -78.33105      -66.59604      -119.2864      -101.9388      -68.28903
      -61.35242      -100.9397      -72.15326      -73.17007      -60.88806
      -74.38113      -64.82246      -57.25928      -52.04515      -92.07129
      -58.88399      -60.49080      -60.55945      -75.61160      -57.90112
      -62.79868      -61.19569      -60.05902      -25.19315      -59.81471
      -44.05812      -48.23045      -46.84438      -54.78522      -50.25098
      -81.91180      -53.40356      -53.28214      -48.17825      -51.34373
      -30.92188      -51.97702      -49.37042      -61.71378      -38.55978
      -57.46663      -51.85858      -54.59137      -36.26286      -66.25676
      -60.60974      -59.88187      -48.01013      -68.56863      -56.75305
      -78.12952      -56.06204      -69.44006      -69.95389      -66.75775
      -45.40904      -78.42303      -63.15366      -60.51686      -55.30075
      -80.55771      -60.77289      -72.43356      -61.71866      -89.08092
      -82.74020      -76.35843      -67.89230      -95.75079      -77.32910
      -81.72693      -63.38043      -81.25327      -77.20181      -93.01135
      -86.19247      -102.6605      -91.05753      -112.5584      -95.72977
      -102.4575      -83.71149      -105.5560      -106.7579      -120.7106
      -105.8762      -111.7216      -104.9004      -124.0622      -84.18152
      -94.75366      -94.76099      -111.0466      -97.46030      -109.5695
      -99.18753      -119.5773      -106.6751      -112.6036      -88.44461
      -102.0555      -81.45206      -93.88855      -83.34033      -94.07599
      -85.60675      -105.5214      -84.74089      -89.91818      -70.43550
      -92.04219      -72.36792      -73.32111      -70.03244      -86.01562
      -52.62932      -60.21988      -53.41370      -60.76030      -23.47696
      -20.36015      -4.669273      -32.20799      -18.77448      -10.67609
       8.568768      -20.51558     -0.7986450       15.40030       43.97974
       24.03470       44.32481       37.83710       47.63648       31.64911
       51.92084       42.70935       55.70062       50.07204       74.05518
       58.29704       78.23581       66.24887       82.19580       78.68533
       99.98175       82.49545       97.05569       92.77359       123.4233
       120.6979       131.7477       104.2899       122.0328       124.3217
       128.3788       98.21552       129.2422       135.5463       158.4296
       148.9290       162.8546       157.4360       182.8097       153.3929
       155.0266       143.9956       162.2862       159.1304       170.1061
       157.2440       185.3453       173.6462       176.5753       167.3144
       195.0216       178.1794       193.0233       186.5433       208.6324
       189.4935       200.3158       191.4702       197.4989       172.3607
       185.6216       173.2520       188.8643       180.5934       195.1355
       178.3101       185.5514       159.4723       174.7049       154.6979
       155.6867       138.5998       153.3624       149.5587       147.6769
       116.0226       134.5800       103.7053       109.8654       99.72626
       106.9933       93.57513       112.0864       103.7420       110.3417
       87.19363       105.0314       87.96178       84.40268       58.37192
       96.31213       95.65753       96.81213       83.83716       99.18036
       87.10587       93.61865       67.70905       78.05234       71.27155
       97.45718       83.42053       103.6435       94.94641       97.88702
       80.92981       98.70282       85.14775       89.02420       75.92270
       111.4725       109.6474       123.1801       103.5824       104.7708
       86.93661       109.2097       93.43164       104.8250       102.4313
       129.8402       114.7047       123.7014       110.4112       122.0633
       90.75797       99.86795       78.91315       101.7093       105.6151
       111.9041       88.21555       103.1405       82.51248       85.19675
       68.49371       84.23026       59.70430       74.26123       61.42542
       79.81790       53.85860       60.63669       59.15869       59.39941
       24.02657       25.00404       5.969223       36.00925       25.69115
       33.06588       4.826037       10.00668      -13.30989      -9.180626
      -13.43739      -6.120438      -37.70461      -34.00835      -54.36300
      -32.97592      -55.45322      -68.96661      -96.31339      -80.76279
      -97.18570      -93.75043      -129.2558      -120.9839      -118.3139
      -115.1423      -150.9650      -142.3426      -168.7517      -166.3824
      -188.6151      -182.6061      -188.3536      -172.1537      -210.0984
      -198.7184      -206.4705      -217.8549      -241.8868      -227.2236
      -252.8134      -240.6769      -257.4144      -250.2800      -265.8191
      -268.1141      -296.7132      -287.3104      -301.5205      -299.4866
      -323.0513      -308.0087      -313.0121      -301.3731      -328.7059
      -325.3452      -338.4684      -323.8137      -341.4337      -331.6771
      -347.7599      -332.7886      -328.9547      -326.2460      -342.8097
      -319.5809      -336.6459      -322.7338      -338.2235      -325.5066
      -327.6707      -315.0565      -331.4921      -325.2638      -335.5896
      -316.5326      -332.9155      -313.7034      -320.5321      -304.9707
      -314.8194      -303.1283      -316.6456      -299.1342      -309.7144
      -298.9536      -315.0118      -291.3275      -297.0704      -285.4922
      -303.8176      -276.3279      -279.8558      -256.1747      -291.8758
      -193.6847       9.501953       1426.338       5341.336       8123.645
       7863.716       2956.954      -6034.155      -4114.018       7222.189
       9746.365       3098.021      -5292.266      -8561.113      -5726.167
      -2773.145       2506.250       9405.783       8049.020      -4609.582
      -11050.94      -1541.010       2568.059      -9948.398      -16843.38
      -2805.992       14556.80       14011.03      -5447.691      -21182.12
      -12382.29       3672.037       6821.055       7220.777       6481.721
       2774.275       5061.964       29.10156      -12287.62      -10993.77
       1825.997       6077.604      -2579.025      -4338.168       9494.297
       16738.64       1846.016      -10469.66      -4403.191       829.8225
       1044.905       1591.924      -5466.523      -12670.91      -7126.754
       4523.922       9735.850       1336.326      -3942.124       5262.469
       5529.906      -2131.094       1313.943       2708.647      -4523.837
      -2056.254       4831.218       632.2881      -165.1440       3860.415
      -515.8164      -484.5215       6298.203       5483.954       1584.873
      -5103.330      -9740.508      -2715.175       1541.434      -1403.038
      -2945.494      -1325.835       2788.392       3750.882       533.3921
      -1852.037      -2162.399      -1179.695       2079.559       3098.745
      -836.3782      -1198.730       3272.574       2338.758      -828.5938
       1688.244       3182.270      -1203.108      -5023.886      -4931.695
      -2128.408       2260.483       3077.127      -3456.990      -6555.597
       916.1094       6988.792       4351.034      -3025.402      -5436.721
       3039.039       11005.44       10595.89       6532.511       2015.050
      -884.4268      -1194.340      -3377.789      -7235.881      -7332.631
      -2788.464       2235.381       1218.737      -3240.479      -3184.051
      -1909.371      -2512.406      -183.4648       3619.578       6453.500
       8973.495       6149.405      -1145.141      -5626.929      -4173.375
      -1742.665      -2327.307      -2858.514      -3197.559      -2396.410
       2824.748       6508.125       3758.326       1320.585       2515.896
       2075.618       700.9209       2590.205       4371.675       2181.734
      -1637.221      -4771.602      -7553.307      -8688.728      -5966.800
      -2464.065       808.9609       5051.645       7324.355       6864.415
       4867.742       3433.795       5529.245       4811.949       63.38257
      -911.4414      -1977.519      -3614.893      -1829.520      -900.4741
      -137.6045      -1031.424      -4724.778      -5381.687      -938.1729
       5018.812       5578.756       1349.823      -1769.445      -2780.795
      -1978.404      -497.7080       1289.151       2828.237       472.3350
      -4492.558      -1091.400       6644.897       3326.588      -1331.562
       3816.967       6207.258       3463.745       3892.981       2744.807
      -2623.792      -4144.053       1172.969       7225.816       5393.794
      -743.3911      -770.0715       1786.752      -1451.668      -8645.430
      -10988.98      -7215.520      -5662.568      -6978.104      -5122.651
      -1183.703       2081.457       9422.164       12070.59       2536.964
      -2101.370      -438.2715      -1664.607      -4118.723      -7657.793
      -4190.748       3330.083       4073.649       2701.816       755.8442
      -1686.475      -1622.056      -1184.352      -1365.064      -1504.174
      -175.6089       2814.631       2453.104      -2736.632      -4507.024
      -55.98535       3099.298       2467.581       1351.575       588.6982
       1281.371       3638.553       5456.191       5771.478       3675.016
      -2523.879      -8606.037      -8276.312      -4542.594      -5369.369
      -5608.043       3330.771       9474.990       3197.870      -3213.779
      -699.3408       3213.528       1087.557      -2681.688      -5535.008
      -8066.906      -6332.209      -1065.573       389.9697      -3144.198
      -3917.171      -323.9124       1188.424       858.7012       2651.266
       4615.422       4819.991       3003.911       355.8906      -1840.051
      -5190.071      -4062.056       576.2134      -1474.422      -4883.715
      -1496.552       2199.339       2631.720       2251.962       1313.416
       884.6523      -964.8223      -2976.910      -554.2515       2294.188
       2334.143       38.80664      -4238.889      -5310.275      -610.7539
       3232.277       1773.502      -860.2803       1101.276       3089.081
       306.9067      -1550.576      -1666.543      -2874.308      -2515.918
      -598.9668      -814.1826      -4067.422      -6592.277      -3498.114
       30.25879      -1860.085      -839.9248       3625.999       4535.497
       3360.991       2476.747       2629.976       3604.535       4659.296
       4959.062       2335.202      -934.9283      -645.8145       145.7051
      -474.7188      -2479.538      -4166.197      -1878.313      -1061.062
      -2273.523      -2464.856      -1080.404       2554.633       2991.971
       912.5801       1100.055       2265.678       1599.267      -2657.129
      -6132.073      -3836.373      -1691.411      -2456.095      -299.3359
       1916.123       928.6152      -2214.559      -6243.412      -4193.250
       2294.585       2734.518       1196.332       5060.621       7121.549
       4684.688       4899.270       5962.335       3523.341      -2196.884
      -6069.446      -3731.641      -750.3181      -381.0342       457.6016
       2648.051       2928.848       1379.147       2263.810       1976.850
      -1371.514      -1952.147      -1070.933      -1218.306      -619.6449
      -159.9609      -1027.902      -2963.406      -2264.195      -853.5859
      -3826.398      -4683.976       891.0938       6045.639       7305.466
       3836.924      -881.6926      -606.9768       604.6497       159.2393
