     0.02500000      -31334.23       25987.30      -12345.00      -12345.00
      -30.00000       228.1000      -27.44000      -12345.00      -12345.00
       0.000000       20.37000      -12345.00      -12345.00      -12345.00
      -12345.00      -12345.00      -12345.00      -12345.00      -12345.00
      -12345.00      -12345.00      -12345.00      -12345.00      -12345.00
      -12345.00      -12345.00      -12345.00      -12345.00      -12345.00
      -12345.00      -31.59730      -64.54960       1192.000       0.000000
      -31.23600      -65.83800       0.000000       167100.0       0.000000
      -12345.00      -12345.00      -12345.00      -12345.00      -12345.00
      -12345.00      -12345.00      -12345.00      -12345.00      -12345.00
       128.8920       108.4407       287.7724       1.158902      -12345.00
      -12345.00    -0.02109556       90.00000       90.00000      -12345.00
      -12345.00      -12345.00      -12345.00      -12345.00      -12345.00
      -12345.00      -12345.00      -12345.00      -12345.00      -12345.00
      2008       318        11        12        57
       840         6    -12345    -12345     10325
    -12345    -12345    -12345    -12345    -12345
         1         7        13    -12345    -12345
    -12345    -12345    -12345    -12345    -12345
    -12345    -12345    -12345    -12345    -12345
    -12345    -12345    -12345    -12345    -12345
         1         1         1         1         1
ESP08   -12345          
01      -12345  -12345  
-12345  -12345  -12345  
-12345  -12345  -12345  
-12345  -12345  -12345  
-12345  -12345  -12345  
-12345  -12345  BHE     
XH      -12345  -12345  
[...]
       360.4950       353.7363       372.3228       339.6511       361.6974
       356.6676       361.2597       327.4170       351.3057       325.4591
       337.5205       322.8206       340.5388       323.0804       337.4261
       318.8018       324.2388       286.7047       318.7692       299.4634
       300.2302       289.9279       311.2057       266.8347       288.3713
       281.5946       279.7191       248.6004       279.6624       252.6611
       262.3013       247.8990       263.2771       243.8765       253.4274
       223.9888       246.3883       224.2318       233.0206       215.8056
       238.6898       203.6912       202.9857       185.1736       200.4882
       159.6832       169.3218       154.3459       164.2382       130.2817
       139.4335       103.9750       122.4643       104.3790       92.24228
       48.12941       73.96613       53.11146       39.83827       5.613344
       20.37756      -21.77873      -24.68527      -56.03000      -50.93594
      -95.84000      -96.42584      -116.8210      -112.9224      -167.1735
      -148.7245      -177.0327      -196.8878      -226.4463      -223.5281
      -274.7350      -267.7856      -302.8716      -306.5583      -335.8977
      -326.7902      -367.9188      -353.2168      -385.5237      -400.1543
      -419.7164      -405.7083      -450.7131      -435.3250      -467.3438
      -472.4329      -496.0280      -489.4445      -539.4370      -529.5757
      -558.2333      -558.1160      -579.6929      -568.7791      -610.2316
      -595.4760      -610.7490      -597.6523      -626.5286      -631.7030
      -674.3547      -650.9366      -673.8137      -663.8649      -680.5319
      -668.0725      -700.6912      -682.9084      -701.2600      -688.0693
      -719.3291      -684.5798      -689.5217      -685.6304      -694.2810
      -673.5221      -693.1643      -654.5609      -687.6128      -669.2068
      -668.3279      -644.7998      -660.6373      -630.6752      -637.7463
      -598.4827      -597.8877      -568.9491      -585.4377      -566.1743
      -566.3210      -524.4769      -526.4065      -492.5940      -510.2112
      -468.7828      -470.9377      -451.1223      -439.3328      -408.9352
      -434.0181      -386.0586      -389.5352      -374.9077      -377.3381
      -333.4062      -326.0189      -295.9215      -315.2223      -284.0745
      -282.5920      -248.2886      -256.5679      -229.1282      -237.6813
      -206.7939      -213.9193      -187.3315      -189.6590      -145.7801
      -161.9465      -138.7456      -123.4944      -80.94031      -98.57507
      -65.94124      -63.70348      -43.38026      -49.21068       5.299248
      -8.815960       5.063965       14.20482       47.78812       33.52893
       74.88232       75.49786       113.6977       98.55408       124.7751
       127.6940       148.6145       131.3183       170.6477       163.9932
       191.9252       176.4354       199.2072       189.0259       229.2192
       229.8235       245.7547       226.6656       262.4100       249.4594
       274.1777       259.5373       289.4134       276.2642       302.6388
       294.9916       314.7121       297.4684       319.8596       307.2633
       328.5430       302.3979       321.1173       301.7475       326.9525
       306.1929       342.8383       334.9472       332.6422       316.5117
       340.9846       326.6146       338.4506       300.0640       333.3535
       311.9299       318.9849       306.0413       328.6182       293.4731
       313.0865       309.6847       298.6221       291.5242       319.3544
       278.2457       332.2678       299.6385       284.8156       281.9849
       315.6759       288.1130       288.6412       277.7535       319.9958
       284.2107       279.0851       281.7480       318.3088       293.8485
       307.8685       291.4037       300.6248       272.7747       302.4285
       279.8627       285.3548       271.3165       311.1276       265.2545
       288.3230       282.0463       285.2819       297.8798       294.3954
       267.9233       301.3260       258.1312       299.2406       275.5151
       299.2910       292.9183       285.3519       293.1598       324.3213
       280.1063       302.8867       297.1533       319.4107       288.0227
       304.3051       292.6158       323.0922       329.1758       351.2406
       308.3882       318.9531       336.7197       336.7034       296.5493
       343.6075       312.5715       343.1268       323.1416       347.7009
       336.9534       342.3599       339.2484       327.9684       312.6780
       358.4866       332.7024       354.0586       331.3982       347.3041
       325.7849       339.7822       311.9189       333.4756       309.5919
       311.2655       297.5405       314.9486       309.9325       311.2138
       270.8627       297.8502       269.8210       286.5662       252.8273
       257.8301       239.0273       244.5525       216.3916       225.9859
       196.3571       203.1573       173.3651       176.4625       149.0325
       164.2126       131.3444       137.5226       109.3418       123.9271
       103.9921       107.0678       66.62206       73.45358       48.10056
       55.88896       28.38541       34.47166       2.066296       18.00470
      -15.45106      -10.54906      -26.23714      -26.07362      -62.00372
      -40.26231      -60.63132      -53.02722      -77.54041      -63.50403
      -94.63654      -90.71732      -117.1016      -106.1212      -130.8626
      -120.8914      -149.7095      -132.8526      -150.3281      -142.6256
      -169.0586      -155.1072      -188.5162      -188.5200      -212.3718
      -184.6846      -220.0300      -226.9810      -234.6237      -226.1897
      -267.3438      -251.6392      -279.6917      -263.1489      -287.2371
      -281.0480      -302.4641      -294.7083      -335.6949      -336.9398
      -350.7727      -340.6757      -381.2109      -359.2896      -386.5657
      -391.2344      -399.4492      -378.1058      -407.6091      -392.2625
      -423.7356      -416.8616      -441.5886      -433.2985      -459.1958
      -454.3138      -475.2346      -447.1979      -472.0532      -465.3489
      -478.7517      -468.7737      -490.5153      -480.1824      -509.8755
      -490.0339      -519.0441      -503.5851      -523.8949      -501.9973
      -521.4559      -517.1747      -528.5641      -511.1199      -533.1066
      -516.9015      -537.7488      -522.5406      -543.5977      -521.1121
      -543.8262      -532.6171      -544.8369      -512.9065      -529.8175
      -516.0149      -528.4482      -511.9996      -517.0005      -496.3141
      -510.8146      -483.4491      -502.6304      -468.4689      -475.9041
      -444.1287      -455.0000      -440.9473      -432.0544      -408.0239
      -417.0730      -376.0964      -388.7640      -367.4723      -368.7167
      -346.0945      -355.9852      -322.2960      -342.1772      -319.1145
      -307.0811      -285.0062      -306.6334      -261.4756      -257.5450
      -244.8047      -233.6036      -193.4449      -231.2378      -190.8776
      -158.6141      -142.7523      -167.2802      -137.8612      -119.4192
      -70.73856      -103.0176      -75.30580      -45.26729      -20.99629
      -48.35914      -9.261124       6.815681       35.44365       31.90634
       79.08884       81.49481       103.2462       93.21136       125.5238
       129.8055       143.9088       135.2018       185.4727       175.1875
       202.7049       203.1693       224.4385       220.6191       256.1156
       254.0389       276.4932       273.4285       308.9868       293.4891
       325.3055       321.2078       323.5623       319.5361       356.4777
       340.9329       354.0836       352.7832       394.2657       375.7379
       379.1638       375.1801       402.1692       384.1754       406.9316
       383.6537       405.8271       405.0331       407.6816       386.5469
       402.9901       386.7958       406.1252       385.8807       408.3632
       394.3079       399.7303       384.5500       405.8870       377.2737
       375.5107       358.9152       378.2628       356.4363       373.1282
       351.9849       349.7383       337.9567       352.1431       324.0643
       335.9831       316.0341       334.9497       302.9932       299.6563
       291.1537       303.5876       266.4838       267.3903       247.2543
       256.0340       231.7953       241.1144       228.7937       242.4771
       204.9881       211.0446       195.4567       190.2073       146.6856
       153.3871       145.4018       150.9730       124.4091       132.0705
       109.5258       128.9241       98.54529       88.00620       75.73637
       88.02266       60.22087       57.95291       42.13126       61.12737
       34.93354       40.85759       30.34433       32.18188      -2.249702
       19.01796       19.65744       21.00231      -13.61375       15.59662
       9.062801       1.517929      -22.03703      -5.460141      -8.705339
       2.661388      -27.75754       2.234741       7.628168       10.71542
      -21.79029      -6.687622      -7.663174       3.525887      -23.95953
      -12.19262      -19.31885      -5.529339      -16.47924       4.874554
      -15.82160      -9.793411      -15.37792       6.838436      -13.68645
      -11.09646      -19.21533       9.666389     0.02148819      -6.708725
      -27.22779       4.177521      -19.96939      -9.533760      -11.15931
      -9.291386      -26.10123      -5.045695      -7.211073       14.30626
      -1.197399       8.803453      -2.644077       15.77813       3.196069
       5.377537      -8.244595       5.792514      -6.091286       14.94206
       7.969891       21.31633       8.758091       16.93582       2.993504
       22.91741       13.26487       26.20290       17.56462       32.88343
       23.55971       32.64936       21.18878       41.58081       31.11476
       47.93004       33.64743       47.88841       51.14410       66.06699
       53.34009       64.02031       59.06941       72.49866       56.91443
       87.90186       83.08716       99.43344       104.3271       103.9076
       83.28317       111.8867       106.7040       117.5742       105.5278
       114.8205       117.2648       147.0813       137.1779       140.7846
       138.5440       159.1740       140.3250       152.3292       137.7169
       146.7110       150.7831       161.5638       154.5732       173.0120
       156.7153       164.2634       149.9687       163.1259       159.7675
       170.3607       166.1341       185.2472       164.1110       165.5609
       162.0119       178.0574       163.2906       175.2863       172.9510
       183.9655       179.7193       188.3094       170.0211       182.5768
       167.3475       166.8239       166.4769       185.7141       164.8535
       172.7804       161.7704       171.0402       162.0309       166.5909
       150.5367       153.8881       143.7943       150.9365       149.0992
       161.3962       131.9648       134.5015       124.7155       129.1042
       114.4796       118.9630       108.0417       114.0996       102.8862
       107.7837       85.81085       83.52499       84.85976       87.34459
       62.32837       78.46152       62.82228       63.23987       59.88306
       57.09879       38.93803       45.25359       25.73521       20.23543
       13.24843       13.85606      -13.99607       2.307251      -7.479118
      -27.25633      -46.26039      -53.15562      -56.49429      -62.69351
      -90.14378      -75.33853      -92.27640      -93.92780      -112.0824
      -112.5880      -125.9116      -122.8080      -142.2173      -148.2852
      -147.2704      -146.5805      -161.0031      -148.6527      -157.0895
      -165.7057      -187.9620      -180.9321      -195.7464      -194.9108
      -195.3759      -198.5536      -208.6094      -207.4885      -221.2463
      -216.5968      -228.4518      -224.8156      -233.6760      -241.1661
      -246.9498      -244.4957      -263.5082      -256.0274      -267.3547
      -274.0515      -279.6710      -273.7108      -277.5613      -279.4681
      -291.2440      -278.7560      -285.6332      -287.9844      -296.1462
      -296.6978      -292.6797      -288.0494      -294.6580      -280.5239
      -281.8915      -273.9226      -277.4825      -275.2861      -270.2739
      -266.8810      -266.5242      -247.5262      -253.8075      -248.3405
      -229.4756      -215.2012      -219.4661      -212.1987      -208.1462
      -196.9483      -190.9333      -187.0226      -189.5080      -170.3394
      -159.1827      -150.0925      -146.1637      -138.1073      -117.5906
      -82.52917      -94.78775      -110.2810      -69.57632      -6.742310
      -153.3740      -816.1289      -3478.520      -13289.80      -27502.93
      -31334.23      -25015.46      -16354.26      -2280.527       9454.117
       13581.15       12840.58       6320.473       7633.461       18277.73
       15963.60      -1941.678      -11570.14       3069.461       25987.30
       23940.86      -1987.771      -14950.99       164.3633       20785.91
       13539.38      -16413.00      -25826.26      -10203.34       1607.705
       6262.010       6827.480       5408.518       5566.127      -6713.840
      -17856.77      -414.7891       18674.13       6189.166      -14511.81
      -8315.404       10828.53       8943.861      -9176.913      -7810.367
       6257.268       6289.797       6835.713       6614.490      -1300.691
       4413.695       9005.348      -5576.660      -8981.764       348.4922
       3911.694       1103.441      -9212.037      -7429.456       5498.125
       1470.748      -9222.253      -1526.691       11420.89       11976.78
       8017.004       1099.730      -4420.974      -2756.387      -4487.994
      -8246.756      -7918.021      -1776.398       8236.055       5865.479
       3701.594       17348.21       16529.75      -579.6445      -8698.410
      -12552.42      -13771.59      -9145.223      -8874.660      -10798.71
      -3026.484       10301.75       14929.97       10859.53       4709.604
      -3060.565      -3340.653       1299.955      -2483.574      -5219.497
       600.7734       5742.007       4687.954      -1041.117      -7872.035
      -10213.80      -4985.979       1080.624       880.3994      -1138.722
       2076.166       6306.167       3978.137      -1830.281      -3151.940
       2380.939       8800.295       7651.975       1868.541       2373.055
       6438.963       3168.850      -2819.364      -3356.377      -2850.455
      -5870.262      -9265.521      -7255.199      -2055.737       739.3527
       663.8042      -1846.467      -1652.434       2448.467       3272.720
       3895.607       6512.681       4268.789       592.5898      -1354.688
      -3769.997      -1061.423       4841.929       5644.626       4982.696
       3422.260      -754.8691      -2035.854      -5216.312      -10042.54
      -7321.980      -4944.846      -4338.455       3688.609       10371.20
       7466.057       1895.367      -224.1875       584.7988      -210.5664
      -3035.627      -1480.738       2798.324       2913.922       416.2485
      -1528.961       148.0869       2820.812       1540.606       1791.124
       1419.340      -737.9810       608.2329       913.5713      -682.0029
      -746.9502      -1588.816      -7032.262      -9974.012      -3452.286
       4313.686       6373.298       4190.912       1960.565       3221.530
       4728.252       1721.385      -4296.053      -8045.572      -6079.956
      -1843.487      -184.8667      -2373.648      -3401.372       824.1147
       1801.909      -574.0825       2761.968       2002.902      -8834.746
      -13998.18      -7020.146      -810.2510      -2513.192      -2438.377
       3022.378       5412.099       3154.470       2083.793       3026.128
       1357.703      -2010.996      -774.3281       8207.656       19596.86
       20279.54       7389.047      -3281.135      -2853.570      -1239.965
      -7277.930      -13401.75      -8939.041      -3723.148      -8333.332
      -9197.534      -76.15527       4079.422       1981.811       3646.875
       3999.761      -2461.408      -6190.596      -3377.177       542.3164
       5449.982       6423.248       2529.672       4252.422       8862.998
       4464.887      -3843.892      -2592.012       1683.924      -1938.760
      -7535.487      -6393.325       753.4771       2615.981      -3463.586
      -3755.340       2320.526       2860.577       331.6792       892.3594
       2406.429      -197.9707      -5775.885      -4573.367       3303.893
       7497.008       3860.624       403.9814       3552.198       2942.826
      -6241.363      -10048.65      -4152.799       886.7798       1847.942
       1776.692       2728.111       4282.658       4049.626       2214.408
      -2489.725      -6389.695      -5246.449      -3622.453      -1639.506
       1551.010       2852.635       3652.648       6305.635       6887.107
       2007.504      -4968.578      -9386.059      -7817.244      -3886.663
      -3033.768      -261.9189       3644.866       1555.095      -1826.474
       516.9160       3444.051       1433.453      -684.0493       930.9629
       5951.035       10522.65       9104.733       3246.060      -470.6318
      -1118.547      -3660.732      -7572.412      -9187.547      -9862.805
      -10236.84      -7846.378      -379.7910       9062.543       10760.48
       6268.664       4850.592       5305.566       2893.729       705.9717
       1721.088       2114.851       23.67969      -1742.680      -1546.521
      -3392.259      -5067.484      -815.9082       5057.166       7384.235
       4744.813       233.2654      -1113.850      -1810.031      -3674.409
      -2278.804       459.6597       780.7816       208.3898       149.5039
      -903.4160      -4123.398      -6376.604      -4662.648      -1033.530
       2293.230       4212.504       2668.219       1604.029       2818.502
       390.9697      -2463.610      -1920.984      -1707.137      -1228.757
       131.3960       1420.742       2135.326       1271.846       158.7319
       204.5343       618.7832      -510.0771      -4345.410      -5317.486
      -2091.018      -2674.167      -2730.134       1864.993       3742.271
       2164.158       1976.994       4440.193       5308.727       2859.887
