     0.02500000      -58660.97       34141.59      -12345.00      -12345.00
      -30.00000       228.1000      -27.44000      -12345.00      -12345.00
       0.000000       20.37000      -12345.00      -12345.00      -12345.00
      -12345.00      -12345.00      -12345.00      -12345.00      -12345.00
      -12345.00      -12345.00      -12345.00      -12345.00      -12345.00
      -12345.00      -12345.00      -12345.00      -12345.00      -12345.00
      -12345.00      -31.59730      -64.54960       1192.000       0.000000
      -31.23600      -65.83800       0.000000       167100.0       0.000000
      -12345.00      -12345.00      -12345.00      -12345.00      -12345.00
      -12345.00      -12345.00      -12345.00      -12345.00      -12345.00
       128.8920       108.4407       287.7724       1.158902      -12345.00
      -12345.00     0.04378615       0.000000       0.000000      -12345.00
      -12345.00      -12345.00      -12345.00      -12345.00      -12345.00
      -12345.00      -12345.00      -12345.00      -12345.00      -12345.00
      2008       318        11        12        57
       840         6    -12345    -12345     10325
    -12345    -12345    -12345    -12345    -12345
         1         7        13    -12345    -12345
    -12345    -12345    -12345    -12345    -12345
    -12345    -12345    -12345    -12345    -12345
    -12345    -12345    -12345    -12345    -12345
         1         1         1         1         1
ESP08   -12345          
01      -12345  -12345  
-12345  -12345  -12345  
-12345  -12345  -12345  
-12345  -12345  -12345  
-12345  -12345  -12345  
-12345  -12345  BHZ     
XH      -12345  -12345  
[...]
       201.8244       208.7700       200.9122       231.7440       235.1263
       230.2394       252.9912       261.6237       234.1647       267.7800
       287.4304       265.6771       273.6627       312.2297       282.4722
       288.3319       320.5234       314.3086       295.4659       318.2853
       320.5226       322.0463       326.5110       339.3716       331.2886
       340.9854       343.1532       344.3525       334.3462       341.8787
       345.9884       350.3287       346.3549       354.6687       361.5472
       367.9009       348.2448       358.1154       362.8813       350.8328
       346.4991       373.3643       362.0166       342.8796       352.1973
       363.3481       337.8777       342.6448       337.6527       332.7982
       327.1172       328.9338       320.0039       313.6454       315.4197
       323.2007       293.7743       290.4523       296.0507       286.2477
       258.4510       279.9109       281.5677       250.6295       249.2006
       267.7806       237.8213       231.2355       228.9715       213.4009
       199.8917       204.0708       189.6589       187.8699       170.0159
       169.0560       170.1151       156.8334       124.6826       123.0978
       115.7086       103.2565       91.97723       80.53137       67.86290
       70.52293       46.37548       38.05292       29.68382       12.40461
      -11.50994      -8.556183      -15.41202      -38.30675      -59.88412
      -61.02945      -79.42117      -95.38498      -115.6590      -118.4798
      -134.1294      -153.1450      -164.8188      -169.4991      -200.2627
      -209.4661      -199.7494      -207.8790      -236.2744      -236.2841
      -243.4291      -248.7102      -257.9729      -261.7864      -273.0322
      -279.2425      -282.6429      -282.2950      -297.6829      -291.0127
      -305.8972      -298.0199      -287.4636      -293.3893      -293.1772
      -298.5402      -308.0283      -275.0546      -289.2896      -302.1473
      -289.4081      -275.9587      -274.3088      -275.6998      -268.7263
      -236.1952      -247.9020      -244.1520      -222.6249      -226.6096
      -235.6278      -216.5698      -213.1277      -200.4959      -203.2580
      -193.0981      -182.4137      -183.5720      -185.2391      -167.1414
      -168.2259      -162.9275      -160.3162      -151.6129      -146.5635
      -135.3439      -130.3030      -119.4744      -122.8672      -125.9181
      -120.7769      -108.8134      -113.2249      -112.7479      -117.4741
      -106.6657      -98.91611      -90.24878      -89.91528      -86.69539
      -84.37985      -82.57288      -88.45703      -86.96254      -86.78592
      -79.58150      -83.98206      -80.20261      -81.49411      -65.33717
      -67.28513      -81.23456      -67.59497      -70.10655      -83.25322
      -70.73703      -89.97104      -84.04990      -73.67355      -89.56281
      -99.27771      -96.52438      -108.8332      -118.2563      -119.2523
      -112.4385      -131.6305      -143.2496      -139.1364      -123.0701
      -143.7673      -165.7126      -164.9767      -170.6308      -194.8583
      -198.6251      -206.3582      -211.0849      -232.3290      -234.7557
      -235.8367      -245.3669      -255.9022      -258.7441      -267.3628
      -272.5463      -281.0961      -284.4907      -303.4086      -296.5593
      -300.6592      -305.6016      -316.7357      -320.3090      -324.0330
      -332.5159      -339.7593      -336.7188      -346.1844      -340.0797
      -331.1460      -338.2614      -357.2266      -336.0454      -339.9255
      -349.3734      -345.4279      -351.9137      -348.8545      -344.4988
      -346.8182      -322.3987      -350.3542      -349.2649      -316.4111
      -320.5995      -340.2903      -318.3349      -312.6995      -311.6074
      -305.1786      -302.9705      -291.8922      -288.5901      -287.0024
      -263.2542      -281.2338      -274.1226      -243.8547      -243.7457
      -246.5009      -228.8062      -232.9833      -195.1090      -210.0436
      -211.8982      -180.7085      -197.5470      -177.7739      -167.6644
      -164.2697      -145.4989      -148.2246      -113.4629      -99.43951
      -101.0479      -90.26147      -69.74460      -59.21304      -60.06573
      -64.26202      -44.20517      -27.32018      -10.71397      -19.24497
      -4.247025       17.87616       47.72783       50.83675       30.44373
       67.66566       73.43872       72.32480       90.35986       81.00699
       112.8405       108.6339       131.2552       148.4556       136.9344
       156.4716       170.7274       179.4248       166.0574       170.8865
       202.9448       203.6448       218.3287       220.6423       229.6413
       238.6358       247.0695       239.3973       239.8573       259.2452
       265.9445       266.9382       281.9561       282.7537       292.5090
       287.5624       290.5050       297.4858       292.6541       279.8893
       291.0565       299.3813       293.1329       294.3098       308.4775
       305.3998       296.0036       285.0197       302.3416       307.0248
       303.8486       303.0022       306.6429       309.2201       299.9564
       296.2499       299.7718       287.1464       289.5821       283.7736
       287.4076       288.5742       282.0710       283.7709       289.3387
       277.8170       277.0383       289.2001       283.4600       276.0930
       280.1473       271.9415       278.6440       269.4502       262.4845
       267.3943       262.2496       249.2637       261.9507       276.1748
       258.7173       245.1155       264.5540       264.4786       253.1420
       250.8301       260.7623       261.3982       254.1864       245.8288
       259.1032       268.0362       252.3177       250.7565       261.8316
       258.0114       260.9537       253.9327       259.8687       269.2457
       265.0385       274.7898       285.6096       276.9070       269.4058
       271.6512       286.3121       283.4329       278.2866       279.5457
       291.7078       293.2836       287.2069       296.2656       293.5695
       273.9536       274.1867       281.6370       276.8381       271.3101
       278.1709       274.7030       274.4879       261.2670       255.1295
       256.2907       243.1198       234.7398       233.4003       229.7025
       220.3451       211.6057       213.1477       207.4257       204.4901
       192.5636       189.8743       180.4352       167.0536       168.2244
       157.8060       138.7832       141.0600       142.3697       135.5004
       128.5259       116.0456       110.0952       116.7263       110.2568
       95.41495       87.23970       83.07404       79.70329       74.27634
       67.15994       57.71701       44.70297       47.40971       35.76954
       30.66962       37.85159       18.87371       10.10023       3.118464
      -2.712923      -1.903267      -23.60133      -38.92493      -43.54964
      -46.07352      -52.37976      -68.25299      -70.17966      -73.42316
      -89.18958      -97.25970      -103.6352      -106.3326      -119.1012
      -129.0692      -127.8059      -143.1201      -158.6335      -151.2203
      -145.0995      -161.3344      -168.5436      -181.2546      -191.8707
      -175.4556      -193.6279      -197.6182      -191.3728      -203.8719
      -200.2661      -216.7072      -222.7479      -208.3242      -218.1018
      -224.7209      -228.9944      -229.5591      -225.4154      -232.0300
      -225.6150      -215.3446      -220.8627      -221.8051      -222.9434
      -224.5459      -221.9027      -229.9449      -224.4143      -203.8137
      -211.9528      -214.1118      -201.3064      -196.0221      -197.1163
      -194.3705      -180.1886      -177.6344      -178.0768      -163.2328
      -155.4391      -156.9547      -153.0805      -144.4833      -146.7171
      -143.8076      -131.7360      -122.9352      -113.0405      -105.1191
      -106.7137      -95.98291      -87.32306      -100.1116      -95.41269
      -82.81216      -83.41266      -74.23560      -62.25259      -66.74599
      -68.86833      -63.98993      -56.44385      -55.61081      -60.99828
      -63.43797      -55.19727      -47.79276      -51.80872      -44.83189
      -38.24786      -45.04863      -42.82370      -47.35692      -46.45955
      -35.72398      -40.40256      -38.17455      -33.37350      -41.81374
      -37.40961      -27.20648      -26.86887      -37.79011      -37.80132
      -31.77504      -26.37946      -22.61614      -32.42329      -35.58159
      -30.18379      -40.12648      -44.23653      -44.57004      -47.58295
      -39.36160      -21.08885      -28.81704      -39.61779      -28.64897
      -26.52205      -30.95844      -39.49310      -50.33090      -45.64545
      -44.49475      -44.40195      -44.71338      -43.04976      -37.81143
      -30.24490      -40.39218      -50.71117      -48.40913      -44.40689
      -43.80443      -38.15994      -48.55573      -52.65790      -46.24493
      -49.30055      -57.04800      -54.01457      -59.75952      -55.27299
      -58.53342      -70.98964      -69.18741      -61.94189      -76.36044
      -89.19897      -89.76764      -85.92740      -89.86523      -91.41071
      -93.03864      -97.34680      -106.4170      -104.1974      -106.9075
      -112.5540      -126.6962      -127.2231      -124.1743      -131.7496
      -139.1918      -138.9554      -138.5397      -136.6242      -140.2509
      -154.3947      -163.6930      -159.3586      -167.1825      -171.1381
      -185.5465      -182.6268      -173.2434      -182.4836      -187.9629
      -186.2908      -195.7349      -203.4318      -204.5893      -204.3858
      -210.1593      -204.0168      -200.3837      -198.8085      -190.6459
      -193.9601      -200.9382      -200.4208      -201.7916      -190.4712
      -183.7847      -184.4920      -173.9286      -154.7178      -160.2217
      -157.4091      -148.2280      -146.3747      -136.1425      -127.6619
      -123.4807      -111.4055      -101.9167      -91.43890      -87.95804
      -85.40544      -82.94963      -65.98648      -58.80248      -47.20809
      -21.08874      -19.15101      -11.96116       8.322533      0.3177195
      0.5621567       13.44622       32.88673       45.52716       47.90599
       52.36758       71.69897       88.80719       88.51715       85.19141
       104.2097       118.1237       121.7638       126.8801       144.6166
       153.0680       157.9145       165.5544       184.1212       192.1053
       185.8165       192.4529       212.2565       218.9609       228.3655
       237.7805       250.7886       256.6357       258.5115       261.8245
       277.3324       285.4597       285.9791       295.1390       310.2765
       312.4944       310.2384       303.4476       309.3823       308.3733
       307.7698       319.9504       334.2224       342.7233       348.4489
       341.2496       341.1713       347.0576       354.4490       343.6639
       348.0444       359.5000       355.3569       352.8081       366.1223
       363.2523       361.0310       360.6710       357.7263       356.0061
       365.1162       358.9094       363.5364       364.0079       363.9312
       370.6726       375.1780       359.8220       362.9198       366.0024
       360.2805       362.2863       368.8428       362.2493       373.2754
       368.6498       364.1804       358.5201       365.3760       372.2922
       372.9951       370.8193       371.2186       368.6031       365.7001
       355.2822       359.9556       355.6665       364.9373       359.2440
       350.8267       362.3245       375.0155       358.5095       353.5963
       358.8203       351.0907       342.5797       346.7679       333.4581
       331.0745       332.7119       333.4603       335.4199       332.4290
       313.1210       304.6748       300.2794       293.7582       285.6810
       283.3341       272.2811       273.1498       258.5663       241.7071
       235.0071       225.2733       210.5222       215.0332       204.3225
       201.2750       193.6396       181.0790       165.4453       154.2345
       144.3655       137.5942       124.4911       117.9155       106.9275
       100.5498       86.27628       72.68665       63.47174       55.73500
       47.67447       45.60446       35.06142       28.46468       18.92787
       13.40614       13.15718       3.652466      -23.16709      -25.20461
      -25.96266      -40.48065      -45.22293      -42.90320      -59.23160
      -71.86131      -73.09100      -85.74136      -102.9969      -104.4288
      -118.4715      -120.3127      -123.5829      -136.1691      -140.4982
      -137.4254      -136.7975      -160.0001      -188.1922      -169.6922
      -147.2603      -222.1864      -246.2523      -144.5789      -55.79590
      -914.2812      -3133.906      -13953.67      -42638.92      -58660.97
      -35807.20      -7067.530      -1592.871      -12197.01      -10342.96
       15474.62       33480.71       21439.18       4613.867       12889.62
       25031.10       14422.79      -2601.109      -167.4336       20493.81
       21324.09      -2335.203      -13681.33      -2691.330       12092.23
       8180.035      -4226.271      -1559.543       6801.682       9603.730
       3553.102      -14979.95      -16112.92      -1605.412      -3231.247
      -9383.484       6231.305       34141.59       20289.22      -16186.22
      -13875.25       11059.57       9614.367      -13185.07      -11783.44
      -5543.510      -9489.033       2421.759       823.2148      -15902.46
      -3779.500       13291.04       9367.400       6834.337       7133.404
       781.5039      -3847.738      -932.5691       1776.295      -682.1245
      -852.2041       2193.758       5221.242       3495.637      -1270.382
      -2223.670      -3356.310      -3669.936      -4270.350      -7008.969
      -3547.045       844.1683       577.6748       48.11133      -5523.842
      -6450.479       2788.075       3585.430      -1047.446       1909.027
       5623.751       2175.076      -3617.110      -4330.030       1588.928
       9071.380       6299.160      -2887.669      -4703.225      -5260.771
      -9359.741      -6306.276       1905.393       3559.889       4201.546
       5537.951       2810.392       2227.064       641.7891      -4054.844
      -4429.726      -623.9724       1150.057      -2443.031      -6030.256
      -5659.942      -3226.128      -1974.251      -2222.368      -855.6641
       2518.654       5017.075       4076.663       2512.917       771.7162
      -316.8730       483.4258       404.4707       2810.544       2298.809
      -4182.023      -7699.527      -3281.861       5654.383       6569.811
       3503.531       4607.393       2126.332      -3240.867      -4973.972
      -3816.502      -3218.632      -3411.891      -2575.328      -2452.200
      -4228.517      -278.3730       5846.641       4297.891       4637.789
       7960.426       5297.571      -188.7012      -3135.915      -2621.980
      -3009.916      -3885.055      -2065.169      -88.42773      -1430.965
      -5401.524      -5722.097      -2160.074       852.5918       2980.618
       4338.836       4887.626       2683.263      -336.6650       1682.905
       5070.743       6032.334       2312.446      -4752.139      -5166.026
      -165.3901       2794.207       1879.256      -1002.897      -2737.248
      -2580.360      -682.0350      -149.9668       601.0098       4366.979
       6032.041       2827.143      -3988.910      -6778.249      -2064.347
       1280.774       370.1442       34.72864       558.1636       329.1850
       123.3137       710.7847      -9.736572      -800.0137       2820.864
       5188.010       5535.020       11374.71       13819.34       6923.879
       1780.709       1866.726       1132.801      -3205.699      -6603.359
      -9562.055      -13033.26      -10935.68      -4566.256       2582.688
       3793.919      -797.7583      -101.9961       4609.064       8649.777
       9684.283       7678.641       4010.453      -308.4727       1397.151
       1702.462      -4177.340      -5360.542      -2603.673      -838.6810
      -146.1887      -329.4512      -1441.606      -2471.966      -4085.030
      -4489.647      -741.8193       1738.520       1495.987       868.5635
       943.8130       2151.819       1484.222      -828.7329      -418.3838
       2650.276       3053.593      -210.7954      -3009.355      -1231.801
       2350.000       1907.979       2505.533       4546.566       435.2153
      -2177.518       1104.593       2076.083       262.6841      -1862.602
      -1563.847      -811.3911      -1677.421       741.6694       3352.601
       710.3398      -3663.889      -1927.379       3177.057       3190.492
       2524.129       3924.110       2866.922       1280.265      -414.0840
      -3767.736      -5229.048      -1782.416       3371.305       3232.397
      -101.4819      -1823.562      -2458.972      -997.0807       461.7950
       46.13177      -105.3550       415.5002      -213.1597      -1595.654
      -672.0537       1192.490       2202.979       2547.865       1192.394
       126.9509       741.6869       741.6318      -1860.605      -4413.588
      -3510.548      -2071.784      -543.8839       973.7255      -158.1740
      -892.5596       1003.464       2887.664       2644.160       1538.977
       909.7209       677.5038       1143.174      -494.1406      -6328.004
      -8788.995      -3514.813       571.9329       283.7784      -180.5023
      -9.751465       938.5601       1485.479       2035.293       3299.402
       3523.216       859.0427      -1404.246      -252.3115       1568.503
       1516.778      -1658.857      -3560.168      -2945.943      -2236.052
      -1451.688       1090.604       6440.761       5201.407      -950.5188
      -1442.941       421.9735       679.7109      -1626.947      -3967.635
      -5281.797      -6484.808      -3855.720       286.8647       1487.001
       1448.987       2609.469       2732.154      -863.4766      -3695.899
      -3197.419      -3007.039      -1554.138       936.1235       2037.442
       3463.659       3869.479       1333.855      -1338.487      -1003.159
      -626.4873      -2308.422      -2303.553      -348.3330      -678.2715
      -4826.908      -7238.038      -3644.686       1362.002       2455.051
