     0.02500000      -60757.61       67619.15      -12345.00      -12345.00
      -30.01999       228.1550      -27.56000      -12345.00      -12345.00
       0.000000       20.34000      -12345.00      -12345.00      -12345.00
      -12345.00      -12345.00      -12345.00      -12345.00      -12345.00
      -12345.00      -12345.00      -12345.00      -12345.00      -12345.00
      -12345.00      -12345.00      -12345.00      -12345.00      -12345.00
      -12345.00      -32.15180      -64.99920       1093.000       0.000000
      -31.23600      -65.83800       0.000000       167100.0       0.000000
      -12345.00      -12345.00      -12345.00      -12345.00      -12345.00
      -12345.00      -12345.00      -12345.00      -12345.00      -12345.00
       128.9771       142.1528       321.7143       1.159680      -12345.00
      -12345.00      0.1275196       90.00000       90.00000      -12345.00
      -12345.00      -12345.00      -12345.00      -12345.00      -12345.00
      -12345.00      -12345.00      -12345.00      -12345.00      -12345.00
      2008       318        11        12        57
       960         6    -12345    -12345     10328
    -12345    -12345    -12345    -12345    -12345
         1         7        13    -12345    -12345
    -12345    -12345    -12345    -12345    -12345
    -12345    -12345    -12345    -12345    -12345
    -12345    -12345    -12345    -12345    -12345
         1         1         1         1         1
ESP10   -12345          
01      -12345  -12345  
-12345  -12345  -12345  
-12345  -12345  -12345  
-12345  -12345  -12345  
-12345  -12345  -12345  
-12345  -12345  BHE     
XH      -12345  -12345  
[...]
      -129.6833      -151.2724      -133.2344      -131.4450      -126.9645
      -136.7880      -121.1555      -126.6525      -111.8148      -124.0815
      -113.6313      -123.2058      -110.2002      -107.6426      -88.39749
      -96.37546      -78.98697      -76.90335      -54.36623      -56.74492
      -45.19535      -47.43762      -30.83212      -28.36860      -5.440834
      -12.72622       6.335663       13.46189       30.37543       24.52454
       66.00195       81.58301       91.92685       87.50928       113.9668
       116.5438       143.0889       133.9742       148.3202       169.3376
       189.9153       177.1813       207.6620       203.7234       220.6624
       225.6000       228.3159       229.0257       259.9781       250.7684
       263.2390       253.4929       263.9021       267.7100       270.0182
       253.2639       277.4310       266.4988       275.8851       275.3242
       287.8962       286.8490       308.2198       307.8518       309.1578
       298.0266       316.5831       297.0729       304.6144       306.2032
       308.0636       297.9933       320.6799       304.3978       315.8785
       313.0457       316.9136       307.6437       324.2727       301.0203
       295.2227       300.5844       298.9483       266.6295       284.3168
       284.0807       285.4459       271.6827       263.1818       251.9462
       275.4440       249.7784       252.3202       243.3454       227.3037
       216.6027       238.9874       222.3792       227.2952       224.3770
       229.8939       222.5366       228.5399       213.3885       202.8861
       191.7275       220.1263       197.6921       206.6910       207.5545
       209.9749       208.2747       187.0222       193.6830       228.7621
       173.0729       176.4628       189.4550       191.4641       184.2216
       180.0236       151.1365       149.5516       135.4066       136.1254
       114.8260       104.8321       108.1585       114.6942       85.13007
       91.69302       82.74940       55.91920       37.26439       60.41134
       27.02585       2.497585       5.521759       15.70989      -8.802341
       1.616135      -26.16904      -29.83690      -23.84796      -33.70041
      -51.20438      -44.37106      -70.90720      -82.43683      -81.36395
      -85.18530      -112.0109      -93.62537      -126.4329      -130.5428
      -114.7120      -119.5287      -146.1258      -135.6421      -142.1826
      -137.3206      -158.9001      -157.6171      -147.8823      -138.4739
      -170.9400      -165.6689      -164.4899      -157.7778      -151.3820
      -142.8659      -165.4675      -157.3674      -162.4337      -169.1738
      -176.5491      -142.7278      -142.4097      -148.1035      -158.9766
      -149.8288      -166.8542      -142.2006      -145.7298      -157.2847
      -140.9707      -127.4211      -157.9469      -142.6718      -153.5193
      -158.0179      -157.7764      -135.6570      -141.4954      -154.1801
      -161.4960      -148.1993      -157.9940      -148.2023      -172.6927
      -174.1462      -166.7668      -178.7103      -199.6555      -172.2600
      -186.6609      -211.5247      -208.9315      -195.3571      -221.5012
      -210.9038      -215.2959      -221.8435      -234.6809      -235.7743
      -235.0437      -239.0293      -263.7119      -239.1797      -245.1886
      -235.6625      -236.7534      -232.5042      -213.9930      -219.6371
      -249.9016      -226.7320      -237.4428      -246.9382      -249.1724
      -245.9089      -247.9944      -236.4296      -240.9756      -236.6826
      -240.9125      -232.6108      -262.1479      -249.2181      -235.1821
      -265.2806      -282.1517      -262.1820      -279.6489      -281.2216
      -273.4017      -251.2421      -250.6237      -234.0309      -237.4833
      -252.0476      -253.9803      -230.4285      -245.3223      -258.3853
      -243.7046      -206.5284      -228.0677      -235.6315      -213.3165
      -195.6752      -196.4152      -182.6108      -188.2332      -182.0824
      -179.3726      -168.6344      -168.5334      -162.6653      -166.7257
      -137.1510      -111.7349      -96.44559      -96.26268      -75.27051
      -78.78159      -62.99534      -34.75922      -39.22219      -49.67521
      -15.41104      -3.634109       14.33722       23.47162       41.14514
       50.37256       60.34085       70.77704       90.23395       89.34601
       103.9214       109.1143       111.1155       107.0706       136.4219
       140.2784       135.9471       150.0667       179.9662       189.0865
       186.9862       185.5249       206.7046       198.4025       198.6826
       206.3793       220.3859       219.7343       223.8457       220.1477
       229.2046       232.4113       242.8948       238.3036       245.8969
       247.4501       234.5770       217.5623       228.6839       223.5862
       220.9491       224.8373       231.8329       221.3546       224.9564
       212.2541       194.7300       191.4480       198.1407       170.8384
       165.2726       169.0832       156.5779       129.4835       133.3862
       128.6254       113.2822       97.27985       95.21106       92.88953
       73.62228       41.61703       25.40707       23.29913       34.21191
       7.175874     0.07602310      -13.32873      -32.52022      -29.57600
      -26.43988      -47.54631      -48.53683      -44.42419      -49.89578
      -72.98102      -86.06052      -85.86417      -84.59180      -106.0746
      -106.2756      -101.7263      -113.4263      -116.1667      -112.9263
      -136.4810      -137.8058      -139.4921      -136.0367      -144.3843
      -153.8641      -161.3276      -174.2562      -175.6068      -166.1097
      -182.5914      -181.7296      -181.4996      -176.7669      -184.8323
      -193.7951      -189.8460      -189.4191      -192.4013      -168.3692
      -160.8666      -164.2954      -159.2834      -158.5837      -151.9524
      -127.8716      -119.8086      -120.9719      -128.6578      -97.50299
      -85.42908      -92.78833      -72.10710      -48.88342      -55.50583
      -57.26291      -24.04886      -8.010658      -34.80294      -16.73603
      -8.628622      -11.84831       26.78941       33.12971       10.33011
       32.40033       62.40773       63.34213       58.02844       88.33975
       117.1553       107.0406       110.4722       124.8897       104.0577
       116.5965       152.7087       145.8086       161.4360       199.3557
       193.0392       174.6045       198.0598       226.2385       199.6326
       198.5992       226.2631       221.6351       242.7044       259.1581
       255.4401       267.7114       277.3898       277.2444       272.7623
       271.2315       283.2641       287.1935       281.2574       311.1328
       310.4014       299.0782       318.6819       333.0972       343.6140
       306.5179       302.5795       328.0323       317.4683       331.8643
       331.2096       317.9445       339.4161       345.7815       331.2047
       311.3409       303.4903       322.2010       325.4840       299.6189
       289.7780       306.9193       303.5704       261.1357       256.3988
       279.6128       271.9395       255.1838       232.6736       224.2634
       248.2025       226.4401       212.9569       218.7678       211.6067
       214.5845       228.6519       213.3561       192.2062       210.6591
       211.2123       187.3374       192.4307       197.1436       224.3283
       226.2953       204.3942       192.9667       204.1558       201.7325
       177.3708       182.5009       197.9081       184.1265       194.0622
       189.4978       171.9707       162.4601       175.9457       179.7070
       155.5047       138.8596       150.4644       138.1753       131.5705
       122.5337       123.5894       126.7281       116.2212       95.20804
       89.39203       88.28473       76.68085       57.45341       44.06408
       14.63747       30.35976       33.95053       3.913441      -20.28970
      -11.14393      -20.14987      -63.84079      -93.27637      -75.33360
      -73.41736      -105.3186      -106.8203      -72.76859      -112.2570
      -138.3755      -139.7435      -150.9608      -174.5482      -173.3655
      -182.8726      -210.0439      -215.7485      -197.8279      -200.0930
      -210.0737      -222.0828      -220.9103      -221.5630      -213.8040
      -221.0448      -241.9232      -258.6557      -229.2267      -229.6490
      -249.1564      -250.4377      -228.2563      -219.9037      -233.1149
      -246.2935      -234.5182      -241.1056      -233.6665      -244.6727
      -255.6475      -242.9573      -241.4468      -263.4850      -257.1932
      -268.6647      -268.3967      -263.2493      -276.0942      -270.4408
      -236.2217      -272.8514      -281.6459      -262.2247      -266.6676
      -277.4492      -263.1903      -260.0352      -269.2738      -275.0916
      -260.9830      -275.3625      -263.8287      -260.7375      -264.8464
      -267.5176      -243.9398      -244.3383      -240.1812      -221.6028
      -230.2295      -248.9858      -224.9561      -232.5659      -229.1154
      -238.0542      -228.6746      -223.6652      -214.9252      -213.6107
      -231.3652      -224.4003      -201.8188      -198.0619      -197.8733
      -217.8851      -182.4542      -208.3718      -249.0688      -201.8002
      -180.1276      -230.8823      -213.7318      -214.8538      -232.2789
      -221.2422      -193.3802      -259.5388      -243.6944      -177.6152
      -212.2396      -251.3227      -229.5345      -237.4329      -228.4857
      -221.1140      -214.6482      -222.1822      -229.7831      -223.5630
      -196.5216      -210.3311      -201.3712      -204.4977      -205.1041
      -194.6522      -178.7189      -196.3176      -188.0513      -176.3120
      -153.2843      -167.4614      -173.7116      -171.5186      -149.0890
      -172.7756      -153.9301      -134.6639      -151.1606      -161.9636
      -145.1169      -135.4344      -109.1924      -132.6162      -130.7528
      -103.9120      -96.91940      -115.6760      -84.13409      -102.3170
      -86.69974      -92.21625      -83.64323      -62.70480      -45.75774
      -19.86062      -3.784903      -18.61692       6.697048      -9.899720
      -10.39198       8.778595       36.15252       19.67786       43.58334
       72.16678       70.63577       79.37939       120.5248       111.3840
       129.4072       144.6429       174.9718       161.9822       176.8137
       187.6483       195.7512       216.7991       239.6456       240.5851
       279.9569       281.5195       295.2092       311.8101       334.2585
       324.0071       346.8108       358.8665       367.2469       351.8308
       377.5370       385.9561       392.8478       396.4443       415.1428
       418.5375       433.5298       426.4812       449.1351       426.3385
       427.1432       416.1902       419.1643       410.8435       409.4865
       401.4390       395.8988       379.7266       401.4441       374.6344
       373.4535       382.0221       382.3896       363.9777       377.6931
       348.8225       326.3444       319.1409       340.8536       314.7543
       313.7759       301.3914       295.1846       272.4055       262.9637
       238.4126       246.5477       235.4685       219.0214       191.8184
       210.9528       198.9253       186.3537       152.0359       158.2554
       139.9978       128.3954       121.7541       110.1252       85.46991
       101.6043       59.39767       63.83749       69.25067       44.86117
       6.161285       34.43000       27.52945       11.64815      -9.412987
      -3.700043      -31.36668      -43.64145      -56.74300      -47.93385
      -72.39044      -64.99118      -77.13689      -74.61838      -101.8449
      -99.96234      -115.5005      -118.5668      -129.2690      -116.4807
      -148.5583      -117.7792      -108.7322      -135.3379      -158.8648
      -135.9474      -140.0455      -136.1962      -148.7643      -143.5798
      -151.3893      -122.7000      -128.1098      -124.2770      -131.2518
      -97.35785      -111.4651      -112.1787      -118.0305      -94.65924
      -91.32208      -63.12485      -75.58817      -53.33238      -51.63342
      -55.40739      -47.17440       1.865982      -27.11510      -50.65907
      -7.152374       106.9963       65.50562      -94.63574      -1872.406
      -9589.184      -20491.42      -17954.95       2638.910       15909.16
       9708.148       6364.314       11177.91       9492.348       418.1406
      -10251.63      -19348.56      -23941.85      -16926.85       1879.141
       20573.12       31819.55       25212.78      -3749.375      -29121.38
      -39186.89      -40223.09      -13732.65       30641.86       60964.14
       67619.15       52191.50       22779.82      -16134.98      -49310.58
      -60757.61      -52201.29      -18304.73       21553.97       30748.33
       20691.98       9518.566       1338.438       6036.020       16055.70
       17064.45       5953.734      -10581.95      -21989.71      -24690.30
      -23944.30      -18217.04      -843.9453       21220.32       33412.48
       29317.06       16746.11       2780.312      -18339.13      -36060.38
      -29705.96      -5758.805       12095.83       15489.66       17192.93
       22264.27       17515.42      -443.7578      -19860.36      -27563.31
      -23543.18      -21102.53      -18933.00      -6475.395       11412.93
       29370.75       42782.19       35031.58       6545.559      -15127.29
      -23609.16      -30196.36      -26941.09      -9731.062       11497.16
       27642.87       22412.61      -8399.406      -35347.91      -40152.62
      -34888.77      -15691.00       21116.11       54258.91       67321.56
       56135.39       27605.39       518.3125      -19426.16      -35964.20
      -39255.84      -25460.34      -8400.475       4108.371       12836.57
       13125.30       3923.084      -6223.641      -10566.66      -5791.865
       4519.125       7715.459      -1349.770      -7921.693      -4682.715
      -4807.375      -12146.70      -13259.33      -44.18359       13808.12
       12822.84       3281.340      -5111.070      -10783.70      -11318.87
      -8631.320      -7197.135      -1950.256       5395.422       8496.848
       11160.86       14465.90       12819.25       6236.002       1188.379
       3056.354       8541.408       9122.227       5563.238       2547.550
       1613.738      -220.2031      -9459.172      -20555.11      -22792.28
      -17182.86      -8288.008       4244.062       16317.69       20905.23
       16423.34       6014.398      -4559.797      -9717.100      -6217.201
       2228.893       3483.799      -6286.535      -15044.77      -12427.28
      -725.6133       10231.24       12870.97       9867.254       5504.928
      -3405.168      -12532.91      -10476.13      -2111.537       3957.561
       6282.606      -309.2734      -12765.88      -17064.50      -9865.781
       2666.355       15062.34       20786.18       18043.03       16745.20
       16938.60       5264.797      -8718.906      -8198.216      -2317.326
      -1457.284      -539.6343       1922.046      -675.3594      -8821.867
      -17226.02      -23273.79      -24157.87      -16252.65      -3905.305
       8370.328       17118.35       15784.81       9471.271       4714.941
      -888.3237      -2248.071      -668.2510      -4811.854      -5087.581
       199.4302      -1012.404      -547.5000       8885.793       11062.32
       6596.367       12420.23       15299.26       5723.023      -5781.121
      -11785.70      -6494.539      -4165.160      -12317.46      -10473.48
       392.0410       3991.188       8556.172       17702.31       14773.52
       2150.961      -8622.988      -15304.85      -16667.21      -14720.50
      -8019.013      -549.3213       2905.043       8886.742       12971.91
       7445.262       1339.142      -133.8574      -5421.377      -12190.99
      -8207.076       3530.965       10558.93       8131.250       2445.556
       1462.724       3484.674       4095.596       4738.703       5469.597
       3897.350       3964.774       4162.703      -929.3516      -9849.359
      -20082.16      -23939.44      -15106.53      -582.4336       8359.318
       9676.746       9126.176       8125.963       3187.594      -7531.953
      -18596.40      -18854.14      -5897.824       7443.375       11479.66
       10818.33       9823.035       5800.990       555.3701      -171.7412
       2318.449       3162.584       3753.109       6793.611       7456.663
       1517.029      -7395.891      -11812.55      -8054.028      -345.2656
       5205.521       6424.598       4597.412       2916.857       5264.395
       6534.478       865.1035      -5679.674      -5827.464       1102.574
       5868.951       201.6953      -10291.93      -15972.54      -14374.31
      -10342.36      -5261.617       1231.202       3635.652       2082.202
       1277.604      -269.7869      -1051.254       3380.836       10849.51
       14527.46       10574.47       3607.934      -1497.017      -3692.081
      -644.5195       4062.236       3699.469       106.9648      -3714.244
      -5572.540      -3136.878      -2902.186      -4559.180      -70.83789
       5928.279       7252.515       4787.927      -654.8477      -6693.033
      -10538.30      -9450.226      -1626.732       9071.906       14834.96
       11379.43       4996.729       367.0625      -5613.820      -9283.246
      -6996.613      -3330.659       578.8545       3820.471       2220.952
      -1691.188      -5462.766      -7859.395      -8093.910      -5574.725
       2886.107       9524.980       8068.717       5723.903       4034.082
      -1400.028      -5577.945      -3605.795      -577.5986       2647.997
       3753.913      -377.3818      -2908.264      -1984.440      -1734.760
      -2569.724      -1674.979       2588.229       5688.070       5902.828
       5731.578       3180.815      -2984.867      -10246.59      -13698.00
      -9408.413      -2366.908       1188.375       3862.756       9108.781
       13264.50       11397.99       7102.192       3334.972      -1884.592
      -6573.205      -7786.038      -4133.431      -42.35327      -45.51172
      -2935.967      -6885.373      -7376.601      -1419.227       4524.932
