     0.02500000      -109002.0       78600.88      -12345.00      -12345.00
      -30.01999       228.1550      -27.56000      -12345.00      -12345.00
       0.000000       20.34000      -12345.00      -12345.00      -12345.00
      -12345.00      -12345.00      -12345.00      -12345.00      -12345.00
      -12345.00      -12345.00      -12345.00      -12345.00      -12345.00
      -12345.00      -12345.00      -12345.00      -12345.00      -12345.00
      -12345.00      -32.15180      -64.99920       1093.000       0.000000
      -31.23600      -65.83800       0.000000       167100.0       0.000000
      -12345.00      -12345.00      -12345.00      -12345.00      -12345.00
      -12345.00      -12345.00      -12345.00      -12345.00      -12345.00
       128.9771       142.1528       321.7143       1.159680      -12345.00
      -12345.00    -0.06590218       0.000000       90.00000      -12345.00
      -12345.00      -12345.00      -12345.00      -12345.00      -12345.00
      -12345.00      -12345.00      -12345.00      -12345.00      -12345.00
      2008       318        11        12        57
       960         6    -12345    -12345     10328
    -12345    -12345    -12345    -12345    -12345
         1         7        13    -12345    -12345
    -12345    -12345    -12345    -12345    -12345
    -12345    -12345    -12345    -12345    -12345
    -12345    -12345    -12345    -12345    -12345
         1         1         1         1         1
ESP10   -12345          
01      -12345  -12345  
-12345  -12345  -12345  
-12345  -12345  -12345  
-12345  -12345  -12345  
-12345  -12345  -12345  
-12345  -12345  BHN     
XH      -12345  -12345  
[...]
      -236.1803      -209.6873      -235.6581      -198.0351      -206.8948
      -166.3394      -185.0546      -167.4485      -179.2645      -149.7302
      -178.0143      -144.0931      -164.0483      -126.9586      -143.1926
      -115.7272      -108.9693      -112.3939      -160.1697      -71.30104
      -113.0242      -4.789062       363.7480       2503.717       6642.484
       14956.43       27981.51       32112.16       15950.89      -10694.86
      -30831.62      -32486.50      -7748.250       19118.75       12676.84
      -2388.240      -5467.258      -17087.98      -25464.47      -16441.08
       2017.625       28264.20       40472.78       20521.85      -8628.195
      -24781.42      -32757.05      -36346.27      -26993.61      -365.0000
       35913.20       63591.05       49916.06      -5465.797      -44067.38
      -43329.35      -33018.82      -18323.62      -1353.421       3474.693
      -726.1953       3288.480       17179.22       25321.17       24321.27
       14977.94      -2610.129      -13195.38      -8721.277      -1244.658
      -5996.996      -18415.95      -14418.18       6014.250       18096.91
       20558.55       16473.35       4358.783      -5988.520      -14552.92
      -18618.30      -8063.906       7232.664       15228.07       17215.86
       9835.490      -4100.664      -12915.55      -15232.45      -9463.814
       5054.660       19514.25       20551.79       10655.40      -3279.922
      -23035.53      -36098.17      -29907.54      -11819.16       9899.078
       29458.75       32759.98       18992.32       5263.182      -5169.371
      -15400.13      -16463.53      -8304.361      -2396.666       3857.754
       11783.52       15816.44       14858.67       1367.527      -18368.76
      -18215.16       975.0078       18659.50       22552.30       8578.742
      -16406.67      -32455.68      -26261.47      -7179.676       11260.37
       20958.88       14654.40      -107.3867      -6884.634      -1514.453
       6642.340       10071.41       5591.401      -5340.193      -10617.60
      -4995.547       7655.641       20752.84       17693.63      -4084.461
      -23103.41      -21715.55      -6075.055       10036.90       16163.42
       10628.18       1042.010      -7550.336      -10845.85      -6692.977
       1917.203       10515.38       12655.36       7794.943       1966.708
       385.9316      -836.1016      -6073.312      -11110.68      -15293.49
      -17768.41      -11370.42       1882.270       15160.09       23363.80
       18553.92       1969.121      -10869.73      -13178.86      -10576.20
      -5107.334       3947.018       10177.54       11409.62       10023.84
       3185.016      -8325.984      -13937.88      -8044.782       1187.121
       3680.795      -132.7354      -3168.627       1861.359       10943.21
       12583.56       6055.423      -1899.012      -8136.584      -9736.271
      -5343.403       1989.773       7196.617       4758.900      -5442.391
      -11802.55      -7774.090      -957.4717       3020.541       4192.862
       1190.437      -1738.990      -3133.738      -5064.622      -4780.674
      -2603.875      -636.6816       4957.359       11625.43       12935.82
       11348.80       4256.992      -8725.955      -10505.97       2501.029
       11506.52       8519.109       6217.465       7378.791       7650.409
       4128.152      -7535.594      -15687.94      -9696.560      -3153.012
      -2995.359       4858.004       18532.95       16866.68      -1340.047
      -23508.59      -37647.19      -31331.93      -12285.95       4615.020
       19295.09       21940.05       9606.490      -5838.020      -16506.98
      -11410.93       4349.326       11159.05       8189.639       5424.344
       5909.492       6091.656       3252.987       2047.892       4936.921
       2104.811      -5546.805      -11651.60      -15331.99      -11493.54
      -914.4434       8760.926       14373.73       10681.69      -681.5078
      -8835.141      -11929.78      -12271.03      -9282.084      -4961.491
       39.52930       4058.923       4612.460       3411.668       4620.209
       8898.785       10265.28       3690.555      -4160.650      -6252.773
      -5521.970      -4929.365      -1389.559       1453.165       2755.618
       2122.246      -2843.135      -6865.705      -7412.254      -1581.945
       11008.11       19168.51       13599.37      -1486.590      -11785.09
      -12341.48      -8899.573      -4736.847      -623.5518       224.5464
      -1518.094      -1812.256       878.9277       4264.691       6098.205
       3063.203      -5120.807      -8044.159      -729.8291       4452.320
       2301.364       555.7358       2285.948       1992.319       541.8082
       531.6936      -390.5557      -1824.012      -4589.634      -5434.699
       31.77393       2893.625       2274.127       4595.098       2408.587
      -4917.592      -6412.599      -2310.672       3572.535       9267.160
       11011.15       5597.669      -2269.863      -5763.121      -4041.111
      -3521.566      -6878.127      -6708.110      -1671.166       930.5459
       3266.380       6067.779       3159.937      -1903.261      -1226.431
       2159.595       888.5327      -2374.770      -1243.769      -128.9004
      -2826.803      -5530.617      -3239.104       2966.863       7064.399
       4828.749      -1419.853      -4392.283      -2900.059      -2613.375
      -910.1006       4024.133       6903.330       7884.417       6698.293
      -1715.137      -8248.521      -4741.151      -394.2784      -56.33862
      -148.0293      -2460.385      -5950.794      -5635.366      -1743.629
       1595.064       4201.297       5661.583       3561.468       584.6685
       1098.966       3353.213       4236.669       1783.703      -4360.471
      -9759.951      -8163.463      -2419.095       1754.482       3429.316
       4021.253       2703.328       213.1293      -975.5493       239.5215
       4073.808       5502.771       1833.044      -46.96680      -755.0508
      -3288.115      -4098.513      -1518.842       1962.341       3415.311
       764.7896      -2466.596      -3222.578      -5145.816      -10349.53
      -10208.36      -2416.173       1690.397       181.1899      -68.88037
       1892.229       3074.248       2936.384       4710.945       4943.010
       3487.145       2263.984       415.2754       2820.184       6780.078
       2824.792      -5586.480      -7942.083      -2680.580       2649.486
       6105.654       7115.601       3186.931      -2373.446      -4825.659
      -3223.781      -75.05127       1475.447       3880.215       7265.447
       6847.653       1085.704      -920.6172       5266.324       8731.737
       2845.137      -4647.398      -9731.094      -12027.07      -9158.866
      -5257.559      -2775.717       2850.734       5899.243       2055.954
      -267.8101       691.5951       994.9983       42.03906      -3786.574
      -5776.456      -2142.611       2999.406       6772.180       8239.092
       5315.032      -680.2900      -4684.777      -2925.548      -236.0427
       760.1570       1480.837      -1022.348      -3946.712      -996.8467
       3078.919       3210.016       2443.868       2122.896      -856.1001
      -2381.532       66.19824       2955.711       3608.511      -19.80566
      -4346.974      -1492.115       5877.808       6140.720      -1220.324
      -6781.822      -7815.419      -3786.677       1884.328       5227.539
       6301.768       4713.206       1345.606       431.6875       2959.531
       5545.968       1289.478      -4528.971      -2053.348      -51.64502
      -1942.434      -3743.127      -7765.967      -8325.035      -3382.693
       3145.721       8372.023       7696.158       2338.324      -1699.387
      -5131.090      -6439.417      -3031.054       499.8472       1932.159
       3212.811       3154.078       3388.103       4769.290       951.4082
      -6838.426      -7263.996      -2978.749      -1467.449       1537.358
       5555.596       4283.103       508.4153      -1670.367      -750.5269
       2120.683       1747.220      -2142.543      -2242.999       501.8560
       888.2454       920.7466       1718.493      -1588.287      -5185.975
      -3138.194       904.3555       2532.181      -946.9824      -5939.826
      -4339.763       398.3057       3538.672       5620.580       6785.399
       5860.568       1062.443      -4052.767      -4821.477      -2600.666
       70.25513       561.6675       367.5513       778.0762       2192.976
       4163.509       2881.106      -1001.041      -3259.853      -4878.525
      -5666.630      -3903.936       503.5645       3873.642       4273.392
       2771.330      -1220.880      -3666.145      -885.5239       655.3125
      -1561.857      -4244.063      -3914.812       1239.846       6331.536
       4799.312       191.2012      -1165.342      -536.1720      -1033.314
       1415.982       6522.648       7348.657       2334.093      -3371.701
      -7269.777      -7576.302      -1660.392       1950.120      -3589.118
      -5712.062       670.2949       4342.365       2563.289       655.7185
      -251.0273       2706.012       9398.424       9155.857      -1309.941
      -8409.832      -4968.530       1618.354       3965.203       2794.012
      -1002.867      -4221.453      -3198.832       158.6543       2193.690
       2805.455       3141.736       4177.062       7338.021       8261.871
       2892.965      -2728.223      -6954.492      -10894.18      -10788.26
      -4068.733       1215.386      -212.9612      -252.5385       1058.484
      -882.5261      -1107.744      -205.5094      -193.7236       2376.514
       5661.518       3045.168      -2459.891      -4832.859      -3200.113
       3816.570       11059.86       8384.258      -2492.883      -10391.21
      -12414.33      -12354.64      -7900.295      -986.7559       3420.237
       4556.799       6531.779       8204.323       5244.790      -193.1816
      -2344.697      -1466.570      -1634.060       1997.223       7800.748
       6060.864       1929.240       1079.023       294.4863      -1874.609
      -1572.410       535.1230      -786.3281      -5097.494      -7259.616
      -3217.223       2799.500       2172.904       181.4893       3410.004
       7066.393       7037.032       4122.450      -231.0273      -5708.949
      -10983.61      -5894.166       7120.043       9656.709       4715.915
      -562.8594      -10026.46      -13009.59      -3996.127       7857.561
       12071.28       7276.536       1641.244      -1187.083      -2350.352
      -2117.688      -5195.703      -9863.781      -9146.177      -2442.637
       7766.633       13602.22       8912.453       2312.225      -3013.182
      -9268.730      -7116.106       2704.379       4856.179       599.3105
      -194.0132      -1744.359      -3985.131       1327.012       5649.198
       1192.826      -4553.834      -4264.944      -1297.863       1295.797
       5881.051       9382.707       9847.090       7835.102      -605.8008
      -11923.07      -15358.25      -8360.212      -318.3613       5211.992
       8331.438       6537.047       4768.489       4722.098       805.4609
      -3326.315      -3431.852      -2134.839       9.769531       4587.658
       7368.749       3697.920      -2484.219      -4722.436      -4090.695
      -2345.570      -434.3750       2301.981       4701.659       468.8828
      -5730.664      -3828.086       1058.742       3933.971       3185.971
      -2522.572      -5951.824      -2149.119       2292.699       1535.590
      -2561.171      -2710.166       4314.701       8859.621       3770.789
      -3115.965      -5141.531      -1348.793       4956.255       5278.047
      -5557.051      -14620.54      -7592.553       5565.512       8457.500
       3925.927       745.6750       567.3740       1747.153       933.3423
      -2073.640      -3391.437      -3964.398      -3992.961      -1684.573
       212.8564       885.0732       3337.157       2089.582      -3346.341
      -5201.754      -4995.813      -3904.985       2379.875       9226.636
       7409.864       625.2197      -532.8232       2158.590       4169.667
       3277.252       37.73975      -2478.649      -1636.248      -476.8350
      -2775.164      -2430.018       1437.634       1663.843      -1158.680
      -4767.500      -6874.632      -5151.920       221.2930       7328.381
       10814.11       6539.997      -1423.770      -6920.486      -6699.255
      -3581.485       608.8945       5655.629       7539.010       4947.803
      -1131.455      -5767.255      -2484.031       5692.484       12862.14
       12727.91       5747.327      -1158.855      -4507.273      -8355.562
      -21012.36      -41039.84      -58526.81      -76643.62      -98116.00
      -109002.0      -98554.34      -65749.70      -16481.09       30649.72
       57530.89       58676.77       42240.60       16044.09      -12984.88
      -24238.54      -3062.016       33340.75       62209.44       78600.88
       75409.35       51751.49       23357.19      -1700.008      -14577.49
      -11882.78      -6688.122      -1114.797       8347.219       15974.75
       19865.32       15341.27       4444.460      -1669.633      -6577.355
      -15282.47      -20771.45      -21053.58      -17770.79      -11547.69
      -6302.202      -1582.695       7298.434       16635.16       19934.61
       17113.52       11674.25       6848.836       4498.758       5007.387
       9446.059       11421.04       5555.510      -1505.623      -985.5215
       4087.916       4613.625       283.7773      -2830.582      -2362.274
       393.1367       6918.000       17679.66       23018.11       19622.69
       15243.75       11423.60       4722.465      -4517.703      -11586.35
      -9368.732      -1550.085       1753.959      -545.9688      -2901.561
      -2301.041      -2286.141      -4457.859      -5127.178      -5190.902
      -6297.533      -8293.893      -6962.585      -1592.893      -1391.199
      -6956.227      -10199.69      -9835.092      -7527.644      -3967.375
       7.836914       2826.409       4708.508       2659.442      -2347.888
      -487.1426       6077.930       5272.107       2765.473       5993.223
       8320.315       5113.233      -725.4844      -3404.355      -792.9844
       3215.170       2424.578      -4898.145      -10991.92      -11194.76
      -10918.93      -14386.82      -15411.96      -10198.53      -2266.141
       5859.684       11968.48       16755.78       19653.95       17515.43
       16521.35       18254.23       13544.70       2973.424      -2310.024
      -756.7832       2435.234       2318.941      -5685.367      -17921.67
      -25143.09      -24609.04      -18565.47      -11288.40      -3304.070
       5952.273       8680.293       4252.686       3205.949       5550.525
       7769.691       11981.38       13648.34       7462.095       3317.195
       6743.385       6438.511      -2491.617      -10568.39      -13309.22
      -12506.86      -9331.609      -7884.217      -8863.507      -5933.225
      -411.7902       461.5693      -2188.767      -3889.656      -3926.252
      -1432.575       2428.014       4453.582       5257.592       8933.086
       10887.93       7638.714       1913.063      -3367.209      -2645.787
       2903.334       4957.017       1364.474      -1914.568      -2903.014
      -5418.543      -4742.502       1718.021       6198.968       4219.661
       1819.177       1692.957      -260.2070      -5099.562      -9354.654
      -9086.826      -5650.028      -444.9980       8997.348       14242.09
       9587.881       6302.376       5768.748       2337.353       855.7949
       2377.523       4597.055       5185.462       3026.896      -307.6777
      -3802.891      -6413.986      -6208.026      -4377.449      -2586.154
      -189.6655      -510.2119      -3230.784      -608.3335       2744.018
       859.7524      -920.1406       998.9150       4368.272       3490.234
      -958.3291      -2947.977      -7239.039      -13543.78      -12368.66
      -5785.980      -3797.142      -5181.877      -2994.244       1287.662
       3346.579       3866.881       3486.768       172.8472      -2135.530
       2061.709       8853.699       12050.09       9837.279       5201.439
      -1189.742      -6403.830      -7068.659      -4975.245       86.81836
       5254.869       2983.675      -2682.115      -3366.645      -1096.883
       1490.683       3799.408       1083.754      -3566.698      -1317.582
       5930.268       7496.220       1071.707      -6791.695      -10828.92
      -11646.87      -9528.664      -5826.436      -5547.523      -5170.709
       711.5098       5690.070       4311.104       2146.666       5134.714
       5583.499       2625.293       3052.438       126.7637      -6895.414
      -7060.833      -1864.844       1554.871       4411.362       5276.309
       4258.576       6000.609       6842.003       3871.335      -178.8481
       520.0762       5255.293       8083.666       5967.903       230.1475
      -2534.289      -5063.609      -14687.59      -18129.23      -9188.368
      -1991.263      -449.5217      -364.1543      -1620.469      -5624.141
      -8601.446      -6286.854      -1177.209       4385.896       6254.285
       4167.656       2665.391       3415.863       4614.600       4092.202
       1811.974      -1164.985      -3447.903      -4410.209      -5200.254
      -3482.485      -1112.522      -950.7648      -439.2793       1212.665
       2940.656       4712.277       5856.350       5162.912       5627.018
       8780.568       9118.902       6939.932       7648.957       8971.598
       5733.598       1806.156      -301.8662      -3289.033      -5618.475
      -6175.934      -10832.21      -14286.43      -7676.754       267.8418
       3725.311       6794.079       6472.520       2607.385      -1605.920
      -5170.593      -2810.684       5458.506       9210.734       3887.759
      -1596.262      -924.9548      -243.4116      -2798.824      -1914.595
       3948.336       6703.261       4618.414       1982.725       1030.604
      -2670.457      -9896.012      -12340.07      -10779.64      -8473.178
      -3393.555      -1228.448      -4140.680      -6654.776      -3569.231
       3963.949       3839.418      -5283.844      -5740.359       2501.412
