     0.02500000      -126106.1       143370.9      -12345.00      -12345.00
      -30.01999       228.1550      -27.56000      -12345.00      -12345.00
       0.000000       20.34000      -12345.00      -12345.00      -12345.00
      -12345.00      -12345.00      -12345.00      -12345.00      -12345.00
      -12345.00      -12345.00      -12345.00      -12345.00      -12345.00
      -12345.00      -12345.00      -12345.00      -12345.00      -12345.00
      -12345.00      -32.15180      -64.99920       1093.000       0.000000
      -31.23600      -65.83800       0.000000       167100.0       0.000000
      -12345.00      -12345.00      -12345.00      -12345.00      -12345.00
      -12345.00      -12345.00      -12345.00      -12345.00      -12345.00
       128.9771       142.1528       321.7143       1.159680      -12345.00
      -12345.00     0.04355571       0.000000       0.000000      -12345.00
      -12345.00      -12345.00      -12345.00      -12345.00      -12345.00
      -12345.00      -12345.00      -12345.00      -12345.00      -12345.00
      2008       318        11        12        57
       960         6    -12345    -12345     10328
    -12345    -12345    -12345    -12345    -12345
         1         7        13    -12345    -12345
    -12345    -12345    -12345    -12345    -12345
    -12345    -12345    -12345    -12345    -12345
    -12345    -12345    -12345    -12345    -12345
         1         1         1         1         1
ESP10   -12345          
01      -12345  -12345  
-12345  -12345  -12345  
-12345  -12345  -12345  
-12345  -12345  -12345  
-12345  -12345  -12345  
-12345  -12345  BHZ     
XH      -12345  -12345  
[...]
      -307.9673      -309.4913      -310.7310      -316.0592      -287.6392
      -302.5297      -304.2491      -314.4376      -312.9200      -309.5172
      -296.3196      -306.9618      -297.4623      -293.0971      -290.6354
      -307.5460      -300.5981      -298.9490      -284.1240      -294.3746
      -281.6306      -290.3485      -286.2424      -279.6884      -277.6765
      -294.9390      -267.0064      -268.3464      -268.5958      -268.4310
      -258.9460      -262.2876      -249.7601      -254.9111      -241.8736
      -254.7542      -249.3785      -242.9495      -224.0609      -236.1477
      -224.2480      -218.8127      -219.2325      -229.8523      -206.1707
      -208.5634      -199.8985      -211.7354      -187.2681      -183.5418
      -180.4066      -178.4315      -165.2268      -166.8001      -151.6391
      -153.1295      -138.5688      -132.9342      -114.4246      -124.6207
      -106.5395      -99.02922      -85.93443      -80.88634      -60.39392
      -70.16525      -56.22404      -48.10320      -32.35362      -29.36850
      -14.25069      -20.22615       6.322811       8.161579       11.69675
       19.64514       53.26727       51.16214       65.63768       58.44960
       74.75945       78.08008       95.58777       100.4259       117.5869
       123.6386       141.9565       138.9227       160.6681       162.5375
       180.3761       180.0129       201.5518       205.8419       212.5242
       222.2373       241.9876       231.2141       240.9806       246.3274
       280.3721       268.9899       275.7861       280.0649       303.4044
       304.2512       316.9997       305.6699       314.5818       311.4816
       328.7544       334.6262       337.8530       324.6921       342.4507
       338.2373       360.0914       355.6372       366.6873       364.6692
       359.0393       368.8566       385.1641       353.7251       389.7815
       386.7582       402.8193       396.6494       404.8864       431.7817
       431.3503       414.7245       446.9194       431.9034       457.4437
       439.6047       443.5693       468.3491       465.7932       459.2223
       486.0701       487.9261       496.1890       466.5281       483.7651
       490.9829       499.5930       488.8677       502.7885       472.3470
       477.8364       475.5452       472.6945       458.3403       473.0757
       471.7019       474.1650       457.4365       470.4048       450.7173
       466.8423       459.5377       454.8632       442.2617       452.7708
       427.6986       433.2773       433.0396       436.3065       412.7229
       420.3209       408.1777       415.3772       408.5288       402.1479
       397.1351       417.2749       377.4943       388.9507       376.9498
       376.5959       373.6349       371.6915       367.3003       386.6985
       354.6670       355.3267       346.9697       362.8151       345.4927
       345.6368       340.1908       341.5283       311.4111       325.8680
       321.3933       320.4601       290.9357       291.9052       280.5308
       285.5221       261.7578       254.4510       234.8132       231.9828
       209.2426       209.3550       187.6398       186.7085       164.5789
       163.3069       139.5604       128.6703       100.8387       104.6818
       81.25870       65.57809       32.52582       27.10566       4.311005
      -6.495708      -18.55235      -11.16937      -64.22978      -73.41855
      -91.07013      -104.2104      -128.1396      -146.7800      -171.9548
      -173.6129      -211.0086      -216.5234      -245.8123      -229.4016
      -250.5571      -256.6186      -277.7627      -292.8423      -294.2940
      -302.2366      -329.7211      -314.2625      -344.4763      -352.4067
      -371.8450      -345.6946      -369.2683      -385.2139      -382.7021
      -366.6050      -408.4520      -412.0220      -418.4312      -409.8060
      -438.4982      -445.5105      -456.8625      -444.2988      -461.0043
      -468.9570      -493.2971      -478.0186      -492.1699      -482.6436
      -511.2035      -521.0416      -516.2244      -528.2310      -539.3894
      -520.2107      -551.2095      -542.2280      -563.7683      -556.6458
      -561.6921      -549.2769      -571.4741      -557.8723      -580.1460
      -562.0925      -570.3285      -566.5861      -568.7947      -563.7310
      -578.1748      -570.1311      -565.3281      -546.6184      -567.2549
      -544.0515      -551.0400      -545.8326      -551.3839      -543.2190
      -544.7865      -522.8169      -537.9519      -518.1792      -518.6978
      -491.0098      -486.6130      -471.6752      -489.9553      -456.1924
      -439.3911      -439.0154      -450.7690      -423.9493      -418.4287
      -392.0312      -397.6204      -370.9054      -364.7014      -338.1709
      -340.0265      -318.8073      -309.1208      -281.6384      -291.6648
      -263.3090      -269.6080      -250.7650      -243.9819      -222.4125
      -214.3500      -190.8552      -195.4697      -156.3270      -155.3150
      -139.8205      -136.3955      -106.9573      -104.4630      -92.94684
      -97.74692      -66.75113      -57.77983      -32.52917      -30.03461
      -4.971878      -8.306221       16.36547       12.28335       34.48073
       38.77225       64.62216       52.81610       76.63652       74.86963
       90.54517       100.2573       121.2975       107.4007       141.8659
       150.6334       153.1856       145.9251       171.1177       163.5833
       178.9197       171.6132       184.2803       169.7804       196.1455
       199.0332       203.5196       199.6884       222.2507       214.3396
       237.9066       210.1267       224.2164       228.1171       234.5294
       228.8943       235.3248       227.3072       256.5005       232.2336
       236.8530       249.2508       262.7665       233.0012       266.6641
       251.1230       244.2702       240.4038       267.3826       253.6913
       250.7127       230.1249       253.5372       247.9400       258.3416
       246.6946       255.8336       242.3716       240.4136       244.5646
       262.6826       214.0960       237.5979       227.1356       231.4869
       227.0618       228.3954       215.9717       244.1553       228.5697
       226.9605       229.0452       241.6428       215.9793       233.0225
       220.6855       246.3422       236.0046       244.5995       236.9053
       248.4482       238.1671       252.8980       238.9756       252.5654
       238.9569       238.8004       218.5573       255.4474       223.1788
       230.0357       247.5015       221.3429       201.9161       245.6281
       234.8845       237.3917       215.2611       223.3337       217.8901
       208.4293       189.5902       225.4266       209.6235       200.7275
       192.6136       235.7867       211.3216       202.3206       203.5871
       215.8178       215.2805       223.6319       201.1736       231.7731
       214.9532       213.4980       212.8688       230.4725       211.7025
       231.4257       221.0833       235.3356       231.0988       236.9585
       234.8971       236.8914       214.6585       226.3425       242.8947
       265.3914       200.3809       228.6100       233.3868       235.8125
       231.5756       227.8860       218.0997       235.3365       223.5830
       228.3917       203.4833       214.2297       192.8705       202.1511
       189.9875       194.1573       186.1499       178.4298       153.8248
       173.8863       159.2160       146.4056       114.0737       128.0768
       106.0022       108.0982       81.04710       83.52103       66.41391
       66.62866       47.95984       42.54609       15.48931       30.27396
       20.55154       9.838036      -13.91714      -4.408455      -37.06192
      -36.82645      -60.47546      -64.99849      -68.89816      -59.87737
      -86.70955      -73.76254      -102.6968      -99.15750      -109.5463
      -116.0504      -137.5687      -139.4768      -156.3216      -144.2534
      -180.4666      -179.1158      -184.7336      -186.0701      -208.0442
      -197.1158      -211.7886      -206.1044      -231.8268      -230.4220
      -234.8833      -227.7797      -258.2653      -259.5112      -271.2628
      -252.5422      -275.5940      -284.0406      -289.6686      -288.4114
      -316.4184      -307.6793      -318.2388      -317.9179      -330.1440
      -325.5054      -353.1800      -330.0021      -342.7369      -356.7756
      -365.3738      -361.2827      -379.8540      -356.8154      -380.0984
      -378.3889      -397.4709      -391.0500      -401.8334      -388.9675
      -401.4413      -402.3024      -398.7529      -383.8047      -418.8939
      -421.6462      -411.7463      -396.8372      -424.9988      -402.9285
      -428.0579      -411.4165      -403.3580      -411.8157      -409.4904
      -391.3094      -412.2712      -392.0649      -398.7500      -362.8864
      -380.8248      -389.2385      -361.7073      -347.0894      -368.3073
      -349.8333      -353.6595      -326.9480      -319.2104      -300.1104
      -301.1597      -271.2668      -278.0554      -261.1544      -256.4078
      -230.7471      -242.5209      -215.5253      -205.7670      -171.4269
      -175.2065      -166.2751      -127.7089      -129.4864      -139.0266
      -59.53238      -69.50348      -51.18753      -53.94383      -20.04169
       8.940296       9.523216       12.80652       48.63754       71.87518
       93.55652       89.59747       127.5499       125.4874       154.7466
       149.4619       191.9913       202.6350       200.4326       223.7158
       251.4882       250.1881       268.2108       265.9564       295.5432
       288.0965       316.7556       314.1590       326.8336       327.9490
       335.1184       350.6793       366.9296       343.8993       353.3636
       386.9983       386.6620       350.1429       406.1470       383.4225
       378.0800       399.2748       397.4087       387.8015       401.3708
       387.5247       418.8429       401.6248       397.1041       415.2511
       430.6177       402.8199       424.3739       411.8892       398.9515
       400.7798       417.6031       405.5366       402.2560       390.0493
       410.4990       376.1802       413.6311       383.6317       332.6250
       413.4688       383.2556       333.4867       384.5872       352.6942
       366.0809       331.0950       312.1722       339.5319       332.0429
       306.2416       319.1434       297.9687       307.3009       287.0041
       310.5541       255.9167       254.9118       287.0183       245.5409
       228.5067       250.1558       240.2677       226.2590       209.2287
       223.1484       206.5953       207.9447       176.5107       164.7458
       160.2877       151.9827       138.9890       145.7319       110.9751
       121.9738       107.3672       99.77707       81.72400       70.63853
       53.19586       59.65628       45.23514       39.74873       33.73631
       15.77182      0.1882172       15.17556      -17.84979      -16.72857
      -32.80933      -34.91553      -33.29565      -48.08455      -63.73050
      -38.16788      -64.36771      -79.19061      -75.73929      -66.83987
      -91.24823      -83.54150      -94.09976      -101.7447      -121.7031
      -105.3570      -103.7223      -122.5870      -117.3502      -117.5714
      -144.8497      -121.9185      -127.3660      -130.0116      -144.6629
      -136.4404      -135.3849      -140.5682      -139.2096      -123.4283
      -147.1812      -140.0537      -131.0383      -129.7723      -145.4376
      -148.9247      -130.2256      -117.9041      -135.9208      -124.4564
      -120.3350      -117.1636      -133.5195      -117.7328      -124.0479
      -127.4142      -116.1150      -113.6411      -120.3378      -126.6865
      -138.2055      -88.42676      -100.9911      -105.8430      -94.17126
      -98.79672      -83.10739      -75.18570      -92.70715      -71.83212
      -65.87354      -73.70924      -58.61899      -48.09067      -58.51067
      -43.91054      -47.54179      -16.00363      -23.70571      -27.42752
      -15.78622      -13.06904      -11.84911      -6.516464      -15.00065
      -10.52304       1.014259       10.30075      -6.977197       6.116953
       2.237242      -3.880372     -0.3549914       2.703606      -8.387043
      -7.383446      -10.56411      -10.77872      -11.51926      -15.03220
      -38.60404      -18.49560      -25.32770      -36.78590      -54.49597
      -38.91290      -41.17310      -39.38069      -91.15483      -70.05048
      -29.43503      -9.914276      -184.6989      -105.2230       142.0422
       49.30566      -2301.406      -8706.578      -39704.91      -104385.4
      -126106.1      -58553.21       24225.84       72237.81       125956.9
       143370.9       58867.25      -24660.84      -68088.19      -79917.77
      -17629.30       47759.02       76773.69       75686.37       38630.82
      -5286.406      -38892.56      -60912.25      -64991.58      -24007.74
       19764.54       23887.64       11214.01      -13719.22      -24202.95
      -8984.891       7842.102       23823.81       37111.13       25538.86
      -13684.56      -39016.05      -28036.70       8884.102       42049.73
       35704.33       3716.758      -26519.55      -36870.09      -14720.33
       7087.016       4293.031      -2164.797       7542.555       17725.58
       4900.090      -12320.81      -16445.71      -15969.89      -5635.932
       10531.43       14465.42       5833.406      -15404.08      -38593.48
      -36354.65      -4960.164       24716.92       39158.74       40682.46
       21206.13      -66.56445      -7706.266      -11225.88      -15751.42
      -9566.802       4539.934       9215.598       13917.81       16757.95
       4400.811      -9660.426      -10902.37      -7151.150      -7102.719
      -8541.609      -165.6055       16716.20       16748.88      -1780.289
      -10560.36      -8017.426      -8772.415      -4452.969      -4723.859
      -20908.46      -25073.97      -7901.805       10191.77       14558.39
       6494.157      -997.6289      -3591.716      -2013.785       6033.227
       15511.19       17927.83       11769.67       2341.837      -1812.618
       20.04541       1072.222       514.5869      -1387.479      -7777.994
      -11810.37      -5800.810       3111.504       8427.986       6799.597
      -1667.145      -13209.03      -20347.83      -10968.76       9590.039
       19364.72       12767.60       5323.357       3333.959      -1115.459
      -6271.742      -5588.853       339.4395       5754.004       6894.678
       3227.646      -5552.078      -12166.54      -11877.59      -3952.646
       8074.793       13357.53       12256.18       9003.227       3475.117
      -6137.543      -14751.48      -14382.75      -9898.197      -5152.323
       671.3447       5529.542       4089.743      -1110.136      -21.36523
       2663.183       1545.944       529.0302      -177.8154       173.5605
       2822.441       5973.752       6256.578       4407.383       5738.980
       9690.850       10123.74       1138.783      -7423.533      -5017.926
      -2546.215      -3623.300      -641.3203       3106.022       3595.201
       560.5391      -6458.324      -13440.56      -12606.02      -3332.818
       5808.344       12234.84       17948.06       11285.89      -7499.395
      -13520.68      -11269.77      -11934.71      -1381.062       10874.87
       13348.07       13193.63       8094.229      -1958.418      -6029.347
      -3913.158      -2551.268       515.8047       4618.605       5276.338
       2779.668      -2646.633      -7450.208      -6461.490      -1868.498
       1428.572       6923.187       7579.227      -664.0022      -1242.049
       5470.205       5599.207      -3043.223      -11541.37      -12535.87
      -9544.195      -4045.359       2891.430       7594.088       7254.568
       4472.371       6846.014       9192.087       2175.875      -4716.314
      -5052.062      -5568.924      -1514.754       8698.025       11337.29
       2460.535      -6592.449      -5523.121      -3166.889      -8973.086
      -8869.666       1287.894       4235.289       26.85400      -813.5303
      -3275.936      -8246.723      -7962.861      -4826.770       2827.688
       13495.37       13806.92       3787.695      -4510.432      -5975.920
      -348.5742       6314.219       7304.333       2902.219      -2994.171
      -5944.275      -3973.773       242.2326       424.9062      -1432.801
      -2640.084      -4484.115      -5393.622      -1893.843       3330.414
       3074.506       3944.077       5772.588      -232.7148      -7943.885
      -6291.361      -216.2041       3282.010       6049.255       5188.593
       462.8242      -1681.869       222.0732       2745.463       2490.842
      -210.5098      -1927.970      -1487.461      -1108.959      -81.94873
      -224.1875      -4890.900      -8011.433      -4812.242      -3350.010
      -5846.758      -1930.537       4083.112       3883.201       4751.477
       3397.488      -4000.285      -8083.929      -6010.277      -1173.191
       4320.444       5608.905       2995.756      -865.7646      -4942.670
      -4201.790       66.75391       3802.301       4302.365       922.4849
       587.8999       2749.728       1347.775      -3412.984      -4194.948
       2835.425       6077.865       1323.709      -260.3419       459.3501
      -753.9678      -3242.735      -3571.039      -490.5283      -43.21777
      -2943.182      -3989.378      -1191.909       235.0156      -3488.686
      -5269.262      -2213.977      -2335.250      -3344.969      -118.9326
      -2.831787       167.4521       1927.859       2197.691       6564.295
       8033.663       596.8716      -3348.854       798.1484       2181.852
      -391.9541       773.4072       3503.922       3930.897       3694.569
       4206.759       3400.610      -1213.664      -7556.934      -8356.447
      -8293.785      -6428.733       666.2969       3327.210       1295.417
      -852.2334      -2066.540      -1355.790      -983.0640      -2203.075
      -22.45898       2188.959      -3294.039      -7408.736      -2480.042
       1879.641       1727.985       4404.054       5171.150       874.8936
      -1642.695      -3636.732      -3433.507       554.0059       3187.816
