     0.02500000      -44907.48       49129.86      -12345.00      -12345.00
      -30.01499       232.6350      -31.68000      -12345.00      -12345.00
       0.000000       23.63000      -12345.00      -12345.00      -12345.00
      -12345.00      -12345.00      -12345.00      -12345.00      -12345.00
      -12345.00      -12345.00      -12345.00      -12345.00      -12345.00
      -12345.00      -12345.00      -12345.00      -12345.00      -12345.00
      -12345.00      -32.83200      -66.08020       1675.000       0.000000
      -31.23600      -65.83800       0.000000       167100.0       0.000000
      -12345.00      -12345.00      -12345.00      -12345.00      -12345.00
      -12345.00      -12345.00      -12345.00      -12345.00      -12345.00
       178.4495       187.3022       7.430080       1.604530      -12345.00
      -12345.00      0.3439108       90.00000       90.00000      -12345.00
      -12345.00      -12345.00      -12345.00      -12345.00      -12345.00
      -12345.00      -12345.00      -12345.00      -12345.00      -12345.00
      2008       318        11        13         2
        80         6    -12345    -12345     10507
    -12345    -12345    -12345    -12345    -12345
         1         7        13    -12345    -12345
    -12345    -12345    -12345    -12345    -12345
    -12345    -12345    -12345    -12345    -12345
    -12345    -12345    -12345    -12345    -12345
         1         1         1         1         1
ESP12   -12345          
01      -12345  -12345  
-12345  -12345  -12345  
-12345  -12345  -12345  
-12345  -12345  -12345  
-12345  -12345  -12345  
-12345  -12345  BHE     
XH      -12345  -12345  
[...]
       8.114708      -34.29572       1.588890      -42.52412      -35.86557
      -68.03616      -51.43387      -85.18942      -74.74277      -112.7690
      -88.51373      -131.8188      -118.7626      -158.3655      -132.4490
      -174.1095      -172.2717      -199.0623      -177.0066      -235.4954
      -216.8276      -242.4073      -245.0091      -286.1005      -251.0483
      -293.4007      -279.0383      -316.1564      -299.2280      -337.0977
      -325.3665      -354.9679      -329.9158      -373.0745      -349.5812
      -373.8292      -362.3322      -401.7999      -373.7383      -416.2305
      -390.6841      -426.1689      -404.1813      -429.4468      -422.3223
      -446.8406      -414.4370      -462.2812      -434.2540      -458.5715
      -434.7729      -463.3124      -444.4695      -481.1616      -444.7843
      -482.2118      -464.7515      -487.5865      -459.3910      -491.5240
      -467.8922      -486.9043      -460.4314      -487.2913      -456.8713
      -483.8981      -453.3966      -479.3018      -446.5449      -464.5144
      -436.2114      -469.4608      -437.3563      -458.8202      -418.3766
      -444.8090      -413.0521      -430.7039      -406.9629      -422.3274
      -380.2561      -405.5283      -379.9919      -396.8728      -347.5162
      -376.0459      -348.6101      -357.2236      -322.2778      -341.1127
      -304.3134      -332.0978      -267.3069      -310.6788      -286.8784
      -283.5834      -254.0487      -276.1591      -249.4285      -263.1615
      -223.4915      -243.5514      -203.5811      -223.6658      -181.3632
      -209.9375      -169.3223      -197.6185      -158.5711      -170.3491
      -137.3729      -155.8920      -106.9684      -138.2217      -97.58032
      -102.4397      -69.67996      -92.80815      -53.80462      -52.27296
      -14.84018      -54.21559      -10.07524      -25.39690       25.29055
      -3.997437       29.84171       30.52811       74.70007       45.96066
       79.79391       63.39792       106.8843       94.05267       127.9429
       117.4291       168.3476       140.4272       173.6970       163.7471
       207.7766       188.6343       233.8947       215.4025       259.3721
       242.4331       283.0624       271.1346       308.9946       291.6331
       324.0280       313.0134       369.6880       331.8104       375.1489
       366.5303       392.0776       376.8640       411.2251       382.9648
       432.4337       401.6895       434.2006       416.7181       456.0692
       422.7910       444.7878       430.0093       464.1765       420.6591
       458.3691       442.6592       464.0525       436.7566       474.9152
       437.7661       472.1318       438.5254       466.7133       446.4485
       476.3252       430.4417       463.2573       446.9106       469.4976
       429.2822       455.0963       427.9172       468.7362       425.6388
       462.4276       427.7523       445.8074       417.7263       439.4076
       410.2998       447.0736       406.3623       426.4492       397.3650
       430.6099       385.5990       415.7986       383.3826       415.0184
       381.6598       400.7526       355.7706       386.6006       358.9161
       375.4070       342.6230       372.4590       321.9956       355.3905
       316.5406       335.5457       295.9313       323.2678       284.2828
       301.7190       265.7957       288.1725       251.4492       267.9348
       218.2294       258.3474       204.8798       236.8376       197.6108
       189.1832       188.2674       196.7243       127.2271       175.4077
       117.4511       148.7156       105.1290       102.0567       73.72041
       95.41078       47.50916       67.95641       26.79810       48.71708
       6.349316       32.57601      -10.91897       4.814522      -47.11781
      -18.05302      -56.48830      -52.91647      -90.65353      -57.94559
      -104.2066      -82.60083      -121.0180      -105.1086      -159.4105
      -131.3470      -167.6804      -152.3098      -191.3369      -164.7422
      -213.4548      -192.6192      -229.7225      -216.4598      -257.2606
      -228.1471      -269.0292      -245.5481      -286.9849      -261.7057
      -295.2593      -278.5250      -315.8434      -283.9392      -332.9200
      -314.9662      -343.0298      -308.2805      -355.3232      -325.3787
      -358.8680      -339.7251      -365.9404      -337.0688      -374.8157
      -342.5759      -379.6438      -349.0195      -381.4700      -347.6299
      -379.3171      -355.5059      -386.5813      -352.9139      -386.7733
      -354.5813      -384.6814      -352.5409      -389.7683      -354.6843
      -378.2319      -342.4338      -381.8607      -350.3929      -369.1354
      -342.1697      -376.9352      -327.1544      -355.2805      -330.2306
      -355.7384      -312.0948      -348.7166      -315.9237      -342.8373
      -305.4844      -334.1630      -303.9591      -334.5580      -295.0872
      -317.9066      -286.5431      -318.8326      -279.5804      -314.4564
      -274.8561      -308.2544      -286.2180      -306.3233      -265.6716
      -313.6066      -279.9963      -304.5162      -271.4114      -306.1038
      -272.7174      -300.3728      -270.6887      -303.7040      -269.6300
      -295.8237      -268.3523      -304.2704      -264.3787      -303.4368
      -271.4948      -306.0743      -269.0142      -300.0646      -267.5725
      -287.3209      -266.1696      -302.0439      -264.9177      -297.0547
      -261.1049      -287.0259      -248.3937      -284.6675      -254.0283
      -267.7927      -220.3701      -261.8143      -218.1095      -241.4866
      -211.7313      -227.0573      -189.4907      -214.6956      -165.3293
      -194.1802      -148.9300      -178.7183      -141.7540      -161.3164
      -116.2657      -134.5317      -107.0393      -124.8001      -82.61026
      -107.4914      -61.34961      -101.8136      -41.81075      -59.88315
      -28.61316      -44.85743      -7.813015      -23.66638       17.99648
      -11.96530       35.41220       16.56897       60.89313       41.67262
       84.48279       55.42761       102.4478       91.61450       135.2622
       119.1926       167.9037       144.1862       183.1965       171.0415
       215.5835       188.3846       245.4676       216.4452       255.5377
       241.6866       277.1753       269.9082       309.5182       268.1090
       318.5857       301.4547       336.6380       309.7272       349.6629
       321.5042       348.2372       327.4197       361.4439       325.7924
       372.2686       346.8041       371.4478       343.2102       387.5767
       353.0004       371.2175       349.3861       387.2905       347.4188
       376.6036       347.8120       392.2263       351.2561       371.7021
       355.3116       386.0739       344.5798       379.4965       351.9746
       373.3132       341.4419       378.9922       337.7651       365.4641
       327.9794       361.9680       329.1259       353.3154       333.9202
       355.3795       322.4490       364.6851       317.4258       349.5546
       325.8029       347.5805       323.7853       349.8521       318.4297
       365.5134       326.0800       354.5504       333.2032       345.1744
       319.0789       356.9701       316.7139       355.9982       319.6882
       353.2119       320.3300       334.2152       314.0576       343.3969
       301.8553       338.2090       282.9955       317.0592       311.3007
       321.4571       277.2445       320.6427       289.5008       298.4136
       267.7136       295.1797       255.6725       294.7978       253.9851
       266.4459       236.6599       263.3362       216.0615       241.7351
       216.3373       241.0609       188.9243       210.2615       194.9208
       214.4254       160.1445       189.4495       162.8510       165.4058
       119.4250       159.9995       115.8621       124.1126       94.31744
       108.1990       66.86446       96.30685       49.90085       79.48135
       42.79372       50.60628       23.04517       35.58467      -15.07882
       17.38823      -14.17657      -3.945053      -51.77644      -31.71288
      -63.48392      -39.55554      -79.96631      -57.89594      -86.37686
      -71.75607      -116.4868      -87.89423      -115.1435      -92.94748
      -132.8995      -110.2672      -130.8785      -119.2498      -166.0642
      -117.5731      -146.5260      -150.9033      -180.6619      -139.0886
      -173.2009      -164.3514      -194.3196      -155.3043      -195.0543
      -170.3595      -195.4474      -174.9857      -200.4743      -175.1410
      -208.4436      -178.9504      -203.4145      -159.9989      -191.5208
      -165.9999      -198.7595      -177.8112      -182.5398      -163.0565
      -194.1307      -147.1696      -182.1214      -160.1483      -181.5982
      -144.1780      -154.5231      -131.6014      -158.9455      -113.4194
      -149.3055      -121.5449      -137.4268      -103.7735      -118.4439
      -92.29541      -112.9626      -84.44638      -100.7488      -72.51337
      -107.7764      -62.50282      -82.86792      -59.76961      -86.98119
      -60.82253      -82.33565      -53.43008      -83.21887      -56.10938
      -75.34091      -45.08531      -80.35403      -47.23575      -71.00552
      -61.48401      -86.49744      -46.82173      -66.14166      -61.87840
      -89.00671      -58.78766      -97.36673      -81.94113      -103.4937
      -76.37921      -112.6700      -82.67825      -117.4599      -98.69263
      -116.7805      -108.5717      -144.0165      -110.9961      -148.2180
      -144.4507      -161.6842      -133.1333      -180.1086      -165.2121
      -192.4288      -167.9531      -218.0546      -190.6163      -207.4877
      -212.6229      -238.3566      -221.5602      -268.5038      -246.5786
      -266.0225      -249.0216      -298.4984      -279.2350      -305.5988
      -283.2607      -312.3874      -300.9393      -329.5522      -302.9403
      -341.6992      -331.2368      -355.0771      -335.5996      -357.0266
      -346.4814      -377.9849      -344.3270      -384.3035      -351.5931
      -367.1908      -356.7913      -375.6058      -354.5886      -380.1360
      -355.4136      -377.5906      -355.8020      -374.9729      -358.2549
      -373.0143      -335.2601      -361.5128      -338.0353      -349.5936
      -318.4917      -338.0902      -308.0096      -308.6881      -282.7625
      -300.8598      -263.6429      -293.1189      -260.4900      -270.6479
      -241.4468      -248.6526      -220.5026      -227.4593      -196.8148
      -216.7585      -180.5428      -196.6851      -170.8577      -162.4741
      -125.1001      -149.2910      -114.4399      -109.4588      -78.28256
      -107.8927      -66.08681      -66.51732      -38.91080      -50.93326
      -23.78700      -19.98684       6.020943      -19.26529       19.73752
       17.08842       46.03815       34.99210       64.55920       54.12421
       74.97287       63.73062       97.70184       88.51886       115.3103
       92.44333       118.5142       114.5320       146.8024       133.5687
       158.6301       145.8038       159.9554       156.2059       200.2952
       171.7903       180.9731       184.2422       208.6248       185.8042
       201.3149       197.4016       220.2432       202.9935       232.9438
       206.5610       234.2275       229.9252       239.3782       233.2197
       251.1884       227.9823       255.9218       240.1573       263.9771
       252.9399       265.2762       263.7092       287.3698       253.9821
       284.1891       293.1611       290.4403       273.0793       319.3628
       307.7946       332.7673       318.8970       335.2021       344.3573
       362.3842       343.7634       373.1213       368.0068       400.5825
       388.1245       401.0653       404.2863       430.5990       418.1150
       433.9839       427.8120       459.1335       461.9325       471.8571
       451.0950       486.3845       481.5699       499.6119       493.4468
       509.3015       504.9552       531.4382       517.8755       541.2334
       534.9398       548.8435       550.6320       554.7535       546.8026
       568.7837       548.0270       561.0710       556.2479       574.7432
       547.3901       557.7430       557.3938       560.3251       541.9231
       551.9943       542.6799       546.7202       513.7706       516.5732
       500.7197       501.8391       488.4182       477.5272       453.8564
       469.3975       437.1252       425.9480       414.9009       414.9608
       398.1403       403.3204       362.5879       347.3002       335.7413
       346.8445       318.1696       296.7788       292.2696       314.5898
       165.5522      -782.0352      -3577.344      -11126.83      -19563.75
      -12929.12       7915.156       30985.55       49129.86       31752.40
      -16961.36      -35719.55      -22297.46      -10717.02       2681.426
       7778.868      -2373.295       2576.484       24597.65       21422.99
      -23271.40      -44907.48      -2702.289       28823.16       13903.86
      -6216.750      -28841.93      -41298.82      -4780.148       46209.34
       37437.85      -12554.61      -25350.51       2353.625       18994.18
       14499.52       5334.488      -3151.142      -4268.167       22.81055
       4117.254      -3165.684      -15419.31      -2914.375       8075.980
      -5970.908      -13362.54      -5989.642       787.2246       2969.526
       2605.446       2015.718       1440.436      -667.3511      -3778.901
       501.2109       12958.66       15241.63       5059.007      -1843.523
      -3439.250      -3451.712      -2183.856      -238.1304      -2218.714
      -2290.467       8749.760       14183.02       2881.035      -7551.312
      -13988.46      -19520.85      -10497.46       9849.371       18284.20
       3526.303      -10915.55      -12598.32      -11930.89      -5245.578
       3711.481       5985.461       1010.426      -7640.091      -5604.594
       11893.12       14132.73      -5711.162      -8344.404       7848.631
       12089.97       1883.457      -4525.671      -1095.075       2789.279
       534.7070      -7668.525      -9319.751      -3455.669       775.9902
       4196.356       421.4453      -5540.391      -5990.655      -6242.701
      -2701.581       2546.379      -648.0430      -5469.252      -352.9922
       2481.592      -6121.871      -9064.550      -1474.504       4470.654
       5621.488       6516.645       7595.841       4072.740       2763.631
       9755.863       6294.279      -6674.168      -6531.611      -4368.205
      -8228.706      -4607.208       2383.212       554.7595      -2915.113
       2324.139       1595.342      -10199.87      -12817.64      -2068.077
       4258.636       1058.420       784.2808       2141.487       609.8281
       5843.963       11318.23       694.5273      -10179.63       24.18359
       11913.15       7862.176       1967.664      -1852.678      -6341.882
      -4301.265       2201.129       1031.846      -8528.350      -9454.149
      -330.5605       4131.617       4940.518       7109.415       2855.809
      -10671.36      -17634.60      -7428.141       4215.402       3161.851
       134.1504       6163.121       12642.04       5814.149      -4657.026
      -278.3096       4651.107      -3762.132      -8238.033       1680.688
       13028.57       6865.523      -11394.30      -13550.00       1417.566
       8084.815       3963.121       2066.506       143.0642      -1143.126
       280.8003       1196.816       4810.414       1291.162      -8641.516
      -5404.002       4855.108       2554.518      -10761.88      -10424.84
       7726.957       16147.00       2490.354      -10394.73      -4151.747
       1030.249      -4881.687      -2206.537       10787.42       10596.20
      -8117.705      -12479.13       5248.600       11582.37       2750.339
      -1843.946       484.4165       403.3340      -3642.261      -2689.032
      -1580.611      -4828.604      -5028.314      -5856.680      -10754.61
      -8448.094       5846.203       18393.06       14639.10       1688.361
      -5659.305      -6724.637      -4689.133      -3790.354      -2372.512
       5246.591       5671.408       1234.941       6821.281       7427.199
      -6400.557      -13820.68      -242.7734       14744.44       9864.307
      -2185.526      -3385.008       3874.377       5197.200      -3780.534
      -7500.704       867.8721       5814.266      -1198.613      -7331.766
      -3216.893       2899.794       1106.699      -3677.334       187.7500
       6532.610       1365.095      -6102.122      -3947.498      -2260.992
      -2253.537       3968.609       7393.506       3358.329       3106.156
       471.6758      -8484.829      -3858.145       7124.699       4747.572
      -291.8037       1352.256       3905.172       979.7842      -4566.023
      -3714.869       377.0898      -1262.230      -1352.918       4449.135
       2723.757      -1678.365       3946.550       1556.922      -8750.763
      -4391.877       1188.497       500.3643       3136.034       3101.266
       2692.509       1603.237      -1031.731       95.68390       123.3312
      -638.3392       511.8302      -680.0842      -848.3271       2596.224
       3838.360       1120.071       440.8638       392.9194      -2686.302
      -2267.053      -2.906250       1000.909       3001.140       4261.089
       4063.581       1779.865      -2480.403      -5841.500      -2844.911
      -87.18750      -2353.230       3172.745       6198.999      -1212.372
      -629.1094       2095.076       101.7722       480.9531       547.3555
       1144.426       1534.766      -4407.814      -4622.889       2014.964
       34.25488      -3143.053       3210.504       5697.201       61.09131
       1186.604       3324.765      -355.1753      -203.2051       3818.029
       5184.350       1526.648      -4077.398      -9436.320      -9107.875
      -197.4282       2506.281      -4223.537      -4786.003      -226.8301
       4022.566       7942.005       5141.117      -747.2280       599.3618
       1683.332      -241.6440      -424.4785      -5720.400      -4321.896
       9768.520       11018.55       165.1533      -3468.082      -2266.679
      -3306.220      -3814.835      -3876.244      -1685.473       707.3867
