     0.02500000      -53262.06       69398.75      -12345.00      -12345.00
      -30.01499       232.6350      -31.68000      -12345.00      -12345.00
       0.000000       23.63000      -12345.00      -12345.00      -12345.00
      -12345.00      -12345.00      -12345.00      -12345.00      -12345.00
      -12345.00      -12345.00      -12345.00      -12345.00      -12345.00
      -12345.00      -12345.00      -12345.00      -12345.00      -12345.00
      -12345.00      -32.83200      -66.08020       1675.000       0.000000
      -31.23600      -65.83800       0.000000       167100.0       0.000000
      -12345.00      -12345.00      -12345.00      -12345.00      -12345.00
      -12345.00      -12345.00      -12345.00      -12345.00      -12345.00
       178.4495       187.3022       7.430080       1.604530      -12345.00
      -12345.00     0.05491732       0.000000       0.000000      -12345.00
      -12345.00      -12345.00      -12345.00      -12345.00      -12345.00
      -12345.00      -12345.00      -12345.00      -12345.00      -12345.00
      2008       318        11        13         2
        80         6    -12345    -12345     10507
    -12345    -12345    -12345    -12345    -12345
         1         7        13    -12345    -12345
    -12345    -12345    -12345    -12345    -12345
    -12345    -12345    -12345    -12345    -12345
    -12345    -12345    -12345    -12345    -12345
         1         1         1         1         1
ESP12   -12345          
01      -12345  -12345  
-12345  -12345  -12345  
-12345  -12345  -12345  
-12345  -12345  -12345  
-12345  -12345  -12345  
-12345  -12345  BHZ     
XH      -12345  -12345  
[...]
       140.0710       127.8183       111.3022       108.5820       97.88232
       89.43074       74.27769       72.37263       55.57063       51.21758
       42.21432       32.24935       19.20177       18.74618       8.000618
       1.561569      -6.912697      -12.06071      -32.79513      -30.41902
      -39.19363      -54.45348      -64.45898      -61.18030      -78.87158
      -84.15463      -86.98328      -93.44095      -108.4467      -105.7476
      -115.4925      -119.0450      -128.7726      -130.9871      -141.8647
      -147.7757      -154.5385      -155.5286      -166.2962      -164.4825
      -169.2709      -174.2098      -185.9787      -182.6045      -194.5287
      -193.5157      -198.0927      -199.0402      -205.1296      -211.2886
      -220.9544      -214.1949      -227.2930      -230.1879      -233.2843
      -232.2984      -241.1555      -242.5723      -251.2390      -246.7626
      -256.7286      -255.8816      -256.3468      -254.7738      -261.8945
      -260.3536      -268.1629      -269.1106      -274.1205      -269.2433
      -278.4319      -275.4362      -282.8025      -283.6636      -285.8759
      -281.8085      -297.7067      -295.2716      -301.4948      -305.1088
      -312.2161      -306.3550      -321.6603      -326.5337      -329.3859
      -330.1526      -342.5850      -337.8624      -346.7971      -346.1671
      -356.7576      -356.9739      -366.3918      -365.2985      -371.7073
      -372.8009      -390.8503      -377.2419      -391.1620      -395.3124
      -394.4722      -397.6414      -413.2417      -408.5522      -414.4928
      -418.2666      -427.0365      -417.9642      -434.3899      -435.7733
      -443.3789      -436.3827      -446.6423      -444.6824      -450.7178
      -445.3246      -457.1714      -451.8459      -459.1715      -452.2327
      -453.9316      -450.2324      -457.4871      -454.1454      -461.1472
      -451.4226      -459.6587      -453.7087      -454.5354      -444.2383
      -453.7378      -443.8219      -445.2114      -439.6311      -446.2822
      -436.6101      -442.7423      -438.4248      -434.1761      -419.2009
      -423.5566      -410.3025      -410.7812      -404.3733      -403.8701
      -385.6873      -389.3226      -378.6086      -372.4187      -355.0302
      -357.5908      -343.5201      -337.2255      -323.0056      -321.4990
      -304.6201      -297.3928      -270.8042      -272.2646      -253.8167
      -241.3657      -226.3665      -216.6154      -195.4608      -188.8663
      -159.4454      -152.8279      -126.9912      -113.7195      -90.65845
      -75.81735      -54.71029      -45.62328      -16.56724      -4.377197
       26.22478       41.94165       66.27594       82.82153       109.5214
       119.7299       150.6894       160.8805       192.0337       215.1231
       238.4021       247.0582       274.4230       287.9214       313.4542
       327.4932       352.8717       359.7982       390.2218       398.9641
       422.5754       436.0344       455.1267       465.9371       492.2222
       496.1362       520.9579       527.7070       544.8743       557.0281
       578.9646       579.4792       603.0834       610.5854       623.9380
       625.5929       648.3469       645.0725       661.3777       673.9966
       682.0371       677.4468       699.6458       697.1648       708.2397
       702.8735       715.5598       713.4495       725.4031       716.0796
       727.0767       722.2007       726.2185       719.2954       731.5117
       720.1726       732.2991       713.9436       720.9297       711.6423
       701.8210       704.3354       709.2949       678.0925       694.2986
       676.1487       674.3005       662.2374       653.7362       636.6083
       635.2620       616.2246       620.3425       597.1140       591.0420
       574.0999       571.5522       547.6243       540.7549       520.1251
       517.6697       494.6619       484.8601       459.9155       458.7202
       433.6843       426.1382       407.2092       401.7456       372.1604
       370.7789       353.6946       342.0756       318.3424       317.9711
       290.6166       277.8461       253.7794       256.3750       231.8079
       218.1379       200.6578       199.4095       165.4757       159.0918
       141.6266       129.8209       106.5066       104.7119       74.78542
       67.23062       45.61960       42.09308       16.14436       9.015369
      -11.62012      -16.58344      -36.81700      -42.13644      -65.76587
      -64.23215      -82.97784      -86.16190      -107.4980      -107.3555
      -126.7665      -132.1160      -148.5966      -143.2361      -157.6747
      -159.5177      -178.4376      -174.5954      -192.3376      -189.9587
      -198.4921      -190.6657      -211.9296      -215.2096      -230.8154
      -226.8418      -247.8968      -243.5746      -253.7159      -255.8654
      -278.0230      -271.1378      -286.7131      -287.7537      -310.0320
      -308.5303      -321.7541      -325.9252      -349.8586      -345.9529
      -359.9639      -362.5107      -383.6857      -377.9608      -397.5316
      -396.4399      -412.3356      -415.0298      -433.0166      -429.6980
      -451.5015      -449.6930      -463.6648      -464.8529      -482.9220
      -475.7876      -487.2675      -485.3918      -502.9509      -498.3809
      -514.0713      -511.6965      -523.5242      -514.8838      -533.7288
      -529.1865      -538.6129      -531.7473      -546.3079      -538.8553
      -545.7622      -538.2468      -551.7859      -547.6917      -555.4197
      -541.7693      -548.0454      -535.5797      -546.3969      -538.4641
      -546.8933      -529.3964      -539.7078      -527.7319      -532.6526
      -525.5327      -527.1083      -515.4911      -523.5479      -502.9419
      -512.8306      -496.5999      -503.0886      -492.1218      -499.6642
      -487.1294      -491.1868      -477.2755      -484.0081      -473.4177
      -478.3259      -455.9849      -464.2766      -446.3500      -444.9159
      -428.1071      -434.4253      -420.8070      -420.9088      -406.4302
      -408.6094      -383.2131      -387.0059      -364.3910      -360.9009
      -344.4028      -346.0256      -318.7271      -312.0913      -294.0311
      -290.4863      -257.4638      -259.4480      -242.4155      -229.9772
      -205.8153      -207.1245      -176.3170      -171.9543      -148.9978
      -144.5104      -119.1442      -112.3019      -87.29166      -84.00203
      -55.43671      -56.26481      -37.06207      -29.73831      -3.753754
      -2.404854       16.99245       19.38480       39.65912       38.99374
       68.00732       69.38602       87.88361       89.28619       108.4845
       110.9552       133.6345       131.6660       152.7525       154.8535
       169.9116       166.6505       193.1625       183.8362       197.6539
       208.6080       220.0486       210.3434       241.4142       235.0259
       239.5348       245.0790       271.8253       258.2721       273.0145
       277.7488       290.7062       283.6133       311.2645       305.7050
       315.2156       317.9143       335.1852       330.1755       358.4641
       351.9226       361.7245       368.9166       389.0400       378.5470
       403.8940       397.0730       406.0323       413.7213       431.1620
       423.1973       444.0280       439.5800       454.7506       444.5005
       475.2390       474.3232       472.4237       478.2554       501.1746
       481.0302       505.7166       502.0991       509.3378       505.4104
       522.8489       510.5930       527.4648       522.6541       529.1416
       524.6143       538.9753       524.2764       541.2158       531.7859
       539.4558       525.9646       537.7195       528.2566       537.6526
       525.2732       536.8083       520.8483       523.6708       513.1006
       522.8834       498.9662       509.0088       504.0000       500.4159
       481.1927       500.3744       479.1062       476.9133       472.2878
       475.0249       448.8467       458.5569       438.0413       439.5867
       424.4603       424.8298       409.3551       409.7742       384.8828
       396.8633       380.1589       375.7349       357.9280       359.5909
       333.3014       347.4106       331.2238       319.2190       304.3101
       312.1160       286.0869       287.2396       276.1298       278.0529
       248.4628       251.0831       238.8893       227.0282       204.1677
       222.3533       192.2809       183.0911       178.8557       175.6196
       152.3951       163.3218       141.5130       139.2552       121.0515
       118.1045       89.21942       102.1129       99.04817       86.95895
       66.98807       82.42775       53.83276       54.95258       45.45162
       45.50163       25.63811       28.22987       13.33516       16.07962
      -1.185566      0.5357208      -26.69214      -11.50438      -24.66566
      -37.99829      -53.44659      -45.47343      -67.99014      -66.59662
      -87.41937      -84.99026      -107.2355      -98.02841      -111.9806
      -115.3374      -131.9952      -134.0763      -155.1476      -151.3451
      -177.2358      -167.9653      -184.6763      -182.9668      -203.8593
      -199.7073      -217.4041      -217.8793      -231.1077      -224.0804
      -244.8135      -238.2360      -262.4081      -259.5000      -271.9255
      -270.2677      -289.3372      -281.8820      -295.8590      -291.9636
      -309.2771      -304.7114      -319.3417      -314.0626      -331.4514
      -324.1110      -337.4674      -328.2318      -347.5712      -345.5396
      -354.6433      -340.9365      -354.4352      -346.7377      -360.8969
      -355.9336      -370.9292      -359.2057      -370.7268      -364.2704
      -375.2162      -362.1459      -380.3164      -368.2764      -372.2660
      -367.1753      -386.2375      -378.2046      -392.2324      -388.8352
      -396.8192      -382.0647      -403.9728      -400.8915      -414.5302
      -406.8593      -420.0603      -411.3020      -429.1552      -423.0708
      -436.7080      -432.5347      -441.5710      -436.0900      -452.8936
      -446.5336      -457.1748      -449.3459      -472.2089      -459.3022
      -468.5906      -467.2028      -475.9143      -461.3636      -475.6281
      -473.8198      -478.4296      -466.3052      -478.0494      -467.5327
      -472.0427      -459.7317      -465.8805      -447.3787      -455.0928
      -436.9575      -436.6538      -427.6997      -429.0048      -406.6157
      -421.0265      -401.3973      -399.3871      -391.1085      -406.1035
      -378.4081      -381.7196      -380.8440      -376.6636      -356.9225
      -373.8287      -349.9677      -349.0653      -348.2260      -350.7201
      -326.3867      -333.7288      -319.4948      -319.2349      -298.4277
      -310.6324      -291.3065      -290.9073      -283.2426      -281.2167
      -260.3512      -269.8838      -254.9497      -252.3907      -239.0647
      -240.9418      -218.5676      -227.0431      -206.9874      -194.6426
      -180.7219      -190.7797      -167.9620      -164.1498      -160.4764
      -163.8807      -129.0294      -132.5885      -118.5255      -109.5451
      -89.28888      -85.97118      -73.73962      -78.67111      -50.19806
      -47.77541      -33.75313      -33.52666      -15.87585      -9.282864
       11.33813       17.28723       36.36794       33.41750       56.22882
       60.56894       77.58850       78.85214       103.0235       106.3367
       108.0849       105.8951       136.9539       126.5548       139.1677
       143.7189       148.0489       149.5148       167.8416       150.5375
       159.0394       170.6010       182.6772       167.7910       183.0195
       171.1696       181.7662       176.6458       184.1876       181.4648
       189.5795       182.3529       190.3578       179.6566       197.7394
       196.0922       198.1644       190.6750       210.3709       203.9288
       205.8304       196.4359       209.2943       209.4395       213.9879
       197.3515       214.3112       210.4490       215.2907       214.2774
       225.6839       221.3011       238.5667       223.9593       234.1711
       236.9315       244.0693       241.7092       251.2088       240.0846
       254.3934       249.0804       253.3301       249.5651       267.2098
       254.0519       259.7522       263.0140       269.8134       260.4043
       276.9769       273.8325       284.1868       275.0499       277.5967
       275.1815       291.5799       291.1803       290.5919       278.4713
       306.7226       300.5668       289.0897       294.2144       318.4873
       302.8634       301.1885       293.9792       327.8775       323.2413
       285.0038       285.5291       389.5141       358.5021       119.2715
       510.8301       3483.492       10560.77       32801.41       69398.75
       67060.17       5510.438      -45970.81      -53262.06      -49346.10
      -39764.34      -2979.766       29549.74       12521.29      -17444.94
      -16197.64      -2662.070      -5096.844      -18323.27      -7662.320
       22281.19       27972.15       7517.512      -8170.211      -11070.56
      -11947.17      -8409.528       2028.775       9802.724       7200.251
       36.19629       288.6523       10275.11       14969.14       5268.534
      -2740.203      -3082.916      -5332.053      -6409.710      -2166.506
      -1106.423      -4743.506      -6874.146      -3206.370       3508.311
       2954.825      -2190.113       2541.652       13472.96       13484.42
       3832.379      -3147.908      -8633.348      -14470.22      -14398.47
      -3129.650       8879.490       3254.258      -7610.479      -5801.682
       2348.188       11735.66       19130.40       16593.31       3236.635
      -7884.456      -6098.177      -2556.273      -9015.324      -9570.121
      -253.9492       2976.159       5433.082       2663.996      -8052.695
      -7067.965      -5867.625      -11859.10      -3487.461       12635.02
       15358.02       4920.584      -5997.700      -7351.497      -254.7637
       7084.748       3015.896      -6984.946      -2429.385       7111.001
       3383.647      -1641.031       1338.572       3331.298       2594.397
       1650.466      -1624.848      -2904.383       1120.167       3770.771
      -278.1074      -5700.633      -3684.110      -361.6113      -4187.041
      -5851.635       834.9541       3580.632      -2213.091      -1272.018
       3993.998       1884.728       701.2256       4204.380       3095.905
      -580.6079      -1239.182       151.8384       229.5410      -3757.160
      -3789.570      -780.4663      -1843.770      -798.0479       2583.625
       2577.559       2397.064       6295.961       5725.363      -2561.643
      -6083.062      -5362.996      -8975.294      -8272.053       3175.377
       6999.967      -482.3464      -217.2351       1471.246      -2662.111
       1345.734       9905.168       7978.156       4491.115       7503.646
       4044.758      -5515.625      -8444.821      -5528.550      -2951.989
      -746.6313       1258.311       542.7578      -1837.260      -1607.185
      -115.5977      -2900.719      -6199.730      -2682.678      -242.8633
      -3381.488      -672.2031       4719.918       5289.724       4310.025
       826.8495      -823.0938       2170.393       1686.166       278.7676
       986.5645      -4156.753      -6262.349       2721.288       5090.121
      -1916.463      -6075.307      -5033.035       796.4470       2776.919
      -3553.714      -4100.526       3240.454       4643.424       1368.303
      -2437.610      -6005.511       1264.629       10475.25       4745.493
      -2793.862      -2521.188      -5601.963      -9543.927      -2567.367
       8855.213       11343.66       2530.916      -7364.184      -9920.922
      -7464.455      -183.7773       7954.955       8805.642       2927.734
      -1437.707       4039.984       10519.31       2295.166      -10304.37
      -8350.318       27.55859      -481.6992      -5050.646      -5977.012
      -3318.126       577.4541       3915.645       1500.747      -5141.685
      -4295.963       1258.443       3983.936       4093.583       1029.525
      -4856.018      -6931.445      -3800.224      -1725.529       3648.762
       7182.660      -83.92773      -4559.105      -3214.832      -3580.254
      -2532.535       1433.266       6219.642       5149.125      -2223.400
      -5934.467      -4646.687      -2753.305      -427.8457       1740.569
       3018.863       5155.161       6211.759       695.5830      -6061.417
      -2953.396       3893.585       1885.908      -4740.699      -6132.965
      -3853.281      -5087.678      -7587.098      -4152.454       1267.753
       3646.066       5945.230       6392.079       3530.871       1437.613
       157.4548      -947.8911      -440.1152      -1865.134      -4195.677
       278.7832       5005.271       4422.433       1437.523      -4765.918
      -6523.933      -3260.502      -1118.516       3322.793       5483.728
       1001.787      -2064.560       154.2599       355.8623      -2120.073
       688.9551       3858.789       3300.466       786.9219      -5026.767
      -5166.452       717.1592       3148.428       2773.603       993.0183
      -240.4565      -876.2012      -1937.077      -2252.051      -3522.126
      -3145.136      -1246.113       284.3682       2477.897       964.2715
      -2793.046      -2899.573      -864.0615       898.6689       2678.451
       5234.033       5863.083       2688.404       146.5535       418.8076
      -782.8359      -3363.054      -1357.027       3354.272       4599.865
       3114.175       4032.137       6079.675       2891.047      -4566.576
      -7586.854      -3922.723      -130.5493       1791.273       1293.173
      -1059.985      -1477.312       947.2983       1872.348       808.5781
       1508.092       2435.938       1666.857      -684.1250      -3088.430
      -458.6816       4395.946       884.8643      -3764.849       2629.764
       7608.015       1894.844      -984.8706       1308.411      -620.1360
      -656.2852       4030.892       4038.051      -1073.879      -3552.994
      -2686.157      -476.7538       1025.769      -1033.171       604.7900
       4672.175       653.6553      -4173.096      -1706.740       2227.311
