     0.02500000      -58506.04       48272.12      -12345.00      -12345.00
      -30.01499       232.6350      -31.68000      -12345.00      -12345.00
       0.000000       23.63000      -12345.00      -12345.00      -12345.00
      -12345.00      -12345.00      -12345.00      -12345.00      -12345.00
      -12345.00      -12345.00      -12345.00      -12345.00      -12345.00
      -12345.00      -12345.00      -12345.00      -12345.00      -12345.00
      -12345.00      -32.83200      -66.08020       1675.000       0.000000
      -31.23600      -65.83800       0.000000       167100.0       0.000000
      -12345.00      -12345.00      -12345.00      -12345.00      -12345.00
      -12345.00      -12345.00      -12345.00      -12345.00      -12345.00
       178.4495       187.3022       7.430080       1.604530      -12345.00
      -12345.00    -0.03205528       0.000000       90.00000      -12345.00
      -12345.00      -12345.00      -12345.00      -12345.00      -12345.00
      -12345.00      -12345.00      -12345.00      -12345.00      -12345.00
      2008       318        11        13         2
        80         6    -12345    -12345     10507
    -12345    -12345    -12345    -12345    -12345
         1         7        13    -12345    -12345
    -12345    -12345    -12345    -12345    -12345
    -12345    -12345    -12345    -12345    -12345
    -12345    -12345    -12345    -12345    -12345
         1         1         1         1         1
ESP12   -12345          
01      -12345  -12345  
-12345  -12345  -12345  
-12345  -12345  -12345  
-12345  -12345  -12345  
-12345  -12345  -12345  
-12345  -12345  BHN     
XH      -12345  -12345  
[...]
      -36.23369      -24.49137      -43.29550      -39.84911      -57.50139
      -56.07114      -78.40732      -69.85168      -89.19412      -80.10541
      -97.20184      -103.9550      -124.0561      -115.9686      -139.4357
      -140.1993      -160.8901      -151.2457      -174.3667      -174.0256
      -190.2024      -188.0573      -209.1827      -201.7814      -216.3662
      -215.3114      -242.0606      -235.5397      -253.5127      -250.8959
      -269.1862      -261.4998      -283.3438      -275.4462      -288.6534
      -288.7362      -303.5670      -291.8805      -310.8313      -303.1093
      -313.2202      -301.0642      -320.6522      -314.8407      -329.7123
      -320.2627      -331.9814      -322.9481      -334.6720      -322.4930
      -339.1566      -329.0930      -341.3157      -323.7358      -330.3109
      -323.4939      -334.0833      -319.0466      -327.2961      -309.6895
      -325.4270      -306.4173      -308.9159      -302.5745      -310.7718
      -291.3032      -294.5527      -279.2080      -287.3477      -266.7540
      -277.0099      -259.8393      -264.4898      -244.5945      -250.0698
      -234.0739      -235.8205      -221.5427      -228.5591      -202.0974
      -208.5107      -191.6134      -196.3168      -174.8427      -176.1483
      -163.9406      -170.0248      -145.8847      -153.0764      -134.9675
      -135.3700      -119.9429      -130.2959      -106.6209      -107.2972
      -98.77655      -98.42644      -69.90552      -86.84390      -68.45654
      -64.44864      -38.95380      -52.99430      -34.75343      -18.72030
     -0.9234915      -7.237621       17.91403       15.99223       41.74542
       35.57507       59.29153       70.62866       92.18484       87.82037
       113.2671       113.5040       136.6023       135.3866       163.7867
       167.3848       184.7008       189.9443       213.8546       211.5231
       238.9795       237.4558       258.5194       259.1527       284.6932
       279.7926       303.1772       306.1605       322.0398       320.3684
       347.9246       346.0914       361.3772       364.1482       390.7983
       379.3865       397.4562       400.7418       418.9404       415.7543
       441.4678       435.6392       452.2744       442.9386       467.1694
       466.6564       476.5825       472.2781       493.4702       482.1465
       495.1158       487.6082       503.1797       492.5775       505.1837
       492.3956       506.9518       501.5751       509.0833       495.8170
       514.3979       507.7295       519.8555       508.7291       518.2775
       507.1973       516.6909       499.2715       513.5618       497.9310
       503.7350       494.5009       504.2506       483.7334       491.4457
       477.9062       484.9983       465.6051       469.7159       450.4119
       455.0012       433.1429       443.1029       422.7983       420.2445
       400.5688       398.1404       370.8995       375.9856       354.9810
       360.8466       336.3021       333.4030       308.1779       305.3481
       277.1506       273.4587       248.2531       240.4911       211.6302
       212.1960       180.3228       177.3516       155.1764       151.5991
       124.4101       115.2365       84.62218       80.66632       55.47115
       50.53075       16.60735       16.45588      -15.53984      -22.67839
      -50.98488      -56.85590      -80.65509      -80.80594      -111.8227
      -124.4093      -155.5179      -151.8836      -190.0577      -201.7188
      -222.1359      -227.8805      -263.2261      -263.6558      -295.2585
      -302.4742      -320.8737      -328.7125      -363.8105      -357.0649
      -389.6482      -397.7476      -420.0870      -420.8229      -447.2017
      -451.6199      -477.0771      -470.9233      -499.6360      -504.2366
      -520.3828      -516.0710      -544.9143      -536.0095      -550.3625
      -550.7113      -571.0323      -561.0432      -581.3885      -571.7925
      -585.3470      -579.3090      -591.2881      -578.8540      -597.7925
      -583.8530      -593.8279      -584.1698      -590.0667      -570.5530
      -584.8501      -573.0505      -571.7295      -549.8669      -565.7578
      -548.0520      -543.9296      -530.2593      -542.8113      -512.0436
      -516.2546      -505.9791      -504.7427      -480.0654      -485.5695
      -465.2045      -464.0320      -438.1088      -442.7711      -422.9507
      -421.0262      -396.4097      -397.1621      -378.0977      -386.8230
      -359.8998      -362.1387      -339.8306      -334.0190      -315.6027
      -314.9984      -293.1716      -295.2765      -267.3127      -271.9603
      -250.3629      -250.2966      -228.9392      -230.3342      -211.1685
      -210.6102      -185.6212      -188.8503      -168.8168      -166.7311
      -143.7304      -150.0543      -126.9054      -128.8451      -109.4429
      -110.3987      -87.93245      -83.57349      -59.42502      -62.68439
      -39.83940      -40.28707      -17.67249      -20.45506       4.892921
       4.548149       28.17202       31.55832       48.69006       42.79947
       69.97150       72.81995       86.72614       87.41623       114.4681
       110.9966       130.6103       126.5048       150.3115       151.8929
       164.7073       168.3612       196.6401       185.7327       210.9154
       216.8465       234.4578       236.2980       259.6947       256.5907
       275.2987       269.2167       294.6331       296.7023       304.6805
       304.7151       338.3159       325.4426       339.9036       344.1808
       365.5228       358.3330       375.4012       372.0353       396.9490
       393.2522       398.5042       398.6110       411.9324       398.8397
       424.4399       415.6995       430.0251       422.8900       440.5918
       429.9806       438.6116       427.8003       440.7688       433.4794
       446.7981       435.0229       447.8459       435.1257       444.7599
       439.3945       452.7343       436.3601       447.8130       441.7493
       452.8055       440.1179       454.3457       441.8154       456.6169
       443.1981       449.4214       443.3550       454.7571       440.0674
       453.2997       439.1394       451.2725       442.1294       446.7322
       435.7910       453.7687       435.3911       439.8577       432.6085
       439.6005       415.0923       425.6270       416.4564       426.0199
       404.2722       411.6135       394.5273       394.1710       380.3722
       391.3845       376.9535       379.3191       360.8922       366.4877
       338.8316       333.4015       315.2322       313.8113       292.6926
       296.9818       269.2588       264.7245       247.2061       241.9024
       221.0579       220.8254       186.8600       187.7947       167.0677
       157.5069       128.7249       125.1387       97.67105       95.83409
       72.88040       65.97173       44.15169       41.26942       6.185364
       11.92406       1.740517      -11.28431      -41.50067      -32.25632
      -56.12570      -62.46890      -81.65900      -81.63574      -106.6505
      -104.9345      -119.7099      -116.2634      -137.9691      -130.9413
      -154.9694      -158.8422      -170.9899      -166.4572      -182.8467
      -170.5066      -185.6727      -189.3408      -199.5506      -183.8845
      -205.5907      -201.8027      -210.8479      -209.2664      -226.3784
      -206.3348      -222.2981      -223.1965      -228.6168      -212.6891
      -230.5496      -223.8375      -236.5808      -229.9530      -243.9966
      -236.4271      -248.7863      -243.7563      -263.7720      -263.3314
      -277.1909      -272.0922      -284.1221      -277.3971      -300.6718
      -290.5516      -305.8663      -311.8386      -324.4045      -312.6721
      -335.4036      -332.2239      -342.9087      -345.7444      -365.6943
      -352.9290      -367.4993      -368.2671      -383.2390      -376.4573
      -390.8032      -390.0066      -408.9971      -400.4329      -415.5164
      -408.9766      -419.3279      -410.6763      -428.0906      -424.8258
      -434.5630      -427.0878      -443.6724      -435.8312      -446.9403
      -436.9972      -454.5558      -445.0891      -450.7876      -444.4651
      -457.1953      -439.8329      -448.9553      -452.2740      -459.1261
      -442.8945      -458.0396      -446.3721      -454.8113      -440.9558
      -451.1760      -439.1171      -441.1996      -441.4030      -443.3652
      -425.6282      -445.4918      -434.1044      -426.6993      -426.0435
      -439.2771      -408.8809      -415.4663      -416.4636      -412.8760
      -402.4215      -419.4802      -397.9038      -398.3369      -389.1351
      -388.7849      -372.0908      -374.4066      -364.8604      -380.3848
      -361.9207      -359.5217      -349.5525      -359.2054      -346.7982
      -344.7812      -325.7787      -335.3829      -319.9766      -313.7982
      -299.7292      -308.2364      -292.3439      -295.9415      -281.3334
      -283.0513      -263.2886      -262.0234      -248.9702      -251.2128
      -228.1501      -225.9009      -207.6252      -204.9706      -181.5660
      -179.6517      -158.7366      -147.8499      -126.6956      -124.8593
      -105.8640      -103.4844      -76.53683      -63.48074      -40.55334
      -38.19167      -11.60617      -7.307083       15.65466       29.66820
       55.49017       58.36905       81.79916       102.6454       131.8005
       135.3052       164.4816       176.0431       203.5601       213.2248
       239.1808       251.6177       281.9745       297.5667       324.6296
       339.3451       370.2961       376.0232       402.2732       413.1616
       441.3301       455.3716       482.4150       488.7271       508.9960
       517.7380       544.4980       548.8654       572.8083       582.6843
       601.4178       601.7946       620.8129       622.3674       640.5629
       636.1672       654.8533       660.7861       667.3840       663.5798
       683.9685       678.1724       689.9675       688.4102       703.2319
       694.4487       702.4897       701.1582       705.9084       701.1755
       711.1711       697.4836       712.9722       704.9727       705.4954
       701.5591       707.3376       696.8291       704.8711       694.3176
       699.9626       692.6912       698.2451       684.4248       687.3442
       677.5381       673.3524       665.7507       672.1714       651.5430
       656.9503       647.0322       643.3473       628.8071       632.4058
       614.3553       605.1907       594.1877       589.5610       565.6057
       569.1150       549.1799       537.6407       519.7290       516.1466
       493.6476       481.0598       462.4722       459.7946       436.7645
       430.1467       419.5029       412.1923       387.0469       380.9718
       354.9478       346.1769       331.6791       325.3187       309.0969
       301.3940       275.3535       272.2288       257.6744       247.4102
       230.1906       226.3054       200.2908       188.0121       170.7015
       161.9790       137.9600       132.2046       111.3566       99.69809
       79.41499       65.99115       43.40817       39.34257       17.12511
       4.101578      -18.16589      -30.22258      -52.49985      -66.50162
      -87.66260      -98.72919      -119.3668      -123.4091      -152.3998
      -175.5389      -190.7405      -190.5582      -226.0226      -242.9045
      -249.2984      -260.1436      -290.4169      -294.4527      -311.0073
      -326.7058      -349.1577      -353.9155      -369.4443      -376.8164
      -396.6653      -401.4990      -418.7419      -426.5261      -445.7032
      -452.0529      -469.7893      -476.0717      -488.0813      -494.7205
      -512.6443      -517.1288      -530.4790      -538.1715      -550.1261
      -548.0256      -562.2603      -572.0431      -585.5310      -582.7878
      -593.9846      -592.9066      -598.0847      -598.8608      -607.8013
      -607.8657      -618.5658      -618.2544      -624.1367      -619.3643
      -625.2253      -625.8081      -628.7408      -620.2825      -633.1523
      -633.1044      -622.9778      -619.8372      -631.3625      -622.5540
      -624.0945      -622.0631      -620.7446      -616.1334      -622.8154
      -618.0029      -616.9186      -606.2875      -606.7084      -598.5688
      -597.6997      -591.9373      -591.3245      -583.1813      -571.8599
      -563.3521      -570.8845      -559.1923      -557.3499      -538.5166
      -538.2739      -532.3186      -514.3557      -503.7361      -510.9576
      -493.8947      -470.3925      -454.7017      -472.8718      -471.0334
      -424.4797      -388.9062      -462.8510      -469.9575      -266.8469
      -347.9297      -1834.516      -4889.023      -17631.20      -47267.06
      -58506.04      -18029.23       33200.25       48272.12       39284.81
       27808.40       2883.430      -31023.62      -29592.93       10086.06
       33514.45       12323.23      -8880.545       8311.311       13130.92
      -20252.33      -33194.75      -6009.613       17393.99       18417.07
       14295.80       7222.057      -6012.246      -12056.84      -4597.175
       1333.148      -1933.514      -2149.332       4715.648       8431.406
       6353.614       5041.319       387.1602      -6702.463      -7945.214
      -2050.381       10220.17       11632.57      -7398.883      -23638.94
      -15597.04       3831.980       10632.44       4351.455      -3442.121
       1683.840       16910.50       19268.93       7980.707      -2254.426
      -9585.402      -10050.53       939.7969       12019.99       10376.25
      -913.4961      -9624.693      -11136.90      -8455.133      -2477.302
       2076.048      -2255.873      -3772.618       4520.474       4878.458
      -1900.452      -2058.773      -2657.578      -5268.238       3449.199
       18042.39       20003.52       1134.254      -17693.41      -13976.68
      -3063.578       2029.281       5235.532       4158.146      -610.1675
      -1311.627       2206.965       6858.113       8386.727      -1102.100
      -8868.191      -4443.314      -1743.473      -4387.555      -2154.884
       3540.556       3420.299       1574.592       3161.657       3229.342
       128.2432      -2489.092      -4926.310      -3991.375       5581.939
       10636.64       3946.855      -3119.752      -6177.090      -4403.598
       5512.969       11256.24       5551.771      -401.1641      -3412.845
      -2672.422       5010.971       8047.617      -2502.240      -10285.60
      -4232.858       4306.488       5710.236       43.38672      -6814.170
      -6870.568      -609.8359       3919.044       3341.874      -732.9683
      -3438.736      -160.1006       3921.953      -693.5898      -9246.855
      -6261.085       4442.594       7660.785       7045.537       5716.744
       2538.013       598.8896      -2521.111      -2065.778       2305.419
      -108.9670      -2415.359       3141.805       5103.884       463.0449
      -4223.859      -6757.155      -1948.438       3932.331      -8.232422
      -4190.925      -925.7061       1601.667       866.5619      -98.68457
       1677.023       6427.219       6831.104       2917.876       1571.352
       1962.587       140.8481      -510.3613      -1613.054      -6040.417
      -1740.465       8775.977       12293.68       3476.016      -15085.82
      -20068.54      -6230.373       1505.465       2733.283       7644.217
       5840.902      -2491.066      -3424.549       173.3467       1281.361
       1446.716      -1063.659      -2161.625       402.1732       657.1074
      -2819.622      -5125.473      -51.82983       3094.992      -2768.568
      -6391.899      -3762.331      -391.9961       3077.210       4017.862
       1657.474       2092.082       1057.644      -1986.692      -2089.694
      -1861.950      -2538.629      -5239.075      -3831.211      -882.8999
      -2673.045       759.0332       8654.498       7031.900      -817.3535
      -5409.248      -8121.506      -2291.992       8808.039       8500.009
       592.1667      -1323.377       3066.138       3656.010      -3018.248
      -8451.547      -4762.333       3529.980       4203.021      -4444.668
      -7597.703      -238.6753       3067.972      -298.3113      -455.7266
      -2153.938      -7043.722      -6043.265       2304.654       9839.426
       7026.468       2746.272       2943.750       297.7881      -2714.224
      -2134.391      -1119.813      -2548.310      -433.6191       7464.463
       8607.966      -2148.479      -6064.400       2843.816       3768.222
      -3416.350      -3772.134      -1538.417      -697.5220      -582.8994
      -3862.068      -7358.104      -3626.770       6658.705       8639.057
      -1783.926      -8870.096      -4223.003       5360.518       8634.487
       3695.805      -787.2417      -2612.799      -650.5645       3564.802
       3099.831       1608.049      -1552.821      -6233.930      -3945.331
       289.3682      -1580.877      -4704.945      -3323.629       2395.936
       4306.055       1650.479       4377.548       6676.583       1432.896
      -4094.186      -4622.540      -3413.248      -2398.618      -608.5840
      -2694.657      -3146.017       4709.654       7449.455       2685.833
       1380.808      -1515.101      -5560.463      -2593.986      -51.90454
      -732.6621      -2627.777      -4945.979      -2155.620       1881.581
       1433.122      -176.7598       1035.723       2094.314       4674.078
       6521.481      -1104.469      -8419.035      -8401.566      -6536.399
      -4325.186      -2290.091      -381.3643       3188.480       7681.180
       7738.770       4190.658      -339.6831      -2157.902       1586.742
       4615.019       3051.864      -2473.202      -4722.904      -1770.604
      -989.0786      -1055.923       1129.985       2105.903      -525.9385
      -1593.835      -3188.580      -5778.325      -2686.140       447.1372
       860.8564       2353.424       2879.018       2752.910       2576.001
      -1227.963      -5373.175      -4500.599      -610.2751       1378.143
       874.7559      -1224.349      -2706.420       1473.333       3304.115
      -1450.516      -1522.543       659.2100      -2917.047      -5326.454
      -90.35791       3074.560      -344.3379       2135.768       5555.886
