     0.02500000      -13923.25       17946.03      -12345.00      -12345.00
      -29.99504       251.6049      -50.22000      -12345.00      -12345.00
       0.000000       37.28000      -12345.00      -12345.00      -12345.00
      -12345.00      -12345.00      -12345.00      -12345.00      -12345.00
      -12345.00      -12345.00      -12345.00      -12345.00      -12345.00
      -12345.00      -12345.00      -12345.00      -12345.00      -12345.00
      -12345.00      -30.65860      -69.43630       2628.000       0.000000
      -31.23600      -65.83800       0.000000       167100.0       0.000000
      -12345.00      -12345.00      -12345.00      -12345.00      -12345.00
      -12345.00      -12345.00      -12345.00      -12345.00      -12345.00
       349.7343       279.6221       101.4638       3.144477      -12345.00
      -12345.00     -0.4915721       90.00000       90.00000      -12345.00
      -12345.00      -12345.00      -12345.00      -12345.00      -12345.00
      -12345.00      -12345.00      -12345.00      -12345.00      -12345.00
      2008       318        11        13        20
       620         6    -12345    -12345     11265
    -12345    -12345    -12345    -12345    -12345
         1         7        13    -12345    -12345
    -12345    -12345    -12345    -12345    -12345
    -12345    -12345    -12345    -12345    -12345
    -12345    -12345    -12345    -12345    -12345
         1         1         1         1         1
TOCO    -12345          
        -12345  -12345  
-12345  -12345  -12345  
-12345  -12345  -12345  
-12345  -12345  -12345  
-12345  -12345  -12345  
-12345  -12345  BHE     
ZL      -12345  -12345  
[...]
      -609.7539      -1998.556      -200.9974       977.6319      -392.3779
       634.2871       3289.496       1962.835      -1054.472      -476.7344
       2827.379       3800.279       81.94043      -2642.887      -982.5449
       461.6406      -443.0132      -1939.926      -1613.864       283.0386
       1318.751       1674.455       1255.740       133.6007      -42.60254
      -635.7998      -1127.548      -342.0669      -719.4980      -2028.334
      -1760.202      -444.6163      -169.7632      -741.2329      -672.2314
      -64.00458      -146.8513       471.8345       1400.239      -339.2847
      -1453.299       784.0342       2322.122       895.8613      -963.2737
      -966.3026      -258.6353       662.0642       1252.531       1237.560
       1625.750       355.6206      -2117.814      -2994.564      -1495.961
       1001.397       626.6021      -1396.574      -373.0723       2172.140
       1685.358      -1532.529      -3205.589      -2714.063      -2266.266
      -1470.950      -141.9863       999.6313       1838.139       1182.762
      -609.5825      -1457.368      -1482.422      -1287.160      -1076.543
      -1426.301      -582.8599       1334.448       929.9622      -1055.549
      -1639.159      -526.8406       728.8066       1139.782       674.4587
      -691.5371      -1891.416      -2450.314      -1824.358      -254.2399
       334.0701      -159.2476      -782.0129      -974.3981      -152.9755
       548.1230      -101.9877      -722.1062       353.8035       1512.660
       300.4336      -1236.446      -893.9714       113.6642       702.3790
       347.1013      -170.8941      -144.8626       49.97479       408.7047
       22.88062      -1074.460      -1909.955      -2233.869      -1374.482
      -620.2322      -798.0945      -17.05518       1323.825       1365.556
      -140.7842      -1194.141      -803.3794      -787.0776      -400.3430
       33.56470      -900.6514      -1620.224      -1794.085      -1534.219
      -511.9805       859.8276       1126.848      -105.7246      -504.5117
      -159.6003      -87.02264       168.3616      -388.7256      -1123.698
      -150.7004       212.4180      -1246.766      -2051.195      -852.0232
       1086.904       1905.396       1721.017       1316.560      -526.5498
      -2822.345      -1608.048       690.9738      -205.1143      -1634.492
      -999.6500      -213.6803       19.43921       645.6870       1089.484
       1240.403       1103.771       598.8257       681.4663       1372.753
       680.5615      -1558.329      -2691.966      -997.1426       760.7783
       894.7697       878.4538       101.5291      -833.3087      -415.4556
       11.61060       595.2710       1689.597       585.8379      -1171.034
      -552.7021       772.7080       1418.249       955.9580      -215.8723
      -1146.617      -1437.333      -423.0283       1265.260       1378.026
      -236.6562      -1158.215       148.1865       1924.456       1831.049
       251.2681      -1588.990      -1626.880       72.17920       791.1146
       683.8418      -157.6677      -1462.202      -697.9922       1608.798
       3102.035       3194.362       1019.951      -1125.663      -408.0317
       1080.256       1495.766       360.0044      -1444.086      -2242.772
      -1611.490       749.2231       2801.519       1846.981      -151.9462
      -378.0419       82.41431      -220.7500      -1072.592      -1672.115
      -776.7964       1661.121       2496.094       1028.744       153.2485
       688.4270       1113.675       591.5851       64.97069       20.03357
       94.23291       565.7793       1795.154       2324.889       1196.610
       76.58667       340.2919       444.6782      -845.1176      -853.0244
       399.2576       338.1188      -78.67786      -475.2662      -482.0471
       112.9537       222.4417       773.2305       1550.185       1816.012
       1563.267       425.0809      -68.20044       538.2332       541.3101
       503.4932       1210.716       731.9595      -1307.765      -1854.870
       158.2188       2139.131       1602.356      -515.4502      -1733.419
      -1001.640      -60.50598       233.1769       507.2346      -235.9277
      -1678.774      -2280.107      -1053.870       835.4951       1610.015
       938.5530      -775.9385      -1195.595      -246.8318       535.4601
       717.7029       393.7591       228.1912      -131.9674       39.60254
       1446.480       3125.393       3345.969       1234.863      -256.2460
       329.8942       398.2725      -762.9659      -1072.846       316.3647
       1456.465       1471.079       1209.549       459.8158      -234.7886
       36.56897      -158.6289      -1036.949      -808.4026      -836.9019
      -967.9888       501.5542       1128.021      -97.55261       211.9170
       1613.103       816.7642      -967.4648      -1606.803      -1084.322
      -98.66785       441.5209       176.5693      -993.0532      -2025.938
      -1944.128      -993.3301       563.2578       1162.396       568.1484
      -205.1553      -1895.314      -2549.087      -1094.572       168.2495
       559.5493       939.3754       630.8644       194.9446       177.3457
      -309.8282      -455.3359      -22.13916       805.4355       958.1520
      -11.65356      -750.3937      -445.2122       1095.718       1485.248
      -509.5664      -1811.386      -1121.301      -237.5242      -164.9502
      -992.1410      -955.5669       719.8018       1652.635       860.4854
       780.2234       1266.861       241.8018      -1383.910      -2215.147
      -1992.064      -983.4397       603.5049       1182.701       840.3518
       1212.394       1172.388       558.7928       458.9001       162.3457
      -1290.132      -2608.096      -1649.336       510.3398       1512.144
       1734.240       1585.156      -17.44434      -1942.763      -2727.541
      -2169.182       161.1548       742.6431      -1111.850      -1177.528
      -434.1130      -355.9092       574.3760       2205.456       2197.006
       378.1772      -369.6769      -477.7026      -520.1016      -300.7495
      -351.6509       223.4972       269.7950       12.23486       555.0203
       1031.383       1218.948       6.146484      -2124.514      -1781.028
      -233.8894      -364.6094      -661.5225      -219.3407      -157.7986
      -723.8002      -605.2964       617.1157       1027.752       28.29443
      -14.74365       522.7769      -485.9041      -1558.629      -863.7340
       423.6312       191.5718      -969.5952      -1608.634      -1571.709
      -1011.225      -277.1289       502.3247       1107.906       696.4990
       414.0110       1237.063       1136.410      -413.2930      -2137.955
      -2389.089      -890.2544       562.1733       1093.365       1242.963
       869.7271      -286.4290      -1309.797      -1315.038      -768.2875
      -550.2249       82.90259       830.1810       591.7793       805.9033
       1928.017       1933.884       407.3994      -728.7925      -1180.508
      -1626.915      -1640.644      -828.7263       250.1621       1207.737
       2245.723       2070.283      -188.2485      -1621.540      -312.5845
       1026.801       294.3462      -624.9119      -845.4326      -1520.177
      -1674.250      -210.5415       1568.546       1605.802       349.0493
       284.3347       952.1406       225.5007      -901.6418      -902.9542
      -541.1064      -489.0132      -417.9307      -100.7544       296.0483
       904.5078       1139.239       492.3989       76.60527       98.79712
      -275.1812      -786.0234      -1287.704      -1830.805      -899.1841
       1393.383       2341.068       1340.687       293.9423      -1.439453
      -493.8885      -317.0204       407.2583      -130.0766      -432.0267
       367.3867       172.3484      -494.8972      -123.1047       649.2328
       735.0503      -963.5098      -2442.788      -1625.428       227.2615
       1148.720       586.4980      -15.04309      -162.9704      -410.3406
       325.9146       1102.607      -133.8867      -1258.505      -1228.044
      -1392.901      -2081.866      -1367.355       788.4565       1251.342
       763.6196       768.0310       433.1127       221.3087       85.01880
      -350.1851      -563.3760      -1435.399      -1726.067      -182.7378
       1381.572       1435.499      -532.0679      -1849.928      -786.2783
       642.2144       1085.735       1178.892       952.8621      -701.1440
      -2112.698      -1057.688       954.5510       813.9993      -352.5086
      -148.0786       530.8013       888.9749       121.8738      -668.0811
       789.1345       1259.780      -433.6918      -670.8864      -239.5503
      -525.8005      -872.1465      -750.4688       730.5625       1650.762
       932.2015      0.9903564      -450.0200      -752.0425      -1296.880
      -918.5424       351.4946       785.9155       884.0162       917.0876
      -367.7080      -1671.203      -496.1914       1285.605       1272.150
       939.4656       1065.675       919.8326       237.0013      -97.32520
      -175.2075      -2024.125      -3745.176      -2183.489       533.5352
       2141.613       2482.354       1922.375       1363.744       511.2928
       123.2068       52.90845      -722.1447      -452.5818       1002.972
       1113.488       195.7097      -752.5294      -988.6038       228.0747
       824.7231       591.5233       496.0639      -14.78448       159.9672
       680.7382      -227.8434      -419.5662       933.8384       1728.511
       1622.081       1340.565       968.4387      -90.77533      -737.7715
       672.0674       3232.675       2983.628       111.4624      -1093.953
      -450.7908       74.02539      -795.1882      -1141.646       412.3231
       658.2844       343.5059       2157.960       2969.179       725.8079
      -988.1369      -221.0359       588.4725      -54.50610      -417.6141
       73.59546      -671.4053      -2062.456      -1605.180       446.4385
       2562.650       3257.575       1454.276      -2127.812      -3448.597
      -1614.701      -373.9429      -107.1824       268.4153       368.8755
       208.6650       1237.080       2679.609       2333.403       630.6221
      -1369.597      -1543.792      -865.6270      -1504.975      -1370.443
      -185.9275      -159.8984      -343.8066       1575.456       3534.667
       2626.245       1113.574       714.2397      -420.3564      -1671.529
      -1783.260      -1007.369       240.1499       806.8311       1450.938
       2053.294       862.9629      -896.1345      -1263.225      -721.5195
      -1509.185      -3271.859      -3381.684      -2296.547      -1351.245
      -411.6361       61.55267      -78.95505      -310.4885       126.4878
       685.8779       19.93494      -495.7100      -1042.945      -2897.935
      -4085.773      -3618.511      -1844.542       1106.528       3771.095
       4286.264       2372.374      -146.0447      -1167.684      -167.9146
       1354.149       1624.002       1308.222       489.6842      -538.7925
       136.2178       1595.594       1892.366       1365.158       448.8491
      -892.8394      -2144.184      -2426.946      -2327.146      -2336.021
      -753.7135       956.6249       91.48047      -1330.975      -1254.588
      -151.4202       1177.579       1509.522       957.7433      -222.6194
      -1313.069      -1001.708      -568.0713      -1192.761      -1904.929
      -1442.114       153.6985       1144.020       623.9258      -122.4280
       285.0842       1150.049       225.1199      -1116.166      -1086.530
      -1381.499      -1640.195      -620.6238       373.9087       534.6108
       578.9573       139.8291      -1242.650      -1955.126      -1553.359
      -846.5801      -67.95850      -735.4434      -2001.117      -2025.188
      -1490.946      -1164.017      -926.3799       544.8281       2370.445
       2340.535       435.4241      -856.7245      -307.5474       392.7217
       887.9541       1140.336      -180.4326      -2800.129      -5048.578
      -5244.579      -3190.470      -1508.163      -1581.425      -1456.453
      -389.2262       166.5986      -270.3652      -1591.994      -3158.319
      -1557.711       3474.449       7424.709       6624.357       1828.491
      -1565.611      -1548.091      -1774.275      -5181.232      -8529.455
      -6322.972      -1104.045       1606.227       3097.145       4441.432
       4041.531       2451.205       1012.830       1343.500       2050.328
      -703.2930      -6855.283      -11171.83      -8587.295      -221.3711
       7835.578       12246.32       13001.65       9585.760       6044.910
       6474.557       4181.625      -5676.785      -13818.36      -12274.79
      -5239.693      -1157.255      -2024.680      -1928.511      -669.1699
      -2734.698      -5101.022      -1310.621       9410.828       17946.03
       15737.94       5844.820      -3552.383      -7236.441      -6524.184
      -5732.953      -5089.754      -3644.256      -3084.981      -4407.810
      -5471.403      -1695.336       6562.289       11762.88       10743.04
       6123.923       1292.564      -1183.401      -1888.513      -1591.937
       442.6309       2647.930       3558.945       1651.804      -3276.216
      -5225.906      -2439.683       368.6859       651.3820      -157.1699
       1339.477       5258.266       9224.854       10683.02       5567.438
      -2322.400      -4031.971      -2088.175      -1211.326       1154.026
       4363.332       3907.137       1015.100       519.2969       3379.520
       5222.339       934.8359      -4295.406      -3792.502      -1788.301
      -4076.006      -8603.254      -7818.625      -2619.469       1009.236
       1558.668      -1735.072      -4402.571      -2803.884      -114.7510
       2269.725       4490.453       5282.302       2763.472      -799.5322
      -1248.090       125.1270       2185.309       4239.875       4827.229
       4753.123       4648.865       5843.613       6799.682       3903.342
      -1451.910      -6953.414      -11642.41      -13923.25      -11251.41
      -3056.817       4974.180       8506.824       10172.73       12487.11
       11485.81       6761.496       4296.430       3713.412       796.4766
      -5604.324      -11677.53      -12334.69      -7736.026      -3737.845
      -2385.443      -335.6855       1901.162       3781.207       5142.639
       6518.719       6916.504       5296.413       5210.077       3109.508
      -2452.164      -4730.946      -3827.311      -3744.854      -4727.293
      -6775.676      -9247.166      -7992.206      -3294.672       1470.412
       5477.334       6244.558       3188.681       589.9990       1396.275
       5387.176       9406.865       5821.543      -4858.363      -11964.98
      -10458.86      -3675.861       3779.152       8295.516       7038.675
       2717.982      -80.53296      -890.3555      -969.0703      -650.0356
      -275.5039      -2979.428      -7982.895      -8232.528      -2903.486
       2254.020       4228.160       3625.918       1400.848      -2278.467
      -6063.990      -8260.705      -8287.721      -3943.726       3175.830
       6671.436       4866.932       2274.281       3918.777       7653.811
       5503.361      -3165.936      -8874.376      -6071.016       199.0117
       2280.783      -2229.486      -9501.479      -11004.31      -2305.805
       6947.248       7088.662       3101.044       2177.693       4410.330
       3845.883      -1378.551      -5469.074      -7010.359      -6405.266
      -4340.262      -277.7568       4569.242       6841.660       7922.283
       6622.449       2682.409      -1494.470      -4880.890      -4623.513
      -71.72266       4321.609       4996.867       3851.224       597.2324
      -4563.102      -6341.211      -5305.764      -5022.596      -5507.250
      -3431.799       1413.628       3601.730       2641.755       549.6548
      -1678.992      -3873.211      -5222.033      -3216.742       1393.476
       2704.709      -1281.032      -3116.670      -604.4678       1202.850
       1981.513       2608.839       2181.827       1095.511      -176.5588
      -866.0332      -981.6393      -451.3975       1774.007       3287.009
      -25.92188      -5225.355      -2477.633       6180.938       7853.854
       2289.602      -5506.113      -10313.43      -5891.687       368.5029
       2006.434       991.4932      -1823.102      -4056.961      -3674.594
      -1247.573       977.2939       2257.325       2605.494       829.9570
      -1347.696      -1410.337      -211.0405       1723.078       3931.542
       2940.785      -2327.895      -6075.581      -4077.969       342.7207
       4059.767       3987.866      -964.5566      -5673.188      -6732.381
      -4747.752       374.1680       5200.334       6040.637       4448.975
       2075.765       963.1304       835.3232       936.0398       1080.253
       793.5000       2583.088       6063.900       7762.716       4247.699
      -2402.293      -7794.016      -8999.600      -4890.406      -237.1396
       2351.384       2991.417       1019.813      -1860.107      -1538.505
       1729.373       2162.492       1359.739       924.0051      -1215.044
      -1353.779       2330.963       4992.335       4150.342       3165.821
       673.9990      -3262.357      -3038.222      -528.6495       221.0249
      -802.0625      -2833.660      -3509.583      -359.1963       3299.626
       2906.858       1134.869       1505.990       1940.285       1587.869
       1664.236       1314.081       126.2407      -593.4292       856.8701
       2972.679       2535.110      -1137.955      -5781.473      -8295.462
      -6387.151      -615.0859       3092.285       2568.003       958.2041
       893.9990       2928.113       3457.188       2875.184       3616.363
       4396.490       4954.349       4128.258       3118.131       4079.857
       3293.351      -12.31738      -3437.568      -5717.637      -5451.409
      -5021.668      -4686.946      -3374.377      -1356.830       663.1802
       1550.741       2947.117       4735.053       5534.173       5163.583
       3098.445       587.4116       667.3828       1726.075       726.7263
       488.8809       1924.846       1723.124      -85.32202      -535.2476
      -1827.424      -4084.328      -1933.023       1367.069       639.1462
