     0.02500000      -14414.21       10147.71      -12345.00      -12345.00
      -29.99504       251.6049      -50.22000      -12345.00      -12345.00
       0.000000       37.28000      -12345.00      -12345.00      -12345.00
      -12345.00      -12345.00      -12345.00      -12345.00      -12345.00
      -12345.00      -12345.00      -12345.00      -12345.00      -12345.00
      -12345.00      -12345.00      -12345.00      -12345.00      -12345.00
      -12345.00      -30.65860      -69.43630       2628.000       0.000000
      -31.23600      -65.83800       0.000000       167100.0       0.000000
      -12345.00      -12345.00      -12345.00      -12345.00      -12345.00
      -12345.00      -12345.00      -12345.00      -12345.00      -12345.00
       349.7343       279.6221       101.4638       3.144477      -12345.00
      -12345.00    0.005586696       0.000000       0.000000      -12345.00
      -12345.00      -12345.00      -12345.00      -12345.00      -12345.00
      -12345.00      -12345.00      -12345.00      -12345.00      -12345.00
      2008       318        11        13        20
       620         6    -12345    -12345     11265
    -12345    -12345    -12345    -12345    -12345
         1         7        13    -12345    -12345
    -12345    -12345    -12345    -12345    -12345
    -12345    -12345    -12345    -12345    -12345
    -12345    -12345    -12345    -12345    -12345
         1         1         1         1         1
TOCO    -12345          
        -12345  -12345  
-12345  -12345  -12345  
-12345  -12345  -12345  
-12345  -12345  -12345  
-12345  -12345  -12345  
-12345  -12345  BHZ     
ZL      -12345  -12345  
[...]
       1060.969       1069.793       1069.456       1077.415       1078.819
       1087.148       1079.560       1084.694       1086.328       1093.419
       1086.921       1089.541       1085.197       1084.869       1073.489
       1072.766       1069.910       1069.619       1052.630       1049.104
       1037.006       1035.083       1027.189       1022.379       1001.456
       991.1763       975.9004       967.7651       956.8481       952.4312
       928.8940       914.7996       899.5381       888.2896       871.6665
       868.3259       850.3337       831.7559       815.8232       809.3928
       786.2295       773.4331       758.6521       747.9170       730.0540
       725.7832       707.3757       691.5967       671.0703       660.6482
       639.5447       628.7373       605.7719       590.0776       570.0154
       556.9803       533.9454       520.5306       501.7079       491.0342
       466.8533       456.0138       429.0139       414.9841       395.5403
       378.3358       351.7570       343.7297       320.7262       302.4220
       283.4649       274.3049       244.7902       229.1377       211.7835
       200.3577       171.9166       155.9552       132.2040       124.5689
       102.1046       86.85585       64.18427       53.96985       26.47656
       16.45937      -2.573761      -9.902710      -36.36433      -50.91861
      -72.95453      -82.20825      -104.6944      -115.1734      -135.8743
      -149.7814      -172.4270      -174.3391      -194.9815      -208.5479
      -229.4430      -243.4611      -267.7581      -266.4784      -288.1436
      -299.8146      -322.4302      -339.8785      -359.4188      -362.2047
      -388.0741      -399.0078      -409.0349      -416.9585      -438.3567
      -446.2137      -464.0823      -469.2502      -484.6602      -494.0647
      -507.3724      -506.2394      -526.0487      -535.7816      -545.9940
      -548.1064      -568.7429      -571.7073      -584.9705      -587.5020
      -600.8115      -606.8186      -621.0222      -618.5521      -631.5848
      -636.8278      -651.0767      -656.6278      -674.7985      -671.0259
      -684.0444      -691.4092      -710.4448      -708.6802      -723.6572
      -728.1101      -738.3479      -732.7925      -757.2595      -761.6558
      -771.3513      -770.0376      -788.3899      -793.0227      -808.9194
      -806.1797      -820.3032      -820.1528      -824.3538      -824.4309
      -838.1138      -832.0720      -844.6182      -844.7961      -848.2278
      -843.8242      -855.3679      -841.4526      -846.1184      -849.3174
      -850.5349      -837.6848      -849.3037      -840.1570      -839.6865
      -837.6340      -846.6140      -835.3120      -837.3535      -832.8320
      -834.2534      -818.1377      -819.8953      -810.9077      -806.0547
      -795.2500      -800.5771      -783.3062      -778.5059      -770.6670
      -764.6714      -741.4282      -739.8479      -725.7905      -716.9524
      -696.8267      -691.4517      -673.5608      -665.6113      -645.6168
      -634.1399      -616.2844      -614.2271      -592.6013      -580.8916
      -562.1256      -549.2012      -522.8859      -522.9625      -504.2698
      -490.3826      -471.1168      -466.6738      -441.5640      -433.5878
      -410.6620      -400.9146      -374.8407      -361.3986      -337.0283
      -329.5051      -308.0918      -296.4042      -271.6183      -266.4196
      -244.9552      -229.3267      -203.1652      -201.2345      -177.2761
      -165.2458      -148.7054      -137.6974      -107.6817      -106.9679
      -91.74789      -77.74664      -50.42744      -46.46073      -29.27702
      -26.92949      -4.133804       1.815369       21.63354       29.08023
       47.66290       48.64670       70.96869       80.28424       94.93188
       90.51480       109.3839       117.8687       137.8625       135.8406
       148.5074       150.2062       167.0157       169.4099       193.0281
       193.1813       204.0230       199.8502       211.2500       209.6439
       225.4193       221.5325       233.7737       230.6890       243.8064
       233.5474       240.8613       238.2445       246.8691       235.4669
       242.7715       238.7146       241.2930       234.7402       242.2075
       234.8259       241.4282       234.6477       243.7968       238.7402
       235.0264       222.8042       231.3110       224.0662       228.2785
       224.1929       228.3043       219.4738       223.3488       216.2010
       224.6448       214.9208       215.1318       210.2603       216.3074
       206.3741       212.6791       208.2776       211.4321       200.8664
       206.5753       205.4397       214.0392       207.2976       213.8252
       205.2792       207.0897       206.2048       217.3853       205.7830
       209.9888       208.4647       216.1413       209.5223       220.6476
       215.2435       220.4688       220.4923       232.3364       226.3839
       236.7153       236.3074       245.7124       241.2151       248.7941
       250.8489       263.1942       264.9623       276.3004       278.7947
       293.9490       297.7812       303.6761       303.4827       315.8245
       315.0359       324.4877       330.5916       342.1924       341.7905
       351.2402       354.6942       372.7407       378.2385       382.3376
       381.6221       397.1082       399.0585       411.2341       423.1685
       435.8655       433.1941       444.8601       446.4635       457.3291
       462.8270       474.8397       473.7151       489.6312       488.4233
       496.9603       497.0833       507.6938       502.1427       510.5520
       509.8040       519.8439       521.0948       528.3943       530.0764
       541.6455       534.1132       543.1238       548.3684       554.6031
       550.2638       563.4897       562.3518       571.5286       577.3918
       588.0637       579.3694       582.5995       583.3667       593.6792
       585.4757       591.8423       593.8055       595.2977       594.1853
       609.9644       602.4901       596.8735       596.4167       600.8823
       595.3796       600.8589       593.3562       593.2214       583.8057
       580.8418       572.0455       577.5613       567.1477       566.2701
       553.5989       552.7328       545.9773       543.8992       530.0067
       525.8643       506.7712       499.9307       485.0247       485.1383
       471.5239       465.9897       448.1594       442.1210       422.8571
       415.4907       393.7271       384.1117       367.8749       363.8857
       341.7516       336.1199       320.3657       311.3323       286.4142
       278.7205       260.2783       252.4559       231.5964       225.7479
       206.5835       205.5225       185.8739       179.9704       155.0005
       149.0667       137.5489       132.8855       104.4152       98.83443
       85.98318       80.38481       60.20963       62.15236       44.84285
       36.91468       17.46991       16.21193      0.6159840       5.942299
      -9.244514      -16.59068      -30.57808      -23.69180      -36.14151
      -33.83749      -47.85791      -52.07242      -62.20364      -58.90277
      -70.31085      -66.47379      -82.53305      -82.39154      -93.10687
      -89.85501      -100.1404      -100.4930      -115.7507      -116.7814
      -129.9096      -126.4005      -138.6989      -138.3412      -152.9557
      -149.8208      -165.0111      -162.3486      -173.7037      -173.0228
      -192.1024      -191.4902      -202.1642      -200.9716      -216.6271
      -214.7871      -228.0752      -226.8388      -245.6056      -245.4679
      -253.8285      -252.5663      -274.4187      -275.7347      -284.4747
      -284.4775      -304.3403      -306.3042      -316.4393      -312.8453
      -330.7953      -328.3977      -334.7347      -343.4434      -357.4463
      -346.8041      -359.3293      -364.5388      -372.9976      -373.0437
      -388.3849      -388.1494      -396.4941      -399.5811      -413.6357
      -415.2466      -424.0433      -423.5898      -435.7103      -437.4945
      -448.4480      -452.2411      -463.9181      -460.9408      -472.2112
      -476.6307      -485.0702      -485.6926      -501.1858      -496.2679
      -506.8633      -507.3413      -518.1234      -522.0868      -531.1324
      -524.5615      -533.7943      -537.1824      -548.4542      -546.4458
      -562.3933      -560.7161      -571.4128      -575.1720      -586.9552
      -588.5739      -605.9600      -608.1121      -623.0034      -625.9963
      -641.5699      -644.2333      -663.7126      -670.7302      -689.0728
      -697.0029      -723.4546      -729.9272      -747.9241      -760.0784
      -784.0601      -790.7949      -805.8108      -814.6118      -833.1699
      -839.0815      -861.2690      -871.1260      -887.2788      -897.6274
      -918.3948      -925.3303      -940.4648      -944.9873      -959.1138
      -963.8640      -980.5039      -990.5200      -1004.174      -1012.198
      -1026.428      -1026.524      -1046.758      -1053.664      -1063.543
      -1065.013      -1078.236      -1073.255      -1086.177      -1090.951
      -1100.280      -1096.893      -1111.354      -1110.004      -1119.744
      -1107.538      -1115.032      -1111.613      -1110.044      -1104.980
      -1112.089      -1091.216      -1090.055      -1089.275      -1081.659
      -1061.012      -1070.374      -1051.558      -1038.979      -1025.479
      -1013.884      -983.9297      -973.4800      -954.8589      -932.6670
      -907.1504      -891.3965      -855.6624      -832.3147      -804.8938
      -783.5042      -755.1226      -726.9707      -685.4463      -666.7222
      -628.2791      -593.2153      -560.8873      -529.9235      -481.5898
      -454.8783      -414.7694      -373.0865      -336.4747      -305.8894
      -255.7033      -224.8790      -184.1938      -144.9223      -100.2979
      -64.05241      -14.12096       16.67670       59.72345       99.40033
       144.5270       183.1208       234.3952       266.6668       308.9404
       350.0039       395.8396       434.3494       477.7003       514.4397
       561.2585       604.1416       649.6567       688.2061       740.2769
       778.2144       817.5708       852.3462       900.3665       932.4551
       972.6467       1010.220       1056.954       1087.544       1131.049
       1169.334       1206.195       1234.902       1278.783       1302.808
       1334.671       1367.568       1402.922       1425.784       1464.205
       1491.747       1518.493       1546.609       1571.229       1583.667
       1614.539       1632.171       1651.964       1666.510       1692.363
       1705.400       1719.900       1727.411       1749.239       1756.300
       1768.633       1771.353       1778.163       1771.582       1784.701
       1780.289       1785.422       1787.363       1790.795       1774.407
       1776.049       1766.392       1763.346       1751.370       1750.735
       1732.447       1725.724       1713.193       1699.644       1675.835
       1667.350       1644.989       1633.266       1612.091       1594.227
       1566.109       1553.543       1531.735       1510.163       1483.381
       1469.928       1441.033       1415.524       1390.180       1368.906
       1332.898       1310.456       1291.094       1271.718       1237.230
       1214.854       1188.178       1168.930       1140.441       1116.664
       1086.926       1062.545       1037.754       1013.779       982.2112
       960.4954       933.3843       907.7161       876.9609       856.5691
       827.5820       800.1045       772.1594       745.1411       713.8678
       688.7615       657.5919       629.6941       600.0393       577.6270
       548.6294       521.9221       488.0334       463.5520       429.1077
       392.5374       363.3065       340.2807       302.1671       271.2982
       236.8821       206.5673       177.0489       145.3637       102.1447
       74.39017       43.49501       4.540405      -27.15700      -44.63773
      -64.43071      -21.50012       205.5269       869.9082       2195.467
       3935.468       4910.532       3753.221       452.2583      -2607.938
      -1860.482       1568.975       2276.433       567.7524      -106.3180
      -64.29883      -853.8711      -2944.754      -4504.707      -4182.918
      -4353.996      -6640.785      -6936.910      -3289.345       609.2920
       2786.802       2010.814      -1332.139      -3349.448      -814.4824
       5241.768       9103.553       6548.373       510.3672      -4563.527
      -6329.840      -4572.962      -2323.120      -641.7334      -156.5645
      -3066.865      -5575.249      -3838.628      -1470.849       312.7388
       3010.475       1859.444      -3222.725      -7773.387      -12463.39
      -14414.21      -11852.86      -7201.002       653.7852       8151.066
       6688.791      -612.3022      -2925.242       40.63965       2556.263
       4120.888       4397.736       667.6250      -3907.799      -8069.781
      -12671.52      -10542.74       230.8125       7990.691       4105.262
      -3358.524      -4122.813      -1489.021      -1651.134      -4082.685
      -4107.195      -948.5669      -380.9297      -3181.456      -1817.563
       3741.460       5148.399      -238.9316      -5598.768      -2789.194
       620.6880      -1912.550      -402.1660       4751.164       3118.416
      -3135.072      -2603.787      -31.63770      -4572.343      -6471.487
      -3173.012      -2478.764      -3542.367      -4528.876      -3231.951
       846.1821       2339.965       854.8418       1177.988       3010.945
       830.6562      -2877.760      -2651.954      -311.2487       924.5726
      -545.7258      -846.7998       870.6895       2021.157       1987.966
      -476.0449      -3185.186      -4608.435      -5291.718      -3217.606
       1908.221       5418.283       773.3242      -6354.021      -4715.678
       2271.521       3490.908      -919.6631      -1673.679       151.1902
      -68.80566       1144.492       4081.614       5237.312       2245.028
      -2915.549      -2976.910       2328.458       3446.411      -32.53223
       1599.563       3156.619      -3218.457      -6869.048      -2840.453
       1688.608       3510.923       2281.362      -677.3896      -2219.505
      -1743.570       505.1914       3773.913       4540.970       1564.921
      -2363.035      -3091.958      -204.2441       3021.989       4606.903
       2878.422       1799.845       2905.745       965.8652      -3065.316
      -4195.491      -863.4478       2833.572       1413.011      -1169.824
       223.3193       1598.506       1933.286       3009.748       3940.631
       3122.037       397.2279      -589.3217       43.78564      -945.7900
      -1777.273       1149.152       4239.934       4322.319       3790.902
       2146.676       172.8379      -1316.683      -2388.348       388.8901
       2882.630      -48.87085      -1677.922       2398.350       5116.229
       2889.000       1441.443       1107.704      -300.1997      -692.9943
      -635.9138      -33.96533       2481.605       2584.598      -1347.304
      -1796.906      -118.6274       442.7510       4241.664       7177.028
       4241.937       212.2805      -7.875732       1108.470       173.3125
      -779.0850      -1312.757      -1436.943       1337.026       4426.611
       4391.198       3806.672       1908.799      -2257.009      -3282.231
      -1884.660      -1449.922       151.3188       1873.507       1705.967
       614.6113       1195.978       3222.067       1739.184      -1472.411
      -561.2485       1906.858       1923.574       882.7666       762.6768
       2314.086       3560.785       1711.143      -1379.966      -2416.900
      -1468.620      -549.6709       920.6024       1074.094      -860.5638
      -924.5302      -45.52222       426.8047       1199.397       1762.732
       2211.821       2591.666       2991.704       1372.946      -1194.708
      -1449.510       423.8447       2370.461      -83.94434      -3801.821
      -1199.421       1794.385      -609.8086      -2565.074      -2699.435
      -3083.217      -1169.448       1342.329       2264.173       2327.632
       1123.376       199.3346       95.02686      -706.1753      -1021.875
      -156.6107      -48.29492       481.9575       2258.356       409.6875
      -2910.558      -2760.957      -1871.895      -2039.828      -2845.303
      -2626.999      -2176.808      -1923.602      -152.6758       504.4575
       660.8823       1156.646       1266.901       1917.635       1272.097
      -1181.959      -2339.621      -2694.057      -3495.762      -1372.375
       3342.035       4389.691       164.6680      -4761.395      -5354.891
      -2116.907      -633.1014      -357.0761      -72.86670      -860.3882
      -1185.569      -1876.717      -1472.937      -570.8613      -2052.513
      -2798.938      -1606.695      -477.8721       1163.232       2076.765
       845.8613      -1463.964      -2819.555      -3050.671      -2092.982
       977.9238       2895.621       3259.226       3499.072       347.2256
      -2975.644      -2871.390      -3255.215      -3216.323      -1017.409
       787.7051       1195.755       317.6655      -892.6875      -2258.457
      -2358.956       778.4590       2711.121       876.4756      -153.3875
      -327.7031      -1464.706      -2407.961      -922.1178       185.4102
      -2286.419      -2699.785       203.7017       1959.673       1829.359
       962.2606       663.0464      -503.2969      -1470.228      -1335.159
      -1673.448      -1016.450       148.4144       179.1567      -212.1277
       283.3906       1148.028       1414.176       1370.124       565.4375
      -2115.081      -3829.062      -1145.360       1479.847       1506.832
       2390.541       2581.554      -843.3496      -2782.295      -1324.226
       41.25439       1530.335       2697.692       1041.195      -906.5786
      -860.6143      -1451.591      -1492.094       520.7305       2306.733
       2479.347       1053.764      -554.8955      -2125.448      -1814.213
       1645.912       3376.597       1443.030      -1065.640      -2157.582
      -503.7510       1717.068       2767.143       3276.958       1683.299
      -405.9241      -681.4534      0.2597656       768.5120       750.8317
