     0.02500000      -23130.82       19528.08      -12345.00      -12345.00
      -29.99504       251.6049      -50.22000      -12345.00      -12345.00
       0.000000       37.28000      -12345.00      -12345.00      -12345.00
      -12345.00      -12345.00      -12345.00      -12345.00      -12345.00
      -12345.00      -12345.00      -12345.00      -12345.00      -12345.00
      -12345.00      -12345.00      -12345.00      -12345.00      -12345.00
      -12345.00      -30.65860      -69.43630       2628.000       0.000000
      -31.23600      -65.83800       0.000000       167100.0       0.000000
      -12345.00      -12345.00      -12345.00      -12345.00      -12345.00
      -12345.00      -12345.00      -12345.00      -12345.00      -12345.00
       349.7343       279.6221       101.4638       3.144477      -12345.00
      -12345.00      0.5463218       0.000000       90.00000      -12345.00
      -12345.00      -12345.00      -12345.00      -12345.00      -12345.00
      -12345.00      -12345.00      -12345.00      -12345.00      -12345.00
      2008       318        11        13        20
       620         6    -12345    -12345     11265
    -12345    -12345    -12345    -12345    -12345
         1         7        13    -12345    -12345
    -12345    -12345    -12345    -12345    -12345
    -12345    -12345    -12345    -12345    -12345
    -12345    -12345    -12345    -12345    -12345
         1         1         1         1         1
TOCO    -12345          
        -12345  -12345  
-12345  -12345  -12345  
-12345  -12345  -12345  
-12345  -12345  -12345  
-12345  -12345  -12345  
-12345  -12345  BHN     
ZL      -12345  -12345  
[...]
       2779.534       2272.347       1745.458       1145.146       812.5574
       660.5118       297.0852      -240.1082      -449.9724       214.6284
       1375.926       1026.700      -143.9729       35.95996       1010.467
       1460.418       1382.432       49.12842      -1125.957      -576.0386
       749.9023       1723.095       1386.135       498.4974       223.2695
      -544.0742       464.5347       2207.792       1894.127       1460.899
       1151.733       294.1479      -474.8604      -1807.758      -2210.875
      -837.0593       942.5225       1638.730       1351.894       287.8987
      -547.3037       453.8643       1971.094       1915.594       1134.003
       851.9844       699.8749       96.51758       877.5310       1659.108
       150.9886      -875.7444      -111.4692      -523.7917      -604.8101
       773.2659       753.1348      -1673.028      -3530.449      -1419.864
       1938.845       2200.537       1706.217       1512.090       910.5205
       728.7876      -349.7686      -2168.857      -1717.343      -149.2625
       362.6957       246.2271       837.7764       1886.365       2332.430
       1508.837       405.8052       456.7769       1346.581       532.8605
      -848.7669      -324.2917       830.2930       1115.571       609.6230
      -582.0210      -1310.024      -762.0652       887.7241       570.1538
      -1597.959      -2155.903      -1221.163      -580.1831       93.86816
       1299.235       1907.276       526.6255      -481.1630       6.322815
       150.7775       187.4390       1463.008       1890.860       409.6051
      -766.6315      -189.3574       739.0762       1135.097       577.2200
      -672.5227      -1083.822       49.56885       827.9746      -311.0566
      -2163.876      -1928.904      -590.8354       450.2637       1120.946
       1199.919       1174.289       134.7224      -1214.441      -190.3484
       783.6545      -336.3574      -1399.049      -134.5911       839.5284
      -112.1206      -220.1021       1160.621       1209.680       233.5266
       298.9205       394.2833      -58.61859      -74.14990      -808.0649
      -1513.017      -1749.624      -2013.495      -1199.482       355.8188
      -268.1392      -2010.694      -1701.474       83.72046       1011.121
       772.0302       83.55499      -196.2949      -478.5430      -1536.990
      -2639.995      -1929.916      -988.2072      -327.8113       1024.054
       1434.900       103.0219      -607.4545      -21.41187       70.12646
      -989.2847      -742.2488       658.7709       459.8361      -244.1095
       810.0620       411.0508      -1351.480      -1544.690      -1345.054
      -1470.489      -1135.769      -1472.277      -1583.424       531.1860
       2359.319       626.3623      -1525.784      -2172.633      -2696.593
      -2637.244      -947.6504       132.2470       32.25024      -201.1555
      -672.5271      -1028.319      -1018.380      -780.3843      -501.6071
      -672.2422      -453.3568      -244.7065      -160.4746       720.5582
       1083.873      -221.1060      -1083.991      -1203.884      -630.3831
       284.0347      -724.0176      -2468.402      -1223.566       153.6562
       284.3793       627.2480      -233.7997      -888.4807       409.1389
       667.5967      -571.6501      -809.0483       550.7617       1583.692
       1064.345      -819.7344      -2253.539      -1779.870      -294.0166
       453.8151       495.4205      -383.4573      -687.9487       237.6375
       709.2434       257.8333      -671.6577      -1636.413      -1449.508
      -363.0544       261.4116      -686.3555      -1646.449      -1436.712
      -909.6989      -579.4714       242.8167       785.1036      -67.35938
      -1914.948      -2252.741      -595.8447       1508.140       2685.584
       1612.176      -269.2224      -260.7053       83.50146       242.4561
       1131.695       2085.901       1248.580       66.36777       102.1461
      -59.33643      -860.4131      -1438.605      -1552.194      -413.3093
       1306.843       1216.648      -1319.854      -2824.697      -2092.310
      -899.5522      -247.5967      -377.0972      -559.8948       288.1641
       832.2371       561.3568       559.5070       624.0734       105.3648
       119.7561       313.0655      -11.62183      -238.6528      -121.5626
      -545.4370      -873.6198      -497.8247       356.3813       787.4489
       507.5824      -213.9448      -376.0050      -418.9050       31.73462
       1074.956       289.6001      -1104.581      -624.0773       401.6477
       1080.936       763.3488      -299.5019      -120.6731       855.0312
       717.7109       793.2764       376.1204      -632.9442       49.02295
       1642.493       2119.247       1854.839       838.0034      -374.1083
      -234.2896       1161.625       1766.656       1545.449       1431.213
       1445.571       497.9265      -1203.414      -984.9675       438.8079
       417.7695      -487.1055      -1707.997      -1465.576       17.42847
       491.3895       265.7620       678.1770       1194.218       1188.119
       370.6699      -551.0859      -1215.011      -640.5229       1196.678
       2217.844       1617.636       806.9434       744.2319       1455.006
       1413.708       491.9619       454.3069       914.3452       565.9235
      -154.1815      -544.0806      -36.35815      -113.3955      -1624.174
      -2467.017      -1244.904       661.4897       1595.536       1142.313
       918.0579       1163.575       922.2107       614.1128       1009.571
       936.7683       553.3909       1069.985       1495.875       547.2975
      -32.11182       594.2803       1237.720       1434.648       567.6377
      -1594.095      -2197.220      -913.4560      -330.0620      -140.7153
       1264.521       2233.620       1270.209      -469.4192      -1207.082
      -937.8823       390.3154       2570.515       3066.882       1569.068
       1017.886       677.6543      -228.6001      -694.7916       65.84082
       935.7557       613.6042       279.5718       1157.967       1577.133
      -379.3154      -2904.393      -2417.936      -267.3679       567.9717
       76.72058      -495.9815      -110.4700       872.7363       651.3081
      -724.4614      -1829.454      -1290.769      -180.7622       582.7241
       899.9983       698.7031       403.8518       387.9717       837.7883
       1271.866       472.9858      -1245.921      -1774.273      -346.5723
       1101.517       1588.530       992.6493      -56.78906      -1357.264
      -1499.042       300.5190       1744.678       1377.391      -37.37256
      -581.2439      -350.7178      -1602.836      -2382.530      -1343.135
       524.3364       1725.788       1184.267       264.0386       292.2002
      -313.1533      -1492.892      -1641.425      -812.6738      -222.1572
      -635.8511      -1280.077      -1181.837      -571.5859       1034.598
       2058.574       335.1355      -1604.696      -671.2625       227.4780
      -232.2596      -351.7891      -750.4050      -1073.146      -376.7302
      -260.4780      -864.8920      -715.5305       233.4354       512.9136
       804.5686       770.7885      -212.3000      -855.4941      -1441.732
      -2211.948      -1423.146       602.5029       1902.817       1057.647
       196.8867      -193.1543      -2426.795      -4078.289      -2164.080
       280.2590       609.4749       339.6001       902.8562       1363.020
       1197.272       1010.274       3.522461      -3195.145      -4722.500
      -2908.946       220.5576       2572.621       2302.483       1435.898
       937.3613      -467.0378      -1242.206      -1224.563      -1139.367
      -969.6558      -1287.490      -2237.235      -2424.906      -1720.969
       266.7578       1746.097       961.0908       545.9867       713.5825
      -290.6447      -981.1760      0.8496094       814.8550      -196.1880
      -821.3491      -215.7119       343.2319       560.1665       766.9985
       746.5559       447.7168      -520.2769      -1677.085      -2291.524
      -2187.990      -1426.881      -536.3420      -96.47632       843.1150
       1593.182       710.7665       273.8599       1307.949       1147.366
      -118.0854      -1400.896      -1943.455      -1698.817      -1098.781
      -119.7295       1330.202       1800.641       1104.456       713.2954
       1013.445       1214.197       1120.468       902.9689       130.1014
      -600.7036      -815.7725      -1415.174      -2315.295      -1964.883
       391.5308       2183.890       3014.936       3173.749       1465.247
      -1327.828      -1633.821       322.7544       1280.562       199.9671
      -446.9167       879.7097       969.8523      -778.0981      -54.38672
       2171.437       1831.006      -253.8210      -1123.178      -1195.967
      -624.0688       731.4688       1523.901       1045.228       1003.784
       1560.208       746.6453      -747.3712      -196.9761       1440.214
       1044.775      -877.1178      -540.0767       1520.821       1877.992
       610.4585      -290.0129      -541.9476      -20.68311       399.5781
       1377.112       2453.546       1533.721       392.9756       634.3594
       1130.312       1214.983       543.7479       129.6231       161.2870
      -191.2170      -835.4839      -87.30078       1684.538       2219.414
       1337.078       1005.765       1433.305       1454.852      -123.6082
      -1469.050      -643.8850       378.5181       365.1658      -179.1494
      -236.8702       608.3921       454.0854       882.7588       2243.093
       2225.181       1393.439       1002.056      -13.44531      -1443.342
      -1995.742      -2593.208      -3478.872      -2475.266      -282.4839
       1135.710       1901.829       2377.557       2104.219       1849.025
       1001.891      -780.7485      -1644.802      -646.7402       733.0581
       1582.106       1559.676       1045.370       664.3821       363.0489
       304.3737      -98.67578      -1033.645      -989.3397      -226.6292
       422.5483      -576.3027      -1802.238      -1248.676      -1042.634
      -1911.901      -1591.674      -717.1622      -243.8906      -784.7656
      -2889.873      -3580.090      -1313.574       485.0609       127.6931
      -387.4829       735.7090       2493.564       2662.566       358.3159
      -1457.063      -1351.273      -862.0558      -217.5850       651.3047
      -148.9023      -2108.729      -2364.858      -807.3489       297.5232
       752.5503       1042.586       914.8518       674.7957       801.4395
       370.8212      -29.78174      -962.0156      -2969.163      -4026.453
      -3347.923      -1551.940       916.5332       2357.637       2126.075
       861.9666      -527.6000      -344.6990       538.0292       129.0190
      -566.2817      -1232.802      -1260.127      -657.6990      -173.7919
       43.97485       366.6469       681.1124       354.7054       60.72346
       55.21910      -90.77240       189.9744       484.4569       226.4374
      -92.33008      -122.8936      -1536.139      -3382.522      -3181.712
      -1602.135      -1403.714      -3132.024      -4146.543      -3039.869
      -2106.340      -3633.578      -7360.812      -9752.145      -8924.232
      -6589.282      -3460.531      -167.6118       1594.938       2979.750
       5786.426       7907.782       4579.838      -2923.074      -8456.309
      -9373.030      -6712.132      -2746.170       428.8115       3547.904
       6944.766       9776.711       12822.90       13829.83       10019.18
       3687.275      -1989.152      -5194.947      -5760.591      -4433.484
      -3773.032      -2899.817       992.3281       5050.363       7368.180
       10544.82       12282.97       8739.364       3214.935      -1019.635
      -5766.629      -11317.55      -14687.59      -14053.22      -11654.84
      -7806.606      -1243.953       4485.273       4123.641      -3701.523
      -11977.66      -10746.21      -1254.160       7603.867       10648.31
       11103.64       12222.31       10799.80       6327.361       4154.266
       4959.697       2207.480      -7274.637      -15983.80      -14398.37
      -3970.760       4533.498       5810.651       2525.425      -1325.716
      -2571.783      -1217.349       789.2832       2170.387       2150.066
      -289.7148      -3091.701      -2931.614       748.6289       6922.016
       11297.81       14231.72       17579.87       16415.12       7155.715
      -5108.277      -11309.46      -11084.52      -8664.707      -3976.384
       206.1995       1280.817       183.1658      -1360.692      -973.6713
       107.3325      -701.7202      -1985.388      -2063.447      -269.0684
       3241.050       5236.575       2387.080      -179.8906       4796.984
       12846.49       11852.51      -225.3438      -15044.64      -23130.82
      -18932.87      -7487.721      -412.5195      -2212.945      -6000.229
      -4516.159       221.7500       3963.973       6156.723       5558.969
       4298.127       7067.008       10419.87       10649.25       9742.586
       9024.625       6682.070       232.9883      -7606.863      -10837.72
      -8094.043      -4899.392      -3895.611      -2567.011      -3539.372
      -4703.808      -2522.081      -1136.637      -2319.115      -5031.049
      -4669.357       3295.477       14251.58       19528.08       14636.96
       4087.183      -1123.394       1197.170       371.7090      -6958.035
      -13319.14      -12404.36      -3818.615       3943.644       1557.706
      -4346.466      -2393.914       4154.904       7438.488       7396.509
       6115.021       3219.704      -1564.933      -5481.562      -5262.867
      -4147.934      -3575.871      -1133.761       1837.904       5788.453
       9919.801       10967.27       6584.936      -3349.566      -9485.338
      -6526.330      -3825.584      -1340.137       5082.686       8100.852
       8211.961       10407.68       8013.044       1273.763      -105.3594
       2955.240       2986.994      -3058.820      -10906.30      -13513.23
      -12145.55      -11663.31      -12154.64      -10202.27      -4370.837
       253.8984       3794.621       9799.156       10926.02       5358.453
       1244.444       697.9648       1954.682       5570.777       8147.811
       5143.202       1041.246      -183.5449      -2216.285      -5405.449
      -6019.175      -2353.893       2823.910       2900.805      -3249.539
      -7157.669      -3286.118       3609.470       5645.469       3969.581
       2547.716      -232.9097      -2257.390      -1115.069       2483.728
       4788.729       908.3789      -3759.774      -3894.872      -803.7559
       3440.521       4595.497       1550.629      -1912.170      -2886.195
      -1679.078      -439.5435       1230.880       1166.689      -5052.188
      -10373.73      -5076.617       5398.137       9984.363       6924.896
       3106.937       1977.564       270.8535      -1717.240      -2877.133
      -4917.244      -7158.738      -7840.104      -6224.627      -4143.846
      -4133.644      -4885.893      -3772.184      -873.1440       1069.004
       649.6904       1444.600       3653.198       4263.658       3669.990
       1925.668       309.6255       1572.580       3685.580       3152.591
      -25.98926      -2698.938      -3587.395      -4828.169      -3790.971
       707.7109       3225.312       2934.079       3447.422       4433.488
       3191.263       1730.397       1785.039       2219.532       2494.689
       1304.686      -2804.110      -5831.583      -4157.611      -1363.590
       2327.450       4600.345       1710.003      -1556.989      -2247.506
      -2466.265      -3158.604      -4976.740      -6352.113      -3840.089
      -18.71826       2100.026       1540.731       18.40991       230.3506
       1968.189       5792.516       7945.893       3509.380      -2736.176
      -5452.467      -6122.680      -5877.859      -5108.098      -2377.706
      -89.73193      -2320.197      -3196.188      -1575.236      -3090.682
      -4454.746      -1871.312       23.53278      -612.5154       734.8511
       2474.783       2525.580       4339.362       4642.132      -585.6953
      -6246.563      -5518.297      -760.0566       2408.378       3083.473
       2678.328       3241.891       4535.812       5823.244       7296.305
       7958.824       6707.428       3176.614      -2715.746      -6701.720
      -5587.552      -3235.713      -730.7969       1711.888       1737.610
       497.1768      -1596.123      -3648.751      -3889.392      -2584.010
      -1539.294      -1957.213      -1805.118      -1713.003      -2425.097
      -1507.705      -1302.122      -2814.718      -2671.281      -1579.631
      -721.5264       555.7207       3408.695       7683.516       10156.17
       9134.924       6553.693       3385.088      -1385.014      -6189.668
      -7403.837      -4888.529      -1582.348      -131.3184      -1500.716
      -2793.963      -1033.786       1090.903      -85.94922      -2059.513
      -2295.309      -2426.497      -1055.693       2253.399       4834.853
       3773.039       641.3857       1555.362       3104.654       1699.861
       1692.045       2528.556       2242.372       1629.126      -640.5215
      -3535.907      -3777.063      -2460.900       813.5684       3098.518
       104.3433      -2215.636      -1270.070       270.2666       1308.241
       909.6421       74.13806       229.5854       1455.273       2410.746
       1428.322      -960.4072      -1783.874      -596.2324       1501.014
       3639.100       4094.113       3412.450       2114.893      -1541.074
      -5399.845      -4067.285       302.3944       950.5029      -2053.736
      -5256.086      -7327.837      -5674.283      -790.1074       2618.049
       2991.355       1139.406      -193.1620      -94.72198      -264.5784
      -263.1929      -625.1038      -1036.571       247.5156       1570.021
       1756.224       1799.232       1549.969       575.1289      -593.7290
      -1531.416      -843.7568       1246.738       1851.954       794.7957
      -575.2295      -2883.773      -5389.590      -5597.457      -1337.494
       4999.832       7705.830       5776.791       1650.430      -279.2285
       1052.616       3349.646       4827.354       1773.421      -4581.594
