     0.02500000      -26347.78       20815.13      -12345.00      -12345.00
      -30.00000       243.0250      -42.00000      -12345.00      -12345.00
       0.000000       31.95000      -12345.00      -12345.00      -12345.00
      -12345.00      -12345.00      -12345.00      -12345.00      -12345.00
      -12345.00      -12345.00      -12345.00      -12345.00      -12345.00
      -12345.00      -12345.00      -12345.00      -12345.00      -12345.00
      -12345.00      -30.57010      -68.62600       946.0000       0.000000
      -31.23600      -65.83800       0.000000       167100.0       0.000000
      -12345.00      -12345.00      -12345.00      -12345.00      -12345.00
      -12345.00      -12345.00      -12345.00      -12345.00      -12345.00
       276.5620       284.7665       106.1915       2.486575      -12345.00
      -12345.00     0.03533813       270.0000       90.00000      -12345.00
      -12345.00      -12345.00      -12345.00      -12345.00      -12345.00
      -12345.00      -12345.00      -12345.00      -12345.00      -12345.00
      2008       318        11        13        12
       400         6    -12345    -12345     10922
    -12345    -12345    -12345    -12345    -12345
         1         7        13    -12345    -12345
    -12345    -12345    -12345    -12345    -12345
    -12345    -12345    -12345    -12345    -12345
    -12345    -12345    -12345    -12345    -12345
         1         1         1         1         1
TUCU    -12345          
        -12345  -12345  
-12345  -12345  -12345  
-12345  -12345  -12345  
-12345  -12345  -12345  
-12345  -12345  -12345  
-12345  -12345  BHE     
ZL      -12345  -12345  
[...]
      -416.2797      -30.22070       1058.419       1091.537       804.9589
       378.9316      -1004.744      -2158.378      -1930.292      -959.4173
      -14.43262       886.4658       1938.016       1636.458       95.02600
      -491.2678      -183.7603      -749.6201      -2112.624      -2479.507
      -2068.877      -2263.940      -2231.714      -1889.299      -1767.086
      -877.7920       780.1035       1708.235       1624.620       977.2253
      -243.9585      -1485.649      -2011.506      -2107.781      -1925.139
      -2153.061      -2730.240      -2523.017      -1493.168      -601.6902
      -390.4689      -531.9758      -274.6841       494.1982       1111.794
       569.3140      -757.5054      -1622.703      -1692.310      -1807.042
      -2550.975      -2814.799      -2366.912      -2413.212      -2355.363
      -1837.906      -1489.079      -2197.059      -3895.159      -4354.884
      -3427.387      -3479.824      -3701.061      -1967.205      -156.7212
      -770.3525      -1711.436      -1454.283      -1703.713      -2572.383
      -2790.508      -1499.316       742.0864       1141.549      -847.1113
      -3149.473      -4153.768      -3636.943      -2810.229      -2549.493
      -2723.119      -3286.144      -3469.346      -3173.383      -3262.568
      -3242.503      -2246.896      -1597.124      -2413.980      -3190.847
      -2560.348      -1497.104      -1433.322      -2637.098      -3762.072
      -3417.534      -2308.398      -2101.744      -2021.231      -1101.982
      -584.7188      -1110.275      -2140.646      -2898.869      -2844.148
      -3108.191      -3110.607      -1934.849      -1307.675      -1340.917
      -1213.192      -1405.242      -1241.574      -405.2433       428.1422
       79.86963      -1728.628      -3174.608      -2925.512      -2101.442
      -1582.362      -643.9138       667.2246       1172.344       902.2898
       896.0244       1019.919       25.59180      -1543.219      -1911.481
      -1436.354      -1626.144      -2403.008      -3046.326      -3812.834
      -4699.888      -4246.312      -2687.906      -1421.135      -193.4131
       1750.019       3478.485       3469.874       2460.415       2064.744
       2145.474       2070.217       1787.996       1172.734       163.2379
       29.55225       740.0755       408.9878      -948.2378      -1215.049
      -356.7689      -24.39355       438.1299       1564.517       2116.352
       2232.404       1765.605       567.5433      -66.83264      -64.10139
      -31.38206      -62.32800       34.08105       1373.370       2639.264
       2032.600       1542.275       2082.216       2136.398       2523.449
       3912.234       4443.117       3052.295       1262.671       741.8535
       1309.991       1771.041       1734.042       1945.166       2754.273
       2771.339       817.8013      -1105.288      -427.6621       1081.820
       1198.321       824.3252       1530.378       2843.097       3049.943
       2445.669       2330.244       2741.593       2983.892       2581.070
       2052.452       1913.339       2423.713       3194.934       3478.541
       3131.774       2436.896       2082.839       2341.241       2367.337
       1627.796       439.9120      -413.9469      -356.3339       126.9810
       60.34113      -11.02393       821.9893       1657.843       1547.218
       1399.066       1630.532       1386.593       920.9531       1235.418
       2016.348       2655.281       3227.666       3618.739       3699.078
       3635.842       3082.294       2282.950       1885.494       1592.815
       1023.477       423.0973       137.6575       183.4639       345.3461
       666.2607       613.4441       595.6924       1612.650       2322.469
       2019.383       2446.604       3938.960       5334.227       5389.026
       4023.926       2807.319       2155.121       1490.430       1206.838
       1205.339       814.2451      -420.0444      -1868.900      -2139.166
      -1607.161      -1255.843      -504.1309       441.1240       1207.051
       1749.000       1973.131       2744.728       3263.535       1726.686
      -21.29004       536.5117       2406.296       2750.644       1093.125
      -242.2225      -444.4519      -908.6553      -1437.476      -1316.627
      -1128.547      -1190.064      -1077.164      -1021.427      -1616.505
      -1752.973      -249.9512       1282.477       1636.742       2026.283
       2930.294       2701.816       843.5410      -661.9326      -850.7327
      -1087.220      -1570.531      -1430.919      -787.4227      -81.14557
       306.6641      -61.07947      -593.6213      -731.1277      -1079.011
      -1632.523      -1258.465      -552.6573      -128.0534       155.4839
      -481.8755      -1234.019      -1073.793      -1386.622      -2238.927
      -1943.181      -820.2236      -1073.706      -2159.440      -1840.786
      -882.0872      -973.5994      -1199.796      -281.5339       467.6603
      -194.2275      -788.0601      -854.6648      -1132.151      -1252.649
      -1330.695      -2420.718      -3672.008      -3538.617      -2642.483
      -1800.846      -974.6931      -1077.209      -1484.424      -1175.255
      -2054.961      -3683.219      -3482.396      -2683.425      -2337.977
      -1826.583      -1782.402      -2432.100      -2752.111      -2581.659
      -2121.061      -1554.526      -1534.820      -1127.679      -177.6948
      -877.7588      -1752.941      -512.5036       319.8071      -1464.130
      -3688.229      -3785.852      -2613.153      -1942.137      -1324.220
      -1300.217      -2153.391      -2892.583      -3601.246      -3193.397
      -1178.697      -328.4473      -1526.163      -2473.653      -1888.403
      -1403.640      -1777.219      -1288.421       173.6002       643.2444
      -378.8447      -1364.961      -1450.020      -1450.495      -1423.291
      -1318.749      -1905.865      -2926.146      -2387.790       52.21680
       1956.600       2086.720       1248.043       32.24365      -1170.367
      -1923.862      -1484.094      -282.3301       577.5389       678.5106
       203.2938      -28.22314       550.3530       977.5946       90.68872
      -1013.560      -627.6626      -599.1870      -2051.404      -2373.725
      -932.0062       391.1284       874.7312       930.1729       1134.784
       1011.685       472.5094       37.72964      -13.69580       116.9220
      -88.04077      -525.1881      -593.8271       344.5796       2054.457
       2675.648       2427.048       2028.596       1262.060       1250.969
       1460.895       944.9746       1127.970       1435.665       597.1796
      -332.4904      -54.50073       714.8193       49.61816      -1855.562
      -2905.247      -2544.259      -929.1587       769.6035       1237.716
       899.5753       289.8560       142.0981       1159.752       2384.484
       2716.349       2455.218       2178.447       1436.428       163.9672
      -199.3516       1331.289       2268.130       870.0671      -452.1248
      -332.4165      -724.0460      -1142.230       423.8975       2713.352
       3545.716       2623.380       884.7715      -890.3525      -2587.123
      -2504.446      -1343.074      -1202.728      -654.9271       245.0290
       29.08594      -859.8779      -1728.466      -2222.546      -1744.874
      -360.5500       479.8696       1182.837       2125.542       2128.952
       1704.802       1588.226       1422.142       1889.693       3113.322
       2798.473       1049.338       536.2329      -197.5674      -2040.702
      -3300.619      -3362.584      -2062.472      -816.7379      -434.8606
      -130.9590      -438.4304      -1083.807      -1144.971      -530.1113
       904.6372       1916.209       1211.016       574.0015       1120.577
       1288.794       680.3721       677.1392       1262.394       772.3323
      -944.4734      -1580.913      -751.1694      -295.7056      -632.7631
      -818.1227       104.6655       1568.508       1857.195       1218.386
       857.0024       1060.551       594.1450      -304.6919       420.8716
       1476.201       1269.830       1523.602       1630.808       401.5305
      -801.1650      -756.3057      -349.8118      -879.7090      -1090.073
      -441.8145      -3.192871       946.5923       1570.116       640.4225
       68.28906       552.7386       745.6343       309.4271      -471.8804
      -1059.263      -992.1230      -136.9806       185.5781      -832.7773
      -1512.198      -1330.310      -987.6116       38.16602       1054.575
       1753.064       2574.018       2709.893       2330.079       1835.750
       1580.816       1908.099       1596.801       853.6946       454.2017
       672.4170       1282.361       1614.293       1687.715       333.4937
      -1548.876      -1852.612      -1926.803      -1685.905      -247.3164
       1240.505       1666.133       933.6238       339.1152       923.5459
       1470.347       1265.216       935.3965       1334.855       2218.529
       2456.883       2449.533       1623.564      -80.75195      -1039.925
      -1648.994      -1549.618      -648.9885       323.9641       1146.988
       971.6442       287.7390      -200.1606      -751.3984      -1521.314
      -1735.750      -451.5188       794.7207       1319.495       1514.352
       1119.321       180.0906      -708.8622      -695.8096       67.45166
       1232.917       2658.432       3346.695       2842.888       1633.469
       84.84570      -966.7114      -117.2383       1400.148       1375.486
       391.1045      -1015.935      -2068.179      -1518.317      -477.6472
       398.1099       1127.854       1186.520       297.0960      -546.4218
       77.44958       725.1533       384.9939       439.8399       367.5146
      -328.8735      -973.3271      -926.9071      -492.0903      -975.5415
      -1659.312      -2275.804      -2530.529      -1136.192      -50.67432
       815.9688       3066.623       4234.149       2838.926       1004.872
       401.9921      -143.7354      -1467.919      -1773.868      -274.4722
       1421.366       1894.336       1722.592       683.1670      -1626.831
      -2556.449      -1370.611      -223.2442       186.0770      -300.1071
      -824.4075      -252.1489       888.9839       1364.487       380.7549
      -1116.738      -1289.171      -432.2742       243.9463       1302.054
       2610.483       2569.721       1064.244      -789.7476      -1496.877
      -1151.555      -1703.331      -2897.675      -3044.343      -2240.521
      -1007.500       795.3516       1823.050       577.1287      -771.0637
      -570.5590      -508.9794      -104.9658       1949.106       3178.214
       2220.701       67.48633      -2581.964      -3848.661      -3199.559
      -2091.112      -1088.405      -705.7719      -421.2346       134.0131
       3.936523      -886.3535      -1763.967      -1847.429      -1500.599
      -1815.097      -2391.185      -2499.004      -1858.389      -937.0935
      -733.5293      -1401.763      -1742.167      -1595.252      -2261.436
      -2826.582      -2746.187      -2818.552      -2067.622      -954.2244
      -914.4603      -471.5024       660.7742       337.9357      -322.3495
      -100.1335       193.6609      -92.47656      -1563.828      -2817.513
      -1998.269      -34.90112       699.2225       255.0160       158.5618
      -438.7284      -987.7202       242.3501       1585.548       1378.134
       1317.433       3378.119       6387.945       8055.883       8598.016
       8697.572       7885.873       7059.949       7774.117       8655.980
       7306.486       3759.994       43.31348      -1989.378      -2452.881
      -2269.559      -1049.672       635.7801       505.2798      -1664.322
      -3488.031      -4807.500      -7392.812      -9780.201      -9933.332
      -8241.445      -6333.104      -5427.010      -5161.672      -7162.984
      -11057.08      -11368.32      -8712.223      -7970.758      -8633.617
      -8822.594      -7712.853      -5275.828      -2760.981      -1977.354
      -4649.818      -7463.312      -5350.366      -424.1719       3458.424
       6401.625       9405.133       12062.59       12194.85       8949.186
       3664.014      -731.6841      -439.9492       4311.434       10378.81
       13754.36       13302.25       13074.77       13477.26       12173.69
       10755.34       8298.732       910.5098      -8023.049      -9884.545
      -4959.672      -327.5747       1988.223       3511.271       4593.306
       2646.485      -2188.880      -2043.871       4360.283       8805.264
       7623.575       2576.139      -3695.473      -7730.479      -5828.828
       1162.090       7154.619       8175.200       2814.254      -6529.898
      -12924.37      -11559.82      -2476.820       6584.789       7950.674
       5818.193       4204.844      -3176.391      -17436.52      -26347.78
      -21920.58      -8161.797       5298.674       10312.43       7291.625
       1667.773      -367.7314       2148.354       691.3828      -8987.500
      -20026.84      -22963.88      -14506.88      -587.7266       11185.30
       17724.89       17550.39       11399.96       1618.461      -10309.38
      -20536.81      -22748.01      -14405.32       174.6523       13654.12
       20815.13       19748.11       13049.57       4662.211      -3647.887
      -8455.719      -8189.972      -6184.733      -3684.987      -579.3467
       2499.635       4497.729       3665.932       2193.797       3968.400
       7259.434       8125.326       6399.483       5210.584       5299.165
       4071.853       1591.835      -168.2710      -1294.088      -1046.078
       1175.193       3714.350       6577.305       10726.91       13609.38
       12850.66       8117.301      -1318.043      -11330.30      -14085.72
      -9702.095      -3623.749       1516.591       4499.191       5767.849
       5926.719       3216.606      -2572.770      -10139.84      -15337.53
      -11921.69      -1454.863       7168.225       9687.357       6126.508
      -3024.227      -11363.52      -9370.544       1611.529       10097.75
       9726.973       3720.066      -3033.916      -7308.459      -8612.074
      -7894.878      -4109.723       1786.947       3561.285      -2312.635
      -9513.506      -8671.056      -1665.404       4232.438       9728.012
       16279.11       19439.33       17387.37       12951.69       7528.572
       771.8828      -5930.551      -8016.323      -4027.755      -57.74243
       21.47852      -2314.461      -4821.758      -5459.086      -5303.240
      -8655.797      -14631.38      -16957.84      -13098.61      -6182.689
       438.2305       4497.243       5470.528       4030.522       803.3936
      -2291.445      -3032.451      -1462.379       635.4287       2092.479
       4086.574       5828.917       4101.182      -917.4199      -4081.862
      -1064.596       4893.664       6547.586       2879.659      -468.9896
      -180.3516       840.7350       418.2744       597.2695       2705.773
       5170.932       6504.044       5657.583       2528.013       186.6270
       1730.508       3916.554       1700.396      -2604.377      -4489.417
      -4588.442      -3907.028      -1884.098       1851.703       5297.832
       6623.141       7415.504       7514.700       4107.199      -1790.876
      -4802.363      -2515.155       338.5547       70.62305      -1887.730
      -3999.971      -6638.598      -8944.846      -9865.152      -10515.19
      -10521.76      -8287.250      -4078.120       1131.496       3759.083
       1656.490      -548.9380       1164.500       4970.291       7326.980
       7283.172       6406.167       3502.952      -2421.787      -6600.393
      -6333.355      -4877.360      -2523.103       987.7969       2521.289
       1897.451       1370.318       293.3188      -1539.847      -2455.718
      -2245.550      -1032.030       1598.957       3645.979       2625.853
      -263.5674      -1684.375      -2034.523      -3952.170      -5830.271
      -5613.950      -4942.846      -3765.579      -2192.131      -3070.904
      -5234.085      -4337.885      -520.3555       3860.422       7744.664
       10139.99       9507.799       5374.191       277.6045      -2855.717
      -4775.130      -5625.535      -5125.587      -4657.533      -3176.391
      -1287.250      -2179.977      -4246.426      -5093.762      -4694.534
      -3240.364      -2376.100      -2796.926      -2359.796      -24.38086
       2810.828       5115.012       6718.358       5263.282       623.0547
      -3137.803      -4845.436      -6621.490      -7201.259      -3662.421
       2009.779       4809.426       3440.046       141.4482      -2589.865
      -4074.952      -4416.019      -3277.252      -1173.029       1056.173
       3440.318       5936.896       7582.001       6612.284       2618.368
      -2441.596      -5516.996      -5387.252      -4084.791      -4081.129
      -3764.846      -793.1470       1729.038       11.39258      -3690.336
      -5739.689      -5482.696      -4077.025      -2246.243      -93.39893
       1830.340       3257.123       4138.604       3886.766       3119.178
       2749.025       3331.814       4345.227       4767.173       4596.308
       2981.126      -434.9170      -3064.513      -2826.817      -938.4114
       123.9419       604.4043       1532.921       1674.317       430.2669
      -418.4167       369.8467       2128.033       2323.515       33.81250
      -2498.047      -3943.180      -3432.210       38.69531       4065.533
       4845.705       1180.297      -2790.337      -2643.007       121.2012
       3103.191       5384.012       5985.057       5818.159       4789.842
       1863.971      -1682.891      -3914.246      -5031.328      -5234.661
      -3515.133      -1448.246      -616.6436       1350.463       5276.582
       8912.441       10085.15       8201.059       4674.347       258.1455
      -4532.709      -7010.375      -6186.250      -3302.478      -583.9280
       691.4136       1174.467       1924.609       3857.779       5952.719
       6069.542       5014.404       4511.175       4144.208       2668.904
       273.2051      -2666.973      -5780.750      -7469.984      -6216.373
      -2147.707       3135.709       7970.539       11371.12       11697.89
       8559.967       3571.758      -1306.280      -3826.904      -3206.333
