     0.02500000      -17955.21       12677.36      -12345.00      -12345.00
      -30.00000       243.0250      -42.00000      -12345.00      -12345.00
       0.000000       31.95000      -12345.00      -12345.00      -12345.00
      -12345.00      -12345.00      -12345.00      -12345.00      -12345.00
      -12345.00      -12345.00      -12345.00      -12345.00      -12345.00
      -12345.00      -12345.00      -12345.00      -12345.00      -12345.00
      -12345.00      -30.57010      -68.62600       946.0000       0.000000
      -31.23600      -65.83800       0.000000       167100.0       0.000000
      -12345.00      -12345.00      -12345.00      -12345.00      -12345.00
      -12345.00      -12345.00      -12345.00      -12345.00      -12345.00
       276.5620       284.7665       106.1915       2.486575      -12345.00
      -12345.00     -0.1294790       0.000000       0.000000      -12345.00
      -12345.00      -12345.00      -12345.00      -12345.00      -12345.00
      -12345.00      -12345.00      -12345.00      -12345.00      -12345.00
      2008       318        11        13        12
       400         6    -12345    -12345     10922
    -12345    -12345    -12345    -12345    -12345
         1         7        13    -12345    -12345
    -12345    -12345    -12345    -12345    -12345
    -12345    -12345    -12345    -12345    -12345
    -12345    -12345    -12345    -12345    -12345
         1         1         1         1         1
TUCU    -12345          
        -12345  -12345  
-12345  -12345  -12345  
-12345  -12345  -12345  
-12345  -12345  -12345  
-12345  -12345  -12345  
-12345  -12345  BHZ     
ZL      -12345  -12345  
[...]
      -1595.296      -621.9004      -1530.454      -2721.748      -2600.597
      -1234.537      -582.3467      -1402.719      -2325.860      -2483.632
      -1619.655      -523.3105      -1671.014      -4208.493      -4136.905
      -1791.911       133.9567       688.4827      -623.9834      -2121.207
      -2748.861      -2803.747      -1512.826       103.0117       735.8740
       1290.521       1060.087      -659.4531      -2211.902      -2137.611
      -985.8237       265.3633       1283.532       476.8262      -2322.453
      -4346.549      -4274.138      -2060.732       57.02417      -606.7373
      -2352.251      -2247.815      -1597.533      -1460.704      -315.8357
       804.8544       215.6173      -224.4893       828.9404       2087.468
       1731.602       2.309448      -688.5693       127.3418       616.7925
       373.2407       214.8218       950.3052       1751.180       998.2437
      -749.1621      -1927.898      -1420.594       1104.323       2807.820
       1624.687       71.52289      -112.9777      -7.134644       143.9716
       137.9619      -303.1394      -757.3195      -660.6138       85.75464
       542.2214       187.5436      -22.81519       154.4839       911.7188
       1956.126       1895.007       1137.261       400.2418      -161.4893
      -653.5161      -1590.953      -551.5557       2192.146       2586.086
       1427.335       1670.318       2983.205       3612.596       2486.333
       964.1034       527.2222       420.5674       1098.014       3464.873
       4368.497       2547.288       1231.667       1467.743       1209.319
      -6.156982      -382.5533       423.0676       362.2183       332.9175
       1920.399       2442.776       711.9819      -611.7054       19.71582
       1580.333       2496.637       2626.649       2763.014       2423.010
       1389.210       1426.288       1782.120       1475.469       1486.728
       1904.104       2707.285       3824.709       3606.272       1827.703
       662.9707       1136.692       2323.584       2703.639       1819.168
       1517.715       1311.624       645.1802       1788.639       2780.776
       1424.675       1598.741       3106.885       2774.273       1896.254
       1952.216       2837.167       2591.353       384.0845      -915.1614
      -940.5245      -427.3262       1300.252       2297.461       1128.940
       626.1309       1771.255       2499.857       2009.040       1395.285
       1287.027       1564.640       1593.349       813.7350      -241.8475
      -390.4197       319.3394      -71.10913      -1245.037      -84.07031
       2395.273       2864.036       1460.646      -127.3057      -1475.524
      -1328.384      -435.3369      -604.8792      -475.7018       189.8359
       537.5210       1042.679       1058.666       739.0139       840.7614
       404.8721      -836.2546      -1222.448      -270.2954       995.7969
       1631.145       1352.360       258.7915      -597.6353      -185.1974
       440.1042      -220.4046      -574.3174       582.2876       1440.269
       847.0566      -394.7725      -1467.973      -1672.464      -1198.619
      -155.6392       1035.008       616.4819      -1148.497      -1952.823
      -1422.503      -848.7793      -800.5635      -875.7896      -983.6621
      -1190.267      -2132.421      -2815.493      -2152.246      -1120.112
       322.1948       1910.506       1730.733       523.2289      -150.8287
      -468.5935       457.8271       2350.563       2040.480      -39.84570
      -1840.308      -2569.738      -1802.228      -964.9463      -782.6255
      -1191.761      -2649.864      -2991.609      -1379.625      -831.6074
      -2050.891      -3379.862      -3625.929      -1923.628       687.0229
       2226.323       992.9307      -1330.743      -1751.329      -1296.503
      -2135.854      -3198.453      -2764.293      -1087.832      -7.340271
      -249.0782      -307.4390       113.8691      -518.3735      -2034.531
      -3295.029      -3980.797      -4106.294      -2377.857       182.7719
       483.1853      -685.6636      -855.3475      -611.4729      -529.2771
      -304.6025      -757.9062      -2428.628      -3382.104      -2288.937
      -879.3091      -107.7799       266.6572       406.3853       1209.645
       963.4648      -651.7903      -859.8268       226.3678       456.5101
      -277.4873      -1045.852      -1868.719      -2684.973      -1835.264
      -278.1978      -586.9614      -1408.417      -1051.458      -1074.640
      -898.4990       1203.339       2393.673       679.7463      -653.8232
      -508.7518      -464.4595      -920.0496      -821.0242       458.5337
       1390.347       680.5974      -3.519531       260.4910       127.8235
      -228.1982      -512.8760      -1384.185      -1603.219      -679.1323
       1311.619       4136.220       4186.516       316.6494      -1955.990
      -1986.893      -2084.688      -477.9521       1806.997       2472.207
       1172.649      -1652.640      -2592.664      -812.9417       692.5718
       1145.893       1391.471       28.69482      -1921.655      -262.7402
       2587.786       1832.248       307.0469       452.5400       824.3362
       833.1925       137.3062      -1489.038      -2947.984      -2238.442
       124.0449       1278.785       1672.930       1976.552       1028.919
      -458.5651      -434.8755       717.4268       1449.095       1520.324
       724.9426      -934.9512      -1754.798      -1087.214       215.5296
       612.0557      -504.1138      -352.9419       2058.886       2396.323
      -133.3838      -1120.782      -206.9244       86.84082       961.5723
       2088.261       1374.310      -364.9258      -1830.217      -2650.914
      -1948.083      -747.1797      -1479.238      -3388.445      -2541.204
       969.1226       2729.468       1096.395      -353.5747      -133.4192
      -120.6321      -306.4727      -1065.215      -2965.339      -2560.539
       389.1211       1922.567       1100.252      -1355.832      -3952.561
      -4444.245      -2486.071       718.3169       2460.252       1126.768
      -1961.089      -3204.596      -1174.547       1222.701       2051.292
       1143.369      -466.3387       81.20288       781.4526       247.9980
       1108.671       1499.123      -593.3657      -2153.626      -2539.847
      -2845.695      -2338.132      -704.8572       624.7455       417.0901
       370.0518       1666.804       2304.510       979.6372      -1484.142
      -1848.428       165.1865       1111.866       419.4757      -354.2051
      -1202.672      -1721.679      -1427.679      -283.4795       1206.766
       560.7829      -760.3467       980.6094       3172.102       2776.941
       1903.515       1316.116       531.6133       1710.010       2784.298
       1977.584       1031.807      -217.8953      -761.7544      -830.8184
      -1154.728       358.6248       1362.863      -88.37598      -1527.618
      -2252.698      -2793.415      -1866.260       86.13916       1183.658
       1374.915       270.8547      -1082.029       736.5518       3506.450
       2513.748       40.58301      -920.1350      -1153.884       396.0557
       1497.668      -749.6611      -2251.615      -1423.977       31.85840
       2704.475       3508.665       1646.847       363.7252      -416.1243
       80.70264       1386.784       116.4360      -616.9111       1325.630
       2943.178       3678.249       2542.135       102.1412      -126.2119
      -59.17090      -1679.145      -2461.159      -1616.303       492.9688
       2241.195       1323.911       174.9658       905.0342       2095.884
       2114.271       1278.245       2122.399       4407.580       4197.730
       1339.507      -258.0710      -370.8760      -754.7446       300.1064
       1439.648      -322.4316      -1812.847      -789.5044       495.3774
       1470.070       2161.234       3059.334       2926.288       826.9974
      -231.4218       175.0415       1048.455       3003.414       2822.031
       297.2179       63.28906       1216.417       1753.029       1472.870
       133.7926       133.0330       1239.255       1489.421       491.3761
      -739.0032      -332.1436       1089.543       2390.951       3473.603
       2465.587      -61.62451      -1266.452      -387.1328       1498.093
       3001.451       3279.487       1551.842      -981.6475      -1193.995
       379.2420       622.0072      -816.9291      -250.9253       1996.611
       2236.240       1883.329       1739.512       759.7849       928.4531
       2112.789       2938.715       2017.095      -1278.987      -3009.802
      -674.6328       2903.384       4735.471       2842.161      -973.8486
      -3759.589      -3266.287       209.5713       2045.297       1102.579
       9.990234      -537.8081      -1700.706      -3035.156      -2060.317
       806.6455       2626.470       937.9385      -1834.764      -2032.333
      -1030.702      -185.9324       658.8663       781.9784       430.8341
      -104.9590      -1116.385      -1475.009      -71.37805       803.7546
       269.8569       623.8408       2576.315       3359.369       1028.185
      -2613.510      -4564.339      -3646.750      -635.2568       1886.858
       3223.330       3107.163      -301.4077      -2834.091      -444.4736
       2120.966       1598.216      -280.5518      -2277.832      -3653.321
      -2016.936       165.9248      -1284.178      -2918.228      -1998.255
      -821.6738      -1116.642      -3304.922      -4512.340      -3113.782
      -353.5425       1254.179      -255.3396      -953.6366       176.3267
      -950.1572      -2349.056      -1698.638      -655.2627      -315.6241
      -329.9152      -64.67810       388.1970       5.786133      -1215.799
      -2055.593      -2144.908      -1659.481      -755.3113      -968.8398
      -1483.168      -634.4765       341.3245       148.0474      -1443.501
      -2870.337      -2463.108      -1166.022       950.6843       1845.684
      -542.2031      -2796.585      -1530.442       723.7948       911.5938
      -983.8438      -3937.658      -5512.301      -4814.602      -3346.999
      -1550.988      -357.1411      -818.8184      -2166.065      -3218.905
      -3594.467      -1424.692       2030.368       2514.167      -46.31641
      -1991.948      -2321.182      -3344.221      -3236.975      -1026.574
      -210.3818      -1181.102      -3002.667      -3702.742      -2454.309
      -1418.164      -741.2017       800.2681       1730.627       1626.422
       339.2144      -1976.986      -2811.600      -1579.280      -118.5615
      -238.0371      -2183.656      -4365.572      -5312.812      -4373.448
      -2335.651      -150.0370       930.8628      -275.1611      -3102.917
      -3251.349      -972.8691      -1306.583      -2941.247      -1984.423
       139.8369       1699.847       2669.307       1020.285      -1593.911
      -1839.416      -1175.875       398.7859       1405.752       82.10278
      -111.1826       2879.738       4853.592       3407.756       1224.766
      -923.0752      -3526.066      -3770.635      -377.6719       2422.951
       1512.586      -444.0396      -1284.502      -3315.807      -6405.313
      -5570.334      -1063.240       2245.237       774.9453      -3874.139
      -5085.956      -1630.425       180.2720      -1197.942      -2388.345
      -2416.594      -611.0742       3094.986       5606.435       4692.880
       1391.449       871.5957       4787.088       8986.891       11254.07
       11396.37       8429.289       3344.632       1292.871       4265.867
       6315.244       6624.143       8267.400       9448.619       9825.168
       9178.425       5252.837      -80.45801      -4649.789      -6224.500
      -3629.649      -1336.509      -436.0010       1996.610       4220.043
       5460.140       4869.294       115.8984      -6859.148      -11005.23
      -10348.77      -8526.387      -7718.273      -7087.203      -6037.043
      -6099.447      -9255.586      -9538.577      -3519.578       3054.354
       6870.438       8794.998       9360.160       8457.950       6096.706
       3386.208       668.3120      -953.0615      -1850.070      -3015.782
      -3701.000      -5576.793      -7137.232      -4710.312      -1140.537
       741.7744       2546.621       6896.551       11110.17       9943.393
       5549.535       2934.997       2073.218       2091.630       2506.062
       2889.681       1162.791      -3317.195      -6239.918      -6212.339
      -4911.949       347.6172       8276.297       10504.31       8380.789
       7015.287       2655.934      -3274.232      -6029.666      -4372.195
      -1709.497      -2752.423      -2833.202       2056.961       6455.127
       8277.875       9237.844       8924.369       8592.828       7387.061
       2665.982      -4245.840      -12402.50      -17955.21      -15153.62
      -5271.821       3829.430       7634.449       8029.770       7043.659
       5048.435       2415.329       616.1045       2531.773       6050.805
       6954.680       6376.320       5482.812       5360.170       7264.196
       6117.891       1888.661       969.8564       1610.042       731.0352
       1034.663       2482.209       1335.865      -2718.066      -4128.063
      -2220.542      -167.2930       3129.086       5961.018       5555.814
       4891.408       5004.855       4756.901       3521.971      -1193.477
      -8561.180      -12713.60      -10738.72      -6145.051      -2328.655
       1079.172       2151.457      -95.08984      -2647.193      -3899.830
      -3607.287      -1380.575       2983.939       7360.744       7164.652
       1629.359      -5476.375      -10090.31      -9402.873      -3771.885
       573.1914      -1234.883      -6252.611      -8744.645      -8199.756
      -7203.375      -5681.272      -3497.432      -896.1123       2920.611
       5504.064       4711.126       2699.231       2010.918       2480.339
       1698.450      -196.3655       427.7246       2734.166       3238.391
       1982.769       1022.497       182.2634      -1159.582      -1178.605
       1042.152       1341.846      -1988.425      -3721.243      -2055.676
       516.5742       1995.112       437.9297      -2812.853      -3930.194
      -2566.979      -2005.471      -3465.438      -5067.564      -3814.399
      -491.0293       2385.693       3948.073       3955.123       4120.260
       4398.010       2388.366      -1094.307      -4255.219      -6177.770
      -6229.078      -5619.624      -4870.832      -3058.818      -3063.586
      -6043.801      -8481.162      -8169.873      -5371.099      -1814.802
      -175.3511      -1069.365      -3341.771      -3879.779       392.8867
       4876.872       4742.934       2612.571      -424.9961      -4410.848
      -5309.135      -946.5205       2925.604       2384.379       126.3218
      -1211.429      -1081.271      -2007.615      -4997.150      -7348.693
      -8555.805      -7973.242      -4438.942       37.69727       2803.352
       3410.959       3355.496       3213.710       2452.950       2079.013
       2112.387       2074.979       937.7275      -877.4834      -1364.518
      -1081.056      -1151.319      -2141.625      -3375.143      -1123.047
       4141.293       6549.853       4246.571       1198.263      -713.4395
      -3758.557      -7636.494      -8759.809      -7213.496      -5601.736
      -3778.180      -1876.832      -1030.227      -557.9297      -1272.626
      -2134.898      -1.852539       2019.811       1359.216       2203.539
       4823.795       5381.536       2393.255      -1517.361      -2650.324
      -1190.706       1451.435       4977.675       5273.341       67.44531
      -5457.477      -8388.930      -8716.802      -5158.603      -636.8472
       1086.254       226.7402      -1287.840      -2035.882      -1998.389
      -2303.954      -1951.133       681.6309       3407.975       4252.472
       2767.327      -665.0259      -2079.590      -1495.128      -900.7881
       1518.445       3739.027       4043.375       3992.395       2973.736
       4119.164       7955.766       8387.271       4637.630      -101.9463
      -3866.535      -5199.570      -4240.499      -2512.770      -1770.199
      -2529.570      -2284.712       1266.703       4304.000       2945.098
      -791.2192      -2531.478      -80.86328       5229.742       10392.73
       12677.36       10304.87       5241.468       2017.181       1871.339
       2348.772       2371.804       1695.542      -270.8330      -2176.688
      -3342.664      -4007.892      -2338.971       595.5403       1314.596
       98.00952      -417.3877       636.8618       1205.779       247.6055
      -608.0769      -831.6743      -1327.458      -2271.078      -1872.876
      -167.1802       1094.744       2010.518       2812.025       3121.200
       2452.915       1479.354       1909.693       2385.463       1882.126
       2442.738       4072.018       4536.009       3405.926       1729.827
      -397.9766      -3432.906      -5956.322      -6096.828      -3930.846
      -882.4404       2018.908       4423.932       5706.807       5231.828
       5062.620       5492.223       3662.074       978.7778       343.3955
       1903.847       4221.710       5201.391       4972.528       3322.814
       377.6367      -1642.518      -2273.578      -902.6133       2282.254
       4092.217       3861.199       4005.738       4806.136       3476.888
       1176.911       928.7539       1024.611       318.1521      -495.3108
      -1006.822       299.7319       1556.880      -65.00879      -1857.363
      -2617.001      -3532.039      -3660.131      -2853.599      -1064.375
       495.7451      -522.4102      -3761.371      -5797.111      -4849.483
      -2150.720       1492.291       4829.391       5340.700       3302.638
       1702.427       2287.066       4266.406       5679.094       5188.241
       3754.195       2257.197      -833.2227      -4468.258      -5779.392
      -4787.118      -3000.891      -3141.204      -4266.010      -3346.645
      -2747.816      -3649.878      -2924.002      -1001.587      -199.3767
       799.2505       1836.328       491.2810      -1210.246      -456.3491
       1641.714       3556.160       5673.980       6531.498       3852.867
       74.81592      -1337.400      -1097.427      -55.61377       1249.630
