     0.02500000      -22934.65       18351.59      -12345.00      -12345.00
      -30.00000       243.0250      -42.00000      -12345.00      -12345.00
       0.000000       31.95000      -12345.00      -12345.00      -12345.00
      -12345.00      -12345.00      -12345.00      -12345.00      -12345.00
      -12345.00      -12345.00      -12345.00      -12345.00      -12345.00
      -12345.00      -12345.00      -12345.00      -12345.00      -12345.00
      -12345.00      -30.57010      -68.62600       946.0000       0.000000
      -31.23600      -65.83800       0.000000       167100.0       0.000000
      -12345.00      -12345.00      -12345.00      -12345.00      -12345.00
      -12345.00      -12345.00      -12345.00      -12345.00      -12345.00
       276.5620       284.7665       106.1915       2.486575      -12345.00
      -12345.00    -0.02894925       180.0000       90.00000      -12345.00
      -12345.00      -12345.00      -12345.00      -12345.00      -12345.00
      -12345.00      -12345.00      -12345.00      -12345.00      -12345.00
      2008       318        11        13        12
       400         6    -12345    -12345     10922
    -12345    -12345    -12345    -12345    -12345
         1         7        13    -12345    -12345
    -12345    -12345    -12345    -12345    -12345
    -12345    -12345    -12345    -12345    -12345
    -12345    -12345    -12345    -12345    -12345
         1         1         1         1         1
TUCU    -12345          
        -12345  -12345  
-12345  -12345  -12345  
-12345  -12345  -12345  
-12345  -12345  -12345  
-12345  -12345  -12345  
-12345  -12345  BHN     
ZL      -12345  -12345  
[...]
       338.8059      -480.1687      -724.2646      -938.0076      -852.6227
      -225.1733       519.4231       1142.378       1435.747       474.7769
      -782.7664      -1126.212      -850.4632      -103.7308       215.2986
      -576.9255      -736.9126      -33.89496       247.7244      -132.3988
      -511.7861      -605.6865      -1298.008      -1680.691      -645.4097
       436.6108       848.3503       850.9353       568.9662      -61.59912
      -119.8369       879.1567       1788.522       1915.146       1578.847
       969.6389       295.5635       359.5239       1227.888       1606.142
       1582.854       1573.305       1248.073       778.5972      -208.9644
      -1646.376      -1586.992      -361.0542       206.9562       424.2842
       811.1230       802.4269       426.4418      -195.4211      -800.9464
      -742.7729       4.064453       919.0574       1460.234       1064.974
       504.2474       235.4299      -233.0627      -722.6272      -810.1735
       53.82715       1303.549       1357.521       780.0293       477.2123
       505.2557       551.9310       347.5822       279.1827      -1.358643
      -403.2473       163.5562       1302.301       1979.771       2214.503
       2210.725       1711.774       1690.618       2467.550       2382.604
       1644.834       1805.530       2124.136       1569.136       621.3518
       270.8706       804.6592       1458.167       1484.772       892.0272
       300.0400       832.7856       1600.583       937.5836      -255.1490
      -365.3147       401.9854       1221.538       1576.597       1397.911
       654.2582      -147.6255      -136.3696       155.5762       212.2404
       24.92764      -234.3901       408.3523       799.9185      -28.56137
      -378.4519       273.6880       554.5745       355.3013       767.8130
       1608.813       1198.344       232.6729       660.4072       1892.875
       2369.537       1905.368       1039.892       425.1669       199.4999
       284.9878       678.5283       1023.648       1205.717       1898.425
       2546.483       2145.908       1419.930       989.2952       216.2175
      -483.7315      -389.9987      -166.5882      -201.0077       17.85364
       156.3052       475.1162       1565.776       2028.070       868.8905
      -26.86169       131.3152       217.5943      -59.41992       163.2964
       869.7588       927.5451       203.5796      -669.7344      -1198.871
      -528.9783       538.7455       242.4869      -594.1833      -353.7673
       354.0852       371.8264       69.57327       166.6571      -171.5889
      -855.7695      -764.2720      -529.3671      -705.2058      -476.5697
      -421.3752      -1036.186      -968.8627       188.2720       841.2479
       628.7128       329.7853       155.1069      -12.86780      -238.1691
      -225.4506      -69.44897      -256.4633      -239.2804       118.2274
      -39.93164      -770.0474      -1211.295      -1337.188      -1967.684
      -2612.003      -2731.850      -2739.127      -2129.691      -991.8069
      -243.3551      -259.8950      -548.9886      -627.3896      -600.1816
      -873.6523      -1613.928      -2116.615      -2272.728      -2743.530
      -2875.988      -2423.750      -1900.240      -1477.335      -1239.677
      -948.7844      -392.5497       40.38385       343.3179       116.0898
      -574.8169      -836.3105      -776.7837      -1241.097      -2578.090
      -3925.259      -4148.653      -3431.830      -2616.596      -1928.842
      -1321.908      -1349.233      -1667.237      -1752.938      -1850.503
      -1937.966      -1918.056      -1679.941      -1748.779      -2476.060
      -2474.144      -1615.028      -978.0371      -741.3354      -1061.573
      -1765.201      -2012.281      -1683.781      -1718.301      -2304.756
      -2297.263      -1808.442      -1496.552      -1310.906      -1313.377
      -1124.823      -616.1660      -756.0576      -1448.492      -1596.865
      -1412.801      -1576.190      -1509.930      -1032.839      -527.9580
      -110.7697      -101.0543      -350.9709      -224.8530      -296.5220
      -802.8286      -859.5623      -615.6914      -912.7671      -931.7468
      -352.9411      -330.5478      -357.4579       296.1758       245.3796
      -547.8892      -660.8398      -591.8599      -1267.267      -1574.109
      -963.2468      -362.3663      -416.4188      -335.7267       194.2582
       311.5828       190.3752       317.9214       366.9393       292.3773
       33.21924      -1058.083      -1930.264      -937.1420       341.0209
       596.8345       652.8394       644.6860       301.6263       144.4485
       502.5864       1077.192       1202.905       996.5310       1035.377
       1344.160       1616.934       1357.431       368.4746      -692.9915
      -1222.333      -1297.311      -1177.352      -570.8040       436.2717
       603.0861      -186.4225      -372.9250       174.5405       955.8232
       1800.106       2156.599       2439.803       3174.635       3528.203
       2952.279       1876.803       1093.666       829.7317       656.4143
       530.1455       487.1816       342.0910       131.1023      -416.4189
      -988.0778      -666.3315      -12.32129      -211.1266      -273.2124
       737.9443       1494.897       1731.199       2137.560       2337.812
       2552.525       2708.421       2386.882       2319.981       2528.854
       1863.490       744.6971       133.3613      -592.9858      -1211.726
      -212.9978       1200.717       1021.848       647.4819       1292.483
       1365.781       963.3281       1601.666       2314.337       1817.138
       1147.547       966.1250       585.7889       294.8564       935.8857
       1442.426       1447.844       1758.763       1611.039       1012.156
       1403.018       2273.925       2418.867       2116.204       1639.042
       598.6697      -76.49023       924.0303       2115.477       1710.316
       1264.821       1510.027       1079.998       551.7415       734.6233
       622.6971       489.3394       912.9194       1511.745       2353.071
       2821.504       2095.008       1444.175       1326.232       754.1152
       743.1636       1437.402       821.1121       152.8232       1516.752
       2896.105       2775.089       2488.509       1740.013       344.5020
       403.8398       2183.873       3258.918       2598.185       1203.352
      -7.301849      -225.1167       723.3535       1641.656       2259.880
       2844.531       2645.146       1146.194      -346.8712      -483.8286
       386.3699       906.3047       488.0324      -222.2543      -198.5249
       661.3950       1299.748       1154.992       607.4412       157.6414
       702.6445       1426.006       894.6196       266.4344       387.5480
       259.4862      -293.5403      -821.3403      -1009.728      -935.4526
      -476.8838       744.1968       1943.265       1734.170       124.5986
      -1373.345      -1783.936      -1131.141       259.6270       889.0916
       173.3491      -790.1863      -1225.319      -1217.523      -1157.489
      -1466.621      -1329.171      -402.0104       72.07800      -140.2493
      -245.5573      -320.8877      -981.1914      -1593.365      -1010.073
      -47.69727      -149.2671      -930.8286      -1343.207      -1318.544
      -929.2448      -472.8362      -574.5803      -979.4846      -912.4824
      -974.9834      -1597.445      -2028.834      -1746.081      -999.5817
      -255.5825      -64.23535      -735.0522      -1497.193      -1614.535
      -1678.776      -1675.889      -862.9255      -90.99561      -407.7632
      -1042.808      -1689.824      -2195.221      -2142.286      -1897.133
      -2031.110      -2381.066      -2677.872      -2598.267      -1883.080
      -1168.092      -665.3811      -591.4814      -1715.478      -2983.119
      -3208.375      -2726.155      -2037.722      -1241.637      -465.9272
      -226.2510      -809.7893      -1245.419      -1030.915      -1261.363
      -1526.755      -708.4057      -7.481689      -198.0508      -749.0447
      -1045.823      -1205.506      -1582.154      -2055.574      -2404.589
      -2549.715      -2823.350      -2844.167      -2622.744      -3014.159
      -2888.343      -2250.998      -2284.052      -1717.986       170.4565
       1554.533       1118.423       62.60840      -533.6299      -601.4753
      -257.9505      -102.0190       261.7951       320.5076      -851.1284
      -1875.130      -1964.078      -1765.746      -1732.133      -2111.262
      -1834.313      -903.2061      -1025.523      -1591.373      -1154.661
      -314.3152      -79.89111      -723.4810      -1012.429      -247.7207
       246.6405       253.5068       75.80078      -658.8604      -999.8416
      -1020.760      -2006.484      -3007.471      -2937.184      -2558.743
      -1579.045      -396.1047      -776.5664      -1413.784      -484.9658
       725.4736       1378.116       1544.611       446.9211      -1127.895
      -1477.513      -1599.265      -2226.595      -2405.865      -1461.231
      -171.2828       178.5983      -118.0661      -339.4799       40.28296
       1037.835       973.7849      -198.4839       35.11523       1948.204
       3019.361       2853.381       2527.540       1996.531       1130.692
       144.4709      -434.5675      -543.8756      -71.37964       1015.637
       978.3009      -266.3135      -837.2711      -498.3372      -232.4234
      -224.6176       239.6782       676.9336       369.6768       655.8027
       1683.381       2104.330       2541.850       2997.544       2065.397
       1060.819       1076.472       913.8106       306.9540      -34.53790
       79.90942       685.2256       1555.745       1622.491       998.0898
       974.3442       1181.879       1354.282       2156.297       3030.685
       3079.592       3076.029       2961.761       1840.510       697.8840
       832.7881       1344.872       1393.837       1457.951       1410.512
       1528.338       2279.477       2426.980       1672.247       856.6631
       862.1387       1950.877       2478.969       2117.789       2118.299
       1889.621       566.6978      -838.3777      -645.7815       920.8926
       2192.367       2556.205       2256.942       1298.345       561.7661
       483.0996       1068.107       2721.890       3970.266       3572.333
       2858.372       1933.582       332.7084      -545.9281      -136.1309
       472.2690       1280.055       2195.407       2606.102       3149.896
       3704.328       2914.417       1125.982      -380.1088      -932.3035
      -62.34082       1595.921       1999.609       1208.326       766.3240
       651.9193      -78.96167      -1243.939      -1599.089      -669.5071
       381.6584       599.3152      -162.4431      -1348.386      -1346.865
       19.73523       461.2886      -594.6587      -928.3940       394.2012
       1527.186       1932.410       2508.634       2490.024       1404.251
       633.3363       129.6252      -405.9811      -132.1218       41.70459
      -693.3867      -1827.136      -2713.716      -2872.283      -2928.770
      -1863.564      -52.52563      -22.00671      -710.7642      -376.0067
      -12.95996       204.7715       841.9899       767.7358      -564.5977
      -2494.900      -3988.450      -3483.690      -1394.212      -319.5469
      -1330.618      -1649.286      -801.9368      -853.3461      -735.6224
      -78.84546       298.2340       511.7175       84.52100      -907.0884
      -1854.580      -1912.281      -1320.786      -893.5785      -513.2883
      -828.4492      -1977.701      -2671.637      -2807.267      -2505.683
      -1484.423      -873.3071      -1551.157      -2499.542      -2339.743
      -973.0950       259.7317       378.3344       61.21619      -109.9492
      -871.2520      -1676.651      -1559.302      -1216.573      -888.7507
      -229.9224      -519.9014      -1655.734      -2186.848      -2604.226
      -3008.514      -2240.742      -1495.047      -1949.983      -1490.740
      -21.90820       514.3862       1002.267       1502.941       554.2863
      -458.5311      -390.1768      -599.5626      -934.6416       47.10742
       2280.093       4330.785       5544.533       6094.055       6063.664
       6780.150       9285.000       12078.32       14013.27       14197.85
       11932.79       9874.457       9751.662       9587.707       8013.439
       5649.544       3774.124       2794.111       2180.405       1530.025
       765.5144       96.46191      -548.7017      -1140.831      -1125.911
      -390.9644       1094.691       1810.223      -1162.943      -7041.051
      -11716.97      -12480.55      -8241.781      -795.8984       6166.656
       10353.08       9903.781       4457.215      -3609.227      -12073.88
      -19695.65      -22934.65      -18927.09      -10974.32      -4485.409
      -2005.068      -3015.188      -6235.281      -11405.79      -16559.05
      -18402.39      -17399.37      -14930.40      -10938.31      -4988.027
       2571.251       5888.642       1436.160      -5151.914      -8350.145
      -7833.779      -6480.188      -5939.963      -4445.435      -1883.724
      -380.3872      -594.7350      -592.1934       1910.096       5165.167
       5490.760       2375.059      -267.3413      -501.5581      -499.8206
       311.5117       2594.673       4304.172       5622.934       7276.418
       7983.643       7693.230       6870.526       5024.375       2537.830
      -714.3301      -6567.367      -12734.52      -12876.49      -5878.141
       2308.258       6568.871       8455.805       9911.957       10142.49
       11155.30       12768.06       10204.58       3991.572       413.2254
       370.4072      -578.0332      -3277.689      -4257.792      -859.2461
       4079.234       6290.514       5321.941       2444.524       2680.895
       9532.227       17052.99       18351.59       12659.35       2807.680
      -6485.168      -10807.47      -9657.531      -7083.447      -6446.453
      -6925.063      -5434.962       88.78516       8982.230       16070.53
       15624.25       10692.27       8097.889       6672.607       1135.461
      -8332.273      -16808.12      -20179.82      -16957.94      -9261.466
      -2554.571       289.8521       248.3750      -2878.953      -7258.988
      -10394.24      -12066.27      -11570.38      -8738.328      -2800.695
       4641.422       9562.352       11025.08       7141.684      -2700.324
      -13539.79      -20658.80      -22084.86      -18417.05      -12678.88
      -7538.820      -4334.201      -2345.504       193.7031       3989.910
       8716.699       13179.93       15623.80       14298.16       9532.137
       4318.025       2007.074       2934.723       4232.131       4945.191
       7013.074       10018.50       9891.518       5941.054       2971.289
       4463.732       7815.045       8163.998       4650.199       108.1768
      -3050.698      -3697.492      -1912.832       922.6299       3279.305
       5832.855       9293.664       9962.103       5857.656      -364.0273
      -6817.562      -10493.49      -8669.699      -3511.405       321.8357
       381.6504      -2380.379      -4677.096      -2363.361       4738.393
       10541.85       9471.120       4340.000       1734.130       2172.699
       3125.926       4276.816       6478.447       9303.838       9576.473
       5864.025       146.6367      -6170.316      -11052.07      -11351.43
      -7405.762      -3402.508      -2688.641      -5775.664      -9416.012
      -9584.312      -6199.611      -2604.828      -1231.542      -1022.013
      -691.4443      -1620.957      -4612.578      -6277.774      -3781.051
       334.3989       2225.364       967.1268      -808.1582       1343.932
       7912.543       12624.94       9526.100       1156.113      -4275.344
      -4253.981      -2574.901      -1576.130      -358.7290       1809.102
       2609.578       362.6895      -2379.944      -2440.313      -603.0840
       1291.975       4221.525       7844.635       9142.354       6836.485
       2437.130      -1747.757      -3610.660      -3324.255      -1675.366
       1416.558       4123.402       4467.700       3504.953       3522.807
       4496.408       4282.821       1758.013      -2574.615      -6399.592
      -7443.230      -6402.848      -6577.660      -8779.256      -9388.945
      -5287.849       1727.912       6003.438       5645.978       3068.985
      -1009.217      -4500.885      -4745.931      -2971.352       135.2090
       5255.535       10721.91       13070.96       10162.29       3768.893
      -3089.164      -8125.484      -10911.50      -12238.04      -11251.02
      -7090.920      -2146.102      -86.72833      -222.9485       363.0562
       1018.025       732.9141       1420.334       4646.551       8687.836
       9675.852       5523.646      -751.5928      -4615.739      -5203.499
      -4104.859      -2763.421      -366.5625       3033.886       3587.787
       998.6111      -843.4050      -1307.064      -611.3828       1751.660
       4004.590       4722.170       2676.176      -2437.068      -7003.953
      -7794.043      -6131.230      -4379.143      -3459.619      -3371.963
      -2390.784      -618.7646      -407.5316      -1006.691       82.04102
       2796.416       5242.996       6420.844       6482.179       4531.870
       393.6201      -3243.504      -3812.721      -1204.815       2016.794
       2779.196       1044.301      -1242.887      -2717.250      -2190.754
       248.1885       1900.818       958.3262      -1781.987      -4386.690
      -4471.504      -2013.854       906.6196       2571.953       2633.065
       1905.284       951.1472       311.9874      -491.8097      -916.2568
       1014.791       4591.430       7703.938       8796.225       7521.864
       4755.746       850.5156      -3346.441      -6388.920      -7367.936
      -6242.092      -4514.152      -2959.215      -702.3286       1554.917
       2241.681       1700.239       852.4141       368.1960       687.1133
       1036.664       286.6865      -1382.362      -2814.654      -3125.184
      -2453.206      -1388.363      -40.90234       1134.552       1409.010
       718.4077       764.9143       1294.235      -718.2891      -4998.746
      -8031.330      -7218.966      -3508.172      -545.3733      -96.86230
