     0.02500000      -56428.89       62193.61      -12345.00      -12345.00
      -30.01001       252.0900      -50.06000      -12345.00      -12345.00
       0.000000       38.23000      -12345.00      -12345.00      -12345.00
      -12345.00      -12345.00      -12345.00      -12345.00      -12345.00
      -12345.00      -12345.00      -12345.00      -12345.00      -12345.00
      -12345.00      -12345.00      -12345.00      -12345.00      -12345.00
      -12345.00      -32.22400      -69.38780       2491.000       0.000000
      -31.23600      -65.83800       0.000000       167100.0       0.000000
      -12345.00      -12345.00      -12345.00      -12345.00      -12345.00
      -12345.00      -12345.00      -12345.00      -12345.00      -12345.00
       353.7782       251.0388       72.89716       3.180964      -12345.00
      -12345.00    -0.04065730       0.000000       0.000000      -12345.00
      -12345.00      -12345.00      -12345.00      -12345.00      -12345.00
      -12345.00      -12345.00      -12345.00      -12345.00      -12345.00
      2008       318        11        13        20
       460         6    -12345    -12345     11285
    -12345    -12345    -12345    -12345    -12345
         1         7        13    -12345    -12345
    -12345    -12345    -12345    -12345    -12345
    -12345    -12345    -12345    -12345    -12345
    -12345    -12345    -12345    -12345    -12345
         1         1         1         1         1
USPA    -12345          
        -12345  -12345  
-12345  -12345  -12345  
-12345  -12345  -12345  
-12345  -12345  -12345  
-12345  -12345  -12345  
-12345  -12345  BHZ     
ZL      -12345  -12345  
[...]
      -66.08522      -76.01813      -73.31145      -81.21712      -72.57227
      -82.88297      -77.78287      -85.87732      -82.91083      -93.50681
      -86.40479      -94.76648      -91.29993      -98.18494      -93.01343
      -104.3565      -97.45435      -104.5999      -102.9525      -112.1990
      -106.2957      -116.0074      -111.9686      -121.1736      -118.0573
      -126.6780      -122.0039      -133.0810      -127.6162      -135.1270
      -128.8806      -139.5738      -133.3157      -143.7033      -140.3737
      -150.1759      -141.5207      -153.6747      -148.9379      -159.1571
      -151.8747      -160.7263      -157.0480      -167.5880      -161.6533
      -172.6879      -164.8674      -175.2380      -171.5358      -180.0768
      -174.7449      -185.7675      -179.5967      -187.1470      -183.3298
      -191.6877      -183.4545      -192.1470      -184.4275      -191.1967
      -184.6533      -191.0474      -181.3795      -187.6073      -180.2531
      -181.9610      -173.4071      -184.5567      -174.3801      -173.6693
      -166.4910      -177.3482      -169.6907      -172.2986      -161.6396
      -164.8741      -159.2946      -162.2344      -156.0378      -161.4460
      -152.4614      -157.7430      -150.0915      -150.8703      -140.2546
      -144.9567      -135.7328      -140.7847      -131.3741      -135.2568
      -128.2866      -128.8775      -118.3568      -125.0570      -117.1475
      -118.0496      -109.7036      -114.9062      -105.7575      -109.9072
      -102.7537      -106.9395      -97.98297      -105.5743      -95.85858
      -99.47302      -96.45972      -104.0894      -94.93860      -98.54163
      -95.78961      -103.8348      -96.40054      -100.7550      -97.53149
      -98.11151      -92.36118      -100.9531      -94.65417      -97.81506
      -95.67215      -99.36115      -95.63376      -103.4485      -98.24542
      -101.0476      -98.29196      -102.2820      -94.25391      -100.9343
      -97.96790      -101.0389      -93.27148      -98.22128      -93.67041
      -92.92615      -84.14102      -87.39262      -82.92688      -85.64664
      -74.14743      -77.56279      -77.06200      -78.24394      -69.30367
      -71.60411      -67.27551      -66.36121      -60.76126      -66.22073
      -60.14606      -58.10341      -54.38341      -60.77025      -57.37761
      -61.94154      -58.08925      -59.41594      -58.36957      -61.32671
      -54.61591      -60.86417      -58.10223      -63.39493      -58.94110
      -65.27634      -63.75140      -66.38132      -63.84203      -71.41856
      -67.20712      -71.59499      -65.90976      -72.78445      -70.06047
      -77.79669      -71.17844      -79.66852      -77.90424      -84.48599
      -80.00497      -88.27512      -83.88141      -89.25894      -83.66455
      -91.39996      -80.91595      -87.26547      -85.21133      -87.34140
      -73.84076      -78.11293      -71.31778      -71.18417      -61.27408
      -63.41432      -52.03276      -55.25111      -45.29362      -41.80478
      -26.62334      -27.13174      -11.99226      -5.494995       12.27728
       14.86090       35.03226       39.20778       57.82175       64.59346
       82.48608       86.93140       106.8105       111.8453       129.1899
       138.8096       162.7036       166.3465       180.6699       183.4846
       206.5541       209.4453       225.9484       231.5546       253.9613
       254.5928       269.7443       272.8158       292.4112       294.3716
       318.8754       321.9209       334.3123       337.5646       359.3475
       360.2465       376.1313       381.1669       399.9861       402.1611
       416.9707       424.0691       441.4434       442.0402       455.8896
       462.2246       479.7416       483.9949       498.5615       499.1602
       511.8473       516.1943       530.2875       528.8492       539.6488
       539.1448       554.1335       554.0402       564.1711       564.4473
       570.7728       565.7346       577.2112       574.9919       580.9354
       577.0343       582.6030       576.8398       580.5209       571.0939
       578.2367       572.2996       574.0071       566.8689       569.5968
       557.5588       557.3008       548.6436       550.8870       535.7446
       536.8838       524.3654       526.3105       514.9248       510.8879
       494.5776       497.7321       484.4424       485.0493       466.3618
       465.9729       448.9622       447.7258       430.1979       427.0082
       406.9261       403.4695       385.9979       384.6165       363.0970
       357.9401       340.6379       339.1651       317.0946       311.2290
       291.9460       285.1105       264.4105       258.7571       235.7158
       230.8435       207.2188       195.1786       173.1482       168.7349
       144.4109       130.7450       109.2325       101.1148       74.39835
       62.88493       40.27542       31.26774       8.836636      -4.330276
      -29.20296      -38.93399      -63.39758      -71.05124      -94.17032
      -103.3683      -128.4252      -139.8521      -161.5139      -169.5682
      -196.9630      -203.2715      -226.0706      -233.7053      -253.8423
      -256.2607      -283.3921      -290.7172      -307.6388      -313.5914
      -341.0646      -344.1370      -362.5031      -370.1138      -394.9758
      -401.9598      -425.0293      -423.4845      -445.6112      -456.2632
      -480.9780      -483.5223      -506.6840      -511.7341      -531.6970
      -535.9514      -560.6497      -566.7874      -585.6323      -584.1519
      -608.7842      -609.5385      -622.1472      -622.7509      -643.2831
      -639.6798      -655.3207      -654.3076      -666.1775      -659.7205
      -671.1580      -663.9614      -673.0552      -662.4065      -673.7527
      -666.0035      -667.1648      -651.9110      -661.7083      -647.9028
      -648.1184      -632.7129      -632.5831      -617.6433      -621.9021
      -603.4719      -601.7178      -583.8660      -588.4026      -572.6034
      -570.8228      -555.5641      -558.7714      -539.4296      -539.3486
      -527.0449      -529.8405      -511.1368      -511.4854      -496.3926
      -500.0793      -483.3741      -480.5078      -466.7667      -474.4668
      -456.6104      -452.2070      -440.6207      -441.4720      -421.7543
      -426.6157      -412.7133      -408.9551      -395.4705      -397.4869
      -379.7642      -380.7599      -365.4282      -363.2462      -347.1329
      -349.9326      -336.1804      -337.2840      -323.8950      -326.3071
      -313.0280      -313.2692      -298.6884      -301.8687      -290.5771
      -289.8473      -277.2748      -280.0353      -265.9995      -267.7593
      -254.0886      -255.9171      -242.4988      -242.4718      -229.5393
      -233.9378      -217.8637      -221.8204      -207.4391      -209.2397
      -192.1043      -193.5721      -180.1945      -182.8923      -165.4252
      -166.5322      -149.3051      -150.4063      -134.7990      -135.8976
      -114.9572      -112.6603      -100.3632      -99.14095      -81.66040
      -86.83142      -67.93015      -61.60571      -45.15624      -48.63496
      -29.10783      -29.56556      -13.51487      -12.86399       6.725033
       9.617554       26.44125       21.15747       42.04811       44.50897
       63.22281       63.36945       87.51477       89.64978       110.7197
       113.3339       136.1092       136.0806       156.8640       162.8331
       185.8597       181.9318       200.5182       201.9916       224.8180
       225.9018       248.9073       249.6509       271.7283       271.6554
       290.8495       289.9232       310.3100       309.8368       331.8102
       330.6039       349.5868       347.6737       369.5356       371.6694
       396.0465       390.2006       407.8425       412.1753       432.1217
       428.4160       450.5476       448.1548       470.9989       469.8407
       481.7935       475.0554       493.6326       491.1497       509.1399
       507.7864       523.0493       515.7751       536.3784       528.7886
       540.1082       541.4119       558.5010       549.5967       569.8264
       563.6538       572.9099       570.7717       591.1388       583.8845
       595.8708       591.4875       603.2644       593.5310       609.9674
       606.8589       618.8716       608.4099       619.5583       611.0120
       623.9209       613.7568       620.6575       608.6974       615.9622
       601.2656       607.3916       589.4062       588.8691       571.9973
       577.1681       562.4714       565.4187       544.8593       548.5895
       530.0381       528.2756       511.3329       513.8334       492.6763
       491.8853       470.5466       471.3772       453.6522       453.7164
       433.8024       434.8789       415.3735       418.1831       399.2943
       397.0251       373.6475       374.8303       356.7151       352.3146
       331.1607       334.3638       309.5842       303.0683       286.2064
       283.9531       259.1182       257.2647       234.4107       228.8193
       209.4635       205.6877       181.6787       175.1221       154.8814
       149.0705       127.2906       119.5523       98.19708       90.49902
       66.60019       56.16042       37.58124       30.37413       3.718582
      -1.758736      -19.73606      -29.19615      -52.29144      -57.24164
      -78.39584      -86.45630      -110.0973      -110.4886      -128.8889
      -136.7301      -153.6960      -155.5049      -177.7213      -178.0175
      -196.6150      -201.7708      -218.3192      -217.7457      -234.3360
      -234.1515      -250.7590      -252.6454      -271.7439      -271.8529
      -289.7958      -287.5066      -301.0928      -297.9313      -317.6222
      -319.2606      -334.3610      -331.5967      -347.6688      -345.1132
      -362.0221      -359.0817      -368.8135      -367.8118      -386.3431
      -386.1106      -394.7405      -391.2888      -410.9922      -411.5706
      -420.7504      -420.1616      -436.3098      -436.5637      -451.0541
      -448.7219      -466.6167      -468.7957      -481.4747      -477.6213
      -491.7041      -494.6348      -510.5400      -511.9478      -528.2922
      -531.2896      -544.9539      -544.4092      -557.2527      -556.0332
      -571.3047      -571.1613      -580.8798      -579.5803      -590.9014
      -590.1519      -595.3059      -590.0037      -602.5471      -599.9370
      -602.4292      -599.8192      -603.7841      -597.4312      -601.3628
      -596.1949      -595.0142      -589.8132      -592.4324      -585.0776
      -583.7657      -577.8220      -576.1173      -569.2854      -567.0144
      -556.1882      -550.0095      -539.8625      -532.2388      -518.4365
      -514.6273      -502.2550      -494.7512      -479.8748      -468.6182
      -450.9514      -444.3285      -426.7687      -415.5763      -396.9382
      -387.8458      -367.6777      -354.0552      -333.0752      -321.2030
      -299.3569      -283.4329      -260.3734      -247.0727      -222.9297
      -209.0898      -187.7285      -169.6650      -142.0718      -127.4376
      -107.4411      -88.56499      -64.45073      -54.19003      -32.03250
      -13.22386       5.536034       17.12764       38.41656       48.90173
       67.89590       82.40234       97.82581       105.8568       124.1194
       132.3196       143.7761       152.3420       167.5806       171.1233
       184.2696       191.3053       202.0845       204.2036       210.6799
       213.5533       224.3150       224.4615       231.5253       236.1132
       245.1044       248.4722       255.7411       254.2350       258.2590
       259.8545       265.9783       262.1811       266.3167       267.0677
       271.5272       269.4090       273.6452       274.7263       277.2759
       278.1798       286.4447       281.3562       286.8085       289.2438
       294.3647       290.9541       295.8267       292.6730       297.6129
       295.3143       300.7307       295.6212       300.7598       299.8212
       303.2584       299.2271       304.1656       303.1672       307.5947
       303.6381       309.6846       303.7164       304.6835       303.4629
       306.6782       297.9983       300.6742       298.6868       307.2802
       299.0761       297.5130       296.3804       301.6631       292.0851
       289.9391       285.8163       297.3142       295.2288       291.0035
       286.3853       300.3948       295.5798       290.1339       287.8776
       308.1965       305.1487       293.4822       294.0284       321.7911
       316.0524       289.7164       287.5308       351.2863       444.7144
       861.6162       2884.801       7952.539       13109.39       12139.71
       4534.211      -2551.747      -3089.109       9639.871       23103.93
      -1311.508      -43795.20      -27895.16       46100.02       62193.61
      -15853.15      -56428.89      -15453.86       14272.40       11813.75
       6586.066      -6463.703      -27954.60      -37076.98      -8771.844
       25179.53       24551.47       5075.527      -1446.328       13438.33
      -2055.906      -41256.29      -14622.22       28043.49       5752.188
      -19390.84      -9407.930       13932.12       17277.80      -1330.689
       1289.422       15657.60       20235.22       8429.859      -30011.85
      -35812.82       713.0391       18964.35       14871.00      -55.11914
      -7011.869      -2442.613       12491.27       18908.57      -6527.672
      -26538.12      -22259.12      -5435.854       4606.334      0.2832031
       6480.153       11175.20      -10827.11      -21629.22       12176.34
       37250.68       9547.078      -25864.06      -26330.14      -3250.172
       13871.67       5626.707      -7350.832       5037.205       16329.89
      -136.7559      -7014.467      -2414.856      -5113.225       5276.006
      -1664.900      -12344.41       4963.400       3729.218      -9177.801
       9087.869       18512.26      -9802.977      -17742.77       2343.533
       11686.38       6677.242       2848.318       2754.168      -5749.137
      -16169.29      -13217.70       6845.695       17623.37      -41.36719
      -15553.04      -4142.522       7756.539      -1366.759      -3246.121
       4440.111      -96.55859      -7423.818      -6370.637       5315.455
       12473.40       3829.218      -1403.325       4836.212       6036.107
      -3135.080      -8398.743      -5414.149      -839.0476       337.4629
      -2192.632      -1328.832       1180.912      -2774.365      -285.8887
       4795.763       1334.390       2817.499       309.3774      -1903.408
       3252.528      -2823.107      -6725.932      -923.3892       475.2441
       6032.096       9929.015      -4382.439      -12073.37      -833.5049
       4072.705       177.9551       4006.975       10655.91       7516.287
      -2640.188      -11884.38      -4636.033       6427.255       3435.092
       4280.335       4556.635      -9720.164      -15924.28      -3780.217
       8066.794       6112.709      -2255.176       2832.094       7887.659
       5707.057       3385.137      -7320.351      -8797.384       7063.549
       7309.355      -10075.37      -12387.44       620.4043       11125.24
       6209.195      -5419.056      -2309.100       5042.582       2656.508
      -5661.437      -6252.121      -216.6846       244.6348      -2465.943
      -1251.521       7420.259       5474.272      -2351.295       517.6623
       910.4355      -937.4258      -2255.042      -3440.871      -1607.579
      -2628.139      -816.4517       2791.073      -452.4639       1217.348
       6712.931       2794.064      -5055.283      -4880.265       1839.949
       3456.576      -1128.301      -1870.081       3997.926       9690.348
       4333.597      -4881.243      -2802.866       444.2256      -1323.923
      -3292.113      -2371.197      -2231.469      -3334.537       1529.803
       2318.755      -2718.991      -592.7949       5993.433       5725.556
      -2704.730      -6787.593       245.4893       6156.261       14.06445
      -6850.461      -4977.917       2927.326       9055.986       503.1650
      -6629.253      -3367.751      -2176.886       1157.423       2247.353
      -3061.254      -4063.892       53.97900       2302.820       2647.140
      -1107.404      -4819.026       2490.387       10073.35       2338.965
      -7936.727      -7980.584      -2306.852       3616.292       6187.503
       2306.241      -3986.077       177.8940       4294.759      -862.7051
      -6035.180      -5176.286       3009.518       3570.000      -2943.690
      -162.0137       3500.740      -1297.007      -2268.563       431.7367
      -630.2941      -241.7944       995.9409       3179.309      -789.8857
      -6186.402       2900.205       3649.959      -2263.273       4613.670
       4238.002      -4692.504      -7524.199       1789.343       7936.436
      -4932.820      -10012.01       146.4961       6559.793       7904.276
       821.1602      -8406.817      -3088.604       1307.559      -5913.577
      -5140.809       1881.440       2733.427       1865.899       1599.992
       2395.257       4737.732       60.74902      -6056.542      -2536.746
       2602.146       378.0173      -2496.436       2810.923       5834.898
       2430.049       2044.890       2740.530      -357.8457      -6287.654
      -7222.444       4894.580       13302.26       124.4062      -11372.18
      -8689.811      -6390.543      -74.25098       6458.672       36.48193
      -2487.961       4858.478       1096.784      -3467.563       1998.888
       2432.254      -4475.152      -7922.212      -3155.256       5895.023
       8525.416      -2456.115      -5575.404       2457.678       4854.938
       6253.780       2045.625      -1374.317       1478.486      -700.1523
      -5659.379      -8869.765      -4258.496       5198.104       8503.342
       6272.070       3522.540       3382.506       1228.710      -6448.259
      -3137.690       4117.446      -843.2139      -5053.361      -3924.925
       1052.635       3859.694      -2022.190      -2574.299       3336.478
      -1524.443      -3900.183       2830.956       87.98047      -7266.240
      -4775.189       2816.946       2779.352       242.8145       4644.997
       7070.869      -428.1934      -7394.979      -3226.458       3462.051
