     0.02500000      -24646.68       23109.19      -12345.00      -12345.00
      -30.01001       252.0900      -50.06000      -12345.00      -12345.00
       0.000000       38.23000      -12345.00      -12345.00      -12345.00
      -12345.00      -12345.00      -12345.00      -12345.00      -12345.00
      -12345.00      -12345.00      -12345.00      -12345.00      -12345.00
      -12345.00      -12345.00      -12345.00      -12345.00      -12345.00
      -12345.00      -32.22400      -69.38780       2491.000       0.000000
      -31.23600      -65.83800       0.000000       167100.0       0.000000
      -12345.00      -12345.00      -12345.00      -12345.00      -12345.00
      -12345.00      -12345.00      -12345.00      -12345.00      -12345.00
       353.7782       251.0388       72.89716       3.180964      -12345.00
      -12345.00     0.08010335       90.00000       90.00000      -12345.00
      -12345.00      -12345.00      -12345.00      -12345.00      -12345.00
      -12345.00      -12345.00      -12345.00      -12345.00      -12345.00
      2008       318        11        13        20
       460         6    -12345    -12345     11285
    -12345    -12345    -12345    -12345    -12345
         1         7        13    -12345    -12345
    -12345    -12345    -12345    -12345    -12345
    -12345    -12345    -12345    -12345    -12345
    -12345    -12345    -12345    -12345    -12345
         1         1         1         1         1
USPA    -12345          
        -12345  -12345  
-12345  -12345  -12345  
-12345  -12345  -12345  
-12345  -12345  -12345  
-12345  -12345  -12345  
-12345  -12345  BHE     
ZL      -12345  -12345  
[...]
       985.7207      -1063.842      -2139.932       346.8169       1673.588
       1125.539       986.0247       14.77490      -2523.757      -2489.350
       1047.987       1305.312      -2602.848      -3294.783      -834.1042
       1134.980       963.1455      -1548.778      -1819.609       849.9951
       1928.273       842.4854      -705.6787      -1850.476      -2886.777
      -2764.355      -813.9160       484.5530      -248.4313      -409.0623
      -1149.634      -1174.518       645.9248      -472.1074      -2417.825
      -2100.691      -1650.673      -667.2135       675.6715       345.3838
      -1088.426       389.5449       3277.320       2626.552       1077.532
       1339.486      -1331.419      -4799.498      -3488.737      -1188.467
      -793.5308       610.9739       1701.901       331.6848       48.69238
       2256.354       2882.561       1490.002      -283.6895      -1615.517
      -1784.660      -963.7969       938.4689       1542.416      -1634.695
      -2360.836       1125.014       2694.151       1084.830      -1529.276
      -2391.651      -996.1952      -148.5127      -1079.943      -3600.094
      -3607.891      -145.0332       2821.886       3384.562       2116.831
       573.3975      -128.1465      -1318.947      -1695.429       496.8901
      -202.2812      -1840.255       778.5107      -816.4409      -4027.512
       794.5820       5615.625       2429.921      -2046.709      -2714.944
      -996.1084      -918.6870      -2295.020       242.7866       2498.630
       647.4160       967.3047       3188.661       3915.979       2138.756
      -617.7983      -474.4982       524.8750      -1369.025      -2601.789
      -93.88721       1123.739       600.2090       2586.832       2521.047
      -1039.172      -2348.248      -64.47583      -3.511475      -1365.267
       138.1396       1365.372       1961.936       3112.053       2719.361
       309.3913      -511.4299       1547.321      -618.0664      -5767.860
      -5725.220      -233.4551       3226.655       2421.397       682.7351
      -1355.181      -532.4214       2244.619       1503.114       4.097412
      -776.7379      -683.5624       125.1167      -748.1873      -520.5790
       292.8353      -80.69202       294.7058      -951.8596      -625.6826
       3233.885       2784.552      -970.3586      -1361.463      -250.5776
       1716.080       2541.513       163.7332      -839.6245       1420.609
       3580.063       1982.155      -2033.094      -1462.543       1860.807
       1390.007      -1472.008      -854.5322       2722.103       2042.082
      -1669.868      -3087.687      -3076.273      -303.5791       2081.483
      -455.5645      -1855.337       467.9165       1973.758       1921.498
      -476.7908      -1979.563       255.8438       1506.149       733.0921
       66.37341      -696.8588       78.10938       1538.477       1504.156
       724.0303       1471.039       2403.019       1478.290       394.2725
      -1191.412      -1054.388       1677.349       1168.423       242.3105
       1716.636       1676.203      -85.37354      -1175.513      -1348.391
      -1835.219      -2503.298      -1227.889       1913.222       3431.685
       981.0386      -1409.530      -1431.259      -1413.377      -1585.596
      -1424.213      -1781.488      -1404.483       1232.842       2185.453
       1011.082       319.3638      -1159.183      -269.9724       1082.878
      -354.6074      -980.6754      -969.5376       57.07178       2348.316
       1069.934      -2016.489      -2135.186      -43.32568       1034.579
       941.5796       1244.015      -348.2334      -3503.106      -3536.456
      -1440.216      -38.17383       821.2732       621.9760      -52.84644
       292.6765       1102.379       879.5201      -81.13165      -374.7695
      -243.5625       607.3809      -331.3945      -1720.490      -318.4059
      -203.1707       60.33789       2824.502       2139.760      -731.7456
      -942.1072       761.2402       1185.407      -80.09912       996.0005
       1353.774      -1867.494      -2528.975      -308.7584       706.5320
       483.5923       1592.531       1436.861      -1112.058      -577.0430
      -346.0242      -2226.691       819.1172       4578.895       1704.663
      -1743.730      -421.7013       715.7607      -608.2217      -3074.475
      -3189.359      -508.4644      -567.3203      -2839.931      -2244.077
       2502.832       5745.922       3856.785       2621.329       1678.136
      -542.8496       377.0229       1517.948      -536.5195      -2452.116
      -1927.868       1172.538       4319.695       4045.958       1178.820
       8.249146       272.9927       396.4131       1807.158       1703.312
      -1062.667      -1401.030      -227.7186      -286.2688      -112.9287
      -771.1548      -2789.986      -1497.350       2063.102       1400.713
      -1759.068      -225.6260       3548.668       1313.541      -2794.040
      -1794.463       72.85156       1045.560       2346.499       1975.560
       207.8149      -859.0376      -1992.619      -3620.429      -2656.780
       297.3723       948.5231      -154.4176      -521.6435       1.870850
       24.00610       469.9058       1779.007       1812.797       436.3776
      -246.1407       297.7051      -802.8105      -2284.940      -1553.408
      -2185.338      -1380.363       2487.561       3111.457       541.9121
      -3138.759      -4784.530      -2054.974       755.6865       2609.708
       2333.316       332.6667       474.3752       1458.359       655.4389
      -336.9036      -37.31860      -1092.575      -1653.867       1326.893
       2004.376      -2236.667      -4650.755      -1022.843       2902.019
       1074.691      -2601.179      -3050.547      -1356.762      -676.9097
      -1385.319      -1129.683      -1595.844      -2647.634      -3067.247
      -2827.530      -421.2183       1366.952      -4.090820      -1907.970
      -777.3948       528.2148      -2291.154      -4268.876      -2270.559
       872.9668       2523.011      -69.76660      -3553.126      -1237.920
       994.6909      -1242.032      -1542.653       116.3805      -48.20312
      -1350.810      -1602.062      -522.0657       369.2883       342.0591
      -1347.993      -2199.725       40.12451       1719.971       192.1543
      -1429.419      -1054.024      -492.1183       145.2538      -52.25610
      -911.7462      -294.2642      -246.7313       123.8546       783.8013
      -652.1792      -1860.511      -1027.453       318.2344       1011.679
       1800.137       2317.088       2810.141       3781.110       2269.128
      -346.2603      -856.5664      -535.0913      -1576.665      -1885.710
       96.01477       24.18506      -1518.124      -774.8547      -311.0574
      -60.04034       700.7446      -764.1504      -1240.823       406.4839
       420.8352      -116.1335      -23.03809       1450.941       2837.716
       1921.711       490.9244       121.8691       730.4600       1693.174
       1329.362       120.3302      -435.2903       574.9626       1498.130
      -953.5840      -1885.447      -342.3433      -1339.816      -1130.895
       120.4014       8.085938       815.8730       1545.948       1226.484
       630.6119      -244.7715       885.8018       3183.809       1988.504
      -471.8472       292.3506       2023.506       1853.780       755.8330
       371.6985       815.1331       872.0518      -1326.961      -3325.949
      -1198.482       3541.316       4375.488       1269.319       186.1323
       1202.602       2468.800       2695.228       2172.224       1383.650
      -603.6208      -936.0515      -333.6758      -1118.348      -262.9180
       1850.916       2109.654       1556.532       836.8755      -1295.530
      -3143.710      -2046.410       71.17676       2876.754       4439.934
       2213.179       1891.924       4250.601       4422.864       1265.079
      -3104.506      -4194.583      -3967.817      -2794.063       1533.879
       3449.160       1866.584       2011.355       1245.242      -1894.960
      -921.0483       2493.675       868.8943      -1180.301       777.6636
       1221.496       49.93066      -1068.445      -2009.298      -589.5653
       582.9234      -37.59033       436.4678       1739.928       1195.822
      -194.5647      -963.6154      -285.2714       169.1019      -140.3331
       165.6021       350.5549       504.4111       1517.730       1377.941
      -1087.432      -1825.945      -351.7742       503.3384       2046.296
       2426.090       742.6896       441.9146      -617.4678      -1937.467
      -1132.586      -1511.396      -2059.370       12.74414       2503.365
       1867.648      -673.4731      -1964.802      -902.3027       121.8037
      -517.5332       144.9121       2686.465       3488.103       1154.674
      -2322.841      -3217.384      -1398.066      -690.0576      -940.9767
      -140.7275       1403.356       2126.851      -78.91797      -2906.350
      -4070.330      -3568.884      -1718.521      -1296.439      -3008.917
      -1291.285       2472.830       1889.731       769.1438       518.3623
      -1483.236      -1290.002      -801.1675      -2445.002      -2895.093
      -3317.824      -2837.888      -609.2256      -1005.759      -1556.957
       568.1689       2417.250       2585.117       1435.111      -436.5206
      -633.9978       514.5583       920.4819       731.0259       682.2590
      -355.4424      -1698.103      -2190.565      -963.5944       646.9202
      -1295.903      -2126.991      -41.46143      -726.7754      -2894.288
      -3019.699      -1068.257       450.7397      -262.7251      -1814.503
      -811.4570       2814.437       4899.286       2833.793       25.66174
      -462.0750      -611.4203      -1027.064       147.4648      -381.6836
      -2965.698      -4297.037      -5129.309      -3429.447      -127.8243
      -240.4019      -1055.562      -250.8647      -481.7426      -257.9668
       1648.118       1314.597       773.3545       1799.331       1103.580
       648.6714       1198.753      -538.7886      -1632.653      -709.6777
      -1641.118      -2348.221      -1151.227      -274.6748       1328.062
       1797.992      -825.7861      -2379.844      -2450.154      -3529.111
      -2722.173      -782.2280      -335.2202      -1085.230      -1639.343
       469.9688       2970.549       3570.009       2803.130       625.4155
      -248.5159      -652.7188      -2610.861      -2863.041      -844.2175
      -228.3962      -656.9781       14.29309       575.9384      -121.6096
      -563.9248       1632.586       4062.154       3378.498       3090.844
       5210.664       6227.977       4368.595       757.4365      -2742.803
      -3374.347      -1304.708      -1187.734      -4494.555      -5072.723
      -3303.456      -1599.544       2997.826       6083.521       4676.489
       1544.979      -1009.225       192.4663       2239.142       465.6724
      -2539.573      -2239.610      -1613.988      -3099.224      -3496.753
      -3236.667      -1945.998      -854.6182      -1935.447      -1588.164
      -2216.512      -5532.324      -7282.945      -6564.228      -4208.365
       166.8604       2422.391       455.0234      -1148.775      -110.9238
       3386.051       6601.947       6302.811       2625.789      -1826.018
      -2312.884      -297.3379       884.1582       1780.002       1395.929
      -1565.605      -4106.863      -808.2188       7379.035       13450.57
       11483.68       2758.993      -3370.407      -3520.513       1653.789
       11453.14       15286.81       6286.568      -4930.533      -7842.618
      -3760.472       2112.309       4894.016       3934.767       2889.491
       287.6074      -4513.747      -6013.960      -3590.551      -842.7979
       3015.600       5281.285       1433.036      -119.9141       4524.256
       4079.139      -1195.653      -1919.712      -992.4473      -5587.824
      -7250.396       1424.383       7932.297       7714.685       4940.793
      -4802.906      -12186.45      -6468.159      -1824.897      -4993.788
      -1856.445       7668.557       11149.66       8183.253       1954.106
      -2758.156       2390.560       5142.838      -4263.758      -6310.252
       2339.364       4123.410       574.5957      -2845.035      -6205.110
      -1426.580       7631.486       10303.06       8184.611       407.8828
      -12107.61      -16940.46      -5983.146       7624.831       5357.497
      -3417.688      -3797.078       142.4121       6626.906       5499.658
      -9091.369      -12372.80      -95.44141       10523.60       15699.62
       6062.514      -11354.19      -8518.412       7208.916       5313.025
      -6754.159      -2945.859       12793.96       23109.19       15939.40
      -9591.656      -24646.68      -11576.05       1516.192       1430.790
       1484.547       6525.445       15220.12       17471.47       7308.873
      -4964.387      -9857.564      -9025.252      -9130.936      -10519.87
      -6264.129       2110.652       7794.836       7310.248      -938.4902
      -7337.785      -7310.426      -6767.832      -4166.810       848.9512
       2289.367       2645.602       10066.10       13480.17       3300.012
      -5656.218      -5551.453      -2654.878      -1526.188      -4293.158
      -10050.61      -11959.74      -6895.644      -2547.807       1966.479
       7414.176       2759.775      -4139.082       2677.219       13473.30
       10011.40      -2705.357      -9700.824      -8323.391      -576.3730
       7536.287       10381.97       5476.254      -10304.75      -19652.12
      -7645.911       4266.001      -591.5176      -8336.069      -6794.094
       2167.770       12037.93       13952.72       7267.989      -804.8486
      -2475.689      -953.2266      -2486.697      -609.5098      -897.0195
      -7525.336      -8342.109      -676.3301       8627.066       10780.30
       5540.461      -2678.742      -9458.061      -9120.174      -3745.111
       3073.512       7777.381       8274.764       4077.533      -1971.604
      -3881.323       1513.920       9143.185       6700.462      -2670.023
      -7100.803      -3580.617       2102.768       2172.964      -1928.020
      -6369.330      -8016.620      -4843.146       470.4365       4065.695
       3424.285       157.2095       859.0286       1111.936      -3939.125
      -5856.661      -4265.889      -1229.536       418.1274      -899.0176
       5375.723       13910.21       9427.834      -1864.330      -4767.438
       948.2063       2604.895      -3722.752      -8220.018      -6732.451
      -5237.102      -6651.646      -8410.115      -4876.750       2403.889
       2458.360       289.7510       3769.629       6920.850       7891.219
       4526.670       1827.949       7904.111       11110.89       3359.730
      -5829.221      -8924.112      -6635.800      -725.5034      -472.5215
      -5944.219      -2228.279       3600.490      -139.7539      -4705.919
      -2950.399       3063.284       5653.826       1039.791      -314.7832
       6146.016       9813.400       3288.363      -6735.772      -6067.869
       3735.293       6344.843       232.7432      -3209.269      -2334.372
       20.77930       511.9648      -3361.638      -5285.969      -1995.673
      -1623.134      -3043.132       662.0957       6599.705       8608.457
       1056.664      -9506.070      -10450.55      -5066.035      -4689.270
      -6469.690      -337.2910       8864.940       7012.381      -1841.167
      -826.3906       1172.985      -2552.593      -825.8657      -527.8486
      -1062.136       2257.972       3227.075       4403.197       3276.323
      -1834.017      -5135.684      -3379.618       1976.271       2704.714
      -2637.528      -2612.797       2344.879      -795.5098      -6908.719
      -6376.951      -4849.024      -2118.832       3359.078       4229.930
       3251.500       4237.203       2645.074       2097.270       4610.820
       2574.277      -1961.782      -1900.983      -1317.982      -3116.834
      -5036.365      -6969.202      -5576.516       6.319824       2756.198
       1033.712      -1896.361      -2831.892       1793.574       7064.300
       4436.527       3062.283       6963.675       3237.420      -214.6494
       4685.463       2559.300      -4702.318      -1527.865       2504.031
       3435.969       9502.080       9092.535       2350.436      -367.3594
      -3334.344      -5570.557      -4294.746      -4894.609      -6648.711
      -7848.209      -4520.013       4166.415       5753.009       2911.603
       2449.049      -2006.508      -8652.502      -9156.257      -695.6797
       6309.391      -1320.738      -10877.06      -5832.041       2934.738
       5795.367       6397.513       3486.654       1112.645       6522.315
       7093.318      -133.3818      -2826.170      -3635.180      -6227.506
      -6697.225      -2348.776       140.2588      -2004.096      -1631.255
      -831.8564       118.4883       5146.109       9150.988       8861.583
       5932.245       381.7910      -5412.230      -8424.299      -7345.345
      -1962.924       2181.502       1097.386       1014.355       3187.120
       122.7988      -2127.358       1329.452       1161.771       1166.795
       4812.286       1959.615      -1703.989       1220.271       5008.835
       5035.240       369.8984      -3260.676      -6259.822      -8875.049
      -7149.037      -4044.273      -819.7969       2415.363       4534.415
       4242.439       1848.036       530.5906      -472.9729      -1299.771
      -448.5205       495.7217       3241.106       5084.891       3257.848
       2459.245      -932.5566      -4575.510       186.0796       2800.271
      -2566.082      -3157.390       2860.188       5851.689       3812.571
       1617.978       1718.874       2574.806       3244.087       3112.298
       1982.918       468.8936      -771.5303       877.6680       4163.418
       3837.496      -1049.027      -6124.403      -6001.057      -1723.069
      -1710.008      -5519.951      -4495.663      -224.3213       3201.153
       4154.875       393.9211      -1239.161       3361.131       3887.998
      -3026.340      -8712.350      -10292.65      -5807.455       1885.764
       3641.091       4539.125       6014.471       682.7510      -4831.897
