     0.02500000      -22133.05       23833.28      -12345.00      -12345.00
      -30.01001       252.0900      -50.06000      -12345.00      -12345.00
       0.000000       38.23000      -12345.00      -12345.00      -12345.00
      -12345.00      -12345.00      -12345.00      -12345.00      -12345.00
      -12345.00      -12345.00      -12345.00      -12345.00      -12345.00
      -12345.00      -12345.00      -12345.00      -12345.00      -12345.00
      -12345.00      -32.22400      -69.38780       2491.000       0.000000
      -31.23600      -65.83800       0.000000       167100.0       0.000000
      -12345.00      -12345.00      -12345.00      -12345.00      -12345.00
      -12345.00      -12345.00      -12345.00      -12345.00      -12345.00
       353.7782       251.0388       72.89716       3.180964      -12345.00
      -12345.00    -0.08873052       0.000000       90.00000      -12345.00
      -12345.00      -12345.00      -12345.00      -12345.00      -12345.00
      -12345.00      -12345.00      -12345.00      -12345.00      -12345.00
      2008       318        11        13        20
       460         6    -12345    -12345     11285
    -12345    -12345    -12345    -12345    -12345
         1         7        13    -12345    -12345
    -12345    -12345    -12345    -12345    -12345
    -12345    -12345    -12345    -12345    -12345
    -12345    -12345    -12345    -12345    -12345
         1         1         1         1         1
USPA    -12345          
        -12345  -12345  
-12345  -12345  -12345  
-12345  -12345  -12345  
-12345  -12345  -12345  
-12345  -12345  -12345  
-12345  -12345  BHN     
ZL      -12345  -12345  
[...]
      -172.1143      -999.5326      -63.37988       2019.508       5050.557
       3570.004      -1344.197      -1921.387       2346.384       2509.951
      -2726.580      -4066.648       593.1279       4374.571       2419.038
      -1497.464      -1345.950       497.1051      -510.5305       283.3706
       1683.646      -3967.888      -4783.460       3514.937       5877.224
       2051.365       694.3291       1438.066      -472.2612      -2325.324
       749.3291       3155.145       1735.797       1893.827       4111.246
       2968.395      -135.0864      -774.9229      -2077.249      -4110.087
      -2338.202       399.1260       2011.991       3282.372       3362.071
      -91.20117      -1510.095       1915.875       1989.755       588.5470
       764.1934      -3190.793      -6004.035       82.37988       4760.297
       1957.545       722.8188       2046.601       1967.447       890.0938
       1361.372       1954.115       463.6787      -1071.651      -2742.036
      -1974.306       2433.504       3788.948       718.4634      -1435.454
      -2407.382      -2503.900       367.6621       2280.269       2460.626
       2654.154       1344.557      -937.8922      -781.3838       2141.079
       3421.014      -363.6426      -4694.074      -2680.194       3798.235
       6503.679       2630.017      -771.3796       889.2966       1792.321
      -2168.333      -3886.124      -1117.295      -2100.947      -3525.103
       620.5728       2648.323      -1420.378      -4478.984      -46.99023
       6259.245       3185.081      -1245.697       3985.214       7405.296
       1068.225      -3253.158      -1595.488      -653.7588      -2109.382
      -806.3818       3417.061       1616.672      -2333.847      -1573.758
      -2002.995      -3356.918      -358.4941       5164.329       5730.770
       1331.865      -959.7666      -2857.114      -3874.766       432.8853
       269.2109      -4764.267      -2290.889       3837.195       3514.449
      -359.6890      -184.4854       3237.808       3608.345      -796.0195
      -3396.442      -1177.901       957.6492       444.2026      -2043.026
      -1545.119       1881.211       1971.448      -1272.338      -3776.480
      -2005.736       2663.471       2175.472      -1276.155      -1905.271
      -2102.805      -634.3926       3175.162       4580.120       1845.394
      -902.1548      -1469.612      -2576.212      -4056.171      -2963.192
      -652.9448      -812.6514      -1317.168      -1093.859      -2097.359
      -2778.754      -426.0688       2573.197       2853.916       47.85352
      -3852.745      -4854.487      -1637.131       1014.536       1066.156
       1591.854       1701.201      -408.2234      -826.0337       2367.140
       1028.478      -5708.607      -4712.658       1250.896       1090.558
      -1365.006      -1595.773       195.7847       2415.244       2223.276
       1024.742      -1041.906      -1866.296      -417.0332      -1710.637
      -2340.287      -430.7394      -657.6035      -129.2456      -821.8115
      -3770.617      -1711.533       524.1924      -1206.642       207.8394
       2357.890       1440.176       1045.928      -268.9912      -3508.521
      -4735.022      -3634.573       97.80176       3707.234       2590.902
       20.38672       810.6782       1959.353       872.0146       325.9640
       230.1473       195.1766       591.9116      -1296.446      -2305.417
      -648.8096       1355.806       3100.040      -283.5088      -5601.138
      -2990.521       2451.580       4047.141       3658.203       398.2783
      -3626.814      -2186.479       1319.217       1775.818       757.0703
      -1394.356      -1931.347      -464.3735      -1780.467      -862.1494
       2799.688       2989.963       2665.898       1393.736      -2350.954
      -3057.661      -677.6760       1274.008       305.9990      -2928.339
      -3711.013       1101.660       5690.169       3115.971      -1332.359
      -1431.617      -754.8887      -2345.761      -3036.316      -2295.937
      -1313.726       690.9658       1860.880       1053.593      -1879.580
      -4476.614      -3143.791       1269.194       3158.970      -240.5474
      -2704.030      -295.9214       1350.847       342.8145       1229.245
       2100.121      -1276.109      -1397.983       3394.201       2504.090
      -1732.823      -3243.574      -3021.243      -1183.053      -834.4062
      -1618.400      -1074.186      -237.5792       137.5576       1677.313
       3301.204       2219.814       1958.559       3402.238       67.36523
      -5358.771      -4412.012       808.8518       2255.032      -575.8065
      -596.4546       1999.902      -99.69385      -2667.981      -549.1470
       344.5084      -832.8428      -44.44922       2629.498       4484.149
       1565.965      -2565.358      -1324.437       3322.479       4356.294
       1603.501      -521.1560      -727.9233       49.26660      -1077.284
      -2487.069      -1696.136      -1578.364      -2319.469      -811.6699
       4869.512       6173.138      -16.25391      -2160.195       778.6426
       1640.623       921.0676      -63.30774      -653.4473       462.7183
       1028.972       511.8525       1575.783       2370.702       931.6932
      -661.7827      -520.3888       68.35162       269.9150      -843.8374
      -2380.553      -428.3413       2444.763       1312.619      -470.1111
       300.7974       1822.699       2414.722       474.3530      -2590.788
      -2954.126      -1646.532      -932.1375      -198.5215       2702.231
       4880.109       2590.110       40.41992       1629.021       2292.276
       1281.550       1159.046      -1205.375      -3391.778      -1541.309
       2199.889       2845.860       357.7271       44.72632       891.4709
      -716.2324      -2424.671      -467.6733       1439.695       1700.327
       3006.673       3203.601       1786.691       689.6653      -1028.325
      -1872.964       424.4702       1242.276      -697.8970       563.9404
       2972.214       1918.456       1431.200       1836.948      -1974.857
      -3488.261       951.5898       2920.249       580.4004      -1325.387
      -2704.335      -3996.466      -2317.979       908.8086       1670.557
       1307.840       927.1420       177.8740       582.7756       1232.007
       148.3613      -693.2734       867.8853       2433.863       1161.726
      -283.3866      -536.5049       40.28516      -4.261719      -2345.148
      -3956.302      -3608.522      -2648.551       2436.146       6847.388
       2862.603      -2703.061      -3429.228      -1830.030      -1423.573
      -1145.701       869.9226       1413.912       672.1855      -612.9749
      -366.6680       2243.734       524.2000      -1856.969       359.0693
       1660.015       1096.095       282.2759       456.5337       786.8116
       795.6104       399.3818      -2866.025      -3451.573       957.2738
       681.1152      -2466.595      -2726.731      -2821.471      -1823.427
       133.5215       796.4286       567.5027      -1080.249      -504.1769
       1233.994      -661.4622      -1275.502       386.1331      -666.0703
      -2510.089      -1750.685       1056.109       1672.134      -260.6639
      -637.8320       1019.229       2230.242       289.7544      -1749.923
       299.3883       603.2222      -2039.254       87.41260       3279.004
       24.57568      -2563.880      -870.5825       907.8525       1886.683
       1043.473      -882.4034      -697.5688       635.2504       472.7699
       46.42944       1058.461       924.8047      -356.4308      -508.7715
      -959.9224      -1519.608      -487.0381       618.8402      -64.47974
      -1294.561      -302.7225       118.1997      -989.1301      -857.1559
      -682.9026       229.5166       1760.968       299.7461      -1763.108
      -1460.878      -428.1279      -485.9419      -2196.787      -2334.726
       888.4602       1403.287      -627.1123      -1418.922      -2862.271
      -1800.551       1387.569       1031.877       560.6846       1885.450
       512.0161      -2114.233      -1673.486       38.90796       985.2856
       1052.733      -731.6152      -3318.115      -2196.220       1922.750
       2832.356       688.7236      -664.1523      -2672.800      -4169.418
      -1578.547       2145.592       2904.867       1393.703      -582.7900
      -871.2754       1320.933       1681.241      -1211.454      -2159.163
      -1061.507      -1130.768       47.93799       1531.604      -646.3789
      -1366.739       310.2778       149.0227      -182.5195       235.8247
       876.7512       714.8264      -893.5471      -1268.173      -101.2590
       811.2068       148.4312      -1499.970      -1494.489      -1643.951
      -2349.879      -549.1443       452.5780      -52.95801       1715.821
       2406.720       43.92627      -519.4841       1411.174       685.2607
      -3032.360      -4115.684      -1749.946       900.7353       788.2351
      -912.5090       323.6406       1905.305       1334.059       48.06934
      -1815.249      -1533.797      -192.7773      -2511.811      -5626.975
      -2593.408       3263.159       3153.380      -942.1294      -1355.787
       2289.206       4144.631       1306.891      -2020.336      -2740.649
      -1080.426       3482.541       7288.363       4196.737      -881.1724
      -1572.905      -669.7749      -641.7285      -2116.493      -1751.940
       1556.647       1938.616      -1334.854      -2273.550       945.9121
       3605.847       2183.563      -1190.924      -2114.029      -2270.417
      -3010.942      -295.4629       3877.983       3473.829       1248.862
       1506.736       2101.826       1420.453       854.1476      -251.7395
      -302.3667       1695.291       1851.913      -637.5005      -2704.673
      -1188.073      -45.14600      -2448.766      -2554.853       1240.067
       2386.598      -1003.061      -1865.476       1955.429       3828.874
       1093.148       878.6113       3545.376       1498.675      -1714.841
      -829.7744       1823.751       3896.719       2749.640      -598.4648
      -559.6895       1689.724       1825.219       459.6353      -218.9238
      -11.72607       296.9878       1624.783       2205.616       1338.986
       1486.640       1785.062       38.36182      -1616.641      -497.7056
       345.2222       987.8342       1921.516      -833.1719      -3096.942
      -1742.824       1187.357       5356.506       5400.385       118.5049
      -2190.990      -117.6459       247.3135       791.9609       2394.477
       780.4866       381.7085       1647.321      -1137.130      -734.1084
       5103.875       5992.872       2494.332      -696.7490      -2575.599
      -2030.359       47.19141       796.1081      -211.4692       1078.789
       1883.487      -1172.267      -3225.678      -1432.894       1844.537
       4858.577       5084.063       1342.919      -1398.528      -507.6722
       586.8975      -605.0410      -3025.479      -4907.428      -3448.916
       544.4368       13.33984      -3414.583      -2514.204      -1022.641
      -2451.358      -2813.695      -3130.859      -4157.762      -3450.058
      -2367.692      -2942.732      -6311.676      -10573.12      -8512.529
      -1939.420       1128.829       1155.591       1043.909       527.4058
      -1915.664      -2734.512       2196.391       8309.943       9757.247
       4253.224      -2604.845      -3872.069      -2362.664      -1343.857
      -1107.568      -402.5078       2634.062       5467.270       4858.461
      -1255.123      -5899.705      -1946.782       3016.301       2717.964
       4198.004       7236.358       3692.435      -568.7930      -4635.641
      -12180.62      -13200.88      -4437.594       9356.492       20611.68
       17255.04       1905.350      -8084.222      -5094.957       3674.711
       10982.92       11195.93       1659.793      -2044.939       1456.383
      -7231.512      -20965.52      -22133.05      -15303.77      -8812.737
       71.59375       8219.088       6715.215       4269.205       8260.996
       7885.730       3313.191      -774.3594      -12108.68      -17339.04
      -4098.383       6472.564       6736.694       4143.967      -5009.958
      -6932.459       7706.604       7995.949      -11939.17      -15351.76
      -99.08008       7658.376       4099.043      -5420.305      -14179.81
      -6531.539       8380.564       7112.444      -1990.883      -7360.416
      -11072.10      -3948.133       9348.467       11438.59       1176.361
      -7566.879      -1097.629       11454.09       13073.36       5060.725
      -2839.891      -1914.018       1825.984      -4146.010      -8902.543
      -5881.272      -2058.529       793.9883      -5611.352      -13506.57
      -5583.133       10565.73       20520.74       23833.28       17930.40
      -3544.594      -18534.59      -15538.66      -14124.88      -8166.784
      -1269.579      -4065.506       3563.133       10778.89      -1685.242
      -11208.66      -5283.524       2269.692       3455.698       263.5654
       1170.672       10644.74       13306.34       2583.297      -4110.930
       5206.340       18814.56       15755.42      -2782.344      -12792.13
      -9447.039      -2289.688       9491.268       11953.08      -1070.630
      -2982.986       10503.43       11788.26      -3534.988      -9795.958
      -2789.344      -1380.159      -4364.311      -3247.264      -4509.449
      -11142.33      -15464.37      -7099.367       11562.36       17412.60
       8954.654       4962.492      -1741.422      -12332.26      -8240.475
       3573.684       6728.998       4586.393      -2008.098      -8508.439
      -3695.254       6024.273       6690.790       1680.186       1514.520
       1287.139      -167.6348       3243.335       4432.757       1159.844
       2233.431       4044.522      -1126.752      -5693.348      -9858.492
      -14348.86      -11065.23      -1651.574       10465.80       13504.39
       4197.622       493.4746       5582.107       11031.35       7625.646
      -1938.025       850.3418       10089.59       5963.766      -5154.168
      -8586.730      -2370.180       5249.189       3253.375      -571.7539
       5144.441       11112.45       6442.922      -8967.566      -17597.42
      -9108.904      -2887.975       2599.705       11404.33       6797.224
       1633.038       2491.047      -2658.156      -6496.371      -4542.971
      -5171.396      -5226.957       1678.318       6217.703       8227.766
       12558.53       10224.73       6876.910       5576.546      -1895.367
      -5186.980      -5441.461      -13113.71      -18398.22      -11765.59
       1082.303       7791.150       7556.855       7316.701       6979.514
       3183.141       1615.674       5053.506       326.4961      -12554.66
      -16411.79      -7988.145       1140.418       1671.385      -97.76074
       3568.170       3961.348       444.5254      -2898.885      -6296.660
       753.6992       9277.959       2200.703      -3835.598      -2394.492
      -2203.753       1326.200      -1270.678      -4168.806       5410.209
       5466.221      -4544.250      -5032.014      -1510.530      -1968.545
       108.6943       5181.223       5519.492       5817.317       2265.374
      -5850.226      -3905.020      -2728.715      -4464.309       2599.969
       7345.186       6685.814       3372.334      -3584.107      -5861.015
      -1858.270      -630.1030      -2583.463      -293.8267       1734.502
      -5281.342      -10779.82      -3120.032       1527.886      -2009.577
      -1531.092      -5760.490      -11985.43      -6096.493       849.1426
       1715.576       2335.613       3483.161       3897.086       3851.549
       6545.890       4904.809      -2364.773      -4052.580      -3473.517
      -778.6133       3344.506      -971.2129      -5815.627      -3463.231
      -1799.959      -3526.250      -611.7852       5889.784       3001.083
      -4776.956      -3276.236      -3268.632      -6105.773      -128.7441
       3466.520       3738.558       4265.566      -835.4238      -4051.789
       678.7900       3800.308      -494.3037      -3725.489      -950.4814
       4377.646       7076.059       5621.871       1226.197      -5826.167
      -6214.803       1929.914       4170.266      -3151.699      -8755.779
      -985.3008       10450.59       6748.798      -4318.199      -5529.593
       101.4460       1524.581      -338.9434       661.7856      -149.7871
      -3465.867      -4021.160      -4732.694      -2260.714       1354.851
       751.7607       286.2666       1827.395       4695.461       8001.523
       8783.262       3216.075      -3154.172      -4310.828      -3817.532
      -4322.513      -2564.736      -364.0801      -2439.228       155.4590
       6806.534       4957.251      -2552.309      -6927.514      -4122.670
       1406.144       2245.037       1222.735       2135.735       1941.485
       2009.975       4814.110       4878.308       25.24219      -6865.141
      -9413.400      -2296.223       3715.302      -3132.338      -8930.446
      -1441.615       3425.547      -459.4692       1162.674       5003.701
       2180.561      -310.2252       866.5481       197.5508      -1139.523
       724.6152       4978.631       8507.101       2262.366      -6570.968
      -735.9072       3610.357      -2910.568       335.7900       4418.637
      -4101.858      -6497.091       1611.581       5781.510       2704.701
       787.4243       2799.887       1128.104      -3150.649      -2210.756
       669.1523      -66.12500      -2466.923      -3561.860      -1787.546
       3433.360       4130.754      -1360.409      -2222.353       2566.090
       6818.753       5752.075      -1326.396      -6456.975      -4407.399
      -1495.747      -486.3062      -98.34082      -3366.356      -4157.745
       1649.992       3394.171       1861.427       3625.059       3127.208
       108.0117      -2653.538      -3754.189      -677.8535       3369.405
       2434.864      -188.2744       3612.488       7299.863       2629.350
      -1385.745       2187.402       2822.543      -6624.285      -11242.74
      -2577.942       4600.865       1573.286      -1307.607       1021.900
       1028.360       1284.195       5017.840       6962.954       3612.533
