     0.02500000      -27655.17       27232.27      -12345.00      -12345.00
      -29.98999       253.8350      -52.44000      -12345.00      -12345.00
       0.000000       38.91000      -12345.00      -12345.00      -12345.00
      -12345.00      -12345.00      -12345.00      -12345.00      -12345.00
      -12345.00      -12345.00      -12345.00      -12345.00      -12345.00
      -12345.00      -12345.00      -12345.00      -12345.00      -12345.00
      -12345.00      -30.16580      -69.47490       2894.000       0.000000
      -31.23600      -65.83800       0.000000       167100.0       0.000000
      -12345.00      -12345.00      -12345.00      -12345.00      -12345.00
      -12345.00      -12345.00      -12345.00      -12345.00      -12345.00
       368.0435       287.8749       109.7231       3.309053      -12345.00
      -12345.00      0.2482610       0.000000       0.000000      -12345.00
      -12345.00      -12345.00      -12345.00      -12345.00      -12345.00
      -12345.00      -12345.00      -12345.00      -12345.00      -12345.00
      2008       318        11        13        22
       840         6    -12345    -12345     11354
    -12345    -12345    -12345    -12345    -12345
         1         7        13    -12345    -12345
    -12345    -12345    -12345    -12345    -12345
    -12345    -12345    -12345    -12345    -12345
    -12345    -12345    -12345    -12345    -12345
         1         1         1         1         1
VELA    -12345          
        -12345  -12345  
-12345  -12345  -12345  
-12345  -12345  -12345  
-12345  -12345  -12345  
-12345  -12345  -12345  
-12345  -12345  BHZ     
ZL      -12345  -12345  
[...]
      -2369.812      -2694.711      -2715.042      -2188.575      -639.1832
       102.3137       141.9181       163.4600      -666.3203      -876.6909
       287.6101       1281.852       93.21729      -2030.776      -2807.868
      -1434.764       200.4331      -541.1201      -2095.240      -2420.283
      -2310.553      -2106.820      -1476.528      -359.2124       186.9336
       790.8198       1845.808       1884.806       705.6655      -720.6206
      -1784.710      -1835.275      -1107.022      -339.4624      -675.1000
      -1056.573       139.2012       1076.581       551.0643       121.8007
      -244.6738      -323.3459       228.2729       528.7130      -295.2046
      -1083.797      -1050.514      -1070.378      -1065.782      -1308.014
      -2052.306      -1493.529      -473.7227      -840.9692      -1186.255
      -504.2126       195.5811       1457.255       2273.740       1021.139
      -147.3345       440.8101       1155.090       1140.743       931.3053
       479.9255      -445.0542      -256.0454       344.2437      -444.3484
      -1057.948       173.2959       1675.950       1709.505       613.7720
      -193.8858      -369.0776      -123.3752      -164.9688      -923.5217
      -1093.597       636.1377       2569.950       3084.863       1662.945
      -632.2117      -1298.415      -1250.822      -1584.564       183.7808
       1847.718       1100.884       187.1760       268.2096      -133.1328
      -1330.941      -1311.384       525.4907       1735.836       1126.543
      -172.7998      -253.6523       1093.663       2545.355       2544.022
       1096.904      -137.9432      -160.3396       154.2292       926.2666
       2233.298       2824.493       1267.916      -1379.961      -2096.359
      -544.5522       93.99219      -189.9443       558.6089       2034.933
       2879.120       2091.674       1129.069       1383.126      -8.091797
      -2574.585      -2482.864      -109.4189       1919.110       1867.055
      -86.46094      -272.7334       1428.481       2232.959       2339.975
       2367.108       1033.674      -1257.079      -1690.067       472.9790
       1846.660       892.8289       402.0991       1520.183       1291.454
       279.5570       738.1692       338.1787      -1208.496      -896.3842
       128.0596       867.5166       2091.683       3264.788       2989.250
       1719.304       1330.181       1975.240       932.2354      -1372.363
      -2345.074      -2565.747      -3041.956      -2428.130       21.88965
       2294.959       2953.128       2528.302       1465.417       718.5260
       370.3817       215.2720       28.13174      -216.9146       792.6465
       2613.153       2052.742      -342.2035      -1102.202       158.5453
       449.9805      -133.7645      -385.6405      -187.2915       1409.730
       3431.426       2959.869       139.5010      -1928.246      -1288.649
       11.17513       76.90993      -60.41968       163.1763       433.2529
       1242.213       1970.218       1809.492       578.5825       387.1902
       1365.390       485.4194      -1227.316      -904.0693       140.6616
       485.0440       461.6904      -639.4702      -2387.163      -2091.293
      -847.7885      -450.0256       172.2720       1238.892       1431.769
       559.4420      -277.8667       138.0652       510.2285      -276.6841
      -503.4147      -134.1401      -822.0803      -858.6812      -241.5956
       373.8018       880.4480       85.17303      -3.886414       521.9526
      -668.6851      -1388.201      -1362.900      -1085.530      -1072.690
      -1581.525      -1117.350      -1521.703      -2518.468      -1173.642
       1151.003       2472.980       2206.113       753.9393      -522.0483
      -620.6006      -1109.527      -3046.363      -4246.450      -1965.208
       1467.009       2050.895       147.6260      -1341.852      -1681.815
      -1920.896      -2127.112      -1245.191      -9.814941       951.9058
       1744.160       1410.728      -405.3359      -2768.840      -3367.547
      -1331.023      -286.3251      -445.7693       310.5449       1083.077
       1598.464       2113.196       798.4971      -1955.919      -3506.618
      -2822.271      -1719.665      -1728.014      -2234.766      -1498.435
       33.12549      -435.3760      -1448.162       458.6055       2429.477
       2046.231       1013.301       513.6152      -186.0791      -2203.123
      -3988.358      -2857.890      -581.4266       377.4354      -297.6123
      -1439.799      -1180.508      -477.2715       254.2549       2607.314
       3611.541       1545.933      -1198.039      -2691.708      -2476.106
      -1034.316      -330.9420      -699.5312      -605.6428      -392.2816
      -271.2568       446.7485       640.5249      -135.5815      -831.3655
      -561.1724      -901.4301      -952.7886       961.3892       1879.437
       806.0127      -63.30957      -807.9224      -1167.351       290.1582
       2462.716       2353.472       1198.718       527.4669       117.9816
       188.5620      -314.7854      -1237.453      -950.1157      -906.3950
      -863.4774      -52.58423      -179.6033      -883.0098      -954.2642
      -333.2578       1549.230       3209.302       3008.948       1878.194
       526.2275      -1454.477      -2226.824      -1618.756      -230.0791
       1148.236       495.4395      -862.0472      -452.1066       429.9294
       229.5800      -255.1550      -489.7848      -394.9204       1692.784
       4690.589       4176.116      -4.759277      -2498.351      -2829.800
      -2353.572      -672.5420       1568.916       3164.093       2149.914
      -566.9214      -1120.405      -470.2054      -533.0994      -612.4382
      -357.2400      -415.5781      -516.6648       482.9219       2387.526
       3099.587       1926.475       9.105957      -1482.988      -1824.122
      -482.2280       973.8938       959.2244       406.2061       911.9192
       1275.444       42.34473      -1686.767      -1514.372       39.92188
       906.1733       1187.762       1878.116       2099.164       1476.637
       1483.343       1830.004       250.8252      -2367.122      -3815.717
      -3222.491      -1115.276       1141.343       2604.302       2868.205
       2007.863       1349.822       762.5659       792.0920       1225.875
       556.7737      -322.9370       95.57544       849.9620       178.9060
      -835.1323      -93.28320      -839.2480      -2623.770      -1204.524
       734.2388       581.7955       312.6426      -61.71606      -510.2432
      -1135.189      -1188.174      -101.2803       1221.137       1623.448
       462.6431      -955.9482      -1340.549      -1336.460      -856.7715
      -1246.361      -2041.241      -878.6602       1422.447       1739.109
      -60.71362      -126.3328       884.2319      -626.9404      -2377.460
      -2012.604      -696.3647       102.1163       432.0281      -325.0356
      -1420.039      -604.5991       1102.643       863.4404      -164.3276
      -721.2725      -737.3682      -69.40186       976.2048       1026.024
      -880.6289      -3345.232      -3884.634      -2841.665      -1149.953
       1138.885       2050.729       1006.940       761.8250       760.2932
      -214.5664      -687.1707       384.4213       947.2448      -238.1357
      -1265.672      -1366.704      -1264.455      -265.6384       643.1646
      -889.9180      -3323.860      -2298.766       497.0220       1506.656
       720.2063      -452.6885      -1393.873      -2549.438      -1756.978
       2426.556       4687.576       2714.982      -48.23438      -1252.427
      -1578.086      -1282.121       158.0399       871.2036      -620.9443
      -1872.049      -2304.915      -2149.056      -1051.241       222.5564
       915.0392       751.4546       368.7764       1088.404       2470.059
       2851.075       2085.606       1593.673       376.5234      -2533.223
      -6076.197      -7066.976      -4149.446       901.0967       4991.738
       5091.503       2909.036       1589.255      -188.3516      -1686.152
      -1004.219      -1118.120      -2700.977      -2368.025       848.3750
       5032.836       5693.011       3314.408       1197.511      -1377.023
      -3455.714      -2271.528       627.3779       2137.314       1749.277
       1164.538      -495.4404      -2705.244      -1873.031       48.24023
      -891.1792      -2239.736      -1869.577       93.50977       3363.760
       5382.729       4230.580       2484.944       1555.728       1003.462
       1156.853       856.7360      -519.2373      -1225.972      -667.0781
       2227.086       3885.232       993.2617      -2457.938      -4262.933
      -3976.311      -780.3184       2026.710       2823.534       3363.611
       4235.635       3659.923       293.9150      -2961.765      -3147.760
      -1609.987       960.2344       3050.233       2706.788       1020.019
      -923.3906      -2236.557      -1147.979       415.1399       714.1639
       519.2548       73.19897      -536.9143      -514.5203       379.5615
       1849.326       3075.266       3008.583       1045.573      -1105.252
      -1991.817      -1501.517       128.1436       2806.304       4144.375
       3240.404       3442.397       4091.556       1685.708      -2312.479
      -3801.543      -2315.604      -808.9570       1614.014       5702.914
       7635.982       6269.712       4025.812       394.6328      -2904.616
      -2732.001      -914.6914      -756.6260      -2612.666      -4820.699
      -4882.656      -3186.600      -1550.016      -1066.275      -2357.084
      -3447.760      -3314.291      -3366.543      -2022.237       705.0747
       1621.150       578.8984       1467.518       4108.772       4582.353
       2913.888       2237.503       1767.049      -319.8838      -2061.904
      -1500.458       864.0537       3128.270       3506.474       1642.293
      -485.9512      -1216.399      -3570.496      -7027.701      -6608.126
      -3027.980      -1625.651      -2988.299      -3062.312      -1680.665
      -674.1465       1653.105       3282.753       2313.930       1580.969
       2904.477       4686.680       3861.016       1378.718      -225.3135
      -2370.121      -4267.654      -4673.523      -5313.465      -6849.836
      -7432.193      -6413.149      -3936.972       89.96875       4658.324
       8804.191       12984.82       16302.64       16801.82       14954.88
       13370.15       9629.468       563.7383      -9530.883      -15499.70
      -17448.09      -17103.19      -15415.20      -13510.22      -10527.86
      -2007.744       9390.621       15413.09       15895.46       15178.01
       12187.20       4630.059      -5001.809      -11404.93      -13376.54
      -13932.48      -13038.15      -9649.746      -5054.725       1851.383
       10222.71       18586.20       27110.39       27232.27       13786.80
      -1380.453      -11274.01      -19868.08      -25632.60      -24098.63
      -18205.19      -10197.40      -145.7227       6427.474       4557.394
      -1222.367      -2949.292       827.2930       6332.832       9467.377
       8643.350       3904.939      -6549.734      -19489.23      -24313.06
      -17117.45      -5852.937       654.1224       693.0659       360.3940
       1917.827       1996.848       3684.242       9773.285       14837.00
       14445.10       9284.572       3884.238       242.9795      -2207.752
      -3364.939      -4292.977      -5610.950      -6224.921      -3085.709
       2585.146       6307.752       7398.738       5260.178       1196.092
      -3471.766      -8531.504      -9714.466      -5538.724       664.1836
       7062.551       10311.46       8103.596       4322.796       1160.332
      -4470.461      -10872.27      -16485.53      -21450.93      -20181.10
      -11403.28      -2484.516       4132.914       11784.15       17871.41
       18036.94       14695.53       7828.057      -2284.582      -10813.66
      -17006.49      -16779.36      -7228.147       2193.727       5228.459
       4831.145       7093.789       16811.82       25863.83       21492.99
       11148.43       3461.414      -5878.805      -12842.23      -9685.137
      -596.9636       3241.012      -2839.012      -12353.96      -17667.28
      -15180.75      -7389.281       3878.691       17736.63       25448.87
       21381.70       7288.871      -6024.619      -7209.158      -4496.350
      -5273.615      -6292.752      -6648.543      -6100.734      -2968.395
       4672.234       11433.52       9104.932       3956.211       3785.639
       4029.973       2334.801       685.0000      -4194.180      -12103.81
      -16488.85      -14522.79      -6065.426       7055.055       16643.20
       18840.59       16660.18       11761.83       1540.438      -16181.94
      -27655.17      -23367.89      -14341.12      -2383.562       10034.25
       15056.69       17046.28       16193.31       9548.904       3059.027
      -488.0254      -4625.906      -8426.978      -6423.205      -386.4902
       5918.051       9772.691       7050.757       948.0063      -2197.329
      -1492.022      -18.37500       646.6356       604.3203      -1992.936
      -6348.525      -6198.524      -1455.367       692.8774       1382.212
       2001.338       995.9102       410.6992       3294.443       9784.625
       12123.62       6445.372      -1884.141      -10215.69      -15244.18
      -13826.97      -6027.314       3825.133       7747.387       8794.863
       10233.86       7990.808       3391.863      -2349.518      -6408.307
      -6609.582      -5192.246      -2455.618       310.0742       489.7236
       1195.661       1242.169      -3081.329      -4786.978       901.3516
       6132.060       5035.064      -229.4922      -3257.839      -2015.604
      -2720.486      -4358.297      -3587.637      -2362.569      -1102.771
       336.2839       1579.888       696.8818      -1210.953      -2090.484
       90.66602       3321.013       3912.578       3595.681       2191.654
      -562.4463      -3585.975      -5720.352      -3241.189      -119.4263
      -1048.725      -472.1479       1191.461       2832.961       6061.549
       7318.088       6724.919       5073.111       2057.316      -197.2783
      -749.4648      -2617.504      -5315.006      -6254.804      -4713.530
      -1113.391       3150.137       4646.212       1559.437      -278.9915
      -191.3408      -1758.917      -2535.686      -1405.731       407.8181
       1355.023       113.6646      -2332.395      -2374.015       187.9688
       3294.541       5737.203       5087.191       3638.138       1951.377
      -3788.570      -9264.404      -9569.628      -5698.116      -1646.655
       1164.052       3237.746       1597.981      -247.1018       531.0762
      -1510.197      -5045.590      -6755.414      -6826.353      -3944.021
       1134.484       5242.010       7476.371       7788.832       6874.658
       5370.058       2177.918      -951.5049      -965.2822       597.1917
       235.6067      -1411.319       269.9124       2206.845      -2173.621
      -7195.938      -8497.543      -8885.857      -7199.635      -4133.291
      -2843.594      -3921.330      -4968.125      -3400.546       645.9570
       4868.262       7094.092       6865.764       5179.698       2592.714
       373.8892      -429.4629      -882.9033      -793.2158      -1179.791
      -3490.057      -4560.064      -3002.085       409.6807       3404.148
       2268.947      -351.3965      -514.0920       50.44861      -165.6898
      -438.7800       235.3252       2118.728       2978.179       2470.543
       2823.630       3043.634       2735.654       1270.642      -2128.690
      -5193.612      -4314.789      -295.7043       1176.389       610.7593
       1120.388       24.06250      -2116.885      -2364.088      -1586.760
      -1001.279      -329.0063      -465.4019      -2367.267      -2808.099
      -546.8098       871.9170       1534.350       3595.405       4751.175
       2292.010      -122.4160       537.2529       1120.262       813.7344
       755.6221      -1860.879      -6514.439      -8045.949      -5943.379
      -3140.240      -79.92871       1888.969       2207.586       3437.384
       3334.392      -78.29492      -3543.317      -4100.605      -2547.683
      -2265.104      -2373.479      -197.4014       2491.543       2900.679
       2302.008       2792.156       3384.202       1754.057       575.8304
       566.0259      -924.1099      -1448.481      -1061.232      -1692.240
      -1676.652      -1733.062      -2114.909      -1190.719       616.9429
       1882.104       933.3683      -810.5056      -123.1858       1252.999
       731.6538       420.0879       2516.228       5122.239       4955.456
       2973.560       2423.109       3074.771       3272.896       1321.890
      -1321.303      -2484.059      -3449.305      -3455.382      -1869.469
       156.6851       1157.166       674.1265       347.9487       714.0291
       792.9772      -3.054688      -727.3330      -1227.887      -1100.477
       397.7363       1942.898       1734.245       1852.299       2120.503
       1342.713       1928.709       2432.839      -512.8066      -3972.209
      -3582.248      -1722.482       480.0156       3328.580       3831.687
       3623.943       4121.416       2889.557       2332.094       2919.017
       1704.186       1365.918       2305.015       2181.435       1025.759
      -1273.889      -3434.563      -3503.164      -1830.797       569.3359
       3918.189       5269.431       2005.594      -2427.022      -4096.628
      -2384.960      -180.5920       918.0972       1513.670       314.0317
      -2277.873      -2468.739      -393.9009       555.1826       754.2222
       1266.371      -164.9141      -3709.678      -5368.469      -2915.846
       1512.668       4195.379       3337.652       1465.869       784.8442
      -679.3516      -2760.876      -2131.469       876.9473       2193.230
       2118.415       2741.000       1587.463      -613.3105      -1170.008
      -147.6790       567.1592      -966.4238      -3067.625      -3153.074
      -2255.789      -2511.982      -1730.029       1587.066       3756.604
       2990.208       1822.636       208.3950      -2263.202      -2748.576
      -1663.792      -673.2441       946.2666       3362.270       4945.575
