     0.02500000      -40724.91       42739.92      -12345.00      -12345.00
      -29.98999       253.8350      -52.44000      -12345.00      -12345.00
       0.000000       38.91000      -12345.00      -12345.00      -12345.00
      -12345.00      -12345.00      -12345.00      -12345.00      -12345.00
      -12345.00      -12345.00      -12345.00      -12345.00      -12345.00
      -12345.00      -12345.00      -12345.00      -12345.00      -12345.00
      -12345.00      -30.16580      -69.47490       2894.000       0.000000
      -31.23600      -65.83800       0.000000       167100.0       0.000000
      -12345.00      -12345.00      -12345.00      -12345.00      -12345.00
      -12345.00      -12345.00      -12345.00      -12345.00      -12345.00
       368.0435       287.8749       109.7231       3.309053      -12345.00
      -12345.00     -0.1829970       90.00000       90.00000      -12345.00
      -12345.00      -12345.00      -12345.00      -12345.00      -12345.00
      -12345.00      -12345.00      -12345.00      -12345.00      -12345.00
      2008       318        11        13        22
       840         6    -12345    -12345     11354
    -12345    -12345    -12345    -12345    -12345
         1         7        13    -12345    -12345
    -12345    -12345    -12345    -12345    -12345
    -12345    -12345    -12345    -12345    -12345
    -12345    -12345    -12345    -12345    -12345
         1         1         1         1         1
VELA    -12345          
        -12345  -12345  
-12345  -12345  -12345  
-12345  -12345  -12345  
-12345  -12345  -12345  
-12345  -12345  -12345  
-12345  -12345  BHE     
ZL      -12345  -12345  
[...]
      -851.2959       265.1047       837.7678       597.0796      -767.3284
      -1472.390      -229.8508       1126.861       392.7559      -881.2174
      -648.0679       617.4976       769.3553       134.4929       684.0022
       863.1663       557.5047       320.9414      -1455.751      -2324.774
      -2008.466      -897.1582       1153.072       2232.067       2160.245
       1178.945       34.24115       260.5796      -400.1704      -2055.910
      -1500.438       332.6754       636.9492      -507.3047      -1718.914
      -973.9106       537.2427       246.1274      -1499.764      -2356.479
      -2203.825      -1867.031      -508.0142       1061.453       993.5684
       808.1732       839.2547       174.6414      -579.4150      -1156.348
      -1127.494      -132.5054       534.9521       816.9204       807.3799
      -366.4316      -1549.330      -540.2878       384.9386      -391.9995
      -850.6315      -217.0798       199.7756       707.5961       965.7268
      -188.7959      -1920.404      -1838.032      -70.05969       588.4370
      -23.85437       80.25354       561.9292       726.7078       819.0546
       917.3715       65.74524      -717.2811      -129.7917       1009.462
       524.7295      -1280.687      -2107.641      -1784.544      -1065.286
      -131.8171      -387.8560      -545.0327       455.1616       1268.301
       1816.333       2049.596       1486.128       1403.926       1396.198
       345.4586      -488.0262      -51.50720       64.17871      -521.4104
      -602.6323      -483.4729      -1293.438      -1019.625      -184.9888
      -555.4911      -598.7305       699.3613       2194.917       2672.042
       2129.304       531.4907      -1635.494      -1563.700      -306.4983
       164.4135      -27.33228      -821.8514      -567.7026       1027.351
       1503.009       862.6492       356.0305       330.5248       449.6005
       656.1522      -2.112854      -123.0925      -148.7803      -860.8508
      -520.1722       7.017578       478.4351       890.9402      -148.2479
      -348.3909       287.7402      -526.0598      -1108.385      -388.0117
       363.2056       1873.554       2888.839       2859.393       2265.964
       749.2832      -780.8325      -1255.298      -1070.312      -531.0854
      -167.6826      -730.3372      -1056.643      -5.507446       162.7363
      -836.2483      -1028.136       114.5835       1014.958       70.49463
      -1627.976      -1022.293       58.00391       541.2500       1794.600
       2607.657       1518.849       110.5759       413.5503       1536.435
       1149.497      -611.6816      -2486.005      -2691.169      -1556.778
      -1107.339      -55.08252       1958.654       2358.532       2026.614
       1898.898       1759.466       444.6804      -1050.245      -292.5352
       1181.779       210.8628      -1155.122      -821.6147      -598.4609
      -920.7354       427.0515       1559.015       915.5330       652.8052
       732.7112      -284.6069      -1988.066      -2510.743      -1658.812
      -1580.407      -310.1895       2890.909       4513.130       3063.199
       1262.208       468.5891      -38.69409      -567.6281      -645.1812
       112.0649       869.7522       162.2124      -897.7534      -1363.219
      -1411.631      -915.9785       461.4446       1344.645       582.1223
      -467.2268       430.4365       1770.506       1394.318      -92.59155
      -1132.864      -1201.627       409.5886       1544.900       34.85645
      -1847.618      -1710.588      -242.6045       1177.991       1174.097
      -67.18945      -1550.856      -1565.863      -45.36475       12.93164
      -1372.887      -496.7642       1373.390       937.4824      -899.5942
      -1248.080      -998.4170      -930.9837      -350.0989       160.0341
       500.2493       992.8003       1338.455       1043.626      -219.0422
      -792.6382      -586.3074      -1015.436      -1348.129       230.8660
       1077.792      -245.6406      -1190.347      -1159.017      -753.7309
      -205.9248       491.9753       1501.942       155.1006      -1740.335
      -946.2916      -1.407227       191.5428       457.3484       123.0150
      -236.8315      -1166.557      -1559.412      -960.1145      -541.5643
       216.7971       1202.292       887.4697      -503.6465      -1331.690
      -526.5278       896.9570       1837.642       1896.725       1222.534
      -560.4268      -1699.583      -1052.138      -1063.879      -2418.538
      -1692.026       1031.761       1578.415       150.1099      -491.9142
      -632.3844      -134.2193       182.6885       79.80811      -857.9839
      -1989.481      -1362.292      -253.8511       352.6909       1136.416
       802.9148      -813.7725      -1660.801      -1320.656      -1155.982
      -613.8127      -129.3979       235.6974       14.26697      -651.7134
      -107.4893       1457.878       1539.739      -65.15356      -561.8428
       64.17688      -182.2622      -965.3164      -2046.602      -1355.961
       863.8594       1572.201       1135.512       1108.959       1007.349
       802.1503      -57.74121      -1096.280      -1511.862      -1646.877
      -977.7891       702.7825       1257.369       254.1362      -1009.752
      -1102.223       1.750488       1732.684       2066.061       840.0986
       799.4971       1326.091       569.3042       446.8954       747.6854
       328.5782       288.2747       111.5283      -1571.186      -2335.793
      -722.4019       2071.177       3187.053       1875.594      -222.8862
      -1464.271      -1224.621      -413.8159      -188.1323      -1043.891
      -2395.282      -1760.896       650.2822       2441.647       2744.047
       2050.687       769.9724       641.0342       1079.315       309.5081
      -670.4580      -1592.381      -1968.349      -523.3914      -251.4333
      -1166.307      -1004.665      -511.5087       150.3019       68.35730
      -736.3075       84.62329       1101.170       1484.865       1243.606
       490.1934      -624.0537      -1600.708      -1117.088      -119.6411
      -348.7842      -976.1270      -975.5010      -589.0187      -204.6831
       742.8032       1578.945       1282.545       615.5010       1236.680
       1962.436       1632.902       949.2356      -243.2012      -1576.607
      -1016.596       87.96106       465.4307       1.908936      -1212.281
      -1406.122      -344.9604       480.0645       1284.851       2085.595
       2650.520       2057.897       186.7754      -1479.300      -1937.035
      -2001.156      -1178.109       153.8015       208.3977       643.9746
       1870.002       1836.252       1156.307       69.81427       55.83228
       513.0390       290.3577       392.1530       518.4048       422.7211
       316.2770       227.6153       349.4406       176.5325      -253.2764
      -1615.389      -2904.478      -2740.688      -1880.294      -1076.829
       59.88525       1064.154       843.9727       1055.106       3080.822
       3206.604       822.5312      -880.8560      -1197.797      -1575.391
      -1794.958      -1602.372      -1319.714      -1056.246      -213.1814
       1122.059       888.3833      -87.40459      -100.3062      -8.166260
       716.6289       747.2218       91.30164      -497.1071      -860.8072
       11.62268       637.6427       43.84082      -239.9291      -498.3003
      -690.1191      -2127.683      -4048.854      -3635.118      -1698.314
      -330.2473       437.1367       1556.704       1416.322       1092.879
       1989.422       762.1089      -1377.514      -1391.434      -6.998047
       872.1733       811.7482       311.7365      -160.7544      -890.2327
      -509.3354       215.7213      -97.68848       504.7197       2063.147
       1621.906       400.7009       792.5104       471.9707      -427.5651
       49.15430      -616.9082      -2165.321      -1624.377       180.0386
       980.1887       1062.799      -172.2734      -2580.722      -3487.736
      -1117.774       2352.701       2746.695       408.2642      -579.0496
       456.1973       1396.006       999.8623       921.5649       366.9482
      -1744.226      -2173.018      -428.3701       88.71002      -399.6892
       245.1150       1364.732       1187.170       431.2180       83.45026
      -221.6154      -479.1077       270.3843       1005.835       281.9445
      -449.9617       967.4080       1570.953      -245.5605      -1670.276
      -1389.113      -597.5781      -712.3794      -121.2251       2109.730
       3545.817       3455.112       2157.235       922.0586       870.8691
       1719.773       929.3525      -1218.092      -1478.788      -710.1034
      -761.0510      -196.0054       1472.613       2194.789       269.0068
      -1838.491      -676.8599       1826.025       1682.183       968.0227
       1075.232     0.09912109      -1655.538      -1691.862      -737.2206
      -91.55127       1130.237       2228.751       1576.117       478.3984
       1227.648       3230.175       2737.823      -458.4326      -2717.009
      -2014.270      -312.4045       68.62793      -530.8528      -858.1167
      -1867.291      -2554.431      -1087.460       1137.805       2344.417
       943.9668      -1662.143      -1876.550      -502.9565       672.3062
       1121.033       2036.758       3610.399       2606.735      -999.1475
      -3486.316      -2643.346       640.8848       2455.888       1559.015
       409.6641      -307.3168      -602.2451       872.6948       1866.291
       787.0964      -165.4266      -122.6213       608.0483       1004.230
       118.6825      -143.4355      -123.1311      -562.7903      -859.3994
      -1520.450      -2585.000      -2757.299      -1048.433       2248.448
       4249.613       2820.254       408.9302      -957.4565      -2169.812
      -2958.101      -2776.519      -1309.953       1179.229       2943.074
       1959.414      -1015.933      -2524.898      -2405.459      -3086.390
      -3813.076      -3105.454      -2464.021      -1924.806       438.5424
       472.2979      -1879.684      -1254.179       1541.942       2707.005
       2118.145       2207.975       2534.434       2424.333       3421.962
       3849.677       2615.245       1926.797       1709.050       1954.772
       2839.578       2046.363      -83.37537      -655.6914       857.2626
       1378.840      -936.1992      -4062.480      -5889.393      -7248.340
      -6897.591      -3601.052      -345.5781       1646.349       2943.684
       2623.287       855.2527       291.5864       1396.808       598.6914
      -184.6201       2610.728       5374.084       3914.883       90.68066
      -1556.954      -920.1025       137.0520       1455.979       719.2236
      -2072.471      -3372.265      -2398.991      -2418.844      -4831.328
      -6388.369      -6260.143      -7976.707      -11430.21      -13674.60
      -15517.96      -16855.89      -14438.84      -9014.525      -2400.957
       4844.875       11198.59       17290.12       22601.99       24887.82
       24072.81       20675.48       15734.74       8636.734      -1488.145
      -13610.36      -24713.95      -31447.34      -32676.93      -28165.14
      -19434.80      -7880.033       6111.289       17296.70       19961.57
       14730.21       6915.168       1717.836       228.9631       747.7173
       2020.932       875.7236      -1533.095       607.0049       4322.168
       5831.309       8239.008       10590.07       11141.81       11230.62
       7714.381      -137.1152      -7704.504      -14852.35      -20228.19
      -20502.47      -18736.67      -17234.89      -12286.76      -3940.191
       2207.144       3639.838       5378.652       9869.855       13002.14
       13559.46       14939.84       18633.71       16462.46       6656.247
       264.6387      -1786.988      -2283.210      -158.8457       1652.370
       3722.429       2432.531      -7915.547      -16290.16      -14483.41
      -8184.566      -2671.478      -1953.039      -5487.758      -8626.854
      -10092.12      -5750.828       6266.902       15266.69       15162.83
       13537.04       13984.70       12485.97       6237.359      -2625.148
      -9029.613      -11627.53      -11333.74      -8044.604      -2966.881
       2662.139       7822.576       9540.789       10831.52       13052.63
       5227.453      -15284.30      -34691.45      -40724.91      -30129.32
      -6280.859       20103.72       36768.50       40509.45       37280.15
       26749.23       8124.934      -6161.367      -13125.15      -17130.94
      -17637.48      -16848.05      -12660.42      -4491.709       4567.398
       12760.70       14358.89       7965.336       299.4141      -3613.063
      -4243.725      -4518.742      -8137.205      -13037.67      -5567.484
       17681.95       38354.20       42739.92       30939.38       5955.047
      -21749.13      -36224.05      -34138.50      -20016.86      -2209.211
       6104.866       3739.047      -3546.520      -8161.035      -5452.142
      -3027.682      -4518.862      -3692.842       3298.770       12461.29
       15702.14       12203.00       8733.875       7250.904       3371.668
      -4754.207      -12359.26      -13893.79      -9373.214      -5358.278
      -1597.555       5216.193       10273.56       10924.46       7527.400
       1691.480      -6219.898      -13865.12      -15329.78      -12166.01
      -8049.139      -4410.554      -1937.309       3531.223       11049.14
       13533.01       10077.42       7511.146       6785.493      -256.5684
      -6376.411      -2696.376       1617.462       2579.466       2144.373
      -471.3455      -92.87305       2956.723       1932.279      -44.48914
      -122.1315      -269.3005       334.2325       787.7871      -201.3984
       1345.305       5690.752       6812.563       1661.520      -7098.855
      -14367.04      -14157.49      -3570.332       8383.602       12568.30
       8724.766      -808.3281      -8398.727      -10572.26      -8792.865
      -3514.123       769.1973       3623.461       5984.500       5896.186
       4370.138       3882.058       4874.358       5311.937       3157.685
      -3213.758      -7639.430      -5908.506      -3258.855      -2096.527
      -2735.714      -3455.744      -3890.393      -3779.959      -1230.693
       859.7236       2404.019       4568.195       2112.717      -75.58984
       3717.512       5040.975       4512.496       8034.973       11458.03
       10490.74       5762.028       1815.430      -47.99609      -4464.938
      -8064.245      -5369.508      -867.4360       2301.667       2025.429
      -3299.281      -8025.082      -9378.699      -9882.996      -8871.801
      -8530.256      -7266.845      -1247.511       3746.135       6194.816
       6182.492       3942.100       2565.643       632.6064      -868.5786
      -1483.880      -2612.114      -1322.632      -848.7002      -2605.314
      -2323.819      -2738.214      -2088.640       1131.399       1897.214
      -1485.293      -6641.914      -10264.37      -10856.12      -8059.242
      -3590.923       577.8467       2119.305       2528.910       7597.523
       12085.50       9229.737       4791.312       996.4824      -3346.563
      -3477.674      -1465.409       42.31348       2633.682       2984.115
       2909.523       2139.654      -1674.270      -4766.998      -5626.973
      -2762.455       2249.701       4317.623       4272.051       4589.043
       3365.873       1047.453      -1339.647      -4079.854      -3788.506
       2259.395       9008.229       7961.496       1665.827      -2109.132
      -2919.941      -3507.416      -4085.126      -2684.593      -1804.188
      -3044.693      -2975.229      -1313.909      -513.2458      -31.28418
       3422.832       6537.733       5071.124       1944.519       291.0920
       475.1699       2143.946       3994.272       2679.148      -1250.271
      -3999.572      -6298.654      -7228.857      -2407.840       3976.461
       5036.192       3136.620       1409.823      -683.5479      -2086.090
      -2931.874      -4689.473      -6427.334      -4592.392       947.3906
       5783.793       8197.072       8274.018       6161.183       3273.015
       994.2402      -2380.451      -6327.681      -4884.456       684.4775
       4933.660       6228.135       5523.119       4113.291      -455.4297
      -5781.443      -8204.164      -9616.996      -7788.964      -3801.018
      -2257.987      -1239.604       638.1592       3116.624       3379.911
       144.4365      -1018.767       349.2085       1557.719       547.9399
      -605.9341       1685.488       3237.776       1445.942      -561.7716
       394.8230       715.8369      -3193.192      -4844.097      -1927.280
      -1061.752      -2882.738      -3181.031      -2261.512      -2868.487
      -3595.995      -1614.415       659.5332       904.0176       2167.871
       5713.594       6764.421       5323.534       4297.184       3269.533
       2522.295       702.7988      -2187.345      -2186.481       222.8114
       692.3940      -1693.889      -4289.427      -5085.908      -4686.109
      -4321.062      -3388.000      -1209.853       874.8105       2599.729
       5420.005       6711.323       2362.738      -4332.184      -7104.841
      -5792.621      -3496.669      -2445.853      -1944.010      -315.7751
       1013.405       1678.350       3026.589       3502.400       1913.786
       315.1353       546.4102       1073.733       925.2649       886.4719
       597.8037       1451.660       2720.885       1841.638      -84.07715
      -2330.134      -4166.965      -4388.923      -3621.427      -1903.273
       2614.945       8292.330       10154.22       6970.372       620.2783
      -3515.104      -2139.036      -917.9082      -2882.279      -4606.519
      -3897.319      -3662.609      -2558.001       821.3025       368.4395
      -1476.599      -35.63745       883.2029       513.9741       1220.245
       1206.237      -151.5048      -67.04248      -230.4365      -2616.758
      -5657.846      -6889.758      -5203.947      -2401.232       728.4102
       3386.213       5206.651       5391.578       1633.576      -4156.486
      -6914.541      -3979.876       2037.439       6270.734       6765.063
       3839.102       423.0645       1140.510       2831.119       996.0219
