     0.02500000      -34142.05       41307.91      -12345.00      -12345.00
      -29.98999       253.8350      -52.44000      -12345.00      -12345.00
       0.000000       38.91000      -12345.00      -12345.00      -12345.00
      -12345.00      -12345.00      -12345.00      -12345.00      -12345.00
      -12345.00      -12345.00      -12345.00      -12345.00      -12345.00
      -12345.00      -12345.00      -12345.00      -12345.00      -12345.00
      -12345.00      -30.16580      -69.47490       2894.000       0.000000
      -31.23600      -65.83800       0.000000       167100.0       0.000000
      -12345.00      -12345.00      -12345.00      -12345.00      -12345.00
      -12345.00      -12345.00      -12345.00      -12345.00      -12345.00
       368.0435       287.8749       109.7231       3.309053      -12345.00
      -12345.00     0.01754879       0.000000       90.00000      -12345.00
      -12345.00      -12345.00      -12345.00      -12345.00      -12345.00
      -12345.00      -12345.00      -12345.00      -12345.00      -12345.00
      2008       318        11        13        22
       840         6    -12345    -12345     11354
    -12345    -12345    -12345    -12345    -12345
         1         7        13    -12345    -12345
    -12345    -12345    -12345    -12345    -12345
    -12345    -12345    -12345    -12345    -12345
    -12345    -12345    -12345    -12345    -12345
         1         1         1         1         1
VELA    -12345          
        -12345  -12345  
-12345  -12345  -12345  
-12345  -12345  -12345  
-12345  -12345  -12345  
-12345  -12345  -12345  
-12345  -12345  BHN     
ZL      -12345  -12345  
[...]
      -6.650391       725.5718       585.6188       688.7189       386.3437
       206.6431       234.1519      -1180.783      -2340.692      -1400.377
       776.9395       1718.247       448.8096      -291.3797      -34.52856
      -395.3755      -211.4624      -35.28442      -732.1205       104.3196
       1376.513       605.1285      -242.4580       465.6094       1370.468
       1012.823       113.0076       11.21387       804.7046       1062.470
       540.5312       574.1094       1051.160       1161.738       195.7090
      -1044.960      -990.9494      -81.30908       301.2056       712.0420
       2240.378       2501.041       433.9043      -1379.548      -1545.495
       369.2388       2202.129       2232.460       2054.195       1182.390
       437.5604       627.6792      -45.46973      -1228.155      -1110.182
       213.2271       986.9767       782.2360      -30.00122      -692.0708
      -871.0938      -832.7493      -535.3120      -361.6335       372.4038
       1309.804       1533.633       1084.302      -222.1335      -54.17285
       2584.817       3816.303       2239.977       820.2192       258.9741
      -915.4912      -1653.683      -1124.798      -399.7432       157.5188
       499.8806       592.2866       852.3826       975.2563       809.7291
       164.7657      -658.4800      -559.4423       308.8420       1102.431
       1619.866       968.6807      -493.2124      -1031.069      -706.5944
      -251.8301      -488.8867      -1282.784      -1215.776      -497.8853
       497.7402       1866.885       2003.144       502.0814      -288.8557
      -101.4041      -407.9611      -483.2320      -108.3433      -253.2468
      -446.5647      -317.0115      -582.4160      -1376.268      -547.9565
       1049.333       342.9028      -1260.205      -1378.359      -615.1497
       516.2183       1461.449       866.0083       301.8992       583.3102
      -44.29004      -836.8501      -1254.261      -2029.672      -2266.966
      -940.8905       219.5798       3.743774      -256.1014       52.23088
       8.676636      -149.1504      -140.0786      -636.7329      -1161.952
      -868.2227     -0.5488281       522.9098       228.2354      -537.2324
      -1336.306      -1427.111      -1058.275      -1115.024      -1254.926
      -224.0815       989.7352       616.0566      -623.9351      -1155.452
      -1319.595      -1470.353      -765.3350       667.2180       1302.635
       148.1973      -1578.793      -1907.663      -1702.894      -2095.931
      -1234.424       1054.483       1654.637       1009.912       284.4160
      -1453.813      -3364.674      -2924.023      -215.7402       1812.907
       1591.591       793.1499       947.0098       300.5674      -1640.282
      -1447.659       76.54260       33.64697      -234.7336       434.1809
      -69.17285      -1720.612      -1447.188       113.6733       485.6373
       264.8257      -445.7930      -863.4646      -570.1416      -525.8555
      -891.0634      -617.0427       540.9580       1397.539       1435.961
       922.8396       1113.210       1620.510       434.8466      -396.2891
       48.62354      -480.6768      -2019.910      -2386.455      -860.8536
       140.3298      -478.3203      -95.76025       1101.917       1722.196
       2206.709       2479.465       1730.399       1074.291       1437.954
       979.1030      -1064.997      -1263.251       689.8130       1109.823
       562.7643       597.7366      -1.219177      -366.7523      -71.98120
       34.94116       145.5723       783.1470       2138.666       2651.981
       487.3601      -1421.597      -672.8231      -236.3368      -910.0281
      -137.7090       1083.303       735.4446      -422.8726      -692.3091
      -575.6757      -2.549805       1007.645       1487.778       1128.495
       139.2878      -794.5708      -542.0657       1112.094       1943.068
       1091.939       757.2873       141.4771      -627.3850       111.1003
       964.3799       919.2747       768.3289       557.4408       109.8831
      -343.6644      -136.6267       310.7766       665.7361       478.1273
       319.9844       1376.106       2012.495       1005.176       550.2719
       231.5254      -1499.667      -2307.666      -695.7656       376.5417
       173.4214       212.1729       483.3682       1240.966       2287.209
       1439.745      -672.5984      -728.3591       615.9854       680.2224
       427.6121       518.3094       228.7830      -587.5002      -570.1133
      -262.1023      -900.8577      -770.4772       483.5117       217.7625
      -460.0997      -216.5758      -251.3689       502.5918       2151.505
       2252.759       853.9149       162.3779       1252.794       1468.200
      -300.0625      -1639.912      -1193.336      -39.46460       462.8159
      -195.4303      -709.4727       187.2080       1344.226       1481.921
       1040.590      -9.999023      -748.9009      -1079.578      -1441.094
      -1626.816      -1261.859      -802.1723      -491.9512       1328.271
       3766.668       2362.455      -1029.255      -1175.304       354.6627
       186.6854       191.0303       574.4807      -192.9314      -930.3149
      -583.2568      -981.4062      -1915.324      -1103.206       427.8561
       464.3735      -181.4794      -450.4849       726.7446       1583.366
     -0.2163086      -1475.853      -710.0056      -337.5679      -1674.515
      -2538.087      -2027.827      -506.5171       1529.781       1657.943
      -295.7903      -854.3077       650.0872       632.4473      -813.3345
      -1582.399      -1156.216       290.0939       795.4131      -132.4913
      -7.960999       252.2893      -21.64972       175.5695       209.1437
      -219.9814      -1006.264      -2177.178      -2008.125      -1309.936
      -562.9196       330.9727      -801.4976      -2532.841      -2310.053
      -1574.390      -795.2837       487.6486       963.9600      -266.9771
      -1125.997      -1127.539      -834.0979      -610.2983      -1792.318
      -3037.555      -2145.907       49.53125       1758.867       1016.039
      -339.1055       331.7141       485.5601      -1197.784      -2053.038
      -2202.935      -1644.637      -55.46289       762.9366      -260.7815
      -1357.505      -1050.325      -305.3650      -9.416077      -3.672852
      -863.0664      -2108.150      -2690.532      -1945.065      -622.0782
       51.73926      -799.7710      -1608.976       397.0044       2484.694
       1073.655      -523.8466      -566.0437      -396.7285      -1066.212
      -1501.869      -733.0723      -687.0056      -1535.460      -620.9126
       1197.039       875.6482      -214.2764      -701.5547      -1697.553
      -2039.588      -1203.087      -315.3201      -15.17627       646.9331
       1807.126       2418.360       1909.396       947.9580      -539.6221
      -1703.994      -1787.375      -1618.646      -1706.057      -1361.406
      -491.2998       761.4121       2021.150       2601.712       1935.227
       787.3369       977.6531       1532.971       854.4961      -419.9868
      -2021.062      -1660.520       1102.778       2860.785       1454.023
      -614.6135      -1074.850      -328.6238       989.3943       1373.897
       396.5469       578.5977       983.8455       298.9351       518.5762
       1607.857       2052.602       1600.687       1189.356       1000.470
      -63.09985      -719.0800      -115.7705       1243.271       1401.411
       660.4160       1089.092       2403.105       2668.285       1249.828
      -353.6824      -52.64795       1675.714       2706.946       2265.396
       1058.936      -157.2859      -376.4843       435.7756       1040.766
       713.2524       528.5557       1598.468       2561.038       1149.334
       129.9580       1182.406       1838.656       1149.933       1011.466
       1050.755      -174.7955      -474.5133       296.1830       180.8232
       471.9238       1265.576       2090.206       2005.282       878.8589
       592.4695       1007.207       581.6775       285.0649       999.9524
       1374.570       1027.375       910.0898      -49.34692      -879.1532
      -43.32275       1138.410       1316.284       451.2419      -116.9109
      -84.12018      -175.7583       1002.352       2476.881       2705.331
       1462.569       340.3923      -19.31293      -120.3901       1141.192
       1126.252      -977.3551      -962.0081      -72.59802      -69.39502
       280.1941       1216.415       1408.492       230.9565      -737.0981
      -1021.405      -1881.985      -985.5488       2096.519       3752.537
       2615.715       417.2656      -1212.393      -1500.077      -1052.447
      -248.8958       579.1798       812.3591       140.6548      -821.4224
      -1360.393      -802.7520       535.6125       1124.135       385.6444
      -541.3270      -325.6997       1096.961       1533.952       806.0529
       188.4905      -621.8047      -1722.974      -777.6221       1001.475
       1142.419       1350.398       2745.814       2507.931      -217.2188
      -2206.901      -2509.684      -2261.666      -1047.274      -685.1216
      -2185.844      -3179.456      -2441.472      -1090.416       151.9570
       1555.999       2514.955       931.5103      -1107.507       102.5415
       2096.586       1625.516       452.7059       109.9307       528.9172
       10.99609      -2262.034      -4496.855      -4608.214      -2887.926
      -294.6553       2194.108       2893.536       362.7158      -2844.993
      -2749.148       108.3477       1546.835       1639.351       2020.470
       838.5059      -1291.206      -2465.910      -3374.212      -3172.706
      -2003.557      -91.00928       1705.884       1015.457      -1825.431
      -3399.307      -1583.265       605.0640       756.0493       1729.762
       3256.216       1758.584      -786.3286      -578.5483      -370.4551
      -1640.166      -2490.178      -853.5372       530.6428      -165.0373
       259.8193      -231.4541      -3323.908      -5634.047      -6329.646
      -4499.925      -1423.718      -742.3083      -915.3599      -545.2852
      -1321.004      -2468.912      -2322.632      -452.7946       613.6252
       226.3724      -138.0609      -58.89978       151.7838       374.8450
      -200.2148      -1668.824      -2116.464      -1915.665      -2292.961
      -1638.210      -1328.188      -2464.897      -2610.564      -148.2969
       2790.083       2903.055       193.0332      -1496.088      -619.7727
       416.0496      -112.1284      -744.3022      -416.1826       376.3674
       1453.345       798.2412      -3948.043      -8091.539      -7452.832
      -6116.047      -7818.406      -10599.05      -12116.32      -10271.43
      -3606.156       4332.244       8644.629       9134.965       5909.811
       2086.514       1587.054       1815.720      -562.0273      -5311.562
      -10357.75      -13029.07      -13044.19      -10270.92      -5044.462
       515.2041       1790.800      -1020.396      -627.0820       4657.426
       10031.06       11881.73       9610.628       5626.267       814.3770
      -4030.902      -7371.250      -6251.373       2693.797       15954.84
       22453.65       17211.90       6838.410      -45.76123      -1065.311
      -753.3125      -4683.016      -12289.68      -18671.84      -15927.71
      -238.3750       19317.98       31007.54       30563.85       21283.59
       9114.385      -2878.227      -9964.688      -12005.10      -11986.26
      -10626.47      -7450.620      -1579.575       2333.219      -1141.023
      -6860.593      -5436.980       2766.176       11747.52       20684.73
       24902.73       18504.09       11422.82       12992.35       15275.82
       11201.62      -1584.617      -20929.45      -33677.97      -34142.05
      -30943.49      -23733.13      -11528.38      -1989.018       3548.233
       3748.447      -3570.055      -7624.036      -3715.440       1339.758
       8307.965       12803.72       5794.480      -5840.484      -11561.94
      -6938.383       8784.312       26063.24       29793.61       24721.86
       25573.39       26062.76       15368.55       2536.707      -7996.141
      -22691.48      -31484.80      -25222.67      -17517.00      -11119.47
       6906.383       26502.52       30008.43       21478.99       9836.103
       592.3364      -3082.192       1552.969       7600.409       5444.065
       338.7168      -5318.852      -11887.77      -21323.03      -30954.12
      -28980.23      -18589.56      -3337.297       12846.75       16617.14
       12947.62       15019.30       9470.160      -15329.51      -29891.83
      -7957.195       26386.02       37592.92       16866.93      -14397.88
      -30024.33      -31716.10      -23669.86       418.6406       29486.20
       41307.91       28446.24       4974.715      -7982.684      -5077.401
      -1747.547      -7465.842      -10737.03      -6264.421      -3754.275
       781.4648       11449.73       22931.48       26065.65       11510.35
      -6331.617      -11055.34      -6237.793      -542.7988       2353.136
       3394.721       1344.664      -7893.195      -15690.11      -6511.096
       6092.175       4434.500      -6146.172      -12486.55      -9479.547
      -1504.614       6233.268       2668.387      -11319.76      -16385.26
      -9555.200       319.8867       9645.375       11351.94       1815.521
      -7292.662      -7253.799      -3326.479       2354.975       7010.736
       2941.064      -6483.533      -7439.125       5376.074       16635.81
       13472.40       421.1406      -8341.237      -6138.303       1618.910
       7506.160       7737.125       9158.873       10393.97       328.5117
      -11771.98      -10399.00       1157.764       8307.096       4326.732
      -5712.613      -13579.32      -12762.96      -3819.878       1900.422
       252.6201      -2191.466      -3377.964      -3094.474      -1352.896
      -286.8865      -223.3384       59.94287      -356.0596      -3735.872
      -4853.513      -1106.418       4567.523       12577.61       17215.18
       10883.53      -1127.969      -10893.55      -11589.06      -4016.673
       3114.465       9097.098       13135.59       8054.836      -5563.906
      -16998.19      -20273.21      -17091.68      -6918.609       2862.547
       736.5996      -3702.516      -1149.016      -2140.685      -5669.814
      -2355.312       3887.314       7864.945       11679.97       13002.36
       9669.537       3010.355      -3369.482      -4489.142      -1404.391
       1271.396      -2877.973      -7839.307      -3930.850       967.1614
       693.1719      -4890.855      -11713.39      -7097.982       7404.902
       12074.86       3469.055      -6473.887      -11363.23      -9503.485
      -4318.390      -356.3584       2157.238       4201.557       5039.482
       3332.703       590.1367      -3010.967      -4295.658      -2975.102
      -4199.527      -8036.606      -7646.501       539.5957       7558.983
       6474.319       389.8955      -3508.655      -1258.886       765.3452
       462.0117       3497.639       7329.644       4893.236      -1518.512
      -6050.467      -6798.141      -5817.232      -5996.424      -7217.211
      -4886.003       378.1816       3582.705       6625.539       9650.415
       7689.201       615.3623      -5783.346      -4116.240       3327.076
       8278.854       6553.396      -558.0361      -4609.135      -2609.868
      -879.0785      -158.5859       1395.005       2977.085       1733.745
      -1818.434      -2167.146      -942.9629      -3305.938      -3732.433
       2253.156       9880.773       13888.29       10139.36       2578.717
      -775.0503      -2000.746      -2472.012      -1029.846      -443.4023
      -3920.910      -7574.904      -6024.661       1247.191       8330.693
       7685.249       2211.950      -3919.400      -6105.815      -2417.830
      -645.0137       1039.723       6294.442       7131.651       41.24609
      -7212.725      -7435.644      -2276.144       1086.235       2033.227
       2368.642       572.7812      -1821.838      -1573.371       698.7012
       2012.542       2514.714       2390.283      -892.1240      -3809.890
      -3119.025      -2481.432      -2760.629       1000.559       6537.284
       5969.021       2670.151       1864.055       1950.740       2694.778
       614.3223      -3906.582      -4672.506      -1132.431       2632.832
       5887.320       9208.066       9098.346       5579.588       2488.926
       1753.278       1566.049      -3694.642      -7247.480      -1443.072
       4376.526       3439.011      -1758.143      -4953.716      -333.7227
       5859.188       5677.901       2387.929      -605.1016      -3532.984
      -4219.683      -3841.851      -4520.066      -3850.018      -945.7598
       1802.850       3625.802       1786.359      -3152.938      -6791.565
      -6837.748      -1295.299       5696.301       8599.408       7040.084
       3052.533       726.8069       774.7019       513.0581      -1604.734
      -4174.814      -4406.574      -435.8613       4747.023       6921.508
       6452.235       3796.107      -2178.906      -4464.313      -89.51074
       866.2578      -3047.656      -2998.208       593.2783       5.873047
      -4477.079      -6106.743      -3626.522      -45.63965       3225.938
       2822.289      -357.9004       918.9414       2332.145       2431.424
       3314.750       1663.945       3526.569       5234.285       464.3286
      -2911.486      -2058.117       1657.551       1929.462      -1987.098
      -2955.168      -3333.606      -4562.826      -1050.699       5452.697
       8215.615       5394.973      -900.1152      -5289.228      -4619.513
      -616.1499       2176.830      -23.94580      -1465.854      -369.8423
      -1657.502      -3952.752      -4255.987      -3701.925      -2163.096
       1384.076       3077.854       2697.096       3008.263       4199.447
       6548.629       7300.342       4384.894      -1355.276      -5179.547
      -5357.021      -4440.379      -1119.599       1485.682       750.9004
       961.7168       2305.488       1107.605      -4741.971      -9319.021
      -7258.224      -3510.703       496.8848       3857.888       1583.656
      -1755.870      -1420.494      -73.37793       817.9421       123.2446
