     0.02500000      -35576.01       45187.89      -12345.00      -12345.00
      -30.00504       243.0949      -41.43000      -12345.00      -12345.00
       0.000000       31.57000      -12345.00      -12345.00      -12345.00
      -12345.00      -12345.00      -12345.00      -12345.00      -12345.00
      -12345.00      -12345.00      -12345.00      -12345.00      -12345.00
      -12345.00      -12345.00      -12345.00      -12345.00      -12345.00
      -12345.00      -31.60370      -68.72130       995.0000       0.000000
      -31.23600      -65.83800       0.000000       167100.0       0.000000
      -12345.00      -12345.00      -12345.00      -12345.00      -12345.00
      -12345.00      -12345.00      -12345.00      -12345.00      -12345.00
       277.1608       260.7953       82.29132       2.492026      -12345.00
      -12345.00     0.06053031       90.00000       90.00000      -12345.00
      -12345.00      -12345.00      -12345.00      -12345.00      -12345.00
      -12345.00      -12345.00      -12345.00      -12345.00      -12345.00
      2008       318        11        13        11
       830         6    -12345    -12345     10925
    -12345    -12345    -12345    -12345    -12345
         1         7        13    -12345    -12345
    -12345    -12345    -12345    -12345    -12345
    -12345    -12345    -12345    -12345    -12345
    -12345    -12345    -12345    -12345    -12345
         1         1         1         1         1
ZOND    -12345          
        -12345  -12345  
-12345  -12345  -12345  
-12345  -12345  -12345  
-12345  -12345  -12345  
-12345  -12345  -12345  
-12345  -12345  BHE     
ZL      -12345  -12345  
[...]
      -19.76636      -32.69753      -28.58664      -37.75812      -74.90350
      -39.15535      -76.13768      -50.64990      -56.63536      -67.00336
      -71.28337      -61.31152      -92.44766      -70.77533      -96.17232
      -65.48463      -78.61026      -80.38289      -79.02963      -73.16623
      -91.14662      -63.23633      -105.9857      -78.52859      -66.71527
      -69.54932      -77.74313      -61.55199      -76.34477      -55.45517
      -71.78967      -53.80923      -66.09288      -64.41669      -62.19189
      -47.03143      -67.79453      -44.34441      -55.60092      -39.19304
      -52.74298      -57.06424      -44.85528      -24.72536      -53.42401
      -14.66661      -31.74796      -29.58664      -38.07723      -33.00900
      -17.70763      -23.50336      -56.84481      -2.972267      -23.34065
      -36.19387      -24.97244      -32.08873      -51.43997      -23.68821
      -42.79828      -27.02370      -51.03693      -44.62030      -53.88802
      -48.62167      -46.94756      -56.35701      -93.04803      -46.50491
      -54.68628      -87.92670      -90.95958      -58.62411      -100.8645
      -98.73151      -83.38617      -81.48798      -110.6396      -104.7769
      -113.9087      -123.9649      -130.1007      -81.36182      -127.2870
      -139.6340      -118.5063      -132.0259      -139.8929      -127.7705
      -143.3534      -116.7695      -147.5436      -151.5416      -148.9993
      -129.6397      -141.4838      -159.6292      -172.0917      -134.5632
      -151.8335      -183.3564      -197.8979      -157.9727      -165.6221
      -181.8199      -188.5623      -182.3931      -185.8728      -159.1652
      -179.8298      -195.5270      -194.2519      -186.2612      -190.2806
      -172.0560      -213.5272      -190.3220      -164.2297      -184.9569
      -199.9552      -179.1481      -179.8933      -156.4371      -186.4691
      -180.6024      -174.3419      -173.0278      -154.8199      -143.1036
      -177.2211      -150.2046      -146.0394      -140.8748      -132.4235
      -136.8032      -159.5974      -116.0075      -107.1863      -145.4443
      -170.0079      -122.3263      -123.5918      -119.2354      -109.4336
      -119.6134      -133.9675      -112.5395      -122.9547      -113.2791
      -133.7151      -109.8036      -105.9655      -142.7738      -147.8474
      -112.7914      -131.2640      -136.0691      -152.2581      -121.2470
      -105.9654      -144.8836      -160.3244      -107.2906      -125.3413
      -124.8521      -131.0228      -147.2119      -144.1111      -119.9939
      -121.5821      -122.4734      -130.7581      -91.38904      -101.5370
      -101.8397      -83.64383      -86.57137      -90.32411      -37.98460
      -46.82764      -54.12946      -39.82070      -19.42051      -14.68328
      -3.590153      -28.71640     0.05307007       26.37633       28.83290
       11.86499       36.59325       52.85046       77.33530       74.63452
       69.97913       69.97717       111.6988       115.3030       115.8146
       108.6759       131.2991       145.5699       144.0808       141.4089
       179.5889       167.0259       169.3719       180.4832       199.7117
       185.2040       182.1469       188.6421       219.0912       200.0513
       200.3248       218.8330       234.2685       213.3618       213.6113
       211.1748       221.6096       214.6506       217.9797       218.0530
       225.4945       222.6747       237.2154       219.1301       204.0573
       227.1493       250.3737       231.1199       248.5912       259.7745
       262.6443       248.9576       256.7654       262.1326       252.7756
       249.7118       285.9449       282.7693       268.8423       256.3392
       281.6013       298.7297       287.1860       280.5754       307.5412
       288.1682       309.1104       330.5408       321.4413       308.7565
       336.2795       339.2676       342.4849       345.7871       342.5996
       323.0604       372.2197       378.5847       359.3774       371.5422
       378.6130       371.5586       387.0439       363.2452       375.8748
       383.3604       393.9479       379.7827       374.9832       392.2944
       393.5939       388.1981       409.3795       379.0912       375.5132
       390.3613       382.5996       361.3215       376.9805       390.2883
       372.1108       356.3428       371.9191       357.0953       355.6565
       342.3425       347.5145       361.0054       340.9636       304.3470
       323.2835       336.4954       328.6547       292.1539       300.2693
       291.6335       250.3599       249.6320       260.5119       227.1021
       219.0308       207.8438       203.5646       175.4308       166.8477
       156.1505       129.8097       107.4417       101.0327       94.88541
       89.65752       47.95653       32.11087       12.32563       11.36126
      -9.511505      -48.69058      -68.49010      -46.43207      -58.48517
      -87.08221      -113.9020      -112.6654      -140.1057      -152.5461
      -175.7502      -193.3364      -196.0422      -196.9454      -229.1776
      -240.2952      -241.7041      -235.9670      -266.4556      -267.4906
      -274.9998      -302.7401      -318.3644      -292.6254      -303.2339
      -337.8323      -351.1230      -321.7344      -340.9120      -366.1385
      -369.2561      -357.6096      -361.8513      -370.9751      -380.0817
      -367.6453      -382.9608      -392.9958      -398.9320      -386.4706
      -376.9580      -386.3054      -401.8535      -376.3440      -379.0242
      -382.8513      -388.2584      -397.2830      -395.2778      -383.5989
      -384.3864      -376.9634      -379.8710      -354.6377      -360.3931
      -383.6416      -376.9612      -347.2155      -363.5883      -374.2909
      -362.8564      -342.9961      -343.3779      -332.0048      -333.1357
      -326.2752      -316.7240      -309.6174      -321.8215      -324.2793
      -309.6600      -295.8974      -289.3560      -285.2739      -295.3188
      -278.8392      -277.1145      -286.0890      -276.3704      -258.6274
      -248.1589      -255.5875      -251.5112      -214.5023      -222.5985
      -229.4985      -216.9197      -209.4786      -221.9689      -216.2900
      -179.5698      -181.8275      -196.1007      -163.3024      -154.2456
      -152.8479      -144.4020      -129.5027      -119.4435      -128.4357
      -118.5636      -90.37808      -91.47620      -90.47159      -90.00735
      -69.35774      -60.54355      -52.72350      -47.46408      -43.91414
      -40.27994      -29.77800      -12.90897      -14.01729      -14.65130
       4.495491      -14.58572      -15.86353       2.692520       14.59697
       18.14207       17.71310       8.335402     -0.8073735      -5.915927
       4.408279      -12.59035      -24.24454      -25.65121      -24.00134
      -44.60364      -60.41037      -49.53316      -59.92081      -81.58636
      -82.06662      -89.67297      -81.46655      -109.9549      -132.9982
      -116.6379      -120.4330      -149.6994      -162.8677      -160.4717
      -168.0262      -178.1750      -175.8339      -187.8741      -201.6020
      -200.1926      -175.0131      -216.5025      -226.5010      -184.8448
      -215.6016      -221.4324      -202.2272      -217.5768      -204.0667
      -220.7032      -212.1062      -168.8043      -191.3628      -199.0711
      -183.1504      -181.5392      -169.8272      -172.1516      -140.5657
      -148.9277      -151.6439      -85.19800      -110.7373      -127.3420
      -85.17349      -92.15923      -69.56107      -45.44281      -56.33676
      -28.44991      -6.979479       3.566925       23.39058       20.51166
       45.10449       44.17696       27.27814       90.29907       77.98090
       66.93677       125.1028       97.59723       102.5664       143.6656
       136.9865       163.1634       155.2606       166.4320       210.2118
       169.9560       179.3364       219.0166       197.3046       214.8684
       221.6151       235.6298       258.9718       218.2442       229.8549
       245.0815       212.9785       264.1126       260.4895       236.5549
       277.8278       255.4551       254.6475       264.5525       260.1090
       298.9621       271.5138       293.0695       301.9087       246.8179
       300.6849       323.0518       272.0252       315.4227       330.4410
       319.1359       326.3732       310.1924       353.8632       368.3848
       331.6543       394.8254       392.2455       382.3279       436.0115
       396.9081       406.8113       438.8601       400.4801       465.8042
       462.0007       432.1958       490.2328       481.3969       483.5720
       517.0706       488.9880       514.2659       503.7690       500.8884
       546.3083       511.0270       521.0389       557.6719       527.4714
       556.2302       522.9929       519.3252       585.0515       549.9170
       534.2821       553.8660       521.3621       569.2094       541.4226
       493.0647       542.6567       547.5198       518.4576       506.5178
       495.8668       531.9304       487.8843       460.5339       487.9646
       463.4719       437.9714       442.4275       404.8965       410.5389
       384.5503       376.4542       371.1469       325.9965       329.5778
       347.2601       279.7164       281.3873       271.9300       256.3394
       230.5494       202.2858       196.8764       186.1033       139.7527
       138.8595       82.81575       59.57822       99.58309       67.98380
      -8.346390       4.020647       10.98924      -29.72137      -96.29468
      -96.48273      -100.4007      -133.4409      -145.3737      -151.2931
      -188.2474      -155.5961      -195.6063      -252.6122      -240.9170
      -254.9528      -305.1336      -296.9205      -308.9425      -317.6288
      -347.2319      -360.4636      -350.7275      -365.8900      -403.8615
      -401.1710      -410.7919      -408.4806      -434.3983      -435.7854
      -434.2689      -439.0885      -458.9534      -441.7908      -434.2557
      -449.2717      -488.8647      -462.1396      -477.8574      -507.8047
      -496.5181      -465.6625      -495.7870      -509.6559      -501.5938
      -479.6605      -484.5005      -498.3862      -532.6556      -508.8767
      -504.2410      -528.5291      -551.3982      -522.7075      -525.4932
      -524.6827      -539.2013      -512.4294      -527.8022      -543.4478
      -512.9768      -513.7257      -557.3586      -508.6118      -518.3687
      -527.0327      -518.6198      -512.8372      -490.5166      -488.7964
      -529.3304      -495.1750      -479.4731      -468.9911      -451.7021
      -447.2410      -449.3301      -417.0891      -429.8943      -410.1013
      -405.2913      -371.5359      -355.2809      -337.4365      -316.6707
      -315.3557      -301.6964      -263.0554      -272.0748      -237.0547
      -222.9133      -203.0414      -186.3323      -162.1817      -161.8201
      -122.9238      -112.8735      -101.2470      -90.96927      -83.55499
      -64.30268      -34.45226      -31.15300      -7.856857      -2.058533
       24.54692       30.72458       51.04181       69.79611       85.45486
       75.99677       108.7260       132.7614       161.5990       167.4460
       165.0554       165.0569       205.1819       229.5157       238.6932
       213.6107       236.5470       273.3168       293.9429       290.6058
       315.7444       309.9875       291.0665       305.9261       362.3149
       350.6434       353.1649       367.6190       392.7778       376.5173
       385.9309       420.2086       444.8892       400.3394       405.9922
       423.2745       457.3999       456.1517       421.4727       420.9226
       441.0605       412.0114       422.1096       427.5386       429.6729
       403.2001       416.2124       419.1366       416.4076       399.2452
       385.1061       351.8733       382.9424       418.4424       374.6140
       333.3334       350.7274       323.9419       309.9832       274.4910
       277.7811       66.73438      -895.2441      -3348.020      -8118.980
      -14779.16      -19111.05      -14771.47      -3386.230       3790.638
       3690.613       1229.502      -5295.432      -10012.31       1638.770
       16877.07       21393.75       31918.62       27668.43      -8590.500
      -17798.75      -2129.284      -4254.447       4941.426       18282.31
       1500.699      -18391.61      -9668.891       10457.98       9509.803
      -4410.547      -6653.477      -12567.80      -28451.70      -14616.28
       25633.71       39188.23       9309.723      -15870.40      -8850.340
      -5201.572      -10405.52      -6493.096       3338.574      -4612.750
      -31756.29      -26394.91       7347.633       14920.72       7157.477
       23808.38       45187.89       26853.16      -7062.283      -5561.789
       18955.07       26735.57       1588.109      -29605.97      -32851.34
      -16338.36       2804.904       12089.58       76.33594      -15433.34
      -5571.472       6487.484      -9579.461      -20661.23      -6277.770
       13378.35       21243.23       13515.42       3000.175      -5333.081
      -4529.328       13841.02       21978.68      -5586.914      -35576.01
      -26951.21      -6962.859       11392.99       33803.92       21390.96
      -9789.684      -17868.11      -3852.109       15906.36       11407.96
      -5593.856      -4019.461      -3700.156      -9701.883      -1046.000
       14730.30       21557.26       6262.895      -17448.86      -23755.88
      -17935.35      -1852.358       5156.467      -10872.98      -4001.637
       16343.24       3057.533      -11828.80      -6643.050      -2982.715
      -6734.066      -9273.941      -1565.680       3724.500       7305.656
       17036.72       12930.17      -1486.238      -4714.618       1813.521
       6911.338       5540.608       3208.958       1665.959      -800.9834
      -2007.287      -3056.494      -3265.463      -6333.611      -8181.219
       6029.438       25204.15       18533.85      -10232.68      -18084.24
      -5226.746      -5983.004      -6781.418       7363.338       11592.71
      -5710.375      -23728.29      -18302.55       857.3726       4438.121
      -7289.322      -7028.625       3940.273       5048.276       4809.089
       875.3477      -7602.142      -2175.270       2077.197      -3215.708
       2260.191       10646.52       8419.625      -3407.633      -16481.81
      -8493.332       16102.12       31166.67       18838.66      -4846.129
      -10469.08      -6066.261       2040.137       10503.10       4372.149
      -2604.949       4420.479       11453.73       5044.777      -7302.703
      -8579.118      -2102.330       1785.105       2227.688      -3976.272
      -3146.977       6694.620      -764.1396      -9333.271       4598.410
       10834.39      -3434.746      -11349.25      -7550.496      -8942.699
      -8806.932       5049.646       11689.42       2449.134       175.7412
       6370.963       1699.794      -7716.565      -1320.977       8371.541
       7824.566       2706.104      -7464.251      -8736.215       2253.827
       5176.165       669.0273       5887.057       10975.22      -2334.875
      -12688.04      -6120.668      -6052.058      -9174.880       2336.867
       10547.89       6549.065      -120.0327      -2957.861       5609.781
       10680.42       910.7590      -2917.504       3615.699       4352.342
      -1515.703      -2724.431       2758.233       1599.643      -4248.541
      -2904.223      -1252.315      -4762.875      -4865.343       49.01172
       1153.875       5651.541       12481.92       3966.707      -10084.57
      -15828.61      -10226.40       4549.862       8382.029      -2640.456
      -6614.181       701.7085       2649.350       680.8218       3308.854
      -912.2871      -9087.994      -5100.684       3745.302       2217.942
      -4654.963      -3851.251       1653.705       5950.164       6018.204
       3337.542       4376.721       3701.903      -2716.808      -4507.518
      -383.9941      -5148.021      -9232.102       1253.240       9245.068
       8848.332       3998.590      -6834.643      -10757.59       2913.090
       12080.43      -220.2910      -11170.28      -50.89844       15882.09
       10061.61      -4357.252      -7191.129      -9936.898      -16347.10
      -9330.158       8561.436       13416.97       2025.164      -6076.211
      -5283.335       687.7598       7459.424       4332.810      -2430.641
      -4275.664      -7017.484      -1366.037       11437.53       9336.362
       2458.112       1099.613      -6427.061      -9060.083       536.3130
       4033.463      -2967.899      -3030.529       5876.590       8822.090
       4718.070      -531.3164      -3172.715      -6769.561      -8537.527
       4188.982       13169.90       1224.000      -13612.40      -11497.74
       1872.541       6828.075       3210.757       1368.243      -1705.644
      -4229.063       2164.809       4639.907      -1460.794       1640.898
       8307.805       3630.300      -2521.201      -3125.656      -5588.542
      -5951.833      -2135.448       3642.478       5216.570      -5277.085
      -4532.448       6521.147       6454.841       3396.122      -3749.625
      -8596.102      -3261.622      -69.97070       1962.934       3889.157
      -133.0635      -4054.007      -4460.730      -6952.676      -7363.337
      -3715.162       2999.900       11297.70       7317.088       438.7163
      -1394.485      -5254.402      -2449.213      -2011.125      -6659.649
       314.4824       8500.547       8392.570       7974.647       338.0664
      -13303.72      -9432.375       2127.457      -929.6367       710.8477
       9374.245       497.8086      -10218.17      -3445.526       5364.562
       6578.230      -727.9082      -9057.790      -5527.787       2684.192
      -41.73242      -8998.206      -615.8906       15323.05       7356.709
      -6038.814      -4259.750      -2248.986      -257.7578       5517.625
       5452.347      -537.8926      -5397.615      -6510.380      -2885.694
       2217.885       4786.724       5218.449       4035.976      -3564.412
      -8838.740      -2024.388      -1674.198      -6553.775       5417.320
       17616.11       8124.069      -4533.976      -4448.724      -131.2017
