     0.02500000      -32024.89       29712.23      -12345.00      -12345.00
      -30.00504       243.0949      -41.43000      -12345.00      -12345.00
       0.000000       31.57000      -12345.00      -12345.00      -12345.00
      -12345.00      -12345.00      -12345.00      -12345.00      -12345.00
      -12345.00      -12345.00      -12345.00      -12345.00      -12345.00
      -12345.00      -12345.00      -12345.00      -12345.00      -12345.00
      -12345.00      -31.60370      -68.72130       995.0000       0.000000
      -31.23600      -65.83800       0.000000       167100.0       0.000000
      -12345.00      -12345.00      -12345.00      -12345.00      -12345.00
      -12345.00      -12345.00      -12345.00      -12345.00      -12345.00
       277.1608       260.7953       82.29132       2.492026      -12345.00
      -12345.00     0.05684778       0.000000       0.000000      -12345.00
      -12345.00      -12345.00      -12345.00      -12345.00      -12345.00
      -12345.00      -12345.00      -12345.00      -12345.00      -12345.00
      2008       318        11        13        11
       830         6    -12345    -12345     10925
    -12345    -12345    -12345    -12345    -12345
         1         7        13    -12345    -12345
    -12345    -12345    -12345    -12345    -12345
    -12345    -12345    -12345    -12345    -12345
    -12345    -12345    -12345    -12345    -12345
         1         1         1         1         1
ZOND    -12345          
        -12345  -12345  
-12345  -12345  -12345  
-12345  -12345  -12345  
-12345  -12345  -12345  
-12345  -12345  -12345  
-12345  -12345  BHZ     
ZL      -12345  -12345  
[...]
       7002.307      -95.53320      -7227.928      -4847.979       3656.002
       3550.838      -3054.816       816.4785       6855.096      -654.0996
      -9278.953      -6234.145      -2005.792      -2634.447      -510.5244
       4719.648       606.1230      -7083.780      -2357.928       4931.896
       4286.598       1225.915      -357.6348      -1197.389      -3186.824
      -2937.898       5526.539       11851.14       2639.480      -11310.75
      -11806.67      -3414.171      -112.3777      -497.5054      -519.7021
       1038.428       5708.423       6365.255       2395.870      -1090.330
      -3865.571      -3725.864       1634.219       7358.460       3600.037
      -4585.123      -5111.740       2126.405       6687.242      -1859.527
      -8892.854      -4006.587      -1526.804      -779.3135       2955.801
       3288.554      -460.5476      -1526.039       2387.682       3670.939
       595.3715      -522.1162       3046.278       3694.537      -3121.745
      -6538.229       1033.000       8752.441       4492.021      -3202.688
      -914.2158       3350.077       936.4136      -1364.248      -1772.977
      -1582.557      -1730.348      -1107.767       2777.046       5613.207
       2479.096      -5825.330      -7088.883       3546.492       11555.88
       7699.097       731.8689      -965.1221      -1092.471      -4163.163
      -6277.690      -3397.789       572.4211       1368.982       131.0488
       2308.379       7707.953       8243.092       4362.176       1145.371
      -2632.067      -5569.955      -3404.653      -873.8408      -3340.041
      -1903.842       7903.381       10167.83       2498.036      -372.7178
       4157.490       6973.247       3303.955       2693.555       1995.492
      -1988.086      -1206.227       1123.878       1591.110      -880.0613
      -1678.574       944.0234       2101.836       1112.335      -32.15039
       2171.276       4701.087       2087.091      -2486.649      -2735.006
       2986.383       7264.866       3256.591       787.9385       2133.397
      -495.5186      -917.4414      -1708.134      -3530.492      -1081.094
      -691.0566       1376.752       5702.021       2779.458      -1562.550
      -418.2510       1060.836       2729.640       5012.444       3843.594
      -1009.916      -3422.394       106.0190       1789.170       137.9343
       921.6110       1166.117      -1297.645      -928.4951       2481.784
       1731.029      -798.4385       3537.230       7038.221       2401.727
      -363.9717       637.7988       2639.446       5133.346       992.7812
      -6022.408      -4395.005       2243.828       1591.465      -5826.852
      -4869.281       3667.113       1847.816      -5727.715      -3854.342
       2825.798       3425.319      -1058.277      -3997.885      -3273.486
      -2647.713      -1613.273       1877.122       107.7876      -1021.196
       4510.977       4607.304       23.75879      -1708.557      -1453.456
      -57.30469       1798.206       818.2402      -2657.210      -4547.062
      -3914.031       440.7266       5523.062       2438.272      -3561.984
      -309.9053       4412.044       1360.820      -3036.068      -5275.582
      -4570.376       758.5391      -24.42383      -4860.453      -606.2402
       3153.245       269.3667      -676.1257       879.5117       16.94531
      -1439.957      -1352.176      -1820.532      -2451.978      -2905.330
      -2852.514      -3655.123      -1341.776       3188.048       824.6091
      -846.6328       2705.884       3986.436       803.5488      -5354.263
      -6711.392      -507.6387       1054.394      -4147.824      -6441.898
      -4677.045      -703.4137       783.9169      -510.3018       1698.922
       5094.622       5623.360       700.7090      -7735.936      -10136.80
      -4771.709       3584.795       6207.117       135.6379      -788.6377
       693.0518      -3869.788      -5136.120      -3725.203      -1204.627
       673.9902      -2777.587      -4692.979       244.8906       5582.497
       1280.354      -6601.616      -4254.393       1137.071      -2304.882
      -5025.457      -730.0759       634.7565      -378.6265       1277.147
       1915.955      -1369.730      -4696.751      -2786.067      -848.9004
      -3971.274      -5450.125      -1954.791       1757.341       2668.663
       851.2241       1346.685       2843.126      -1388.220      -5268.235
      -3400.961       2700.571       3998.463      -2026.263      -3186.891
      -3305.941      -6785.386      -4710.755      -1017.172      -96.47559
       2384.325       2824.861      -1267.777      -2693.145      -1360.794
      -1503.770      -1224.069       831.8936       1529.896       2433.627
       6152.668       6014.166       1862.293      -1016.570      -3512.174
      -4956.130      -283.8457       5851.351       2570.737      -3251.205
      -3477.042      -2094.832      -1702.384      -81.84180       3180.221
       3176.687      -487.7139      -2781.300      -173.7363       4077.181
       2282.813      -2507.327      -2929.401       1063.707       2231.935
      -1737.380      -1487.811       4545.415       5812.768       549.0518
      -2634.055      -1242.208      -924.9932      -1982.313      -1465.990
      -834.8252       531.7910       736.0212      -1246.499       38.71484
       4589.149       4106.377      -1375.014      -2277.457      -1834.640
      -1827.901       945.9673       1263.812       991.7148       3942.901
       3302.175      -2635.505      -2331.461       5295.615       6121.755
      -1329.562      -5179.933       707.7480       8150.351       4020.842
      -3951.150      -313.4600       3773.466       1987.561       967.3408
      -2984.091      -4079.447       1042.941       3758.791       3558.068
       340.0630      -1945.722       283.7344       3695.512       8802.443
       9871.365       2128.393      -5753.381      -7839.176      -1721.610
       6273.675       4880.805      -447.7087       76.95996       1141.143
      -1218.240       493.2129       5139.593       5423.536       574.2175
      -2399.812       853.0933       1859.520       949.6797       4268.609
       5789.390       789.8066      -2114.200      -781.8857      -2568.266
      -3289.666       4155.660       12124.18       7356.159      -2492.118
      -1815.389       1217.517      -57.40015      -190.2666       1031.355
       2446.511       3485.472       770.6016      -3542.717      -1568.391
       4258.566       5513.925       2861.893       2315.123       1202.853
      -2134.935       984.5820       6373.548       4634.506      -485.1133
      -2950.725      -1801.094      -2290.288      -4282.475      -1021.688
       3977.290       3969.568      -101.5240      -546.6260       1051.864
       2076.594       6014.471       4943.903      -992.7646      -1461.647
      -456.9746      -2297.264      -4374.893      -5018.975      -1183.164
       4132.953       1541.344      -1828.053       2908.883       5047.914
       813.5189      -245.3572       884.9082      -2365.875      -5952.621
      -3357.190       1143.983      -1177.175      -5182.369      -810.0649
       2591.811      -865.6553      -2611.065       403.5039       4045.024
       2104.104      -3162.145      -5482.631      -3538.484       203.1641
       1134.213       2640.896       3326.936      -2295.832      -7510.235
      -5311.111       18.66418       1007.390      -2277.106      -2951.837
       1346.384       4548.649       2065.502      -2416.956      -4203.906
      -5960.062      -5751.642       1622.086       6217.046       3288.761
      -1486.562      -5013.432      -5491.523      -2530.783      -12.41504
      -526.1279      -2145.579      -2318.373       762.3350       3482.125
       1922.985      -1681.879      -5378.573      -6497.156      -2772.957
       436.7706      -517.4009       1131.658       2565.993      -1515.022
      -2020.904       75.90234      -1376.184      -1477.730      -3231.445
      -5847.004      -2649.576       2656.247       3301.745      -2556.434
      -6781.272      -4992.865       124.5391       5232.629       3533.029
      -175.8418      -2139.988      -4495.160      -3509.273       347.2007
       939.8416      -377.7051      -1005.653      -2849.831      -4983.273
      -5266.385      -2470.142       406.1050       811.4229       608.6680
       1429.941       2711.818       1782.233       1965.756       2891.395
      -624.2783      -4912.311      -4188.066       605.4341       2707.542
      -285.0039       1379.368       4039.840      -2052.676      -8589.240
      -6632.753       918.7837       2934.930      -1440.625      -2047.162
      -2719.844      -4484.627       1364.957       7769.751       3176.385
      -4936.670      -5103.482      -468.7183       2234.035       3208.869
       1736.783       220.5796       330.6328      -2092.977      -4167.779
      -1708.487       1496.510       3691.354       4441.909       885.5566
      -5573.681      -6866.122      -407.3335       3757.860       595.2971
      -601.3059       768.5244       2009.014       4156.733       2487.884
      -1721.164      -1022.984       4793.756       7113.355       4789.680
       2678.759      -3141.301      -5455.480      -495.0177       135.0098
      -1374.583       2170.260       3853.154       246.1143      -123.3027
       2658.806       1662.032      -582.4307      -2792.518      -5347.411
      -1235.773       6227.608       5745.018       385.6335      -2127.004
       1319.834       5515.388       2681.697      -3638.444      -3313.314
       2030.009       4432.499       1820.138      -2113.010      -2662.124
      -2106.121      -1510.312       796.8145       1771.741       1751.035
       1042.208       250.9897       770.5029       3513.838       4390.356
       52.62378      -1620.129       2278.640       4162.636       2361.010
       217.3763      -415.9307       1086.911       926.7568      -2753.694
      -4090.191      -2854.339      -2981.109      -793.5547       6992.588
       9484.599       1669.710      -2825.802       149.5840      -1915.455
      -7752.610      -2922.318       6125.017       2942.961      -6051.883
      -5257.459       6591.498       13039.30       4161.694      -5052.318
      -2837.230       2728.754       4723.228       2862.833      -108.2344
      -3815.894      -4251.378      -270.8652       308.4707      -3237.940
      -4918.443      -2539.967       1637.650       6508.250       8636.832
       3453.229      -1356.744      -1512.860       525.7896       2500.853
       875.5571      -375.1625      -63.91211       1558.926       7075.187
       6036.209      -4273.473      -11290.84      -9071.892       1451.635
       8856.553       1274.396      -8968.780      -4300.637       7201.297
       7694.931       1092.296      -684.9609       4725.223       6006.840
      -2378.569      -6432.694       158.4492       6207.704       1728.492
      -4489.547      -2154.929       901.1040       1456.365       1084.386
      -1644.073      -3518.750      -316.8330       1905.986      -1728.723
      -4276.759      -2461.879       2482.539       6529.674       5114.982
       3158.122       1863.338      -2367.402      -5265.471      -1183.348
       5606.332       7173.776       1210.717      -5483.334      -5118.185
      -1004.833       1135.724       2309.297       160.3281      -4640.753
      -5334.072      -2393.986      -434.8999       1428.513       1320.526
      -2481.514      -4326.545      -2878.210       2035.619       6754.117
       1267.650      -3754.369      -1212.209      -1785.578      -4466.945
      -5945.230      -7219.250      -2104.186       8946.289       12706.47
       6713.037       4108.582       9116.102       9539.986      -5098.160
      -18739.00      -17539.31      -14051.02      -12604.37      -3989.381
       9338.969       17104.69       15384.95       9390.059       4289.158
      -3011.598      -7622.633      -684.0273       11669.67       17957.99
       4575.203      -20041.81      -31495.69      -24415.11      -3135.090
       16710.16       22484.96       24346.76       21540.43       7738.688
      -8684.945      -19751.34      -26618.05      -26745.58      -10143.26
       12499.79       15217.61       587.7734      -10695.52      -12436.01
      -11510.53      -10687.20      -5202.483       2497.135       8792.039
       14770.57       9570.779      -8997.988      -19313.43      -11967.68
      -6005.650      -7470.084       1733.891       22099.95       29712.23
       14379.17      -4184.920      -6721.380      -2833.314       4171.266
       14202.72       11194.02      -816.0820      -9250.973      -14645.40
      -14032.68      -1574.047       17401.83       26988.27       17276.79
      -5311.344      -26282.78      -32024.89      -11697.06       10918.96
       3866.316      -13450.98      -16638.01      -9736.529       1267.803
       4287.475      -3144.123      -3010.328       6517.375       7189.500
      -1174.922      -3695.488       6211.613       15340.54       5348.125
      -14681.62      -15934.69       2948.244       13379.11       3954.488
      -8678.094      -7558.169       3235.351       7587.176       1106.016
      -7178.754      -6137.965       2923.350       7404.609       4835.338
       2634.632      -1437.946      -4190.802      -1984.941      -4495.355
      -5341.954       2209.998       549.9648      -5713.002      -1987.861
       3950.801       7458.021       7576.139       3710.641       6382.104
       12022.87       1096.289      -20415.46      -24393.96      -3478.848
       14523.59       9973.925       2662.789       8480.020       16129.78
       7342.308      -8382.990      -3543.148       9699.567       4399.359
      -11916.69      -20946.30      -16790.43      -2106.516       12220.38
       16850.77       17456.79       12489.28       2826.453       1009.814
       6413.136       6618.359      -10741.34      -31210.59      -28604.00
      -7223.250       13869.37       21199.35       10452.57      -6092.500
      -5566.357       7887.260       9449.137      -1625.253      -5398.886
       2373.031       5150.723      -5087.199      -13601.14      -7395.167
      -616.4868      -3654.820       1657.453       14867.25       16687.57
       8108.104      -966.9375      -6385.987      -4924.019       3993.832
       10381.88       1498.551      -12305.46      -10085.30       6024.562
       15629.22       10098.83       3150.698       1642.011      -1455.473
       1603.422       8704.326       7028.699       3252.953      -2075.309
      -8569.949      -3608.320       8254.996       10488.86      -2151.873
      -8692.738       5719.842       10402.30      -7440.645      -11360.79
       1418.683       3909.676       1049.867       1059.622      -4904.754
      -2967.242       12114.83       10794.37      -7745.539      -10848.93
       5922.574       14610.76       7490.454      -1745.590      -8980.889
      -6869.815       3081.999       4998.201      -800.4004      -6936.926
      -13765.46      -15307.41      -8129.333       1915.281       11400.43
       14749.17       3834.938      -6596.141       609.4717       8010.820
      -2381.336      -17447.54      -18200.59      -3721.988       12486.77
       15057.66       3875.594      -6732.039      -5283.283       5769.384
       7432.304      -1917.785      -2482.730       5526.665       5599.746
       117.0547      -1641.383      -2856.660      -2843.523       5380.766
       15648.73       9861.781      -8806.859      -16380.91      -10799.78
      -2049.818       5788.945       4140.730      -4961.627      -9680.297
      -7089.871       2803.831       7262.074      -2622.387      -13250.96
      -16875.79      -8834.160       10161.59       14728.38       2710.295
      -925.9268      -618.9844      -9379.559      -15503.18      -5903.664
       12890.52       17607.57       2209.877      -9474.050      -5747.994
      -666.9258      -6921.922      -14332.20      -4457.822       11631.47
       13449.46       1608.289      -9961.611      -9783.850       1792.359
       9386.055       3377.456      -2945.080      -588.7246       4772.896
       6628.545      -1758.061      -11559.94      -4557.260       8629.896
       4079.574      -8286.140      -7780.070       1949.604       7741.598
       936.9180      -12428.31      -12525.15       840.6816       10592.79
       7840.442      -2499.661      -6468.273       3293.379       13211.04
       6510.559      -11352.02      -23122.61      -18854.00      -2496.990
       11068.03       9805.451      -3665.119      -11513.71      -7688.471
      -981.6680       7383.902       15793.06       12401.49      -2455.223
      -10014.03      -5039.713       954.9648       2838.438       2603.699
       236.9512      -7562.352      -11553.51      -4113.584       5842.059
       8663.186       2701.270      -5576.850      -9348.154      -9076.939
      -2355.225       9979.508       9728.660      -5925.301      -14664.67
      -7265.867       9423.770       18200.86       10761.57       39.00000
      -5372.021      -3400.441       5006.559       9688.959       8016.506
       7214.589       5757.318      -4756.719      -15178.45      -6750.699
       11563.24       15821.69       6318.110      -3596.260      -5282.319
       4200.406       12410.88       3431.143      -9288.523      -3943.236
       4312.138      -4831.615      -10710.66       1546.174       11459.42
       7280.621      -1127.396      -4098.947      -952.3457       3747.920
       5668.990       11.23047      -6886.831      -3670.862       4868.007
       6054.844      -3109.957      -12108.42      -8668.814       3647.914
       10929.33       8849.910       3711.111      -83.99707      -3080.199
      -4319.005       2230.506       10953.43       5651.719      -7073.913
      -5117.581       4287.484       830.7656      -7435.164      -4404.061
       2967.294       2175.880      -3600.771      -5884.680      -3049.891
      -2345.516      -5713.077       225.0703       12801.10       16111.56
       10080.80       1570.855      -5404.048      -4004.848       4303.126
       6149.559      -2304.621      -10941.49      -12224.51      -4715.449
       5250.842       2798.074      -7217.939      -5598.660       1268.726
