     0.02500000      -56458.79       47247.94      -12345.00      -12345.00
      -30.00504       243.0949      -41.43000      -12345.00      -12345.00
       0.000000       31.57000      -12345.00      -12345.00      -12345.00
      -12345.00      -12345.00      -12345.00      -12345.00      -12345.00
      -12345.00      -12345.00      -12345.00      -12345.00      -12345.00
      -12345.00      -12345.00      -12345.00      -12345.00      -12345.00
      -12345.00      -31.60370      -68.72130       995.0000       0.000000
      -31.23600      -65.83800       0.000000       167100.0       0.000000
      -12345.00      -12345.00      -12345.00      -12345.00      -12345.00
      -12345.00      -12345.00      -12345.00      -12345.00      -12345.00
       277.1608       260.7953       82.29132       2.492026      -12345.00
      -12345.00    -0.09609970       0.000000       90.00000      -12345.00
      -12345.00      -12345.00      -12345.00      -12345.00      -12345.00
      -12345.00      -12345.00      -12345.00      -12345.00      -12345.00
      2008       318        11        13        11
       830         6    -12345    -12345     10925
    -12345    -12345    -12345    -12345    -12345
         1         7        13    -12345    -12345
    -12345    -12345    -12345    -12345    -12345
    -12345    -12345    -12345    -12345    -12345
    -12345    -12345    -12345    -12345    -12345
         1         1         1         1         1
ZOND    -12345          
        -12345  -12345  
-12345  -12345  -12345  
-12345  -12345  -12345  
-12345  -12345  -12345  
-12345  -12345  -12345  
-12345  -12345  BHN     
ZL      -12345  -12345  
[...]
      -2.914719       53.44402       54.55473       36.46832       87.32068
       86.68793       100.8591       153.8638       129.6613       168.3496
       160.1233       149.2698       187.2035       175.5981       191.7791
       224.4258       183.1765       246.5983       240.3535       231.2284
       273.9556       250.3341       260.3670       293.4990       261.0225
       314.1279       308.0829       306.1459       324.2603       310.4908
       332.3625       358.1714       327.7253       360.3362       344.8838
       369.5952       403.1080       373.1744       370.5143       397.4871
       360.9651       395.4346       388.8250       393.3126       425.6533
       416.2510       414.7380       431.4036       398.7305       427.8304
       409.0142       402.5613       426.8491       423.1826       426.6193
       436.3721       396.7476       431.8464       411.6532       394.4066
       393.3192       396.9111       428.2529       441.0938       399.8563
       396.3208       362.1260       391.5725       388.1599       371.1055
       389.2140       382.5181       355.5922       367.3665       343.9360
       375.9957       373.3257       336.2045       300.8169       332.9489
       341.3767       319.0098       305.9788       315.5197       296.1552
       303.1168       271.9116       265.4131       280.2979       273.5367
       231.0334       259.0776       266.6231       256.3060       219.4767
       199.7220       222.1093       244.8080       193.6812       186.4437
       174.0120       178.3492       187.5010       168.7640       136.1777
       149.0242       144.5845       145.8876       121.8759       145.0742
       120.4861       115.5306       116.9981       90.60855       78.90143
       97.18712       73.36351       74.52647       42.82040       37.44443
       29.41238       20.75522       15.23821       11.29257      -8.869026
       34.19662       12.83487      -20.10223      -35.82774      -40.02280
      -51.35846      -50.23264      -91.76968      -101.2800      -105.8569
      -74.74481      -97.24597      -116.2202      -131.6870      -150.8209
      -146.1379      -119.4822      -185.9573      -191.1304      -159.7585
      -159.3992      -203.1938      -232.4963      -212.8180      -163.1260
      -214.2900      -243.7511      -238.5126      -196.2581      -211.6307
      -264.0827      -247.4922      -208.2018      -248.8613      -231.9916
      -254.0533      -281.2999      -257.4738      -233.3185      -265.5841
      -271.9756      -262.1309      -258.0222      -315.2480      -297.4041
      -319.4935      -344.3807      -300.4687      -302.4490      -342.5948
      -311.0637      -334.8031      -359.4009      -361.6381      -355.1631
      -381.0757      -367.0558      -370.3320      -389.7010      -395.6597
      -382.9043      -418.4205      -417.4719      -434.2705      -445.3789
      -441.7567      -431.8048      -441.6659      -444.9260      -469.9407
      -453.8704      -460.3669      -453.9453      -450.4404      -477.5242
      -484.5278      -438.6688      -453.6362      -469.4554      -475.7605
      -452.4155      -448.6279      -443.9446      -444.1904      -423.2723
      -416.9731      -409.4045      -437.0201      -412.2271      -404.8602
      -394.1509      -406.9189      -414.2893      -379.9700      -338.5088
      -358.4811      -337.5201      -333.8514      -313.3492      -308.9031
      -314.6177      -298.6381      -256.0528      -278.8466      -278.7891
      -253.6113      -211.5599      -237.2108      -238.1862      -200.7093
      -173.8644      -187.4222      -160.5034      -142.2067      -122.2878
      -127.0385      -112.9015      -111.5830      -86.65977      -76.43372
      -62.37537      -61.30706      -40.45409      -27.39560      -1.373325
      -24.22101      0.5395966       22.89725       22.55161       34.84958
       89.34764       67.64876       67.66132       86.11517       99.16125
       88.77924       116.2146       119.9099       144.4783       164.5765
       172.2360       150.1561       200.0103       204.9783       185.9638
       198.3297       228.6971       211.6546       235.9127       270.5375
       272.4856       259.0857       308.6143       293.5981       286.7925
       319.0347       344.3803       333.9531       352.7577       358.9509
       387.2407       389.8956       393.0237       409.4506       454.0382
       439.3922       430.8477       442.4882       469.5123       451.7311
       469.4802       498.2311       504.2295       477.2109       499.8236
       520.7921       519.2725       507.9515       537.5547       545.5009
       554.6565       541.1963       545.6492       572.7383       586.1045
       565.5234       576.0366       584.9446       594.7144       560.4763
       554.6940       582.4656       604.6212       571.4209       570.0137
       590.6106       575.8911       553.0474       578.2412       560.8499
       539.2944       527.4156       516.8422       484.5345       497.1917
       511.3997       469.4414       427.9745       455.1531       432.6104
       389.0325       379.8965       398.0635       341.7706       319.7533
       348.6534       325.5474       274.0337       262.3901       246.3568
       233.0698       198.2682       186.0356       179.2981       176.2940
       146.1428       105.4587       88.35739       100.6442       61.06156
       26.13016       28.46928       45.17218      -2.929352      -31.49922
      -29.49127      -39.95007      -74.83987      -70.43994      -85.56076
      -111.5923      -127.1853      -125.3984      -173.9954      -195.8866
      -180.5752      -179.5797      -237.6903      -248.3907      -235.8604
      -252.8174      -294.3121      -295.0861      -296.5186      -302.4634
      -331.9824      -338.8120      -352.6743      -368.7185      -374.4912
      -363.2275      -382.6210      -410.7826      -421.3345      -413.0679
      -431.5925      -431.7273      -431.5894      -434.3044      -439.0787
      -447.5752      -452.3975      -429.7634      -433.9907      -461.5231
      -488.4457      -452.2717      -440.2085      -456.1421      -446.5554
      -424.6780      -424.1387      -410.1071      -408.9681      -386.0410
      -377.6216      -380.4471      -384.1870      -358.1836      -325.6424
      -301.4183      -291.6755      -282.5126      -286.7992      -268.0981
      -265.5399      -227.2935      -203.2751      -198.7509      -178.6888
      -137.8633      -123.9930      -127.2514      -93.18790      -48.14255
      -70.97498      -50.82667      -25.00521      -10.90476       15.90685
       45.77382       52.38339       68.78293       100.3733       115.1781
       97.71948       155.2160       182.3793       167.1030       190.0781
       206.1409       208.6976       220.1259       228.9763       280.2368
       290.7432       275.7490       263.8821       301.0541       338.5353
       323.5991       321.1333       336.7625       344.0538       362.2753
       368.3617       380.2052       397.4325       399.6853       383.6478
       396.4802       387.6056       407.0801       437.2610       395.1548
       395.8640       450.8020       413.0657       397.0880       410.5869
       430.1313       428.3843       378.2334       388.9714       416.0333
       373.6368       376.8989       369.7423       380.9908       361.2371
       337.4147       366.7629       326.3784       309.5297       339.3014
       292.2813       283.3287       266.9579       246.0989       272.5183
       244.6025       204.6323       217.4742       194.8279       184.4288
       169.9398       140.3433       150.3434       131.5040       101.9408
       88.04425       48.53870       72.74960       66.07174       3.927187
       13.94210      -4.694702      -50.88570      -39.98495      -84.30557
      -99.73056      -101.6102      -122.2882      -122.4352      -162.0296
      -189.5819      -182.6537      -248.1040      -241.2117      -227.5234
      -277.0622      -272.1187      -308.6719      -351.6576      -337.5312
      -394.3320      -376.0840      -390.3849      -441.0751      -409.1613
      -456.5956      -493.6631      -475.4003      -533.5796      -510.6799
      -511.2273      -583.3101      -549.7698      -547.4143      -617.0627
      -626.1212      -638.6812      -617.7246      -649.8728      -689.8104
      -648.1409      -690.2815      -716.2534      -678.7893      -752.6218
      -714.3835      -681.7400      -752.0098      -734.7168      -744.9761
      -752.7119      -711.0356      -780.0654      -744.4197      -709.4102
      -761.4102      -727.9893      -736.1702      -753.2476      -698.5471
      -746.8792      -721.5000      -698.1873      -736.3618      -697.0137
      -707.0068      -698.2395      -622.2656      -675.4536      -655.8090
      -624.9397      -634.6794      -585.4823      -602.4062      -589.1648
      -513.6421      -558.5510      -527.6284      -498.1475      -499.9047
      -437.5471      -446.6395      -451.5874      -385.1044      -443.0664
      -395.1860      -335.6498      -355.2211      -290.8443      -278.3856
      -284.5835      -220.2396      -248.3900      -192.2270      -174.7790
      -198.0619      -124.9834      -118.9561      -110.8412      -47.81784
      -74.69089      -24.16918      -11.78205      -21.40983       25.25734
       18.29099       65.90088       129.8773       69.00342       122.9537
       186.4277       193.4958       182.7460       168.0844       246.4632
       296.3328       254.1512       296.7552       312.0452       341.9573
       403.4167       359.5273       369.2357       453.7981       412.8768
       430.7933       481.8394       497.4069       508.5454       519.1311
       527.5676       548.9258       532.8157       570.3726       593.6940
       579.3368       601.1261       622.7219       613.5583       628.6780
       610.7386       633.6919       634.9453       638.7617       632.4248
       639.8577       645.8621       634.9805       640.6440       671.8856
       653.6359       642.5293       629.8804       639.4008       652.9567
       640.2498       608.7383       624.1979       627.4587       623.3088
       612.9880       615.9161       610.0759       605.0925       602.1890
       574.6753       555.4011       571.8962       545.5149       539.9524
       522.2068       526.0134       552.4333       524.5131       497.8961
       525.8389       512.9534       487.4889       450.9751       469.1414
       480.3199       458.0710       436.2233       431.4813       413.7585
       438.2419       423.4695       399.6183       387.3065       381.8939
       384.0566       389.8132       374.4905       371.6666       318.2025
       314.5291       321.5372       312.6244       310.9894       299.2173
       278.9637       295.6721       284.5309       274.7415       264.6265
       259.5550       229.9899       241.2401       244.9596       239.9305
       209.0870       219.3920       225.0859       222.0022       186.9473
       170.7108       185.8605       185.3479       154.2176       158.5145
       146.0273       154.0551       129.2348       121.4327       117.3384
       126.1710       117.6401       100.9210       88.59485       104.2963
       97.86761       101.9268       75.02248       68.12701       60.49496
       68.11148       63.18237       65.85109       51.85135       64.66300
       26.72445       35.40421       33.48333      0.3483810       11.10702
       35.35353      -18.67973      -23.62065      -16.83302      -21.68831
      -29.88132      -66.77463      -120.2445      -39.90788      -50.45956
      -122.6907      -117.1437      -74.11969      -125.2223      -162.8570
      -126.1401      -143.6804      -219.3958      -207.3791      -176.3378
      -156.7628      -190.5108      -210.0021      -240.7179      -243.4428
      -242.6107      -238.3909      -243.4463      -256.2321      -263.9732
      -257.4078      -336.9895      -560.2168      -1248.468      -2537.689
      -4119.961      -4604.756      -1470.358       4423.600       5812.309
       1878.326       637.0444       262.8945      -5270.353      -4802.594
       6727.534       6830.663      -788.5669       2002.566      -6613.664
      -15089.23       3126.311       8911.693      -5487.776       881.7383
       4984.266      -12013.75      -6195.480       13798.55       14125.79
       4482.219      -7256.371      -15999.08      -18038.97      -7928.672
       12963.55       18382.88      -2272.785      -16332.59      -3349.277
       9880.734       4209.113      -9764.957      -14968.30      -3172.086
       19888.59       26163.03       2807.312      -6202.029       410.4717
      -6461.789       3546.318       18090.18      -10447.95      -24853.66
       15931.81       23540.99      -32201.80      -56458.79      -5551.602
       28032.33       7206.598       9976.566       26616.96       12057.86
       933.7598       2138.887      -14694.98      -25406.73      -10263.62
      -6395.113      -10260.35       3683.594       5362.664       497.1797
       14712.08       4211.156      -26482.03      -13318.46       30064.44
       39681.52       11107.07      -17805.84      -21658.65       4627.826
       10842.51      -12310.72      -2403.313       5495.484      -25694.24
      -20601.77       26997.49       32630.53       379.0527      -9798.941
      -10424.52      -7789.719       3859.052      -1731.541      -1357.092
       10825.44      -3480.961      -14310.59       8811.021       13059.66
      -20194.36      -27912.50       1824.910       24693.86       16262.95
      -9010.985      -12681.57       9395.516       23547.34       1175.789
      -22794.76      -4574.133       11391.91       2918.827       27.89355
       3502.962       4992.680      -7803.969      -16463.90       3371.457
       12141.38      -6906.840      -14008.31       2047.955       12701.65
       3723.646      -10126.12      -7253.525       5573.654       1607.126
      -1402.578       7721.324      -3011.945      -13660.19       8507.094
       21880.90       3927.512      -8194.689      -8879.248      -2222.436
       12394.85       7493.277      -6554.871      -9368.375      -18392.82
      -9032.637       21544.90       18167.43      -4127.158      -6254.545
      -5030.899      -7956.345      -470.6309       11932.78       7410.279
      -4868.563      -3085.323      -692.6973      -4852.793      -4385.597
      -2475.428       2900.248       10360.13       10865.28       8774.750
       753.4902      -8321.895      -10193.47      -8505.158      -69.46143
       3805.020      -1721.779      -4386.899      -2947.572       837.5371
       4315.266       9476.031       13650.19       9297.828      -221.5273
      -10218.43      -10440.13      -5274.360      -3092.715       9342.537
       12129.18      -14466.36      -17873.24       9162.188       11069.73
      -4404.132      -3795.336       9865.266       16390.57       7035.650
      -10108.95      -18000.56      -5414.639       6847.378       1756.934
      -3066.984      -1785.957      -5380.841      -414.3281       12597.59
       10756.34       3987.060       3677.686      -5623.777      -18585.38
      -11406.09       10500.70       19904.05       11881.38       693.8809
      -8136.713      -11190.27      -7538.524      -5938.359      -3207.182
       4752.182       3360.542      -2597.926       7157.652       16374.62
       6648.189      -5293.760      -7222.861      -4153.040      -1348.570
      -3696.291      -6786.227      -4666.029      -2746.094       5154.695
       21634.16       20761.66       398.3672      -9986.420      -6109.832
      -1477.665      -25.35547       2064.604       6936.676       1092.359
      -11026.49      -7485.855       6694.490       9137.161       2138.502
      -696.2676      -4157.931      -4345.527       3641.344       8014.308
       619.5234      -10221.21      -11462.87       861.8672       14525.95
       8621.322      -8081.793      -12575.13      -728.9648       12598.20
       10548.61       2116.418      -1948.154      -7585.328      -9523.503
      -319.6855       9524.302       4520.975      -10402.68      -12287.93
       3943.273       13591.31      -513.0938      -8747.453       5259.728
       7441.402      -2112.116       1826.042       3830.184      -6684.098
      -8675.580      -782.4258       7420.320       9080.154      -320.8945
      -6642.379      -4434.326      -3513.221      -3201.086      -2626.673
      -6270.905      -2797.184       10468.45       14981.66       9091.761
       1756.773      -2193.941      -4449.564      -8039.796      -3505.257
       2725.432      -4994.137      -7372.959       4117.427       5215.048
      -485.7500      -2076.330      -7429.631      -9643.877      -4291.428
       3203.924       10340.32       10642.26      -1625.820      -11069.81
      -77.76562       11324.41       3057.623      -8377.945      -5280.380
       1066.080      -5274.279      -6427.859       7739.232       12379.76
       3827.987      -169.5220      -159.3340       2585.574       3557.723
      -3999.624      -2881.766      -266.4043      -11279.10      -8633.507
       4661.064       1946.313      -2010.488       7028.633       10684.38
      -1474.914      -13317.12      -15187.52      -11595.84      -536.2773
       12301.49       12322.62       5407.416       3187.054      -1022.703
      -1101.255       4610.964      -1297.594      -12018.14      -12462.78
      -586.2383       12836.88       5431.363      -13380.20      -13119.98
       6521.367       15902.99      -2433.645      -18696.30      -9043.400
       2462.902       4350.717       5818.337       5278.912       3752.760
       4218.251       2824.116       2631.360       4240.566      -4072.180
      -7649.415       3344.272       2032.742      -6676.656      -6015.425
      -4138.837      -3061.171       2460.232       7001.599       3066.495
       227.6084      -471.1035      -8311.961      -12209.27      -1146.311
       6314.991       1943.330       4656.830       5494.997       753.1162
       4054.232       8166.035       14307.74       16381.69      -3122.266
      -24322.26      -19176.40       151.8750       4638.531      -3877.865
      -4589.373       1458.963      -432.0918      -6636.717      -5163.531
