     0.02499998      -1939.814       1938.320      -12345.00      -12345.00
      -30.00018       219.3497      -21.50000      -12345.00      -12345.00
       0.000000       16.18000      -12345.00      -12345.00      -12345.00
      -12345.00      -12345.00      -12345.00      -12345.00      -12345.00
      -12345.00      -12345.00      -12345.00      -12345.00      -12345.00
      -12345.00      -12345.00      -12345.00      -12345.00      -12345.00
      -12345.00      -30.40760      -69.24540       1968.000       0.000000
      -31.06700      -68.46300       0.000000       100400.0       0.000000
      -12345.00      -12345.00      -12345.00      -12345.00      -12345.00
      -12345.00      -12345.00      -12345.00      -12345.00      -12345.00
       104.6813       314.0949       134.4928      0.9411824      -12345.00
      -12345.00     0.01234129       0.000000       0.000000      -12345.00
      -12345.00      -12345.00      -12345.00      -12345.00      -12345.00
      -12345.00      -12345.00      -12345.00      -12345.00      -12345.00
      2008       164        19         3        59
       300         6    -12345    -12345      9975
    -12345    -12345    -12345    -12345    -12345
         1         7        13    -12345    -12345
    -12345    -12345    -12345    -12345    -12345
    -12345    -12345    -12345    -12345    -12345
    -12345    -12345    -12345    -12345    -12345
         1         1         1         1         1
ARRO    -12345          
        -12345  -12345  
-12345  -12345  -12345  
-12345  -12345  -12345  
-12345  -12345  -12345  
-12345  -12345  -12345  
-12345  -12345  BHZ     
ZL      -12345  -12345  
[...]
      -21.71018      -21.59996      -17.11636      -38.52020      -59.17371
      -82.47327      -84.77545      -102.2727      -142.4520      -166.4662
      -141.4980      -120.6817      -161.1403      -180.1183      -166.0774
      -193.6501      -196.4698      -227.1987      -263.5652      -288.4100
      -329.0989      -351.5283      -367.4081      -399.7537      -400.5250
      -416.9817      -456.5789      -476.8477      -496.8925      -548.1550
      -551.5408      -556.8464      -593.6218      -627.0825      -641.5896
      -651.0026      -642.4102      -676.1396      -699.5483      -696.1611
      -711.1445      -728.2803      -712.3728      -735.7200      -749.5117
      -745.9070      -763.0986      -758.1738      -772.8066      -780.2915
      -760.3877      -773.7129      -767.3425      -765.6431      -770.7234
      -750.7100      -756.8083      -732.3893      -694.1355      -659.3521
      -644.9822      -649.2847      -589.1434      -554.9980      -611.8083
      -607.6362      -555.3894      -557.9872      -571.0370      -537.3225
      -543.5907      -535.8171      -483.1199      -441.9529      -451.1276
      -424.7782      -364.3571      -359.4058      -362.8187      -329.5332
      -316.5844      -317.5413      -291.1862      -244.5597      -216.4038
      -232.0596      -214.9935      -130.1154      -129.0240      -137.1797
      -103.7379      -94.82727      -84.48364      -71.56863      -75.17619
      -52.03425      -49.61683      -21.63821       2.822975       4.008186
       30.90651       65.91687       74.20950       100.6208       123.8880
       134.5760       144.9589       173.8771       193.1337       201.3054
       184.8768       204.1486       255.0615       282.9465       283.9568
       315.2349       347.9714       384.4720       403.7869       410.1786
       430.3429       443.3712       436.5159       454.1769       462.3733
       481.7295       502.4370       510.5776       521.2782       545.1140
       533.3237       535.7112       553.2512       557.2289       563.0453
       566.5144       551.2461       541.1304       556.6969       569.8420
       548.5044       553.9502       565.1851       545.3768       554.6904
       551.9065       521.5999       525.6079       507.2520       517.2373
       515.4651       495.9873       509.8425       520.2112       500.0104
       495.5645       502.2192       483.3750       434.3944       456.0216
       461.0415       413.6936       352.9160       376.0291       388.7352
       350.5912       292.8870       268.2189       244.2568       247.1285
       210.8596       161.2903       134.3350       131.6546       103.5719
       79.44981       33.07204       12.01360      -5.813629      -8.662735
      -50.39166      -78.79810      -104.1193      -130.6330      -156.4520
      -169.6059      -222.5009      -228.2478      -231.2496      -269.0502
      -287.0800      -283.0162      -309.5737      -314.5995      -333.3680
      -354.8704      -369.8525      -369.6838      -386.3369      -388.0369
      -392.2085      -373.1470      -357.8340      -354.9922      -368.0022
      -359.0278      -331.7382      -318.4343      -334.0078      -322.9564
      -304.4171      -277.3994      -307.7178      -328.7961      -275.3027
      -253.9255      -280.8925      -257.1797      -258.8494      -254.1646
      -228.6069      -231.4235      -258.7106      -227.7084      -228.2798
      -232.6972      -225.7808      -224.0828      -222.1871      -226.1159
      -238.4835      -258.1831      -254.7585      -241.1508      -262.4753
      -256.8595      -254.2622      -264.9094      -271.0373      -282.7457
      -291.9002      -287.2162      -314.5756      -322.0297      -328.5134
      -345.6565      -362.0602      -355.5936      -374.1171      -378.6780
      -382.8726      -399.1265      -390.3755      -400.6631      -412.2108
      -413.1296      -421.6427      -401.3099      -410.1909      -418.1289
      -402.3276      -390.3647      -388.4597      -403.1428      -397.4010
      -349.3031      -317.1737      -311.0091      -296.7875      -288.9719
      -272.2965      -232.1260      -202.3652      -185.6216      -171.2127
      -137.5211      -121.4343      -106.9804      -92.79431      -64.31293
      -19.51856       1.265793       18.14879       57.10034       89.09052
       108.8048       122.2871       163.3290       231.7917       255.6393
       240.8319       282.5131       351.2826       393.9836       401.7163
       423.2286       464.4580       495.7288       520.4485       538.0919
       553.7972       594.2695       636.0342       672.5784       707.2856
       734.8142       766.3384       799.1650       813.6680       852.0750
       880.0593       897.6174       911.8464       975.8975       1005.144
       974.5457       1024.182       1088.979       1053.132       1064.397
       1092.558       1075.560       1086.133       1130.131       1115.121
       1104.617       1112.035       1110.027       1108.710       1093.139
       1071.190       1062.077       1040.673       1019.638       988.5625
       959.7251       942.9094       939.6438       910.7100       854.7021
       839.0527       831.8203       786.6968       756.2812       723.4741
       663.4766       628.4092       617.3999       588.9062       524.7236
       474.4966       454.6447       399.4398       351.4408       329.7225
       280.6323       237.2352       206.3022       147.7547       92.46794
       24.69264      -49.68741      -98.50580      -151.3622      -201.7440
      -257.0089      -316.8416      -331.6318      -346.5197      -379.9849
      -413.5408      -457.2427      -510.8977      -554.6411      -569.3801
      -606.1245      -655.6118      -682.7676      -694.3037      -713.6616
      -724.9871      -728.3765      -748.0854      -785.6904      -784.5532
      -787.8108      -795.0571      -811.6455      -827.8137      -820.0459
      -816.1140      -797.8218      -791.6125      -824.8726      -809.4043
      -782.5264      -770.4009      -781.4268      -776.6694      -767.6338
      -742.6055      -704.2178      -694.4207      -689.7170      -693.8993
      -678.9072      -655.7322      -646.8547      -619.9792      -598.6616
      -590.3025      -570.8296      -533.3420      -503.3800      -461.3495
      -436.0085      -411.7690      -401.5477      -393.9701      -344.4481
      -342.5913      -343.0032      -310.6907      -307.3698      -283.2846
      -253.2647      -221.6394      -201.5802      -179.5352      -144.6989
      -117.6538      -100.0493      -84.79297      -58.05977      -39.06186
      -48.38090      -40.32156      -23.99474      -26.95307      -10.09634
       14.62469       15.44107       46.00549       56.67120       83.92349
       96.14716       98.57501       114.5138       110.3363       104.1785
       92.44386       82.95859       80.42480       55.94417       22.53876
       3.456140       10.29101      -8.987473      -35.16100      -50.45665
      -62.15985      -91.57520      -125.0951      -142.2990      -167.6492
      -224.0035      -286.4869      -306.7291      -316.8171      -364.2651
      -404.3350      -467.6099      -494.7832      -495.7423      -524.9001
      -577.9500      -608.6624      -622.6182      -659.9517      -689.9619
      -721.5837      -776.0444      -810.7053      -837.3293      -868.4375
      -894.0176      -916.4414      -942.7783      -962.6978      -962.0151
      -981.6489      -1009.969      -994.3416      -1021.720      -1048.172
      -1015.838      -1041.210      -1044.069      -1012.920      -1008.264
      -985.8813      -958.0586      -923.4910      -903.1375      -876.1887
      -844.8643      -814.8933      -791.1602      -739.0098      -692.7972
      -660.0576      -596.3757      -518.5371      -465.8845      -413.5830
      -360.2272      -278.9903      -186.6676      -125.9884      -72.81549
       21.57996       99.17792       156.5174       250.6176       339.7582
       393.0325       467.0173       537.6932       581.6661       639.4961
       710.7537       756.7490       813.9722       875.0850       931.1953
       981.0522       1028.785       1074.719       1105.649       1128.538
       1171.137       1202.844       1225.654       1258.756       1289.086
       1315.527       1338.732       1368.222       1379.857       1357.590
       1390.049       1403.689       1371.208       1396.675       1405.666
       1382.233       1396.643       1403.000       1411.332       1407.400
       1399.033       1408.542       1396.479       1391.073       1396.021
       1378.721       1361.625       1348.573       1317.310       1297.772
       1275.716       1247.399       1236.258       1226.007       1197.144
       1178.927       1162.645       1147.152       1113.410       1082.402
       1058.998       1032.004       1008.884       983.2617       951.7532
       913.0205       879.9697       876.4553       875.1226       848.3342
       806.5642       815.5002       797.7280       760.9124       725.4419
       698.8230       671.3430       655.4993       624.9070       579.9817
       554.4073       538.5485       511.9517       484.6289       426.8037
       398.6602       383.6707       348.2484       314.7495       309.4319
       277.6615       246.5090       220.6846       196.4187       160.3184
       130.1393       97.46225       67.79099       43.88157       28.72699
       4.949749       5.795332       12.70078      -2.142776      -23.12919
      -21.03174      -24.99564      -39.84489      -70.81549      -82.55530
      -90.54517      -111.3702      -105.3201      -76.97202      -68.29044
      -77.31512      -77.21544      -75.41586      -90.92007      -108.8317
      -127.3679      -135.5865      -138.1992      -147.7828      -129.6735
      -105.6159      -104.6270      -96.05646      -85.45108      -105.1650
      -125.7329      -144.7717      -167.5210      -184.6854      -201.2913
      -223.0969      -272.2654      -286.0791      -248.5190      -287.9166
      -344.3503      -350.0784      -372.6848      -403.2185      -436.8717
      -452.0483      -496.0104      -548.5962      -554.8208      -567.4656
      -613.1128      -651.3154      -683.6709      -694.6489      -721.6467
      -762.9377      -812.1089      -871.4194      -912.3086      -924.2834
      -956.4985      -985.5410      -1033.147      -1076.352      -1083.945
      -1113.752      -1166.354      -1190.641      -1200.015      -1243.386
      -1296.568      -1318.046      -1368.354      -1419.163      -1418.191
      -1434.957      -1477.072      -1496.326      -1489.566      -1510.135
      -1534.561      -1549.140      -1573.500      -1588.690      -1597.094
      -1618.398      -1640.762      -1623.911      -1642.878      -1651.859
      -1643.121      -1672.359      -1657.838      -1650.861      -1652.882
      -1636.722      -1625.697      -1605.366      -1599.625      -1556.456
      -1501.348      -1487.008      -1464.854      -1427.901      -1404.018
      -1382.598      -1359.113      -1327.835      -1264.194      -1215.915
      -1200.719      -1149.242      -1090.008      -1035.389      -979.2578
      -935.1685      -893.3699      -859.4932      -807.5381      -763.0137
      -743.5740      -695.7043      -658.3623      -600.0056      -550.2393
      -531.2335      -502.8348      -462.1248      -438.0446      -399.8828
      -374.7277      -348.3235      -292.6425      -250.1940      -211.4896
      -183.9985      -129.3685      -57.14983      -60.14111       15.59169
       75.54254       55.64941       98.01093       131.0249       139.4746
       167.9418       206.2202       257.3933       282.3021       324.9841
       366.1187       384.1206       401.9534       433.9854       447.8312
       467.5723       495.2961       482.2671       450.3146       547.1556
       571.7239       488.5137       569.6409       626.8892       580.7039
       610.9517       635.0569       647.0942       667.9944       722.3438
       749.7087       725.4824       741.0291       790.5308       783.4631
       801.8718       821.1611       795.1702       820.9402       857.7446
       787.6206       843.2720       987.1333       913.6279       889.2510
       1008.191       1006.646       996.3396       1025.156       1059.368
       1085.295       1121.891       1161.454       1175.913       1189.161
       1227.798       1263.923       1299.537       1341.733       1363.897
       1402.977       1460.517       1480.265       1510.329       1564.037
       1609.642       1603.099       1624.382       1714.285       1755.975
       1744.311       1786.452       1820.172       1829.805       1862.185
       1914.473       1920.894       1895.721       1903.145       1928.569
       1925.936       1924.886       1910.645       1903.729       1938.320
       1912.282       1844.832       1888.925       1877.366       1797.642
       1810.725       1796.732       1754.275       1720.735       1676.164
       1647.211       1600.758       1561.924       1511.889       1435.950
       1391.145       1346.090       1262.256       1208.854       1159.303
       1079.360       1019.531       976.0198       917.1914       840.2935
       798.2285       755.2517       677.2313       627.0331       580.2621
       564.9080       498.6033       410.8854       387.6787       330.7491
       263.8931       209.2289       167.4615       123.8344       54.43409
       3.669245       3.952667      -36.68518      -109.7260      -154.5675
      -187.9771      -235.8492      -314.1240      -344.5022      -364.9468
      -468.3201      -498.6421      -520.1973      -587.9851      -624.3599
      -674.7698      -755.2754      -806.7610      -849.0642      -923.5613
      -962.3740      -987.0923      -1044.997      -1098.880      -1136.663
      -1182.135      -1256.349      -1315.822      -1353.718      -1412.844
      -1496.556      -1511.440      -1544.850      -1608.351      -1622.916
      -1642.431      -1676.068      -1705.438      -1755.055      -1781.053
      -1803.683      -1836.650      -1872.810      -1875.182      -1890.865
      -1916.266      -1931.881      -1932.970      -1939.814      -1920.700
      -1881.184      -1880.300      -1890.137      -1875.860      -1885.977
      -1865.125      -1850.753      -1848.416      -1815.714      -1777.446
      -1744.078      -1703.090      -1674.418      -1642.727      -1612.228
      -1577.045      -1549.230      -1527.545      -1495.311      -1438.083
      -1396.681      -1372.574      -1350.850      -1300.560      -1261.962
      -1251.560      -1205.247      -1151.135      -1133.764      -1066.223
      -1006.502      -1003.812      -964.8940      -907.1550      -889.9661
      -877.0583      -871.5952      -856.0010      -820.9744      -797.0757
      -791.4312      -774.9141      -762.2424      -736.2168      -720.4355
      -691.4249      -672.6589      -653.9287      -631.8647      -591.0953
      -566.4221      -574.4114      -562.2346      -516.9320      -507.6257
      -491.8744      -469.5885      -438.1855      -409.1566      -397.8988
      -378.0171      -352.0850      -333.4750      -292.9477      -261.1759
      -227.9330      -183.3632      -156.5306      -130.0247      -81.58898
      -49.99183       4.440338       60.92584       112.4299       141.3337
       177.6176       221.9661       267.0260       312.9546       349.6289
       375.5413       414.8801       455.4282       525.6271       575.4124
       599.2395       642.4634       699.8867       716.5234       749.1809
       803.7402       845.6504       876.3252       907.3384       936.3896
       970.0889       1004.712       1052.122       1091.894       1132.964
       1161.370       1189.175       1234.347       1257.450       1259.214
       1280.243       1308.463       1316.365       1325.853       1330.113
       1322.740       1346.554       1373.117       1379.151       1384.514
       1388.633       1390.408       1398.428       1409.703       1390.808
       1382.771       1387.892       1381.547       1375.198       1355.018
       1310.922       1298.498       1319.079       1293.918       1265.724
       1265.101       1252.752       1235.461       1213.553       1196.364
       1184.149       1154.303       1100.343       1055.580       1047.261
       1033.718       1009.796       987.8423       970.3503       950.1028
       931.8960       907.6938       866.8445       846.1604       858.8235
       821.5161       788.8076       821.6885       799.8237       759.3037
       778.7290       770.7756       741.6611       754.5701       733.0566
       705.9355       698.5911       677.9331       667.3191       659.4092
       622.4512       602.5259       583.8239       583.7393       572.0608
       568.6146       564.1390       540.5879       516.4884       514.4124
       523.0503       501.6571       482.4221       490.3540       441.1366
       403.1599       389.9398       371.6793       349.0753       333.1586
       290.7627       271.2993       272.0834       255.8792       221.1761
       191.6547       156.6506       121.2336       106.8491       105.0350
       92.67841       85.35947       69.52890       57.01262       47.30340
       21.25935      -7.626227       9.992142      -8.572662      -59.39563
      -88.34619      -103.1946      -125.3500      -132.7845      -149.4707
      -157.1721      -150.0928      -146.6523      -165.4384      -179.4331
      -194.9463      -214.9267      -232.7656      -242.8133      -273.9517
      -297.9122      -326.4976      -341.0149      -345.2854      -359.2878
      -384.9243      -386.6974      -385.9630      -402.5172      -421.2377
      -421.1169      -432.7260      -428.3920      -445.2373      -486.7844
      -489.8102      -470.6100      -495.6969      -513.5354      -542.1172
      -559.7415      -570.3682      -592.9971      -615.4624      -620.1536
      -622.8273      -649.2285      -684.2900      -693.9150      -709.5010
      -750.9556      -788.6631      -779.6895      -790.9434      -836.8643
      -863.4009      -885.3169      -887.5535      -894.9346      -954.6577
      -985.5386      -984.6724      -1016.330      -1039.058      -1064.400
      -1092.711      -1114.130      -1149.849      -1163.522      -1186.072
