     0.02499999      -3533.058       2837.572      -12345.00      -12345.00
      -30.00015       219.3497      -21.50000      -12345.00      -12345.00
       0.000000       16.18000      -12345.00      -12345.00      -12345.00
      -12345.00      -12345.00      -12345.00      -12345.00      -12345.00
      -12345.00      -12345.00      -12345.00      -12345.00      -12345.00
      -12345.00      -12345.00      -12345.00      -12345.00      -12345.00
      -12345.00      -30.40760      -69.24540       1968.000       0.000000
      -31.06700      -68.46300       0.000000       100400.0       0.000000
      -12345.00      -12345.00      -12345.00      -12345.00      -12345.00
      -12345.00      -12345.00      -12345.00      -12345.00      -12345.00
       104.6813       314.0949       134.4928      0.9411824      -12345.00
      -12345.00     -0.3310193       90.00000       90.00000      -12345.00
      -12345.00      -12345.00      -12345.00      -12345.00      -12345.00
      -12345.00      -12345.00      -12345.00      -12345.00      -12345.00
      2008       164        19         3        59
       300         6    -12345    -12345      9975
    -12345    -12345    -12345    -12345    -12345
         1         7        13    -12345    -12345
    -12345    -12345    -12345    -12345    -12345
    -12345    -12345    -12345    -12345    -12345
    -12345    -12345    -12345    -12345    -12345
         1         1         1         1         1
ARRO    -12345          
        -12345  -12345  
-12345  -12345  -12345  
-12345  -12345  -12345  
-12345  -12345  -12345  
-12345  -12345  -12345  
-12345  -12345  BHE     
ZL      -12345  -12345  
[...]
       444.3409       450.6071       477.5100       480.1135       470.9768
       530.8447       561.7159       594.8892       597.1338       607.5393
       634.0635       677.9507       714.0210       745.3372       762.4155
       799.1379       810.1675       852.0295       895.5903       896.9109
       901.0530       929.2803       938.4426       962.7554       960.9919
       945.8562       940.8494       952.0254       968.1648       997.6147
       1026.460       1044.679       1022.316       1017.936       1023.844
       980.7729       925.6006       920.8816       895.0049       847.6611
       827.9810       844.0459       820.2710       795.5427       791.5884
       761.0432       754.4470       758.0527       720.7263       704.7908
       688.7959       668.9648       650.4911       623.8967       573.1472
       531.7780       506.2474       497.2416       468.7727       487.6259
       510.8778       490.3726       474.5021       481.0963       459.2498
       434.6042       397.4218       382.3196       369.5826       332.1028
       306.4561       343.3400       329.3792       272.0538       259.5367
       261.5532       218.0497       177.5190       155.0456       143.3537
       104.8425       85.53734       78.83336       46.29200      -2.195541
      -9.896942      -25.36682      -73.81741      -96.66504      -110.7789
      -134.1953      -101.2836      -82.35260      -113.3918      -126.8736
      -139.6424      -218.0046      -283.2211      -295.4163      -337.7529
      -397.1564      -408.0724      -410.5359      -437.9985      -448.1760
      -438.2889      -457.1029      -494.5566      -520.2646      -523.1538
      -563.7427      -609.5869      -617.6459      -632.1122      -666.5908
      -658.2706      -644.6245      -662.9868      -701.6245      -725.6648
      -717.7925      -713.6436      -740.1284      -759.3232      -771.2363
      -766.1882      -774.9797      -789.5010      -806.2419      -819.2344
      -802.0874      -767.2898      -780.8914      -780.0327      -773.1855
      -792.1506      -801.0376      -792.1465      -813.5583      -806.9194
      -772.1685      -767.6787      -762.5674      -712.4482      -672.7126
      -649.6387      -626.9900      -593.4768      -604.1381      -599.5232
      -585.5631      -596.4143      -619.1875      -596.3622      -563.6155
      -556.9467      -582.4919      -558.1265      -513.4260      -513.7747
      -532.7928      -506.2827      -468.1754      -440.8058      -419.3896
      -402.0729      -397.3553      -386.2018      -377.5870      -351.3925
      -316.2966      -231.0368      -107.2056      -139.5221      -255.9997
      -133.5117      -35.96906      -136.1082      -67.19775       109.1839
     -0.2600708      -186.7572      -140.4292       102.4112       359.5842
       253.8182       212.4572       340.3995       131.8455       98.66467
       227.4827       559.1138       719.6616       338.3533       56.79858
       433.5740       953.1992       460.9651       409.9612       1016.506
       666.9268       194.4692       445.0356       1202.177       1395.689
       596.2451       447.3228       925.4608       601.1709       492.7595
       917.9121       898.4601       713.3839       543.6521       359.2141
       520.6938       771.3867       844.4614       736.9492       551.6821
       635.2283       659.1360       455.2947       475.1235       724.7246
       660.3257       556.3879       655.6740       501.8136       342.6522
       559.5396       636.7263       671.2065       846.1985       659.5214
       540.2688       419.0088       527.8976       649.7900       340.8553
       389.1631       793.6125       719.6998       175.4912       171.0385
       454.5541       640.1440       477.9092       221.1902       590.2136
       673.5059       268.4115       73.36261       277.8081       375.3467
       356.0591       610.1363       354.9740      -128.8257       277.6636
       360.3386      -167.8204       192.3652       769.0479       560.5863
      -40.06421      -233.8817       7.329834       219.6541       389.0310
       140.1093      -136.7903       76.20535       144.0031      -111.8443
      -109.6056       88.15317      -77.53299      -175.5835      -88.52771
      -272.0011      -163.4804       113.1827      -246.7685      -428.1162
      -50.59615       94.54919      -148.5101      -408.4304      -456.8947
      -353.4685      -133.0652      -100.8966      -114.9242      -123.9954
      -457.7852      -463.4991      -284.8656      -388.0548      -358.4417
      -322.7031      -438.4238      -538.3997      -537.6875      -500.6809
      -642.5208      -701.6519      -779.7568      -910.0637      -790.6698
      -659.4681      -526.2812      -501.6995      -882.3035      -1059.104
      -837.8115      -854.3391      -935.4788      -1053.002      -1099.264
      -866.8179      -717.0637      -649.8774      -847.0898      -1143.547
      -1109.747      -951.8958      -1121.455      -1261.578      -996.4299
      -756.3696      -765.0027      -991.8198      -1127.715      -1125.043
      -990.0176      -801.0854      -831.2039      -940.8398      -869.8706
      -648.9509      -811.6272      -909.1174      -610.8903      -593.7747
      -785.0625      -780.8333      -770.0344      -717.8386      -632.2935
      -756.6294      -888.6373      -531.4138      -184.5591      -681.8926
      -888.6637      -397.3533      -427.3909      -747.5681      -736.8716
      -399.5581      -424.7017      -696.1589      -618.3939      -447.5029
      -390.1959      -354.7911      -329.7166      -278.0713      -320.2917
      -373.0060      -290.1759      -399.7070      -499.9588      -196.2168
      -129.2634      -289.9810      -205.5098      -164.8870      -249.0896
      -76.62170       95.76331       110.7022       52.89319       95.55164
       126.0765       9.861938       65.99786       230.1189       153.0329
       28.89038       218.0748       517.4148       482.6626       438.2535
       524.0219       462.6841       451.2551       710.9288       694.8701
       481.2529       667.8225       832.4019       724.9138       689.7480
       779.9497       968.2900       925.0051       840.6648       1143.914
       1205.025       1001.218       1161.762       1271.586       1190.298
       1214.419       1307.498       1356.078       1280.190       1190.781
       1279.109       1513.333       1523.600       1372.035       1357.714
       1231.639       1125.112       1332.279       1459.810       1370.152
       1314.762       1542.946       1670.888       1365.672       1306.024
       1459.893       1197.430       1140.769       1466.603       1443.822
       1223.705       1228.187       1175.881       977.5825       1131.392
       1397.667       1381.111       1322.643       1217.821       1003.930
       1088.843       1370.773       1282.022       1166.392       997.1160
       761.0269       1003.538       1065.356       778.1016       841.7678
       939.9172       739.7344       694.9191       710.2484       517.2881
       379.7717       578.0657       728.2323       500.3566       365.8582
       414.0111       489.5314       400.8075       242.5808       232.2529
       297.9915       243.2180       6.876953      -150.4901      -225.3704
      -252.7271      -202.8807      -139.6699      -177.4030      -281.5203
      -250.5933      -143.4763      -299.8658      -408.7002      -218.5391
      -409.1528      -767.8291      -634.3687      -550.6782      -723.3398
      -755.4189      -809.8345      -721.8269      -641.3750      -795.4766
      -734.5820      -738.5103      -907.7461      -963.1626      -1013.346
      -1053.387      -1083.477      -962.2451      -1034.465      -1221.662
      -1107.551      -1159.634      -1228.256      -1120.589      -1107.443
      -1164.044      -1246.234      -1176.481      -1201.750      -1472.364
      -1497.672      -1282.311      -1391.936      -1614.310      -1395.434
      -1267.768      -1398.580      -1396.755      -1385.186      -1352.925
      -1376.700      -1395.109      -1380.044      -1425.102      -1375.367
      -1260.731      -1332.206      -1519.546      -1552.266      -1427.681
      -1440.898      -1479.245      -1300.902      -1287.215      -1473.102
      -1306.936      -1088.676      -1158.846      -1322.017      -1508.822
      -1270.584      -985.3562      -1209.543      -1210.825      -1040.902
      -1025.593      -975.6440      -979.1294      -969.8953      -929.4058
      -881.8398      -626.6372      -486.5703      -622.5508      -541.7156
      -306.6918      -344.5098      -383.3310      -219.6412      -146.4180
      -200.7570      -234.0409      -91.13641       127.7244       155.5568
       176.4695       341.3508       392.9211       332.3654       557.7832
       740.1479       716.0071       903.5935       1098.931       1124.436
       1126.027       1039.531       979.6472       1115.565       1292.984
       1323.511       1337.177       1319.059       1415.972       1610.184
       1575.937       1534.969       1566.213       1498.995       1703.940
       1852.763       1585.550       1511.079       1716.699       1560.485
       1378.649       1524.031       1617.014       1433.002       1342.678
       1519.932       1498.455       1414.524       1485.237       1415.559
       1340.488       1405.961       1409.265       1240.788       1212.208
       1092.469       971.0474       1121.681       1065.800       878.5698
       1016.122       972.7561       665.3555       568.1370       626.1104
       598.2118       394.5825       414.9769       612.9589       393.0295
       64.41583       123.3635       70.52544      -134.8979       82.50471
       79.81274      -320.5120      -471.0903      -365.5837      -456.7659
      -730.7727      -804.2341      -594.3384      -614.1399      -930.6035
      -770.8772      -606.6289      -869.3286      -882.1611      -830.6570
      -852.6924      -984.0925      -1025.432      -932.0769      -1024.550
      -966.3044      -776.3015      -827.9404      -964.2324      -986.1428
      -921.8552      -880.0764      -925.7668      -1038.120      -1026.993
      -1002.319      -1158.903      -1204.465      -1170.247      -1152.870
      -1001.202      -1067.850      -1139.300      -964.7004      -859.3330
      -945.2622      -1088.951      -976.0000      -874.9507      -1054.277
      -993.9846      -929.1941      -1027.535      -875.2644      -878.0642
      -980.0513      -817.3398      -767.2671      -989.7180      -964.3516
      -818.6138      -872.4819      -744.4050      -640.9834      -721.2305
      -777.1432      -678.9993      -415.9275      -392.7861      -548.8114
      -494.2281      -327.7318      -328.8822      -353.0613      -236.5387
      -230.5334      -267.3199      -139.6958      -39.21806       12.73077
      -57.10266      -196.2137       7.728821       284.8628       145.9172
      -48.70776       52.70905       163.7538       197.2844       213.3027
       311.3987       358.3752       372.4526       653.3020       739.4978
       677.2954       732.3428       684.1738       770.0461       938.4587
       789.6309       720.2639       932.3804       1009.886       940.4377
       936.1069       1183.121       1504.907       1480.393       1153.902
       1135.564       1457.805       1604.691       1473.449       1422.420
       1417.852       1265.780       1289.512       1504.517       1500.433
       1312.570       1390.076       1570.647       1529.744       1521.546
       1533.246       1380.392       1280.854       1290.330       1399.132
       1512.906       1405.404       1241.760       1258.005       1388.048
       1402.476       1202.213       1137.118       1270.178       1344.572
       1297.444       1192.102       1011.894       986.6265       985.0649
       932.5405       858.0907       632.9268       763.7817       1008.145
       756.5823       508.3938       649.0129       868.5710       622.7286
       200.9725       372.5847       503.8315       137.7479       251.3959
       383.3573       178.2778       158.6432       71.71395      -40.55864
       20.03900       108.6353       99.21567      -99.84161      -202.0806
      -217.6531      -421.7972      -329.6760      -266.9185      -612.1006
      -558.1758      -407.2800      -666.8975      -742.2340      -585.7314
      -816.4119      -1145.467      -957.0381      -772.9551      -1200.976
      -1601.923      -1573.147      -1468.838      -1507.620      -1889.563
      -2445.211      -2280.545      -1346.870      -951.7710      -1285.050
      -1255.054      -342.5336       79.92871      -1377.297      -2977.732
      -2643.962      -1083.307       115.2646      -306.7058      -1602.945
      -890.7689       883.4136      -361.6152      -3533.058      -3424.685
      -1037.355      -1362.006      -2780.500      -1457.654       575.5630
      -149.3564      -2352.887      -3007.819      -1792.033      -369.0635
      -77.10596      -1188.034      -2359.352      -1967.093      -654.9807
      -352.9102      -1290.378      -2230.028      -2288.225      -1350.653
      -592.2537      -934.7400      -1388.533      -860.4062      -4.607895
       71.56238      -291.7415      -494.7097      -948.3477      -1557.853
      -1161.049      -51.12238       304.8428      -21.12982      -156.6067
      -650.0132      -1475.363      -1486.279      -693.0148       198.5755
       198.3441      -388.6513       80.21887       721.5244       124.1488
      -341.7107      -466.9888      -1087.887      -321.8071       1117.301
       99.14459      -691.4956       949.1001       1168.888      -101.1042
       247.1733       1345.818       1561.912       758.6412      -58.99896
       39.41699       657.3037       1237.067       830.8850      -275.3798
      -24.44141       1245.078       1541.069       1148.354       926.1907
       883.8271       1407.121       1805.706       1242.272       886.1777
       1482.591       1830.147       1744.339       1910.091       1701.981
       1061.114       1020.545       1456.196       1542.403       1044.183
       544.8296       767.4053       1550.415       1804.735       1038.697
       497.5159       1205.103       1383.165       364.0708       435.6841
       1460.216       2024.318       2175.629       1892.241       1706.847
       1651.572       1479.910       1215.992       927.5193       1192.443
       1604.218       1699.025       1450.272       1029.767       803.7202
       819.6536       1132.322       1279.869       684.9927       28.20911
       591.0029       865.7710       395.6250       920.0002       1156.096
       483.7173       698.3105       1146.680       434.8341       34.09912
       395.8794       446.9009       621.3961       747.9612       281.3026
       128.6082       340.4048      -116.7602      -262.6104       342.1799
       306.1794       16.66425       105.6204       144.3988       175.3695
       61.94183      -128.8377      -167.9090      -202.9990      -252.5010
      -205.4377      -86.04016      -336.1055      -957.7146      -1116.689
      -1199.136      -1043.274      -526.4556      -945.2937      -1361.214
      -732.3247      -463.8787      -831.2158      -656.9980      -479.5952
      -1423.804      -1832.380      -917.5356      -734.1709      -1538.672
      -1449.840      -872.4524      -1153.852      -1647.707      -2093.885
      -2415.486      -1557.325      -642.3477      -1399.729      -1880.882
      -1204.593      -1721.135      -2532.303      -1781.140      -924.7969
      -1272.085      -1695.894      -1373.677      -1171.564      -1180.729
      -1116.717      -1592.283      -1847.975      -1281.098      -1129.762
      -1689.150      -1605.740      -955.5042      -907.0371      -1161.010
      -869.5674      -500.5630      -833.4597      -1077.188      -494.5276
      -796.9229      -1571.826      -626.7855       267.6383      -412.8257
      -842.9362      -604.7074      -501.8416      -544.6118      -656.3464
      -969.4531      -1362.978      -1070.452      -159.8945      -60.28931
      -427.8026      -536.4904      -360.7511      -128.4591      -175.0006
       212.3652       611.0505      -199.2386      -572.5553       434.1337
       830.5365       93.84473      -375.6527      -62.47552       178.6281
      -214.2743      -217.2227       550.3340       1125.363       1079.943
       899.3718       684.5835       667.7891       1128.764       1591.493
       1567.333       1190.898       981.8301       1350.461       1772.350
       1380.510       778.5967       1291.841       2143.552       1881.948
       1220.610       1228.337       1571.792       1665.984       1371.341
       1311.601       1655.539       1491.745       1313.000       1611.006
       1627.956       1594.746       1792.490       1796.878       1423.719
       1224.067       1462.113       1771.124       1840.501       1440.398
       691.2612       610.4385       1513.393       1730.111       947.6865
       963.1602       1514.524       1408.702       1072.770       842.3516
       879.9595       1218.324       1007.926       467.4092       482.1177
       902.1504       1075.392       618.3892       173.6372       492.1357
       819.3666       575.2734       455.6494       616.1873       622.6425
       578.0052       309.2196      -7.552734       250.3873       532.1273
       81.20157      -46.99345       20.12915      -268.7048      -154.6204
      -183.4420      -621.2684      -367.8301       80.27295      -369.3042
      -801.3197      -666.8338      -393.4187      -175.5117      -589.0266
      -814.9241      -174.0357      -19.55884      -588.3057      -867.6689
      -913.2290      -1304.709      -1569.857      -1003.555      -790.2197
      -1319.347      -913.1812      -418.6616      -1008.947      -1145.353
      -791.2458      -858.3772      -1172.566      -1541.516      -1605.381
      -1330.094      -1366.277      -1738.919      -1847.146      -1440.031
      -835.0044      -871.3125      -1652.934      -1834.722      -999.5430
      -778.1284      -1337.711      -1043.391      -253.1714      -538.3660
      -1320.701      -1204.029      -805.5923      -889.5029      -825.6794
      -398.7817      -460.2603      -919.0466      -991.8337      -726.0011
