     0.02499999      -4351.656       3760.054      -12345.00      -12345.00
      -30.00012       219.3497      -21.50000      -12345.00      -12345.00
       0.000000       16.18000      -12345.00      -12345.00      -12345.00
      -12345.00      -12345.00      -12345.00      -12345.00      -12345.00
      -12345.00      -12345.00      -12345.00      -12345.00      -12345.00
      -12345.00      -12345.00      -12345.00      -12345.00      -12345.00
      -12345.00      -30.40760      -69.24540       1968.000       0.000000
      -31.06700      -68.46300       0.000000       100400.0       0.000000
      -12345.00      -12345.00      -12345.00      -12345.00      -12345.00
      -12345.00      -12345.00      -12345.00      -12345.00      -12345.00
       104.6813       314.0949       134.4928      0.9411824      -12345.00
      -12345.00     -0.3521052       0.000000       90.00000      -12345.00
      -12345.00      -12345.00      -12345.00      -12345.00      -12345.00
      -12345.00      -12345.00      -12345.00      -12345.00      -12345.00
      2008       164        19         3        59
       300         6    -12345    -12345      9975
    -12345    -12345    -12345    -12345    -12345
         1         7        13    -12345    -12345
    -12345    -12345    -12345    -12345    -12345
    -12345    -12345    -12345    -12345    -12345
    -12345    -12345    -12345    -12345    -12345
         1         1         1         1         1
ARRO    -12345          
        -12345  -12345  
-12345  -12345  -12345  
-12345  -12345  -12345  
-12345  -12345  -12345  
-12345  -12345  -12345  
-12345  -12345  BHN     
ZL      -12345  -12345  
[...]
      -254.5574      -218.9039      -228.7112      -228.7063      -246.8521
      -252.6702      -242.4554      -241.6383      -257.2980      -283.8441
      -295.5784      -269.5574      -226.3301      -260.7390      -324.2020
      -315.5653      -287.2391      -306.3510      -321.3258      -332.5670
      -352.6049      -356.0808      -380.2141      -422.7256      -435.7598
      -476.3414      -469.8484      -476.6786      -571.5054      -625.1077
      -631.3154      -663.7603      -685.0562      -719.3364      -774.5994
      -783.2451      -781.0842      -805.3557      -839.9285      -868.9961
      -907.7722      -972.8916      -1026.639      -1084.415      -1146.492
      -1181.882      -1216.231      -1253.966      -1284.979      -1347.480
      -1416.870      -1471.646      -1515.586      -1549.443      -1580.717
      -1616.308      -1631.198      -1612.068      -1681.224      -1805.291
      -1828.178      -1833.793      -1876.268      -1933.242      -1952.055
      -1957.980      -1988.900      -2007.804      -2008.046      -2003.881
      -2041.167      -2096.819      -2092.478      -2075.908      -2095.516
      -2106.317      -2138.732      -2130.077      -2098.050      -2122.573
      -2101.500      -1999.125      -1946.515      -2001.821      -2073.970
      -1968.487      -1879.881      -1866.922      -1888.832      -1963.000
      -1887.187      -1783.186      -1752.469      -1766.057      -1779.426
      -1688.750      -1583.806      -1547.382      -1517.168      -1465.768
      -1398.986      -1349.126      -1348.763      -1333.335      -1232.356
      -1148.377      -1118.860      -1072.716      -986.5281      -878.7354
      -775.0981      -673.7891      -589.9760      -466.3876      -385.7220
      -295.8811      -217.5372      -136.6976       3.107117       93.56073
       199.5908       325.4061       396.7239       463.9878       628.1731
       745.1829       772.3811       914.7168       1036.332       1109.315
       1197.123       1336.120       1505.948       1602.741       1642.834
       1747.775       1893.637       1987.512       2028.401       2102.753
       2238.066       2389.624       2439.890       2446.371       2590.486
       2786.229       2837.251       2816.380       2885.287       2998.826
       3033.317       3020.828       3107.500       3260.990       3269.527
       3247.471       3373.857       3459.035       3412.844       3456.941
       3567.042       3592.136       3645.556       3601.857       3592.484
       3695.752       3667.883       3657.629       3705.969       3734.091
       3740.159       3714.986       3751.984       3760.054       3729.697
       3714.240       3700.367       3670.855       3631.541       3596.004
       3561.972       3514.426       3485.712       3466.154       3497.988
       3485.880       3369.249       3331.883       3301.346       3231.598
       3217.551       3129.565       3111.775       3081.264       3058.595
       3031.346       2884.774       2876.341       2900.654       2792.248
       2722.621       2665.226       2611.696       2524.351       2455.822
       2392.027       2289.742       2206.208       2175.810       2153.645
       2096.188       1977.646       1886.061       1853.444       1854.342
       1710.248       1605.754       1594.938       1477.442       1418.708
       1362.055       1216.195       1163.556       1064.567       992.2803
       930.1084       838.9497       809.7773       732.6285       608.4202
       514.2896       418.7399       321.6296       193.5901       77.32036
       59.00864       42.20612      -86.64343      -173.1418      -223.8813
      -262.0996      -392.8513      -655.0825      -634.1001      -594.5017
      -818.1836      -915.1616      -966.9556      -1046.239      -1113.366
      -1232.431      -1311.780      -1421.503      -1527.178      -1572.826
      -1666.634      -1756.308      -1832.007      -1917.826      -2021.822
      -2106.042      -2164.190      -2251.142      -2345.210      -2452.863
      -2530.918      -2581.482      -2692.627      -2759.900      -2801.588
      -2869.116      -2964.470      -3103.383      -3125.640      -3063.394
      -3136.457      -3292.789      -3354.992      -3294.118      -3325.170
      -3453.371      -3545.055      -3573.508      -3606.541      -3624.601
      -3662.861      -3710.717      -3710.822      -3684.915      -3706.135
      -3724.671      -3719.605      -3743.270      -3759.274      -3747.522
      -3756.210      -3767.201      -3763.838      -3732.757      -3737.698
      -3764.761      -3734.931      -3679.149      -3651.605      -3609.445
      -3612.129      -3609.670      -3518.904      -3501.432      -3506.003
      -3467.501      -3474.400      -3417.701      -3424.219      -3418.384
      -3276.084      -3176.896      -3172.701      -3159.588      -3111.910
      -3051.041      -3083.358      -3122.222      -3012.863      -2923.546
      -2906.104      -2852.396      -2822.841      -2749.234      -2677.362
      -2634.316      -2579.167      -2510.559      -2440.429      -2350.457
      -2353.810      -2380.053      -2274.029      -2151.561      -2099.201
      -2057.632      -1992.430      -1856.679      -1831.368      -1808.069
      -1641.976      -1558.988      -1554.271      -1444.235      -1327.647
      -1237.289      -1137.009      -1045.025      -949.6045      -863.6848
      -777.1005      -660.3486      -588.1382      -501.4749      -373.8903
      -289.2944      -194.0488      -94.88414      -32.42749       53.45630
       97.98560       171.2288       291.2427       407.5952       522.3594
       583.3638       638.1455       738.7161       838.8757       921.4539
       985.3442       1079.287       1161.084       1231.364       1310.064
       1402.191       1486.248       1544.044       1594.021       1674.620
       1788.682       1939.430       2007.444       2044.425       2134.427
       2238.772       2310.230       2366.057       2399.643       2451.456
       2508.231       2569.460       2642.852       2736.057       2806.527
       2857.170       2896.347       2945.278       3019.721       3142.054
       3216.861       3231.077       3265.401       3344.507       3382.844
       3364.059       3385.284       3432.942       3430.406       3441.267
       3464.117       3485.967       3500.460       3510.062       3503.922
       3476.439       3428.195       3395.176       3385.139       3392.938
       3364.044       3355.329       3322.994       3235.243       3166.784
       3124.407       3049.019       2992.104       2925.419       2887.958
       2858.563       2818.320       2764.605       2713.251       2673.315
       2617.348       2532.191       2483.263       2419.081       2358.042
       2328.915       2300.031       2213.497       2119.472       2079.299
       2041.123       1931.305       1863.140       1888.633       1876.616
       1791.648       1716.628       1641.968       1630.981       1593.991
       1513.555       1433.530       1341.846       1285.654       1260.297
       1192.150       1119.894       1091.120       1102.749       1052.935
       1000.747       975.3057       945.8267       903.1572       861.6997
       827.2983       807.7456       772.8289       804.4868       767.6666
       667.4388       664.6655       685.5079       645.4158       622.4182
       602.5060       594.5439       555.6819       525.1510       522.4315
       506.2371       464.6779       443.4805       397.2388       352.3425
       315.2795       320.6316       307.5931       271.0490       230.7496
       190.9257       146.6600       144.8502       133.3062       76.81924
      -8.402237      -65.62016      -79.76373      -81.13184      -155.4560
      -248.6288      -254.1832      -207.3599      -263.6984      -367.9514
      -425.0909      -410.6046      -419.2803      -489.5662      -550.1517
      -585.3477      -630.0083      -681.4731      -739.5444      -780.7722
      -811.2815      -838.7661      -877.3386      -919.9602      -948.5073
      -927.4382      -938.5159      -999.3416      -1069.336      -1105.831
      -1116.484      -1172.313      -1270.260      -1316.204      -1341.168
      -1364.781      -1436.337      -1528.102      -1562.617      -1546.955
      -1591.002      -1642.927      -1657.975      -1675.580      -1752.596
      -1860.864      -1943.921      -1920.588      -1898.667      -1978.831
      -2072.829      -2116.178      -2124.765      -2175.758      -2263.431
      -2273.595      -2254.702      -2295.026      -2340.543      -2373.577
      -2396.451      -2408.082      -2460.010      -2532.611      -2569.141
      -2576.969      -2582.474      -2599.536      -2610.985      -2633.974
      -2630.651      -2593.167      -2590.909      -2602.673      -2593.354
      -2588.197      -2560.650      -2589.954      -2631.037      -2592.582
      -2565.643      -2583.928      -2572.036      -2545.618      -2486.782
      -2449.503      -2416.549      -2360.674      -2325.869      -2300.390
      -2281.266      -2262.979      -2249.867      -2250.302      -2249.668
      -2194.385      -2093.930      -2066.173      -2066.044      -2032.923
      -1989.526      -1917.967      -1877.085      -1860.647      -1838.810
      -1811.061      -1739.279      -1693.594      -1724.062      -1724.182
      -1667.387      -1597.410      -1548.266      -1538.533      -1514.687
      -1451.907      -1357.982      -1301.879      -1278.608      -1217.775
      -1166.997      -1120.166      -1046.727      -1005.807      -1019.804
      -993.2244      -861.1606      -741.2144      -729.8206      -707.9893
      -616.2004      -510.7714      -455.1853      -441.2880      -417.9199
      -354.2855      -274.4590      -198.2466      -157.6432      -139.1722
      -109.0609      -37.52206       25.39789       61.08661       114.3755
       174.2656       215.2237       249.6205       256.7236       296.2245
       366.8611       450.6133       477.3398       472.1658       514.3479
       575.3948       604.6467       637.4636       662.1196       689.8616
       739.5557       788.0386       823.5129       863.3782       924.2939
       988.3975       1029.361       1063.533       1115.866       1174.067
       1208.429       1242.438       1300.576       1327.208       1337.335
       1366.971       1420.407       1495.976       1545.312       1574.125
       1630.252       1708.497       1742.723       1736.499       1748.221
       1809.196       1860.647       1894.047       1924.724       1936.241
       1964.669       2039.894       2095.326       2119.271       2145.367
       2200.129       2270.003       2307.273       2311.810       2277.466
       2324.363       2429.096       2469.459       2446.969       2440.890
       2498.817       2589.340       2624.412       2593.742       2545.146
       2627.998       2730.602       2722.994       2652.802       2633.015
       2721.978       2818.837       2765.084       2695.451       2710.329
       2767.528       2829.076       2830.503       2739.678       2769.027
       2903.730       2841.894       2661.752       2658.383       2778.183
       2843.959       2801.597       2738.105       2735.500       2741.877
       2766.906       2708.469       2598.755       2624.775       2671.809
       2635.690       2587.235       2589.771       2589.647       2551.215
       2544.085       2520.517       2466.434       2442.096       2440.811
       2388.234       2329.318       2329.463       2325.892       2277.144
       2201.476       2163.949       2138.942       2116.000       2075.049
       2029.267       1967.282       1895.944       1855.312       1823.328
       1744.763       1662.379       1580.798       1519.554       1459.584
       1402.554       1325.664       1232.387       1156.684       1109.103
       1019.162       902.9326       763.6848       656.3505       592.6455
       488.7784       338.6679       216.0270       115.0829       15.96893
      -116.7192      -234.1423      -321.7656      -413.5854      -535.5366
      -675.2615      -812.6021      -943.8193      -1075.965      -1212.142
      -1346.991      -1455.039      -1539.747      -1640.070      -1788.093
      -1901.844      -1986.348      -2076.314      -2196.110      -2308.179
      -2377.130      -2480.612      -2596.443      -2670.115      -2767.451
      -2875.610      -2964.997      -3070.506      -3181.104      -3271.875
      -3339.303      -3407.161      -3499.576      -3568.512      -3638.332
      -3711.766      -3759.257      -3845.229      -3959.484      -4005.505
      -3982.486      -4019.457      -4134.045      -4186.021      -4205.094
      -4241.492      -4254.407      -4280.773      -4314.213      -4320.115
      -4321.051      -4317.655      -4329.523      -4351.656      -4335.184
      -4303.750      -4286.482      -4270.934      -4232.435      -4190.519
      -4145.189      -4116.568      -4094.375      -4016.620      -3921.611
      -3868.258      -3809.868      -3738.358      -3671.428      -3612.402
      -3546.552      -3429.287      -3349.125      -3306.326      -3212.188
      -3072.477      -2947.127      -2840.802      -2726.489      -2626.301
      -2552.579      -2459.258      -2329.898      -2200.438      -2095.554
      -1978.983      -1851.425      -1757.846      -1681.726      -1552.684
      -1395.651      -1313.487      -1230.525      -1091.829      -980.1282
      -884.0129      -781.2886      -696.6995      -608.3502      -473.5684
      -346.9728      -264.7930      -205.6505      -102.3627       34.30310
       121.3174       220.3035       340.0455       421.3777       504.2134
       610.8535       685.0906       751.9326       837.5947       925.6829
       1037.236       1157.150       1226.804       1290.783       1355.215
       1394.799       1447.138       1543.417       1583.134       1622.103
       1765.258       1826.227       1764.569       1759.817       1897.474
       2047.497       2082.535       2087.803       2114.368       2134.260
       2240.150       2342.270       2283.063       2269.285       2391.753
       2423.370       2424.561       2473.631       2496.383       2541.959
       2599.245       2573.118       2495.064       2513.876       2602.391
       2650.345       2631.930       2612.626       2622.245       2633.160
       2702.248       2737.922       2677.672       2641.695       2665.833
       2690.982       2696.651       2699.486       2680.404       2679.589
       2696.814       2625.063       2556.090       2589.049       2653.903
       2620.506       2544.449       2537.339       2540.384       2538.244
       2493.921       2401.836       2368.613       2374.807       2339.648
       2281.197       2204.104       2163.615       2141.661       2101.813
       2048.826       1990.026       1940.146       1887.416       1833.290
       1814.325       1781.590       1735.664       1671.940       1619.273
       1588.448       1547.424       1474.498       1430.637       1358.307
       1272.471       1242.817       1228.128       1171.116       1117.917
       1068.686       1005.386       973.5811       940.3030       856.2930
       809.3828       769.7744       694.8347       622.4888       580.3506
       534.4674       493.0560       500.5072       458.6194       321.2361
       270.1403       275.8022       233.2641       149.1076       76.72308
       56.16005       51.53501       3.194458      -62.95667      -143.2388
      -190.3149      -210.9678      -235.4357      -281.0661      -316.1497
      -345.2102      -368.7050      -402.1169      -435.1943      -470.0747
      -498.8590      -538.0291      -522.7866      -510.7255      -584.3782
      -642.0776      -640.4231      -671.0542      -684.6531      -668.0969
      -699.9045      -730.0879      -726.6631      -745.8125      -777.8840
      -805.4443      -838.0596      -859.4177      -870.5161      -880.2639
      -905.4512      -951.8176      -990.8484      -957.0215      -939.8247
      -980.6294      -1006.128      -1010.005      -1013.155      -1037.824
      -1062.675      -1076.644      -1075.776      -1074.262      -1105.596
      -1135.699      -1159.942      -1178.375      -1192.845      -1247.399
      -1286.296      -1294.122      -1291.878      -1302.158      -1354.493
      -1393.174      -1378.798      -1369.421      -1379.251      -1412.143
      -1479.962      -1536.014      -1538.871      -1529.372      -1566.303
      -1616.150      -1665.257      -1673.631      -1678.270      -1709.006
      -1728.927      -1751.280      -1761.615      -1750.678      -1764.739
      -1772.080      -1774.659      -1771.491      -1777.541      -1787.824
      -1779.229      -1759.819      -1760.124      -1741.553      -1728.619
      -1733.168      -1756.979      -1727.452      -1670.299      -1636.422
      -1624.728      -1603.076      -1574.781      -1539.318      -1490.967
      -1467.620      -1501.920      -1478.440      -1429.099      -1392.528
      -1383.464      -1368.350      -1338.919      -1299.249      -1256.500
      -1221.396      -1207.296      -1178.514      -1155.442      -1130.048
      -1116.341      -1107.349      -1033.205      -981.4946      -965.9658
      -924.4431      -897.5845      -832.1582      -811.6982      -802.2544
      -748.6379      -719.9114      -706.3975      -687.9028      -612.2500
      -538.3741      -514.9806      -478.5012      -438.9923      -364.2361
      -285.0450      -275.6606      -266.8645      -219.0049      -139.9332
      -69.23595      -30.11772       13.45422       102.7182       160.7960
       207.6968       278.4087       354.8549       424.9886       485.5760
       546.2758       624.6926       684.8269       744.5520       802.4651
       843.9836       876.7725       971.6719       1042.448       1093.749
       1161.184       1192.009       1267.130       1348.306       1387.715
       1451.850       1519.788       1597.802       1639.527       1698.746
       1773.354       1771.553       1806.166       1856.472       1903.177
       1965.253       1990.304       2049.401       2078.553       2067.012
       2111.625       2169.910       2181.104       2157.195       2180.312
       2201.320       2183.376       2180.240       2197.495       2196.395
