     0.02500000      -2750.983       2338.550      -12345.00      -12345.00
      -30.00499       219.9950      -21.98000      -12345.00      -12345.00
       0.000000       16.97000      -12345.00      -12345.00      -12345.00
      -12345.00      -12345.00      -12345.00      -12345.00      -12345.00
      -12345.00      -12345.00      -12345.00      -12345.00      -12345.00
      -12345.00      -12345.00      -12345.00      -12345.00      -12345.00
      -12345.00      -31.64950      -69.41590       1962.000       0.000000
      -31.06700      -68.46300       0.000000       100400.0       0.000000
      -12345.00      -12345.00      -12345.00      -12345.00      -12345.00
      -12345.00      -12345.00      -12345.00      -12345.00      -12345.00
       111.3156       234.2898       54.78328       1.000863      -12345.00
      -12345.00    -0.08394627       0.000000       0.000000      -12345.00
      -12345.00      -12345.00      -12345.00      -12345.00      -12345.00
      -12345.00      -12345.00      -12345.00      -12345.00      -12345.00
      2008       164        19         3        59
       780         6    -12345    -12345     10001
    -12345    -12345    -12345    -12345    -12345
         1         7        13    -12345    -12345
    -12345    -12345    -12345    -12345    -12345
    -12345    -12345    -12345    -12345    -12345
    -12345    -12345    -12345    -12345    -12345
         1         1         1         1         1
BARR    -12345          
        -12345  -12345  
-12345  -12345  -12345  
-12345  -12345  -12345  
-12345  -12345  -12345  
-12345  -12345  -12345  
-12345  -12345  BHZ     
ZL      -12345  -12345  
[...]
       82.97928       75.26144       38.79339      -15.67566       144.1411
       313.9009       350.2717       259.9931       208.1972       236.6326
       101.6004       159.7798       375.5402       294.2537       299.0828
       312.6707       228.6257       339.3298       341.0427       322.4772
       398.3074       403.5334       389.4403       368.8155       308.3098
       402.8257       599.7656       539.5438       453.5023       469.5847
       295.2920       267.5255       512.2533       541.6326       460.1085
       585.7878       474.3954       381.5161       557.0275       515.9656
       400.1584       433.2019       501.6891       526.0654       472.1111
       509.2684       470.5442       543.5225       668.4773       495.8068
       491.0123       266.0278       150.4482       766.5989       673.9425
       283.1125       445.3102       339.7904       396.1517       505.7032
       272.2053       272.8806       317.6909       391.7454       364.3635
       320.2072       410.3292       328.1129       196.8906       89.46106
       259.9966       313.3887      -7.700928       213.3387       452.2717
       236.9066       37.60326       7.714783       199.3135       413.6370
       450.1906       20.69916      -351.9256       144.2119       508.2960
       166.0156       294.5688       451.7849      -23.83716      -95.53418
       449.9673       494.9863      -215.1849      -197.5724       95.90869
       436.5975       848.0410       200.2134      -329.3302       62.33203
       366.2300       350.7280       683.2800       720.0304      -349.0413
      -186.5144       885.4192       248.8851      -63.08594       856.7134
       824.4638       35.09900       286.2892       313.4343       254.8051
       911.1475      -47.24475      -308.6406       799.8472       1347.242
       1102.225      -8.298767      -316.8567      -43.60742       1027.068
       1354.452       168.6196       187.8993       517.5837       823.2635
       886.1124       46.16479      -117.7156       1002.420       1211.670
      -82.67236       241.6509       960.7109       857.2955       818.4546
      -119.8580      -155.8582       628.5022       836.8048       725.2372
       292.5039      -64.97546       324.3274       974.1821       659.0084
       61.87228      -112.5441       21.25977       526.1108       561.5546
       35.64868       362.2504       455.8432      -118.6460      -267.4633
      -221.5599       457.3558       675.0137       99.31555      -233.4042
      -90.43060      -135.5695      -385.8755       246.9364       83.18262
      -711.1956       167.5610       519.7767      -28.10242      -288.5012
      -881.6305      -460.6689       642.5333       452.4606      -544.6345
      -528.8976      -73.34021       140.0132       200.3865      -142.4224
      -228.3508      -408.2839      -124.7991       92.35022      -480.3928
      -338.0391       368.2452       155.6655      -399.5796      -597.7999
      -576.1694       143.8846       172.9790      -742.4025      -507.5363
       120.0933      -335.5869      -334.2168      -475.8513      -600.9484
       286.0881      -88.46704      -1071.915      -692.5054      -344.0286
      -805.0535      -337.2666      -361.5369      -874.7196      -177.0544
      -411.8198      -1073.459      -1015.941      -728.5190      -580.1113
      -711.5770      -590.5195      -784.9319      -674.8979      -341.4829
      -1124.305      -961.4119      -518.3486      -1257.476      -934.8284
      -280.9780      -1037.181      -1598.729      -578.5210      -439.2527
      -1079.796      -747.4500      -726.5054      -1269.130      -1056.959
      -595.2808      -946.3218      -665.4449      -483.9783      -1048.769
      -935.1328      -883.6162      -907.5767      -561.4507      -657.8145
      -1134.133      -929.1525      -520.7058      -457.6689      -323.4966
      -974.9844      -1373.348      -403.0603      -207.7046      -929.2673
      -816.4117      -430.5991      -822.0837      -762.6797      -226.6758
      -661.9546      -827.6003      -548.4084      -565.7896      -646.4878
      -516.5599      -163.2072      -708.9364      -564.3225      -51.49756
      -888.0654      -557.7079      -27.58728      -552.5292      -634.8905
      -495.1890      -37.03680       77.55566      -433.2065      -526.7889
      -347.5906      -222.2955      -300.3845      -272.5967      -247.7393
      -238.3458      -187.1897      -568.1125      -361.6481       282.7340
       80.27185      -175.5066      -201.7587      -403.3082       64.77582
       19.31287      -360.3664       150.2320       31.63298      -100.5099
       161.7986       207.7261      -89.57986      -67.56104       391.0690
      -59.62329      -29.87878       181.8211       216.3988       552.9943
       177.7159      -14.31152       298.4806       539.9252       468.0366
       143.5093      -105.5778       165.4014       882.6133       955.9131
       395.8669       259.3426       244.7883       279.4639       913.0647
       833.9092       398.2051       688.8789       697.1647       68.12427
      -37.45703       920.8184       1019.774       160.7441       636.4622
       1137.862       529.2424       541.1005       453.2677       263.7556
       789.4810       705.3154       448.6833       636.1267       459.5779
       344.2532       1108.758       523.0261      -490.6921       990.5947
       1290.334       257.2257       506.1190       450.6187       500.6318
       997.8246       608.7699       334.3350       990.0885       712.2910
       173.6495       556.6085       664.5887       614.7893       806.2412
       880.5163       402.2088      -4.033447       593.0405       1000.433
       697.3960       589.8898       565.0439       282.0785       422.6448
       834.5020       782.0868       611.1053       201.2516       58.81848
       452.6318       422.5317       686.7891       914.6598       225.7894
      -250.7979       576.5906       882.6360       512.7203       675.3372
       451.6844      -84.22998      -258.8400       239.2686       339.9429
       491.2239       479.9191       83.37231       891.0745       583.0479
      -541.2096      -302.2147       222.3169       306.2832       381.0448
       553.9431       85.13527      -169.7477       253.6007       206.8010
       118.1319       161.5486      -40.80078       438.5002       307.0302
      -651.1410       72.25427       804.1489       423.2253       245.0882
       195.8435      -16.19745      -294.2898       234.2410       790.4028
       322.1501      -4.696442      -59.35498       253.8351       633.6733
       400.2202       588.7493       124.5295      -451.4193       408.2689
       636.8251       207.6859       161.8353       546.5718       501.0897
       176.6438       462.2167       323.4781       371.0671       673.5916
       113.1954       120.9974       391.8315       95.69092       521.0194
       781.0487       55.96698       174.9993       573.1875       309.8972
       411.2806       291.0936       104.1548       477.9911       703.3619
       325.9181      -80.68976       286.4873       434.8179       570.1418
       557.4917      -144.5601       235.9672       764.8234       484.3478
      -146.1980      -99.71948       480.1376       275.2322       660.2699
       575.3455      -288.0330      -314.6399       96.19067       600.7511
       679.8125       61.03815      -345.0162       69.22552      -36.97400
      -359.3167       116.6453       386.5313       60.61224      -408.7411
      -114.9221       150.3909      -326.8315      -374.3347      -525.1613
      -431.8948       232.3325      -360.4338      -896.6165      -525.3271
      -626.9644      -389.3274      -244.6487      -880.7936      -845.6953
      -300.5498      -795.7734      -1340.761      -848.9875      -738.3860
      -731.7134      -589.9331      -1206.824      -1368.479      -858.1353
      -1032.917      -1198.536      -1075.714      -1218.879      -1075.678
      -877.7446      -1408.511      -1591.470      -916.1416      -1091.253
      -1221.756      -1369.538      -1634.297      -879.4507      -1065.392
      -1314.788      -1461.649      -1577.615      -692.5967      -883.7109
      -1490.395      -1373.963      -1252.362      -1230.254      -1338.848
      -1019.870      -845.1472      -1081.828      -1202.520      -1294.159
      -806.3856      -280.0879      -861.2585      -1248.346      -620.9021
      -704.1204      -911.9524      -559.1777      -1039.976      -814.1792
      -140.6101      -498.4568      -642.6162      -559.1621      -642.0732
      -229.3394       109.0750      -439.1495      -482.7963      -142.8063
      -283.2128      -82.65332      -284.5880      -493.7198      -97.02924
       151.6433       238.4476     -0.6025391      -229.9575      -368.2635
      -163.9258       373.2762       25.73779      -109.7177       179.6500
       194.9882       326.8982      -163.3998      -559.7728      -235.2544
       662.2411       864.0758      -201.2393      -477.5728      -137.1517
       162.4060       374.9324       362.3433       519.2963       314.0466
      -624.0607      -504.2748       435.0725       422.8788       338.5493
       320.3939      -126.2346      -144.8434       268.8312       474.1003
       991.1490       468.0514      -780.8603       26.29700       769.2789
       202.2241       624.1642       777.1702      -36.66536       117.1711
      -14.10059      -55.39404       1068.598       1063.841       131.8788
      -401.5125       161.0342       1417.221       1326.341       10.96057
      -335.1975       685.3115       871.5604       558.3462       398.7683
       110.2612       816.0110       977.9115       278.9827       409.0454
       805.9778       902.3088       500.0311       230.6265       705.2900
       971.7354       791.5840       681.2772       161.1797      -99.03809
       842.6763       1236.000       867.9238       895.0767       376.9296
       332.6968       1121.074       833.2408       429.6963       578.0042
       538.1123       791.9375       1014.895       577.7158       614.2166
       890.2021       645.4031       763.2800       732.2114       335.7567
       331.9355       680.9097       1498.428       1085.080      -295.1439
       106.1082       747.9380       749.6564       837.1189      -161.0011
      -462.0398       1086.920       929.0450      -548.0342      -46.69556
       1035.623       512.1072      -70.07471       69.38773       167.6582
       11.09741      -24.50714       455.2784     -0.6706543      -584.4022
      -79.35229       510.8257       500.0574      -355.5087      -578.7621
       370.3141       668.1050      -161.3057      -984.9995      -562.3518
       655.0328       303.0602      -822.4075      -365.4924       532.4965
       341.3885      -176.5881      -635.4174      -631.8429      -93.53754
      -90.75104       82.86810       292.5502       238.3069       321.3843
      -807.3442      -1572.735       11.46460       1044.954       389.4026
      -322.3507      -525.9786       193.5955       713.7241       604.8064
       204.3748      -449.9800      -159.4376       281.8365      -223.1761
      -402.4170       388.4236       838.3935       235.4091       179.8889
       174.3185      -579.4221       256.4144       685.5777       64.59009
      -222.2850      -540.3713       308.8986       177.2415       215.5110
       862.4762      -195.0898      -276.2704      -49.95013      -82.97241
       1049.115       621.3329      -260.3577       1187.671       1660.402
      -67.58447      -1328.274      -1055.570       152.8699       1468.676
       866.6974      -435.1346       158.7463       344.8086       328.7024
       1428.199       1024.382      -225.2418      -138.0884      -682.8005
      -1248.464       145.6028       1225.693       1009.926       1072.574
       437.2407      -673.1331       168.7849       672.0355      -104.2126
       181.9312       369.3545      -650.2227      -732.1001       704.4856
       1152.528       231.8288      -1.968018      -217.4231      -509.3511
      -127.0170      -861.9304      -310.0361       1977.298       1217.840
      -736.4756      -1083.885      -994.1896      -4.386230       1415.418
       752.1587      -1642.972      -2714.229      -1312.782       376.8784
      -24.27625      -656.6626       1008.056       2070.013       322.3293
      -892.6631      -949.0142      -1876.522      -2314.000      -1099.460
       534.3224       252.3188      -736.7480      -907.2979      -1120.394
      -1489.645      -750.5212       1438.642       613.3037      -2595.935
      -2198.034      -52.32617       957.9374       935.0752      -984.9370
      -2135.262      -1801.173      -2239.879      -255.0837       2146.625
      -252.4614      -2750.983      -1859.368      -189.7167       103.8806
      -1028.551      -1390.835      -247.6147       101.6577      -786.1724
      -1423.803      -1969.354      -1470.129      -455.6760      -510.1172
      -1004.194      -1102.324      -397.0108       96.11938      -623.1045
      -1107.482      -458.0498      -582.7817      -1175.344      -1078.474
      -1253.483      -1053.592      -745.9297      -448.6688      -248.2612
      -888.6509      -1057.591      -786.7570      -710.6310      -347.3534
      -304.5131      -643.7598      -209.7822      -373.0488      -1703.130
      -1778.633      -1179.281      -609.6990      -368.2972      -700.3708
       151.5560       650.2742      -238.7971      -1090.137      -1525.049
      -1026.883      -541.3734      -185.8777       197.1846      -507.4761
      -1045.907      -661.5898       86.44202       816.0715       58.45142
      -844.4315      -616.0414      -585.7590      -639.0538      -295.2487
      -223.2332      -94.04077      -201.8006      -441.4178       101.1413
       180.4985      -528.6860      -884.6061      -239.5178       366.8304
       234.7498       265.7539       126.0112      -425.7384      -716.9719
      -271.3947       215.2228       105.6764       463.2217       1124.976
       236.3052      -1252.437      -1363.680       211.3447       2158.296
       1664.209       471.4169       661.4838       360.9708       260.6503
       457.5057      -281.5806       68.05151       1343.678       936.0457
       564.8401       1298.652       1306.243       1165.821       1243.027
       1205.159       1532.407       1345.935       871.2974       569.7817
       545.5054       1105.779       1335.600       1192.590       930.8152
       949.7358       1427.906       1466.352       1034.117       1239.982
       1765.908       1218.255       575.9946       962.7949       1664.208
       1654.421       841.9221       626.1387       1520.778       1451.981
       743.4141       1320.136       1847.913       879.5555       371.7681
       1144.832       1371.662       792.6469       290.1167       1317.021
       2338.550       986.4946      -149.4631       657.9438       1360.875
       990.1758       688.2710       1035.461       1045.984       105.3711
      -394.1526       930.1230       2222.142       1687.170       569.8284
       278.3707       596.6384       699.7043       859.4221       1128.296
       760.7094       320.8121       442.2809       636.0098       588.7073
       455.9404       617.2612       995.7012       962.8074       877.5667
       542.5833       548.6807       851.0741       116.0775      -88.02246
       222.7091       205.9720       405.9565       341.2108       42.90771
       140.4897       697.8159       820.3812       316.4994      -433.3977
      -948.2245      -223.9746       464.6440       368.2576       573.2028
       96.20789      -579.7931       149.0740       719.1616       123.5859
      -238.9956       142.9311       366.7358      -253.5112      -905.0088
      -564.2075      -14.99821      -3.850708      -247.5132      -400.0627
      -110.5296       76.47607      -418.0137      -863.1860      -605.0038
      -424.4945      -459.7896      -188.2429      -323.4736      -484.3469
      -705.3752      -941.0153      -247.0590      -98.04321      -645.2354
      -1030.888      -1077.974      -534.4489      -277.8235      -648.1978
      -838.4109      -515.9385      -637.5249      -1333.561      -1265.247
      -704.2686      -851.9814      -842.5172      -332.7788      -413.9963
      -1091.600      -1201.944      -717.0869      -728.5183      -959.2947
      -855.0901      -828.3315      -748.1611      -534.5261      -591.0889
      -837.3550      -817.6204      -532.0537      -674.9568      -892.4419
      -845.1079      -543.4121      -679.3323      -1064.886      -446.8452
      -248.6758      -734.2480      -835.2141      -897.3142      -629.9865
      -187.3604      -555.5330      -1056.097      -924.0813      -780.0045
      -594.1071      -345.3696      -316.5459      -521.5898      -776.8176
      -693.9678      -475.1277      -676.2632      -955.7137      -571.0907
      -269.4963      -340.1410      -429.5349      -732.4133      -634.9191
      -235.8301      -361.8997      -648.7769      -568.1666      -306.5788
      -183.8948      -431.6111      -481.4676      -212.3855      -421.7520
      -725.6279      -515.9239      -18.07108       220.8254      -301.7278
      -833.2299      -641.8588      -164.2495       136.1431      -4.455566
      -368.9508      -559.8705      -211.1572       237.9768      -1.109497
      -181.4392      -483.4980      -673.3480      -248.9647      -392.1279
      -332.9795       73.16516      -320.0740      -444.4170       13.03967
       333.3650       277.6033      -160.1328      -296.7363       8.143341
       197.0913      -94.44208      -291.1882       215.5947       551.9619
       80.82056      -241.3100      -26.45752       106.2649       52.76001
       80.46460       500.8237       445.2324      -49.69983       211.3347
       540.8435       497.6061       114.6378       57.67664       640.7244
       285.3292       130.8787       643.8582       145.8905       75.27167
       300.7380       133.0726       333.4690       241.3767       249.3369
       342.9281       337.9410       477.8967       446.0144       440.6920
       433.7421       208.9922      -5.850098       220.9290       697.9172
       565.8536       173.0300       224.4654       192.0535       369.8123
