     0.02500000      -4868.009       4607.619      -12345.00      -12345.00
      -30.00502       219.9949      -21.98000      -12345.00      -12345.00
       0.000000       16.97000      -12345.00      -12345.00      -12345.00
      -12345.00      -12345.00      -12345.00      -12345.00      -12345.00
      -12345.00      -12345.00      -12345.00      -12345.00      -12345.00
      -12345.00      -12345.00      -12345.00      -12345.00      -12345.00
      -12345.00      -31.64950      -69.41590       1962.000       0.000000
      -31.06700      -68.46300       0.000000       100400.0       0.000000
      -12345.00      -12345.00      -12345.00      -12345.00      -12345.00
      -12345.00      -12345.00      -12345.00      -12345.00      -12345.00
       111.3156       234.2898       54.78328       1.000863      -12345.00
      -12345.00    -0.09099757       0.000000       90.00000      -12345.00
      -12345.00      -12345.00      -12345.00      -12345.00      -12345.00
      -12345.00      -12345.00      -12345.00      -12345.00      -12345.00
      2008       164        19         3        59
       780         6    -12345    -12345     10001
    -12345    -12345    -12345    -12345    -12345
         1         7        13    -12345    -12345
    -12345    -12345    -12345    -12345    -12345
    -12345    -12345    -12345    -12345    -12345
    -12345    -12345    -12345    -12345    -12345
         1         1         1         1         1
BARR    -12345          
        -12345  -12345  
-12345  -12345  -12345  
-12345  -12345  -12345  
-12345  -12345  -12345  
-12345  -12345  -12345  
-12345  -12345  BHN     
ZL      -12345  -12345  
[...]
       228.2054       42.89716       141.8210       247.9083       155.4229
       164.5519       239.3036       191.5475       28.08624       94.25391
       422.4215       346.1810       118.1376       212.6387       297.5117
       336.7457       344.4822       297.5179       144.7775       253.5156
       575.9994       402.5978       152.5149       281.0466       264.5366
       374.4514       412.7162       152.8441       181.4645       93.31659
       116.1719       444.3126       377.9026       226.9293       195.1173
       336.6757       374.9511       124.7989       200.3683       321.1167
       73.58075       143.5281       420.2781       350.3732       261.2750
       385.6020       294.3598      -148.2488      -194.8541       414.9089
       548.8364       182.5089       125.1005       256.8674       320.9487
       147.0741       7.642944       216.7603       515.3549       492.2393
      -54.22357      -70.95398       496.5712       422.9521       112.4949
       234.2041       392.8449       242.7523       128.5027       190.8225
       356.3774       674.2998       607.8624       38.63014      -213.8630
       209.6731       630.2804       533.3851      -11.09384      -158.7719
       290.6151       290.4926      -16.24597       168.9360       445.4247
       319.8265      -109.9471      -234.6561       75.90405       305.4439
       227.1316       35.32767       24.16293       163.0846      -22.63165
      -349.9229      -191.7324       179.4531       113.4041      -185.4091
      -217.1987      -132.1579      -131.9232      -190.8516      -263.2628
      -149.1451      -371.0823      -475.8102       2.383881       198.0591
      -269.0315      -778.4628      -332.8678       196.3743      -365.1194
      -929.1930      -649.4100       40.17508       255.5452      -451.4919
      -878.8427      -220.3463      -10.43213      -883.2727      -821.2901
      -33.25037      -268.6763      -748.8126      -552.7566      -103.1007
      -346.8823      -341.9434      -433.1226      -1067.843      -1094.969
       45.85138       659.3044      -746.2021      -1268.280      -449.1561
       161.8353      -327.6685      -1123.787      -426.5012       253.2690
      -480.7078      -1505.432      -316.9791       860.5967      -669.3423
      -1178.299       144.4983       278.9541      -931.8267      -450.7406
       151.2109      -1118.334      -187.3013       813.7266      -464.3578
      -591.1599      -47.12732      -559.7707      -722.0719       635.8855
       385.9266      -272.7357       275.4250      -464.9130      -599.3397
       415.6678       676.9301      -55.91373      -161.9864       11.48505
      -20.91528       518.9062       309.7797      -341.2984      -329.5032
      -12.72119       661.6411       1151.958       398.7610      -1566.282
      -587.9775       1896.207       510.0160      -1176.863       382.1421
       1421.484      -580.8035      -603.8367       1280.699       612.6167
      -439.1254       390.6849       369.8744      -145.2327       538.4052
       386.3203       216.5780       397.3156       119.2615       377.5360
       620.9834      -36.00229      -37.95645       159.7819       8.841309
       795.0254       1164.856       19.66992      -647.2049      -123.4208
       633.2100       681.2050       278.8249       282.7499       149.0462
       172.6055       430.2147       136.4081       109.4192       153.6777
       270.8318       656.1810       684.3712      -211.7282      -288.9688
       541.7263       277.2812       337.9186       501.0498       29.70862
       208.1253       553.7694      -122.9118      -14.97864       716.7872
       183.0427       73.95972       781.7461       134.9192      -861.8583
       34.81396       803.6680       464.5714       221.9177       249.9371
      -192.7271      -340.3412       98.11670       453.8468       279.4817
      -548.9373      -53.05188       521.3711      -217.0255      -553.1783
       121.6171       332.8282      -439.9495      -107.2765      -29.01892
      -620.4973      -310.0107       8.989105      -28.55444      -194.1558
      -535.0364      -538.1152      -8.348877      -311.1003      -843.0464
      -32.39441       21.40735      -572.5853      -403.9126      -185.6726
      -765.7092      -993.0226       183.2830     -0.6375732      -837.5944
      -73.71558      -260.8931      -1399.134      -471.1114       587.9746
      -681.5686      -1101.046      -85.35205      -189.4854      -610.3375
      -240.0396      -460.1802      -1057.570      -440.3925       139.2283
      -350.7266      -412.2437      -393.7378      -507.7504      -256.1803
      -448.5262      -386.5289       50.31152      -228.0370      -577.7634
       134.6255       448.3179      -661.6559      -824.9460      -59.70013
       260.5965       21.95380      -157.0598       330.3767      -338.2743
      -948.7317       373.3486       1252.212       272.1116      -959.6250
      -628.1855       453.6213       1072.941       262.2618      -545.6530
       126.6290       426.4968      -248.2689       153.0652       1529.068
       402.4705      -1471.119      -345.1604       1137.768       795.6934
       536.5822       419.1730      -843.4039      -336.3369       1350.492
       522.9114      -639.8237       412.7921       1001.988      -120.1728
      -130.5455       605.9855      -263.1333      -279.2166       936.3015
       690.4859      -43.17303      -60.21649       383.3022       122.1589
      -172.0582       301.8044       660.1639       731.3429       61.17972
      -195.5090       401.4360       773.9792       504.5847      -20.47168
       36.65674       715.7065       1316.482       485.2983      -685.2782
       95.80688       1287.582       941.7791       535.0295       830.8560
       530.4645       244.0073       175.7646       188.9253       1442.967
       1751.177      -191.9855      -468.0745       1048.292       1335.431
       465.5232       197.4377       796.2382       970.9843       34.70117
      -303.2432       1681.156       1416.544      -1174.506      -219.8877
       2049.046       1193.081      -628.4888       442.0225       1217.925
      -261.0679      -439.7783       1119.982       1456.599      -524.2782
      -706.4316       1127.916       1291.855      -215.3689      -806.6738
       615.6921       1070.558      -14.24799      -423.5267       491.1997
       451.9132      -472.0208       38.13101       184.4313      -269.6191
      -37.35324      -48.90898      -158.6924       152.5844       257.0044
      -615.6282      -939.7506      -37.58505       282.5879      -432.0193
      -781.1179      -64.94153      -97.37988      -869.8959      -759.8086
      -47.41479      -323.7034      -959.4771      -477.0757      -609.9653
      -1276.557      -766.9462      -202.0818      -395.8311      -1029.769
      -1074.882      -505.3398      -454.9614      -983.9995      -914.9707
      -552.5930      -985.5112      -865.9150      -520.2161      -958.8752
      -1130.590      -273.6729       29.01733      -1030.002      -1319.371
      -693.0936      -301.8132      -309.5691      -867.7678      -1338.733
      -762.9593       159.1331      -243.5913      -1194.934      -755.1038
      -305.8936      -1441.174      -1549.990       344.0747       391.4238
      -1335.023      -971.3815      -161.8745      -1009.122      -1032.827
      -28.55957      -622.8271      -1136.284      -481.1978      -947.3069
      -705.7659      -423.9790      -1191.517      -1006.712      -209.4304
      -121.1201      -1070.225      -1071.446      -430.5754      -412.6216
      -789.7539      -686.6487       54.05566      -664.4585      -1490.019
      -526.9559       513.5115      -341.8337      -1248.776      -265.4168
       381.1671      -102.9106      -435.5632      -319.2849      -68.88361
      -232.3760      -120.7793       273.3022       452.6432       215.3097
      -361.7373       444.9678       726.6875      -324.9498      -50.80371
       872.6309       1097.341       649.9078       144.7700       158.5059
       593.7979       1016.791       720.7686       244.3853       703.4043
       1374.280       722.8022       362.8623       1059.304       920.3184
       812.3228       1126.745       986.3721       549.4380       716.7324
       721.8101       627.6235       1285.853       1364.177       790.0376
       704.1172       1334.837       651.0784      -304.6846       971.7295
       2236.735       1188.199       2.362793       779.9607       915.6707
       111.0627       823.3091       1711.639       809.6613      -254.3789
       104.7490       959.3818       1545.165       975.3685      -338.4132
      -236.0461       951.5938       1143.913       267.3192      -89.56299
       606.4337       512.9927       277.6828       170.1965      -281.5447
       523.3196       692.7915      -189.0285       12.19177       419.1061
      -31.57066      -64.97916       321.7634      -384.7980      -769.0737
       485.7296       697.4500      -547.6368      -372.9224       168.3211
      -25.25977      -299.1169      -631.9032      -18.17761       463.0499
      -600.7206      -809.3130       192.7272      -133.4495      -370.2319
      -62.66479      -558.4208      -775.9353      -291.3875       45.01984
      -293.6119      -307.0721      -297.3766      -258.8639      -47.96436
      -618.1433      -1048.879      -312.6765       326.4478      -573.3079
      -922.6426      -16.91125       146.2883      -697.9017      -809.4321
       225.2914      -9.280273      -1225.870      -993.6420      -53.94885
      -4.349365      -427.4373      -809.5864      -665.4457      -139.7197
      -103.1006      -517.2700      -460.6025      -145.3726      -583.1704
      -917.4712      -487.0440      -66.38120       110.1636      -79.33789
      -749.6049      -571.6516      -114.4368      -740.3133      -256.2286
       647.1855      -77.72632      -544.7347      -361.5245      -110.0883
       556.3665       224.5795      -255.6022       170.4555      -61.07629
      -238.6279       633.3214       632.6927      -116.5636       198.0905
       611.4672       79.34143      -46.78796       534.9336       599.4801
       463.9482       584.9136       460.6707       396.1970       500.8496
       887.0830       808.8310      -129.4788       220.0715       1267.246
       1015.735       3.921143       321.0034       1470.040       680.9199
       195.8229       250.3110      -83.37549       953.9507       1902.814
       666.4209      -689.1412       441.0205       1033.955       335.0217
       583.4734       929.3167       624.6718      -138.7207      -59.09912
       1193.771       1389.581      -136.8466      -484.7134       565.3301
       732.2380       170.3727      -54.17163       494.9199       590.9573
       364.1252       197.1841      -550.3526      -252.8281       959.6509
       454.5149      -1265.421      -241.2332       1027.053      -440.7395
      -749.5316       757.4840      -92.02490      -1482.458      -242.3291
       667.7213       604.3412       62.88940      -1226.330      -1011.937
      -8.453613      -990.2737      -1272.643       613.7019       696.2925
      -1374.760      -1788.620      -133.7860      -108.4419      -846.9319
      -194.6807      -119.2344      -814.5254      -1079.436      -791.4722
      -314.2119      -191.9490      -798.6244      -921.7531       182.6851
      -215.2495      -1677.033      -1273.305       152.7134      -236.8862
      -1255.951      -565.5994       32.39966      -158.4519      -715.3638
      -1359.811      -1100.162      -255.8327       266.4236      -279.4520
      -611.4426      -565.8906      -853.9902      -1457.499      -1352.590
      -564.7064      -446.1022      -377.6835      -415.7184      -233.7026
      -543.8535      -1727.204      -1497.653      -639.4290      -955.0193
      -330.6504       1474.157       1394.945      -666.7070      -2292.529
      -1182.000       265.0593      -779.3901      -1877.177      -751.3955
       214.2686       194.9632       242.0019       306.2557       5.496582
      -2043.195      -2756.294      -253.4087       1761.569       2157.907
       1860.001       276.2500      -2549.911      -2947.796      -1342.056
      -1026.693      -1241.989      -184.0830       2888.812       4396.798
       104.2104      -3346.880      -630.3193       1395.023       288.1631
      -1385.295      -2660.806      -1432.670       2001.306       2305.933
      -460.6633       29.07153       452.2202      -2483.842      -1670.731
       2367.938       2702.050       1828.637       1856.265      -1004.701
      -3853.898      -1664.775       2326.253       3927.278       2358.198
       773.0811       118.8447      -1634.449      -2235.650      -312.2949
       2516.888       4408.504       2746.186      -2578.117      -4868.009
      -771.6621       2975.642       2904.130       2779.572       3129.218
       385.3860      -1708.445      -190.0504       522.7266       358.9062
       842.8047       1637.462       1363.768       221.6890       693.4709
       1461.268       110.9873      -845.7559       556.9814       2609.285
       4119.584       2157.664      -2270.182      -3335.782      -1084.549
       553.6357       1932.444       4607.619       3566.244      -1795.753
      -3083.995       524.7026       3156.555       1327.479      -1546.671
      -529.6118       1449.601       1262.490       579.2754       1312.405
       2116.824       487.8450      -1373.055      -611.3436      0.7797852
      -1379.709      -716.2510       2771.438       3118.743      -529.1025
      -2255.294      -260.8179       1768.867       1074.418      -380.8091
      -904.4485      -1270.135      -93.73438       2540.669       2329.457
      -308.7859       309.4248       1662.505      -1271.457      -2361.990
       789.5020       1735.605       867.6746       1404.357       650.6704
      -1047.240      -695.6516       483.7905       1049.422       345.1675
      -1127.607      -1280.363       724.3545       2121.887       416.5516
      -887.7104       288.7166       982.7411      -54.01976      -89.42224
       354.0021      -90.08545       1449.359       2672.300       345.8052
      -2508.471      -2266.351       740.0630       2580.101       1149.436
      -1852.899      -2085.680       757.8740       1652.585       629.1008
       559.1786       342.6890      -1108.581      -1851.212      -697.0820
       807.7969       1282.424       427.7527      -497.3177      -594.1262
      -411.7026       474.1411       1953.694       973.7788      -2105.506
      -2815.360      -759.0283       908.5948       496.6762       15.66418
       490.4196      -56.21606      -522.6304      -777.3711      -2088.997
      -2242.658      -268.1748       1323.875       492.7754      -1258.735
      -839.4608       543.3472      -43.16113      -1298.861      -1369.164
       183.0859       1152.077       188.7778      -1165.644      -2049.016
      -1691.797      -572.9601       249.4248       52.05737      -790.1027
      -466.3928      -114.7056      -731.4519      -828.0951      -399.6829
      -462.0029      -1206.078      -1084.133      -514.4097      -1206.918
      -1887.281      -367.2664       1624.784       490.3389      -1825.000
      -1647.826      -107.2052       655.8324       152.1851      -1523.062
      -2051.600      -960.4407       14.94434       561.0670       14.17407
      -839.3389      -810.4336      -836.2128      -604.2415       333.2749
       890.2697       458.1741      -730.5610      -1235.348      -788.4661
      -661.3187      -614.2432       441.8154       1185.406      -416.9839
      -1967.553      -751.7993       764.0068      -254.1995      -1321.992
      -383.0435      -31.84143      -624.1402       46.69446       663.9854
      -537.4980      -1622.704      -946.1860       30.94768       127.8918
      -285.6885      -778.4264      -478.3342       893.5707       386.1331
      -1383.030      -721.0071       79.00977      -1168.745      -1496.782
      -318.1429       366.4492       794.1763       1252.681       221.0935
      -1629.935      -768.5743       610.0327      -501.9340      -718.4302
       710.8018       1263.818       18.67346      -705.8093       79.47144
      -483.4490      -1208.409      -214.6467       681.4690       618.0635
       124.3624      -698.3974      -492.5725       905.4215       1027.358
      -115.3232      -810.3757      -607.8002      -606.8473      -93.41943
       1012.781       759.3455       310.9885       692.1292       519.3135
      -477.7437      -1144.334      -187.7178       1756.387       1923.922
      -150.5964      -1232.723      -236.4257       573.5200       706.0298
       705.5981       682.7631       196.5808      -410.3799      -96.63159
       887.1277       1641.067       712.3171      -476.0279      -171.5814
      -29.31799       159.7379       768.5432       160.0040      -450.0204
       217.5004       536.1796       180.3889       622.2271       837.2448
      -340.5305      -463.2471       1036.803       1332.014       247.1513
      -283.2418      -150.3286       206.6144       500.2616       2.511475
      -69.43164       904.8887       1339.025       1026.029       347.8586
      -502.6660      -503.0566       63.46460       583.8022       842.2382
       97.60736      -3.019531       574.4088       425.3235       885.6567
       1516.736       668.5844      -249.1884       186.6588       449.0585
       292.5869       350.2388       442.1284       643.3582       726.3490
       341.9141       222.4470       782.3455       1052.922       864.4204
       833.7877       386.3657      -543.1602      -1078.433      -326.8389
       871.1372       1111.202       533.8636       65.08411       349.2945
       195.9357      -427.9512      -628.0546      -411.3977       405.4469
       742.9707       246.9324      -321.5903      -707.6677      -1175.510
      -284.1394       1362.656       707.3623      -775.7042      -650.0478
       117.3615       262.4476       500.8531       588.8638      -202.9526
      -705.0071      -1107.596      -1012.276      -199.5422       325.8364
       818.5057       652.6257      -688.5894      -1525.583      -539.9413
       589.0039      -234.2271      -853.3770       491.6969       733.9102
