     0.02500000      -6336.125       8259.200      -12345.00      -12345.00
      -30.00502       219.9949      -21.98000      -12345.00      -12345.00
       0.000000       16.97000      -12345.00      -12345.00      -12345.00
      -12345.00      -12345.00      -12345.00      -12345.00      -12345.00
      -12345.00      -12345.00      -12345.00      -12345.00      -12345.00
      -12345.00      -12345.00      -12345.00      -12345.00      -12345.00
      -12345.00      -31.64950      -69.41590       1962.000       0.000000
      -31.06700      -68.46300       0.000000       100400.0       0.000000
      -12345.00      -12345.00      -12345.00      -12345.00      -12345.00
      -12345.00      -12345.00      -12345.00      -12345.00      -12345.00
       111.3156       234.2898       54.78328       1.000863      -12345.00
      -12345.00    -0.07879526       90.00000       90.00000      -12345.00
      -12345.00      -12345.00      -12345.00      -12345.00      -12345.00
      -12345.00      -12345.00      -12345.00      -12345.00      -12345.00
      2008       164        19         3        59
       780         6    -12345    -12345     10001
    -12345    -12345    -12345    -12345    -12345
         1         7        13    -12345    -12345
    -12345    -12345    -12345    -12345    -12345
    -12345    -12345    -12345    -12345    -12345
    -12345    -12345    -12345    -12345    -12345
         1         1         1         1         1
BARR    -12345          
        -12345  -12345  
-12345  -12345  -12345  
-12345  -12345  -12345  
-12345  -12345  -12345  
-12345  -12345  -12345  
-12345  -12345  BHE     
ZL      -12345  -12345  
[...]
       286.7115       319.7460       13.11761      -90.43188       504.6028
       908.4056       318.8058       2.602661       279.4745       340.6412
       507.6796       614.1278       404.4526       307.2401       335.3271
       615.5229       867.5388       651.6001       402.3785       383.5904
       212.1609      -28.93127       179.0410       712.7062       746.5735
       380.6292       333.8184       465.7363       344.9978       225.8514
       252.8418       55.67441      -228.2258       351.0037       1008.842
       413.5869      -291.6729      -199.5153       226.4862       563.4769
       341.0133      -115.3025      -382.8860      -212.9526       338.7119
       561.8737       124.3506      -390.6610      -591.3137      -263.2509
       280.1372       338.9221      -207.1249      -647.2335      -389.8545
       50.39594       215.8080      -16.40710      -556.6306      -318.9856
       310.6628      -95.05811      -933.4247      -591.3235       424.1500
       579.2397      -162.6647      -547.4027      -188.0891       304.1904
       224.7834      -540.4707      -708.2013       52.71167       392.9097
       526.4299       632.4681       232.9349      -246.8975      -237.7761
      -271.1768      -67.18396       483.0841       419.1440       611.2310
       1058.329       278.1061      -226.8646       391.6765       819.2572
       591.7609       245.2181       184.4797       418.0930       921.6501
       1372.183       1002.992       355.6140       288.7322       715.4348
       913.6038       792.6238       1147.672       1171.267       201.5106
      -3.465820       941.3027       1668.946       1204.958       272.8639
       389.0396       985.1450       1266.407       1123.596       571.3979
       622.9175       680.2043       337.2617       747.6602       1779.125
       1382.775      -51.19788      -179.2502       932.9492       1948.132
       1428.075      -448.3957      -401.6594       1280.033       1074.245
       866.3193       1899.628       607.5836      -848.0771       771.0955
       1076.267      -250.2080       1575.475       2165.160      -1023.809
      -1228.718       1559.679       2390.750       1166.389      -1178.866
      -1933.933       1228.863       2901.911       409.9150      -618.1093
       85.21033      -480.6528       180.0273       1356.247      -491.1516
      -837.9153       1528.474       439.5273      -981.9125       536.0965
      -11.95502      -595.5099       595.9668      -829.6699      -1791.250
       1093.949       2446.901       55.13379      -2307.016      -1921.200
       601.7427       1711.414      -14.81958      -1329.139      -1205.902
      -10.17798       790.4578       16.79199      -455.4932      -1281.961
      -1180.947       1433.741       1161.593      -2181.714      -1445.267
       917.1935      -133.0717      -543.6176       295.7393      -1182.192
      -1460.625       1005.667       168.2908      -1690.916      -521.4586
       49.13043      -269.0725      -215.7900      -1533.959      -1873.078
       662.4285       1166.748      -1378.715      -2281.137      -1060.010
       71.73065       383.1602      -978.8706      -2492.684      -982.8227
       500.8125      -591.3330      -1027.239      -676.8315      -1617.356
      -1709.058      -850.5923      -1464.464      -1194.254      -95.84814
      -1336.147      -1715.995      -596.1196      -1365.983      -1022.839
       95.07812      -1920.517      -2794.716      -640.8174      -591.0239
      -1865.426      -1121.793      -969.2407      -1141.090      -713.3813
      -1695.337      -1822.463      -423.9863      -1114.529      -2448.192
      -861.0281      -272.0938      -1992.714      -1097.932      -288.0256
      -1268.134      -804.7178      -1252.501      -1834.000      -629.2964
      -1169.036      -1539.299       141.8989      -275.9536      -1846.673
      -1017.841      -319.6855      -978.2936      -390.9802      -379.5352
      -2062.044      -1273.732       929.2323       308.9607      -1275.431
      -1006.443      -594.8510      -463.4244      -106.5787      -470.0039
      -471.6208      -99.70093      -654.7427      -822.9818      -213.5504
      -123.3867       170.7734       507.1335      -581.9358      -1083.599
      -35.26010       221.4324      -262.7161       479.8472       420.2571
      -1179.381      -440.0044       1658.319       965.7036      -875.0783
      -364.2825       717.5414       364.3455       424.1010       481.5162
      -62.95801       686.9585       1140.058       244.1052       443.0447
       737.2593       328.5281       961.0251       1477.101       924.9819
       861.0836       618.1724       127.0537       1186.850       2200.730
       1548.815       242.1523       58.57715       1476.918       1716.692
       1233.172       1620.322       1324.288       533.0059       753.5483
       1781.506       1651.329       1029.090       1271.983       1163.263
       1346.405       1447.845       921.1748       1537.202       1721.081
       372.9901       212.8076       1403.489       1827.916       1376.887
       1127.541       788.8669       531.4504       1140.330       1732.422
       1149.252       237.5115       982.5459       1528.233       101.2522
       700.5479       1938.104       289.4707       161.6797       1830.715
       1025.359      -266.2539       698.2305       1331.017       252.7559
       314.0878       967.9615      -92.36670      -79.05737       1168.079
       636.8130       374.3093       457.5157      -316.9949       919.6460
       1826.756      -847.4480      -1798.239       696.1599       996.4758
      -256.8439      -47.38141      -193.8936       289.0454       1017.532
      -552.5764      -1092.936       26.12689      -462.7629      -53.92419
       907.7935      -1089.758      -1418.186       790.5618      -278.0435
      -1631.021       282.8653       863.3838      -831.1230      -1202.006
      -157.4219       356.2734      -574.5537      -1835.533      -945.0173
       1176.894       280.6338      -1701.911      -391.2657       547.3572
      -929.8040      -1158.628      -144.9567       299.5906       261.9587
      -359.2034      -1269.103      -1080.365      -266.8279       380.2909
       921.9497      -111.7710      -1795.634      -558.2100       1522.724
       334.5698      -1466.362      -832.6107      -3.470886       88.51581
       313.7707       175.0726       242.4316       480.0400      -954.0623
      -1490.208       881.3416       1620.030       187.4712      -442.6172
      -820.8997      -377.8064       923.7445       650.0919       202.7496
       595.7661      -342.4229      -796.2749       952.8835       1152.351
      -676.2654       79.48315       1410.245      -78.43433      -747.8319
       98.94971       490.9690       1008.858       598.7946      -139.9336
       437.7971       463.2925      -55.48389       419.6331       504.7911
      -33.08691       407.5658       740.4620      -133.1612       45.06750
       688.6512       59.02763      -112.8702       327.7495       417.2642
       733.3574       625.2131      -50.57330      -71.92569       70.89417
      -331.3754      -45.44360       672.8664       452.7763       106.0027
       65.21875       201.5794       231.5542      -488.9529      -575.4264
       526.1145       666.8208      -42.97327      -16.79370      -693.8118
      -736.9351       931.1062       531.4491      -796.0044      -80.53003
      -133.5406      -985.7039       442.8606       1209.708      -1122.348
      -1730.421       337.7797       672.1810       32.73730      -629.6868
      -1360.171      -176.2006       686.2961      -962.1230      -1972.152
      -568.3191       540.3974       112.0400      -689.9199      -1564.963
      -1380.199      -126.5090       116.5006      -417.5952      -1194.187
      -1842.222      -728.4517       408.1257      -376.1396      -1146.833
      -888.9846      -795.6665      -1438.225      -1270.676      -290.7927
      -124.9925      -270.5763      -178.3105      -914.8418      -1610.090
      -1072.478      -630.0597      -125.9058      -15.64282      -995.3046
      -666.0676      -11.81421      -695.6802      -903.6626      -654.0329
      -528.5608       797.3483       963.1650      -1596.124      -2357.938
      -741.6575       388.8337       1381.310       790.8271      -1669.684
      -2064.562      -245.7234       900.7081       712.3291      -672.1250
      -1614.923      -361.9739       939.6758      -35.18896      -770.8004
      -186.2639      -64.47339      -478.4277      -920.2620      -579.1726
       302.7066       513.6814      -334.0396      -1698.374      -1023.675
       472.2863       156.2771       19.76001      -139.5349      -1080.399
      -915.3423      -563.7614      -758.5045      -413.8605       547.6082
       446.5703      -768.5796      -1273.285      -986.9990      -199.3457
       517.3774      -375.3281      -1666.728      -976.9041       339.1767
       403.6970      -402.7153      -1341.950      -894.3712       634.2758
       429.5652      -950.6853      -737.4106      -393.8958      -413.3733
       286.2650       218.4790      -941.4393      -820.9811       651.7917
       636.5872      -467.2040      -523.8267      -429.6384       49.95496
       875.2388      -15.85321      -361.1448       901.5404       537.2408
      -76.01578       174.1531       5.316162       236.9990       1020.116
       933.8896      -117.8043      -726.2515       343.7866       2247.057
       2420.652       570.7970      -638.2999      -628.3784       248.8652
       1889.809       1977.952       842.7064       533.8699      -53.87378
       211.1890       1949.682       1597.943       276.3662       1347.884
       1319.270      -123.0376       388.7515       1045.231       1956.153
       3026.077       540.8330      -2075.927      -386.0029       2761.787
       3707.565       1750.943      -941.6799      -1148.971       744.2871
       2471.408       2687.049       527.5010      -1584.773       67.13184
       2647.934       1811.284       127.2668       668.6405       684.0674
       304.9695       1157.619       367.4686      -659.7188       1320.727
       2336.123       149.4185      -1218.740      -189.7637       1027.232
       1659.226       564.2007      -1086.020      -393.9722       674.2520
       828.4744       610.1279      -1560.734      -1982.992       1878.511
       2679.191      -660.1074      -1722.752      -1318.119      -593.4448
       1121.154       944.7085      -1528.846      -1852.874       963.3938
       1914.925      -346.1128      -1740.989      -1512.367      -849.5951
       618.8667       767.9165      -1332.224      -1205.443       94.80591
      -474.1157      -573.9193      -310.2939      -969.0381      -262.5001
       386.0364      -684.7217      -1365.877      -761.1372       544.5265
       669.7825      -815.6875      -1930.977      -1361.151       996.7307
       2044.291      -424.2417      -2904.713      -1856.487       714.3848
       1391.082       124.8196      -559.8550       300.2507       217.1982
      -1342.338      -644.6980       942.8231      -371.9341      -1183.648
       557.5184       934.0176      -451.4304      -772.6253       123.8196
       440.0474       784.6453       116.1523      -2016.435      -1698.238
       724.4915       1388.986       682.1367       548.3293      -167.6473
      -947.8820       463.5956       1082.527      -1033.839      -2418.949
      -866.2700       1766.924       2995.412       1936.941       250.0588
      -518.8210      -758.2544      -1115.348      -451.2256       1644.438
       2127.226       616.9760      -39.17773       373.1938       91.45239
      -407.9583       800.6943       867.5767      -1160.309      -528.1025
       2630.119       3737.816       1712.888      -436.4878      -1592.500
      -2204.789      -278.8701       1533.540       1919.297       1825.697
      -269.5254      -551.9971       1368.767       1824.354       1969.425
      -276.9316      -4380.289      -2995.756       2446.326       4109.762
       3496.351       3248.058      -73.59570      -3667.187      -2975.268
      -869.6362       1329.367       2866.560       1056.758      -1628.636
      -587.6641       2763.320       4464.679       2006.263      -4032.718
      -6336.125      -1034.347       3788.597       1871.730      -1123.262
       66.54785       2073.295       1955.699      -892.7275      -3601.896
      -2323.106       1588.285       4769.020       3439.225      -2700.389
      -5466.189      -1155.049       1158.546      -1916.134      -1706.515
       1917.779       3718.631       3295.295       366.0830      -1682.597
      -507.6367      -1296.736      -5757.703      -5571.303       2773.066
       8259.200       4138.062      -3269.050      -5730.120      -406.4072
       4284.919      -117.0293      -6271.450      -5112.453       2054.496
       6723.090       3063.330      -3256.035      -5533.513      -3419.536
       569.6206       1904.123       1249.620       1126.661      -393.4111
      -3167.208      -3705.467      -1080.066       863.4580      -352.8140
      -2189.219      -2009.631       139.0186       2280.006       2361.993
      -402.9375      -3967.528      -5150.619      -2202.099       1535.930
       462.6277      -1574.497      -206.9617       102.3810      -346.8906
       1533.306       1831.369      -2242.699      -4878.215      -2581.099
      -240.7977       559.7849       825.4950       47.94263      -425.7429
      -856.0289      -359.0088       565.6308      -221.4176      -90.96735
       349.5234      -1611.644      -3496.558      -2347.401       1565.343
       3267.498       698.6357      -2354.575      -2167.636       1114.440
       3232.460       2074.376      -1126.393      -2761.118      -1328.790
       373.4141       1971.389       1707.305      -820.6201      -1711.861
      -1323.460       226.0527       3986.336       4518.197       51.53564
      -2629.862      -752.2990       834.4873      -125.4130      -738.2748
      -74.17969       1646.344       3439.735       1696.552      -2182.974
      -1969.687       1777.318       3038.577       1173.577      -711.2866
      -808.6582       848.2029       1661.444      -55.84021      -710.9160
       1260.094       2584.601       1758.118      -1020.500      -2672.112
      -670.1738       1788.247       2450.396       1069.521      -1306.977
      -1721.968       1064.051       3360.794       1528.596      -1741.486
      -2898.592      -1332.367       1775.725       2378.298       281.9902
      -1188.649      -1119.345       1.350586       1365.928       1290.132
      -711.3647      -1819.000      -1982.170      -2158.705      -163.1382
       1410.945      -92.48102      -799.0382       845.3713       658.7653
      -571.7079       238.7158      -545.6592      -3296.817      -3094.469
      -367.1636       2031.457       2297.924      -790.4160      -3063.473
      -680.8462       1621.424       1168.861      -179.6035      -1721.175
      -1526.099       644.0190       930.0693      -1358.541      -2487.245
      -1231.614       1133.993       2791.401       1147.384      -2233.630
      -3024.335      -1275.112       353.6548       1529.156       1253.604
      -60.89111       177.0815       595.3994      -556.6553      -1253.891
      -736.9455      -63.54565       337.9630       654.6404       407.2365
      -314.2392      -212.5613      -162.1919      -922.5494      -593.4753
       220.5250      -227.9570      -1174.153      -932.3256       180.3070
       505.7750      -415.8804      -930.1163      -540.4277      -289.7703
       218.9792       438.4213      -119.7485       112.7053       71.15625
      -1705.958      -1397.303       1049.737       176.4846      -1631.686
      -548.1667       293.3298      -153.5754      -164.2295      -663.6746
      -1056.531      -98.53271      -446.7542      -1604.046      -7.561035
       1510.579       255.7334      -1224.992      -1102.664       277.8760
       1181.076       297.2021      -1000.416      -708.3254       174.2162
      -51.51270      -618.3163      -207.1868       1252.035       1175.650
      -758.7097      -1293.138       371.2744       1551.331       1108.422
       250.7205      -713.5048      -374.1978       1101.469       505.7626
      -801.0593       192.1985       1071.055       248.8950       671.4170
       1040.238      -707.6533      -1287.949       573.5469       1603.805
       1024.932       189.3867      -844.7044      -587.1521       972.0938
       1608.637       1095.592      -485.2521      -823.3745       1081.035
       1547.278       450.3115       685.7471       1237.214       289.8212
      -314.5483       471.7793       985.2576       1265.811       1323.137
       470.5199      -117.0586       836.0483       2028.882       1236.606
      -552.2761      -477.1990       865.9668       1700.588       1116.782
       324.0630       1429.798       1982.651       768.6339       333.9799
       538.3862       637.0930       1026.461       1141.037       380.9026
       65.43115       548.2524       1104.288       1491.879       803.6992
       136.6011       824.3867       1107.877       1148.647       1165.495
       495.3071       821.4316       1361.805       410.8661      -176.3760
       893.8989       1950.423       1950.963       898.9675      -740.8948
      -290.4468       1233.439       1279.626       1236.552       1061.612
       444.8721       1026.348       1529.277       645.5552       151.0367
       282.6523       439.2441       803.6510       623.4131       568.4873
       1561.123       1972.945       1158.586       652.6682       285.1340
      -301.7257       226.8026       921.5515       113.4407      -231.8462
       746.7437       1348.011       1272.694       718.6968      -161.1259
      -174.7864       364.2475       251.7734      -15.60132       245.6585
       243.0217      -413.4846      -392.0371       477.8770       942.5817
       732.3721      -691.1890      -1843.429      -650.7896       1141.930
       1354.128       38.19629      -1352.910      -1699.729      -903.3933
       645.3040       645.5444      -906.7344      -1667.094      -1190.984
      -28.85931       342.5889      -460.5580      -640.5566      -537.1191
