     0.02500000      -1374.252       1559.813      -12345.00      -12345.00
      -29.99505       218.3549      -19.57000      -12345.00      -12345.00
       0.000000       14.77000      -12345.00      -12345.00      -12345.00
      -12345.00      -12345.00      -12345.00      -12345.00      -12345.00
      -12345.00      -12345.00      -12345.00      -12345.00      -12345.00
      -12345.00      -12345.00      -12345.00      -12345.00      -12345.00
      -12345.00      -31.28310      -69.41950       1383.000       0.000000
      -31.06700      -68.46300       0.000000       100400.0       0.000000
      -12345.00      -12345.00      -12345.00      -12345.00      -12345.00
      -12345.00      -12345.00      -12345.00      -12345.00      -12345.00
       94.27828       255.0316       75.52430      0.8476698      -12345.00
      -12345.00     -0.1129742       90.00000       90.00000      -12345.00
      -12345.00      -12345.00      -12345.00      -12345.00      -12345.00
      -12345.00      -12345.00      -12345.00      -12345.00      -12345.00
      2008       164        19         3        57
       370         6    -12345    -12345      9935
    -12345    -12345    -12345    -12345    -12345
         1         7        13    -12345    -12345
    -12345    -12345    -12345    -12345    -12345
    -12345    -12345    -12345    -12345    -12345
    -12345    -12345    -12345    -12345    -12345
         1         1         1         1         1
CALI    -12345          
        -12345  -12345  
-12345  -12345  -12345  
-12345  -12345  -12345  
-12345  -12345  -12345  
-12345  -12345  -12345  
-12345  -12345  BHE     
ZL      -12345  -12345  
[...]
       390.1201       392.0206       384.4106       344.4026       322.8109
       336.1365       319.6753       293.9899       286.2602       279.2881
       253.2569       246.7693       232.5947       233.4553       220.1206
       196.5431       198.0410       187.2657       170.7901       171.6765
       146.8666       149.2792       148.1112       133.4790       123.2887
       111.0451       106.1377       122.3891       118.8306       102.2629
       90.15875       100.8564       112.3758       95.82794       84.58925
       77.46745       78.57291       81.14288       76.74768       58.89969
       62.63351       76.33786       73.66876       61.32158       49.03156
       40.08862       54.53043       46.22476       37.63828       43.80127
       26.58051       4.886804       7.212217      -7.840385      -8.724014
      -24.07230      -32.09503      -45.03160      -55.81390      -51.63658
      -70.73264      -83.44682      -71.02094      -85.74326      -106.2877
      -110.3643      -124.8728      -143.4415      -145.3237      -166.2913
      -196.5797      -197.6106      -199.7970      -215.6682      -206.8380
      -233.3856      -260.2952      -239.4616      -239.5300      -261.4390
      -256.6257      -258.7142      -282.2353      -299.6198      -300.3569
      -303.8190      -316.7070      -325.9177      -332.9503      -348.9130
      -352.7253      -349.3384      -354.6082      -361.3322      -364.9901
      -379.4070      -395.8308      -384.5696      -393.0234      -403.7764
      -392.6045      -400.0635      -399.2496      -396.4500      -398.8777
      -391.5166      -392.3036      -397.0217      -389.1438      -378.7849
      -380.5206      -371.6334      -355.6738      -367.6351      -351.0361
      -353.9064      -365.0496      -352.2456      -342.9531      -358.6093
      -372.9120      -370.4980      -358.8241      -337.7924      -283.5197
      -254.4533      -294.2637      -349.0707      -303.2347      -250.2067
      -263.2072      -277.4427      -270.1879      -277.1830      -235.6238
      -177.2742      -143.1937      -209.4380      -264.3402      -159.2404
      -156.8384      -346.7403      -254.0220      -17.15381      -199.9002
      -355.1425      -172.0049      -205.8909      -251.6026      -158.5976
      -155.0836      -171.3694      -208.2688      -293.1388      -194.2167
      -143.9653      -230.1073      -151.0408      -133.4183      -237.8329
      -255.9602      -252.0853      -240.5401      -247.3431      -241.7095
      -243.4888      -256.4699      -214.2197      -226.6035      -283.7466
      -215.0627      -237.7947      -285.7568      -213.9965      -221.6112
      -283.0082      -268.1113      -235.2094      -230.7568      -268.7196
      -247.9410      -226.1462      -232.5244      -248.4263      -214.5948
      -163.8783      -189.7523      -245.9588      -181.6797      -146.3499
      -177.9693      -195.4821      -121.8502      -79.90466      -113.2365
      -138.7808      -43.15533      -12.18427      -95.48751      -54.62375
       42.75516       16.48840      -25.53158      -21.06821       5.211823
       19.73251       13.73271       35.27815       86.06870       63.78665
       91.81703       71.68434       65.94585       77.73517       78.27258
       105.7377       79.36710       64.74493       106.9417       133.6534
       128.2473       77.52295       114.7800       158.7590       135.2793
       113.4232       116.1415       121.0538       132.6683       112.2242
       167.2504       253.0915       173.4285       66.47974       200.2388
       296.4928       140.5921       84.18781       173.1868       44.36072
       21.38013       257.3707       220.5869       135.3042       293.1956
       159.6786       65.48309       319.3694       262.2460       84.21967
       243.7264       380.0758       257.2046       109.9589       243.8254
       289.3311       118.1436       166.0536       329.0893       188.5328
       60.08783       268.6470       266.6442       113.5972       252.9391
       164.3589       122.5159       384.9537       221.9337       29.85669
       259.7139       295.8784       184.0991       168.7964       139.2660
       66.69678       182.2458       322.1100       104.9047       19.25140
       271.1316       215.6638       167.6133       214.8471       11.29199
       101.4779       285.4253       131.1332       122.1566       175.4052
       81.98267       74.32837       234.6147       228.2875       127.1423
       206.4224       173.2028       67.36938       184.8286       160.9938
       67.79797       182.4241       174.8533       141.2673       190.5602
       83.47144       88.49988       181.3546       177.5134       173.9108
       166.2961       247.9195       146.1008      -60.34314       156.2886
       308.1314       85.82553       36.51547       187.8052       119.3844
       121.3867       200.6727       175.8686       117.6730       114.6545
       236.2613       221.8790       163.3396       161.4600       108.6161
       209.4298       221.1700       132.1200       185.4841       221.4047
       166.9515       191.2736       250.5221       182.9785       192.0323
       286.4391       234.4636       172.9943       207.3609       190.1046
       161.6962       208.9753       195.5526       184.0741       276.2120
       252.2856       121.1672       174.1191       253.1833       172.8152
       179.9182       194.8787       92.65448       77.76361       151.1833
       129.0711       118.5115       158.3375       94.04738       26.71097
       45.40190       92.25352       62.39700      -28.87991      -23.41385
      -11.84387      -33.75327      -64.44214      -134.0023      -141.5888
      -151.6040      -164.0111      -148.4891      -204.2543      -205.8077
      -223.5306      -264.3643      -241.3334      -280.5957      -381.4154
      -320.7809      -193.3225      -306.2650      -410.2703      -364.5441
      -387.2485      -407.9769      -364.9229      -378.0072      -445.3591
      -430.8870      -368.1947      -428.6189      -447.3013      -387.0739
      -425.7024      -442.9208      -468.5425      -453.6550      -394.1298
      -433.6912      -423.7308      -369.1809      -377.7629      -392.1240
      -375.0298      -368.0730      -335.9279      -297.1018      -302.2717
      -361.3427      -354.8171      -282.4885      -281.4242      -317.3361
      -269.8341      -246.2679      -260.9262      -184.4361      -116.8430
      -176.2787      -186.0322      -106.9305      -140.7019      -195.3747
      -144.0272      -134.0365      -113.9863      -60.76528      -17.63434
      -71.25305      -106.7351       14.24580       80.81398       27.45787
      -58.74026       14.26074       70.61720       14.27652       84.23059
       94.26627       81.37518       131.6127       100.5023       77.28317
       43.23799       45.73520       114.3348       97.51910       78.39493
       88.36017       107.6181       133.1194       119.3157       87.24768
       86.21832       96.96997       89.80627       55.16902       56.70944
       24.78226      -6.354279       87.30743       69.51260      -35.96666
       24.76120       54.83423       27.29391      -27.68385      -57.17422
       46.24265       48.40774      -49.81110      -9.577942      -5.448671
      -15.56807       18.04802      -27.75235      -2.713745      -4.043861
      -54.50106       1.807167       33.03461       44.45085       52.47466
       15.05940       31.71502       21.95039      -1.276520       104.5465
       106.6592       2.616074       60.53583       118.2389       60.10724
       97.20792       167.7100       96.71820       66.46069       166.9797
       193.1576       142.4980       145.4940       148.8950       176.7531
       164.6397       133.3336       160.9938       112.6766       150.6245
       232.3563       159.4849       192.1257       199.4314       130.2988
       178.2181       208.3189       192.8720       154.1383       158.4219
       243.6462       224.1051       192.6050       178.2519       86.31067
       140.9861       276.3237       230.9662       144.3015       140.9307
       190.7640       189.7177       192.5285       222.2356       220.6231
       205.7111       172.9954       246.2554       266.2520       209.9652
       276.7010       227.9330       160.6566       231.6144       234.1931
       215.9407       230.4868       202.9546       207.7365       227.2523
       251.4758       207.5297       199.1265       215.4224       202.5015
       211.5566       204.1151       224.9956       246.2143       235.6422
       209.0635       236.3115       276.0013       218.4980       246.7993
       289.7152       276.2829       250.8806       244.8016       236.0308
       241.9528       291.9813       308.8467       338.9442       339.4021
       262.9399       317.3873       322.0970       204.8023       251.5045
       328.8914       301.3393       314.2465       392.0735       394.9358
       293.1384       310.0483       363.4172       267.2784       286.0662
       345.2775       275.7836       229.1685       285.8768       322.5453
       276.4454       255.2484       295.5536       241.9454       168.4843
       212.1783       264.9530       182.5300       116.1424       171.4881
       148.0189       87.03076       143.8116       87.32896      -8.102905
       58.37803       14.59367      -71.49983      -30.59718      -55.66531
      -82.93112      -62.95023      -96.45490      -177.2305      -185.6051
      -135.0126      -186.4347      -223.7842      -224.9938      -278.7242
      -266.1890      -280.0797      -334.7510      -351.1163      -382.2524
      -366.3506      -347.2291      -393.7168      -442.1029      -469.1909
      -427.2361      -377.4186      -500.0613      -525.7168      -510.8080
      -580.1572      -487.0645      -461.4412      -595.3523      -548.8386
      -533.4727      -598.1962      -517.2793      -490.1316      -589.4084
      -560.6741      -515.3817      -561.7800      -560.6238      -574.5859
      -613.1562      -520.9061      -440.8738      -501.4739      -540.1724
      -523.8650      -534.9053      -500.9608      -437.5835      -483.6704
      -483.0129      -385.5919      -382.8457      -431.4321      -449.6562
      -420.9673      -342.3143      -312.3750      -345.6692      -364.3496
      -345.4792      -310.6829      -295.0446      -272.9309      -233.0425
      -255.1195      -269.9816      -270.3143      -261.6826      -211.2379
      -235.6160      -211.8160      -117.9153      -157.6818      -222.1390
      -198.8824      -166.1647      -127.5326      -111.1734      -132.2621
      -113.0685      -107.9137      -92.21785      -37.17439      -59.85927
      -96.07291      -45.10558      -19.72234      -35.05390      -24.96110
       8.935452       7.360115      -17.86581      -29.93704      -35.20488
      -1.844681       66.38602       37.52834      0.8620453       55.77895
       46.87778       29.01373       82.51775       18.80328       42.65741
       142.4557       97.13385       100.9350       130.7325       110.3794
       181.5211       142.2047       91.62466       175.3318       123.5316
       127.2797       258.6042       205.6122       81.37500       162.0605
       263.8308       191.3539       227.8705       269.6321       177.4521
       225.3359       284.8929       226.2416       198.7305       213.3323
       262.7121       222.4141       196.8925       251.9217       262.2209
       270.7260       276.4736       293.3298       287.9226       249.5067
       237.7477       251.4739       257.2134       338.1432       345.4680
       165.0549       256.6014       324.4739       180.2335       209.7170
       275.4611       258.4235       303.3791       243.2418       179.3784
       264.6216       207.5876       139.2571       295.2156       253.9884
       95.20105       178.9609       258.8514       221.1447       144.2201
       118.5996       216.5055       237.6096       123.4915       49.99841
       111.0176       100.2750       48.26166       126.9960       208.5936
       154.1076       62.53250       104.7945       59.32318       30.00226
       128.6009       3.329613      -51.68790       64.91986       54.90466
       62.88388       109.7510       37.84298      -15.31493       4.639692
       17.51090      -25.29731     -0.3001251       40.55428       14.14417
       22.61456       104.6637       75.46036      -45.61096      -253.0281
      -579.1467      -711.8652      -591.7506      -362.3833      -26.56140
       209.2167       316.0599       345.3070       190.2848       112.7048
       275.0289       385.4485       36.51794      -576.2755      -386.6592
       252.6576       615.6998       431.6460      -708.0620      -1052.667
       552.3403       1559.813       848.8264       102.0548      -133.5916
       115.3359       75.09717      -935.9640      -909.0432       162.5217
       666.6479       272.9910      -422.5922      -388.1413       3.547485
       203.9839       603.9890       963.7021       790.6840       218.5743
      -612.6649      -658.2623       200.1814       581.5332       672.8206
       844.7078       812.9797       331.3445      -411.9297      -1035.404
      -751.2922       264.9915       498.7936       153.6733      -22.20894
      -88.30536      -57.16867      -220.4317       7.856689       542.2593
       159.4385      -517.8046      -596.6658      -339.7076       241.1980
       592.8267       402.9694       368.0722       174.1307      -299.6600
      -151.0889      -40.48660      -155.9028      -57.80023      -61.47736
      -94.88794      -118.1859      -66.43286      -156.8614      -205.6563
      -4.983032      -178.8784      -429.3499      -448.3638      -339.1656
      -131.9713      -114.6401      -225.8412      -324.6381      -358.7797
      -193.8087      -241.7546      -352.9824       175.2296       511.8664
      -170.8809      -616.2927      -645.5579      -612.1119      -72.19373
       20.19458      -695.1517      -670.1727      -59.45181      -86.12402
      -269.3746      -309.7842      -646.2782      -661.6184      -109.5531
       22.20605      -424.1342      -648.0953      -504.9619      -335.5867
      -325.3557      -420.0686      -495.5559      -500.3729      -367.4251
      -75.85585       19.45258      -136.9661      -95.94299      -135.8406
      -118.9781       272.8019       11.52429      -647.5007      -445.6279
      -5.970703      -289.8860      -485.8780      -305.8055      -319.5530
      -97.12517       76.76758      -169.0112      -258.2528      -171.7107
      -361.2051      -469.0858      -197.2592      -338.2946      -486.8022
      -53.13422       195.4166       173.2981       128.7793      -81.60638
      -176.1381      -112.4152      -144.5520      -156.6061      -99.56281
      -232.7534      -110.6903       301.0723       92.70947      -189.3375
      -88.43384      -233.5487      -229.3013      -45.70508      -211.4736
      -109.1350       159.7416      -56.25677      -174.8238      -151.1053
      -214.3770      -137.7617      -104.6974      -127.0389      -18.54745
       107.4481       194.0254       237.3223       136.9056      -64.81683
       102.8734       310.8635       274.6819       268.7491       156.3066
       102.7171       164.8712      -57.98514      -200.7899       71.03000
       162.5302       181.0624       120.6538      -23.55493       180.2540
       275.2153       74.33513      -7.425812       52.37921       66.44360
       144.3232       243.8853       337.7590       365.1371       173.1824
       156.6871       269.1920       233.2336       179.2822       116.1888
       104.3206       169.5189       180.6259       90.07996       204.2454
       345.7263       156.6312       88.00800       107.3618       31.82458
       241.8890       275.7050       130.1506       387.7267       416.3029
       147.4434       230.4325       276.6465       258.4685       286.8690
       291.5250       206.0555       55.67358       236.7489       397.0444
       271.3314       228.8439       206.3676       178.8485       323.4939
       450.1037       345.3748       262.8497       253.2343       304.5172
       380.6539       284.6359       266.3495       320.8535       348.9688
       548.1072       487.1750       259.8403       378.5781       475.3680
       399.7164       365.0646       319.8428       278.0903       214.0444
       186.5891       319.5173       455.6318       384.4327       358.7292
       454.9998       488.9216       437.8947       377.7659       350.0006
       465.1495       539.5847       474.1758       394.2972       349.8605
       327.7339       345.5990       421.1785       447.1031       452.4192
       437.9531       423.7673       391.2666       362.3342       315.3683
       223.0690       299.8226       352.0002       339.8552       360.9546
       283.2133       175.7273       140.7264       187.3728       279.3932
       349.4574       326.2767       304.7411       273.6881       291.2202
       323.4079       122.2919       28.63745       151.8157       104.8662
       72.76392       228.5107       116.1871      -18.06897       74.30521
       87.02405       184.4730       71.46762      -120.2369       91.70842
       136.7756      -28.57063      -30.52054      -90.67328      -90.46683
       35.99178      -12.02136      -152.3827      -138.6746      -172.3146
      -315.3447      -234.9279      -181.3076      -210.6837      -227.9056
      -342.7654      -264.2107      -246.5366      -346.6315      -319.4681
      -286.3846      -242.7072      -188.8041      -294.9272      -458.8593
      -387.1320      -277.4781      -365.3442      -373.8423      -300.4229
      -304.0044      -488.8264      -608.8364      -498.2408      -459.7277
      -429.1199      -353.8071      -429.3396      -487.2754      -427.8379
      -443.6777      -603.1782      -628.0071      -494.6907      -468.4517
      -497.4346      -472.0239      -545.7219      -611.8098      -586.1521
      -608.2678      -606.6921      -576.5103      -514.2030      -486.2410
      -592.6107      -628.0527      -621.6375      -551.2816      -520.9631
      -578.2932      -534.5076      -525.0237      -500.2076      -415.2216
      -443.4786      -561.3552      -610.7251      -539.8346      -517.2651
