     0.02500000      -2213.359       1442.474      -12345.00      -12345.00
      -29.99505       218.3549      -19.57000      -12345.00      -12345.00
       0.000000       14.77000      -12345.00      -12345.00      -12345.00
      -12345.00      -12345.00      -12345.00      -12345.00      -12345.00
      -12345.00      -12345.00      -12345.00      -12345.00      -12345.00
      -12345.00      -12345.00      -12345.00      -12345.00      -12345.00
      -12345.00      -31.28310      -69.41950       1383.000       0.000000
      -31.06700      -68.46300       0.000000       100400.0       0.000000
      -12345.00      -12345.00      -12345.00      -12345.00      -12345.00
      -12345.00      -12345.00      -12345.00      -12345.00      -12345.00
       94.27828       255.0316       75.52430      0.8476698      -12345.00
      -12345.00     -0.2915063       0.000000       90.00000      -12345.00
      -12345.00      -12345.00      -12345.00      -12345.00      -12345.00
      -12345.00      -12345.00      -12345.00      -12345.00      -12345.00
      2008       164        19         3        57
       370         6    -12345    -12345      9935
    -12345    -12345    -12345    -12345    -12345
         1         7        13    -12345    -12345
    -12345    -12345    -12345    -12345    -12345
    -12345    -12345    -12345    -12345    -12345
    -12345    -12345    -12345    -12345    -12345
         1         1         1         1         1
CALI    -12345          
        -12345  -12345  
-12345  -12345  -12345  
-12345  -12345  -12345  
-12345  -12345  -12345  
-12345  -12345  -12345  
-12345  -12345  BHN     
ZL      -12345  -12345  
[...]
      -636.1377      -627.3848      -624.9825      -622.8059      -614.8054
      -599.4014      -603.5896      -592.5073      -592.7432      -587.1722
      -564.6375      -550.1794      -561.1759      -550.3662      -544.6149
      -525.8718      -511.6309      -500.9803      -499.1592      -488.0472
      -473.6764      -467.1892      -454.2819      -424.8228      -417.9033
      -402.0284      -393.8829      -376.2472      -359.9656      -344.4314
      -354.9518      -335.9867      -315.2790      -307.3710      -294.9867
      -278.3829      -281.5020      -254.1363      -240.2344      -232.6550
      -227.8693      -231.6373      -233.1992      -208.6852      -194.7205
      -198.6279      -219.2668      -206.1767      -194.0728      -182.9568
      -184.9106      -176.6407      -168.6669      -160.0335      -153.9618
      -138.2673      -134.9013      -142.6021      -132.9496      -97.77542
      -100.9352      -101.0159      -91.98129      -81.64218      -71.77301
      -58.86253      -53.56430      -45.27990      -25.16224       1.678833
      -7.738373      -8.636292       19.78740       37.14455       26.53201
       39.97452       64.21561       70.12840       81.39276       89.13333
       88.93512       98.64392       112.2304       119.1777       125.0972
       129.7753       154.3579       169.3285       146.4204       148.2615
       167.6054       157.4763       154.5579       169.8154       165.2390
       153.8047       161.9972       163.4886       156.0313       158.1108
       157.9871       154.0945       152.4002       154.0142       133.6646
       132.0729       136.8866       124.6174       112.4167       121.7880
       99.23618       67.89328       57.04665       67.06378       60.96957
       43.95470       36.69575       39.73582       31.26608       38.55265
       27.98077      -7.589767      -23.13152      -23.67455      -39.81189
      -26.79917       6.916977       7.348381      -35.32176      -38.97794
      -15.58374      -48.35049      -112.0564      -85.27411      -7.420197
      -38.01135      -145.0468      -73.15096       63.30048      -54.54555
      -149.6089       78.46306       58.42944      -234.6578      -232.5811
      -85.01233      -83.90851      -169.9389      -92.08398       48.51160
      -138.5957      -177.0607      -27.54831      -42.37357      -52.77835
      -43.26920      -93.58398      -136.6719      -161.4415      -142.3906
      -81.87885      -20.08789      -110.5438      -185.6462      -178.6695
      -153.3939      -100.4616      -143.3860      -174.9178      -92.32092
      -96.20578      -141.4293      -108.0420      -112.8069      -168.6428
      -117.6715      -72.93030      -122.6385      -130.0273      -60.40025
      -15.09041      -46.13159      -114.9788      -91.60175      -39.52814
      -76.89833      -87.34486      -23.32869      -50.43234      -128.4758
      -74.88958       50.85497      -19.24423      -89.63139      -25.25595
       30.16723       4.226349      -52.77824      -37.30419      -2.613953
      -13.05238      -40.35801      -19.37947       10.09390      -30.11439
       2.836975       70.79256       55.16588       45.48204       39.59138
      -4.905945       62.96106       97.13754       71.10141       103.9465
       97.85443       100.0082       137.5641       133.4209       98.97119
       115.3363       202.0754       209.4171       163.1122       159.7146
       230.4454       264.8328       216.7112       220.5714       249.0038
       266.7047       324.6826       330.4765       263.6813       299.5071
       385.7585       350.6143       292.0585       322.7529       336.3079
       299.1216       388.7073       468.5504       390.4268       321.4629
       410.0427       482.2399       417.4326       448.8470       504.5601
       351.6166       340.8784       512.3969       382.1570       318.4191
       564.5056       434.0037       237.8173       417.6898       458.6365
       339.3555       427.2688       519.6855       369.8796       330.6738
       451.1493       403.5659       371.3638       388.6166       404.0652
       358.2020       370.6943       507.5400       431.4557       327.4487
       399.0544       363.2273       319.6746       354.4430       385.0116
       402.0978       383.9945       298.8663       273.0115       327.1011
       423.5590       369.4246       302.7034       431.7732       415.4357
       310.8427       291.7868       314.4081       338.5287       272.0494
       303.0540       357.2948       248.1632       203.3092       350.7234
       350.4376       253.0775       306.6751       271.1582       177.1838
       230.9780       290.6932       214.0995       207.7844       274.1511
       180.9403       173.5588       219.7623       158.8193       131.2293
       188.4694       175.2656       33.31143       47.81552       135.3307
       73.26471       85.71808       154.4800       96.16208     -0.9929123
     -0.7908020       43.93787       39.63791      -15.65187      -70.97595
      -4.917183       67.09210      -96.93539      -189.7244      -50.68820
      -45.58466      -169.1871      -138.2453      -102.7360      -164.2913
      -191.4238      -163.7152      -211.0450      -248.4765      -253.2343
      -210.2663      -247.1533      -365.8414      -297.1453      -208.1500
      -317.2501      -424.2305      -428.8058      -367.6396      -380.9844
      -445.0566      -458.6599      -498.1895      -482.5339      -430.9681
      -484.9691      -557.9070      -547.0895      -510.9199      -559.7891
      -633.5956      -598.7518      -562.9338      -633.8923      -652.1458
      -668.3076      -681.0898      -637.4529      -661.6812      -757.2000
      -800.1021      -736.1714      -676.5056      -750.8320      -787.7346
      -770.3123      -798.3887      -758.0828      -804.0266      -813.2007
      -777.2461      -889.3167      -844.3384      -769.3613      -840.0237
      -855.7583      -814.1355      -820.9155      -829.1938      -862.9058
      -899.9741      -817.4058      -770.4072      -773.7483      -740.6069
      -787.7141      -835.5669      -773.5315      -753.0945      -798.4353
      -776.7476      -733.5237      -726.1099      -734.8137      -692.4175
      -683.9836      -681.7244      -598.9497      -581.8671      -668.3167
      -658.9856      -562.7866      -549.8397      -560.6606      -519.6870
      -545.8093      -540.5050      -500.4182      -512.1262      -482.7889
      -412.5957      -414.1007      -437.8258      -435.0564      -388.8179
      -357.1705      -351.9796      -362.6654      -363.9061      -285.2646
      -239.9630      -293.3090      -244.1027      -206.1274      -180.2788
      -93.14709      -134.1016      -149.0959      -34.58311      -43.77759
      -55.45416      -9.839439      -37.33185      -10.84756       89.09753
       95.21826       99.82846       139.7571       170.8629       208.3513
       208.0327       215.7421       274.7572       307.4398       294.9070
       263.6787       321.0093       358.3040       360.2714       366.9890
       380.1165       406.9120       424.7371       387.2931       369.9667
       415.0775       499.5894       500.5975       454.1445       449.2764
       499.2017       536.3391       547.9167       520.3003       518.7185
       518.0625       537.2639       548.9777       563.4993       525.6982
       587.9941       663.9285       625.8425       608.8501       695.3918
       704.5983       583.8083       584.6150       718.8979       752.4458
       773.9514       744.9312       744.1335       758.8950       708.7488
       738.0337       858.5601       828.2852       799.4690       875.0000
       938.9399       877.6824       823.2473       823.0642       847.0173
       901.9170       948.3896       910.0002       906.4331       932.5349
       979.4199       944.3066       939.6741       994.8398       1015.506
       966.7820       956.5830       955.0520       989.9731       993.4922
       982.0137       1018.273       1016.176       983.1228       1008.738
       984.3491       983.7891       998.7695       1010.268       967.3760
       935.9612       935.0417       937.6323       947.8921       996.2803
       927.0273       862.8403       910.2661       911.0383       813.3887
       795.2676       821.5149       785.9583       737.8784       755.3184
       721.9957       676.6213       679.7891       636.9866       583.0417
       628.2551       625.2709       535.8362       465.0376       506.7820
       527.8207       474.7029       406.5559       368.7072       326.9849
       300.4865       290.2632       310.3852       278.4083       198.9874
       181.5251       226.2230       218.2869       210.0549       172.8701
       149.1310       86.55933       53.16339       31.10831       4.253815
      -53.58707      -48.84549      -4.501709      -41.47971      -103.9528
      -61.80649      -41.13126      -72.92578      -122.6154      -134.5892
      -183.2449      -210.0458      -190.7086      -200.6721      -291.0293
      -258.5663      -273.5297      -374.2450      -369.3243      -293.2155
      -358.9250      -429.5334      -425.2917      -395.1060      -452.9243
      -505.0970      -442.3872      -436.5760      -573.5071      -552.5662
      -498.2754      -565.6404      -617.5312      -612.8026      -684.8142
      -649.8850      -635.9730      -658.2466      -691.9495      -733.3865
      -686.9475      -686.9607      -805.2788      -781.0432      -723.0750
      -780.3975      -877.8530      -890.6816      -829.3501      -828.7705
      -902.0620      -905.3550      -962.2849      -979.4875      -912.5513
      -898.4863      -968.1472      -1002.736      -992.2488      -1021.011
      -1077.827      -1017.971      -1032.233      -1084.849      -1055.266
      -1099.039      -1134.040      -1081.033      -1130.223      -1169.938
      -1130.586      -1108.418      -1184.739      -1164.110      -1108.814
      -1157.696      -1202.448      -1181.619      -1179.688      -1197.502
      -1214.862      -1186.481      -1181.398      -1216.499      -1258.595
      -1197.266      -1159.544      -1211.836      -1222.022      -1172.011
      -1153.045      -1190.375      -1191.277      -1133.896      -1149.775
      -1145.627      -1115.288      -1052.325      -1009.608      -1057.986
      -1072.990      -998.8779      -987.1384      -1002.263      -962.5959
      -937.5791      -941.2493      -904.3608      -871.2410      -823.7681
      -803.4419      -790.5334      -709.4741      -674.8376      -740.7684
      -685.6372      -609.2438      -593.3942      -528.7849      -475.3074
      -441.2036      -410.8424      -402.0001      -331.3937      -311.6633
      -285.1982      -207.7999      -181.0329      -144.5317      -83.00903
      -122.9459      -77.82204       10.89580       33.37756       100.3305
       139.7827       142.1718       238.3052       313.8660       317.8887
       300.5016       350.9426       413.6038       422.5638       428.8157
       498.2041       577.8577       612.1802       647.9442       668.4835
       651.4165       700.2910       783.5625       804.8076       853.6316
       937.5532       917.3835       895.3665       903.7183       950.7939
       1034.099       1056.799       1018.604       1042.330       1076.099
       1101.722       1183.173       1226.627       1189.294       1182.479
       1248.187       1283.771       1290.071       1307.992       1306.468
       1303.031       1345.738       1408.680       1370.582       1288.790
       1363.475       1436.195       1410.779       1359.796       1327.012
       1393.673       1420.748       1427.677       1422.137       1322.050
       1340.352       1380.705       1315.799       1321.936       1384.589
       1337.160       1185.612       1249.784       1376.054       1276.471
       1149.056       1158.550       1213.443       1224.256       1188.922
       1139.892       1100.420       1063.892       1057.021       1136.849
       1071.720       919.5208       984.7297       1016.017       932.8171
       899.6040       852.1606       844.9888       836.6841       875.2563
       894.1221       803.8770       735.6199       708.7676       688.1384
       630.5769       618.3923       731.6550       662.6460       443.2369
       453.9507       660.1941       623.8459       450.2213       483.7324
       489.6680       377.2505       458.7554       523.5248       335.0603
       260.6526       302.4706       136.9229      -69.13507      -240.8170
      -457.6860      -553.1250      -409.4337      -247.3108      -191.5613
      -124.3735       55.57739       353.0127       889.8369       1016.890
       461.7819      -91.63718      -283.4545       183.7407       1171.276
       1442.474      -250.9536      -2213.359      -2030.464      -643.4607
       237.9587       332.1025      -518.6177      -1687.224      -1466.879
      -677.5190      -399.8324      -77.52910      -7.488892      -215.3892
      -265.5649      -384.3186      -958.1592      -1620.685      -1506.399
      -428.7079       236.0291      -427.5376      -1208.753      -1093.587
      -842.4890      -1199.148      -1636.323      -1252.243      -128.0549
      -79.17041      -1388.284      -2059.576      -1393.259      -695.0659
      -586.9253      -1046.261      -2018.926      -1752.999      -816.6021
      -703.0344      -727.3149      -924.0249      -1315.508      -1278.969
      -978.7461      -918.3394      -1118.550      -1148.561      -1009.621
      -1144.254      -1017.605      -843.2041      -1470.113      -1823.530
      -1552.886      -1483.333      -1474.582      -1425.685      -1574.029
      -1256.072      -767.8457      -1131.567      -1226.844      -512.8179
      -574.2563      -1428.800      -1404.684      -651.3564      -532.7227
      -914.9038      -788.5271      -764.8789      -1527.910      -1687.779
      -912.8684      -752.5764      -1143.575      -1122.008      -686.4590
      -597.6025      -1010.785      -1226.323      -1080.416      -884.7405
      -929.9910      -884.7986      -660.1426      -784.0339      -812.9993
      -667.5582      -581.4519      -323.4517      -411.7611      -616.5706
      -420.6215      -252.0828      -227.0008      -224.0127      -261.5146
      -502.3291      -529.2092      -321.1720      -308.2644      -276.1425
      -342.9177      -342.3846      -102.0084      -255.9412      -392.0743
      -258.3905      -123.4398      -127.8572      -421.7363      -396.8802
      -84.90869       129.7101       306.4877       286.1584       158.5167
       159.7783       77.74072       83.78687       420.7342       371.9108
       224.2828       461.6140       439.4382       343.9535       592.1349
       635.4148       237.4737       34.31689       416.9272       737.9666
       779.0156       834.1570       498.8962       228.6217       384.5603
       506.2942       614.9153       639.4347       609.9324       652.6277
       688.0361       630.8359       519.8557       601.5876       770.2637
       836.6230       874.1274       893.7959       843.7495       853.5688
       1051.164       1124.005       881.1799       756.9912       894.7644
       932.9561       856.3799       717.7715       684.8362       875.1306
       1028.497       959.3623       836.5569       864.2649       928.6362
       944.9468       927.2278       978.6069       843.0151       753.3125
       1191.188       1276.594       862.5044       973.1326       1264.888
       1200.750       1205.958       1083.471       863.3657       918.5544
       1185.821       1265.926       901.7168       675.0188       872.4685
       1012.069       861.8921       876.8818       1088.746       826.1178
       498.6580       722.4980       887.0762       902.0244       1054.093
       1138.892       1165.368       1083.604       808.5430       754.1580
       973.0093       979.3997       891.2141       974.8806       838.3459
       613.8657       733.0903       768.7112       545.2983       659.3574
       771.1470       500.9991       546.3530       751.1237       675.7524
       625.4655       610.2009       552.9983       578.6702       538.7771
       378.0675       345.3734       404.7830       451.1444       439.3467
       327.5348       389.4598       545.2090       356.2365       137.7037
       162.6646       270.2067       310.0500       174.3091       130.2699
       38.28848      -77.20961      -60.37767      -55.59795      -62.18990
      -62.07013      -30.68890       35.11694       114.4198       62.27464
      -46.32115      -42.28775      -30.47845      -138.1818      -306.5098
      -238.3397      -145.0948      -182.8043      -246.1576      -301.4137
      -338.9502      -533.1602      -455.3071      -302.2039      -472.0459
      -555.1128      -647.8107      -657.0814      -497.1475      -445.4746
      -517.9904      -576.4685      -598.0491      -669.0454      -791.0593
      -726.6162      -658.7769      -794.5095      -876.3584      -1003.264
      -1006.474      -817.9822      -934.2996      -1084.425      -974.9668
      -886.4849      -829.1797      -797.4121      -887.3115      -924.4023
      -917.2659      -952.3706      -905.7959      -856.7859      -1034.637
      -1181.938      -1094.471      -999.7227      -1105.825      -1237.259
      -1324.767      -1266.105      -1092.880      -1119.042      -1285.123
      -1304.033      -1285.821      -1229.259      -1144.733      -1033.282
      -919.2842      -1059.626      -1221.928      -1147.515      -1034.234
      -989.7336      -1015.375      -1019.692      -1036.427      -939.6223
      -834.5459      -945.0991      -1045.509      -978.7217      -820.7036
      -898.2271      -1143.122      -1048.421      -911.8896      -960.6521
      -1047.250      -1002.911      -909.2478      -826.4673      -728.1113
      -753.6108      -751.2617      -574.0453      -462.4585      -583.6260
      -742.4161      -683.1917      -565.6663      -521.4960      -446.5165
      -426.9495      -401.0562      -288.5475      -251.7594      -226.9940
      -144.7135      -115.4978      -153.6260      -117.8970       49.36948
       39.03941      -96.57593       29.15112       144.3313       54.33276
       113.4036       293.0934       302.6606       324.2941       478.1642
