     0.02500000      -1495.073       1729.442      -12345.00      -12345.00
      -29.99505       218.3549      -19.57000      -12345.00      -12345.00
       0.000000       14.77000      -12345.00      -12345.00      -12345.00
      -12345.00      -12345.00      -12345.00      -12345.00      -12345.00
      -12345.00      -12345.00      -12345.00      -12345.00      -12345.00
      -12345.00      -12345.00      -12345.00      -12345.00      -12345.00
      -12345.00      -31.28310      -69.41950       1383.000       0.000000
      -31.06700      -68.46300       0.000000       100400.0       0.000000
      -12345.00      -12345.00      -12345.00      -12345.00      -12345.00
      -12345.00      -12345.00      -12345.00      -12345.00      -12345.00
       94.27828       255.0316       75.52430      0.8476698      -12345.00
      -12345.00      0.2548755       0.000000       0.000000      -12345.00
      -12345.00      -12345.00      -12345.00      -12345.00      -12345.00
      -12345.00      -12345.00      -12345.00      -12345.00      -12345.00
      2008       164        19         3        57
       370         6    -12345    -12345      9935
    -12345    -12345    -12345    -12345    -12345
         1         7        13    -12345    -12345
    -12345    -12345    -12345    -12345    -12345
    -12345    -12345    -12345    -12345    -12345
    -12345    -12345    -12345    -12345    -12345
         1         1         1         1         1
CALI    -12345          
        -12345  -12345  
-12345  -12345  -12345  
-12345  -12345  -12345  
-12345  -12345  -12345  
-12345  -12345  -12345  
-12345  -12345  BHZ     
ZL      -12345  -12345  
[...]
       333.9054       323.7189       334.1996       295.1211       296.8551
       302.0325       287.8728       268.2723       286.1708       276.8469
       255.7797       253.5983       254.1427       225.7758       214.6789
       205.5775       215.4086       196.5873       195.9320       168.7292
       144.4514       137.2219       136.4355       129.2852       118.1218
       90.98788       117.8459       93.80710       67.41957       76.29199
       60.43987       29.92436       29.63217       13.79468       14.95952
      -5.880714      -6.963852      -19.69466      -24.74054      -52.44847
      -44.70874      -47.62839      -61.48959      -71.85530      -78.61508
      -90.28912      -90.22864      -119.5338      -109.8319      -119.2812
      -140.6190      -151.2118      -147.1959      -162.6113      -172.3654
      -158.7392      -181.0889      -224.7089      -206.9188      -214.0865
      -227.6718      -235.4052      -237.9376      -283.2194      -301.1093
      -293.6619      -313.2430      -336.8899      -350.0044      -362.9736
      -350.0752      -358.1624      -378.1974      -388.1556      -389.9481
      -453.4427      -458.5750      -421.9561      -432.7505      -467.2418
      -451.0427      -445.2212      -428.7948      -461.5167      -444.6855
      -471.4120      -563.6824      -544.8176      -472.6855      -536.0844
      -518.5210      -435.2913      -461.6047      -504.4636      -425.5493
      -434.7163      -457.0544      -470.4299      -486.0538      -481.6566
      -442.6113      -471.9233      -446.2771      -373.3624      -358.6776
      -382.5227      -334.5803      -305.8420      -296.6460      -284.7806
      -310.5093      -345.7015      -260.1496      -185.6418      -190.5424
      -192.8050      -145.5497      -152.6813      -171.0206      -141.3651
      -75.21133      -44.23445      -50.65744      -28.09901      -5.462606
      -10.33604       27.35784       28.89874       52.88455       97.68085
       112.8154       106.2613       124.8146       121.3076       140.3250
       178.4807       162.0685       159.3163       209.9008       204.8643
       192.4703       220.0711       239.1939       207.7964       229.7400
       256.7536       233.1756       233.6729       246.3354       243.1000
       229.2191       232.9897       289.0546       293.5790       258.7603
       236.2862       238.5708       232.0846       253.4698       269.6235
       272.6311       262.4649       221.4196       204.3027       229.1256
       237.7184       220.2378       222.5402       202.7036       177.1121
       205.5125       208.3607       198.4685       192.1883       173.4316
       92.04980       13.87885       152.9062       248.9846       23.21851
      -85.71082       188.4091       258.8335       94.73895       275.4195
       308.0752      -24.33882       7.570404       149.8104      -12.93311
       19.93666       64.43903      -60.15028      -57.44110       103.6409
       44.78751      -196.6074      -33.15436       190.2259      -28.04202
      -101.2063       111.5484       28.08334      -125.1608      -24.24478
      -89.77899      -270.9540      -83.24634       50.56255      -108.4655
       4.861282       17.93805      -122.5955      -64.59222      -111.1874
      -134.6280      -88.28623      -4.242340      -6.821838      -157.6562
       45.99503       45.81671      -229.3635      -66.04398       21.38876
      -130.1885       13.17099       88.38487      -62.46425       3.093781
       72.46643      -34.11426      -61.37125      -141.4072      -145.6595
       128.3926       93.97055      -134.6178       9.986023       64.38141
      -142.1039      -88.49954       123.5978       47.22529      -38.13907
      -22.65767      -82.38163       25.47207       7.454636      -103.6455
       3.270737      -5.806870      -42.28470      -32.04071      -25.61897
       10.76067      -98.01978      -36.04504       139.8835       23.13607
      -73.62000       104.9695       97.62227      -44.02793       15.27298
       84.34966       78.24779       24.51389       74.95767       67.36780
       76.45453       171.9326       113.7872       207.4940       180.5775
       64.69519       210.1362       267.8817       156.6716       142.3403
       250.8173       276.7238       178.3688       224.2153       292.1296
       247.7798       262.8774       235.2278       219.6461       282.4227
       325.4808       297.3415       160.5295       189.5512       244.4875
       176.2668       236.9893       300.6756       237.4800       174.6328
       142.8186       183.1078       288.3760       242.0340       97.35297
       110.0020       130.2381       133.3575       150.6371       107.6486
       107.3866       87.68213       14.00513       75.17163       105.0972
       75.59060       45.20476      -1.217209       57.28281       70.47227
       23.61000       12.89896       22.30156       19.81733      -25.58375
       10.37634      -1.714096      -68.69130       14.84473       100.0508
      -16.82291      -148.3183      -63.14904       7.304916       16.67319
       27.73431      -113.4018      -160.3084      -33.00604      -28.94806
      -123.4704      -97.53824      -21.74542      -136.4726      -184.4098
      -45.81409      -71.82462      -138.0349      -85.65289      -104.5244
      -135.8431      -117.2001      -138.0780      -179.2555      -168.3370
      -176.9781      -188.2875      -211.5488      -243.7733      -237.1931
      -213.6613      -219.4626      -208.4753      -141.9503      -150.8840
      -220.7094      -178.4447      -141.1156      -208.7507      -272.8425
      -242.9070      -226.7299      -252.4995      -187.5187      -82.68188
      -115.7094      -201.3096      -208.8838      -211.4083      -226.9919
      -140.3657      -77.46161      -126.6362      -220.3534      -146.1537
      -83.65198      -155.3049      -108.8145      -120.7823      -158.0517
      -74.56238      -99.92252      -152.2315      -48.44389       21.78995
      -78.93735      -119.5964      -72.63511      -19.40352      -14.19093
       1.733124      -14.95230      -71.08357      -23.88552       46.43457
       8.011473       1.744121       4.280939      -11.64912     -0.8497620
       41.07022       48.08996       34.59686       35.14709       10.42767
       41.72787       81.04165      -5.056778       28.57635       64.45825
      -39.08394      -77.77130       4.532700       22.08899      -1.342138
      -8.510185      0.8564148      -49.08170      -57.73473      -16.63602
      -64.64050      -90.07214      -48.18481      -69.91632      -123.4828
      -96.60744      -35.53180      -71.69751      -120.2430      -190.9027
      -154.6509      -97.41281      -151.3268      -156.4065      -95.09299
      -122.6312      -194.3049      -192.5817      -181.8079      -265.8864
      -284.8813      -232.2717      -186.6015      -174.7892      -274.9534
      -291.3791      -220.6240      -244.9517      -245.6974      -287.9894
      -357.9921      -363.5252      -345.2885      -298.2847      -294.6497
      -398.5071      -399.2905      -350.0852      -313.1050      -325.9663
      -393.8213      -375.5579      -335.0533      -295.8017      -261.0540
      -326.3132      -393.4910      -388.6039      -312.1618      -289.1151
      -337.6619      -324.3148      -273.1521      -310.6051      -328.7575
      -267.0355      -258.2162      -328.8242      -288.5999      -280.7502
      -300.2271      -167.7114      -134.0377      -251.6753      -222.0284
      -121.6475      -140.5816      -216.5805      -168.3621      -155.0356
      -187.4271      -129.9213      -96.33190      -52.02884       19.41600
      -32.89688      -61.27813      -29.83849      -9.545860      -3.772486
       3.445343       20.78799       67.46503       106.6110       149.1210
       125.2709       86.90179       83.63495       184.8764       227.1783
       146.0762       169.4790       269.9941       233.6614       274.4730
       333.5581       299.4889       272.5293       370.4539       417.8452
       369.2046       393.6003       436.9213       324.4685       397.2327
       546.5785       443.1174       423.5791       567.4419       552.0121
       545.3119       504.3889       612.8416       642.2476       502.8281
       586.4553       689.7063       661.1846       683.3306       674.4797
       708.1659       636.0610       682.4739       765.2056       692.7590
       710.5850       761.0146       715.7446       780.2712       727.4229
       638.6799       737.0320       821.8965       718.4253       655.3923
       681.8418       712.5195       720.4331       802.7061       719.8369
       647.4780       744.3291       721.3312       660.4534       651.4495
       652.4584       677.5710       643.4121       664.3955       644.9810
       627.4382       629.6711       641.7427       597.5312       569.4385
       561.7709       543.2166       550.1309       560.2966       523.3835
       522.0071       464.0322       393.3917       423.9531       441.2542
       377.7654       395.9197       378.5906       331.1372       268.2249
       304.3469       346.3864       275.2184       198.5588       230.7135
       269.8055       177.1907       96.31729       148.8505       151.7245
       177.5107       112.9559       67.12326       142.6519       113.6874
       43.77771       21.28576      -37.09814      -8.079918       24.54004
       7.969131      -48.55296      -51.21112      -88.42972      -129.7339
      -147.1240      -146.4710      -142.8276      -162.2859      -209.6479
      -247.5684      -198.9908      -163.2230      -236.4252      -245.7429
      -262.7708      -327.4585      -378.1945      -266.4636      -220.3447
      -340.6886      -361.4628      -317.0372      -346.9195      -346.5920
      -332.5457      -361.9009      -354.3391      -336.9922      -360.6763
      -352.7399      -401.4452      -444.7064      -385.4480      -360.6238
      -396.5549      -377.8795      -364.6520      -317.9877      -343.4824
      -423.0125      -464.1279      -431.2345      -383.3710      -347.4928
      -344.3843      -383.7036      -376.3796      -339.8956      -396.0845
      -389.4498      -364.1859      -446.3002      -485.5117      -375.4645
      -323.0754      -386.9436      -454.4069      -437.6755      -413.2078
      -472.3325      -496.1290      -402.3865      -354.4395      -386.7767
      -453.2644      -415.4159      -422.7094      -468.7654      -449.4580
      -500.5267      -550.3418      -461.2253      -423.1130      -542.2396
      -547.5760      -418.4163      -492.9604      -556.3958      -554.5151
      -582.2068      -655.9471      -634.1106      -580.0692      -586.6835
      -644.8477      -609.4741      -476.0502      -619.1509      -704.4999
      -490.4272      -602.5427      -679.3777      -612.4336      -705.7242
      -716.3473      -594.8105      -738.0198      -863.4053      -724.5015
      -680.7826      -681.0703      -536.6553      -659.1807      -799.6689
      -644.6155      -598.6707      -735.8782      -802.1348      -775.7878
      -677.3828      -668.6274      -669.5752      -721.6316      -703.7601
      -530.5021      -574.8906      -691.7415      -599.2690      -650.0623
      -592.7498      -469.7815      -550.3055      -527.7142      -490.9702
      -645.2966      -644.4895      -435.1957      -410.0784      -506.7477
      -463.4548      -416.5236      -374.6401      -307.4204      -347.0223
      -458.3391      -448.0021      -426.5916      -317.9429      -225.3954
      -313.2502      -349.0638      -362.6783      -275.7593      -193.8134
      -386.3196      -500.3218      -541.5270      -500.3020      -185.7652
       63.47754       143.1515       149.2785       176.5568       343.7730
       208.3580      -158.3357      -182.0958      -113.7057      -113.3936
      -38.14983       15.91776       134.4456       181.1062       305.1427
       599.5756       519.6003       450.6941       581.5597       380.2103
       197.2572       230.7274       389.6650       585.0267       491.1135
       234.6677       207.2898       612.4302       1036.169       934.8496
       427.3912       213.2339       759.8843       1240.936       754.4090
      -7.090088       170.2559       865.3308       1137.128       1044.730
       700.6157       650.0654       945.7012       1058.485       1043.060
       803.6062       543.1492       685.7959       949.4092       1164.876
       1250.608       1213.146       1438.452       1439.684       913.8462
       828.4207       1183.371       1172.204       744.0481       644.2812
       992.9036       1214.599       1323.800       1265.184       896.3767
       765.6616       914.9114       837.3203       952.6011       1175.209
       1072.258       1239.550       1653.375       1729.442       1545.655
       1254.116       1103.304       1098.057       989.6465       829.5979
       878.9917       1052.516       956.0239       868.7241       1192.243
       1286.863       901.0537       858.2925       1099.633       1048.269
       852.6943       686.4312       766.4185       1037.573       846.5096
       509.6733       590.3650       724.7229       829.7205       901.0586
       965.8420       1023.456       777.8450       583.5603       674.9027
       540.5577       332.4984       388.0977       515.3950       610.8394
       697.0864       693.0190       516.2341       271.7202       195.8926
       295.7091       230.0499       107.9448       198.9425       295.1812
       415.5844       294.0598      -110.2328      -159.2505       86.93015
       133.5766      -26.86738       5.353577      -4.328979      -270.3513
      -336.9562      -224.6229      -229.3333      -381.6228      -553.1866
      -577.7211      -441.6636      -299.6722      -203.8743      -220.4269
      -385.0981      -481.8284      -581.0618      -699.1042      -830.6816
      -880.2520      -756.4751      -714.5327      -837.6719      -927.0615
      -902.9653      -817.5913      -838.2400      -875.4297      -879.9602
      -906.2988      -1021.274      -991.2075      -802.9712      -972.2129
      -1200.129      -1078.171      -975.4487      -1041.530      -1197.206
      -1314.800      -1348.104      -1296.117      -1264.200      -1265.056
      -1274.085      -1250.319      -1204.758      -1209.151      -1253.959
      -1326.667      -1413.758      -1362.980      -1284.672      -1225.869
      -1277.191      -1440.212      -1495.073      -1407.814      -1308.184
      -1352.357      -1295.294      -1161.478      -1225.245      -1257.490
      -1303.841      -1285.759      -1161.141      -1205.605      -1208.471
      -1031.648      -1095.355      -1304.088      -1250.894      -1055.951
      -1019.344      -1133.300      -1113.644      -1030.953      -967.2224
      -895.1560      -952.4331      -997.2178      -917.3086      -819.1934
      -836.5830      -883.6567      -878.8005      -712.1453      -629.3933
      -758.5305      -835.3162      -757.1351      -641.2112      -628.4058
      -607.9771      -632.5032      -601.6348      -436.3784      -409.4677
      -463.8047      -453.7637      -397.6136      -341.3867      -248.1039
      -222.9200      -222.7941      -218.1770      -222.7870      -129.7716
      -76.59650      -154.0244      -58.22810       67.51525       17.31085
       54.71249       116.0327       105.7560       185.6911       149.9055
       99.13434       160.4144       238.6315       335.4719       317.2474
       275.2124       328.8295       232.3892       252.4310       370.5397
       337.2063       367.9756       465.0002       460.3325       487.2468
       581.3508       550.6155       493.0857       534.4430       466.2429
       449.4690       533.8582       565.1738       529.8606       608.9309
       769.9011       683.3566       553.9978       552.6893       468.8674
       485.3979       595.6199       674.6985       723.7222       789.7188
       735.0985       623.9280       736.2556       735.2776       626.7800
       763.6084       852.3025       773.6152       661.7432       636.7109
       785.4004       870.9048       769.3596       767.2268       892.7075
       905.0601       779.4678       766.8052       844.3892       768.7158
       756.1914       791.0076       752.6902       854.0059       860.1619
       789.5681       879.5767       942.6616       808.7390       718.6797
       909.2817       1021.677       983.8711       969.2971       964.4365
       904.6729       863.5259       837.5249       773.8252       802.1648
       883.3970       913.3984       914.0679       939.6296       916.6677
       777.8320       796.1802       915.6802       871.3687       811.3533
       846.6882       904.5422       886.6289       875.9658       914.1641
       833.3679       816.1924       828.6699       716.2136       731.4214
       716.3572       643.9576       670.6807       699.4043       717.8474
       729.3438       734.4329       644.3792       496.1047       403.6028
       465.1230       537.2729       476.2432       511.4175       497.2338
       402.5566       430.3536       406.2444       407.4706       441.3582
       393.3589       294.9672       303.4422       323.2079       295.3422
       309.7062       268.4457       189.6921       146.5750       118.9905
       100.7061       81.70448       72.77048       66.21233       12.88589
      -42.34290       67.41153       119.0919       28.19131      -25.19232
      -97.90576      -169.0515      -167.4907      -237.2737      -246.4664
      -104.2012      -120.7679      -181.3892      -159.5205      -165.4105
      -200.4146      -249.6122      -220.0199      -290.1007      -368.0780
      -327.7966      -408.9888      -468.1210      -418.2266      -442.3630
      -404.7463      -359.3956      -422.6796      -413.9136      -406.8854
      -446.7130      -465.6940      -567.1285      -545.4043      -509.4658
      -564.6071      -509.9637      -448.0250      -402.1432      -426.6938
      -534.0168      -533.8655      -520.6895      -536.8342      -553.1389
      -576.8290      -592.2458      -560.5342      -531.1213      -560.8508
      -613.7866      -600.8562      -554.5588      -516.6348      -610.0327
      -695.3118      -657.6621      -601.6078      -644.1178      -690.4879
