     0.02500000      -1323.168       1675.460      -12345.00      -12345.00
      -30.01002       220.0650      -21.46000      -12345.00      -12345.00
       0.000000       16.04000      -12345.00      -12345.00      -12345.00
      -12345.00      -12345.00      -12345.00      -12345.00      -12345.00
      -12345.00      -12345.00      -12345.00      -12345.00      -12345.00
      -12345.00      -12345.00      -12345.00      -12345.00      -12345.00
      -12345.00      -31.20700      -69.62850       2369.000       0.000000
      -31.06700      -68.46300       0.000000       100400.0       0.000000
      -12345.00      -12345.00      -12345.00      -12345.00      -12345.00
      -12345.00      -12345.00      -12345.00      -12345.00      -12345.00
       112.2296       261.7505       82.35026       1.009071      -12345.00
      -12345.00     0.03684827       0.000000       0.000000      -12345.00
      -12345.00      -12345.00      -12345.00      -12345.00      -12345.00
      -12345.00      -12345.00      -12345.00      -12345.00      -12345.00
      2008       164        19         3        59
       260         6    -12345    -12345     10004
    -12345    -12345    -12345    -12345    -12345
         1         7        13    -12345    -12345
    -12345    -12345    -12345    -12345    -12345
    -12345    -12345    -12345    -12345    -12345
    -12345    -12345    -12345    -12345    -12345
         1         1         1         1         1
CASP    -12345          
        -12345  -12345  
-12345  -12345  -12345  
-12345  -12345  -12345  
-12345  -12345  -12345  
-12345  -12345  -12345  
-12345  -12345  BHZ     
ZL      -12345  -12345  
[...]
       349.9832       418.4977       406.1545       478.2258       585.2974
       623.0420       666.7092       685.8984       719.8193       735.9490
       750.6160       810.4307       894.3008       901.9800       891.1646
       985.1460       1015.132       1004.312       1063.520       1096.590
       1076.945       1107.964       1181.100       1186.834       1214.889
       1268.841       1252.511       1265.832       1312.895       1317.250
       1340.776       1333.279       1341.127       1349.705       1358.202
       1401.541       1398.697       1397.181       1429.677       1423.466
       1384.889       1402.669       1421.992       1423.382       1425.237
       1392.674       1394.485       1394.379       1338.307       1338.254
       1360.029       1342.422       1317.490       1301.373       1277.680
       1248.324       1235.554       1203.204       1179.124       1185.305
       1147.913       1124.689       1107.737       1058.074       1057.934
       1006.536       968.0076       989.5811       940.1123       903.0576
       884.4194       857.7598       821.2021       799.3740       787.7959
       754.5605       716.8057       683.9124       686.1935       682.2383
       634.6322       584.5320       559.4093       515.3198       471.2410
       518.2073       521.8519       413.3706       390.3699       371.0032
       325.3536       315.8360       325.4194       276.6254       220.8110
       200.1527       171.7979       147.8658       140.4313       107.9839
       85.70135       36.49893       16.83825      -5.047470      -47.81056
      -73.44070      -54.96939      -103.8622      -164.4277      -199.7286
      -160.8322      -158.7130      -233.5978      -252.5320      -258.2801
      -320.1080      -361.0410      -347.8181      -360.7207      -416.8698
      -397.3456      -406.8644      -482.2375      -501.8965      -490.7457
      -518.6086      -577.8171      -580.8271      -558.8091      -611.5806
      -643.0264      -663.7959      -683.9846      -690.9084      -703.1033
      -687.3928      -735.8347      -763.6443      -765.8931      -763.3271
      -761.4668      -814.2488      -803.0291      -811.3813      -826.9971
      -816.8394      -867.3711      -840.9609      -840.1667      -873.2705
      -887.3850      -892.4985      -890.0044      -925.2729      -916.9253
      -907.4978      -923.1343      -953.9646      -952.8455      -950.1702
      -980.2036      -961.5364      -983.2847      -989.8687      -983.4587
      -990.1348      -1003.903      -1030.269      -1010.457      -1038.033
      -1008.649      -970.2981      -987.5557      -984.9285      -971.3203
      -986.5469      -1002.997      -978.3628      -968.5190      -944.7183
      -915.2268      -920.1001      -903.4790      -902.4961      -904.8057
      -886.8369      -839.9819      -817.4065      -850.2273      -812.7805
      -756.4761      -760.1016      -766.1519      -749.6614      -712.1501
      -683.5614      -674.0889      -650.6444      -596.2412      -600.0994
      -596.5488      -557.7550      -533.1350      -520.4396      -472.0194
      -467.4875      -458.6045      -424.0930      -410.5237      -369.8173
      -362.2925      -331.8093      -307.5518      -305.3679      -252.6624
      -230.3837      -233.3522      -196.0200      -154.4677      -159.3999
      -147.2818      -123.7441      -106.7890      -75.10764      -50.07742
      -36.48067      -40.86516      -21.74399       23.98457       86.44647
       83.17676       71.68022       70.71939       95.68762       139.8303
       161.6743       175.7172       188.7370       195.1405       251.6091
       254.5461       245.5453       272.9719       277.5718       289.3014
       280.9749       297.3396       340.2412       352.6869       358.9130
       379.0876       378.5653       381.1130       445.1548       425.7351
       416.7472       444.7563       415.5311       456.0520       515.1531
       484.9241       529.7098       575.5481       534.9683       517.1516
       546.0295       564.9868       603.2666       640.6604       622.6455
       637.3539       641.8357       654.0403       691.4846       644.7964
       699.6816       757.2612       700.8984       680.5151       738.1726
       734.8809       744.1074       808.0742       788.1804       764.9465
       769.2463       781.6704       819.7468       792.8557       787.6963
       818.3359       806.3281       794.5195       795.7114       813.4563
       806.7632       814.6389       809.5916       780.0066       807.4153
       787.3076       743.4734       761.7227       749.8042       734.5386
       750.8115       711.9287       678.0649       706.4065       699.4928
       686.9263       665.9773       653.4247       609.9905       562.6895
       626.2727       610.0448       568.0435       592.9216       564.8840
       518.0869       487.6588       466.4318       432.7017       474.1572
       491.3533       451.2126       410.5754       363.7994       372.0371
       354.6511       333.8716       286.8820       296.5834       321.3678
       269.5270       222.8456       252.7819       248.2660       166.4315
       172.1729       180.7301       151.4941       132.3938       140.8307
       107.7592       48.89017       85.27512       83.96040       76.32346
       46.04435      -7.041206      -8.816505      -27.84220      -29.68149
       7.551132      -27.32571      -70.59369      -44.60999      -53.83502
      -65.77374      -87.31128      -125.0905      -103.6239      -76.33972
      -136.3523      -131.3647      -102.0442      -104.5443      -110.6318
      -139.6600      -134.7227      -91.19427      -139.5264      -178.4090
      -155.0325      -124.8257      -138.0627      -131.9411      -120.0709
      -160.9936      -160.5969      -128.8197      -135.5967      -140.2083
      -122.2515      -95.98792      -111.6403      -132.1375      -142.7527
      -141.3055      -94.78951      -40.45685      -112.4000      -257.4166
      -198.4360       15.26120      -49.75665      -116.8715      -61.52930
      -238.2983      -245.3231      -88.40210      -222.9039      -278.1410
      -61.35326       21.81873      -289.1800      -229.9638      -18.89929
      -288.5074      -276.1605      -182.3134      -258.0088      -193.8267
      -211.6578      -234.0560      -301.6111      -229.2216      -219.5631
      -286.2827      -261.8807      -375.4283      -301.9550      -217.0062
      -342.1771      -300.1582      -310.7032      -462.5734      -295.8175
      -230.5775      -453.0247      -482.5621      -578.0234      -402.5289
      -273.7134      -503.2615      -468.4558      -395.0806      -497.7664
      -556.6389      -566.5148      -493.3663      -379.6313      -504.6660
      -700.9995      -634.9866      -593.2454      -608.3862      -512.7473
      -556.0967      -663.0576      -693.5820      -719.4050      -572.6483
      -590.2511      -647.3157      -633.7578      -761.5996      -828.5232
      -690.4238      -750.6453      -812.2234      -738.8721      -707.1533
      -711.3479      -769.1382      -779.2388      -762.3525      -807.7153
      -724.6301      -665.8782      -702.3398      -798.2515      -842.8564
      -839.6125      -818.8145      -770.1465      -761.2874      -775.5977
      -760.3845      -806.2456      -699.1841      -664.5625      -750.2104
      -713.4907      -725.5347      -786.1152      -765.6711      -733.3649
      -648.5195      -613.6616      -607.0752      -677.9838      -707.0156
      -612.2631      -615.0164      -639.1763      -517.0654      -547.6703
      -586.8715      -476.0239      -456.8829      -529.1038      -519.1282
      -432.0381      -349.1779      -343.7479      -322.8683      -309.6853
      -314.5552      -319.0881      -266.3721      -221.5275      -212.6442
      -167.6227      -87.10690      -87.05907      -65.17729      -56.40761
       28.11349       52.57858      -67.71283      -205.4839      -239.0378
       488.9159       598.1465      -62.47546       26.40283       328.8478
       508.4303       296.5475       242.5063       271.1791       210.1638
       259.7854       556.7103       470.5927       52.67651       468.1967
       704.6034       612.3914       590.2803       296.9136       601.5085
       904.4781       467.4036       264.0112       510.4204       859.9956
       906.6281       533.1416       730.6743       879.7371       642.4679
       647.9080       734.4150       632.5337       805.5576       975.3539
       554.1772       715.0139       1184.144       922.7478       453.6638
       434.6523       858.4634       1005.555       811.2307       734.9722
       850.9893       832.8628       846.8110       879.7610       671.4202
       797.7527       978.8918       888.4419       694.8999       689.8088
       886.4211       885.5603       778.7983       619.1484       713.3831
       873.5427       969.5432       853.6741       619.0024       656.0693
       743.2634       852.9194       880.9219       805.9094       643.2686
       716.3691       836.4861       621.9045       656.7222       750.9038
       828.7373       792.5251       658.3955       683.8916       627.7627
       680.3049       616.8550       590.2445       698.8403       565.9233
       584.6643       530.4888       534.1008       614.3851       562.9641
       562.8020       526.1005       481.3397       374.2397       327.7590
       555.6547       606.2806       372.5283       308.7708       511.0802
       424.1632       313.7798       391.8228       390.2562       337.4896
       344.5662       487.0585       404.5582       295.5854       283.9001
       187.5946       289.4380       245.6118       294.2197       487.2610
       283.0896       233.8594       359.2626       195.7872       90.00720
       243.7439       508.6625       306.5407      -79.21338       39.82245
       307.4578       181.9583       103.7704       158.8088       80.62643
       137.2261       39.46505      -32.29938       155.8589       75.80807
      -11.67178       108.8092       110.1884      -11.31316      -82.36480
       32.12352       8.132935      -256.0218      -157.1075      -92.58096
      -133.8949      -111.6066      -83.59070      -75.50140      -189.4479
      -264.2970      -250.3760      -191.0786      -258.9041      -361.2390
      -248.5225      -136.7823      -208.1079      -434.3680      -476.7036
      -321.0222      -284.1238      -457.6697      -493.5758      -338.7090
      -475.7070      -507.5479      -365.5098      -614.6569      -667.2836
      -465.9327      -546.2462      -559.2251      -554.1251      -661.2512
      -602.8380      -594.5481      -748.8274      -650.0325      -635.5339
      -871.5654      -835.6753      -777.5227      -796.6516      -745.8179
      -748.2119      -961.5723      -918.9746      -745.6445      -895.5823
      -928.7476      -956.3115      -1067.046      -941.5718      -840.3350
      -936.7061      -1012.936      -1085.459      -989.0933      -937.3752
      -1239.000      -1151.329      -942.6182      -1125.199      -1308.987
      -1174.661      -1051.996      -1151.843      -1149.913      -1199.082
      -1213.778      -1120.527      -1085.272      -992.9126      -1163.999
      -1323.168      -1286.129      -1092.141      -996.4851      -1210.757
      -1233.784      -1244.556      -1187.096      -919.6616      -995.5396
      -1182.444      -1090.971      -1080.420      -1110.760      -859.0061
      -839.2573      -1006.193      -922.4099      -950.6992      -921.5493
      -844.9956      -946.6064      -848.6055      -675.0298      -679.3789
      -747.0352      -682.7821      -606.7017      -677.5220      -682.5333
      -677.3774      -547.4033      -398.9817      -454.9292      -471.6509
      -552.9347      -380.2009      -269.3123      -409.8230      -295.2422
      -206.4127      -287.7869      -133.1246      -36.99625      -82.96497
      -124.2605      -158.0277      -49.56738       40.17416       134.1227
       127.6989       86.09155       187.3481       200.7123       153.9353
       377.5436       385.9410       296.2397       381.9048       369.6765
       351.4343       341.5264       539.1753       598.6169       521.3770
       626.0571       687.0500       690.8687       604.6797       719.5249
       739.7275       770.8213       947.2200       879.0725       925.7346
       934.8601       922.8606       956.3198       1156.860       1196.415
       942.2019       1027.074       1186.607       1219.065       1172.598
       1211.254       1350.566       1293.581       1249.874       1408.896
       1428.153       1357.941       1403.851       1431.136       1379.421
       1328.283       1438.966       1525.141       1463.802       1561.469
       1675.460       1504.975       1389.855       1402.104       1482.885
       1526.438       1448.176       1509.773       1463.876       1412.584
       1522.068       1467.283       1403.010       1488.114       1452.708
       1255.398       1344.518       1483.624       1350.387       1197.237
       1166.252       1228.608       1232.817       1280.071       1247.580
       1079.531       1089.462       1124.185       1048.859       1037.400
       892.4761       864.9229       963.7295       913.7881       866.4023
       801.6731       717.2959       752.3003       744.2467       585.2172
       561.3306       636.7434       558.8129       576.0459       450.2271
       340.7385       391.6456       439.7869       430.1933       125.4221
       190.7933       331.3486       193.4138       132.8870       64.38416
       106.3944       71.82031       63.90533       183.0379       10.68225
      -113.0819      -42.80634      -139.5605      -166.6165      -155.4058
      -243.9955      -168.9882      -236.4927      -366.7675      -222.4386
      -250.3510      -303.1438      -326.1154      -338.7482      -343.0916
      -419.8744      -468.0306      -430.0039      -436.5128      -560.7051
      -619.0833      -563.1575      -427.6306      -535.6865      -628.4885
      -503.4934      -481.5759      -569.1978      -745.8330      -678.9309
      -566.8779      -712.6946      -694.3589      -733.0854      -738.1260
      -576.1450      -684.3945      -795.2932      -767.2915      -807.1807
      -830.9790      -825.7346      -800.3127      -714.2104      -749.6431
      -891.7227      -861.0244      -802.9277      -996.6653      -1013.104
      -784.8953      -817.0471      -934.8276      -1075.603      -950.9521
      -760.8018      -993.3811      -1016.515      -869.9897      -932.3987
      -1032.844      -889.7183      -867.4861      -1089.164      -987.9373
      -938.1770      -1014.451      -1052.117      -1068.904      -949.9812
      -941.1831      -934.9822      -894.5852      -1001.846      -979.9580
      -1029.572      -975.5234      -942.6489      -1047.882      -951.2798
      -1079.749      -1012.625      -893.5281      -1134.628      -1122.828
      -937.3679      -834.0659      -948.3550      -1097.914      -927.2920
      -812.3599      -953.5100      -965.0769      -957.6565      -968.9495
      -828.9736      -719.3696      -825.5784      -954.1489      -892.7869
      -790.9321      -852.8174      -900.7122      -655.1951      -701.4753
      -806.5190      -667.2007      -718.4875      -653.3091      -625.9821
      -595.7219      -610.2108      -664.4894      -592.0393      -537.9111
      -482.8792      -387.5966      -388.0670      -592.9178      -464.8830
      -225.9364      -325.4520      -449.1942      -334.3061      -175.6018
      -229.5006      -236.7643      -251.8952      -167.4581      -127.8339
      -118.6199      -40.42654      -44.57812      -21.64047      -24.18785
      -32.46054      -27.17334       139.1081       265.7479       124.7784
       26.20337       199.0850       302.3303       151.9702       237.1072
       317.9323       393.3951       409.8092       286.4662       450.5277
       465.5718       367.4314       510.6814       506.7415       462.9988
       363.4304       688.4238       871.4707       496.9070       445.2202
       743.0896       868.2014       553.1599       486.4028       727.0874
       951.3623       820.4421       543.8889       759.0847       742.8076
       723.2888       959.3953       1026.200       907.2234       772.8213
       774.8474       926.8193       954.8950       881.5781       910.0608
       998.9558       969.9133       791.9055       858.9287       1062.107
       1025.950       837.0659       985.5415       1215.856       992.2952
       931.7119       1087.181       950.1099       733.5269       927.4895
       1024.286       868.7803       839.3374       995.0251       1071.316
       988.9739       822.4619       825.7939       943.5488       818.7588
       846.7180       965.6394       806.4004       761.6763       761.2012
       883.6255       922.1072       552.3748       460.8896       799.5642
       815.8467       591.4436       582.1157       657.2207       677.1492
       477.6260       464.2397       722.7887       544.1804       410.3994
       649.5897       436.3746       151.6631       567.7594       671.5986
       197.2268       185.3459       401.5677       384.7748       253.3696
       164.4043       288.6978       286.5398       313.0782       170.0993
       55.34180       255.6772       152.7576       116.0126       113.0766
      -99.30532      -34.77271       140.1169       61.56519      -138.9792
      -113.7809      -21.24898      -111.8217       113.3339      -22.57507
      -405.6788      -68.95557      -107.9620      -400.1752      -221.2825
      -188.2635      -226.2279      -314.7003      -434.2810      -460.6486
      -569.2787      -333.0901      -224.1371      -530.5302      -220.5702
       13.40173      -507.4814      -782.2166      -612.4258      -227.2336
      -514.6010      -855.2620      -166.4670      -6.818237      -679.6201
      -452.3584      -111.3838      -518.5259      -698.1188      -548.3464
      -210.4884       140.5518      -48.17908      -499.5427      -740.5452
      -444.4433      -43.11890      -780.4968      -1293.207      -239.0359
      -209.8368      -754.2980       416.5537       443.4807      -1113.107
      -1106.599      -289.6077      -60.88696      -245.5760      -205.1772
