     0.02500000      -1815.716       2480.486      -12345.00      -12345.00
      -30.01002       220.0650      -21.46000      -12345.00      -12345.00
       0.000000       16.04000      -12345.00      -12345.00      -12345.00
      -12345.00      -12345.00      -12345.00      -12345.00      -12345.00
      -12345.00      -12345.00      -12345.00      -12345.00      -12345.00
      -12345.00      -12345.00      -12345.00      -12345.00      -12345.00
      -12345.00      -31.20700      -69.62850       2369.000       0.000000
      -31.06700      -68.46300       0.000000       100400.0       0.000000
      -12345.00      -12345.00      -12345.00      -12345.00      -12345.00
      -12345.00      -12345.00      -12345.00      -12345.00      -12345.00
       112.2296       261.7505       82.35026       1.009071      -12345.00
      -12345.00     -0.6118497       0.000000       90.00000      -12345.00
      -12345.00      -12345.00      -12345.00      -12345.00      -12345.00
      -12345.00      -12345.00      -12345.00      -12345.00      -12345.00
      2008       164        19         3        59
       260         6    -12345    -12345     10004
    -12345    -12345    -12345    -12345    -12345
         1         7        13    -12345    -12345
    -12345    -12345    -12345    -12345    -12345
    -12345    -12345    -12345    -12345    -12345
    -12345    -12345    -12345    -12345    -12345
         1         1         1         1         1
CASP    -12345          
        -12345  -12345  
-12345  -12345  -12345  
-12345  -12345  -12345  
-12345  -12345  -12345  
-12345  -12345  -12345  
-12345  -12345  BHN     
ZL      -12345  -12345  
[...]
      -149.8855      -133.8655      -114.0789      -124.0264      -126.2757
      -143.5953      -161.7843      -119.2583      -152.4574      -158.6585
      -141.8879      -160.5812      -159.6750      -159.0552      -182.8639
      -184.3813      -192.8950      -159.2109      -189.2951      -205.6486
      -174.2181      -219.1102      -231.4047      -214.3160      -225.5354
      -241.2869      -263.6378      -226.5167      -255.9971      -266.5881
      -282.2851      -297.2983      -318.8527      -308.2949      -210.1495
      -265.4881      -323.2843      -164.1564      -174.2414      -275.8032
      -221.0292      -172.9976      -368.7893      -451.3492      -556.5239
      -893.2627      -453.7095       306.6273      -141.8491      -595.4313
      -470.3818      -457.4748      -398.6046      -190.1625      -14.48169
      -551.9363      -689.5392      -205.2073      -342.0768      -541.6969
      -240.7555      -140.7572      -685.6539      -445.4456      -73.82007
      -377.1113      -434.8032      -678.0087      -487.6860      -177.9812
      -584.1720      -344.9302      -205.8066      -511.1235      -446.8545
      -320.5105      -510.1321      -507.2354      -199.6501      -542.5394
      -570.4743      -166.3008      -509.5334      -504.0337      -317.2394
      -411.0266      -270.1904      -425.5724      -475.8347      -365.6980
      -389.4468      -306.0911      -537.7057      -479.2233      -256.3947
      -149.1201      -363.8383      -516.7130      -172.3747      -274.3071
      -360.1942      -322.0480      -319.8325      -291.1208      -358.4731
      -174.0355      -61.41980      -462.1149      -494.9141      -95.37424
      -75.04248      -179.5209      -256.5510      -215.8521      -186.4267
      -198.9234      -140.7582      -135.0003      -127.7255      -117.9327
      -60.99030      -145.7523      -125.2399      -43.89893      -151.5404
      -46.21867      -26.94138      -39.29370       111.9815       99.80011
      -10.94901       67.95056       80.48993       55.75366       212.2522
       49.02304      -5.652954       315.2935       242.8483       109.1752
       88.16254       151.1152       347.8110       370.8148       278.5475
       320.6711       294.7225       262.6129       260.5527       276.1814
       351.9836       349.7295       321.8286       404.0458       494.0232
       403.3867       288.2263       399.6470       504.5581       430.1519
       407.2065       492.6101       519.5388       465.4629       381.0464
       455.4397       579.2495       534.9125       436.1118       434.5796
       458.7760       543.3987       591.7831       498.1885       514.7502
       586.0256       515.1096       510.5706       553.9722       492.6464
       601.3009       621.6910       442.8943       452.4080       651.5127
       663.2489       430.7552       525.6467       676.6711       448.6072
       365.6638       762.0594       670.4458       287.9236       533.0571
       623.3287       545.5046       688.3042       583.8810       397.5460
       424.0701       496.5168       567.2145       460.7288       386.3856
       592.6780       547.3076       514.6704       454.5933       378.0004
       574.0918       438.3157       157.9844       426.9109       573.7863
       440.0596       476.9014       294.4014       242.9711       324.7202
       273.1147       392.5464       435.5917       344.5280       309.2517
       267.3239       272.3488       335.8787       220.5032       222.9826
       182.3473      -50.81909       239.4624       474.9182       170.4829
       66.69049       70.06384       37.14111       156.2614       231.9225
       38.63148      -96.08621       11.48695       25.28922       33.63669
       121.5317       88.03647      -120.2407      -88.03003       2.302094
      -99.66098      -114.8246      -172.5150      -199.8851      -107.0500
      -85.95728      -176.2251      -159.3192      -45.50781      -279.4899
      -271.1243      -189.6992      -416.3904      -223.0223      -140.1492
      -206.7749      -262.5522      -428.9062      -252.2939      -261.8167
      -396.0266      -308.0347      -289.7896      -258.8596      -427.8020
      -405.0251      -212.2521      -409.7582      -342.9667      -250.8074
      -408.5409      -379.6049      -422.4634      -426.7878      -298.2388
      -302.7308      -315.5081      -380.8853      -424.5897      -325.8062
      -429.9812      -378.6500      -393.9380      -454.1613      -178.3989
      -482.0833      -593.2913      -295.7684      -397.2738      -473.0322
      -412.6700      -425.1328      -395.8003      -431.2654      -474.4392
      -325.6315      -432.3953      -564.6023      -541.4598      -519.7887
      -396.1249      -392.0150      -536.1145      -538.0844      -475.6926
      -504.8702      -516.3816      -494.3633      -476.6156      -523.1560
      -508.0479      -539.5359      -647.2927      -581.4410      -487.0548
      -477.8993      -498.3597      -510.2839      -391.8774      -512.2013
      -552.9015      -351.9827      -516.8589      -589.5245      -421.8466
      -428.0294      -427.4733      -398.0149      -387.7241      -388.5237
      -417.6556      -279.9613      -310.0914      -424.4305      -295.3141
      -306.6552      -345.8081      -242.7496      -195.5436      -310.0038
      -351.7540      -212.6480      -80.52271      -169.4727      -230.2807
      -202.7213      -217.5576      -46.44080      -46.22009      -238.8162
      -135.7217      -71.56013      -30.92002       7.108444      -16.31180
      -3.377884      -61.49936       46.01126       59.70517      -19.85284
       26.13195      -32.79358       75.51251       184.1971       128.8837
       181.4546       196.3845       114.5177       178.4724       301.5892
       230.1877       197.1727       256.4146       197.9287       256.0245
       266.9211       389.1033       367.8794       239.1440       511.4517
       441.0933       309.7556       462.6836       370.4764       383.9021
       514.0177       550.7822       506.0756       459.6732       452.8015
       483.6045       584.2592       541.9880       597.3138       548.3328
       444.4575       636.6245       628.4053       581.0441       575.8126
       568.0786       618.3789       635.7434       677.5706       637.4343
       595.7726       613.9152       701.6027       595.4097       521.2875
       639.0536       602.8374       591.8357       638.0554       661.7690
       524.6171       564.3384       635.8086       457.8883       529.5333
       642.7649       555.2305       451.4790       443.4509       521.7925
       575.1658       528.4938       450.9579       482.9698       467.7024
       300.2484       374.0623       486.2637       388.9087       445.9702
       377.6912       221.7371       333.3756       393.4058       324.0648
       351.3445       316.7614       228.1110       204.6110       250.6000
       246.4308       198.8959       255.9907       165.2621       80.83148
       177.3311       178.2482       112.6566       114.7893       61.30267
       16.43234       48.16833       73.89342       99.96681      -42.88794
      -29.71393       118.8592     -0.4540405      -101.6337      -161.9920
      -79.85706      -104.2495      -122.6415       27.36163      -116.5942
      -232.1490      -151.4504      -232.8259      -255.2111      -72.76160
      -117.3285      -310.8264      -275.4568      -198.0901      -276.5554
      -246.2446      -236.4898      -242.9117      -211.9292      -346.5010
      -264.0676      -299.4701      -430.0974      -408.9728      -300.2614
      -271.0239      -420.1396      -362.8928      -321.5453      -418.5077
      -418.8180      -367.0566      -384.3917      -402.0042      -399.8250
      -440.2932      -479.9950      -370.5127      -414.9873      -512.1693
      -347.8580      -449.3750      -513.3862      -428.4915      -414.7817
      -349.3107      -342.4265      -466.8542      -517.7184      -405.6091
      -421.5243      -432.9426      -391.3073      -477.8015      -406.8021
      -311.8135      -413.2324      -525.4738      -372.3954      -328.4940
      -408.3031      -308.6802      -392.0996      -430.9023      -320.0466
      -322.0828      -359.9247      -322.9872      -271.9890      -375.4321
      -352.4601      -306.8835      -408.2659      -306.9189      -273.7614
      -349.7605      -341.4001      -336.2299      -318.8105      -346.2088
      -346.2511      -312.1138      -323.5596      -283.5869      -245.7916
      -345.9476      -330.7673      -243.1975      -296.2316      -388.0242
      -306.6110      -264.6778      -313.3987      -246.5133      -283.9719
      -276.7661      -166.2139      -338.4193      -376.5575      -232.0487
      -262.4760      -211.4769      -226.2415      -245.7758      -250.5385
      -225.3159      -170.5810      -261.4738      -222.8385      -145.3798
      -200.4396      -278.5964      -132.7301      -108.2201      -179.6838
      -163.7477      -192.8623      -187.4074      -115.6233      -98.36481
      -164.1150      -139.3984      -43.45436      -70.95422      -100.9284
      -45.05359      -131.7072      -147.1412      -20.03827      -55.81859
      -30.42227       51.09798       61.99559      -69.41519       67.27765
       145.6607       8.096802       35.59653       71.60683       92.51718
       55.45581       204.3242       334.7594       81.26196       107.7725
       376.7693       208.2328       10.00745       228.9957       401.5203
       283.4008       277.5741       289.3995       272.3258       346.3812
       240.7273       383.7341       399.1229       265.0002       503.4009
       511.5859       260.2139       337.2280       479.9960       349.2899
       427.0773       565.4485       327.0549       348.6016       625.0310
       548.9148       341.2173       400.5765       549.1191       554.3854
       411.6414       493.0621       520.6567       447.1266       577.1694
       484.1334       340.4883       481.5699       616.8577       494.3037
       433.9507       607.8833       536.1138       444.7515       474.5825
       544.0260       530.5200       465.4668       485.4816       513.9680
       475.2849       392.9961       521.7874       609.8143       320.4552
       327.0940       573.4497       585.0488       445.6902       325.0623
       449.6891       560.3196       409.6089       413.4797       419.3578
       360.6755       482.6598       364.7686       203.4526       406.9883
       405.4203       309.3508       399.5895       332.8690       303.4352
       315.4102       250.9510       274.8254       308.7815       363.1944
       352.5219       168.2561       56.21631       388.0637       313.4832
       60.26855       295.1191       151.7734       42.21301       325.1739
       137.8912       59.93756       199.0390       175.0456       94.85947
      -97.37314       42.58325       118.9757      -132.0410       31.24353
       221.5914       73.69559      -50.73615      -70.90405      -54.04849
       33.52737      -60.63159      -263.2733      -120.0858       48.99252
      -145.9418      -209.7651      -79.80511      -118.4219      -344.9911
      -254.6861      -145.3043      -250.3875      -334.6128      -346.3279
      -180.6794      -325.6638      -400.4063      -275.1129      -360.9089
      -432.3494      -474.0023      -349.5181      -396.8734      -471.0579
      -404.1597      -485.2697      -511.4327      -429.8086      -424.6852
      -427.8689      -561.7996      -589.6631      -478.7981      -534.6592
      -512.7844      -498.6261      -542.4640      -510.7925      -475.5558
      -492.0946      -651.5205      -659.3239      -510.8514      -490.9841
      -490.3955      -522.3234      -608.2382      -530.9624      -553.6345
      -597.1285      -501.4193      -455.9243      -450.4824      -552.8824
      -641.3162      -452.7065      -419.4218      -540.2722      -404.9736
      -427.1039      -715.3571      -508.5833      -216.7986      -472.7402
      -478.0359      -258.0439      -474.4076      -470.0743      -398.0035
      -344.7655      -282.3951      -403.3599      -241.8535      -170.1707
      -397.6954      -371.2695      -30.48358      -54.30603      -347.7219
      -297.2863      -132.4810      -194.3358      -175.8424      -27.41840
      -197.1807      -149.9983       126.6404      -5.987305      -228.4076
      -328.8599      -505.1713      -678.0559      -210.9041       541.5776
       185.7211      -307.8206       387.1609       1354.341       545.8163
       144.7061       996.0190      -39.45801      -1381.318       372.7266
       2181.990       120.8688      -207.0276       1159.413      -322.4983
      -1486.172      -15.07861       2214.257       356.0681      -1815.716
       807.5612       423.8379      -1723.377       1044.146       2480.486
       339.5967       544.6899       1572.306      -197.5704      -575.5958
       144.7024       598.8589       1118.737       158.5592       39.21021
       446.4205       184.8986      -682.3345       415.1243       1577.539
       263.6558       939.7109       1245.971      -324.8040      -808.8156
       426.2302       985.1746       926.6260       627.7163      -688.8914
      -328.9592       344.8301       666.8640       456.2349       573.2444
       753.6155      -1439.510       476.2800       2339.808      -627.3965
       88.21997       1125.552      -1366.468      -875.4478       906.7483
       228.1044       71.88049       299.7224       27.66138       226.1328
       941.5767      -559.9572      -872.5269       1732.863       1084.791
      -376.7424      -473.8481      -591.5639      -130.4341       224.5532
      -12.90503      -633.4003       76.64539       450.2322      -197.5043
      -298.9353      -80.63594      -9.384949       30.72449       768.5247
      -572.0864      -1535.593       582.9542       824.1523      -168.8872
       108.6836      -542.9138      -938.0279       115.6545       435.8291
      -336.3006      -393.1943       314.2731       676.5231       169.0958
      -679.8477      -322.5266       25.80396      -148.2770       358.6650
       438.4640      -577.8728      -318.8928       470.6578   -0.006103516
      -735.9404      -947.0223      -353.0867       654.8945       617.0835
      -644.3504      -68.33832       164.4974      -620.1744       81.14191
       199.0891      -380.9144      -439.0455       618.6387       364.1965
      -1365.954      -628.8058       252.2153      -61.48318       403.3167
      -462.7135      -26.30530       928.3663      -1039.642      -645.7311
       445.4649      -393.2668      -346.3857      -180.6208       321.9781
       270.4797      -1158.755      -891.4359       389.8668      -121.1409
      -436.9161       747.6158       250.8928      -403.2876       93.80365
      -151.0930       499.4352      -267.6617      -1091.102       172.2546
       559.2484       50.06332      -192.7425       5.039856       97.16870
      -235.3984      -536.6750      -18.73987       213.9239      -156.2411
      -180.8869       153.1428      -1.300049      -427.8939      -143.3572
       525.8506       486.1814      -591.0493      -575.9706      -310.3397
      -399.8037       289.9780       565.4955      -306.8289      -540.0001
       420.5494      -44.61035       98.22156       628.4197      -678.4284
      -396.2966       356.8208       88.21899      -121.3492      -489.0666
      -116.1873       227.1560       90.05829      -45.11475      -515.8109
      -556.2335       124.7516       590.2523       366.6843      -239.5667
      -554.4014      -311.7543       60.04498       289.5408      -270.9342
      -597.6266      -58.05887       1.953674      -337.4525       14.37076
       63.25830      -512.8170      -195.7747       71.33340      -50.81195
       304.5090      -100.7740      -425.0866       69.37048      -171.8878
      -169.5986       7.049133      -134.9014       82.07086      -178.5598
      -319.7198      -173.5989      -336.1841       144.2588      -56.52710
      -1031.980       19.97314       864.8580       252.7686      -99.91743
      -121.5817       77.59668      -545.2332      -393.4407       374.8733
       344.8207       470.5778      -141.2433      -318.3266       154.8968
       86.93253       39.01453       340.8532       314.4200      -30.91772
       519.5120       518.8936      0.4983826       152.9470       46.64154
       193.4659       252.5566       119.1089       318.9719       288.5259
      -52.91931      -228.7605       323.0137       477.9893       397.2520
       598.4808       187.4700       140.3716       307.4531       521.3076
       785.4044       456.6803       212.4835       408.4120       456.4692
       180.2194       89.85803       124.0753       515.2638       788.9786
       180.1967       21.86298       398.1707      -42.33276       56.69409
       696.4246       504.8352       314.3628       41.10730      -76.14661
       451.1484       373.1918       84.76172       463.8004       409.7521
       361.8485       564.0807       145.6144       171.0950       327.1576
       404.3433       589.5997      -124.3699      -343.5150       260.5688
       265.3122      -22.47900       102.5477       344.2411       535.9102
       173.4270       160.0836       117.4664      -185.4044       451.0923
       362.4574      -60.51794      -251.8405      -179.8730       164.2322
       108.3786       107.2195       159.3280       83.86078       5.418335
      -253.5924      -354.0223       254.5334       649.7210      -59.61340
      -497.3016      -24.78400      -214.9404      -242.7970       142.7066
      -50.48138      -301.0909      -327.4423       72.35452       2.730286
      -469.4410      -53.60144      -56.75806      -804.3311      -713.7574
       95.37637       156.7169      -478.5344      -697.5193      -551.7717
      -344.9190      -149.6504      -35.36157      -363.3160      -303.2025
       80.81995      -642.4290      -686.5375      -92.81836      -473.0361
      -337.7991      -168.4043      -512.7603      -689.8279      -696.8719
      -243.7178      -39.35107      -387.6189      -569.8535      -447.9822
      -692.1605      -663.2701      -112.0127      -469.5459      -890.7948
      -581.0636      -399.9712      -600.0497      -456.1450      -206.2666
