     0.02500000      -1526.708       2334.738      -12345.00      -12345.00
      -30.01002       220.0650      -21.46000      -12345.00      -12345.00
       0.000000       16.04000      -12345.00      -12345.00      -12345.00
      -12345.00      -12345.00      -12345.00      -12345.00      -12345.00
      -12345.00      -12345.00      -12345.00      -12345.00      -12345.00
      -12345.00      -12345.00      -12345.00      -12345.00      -12345.00
      -12345.00      -31.20700      -69.62850       2369.000       0.000000
      -31.06700      -68.46300       0.000000       100400.0       0.000000
      -12345.00      -12345.00      -12345.00      -12345.00      -12345.00
      -12345.00      -12345.00      -12345.00      -12345.00      -12345.00
       112.2296       261.7505       82.35026       1.009071      -12345.00
      -12345.00     -0.3519605       90.00000       90.00000      -12345.00
      -12345.00      -12345.00      -12345.00      -12345.00      -12345.00
      -12345.00      -12345.00      -12345.00      -12345.00      -12345.00
      2008       164        19         3        59
       260         6    -12345    -12345     10004
    -12345    -12345    -12345    -12345    -12345
         1         7        13    -12345    -12345
    -12345    -12345    -12345    -12345    -12345
    -12345    -12345    -12345    -12345    -12345
    -12345    -12345    -12345    -12345    -12345
         1         1         1         1         1
CASP    -12345          
        -12345  -12345  
-12345  -12345  -12345  
-12345  -12345  -12345  
-12345  -12345  -12345  
-12345  -12345  -12345  
-12345  -12345  BHE     
ZL      -12345  -12345  
[...]
      -723.7517      -597.6937      -579.6804      -668.0823      -711.9958
      -736.6238      -633.0675      -379.2623      -359.8201      -486.2632
      -1077.552      -1332.317      -56.33081      -229.6123      -1091.124
      -313.9912      -544.6011      -1205.677      -588.7986      -242.0059
      -1065.691      -779.1918      -103.1250      -1123.339      -862.0896
      -89.89087      -441.6184      -679.1721      -646.2119      -221.5923
      -428.4879      -624.8096      -408.6040      -431.1514      -535.7205
      -547.8813      -263.4711      -350.7971      -312.9882      -183.8741
      -473.7047      -454.7833       144.6213      -226.5676      -743.0309
      -50.60980      -132.5617      -299.0256       72.40079      -64.51855
      -364.2783      -165.1161       67.23419       97.22600       71.78040
      -178.4316       131.4462       112.0576     -0.3077087       149.3177
       11.73309       84.94159       194.4122       134.6411       221.5647
       388.6390       256.8649       244.0444       212.3538       214.3875
       355.1277       424.1397       332.8267       257.9902       459.8127
       568.4315       416.2573       353.4965       541.6689       644.3657
       617.6764       550.5708       529.7397       525.5325       580.3231
       606.2456       566.4409       680.5776       669.4153       772.5454
       941.0005       682.0422       733.8792       851.6946       800.0908
       884.5820       839.2664       745.3545       800.9646       976.5981
       881.0510       814.2969       946.0151       978.7041       1048.673
       1021.894       860.4739       1032.787       1089.670       832.7920
       992.7954       1114.337       969.6670       949.6030       1060.513
       1076.310       1022.928       980.9580       982.1309       1016.380
       1047.771       1100.929       989.0688       948.1345       1049.281
       1158.208       979.5273       922.6196       1111.304       975.6182
       889.5803       957.9348       986.2803       931.1536       993.7471
       864.3057       903.0271       1136.189       916.4685       1117.247
       800.3560       566.3557       1091.453       948.1433       654.0109
       493.5801       969.1589       703.5496       596.5776       1093.922
       672.3245       528.0027       764.8948       889.1044       487.7323
       492.6169       640.5062       550.4875       519.1666       357.5022
       429.4855       517.7729       698.9568       530.0251       129.1780
       288.5485       398.2552       137.0716       150.1844       160.6953
       324.9814       170.6384       191.4869       267.3273      -239.9600
       199.1926       302.2941      -438.2600      -247.3009       257.7509
       33.33081      -188.2520      -85.39380      -132.3730      -255.8685
      -144.0261      -52.28137      -372.0551      -484.7721      -333.1628
      -376.4047      -380.2136      -349.0245      -340.6902      -332.8212
      -488.8933      -548.4150      -555.7825      -548.8162      -600.7383
      -574.5442      -696.6006      -618.2151      -392.9871      -627.5583
      -720.9541      -640.9819      -657.8789      -820.5620      -821.0454
      -727.1521      -728.3624      -605.8232      -746.1292      -896.7202
      -868.1877      -951.7078      -954.3367      -922.2705      -767.3608
      -848.2893      -948.7783      -624.0620      -839.9121      -1109.409
      -991.7949      -870.0981      -770.3330      -889.1326      -1029.231
      -930.8970      -785.7256      -1054.361      -1022.932      -644.8904
      -1106.478      -1212.398      -612.8750      -851.7986      -1254.940
      -887.4385      -720.4341      -1127.693      -1098.036      -816.9146
      -931.5645      -1059.030      -934.4966      -935.1396      -1025.879
      -971.9834      -1049.189      -884.8494      -974.9524      -1037.558
      -874.4087      -1078.350      -995.2639      -917.6853      -908.9521
      -918.5581      -1054.730      -931.4854      -910.0088      -1029.471
      -952.1411      -876.0505      -858.4426      -857.7153      -940.3042
      -960.8440      -777.7046      -726.5688      -924.2754      -822.7109
      -724.4524      -844.7891      -743.2258      -621.4072      -667.7126
      -873.1421      -875.3105      -423.5889      -614.9128      -804.6302
      -426.4587      -490.8303      -576.5845      -429.4097      -397.7207
      -564.8612      -497.5433      -295.6724      -319.6458      -365.6948
      -337.3309      -351.2098      -281.4196      -3.958435      -140.9115
      -322.1076      -158.1643      -139.6302      -147.4386      -43.52277
       49.07830       72.03757      -31.39487       53.12756       275.1615
       69.03975       5.608276       234.4942       225.5809       112.2454
       240.7406       490.4084       380.2794       356.3638       488.8965
       348.6387       333.4364       516.6246       561.0872       414.2789
       469.2915       651.8021       640.6638       673.5161       657.2793
       668.8638       794.6616       670.9448       727.6714       733.3035
       554.2241       895.8855       932.4460       665.4922       806.1052
       866.5723       876.8125       885.3489       752.1865       853.0176
       932.6855       780.6294       954.9741       967.5781       762.2324
       842.4214       990.9607       887.5391       825.8740       988.4238
       800.8018       868.0686       1037.740       752.7158       861.3979
       951.0054       929.6462       925.6169       763.1724       845.7134
       956.4585       969.3037       700.8872       870.3547       1155.333
       726.2075       743.3496       881.0122       950.6970       916.3994
       697.6599       881.9292       828.7585       822.3279       979.0042
       856.3992       803.3689       791.9177       893.7607       828.2622
       703.9402       715.5173       734.5691       874.1096       760.1746
       630.2659       760.8030       817.7279       696.1106       575.2407
       762.2932       603.6799       512.2776       701.3103       616.8257
       618.6554       596.4567       516.1335       511.3057       531.6812
       579.1305       514.9368       415.4708       428.1886       494.2480
       309.9399       273.5795       461.1168       427.2311       391.7994
       406.3746       383.9849       333.7600       280.3851       293.6653
       184.7808       199.6296       330.4927       215.1153       103.3328
       203.0838       184.4120       74.02124       231.7835       165.6657
       8.860046       92.76028       116.4681       3.769386       1.743469
       53.29380      -34.43253      -4.588791       88.58789      -81.95035
      -208.2863       52.68871       18.56079      -191.4676      -184.2697
      -28.18732      -60.76978      -269.3706      -113.0902      -146.2085
      -294.2853      -148.1366      -196.5658      -238.9044      -232.7194
      -298.0981      -323.3079      -348.6130      -285.1786      -298.3975
      -385.9479      -276.9922      -307.6063      -423.3829      -264.3562
      -410.9561      -545.6886      -393.0720      -453.9080      -544.3928
      -456.8420      -374.5210      -545.6506      -566.0570      -427.5261
      -570.3539      -573.1084      -501.4431      -691.2128      -544.6442
      -577.9331      -783.4558      -605.6046      -602.3096      -661.5967
      -601.3186      -645.8584      -698.8865      -809.7012      -698.0630
      -622.9893      -846.2568      -819.7861      -707.3818      -723.5420
      -766.9470      -869.1255      -879.3789      -817.5754      -758.5239
      -839.2617      -906.8008      -739.0049      -821.0222      -846.2629
      -790.4514      -925.4258      -874.3789      -806.4089      -800.9788
      -761.2773      -799.1113      -888.8562      -850.5610      -699.4355
      -749.0425      -892.7764      -760.3706      -790.6880      -789.5938
      -632.4995      -843.1362      -735.5061      -599.0137      -720.0308
      -695.3015      -842.8802      -675.1008      -555.8169      -755.8374
      -635.9419      -523.6780      -563.4670      -832.4619      -775.4347
      -413.2090      -548.7211      -750.3647      -544.5225      -396.2163
      -647.3630      -627.3274      -432.3867      -634.1903      -618.3326
      -495.2518      -417.7090      -498.3491      -537.0710      -402.6709
      -505.6931      -421.7725      -442.2551      -459.1117      -365.7058
      -453.4725      -383.9371      -456.3940      -519.1694      -312.2402
      -345.1270      -337.2811      -173.9141      -290.5300      -269.7283
      -219.4160      -376.5659      -225.0011      -83.03601      -257.7036
      -249.7860      -1.225929       58.12146      -205.9061      -79.84107
       77.76950      -95.81253      -125.1365       132.7166       147.6254
      -153.1549       164.5765       390.7599       152.1262       166.4033
       288.6285       186.6943       60.84119       289.2160       364.2540
       253.4183       247.9214       344.5776       438.6118       425.7828
       376.1671       451.0819       396.6189       464.3795       575.5470
       404.3010       438.2467       559.4142       628.9365       498.5872
       483.6665       646.8376       587.7375       590.9208       689.7351
       609.7397       460.8621       578.8353       641.5913       631.3091
       721.3331       642.8313       593.6399       704.2021       688.1487
       658.4866       596.8379       763.0613       792.3260       594.8455
       767.6536       854.4797       604.0317       673.5356       759.5593
       679.5962       700.1155       779.0254       785.3054       748.0916
       765.3621       654.8262       701.4695       842.6512       661.3572
       631.6516       891.1333       820.0427       716.0938       751.7190
       711.0256       654.9487       838.4712       834.7053       549.3708
       722.6973       809.7986       554.2053       547.4563       874.2827
       739.9827       650.9292       817.2590       595.5864       647.1709
       632.2302       527.8081       718.6008       541.4991       571.3419
       586.9426       509.9041       627.2686       479.9565       552.6753
       703.3633       417.1008       285.5229       562.5382       585.1068
       381.0573       358.8340       497.2605       487.3276       306.0408
       248.3582       287.5973       417.4872       316.8582       351.6642
       261.2153       167.2059       298.8450       201.6528       416.1479
       379.6279       4.468018       72.56552       183.4360       105.9485
       162.1787       285.5388       187.2003       49.32466       22.53065
       65.14551      -158.9449       21.39996       233.1013      -13.35187
      -89.06155      -107.2426      -81.37128      -69.21710      -244.0204
      -310.5960      -154.4837     -0.4093018      -132.3324      -392.2276
      -257.3144      -71.09985      -255.2795      -226.8522      -400.4830
      -486.7226      -238.4871      -435.6364      -401.4366      -261.7688
      -472.2081      -589.0518      -520.3423      -398.5410      -584.8365
      -514.1323      -361.2572      -543.4839      -492.7598      -577.8464
      -546.7747      -443.0110      -572.8594      -544.4763      -606.8187
      -658.7271      -623.2485      -553.4491      -525.6870      -654.3889
      -619.3215      -436.1943      -587.5918      -740.8854      -680.7278
      -436.8085      -568.1075      -623.7275      -475.8833      -716.4045
      -682.6949      -608.2054      -511.9137      -437.6704      -700.6714
      -575.9412      -499.5015      -649.8542      -522.8452      -469.0645
      -520.9749      -605.5995      -495.8624      -455.3193      -487.2516
      -355.3818      -535.1028      -523.2554      -377.3187      -445.1812
      -671.7610      -802.4800      -616.9070      -495.1804      -504.7639
      -374.7225      -283.3534      -389.0571      -1188.325      -1215.676
       455.0579       248.7159      -902.3169       406.0007       1344.508
      -228.2715      -728.4238       1169.323       600.6133      -1309.693
      -1211.103      -779.4181       175.6895       501.9780       840.0437
       1398.394       70.39648      -1168.435      -734.3180      -207.9540
      -573.2435      -26.95801       604.1289       1088.670       92.12573
      -1371.228       518.7246       1194.210      -32.44971       760.7233
       968.0461      -125.6140      -1526.708      -704.5012       1629.787
      -220.8040      -683.4583       268.7025       176.1654       348.9302
       211.9834       1883.914       957.3921      -435.9265      -173.6494
      -528.8793      -402.2683       630.4609       1721.908       1633.294
       305.8862      -596.7541      -15.36871      -877.4082       993.5469
       2334.738      -742.1626       589.2390       1633.629      -461.9574
      -387.8922       739.0312       92.15784      -701.3074       897.4351
       1523.439      -290.6221      -241.9443       107.0635      -397.9275
       1000.224       619.4003      -283.2830       84.16162       348.6722
       576.2162       411.4731       375.4765       126.0374       661.5131
       252.7625      -118.7266       1451.456       412.8303      -529.7550
      -142.7148      -65.47177       171.1157      -17.66113       47.39819
      -722.9943      -471.3804       909.6274       666.0084       171.6541
       446.4703       126.0763      -143.9155      -652.8054      -272.6092
       137.0561      -104.8105       683.9276       332.8401      -771.4591
       126.8488       809.7515      -339.7297      -610.0353       186.7648
       597.5859       21.12451       644.7188      -826.6708      -1287.457
       802.5673       143.3773      -356.9709      -303.8573      -135.8894
      -154.1618       140.1760      -712.2158       158.3638       1012.620
      -658.8434       147.3159      -491.1536      -1020.022      -32.38544
      -141.9767       341.8042      -400.4102      -672.8406       279.4692
      -222.6699      -400.1556       209.4348       452.5163       387.4155
      -689.6143      -1102.043       461.7820      -118.4490      -1402.683
      -172.3006      -66.42706      -361.6356       258.7817       147.7214
       6.312256      -169.7357      -304.5912      -413.5204      -632.2883
       128.5618       99.98438      -837.8917      -679.1479      -192.3383
      -89.82452       63.55109       387.4827      -969.4382      -685.9663
       181.7039      -1098.967      -105.1090       284.3823      -616.8126
      -206.2100      -110.0360      -724.3159      -476.2792       284.6693
       167.9580      -512.5885      -515.8789       379.6201      -496.5381
      -1482.152      -503.3428       195.3944      -18.59918       122.3076
       393.5378      -341.9260      -330.8492       13.89844      -443.3112
       188.1768       272.9447      -417.8018      -954.0541      -653.8242
       390.8156      -80.92749      -340.2575      -182.7007      -397.7619
      -49.40826       158.2041       384.0132      -221.1501      -613.7247
       249.5602      -14.37183      -100.5128       462.6694      -57.11047
      -689.8848       488.5331       531.6846      -499.0211       207.0591
       84.55902      -285.8736       36.98572       112.7502       217.7002
       543.1603       166.8722      -493.7676      -317.8583       118.0352
       462.9053       47.69751       296.3080       721.5098      -260.8129
      -278.5531       322.1816       203.4640      -148.4321      -44.13489
       332.3240       609.1203       298.2402       170.1734       373.1559
       204.4954       415.3630       259.6194       105.7869       601.8431
       216.9901       38.62402       855.8335       467.6449      -325.3113
       291.7673       450.4272       213.6279       171.6038       117.6566
       519.7798      -17.16406       314.1482       762.7034       220.3745
       368.5229       30.07430      -65.21912       231.7751       475.1203
       356.2870       179.5884       101.9050       523.5027       1119.457
       25.97470      -195.2308       431.5306       239.0974       558.5243
       385.7831       358.0044       446.8407      -1.178345       294.9861
       390.5637       212.0796       207.1757       48.51221       318.0576
       331.7310       446.4316       384.5337       272.6799       353.0679
      -168.3970       602.9360       1060.126       177.3407      -76.35229
       356.0601       644.4106       352.6130      -77.52612       73.49768
       515.5505       365.0933       193.3508       413.2740       140.2845
      -200.9796       345.2915       330.0596       384.8494       448.4013
      -121.9177       159.2823       436.8896       383.3732       260.8119
       238.6895       150.1260      -130.0861       347.5570       176.3447
       126.4675       442.8039       69.72546       223.7834      -116.9645
      -9.040039      -74.94684      -185.6948       559.1625      -79.08313
      -421.6467       157.2911       543.9603       174.0677      -119.1882
       441.1574       49.02350      -218.3767       127.8714      -91.78067
      -55.31073      -140.6209       32.58478       223.3199      -333.8334
      -337.7505      -37.94067      -186.3796      -288.9573      -91.05582
      -35.44044       57.85901      -61.40686      -254.0005      -126.9938
      -425.5099      -398.3378      -159.4534      -661.0261      -339.9575
       211.5446      -382.0295      -347.7635      -56.68469      -322.5110
      -674.6937      -593.2444      -350.1152      -621.9054      -385.9042
      -194.1106      -183.4399      -157.3589      -406.9604      -514.0366
      -589.6562      -759.9060      -532.6622      -373.3867      -1021.213
      -567.8278      -213.5073      -858.8943      -332.0114      -316.0774
      -1029.110      -747.5781      -534.7347      -515.8750      -229.0256
      -770.7141      -831.3521      -596.1458      -800.9358      -518.9825
      -726.2177      -597.1455      -838.3755      -741.7355       103.3533
      -675.2786      -937.5468      -394.8009      -347.6289      -510.7264
      -522.8267      -639.8875      -633.0068      -632.2533      -606.7975
      -120.1328      -267.1650      -616.2189      -448.0002      -193.3102
      -638.5934      -687.0866      -139.5192      -346.0697      -273.7910
