     0.02500000      -1898.433       2003.909      -12345.00      -12345.00
      -29.99504       218.7049      -19.77000      -12345.00      -12345.00
       0.000000       14.96000      -12345.00      -12345.00      -12345.00
      -12345.00      -12345.00      -12345.00      -12345.00      -12345.00
      -12345.00      -12345.00      -12345.00      -12345.00      -12345.00
      -12345.00      -12345.00      -12345.00      -12345.00      -12345.00
      -12345.00      -31.90580      -68.77510       1333.000       0.000000
      -31.06700      -68.46300       0.000000       100400.0       0.000000
      -12345.00      -12345.00      -12345.00      -12345.00      -12345.00
      -12345.00      -12345.00      -12345.00      -12345.00      -12345.00
       97.61794       197.6042       17.76646      0.8777080      -12345.00
      -12345.00     -0.2470160       0.000000       0.000000      -12345.00
      -12345.00      -12345.00      -12345.00      -12345.00      -12345.00
      -12345.00      -12345.00      -12345.00      -12345.00      -12345.00
      2008       164        19         3        57
       570         6    -12345    -12345      9949
    -12345    -12345    -12345    -12345    -12345
         1         7        13    -12345    -12345
    -12345    -12345    -12345    -12345    -12345
    -12345    -12345    -12345    -12345    -12345
    -12345    -12345    -12345    -12345    -12345
         1         1         1         1         1
CHIL    -12345          
        -12345  -12345  
-12345  -12345  -12345  
-12345  -12345  -12345  
-12345  -12345  -12345  
-12345  -12345  -12345  
-12345  -12345  BHZ     
ZL      -12345  -12345  
[...]
       174.3043       204.0893       94.79810       70.29626       194.9438
       251.5699       116.6799       115.5476       230.7299       138.8359
       114.2678       251.2028       219.4895       12.15723       166.8615
       287.7574       143.5134       180.1183       270.0526       157.6372
       103.8802       200.6979       254.6744       220.0389       203.0143
       205.1196       209.4183       216.2567       227.9049       141.4053
       220.0443       328.6199       270.0152       216.7149       223.6454
       240.9932       211.4417       182.3165       297.5184       342.5767
       223.0663       148.4214       340.8992       413.3950       252.1385
       135.8949       274.2664       377.9940       228.2535       246.6217
       348.7888       256.5074       224.5701       232.0801       228.9467
       220.9808       215.5540       257.2727       377.3542       336.6963
       191.3688       262.0968       323.2219       200.5861       179.9008
       177.1880       287.0607       361.2514       165.8638       146.7401
       283.9381       248.2847       220.5319       307.1407       293.7829
       197.2449       204.1472       219.9152       256.0238       222.1212
       263.3623       372.1631       286.4933       228.2162       304.5667
       241.4921       176.2839       215.2277       316.8308       274.7737
       189.6387       150.0787       171.0081       257.3485       280.9282
       218.8853       185.0704       211.3618       249.2762       156.7812
       151.9455       163.4359       105.0122       138.9660       197.6530
       130.8486       148.1306       93.53641       49.23804       119.8998
       31.52269      -52.74100       39.58902       84.57925       96.27304
       101.5225      -50.57240      -104.6951       7.916138      -102.7402
      -126.8242     -0.2927856      -143.1389      -239.0024      -96.67365
      -178.3697      -171.3551      -101.6925      -161.6995      -161.4238
      -164.8269      -276.0583      -265.5353      -193.6735      -233.8907
      -287.8412      -251.0504      -255.6506      -224.7957      -262.9263
      -276.3590      -217.0582      -291.1782      -305.0684      -128.2073
      -211.4923      -376.3781      -282.1302      -223.6194      -223.5000
      -221.7304      -343.7258      -249.0255      -129.3521      -171.0988
      -192.0367      -248.6234      -251.6381      -171.5093      -201.5756
      -202.5603      -157.1105      -193.5108      -169.2558      -109.4833
      -197.1081      -161.9934      -65.34378      -115.0540      -177.2434
      -81.42621      -47.52032      -83.74286      -94.21118      -61.59427
      -94.05554      -160.4506      -95.49942      -66.28439      -102.1233
      -130.3542      -210.1519      -151.8324      -52.33420      -126.1310
      -121.4314      -45.44629      -144.3190      -189.7899      -247.7283
      -250.9829      -193.7578      -245.4274      -272.6006      -292.7257
      -376.6689      -401.1619      -343.3325      -277.7208      -265.2938
      -349.2588      -483.0626      -427.1523      -365.1588      -356.9557
      -341.7170      -501.1926      -621.0038      -514.2374      -483.1252
      -546.4027      -529.6013      -572.6233      -689.5972      -629.1573
      -598.4291      -654.5703      -675.6611      -696.9454      -638.4136
      -542.0876      -591.2760      -605.6577      -555.0208      -642.3120
      -794.7844      -709.9871      -610.4656      -656.9429      -735.9869
      -703.6312      -622.0112      -641.4734      -693.5012      -664.5996
      -707.0547      -686.0577      -622.3196      -613.8059      -639.0417
      -646.8083      -630.6752      -538.3528      -503.0496      -597.8893
      -595.6488      -455.0518      -487.3635      -562.5276      -438.4570
      -375.2189      -444.0789      -442.3425      -379.4241      -403.6780
      -426.5966      -300.4760      -220.5995      -180.9858      -202.8976
      -205.5520      -208.8956      -210.1768      -56.19150      -30.19864
      -90.70319      -36.25543      -29.26895       11.82864       118.6305
       101.4666       107.7108       200.9403       209.0154       253.9771
       246.0549       173.9869       276.3435       405.3850       417.6444
       424.4714       387.9407       420.8052       452.7126       380.0049
       452.0068       554.9836       568.3070       628.7683       664.0736
       612.1567       488.2378       576.6079       766.0063       740.7334
       686.4746       721.7373       703.6218       690.8052       785.4709
       886.8408       748.7158       717.4736       904.8325       890.2078
       858.6616       890.6377       756.6782       880.0649       963.6030
       857.6143       936.6167       917.6628       919.9524       1029.402
       934.9202       812.4917       867.7539       976.9722       941.0122
       908.1216       872.1848       841.0703       896.6079       937.7449
       945.6812       880.2039       825.9666       871.9148       783.7820
       697.5869       763.8076       888.5820       827.4033       733.7776
       736.1265       656.3907       640.6230       676.5952       584.6824
       560.9385       648.9924       642.6349       531.7139       526.4633
       508.0199       450.6561       424.8123       488.0032       395.1253
       231.1681       372.9426       401.2386       266.6265       350.9282
       363.7930       237.5424       259.3523       330.8043       249.3898
       175.7977       176.3211       144.9214       94.35028       91.67529
       165.9250       167.2770       104.9512       82.00347       49.75216
      -5.915737      -22.42081       45.69586       68.84560       45.22112
      -26.86340      -71.75290      -74.33179      -59.33839      -19.90882
      -24.73516      -14.46503      -57.72377      -121.6388       22.41652
       30.55701      -175.3212      -103.8415       24.56711      -33.16132
      -30.40540      -7.352264      -9.928467       32.31313       23.50316
      -9.152782       9.784683      -40.48994      -59.65771      -5.316727
       37.70535       101.8262       97.37616       39.38848       40.90004
      -21.61693      -72.88550       11.20895       50.62342       47.52808
      -10.84656      -77.04289      -84.29726      -8.060196       13.14331
      -73.98871      -147.2371      -150.0556      -153.6850      -176.1246
      -145.5142      -120.1566      -184.9362      -253.8292      -220.2842
      -146.5529      -258.6991      -452.5566      -519.6907      -502.8125
      -500.5786      -499.4617      -466.6436      -430.0902      -442.2332
      -500.7053      -593.1494      -692.4546      -778.1592      -720.4717
      -625.7156      -614.5398      -668.9875      -725.4253      -757.7190
      -773.0564      -755.6093      -643.1333      -645.8525      -791.4487
      -813.6646      -679.8171      -731.8398      -881.9663      -914.8857
      -931.0854      -944.1689      -1002.657      -1094.570      -1005.061
      -919.1909      -1000.304      -1014.332      -874.5098      -886.8337
      -980.9895      -954.1479      -907.5396      -889.3728      -969.3345
      -995.9243      -914.7195      -962.9316      -977.9033      -892.3574
      -949.1814      -1085.399      -1003.904      -872.3726      -915.1438
      -890.5295      -847.3999      -1033.112      -1099.611      -940.0493
      -867.5361      -903.5342      -907.8440      -914.8921      -927.4805
      -896.1663      -795.3389      -713.6377      -644.9468      -556.9192
      -571.8713      -688.1130      -674.9454      -516.1733      -491.4661
      -807.1367      -996.3420      -836.4006      -620.1278      -431.0957
      -359.2777      -502.0262      -640.7964      -682.4841      -591.8608
      -494.3193      -505.7837      -383.7792      -210.2794      -243.9793
      -243.3236      -150.3903      -16.09747      -30.64401      -134.7033
      -32.08170       9.653137      -90.95241      -92.35805      -60.53275
      -126.3762      -137.1274       129.9144       278.0831       266.9688
       358.6686       372.7841       182.4283       146.4146       249.8291
       175.6848       169.8972       343.1021       517.3625       732.0303
       682.8052       470.3053       519.9561       695.1265       701.3486
       691.8887       783.8804       732.8743       577.8131       461.6548
       521.3530       762.7261       1035.875       1243.445       1079.906
       725.0522       812.7109       1146.230       1063.272       664.5846
       440.5334       500.0527       765.8013       1097.988       1180.252
       1147.184       1083.177       1125.344       1295.431       1168.803
       1026.426       1080.516       953.1821       782.2307       858.3623
       975.8992       955.5854       1037.521       1109.647       1066.093
       1148.552       1340.582       1432.003       1359.700       1348.854
       1448.923       1493.508       1482.254       1281.554       952.0923
       673.4614       588.9841       716.5046       799.7788       913.0886
       984.9172       949.9539       1025.488       1120.989       1141.013
       1102.000       979.3584       883.4858       869.2058       820.8594
       751.2793       862.3867       1044.900       1133.733       1063.393
       869.7439       625.3185       477.1799       535.6182       687.4744
       829.7432       813.4022       563.1009       344.7792       184.4303
       25.44568       105.2291       414.0156       715.5071       800.4369
       658.6476       548.1976       387.0446       158.8278       91.02448
       179.0234       276.3115       318.5552       324.5212       304.0925
       296.0262       325.0389       167.7158      -103.2127      -205.8506
      -126.2838      -38.59918      -58.10297      -145.9976      -164.5210
      -105.5561       88.28606       106.4472      -173.4682      -150.4738
      -57.89185      -269.6140      -327.7767      -224.0972      -231.9686
      -215.2860      -251.3987      -516.5967      -645.9434      -523.5411
      -455.0311      -456.9712      -463.8845      -604.5769      -732.5776
      -710.2765      -649.4849      -556.8657      -388.6118      -332.0005
      -341.4849      -415.8745      -563.6497      -608.5186      -691.9360
      -793.2524      -798.1274      -689.7649      -505.5635      -482.4226
      -603.6079      -744.3682      -831.0056      -740.4868      -589.6912
      -641.5687      -665.8616      -629.1748      -806.6831      -934.9551
      -823.6045      -786.0315      -789.8518      -624.8484      -559.2115
      -609.1107      -450.6680      -490.5387      -654.3364      -678.8579
      -750.9221      -857.1548      -932.0869      -901.1704      -913.6851
      -1047.428      -1051.891      -952.2375      -866.3291      -825.8127
      -772.6951      -768.1226      -857.3962      -890.6912      -783.4370
      -807.7214      -922.9399      -874.1143      -742.1753      -799.6323
      -932.8713      -899.5828      -902.3667      -1053.496      -978.8335
      -817.4917      -766.0059      -770.1331      -667.0386      -752.9663
      -1028.676      -1040.503      -851.1472      -864.5605      -946.8716
      -871.8184      -737.8789      -767.5513      -849.7046      -926.5029
      -1002.352      -929.2620      -769.7664      -769.4817      -760.1399
      -741.1079      -681.8335      -671.6777      -831.5491      -955.6414
      -911.5049      -798.2292      -639.7305      -588.2227      -683.6533
      -758.6926      -758.6743      -732.2983      -693.4185      -695.8704
      -635.2716      -537.3152      -566.7295      -689.5723      -722.5022
      -746.1748      -795.1101      -642.1482      -557.0009      -598.8820
      -454.7363      -339.2921      -278.3615      -218.3397      -243.7211
      -293.3538      -240.4240      -127.0671       60.17653       96.39464
     -0.2571869       49.48117       111.0415       33.98141      -39.05806
       10.89673       157.1502       156.5720       125.3123       217.2106
       319.9099       384.4731       401.9871       251.4949       170.7242
       271.7459       290.3359       246.8590       401.0280       526.2350
       496.3661       535.7917       701.2627       717.9158       681.3545
       735.9934       803.7803       829.1270       848.2363       839.5059
       820.5977       828.0332       902.1895       1027.685       1083.721
       1088.067       1158.030       1188.553       1203.113       1235.458
       1303.683       1355.663       1441.432       1487.675       1455.382
       1425.544       1430.966       1472.371       1552.640       1612.144
       1620.602       1587.771       1612.349       1670.405       1652.325
       1642.635       1755.846       1764.721       1716.809       1791.192
       1889.302       1958.355       2003.909       1948.052       1888.685
       1870.955       1912.219       1904.984       1872.979       1894.581
       1914.335       1883.874       1815.897       1766.675       1773.990
       1714.399       1712.040       1762.787       1747.685       1673.703
       1538.592       1471.750       1551.325       1541.790       1534.172
       1570.534       1481.776       1309.313       1274.238       1316.003
       1342.967       1266.122       1150.885       1058.665       931.8862
       877.9519       951.8445       935.4104       945.7903       906.8271
       845.0422       851.9004       762.6049       605.7019       512.6410
       488.9050       483.4470       365.7107       281.5714       261.9415
       218.7521       200.8964       167.1319       91.13579       83.58762
      -56.54492      -262.7830      -341.5792      -349.3593      -364.7419
      -398.6206      -416.1296      -454.6768      -512.4622      -516.1790
      -565.9431      -654.8030      -743.2866      -782.1414      -758.3828
      -781.6372      -813.9780      -832.2825      -867.2058      -867.7827
      -964.6365      -1096.852      -1175.812      -1192.657      -1182.636
      -1253.800      -1371.275      -1406.228      -1396.648      -1426.280
      -1410.393      -1354.883      -1390.702      -1482.992      -1514.663
      -1627.685      -1751.854      -1680.453      -1618.057      -1633.253
      -1584.323      -1576.522      -1700.641      -1716.606      -1622.283
      -1635.772      -1722.481      -1717.367      -1688.550      -1762.765
      -1882.914      -1887.836      -1898.433      -1881.093      -1741.002
      -1722.151      -1817.705      -1790.385      -1699.051      -1732.186
      -1754.208      -1699.041      -1713.057      -1746.298      -1732.443
      -1704.978      -1720.656      -1672.783      -1631.577      -1633.210
      -1572.274      -1563.434      -1557.449      -1497.552      -1545.699
      -1609.556      -1547.564      -1492.127      -1579.354      -1589.248
      -1430.054      -1395.807      -1425.208      -1315.585      -1262.105
      -1324.056      -1287.600      -1228.088      -1224.564      -1149.646
      -1095.271      -1118.230      -1092.625      -955.4204      -914.5042
      -955.5256      -859.6934      -817.6709      -837.0293      -743.9414
      -704.1548      -789.5261      -745.1577      -656.8574      -700.4622
      -658.0017      -604.6024      -620.5652      -546.5034      -494.9014
      -450.0437      -380.8115      -319.8810      -250.0951      -198.1663
      -114.5261      -53.57372      -9.634796       71.84393       147.1679
       159.5770       130.0415       117.1585       109.3923       141.6051
       169.5498       205.4218       336.3574       501.8488       511.0857
       428.8308       432.3518       511.6328       606.7039       656.1687
       642.8589       678.7666       772.6450       863.3284       880.3958
       887.8755       877.9038       875.8247       973.7402       1027.091
       977.6028       976.7148       1041.719       1096.610       1104.044
       1029.301       1036.211       1173.834       1136.375       1087.428
       1171.547       1245.848       1309.841       1338.063       1305.958
       1326.702       1369.519       1406.412       1447.398       1442.316
       1400.584       1402.652       1423.965       1402.431       1407.134
       1410.069       1413.275       1473.687       1505.793       1495.111
       1468.832       1489.077       1540.235       1510.929       1506.552
       1552.132       1567.971       1573.145       1576.278       1565.700
       1521.850       1548.848       1616.319       1529.092       1440.406
       1461.052       1398.879       1327.604       1335.420       1355.079
       1343.962       1352.896       1354.586       1317.567       1310.956
       1320.193       1326.802       1284.317       1198.518       1243.914
       1234.537       1181.083       1153.304       1138.356       1115.315
       1081.446       1032.839       1005.271       995.6396       991.0703
       892.6436       743.0818       739.0537       784.9963       690.7490
       655.6367       737.3374       745.9039       693.5214       621.4763
       552.2032       537.1045       565.6217       596.4282       555.0566
       470.4482       383.5784       383.4397       397.4866       330.4012
       246.7521       236.2141       182.9808       95.30334       81.40155
       44.52441      -84.37830      -186.1146      -251.4113      -272.6765
      -222.7743      -262.4634      -358.8193      -375.5825      -410.4592
      -419.6407      -465.7566      -522.6656      -526.8621      -543.9421
      -620.3645      -699.4690      -691.1758      -682.2170      -776.0098
      -842.1123      -839.1179      -903.0400      -1003.425      -963.4556
      -952.6431      -1067.476      -1154.622      -1133.987      -1111.275
      -1086.815      -1058.113      -1064.616      -1141.162      -1169.683
      -1156.134      -1166.311      -1189.988      -1211.588      -1239.934
      -1260.406      -1246.984      -1204.533      -1215.577      -1243.404
      -1261.527      -1295.231      -1300.361      -1237.486      -1258.425
      -1297.560      -1262.521      -1236.115      -1307.702      -1310.246
      -1310.057      -1377.240      -1379.323      -1314.396      -1260.850
      -1312.269      -1399.521      -1361.386      -1312.001      -1275.673
      -1275.331      -1246.029      -1205.176      -1279.977      -1293.844
