     0.02500000      -1843.043       1637.165      -12345.00      -12345.00
      -29.99504       218.7049      -19.77000      -12345.00      -12345.00
       0.000000       14.96000      -12345.00      -12345.00      -12345.00
      -12345.00      -12345.00      -12345.00      -12345.00      -12345.00
      -12345.00      -12345.00      -12345.00      -12345.00      -12345.00
      -12345.00      -12345.00      -12345.00      -12345.00      -12345.00
      -12345.00      -31.90580      -68.77510       1333.000       0.000000
      -31.06700      -68.46300       0.000000       100400.0       0.000000
      -12345.00      -12345.00      -12345.00      -12345.00      -12345.00
      -12345.00      -12345.00      -12345.00      -12345.00      -12345.00
       97.61794       197.6042       17.76646      0.8777080      -12345.00
      -12345.00     -0.4124193       90.00000       90.00000      -12345.00
      -12345.00      -12345.00      -12345.00      -12345.00      -12345.00
      -12345.00      -12345.00      -12345.00      -12345.00      -12345.00
      2008       164        19         3        57
       570         6    -12345    -12345      9949
    -12345    -12345    -12345    -12345    -12345
         1         7        13    -12345    -12345
    -12345    -12345    -12345    -12345    -12345
    -12345    -12345    -12345    -12345    -12345
    -12345    -12345    -12345    -12345    -12345
         1         1         1         1         1
CHIL    -12345          
        -12345  -12345  
-12345  -12345  -12345  
-12345  -12345  -12345  
-12345  -12345  -12345  
-12345  -12345  -12345  
-12345  -12345  BHE     
ZL      -12345  -12345  
[...]
       57.04462       69.13831       122.6568       156.9135       180.8198
       208.1608       211.3407       226.3215       252.4202       251.9650
       259.3084       306.0264       315.2805       259.7013       260.6266
       320.9585       302.9807       341.4254       448.3650       496.4752
       477.4426       468.0652       528.3909       589.1361       573.0980
       560.5806       634.6445       675.0928       643.2687       658.9294
       655.4910       651.8879       652.3926       625.0981       699.8081
       761.4355       677.6311       763.0034       905.2175       835.7893
       820.3623       887.3613       863.1782       864.0830       830.3604
       814.5442       876.8367       902.8362       880.9175       822.1628
       792.0007       824.8916       816.3811       855.0029       861.6030
       806.4126       801.4102       820.4873       752.9666       703.4351
       640.7295       562.4646       577.6418       624.1843       618.5054
       616.5664       557.3777       538.5244       540.1940       522.2802
       498.0426       519.9619       437.1609       367.2896       394.0657
       365.5085       317.9345       315.0911       275.1733       307.8467
       301.2473       216.3043       172.2084       136.4867       88.53723
       79.69626       20.85019       49.53009       76.22382       81.74602
       74.46766       24.18686      -60.76767      -54.16061      -69.95853
      -110.2026      -92.90897      -138.9722      -190.4534      -208.6964
      -261.2196      -244.9064      -276.8596      -337.1589      -382.2173
      -400.1403      -415.8334      -390.9272      -378.3125      -415.3313
      -520.7766      -583.3271      -569.9058      -589.4423      -632.8481
      -614.3025      -595.1323      -614.6132      -661.6140      -604.5378
      -623.0402      -671.4445      -643.9463      -628.0354      -575.3518
      -534.1526      -653.6147      -688.2290      -599.4283      -553.8782
      -594.6421      -629.3938      -657.8621      -633.2924      -657.4939
      -647.9863      -576.3019      -500.6367      -495.0787      -515.8459
      -493.8408      -444.1571      -446.9556      -411.2076      -388.5203
      -350.6856      -331.9319      -285.2758      -301.4379      -306.2691
      -302.4926      -278.4374      -215.4528      -160.9243      -192.6007
      -196.3411      -192.9379      -149.7928      -147.7926      -144.3785
      -192.3085      -189.9979      -95.21826      -106.0144      -177.5900
      -137.7064      -114.6588      -31.54074      -19.00008      -31.89968
      -6.334927       1.682983       36.82669       98.93619       90.06586
       82.51266       51.29886       66.85530       77.26396       53.01807
       50.14264       119.5608       70.05136       79.59470       168.4394
       162.1895       87.47902       46.06108       47.78033       119.6685
       126.1180       133.9611       191.0851       248.6205       193.0251
       195.2092       161.1223       138.8058       165.6774       174.6721
       169.4550       175.3839       247.6211       351.9182       329.9291
       325.4680       365.9397       464.8181       449.9358       452.3420
       503.8207       552.2308       504.9349       456.6891       511.3132
       598.3188       555.4546       557.9178       563.9351       615.8553
       641.8982       639.1938       644.0576       662.5367       633.1118
       623.1956       618.4202       622.3750       555.8787       583.2925
       654.7184       623.5854       533.6700       512.1270       492.1506
       473.5990       425.2328       425.0282       423.9973       352.0305
       280.2990       300.7028       258.7852       209.1562       170.4917
       166.3783       130.5444       111.9196       54.27618       35.03513
       65.97772       89.72266       106.0823       35.48044       2.549591
       94.50055       9.209167      -111.6298      -119.5477      -100.7536
      -127.5525      -107.2305      -121.8167      -112.1623      -84.49945
      -113.6537      -184.7420      -131.4629      -100.2719      -203.7617
      -223.7825      -142.3661      -199.1828      -285.1337      -337.4980
      -264.0798      -217.9337      -252.7361      -247.7800      -277.4517
      -383.7046      -355.5507      -322.5768      -331.6324      -372.1681
      -359.0681      -278.9525      -232.9315      -253.2644      -239.8212
      -297.1621      -372.4487      -383.0160      -342.1516      -346.5804
      -300.6133      -245.6335      -235.4983      -246.8958      -277.6248
      -360.6725      -339.3711      -336.2478      -406.1506      -361.4957
      -282.9624      -342.3293      -349.4810      -308.3456      -280.5038
      -295.0115      -292.7719      -303.2753      -337.1177      -372.3472
      -342.9659      -344.1421      -389.7211      -409.4435      -338.9847
      -338.7576      -396.0795      -421.6709      -434.0785      -479.9640
      -498.3003      -446.2769      -444.8568      -538.5342      -514.1708
      -488.2218      -528.7450      -485.8694      -399.8379      -480.5010
      -604.9672      -595.5542      -527.7358      -457.8480      -444.4563
      -472.3748      -449.3304      -490.0146      -496.1996      -430.9156
      -379.4991      -435.9332      -496.1597      -424.4897      -405.5415
      -445.8710      -399.5179      -398.7167      -443.3148      -463.9900
      -387.9553      -339.9056      -342.8698      -337.4215      -342.0781
      -329.1697      -235.6816      -308.7216      -414.3274      -366.7875
      -281.4150      -234.3157      -230.9514      -219.8468      -202.8622
      -217.0920      -231.9161      -237.9070      -230.3153      -270.0776
      -288.8849      -278.2466      -274.4435      -263.1834      -239.8673
      -245.3759      -165.1771      -127.1255      -186.4226      -148.8924
      -75.97992      -117.0551      -107.2086      -51.33121      -81.40842
      -125.7966      -110.3904      -153.6766      -143.2542      -87.80542
      -120.1050      -74.85861      0.7909241      -84.16022      -73.33740
      -43.39416      -53.62439      -6.903748      -65.74356      -118.4714
      -11.79303      -7.999908      -64.21730       3.759094       58.66132
       99.36871       161.7138       133.1604       181.9338       196.4286
       155.2406       204.7083       290.3998       300.6124       305.4338
       384.8851       436.2905       409.5415       412.4791       472.1516
       555.0637       576.7180       637.8389       686.5034       695.2083
       677.3887       659.1758       724.9888       755.9343       664.9255
       677.2124       816.3325       865.5332       747.0474       735.9580
       771.6765       774.2349       813.3074       862.1401       873.6121
       909.8008       921.1069       859.1541       880.2612       928.1980
       889.3647       889.8921       926.8140       967.2742       927.4121
       912.7664       982.8564       969.9329       914.9233       945.6392
       1001.360       987.1873       992.3853       1008.259       996.5508
       1039.095       1001.889       969.1814       1073.073       1006.553
       927.2576       992.2839       951.0017       922.5405       980.8003
       974.0906       945.1902       967.8503       1004.321       993.3174
       963.0347       953.2957       972.9719       975.6851       932.2107
       908.1409       872.5820       858.1401       900.8679       903.2231
       855.2463       830.4541       844.5703       853.1567       788.3298
       742.3650       770.4446       747.4604       689.9751       714.5610
       717.9868       720.4495       713.1547       633.3729       595.3896
       589.3696       469.0032       433.4678       523.6023       434.6771
       329.7841       383.3384       297.8350       239.5815       290.9781
       248.7307       162.3309       103.1510       56.79977       60.87978
       28.24606      -53.40570      -88.01663      -104.0555      -168.7415
      -189.6650      -170.6141      -255.1227      -349.4641      -282.1324
      -313.9449      -435.1499      -469.0571      -427.0377      -427.4470
      -457.5488      -494.2703      -552.3286      -548.5229      -527.7076
      -568.7727      -583.6045      -623.3545      -734.3269      -756.5889
      -705.8850      -801.3872      -832.9160      -806.1042      -887.9209
      -947.5410      -969.8623      -1035.770      -1064.831      -1068.670
      -1108.989      -1145.477      -1143.830      -1172.343      -1152.841
      -1193.561      -1262.496      -1211.720      -1194.475      -1329.371
      -1345.951      -1258.072      -1281.669      -1397.699      -1461.049
      -1460.862      -1481.097      -1551.644      -1579.701      -1643.324
      -1573.260      -1519.812      -1661.146      -1651.860      -1519.230
      -1682.411      -1742.328      -1590.935      -1693.584      -1759.877
      -1605.173      -1594.316      -1569.821      -1537.255      -1578.204
      -1532.463      -1435.407      -1497.702      -1491.820      -1356.582
      -1366.592      -1355.714      -1245.391      -1290.386      -1309.282
      -1229.697      -1125.031      -1031.903      -1005.188      -1037.472
      -997.7461      -960.0730      -913.9646      -840.1709      -844.6814
      -846.5586      -756.1543      -722.0212      -690.4387      -681.9250
      -686.5471      -584.6362      -582.5105      -644.7064      -504.9186
      -425.7885      -405.0233      -397.6411      -379.0485      -333.4534
      -292.8298      -239.3680      -183.4260      -123.0673      -43.32039
      -59.70786      -30.72150      -30.29955      -39.92994       24.52874
       3.101059      -31.21077       21.00958       20.99310       83.92560
       162.2367       162.8798       180.3898       224.6324       175.5294
       158.2769       215.0228       249.3209       228.7217       237.5880
       220.4777       262.3020       365.9904       372.6876       319.2272
       327.2015       334.6564       357.8612       411.2266       433.0717
       433.7847       451.8806       378.6205       361.8618       414.3757
       410.2704       428.9861       458.9261       430.5851       482.2776
       509.8933       507.3546       515.7786       519.6536       547.9636
       617.9019       668.3535       649.0632       566.3652       557.3950
       557.9856       572.6313       588.8074       609.7141       591.9446
       595.5750       627.3936       651.6011       745.2874       765.8120
       655.2959       662.5901       741.1887       783.8457       779.0664
       765.0698       769.2866       841.2698       847.0154       858.9084
       890.2834       902.4895       888.2002       906.5532       899.4819
       846.7700       869.4788       893.1516       875.6543       917.0552
       972.1240       1051.840       1022.807       1020.124       1083.678
       1114.506       1165.521       1180.311       1153.273       1217.082
       1198.771       1197.717       1278.892       1293.971       1292.850
       1324.111       1323.359       1308.595       1299.593       1328.367
       1322.522       1374.425       1454.958       1457.623       1423.476
       1418.551       1401.370       1453.579       1544.727       1528.400
       1470.037       1511.780       1545.975       1484.090       1448.248
       1532.190       1512.294       1487.750       1454.034       1406.313
       1414.669       1425.146       1424.528       1448.943       1417.195
       1414.223       1355.940       1315.809       1303.052       1286.549
       1290.847       1311.162       1289.433       1255.680       1234.945
       1179.644       1128.579       1121.302       1051.651       992.0107
       974.7029       893.1177       733.8428       642.6575       639.0593
       666.6667       597.0847       521.0629       459.8218       400.7112
       348.6322       274.3625       205.8167       166.3961       82.94247
       3.955475      -65.73563      -75.75391      -70.02307      -91.07336
      -128.5609      -152.1658      -195.8667      -254.5475      -324.0128
      -363.0129      -423.9309      -434.5524      -416.4010      -465.3276
      -598.0273      -678.8206      -724.8867      -732.1001      -757.7808
      -771.9700      -785.2014      -811.2961      -878.3877      -947.0190
      -995.4810      -973.2126      -994.6523      -1062.464      -1145.080
      -1215.943      -1295.074      -1350.205      -1374.912      -1418.048
      -1482.818      -1463.234      -1455.585      -1488.729      -1513.971
      -1508.557      -1540.399      -1540.079      -1551.808      -1582.174
      -1619.574      -1632.155      -1671.172      -1720.379      -1706.147
      -1698.132      -1757.254      -1769.595      -1773.103      -1748.318
      -1754.866      -1788.079      -1758.979      -1756.094      -1843.043
      -1792.251      -1737.729      -1777.655      -1776.947      -1727.277
      -1750.479      -1784.512      -1775.219      -1778.364      -1762.898
      -1710.948      -1699.321      -1703.065      -1717.708      -1676.604
      -1641.996      -1661.881      -1633.983      -1572.847      -1568.903
      -1554.107      -1555.789      -1507.657      -1441.211      -1460.739
      -1440.420      -1360.983      -1361.424      -1312.487      -1262.500
      -1257.908      -1271.088      -1283.629      -1257.947      -1122.514
      -1087.105      -1150.193      -1143.700      -1080.357      -1029.118
      -951.3379      -891.9658      -884.3977      -920.8491      -911.0996
      -902.5396      -858.4673      -847.6299      -824.3875      -755.0820
      -686.4023      -622.8242      -535.2610      -487.3853      -451.9974
      -441.0614      -419.2968      -399.6028      -353.7215      -287.3525
      -203.8809      -184.6452      -177.0260      -172.3943      -150.8730
      -86.09387      0.7506714       21.04634       39.20636       56.47464
       79.34760       115.8023       196.7432       211.8807       213.2595
       223.9620       295.6279       371.8741       386.1581       326.4858
       334.3179       421.8134       497.2911       496.5569       529.1556
       586.0535       602.8885       579.5830       545.6775       555.7014
       656.3174       719.7402       765.9482       759.6863       697.6008
       689.6978       738.5049       726.9800       710.6499       708.8760
       748.5747       743.3325       760.1750       740.2549       730.7922
       765.8682       730.7180       645.0371       618.8418       606.8730
       642.8018       685.1245       737.6536       734.6113       701.2253
       704.1309       763.4407       759.9133       734.2063       694.5598
       725.3701       772.9199       755.2532       762.8750       768.4299
       746.8394       776.4810       779.2261       799.2068       811.9116
       837.2017       851.2537       913.8433       941.9104       938.5315
       954.5088       968.2300       952.7427       949.1753       937.0723
       1041.637       1128.027       1108.995       1085.709       1147.154
       1196.054       1142.550       1099.206       1200.639       1241.038
       1241.092       1271.318       1278.637       1258.078       1270.286
       1297.103       1333.346       1328.507       1311.816       1269.707
       1247.573       1231.428       1233.781       1242.270       1238.744
       1244.524       1269.254       1249.278       1220.361       1227.665
       1221.267       1117.211       1056.111       1092.533       1104.578
       1046.205       1035.419       1010.260       992.2791       1039.101
       1021.013       946.9316       966.9316       977.2576       944.5642
       921.8040       911.4531       880.5415       846.2764       767.5078
       720.7271       731.4683       756.1663       685.3877       633.0618
       628.0602       640.9668       619.3174       584.5226       587.7637
       559.9504       501.2177       548.4160       559.0605       548.5109
       554.8362       561.1234       481.8246       424.2145       469.7217
       513.4668       471.7881       430.3232       433.1085       452.3401
       413.6133       367.8795       348.4629       364.5358       318.6265
       264.5118       239.1779       239.1995       184.8249       169.7650
       161.9508       131.8416       114.2672       89.95067       84.61899
       80.20343       85.06281       120.7678       64.10178       40.25314
       50.60073       46.31083       30.17915      -14.07550      -94.31897
      -114.0001      -140.9594      -199.4669      -222.0481      -194.8099
      -207.2637      -233.6680      -240.2827      -228.7755      -251.2929
      -280.8616      -296.5883      -297.8029      -291.6953      -290.8475
      -331.0694      -331.2704      -322.3165      -344.1935      -381.2048
      -397.7104      -404.4584      -422.6464      -451.5419      -456.2933
      -476.5925      -521.4001      -543.1946      -543.7614      -580.0183
      -591.6547      -589.5902      -638.9778      -687.0811      -668.6826
      -711.9561      -791.1626      -836.2195      -829.7063      -812.5603
      -818.5676      -947.2847      -1041.600      -1031.145      -1075.282
      -1094.998      -1052.766      -1068.602      -1118.548      -1145.480
      -1157.838      -1161.691      -1196.129      -1257.541      -1204.993
      -1185.434      -1229.859      -1185.716      -1195.743      -1281.981
      -1317.171      -1308.111      -1288.110      -1307.642      -1326.233
      -1246.615      -1205.094      -1240.651      -1264.284      -1214.894
      -1214.377      -1287.257      -1254.067      -1218.859      -1245.582
      -1210.415      -1210.370      -1255.741      -1247.584      -1192.483
      -1196.720      -1215.009      -1150.511      -1107.276      -1166.635
      -1162.945      -1104.485      -1082.788      -1114.918      -1177.516
      -1190.252      -1141.985      -1100.731      -1054.522      -986.9180
      -994.8499      -1057.639      -1018.494      -962.1873      -946.1895
      -922.5840      -891.7480      -848.4668      -809.2510      -780.4226
      -788.7749      -809.0754      -735.9849      -721.2278      -797.5579
      -827.6509      -793.0515      -730.9470      -715.3503      -682.2178
      -585.1946      -553.8762      -588.1147      -553.9878      -521.3564
