     0.02500000      -1854.628       2224.271      -12345.00      -12345.00
      -29.99504       218.7049      -19.77000      -12345.00      -12345.00
       0.000000       14.96000      -12345.00      -12345.00      -12345.00
      -12345.00      -12345.00      -12345.00      -12345.00      -12345.00
      -12345.00      -12345.00      -12345.00      -12345.00      -12345.00
      -12345.00      -12345.00      -12345.00      -12345.00      -12345.00
      -12345.00      -31.90580      -68.77510       1333.000       0.000000
      -31.06700      -68.46300       0.000000       100400.0       0.000000
      -12345.00      -12345.00      -12345.00      -12345.00      -12345.00
      -12345.00      -12345.00      -12345.00      -12345.00      -12345.00
       97.61794       197.6042       17.76646      0.8777080      -12345.00
      -12345.00      0.1375136       0.000000       90.00000      -12345.00
      -12345.00      -12345.00      -12345.00      -12345.00      -12345.00
      -12345.00      -12345.00      -12345.00      -12345.00      -12345.00
      2008       164        19         3        57
       570         6    -12345    -12345      9949
    -12345    -12345    -12345    -12345    -12345
         1         7        13    -12345    -12345
    -12345    -12345    -12345    -12345    -12345
    -12345    -12345    -12345    -12345    -12345
    -12345    -12345    -12345    -12345    -12345
         1         1         1         1         1
CHIL    -12345          
        -12345  -12345  
-12345  -12345  -12345  
-12345  -12345  -12345  
-12345  -12345  -12345  
-12345  -12345  -12345  
-12345  -12345  BHN     
ZL      -12345  -12345  
[...]
       1325.831       1326.557       1334.315       1345.208       1347.914
       1361.990       1378.069       1384.856       1392.198       1409.760
       1417.735       1421.705       1424.919       1439.108       1448.885
       1459.156       1467.917       1474.147       1477.893       1491.672
       1488.598       1478.275       1467.312       1457.641       1452.952
       1450.881       1440.014       1430.392       1427.044       1426.107
       1413.202       1401.417       1380.940       1358.507       1327.577
       1300.405       1277.299       1252.145       1231.082       1214.182
       1174.906       1141.584       1098.947       1056.860       1010.078
       963.3018       909.8840       865.3364       814.6826       771.8135
       721.6073       666.7014       606.6829       554.9580       482.2921
       420.4822       355.9406       294.3193       222.9679       164.6190
       102.7885       40.76733      -29.85391      -99.40302      -167.8807
      -221.2295      -286.8994      -358.9226      -433.6318      -493.3691
      -562.1675      -629.1960      -690.8779      -750.3369      -815.1992
      -879.1079      -952.7568      -1011.309      -1069.716      -1128.902
      -1176.800      -1217.081      -1264.203      -1298.069      -1340.820
      -1382.627      -1424.277      -1466.154      -1504.930      -1527.938
      -1564.396      -1591.242      -1605.359      -1609.143      -1626.967
      -1633.975      -1659.224      -1679.330      -1686.573      -1682.987
      -1689.055      -1686.320      -1675.665      -1659.386      -1657.694
      -1647.400      -1641.989      -1635.303      -1628.040      -1608.722
      -1590.769      -1566.475      -1544.542      -1509.922      -1477.019
      -1453.299      -1438.169      -1415.370      -1395.395      -1365.778
      -1345.203      -1315.015      -1281.959      -1249.329      -1237.038
      -1217.783      -1195.722      -1170.325      -1157.912      -1130.043
      -1104.520      -1074.377      -1051.845      -1016.932      -991.7915
      -963.5420      -944.1921      -906.3350      -887.8687      -863.5537
      -842.6909      -813.0615      -797.1450      -767.3223      -744.4189
      -708.2952      -676.8750      -637.4149      -617.1758      -587.8650
      -563.5585      -534.2722      -514.5951      -477.7594      -448.6431
      -412.6711      -382.2889      -343.1596      -323.9359      -296.7295
      -283.0835      -281.3341      -277.3529      -242.7575      -219.4413
      -201.8787      -188.2688      -154.3743      -131.5227      -111.7859
      -110.0879      -109.1898      -104.3785      -80.28416      -70.68634
      -54.05650      -41.41507      -26.69371      -20.31039      0.3503294
       2.720196       8.006004       6.419006       15.68884       23.37128
       43.52039       53.25140       77.43390       94.62976       118.3696
       131.2691       143.6317       147.2330       159.5812       165.8452
       181.0939       197.8551       224.8123       246.7629       275.0423
       295.2360       321.9553       333.9666       357.2881       369.2909
       394.2820       414.9451       443.5753       463.1118       489.0640
       508.0818       531.4825       548.2092       565.9630       561.8191
       585.1312       607.1848       631.2390       637.0269       653.6182
       666.8201       694.2866       703.0537       708.4924       704.2734
       714.7517       705.9214       718.7246       715.4058       706.0981
       724.9150       749.9192       718.3640       710.0618       728.7043
       754.6086       719.7761       705.6682       719.8457       729.9189
       729.9856       730.3352       696.7444       699.1011       720.3262
       736.3440       723.3127       682.9780       684.2334       693.5950
       677.0623       711.0659       702.8457       699.6615       679.3374
       689.1465       714.9453       719.5239       725.5627       648.4946
       590.9316       681.8362       690.4847       638.1697       613.6765
       618.2039       613.9868       598.5273       573.8131       574.3226
       523.6046       529.8817       556.7833       526.7261       486.2021
       487.5099       475.1499       473.0730       461.8784       452.7720
       418.0327       396.1292       403.1187       434.7646       422.6630
       404.2998       387.9922       383.3728       392.7983       430.5139
       459.3052       423.4475       393.7185       414.8137       434.2277
       468.2074       463.8888       474.6509       438.9355       417.2031
       447.7329       482.5602       465.4037       459.0988       472.6282
       487.6484       475.8340       509.8860       547.6328       497.3909
       448.5436       473.7357       450.0625       434.6543       447.2177
       467.1128       459.4626       414.0616       377.3695       354.8188
       336.1608       378.9882       347.4266       290.4265       253.4540
       253.8556       254.8766       209.0375       192.2396       182.6292
       108.4088       113.6622       100.6932       41.28506       32.17627
       25.81573      -12.73460      -60.95862      -55.87840      -40.78760
      -118.0656      -151.0099      -143.9105      -123.2565      -130.8330
      -163.3721      -228.1873      -239.9666      -211.0039      -222.7954
      -259.9850      -286.6950      -292.5117      -282.6410      -277.1931
      -284.5549      -355.8040      -387.6769      -352.6063      -330.5173
      -365.8433      -420.0674      -427.6641      -396.4242      -379.2332
      -390.2434      -436.9014      -483.5450      -503.2571      -479.9288
      -464.5109      -500.4534      -587.0486      -562.8743      -536.8257
      -594.4934      -598.1580      -619.9302      -676.5266      -700.0046
      -745.0708      -709.1982      -677.3115      -766.8062      -822.7581
      -771.6885      -836.7834      -862.8845      -826.4385      -890.8574
      -948.0977      -877.7493      -873.6206      -949.0923      -952.4946
      -936.4006      -976.4409      -940.2510      -959.3604      -988.1108
      -964.1931      -960.2725      -965.3843      -966.9377      -1005.529
      -958.1389      -972.3569      -1038.560      -1018.429      -957.8806
      -961.4231      -962.5247      -985.0742      -975.8066      -875.0142
      -832.9170      -909.4272      -933.6772      -921.4653      -870.7458
      -826.6807      -839.6707      -870.9858      -835.4824      -749.3252
      -719.7722      -755.1812      -714.5889      -703.2881      -704.9619
      -642.5083      -660.5896      -684.4358      -559.0005      -566.7538
      -593.9126      -472.3572      -446.4753      -429.5569      -350.0508
      -376.3035      -359.1393      -249.8326      -217.7076      -289.5277
      -226.1544      -118.3345      -60.02975      -9.134705      -56.89226
      -103.8986      -20.06861       28.51337       51.43777       76.11377
       119.5192       159.5478       210.1370       206.2217       227.4586
       265.2587       270.7504       317.3837       374.2067       370.7737
       412.5488       427.4553       467.6715       510.9537       498.6223
       501.7065       556.3612       581.5586       602.0439       617.4800
       639.8141       627.4929       604.6602       594.0654       600.8540
       638.0930       684.6045       619.3663       567.4563       616.6315
       680.8992       676.4519       640.3950       616.5479       643.0410
       686.0840       727.7860       703.5830       631.9426       610.9077
       637.2993       629.1039       623.9197       627.2007       640.1825
       629.5718       627.1191       635.4060       666.7983       690.0532
       675.3979       651.4187       648.9479       648.1348       657.6721
       667.4136       699.5779       709.8025       699.3862       727.2942
       731.0713       663.7810       690.2876       741.8135       778.8535
       780.8879       719.3066       724.4670       812.3806       800.9221
       727.4380       756.8442       817.4810       790.9141       726.7612
       760.9385       863.1323       802.3750       720.4385       768.9326
       798.0337       787.1204       805.7766       816.4529       771.6929
       716.8220       709.3027       676.1060       677.4146       679.6333
       659.4249       684.0692       666.7722       594.6031       589.5963
       577.6205       531.1714       486.4646       500.8525       506.6193
       477.3838       422.1282       389.6360       384.3052       399.4485
       397.2137       362.1466       307.6073       301.0681       311.6624
       288.3315       206.9469       147.5175       138.5077       167.0406
       172.0076       118.0002       76.81493       90.51145       43.81742
       20.78719       67.26585      -1.036896      -67.01433      -27.05887
       6.678391      -32.70929      -106.6522      -88.34097      -98.42627
      -214.3815      -223.3967      -152.5992      -226.8372      -304.0119
      -195.4000      -114.6852      -215.1823      -294.3497      -283.1055
      -312.1969      -299.3641      -312.5995      -351.4838      -315.6960
      -329.5697      -369.4612      -390.1953      -418.0781      -398.5010
      -387.7117      -416.6936      -484.8046      -519.1674      -487.1423
      -467.2258      -473.7756      -493.5712      -520.1233      -475.8049
      -426.0739      -421.9207      -426.6160      -497.0220      -557.5115
      -508.3940      -491.6005      -578.0146      -544.9512      -471.2214
      -527.8353      -556.5338      -500.2242      -470.1111      -523.8756
      -550.4917      -497.8669      -519.9193      -581.8058      -538.5522
      -453.3746      -481.0764      -515.9832      -501.0142      -508.5198
      -459.2314      -421.4111      -488.4598      -528.4189      -489.9133
      -465.4792      -461.5432      -450.9949      -494.7585      -522.4429
      -457.7208      -390.7373      -364.4326      -417.0984      -461.7832
      -398.1433      -377.9524      -417.4943      -358.9099      -312.9019
      -392.5172      -419.3853      -400.7675      -354.3145      -337.4023
      -395.5259      -392.6483      -354.1392      -395.4738      -385.5652
      -373.5505      -400.6444      -403.4565      -373.3026      -326.7644
      -351.7555      -413.0911      -359.7588      -342.2563      -389.2542
      -407.9055      -405.9944      -411.5352      -422.0117      -413.0409
      -381.1256      -399.3914      -432.4493      -500.8618      -481.5687
      -404.9310      -464.7710      -498.2455      -426.7527      -417.1458
      -447.4005      -479.2170      -444.9961      -407.0352      -401.5148
      -444.1592      -456.7522      -438.2622      -441.8030      -436.1467
      -380.4868      -388.9353      -374.6108      -308.8486      -308.8505
      -298.7241      -257.0789      -281.3123      -258.4948      -208.5565
      -224.2136      -220.6854      -166.7463      -132.5141      -139.6788
      -124.2922      -18.10303      -7.842651      -67.78639      -26.02856
       37.33718       38.05331       22.07435       19.06183       82.38910
       129.7321       106.5899       9.428616      -14.66539       52.01822
       62.10052       48.31973       61.59045       40.30270       73.44647
       118.0432       105.5883       64.43343       46.25647       60.77417
       90.90063       99.36304       77.18611       29.84472       26.49096
       7.612141     -0.8871307       26.60777       55.54652       54.73227
       49.63145       47.66982       28.24127      -10.41703       1.817829
       22.25741       2.837799      -33.99207      -33.86295       2.204239
       16.08171       8.770836       17.03740       9.704590       4.747688
       12.96075       28.97192       40.04163       69.40280       118.8824
       115.8061       35.33063       32.38531       75.52805       96.80444
       124.8261       146.1848       154.8531       152.5747       121.7266
       187.4977       268.8708       241.2556       182.4326       177.2543
       197.8733       238.2835       211.4500       219.3707       224.7137
       225.5193       251.1456       274.9103       216.2003       183.6926
       303.2386       408.8325       296.2114       225.7859       317.7833
       387.3054       360.6931       331.4171       316.7645       323.8374
       317.5007       385.8884       433.5283       370.3315       357.3153
       447.9688       454.2308       414.3424       433.1182       486.9370
       499.4446       505.1428       497.0042       466.7307       437.9227
       508.2968       590.3984       531.1707       339.1036       132.8278
      -43.86426      -105.9937      -120.0411      -239.5096      -439.5287
      -373.7642      -17.60852       408.3923       919.7090       1599.634
       2171.542       2224.271       1856.712       1703.117       1555.579
       922.7334       257.5602      -70.72473      -153.5511       52.52304
       188.3773       55.11118      -19.04187       248.7615       586.8696
       747.7092       781.1006       652.4307       415.2343       418.4913
       622.0720       681.7179       570.9768       687.3369       1027.739
       1206.581       1104.164       1088.406       1014.293       573.7858
       234.6797       312.9468       484.5205       520.2933       454.5991
       369.2572       204.6527       224.1105       465.9241       575.7262
       496.8906       387.0405       312.7101       356.2684       513.3176
       700.7145       668.9050       468.6379       274.3961       92.27805
      -142.4019      -123.7069       254.2955       442.6133       308.4100
       286.1111       417.0514       464.6477       410.2061       400.3768
       388.3197       264.8077      -172.1542      -563.1509      -627.4460
      -563.7006      -424.2603      -250.1998      -241.1086      -469.2285
      -541.2084      -308.5381      -260.0637      -384.4808      -334.0036
      -77.94128       169.4090       221.9066      -12.08594      -308.6136
      -340.3697      -118.9951       20.67612      -32.38324      -144.2146
      -319.5283      -592.3926      -722.7308      -586.0078      -463.5083
      -598.2852      -753.2000      -825.5496      -916.9534      -959.2505
      -914.9183      -758.0891      -474.6311      -261.5378      -187.5685
      -142.4659      -145.5615      -232.5309      -227.5861      -136.2155
      -162.2666      -337.6952      -504.7273      -636.7600      -785.9761
      -958.5461      -1122.923      -1017.329      -691.6277      -601.6489
      -717.2822      -869.2930      -936.6973      -825.1133      -609.3165
      -382.0078      -217.9382      -187.0961      -387.2234      -695.4741
      -881.3718      -982.6101      -922.9144      -622.1931      -398.3798
      -373.1134      -401.6490      -457.4194      -528.2179      -506.7310
      -419.1184      -586.5330      -917.9014      -1050.231      -997.2563
      -792.9197      -520.1257      -391.3159      -397.4851      -556.7996
      -856.4709      -981.4087      -887.7595      -757.2083      -673.9531
      -584.7312      -514.3247      -558.4629      -775.1990      -1062.935
      -1174.949      -1191.879      -1232.884      -1125.369      -881.5078
      -804.6426      -911.3945      -948.0703      -1001.885      -942.6462
      -639.7791      -467.2759      -592.8999      -847.7544      -1025.304
      -999.7639      -854.2168      -846.9822      -971.5417      -1004.900
      -958.1787      -923.5979      -772.4426      -575.3005      -613.5759
      -810.2312      -822.9949      -586.4371      -471.8719      -502.9585
      -389.6827      -264.8322      -204.0675      -194.9008      -171.0830
      -139.6704      -274.5820      -413.0894      -342.7125      -137.4252
       43.79897       69.46039       7.957970       9.815842       65.45670
       113.4301       141.7355       73.95880      -48.86145       40.54456
       309.1533       394.8544       319.2166       324.6969       375.0360
       408.8638       379.8989       377.5820       471.6967       508.4060
       484.3783       605.8428       808.0205       872.8894       703.8047
       503.2207       489.9153       608.2661       785.1323       973.6008
       980.0818       877.7759       791.6887       728.1255       786.8445
       966.5437       1021.067       1008.490       987.2881       879.3748
       846.2874       943.1697       1011.718       1021.411       959.7441
       962.1116       1061.534       1088.979       1004.316       958.8955
       1012.176       1036.389       1005.656       1011.999       1002.774
       1048.901       1101.647       1107.647       1222.857       1398.979
       1388.709       1247.347       1238.827       1463.941       1666.234
       1709.916       1617.710       1549.458       1577.215       1597.031
       1560.104       1491.219       1411.644       1347.264       1304.701
       1334.907       1379.098       1418.612       1459.842       1429.360
       1299.935       1237.182       1344.214       1504.871       1571.348
       1574.348       1587.935       1617.617       1629.113       1699.513
       1704.859       1473.047       1246.644       1220.961       1209.693
       1126.310       1038.215       1032.352       1165.510       1415.300
       1453.287       1199.288       974.0569       956.8228       964.1028
       944.7732       992.2417       998.0388       935.2954       911.2959
       751.6621       566.1235       575.5892       665.7666       651.7845
       535.0203       397.2850       325.8506       249.7926       90.01855
      -102.2713      -164.2958      -29.21408       144.1665       125.5540
      -13.30811      -147.9835      -163.1899      -121.3527      -185.5886
      -350.2426      -556.5088      -659.4536      -584.2534      -542.7219
      -577.8257      -703.8591      -890.4309      -1000.771      -951.1641
      -916.3401      -963.9995      -961.6360      -917.6318      -964.8486
      -1039.593      -1136.369      -1233.119      -1257.358      -1159.400
      -1113.198      -1247.049      -1430.304      -1466.736      -1466.238
      -1484.854      -1435.961      -1296.428      -1244.566      -1326.214
      -1424.200      -1463.730      -1525.204      -1634.761      -1687.882
      -1595.097      -1524.612      -1574.745      -1707.200      -1761.664
