     0.02500000      -2039.907       2768.624      -12345.00      -12345.00
      -30.00500       214.2950      -15.13000      -12345.00      -12345.00
       0.000000       11.07000      -12345.00      -12345.00      -12345.00
      -12345.00      -12345.00      -12345.00      -12345.00      -12345.00
      -12345.00      -12345.00      -12345.00      -12345.00      -12345.00
      -12345.00      -12345.00      -12345.00      -12345.00      -12345.00
      -12345.00      -31.12380      -68.07400       912.0000       0.000000
      -31.06700      -68.46300       0.000000       100400.0       0.000000
      -12345.00      -12345.00      -12345.00      -12345.00      -12345.00
      -12345.00      -12345.00      -12345.00      -12345.00      -12345.00
       37.64473       99.73018       279.5303      0.3384680      -12345.00
      -12345.00      -1.490697       0.000000       90.00000      -12345.00
      -12345.00      -12345.00      -12345.00      -12345.00      -12345.00
      -12345.00      -12345.00      -12345.00      -12345.00      -12345.00
      2008       164        19         3        52
       930         6    -12345    -12345      9773
    -12345    -12345    -12345    -12345    -12345
         1         7        13    -12345    -12345
    -12345    -12345    -12345    -12345    -12345
    -12345    -12345    -12345    -12345    -12345
    -12345    -12345    -12345    -12345    -12345
         1         1         1         1         1
CONE    -12345          
        -12345  -12345  
-12345  -12345  -12345  
-12345  -12345  -12345  
-12345  -12345  -12345  
-12345  -12345  -12345  
-12345  -12345  BHN     
ZL      -12345  -12345  
[...]
       22.97505       37.72733       48.73502       61.76556       74.00833
       90.51505       99.41455       113.0217       124.9839       137.7957
       150.5517       166.3909       177.4388       190.9363       200.6168
       215.2996       226.3026       237.3163       247.2253       258.5724
       266.6702       279.3245       286.2777       294.0076       302.8829
       313.8820       319.0240       328.4921       334.5879       341.6206
       345.7712       351.3462       355.8993       362.7041       365.4089
       367.5051       371.6808       378.5054       381.2258       385.9037
       390.5254       392.9233       395.8140       399.7053       404.9059
       406.8500       407.8234       412.5061       413.6401       412.1610
       412.4530       413.1600       414.8138       414.9424       415.8398
       416.9363       416.4937       415.9487       415.8821       418.3497
       417.6086       415.9338       413.4908       414.0260       414.0219
       410.8726       407.3351       407.2246       406.0334       403.1287
       400.6176       396.9250       392.3381       389.7755       386.4491
       382.8564       380.6884       378.9388       378.2522       374.1384
       371.5410       368.3542       365.5109       359.8696       358.1813
       352.3218       349.6537       342.9961       339.3206       332.7625
       330.1761       324.0222       322.9207       315.8771       309.2292
       298.9374       294.3053       288.7675       284.3115       273.2476
       267.8579       258.8762       252.6011       241.5613       233.4111
       220.2324       212.6838       198.0753       189.5042       173.5901
       163.2257       150.2266       141.7966       126.8771       117.4622
       100.9645       89.36761       73.09158       59.01190       43.10648
       29.26623       11.44396      -1.367107      -16.20207      -28.98082
      -45.82266      -59.88342      -74.53845      -88.71216      -107.0031
      -118.9211      -132.8730      -148.3003      -162.3253      -175.5795
      -189.8173      -204.8403      -221.0532      -232.2816      -244.1320
      -259.3947      -272.0530      -283.6613      -296.0101      -307.1648
      -317.5730      -331.2793      -342.8521      -354.3386      -366.7546
      -378.8625      -390.8827      -399.6228      -409.4517      -419.1750
      -429.4769      -438.8005      -449.4581      -460.4290      -468.5275
      -474.3335      -482.6189      -490.9602      -498.0193      -504.6042
      -509.9460      -515.7820      -522.0496      -528.0530      -534.6960
      -541.6832      -545.1783      -549.6370      -554.6775      -560.1605
      -562.3022      -564.6704      -563.2421      -563.7717      -564.5890
      -564.9467      -565.1187      -567.5803      -566.4509      -565.9180
      -563.0022      -561.0974      -558.4824      -555.9724      -549.9412
      -547.6917      -545.9683      -540.5482      -537.9310      -535.6387
      -526.6350      -520.5295      -512.7078      -503.6147      -496.9695
      -490.1479      -480.9994      -472.3555      -465.0444      -455.7976
      -443.6477      -432.2589      -422.4961      -410.9386      -398.4792
      -386.2236      -374.5760      -365.1517      -350.5940      -334.6782
      -321.9611      -311.5604      -294.9733      -279.2476      -266.2615
      -253.6899      -236.6982      -224.8063      -210.8742      -197.1086
      -182.6973      -168.0803      -152.2114      -141.2774      -126.2084
      -113.7200      -98.45883      -83.44048      -69.70578      -59.93006
      -42.62206      -31.93651      -17.78580      -4.858326       9.269135
       21.15042       38.99107       52.11984       63.16595       78.32953
       91.48370       99.17767       115.8351       127.5571       137.4793
       154.4203       166.1680       178.3245       193.5189       201.0864
       210.3447       228.7432       236.5060       248.5612       265.5770
       275.1845       284.9513       299.7957       307.3230       318.0590
       336.9894       348.5200       357.0317       368.6571       382.5741
       396.2045       406.8118       419.8734       428.1421       438.1018
       452.5391       451.8777       461.4902       476.5587       480.9241
       490.5345       501.7078       506.3318       513.8129       521.4775
       528.5967       530.5608       537.6775       542.4344       550.9133
       552.1958       555.5168       563.0065       565.4282       565.2446
       569.0188       565.8502       573.6277       573.1676       574.1707
       573.3065       565.4407       562.7172       570.1973       563.4401
       557.3051       554.8440       547.8073       542.5742       545.1176
       540.9977       534.6412       529.7882       520.4012       514.0294
       502.8375       497.9666       493.9243       484.9681       471.6902
       466.3887       456.9574       447.3750       441.7963       434.4929
       418.8403       411.6267       399.4922       391.7140       381.8793
       373.6162       365.6331       353.1273       337.1350       306.8231
       293.5453       322.5795       325.4615       282.8431       293.8131
       258.8360       175.2853       252.0627       230.2454       225.0948
       245.9737       157.0286       182.8607       135.6736       181.2186
       209.1576       112.8099       73.05060       92.72577       155.6475
       144.6741       160.6590       43.49444      -11.70016       37.77831
      -24.22723       163.0589       179.8418      -52.03973       1.246559
      -6.989563      -53.06649       22.01289      -20.53306      -29.68610
     -0.6318970      -153.7279      -90.32695       52.14594      -164.6149
      -139.9240       55.64807      -200.9611      -272.6537      -24.01776
      -105.7142      -293.1671      -167.4434      -218.5966      -293.3438
      -66.96790      -232.6083      -400.4633      -235.8140      -241.3781
      -249.8971      -293.5674      -394.9799      -332.1436      -247.6758
      -342.5441      -460.8268      -389.3531      -252.9954      -299.3021
      -457.0070      -466.9858      -371.1624      -470.8120      -449.8828
      -352.9570      -457.1062      -472.0771      -551.3942      -451.1152
      -330.6165      -495.2864      -502.8472      -520.3490      -606.4667
      -494.8364      -372.4414      -548.1780      -588.7654      -484.0413
      -508.9370      -481.8135      -497.2942      -578.3547      -628.0862
      -464.3909      -455.5208      -619.8164      -468.2009      -495.6816
      -590.5176      -519.5144      -543.1660      -527.4856      -479.5923
      -501.4471      -591.5493      -566.3502      -420.3468      -489.8243
      -480.6580      -554.6130      -639.5985      -467.7021      -438.2693
      -426.7476      -549.1261      -588.3418      -384.9733      -417.4658
      -449.8027      -464.3250      -587.3187      -444.3883      -384.8048
      -424.5066      -396.4586      -434.4009      -491.8488      -402.7786
      -310.5745      -410.5458      -431.3999      -391.3268      -449.2017
      -437.0659      -205.4828      -263.5704      -420.5078      -331.6689
      -373.4916      -312.6653      -281.9407      -324.5867      -246.8317
      -303.9795      -261.8811      -190.9854      -311.2917      -255.2495
      -237.1760      -259.9569      -203.9700      -191.3781      -253.1797
      -200.7622      -64.02466      -70.12427      -212.7655      -213.2595
      -163.4679      -120.7028       17.51566      -130.8483      -126.1580
      -19.22223      -125.5868      -9.989574       31.83234      -60.61781
      -31.86095       36.33699      -4.094500      -11.03560       46.74963
       85.53699       135.8142       114.0239       80.43628       161.7509
       130.9104       110.6991       296.9041       169.6893       63.78094
       321.7177       251.7237       159.0377       330.0641       363.1289
       290.7262       255.8901       378.2302       386.8284       279.5725
       477.3340       388.8448       241.0957       517.5065       563.3138
       497.8212       431.6683       362.0222       518.0533       562.4175
       480.2871       642.3018       541.8452       476.7363       680.3940
       410.1963       489.5698       789.1991       606.7375       433.4197
       534.2754       683.3818       708.0261       703.5195       583.2043
       492.1534       623.3945       761.4551       592.5588       546.1451
       732.0697       525.3710       577.5166       790.8606       547.8694
       519.3149       571.5190       600.2168       700.6082       569.9019
       548.9271       544.5081       621.2297       631.9468       422.4407
       625.7290       637.0288       498.7183       521.9331       366.6824
       587.7374       603.1018       430.7146       607.3258       492.7000
       428.9993       471.9937       450.2968       520.4438       437.2053
       338.3707       570.7747       512.6918       249.3365       360.8180
       489.3142       474.8312       230.8196       265.4449       537.4420
       451.7341       283.5184       223.6643       261.5871       301.0543
       206.9373       364.9751       387.0309       161.1306       216.8896
       265.6295       174.5338       153.0103       201.3282       181.0864
       228.0443       84.73575       49.41217       256.8745       61.58261
      -13.59192       180.5499       108.6667      -56.39167       16.21099
       4.913757       89.81415       123.5178      -74.99789      -56.03079
      -115.4415      -121.7426       101.3087      -66.19846      -209.3706
      -50.62280      -159.3909      -236.2736      -104.7422      -164.4913
      -121.1777       14.56091      -221.2932      -370.0834      -211.3978
      -193.5488      -253.5350      -259.7325      -186.6300      -220.9821
      -258.4207      -413.0920      -432.4953      -112.1334      -254.1511
      -503.4714      -363.7798      -323.6573      -399.7566      -349.4097
      -393.5800      -375.7212      -270.3292      -518.3245      -502.7026
      -265.5310      -405.4088      -460.0530      -391.2405      -471.1381
      -437.3790      -339.7104      -402.5100      -507.5151      -408.1711
      -333.7075      -354.3794      -430.9941      -418.2174      -321.3784
      -472.1562      -559.3151      -369.2134      -252.9545      -306.2917
      -358.2969      -544.6353      -552.6274      -201.5771      -311.1226
      -558.3730      -362.7836      -254.7717      -278.2687      -290.2283
      -409.3507      -522.1372      -409.4141      -252.8030      -389.6423
      -337.5629      -266.0208      -410.1454      -390.7390      -314.3303
      -395.8761      -360.8649      -194.6901      -371.6726      -440.2408
      -212.1141      -334.6770      -322.2548      -280.2795      -503.9811
      -334.5675      -263.4115      -387.1693      -167.0103      -206.0029
      -367.5586      -343.2002      -362.8917      -274.0985      -212.6320
      -242.4538      -267.0106      -330.9205      -363.8971      -210.1470
      -189.6398      -459.4059      -289.1151      -136.0302      -196.0782
      -172.0995      -333.0719      -271.7015      -169.9070      -194.5568
      -198.2393      -220.7300      -201.9421      -328.1196      -195.3874
      -54.51385      -286.0074      -174.5960      -116.3649      -247.2379
      -162.5702      -91.77136      -116.2225      -135.0610      -29.56653
      -36.84613      -100.1324      -113.2225      -260.8978      -57.98484
       105.7596      -84.69775      -124.3138      -77.73703       42.74094
      -15.87001      -91.08630       10.78429      -55.91772       90.12085
       191.9076       54.62263       72.32845      -68.95905       120.3536
       309.2646       142.6266       301.4962       327.6328       88.45471
      -163.4585      -48.60962      -119.5225      -1193.706      -1824.203
      -1548.125      -884.0531       28.35449       1035.501       2617.129
       2642.354       1424.102       1395.021       760.2335      -473.0723
      -954.1284      -1058.124      -672.2581      -318.6396       479.8318
       1021.725       177.6886       748.1201       506.5761      -242.0613
       917.7676       378.3527      -525.3982       348.6118       1552.376
       943.4131       761.2110       801.8037      -799.3141      -537.7485
       171.7874       595.4337       539.1111       31.50488       1145.466
       1837.097       1297.732      -558.1680      -1737.426       160.8778
       676.2531      -498.2502      -358.3138       294.3684       1035.189
       570.6528       981.6045       2117.203       1531.595       946.8579
       385.0249      -760.7480       363.7612       1738.770      -1177.377
      -2039.907       1413.916       1648.939      -638.6077      -1064.186
      -504.6555      -211.8735       1586.363       2768.624       806.1285
      -877.0565      -236.6398       1076.515      -130.7256      -1416.426
       170.1951       1154.700       878.3131       541.6102      -255.1924
      -1169.370      -818.2612       1362.409       1963.175       643.1206
      -264.8774      -1086.292      -616.8955       857.5679       1186.991
       435.6543      -851.6333      -1004.850      -491.4470      -74.54391
       224.4966      -510.4375      -467.2628       264.6522       536.1194
      -116.5862      -760.8318      -235.9922       277.6963       778.6537
       764.2097      -440.9587      -1003.616      -695.9318      -315.6947
       452.8448       440.5943       3.132446       281.0562      -716.6528
      -1167.186      -8.239746      -810.9399      -1102.786       824.6987
       1100.568      -589.9187      -529.4750       32.50244      -996.2544
      -988.9364      -290.5013       129.3639       380.5332      -569.3613
      -591.7236       1084.383       843.2686      -756.8496      -946.1249
      -705.8882      -330.9930       121.5811      -424.7637      -888.1993
      -559.1970       197.4251       186.3277       46.35596      -152.2341
      -888.9302       56.42096       277.9949      -995.0894      -788.3976
       222.2389       379.5829      -247.5128      -276.3920      -26.20288
      -729.9906      -995.7907       131.8645       613.3877      -317.6779
      -408.1770       507.0514       235.9014      -588.2090      -760.8577
      -295.5810       26.54932       212.1761       220.5037      -543.7672
      -554.3599      -7.240875       162.7161      -284.8064      -156.0123
       501.0492      -350.6520      -614.3032       73.78137       260.7747
       70.11908       286.0997       181.3042      -990.0896      -793.4817
      -44.02246       157.5303       662.0620       647.2549       369.1320
       173.2011      -137.0012      -130.1862      -238.3157      -70.52527
       521.9349       109.0868      -96.49567       353.1049      -139.3492
      -701.1139       67.59351       593.6068      -152.9584      -514.1931
       273.8931       1299.129       620.8508      -501.6877      -369.4019
      -218.2441       236.6749       741.5314       242.7507      -55.44836
       105.5161       182.9555       385.2111       33.08820       36.64478
       368.0921       54.93564       14.19336       309.3340       763.5366
       690.0397      -220.4780      -129.3974       497.8216       52.44412
      -247.6750       361.4146       765.4318       545.3477       167.6972
       81.92743      -263.4225      -248.4713       528.1411       435.4855
      -173.8585       46.34302       464.4610       339.5833      -184.3003
      -95.04657       200.3287       57.16464       188.0459       63.45087
       284.3510       347.5698      -183.9780      -126.2226      -139.9309
       346.7753       783.9124       444.1028       619.1705       260.3251
      -646.2764      -286.6649       334.8712       69.32614      -13.45319
      -114.5035      -264.5320       104.6045       418.0067       36.10132
      -435.7238      -129.5428       125.5006       203.9743       173.1285
      -107.7681      -76.48993      -210.1219      -99.17384       134.6679
      -55.76501       79.06036       412.2557       148.8472      -277.4680
      -221.6797      -259.7539      -308.7516      -210.2006      -121.6199
       117.0645       284.3948       178.7534      -295.1271      -467.9163
      -116.1677       63.53545      -82.37363      -67.21799       222.3018
      -37.42358      -474.7789      -115.4656       306.4145       14.29620
      -353.7523      -215.1035      -179.5437      -238.4734       91.57364
       180.6401      -331.3356      -367.7217       73.20538       141.7598
      -144.3483      -266.4474      -245.0406      -19.09778       231.3899
      -391.7379      -557.1589      -38.25574      -323.1534      -148.5311
       244.0616       5.082367      -93.32092      -279.7046      -389.8452
      -191.9448      -139.3055      -307.8235      -353.6367       184.1054
       290.5528      -160.1134      -203.4165       11.94672      -194.2944
      -292.8342       76.51309       1.543457      -330.9011      -472.7127
      -303.3515       178.2936      -173.8412      -448.7667      -161.6364
      -304.1592      -138.2573      -14.59028      -31.47154      -53.30418
      -85.62018       132.5651      -207.2707      -242.6896       137.2827
      -222.9078      -567.7902      -328.2148      -226.0464      -160.5046
       65.15479       151.6721      -39.56055      -268.7846      -190.8740
      -48.52499      -8.767578      -147.2769      -373.3812      -276.7470
      -137.8062       57.95490       69.67169      -82.44843      -98.33508
      -276.3934      -360.4098      -188.7818      -186.8206      -45.27933
       66.41599       98.25284       186.5729      -205.6165      -160.7762
       55.59033      -32.49067       11.81735      -35.11581       224.0378
      -47.04504      -474.7354      -333.3036       17.02087       86.07724
      -171.2139       274.8467       428.9338      -257.1519      -251.6010
       154.3057       172.2987       222.6774       92.22241      -222.2263
      -263.2838       22.36945       249.3764      -3.419571      -127.8415
       95.65735       207.6452       288.2623       325.1946       132.8044
      -2.585915       23.29559      -10.85294       20.35870       79.08783
       133.9641       227.3213       237.5016       241.9374       217.5837
