     0.02500000      -3263.216       2145.146      -12345.00      -12345.00
      -30.00500       214.2950      -15.13000      -12345.00      -12345.00
       0.000000       11.07000      -12345.00      -12345.00      -12345.00
      -12345.00      -12345.00      -12345.00      -12345.00      -12345.00
      -12345.00      -12345.00      -12345.00      -12345.00      -12345.00
      -12345.00      -12345.00      -12345.00      -12345.00      -12345.00
      -12345.00      -31.12380      -68.07400       912.0000       0.000000
      -31.06700      -68.46300       0.000000       100400.0       0.000000
      -12345.00      -12345.00      -12345.00      -12345.00      -12345.00
      -12345.00      -12345.00      -12345.00      -12345.00      -12345.00
       37.64473       99.73018       279.5303      0.3384680      -12345.00
      -12345.00      0.1670813       90.00000       90.00000      -12345.00
      -12345.00      -12345.00      -12345.00      -12345.00      -12345.00
      -12345.00      -12345.00      -12345.00      -12345.00      -12345.00
      2008       164        19         3        52
       930         6    -12345    -12345      9773
    -12345    -12345    -12345    -12345    -12345
         1         7        13    -12345    -12345
    -12345    -12345    -12345    -12345    -12345
    -12345    -12345    -12345    -12345    -12345
    -12345    -12345    -12345    -12345    -12345
         1         1         1         1         1
CONE    -12345          
        -12345  -12345  
-12345  -12345  -12345  
-12345  -12345  -12345  
-12345  -12345  -12345  
-12345  -12345  -12345  
-12345  -12345  BHE     
ZL      -12345  -12345  
[...]
       134.6577       126.3326       109.9833       101.2659       87.85263
       79.49059       65.17741       54.16759       40.14316       30.09446
       14.66293       4.760998      -7.339851      -16.86826      -32.80981
      -40.38103      -52.69846      -61.13068      -73.92734      -80.45343
      -91.84744      -98.80774      -111.1727      -117.0300      -129.1104
      -135.3109      -147.1630      -151.5029      -161.0215      -164.5212
      -171.7155      -176.7183      -186.8229      -191.7778      -198.0842
      -199.6990      -206.6486      -207.1260      -214.3012      -215.6464
      -221.9957      -222.6692      -229.7244      -231.4918      -234.6979
      -231.4816      -234.0735      -231.0956      -233.9160      -233.5983
      -236.5091      -232.5358      -231.3672      -229.5191      -230.1553
      -224.1853      -221.8473      -217.3622      -216.7406      -211.7347
      -207.8334      -200.3237      -197.9689      -191.5642      -187.6927
      -181.7093      -178.8295      -169.2963      -164.7005      -158.9284
      -153.8808      -146.0712      -145.2422      -138.2527      -135.3210
      -129.3923      -127.7003      -119.3404      -118.8123      -111.9687
      -113.7464      -106.8959      -106.6728      -101.7084      -101.4291
      -89.60059      -90.49149      -86.62131      -85.79703      -77.84695
      -80.33484      -74.74548      -72.42313      -64.84724      -64.48390
      -55.86786      -56.00511      -49.06717      -45.37654      -35.26903
      -31.18236      -22.04597      -20.04890      -9.359457      -4.608620
       6.521683       10.62473       22.68675       29.61433       40.95323
       44.05574       57.22107       62.82083       74.61382       79.05719
       91.94528       95.04163       108.5970       113.6411       124.8748
       126.4101       136.3618       140.1348       152.2142       151.0846
       161.4739       166.1332       178.7087       177.8768       190.5912
       192.6122       203.9601       200.2802       210.6023       214.0579
       226.1089       224.8609       237.9329       237.9871       248.6757
       247.9020       259.5933       259.7864       269.4239       267.9741
       279.2157       277.2463       288.3544       285.2769       293.3553
       290.9119       295.2952       291.6010       301.1824       298.2454
       300.8545       298.2819       303.0497       298.2123       300.7163
       296.4783       300.5031       295.5651       295.1971       289.1870
       291.8068       287.0808       287.8884       284.0084       285.4196
       276.5856       276.7195       274.3656       273.8829       266.7190
       268.2985       263.4109       264.6576       257.4986       258.6942
       255.3680       254.1427       245.9008       247.7926       243.3529
       240.6822       233.6490       234.1161       229.8937       230.4517
       226.0891       226.6240       222.7390       224.2094       217.1473
       217.8686       215.3696       218.4898       211.1463       214.1909
       211.9260       212.9016       205.6974       209.2817       205.0439
       209.3279       205.3326       207.2617       203.8535       207.8068
       201.5615       204.7265       200.8429       202.2074       196.2393
       201.8647       196.8140       200.0170       196.5947       200.5954
       192.7141       196.1349       192.0359       193.4969       189.5847
       195.6869       189.9642       193.1046       192.4521       193.2147
       190.1284       195.6588       191.8180       191.3159       191.5900
       193.2762       190.1725       192.5823       191.3855       193.6654
       190.6596       189.8059       183.9293       183.3182       176.7320
       171.4773       164.1733       163.2308       154.7322       146.8706
       137.1234       127.9049       113.3209       105.4156       94.74063
       85.93159       72.59015       59.32134       43.80444       29.10147
       9.632273      -2.799316      -15.37146      -30.52440      -47.76372
      -58.24768      -74.39890      -92.55573      -107.1663      -123.6245
      -145.1334      -161.0941      -171.6508      -183.0583      -202.8826
      -221.3673      -239.4139      -253.0254      -271.1017      -286.4932
      -301.6795      -317.0666      -336.5667      -351.6077      -371.4431
      -386.1831      -402.0226      -419.3582      -433.9871      -444.8679
      -463.4142      -481.0066      -491.5190      -503.9429      -524.6887
      -531.6935      -538.1313      -554.4712      -569.8655      -579.6421
      -589.1255      -601.8762      -611.5266      -620.1521      -629.9702
      -632.0505      -640.8358      -648.1790      -647.1417      -660.1450
      -669.0100      -669.0551      -674.8344      -677.9836      -680.9619
      -685.2173      -685.4495      -684.5225      -682.8503      -687.4304
      -689.9685      -682.8806      -679.6536      -680.9139      -678.0767
      -670.8121      -669.1859      -663.5382      -655.3083      -652.9524
      -643.7905      -634.0110      -634.4822      -625.0903      -610.2114
      -604.7454      -594.3074      -582.2561      -576.0209      -561.4255
      -545.8401      -541.8641      -530.0334      -512.9951      -499.1138
      -488.0455      -474.5469      -458.9890      -441.5586      -427.2133
      -413.5383      -397.5342      -380.4614      -359.4890      -342.1926
      -323.7870      -297.9029      -287.1306      -276.9203      -262.0483
      -245.9010      -203.7502      -182.4996      -167.3156      -89.02655
      -75.66345      -131.6381      -101.4784      -67.03036      -90.91483
      -90.75259       41.66034       123.7316       73.99660       73.11182
       6.436249       17.35809       218.0846       131.5568       31.45032
       214.9990       255.3174       269.3442       194.8557       97.89099
       244.6992       294.7708       333.2793       286.4557       335.2405
       384.3055       148.9213       245.7225       475.2157       443.5292
       311.2463       345.7461       395.9430       463.4648       505.0132
       210.0000       409.3407       563.3767       490.0146       512.5239
       353.7969       427.4929       469.9851       512.1517       541.9196
       625.9515       456.9537       327.5875       644.0060       641.2849
       454.9482       528.5017       580.5859       500.3862       624.4121
       704.7249       518.6530       500.2759       616.5496       613.6780
       617.3430       652.3481       589.4478       521.9819       665.8645
       755.6416       548.4197       591.6091       704.2766       520.6230
       588.0571       719.5730       608.6127       607.8099       573.3767
       575.9474       672.4697       590.1478       541.1042       596.8892
       526.0332       694.9463       704.5251       403.5864       570.9366
       623.9692       380.3767       543.6219       591.2358       427.9434
       466.1158       504.3983       508.7494       474.0303       445.3359
       400.3884       352.9286       385.2891       360.9830       454.9912
       436.5901       291.0320       345.7858       233.7524       223.2530
       367.6851       249.5570       180.6944       239.6948       275.0490
       155.8081       69.67609       203.5927       146.1917       81.19104
       145.2271       60.51379       51.08447       66.12187       16.93999
      -5.127739       7.039764       100.9628      -33.87219      -112.3101
      -40.29395      -42.92926      -1.433228      -103.1166      -133.0533
      -65.17966      -95.50238      -92.34064      -209.3236      -98.57300
      -27.29388      -241.4384      -162.9706      -137.4680      -216.0558
      -98.86877      -166.0880      -267.3328      -156.1423      -194.1404
      -214.1277      -153.4198      -284.5718      -274.1266      -192.6553
      -306.1691      -232.1964      -145.7977      -360.3804      -289.3527
      -146.1752      -398.7339      -342.0340      -62.10645      -290.6133
      -436.3956      -364.3467      -290.4579      -214.1163      -356.8199
      -343.4617      -257.5892      -415.9902      -450.4461      -307.9297
      -327.8444      -485.1407      -325.9152      -273.7832      -445.1553
      -386.5881      -345.3745      -485.8587      -397.7795      -225.3411
      -520.8468      -567.3202      -249.2192      -315.2811      -471.4200
      -408.6500      -414.1516      -537.7839      -448.2766      -301.7560
      -373.8271      -407.0953      -496.8907      -498.4999      -362.7766
      -406.2078      -350.4890      -450.7812      -531.8954      -340.0725
      -387.2551      -450.4036      -399.0797      -452.2543      -402.7490
      -230.5149      -373.1989      -627.4549      -379.7756      -217.2288
      -484.0447      -419.5076      -189.9075      -317.4000      -498.9539
      -492.1281      -312.8564      -250.0215      -396.0379      -349.6017
      -292.8459      -339.9492      -291.6945      -261.9213      -378.9458
      -409.4572      -212.0415      -160.6674      -238.6779      -324.0574
      -358.0031      -260.8597      -244.0088      -267.3102      -167.7044
      -94.55511      -235.1273      -243.6956      -151.9196      -150.4139
      -187.0883      -281.1359      -116.0885      -123.8338      -311.9034
      -97.46637       63.13098      -144.7135      -152.5403       11.14575
      -197.4512      -206.8882      -25.45200      -172.5551      -43.41174
       166.9827      -71.65192      -151.2625       45.19727       5.221195
      -7.685852      -1.520721      -109.4850      -63.16217       112.3933
       176.5883       98.37181       32.90024      -9.922028       21.79852
       178.9262       144.4977      -66.55272       10.83679       230.2732
       169.5338       93.21396       71.29454       39.03836       92.68439
       134.6523       192.6003       221.9661       230.9426       182.2040
       106.1260       198.1114       258.5747       218.2584       233.1900
       77.00720       194.1186       340.1050       206.4691       264.9778
       111.6223       200.0972       455.4625       327.7133       227.4862
       309.7526       293.3724       216.8392       319.6429       322.7999
       335.5408       404.5708       455.3438       225.7203       69.18799
       403.1477       410.1890       349.9115       520.8787       332.8279
       264.2837       439.7972       226.1633       284.4188       504.9375
       389.1813       305.7083       347.9701       367.3912       252.6129
       427.5083       483.2883       287.3861       268.4464       325.3345
       363.6547       333.2806       326.0232       425.4955       284.2460
       86.53284       456.6263       563.8141       64.87146       125.5149
       491.9230       330.7513       191.5731       302.5886       331.6577
       209.0435       214.2902       302.9136       359.0522       179.7092
       46.61249       216.7648       314.9286       272.9731       159.1035
       129.5845       276.6422       189.2895       44.44977       266.6169
       191.4964       33.68701       243.5757       194.8300      -23.83838
       99.04022       168.2192       114.4131       137.8225      -11.41602
       155.1350       239.6939      -58.75175       56.54135       54.87489
      -1.865891       128.2035      -74.15366       23.12570       233.1058
      -43.45506      -56.86931       68.96884      -48.41685       66.48351
       71.53159      -98.26460      -91.99736       75.82942       42.43337
      -11.20126      -90.91077      -149.2594       115.3465      -25.59900
      -219.3917       2.671768       59.09238      -144.0263      -176.7705
       27.27036      -131.5244      -46.34567       43.15955      -244.2318
      -126.8001      -56.96941      -94.15131      -60.33018      -64.91567
       25.39548      -57.64838      -187.4498      -224.4940      -162.7622
      -62.20718      -64.02924      -52.68699      -32.73312      -7.796326
      -59.66760      -317.4733      -155.1087      -66.04431      -296.9622
      -128.2447       85.80779       12.61865      -147.6786      -211.6948
      -245.6238      -40.52026       112.5801       26.50269       447.4414
       963.9165       1038.562       1072.906       895.8442      -131.4438
      -1320.540      -1472.017      -1365.277      -1521.571      -1124.831
      -52.22510       1040.792       1558.656       823.5189      -576.8839
      -3.109253       84.55615      -1482.905      -694.0884       786.6606
       550.3427       106.0732       256.9557       811.3374      -1624.469
      -3170.551      -14.97754       827.8022       800.5083       1914.569
       951.0552      -1177.977      -2428.789      -816.4966       1139.737
       242.7416      -347.7324       1124.549       1978.821      -836.0586
      -3263.216      -318.7051       1368.874      -412.7900       152.3588
       1096.911      -806.2949      -2257.866      -121.8921       1925.952
       606.4185       559.3723       428.4756      -1489.846      -448.7485
      -1264.428      -1737.815       1771.205       1567.409       1035.666
       1482.935      -660.5322      -1721.934      -862.2677      -224.3943
      -8.249756       664.5852      -136.1617      -593.6360       1110.608
       345.2275      -934.5068      -258.7135      -282.4402      -1175.744
      -305.1638       1095.236      -299.3269      -1522.865       424.2334
       2145.146       424.9827      -1112.155      -59.14362       414.8347
      -555.0820      -834.1654      -180.5087       519.5460       548.5955
      -1113.654      -865.3535       684.9922      -174.0539      -197.5668
       242.0309      -293.2841      -355.9746      -1076.550      -562.0602
       1105.947      -467.1799      -910.0449       999.7698       1096.458
       540.9053      -629.3237      -1724.240      -1164.991       256.9156
       320.9683      -193.8365       792.8763       455.5931      -578.3419
      -491.0821      -782.0737       742.9047       898.1611      -1230.377
      -267.0256      -125.5558      -855.1982       931.0353       415.2080
      -1382.219      -5.502930       1050.275       29.44604      -465.3820
       170.3348       195.9657      -541.5621      -132.1917      -153.0387
      -547.6447       212.2649       873.2288       520.1750      -525.2095
      -859.7455      -132.1066       8.439758      -406.3881       229.2958
       256.8209      -549.3042       56.46533       725.6774       158.9661
      -1066.401      -840.8954       525.6863       664.5269       499.3228
      -284.7731      -700.8669       336.3219       557.0385       206.9974
      -15.86450      -668.9081      -629.2529      -79.72043      -38.37524
       327.5070       517.8313      -109.5260      -674.8093      -123.3271
       406.3205       71.48975      -391.3831      -208.5637       310.3469
       298.6266       334.4961       53.24393      -152.0750      -55.28516
       388.7541       186.8933      -871.2980      -583.0972       243.2228
       356.7560      -328.6535      -221.8752       855.1086       327.1390
      -92.19122       332.6451       161.4243       214.3094       110.5934
      -132.0826      -40.81638      -30.28772       237.2758       733.6354
       316.3046      -398.1557      -114.6257       433.9924      -155.4630
      -185.6746       796.7681       487.3672       125.1199       165.0350
       224.3055       154.3282       33.52563       692.9436       699.2719
      -88.00720      -310.8467      -162.4878       404.4170       1005.159
       993.1460       188.1190      -126.2861       461.4803       325.5134
       189.3677       486.2095       311.4709       198.7085       474.3350
       651.3660       564.5872       99.27100       507.8795       519.9027
      -489.5928      -230.8088       815.5745       1026.310       8.437225
      -233.8936       753.0011       931.4709      -87.98257      -182.7799
       481.1517       179.7131       184.5093       584.6110       566.1636
       448.7662       268.2170       184.3053       252.5090       389.3792
       474.8886       185.2441      -303.3083       174.6024       748.2236
      -194.9012       145.6663       1150.950       244.8163      -40.50305
       244.4017      -94.74307      -136.6234       346.7136       494.2141
       320.4528       292.0036       195.3867      -139.4132      -207.6132
       34.22058      -116.0122       24.99484       193.6856       26.60490
      -71.67434       16.34106      -92.18457      -404.7208       77.05249
       492.2697       340.9469       98.74634      -327.1265      -326.7797
      -207.3413      -144.2173       207.4725       369.0804       275.2957
      -254.0352      -683.5798      -138.5959       58.04749      -288.5302
      -84.88440       14.81055      -303.2483      -366.3116       112.9509
      -221.1731      -714.2615       137.6992       32.15063      -688.8154
      -311.0675      -185.0505      -239.2431      -288.4031      -366.6819
      -139.1667      -355.5710      -629.9249      -498.4462      -243.6077
      -128.7913      -507.9131      -346.6297      -45.57434      -451.6265
      -605.8506      -565.4158      -229.6340      -186.0125      -571.1362
      -414.3164      -142.0483      -423.9305      -662.3446      -265.3877
      -431.4136      -663.1887      -360.2761      -562.6683      -666.9304
      -364.5876      -477.5842      -803.3409      -692.7664      -350.3403
      -587.1150      -592.6983      -129.3416      -521.0094      -478.2916
      -338.4512      -920.9673      -699.0309      -182.5029      -232.6326
      -527.6045      -890.1531      -475.5412       183.9666      -373.2271
      -802.8845      -528.6595      -348.1355      -395.4185      -595.1785
      -369.2357      -104.8069      -621.1334      -777.9843      -95.73267
      -312.6775      -567.1934      -247.2347      -410.0433      -309.0722
      -161.6733      -311.0471      -278.4043      -636.7443      -778.7144
      -336.8624      -117.8755       2.560181      -53.44702      -367.4955
      -412.5186      -204.7572      -277.8348      -361.3638      -63.30583
       71.69104      -249.6112      -327.6421       76.80048      -76.05811
      -518.6892      -317.0178      -64.61244       8.364685      -29.27124
      -273.8491      -307.9515      -165.1548      -73.05853       122.4695
