     0.02500000      -1959.612       1577.576      -12345.00      -12345.00
      -30.00500       214.2950      -15.13000      -12345.00      -12345.00
       0.000000       11.07000      -12345.00      -12345.00      -12345.00
      -12345.00      -12345.00      -12345.00      -12345.00      -12345.00
      -12345.00      -12345.00      -12345.00      -12345.00      -12345.00
      -12345.00      -12345.00      -12345.00      -12345.00      -12345.00
      -12345.00      -31.12380      -68.07400       912.0000       0.000000
      -31.06700      -68.46300       0.000000       100400.0       0.000000
      -12345.00      -12345.00      -12345.00      -12345.00      -12345.00
      -12345.00      -12345.00      -12345.00      -12345.00      -12345.00
       37.64473       99.73018       279.5303      0.3384680      -12345.00
      -12345.00    -0.04244637       0.000000       0.000000      -12345.00
      -12345.00      -12345.00      -12345.00      -12345.00      -12345.00
      -12345.00      -12345.00      -12345.00      -12345.00      -12345.00
      2008       164        19         3        52
       930         6    -12345    -12345      9773
    -12345    -12345    -12345    -12345    -12345
         1         7        13    -12345    -12345
    -12345    -12345    -12345    -12345    -12345
    -12345    -12345    -12345    -12345    -12345
    -12345    -12345    -12345    -12345    -12345
         1         1         1         1         1
CONE    -12345          
        -12345  -12345  
-12345  -12345  -12345  
-12345  -12345  -12345  
-12345  -12345  -12345  
-12345  -12345  -12345  
-12345  -12345  BHZ     
ZL      -12345  -12345  
[...]
       1.483904       1.999175       4.535711       2.664696       2.172359
       4.190489       4.968547      0.6328945      -1.042130       1.796353
       6.013350       2.621876       3.667717       3.875656       3.270759
     -0.4376721       1.782738       1.044150       1.713922     -0.9503376
      -1.013153     -0.8748693       2.238460       3.659401       3.005396
     -0.6588384    -0.03298712       1.414852       4.328206      0.4121494
      -1.256421      -2.757836      -3.163132      -5.321110      -5.611015
      -8.056080      -6.890961      -9.148010      -10.76932      -9.275759
      -9.794353      -10.43010      -12.08534      -13.24474      -13.71931
      -15.16151      -18.93156      -20.78770      -20.59451      -21.50901
      -21.07793      -19.75206      -22.51140      -20.61030      -20.73456
      -21.25185      -19.64538      -20.05556      -19.06316      -19.39780
      -16.51005      -13.64429      -12.40293      -13.24582      -11.11585
      -11.62583      -9.508682      -10.10094      -8.168599      -6.307441
     -0.3127463      -1.334169     -0.9553628       1.835639       1.356511
     -0.6512890       1.384592       4.396052       3.589252       1.439965
       2.694107       3.936831       2.999582       3.872316       2.493297
       1.180613      -1.193729      -3.262430      -6.049126      -8.149841
      -10.33889      -12.22064      -16.13780      -17.11156      -21.61419
      -22.43308      -24.10225      -29.41943      -34.47250      -36.00302
      -37.71877      -39.25293      -41.60672      -45.83987      -49.38559
      -52.60699      -55.58653      -55.85663      -55.86113      -56.36084
      -57.82391      -55.98853      -55.55867      -56.27867      -55.04781
      -52.48361      -51.76082      -49.45689      -49.79233      -48.46941
      -45.56418      -46.61087      -45.67743      -43.00647      -44.60171
      -41.64343      -34.41985      -32.76562      -31.36497      -29.75978
      -26.41995      -27.51762      -25.70276      -24.79406      -24.63563
      -25.71959      -21.78925      -23.00805      -21.63120      -25.23799
      -24.43723      -26.54854      -23.42111      -26.43786      -23.57179
      -28.75385      -25.78078      -25.81122      -23.59892      -26.71248
      -22.29056      -23.99783      -19.91386      -18.40323      -15.39917
      -14.66293      -11.66625      -10.51811      -1.891624      0.9921074
       4.864815       7.454601       12.27488       14.84380       23.22210
       27.21564       36.93933       44.06631       49.13084       53.09677
       63.82071       70.12964       77.06842       83.12640       91.49460
       98.50848       108.5829       113.2520       122.0178       127.6548
       137.4914       143.3671       148.9258       152.3638       158.9081
       162.8351       170.8322       177.9175       185.2278       186.2007
       189.5016       191.9028       196.8154       198.8058       202.4830
       202.5498       203.0719       202.7429       206.6083       206.9250
       210.8479       208.1594       205.8499       202.8599       200.1255
       194.4456       197.0539       202.0098       198.5643       187.0189
       189.4115       188.9317       177.9597       168.1073       166.4088
       158.5034       154.6583       144.6943       142.0206       139.1069
       126.5436       109.6351       99.55539       92.64340       89.29758
       71.50304       60.02592       56.74850       42.73131       21.92459
       24.81575       8.964710      -5.220627      -24.97131      -29.58377
      -40.16882      -58.40437      -67.49387      -71.09268      -92.48444
      -100.0905      -104.5088      -121.7520      -141.8246      -139.4710
      -155.6133      -169.2599      -177.4708      -190.1818      -194.8277
      -193.7737      -200.7255      -210.3517      -215.1875      -219.9601
      -236.9455      -230.3719      -237.0750      -245.0340      -237.6901
      -242.9509      -251.0116      -247.8269      -251.4343      -248.7088
      -246.2238      -243.6066      -245.5795      -242.5206      -235.7024
      -229.9117      -227.2407      -222.3721      -219.8241      -209.3894
      -215.3339      -200.5052      -190.5168      -186.8577      -181.5480
      -172.4958      -160.7167      -152.2244      -152.7572      -141.6244
      -131.5972      -122.4804      -123.1865      -108.4261      -98.94928
      -81.15750      -78.47537      -70.53519      -61.91785      -47.76057
      -35.54423      -26.68050      -10.92256      -13.98213      -5.370964
       20.57915       17.84065       20.63771     0.03028870      -37.18977
       1.868866       101.9507       81.79578       126.3610       337.8203
       234.5024       115.0217      -52.52811       140.2779       58.29272
      -290.8408       661.1904       477.8282       227.2657       236.0656
      -593.0481       417.8436       864.8852      -22.18774      -137.4828
       165.9031       519.6641       426.4217       13.00073       108.1266
       386.3067       379.9078      -85.94781       97.51965       568.7519
       120.0269      -31.82007       283.8491       779.5474       60.17892
      -64.36401       321.0266       177.9421       443.6571      -273.5690
       205.1809       532.4811       16.84476       128.9404       245.8275
       218.7358      -229.8856       312.8749       209.6136       145.2001
       316.7285      -323.2142       18.22247       392.5907       97.83774
       86.15695       155.6940      -102.0051      -97.70309       22.40088
       184.6783       59.44955      -12.12952       33.38278      -67.72278
       143.9280      -23.64557      -361.7880       119.0525       235.4402
      -263.2472      -148.4128      -57.43823       87.76758      -140.3712
      -314.8173      -67.47006      -61.99396      -123.2479      -252.5194
       3.625305      -131.6246      -314.9929      -49.99500      -255.1290
      -81.96564      -64.53632      -460.2645      -65.27283       16.78174
      -387.1246      -323.2181      -217.7960      -232.9337      -332.7695
      -115.1219      -168.8114      -379.3604      -256.8602      -297.6374
      -129.2946      -261.2257      -354.7819      -258.3580      -221.7623
      -118.5618      -352.0840      -356.5248      -313.1268      -424.2730
      -115.0464      -98.64502      -316.0792      -275.4362      -375.5004
      -278.7764      -160.7584      -145.6793      -357.2416      -255.7176
      -57.79529      -267.4607      -175.8254      -157.8735      -132.8555
      -134.7774      -247.4134      -200.9829       100.4291      -238.4607
      -287.0204      -23.80719      -60.65500       45.07581      -230.5026
       37.98227      -6.732605      -144.5874       161.2709       21.77078
      -153.5703       36.53722       75.01849      -69.68063       81.25015
       167.5392      -5.506042       34.00761       109.5338       18.54816
       158.8968       97.13098      -20.65178       2.968933       175.8307
       118.7678       129.0573       214.4004       35.70813       298.8777
       301.9493       57.29474       120.6812       364.1005       193.5814
       163.6086       191.4097       49.23462       312.2816       436.0209
       271.1088       66.24524       191.3633       265.2332       294.0643
       387.1232       111.1702       242.3619       495.8029       197.1579
       302.1731       366.1631      -16.97253       349.6825       496.6455
       150.4819       456.4753       227.2035       176.8937       434.6807
       1.941895       123.0502       574.5950       450.5984       87.97620
       151.3515       314.2348       140.7119       95.63696       393.3934
       434.8436      -63.84222       24.45312       262.2150       145.1251
       199.8797      -42.31909       246.4191       270.9995       121.1027
       303.0363      -174.9008      -41.52826       138.7732       49.87747
       6.057892      -56.20203       171.7032       164.3500      -201.3234
      -326.4138      -3.558014       87.23616       53.57208      -151.4225
      -188.9608      -104.4176       26.95306      -75.82153      -248.8732
       61.23547      -182.9885      -238.6213      -161.0263      -113.3541
      -261.7512      -375.6230       144.3191       25.60150      -135.3411
      -311.7642      -399.2876       38.21881      -290.6618      -45.57928
      -67.38110      -489.0906      -86.30841      -364.7669      -214.6880
       37.17676      -206.5278      -288.6417      -111.9075      -57.10327
      -218.9468      -250.2625      -405.6593      -184.5478       135.1811
       9.326538      -461.9149      -318.3859       36.87262      -326.2202
      -217.6134      -223.5961      -66.46143      -11.59314      -288.9700
      -206.1878      -400.2989       43.31854      -100.7993      -268.5490
      -27.62091      -220.8741      -196.5728      -354.3290      -88.26532
      -142.5677      -246.6141      -84.02075      -567.9263      -323.2462
       127.3865      -254.0497      -235.0331      -43.01862      -108.6168
      -62.58398      -410.6316      -445.3767      -171.7599      -98.04099
       3.705017      -268.6309      -362.4044      -196.1859      -116.6104
      -279.8304      -404.4810      -1.338623      -217.9694      -322.2966
      -76.99475      -439.9897      -49.72647       55.75879      -246.9055
      -109.3207      -486.7413      -198.0652       28.35205      -445.7194
      -273.6924      -14.11713      -200.7840       22.08667      -70.30835
      -429.9746      -327.3874      -279.9411      -21.16815       206.9662
      -334.2086      -318.4822      -101.1355      -248.3145       98.55829
      -311.8908      -84.36128       93.36780      -341.3270      -189.8731
      -113.1120       46.93423       45.54089      -142.4569      -200.6785
       81.47571      -142.3887      -510.5027       62.54587       133.3969
      -100.7486       67.18646      -53.78842      -98.08698      -316.7380
       66.71472       338.7063      -75.06754      -209.9481       98.03937
       167.2948      -437.6229      -16.71448       473.3771      -87.55127
      -48.57745       228.7751       85.56952       201.0612       178.4455
       10.95654      -12.91302       113.3853       131.9260       140.0356
       240.6806       176.2397       194.0131       223.4581       387.2375
       4.452911      -49.23010       561.4035       233.3174       152.9998
       271.4232       213.0487       635.3800       334.8874       120.1001
       417.2570       255.9080       361.5579       375.6928       204.3125
       404.6848       381.3555       405.3528       518.4343       408.6785
       263.1478       509.1465       477.1677       322.2461       636.7734
       229.2867       315.8795       648.0315       457.6201       644.5875
       295.2726       623.1982       666.5284       90.06067       599.5042
       509.2881       542.8589       572.6206       376.4475       708.1650
       649.4735       491.0928       137.4497       286.6503       742.4279
       491.2810       619.5243       720.2567       468.3264       590.5527
       410.3588       217.9127       499.7828       568.6013       342.6351
       181.9385       711.7853       772.8497       423.2372       377.0957
       196.4159       540.7482       356.1471       80.64813       153.6088
       392.7512       600.5397      -185.3132       61.08569       713.3315
       667.3674       892.0050       414.1050       71.97986       456.4395
       203.5275       2.626877       33.94583      -104.2848       648.3251
       602.8441      -28.10010       780.0352       752.2807      -267.2164
       223.0822       355.4987      -330.9805       434.5819       763.1049
      -167.7835      -374.6846       1020.304       351.9973      -1936.546
      -66.46509       639.9110      -394.9424       922.4351      -650.1874
      -921.2368       492.0870      -253.2517       424.2394       219.3579
       467.4419       1577.576      -642.4944      -1246.763       46.21509
      -234.0939      -572.0477      -453.5459      -735.9375      -1233.002
      -419.4407       663.3937       120.8729      -859.9216       172.0176
       722.3301      -901.2454      -896.1478      -146.9253      -1233.263
      -922.3917       411.5798       170.2668      -541.5249      -734.7764
      -287.8486      -663.3989      -1133.096      -447.4953       5.847046
      -196.7697      -593.4165      -488.3872      -612.5063      -753.5330
      -601.6929      -1367.757      -1106.094       673.9991       96.32474
      -273.5741       93.69214      -1405.438      -1258.492      -251.8256
       166.9822      -191.5337      -1436.876      -1887.908      -869.7407
       125.8469      -355.6164      -41.49915       479.4819      -624.1050
      -1959.612      -716.4592       946.6154       72.84863      -635.4849
      -1212.341      -324.5150       33.15649      -1498.622      -1097.728
       226.6014       46.53210      -577.2876      -708.2129      -1504.195
      -1575.945      -13.28320       941.2274       618.8320      -589.8352
      -1497.143      -457.1542       105.9341      -908.7844      -742.8197
      -55.77899      -480.3695       244.0194       549.5784      -1072.990
      -1282.479      -200.9224       389.5317       581.8818      -233.8401
      -1167.693      -938.1656      -119.8641       317.3740      -551.7773
      -1014.661      -252.1528       118.6923       149.5223       242.2974
      -546.0631      -988.1732       57.68701       607.6375      -10.62097
      -595.6407      -242.5984       311.3878      -341.9839      -599.1874
       409.4048       494.7921       315.4030       445.9529       66.37622
      -703.8337      -579.9856       964.1277       765.2637      -616.6601
      -329.2526       302.2424      -4.779663      -57.65698       524.3600
       521.4690       97.95142      -541.3479      -595.5710       430.0400
       1300.644       687.6750      -509.7073      -162.2871       696.8616
       700.7584       426.8461       226.5728       236.5090       307.1219
      -36.96729       408.3184       423.5528      -243.5282       70.75818
       567.1908       423.7195       238.2134       830.9861       1234.613
       197.4823      -265.4889       375.4541       82.40646      -203.3360
       41.44629       441.0645       1063.231       765.6949      -7.975525
       104.5242       153.3672       596.3383       710.1404       553.5801
       650.2412       307.5066       506.8828       439.4641       408.8231
       643.0565       33.84445      -161.1470       460.5516       711.1532
       438.2405       383.1461       307.6492      -210.7249      -123.1835
       193.7089       177.7894       445.8850       468.0773      -61.30136
      -248.4613       160.2233       406.2028      -83.64569      -189.0731
       311.6483       132.7850       49.94812       238.3919       4.731384
      -105.8538       136.9846       180.0863       134.8201       449.3361
       444.1566       241.9696      -215.5415      -628.8247      -202.0048
       258.0540       265.6342      -260.4639      -436.0719       72.14209
       520.3109       16.90128      -409.8929       486.3510       543.5502
      -219.8141      -374.6492      -283.3752      -231.9228      -221.5825
      -30.26392       135.2756       276.9547       202.5270      -324.5110
      -301.8009       523.7142       440.3560      -270.1283       88.44598
       469.6302       20.19934       116.5349       250.4108      -247.1138
      -115.1202       185.9689       279.0084      -34.65869      -223.5536
       536.3025       405.9789       75.41125       228.1596      -70.77039
       135.7764       168.5966       106.5901       341.6450       453.6383
       381.4507      -136.2648       128.6316       565.5919       79.04340
      -65.09705       232.2365       86.53876       83.69324       325.8291
       422.6436       358.9888       397.9443       258.4280       51.72021
       359.0575       536.2661       574.6819       270.3320      -79.55990
      -62.07593       15.46912       381.2581       293.6099       58.22986
       359.2066       360.5706       182.9059       73.25505      -157.5428
       147.1223       798.7447       457.5681      -8.106567       375.1403
       409.5323       58.78400      -50.40991       324.3236       535.9988
       230.9474       116.9765       50.39941       385.9679       625.6580
       152.2571      -95.47220       85.65271       233.8135       88.41638
       237.8894       188.9016      -72.40532       2.883179       178.7356
       189.2397      -211.2824      -252.6213       331.4169       568.6937
       492.6125       30.48515      -173.0701       198.6703       34.38196
      -149.5687       28.67035      -28.57635      -375.0468      -98.41794
       221.1012      -108.0814      -108.5156      -273.9257      -292.4077
      -6.728027      -263.7991      -67.64267       137.5447      -410.3580
      -585.2225      -122.7912      -66.71521      -495.9129      -195.3345
      -301.8143      -413.4620      -114.2196      -359.4110      -310.2632
      -279.5029      -374.6410      -318.1240      -394.7205      -362.4995
      -315.3159      -480.0513      -595.8608      -545.0759      -412.5470
      -398.8015      -577.9941      -582.2429      -558.1946      -761.9421
      -786.0918      -525.7559      -427.0593      -627.1963      -903.8698
      -607.9612      -450.2285      -563.7722      -657.5581      -809.3451
      -580.3096      -616.3884      -852.7971      -684.7661      -357.7310
      -718.8472      -941.0067      -402.1506      -618.9597      -905.8502
      -611.2834      -713.6162      -880.0720      -914.6938      -902.8232
      -464.3916      -423.2502      -996.3557      -1026.266      -571.6311
      -507.5405      -780.3593      -755.9059      -364.5681      -467.5400
      -596.3774      -441.2917      -561.8259      -672.1455      -932.7505
      -988.1724      -605.4707      -502.7751      -645.1781      -603.4730
      -505.1721      -617.3667      -589.4055      -484.9448      -506.3208
      -593.5200      -464.2058      -343.5901      -388.3649      -271.9109
      -283.6975      -429.6448      -446.5100      -432.9161      -215.1934
      -221.8040      -352.9194      -279.0371      -437.0980      -286.2784
