     0.02499999      -1446.635       1539.729      -12345.00      -12345.00
      -30.00512       225.9698      -28.48000      -12345.00      -12345.00
       0.000000       20.83000      -12345.00      -12345.00      -12345.00
      -12345.00      -12345.00      -12345.00      -12345.00      -12345.00
      -12345.00      -12345.00      -12345.00      -12345.00      -12345.00
      -12345.00      -12345.00      -12345.00      -12345.00      -12345.00
      -12345.00      -29.95960      -69.63990       5051.000       0.000000
      -31.06700      -68.46300       0.000000       100400.0       0.000000
      -12345.00      -12345.00      -12345.00      -12345.00      -12345.00
      -12345.00      -12345.00      -12345.00      -12345.00      -12345.00
       166.8306       317.0820       137.6767       1.499945      -12345.00
      -12345.00    -0.02650376       0.000000       0.000000      -12345.00
      -12345.00      -12345.00      -12345.00      -12345.00      -12345.00
      -12345.00      -12345.00      -12345.00      -12345.00      -12345.00
      2008       164        19         4         6
       280         6    -12345    -12345     10240
    -12345    -12345    -12345    -12345    -12345
         1         7        13    -12345    -12345
    -12345    -12345    -12345    -12345    -12345
    -12345    -12345    -12345    -12345    -12345
    -12345    -12345    -12345    -12345    -12345
         1         1         1         1         1
CORT    -12345          
        -12345  -12345  
-12345  -12345  -12345  
-12345  -12345  -12345  
-12345  -12345  -12345  
-12345  -12345  -12345  
-12345  -12345  BHZ     
ZL      -12345  -12345  
[...]
      -182.7285      -193.2943      -199.3770      -205.4468      -214.3813
      -222.7347      -229.4379      -237.3769      -245.6436      -256.0848
      -264.1769      -267.2362      -274.3597      -284.7683      -292.1488
      -300.5289      -307.4287      -311.3663      -320.2809      -330.5660
      -338.9283      -346.8054      -352.5605      -361.1385      -371.0115
      -383.1343      -391.9554      -398.4221      -404.4852      -414.6660
      -424.7200      -434.3634      -444.7194      -454.9922      -458.7172
      -469.4191      -477.6010      -484.5146      -499.7415      -514.5237
      -518.2119      -521.5050      -530.3577      -540.8735      -547.7937
      -551.5828      -556.9998      -566.8889      -573.7607      -575.1163
      -579.7665      -583.1863      -588.7783      -591.8344      -594.7194
      -595.1614      -605.6484      -606.4121      -605.6689      -603.9309
      -608.2800      -610.3369      -611.9106      -605.5916      -610.5955
      -613.8713      -621.4976      -619.4758      -617.3322      -617.7769
      -623.3318      -617.8801      -616.0354      -613.1628      -613.0957
      -618.6124      -620.9619      -611.6597      -608.6583      -609.9290
      -611.0757      -604.9874      -602.0046      -601.1821      -599.4431
      -592.7036      -586.9829      -582.7444      -582.2957      -571.5830
      -565.7410      -560.6880      -557.8750      -551.3823      -541.8569
      -531.4714      -522.6417      -510.6576      -503.4741      -494.6733
      -485.4766      -474.2483      -458.2836      -440.8326      -427.4888
      -418.0300      -405.0740      -387.0347      -366.7667      -350.8502
      -331.7440      -315.4774      -293.4392      -264.8580      -238.9434
      -219.0060      -199.3563      -175.9956      -148.5592      -122.8572
      -96.04907      -69.88553      -36.70406      -7.604500       13.24973
       37.44353       67.11972       99.83270       129.0705       155.2184
       183.4911       210.6658       233.8657       258.1281       285.0911
       308.5764       329.7842       354.4618       377.4786       406.6649
       421.4147       434.7793       452.0688       471.7991       485.9089
       506.5010       525.3333       546.1409       559.3704       569.1509
       578.4626       593.2927       599.6086       607.5945       620.9900
       632.1908       637.4258       641.5557       644.7620       650.6638
       656.0186       660.9331       666.2124       672.2544       676.8068
       676.1282       671.4331       672.2954       673.9607       674.0660
       681.5361       682.3350       677.8406       675.3225       676.2057
       671.8184       666.3777       671.4529       678.3296       676.3130
       674.4846       670.3550       667.7998       663.6584       660.0271
       650.1069       649.7710       650.5515       646.0327       635.6348
       631.6741       624.9955       612.5808       601.6917       598.0759
       593.8955       587.8357       582.9897       573.9541       564.8538
       557.5103       553.2493       546.1404       536.7471       532.9539
       529.2888       525.2119       514.5115       506.2291       495.3115
       488.8944       485.3341       483.2108       473.5146       468.9048
       458.1569       454.1357       441.5183       434.9766       422.4973
       416.2987       410.3549       413.8716       405.0087       400.2603
       386.4529       378.0093       368.4250       362.6448       354.6598
       357.5084       348.6498       340.6454       329.2886       324.2324
       314.7374       304.4606       290.1293       284.0210       274.6451
       268.7930       257.6989       254.1970       242.5477       237.7457
       224.7599       212.3935       200.4910       191.3670       175.3430
       164.2018       143.1021       125.4200       117.4736       109.8862
       85.50842       67.88190       56.55766       46.13281       24.14239
       1.864929      -17.70726      -31.81284      -56.09009      -72.96741
      -91.71075      -109.1666      -131.4315      -150.9343      -175.4752
      -191.9550      -212.1704      -229.6581      -255.3425      -274.5774
      -302.2116      -320.3136      -337.4409      -352.2434      -385.1455
      -413.3254      -431.9259      -445.9756      -469.7528      -487.3939
      -510.9854      -532.4170      -559.3096      -576.8389      -599.7942
      -611.6388      -633.1301      -658.2192      -674.9092      -679.3687
      -696.6316      -710.9722      -729.1106      -741.5742      -764.5371
      -777.4336      -785.6665      -792.5103      -813.5063      -825.7651
      -832.4666      -834.8723      -846.2607      -847.6641      -857.7036
      -861.4524      -872.4458      -871.5159      -875.8208      -875.3977
      -881.9414      -876.3347      -876.1230      -870.2256      -871.5337
      -866.1855      -867.3730      -859.1350      -860.9116      -852.3354
      -850.6248      -836.3220      -828.2607      -819.6982      -812.0894
      -793.7300      -783.1045      -767.0356      -759.9563      -745.2124
      -730.6162      -710.7300      -698.8893      -679.4324      -664.4542
      -645.4407      -629.7554      -615.9014      -605.8035      -577.3312
      -558.6705      -536.2981      -512.6287      -494.5900      -480.9636
      -459.2306      -441.4387      -420.9530      -399.2463      -372.5126
      -347.8619      -325.6045      -298.5528      -269.4695      -250.3722
      -229.7810      -207.2833      -183.2545      -157.5405      -126.9432
      -102.6416      -72.92755      -49.93795      -19.66418       12.01752
       38.39258       65.83960       99.41553       121.0864       156.6199
       184.5035       209.6613       238.7131       269.8530       284.7762
       319.8529       346.6630       368.4078       391.1472       416.7240
       438.3508       464.9846       478.9973       505.7649       525.6376
       540.8085       554.0906       575.1465       586.5304       600.4480
       607.3752       621.2299       631.4446       647.1851       657.9843
       668.2573       668.9438       683.2788       694.2241       702.9778
       703.7051       713.5547       723.9780       733.2803       736.2825
       743.4409       741.4041       752.6606       752.3528       750.4185
       748.8513       755.4834       754.3315       748.3340       740.8257
       742.1147       734.3013       736.9387       729.7834       725.1514
       720.6096       720.1580       709.6941       705.2026       692.9788
       686.4573       674.9502       664.5444       648.1775       642.3717
       629.3611       613.9436       592.7758       578.6973       562.0432
       549.9509       531.2334       514.5975       499.9492       483.9646
       460.7830       448.4047       427.6060       409.3315       390.5090
       372.9419       355.4434       339.7726       319.6769       305.0673
       289.0199       271.6958       249.7736       233.2014       219.7864
       202.0709       183.3386       170.7952       151.3300       136.3210
       121.2599       103.1424       90.21170       75.75568       58.45940
       48.51093       31.17968       19.27222       2.154488      -11.66737
      -24.36569      -38.60034      -54.98642      -63.34047      -78.89380
      -88.92139      -108.6061      -126.7054      -140.9863      -152.3214
      -171.3687      -185.8018      -207.5833      -216.1244      -230.2444
      -242.8495      -260.2803      -271.1105      -288.0961      -308.7202
      -326.5276      -329.0919      -346.7712      -360.5646      -376.8918
      -390.2097      -407.2979      -413.1006      -425.3774      -438.4226
      -454.8224      -465.4860      -477.0736      -483.7036      -498.0084
      -504.8577      -512.6370      -519.4365      -530.3184      -536.5891
      -543.1493      -547.9053      -554.4303      -559.6741      -564.9043
      -563.2092      -565.2144      -565.9091      -569.9313      -567.1921
      -572.0330      -571.9507      -569.5175      -568.9031      -569.4951
      -566.0774      -568.0826      -559.6346      -556.7509      -556.3235
      -552.4059      -544.1062      -545.8140      -539.3943      -535.0220
      -521.0353      -510.9117      -497.5872      -491.0856      -480.1929
      -473.4482      -461.7415      -453.4962      -438.5833      -431.6183
      -415.1608      -405.9271      -392.4266      -381.1832      -363.0227
      -355.3951      -338.8127      -327.8534      -308.1758      -295.8525
      -273.8662      -259.5352      -237.9190      -220.5705      -198.1864
      -182.9948      -157.2214      -139.6152      -120.8549      -106.7104
      -78.02206      -60.91815      -35.45647      -16.26041       7.056015
       26.71118       54.51901       68.60022       93.19531       109.7151
       137.8976       158.5687       184.0922       204.3468       232.2232
       248.7156       274.1304       299.6966       327.2703       346.8890
       380.8171       401.0638       425.5985       445.7755       477.0223
       495.5253       515.5093       531.2827       559.8768       586.4364
       610.2031       622.6919       649.0466       664.5422       680.6875
       693.7979       715.4534       728.1152       751.4287       757.3008
       770.7778       780.7302       791.8528       792.6682       806.7498
       811.4341       818.6438       820.8938       832.4854       823.9333
       827.2737       830.7778       838.6948       833.7383       839.5864
       833.9578       843.3457       839.9189       836.9360       829.3333
       834.8909       826.5127       825.3027       813.9041       811.9822
       801.1621       799.8589       790.4224       784.6362       769.1304
       766.2812       756.2722       748.4390       730.3716       721.0098
       706.4229       694.8436       677.4619       664.5212       643.5061
       637.0065       620.2817       602.2354       576.4648       555.9177
       534.9432       518.9337       491.2927       471.0938       447.6506
       429.0865       401.4065       381.0037       355.7241       331.0646
       295.9820       269.6910       241.2044       220.5917       188.8628
       163.9408       136.7689       112.5966       78.22438       51.47160
       14.41427      -11.86302      -40.29266      -67.48154      -98.78137
      -123.4913      -155.2479      -176.9142      -211.9819      -234.8718
      -262.2795      -284.6561      -312.6727      -344.9379      -374.6959
      -391.2836      -423.6798      -454.7573      -483.4420      -506.9944
      -539.0342      -568.0874      -602.0889      -632.0269      -667.7305
      -698.2219      -732.9473      -763.0056      -790.1655      -818.7617
      -853.4172      -880.6936      -914.3340      -942.7419      -972.4897
      -999.5085      -1026.603      -1045.995      -1066.220      -1090.614
      -1119.602      -1132.460      -1149.896      -1169.403      -1189.222
      -1208.231      -1226.780      -1234.955      -1248.376      -1262.074
      -1272.899      -1280.081      -1294.769      -1302.351      -1306.260
      -1315.867      -1323.075      -1321.549      -1326.701      -1329.250
      -1327.061      -1330.085      -1327.326      -1322.744      -1317.146
      -1309.308      -1300.940      -1291.091      -1280.912      -1271.359
      -1253.379      -1235.499      -1213.848      -1194.892      -1189.646
      -1176.604      -1148.729      -1127.621      -1107.703      -1082.841
      -1057.791      -1029.768      -1005.689      -982.1528      -956.2390
      -933.3916      -906.1125      -872.9753      -844.4595      -817.6084
      -786.5803      -752.5410      -718.7789      -691.0625      -660.2751
      -618.3788      -578.0642      -545.4248      -509.5225      -473.4766
      -437.5430      -399.6560      -356.3153      -316.4077      -278.4862
      -231.3885      -189.0192      -155.1812      -118.5847      -76.51239
      -34.01596       7.647430       49.33954       90.45410       128.0817
       169.9191       208.0597       243.8979       275.1897       312.7725
       348.6377       391.9998       430.2722       468.7441       504.9790
       542.9716       575.2524       618.2837       652.6572       688.9512
       726.7986       770.6248       805.3530       843.5710       873.7302
       911.2966       945.2122       978.9014       1011.205       1045.422
       1072.268       1104.601       1130.030       1158.801       1185.937
       1212.249       1237.839       1269.807       1291.119       1321.008
       1351.923       1371.624       1384.409       1411.433       1429.642
       1447.194       1462.138       1482.516       1497.695       1507.433
       1517.672       1526.181       1525.913       1532.473       1533.110
       1536.610       1539.729       1539.238       1533.580       1530.280
       1521.154       1514.905       1508.983       1497.052       1482.428
       1475.772       1467.310       1451.134       1424.038       1401.862
       1382.814       1361.186       1339.435       1313.726       1283.635
       1260.675       1233.764       1201.285       1164.250       1135.796
       1104.655       1075.419       1043.914       1007.996       968.0945
       937.0388       902.0474       863.4976       828.6646       792.5574
       755.4941       720.8322       679.2715       636.1138       600.0099
       564.0881       520.4375       474.4082       434.0620       397.6704
       355.4075       314.9756       268.5848       228.2263       182.0047
       129.2849       82.12503       45.98529       4.864487      -37.19083
      -81.47556      -121.4860      -171.2690      -215.4182      -261.0114
      -302.6477      -345.1667      -383.7275      -424.5594      -458.2073
      -495.9274      -534.8274      -578.8447      -617.6661      -655.7917
      -693.9404      -726.6057      -755.8530      -781.7046      -807.5684
      -839.2341      -872.8848      -906.5269      -934.0037      -945.9524
      -965.8423      -991.9111      -1006.658      -1012.072      -1028.953
      -1047.486      -1065.723      -1077.083      -1084.615      -1087.777
      -1097.266      -1102.226      -1101.782      -1099.444      -1104.475
      -1106.056      -1105.319      -1097.382      -1087.856      -1082.030
      -1074.502      -1064.871      -1059.749      -1048.082      -1037.899
      -1033.885      -1023.162      -1001.207      -989.5781      -976.3660
      -958.5498      -947.0371      -936.1641      -915.7524      -903.2295
      -892.5525      -874.5461      -851.1213      -828.8582      -813.5327
      -799.4268      -779.5168      -760.1245      -744.6270      -724.3647
      -697.4109      -669.3694      -648.9766      -627.1421      -605.7954
      -581.9421      -560.4242      -539.1816      -521.1428      -494.0900
      -470.8562      -450.1691      -427.7281      -398.5380      -377.6631
      -362.4476      -351.1256      -325.9612      -306.5414      -285.7098
      -263.2845      -238.8580      -224.1006      -207.8269      -194.3697
      -178.0064      -164.7762      -153.0666      -137.7587      -107.3616
      -98.06342      -82.14781      -64.76651      -53.16530      -42.89258
      -28.95728      -19.93631      -3.915110       5.184265       13.15447
       21.28641       36.68701       41.78993       47.48044       51.63837
       59.28735       59.36168       65.71159       68.40509       75.17610
       77.40811       84.54010       86.57855       89.82642       88.70465
       90.85172       86.37573       93.01501       99.45743       100.6194
       101.6093       110.2220       106.8579       108.6877       108.6043
       110.8577       116.3787       124.7055       124.3705       131.9339
       135.9531       139.9645       144.8585       153.4968       153.9423
       161.2441       169.8388       177.7314       183.8453       192.9762
       192.3361       198.6385       206.4921       206.3584       208.0640
       222.7285       228.7265       232.3831       241.2860       250.5737
       254.1151       250.7902       255.1653       268.2007       269.3193
       272.9570       279.2990       279.9095       279.5739       280.6720
       280.4448       287.8238       288.1337       288.6685       291.1571
       299.5223       295.4427       289.3145       290.8991       293.9144
       298.3402       301.9048       295.7466       296.4993       298.7703
       299.4246       289.9717       285.5843       291.9222       299.3564
       288.5132       283.8151       273.9812       268.4734       260.5994
       257.2151       244.1841       236.9417       224.5192       220.8774
       208.0909       199.3418       191.1310       187.2843       172.1084
       167.3442       158.3225       144.9788       134.0094       131.8270
       121.2341       115.4383       108.3706       100.9759       90.11694
       85.85605       73.53436       66.38408       66.40973       70.49229
       61.34177       62.84763       59.37589       56.26584       51.58888
       51.13156       46.88188       49.98183       50.03233       56.76486
       48.42043       48.26927       43.85683       43.43756       43.08136
       46.64383       44.75925       46.51660       42.52988       49.42099
       44.58078       39.80754       38.37475       40.08656       34.57590
       39.47518       41.33026       38.87411       30.92172       26.75826
       19.61704       16.05386       11.08490       10.29340       4.053604
      0.7901516      -3.753952      -12.35437      -21.45566      -21.15802
      -24.63837      -27.21772      -30.42973      -31.69372      -38.79205
      -42.05182      -45.33630      -53.24496      -56.00078      -53.00429
      -56.29556      -58.05936      -63.74130      -70.16882      -69.48988
      -68.21768      -71.15636      -67.99730      -65.16330      -70.47153
      -72.88983      -71.95819      -78.09625      -75.94180      -73.64230
      -71.70439      -68.43762      -62.52818      -56.81644      -56.99268
      -56.06535      -48.70726      -44.58160      -37.91261      -32.90830
      -22.10426      -12.15497      -10.38020      -8.107273       4.305378
       9.377769       15.00397       27.23147       31.29864       38.08719
       51.42000       59.31918       62.84128       71.93500       81.18053
