     0.02499999      -1233.311       1544.382      -12345.00      -12345.00
      -30.00508       225.9698      -28.48000      -12345.00      -12345.00
       0.000000       20.83000      -12345.00      -12345.00      -12345.00
      -12345.00      -12345.00      -12345.00      -12345.00      -12345.00
      -12345.00      -12345.00      -12345.00      -12345.00      -12345.00
      -12345.00      -12345.00      -12345.00      -12345.00      -12345.00
      -12345.00      -29.95960      -69.63990       5051.000       0.000000
      -31.06700      -68.46300       0.000000       100400.0       0.000000
      -12345.00      -12345.00      -12345.00      -12345.00      -12345.00
      -12345.00      -12345.00      -12345.00      -12345.00      -12345.00
       166.8306       317.0820       137.6767       1.499945      -12345.00
      -12345.00     0.05657097       90.00000       90.00000      -12345.00
      -12345.00      -12345.00      -12345.00      -12345.00      -12345.00
      -12345.00      -12345.00      -12345.00      -12345.00      -12345.00
      2008       164        19         4         6
       280         6    -12345    -12345     10240
    -12345    -12345    -12345    -12345    -12345
         1         7        13    -12345    -12345
    -12345    -12345    -12345    -12345    -12345
    -12345    -12345    -12345    -12345    -12345
    -12345    -12345    -12345    -12345    -12345
         1         1         1         1         1
CORT    -12345          
        -12345  -12345  
-12345  -12345  -12345  
-12345  -12345  -12345  
-12345  -12345  -12345  
-12345  -12345  -12345  
-12345  -12345  BHE     
ZL      -12345  -12345  
[...]
      -752.9683      -703.9534      -675.4509      -771.7529      -766.1060
      -765.2117      -721.5728      -704.3535      -757.8760      -720.2429
      -722.9438      -808.3799      -816.8687      -695.1677      -659.7637
      -793.2639      -831.5234      -795.6165      -820.5588      -808.4937
      -734.1997      -748.7388      -786.1357      -774.4495      -751.2410
      -739.3115      -737.2554      -756.8752      -798.9314      -801.9880
      -736.0320      -665.7236      -715.8110      -809.0308      -766.4521
      -688.0144      -726.9963      -754.8840      -657.5518      -693.2307
      -789.4773      -697.6091      -687.2349      -740.0566      -651.0116
      -599.2914      -640.0830      -697.9377      -675.2517      -623.4807
      -634.0717      -651.8604      -632.6057      -616.4089      -592.2664
      -617.0508      -635.5431      -590.1963      -578.2979      -585.4276
      -603.3658      -599.6431      -600.9441      -600.9122      -539.6104
      -559.0620      -538.9626      -523.0271      -618.5603      -614.1902
      -528.8362      -551.1610      -540.8142      -547.5593      -562.3925
      -479.8591      -471.9747      -499.3804      -487.7924      -503.1321
      -462.8003      -447.3882      -415.7476      -427.4847      -415.7212
      -366.8274      -389.8425      -382.1489      -370.3629      -351.9628
      -300.1814      -263.1132      -296.8024      -271.7987      -239.2546
      -285.4015      -239.0419      -122.7675      -117.3383      -240.6019
      -201.0830      -85.39923      -86.66454      -88.09116      -32.71460
      -4.172615      -23.23841      -9.868484      -33.05536      -4.598816
       74.28317       91.50557       40.07182       7.880554       70.72314
       119.7882       158.1786       162.5507       162.7576       224.7379
       242.6616       178.5281       191.8019       298.5092       301.8354
       301.1238       313.1129       314.9254       357.1499       386.7061
       385.0518       369.5984       408.9396       393.4440       411.6447
       509.1996       506.3750       494.8181       531.4463       490.7195
       462.7988       550.4229       561.1896       552.8478       602.0315
       572.6062       553.0176       588.0085       583.5867       588.6248
       591.9872       559.4951       596.2268       661.4613       665.2971
       581.1228       575.5549       664.4033       629.0823       627.4915
       626.3965       627.3643       637.7500       594.7875       617.5925
       645.1868       658.0547       602.6541       552.6431       597.2236
       609.6040       644.0801       632.2882       568.0562       577.0718
       628.2666       594.9836       546.6462       588.5540       618.7354
       597.7307       612.2058       592.4158       546.1704       566.3928
       522.0972       496.5094       592.8799       612.4740       552.6248
       502.9426       541.7493       533.7942       482.9238       497.1343
       486.7360       519.8931       564.3140       495.4386       451.2916
       456.6050       478.7684       455.8722       378.4584       457.8588
       547.5316       464.5149       448.1085       456.5938       428.9996
       418.1282       428.8828       425.0737       413.7076       406.1060
       426.7954       437.3687       403.4004       409.8969       407.4308
       364.8922       319.2656       340.2632       413.2473       404.1505
       353.0781       367.0479       397.0525       365.2814       381.6845
       352.8007       267.2787       313.3967       359.1483       309.3711
       277.7737       302.9026       274.1418       240.0162       269.9301
       206.5137       211.9791       317.9715       265.5872       174.2474
       194.7072       182.6322       188.1039       228.6854       175.6318
       137.8550       139.5176       150.2630       224.1675       166.2729
       84.23607       84.13007       44.31787       53.81573       77.76044
       91.48639       92.93459       52.84082       33.51713      -17.40640
      -28.12154      -10.57217      -4.606293      -58.66043      -111.7350
      -54.53940      -65.98499      -181.7991      -168.2056      -128.5413
      -213.4382      -262.6077      -211.0212      -189.8683      -234.9785
      -271.5779      -308.9521      -371.1587      -334.6531      -367.4312
      -384.5997      -351.9789      -431.4181      -460.8749      -409.7876
      -440.0504      -472.1013      -446.0981      -479.0776      -581.2325
      -541.0920      -495.0305      -609.9253      -684.4695      -599.1467
      -584.8887      -642.9482      -651.8596      -564.7135      -570.3069
      -639.1323      -670.8398      -737.6899      -747.0298      -697.0247
      -719.3206      -691.6479      -681.7515      -720.5498      -719.1182
      -720.6201      -761.8562      -743.9702      -725.2400      -731.2451
      -740.3223      -733.0515      -696.5940      -679.2739      -728.5662
      -714.2764      -690.9856      -713.7622      -734.0581      -729.2189
      -671.4778      -606.8455      -604.0070      -593.3464      -590.8291
      -624.4622      -606.9868      -558.0259      -562.2778      -532.2205
      -552.4238      -564.2200      -518.6448      -505.9883      -456.4617
      -432.4835      -465.1538      -424.8376      -371.7279      -361.5133
      -379.8767      -392.1134      -338.7628      -288.7909      -319.1259
      -249.5876      -186.8126      -213.7029      -231.4675      -200.5842
      -165.2574      -174.2491      -169.5424      -122.0823      -102.9575
      -27.15361       56.22399      0.4443130      -52.85443       69.75092
       189.2444       127.1234       47.44104       194.9553       290.2236
       272.6443       245.6710       215.3981       276.9258       354.3706
       356.6692       403.0104       436.9146       458.7274       497.1222
       470.2407       475.0526       547.1897       548.6042       588.1122
       577.7626       520.8251       575.9426       698.3475       694.0618
       612.0602       659.7651       724.2820       686.1963       707.2251
       747.5679       735.4443       696.7422       692.5811       741.5293
       750.8535       744.2800       790.9243       798.8894       765.8218
       726.6855       766.3679       812.2480       760.2119       728.9312
       772.9609       743.9885       702.9246       751.6094       770.8690
       683.7642       668.2944       717.8967       697.0813       667.5283
       663.9922       650.3451       627.1565       612.0520       602.3445
       574.5149       608.7067       574.1321       551.1726       594.4338
       521.4487       473.8334       540.3147       490.6609       393.9023
       398.0466       455.4490       401.9724       308.6403       328.4309
       343.7682       268.6570       276.3307       310.6421       247.7120
       202.7760       265.3988       235.4692       149.3808       176.0452
       184.1322       129.1343       64.82980       76.45573       102.4731
       23.61243       2.467590       25.43956       15.85904      -53.40710
      -50.02849      -14.32812      -114.3251      -140.7813      -49.04596
      -82.19107      -136.4600      -122.7581      -178.4484      -217.1804
      -199.3093      -220.3560      -232.2878      -236.7728      -268.3232
      -290.1108      -290.8239      -323.3473      -341.1671      -316.5155
      -350.2439      -396.9102      -385.3849      -346.5880      -348.5181
      -405.1011      -403.2928      -421.9298      -445.2694      -436.5974
      -406.9164      -378.3811      -407.6406      -446.7419      -485.9130
      -475.6768      -423.8293      -415.2432      -441.3312      -474.1682
      -522.3971      -495.0360      -381.5211      -426.8801      -471.1479
      -413.3646      -427.3860      -451.3608      -447.7007      -415.4635
      -367.3013      -374.7693      -467.2277      -483.4923      -358.4078
      -334.4148      -376.7866      -382.4822      -421.6912      -404.0897
      -348.7946      -341.9275      -388.1338      -434.1798      -363.9901
      -312.0891      -354.1158      -368.0848      -341.4989      -330.8625
      -375.2782      -376.0414      -372.9860      -339.5422      -257.6888
      -275.4271      -316.4531      -329.4833      -311.3300      -255.2711
      -268.2511      -383.9678      -410.5649      -285.6849      -284.7953
      -295.2784      -277.0769      -293.3358      -262.4899      -312.9933
      -339.7440      -264.3502      -227.0338      -277.6878      -336.0790
      -312.4221      -213.4382      -191.7323      -210.9136      -182.3586
      -208.2992      -220.6349      -159.9471      -180.1017      -270.5276
      -216.2827      -23.56995      -69.33716      -250.6231      -185.7764
      -82.47934      -99.57819      -92.73273      -72.91933      -85.63466
      -76.13220      -30.60007      -34.82425      -71.53845      -70.51678
      -93.40347      -148.0681      -79.77374      -8.572445      -26.62681
      -3.662216      -24.69153      -61.05304      -15.73772       17.64531
     -0.3190079       6.017044       52.22334       54.19263       44.38832
       69.05707       35.53537      -24.95447       51.95963       127.0407
       137.3157       110.7546       83.60806       73.32629       133.7854
       162.8168       123.8599       182.9784       184.6286       155.6637
       183.7062       199.1420       227.9774       229.2139       239.6738
       284.6078       257.2059       206.7307       250.9182       266.8764
       302.2632       373.6321       343.7874       275.7527       293.1721
       295.2644       282.7424       371.8879       373.9540       289.9426
       328.7954       393.6570       378.9968       406.3923       410.1889
       307.6189       289.0420       412.0829       438.9453       366.5931
       349.6807       402.9633       403.3622       378.8531       341.6470
       344.5708       384.3610       404.0334       353.0522       282.1590
       311.5718       379.4647       427.5698       411.6348       331.3702
       272.0786       288.8078       322.1063       277.0272       233.6909
       221.3661       259.7646       253.6860       226.7933       246.3929
       201.9607       199.0766       122.9121       78.77118       157.7305
       129.1186       171.4315       147.2456      -8.212536      -19.30754
       68.30069       49.40604      -42.89454      -53.02705      -20.60190
      -38.84686      -130.6403      -145.7212      -96.31290      -142.4824
      -211.5402      -177.1596      -122.2054      -104.0175      -155.6907
      -249.5411      -279.0543      -223.2263      -199.5545      -248.9912
      -284.5626      -318.4327      -301.2878      -244.4597      -236.3184
      -213.4436      -319.2213      -396.9216      -288.8184      -291.1211
      -272.8396      -189.4270      -340.8939      -456.9023      -323.5424
      -235.9576      -289.8140      -271.0095      -258.6125      -329.3560
      -346.6038      -268.8945      -257.6447      -308.0192      -291.2806
      -227.4822      -211.0149      -263.1234      -234.0507      -159.8540
      -254.9773      -258.3343      -170.8223      -209.4304      -191.6024
      -127.4770      -157.2985      -166.0883      -185.6194      -172.9240
      -135.8993      -124.1226      -173.5520      -139.5841      -12.80989
      -10.96469      -112.3792      -87.99699       19.57196      -30.88574
      -160.0309      -96.36470      -11.92406      -27.42084      -149.3083
      -150.0399      -72.31561      -118.8384      -120.3684      -15.37035
      -3.464073      -28.64521      -35.96809       4.610497       25.61111
      -43.38910      -151.4742      -215.9705      -266.5314      -332.3789
      -460.7507      -664.4714      -808.1328      -733.9885      -598.8290
      -340.9159      -128.5529       23.78784       338.1106       591.8779
       673.0941       608.8088       468.5054       367.0320       152.0587
      -93.06006      -544.2664      -1094.696      -1233.311      -890.6071
      -197.6580       587.4316       985.6918       834.4888       135.9043
      -399.5498      -262.0797      -185.9989      -265.1198      -257.5571
      -458.1859      -333.5988       1.105957       653.8740       1406.043
       593.6531      -854.7490      -1062.288      -768.0238      -453.7792
       14.07764       67.26025       130.0308       1055.411       1416.439
       402.5773      -548.1533      -473.8371       295.3792       387.8458
       185.2306       568.6510       188.7059      -218.7726      -10.42152
      -54.79614       24.07302       90.84666      -103.1788       206.7329
       850.6165       979.1792       954.7878       894.3594       152.6340
      -295.4945       1.892578       247.7477       200.9224      -572.8384
      -890.5491       141.0120       1173.806       1544.382       651.6183
      -504.3947      -469.2732      -57.16621      -30.19617      -88.97998
       363.7407       901.6579       353.1301      -45.46643       487.0859
       528.6581       154.9749      -143.6659      -463.5585      -308.9202
       343.2461       895.4841       772.5215       402.4340       392.8094
       364.2198       200.0767       142.5020      -58.89676      -20.44385
       229.4187       429.6678       493.0146       50.18665      -493.8839
      -355.2673       221.8583       255.0362       110.1862       38.81287
      -188.6863      -137.6276      -323.5353      -529.9705      -151.9771
      -70.97995      -118.2936       49.29944      -80.69269      -248.8394
      -168.4967       62.72528      -86.71039      -312.8410      -89.85559
      -49.44250      -564.1355      -634.4026      -54.98627       244.1680
       320.0486       24.32208      -278.3567       77.12814       213.1912
      -56.99243      -423.7536      -355.1776      -62.79504      -320.9924
      -406.8792      -58.88425      -21.21802      -146.4702      -221.2069
      -565.4625      -572.3583      -104.1928      -238.7689      -227.4823
       124.3890      -257.8093      -519.3361       1.762512       198.4443
       48.77418       42.64850      -161.6515      -260.4723       119.5952
       288.6536       19.51343      -300.5451      -261.8605      -168.5990
      -480.7634      -216.9024       236.6366       59.38467      -22.07397
      -181.8173      -327.3386       4.906403       214.7487      -168.8209
      -339.0418      0.1868286       29.58852      -7.458801       144.2678
       70.20181      -3.638351      -21.78693      -35.71533       248.1489
       599.0798       139.8904      -429.9172      -117.9141       42.03198
      -312.1420      -322.0997       144.0410       254.8504      -38.18518
       103.5463       301.5732       145.9348      -122.6277      -277.7077
       29.33005       253.4125      -46.88855       26.76904       477.7059
       613.0114       467.9092       367.0839       438.1775       321.8951
       130.3650       298.4468       449.0612       471.6472       463.9868
       134.3729      -48.38086       208.0017       421.2419       283.9675
      -92.70914      -82.40161       372.5482       646.6824       428.4603
       230.6530       237.5804       263.2552       375.4431       315.1356
       250.5258       264.4097       282.9840       535.3381       797.2368
       785.5636       617.2020       514.8889       342.0747       340.2496
       600.4387       588.4889       541.5552       634.4116       538.0306
       466.6331       393.7069       241.6597       411.9105       613.2058
       431.7603       330.1030       491.5283       599.8069       661.8479
       677.1453       464.8173       311.6604       444.7063       545.5828
       393.5813       394.9366       550.2363       402.9498       337.6610
       415.6987       313.9294       307.4756       425.3270       341.2740
       151.3981       267.0381       507.3461       359.5150       124.5244
       411.6592       708.5432       267.8570      -155.2816       102.4393
       97.43600      -22.14740       227.3483       148.4081       21.36328
       334.1854       438.4406       195.1976       151.9761       42.99799
      -226.3317       88.02557       413.2304       7.547363      -308.1655
      -72.28119       118.3613      -82.12515      -24.54163       177.1156
      -77.03174      -189.0543      -29.48987      -147.3734      -179.0031
       109.4078       68.39478      -322.1948      -635.5251      -528.8789
      -316.7838      -488.5419      -444.3505      -270.9730      -337.0100
      -376.6161      -405.0449      -495.8918      -640.3972      -535.1342
      -352.0450      -431.8700      -519.1338      -538.3480      -509.6166
      -502.1429      -483.2256      -487.0468      -616.0037      -649.4763
      -614.9128      -546.1130      -516.0596      -737.1021      -702.0616
      -510.0039      -747.4001      -828.0591      -575.4460      -438.7264
      -423.5419      -609.7280      -660.2947      -591.3987      -538.4561
      -392.1282      -516.4122      -614.9121      -534.1849      -523.4263
      -466.4092      -312.0649      -191.7249      -418.4554      -630.7902
      -497.4341      -382.0148      -306.5468      -358.4185      -410.7915
      -182.7296      -199.7740      -368.6492      -343.4991      -345.7010
      -292.7528      -262.4328      -311.3018      -306.2831      -338.7660
      -412.0626      -367.6059      -321.3600      -363.8483      -207.5279
      -97.98914      -295.9871      -442.5648      -400.5765      -220.2064
      -23.29547      -31.31323      -177.0192      -279.8359      -181.2219
      -204.0439      -443.1572      -331.2144      -181.1154      -456.7057
      -497.0643      -307.6469      -238.2882      -122.3602      -143.5950
      -293.6948      -390.8958      -326.8969      -210.3164      -177.5526
      -192.9657      -345.7113      -379.5240      -206.7423      -214.4789
      -372.8257      -369.2902      -373.6123      -425.7925      -327.3373
      -179.3585      -251.8273      -289.2382      -189.5718      -199.7397
      -157.1560      -194.8052      -361.0530      -451.3087      -384.9078
      -334.4978      -321.8717      -295.5774      -396.8884      -369.5764
      -266.8795      -239.4499      -221.6991      -231.1453      -262.4147
      -205.5940      -118.1530      -155.0645      -212.9418      -225.5623
