     0.02499999      -2362.693       1809.554      -12345.00      -12345.00
      -30.00508       225.9698      -28.48000      -12345.00      -12345.00
       0.000000       20.83000      -12345.00      -12345.00      -12345.00
      -12345.00      -12345.00      -12345.00      -12345.00      -12345.00
      -12345.00      -12345.00      -12345.00      -12345.00      -12345.00
      -12345.00      -12345.00      -12345.00      -12345.00      -12345.00
      -12345.00      -29.95960      -69.63990       5051.000       0.000000
      -31.06700      -68.46300       0.000000       100400.0       0.000000
      -12345.00      -12345.00      -12345.00      -12345.00      -12345.00
      -12345.00      -12345.00      -12345.00      -12345.00      -12345.00
       166.8306       317.0820       137.6767       1.499945      -12345.00
      -12345.00     0.03060463       0.000000       90.00000      -12345.00
      -12345.00      -12345.00      -12345.00      -12345.00      -12345.00
      -12345.00      -12345.00      -12345.00      -12345.00      -12345.00
      2008       164        19         4         6
       280         6    -12345    -12345     10240
    -12345    -12345    -12345    -12345    -12345
         1         7        13    -12345    -12345
    -12345    -12345    -12345    -12345    -12345
    -12345    -12345    -12345    -12345    -12345
    -12345    -12345    -12345    -12345    -12345
         1         1         1         1         1
CORT    -12345          
        -12345  -12345  
-12345  -12345  -12345  
-12345  -12345  -12345  
-12345  -12345  -12345  
-12345  -12345  -12345  
-12345  -12345  BHN     
ZL      -12345  -12345  
[...]
      -446.9760      -423.2787      -219.2057      -330.1182      -366.2419
      -274.3304      -286.2037      -275.4070      -188.5470      -76.45532
      -85.66107      -174.1166      -222.6824      -124.7100      -51.53787
      -149.6376      -140.3485      -88.79111      -42.37560       62.89859
       85.36395       7.843201       15.27060       128.6619       106.6311
       37.93668       125.1638       148.2162       35.06456      -8.886475
       115.1415       307.5913       301.5289       125.3356       174.0199
       211.0267       177.5696       197.7197       167.8955       164.6885
       285.2552       297.0920       235.7433       195.6848       180.0593
       214.4936       191.4633       189.5054       293.3955       290.4364
       252.9683       229.1821       228.3503       225.3710       186.4579
       156.5089       193.9745       211.9422       206.7541       185.6528
       245.0803       230.9150       117.0720       155.1879       234.9084
       187.9720       191.3925       171.3520       109.1980       152.3134
       211.8939       164.9708       208.6116       237.4653       136.7838
       127.9930       163.7112       184.4677       215.0984       154.2273
       140.0782       137.0747       131.9768       181.8821       257.8881
       251.4227       258.5271       223.1823       159.5410       187.4415
       216.1766       217.7258       241.7692       184.0865       178.1770
       249.7324       289.6573       279.1891       291.2462       343.6876
       355.9197       232.3005       185.5566       280.5496       326.0267
       313.5366       360.2874       309.4762       271.9822       313.1641
       336.4600       361.9165       368.4498       335.9197       328.3232
       327.3916       398.2133       380.4883       333.8042       372.7939
       374.8862       322.8438       412.0233       463.4158       360.9391
       397.7197       523.4700       462.6429       401.7592       409.2899
       412.7581       445.0540       482.5410       415.1470       345.8224
       373.2717       470.1100       408.1862       372.5287       420.6628
       384.8085       345.7800       369.5219       336.6917       321.1809
       363.2366       345.8101       345.5493       402.3801       342.1415
       292.6414       342.0988       376.9854       309.0593       253.1382
       259.9202       287.3354       320.7568       290.2868       215.2964
       180.6753       187.2484       193.3970       222.1396       258.6971
       186.8368       132.9985       112.0763       107.5563       150.1171
       189.1625       156.1966       44.74609       20.46915       89.87979
       64.10864       51.66457       45.70992       30.99162       42.14790
      -12.66079      -43.47153      -31.00479      -10.32828      -2.516556
      -61.81148      -52.15596      -35.11612      -73.21704      -94.83376
      -75.08300      -13.52493      -43.79901      -103.7758      -70.27155
      -116.8900      -174.1892      -166.8087      -116.3568      -96.02365
      -98.36298      -136.0710      -157.4244      -117.5085      -173.9508
      -249.3979      -203.4401      -167.9125      -129.2669      -134.1361
      -218.1683      -219.2297      -187.0901      -169.2058      -174.7108
      -244.9806      -202.7773      -176.8434      -223.2962      -190.3306
      -193.0396      -219.3570      -154.7654      -175.6860      -276.0636
      -254.1841      -202.6905      -225.1888      -177.7198      -170.2784
      -183.6699      -159.4240      -230.9064      -280.1775      -233.0537
      -227.7188      -231.4570      -153.0354      -127.1825      -237.0741
      -296.9156      -217.2563      -146.2759      -163.3008      -167.6343
      -202.4554      -239.7454      -180.2650      -128.4700      -166.4969
      -207.0706      -168.9411      -94.70673      -147.6429      -221.6564
      -164.9663      -118.8335      -140.3373      -176.0331      -155.0505
      -136.4595      -185.0852      -225.9856      -202.8013      -65.96503
      -76.61212      -141.2618      -63.57117      -133.3289      -224.1826
      -122.7781      -60.64120      -120.0286      -112.5509      -57.29355
      -111.8753      -160.6085      -164.4894      -153.0528      -134.1280
      -107.9977      -59.93488      -44.79980      -102.5887      -150.4076
      -97.47781      -61.63849      -102.2866      -109.6913      -158.9105
      -132.6950      -84.11237      -152.6890      -231.2498      -189.8124
      -88.80121      -124.5106      -199.1594      -155.9308      -81.86530
      -77.12994      -120.2471      -105.0416      -122.8459      -181.0401
      -164.3399      -169.6268      -187.0353      -150.6309      -202.5801
      -203.7989      -109.1441      -123.3677      -183.7497      -123.8232
      -108.0374      -164.0231      -147.4411      -112.4914      -114.9156
      -95.54391      -92.47662      -114.4077      -116.0573      -87.93771
      -100.6651      -90.82362      -60.20486      -111.6136      -191.4694
      -155.3922      -55.89430      -21.53113      -80.31244      -80.17773
      -25.49515      -21.21944       11.70816       12.69128      -129.0051
      -143.5038      -13.17246       42.98883      -4.756729      -42.72537
      -50.40643      -80.23523      -47.37222      -19.92848      -72.06496
      -35.44101       33.47929      -14.97556      -20.36310       44.49924
       49.31449       21.45700       28.19777       78.56648       32.66583
      -5.830017       112.7202       99.66405      -19.17790       35.54288
       58.94238       102.8649       150.6588       37.29929       51.31409
       123.5024       114.9607       182.9540       153.5665       109.2535
       136.8669       106.9446       94.68433       145.8229       144.7639
       172.3182       209.8518       147.6041       149.2495       216.4373
       165.5574       145.8385       189.3854       224.4064       209.8282
       170.0310       148.8886       148.2878       166.9434       218.5334
       191.5178       139.9254       129.1303       166.7010       159.6469
       176.7115       162.2773       73.71335       75.36353       118.2734
       136.0629       138.8104       78.45630       71.51361       101.4222
       140.4332       142.1374       119.8948       73.37671       36.74567
       76.28757       80.75134       32.79654       77.68219       76.02773
       52.59326       127.6603       108.9659       33.79910       104.8029
       126.2841       23.65347       6.776794       95.98706       113.4048
       105.6043       114.7727       87.17874       70.95309       84.42941
       64.59686       114.9901       109.4195       6.842834       6.315094
       66.94156       110.3710       117.0234       105.8325       129.6229
       76.10648       38.81201       98.96426       95.70456       57.53311
       89.92108       91.32678       115.9637       146.3129       48.93558
      0.1605835       98.34726       112.6432       106.4183       60.02548
      -4.739502       52.65005       122.2602       101.1540       73.63330
       59.77115       81.89352       76.08957       63.64912       89.05807
       39.09876      -15.73315       82.60144       129.5127       80.02205
       43.41999       12.00975      -1.359255       2.116226       14.46786
       51.58982       4.356644      -38.59084      -4.413042       17.26375
      -24.72002      -49.38730       28.15852       58.69815      -19.40951
      -28.24098       30.18317       16.52284      -11.14682       68.62299
       69.70349      -6.572327       53.12888       85.11400       3.959232
      -29.45894       51.72333       110.3770       99.78766       40.24403
      -2.490356       88.33130       133.7522       81.72885       82.46362
       107.0009       99.36169       99.75470       128.6665       193.6979
       195.3112       189.1210       213.0146       175.5708       132.8195
       138.6422       153.9726       169.1851       168.6314       207.2734
       228.6832       208.0286       208.3768       215.2122       234.3643
       235.2222       228.9402       334.9472       301.3805       191.9927
       239.7361       277.7590       253.0750       244.7266       249.7617
       281.0828       274.5634       256.9827       229.6700       199.3457
       198.1609       208.7120       211.8656       208.4792       174.1100
       138.6651       125.4470       130.8777       129.9584       148.2977
       149.9225       134.2773       98.52039       34.10773       45.15424
       78.67735       62.37290       16.72236      -24.58648      -4.122940
      -33.79910      -33.48186       36.62733      -3.494995      -126.8728
      -144.0531      -46.97757      -35.25372      -139.0518      -131.0415
      -117.8470      -162.8991      -118.5854      -110.3403      -135.0729
      -113.7650      -152.2389      -175.4950      -221.3716      -265.2280
      -195.0271      -226.4855      -334.9234      -305.3866      -280.2837
      -293.4349      -318.5573      -308.2650      -304.8221      -393.0154
      -383.0762      -288.6619      -346.6794      -424.1704      -440.0375
      -464.1951      -468.2804      -477.7845      -484.1177      -530.0608
      -552.6653      -494.8046      -521.5342      -586.8046      -637.2983
      -580.1118      -533.5999      -502.7400      -455.7915      -546.2192
      -633.1641      -580.3549      -516.9846      -500.5094      -555.5846
      -612.1763      -580.4323      -562.6228      -613.7493      -644.0332
      -685.8214      -627.9928      -518.2233      -532.4954      -628.9041
      -707.0024      -719.6575      -660.2286      -587.7458      -569.5275
      -635.4211      -620.0203      -530.0172      -495.2144      -589.3937
      -651.2006      -539.6384      -509.5762      -630.4106      -590.7271
      -462.5815      -424.0139      -450.2745      -482.3730      -515.6989
      -487.3656      -484.9923      -500.1326      -486.3269      -402.1388
      -315.0308      -365.9666      -392.0789      -352.5241      -335.9091
      -219.2919      -199.4053      -294.2043      -292.7794      -210.3174
      -224.6718      -167.7314      -63.90091      -102.4885      -174.5154
      -81.25407       27.30830      -18.45788      -38.98885      -2.889076
     -0.8140564       69.71698       130.4098       155.0885       162.7375
       157.0281       160.7649       217.8921       236.2841       256.3556
       280.6681       271.7701       305.8657       364.3058       421.6307
       427.7678       380.7299       395.4890       490.8241       554.4928
       499.3530       512.9644       553.8716       581.0105       606.4034
       602.3571       610.4202       613.6543       637.2045       615.2693
       598.3264       693.7832       701.9060       714.1394       805.6614
       800.2139       721.9243       719.3569       804.7126       840.9194
       795.4583       810.2361       881.0305       848.9304       775.8230
       792.5103       851.5310       911.5071       855.4084       807.1316
       805.5747       768.5007       822.7583       871.4150       785.3354
       737.9822       753.0181       772.9221       757.0771       715.9829
       697.0298       727.4451       736.8534       639.9966       603.4619
       708.0598       635.3998       526.7621       586.7985       608.3953
       545.6240       508.1323       428.7021       375.8208       402.4197
       416.5712       361.0493       323.4174       344.3422       336.2399
       251.5748       270.6841       325.3642       285.7275       163.1668
       141.5494       158.6481       115.4886       77.48521       52.69987
       22.13295       51.43119       44.18439       8.372055      -42.15927
      -106.0890      -113.1151      -146.0341      -149.4943      -118.1993
      -211.4462      -213.1401      -123.2183      -200.3776      -317.2389
      -269.0604      -286.0671      -344.5918      -376.6501      -423.2799
      -327.2878      -276.8267      -357.2145      -337.0376      -356.5270
      -396.9653      -385.7505      -411.3284      -452.7732      -497.7185
      -569.7085      -684.3206      -760.4529      -597.0575      -445.6191
      -604.5885      -643.3690      -270.3148      -85.61230      -244.3199
      -310.8564      -350.6724      -699.8037      -990.6510      -639.0894
      -263.6499      -720.0273      -1239.912      -912.2408      -127.6907
       150.5239      -90.16864      -246.8717      -490.4500      -886.1133
      -1203.298      -1645.352      -1852.884      -1353.213      -551.6470
      -168.8450      -297.6128      -563.5945      -608.6710      -514.7483
      -650.9521      -789.9343      -359.8902       245.7246       295.9832
      -408.5635      -1449.150      -1469.873      -326.9991       77.77490
      0.2147217       587.7565       165.8086      -1830.450      -2362.693
      -673.0139       145.6133      -181.2689      -184.8015      -489.5840
      -536.0645      -192.3459      -772.8828      -1635.366      -1149.810
      -62.35271      -17.81894      -177.8307       103.9845       213.6737
       216.2473      -6.771240      -457.9900      -652.9283      -570.9030
      -198.1104       175.9730       255.8740       532.6951       345.8159
      -92.35669      -301.2715      -927.8606      -969.3821       403.7322
       1158.025       244.7055      -114.6328       674.0217       760.0540
       234.9253      -439.9595      -785.4397       26.21753       1072.527
       1176.045       80.76904      -694.5658       120.6184       1027.518
       767.2987       97.38998      -164.7621       100.2671       905.3826
       1003.004       459.6349       495.2856       481.9412       622.0325
       786.2666       403.4426       497.9473       1133.518       1123.249
       427.0033       373.0378       821.6616       1093.501       1022.348
       772.1504       865.1499       1253.697       1141.834       483.8823
       557.9263       1077.612       977.0605       1268.953       1809.554
       1381.633       747.9475       403.6953       539.5718       977.4470
       926.3518       823.1335       916.7712       931.9546       884.9087
       1072.243       1407.180       1427.706       1259.012       965.4194
       756.3213       799.5803       680.1663       685.3140       911.1768
       626.3870       572.6213       1023.641       1060.940       1084.898
       1241.029       902.9896       519.7441       621.1442       615.4768
       507.9426       505.4253       500.0454       682.4021       866.1384
       585.6461       198.8416       396.4600       539.7197       420.7229
       711.5015       942.8152       834.9945       585.3086       92.69946
      -128.1069       114.7643       172.3642       251.0009       171.9626
       118.2360       380.3473       64.49310      -209.6370      -30.06311
      -207.0572      -150.8843       186.6949      -107.8860      -475.0041
      -52.13556       137.2093      -59.21274      -76.52911      -212.9436
      -196.1298      -326.8215      -429.5541      -204.2608      -200.6145
      -388.3121      -633.4202      -738.3972      -975.1780      -1010.123
      -632.2506      -613.9438      -632.7595      -539.7393      -789.3203
      -1085.711      -1018.576      -687.7234      -643.2092      -932.9065
      -1147.524      -952.9155      -747.7502      -1084.579      -1457.416
      -1040.913      -766.0562      -1286.143      -1389.260      -1121.115
      -1289.319      -1302.652      -1155.946      -1213.053      -1236.880
      -1319.337      -1406.461      -1369.625      -921.3162      -635.2085
      -1302.967      -1480.186      -996.4185      -1121.358      -1143.302
      -995.2832      -1268.491      -1607.793      -1573.733      -1138.222
      -982.9937      -1079.861      -1104.030      -1222.625      -1214.041
      -931.2441      -564.4043      -604.4258      -974.8994      -1153.724
      -1196.138      -1032.270      -1017.378      -1286.548      -1138.839
      -918.6851      -1104.770      -1149.885      -845.4902      -813.7014
      -937.8833      -862.4304      -668.7683      -596.3516      -726.8318
      -789.8455      -722.7952      -616.0264      -831.0999      -1019.517
      -848.5039      -609.1884      -280.3878      -251.0308      -411.6682
      -220.6000      -84.70508      -203.0980      -409.4929      -412.1121
      -419.8448      -525.7694      -320.8303      -247.8995      -503.6364
      -368.6081       9.834717      -126.8303      -229.2303      -45.75696
      -191.6004      -145.9434       182.6636       102.0281       116.5236
       318.3815       181.3744       114.6270       289.4656       419.3730
       357.8792       342.4629       459.0356       401.3602       377.8560
       500.3425       628.2876       642.4717       466.0004       494.1096
       648.2582       571.6631       517.6382       678.2014       701.0146
       520.6885       715.6948       902.9062       859.5901       934.3872
       807.0625       704.9521       779.2214       747.5225       772.8276
       832.6123       764.0916       762.3279       830.6707       847.5430
       958.9878       1030.957       1111.810       1191.750       1130.298
       1267.073       1368.885       1163.765       1112.851       1111.713
       1086.155       1223.571       1268.007       1278.619       1153.928
       941.5005       990.1519       1111.180       1106.697       1018.108
       993.9702       1147.087       1303.314       1249.781       1110.358
       1048.501       996.2480       1033.393       1115.407       1099.734
       1059.390       1058.890       966.1335       824.6235       886.4541
       1133.108       1149.875       845.7095       753.2236       1019.489
       1060.985       895.2974       1036.485       1276.094       1122.312
       778.4595       908.3413       1219.554       1056.231       780.0608
       810.0723       884.8716       852.6353       776.2749       781.0750
       820.4907       671.7415       547.4226       630.2280       735.1523
       621.0892       577.2705       700.2944       661.6539       558.6096
       326.4996       149.6633       516.1046       723.5045       411.4761
       390.5653       624.3372       609.6212       462.1626       401.7316
       283.6124       144.1674       151.3162       171.7938       186.1502
