     0.02500000      -1906.749       1139.825      -12345.00      -12345.00
      -30.00005       215.6249      -17.20000      -12345.00      -12345.00
       0.000000       13.30000      -12345.00      -12345.00      -12345.00
      -12345.00      -12345.00      -12345.00      -12345.00      -12345.00
      -12345.00      -12345.00      -12345.00      -12345.00      -12345.00
      -12345.00      -12345.00      -12345.00      -12345.00      -12345.00
      -12345.00      -30.94920      -69.08270       3184.000       0.000000
      -31.06700      -68.46300       0.000000       100400.0       0.000000
      -12345.00      -12345.00      -12345.00      -12345.00      -12345.00
      -12345.00      -12345.00      -12345.00      -12345.00      -12345.00
       60.60364       282.2862       102.6039      0.5448915      -12345.00
      -12345.00       1.866965       0.000000       90.00000      -12345.00
      -12345.00      -12345.00      -12345.00      -12345.00      -12345.00
      -12345.00      -12345.00      -12345.00      -12345.00      -12345.00
      2008       164        19         3        55
         0         6    -12345    -12345      9826
    -12345    -12345    -12345    -12345    -12345
         1         7        13    -12345    -12345
    -12345    -12345    -12345    -12345    -12345
    -12345    -12345    -12345    -12345    -12345
    -12345    -12345    -12345    -12345    -12345
         1         1         1         1         1
DOCA    -12345          
        -12345  -12345  
-12345  -12345  -12345  
-12345  -12345  -12345  
-12345  -12345  -12345  
-12345  -12345  -12345  
-12345  -12345  BHN     
ZL      -12345  -12345  
[...]
      -773.3779      -776.0229      -778.1772      -775.0215      -778.6606
      -756.0886      -764.4487      -798.3997      -777.0356      -767.6748
      -772.9890      -767.0476      -756.2866      -757.4448      -767.3630
      -760.9880      -763.0190      -754.6006      -740.5132      -750.2744
      -745.9077      -729.5171      -731.9939      -743.2178      -737.5464
      -720.7686      -723.8652      -721.8064      -722.1260      -725.0222
      -711.8767      -713.8779      -728.2866      -714.1521      -701.7622
      -715.4167      -715.2183      -705.9929      -708.8052      -719.3696
      -711.7163      -715.1091      -722.9351      -713.1836      -699.1863
      -697.3120      -696.3643      -686.7402      -682.9907      -684.5411
      -679.0554      -675.2385      -668.9419      -659.2295      -654.3617
      -647.0166      -632.6718      -611.5569      -587.1125      -601.2542
      -623.2583      -607.5918      -587.9080      -576.8882      -552.1760
      -541.2002      -537.4816      -520.2362      -509.9242      -500.6587
      -475.3663      -465.6110      -460.7114      -449.7316      -433.1240
      -415.1484      -410.8652      -387.1228      -358.0229      -347.3811
      -320.2057      -300.6017      -297.3524      -251.0302      -226.6837
      -240.6452      -204.6689      -171.0912      -172.2460      -146.4661
      -124.1849      -120.4361      -91.53432      -59.22162      -42.52065
      -20.74872       4.079086       22.65242       40.56502       68.13431
       92.20163       97.30106       123.5241       151.9730       161.9480
       180.9457       214.7849       224.6261       239.9509       263.6122
       284.5786       297.9551       322.5333       346.6416       354.2670
       362.6614       399.0293       411.5801       417.7039       452.7476
       482.7914       488.4629       508.8861       524.1161       533.2411
       558.6816       585.9574       584.6382       603.1130       620.2188
       632.9979       646.6841       662.0112       670.8933       696.2490
       706.7124       703.5293       704.3901       729.7715       734.2266
       737.8608       750.9241       758.4692       752.5566       758.4399
       758.1746       766.6917       762.5215       773.4639       775.3979
       771.6917       775.8552       772.3867       760.2537       774.4072
       777.7124       774.1470       766.1213       767.3472       764.4004
       762.6523       754.5781       757.7031       752.9863       747.7727
       740.6045       734.1765       727.2151       725.1560       708.7373
       698.6472       695.3281       691.2930       675.0394       666.5677
       658.4294       648.4532       642.1746       636.7112       615.4622
       607.7576       594.6328       588.1785       585.3197       569.9133
       543.4731       542.4792       533.5580       520.0619       516.4767
       508.1985       475.6868       468.4904       476.8710       457.0347
       427.4725       422.4421       406.1007       396.2458       391.7515
       381.7013       343.9230       335.5483       333.3617       318.8385
       293.8240       275.5514       250.7087       242.6181       234.9126
       210.6301       192.0262       183.3357       153.2277       140.1536
       118.1283       103.8703       87.60040       67.30000       48.61233
       27.15995      -1.447475      -4.775230      -23.93295      -45.72491
      -65.36514      -86.83774      -101.3998      -113.7288      -140.7792
      -156.5674      -179.4472      -192.4997      -204.1412      -223.5442
      -248.3616      -257.5865      -275.2958      -301.1577      -319.4230
      -319.0551      -332.0387      -361.8173      -387.3235      -391.1135
      -400.5383      -409.8828      -429.7208      -452.8130      -466.3462
      -471.8052      -485.4719      -491.4983      -505.7712      -522.6448
      -535.9937      -530.7976      -529.9248      -551.6790      -564.2759
      -553.4443      -570.3661      -578.5969      -587.7444      -595.1572
      -590.6947      -578.2261      -589.8892      -601.9873      -602.5435
      -595.3352      -596.0195      -589.5396      -599.3737      -596.8787
      -593.4166      -590.7438      -597.4705      -587.4014      -576.9006
      -569.1406      -574.1531      -558.4143      -557.4858      -552.6892
      -541.0984      -525.5579      -539.3704      -522.4219      -508.3083
      -500.8147      -485.8533      -476.6053      -482.3489      -466.1057
      -472.6562      -500.0354      -516.1095      -457.0386      -409.3925
      -390.2720      -391.0933      -441.8545      -462.4550      -363.2865
      -251.8263      -261.2755      -199.6079      -336.0522      -979.2242
      -584.0256       315.7972      -196.1255      -670.7452      -242.4628
      -203.9266      -311.0072      -256.2079      -296.9037      -212.2563
      -528.4951      -871.0011      -169.3782       261.5046      -343.9025
      -689.0817      -338.8807      -78.18323      -133.9696      -165.0337
      -42.00494      -84.89075      -295.2336      -306.8882      -105.3146
      -126.7375      -191.3201      -214.4200      -278.6682      -260.8668
      -220.0280       155.8221       187.8845      -451.3035      -325.7227
      -8.227875      -60.21532       69.93262      -171.7692      -371.3872
       40.22330       252.9311      -21.33151      -175.7809       80.54657
      -83.26520      -383.2280      -206.9672       197.9208       483.0728
       123.2354      -319.6831      -101.5991       86.95182       8.683838
      -2.688812       109.0411       188.7983       170.1415       2.286163
       41.13474       172.1683       58.65921       105.0779       298.9736
       305.4699       320.8600       275.1872       31.39720      -38.18872
       271.6138       295.2925       112.0177       169.6216       304.9003
       408.9683       380.2998       305.5737       416.9781       424.1790
       444.9050       449.4092       328.0392       331.9557       326.8252
       369.2700       497.1884       490.1365       597.1821       619.1144
       308.4082       209.3129       411.6533       477.6470       515.8461
       583.4836       573.3433       452.4788       402.2837       473.0881
       541.3608       565.1375       397.8691       270.9783       510.9446
       648.4875       474.1052       515.1548       536.8552       440.6896
       514.9937       468.1465       516.8655       551.5426       432.5854
       418.1071       363.2233       365.4331       477.5867       414.7322
       434.6476       519.1737       352.2576       401.7992       657.2169
       574.8077       433.9977       390.5403       390.4895       431.4424
       496.5278       516.6091       455.5959       418.9187       460.9229
       523.1108       466.5518       359.6702       385.8049       433.6707
       413.9839       449.4633       550.7518       407.7407       249.8244
       306.8949       320.2729       364.1201       384.7250       313.4293
       298.8699       210.2430       251.0149       365.6737       396.8685
       315.3579       203.8121       285.1272       390.3220       245.3146
       180.3616       264.2203       190.3914       133.9376       222.2388
       205.7008       267.3838       173.6114       15.66129       100.6337
       219.0139       133.9835       49.48880       92.42303       67.98975
       197.7978       281.4176      -14.09964      -40.01588       92.47871
      -4.342056      -62.79391       35.74584       48.95409      -15.01255
      -18.08749      -22.75514      -51.61005      -3.759613      -67.30722
      -124.0598      -118.3152      -171.4626      -176.0996      -144.2752
      -120.9747      -87.29733      -149.9153      -176.6628      -179.7615
      -256.9204      -261.2442      -177.5004      -172.3831      -196.5613
      -294.0186      -314.7765      -308.4507      -374.5449      -301.3416
      -190.2563      -330.1862      -446.8748      -387.9601      -282.8499
      -319.3875      -364.3933      -303.0645      -314.1897      -411.0852
      -380.4237      -301.6725      -305.7741      -324.7993      -355.9569
      -433.9683      -351.8955      -314.5426      -419.5446      -482.0120
      -357.1562      -241.6348      -273.5839      -306.9747      -307.8062
      -351.1913      -373.0464      -365.5454      -336.3838      -340.0070
      -227.5648      -217.3980      -295.4065      -201.8415      -173.4550
      -229.7509      -263.1613      -299.9630      -269.5135      -238.3638
      -278.2738      -346.8898      -297.9039      -200.3692      -139.3078
      -218.8992      -279.1389      -234.6980      -284.2488      -323.3530
      -189.2883      -199.2549      -301.7966      -222.6414      -189.3160
      -271.9492      -271.6914      -317.6571      -328.6857      -208.3611
      -294.7877      -404.0214      -185.2739      -133.9351      -286.2628
      -358.3545      -292.2899      -246.4139      -251.6392      -215.5601
      -331.2913      -400.7327      -201.2913      -169.0125      -286.9154
      -338.8185      -349.9049      -270.1603      -188.3152      -240.1256
      -338.1750      -300.8502      -206.5649      -260.1527      -219.5884
      -157.1371      -253.8183      -345.4200      -312.5438      -198.9055
      -164.3383      -214.9553      -217.4329      -233.3691      -288.7825
      -252.0857      -197.2281      -183.4311      -148.3739      -213.7717
      -210.5359      -140.5791      -186.5984      -265.1572      -238.3816
      -221.0566      -179.1835      -106.6064      -131.5620      -178.4813
      -221.2831      -175.2195      -132.8511      -160.3211      -132.7747
      -145.3579      -179.5963      -101.5696      -4.852509      -68.53186
      -101.0188      -99.56500      -92.79968      -63.56845      -71.36488
      -3.808556       35.73273      -56.55115      -108.5604      -106.6456
      -83.96889       3.993896       101.5840       94.46323       46.36870
       63.77307      -19.48160      -65.20776       45.56854       100.2435
       187.5779       200.4035       84.44315       63.94130       54.75678
       14.63705       53.50848       93.85141       86.18387       109.0580
       145.6713       125.5012       120.3813       119.4200       152.1777
       207.9977       184.9940       145.2905       144.3314       163.7919
       198.8317       199.7965       180.7101       186.8042       261.0291
       295.6662       175.2819       173.8607       263.4053       242.6458
       239.5295       230.3728       204.0610       245.3102       288.4601
       215.6622       165.2753       215.8955       278.1281       316.5515
       317.4141       252.3243       226.4527       212.0390       170.6691
       267.7624       263.9330       248.8508       238.3417       178.0524
       291.8028       343.9445       207.6821       119.8356       233.2125
       314.2617       223.2331       173.6600       187.5546       214.3691
       212.6879       248.7914       239.7820       109.0257       70.47137
       140.1973       162.7939       271.5416       293.0508       89.70856
       87.18726       224.4308       183.4725       165.1670       150.0352
       47.73724       139.1619       229.7065       103.9498       102.3159
       196.1041       231.8865       170.1997       54.99939       140.0514
       273.7802       184.9146       89.36444       147.8853       183.4556
       140.1223       214.5254       280.0991       200.0253       154.8433
       129.7483       152.8748       284.8897       292.5125       126.2513
       81.77686       215.5268       286.5944       289.5079       301.7558
       269.0676       181.0748       161.6862       226.3569       213.8239
       226.1727       335.1488       327.1966       223.5387       223.5068
       311.0299       258.2386       200.6812       286.5169       348.6583
       318.5057       181.2700       177.0363       334.6567       300.4746
       221.5115       179.4348       193.5051       326.8666       328.0066
       225.0896       243.3289       293.0562       213.8844       154.9243
       273.3624       246.9908       108.0725       149.4841       296.8120
       278.8936       136.3925       44.82175       35.98157       190.1912
       392.7346       282.0468       52.25299       72.77267       28.63251
      -122.6422      -1.084106       84.37604       118.9823       157.6726
      -85.89441      -389.6610      -330.0662      -156.1677      -80.55453
       34.79626       65.84760      -72.26576      -54.87427      -98.86902
      -332.2588      -467.0759      -431.5942      -148.0186       380.9017
       549.3914       511.2783       718.8007       530.0216      -176.5347
      -873.4613      -1019.301       11.15820       676.4526      -536.2412
      -1906.749      -1423.921       137.5500       1068.225       783.2739
      -324.4683      -1445.420      -1606.670      -882.2928      -260.1050
       44.67651       48.78275       77.77930       59.69800      -595.7466
      -998.6602      -702.8190      -465.8052      -468.6125      -473.6398
      -593.6091      -607.3808      -319.2427      -220.8286      -616.0725
      -931.8774      -314.1936       133.0782      -462.6624      -804.8284
      -802.3428      -705.8939      -290.8749      -459.5359      -1080.001
      -873.6399      -156.4633       277.4250      -226.6858      -1213.893
      -1070.376      -493.6282      -442.3330      -427.7153      -523.2666
      -537.5593      -435.6794      -681.5540      -822.4531      -869.7598
      -1414.013      -1132.708      -457.6396      -830.6509      -1050.945
      -746.3813      -422.9302      -51.71729      -205.6235      -831.9619
      -873.2220      -377.3932      -382.7664      -833.6794      -915.5804
      -545.8240      -344.5454      -348.7834      -353.3575      -559.4531
      -760.8501      -512.2305      -149.5892      -102.5686      -159.5806
      -92.57959      -247.2808      -581.5708      -554.7598      -235.5456
      -87.64111      -353.7449      -607.8881      -414.2011      -302.2133
      -338.1983      -123.2363       98.00383       1.360733      -38.61453
       194.6800       14.40796      -398.3942      -281.1726      -96.08533
       99.18799       359.4845       143.4268      -204.4834      -234.3145
      -182.5655       101.5029       749.1116       1000.069       540.0652
       76.84033       138.9032       371.3131       265.1563       102.0684
       428.0369       671.1391       295.3594       252.5593       499.8091
       347.9219       494.7675       747.7635       363.7380       198.6376
       579.0620       487.3977       318.0608       666.4800       818.1519
       735.2291       571.4139       357.3790       470.8469       605.6270
       676.4492       908.6965       968.6863       830.4670       794.8706
       574.7894       366.3171       760.7800       998.0103       714.0515
       648.2615       724.7648       635.1392       750.7798       983.0146
       850.6093       617.8186       774.9492       829.8477       596.7974
       777.0938       995.0254       784.6730       653.6506       729.3853
       859.4519       928.6147       955.0347       995.4568       935.2090
       793.0977       804.0056       867.4248       888.1335       1102.136
       1120.398       841.5264       818.1177       963.9297       819.5861
       585.4558       680.5938       831.1470       567.3362       439.2798
       769.5234       968.6868       814.9084       633.4977       594.3799
       464.2974       347.0503       563.3240       626.6238       548.9707
       552.7705       418.8179       344.0876       527.4795       594.5275
       346.4956       191.9963       222.2051       222.9979       369.6034
       524.2036       465.6218       288.3019       84.11639       93.44507
       305.9092       290.8970       87.25696       81.91951       99.06557
       21.90965       57.96783       28.48356      -6.202316       84.88743
     -0.7777252      -106.3848      -3.772247      -71.51160      -105.6676
       15.14264       23.15741      -157.4012      -267.2582      -97.42926
      -159.1782      -225.7682      -119.3764      -297.5707      -347.2270
      -269.0869      -261.7363      -270.7778      -356.0414      -302.7335
      -290.8497      -381.1290      -300.8859      -338.7236      -438.3148
      -350.1014      -283.1666      -259.9921      -298.8918      -408.8391
      -410.1213      -436.6041      -563.3123      -525.1194      -550.1964
      -659.7739      -471.5917      -324.9858      -443.3875      -568.3254
      -623.2964      -503.8820      -303.4099      -332.5879      -556.7588
      -626.4194      -553.1788      -581.9719      -541.2970      -448.4980
      -583.1576      -572.9791      -325.8389      -355.9983      -644.5562
      -770.4812      -599.8052      -506.0845      -539.8110      -391.8176
      -345.8552      -541.9330      -580.8856      -472.3944      -390.4138
      -417.2589      -555.4751      -708.3024      -696.6099      -417.6796
      -332.0702      -569.3893      -522.2101      -382.5681      -531.5466
      -579.4803      -487.4285      -541.9227      -586.6790      -549.7174
      -504.1130      -457.6578      -445.0552      -445.5698      -477.5144
      -596.0345      -442.6668      -208.7439      -414.8812      -611.7450
      -458.0165      -261.3445      -182.2352      -186.0598      -288.3412
      -457.7299      -460.6055      -272.2502      -279.7478      -478.7731
      -424.1528      -405.5344      -451.9250      -336.7505      -435.6301
      -439.9484      -258.3109      -313.7001      -300.6057      -338.2615
      -386.4476      -284.6686      -329.7312      -268.2203      -101.7019
      -202.3689      -392.3179      -404.9952      -222.9819      -273.5806
      -509.6221      -317.2708      -107.6060      -214.4042      -136.4548
      -43.46198      -167.8668      -248.8410      -151.4756      -32.68350
      -86.89087      -190.1976      -265.1633      -207.1150      -92.69104
      -56.45892      -64.51929      -175.0918      -187.7752      -51.36011
      -16.95667      -144.9224      -225.2563      -145.8092      -141.8776
      -136.8337      -44.02649      -128.8489      -197.5855      -85.73152
      -55.95222      -32.04897       19.74487      -33.98592      -31.32965
