     0.02500000      -2358.723       1678.371      -12345.00      -12345.00
      -30.00005       215.6249      -17.20000      -12345.00      -12345.00
       0.000000       13.30000      -12345.00      -12345.00      -12345.00
      -12345.00      -12345.00      -12345.00      -12345.00      -12345.00
      -12345.00      -12345.00      -12345.00      -12345.00      -12345.00
      -12345.00      -12345.00      -12345.00      -12345.00      -12345.00
      -12345.00      -30.94920      -69.08270       3184.000       0.000000
      -31.06700      -68.46300       0.000000       100400.0       0.000000
      -12345.00      -12345.00      -12345.00      -12345.00      -12345.00
      -12345.00      -12345.00      -12345.00      -12345.00      -12345.00
       60.60364       282.2862       102.6039      0.5448915      -12345.00
      -12345.00     0.08454829       0.000000       0.000000      -12345.00
      -12345.00      -12345.00      -12345.00      -12345.00      -12345.00
      -12345.00      -12345.00      -12345.00      -12345.00      -12345.00
      2008       164        19         3        55
         0         6    -12345    -12345      9826
    -12345    -12345    -12345    -12345    -12345
         1         7        13    -12345    -12345
    -12345    -12345    -12345    -12345    -12345
    -12345    -12345    -12345    -12345    -12345
    -12345    -12345    -12345    -12345    -12345
         1         1         1         1         1
DOCA    -12345          
        -12345  -12345  
-12345  -12345  -12345  
-12345  -12345  -12345  
-12345  -12345  -12345  
-12345  -12345  -12345  
-12345  -12345  BHZ     
ZL      -12345  -12345  
[...]
       721.5688       707.2334       689.0134       666.9417       644.6963
       634.6221       618.8391       590.0415       573.0486       552.2968
       533.5148       509.5071       492.3452       463.4807       436.5967
       412.9695       391.5005       364.8755       343.4238       314.1528
       290.0581       261.8198       237.0851       210.4368       185.3416
       157.2840       135.4434       101.6105       72.70047       39.76001
       21.20634      -4.585388      -38.78630      -63.13757      -80.25281
      -111.5536      -129.7342      -156.1312      -183.6450      -208.0428
      -234.3374      -265.3094      -289.6766      -313.8962      -338.5950
      -364.0884      -388.4380      -419.3940      -443.6125      -466.6731
      -485.6194      -514.5159      -534.6179      -557.2273      -578.8589
      -602.1675      -624.5159      -644.7668      -660.8149      -682.1189
      -701.5811      -713.8042      -727.5059      -751.1284      -767.0073
      -779.6001      -783.5916      -794.3242      -815.0601      -815.3936
      -823.5269      -839.5847      -841.1919      -843.0408      -850.5286
      -859.0356      -859.3171      -866.2544      -871.8682      -874.9189
      -873.6707      -879.0718      -880.3047      -875.4736      -870.3809
      -866.5332      -864.0925      -862.3684      -852.4709      -842.7429
      -837.6753      -832.5164      -830.0198      -812.1333      -797.2402
      -799.8892      -782.2563      -767.5996      -761.2407      -747.1165
      -734.9495      -722.9294      -705.4355      -688.6016      -669.5774
      -649.1089      -631.0933      -619.1057      -602.7212      -591.1230
      -568.2388      -549.7452      -529.2632      -508.1902      -492.9983
      -482.2039      -462.2705      -440.5413      -415.3282      -397.1625
      -374.3890      -358.2780      -333.6279      -329.0951      -303.0543
      -274.4438      -258.5022      -239.8839      -214.7046      -200.5440
      -176.2025      -149.5741      -123.7155      -99.92487      -84.50485
      -77.54320      -48.30892      -36.96127      -22.10784      0.1131363
       22.39996       27.19954       42.58301       61.56537       67.25751
       69.30002       84.39285       100.0351       116.2854       117.3137
       124.2486       124.2379       127.4352       135.2629       135.8957
       134.0724       145.0971       135.1358       144.5674       163.9092
       159.3995       142.3074       155.5761       157.8673       161.5256
       161.1147       165.7945       158.5102       156.0152       168.3062
       172.7599       166.7601       176.5084       177.7349       186.5548
       181.8802       182.4523       192.1688       193.3281       198.7887
       217.2855       219.5439       228.0419       231.1572       242.0983
       255.0450       258.3004       259.8138       270.3281       272.6828
       282.5767       294.4152       302.1394       319.5621       330.9451
       333.8193       342.7024       351.0515       360.6022       366.5071
       373.1948       384.3940       394.8864       408.6655       415.8005
       430.4943       438.9688       445.0695       464.4969       469.3656
       461.8788       467.7838       482.3324       484.6996       489.8613
       503.9844       499.4021       494.3365       495.3359       503.7317
       505.0374       500.7334       509.7285       520.9578       519.8778
       503.8096       513.3051       515.2933       506.8243       508.5670
       502.3719       495.4008       497.6748       485.2123       482.0052
       473.6228       463.7959       452.4817       446.2603       441.8551
       438.7377       423.4521       419.7516       414.2671       405.5331
       374.6119       365.2373       369.3975       361.3027       343.7733
       343.5933       342.3851       338.4646       321.5157       316.1285
       306.3840       294.9783       279.0214       277.3092       263.5851
       256.6289       245.4902       232.3448       223.4330       224.0656
       205.4041       201.1707       195.9101       186.8712       174.5754
       169.7912       156.8384       157.9352       149.7617       137.6111
       129.0453       130.2652       123.0848       127.5204       118.3922
       104.1765       100.7611       112.1139       105.2117       108.3614
       111.6960       118.0380       108.2574       102.3430       97.88324
       96.12500       93.01685       93.29959       91.74484       94.23053
       89.45963       91.74292       85.50607       76.66054       76.15901
       78.78328       70.46117       72.87805       63.32227       51.65854
       48.05609       46.40558       35.51096       30.05171       4.693443
       1.701042       7.035271      -2.430092      -20.74226      -23.89452
      -30.02350      -42.35039      -54.71738      -55.96945      -76.45822
      -88.34595      -97.98398      -105.9063      -124.3673      -138.1477
      -159.5052      -164.1164      -174.3217      -190.4779      -205.4665
      -213.1312      -232.5714      -248.0455      -265.2048      -276.8297
      -309.6530      -319.2369      -328.4154      -351.9326      -371.2542
      -383.4391      -393.2001      -408.9441      -430.5181      -438.2444
      -459.7928      -477.5288      -493.8827      -511.2183      -528.8807
      -542.6904      -562.6000      -573.8792      -588.6097      -601.1555
      -622.2316      -632.2939      -643.6523      -663.0493      -673.7509
      -678.6111      -693.5596      -691.9170      -714.4932      -721.8240
      -722.5862      -727.2976      -720.4946      -738.4182      -750.9766
      -739.2595      -751.1196      -750.1616      -743.5493      -741.7073
      -743.7268      -731.9851      -731.6904      -730.2644      -726.2803
      -719.2227      -725.6404      -716.6697      -712.5361      -708.0811
      -702.7192      -689.1262      -687.8361      -676.1104      -666.4384
      -658.7585      -652.7034      -646.5989      -658.3716      -624.2606
      -607.2764      -614.7775      -602.2177      -573.3840      -568.5330
      -555.3407      -541.4390      -520.4469      -513.2863      -497.2355
      -489.4088      -478.0691      -470.8025      -453.7024      -440.7147
      -419.0686      -409.9821      -388.4038      -369.1573      -344.3234
      -330.6573      -316.4613      -302.9703      -273.0420      -264.2069
      -226.6239      -180.2409      -168.9931      -106.3449       4.771057
      -11.89751      -42.12485       1.505920      -13.44504       20.61584
       213.9951       232.9323       119.4514       168.1943       322.5831
       272.4119       240.5964       368.8500       363.1311       378.2135
       462.9437       445.0753       506.8185       528.3640       512.9930
       572.9436       580.9661       609.8589       642.3069       669.7151
       726.6641       696.7371       697.8201       762.9097       788.3281
       736.5752       749.1780       851.7466       855.6006       832.1226
       877.7771       866.3933       884.3416       958.6492       938.3635
       920.5540       988.4358       964.6899       958.2668       1007.765
       970.6748       979.5146       1052.182       1015.151       1008.250
       1043.915       1043.041       1029.933       1027.583       1026.110
       1053.652       1072.286       1060.950       1047.396       1042.897
       1033.347       1065.443       1061.941       1039.913       1033.862
       1062.739       1047.280       1031.548       1016.939       1024.143
       1035.083       1024.234       1004.775       1010.604       995.2756
       976.4653       947.5454       952.3442       941.0815       918.4360
       926.2515       896.3115       856.4155       885.3381       854.4890
       819.3428       789.0369       767.4841       743.7212       734.3208
       711.4471       687.4121       652.8420       630.3359       604.9279
       576.8059       554.3423       531.1340       494.9436       484.6243
       439.7856       392.1155       359.3423       330.9988       295.5553
       279.2059       232.0703       191.3815       156.0257       127.0285
       84.90688       54.82862       14.63739      -22.17992      -73.08502
      -103.6704      -127.4632      -193.7879      -256.9086      -248.8931
      -289.0215      -323.0813      -334.3553      -375.8301      -417.4255
      -441.4268      -485.5654      -519.8188      -553.9264      -597.1978
      -637.8379      -651.2241      -688.5366      -721.1501      -743.8413
      -777.4226      -798.3364      -802.6414      -838.0920      -848.9302
      -886.3259      -937.6606      -921.5220      -939.3325      -985.9980
      -954.1692      -954.2488      -978.7358      -988.3906      -972.9053
      -974.4346      -991.7832      -1002.094      -989.8413      -993.3459
      -1010.601      -1019.826      -1006.356      -1012.461      -1006.850
      -992.5168      -984.5298      -1001.024      -1000.837      -978.6877
      -960.0342      -990.8430      -986.0803      -951.8391      -963.5017
      -955.5012      -906.5664      -905.3362      -904.8870      -884.0159
      -899.1230      -907.6667      -874.7229      -860.2393      -866.3115
      -870.4683      -840.9604      -829.6167      -825.2676      -781.6489
      -764.2673      -783.3220      -756.3782      -739.6841      -744.7363
      -715.2788      -718.1013      -747.1567      -705.3170      -684.5017
      -668.8427      -630.4130      -635.4399      -624.4547      -586.7100
      -584.4515      -567.1838      -544.0715      -538.3513      -535.6570
      -518.8420      -477.8699      -442.3447      -453.9109      -450.0763
      -414.6239      -402.5536      -386.7258      -352.0514      -352.0258
      -344.2601      -312.8323      -301.0236      -299.0562      -276.7176
      -232.9556      -190.8700      -222.9224      -210.6716      -153.3331
      -158.7234      -137.9045      -87.19455      -102.6318      -82.08531
      -47.63628      -39.33576      -19.27235       12.50533       30.62504
       45.12050       37.31836       64.37360       103.1272       120.2189
       136.1863       166.2267       160.4756       163.9543       193.6293
       248.4205       243.2524       245.0924       275.6118       298.1329
       309.1687       337.9375       361.5355       383.6056       383.1958
       401.1603       424.7146       454.5464       465.1919       484.9033
       491.9985       507.5883       526.1863       536.1434       551.3369
       578.1849       576.9674       589.7991       593.3853       619.3496
       628.6364       630.9407       650.8989       658.5786       642.1576
       673.4958       685.2971       679.2129       679.4614       704.8396
       710.6655       708.0825       710.3276       722.0413       722.6370
       726.7102       712.9087       730.7734       742.9531       737.5298
       725.5388       730.7361       737.2139       746.7708       728.0881
       737.6670       731.6267       722.1023       722.6919       737.3057
       731.2537       724.8733       722.8467       738.9004       730.0647
       707.8279       702.3711       733.3250       724.3096       721.3284
       715.3220       707.8325       700.3623       696.7739       692.9658
       701.1206       685.5391       676.7129       673.1863       645.4045
       628.3901       649.1216       619.3776       610.3831       610.1733
       585.0529       564.9663       566.4207       545.8125       526.2784
       508.4948       495.6990       475.5294       464.6289       438.9543
       427.3616       407.0471       382.1729       363.9938       348.6563
       316.9834       305.9334       286.4185       256.1234       236.5173
       231.5353       208.0306       169.2124       145.3789       145.3417
       108.1690       92.83289       81.21685       42.37314       33.29931
       23.35662      -9.495758      -18.16406      -49.55606      -72.78171
      -80.90042      -109.2344      -144.3975      -157.6238      -173.5692
      -192.6004      -208.5770      -229.2770      -257.6952      -271.0887
      -298.8818      -309.1101      -332.6145      -356.4443      -362.4958
      -378.5568      -409.7549      -416.6543      -442.7061      -456.0321
      -463.8623      -489.3984      -495.0944      -504.3699      -540.1246
      -544.7065      -549.3303      -564.2725      -577.8236      -570.8607
      -573.8058      -590.4353      -600.3354      -611.8232      -626.2727
      -606.8501      -614.6261      -630.9631      -633.3368      -646.0032
      -644.9280      -624.9446      -637.9448      -654.1375      -636.3040
      -760.1157      -1230.447      -1557.701      -1241.400      -383.5881
       541.9402       621.9746      -501.5530      -1409.172      -750.4933
      -163.7129      -533.2605      -191.5015      -691.5005      -2358.723
      -1097.955       850.1339      -208.4438      -819.4834      -671.7389
      -772.6133      -37.93494      -446.6423      -781.2100      -95.05786
      -829.3944      -794.9736       329.1798      -238.3464      -1202.112
      -581.8649       113.9119      -595.3346      -656.9720       136.4301
      -29.14124      -535.5012      -528.3303      -217.0079      -287.4370
      -476.1153      -306.1148       23.06665       61.78223      -642.1218
      -792.6604       429.4326       375.1069      -813.0812      -509.4111
       266.7005       83.70630      -417.6885      -211.5901      -58.56937
      -319.6529       162.3128       321.8335      -150.1513      -121.1812
       355.5129       219.8906      -422.7567      -248.2884       243.1461
       211.5650      -5.425995      -255.3851       30.15782       127.4189
      -140.0103       252.9639       401.2178      -66.79810      -99.81958
       362.1094       406.7542      -150.2091      -199.9334       237.2696
       29.64513      -183.7722       231.6763       360.9114       169.0164
       104.6267       237.1900       81.57605      -344.7474      -62.49704
       237.7063      -9.464203       51.96054       116.7021       45.62958
       220.5292       413.3141       20.09418      -277.0422       52.39298
       12.68717      -63.67682       163.0207       33.99994       41.53442
       199.0819      -40.49001      -33.73907       108.6834       95.80912
       94.99390      -102.3395       42.52307      -18.48651      -237.3601
       71.24411       158.2306       36.78811       6.541504      -111.2998
      -160.5271       57.03012       147.9205       18.10861       120.9725
       125.1386      -98.81564      -116.9024       158.7238       285.2069
       141.0852       15.43228       16.61584       168.7504       223.3506
       171.6355       121.6157       62.85181       258.7988       433.8129
       312.1452       267.7054       361.3110       282.1794       232.5220
       240.3080       282.8695       363.3250       270.0784       130.7952
       47.01978       240.1158       506.5268       374.6841       254.9839
       395.3423       536.8885       299.2924       75.62305       377.1501
       534.9246       294.7166       144.1785       292.2511       549.3285
       368.2086       252.3158       336.1481       188.7853       197.0665
       265.5628       267.8210       439.6309       284.3011       141.1874
       495.2549       433.0326       169.4188       308.4319       312.3584
       189.5078       55.43842       171.0039       466.8035       512.1244
       234.7625       201.5466       425.0500       292.6194       55.85889
       186.2217       349.8126       202.2993       138.3678       292.3263
       256.3257       128.4792       155.3251       452.2309       367.5271
      -50.57446       126.9750       377.6491       58.77209       97.10437
       280.5105       25.04323       39.78827       123.0447       24.82660
       185.9160       211.9435       99.08748       27.94534      -2.780151
       58.96924      -37.42776      -178.6464       77.51489       251.3769
       36.65083      -96.18111       20.62885      -16.53732      -157.6353
      -102.9165       142.9748       92.62878      -246.0049      -153.2663
       158.1715      -52.84418      -279.4680      -81.04581       127.1805
       52.06702      -181.0829      -213.1117      -79.96081       12.29102
      -67.63220      -175.3072       12.16779       96.93637       64.41769
      -50.70255      -134.9905       24.14990       87.68973       84.99977
       50.09317       24.01614       159.3446      -42.99756      -142.6289
       111.5507       181.5964       125.3313       91.87688      -16.57941
       17.97833       158.0011       102.0491       198.7603       329.2896
       87.34560      -12.89172       128.4976       278.7219       284.8668
       59.43187      -30.13965       278.4793       218.5698       8.244141
       279.1481       381.7689       189.1126       124.5426       84.74713
       210.0974       205.5663       45.72754       362.9388       486.9375
      -22.91084      -70.04944       341.7758       345.0385       3.864502
       54.44250       214.0465       178.8109       244.9924       241.7859
       149.4905       75.35785      -29.58310       124.6796       139.3156
      -89.14352       3.139893       251.8843       299.2406       89.85699
      -217.5628      -54.06421       134.4299      -107.8002      -160.1731
       10.90851      -36.89111      -282.8658      -318.8410       68.02307
       32.62390      -342.5344      -344.0070      -272.1919      -200.7917
      -109.6741      -339.6649      -418.6953      -248.8689      -240.9679
      -277.3782      -401.6295      -455.2345      -186.0820      -333.1324
      -563.9263      -410.8793      -369.6981      -342.5381      -278.6376
      -383.5641      -387.6486      -344.8599      -395.1008      -375.3301
      -469.5984      -436.3250      -170.6873      -322.7117      -426.7717
      -345.2397      -445.6498      -395.7994      -294.6958      -361.8129
      -374.1379      -466.8508      -459.5954      -180.5220      -194.5908
      -449.7587      -431.6643      -426.4604      -379.7261      -209.3932
      -223.2029      -351.7852      -421.7014      -326.1099      -219.1217
      -237.0051      -368.4274      -464.6345      -212.8580      -202.9172
      -473.1384      -272.7972      -231.3916      -499.7006      -381.4052
