     0.02500000      -1694.232       1419.239      -12345.00      -12345.00
      -30.00005       215.6249      -17.20000      -12345.00      -12345.00
       0.000000       13.30000      -12345.00      -12345.00      -12345.00
      -12345.00      -12345.00      -12345.00      -12345.00      -12345.00
      -12345.00      -12345.00      -12345.00      -12345.00      -12345.00
      -12345.00      -12345.00      -12345.00      -12345.00      -12345.00
      -12345.00      -30.94920      -69.08270       3184.000       0.000000
      -31.06700      -68.46300       0.000000       100400.0       0.000000
      -12345.00      -12345.00      -12345.00      -12345.00      -12345.00
      -12345.00      -12345.00      -12345.00      -12345.00      -12345.00
       60.60364       282.2862       102.6039      0.5448915      -12345.00
      -12345.00     -0.9035111       90.00000       90.00000      -12345.00
      -12345.00      -12345.00      -12345.00      -12345.00      -12345.00
      -12345.00      -12345.00      -12345.00      -12345.00      -12345.00
      2008       164        19         3        55
         0         6    -12345    -12345      9826
    -12345    -12345    -12345    -12345    -12345
         1         7        13    -12345    -12345
    -12345    -12345    -12345    -12345    -12345
    -12345    -12345    -12345    -12345    -12345
    -12345    -12345    -12345    -12345    -12345
         1         1         1         1         1
DOCA    -12345          
        -12345  -12345  
-12345  -12345  -12345  
-12345  -12345  -12345  
-12345  -12345  -12345  
-12345  -12345  -12345  
-12345  -12345  BHE     
ZL      -12345  -12345  
[...]
       72.57196       38.85916       98.52996       29.57753      -32.05149
      -5.646410       22.82378      -21.52858      -56.60254      -100.4248
      -161.6594      -173.6584      -169.4719      -207.2558      -236.9218
      -249.7417      -278.4940      -295.6542      -303.0042      -331.8975
      -366.6094      -382.0001      -372.4847      -423.8083      -444.3068
      -440.8875      -488.9900      -530.0957      -533.0188      -556.8242
      -583.4756      -550.9834      -565.9061      -637.2402      -678.0999
      -651.8584      -605.2627      -671.1421      -709.3198      -703.2954
      -753.8972      -764.6108      -734.9800      -745.3628      -792.7668
      -798.2095      -806.6011      -866.3071      -909.4578      -903.1436
      -885.6694      -945.8643      -1007.521      -1009.350      -987.1599
      -983.2559      -1002.909      -1003.055      -999.7432      -1029.155
      -1028.122      -1017.426      -1023.170      -1014.590      -1052.454
      -1083.135      -1069.719      -1079.462      -1078.420      -1064.410
      -1054.959      -1049.433      -1069.250      -1106.281      -1073.625
      -1046.937      -1053.894      -1051.213      -1087.626      -1092.729
      -1046.969      -1034.742      -1059.520      -1053.917      -1047.972
      -1074.109      -1055.258      -1027.249      -1014.086      -998.8970
      -975.2356      -972.9849      -996.0244      -947.8105      -890.4788
      -940.8867      -978.6309      -933.8040      -916.3887      -924.2566
      -855.8503      -847.7842      -845.2961      -827.6707      -846.1777
      -813.0083      -775.6865      -765.5728      -754.4983      -716.9323
      -674.0933      -693.1902      -679.2017      -629.7024      -614.9094
      -600.0726      -565.5522      -563.8953      -544.8413      -471.1421
      -407.5636      -389.9812      -408.1323      -423.0396      -400.8185
      -375.7552      -299.7943      -219.2944      -218.5663      -232.1142
      -171.2736      -128.0349      -130.3044      -131.6630      -97.28369
      -88.58212      -57.69506       17.27681       32.92764       48.04803
       96.99060       137.6512       215.0266       248.5854       273.5276
       318.3805       348.4890       354.8452       422.8964       433.4392
       444.9523       517.4629       548.8706       538.1985       564.0383
       614.7998       639.3115       639.5046       700.5811       741.4998
       782.2056       812.1267       762.5842       763.9365       871.7549
       879.9070       874.4172       912.4326       931.8511       951.3735
       985.1702       974.3008       1000.224       1073.068       1120.320
       1108.826       1108.575       1148.636       1230.581       1205.581
       1176.882       1209.842       1235.948       1264.708       1274.074
       1248.291       1304.734       1348.587       1303.056       1275.546
       1309.097       1271.935       1240.892       1295.485       1374.705
       1370.308       1341.833       1348.219       1378.480       1373.495
       1326.186       1337.630       1419.239       1407.415       1361.493
       1360.111       1396.331       1394.156       1348.260       1331.870
       1369.361       1323.796       1284.376       1278.563       1292.770
       1315.813       1291.560       1252.515       1249.814       1229.954
       1207.848       1196.311       1204.321       1162.647       1141.905
       1131.691       1083.528       1077.693       1066.437       1012.391
       1008.211       971.7344       941.0317       929.9170       884.0042
       844.9873       826.2507       787.3784       761.5156       728.9363
       649.8058       608.4763       587.4912       503.4708       466.7794
       460.5737       405.4519       353.5675       332.5436       287.7458
       237.2372       191.3586       159.2107       115.2034       44.07110
      -15.73990      -30.04437      -51.54858      -97.97171      -135.4348
      -184.3516      -281.8387      -307.2809      -289.7372      -353.3989
      -406.7554      -423.4746      -487.6565      -541.1960      -582.4600
      -590.1675      -636.8259      -693.1941      -710.4189      -735.5129
      -791.7656      -841.8730      -866.6228      -893.5249      -896.7380
      -892.1321      -941.3540      -968.3467      -1010.402      -1082.725
      -1093.899      -1070.340      -1103.906      -1154.506      -1185.046
      -1214.658      -1238.643      -1248.080      -1273.494      -1282.258
      -1328.637      -1348.048      -1307.837      -1344.823      -1416.192
      -1419.955      -1395.136      -1388.048      -1425.389      -1442.272
      -1434.053      -1431.495      -1419.213      -1395.202      -1399.733
      -1444.786      -1481.740      -1456.585      -1424.537      -1417.865
      -1405.978      -1411.413      -1436.763      -1436.654      -1412.621
      -1395.604      -1412.146      -1403.746      -1344.037      -1308.074
      -1360.362      -1396.390      -1320.905      -1271.412      -1266.048
      -1242.306      -1248.709      -1272.438      -1242.649      -1188.169
      -1159.541      -1160.489      -1201.189      -1193.386      -1118.552
      -1084.802      -1101.834      -1084.547      -1032.768      -998.0176
      -998.3691      -997.8535      -963.1108      -949.5107      -953.2607
      -903.3364      -849.3369      -823.0273      -815.0620      -845.9705
      -810.2378      -743.3015      -705.7366      -675.2146      -653.9624
      -614.1084      -587.6968      -586.3638      -520.9353      -485.5516
      -501.4958      -447.1610      -381.6719      -368.3657      -323.3448
      -261.5706      -229.6573      -236.3177      -217.0141      -152.8909
      -117.8330      -99.62068      -63.60219      -17.37860       31.70557
       49.35095       118.2034       171.2927       168.3916       186.5001
       222.2623       310.2695       366.7087       314.6721       318.8390
       409.4651       456.5078       459.8721       488.5375       504.4404
       505.2051       558.5547       644.6748       653.1094       610.7561
       611.5951       660.1245       711.4617       748.3027       753.4600
       767.8611       784.9854       797.0295       818.0220       818.4536
       818.4585       842.4617       842.7788       849.2393       859.1501
       867.9614       910.6318       951.6992       932.1284       946.4175
       1015.602       1012.613       969.9419       1010.246       1058.017
       1055.677       1023.247       1034.328       1084.250       1104.062
       1091.055       1071.514       1078.101       1122.009       1138.228
       1120.015       1119.278       1151.767       1179.341       1171.462
       1155.297       1162.714       1156.680       1174.388       1180.807
       1158.890       1173.483       1193.180       1183.046       1173.798
       1160.417       1164.084       1212.231       1209.938       1178.100
       1170.573       1153.788       1152.233       1159.014       1140.651
       1121.889       1152.243       1166.969       1128.776       1074.803
       1063.918       1080.333       1093.412       1074.299       1039.758
       995.4854       974.3547       975.0876       978.3459       949.7026
       924.3398       901.5378       877.4546       876.6321       886.8604
       835.6663       799.5496       781.7971       776.7981       745.1141
       687.2214       670.0981       673.1653       644.5413       608.1978
       585.7366       587.8107       571.4495       572.1146       544.0427
       461.2467       428.0116       427.0771       377.9735       341.9543
       339.3829       323.3503       319.6954       304.8984       241.0286
       222.2943       204.1978       169.3701       159.1553       121.7667
       69.67111       38.00804       27.37744       27.24706      -18.29083
      -85.92065      -110.3041      -91.85437      -111.6085      -159.1749
      -203.9307      -241.0980      -271.1165      -306.6101      -362.5022
      -398.6240      -404.0463      -430.7277      -499.8768      -529.9976
      -538.8136      -562.2950      -629.5996      -687.9517      -705.7969
      -738.6826      -784.1292      -806.2180      -832.7896      -849.3938
      -857.6389      -893.0774      -962.4858      -989.3457      -996.8799
      -1035.073      -1068.016      -1054.948      -1064.697      -1107.352
      -1140.529      -1165.842      -1190.860      -1201.920      -1206.228
      -1222.683      -1259.621      -1266.820      -1269.951      -1280.187
      -1254.898      -1243.552      -1265.823      -1269.617      -1283.332
      -1267.777      -1255.650      -1302.399      -1334.421      -1312.729
      -1273.176      -1221.892      -1215.325      -1226.138      -1207.849
      -1176.859      -1163.693      -1175.927      -1196.300      -1148.021
      -1093.427      -1083.579      -1078.191      -1086.680      -1086.869
      -1045.856      -1026.427      -1005.134      -981.2563      -960.9270
      -941.9197      -945.2456      -952.9885      -929.0908      -911.6289
      -883.0200      -853.8406      -832.5410      -802.6123      -800.5007
      -814.6836      -795.3169      -758.0823      -730.0806      -731.7734
      -740.0823      -739.6150      -727.1523      -667.7585      -594.9928
      -568.9910      -566.6704      -556.0334      -555.3530      -555.8737
      -538.1583      -482.2770      -445.4235      -425.9109      -399.6569
      -384.5341      -367.6361      -340.1997      -326.3428      -331.1779
      -307.5289      -260.3096      -252.3621      -254.3497      -216.7579
      -191.0829      -178.2019      -141.3071      -98.89615      -104.6942
      -123.8392      -83.76856      -42.27830      -27.20449       8.147602
       10.30656      -3.561447       19.17409       72.75323       99.78070
       95.16479       133.7645       176.2364       174.2635       175.7594
       189.7307       228.3275       249.1866       250.7961       295.4929
       310.0366       300.9323       337.7949       354.0703       330.1816
       344.8522       397.6658       422.3192       438.4812       456.6581
       466.0347       483.8633       495.1797       515.3877       558.5814
       571.4531       560.6235       607.0532       646.6166       647.8662
       654.4355       673.2380       689.6697       715.6309       773.4260
       801.8706       799.4651       822.9551       838.5840       834.9373
       854.8677       892.3789       928.9417       943.8643       953.2729
       972.0288       987.5164       1017.801       1041.584       1020.514
       1014.698       1040.954       1082.738       1108.701       1095.689
       1105.842       1130.794       1137.248       1155.178       1197.869
       1226.306       1225.856       1237.402       1231.913       1202.306
       1204.554       1234.292       1270.489       1253.653       1225.364
       1230.865       1254.151       1242.164       1214.195       1201.373
       1233.088       1254.351       1221.813       1207.369       1224.700
       1209.027       1191.946       1192.444       1227.488       1236.586
       1206.116       1174.813       1165.098       1170.479       1183.795
       1183.229       1159.349       1130.153       1135.281       1124.627
       1079.286       1062.927       1063.519       1057.891       1054.341
       1034.619       1024.542       1005.183       978.5007       954.2332
       941.6562       936.8318       930.0083       887.0698       864.6509
       867.2214       834.8267       798.6672       774.1111       737.1340
       733.9260       719.8785       663.5635       620.8444       606.4634
       561.7496       521.6011       504.8923       477.2986       447.9515
       411.2040       357.3617       318.9246       260.3833       213.6523
       198.0215       156.8180       90.42670       21.81042      -19.74463
      -38.37250      -85.70609      -144.1083      -179.5080      -203.5099
      -214.3168      -238.7721      -294.3805      -362.9669      -420.3323
      -463.3766      -497.2473      -513.2546      -553.3757      -589.9814
      -624.0806      -659.3765      -702.1775      -747.8015      -772.7854
      -803.2529      -839.5588      -863.7095      -926.3228      -966.3997
      -986.4319      -1000.311      -1039.918      -1074.806      -1083.275
      -1103.227      -1124.317      -1146.254      -1180.429      -1219.809
      -1289.785      -1330.807      -1336.109      -1355.076      -1373.871
      -1368.917      -1404.369      -1475.059      -1507.225      -1511.184
      -1528.258      -1543.702      -1544.737      -1556.502      -1594.271
      -1630.996      -1654.242      -1636.169      -1643.923      -1676.878
      -1662.917      -1647.739      -1663.230      -1669.289      -1689.773
      -1694.232      -1673.263      -1654.418      -1653.406      -1645.668
      -1625.261      -1625.057      -1653.780      -1627.543      -1567.343
      -1526.102      -1530.857      -1552.229      -1550.490      -1500.713
      -1444.688      -1435.301      -1429.200      -1384.048      -1347.940
      -1310.520      -1290.199      -1265.729      -1257.379      -1232.499
      -1188.128      -1147.354      -1132.784      -1094.185      -1053.552
      -1043.630      -1021.138      -965.9436      -936.9231      -907.3948
      -862.2241      -840.2036      -817.8413      -778.1328      -755.6614
      -707.1069      -671.5056      -648.0681      -616.3611      -573.2456
      -558.0144      -531.7375      -486.5339      -449.1504      -427.7474
      -400.3813      -355.3848      -302.2563      -277.1580      -239.7080
      -194.0904      -172.8473      -138.5714      -77.61356      -39.81552
      -23.07845      -10.60968       25.85760       68.78607       92.77313
       130.1814       193.5137       233.8196       232.1673       260.9477
       310.0776       341.7483       407.8025       455.1571       464.2762
       498.3711       536.1458       547.4250       559.5739       594.5398
       629.2236       656.1077       698.0505       729.3369       748.2327
       785.6069       816.3005       808.5354       810.6682       852.0908
       905.6147       937.4387       955.7717       986.6196       985.1919
       987.5693       1032.700       1069.549       1076.732       1090.249
       1111.139       1123.901       1158.769       1197.829       1201.696
       1202.036       1204.074       1218.231       1228.140       1226.334
       1245.486       1272.332       1273.428       1272.288       1278.792
       1276.792       1262.659       1285.727       1302.562       1313.804
       1316.283       1302.329       1295.789       1297.770       1289.797
       1283.902       1269.534       1263.561       1261.739       1269.343
       1230.676       1201.098       1213.562       1210.662       1178.550
       1171.874       1171.240       1156.862       1136.746       1154.142
       1140.038       1099.654       1055.088       1037.259       1032.110
       1024.740       996.6597       980.2678       956.2136       954.5415
       941.8750       917.4521       891.6938       879.5156       855.9485
       847.2495       817.9912       779.3694       751.5615       740.6555
       722.7268       708.4907       672.0688       640.8981       634.9602
       626.5117       570.3312       534.4674       532.6177       508.8645
       461.8435       439.6646       422.6798       400.4490       370.9249
       345.8737       318.5123       305.7794       279.6266       256.9376
       232.9581       205.6526       164.2391       133.9919       119.1753
       105.6454       68.67224       48.19278       33.42893       24.04574
      0.5431213      -36.05524      -79.55695      -107.1300      -128.2954
      -138.3101      -173.4023      -199.6075      -231.9701      -256.0081
      -285.7333      -336.4939      -368.5031      -367.9482      -399.9366
      -434.9434      -456.8488      -444.3712      -474.5973      -512.3511
      -543.8809      -569.8984      -605.2850      -628.5706      -634.3928
      -639.8547      -698.5996      -737.0784      -743.3103      -751.6992
      -788.7939      -797.5439      -837.1558      -879.9875      -897.5945
      -900.7146      -931.7554      -954.1306      -989.6086      -1020.474
      -1026.643      -1026.900      -1072.894      -1090.572      -1082.033
      -1072.767      -1083.134      -1090.429      -1118.323      -1154.602
      -1179.007      -1157.943      -1154.856      -1164.684      -1191.952
      -1182.178      -1153.516      -1164.023      -1194.828      -1185.585
      -1194.864      -1176.272      -1154.458      -1153.503      -1173.273
      -1154.442      -1134.873      -1130.795      -1149.995      -1116.343
      -1090.321      -1078.711      -1074.171      -1049.139      -1038.054
      -1003.552      -1000.450      -974.7998      -947.2749      -941.4795
      -945.4688      -904.7378      -898.8447      -886.7080      -871.0361
      -839.3635      -813.2759      -778.1924      -752.3130      -714.2200
      -699.1663      -675.5161      -656.0693      -613.3547      -590.3997
      -577.6943      -558.5732      -510.1885      -477.9780      -461.8311
      -457.5574      -412.3191      -373.9519      -350.7460      -339.2524
      -302.4539      -266.5369      -231.2677      -226.7325      -203.0684
      -153.0776      -116.5583      -116.3875      -95.40598      -68.33015
      -29.05995      -6.199097       6.725281       26.49329       80.99826
       95.90601       113.6020       145.8220       178.5775       204.0858
       227.6670       229.9150       248.5468       266.1481       288.1864
       306.6024       337.9467       346.6067       364.4098       377.8357
       407.5010       431.8700       450.2156       458.7803       479.9148
       481.5378       504.5449       517.8607       532.6355       563.1946
       599.2410       578.5596       578.3152       576.3579       597.6864
       616.6935       643.2759       666.5612       683.0118       669.9287
       686.5725       696.7427       715.9766       738.4126       760.8665
       764.2656       777.0605       773.4614       787.2146       787.4573
       800.4995       823.4329       839.9312       847.3225       869.6570
       877.2559       875.4592       871.4761       893.6333       911.6860
