     0.02500000      -1636.733       1398.571      -12345.00      -12345.00
      -29.99999       215.1500      -16.85000      -12345.00      -12345.00
       0.000000       12.85000      -12345.00      -12345.00      -12345.00
      -12345.00      -12345.00      -12345.00      -12345.00      -12345.00
      -12345.00      -12345.00      -12345.00      -12345.00      -12345.00
      -12345.00      -12345.00      -12345.00      -12345.00      -12345.00
      -12345.00      -30.83090      -68.94810       1673.000       0.000000
      -31.06700      -68.46300       0.000000       100400.0       0.000000
      -12345.00      -12345.00      -12345.00      -12345.00      -12345.00
      -12345.00      -12345.00      -12345.00      -12345.00      -12345.00
       53.23405       299.3290       119.5773      0.4786292      -12345.00
      -12345.00     0.06999766       0.000000       90.00000      -12345.00
      -12345.00      -12345.00      -12345.00      -12345.00      -12345.00
      -12345.00      -12345.00      -12345.00      -12345.00      -12345.00
      2008       164        19         3        54
       650         6    -12345    -12345      9807
    -12345    -12345    -12345    -12345    -12345
         1         7        13    -12345    -12345
    -12345    -12345    -12345    -12345    -12345
    -12345    -12345    -12345    -12345    -12345
    -12345    -12345    -12345    -12345    -12345
         1         1         1         1         1
GUAL    -12345          
        -12345  -12345  
-12345  -12345  -12345  
-12345  -12345  -12345  
-12345  -12345  -12345  
-12345  -12345  -12345  
-12345  -12345  BHN     
ZL      -12345  -12345  
[...]
      -300.8593      -307.0579      -290.6715      -318.9109      -326.1268
      -290.9688      -300.5502      -293.4824      -286.4348      -295.3087
      -317.7333      -278.4028      -265.3040      -284.9493      -278.1202
      -282.4668      -281.1080      -252.5994      -253.0909      -253.0769
      -238.5219      -241.0946      -250.0189      -236.7109      -238.7286
      -208.2968      -207.8217      -202.5983      -178.6406      -196.5098
      -189.9750      -183.2698      -178.2209      -147.5815      -156.5759
      -159.2056      -137.7528      -119.2987      -147.8216      -150.4394
      -96.55487      -108.1645      -128.5827      -93.62094      -76.24994
      -85.99307      -92.23962      -64.71713      -61.61032      -63.84587
      -67.46535      -54.12675      -21.21249      -42.53343      -40.60425
      -14.13555      -35.27373      -5.060921      -10.88307      -33.50277
       7.379230      -3.894012      -4.045864       22.08292       12.18250
       25.47374       29.49226       31.49980       44.50777       39.43311
       32.22636       60.42180       68.44034       52.45428       51.96162
       68.39522       58.02853       65.27138       74.51169       79.62476
       81.95627       90.75345       90.14429       101.0562       90.82010
       87.21719       98.63196       99.62982       85.03735       105.7294
       111.8789       122.1170       123.0540       135.8293       122.2564
       110.7485       131.6103       160.7711       141.3906       157.1432
       172.6804       178.5219       176.3945       180.8859       208.5828
       213.7098       209.3402       244.4899       241.7484       265.8564
       274.7985       271.1827       297.7848       311.9034       329.2222
       328.6571       332.1063       366.6998       360.8551       374.0995
       386.1841       397.9052       402.3079       409.2548       440.1340
       449.4005       441.7948       452.5774       456.9617       468.4718
       463.5903       467.5387       475.2864       469.8229       470.2346
       480.3123       490.3152       502.1025       502.8894       504.0507
       484.1438       486.1035       497.3499       485.2231       486.3409
       487.4122       469.2468       473.7988       477.2800       472.7234
       468.5333       466.0464       454.3293       433.8680       426.6578
       425.8406       424.0684       404.0192       385.8082       398.2585
       381.7563       359.7966       365.4874       348.4429       316.9231
       320.0028       297.4199       278.4440       279.6185       257.8184
       250.4368       231.1377       200.1671       204.8977       172.5615
       150.3491       145.3515       108.4455       97.49130       82.26103
       48.67487       46.59511       2.723251      -12.76602      -19.43690
      -61.52844      -75.85370      -79.10010      -117.0185      -152.5898
      -166.7747      -174.6790      -204.9602      -233.0924      -259.7095
      -260.1285      -273.8353      -302.6534      -320.3555      -343.3450
      -368.2598      -378.6643      -394.1796      -412.4009      -431.2496
      -433.0039      -455.8977      -470.9229      -480.0311      -500.7783
      -512.4513      -527.1003      -551.3182      -551.7834      -569.0929
      -585.5718      -590.9929      -601.6676      -616.1810      -612.0604
      -641.1594      -661.5400      -646.4021      -660.1565      -695.1389
      -674.2878      -687.3442      -706.2209      -690.2693      -710.5649
      -727.4946      -725.6724      -733.4800      -733.7124      -748.8748
      -741.9211      -736.0339      -740.6711      -733.8777      -735.0764
      -745.1426      -738.2529      -728.3916      -731.9036      -725.8459
      -712.2957      -711.3914      -707.5764      -694.0624      -672.4441
      -667.3203      -653.3750      -633.7747      -633.1315      -622.6990
      -593.5200      -572.2090      -565.1250      -544.6196      -516.2112
      -504.6716      -488.7788      -456.2371      -429.1029      -429.1312
      -401.3079      -360.0581      -357.9388      -323.2932      -301.2385
      -289.5207      -235.9546      -221.0396      -203.4509      -164.7356
      -141.4344      -126.5476      -113.2163      -66.10222      -52.94785
      -32.11198       15.26744       27.00824       44.08232       76.32068
       85.06842       114.1904       146.6232       166.6550       168.9970
       192.8962       216.1425       225.5055       244.9213       257.6910
       252.7859       289.7084       294.0719       294.7886       312.0046
       316.4420       310.5894       318.9622       285.1674       266.8777
       221.9358      -41.73041       93.85962       589.9696       78.51880
       322.9690       1125.558      0.6655273       429.4412       1347.707
       22.87451       283.9961       765.2723       115.4119       269.9918
       651.6490       300.4259      -508.8874      -338.3479       329.8154
       551.1576       603.2943       529.8378       202.6542       168.7784
       444.9546       175.7352       320.0219       625.2072       184.8406
      -211.8274       378.8132       591.8409      -274.7622       127.7177
       511.6566       105.7615       205.5774       281.1265       323.6466
       284.1923       279.3909       585.3687       554.2137      -64.99333
      -90.29248       294.8456       323.3749       379.2427       115.9232
      -209.1980       162.7855       405.3729       249.0806       463.0297
       369.3579       26.46002       200.9950       321.0697       493.9326
       320.2674      -208.4441      -123.1127       344.8563       604.4288
       491.4608       117.2497      -136.8318       160.3678       213.7988
      -222.8746       342.2058       656.2948       77.94727       398.7516
       268.8572      -273.9302      -110.5094      -32.09564       230.8667
       478.4082       569.1858       747.0090       495.0663       112.4119
       26.46381       248.3016       299.5143      -7.199219       187.6316
       376.1337       334.4511       338.2542       82.29431      -173.3447
       222.1886       676.9772       270.1943       449.0718       700.6807
      -190.6624      -354.3145       506.6146       570.7947       112.9645
       407.5526       404.1449      -21.66064       161.1823       240.2097
       262.2965       516.2176       337.0410       9.841187       137.1793
       361.3469       25.01506      -51.95111       306.5859       25.15356
      -15.84058       387.0388       289.5332       59.28717      -141.2296
      -223.8041       188.8453       261.9536      -40.70639      -12.82300
      -171.2788      -287.2356      -45.37466       144.6906       34.80106
      -56.56665      -48.05115      -410.1453      -294.8506       2.913940
      -441.3670      -282.7718       56.28674      -350.7212      -238.4080
      -72.47571      -304.7868      -249.6029      -290.6929      -381.5970
      -296.9338      -272.9434      -206.6304      -197.2245      -355.5523
      -303.3057      -187.5740      -232.3075      -219.4352      -277.9134
      -251.1459      -380.4735      -622.6333      -313.6456      -209.4320
      -366.1628      -104.5262      -112.7408      -280.8919      -102.2274
      -270.5350      -520.6464      -291.0427      -252.1923      -361.3567
      -142.3650      -52.47168      -294.2006      -489.7635      -292.5568
      -58.51959      -147.1685      -27.48920      -62.55298      -432.5054
      -404.7173      -250.2657      -185.6337      -66.32111      -117.3533
      -109.0321      -46.67969      -162.4902      -226.0897      -217.4086
      -37.89148      -78.96503      -290.4996      -107.9622      -65.53223
      -224.3422      -175.5434      -137.0868       11.48154       44.51208
       93.26721       118.9501      -242.3043      -254.8345      -114.4285
      -214.5312      -54.27597       200.5949      -149.7274      -189.0226
       319.6134      -35.53448      -280.5474       86.83142      -18.67505
      -127.5668       23.61792       62.37170      -52.56616      -163.3638
       2.981873       152.3179      -19.76634      -113.2351       7.974228
      -42.41664      -97.49817       39.25029       24.02921      -82.05933
      -65.21500       32.77307      -16.58640      -32.11154       113.6850
      -4.164856      -191.3971      -30.14926       97.37473       12.42330
       2.956558       13.72021       10.91663      -175.1309      -291.6094
       73.59018       17.57913      -231.6382       82.74185       157.0831
      -276.4333      -229.8132       50.11449      -83.79454       48.49219
       51.97644      -291.0293      -170.5100      -157.3563      -208.5960
       12.59708      -36.29961      -44.44876       3.841064      -135.3821
      -50.19400      -40.98053      -169.6948      -129.5374      -45.29395
      -152.8406      -234.1575      -40.52081      -87.20526      -351.2056
      -184.0058      -101.5151      -76.49976       136.3186       29.25681
      -54.70667      -139.3395      -237.2342       21.51620      -60.22968
      -282.9803      -98.62326      -60.38556      -183.1288      -98.29777
       37.97412      -4.984467      -203.9055      -57.21181       37.20261
      -107.4535       8.532757      -12.41031       4.121231       94.19104
      -115.3182      -153.1238      -36.76408      -39.93558      -116.2824
      -43.72530       89.48074      -104.5355      -48.93098       108.2097
      -157.7881       49.76010       212.1344      -241.3141      -219.3143
       43.74197       70.82260       95.27402       49.89011      -10.33401
      -48.13373       77.16595       167.2545       84.28888       33.94421
       128.3713       152.5280      -64.04736       122.7406       316.4231
       64.64136       119.3344       252.0144       226.1579       175.1360
       223.9742       344.9378       235.5402       248.4691       361.3472
       173.6555       243.6385       413.9375       428.1974       325.7012
       263.9673       487.2847       411.5272       315.6158       482.3962
       446.9403       443.0753       328.2609       460.5342       637.4807
       505.0316       489.1582       297.7822       465.0591       654.7235
       386.2585       625.0142       742.9880       529.5841       582.4397
       698.0603       658.1245       546.5281       711.5750       796.9521
       508.8457       514.8927       653.6628       542.2606       482.5566
       589.6289       689.5933       613.7856       556.0435       628.0914
       622.3638       478.5095       478.8694       530.7019       411.6935
       480.3840       648.3184       503.3691       348.5972       376.6915
       431.1038       518.1968       415.0521       352.9451       470.6837
       330.4988       288.8330       464.5895       341.0189       214.0288
       241.2394       241.0312       344.4383       356.8362       308.9760
       289.2039       103.2346       17.79498       114.8842       221.6662
       58.85870      -53.54773       94.66828       43.72181      -20.50937
       138.0986       154.9430      -43.83020      -111.0950      -151.5969
      -222.2834      -82.34460      -114.2653      -135.0508      -34.84460
      -215.1682      -277.7989      -195.5479      -340.5344      -328.0051
      -326.9009      -469.3921      -462.3795      -400.7340      -388.7656
      -371.5719      -395.5410      -358.6812      -445.7725      -636.7401
      -524.3049      -468.2307      -670.3389      -662.0010      -590.8853
      -596.7028      -449.0303      -525.5308      -780.8201      -737.2927
      -641.7705      -619.9824      -731.2876      -833.7373      -761.6404
      -710.9993      -631.1487      -650.8928      -829.9856      -969.0281
      -915.1484      -788.0691      -815.3306      -762.0828      -649.3665
      -672.3325      -707.2466      -684.7903      -703.7053      -830.9448
      -881.1626      -836.8198      -732.1440      -658.9221      -824.4856
      -744.0557      -654.9043      -729.5781      -695.2441      -789.5918
      -595.7393      -679.8328      -832.1858      -496.2118      -627.7505
      -681.3088      -560.9778      -661.5337      -692.1899      -622.4722
      -396.0435      -564.5244      -700.6106      -396.8269      -415.0542
      -467.9958      -361.6289      -508.5697      -597.0542      -336.1057
      -180.0474      -306.7302      -237.1589      -320.8978      -630.9727
      -643.6138      -757.7178      -877.0024      -489.0427      -260.4093
      -326.7628       49.89740       263.6894      -250.9574      -229.0530
       425.3269       519.9208       110.3741       60.90570      -141.6068
      -538.6913       124.6359       169.2520      -851.4053      -1016.481
      -525.8694       462.6567       1397.283       788.8857      -801.4404
      -1636.733      -840.0334       449.7328       431.7758      -22.49963
       280.6394       386.3184       176.2927       478.5059       762.2963
       435.3899      -383.7417      -656.9624      -169.6446      -237.7615
       7.440918       1065.532       1226.425       445.8465       30.14551
       243.0566       215.7472      -190.4106       76.54053       1030.370
       1307.416       657.6730       111.9666       336.7140       610.7347
       220.5513       397.4111       897.4619       781.3447       883.3230
       767.9941       319.5043       230.4590       327.7075       672.2903
       939.9540       699.6180       352.3701       265.0157       488.7659
       935.7302       823.2954       435.9629       599.7520       728.6685
       796.0601       711.7861       639.7500       943.0894       937.5741
       468.1931       142.9250       477.2773       792.0183       965.2314
       1157.791       798.3395       525.1750       709.3641       641.7825
       445.7500       499.1082       876.0042       1398.571       938.7046
       295.7341       363.7429       145.8113       398.8813       885.4438
       694.0820       854.1028       719.5266       300.0837       624.9993
       553.6219       259.9734       574.1362       638.3865       561.0095
       601.8994       330.7102       576.6973       946.0281       460.6024
       432.2306       601.2958       284.8372       346.0385       384.1442
       171.3973       339.1387       565.3810       493.6541       278.8163
       333.8137       467.5475       78.78516      -14.48596       486.3510
       409.0009       21.77554       105.8414       131.1036      -53.18970
       143.0752       552.1833       476.7483       27.74805      -236.4977
      -43.83124      -27.31564      -203.0097       159.9951       323.6520
       69.35620      -322.3513      -479.4505      -304.8263      -78.63788
       214.6131      -51.35287      -243.6804      -2.237877      -12.74274
       17.02087      -215.7107      -509.5572      -228.3731       46.55725
      -235.7897      -562.2051      -280.0039      -70.55371      -657.4047
      -784.7946      -274.0256      -95.45602       36.56366      -150.8657
      -622.1117      -769.4254      -507.9755      -139.5521      -306.1106
      -443.4739      -234.5287      -433.8672      -701.6301      -711.2500
      -805.3054      -698.0798      -314.4728      -174.5547      -198.8108
      -434.2937      -843.5403      -679.6825      -503.9248      -623.4589
      -490.9548      -421.9951      -610.6226      -725.9196      -642.4753
      -690.9594      -752.5526      -443.5254      -368.5371      -539.0138
      -601.6729      -764.3237      -777.2896      -832.2664      -697.7295
      -386.0034      -681.2571      -701.6411      -396.9380      -936.5488
      -1185.860      -566.0212      -567.5859      -782.5563      -273.1223
      -267.7339      -858.1782      -779.0813      -502.1091      -584.0966
      -605.5970      -431.4377      -459.9985      -870.8645      -897.0952
      -707.9442      -750.0499      -382.0275      -114.3755      -536.2733
      -628.5896      -502.1520      -595.2449      -585.0085      -570.9272
      -588.8175      -609.9601      -443.6688      -281.0576      -326.6927
      -506.4133      -628.8029      -528.9978      -296.5836      -82.38330
      -198.5305      -363.7363      -376.2908      -479.1112      -330.5923
      -82.20215      -187.7077      -236.2169      -235.8560      -336.7467
      -167.6914       119.8734       199.0254       140.6584       39.95111
      -92.61548      -289.3468      -389.4047      -121.0858       321.8844
       353.5015       7.797104      -91.72173      -6.987579       59.84222
       172.0534       289.8156       82.73547       105.3955       449.7583
       208.9784       26.58130       228.2029       293.8741       268.1902
       309.5414       326.4183       256.3741       219.0947       354.9717
       651.5358       618.7372       325.6108       290.4248       408.2642
       371.6517       213.3081       337.7866       674.5256       768.2415
       608.6650       482.5394       456.7566       459.8293       535.9873
       591.2610       615.3992       441.0271       324.8491       436.3015
       449.3323       651.2930       627.6980       265.7297       434.3680
       543.6095       393.9888       496.8833       691.2906       789.1378
       418.6976       227.0375       578.3755       603.2598       520.8964
       600.5334       561.7213       480.3546       338.1390       307.0303
       386.3153       374.4158       456.2126       414.4326       265.3531
       398.9241       454.4659       303.7197       476.2321       570.4688
       276.5935       246.0994       405.8192       319.0082       340.1545
       433.7104       275.9432       164.5750       205.4140       230.3212
       178.3110       304.8510       605.8907       325.9356       234.2479
       508.8035       11.19525       45.93842       454.6561       60.27600
       169.1366       505.1161       158.4892       19.48230       118.6438
       56.79932       249.7828       320.8538       200.9817       226.5395
       230.6202       66.94043       82.51624       471.8604       181.8323
      -262.6710       233.1266       426.3353       96.61969       158.8593
       122.9868      -4.444031       236.7052       178.4442      -54.30777
       45.42471       41.13312      -106.8696       23.34430       213.9469
       107.3988      -68.72585       16.16998       123.9972       130.2132
