     0.02500000      -1389.542       1948.182      -12345.00      -12345.00
      -29.99999       215.1500      -16.85000      -12345.00      -12345.00
       0.000000       12.85000      -12345.00      -12345.00      -12345.00
      -12345.00      -12345.00      -12345.00      -12345.00      -12345.00
      -12345.00      -12345.00      -12345.00      -12345.00      -12345.00
      -12345.00      -12345.00      -12345.00      -12345.00      -12345.00
      -12345.00      -30.83090      -68.94810       1673.000       0.000000
      -31.06700      -68.46300       0.000000       100400.0       0.000000
      -12345.00      -12345.00      -12345.00      -12345.00      -12345.00
      -12345.00      -12345.00      -12345.00      -12345.00      -12345.00
       53.23405       299.3290       119.5773      0.4786292      -12345.00
      -12345.00     0.09906367       0.000000       0.000000      -12345.00
      -12345.00      -12345.00      -12345.00      -12345.00      -12345.00
      -12345.00      -12345.00      -12345.00      -12345.00      -12345.00
      2008       164        19         3        54
       650         6    -12345    -12345      9807
    -12345    -12345    -12345    -12345    -12345
         1         7        13    -12345    -12345
    -12345    -12345    -12345    -12345    -12345
    -12345    -12345    -12345    -12345    -12345
    -12345    -12345    -12345    -12345    -12345
         1         1         1         1         1
GUAL    -12345          
        -12345  -12345  
-12345  -12345  -12345  
-12345  -12345  -12345  
-12345  -12345  -12345  
-12345  -12345  -12345  
-12345  -12345  BHZ     
ZL      -12345  -12345  
[...]
       109.4796       86.08224       55.51252       30.08230     -0.8736572
      -24.40042      -55.29871      -78.06848      -106.3489      -127.0470
      -155.7323      -176.3652      -202.8162      -220.7852      -246.5465
      -266.2295      -291.3767      -306.0969      -327.7358      -340.7621
      -360.1509      -373.7925      -393.5963      -403.8855      -422.6343
      -433.7153      -447.1528      -452.7246      -465.3408      -473.8224
      -483.8357      -487.9133      -499.3580      -503.9590      -508.5520
      -511.2902      -521.0754      -523.0959      -526.0645      -525.6738
      -529.5583      -527.9873      -530.2175      -524.9727      -524.0776
      -519.7224      -516.1143      -506.1348      -502.9968      -492.4812
      -486.0446      -473.7705      -463.8424      -451.8640      -441.4802
      -423.2474      -409.5217      -390.8201      -374.1458      -353.8822
      -336.6528      -314.7814      -296.1234      -273.4572      -250.0019
      -225.1804      -201.8318      -175.8633      -152.8184      -128.2063
      -103.0704      -80.09314      -55.67801      -30.94458      -8.655090
       17.86737       40.57413       61.82712       86.99408       104.8542
       125.0558       146.9114       166.6132       183.3112       199.0262
       214.2172       224.5765       235.2734       245.8226       255.9403
       266.2520       273.8176       279.3409       284.4044       287.1263
       289.5433       289.6146       288.4658       288.0905       286.4625
       281.9613       276.3105       271.8024       269.7796       262.4973
       254.8253       247.1259       237.2975       230.3605       222.8606
       213.2314       204.6973       192.8811       184.9895       178.7888
       167.5695       152.8450       141.5912       129.9792       118.1047
       103.5487       91.92708       78.47299       69.05661       56.05875
       43.55807       28.57037       17.72448       2.048759      -8.693787
      -24.41144      -35.81711      -47.21654      -60.45258      -74.70959
      -85.45096      -97.73105      -106.5904      -119.3966      -127.7333
      -136.9403      -146.7525      -155.9787      -164.2462      -170.4014
      -172.2144      -183.2277      -188.5208      -192.3207      -195.6971
      -198.3557      -195.2059      -198.1792      -200.2028      -200.1879
      -197.8071      -195.6222      -192.7753      -191.4769      -186.1255
      -180.1010      -173.8641      -165.8385      -160.1218      -155.6955
      -144.2209      -136.7884      -129.6404      -117.7299      -105.1020
      -96.24576      -85.80316      -72.86108      -62.52931      -52.06414
      -40.78030      -29.50238      -17.33096      -7.360176       3.308105
       11.38249       21.65892       29.74213       38.16769       47.79645
       56.42975       61.27661       67.50366       71.06064       78.30612
       83.12985       88.68350       93.09937       97.73450       99.26044
       103.6996       103.0260       108.2606       110.2185       114.5830
       116.1229       116.1933       116.2763       118.6989       115.6013
       118.0255       117.1350       120.7441       120.4183       122.3901
       119.7659       124.6913       124.7635       128.3209       126.6447
       128.8375       127.3525       131.0305       131.1197       134.5330
       136.9608       144.5167       146.3506       148.1286       149.0198
       153.2912       156.5421       161.3396       163.3885       167.0914
       171.9364       175.6245       180.5563       184.3101       189.0251
       189.3941       193.8368       195.7493       197.9447       198.3285
       199.6879       198.2668       200.2101       198.9762       199.7925
       197.4019       196.4607       194.8542       189.9750       183.8333
       180.9893       176.7623       172.0490       166.0613       162.1814
       156.5782       146.2198       135.6608       125.9064       115.5173
       104.6230       90.92088       73.51199       60.75887       45.13472
       28.90316       17.18086       3.470795      -13.14265      -29.68658
      -55.20291      -73.43677      -87.80310      -102.4558      -117.8908
      -132.5707      -151.3574      -168.0155      -181.6077      -193.8224
      -207.2844      -218.4935      -224.2151      -236.8808      -243.4549
      -248.7350      -259.4420      -264.8484      -259.3076      -258.5573
      -260.9786      -264.3660      -262.9295      -258.4261      -253.3063
      -247.0634      -237.1172      -227.5513      -225.7394      -213.4194
      -203.5133      -197.8911      -189.0270      -175.6639      -163.3491
      -148.7468      -141.0027      -134.8620      -128.8694      -116.5685
      -106.4438      -100.5644      -92.63448      -83.02603      -80.91301
      -74.08853      -66.17523      -65.80569      -69.29915      -65.33961
      -59.65158      -61.09865      -66.07047      -61.21722      -60.53360
      -72.13890      -81.46790      -85.41510      -91.07681      -93.19238
      -95.83624      -103.8041      -113.4640      -122.1397      -131.3358
      -139.8300      -152.2427      -165.4595      -170.1659      -174.4147
      -183.6646      -190.7104      -198.5704      -207.9785      -212.4510
      -224.3459      -235.2378      -242.1998      -242.1965      -253.7213
      -262.6694      -263.0142      -262.8096      -271.6555      -271.7513
      -273.3420      -270.9658      -276.0123      -282.3041      -290.7391
      -291.1909      -295.6399      -295.5049      -294.8950      -291.8132
      -294.3497      -293.8762      -299.3795      -302.1967      -304.7681
      -304.0361      -301.9360      -307.2838      -311.1154      -310.9844
      -310.6027      -307.4086      -307.2312      -311.8260      -316.8103
      -311.6213      -300.4089      -296.8940      -301.6437      -293.4403
      -286.7770      -284.4940      -284.3588      -274.8237      -269.9599
      -263.7823      -262.6794      -254.1383      -245.5258      -240.7943
      -237.9396      -227.8253      -220.1891      -215.8536      -216.8934
      -209.1611      -201.0126      -195.4749      -193.6815      -185.5820
      -180.7204      -173.5512      -171.7565      -164.3047      -150.7075
      -141.1146      -148.0344      -142.3616      -129.9929      -122.7056
      -120.5552      -109.4094      -102.6432      -95.95428      -91.34283
      -83.23337      -78.51091      -74.57144      -64.72270      -49.16490
      -40.44949      -32.85567      -26.49953      -13.31541     -0.6758575
       11.61680       18.74904       29.21558       47.28375       64.97986
       73.65845       90.17822       109.2625       125.0816       139.1763
       157.1122       174.5961       187.6794       199.6601       222.6348
       241.4823       254.2284       264.7100       284.3066       301.9702
       321.0826       336.0940       357.2238       373.0718       389.6486
       399.3992       415.1078       429.9485       449.2688       459.1299
       473.3311       486.5415       502.9448       513.5490       528.4705
       536.5332       542.7112       545.5276       550.0936       559.3806
       577.3411       585.3196       585.3278       588.0654       591.6705
       606.0649       609.1406       596.8220       586.7571       592.4468
       606.5225       603.3037       602.8102       607.9025       603.8347
       593.1050       589.1970       574.9292       575.8866       588.4681
       572.0338       570.8542       561.0911       549.5981       550.9855
       545.7070       534.5801       520.4120       517.7914       501.0127
       510.9854       500.3843       467.2937       467.3416       447.3665
       459.2806       457.0061       406.2040       410.4301       408.6151
       390.8861       373.8728       366.9515       357.6804       336.6166
       336.2677       313.9812       294.1971       300.3972       269.5809
       253.5827       257.7811       251.7228       216.2315       194.1210
       208.1262       199.6761       167.5315       163.0826       141.4087
       117.3855       126.7900       106.7155       84.86577       71.78450
       69.14569       59.83713       31.84040       19.33749     -0.3626862
      -13.19829      -21.48973      -46.20206      -50.48412      -72.46347
      -79.43948      -83.36392      -110.6255      -120.0812      -127.7587
      -159.8680      -163.2153      -172.5967      -191.4630      -194.0872
      -209.6346      -218.5450      -227.3453      -242.5956      -241.3235
      -247.5829      -254.4074      -264.8185      -268.0492      -271.2579
      -276.4250      -281.1472      -292.4416      -290.3958      -293.9003
      -313.2416      -295.1401      -295.3639      -309.7379      -306.4193
      -301.7413      -302.9938      -311.0962      -311.8228      -303.7029
      -310.3838      -313.7491      -318.9288      -305.2693      -307.1694
      -313.1571      -303.5974      -308.9180      -313.7205      -324.3180
      -329.0455      -312.0178      -330.0586      -327.0532      -320.9695
      -327.8057      -331.6954      -335.3792      -338.2894      -335.2731
      -339.2205      -343.7009      -348.7734      -340.1949      -348.9498
      -349.8748      -345.5659      -343.8546      -350.3091      -335.6761
      -335.5586      -336.1922      -331.9468      -328.8385      -322.5865
      -314.6090      -317.5945      -298.5076      -293.4127      -283.0495
      -278.5880      -269.5859      -266.0314      -252.9703      -241.4854
      -228.7181      -222.9397      -218.1373      -213.3447      -201.8125
      -193.5819      -181.0395      -182.3301      -168.0896      -163.2902
      -144.3978      -139.8163      -131.2447      -124.9547      -108.8716
      -100.3305      -91.00061      -92.48831      -79.23842      -70.93213
      -61.31688      -53.13899      -39.36180      -35.80064      -23.63896
      -18.51241       2.236683       3.670425       10.77782       12.18915
       23.02213       34.76126       50.42496       54.87085       68.15582
       71.25879       80.91522       89.41040       98.59125       98.31390
       111.6817       115.8426       124.0365       133.9642       148.3918
       147.1070       157.9946       158.4199       168.5492       172.2677
       183.7130       189.0794       188.5198       201.5216       215.3663
       206.3781       215.1425       218.4363       227.9730       228.9644
       237.1851       229.1905       240.1046       246.8772       250.0713
       254.8278       264.4958       261.1599       264.0116       264.2032
       269.7189       268.2562       270.9803       262.6946       263.9412
       262.2713       259.1215       252.1033       255.1141       244.8763
       250.3325       232.3727       229.6678       220.8400       215.5258
       199.7578       185.9274       177.7469       165.9154       150.5966
       150.5916       126.7988       118.5192       99.36395       93.58871
       70.88470       52.06770       35.42007       24.52768       5.395519
      -4.388054      -26.08566      -47.18427      -67.13306      -78.66370
      -104.2818      -120.7953      -139.9186      -152.4172      -171.3526
      -188.1512      -211.7592      -226.3608      -237.9497      -250.5187
      -279.0590      -291.8398      -304.2933      -316.1638      -332.8123
      -338.7201      -355.4504      -367.4862      -383.5645      -392.5197
      -400.8663      -412.1156      -427.1927      -431.8418      -440.9342
      -439.0815      -443.8335      -445.4791      -451.7998      -448.2068
      -450.7684      -452.0133      -451.3346      -443.7778      -444.2751
      -441.3900      -434.0004      -426.4073      -418.3596      -401.6012
      -396.4000      -375.9611      -377.5714      -356.7790      -343.0969
      -322.0571      -308.2980      -293.6977      -278.1853      -256.1880
      -238.1747      -213.4398      -202.9457      -171.0577      -151.1464
      -127.5747      -107.3756      -77.60699      -69.53430      -34.91436
      -14.00931       4.285622       27.50873       53.45309       71.83502
       106.7598       117.9178       146.5815       163.8699       190.9925
       208.5887       229.4222       251.3571       271.2164       286.7985
       316.7469       324.3534       351.5331       366.8663       380.7454
       398.7681       422.3804       426.8787       444.7231       457.4635
       471.5803       486.7998       493.0867       500.0349       513.7621
       520.3745       531.5983       533.3347       542.5144       548.4346
       551.2048       546.9561       559.3585       556.0161       556.3728
       550.4396       542.8317       495.8220       441.9354       418.1425
       169.4385      -239.4387       505.6218       774.9208       3.450775
       54.42593      -116.0024       603.9517       1948.182       1603.383
       1121.027       1040.352       457.8702       312.7999       155.9517
      -45.83490       279.9766       15.75494      -136.0049       490.4849
       802.2122       613.3589       565.3174       804.5831       576.0133
       115.0349       65.56747       105.9308       255.3486       349.1067
       440.0774       572.3179       395.1231       60.36621       464.4585
       577.4326       36.36279       140.6714       301.0906       338.2432
       415.3382       104.0593       46.94586       160.9797       40.68335
       167.8361       424.2632       367.7423       81.19464       76.35248
       181.5668       265.9676       97.23482       67.80298      -26.44733
      -180.6492       48.35012      -52.74728       122.9650       207.1688
      -114.0166       14.80701       90.83765      -92.24005      -224.7138
      -87.28400      -165.0787      -294.6726       86.90707      -14.53705
      -134.5580       6.892212      -264.0027      -376.1410      -334.0830
      -395.0293      -89.12567      -116.8163      -314.6642      -152.1895
      -262.7927      -360.3088      -469.3228      -432.5667      -225.0208
      -175.2202      -276.6575      -449.5035      -416.6747      -312.7344
      -347.3893      -257.1264      -245.1716      -412.6501      -335.1023
      -300.2235      -400.9678      -436.8049      -480.8523      -412.5807
      -290.9440      -214.0834      -332.5657      -557.1006      -465.4126
      -363.4657      -445.8676      -347.1393      -297.2239      -256.8455
      -284.6923      -373.0822      -504.3325      -645.1281      -525.8533
      -491.7513      -292.1906      -164.1409      -411.2454      -445.8239
      -382.9609      -470.2111      -437.5034      -444.4885      -464.0481
      -464.5135      -536.0537      -604.3353      -509.2493      -412.4945
      -549.4865      -525.0197      -454.1421      -549.8502      -592.4988
      -448.6484      -544.5181      -736.5669      -717.6799      -808.8228
      -582.8403      -389.4846      -545.0754      -558.0548      -544.4653
      -572.7603      -690.7964      -798.2351      -761.5073      -717.2424
      -632.4464      -544.0668      -627.0593      -722.3418      -670.5552
      -711.3961      -689.4778      -531.0562      -493.3643      -562.3226
      -661.8049      -674.7274      -609.5496      -668.5311      -671.8170
      -531.2095      -558.2192      -629.2202      -591.8569      -677.6838
      -739.2151      -642.8618      -610.3037      -431.4614      -321.3271
      -441.5999      -465.9363      -527.0979      -540.2749      -514.1357
      -533.3145      -418.5811      -334.5077      -457.7158      -498.1913
      -418.5908      -455.1562      -382.3882      -243.5463      -207.6477
      -219.0281      -330.7413      -324.3729      -192.8955      -211.0541
      -272.8523      -210.8625      -177.8934      -212.9524      -121.3900
      -99.17279      -89.95340       77.83331       48.51248       56.54785
       101.0439      -62.15562       48.75958       110.0734       125.8557
       197.2770       225.3782       241.5469       153.8854       272.0420
       329.7361       272.7404       272.9512       256.2588       425.7661
       433.9670       373.8372       493.0945       512.0715       515.7461
       537.1136       475.0471       544.7368       650.7693       592.6577
       612.2444       597.9246       509.8213       611.4255       716.6543
       698.9834       660.5823       728.0261       774.3069       820.9224
       823.4673       850.8132       922.9275       878.1160       854.7041
       842.3687       896.0769       875.4143       867.1719       987.0667
       1051.601       927.1394       944.8948       995.9868       986.1338
       1155.489       1047.644       954.6626       1147.356       1140.717
       920.8584       1040.897       1088.336       1051.798       1170.325
       1015.794       1076.906       1197.204       1130.832       1054.137
       1057.154       1112.826       1057.728       1076.759       1073.707
       1121.429       1138.392       944.7568       906.6064       1041.375
       944.0283       908.6506       1028.638       905.7510       833.9736
       864.4600       860.2080       979.9900       915.9531       766.7793
       870.3438       849.4136       796.8206       700.1956       649.9055
       739.6938       697.4280       546.3649       564.3867       719.5996
       721.1692       627.4329       553.0830       518.8839       465.5894
       452.1606       448.2780       309.2925       315.8479       480.5862
       440.5409       299.8929       214.1010       173.8738       259.7366
       268.7006       55.16856       29.79453       134.3980       32.90252
       25.95201       46.67744       11.69833      -70.84705      -102.0132
      -103.8641      -245.7485      -245.2811      -185.2186      -307.5853
      -234.5184      -237.1123      -457.2542      -492.5157      -463.4468
      -452.0339      -479.4279      -591.1829      -612.0854      -430.9908
      -466.8247      -683.7341      -689.1323      -693.2434      -666.9885
      -694.1279      -864.3831      -852.1255      -815.4192      -835.9331
      -815.4790      -1007.628      -892.5073      -750.1665      -981.2532
      -1057.190      -1019.744      -918.7908      -968.0903      -1090.837
      -1082.634      -1132.508      -1108.052      -1126.391      -1136.745
      -1116.323      -1186.747      -1251.458      -1268.067      -1327.709
