     0.02500000      -1265.416       1320.734      -12345.00      -12345.00
      -29.99999       215.1500      -16.85000      -12345.00      -12345.00
       0.000000       12.85000      -12345.00      -12345.00      -12345.00
      -12345.00      -12345.00      -12345.00      -12345.00      -12345.00
      -12345.00      -12345.00      -12345.00      -12345.00      -12345.00
      -12345.00      -12345.00      -12345.00      -12345.00      -12345.00
      -12345.00      -30.83090      -68.94810       1673.000       0.000000
      -31.06700      -68.46300       0.000000       100400.0       0.000000
      -12345.00      -12345.00      -12345.00      -12345.00      -12345.00
      -12345.00      -12345.00      -12345.00      -12345.00      -12345.00
       53.23405       299.3290       119.5773      0.4786292      -12345.00
      -12345.00     0.06730186       90.00000       90.00000      -12345.00
      -12345.00      -12345.00      -12345.00      -12345.00      -12345.00
      -12345.00      -12345.00      -12345.00      -12345.00      -12345.00
      2008       164        19         3        54
       650         6    -12345    -12345      9807
    -12345    -12345    -12345    -12345    -12345
         1         7        13    -12345    -12345
    -12345    -12345    -12345    -12345    -12345
    -12345    -12345    -12345    -12345    -12345
    -12345    -12345    -12345    -12345    -12345
         1         1         1         1         1
GUAL    -12345          
        -12345  -12345  
-12345  -12345  -12345  
-12345  -12345  -12345  
-12345  -12345  -12345  
-12345  -12345  -12345  
-12345  -12345  BHE     
ZL      -12345  -12345  
[...]
      -103.9962      -111.1155      -123.7010      -125.1193      -112.3328
      -107.1806      -84.23006      -64.25266      -68.18863      -84.27692
      -66.14775      -56.43336      -60.89108      -55.07281      -41.18376
      -33.99638      -19.67245      -30.18998      -21.00128       4.079967
       16.60344       4.861336       6.781860       19.06294       33.59647
       37.71649       59.63263       74.07187       74.30614       68.88626
       81.90439       85.40720       91.49918       98.82492       104.8864
       100.2603       97.96564       120.2972       146.6411       141.0893
       153.1682       175.7397       163.3682       148.7525       154.7106
       164.6060       187.8536       196.4214       196.9258       205.4105
       205.9345       202.4102       222.6364       230.6237       230.2123
       232.3137       236.7805       238.7352       231.7551       211.8588
       217.4321       226.1454       221.3507       219.4977       223.9491
       208.6097       193.5377       195.7881       204.8560       203.6584
       197.1273       188.0150       180.6576       167.1365       165.6420
       173.0492       165.0837       141.5107       113.9319       98.52899
       96.61389       85.95709       76.57988       78.14128       64.10172
       41.84332       43.39724       34.69310       5.583366       3.155739
       7.087975      -12.50949      -37.63034      -71.13495      -95.40775
      -85.57330      -82.94299      -90.58383      -100.6106      -121.0945
      -124.9616      -129.3588      -139.2368      -135.5072      -154.4292
      -174.7318      -172.8420      -167.2391      -162.3022      -152.4362
      -154.9156      -166.2946      -172.6732      -169.0433      -170.0531
      -168.2755      -162.8797      -166.0346      -166.3132      -150.6102
      -145.0545      -159.3612      -162.8737      -151.5155      -142.5749
      -133.4821      -141.7507      -150.5579      -123.8677      -105.8867
      -100.4247      -91.68797      -83.30965      -72.63165      -57.63187
      -41.89880      -36.89883      -39.98137      -32.64599      -16.21758
       2.879868       26.44910       40.18721       48.10223       57.07535
       67.03241       68.79388       96.49533       121.6011       126.9270
       136.7180       155.1803       165.2609       176.8424       175.1644
       173.8911       188.2444       196.1707       187.1133       192.1715
       200.9013       198.1853       204.9686       226.0640       234.2245
       235.9525       237.8799       231.1431       231.4391       240.0168
       231.9562       240.3660       257.1522       243.7266       239.1853
       253.4972       259.2296       259.4242       244.7901       234.3466
       245.8169       251.8187       243.1006       248.3090       251.8320
       238.7825       232.5594       228.0659       216.9829       215.6445
       207.6428       198.5130       187.9673       163.7518       149.7015
       141.6703       157.5675       173.2220       131.3167       98.74124
       89.51614       66.86932       48.09807       31.75591       8.187579
     -0.9655914      -8.931564      -21.91695      -38.07054      -62.83997
      -86.63010      -112.4163      -132.5737      -140.4662      -155.7942
      -182.6453      -195.0825      -216.7664      -244.7088      -252.9266
      -265.4858      -290.3646      -315.1929      -328.9070      -337.8853
      -353.6887      -361.3669      -384.8403      -400.5800      -399.3384
      -406.1213      -405.5553      -399.4980      -413.6208      -416.3026
      -422.0331      -423.3972      -417.2412      -424.9061      -418.7534
      -411.8856      -431.0022      -428.0673      -407.1443      -407.1606
      -390.7498      -378.7010      -382.1299      -369.0326      -351.6674
      -356.0620      -342.7738      -313.6108      -285.4171      -269.3425
      -260.0195      -244.8831      -221.5735      -214.0571      -205.5788
      -191.3061      -182.2260      -169.6175      -135.2295      -106.0880
      -84.01486      -81.21776      -71.82341      -54.11775      -30.25310
      -26.28704      -14.35903       14.33900       25.02072       31.59424
       55.25055       58.99075       72.42627       84.91656       107.1783
       123.8692       116.1472       107.9274       124.9172       130.8615
       136.8086       145.4480       157.8652       153.2431       156.9727
       165.5776       167.4283       153.6979       157.0219       164.9788
       169.1874       159.9266       165.9573       162.4865       155.6644
       161.6808       171.9671       157.0253       149.4264       153.8204
       159.8197       153.9039       147.6173       139.6010       136.1805
       126.6694       120.2955       117.3078       106.8288       100.7032
       92.56561       88.10394       102.1906       87.54747       74.35028
       90.90671       90.84369       70.57385       67.91206       68.02188
       58.70871       46.50705       55.14311       62.20856       61.04369
       56.76173       66.32458       82.13040       83.11661       78.18814
       88.62582       79.06689       67.11121       83.46593       89.61356
       76.83765       85.51849       93.22977       81.97351       76.88754
       79.73367       90.49887       92.75189       76.16678       80.19673
       87.30893       78.38602       77.98346       82.61607       65.56461
       62.86386       62.23981       44.55699       29.79391       19.00816
       19.09002       28.19791       8.199787      0.8822250       5.662642
     -0.2006989      -16.68346      -35.38605      -47.03337      -47.14862
      -53.07420      -66.87811      -72.02049      -77.22232      -95.28766
      -106.4160      -115.3127      -131.4783      -152.4896      -155.8420
      -152.3424      -160.7652      -176.1110      -178.5949      -175.1379
      -175.5897      -197.8200      -213.3190      -219.9568      -227.5970
      -234.5961      -228.5482      -223.4499      -229.1280      -230.8538
      -234.1434      -238.9883      -240.5107      -245.0145      -238.2687
      -234.5132      -245.8206      -234.6164      -222.5792      -234.2982
      -226.0349      -216.3295      -231.9623      -223.6038      -204.3481
      -205.5925      -211.5424      -212.6658      -195.3244      -177.5369
      -184.8350      -181.6897      -162.1869      -159.2953      -159.0565
      -154.9385      -152.2520      -141.1729      -134.3799      -127.1969
      -123.7037      -122.8222      -114.2512      -109.2549      -99.39264
      -96.06354      -99.33975      -93.83456      -86.52377      -81.50150
      -69.33438      -67.74277      -67.90341      -60.64537      -54.78503
      -49.11705      -32.70639      -29.57652      -28.29271      -17.67641
      -6.906218       4.936245       15.70097       18.07811       26.03436
       20.34702       27.75676       40.06067       48.52324       60.02982
       71.81302       73.15701       71.74619       76.50893       86.53874
       80.58170       84.19550       92.71597       90.03325       82.08960
       78.70685       85.92908       95.18076       97.36530       101.8400
       97.86966       92.15814       90.45383       82.42075       83.82922
       83.50749       83.09387       86.15775       91.38367       87.46255
       91.00748       99.19403       102.2265       97.59537       104.0218
       111.2273       107.0392       96.14667       97.91858       108.5317
       115.5486       108.0713       101.2997       101.4269       105.8263
       105.1679       94.76022       76.24100       71.19206       64.03549
       60.02925       69.44444       70.15161       60.23778       46.94432
       29.41725       23.63769       16.26486       8.606853       12.37033
       5.586393      -5.527306      -9.614738      -20.43579      -30.07613
      -37.76880      -48.71512      -49.13052      -57.61160      -76.05917
      -73.93243      -73.65128      -80.98676      -87.81772      -96.23462
      -105.9271      -109.9776      -111.3914      -111.5756      -115.5320
      -107.0194      -105.8285      -120.8431      -130.0663      -113.9965
      -105.3578      -108.1793      -103.4087      -87.95753      -75.83176
      -71.99895      -72.43477      -53.79828      -50.39673      -44.62418
      -23.54671      -7.140921      -5.686180       13.99242       38.25317
       51.76610       57.59613       77.18530       96.57507       113.7597
       135.7236       166.5787       177.4581       190.7659       221.5482
       238.1580       252.2010       276.7303       301.7938       330.4847
       350.2600       367.1630       397.9956       416.6099       434.1799
       456.1520       484.3551       511.3286       525.4473       545.0896
       575.4081       589.2416       600.2261       613.0197       627.7429
       652.2400       679.8499       689.9265       689.2178       701.9202
       725.8811       743.8647       751.4854       755.8853       764.7827
       760.8081       758.5979       765.3457       768.0742       769.2637
       766.0762       754.5374       759.8979       765.7598       759.8062
       746.9219       731.1392       716.7827       703.0327       689.4429
       679.6367       663.6350       643.6411       617.8181       602.3108
       582.2053       552.4431       534.2229       516.1837       486.8411
       459.5771       426.7500       402.3931       382.2112       355.3658
       327.1962       296.2094       257.7999       230.8889       193.7864
       162.6498       140.9661       111.2586       75.52696       57.69874
       36.37567       6.502396      -27.78195      -54.79504      -76.33231
      -84.07178      -103.6112      -131.8298      -162.0343      -181.7781
      -198.4258      -209.3806      -224.6924      -226.7464      -238.4603
      -244.6359      -256.7567      -267.3311      -281.2732      -286.9496
      -293.2245      -290.9082      -303.8474      -301.9502      -304.5848
      -312.4659      -312.9646      -307.3721      -319.7029      -328.5859
      -336.4517      -331.0553      -326.7433      -328.0714      -327.8083
      -324.1199      -324.2104      -327.2895      -335.9812      -344.3416
      -360.4728      -367.6206      -355.9658      -362.9695      -378.4125
      -385.0282      -392.3239      -402.7737      -412.4297      -423.4503
      -433.5566      -443.0559      -443.7502      -453.5743      -471.7975
      -490.4329      -500.2068      -505.2834      -518.0153      -529.9724
      -529.0378      -541.2678      -562.2546      -577.6604      -588.5889
      -604.4507      -613.8544      -606.9041      -617.8315      -650.9216
      -663.8048      -660.1176      -670.6482      -681.6021      -696.1606
      -696.2937      -704.4331      -717.4431      -726.4756      -739.2549
      -756.7607      -762.2830      -766.9316      -764.8513      -764.3994
      -772.4053      -781.8486      -784.3198      -788.2161      -788.5420
      -791.2390      -783.8806      -786.7251      -793.8511      -784.5276
      -780.6587      -792.8652      -788.0730      -770.5679      -779.4707
      -785.3809      -790.4788      -787.6765      -723.6946      -741.3574
      -814.3193      -716.8926      -686.4875      -771.7075      -718.0298
      -689.4932      -705.5439      -678.0906      -662.8970      -665.3882
      -653.9406      -621.2793      -615.4182      -611.3550      -592.3146
      -572.1809      -551.8989      -562.9094      -540.7632      -493.0302
      -484.6672      -472.6177      -439.0530      -432.0283      -415.1121
      -387.8568      -373.9298      -376.9526      -357.3955      -331.2528
      -300.5400      -262.9807      -247.2200      -244.3953      -217.9236
      -189.9636      -169.5823      -149.6645      -130.3536      -106.9256
      -64.58146      -39.48662      -20.68226      -1.823509       21.26843
       50.83157       82.83871       108.9767       134.8600       148.7662
       175.8926       211.7834       248.0847       274.6251       290.2010
       317.6726       370.9423       397.3734       422.7354       453.6418
       487.5847       517.3756       546.3574       565.9310       577.1334
       596.9403       646.1836       674.5645       710.3940       748.8584
       779.0845       803.3337       827.7344       848.0088       875.6631
       900.3218       935.4766       943.7593       961.6304       994.9375
       1014.578       1036.603       1079.515       1093.566       1114.106
       1130.298       1138.583       1155.672       1176.752       1187.583
       1211.814       1227.617       1240.943       1246.974       1256.579
       1262.823       1274.185       1273.869       1283.489       1288.623
       1296.732       1297.849       1302.616       1307.838       1320.734
       1315.544       1304.848       1292.921       1296.292       1295.110
       1292.361       1283.223       1274.510       1252.602       1234.716
       1205.659       1192.838       1174.418       1150.236       1123.439
       1099.960       1061.273       1042.284       1009.761       980.0093
       953.9443       918.7656       868.3540       841.7185       796.5837
       755.9746       735.8154       724.9419       658.0994       622.7524
       597.5820       542.4668       498.7139       473.6825       420.5215
       391.7310       350.6063       310.2066       269.0975       242.5112
       202.0596       165.7720       113.5813       68.63268       31.61588
      -4.590714      -51.19769      -78.29553      -122.5043      -167.1215
      -209.5792      -240.8932      -278.8833      -307.8223      -337.2485
      -372.8564      -420.3224      -441.1682      -469.7477      -501.6292
      -540.7660      -563.9635      -593.6475      -614.0240      -644.5000
      -668.9165      -690.2871      -703.3779      -739.1313      -752.7314
      -775.3828      -794.9697      -812.6899      -824.5610      -848.6953
      -853.1777      -867.6492      -878.2612      -887.7725      -890.0471
      -914.3723      -929.2131      -947.1609      -957.8042      -967.3784
      -972.6846      -988.9944      -1003.466      -1022.513      -1022.773
      -1037.303      -1050.620      -1064.240      -1064.208      -1067.796
      -1068.125      -1087.124      -1091.351      -1104.481      -1115.571
      -1116.009      -1104.646      -1118.029      -1124.393      -1126.743
      -1128.333      -1135.819      -1127.944      -1128.062      -1122.287
      -1120.202      -1108.976      -1106.035      -1099.699      -1098.531
      -1084.630      -1077.670      -1069.714      -1070.796      -1057.940
      -1050.954      -1038.055      -1029.280      -1023.257      -1026.422
      -1008.091      -996.3760      -980.6313      -973.9304      -970.4260
      -966.2148      -947.2896      -938.5913      -919.9238      -910.3125
      -896.7449      -881.9287      -860.6135      -842.7671      -820.4946
      -812.1880      -793.7383      -776.7400      -753.8284      -734.0811
      -706.8354      -684.9470      -656.2996      -634.6028      -608.9438
      -589.6328      -560.7429      -540.3706      -508.8546      -482.3094
      -447.2449      -422.6055      -385.9038      -363.0002      -333.0433
      -313.1772      -284.0289      -253.3777      -210.0436      -184.0840
      -148.9728      -119.9218      -77.99178      -45.03732      -19.81695
       3.843628       38.41623       55.76099       85.54956       119.6880
       150.2633       173.1605       208.5457       235.0733       263.4640
       288.4425       321.1761       342.4337       370.2961       393.5635
       412.7975       437.1807       464.4395       482.0359       519.1804
       541.2557       560.7686       583.4541       588.1104       604.9480
       640.0483       650.6973       670.6926       697.2896       720.0012
       735.1062       762.6599       780.1484       784.6501       801.9243
       822.8562       827.3115       847.1997       865.6768       880.5991
       894.4272       911.1362       917.3198       928.6069       942.2339
       951.1565       956.2446       962.5930       965.3892       978.0637
       986.7656       990.4302       990.2061       1002.777       1016.559
       1021.923       1023.018       1022.090       1018.694       1026.396
       1030.993       1031.150       1039.035       1045.974       1048.421
       1050.849       1052.389       1055.779       1060.457       1063.382
       1061.966       1057.824       1062.135       1068.367       1065.375
       1064.228       1063.924       1060.835       1059.027       1058.471
       1055.076       1051.785       1050.315       1046.998       1038.790
       1028.579       1010.342       995.0776       986.3799       978.3196
       964.4885       946.4976       928.4404       914.1079       897.4001
       881.5146       864.5076       845.6743       821.2969       799.6892
       786.6580       765.5144       738.0630       716.8433       694.8823
       667.0671       652.5826       632.0388       605.8113       585.4878
       567.1328       539.8857       515.5227       484.4836       459.6064
       432.2798       402.2378       367.2255       343.1990       315.1760
       291.3167       264.8187       245.6274       218.0755       194.7074
       166.1418       137.3106       99.73669       75.85005       42.21803
       10.33504      -13.20891      -33.69380      -60.48117      -71.71930
      -103.2358      -136.2063      -167.5290      -189.2310      -212.7056
      -229.4288      -249.4972      -269.9500      -294.3953      -316.0527
      -340.8726      -368.3990      -397.0328      -416.0879      -437.8843
      -454.7235      -472.3486      -495.3848      -526.3909      -542.1814
      -557.9749      -591.2239      -614.5574      -620.1943      -643.8436
      -664.2310      -673.1812      -691.3079      -711.6335      -724.8552
      -752.5955      -764.3594      -765.1475      -781.3606      -802.3594
      -808.2932      -826.7515      -846.8606      -869.2878      -878.9680
      -875.7539      -905.3479      -920.5430      -930.1895      -938.9736
      -901.5588      -947.2607      -977.2373      -955.9473      -973.5264
      -977.6294      -986.9199      -993.0776      -992.0176      -999.3696
      -997.8264      -1011.423      -1010.609      -1010.981      -1014.928
