     0.02499999      -1464.657       2133.436      -12345.00      -12345.00
      -30.00005       228.4749      -30.70000      -12345.00      -12345.00
       0.000000       23.05000      -12345.00      -12345.00      -12345.00
      -12345.00      -12345.00      -12345.00      -12345.00      -12345.00
      -12345.00      -12345.00      -12345.00      -12345.00      -12345.00
      -12345.00      -12345.00      -12345.00      -12345.00      -12345.00
      -12345.00      -31.89390      -70.19730       4105.000       0.000000
      -31.06700      -68.46300       0.000000       100400.0       0.000000
      -12345.00      -12345.00      -12345.00      -12345.00      -12345.00
      -12345.00      -12345.00      -12345.00      -12345.00      -12345.00
       188.5815       240.4622       61.36350       1.695590      -12345.00
      -12345.00    -0.08723367       0.000000       90.00000      -12345.00
      -12345.00      -12345.00      -12345.00      -12345.00      -12345.00
      -12345.00      -12345.00      -12345.00      -12345.00      -12345.00
      2008       164        19         4         8
       500         6    -12345    -12345     10340
    -12345    -12345    -12345    -12345    -12345
         1         7        13    -12345    -12345
    -12345    -12345    -12345    -12345    -12345
    -12345    -12345    -12345    -12345    -12345
    -12345    -12345    -12345    -12345    -12345
         1         1         1         1         1
GUAR    -12345          
        -12345  -12345  
-12345  -12345  -12345  
-12345  -12345  -12345  
-12345  -12345  -12345  
-12345  -12345  -12345  
-12345  -12345  BHN     
ZL      -12345  -12345  
[...]
      -885.1069      -977.0488      -919.0527      -922.1548      -1078.389
      -1060.078      -982.0339      -1054.358      -997.0557      -902.4976
      -952.5288      -1044.405      -977.2957      -871.5386      -893.7551
      -875.5085      -812.8201      -854.5625      -778.7063      -647.9521
      -723.3276      -770.8982      -602.3123      -523.8062      -590.7063
      -662.5176      -677.9746      -555.8778      -405.4958      -362.2559
      -384.7528      -395.2744      -232.9818      -133.4814      -207.7796
      -112.0121       98.65540       42.91669      -161.0813      -134.7294
       138.5586       207.0363       59.22711       75.82300       273.8204
       380.2143       297.6390       195.8140       308.7667       450.5188
       534.1375       604.1406       660.7578       764.3599       770.7014
       574.2244       550.8945       710.0107       783.5486       708.8145
       726.7832       875.1326       898.1965       834.6567       895.4651
       984.3301       1085.636       1057.062       913.6245       967.2424
       1114.863       1067.667       959.8174       975.0881       1155.953
       1102.796       870.9961       912.2939       1070.550       1112.038
       1150.438       1098.265       1083.850       1109.682       1054.206
       994.3569       1026.141       1136.210       1193.310       997.3989
       871.6895       998.9143       1074.834       975.9070       937.7610
       948.0447       883.4048       854.8418       918.1873       854.5352
       785.5503       829.9602       897.7764       921.5344       981.6680
       1011.493       902.7800       727.8264       672.2864       652.5275
       648.9395       743.0254       826.4504       761.5508       723.9363
       751.5239       682.4094       579.9633       609.5986       617.3787
       598.1931       570.9622       570.5215       655.0378       642.1223
       436.1069       411.3680       541.6123       500.4924       372.0548
       429.8370       562.8220       606.1321       520.5372       393.3740
       319.4268       276.9711       223.3478       291.5062       423.3928
       494.5228       439.0703       325.5193       199.7587       167.8617
       276.1886       340.6987       216.5616       126.7402       282.9507
       435.4889       303.1006       203.6704       253.2196       216.6635
       70.44260      -28.81061       65.75049       240.6747       209.4635
       125.2794       144.8236       208.7864       193.7790       160.7307
       197.2666       127.6472      -25.50685       17.13118       71.23511
      -54.80359      -73.12396       78.32422       103.2913       51.41689
       53.13125       33.74449       25.22269       46.21262      -40.32605
      -120.9422      -58.54451       3.833427      -40.54126      -36.03551
       30.36922       16.94214      -145.0546      -231.2839      -75.11032
      -20.27222      -241.9493      -343.0571      -243.3249      -139.7324
      -150.7638      -130.3992      -63.44535      -8.340210      -32.63367
      -188.7218      -365.7612      -389.2307      -347.8723      -361.2299
      -409.6733      -395.9554      -301.8813      -140.2402      -186.2961
      -349.1931      -331.8829      -299.4778      -444.9846      -531.3651
      -468.7916      -377.6553      -377.2437      -462.3041      -601.5657
      -596.3320      -470.4153      -433.0713      -531.4662      -577.1335
      -542.7180      -623.8921      -816.0959      -838.3044      -673.9629
      -526.7446      -564.4275      -660.6841      -708.7544      -821.0723
      -929.6965      -853.4607      -746.2976      -754.3416      -843.7051
      -861.2461      -930.2881      -1083.270      -1054.687      -877.8501
      -747.8730      -778.3931      -997.7090      -1163.139      -1133.729
      -1035.311      -1051.085      -1042.230      -950.1846      -974.4614
      -1060.908      -981.4138      -944.4863      -1125.651      -1199.576
      -1029.903      -988.5684      -1044.396      -1069.067      -1085.818
      -1041.729      -977.6155      -962.8398      -994.1367      -1042.607
      -972.9883      -900.1113      -995.6506      -1054.115      -992.3955
      -1006.419      -1014.068      -947.5762      -908.9536      -863.3564
      -781.1189      -782.5271      -821.7769      -857.4734      -909.1738
      -903.2798      -853.0168      -807.6987      -708.5852      -657.8127
      -782.8506      -782.0720      -532.7488      -420.7430      -510.8499
      -619.1863      -566.1766      -489.0132      -641.9600      -673.7815
      -433.9246      -337.4976      -357.2673      -300.8926      -250.2023
      -193.9208      -116.4737      -166.6091      -290.4619      -279.2368
      -72.77322       40.68224      -34.71448       16.71790       192.8864
       185.2545       31.59311      -52.03897       26.32422       182.3550
       272.5900       304.6393       321.7687       341.5363       334.3693
       331.3984       495.5603       639.6876       577.8616       490.9707
       422.8867       267.3440       287.2917       584.6245       719.5387
       588.4828       625.8381       750.6456       685.2542       648.9189
       779.1357       953.7573       906.4482       741.7441       756.2756
       795.4316       805.2107       867.7258       874.3123       882.6245
       914.7573       905.4490       870.3979       900.3403       1036.739
       1127.447       1144.915       1144.249       1037.379       891.4934
       949.8906       1140.125       1138.051       1024.177       1055.594
       1108.491       1034.028       1056.213       1217.717       1238.136
       1074.098       1020.830       1120.039       1137.134       1085.683
       1075.828       1085.246       1121.272       1134.896       1152.733
       1186.398       1114.333       971.7100       943.4688       1012.027
       1092.046       1111.977       1020.601       907.1912       906.9780
       985.8035       1052.579       1004.752       923.8474       900.9751
       826.8977       762.8015       841.6057       898.6125       923.2424
       974.3518       925.6743       778.5161       670.2537       613.2932
       609.8953       617.3783       651.4226       670.8813       695.0225
       731.7355       648.7021       486.8611       483.4330       588.6479
       633.6365       574.7482       525.1119       448.1870       294.9509
       297.9668       477.1918       478.0531       331.2997       360.1655
       397.6454       240.3788       181.8059       244.2685       154.5013
       116.8440       269.1488       311.1274       164.1548       53.91443
       57.33120       13.12759      -71.79551      -39.53923       28.69399
       37.35061       8.950058      -36.82370      -99.27545      -153.3189
      -171.6151      -168.2961      -163.8967      -136.2028      -172.2329
      -302.8107      -326.0713      -257.9125      -282.4286      -322.7747
      -248.3584      -264.8094      -398.3601      -446.3500      -445.4015
      -427.9426      -480.4338      -577.6100      -511.8892      -489.8767
      -622.0042      -598.9609      -497.6141      -548.5796      -610.9335
      -612.4534      -705.2158      -801.4457      -693.0872      -644.1101
      -848.5334      -925.4409      -778.4331      -775.7515      -888.8765
      -847.8728      -753.4248      -854.7700      -1091.367      -1097.309
      -902.0251      -850.1721      -869.4346      -944.1152      -1038.241
      -981.0278      -980.3340      -1101.548      -1116.461      -961.2659
      -925.0332      -1144.590      -1271.160      -1129.519      -1056.682
      -1192.565      -1180.339      -999.2393      -915.3940      -1019.859
      -1196.327      -1167.205      -1051.207      -1139.770      -1263.246
      -1190.698      -1081.296      -1052.774      -1105.987      -1227.520
      -1205.640      -1115.646      -1096.497      -989.0923      -938.6211
      -1075.021      -1136.018      -1010.743      -881.7390      -869.5186
      -920.0432      -933.7954      -849.6404      -913.0400      -1142.926
      -1191.672      -999.1072      -827.5601      -824.9956      -848.3491
      -707.5732      -512.4377      -529.8478      -684.7410      -634.7554
      -542.3578      -574.0405      -593.4238      -606.6472      -525.7146
      -445.1851      -591.7900      -633.7817      -364.3544      -170.8512
      -341.9930      -480.1096      -247.8605      -26.92773      -117.3195
      -191.4850      -23.40417       86.85229      -61.09271      -170.9178
      -39.54947       107.4087       73.92212       126.4140       294.8309
       312.1222       298.1166       222.9215       75.60168       196.2024
       443.2463       433.9351       323.8629       361.3734       373.2554
       385.1201       511.8638       524.7920       502.7671       649.0691
       753.3105       667.0469       604.6985       758.9956       824.8416
       640.2662       572.8909       645.9246       668.4316       737.5479
       923.4229       974.4783       845.0742       808.9717       806.3433
       778.1211       897.9946       1010.609       888.5735       759.7832
       900.0845       1039.364       1010.896       993.4355       1053.822
       1058.299       970.5015       823.5674       747.9160       890.0054
       1080.378       1031.629       913.7239       1011.402       1131.778
       1015.704       926.0281       1094.748       1226.236       1141.588
       1079.346       1013.704       876.3706       897.3364       1038.664
       1018.119       891.8335       898.2161       1077.926       1236.167
       1192.256       978.9338       912.2500       1055.862       1139.124
       1006.560       832.3022       818.1343       829.8301       773.9551
       812.5056       909.6733       858.1855       703.5833       701.2266
       788.7344       816.6760       771.3047       704.2954       715.3705
       650.6406       437.7123       421.7167       599.3313       616.6593
       470.2019       349.1769       306.9294       397.6210       402.2031
       233.9589       154.2631       168.9563       87.59589       115.8561
       141.1326      -8.098557      -11.02612       126.9713       37.71362
      -138.8048      -219.3067      -187.2690      -115.3653      -124.7515
      -183.7607      -279.6373      -421.0083      -403.8323      -367.0750
      -372.1893      -284.7332      -261.6519      -419.3953      -547.8354
      -535.3059      -516.1453      -556.5304      -519.2893      -502.1858
      -536.4336      -563.5945      -675.8472      -766.3472      -642.5371
      -501.4946      -585.9244      -697.1436      -574.0498      -508.3848
      -646.8750      -758.2375      -759.0076      -749.9561      -728.8989
      -738.4258      -708.8752      -661.8914      -726.9209      -812.7480
      -795.2566      -811.4399      -871.5925      -858.7256      -692.0385
      -560.4966      -607.1382      -725.0332      -745.7144      -764.7922
      -848.2517      -825.2908      -722.3726      -753.9902      -782.6394
      -738.8223      -720.4387      -716.1611      -683.4436      -730.7371
      -752.7612      -760.0908      -824.0728      -842.8540      -768.6816
      -696.1262      -681.0652      -752.9417      -726.8563      -622.5665
      -606.8030      -571.2249      -448.2395      -450.5750      -546.5886
      -653.1473      -692.6686      -605.8914      -528.8733      -574.3256
      -496.8541      -340.1421      -361.9900      -523.3167      -579.8890
      -467.3217      -323.9347      -321.4269      -359.8947      -312.7819
      -265.7705      -294.4230      -252.1447      -200.7850      -195.8615
      -188.6345      -208.6506      -264.2600      -222.3737      -109.5062
      -37.03129      -14.53787       47.57779       53.33122       26.93401
       33.28009      -43.10071      -191.8890      -238.4633      -210.2321
      -159.8962      -112.2767      -49.76648      -91.54544      -109.1936
      -19.13895      -66.41724      -90.79895       237.7378       654.8140
       977.6655       1103.078       839.9400       270.7646      -159.5995
      -288.4157      -185.7766       34.70227       303.7596       488.9916
       299.2037      -49.01660      -97.49771      -128.7849      -219.5952
      -7.868408       489.8191       1012.811       1303.520       1201.963
       925.0845       723.8694       708.4622       620.6317       258.4301
      -208.1305      -617.6241      -730.3785      -238.5978       408.8053
       579.4980       830.3049       1279.658       1116.756       746.8428
       743.9485       681.1193       340.3318       37.21982       78.25879
       327.0443       279.3186       51.25122       238.3840       391.7310
       260.6783       535.7845       528.7043       166.3280       461.3015
       276.8954      -80.76074       1129.705       2133.436       1575.725
       798.3571       100.6436      -677.1787      -998.1965      -883.9968
      -198.5233       742.0088       722.6350       328.9789       613.2833
       569.3770      -201.0963      -375.9205       127.5708       495.9495
       809.9324       967.3679       714.5850       401.2708       334.8613
       159.9675      -179.5577       47.81738       387.0305       167.5409
       3.535461      -133.0508      -489.2854      -531.2985      -340.2561
      -176.7976       743.9248       1661.728       979.0244       209.9089
       531.1721       145.4932      -932.7765      -737.7760       322.9395
       519.0088       235.5571       644.2271       910.4940      -56.67883
      -651.2025       58.04233       83.03284      -448.6228       132.9116
       871.9338       902.7979       898.1453       911.4866       356.0057
      -201.9410       345.6519       614.6978      -675.8364      -1162.426
       30.96631       708.5635       657.8311       838.0211       654.7672
      -113.4278      -423.9915       127.9165       786.2114       941.4646
       560.5681      -65.64105      -304.6938       140.0781       491.9152
       381.3982       505.2075       1020.706       837.8303      -134.3992
      -427.7598      -79.87817      -209.7103      -565.0416      -11.20264
       1252.546       1153.288      -308.1774      -724.2988      -118.7765
       249.5627       476.8201       343.4342       66.64580       85.30084
      -14.87512       134.6129       507.9931       419.4034       165.2596
       16.28003      -245.3274      -644.2361      -689.2712      -140.1512
       362.7146       281.6575       148.0686       223.1413      -12.36456
      -315.3781      -125.1416       381.9485       557.0186       284.3771
       58.01747       102.0678       34.26587      -404.4971      -792.3911
      -876.2245      -689.7961      -503.0104      -569.3599      -455.4769
      -147.0555      -92.90106      -103.1915      -84.69836      -239.3005
      -265.2812      -204.9972      -364.2502      -629.6523      -748.1462
      -359.4067      -133.0745      -535.8547      -805.0916      -806.3175
      -663.1863      -412.8315      -349.3399      -331.5691      -322.8987
      -445.7124      -457.3877      -433.0618      -485.7063      -452.9612
      -471.5400      -753.7251      -947.3164      -650.1174      -343.8938
      -518.8784      -926.6226      -968.4346      -553.3417      -264.6522
      -326.3232      -409.1736      -559.1917      -870.4973      -853.3849
      -557.4449      -307.6830      -128.2033      -248.1111      -486.8813
      -648.2861      -930.0393      -1036.533      -913.6421      -872.2916
      -602.0786      -192.1384      -198.5443      -327.7289      -303.4340
      -359.6760      -453.8704      -615.2935      -991.7385      -1018.924
      -483.7932      -260.0806      -621.5319      -765.0040      -444.1512
      -296.0476      -662.8037      -969.8750      -668.9873      -301.8652
      -324.9714      -392.7539      -574.2119      -717.7648      -533.6150
      -501.5507      -424.3091      -96.89404      -202.4663      -516.9197
      -491.1691      -363.6318      -413.5714      -616.6781      -664.1075
      -513.2837      -540.9257      -572.3596      -317.8788      -78.38388
      -68.29446      -103.1925      -151.4575      -340.2716      -521.0284
      -493.3638      -414.1968      -256.2224       141.1433       430.7347
       372.0712       291.3166       121.4265      -254.9431      -505.5034
      -342.0515      -18.85486       96.62335       68.00366       220.3774
       410.1011       315.0197       224.5927       318.0758       382.9216
       389.9241       384.8367       328.1894       221.7703       242.0331
       325.3950       356.1771       467.9966       563.8850       554.7084
       553.6356       564.7563       602.6322       585.2214       508.6525
       512.2041       538.5691       599.6073       639.2039       645.7471
       792.5125       832.0767       548.4971       353.3676       383.0149
       553.0989       781.8916       840.3250       803.8623       834.5991
       902.4092       1020.447       1134.007       1130.976       901.9863
       581.2113       338.9507       329.0789       534.4692       755.8833
       917.0779       881.2073       611.5439       695.4355       1076.898
       1011.209       701.7063       755.0510       912.2192       916.8743
       960.6929       1074.508       1164.777       1180.438       970.9041
       784.5056       769.4043       757.3954       700.9333       569.2131
       442.7593       527.6158       614.1116       579.9937       795.2549
       1137.880       1135.837       1075.202       1072.127       866.0132
       635.0093       609.6290       547.1740       431.4554       389.4720
       422.7844       548.3656       565.0967       324.8665       392.1484
       637.9218       509.7942       455.0071       695.8223       672.0072
       384.4349       199.6297       220.5125       317.3740       357.3409
       264.3726       156.3767       28.56296       24.31873       88.14523
       70.28003       107.8347       286.7573       434.7001       417.5410
       322.1055       267.4580       215.2066       123.4079       64.48355
       124.0937       14.23035      -222.6038      -245.9990      -182.1478
      -266.2715      -236.4862      -57.97760      -90.89661      -219.9431
      -132.5366      -29.86902      -136.3401      -316.6706      -306.7676
