     0.02499999      -1636.279       1799.729      -12345.00      -12345.00
      -30.00005       228.4749      -30.70000      -12345.00      -12345.00
       0.000000       23.05000      -12345.00      -12345.00      -12345.00
      -12345.00      -12345.00      -12345.00      -12345.00      -12345.00
      -12345.00      -12345.00      -12345.00      -12345.00      -12345.00
      -12345.00      -12345.00      -12345.00      -12345.00      -12345.00
      -12345.00      -31.89390      -70.19730       4105.000       0.000000
      -31.06700      -68.46300       0.000000       100400.0       0.000000
      -12345.00      -12345.00      -12345.00      -12345.00      -12345.00
      -12345.00      -12345.00      -12345.00      -12345.00      -12345.00
       188.5815       240.4622       61.36350       1.695590      -12345.00
      -12345.00      0.3830842       90.00000       90.00000      -12345.00
      -12345.00      -12345.00      -12345.00      -12345.00      -12345.00
      -12345.00      -12345.00      -12345.00      -12345.00      -12345.00
      2008       164        19         4         8
       500         6    -12345    -12345     10340
    -12345    -12345    -12345    -12345    -12345
         1         7        13    -12345    -12345
    -12345    -12345    -12345    -12345    -12345
    -12345    -12345    -12345    -12345    -12345
    -12345    -12345    -12345    -12345    -12345
         1         1         1         1         1
GUAR    -12345          
        -12345  -12345  
-12345  -12345  -12345  
-12345  -12345  -12345  
-12345  -12345  -12345  
-12345  -12345  -12345  
-12345  -12345  BHE     
ZL      -12345  -12345  
[...]
       601.3037       627.7518       630.6825       636.4177       658.8013
       668.0862       647.5963       631.3879       617.7548       606.6263
       591.5225       582.5192       584.2218       606.7141       633.1257
       647.0934       629.4487       600.3730       596.6541       622.3995
       653.3956       663.8701       637.6372       590.6055       554.0559
       540.9685       551.1787       576.5044       595.7839       601.7693
       601.8306       589.6455       563.4514       551.3909       569.2061
       584.2246       570.3850       553.5696       545.4578       547.0146
       564.3583       602.3628       632.8696       650.9360       659.5081
       636.4023       597.4409       573.4170       558.9841       553.4957
       557.3087       557.2466       545.3767       538.6245       537.9392
       536.5667       522.9772       512.7878       518.3558       519.0486
       499.3602       476.6713       460.0649       447.6011       441.0468
       430.9420       407.4130       398.4248       397.8850       400.5173
       421.3019       428.8799       404.2767       372.4916       343.2811
       317.7307       293.1740       279.2418       295.5133       307.3434
       288.2227       261.7870       243.3912       218.6223       187.4875
       174.5308       178.3807       180.0913       181.2504       185.6714
       171.6071       135.9048       91.89647       69.55966       63.47946
       55.04787       42.65351       27.29331      -3.236725      -19.44814
      -23.08803      -23.91056      -32.24590      -36.34344      -41.87610
      -61.86148      -100.3793      -131.1374      -144.4108      -139.1251
      -137.1677      -140.2308      -144.4738      -152.1116      -174.8687
      -216.0936      -248.6984      -262.0534      -277.1140      -281.7379
      -262.5670      -267.4976      -305.3767      -311.3464      -300.2982
      -295.7938      -301.7104      -299.6467      -280.7852      -262.3173
      -267.7682      -283.9438      -283.0825      -273.6759      -279.4963
      -278.5674      -288.4550      -307.3112      -320.8306      -324.0662
      -324.4139      -325.5908      -324.0857      -322.7917      -344.1990
      -357.6840      -351.7095      -353.1642      -359.5391      -359.1802
      -358.6299      -345.7594      -333.4523      -353.9784      -387.8088
      -391.5796      -373.7577      -380.8055      -412.2478      -434.9863
      -457.4971      -486.1697      -505.0708      -530.1179      -552.6729
      -549.9370      -546.4186      -549.4341      -544.3777      -546.7529
      -553.0310      -556.0432      -565.8386      -577.9818      -575.7124
      -557.8730      -544.3726      -544.1880      -546.5205      -551.6603
      -554.4824      -546.3813      -536.5394      -535.2040      -544.1069
      -542.7159      -524.6606      -506.2488      -501.8811      -486.6687
      -459.6553      -461.2249      -488.5756      -481.6333      -446.1986
      -424.5518      -403.2395      -365.3234      -337.2551      -328.3234
      -323.7101      -315.0957      -302.5031      -284.9261      -267.1954
      -254.6186      -241.8101      -225.9951      -216.1677      -204.8790
      -176.5714      -147.3084      -139.9928      -129.9617      -106.5786
      -83.45193      -59.96873      -37.45961      -11.04573       17.20171
       38.72247       59.05489       69.40752       69.11389       88.35657
       117.0500       133.7749       136.5319       147.1639       171.1064
       192.3492       216.7136       239.3570       243.7706       248.6824
       278.0621       312.7917       340.1759       364.1022       387.4891
       399.8262       398.7607       398.9583       408.9199       414.4983
       418.8718       431.0397       429.7251       422.4624       424.0161
       421.7808       423.7223       438.1377       456.5034       470.7216
       467.6443       444.8318       426.0297       424.8121       422.5538
       428.3108       431.7743       413.4790       404.2920       404.3042
       378.8462       360.0215       359.4457       363.3109       371.0579
       376.8383       362.4622       348.9292       349.2670       363.0521
       369.1632       375.5568       372.6548       365.5479       364.6711
       362.9273       337.9486       311.3605       299.6436       295.5298
       284.1482       289.2255       300.9283       307.8887       306.9624
       298.7646       277.0760       259.5842       251.6937       251.0874
       245.9472       244.1849       221.7061       186.8143       155.2923
       146.2756       156.2341       160.6460       145.2087       128.3560
       112.6317       98.53210       77.35330       52.07030       27.48689
       7.361721       5.953295    -0.03237915      -19.61934      -41.81531
      -63.01306      -88.42200      -112.2582      -127.3542      -135.2246
      -133.0459      -113.4915      -98.72638      -105.6848      -132.5814
      -149.3323      -152.1596      -146.5371      -144.8682      -145.4131
      -148.4705      -150.8001      -160.6813      -171.0024      -183.4523
      -178.3161      -162.1569      -155.3408      -168.7539      -181.5473
      -177.9109      -155.3848      -128.6609      -122.7196      -153.1246
      -192.0566      -225.6631      -234.2098      -230.8203      -224.3938
      -222.5013      -220.7250      -229.5768      -232.0056      -223.8509
      -210.4512      -195.6773      -183.4748      -167.9373      -141.2036
      -129.4384      -135.4574      -139.2516      -135.2832      -146.7451
      -162.9443      -158.2197      -133.9358      -114.1890      -111.4494
      -111.7458      -98.22220      -86.95694      -82.63669      -72.39496
      -66.76849      -72.01044      -75.59090      -65.22366      -64.39987
      -73.89137      -66.47157      -41.13889      -24.75600      -6.194267
       14.01522       31.53690       34.30814       29.97455       29.98135
       37.18724       42.87932       42.15623       42.96342       51.43558
       67.42078       95.47968       138.7452       176.3967       204.0400
       212.0480       219.5830       231.6368       245.2631       254.2054
       271.2352       283.8032       291.3048       287.2142       297.1876
       309.5327       314.6547       314.7551       327.1942       348.4181
       368.4825       368.9961       373.5785       376.3530       363.5186
       340.2526       325.7008       320.4034       317.2304       300.1902
       288.4569       279.6453       268.3380       257.5898       255.8386
       247.5955       225.0073       183.4733       153.7509       142.5211
       136.5301       109.1862       85.55489       70.68058       49.83196
       15.47778      -5.012993      -26.06926      -67.89246      -113.9564
      -136.4248      -152.1286      -157.0096      -159.8396      -165.6322
      -183.8472      -208.5165      -237.3034      -265.2875      -288.4758
      -304.0360      -319.0984      -318.5170      -319.5984      -325.7548
      -343.5835      -360.4043      -377.4031      -402.5342      -438.9918
      -461.5129      -470.3374      -476.1678      -486.1919      -498.3156
      -503.4468      -502.8037      -513.6091      -529.9785      -541.7764
      -542.6345      -539.5974      -537.4810      -537.0308      -541.2194
      -549.0654      -550.7686      -550.8123      -548.5485      -551.2435
      -546.5195      -523.9042      -503.8365      -499.8936      -497.4115
      -491.1379      -484.5009      -484.2816      -492.3016      -501.1606
      -491.1342      -457.8215      -437.1428      -438.0701      -431.7908
      -406.4556      -373.4783      -356.2474      -350.6200      -339.5868
      -323.8690      -305.9003      -281.7987      -264.3658      -257.5401
      -251.5580      -230.3237      -223.7563      -224.0289      -212.3578
      -194.5371      -183.4651      -171.5624      -157.0508      -134.1809
      -117.0623      -108.1837      -109.0675      -102.7017      -82.34705
      -39.79442     -0.1683502       25.15277       34.18334       36.46279
       30.47586       49.39917       67.42792       83.60098       106.4095
       118.6547       111.1155       125.9738       147.1980       181.4624
       208.8883       230.7627       241.2797       271.4659       285.5801
       301.1500       329.1963       360.2207       347.3070       342.2610
       346.5555       371.9247       373.9597       381.0958       398.7571
       431.0762       423.1503       436.9421       460.1475       474.7754
       466.7455       481.9991       478.9575       470.2784       452.8917
       471.6167       488.9901       506.1987       490.8687       475.8503
       461.3159       467.6498       452.2432       451.1414       443.2975
       451.8164       462.2625       482.1478       473.4832       459.5604
       426.9791       426.3408       429.6941       439.4283       423.7673
       425.7938       415.7981       418.5066       412.6727       430.9856
       438.9922       446.7440       438.6019       452.0740       446.5548
       445.1047       436.6947       445.3209       437.0714       441.5211
       443.4570       449.2390       436.6746       433.0115       429.3859
       442.2664       445.5804       452.1375       437.8765       422.3704
       409.5830       415.2173       415.4934       415.7029       411.7528
       417.5875       405.6925       394.4596       375.0754       359.9237
       344.6715       334.8389       322.5417       331.5959       332.0035
       331.8538       321.2850       311.8972       289.6577       271.2385
       263.9645       270.3628       258.4061       246.0263       230.6270
       219.7840       204.1479       181.7347       145.1394       125.3806
       112.1987       114.2969       109.3679       102.9111       93.23425
       87.55101       63.15948       45.53123       14.83208      -12.31306
      -26.29058      -15.00683      -23.45575      -42.02548      -64.41525
      -53.84641      -45.33588      -48.68814      -64.39316      -67.38040
      -82.14297      -80.29700      -73.60004      -59.39651      -80.89664
      -95.21945      -107.8041      -114.9043      -122.3333      -107.3806
      -109.7345      -111.5383      -131.3191      -162.7781      -201.2744
      -203.0687      -176.6938      -137.8899      -123.9853      -122.2444
      -136.1033      -126.4628      -123.7083      -123.9325      -126.7436
      -128.6570      -160.7819      -172.6056      -179.9592      -185.2932
      -193.4357      -182.5666      -187.3987      -195.3242      -219.2334
      -229.1188      -242.5749      -235.9240      -220.9785      -202.0902
      -216.2889      -235.3176      -258.3495      -274.9658      -310.0897
      -307.8091      -302.3999      -304.8672      -327.0676      -353.3440
      -389.2184      -401.5715      -423.9841      -436.5833      -460.4492
      -480.8246      -506.2783      -520.4679      -541.5615      -563.2247
      -605.6409      -632.9218      -670.9058      -695.5142      -716.3877
      -744.2476      -794.0081      -835.2319      -878.0076      -898.4294
      -924.1084      -953.2622      -987.3491      -1018.658      -1057.152
      -1077.109      -1089.204      -1095.196      -1123.998      -1149.474
      -1179.807      -1217.997      -1253.090      -1261.512      -1266.105
      -1268.567      -1269.830      -1254.058      -1249.715      -1256.383
      -1268.189      -1269.109      -1270.411      -1260.879      -1249.071
      -1222.992      -1202.154      -1194.565      -1193.028      -1172.443
      -1148.701      -1112.268      -1082.739      -1058.190      -1046.768
      -1032.846      -1016.163      -989.6921      -964.7227      -923.0725
      -878.7805      -817.3564      -771.3960      -733.7485      -694.4525
      -661.6078      -639.0654      -595.4750      -551.5852      -510.8110
      -486.8583      -450.0885      -411.9808      -377.3095      -344.0393
      -291.0869      -233.6684      -177.4407      -129.5125      -65.13019
     -0.5583496       52.11511       88.95599       125.4776       162.6824
       206.8387       237.9458       277.2091       329.5286       383.5754
       431.7948       482.8628       527.5352       580.5229       620.2297
       671.1929       741.3486       806.0825       855.9788       905.4595
       948.6597       983.3325       997.4282       1031.775       1078.777
       1128.833       1173.023       1217.821       1260.108       1305.459
       1328.018       1363.539       1394.679       1426.023       1460.933
       1511.082       1542.251       1574.444       1605.905       1637.042
       1640.302       1650.312       1664.179       1680.480       1695.932
       1727.183       1737.386       1731.708       1714.545       1732.606
       1752.917       1755.728       1758.667       1789.879       1799.729
       1794.746       1788.743       1795.176       1785.927       1772.593
       1752.236       1740.640       1736.235       1733.008       1716.939
       1700.604       1675.214       1643.781       1614.419       1594.676
       1571.893       1549.811       1528.019       1515.213       1496.963
       1457.938       1412.172       1362.947       1322.372       1308.441
       1291.327       1259.845       1209.200       1148.069       1097.088
       1054.041       1003.783       962.5105       928.1880       886.6899
       835.9443       790.2866       756.1162       722.0024       674.5232
       617.1899       552.2546       500.5968       458.9130       425.1885
       397.7063       359.4310       301.1760       245.2316       190.0923
       144.5624       83.93004       26.56209      -26.85187      -73.38339
      -135.5184      -197.4673      -253.0645      -286.3275      -319.5535
      -354.8811      -410.7095      -475.2618      -531.2017      -569.6685
      -612.0138      -648.3032      -685.0046      -720.8589      -767.6104
      -822.7988      -867.9302      -894.7502      -930.6763      -969.5964
      -1014.824      -1063.189      -1110.219      -1157.113      -1200.808
      -1229.077      -1243.382      -1252.250      -1283.795      -1327.461
      -1364.959      -1397.021      -1424.321      -1442.683      -1462.028
      -1474.490      -1488.513      -1501.364      -1521.010      -1542.815
      -1564.666      -1582.943      -1587.091      -1591.633      -1604.946
      -1608.781      -1613.670      -1601.592      -1589.161      -1582.000
      -1577.965      -1566.773      -1562.683      -1549.359      -1540.800
      -1533.047      -1529.501      -1513.738      -1499.508      -1479.247
      -1465.359      -1445.863      -1426.222      -1401.614      -1387.244
      -1364.840      -1342.069      -1323.332      -1314.790      -1295.032
      -1274.957      -1250.862      -1241.420      -1227.993      -1200.988
      -1161.470      -1122.098      -1084.856      -1058.493      -1027.682
      -1007.648      -994.4812      -983.4858      -967.3264      -946.6394
      -914.4333      -882.2285      -845.9033      -813.1050      -783.1885
      -761.2400      -735.3677      -713.6023      -684.4047      -664.8848
      -632.8712      -585.3202      -530.9370      -496.6144      -471.0002
      -454.4443      -422.7257      -389.4913      -362.3082      -341.2141
      -308.9620      -270.8249      -241.4679      -228.2737      -205.8141
      -182.7955      -154.6674      -134.1920      -97.68377      -54.49913
      -1.942688       48.95047       97.55255       131.9303       166.0840
       190.0832       214.2975       236.5984       279.2832       330.6119
       375.9877       405.0609       439.6295       471.3613       501.9004
       517.6858       540.6885       572.0083       605.2251       638.2732
       671.9663       688.6860       708.7852       730.5198       750.2827
       767.0894       789.4438       812.7637       834.7214       845.9023
       860.1880       865.3906       869.6335       880.3633       909.0527
       940.4348       950.5664       947.0535       941.8679       929.1768
       920.4558       922.0918       940.4307       949.1213       951.2095
       948.8457       945.6763       938.6187       926.8877       924.3074
       929.8403       924.1531       921.7935       918.3491       918.1143
       918.4954       936.6899       952.0796       961.6665       963.0781
       960.9258       950.2964       940.5791       924.3521       913.0063
       900.0190       891.3813       879.1370       879.1846       877.8445
       857.9243       823.2388       797.4517       780.5869       774.9688
       770.4248       760.6597       743.3838       717.2852       688.4248
       664.5062       638.4220       614.7671       596.7883       590.7080
       579.0811       560.9268       540.1459       524.3573       503.9502
       488.2334       475.3132       469.3312       453.4666       426.2325
       395.1696       374.5006       355.6932       339.8530       325.8206
       331.1262       338.3180       344.1235       335.3746       325.2347
       305.6929       291.8313       280.4802       277.9529       265.6437
       253.6995       243.9710       246.6173       240.4611       234.9410
       220.0391       197.0735       180.1816       180.9819       171.1180
       169.7238       173.8058       176.3520       160.6120       147.1252
       145.6940       152.9467       152.4702       148.5641       142.9973
       141.1326       137.5223       134.6592       129.4019       124.2572
       121.3194       125.3076       121.2650       117.8482       112.1902
       108.5405       106.3521       107.4301       104.6372       101.4126
       89.07048       78.32648       68.28384       67.44873       70.63718
       68.41461       51.60047       41.78423       22.60379      -3.545866
      -8.695992       2.329527      -3.540787      -23.51390      -46.25092
      -57.23755      -83.74146      -114.2013      -130.6011      -129.8441
      -137.3843      -147.3343      -174.7446      -206.7283      -243.8440
      -268.2683      -284.4491      -290.3914      -313.3278      -337.7438
      -364.6594      -372.7520      -391.1774      -413.5986      -443.9329
      -464.5260      -485.7283      -499.5706      -516.0491      -516.6821
      -523.2632      -534.7076      -548.4397      -551.0552      -559.4012
