     0.02499999      -1701.520       1526.531      -12345.00      -12345.00
      -30.00005       228.4749      -30.70000      -12345.00      -12345.00
       0.000000       23.05000      -12345.00      -12345.00      -12345.00
      -12345.00      -12345.00      -12345.00      -12345.00      -12345.00
      -12345.00      -12345.00      -12345.00      -12345.00      -12345.00
      -12345.00      -12345.00      -12345.00      -12345.00      -12345.00
      -12345.00      -31.89390      -70.19730       4105.000       0.000000
      -31.06700      -68.46300       0.000000       100400.0       0.000000
      -12345.00      -12345.00      -12345.00      -12345.00      -12345.00
      -12345.00      -12345.00      -12345.00      -12345.00      -12345.00
       188.5815       240.4622       61.36350       1.695590      -12345.00
      -12345.00     -0.1399816       0.000000       0.000000      -12345.00
      -12345.00      -12345.00      -12345.00      -12345.00      -12345.00
      -12345.00      -12345.00      -12345.00      -12345.00      -12345.00
      2008       164        19         4         8
       500         6    -12345    -12345     10340
    -12345    -12345    -12345    -12345    -12345
         1         7        13    -12345    -12345
    -12345    -12345    -12345    -12345    -12345
    -12345    -12345    -12345    -12345    -12345
    -12345    -12345    -12345    -12345    -12345
         1         1         1         1         1
GUAR    -12345          
        -12345  -12345  
-12345  -12345  -12345  
-12345  -12345  -12345  
-12345  -12345  -12345  
-12345  -12345  -12345  
-12345  -12345  BHZ     
ZL      -12345  -12345  
[...]
       244.9162       257.5486       279.9949       294.6615       329.6354
       372.8650       390.6577       384.2018       365.7898       363.3550
       414.9686       463.4146       438.8789       396.0424       400.8301
       432.1873       442.3506       435.7385       437.6754       436.7448
       426.6548       424.4945       460.0786       519.3264       527.1921
       484.1483       483.9645       511.1647       503.8978       498.2178
       477.3495       440.6697       408.1511       416.9343       489.8445
       561.9507       568.4802       490.4641       431.9252       474.2375
       435.1359       318.8281       328.6610       400.4303       323.3316
       240.1602       438.7996       563.6471       358.7459       267.9347
       325.8667       323.0696       389.8254       430.9707       265.3958
       214.1894       203.8090       167.3533       326.3910       432.2976
       323.0622       133.3532       169.5767       251.5918       137.2661
       134.8391       202.0073       227.2095       229.0885       149.8983
       85.40497       121.0194       148.2787       106.6196       19.82751
      -50.19461      -34.80399       50.68448       79.69794       125.6323
       153.4817       10.48746      -94.85156      -115.1786      -183.4933
      -162.0166      -92.11101      -61.17474      -89.96613      -163.8126
      -231.8865      -168.8934      -37.99341      -156.9037      -235.4837
      -171.3500      -208.6685      -265.4067      -309.3177      -149.7425
      -101.0046      -203.2340      -264.3033      -229.7114      -156.2136
      -352.6534      -357.2554      -180.8655      -228.0550      -250.2516
      -285.3409      -171.9438      -129.3074      -290.1088      -262.4977
      -275.4678      -203.7516      -116.0485      -249.7043      -212.7416
      -185.2051      -325.8763      -332.2460      -281.7466      -261.7670
      -225.3138      -249.4383      -187.4068      -144.3804      -101.5918
      -169.0637      -392.3699      -351.3341      -230.4082      -291.5803
      -340.5342      -339.7870      -302.5151      -208.8306      -195.2546
      -159.7971      -129.8900      -177.0088      -318.3405      -335.7377
      -215.3798      -338.8335      -356.3428      -168.9973      -249.0082
      -322.2113      -245.8793      -168.5471      -131.3834      -201.0487
      -136.4426      -58.34259      -267.2705      -374.9592      -191.2729
      -139.3593      -91.65379       1.109924      -138.3786      -173.5984
       8.454803      -3.456116      -181.3562      -89.55482       12.85901
      -126.4378      -95.70500      -32.67997      -65.09557       45.22299
       86.64823      -1.846146      -7.588276      -26.58665       66.39941
       82.47647      -40.88586      -110.9306      -44.29688       21.58395
      -43.62480       25.44928       40.13470      -15.94778      -22.90063
      -94.33847      -64.02388      -8.320248       5.938211       10.77599
       1.094055      -42.05551      -148.1635      -109.2131       30.27467
       24.65218       5.045227      -87.67456      -140.3668      -88.19876
      -32.47299       24.09009      -69.01364      -121.1372      -34.78345
       29.48407       38.23927      -4.302605       22.05754       11.68384
      -96.49677      -85.37164       16.05547      -16.49639       14.32061
       47.98457      -57.99982       121.1443       198.9286      -12.77765
       61.18304       160.1153       91.13540      -12.29797       7.357819
       109.5507       54.53290       64.19122       143.5352       223.5530
       297.8030       247.2883       256.6519       178.8760       49.65820
       128.0027       140.6537       106.9260       233.5751       286.8321
       209.2937       112.7958       141.7258       270.1695       172.3907
       60.20905       218.7357       267.5016       189.2617       193.8818
       201.7368       212.0414       146.9891       54.36017       73.29779
       152.7531       200.2502       219.5560       230.4054       193.4330
       55.04574      -25.05701       96.99945       158.6276       117.3398
       61.62796       35.90399       67.46783       97.50500       177.0587
       139.2752      -32.67124      -30.64567     -0.6360016      -32.00362
       18.82860      -36.23427      -69.02322      -16.14851      -66.50095
      -72.10806      -27.23126      -78.92279      -105.1499      -86.81714
      -121.1672      -157.8428      -172.2473      -174.2399      -161.8439
      -218.5829      -255.6931      -173.3968      -162.2222      -271.2397
      -187.7328      -102.3937      -215.9957      -247.1985      -221.5042
      -260.4807      -267.2733      -240.4647      -230.4553      -157.6926
      -188.2663      -295.9199      -267.9321      -273.4897      -304.2822
      -177.8599      -144.8582      -329.7495      -315.4654      -185.0039
      -220.9102      -256.9921      -274.0875      -276.0228      -315.9701
      -334.2457      -299.9082      -253.9076      -228.2405      -207.0399
      -206.9009      -259.2477      -234.0590      -211.1669      -203.3623
      -191.5097      -296.8873      -343.1953      -264.9638      -253.8889
      -286.8737      -245.9385      -259.3242      -257.3766      -285.2504
      -262.8041      -110.5214      -81.35626      -180.7606      -265.4185
      -332.6997      -391.5269      -352.6061      -230.8615      -206.7507
      -125.9146      -133.6985      -306.5883      -318.4320      -227.2086
      -205.0902      -257.4741      -293.2896      -317.6777      -389.4821
      -308.4409      -253.5768      -204.7251      -182.4143      -337.6263
      -401.0653      -374.8059      -340.3641      -259.1698      -216.8802
      -298.0867      -427.9976      -372.7917      -327.9083      -273.8401
      -219.4713      -283.6061      -343.1382      -368.3530      -330.8400
      -215.2894      -99.64709      -205.7434      -387.7318      -290.6985
      -255.1694      -238.8722      -177.0935      -224.0926      -182.9841
      -175.5573      -227.2454      -265.5062      -273.3989      -181.7975
      -172.2712      -94.60992      -36.51038      -123.5718      -140.3889
      -104.0037      -16.55103      -40.36395      -195.6555      -168.1773
      -117.3220      -59.89982       5.479332      -28.17542       38.35406
       97.14146       9.872742      -131.9596      -164.0738      -19.51138
       51.28238       98.72150       141.5417       114.9546      -23.00052
      -79.49689       91.25476       188.0591       162.5111       231.8907
       230.6585       139.7614       133.8076       218.9669       247.1653
       230.9565       302.2297       361.2309       305.2651       349.0076
       401.8231       399.0441       450.8898       467.9077       444.5272
       442.9518       494.7185       500.9443       505.0411       614.1570
       626.7754       571.3965       641.8940       703.6692       625.1943
       585.0931       587.1855       620.4839       747.9661       726.4601
       654.2434       668.8184       761.5713       863.9900       846.1157
       856.2515       718.4929       622.8965       757.0798       791.4993
       822.9753       857.5610       882.0808       868.3206       815.2212
       887.0398       914.0688       948.1841       924.8447       852.3188
       846.4331       823.4141       903.4543       1022.298       1076.155
       1011.350       940.8857       979.9731       910.7573       928.4346
       1053.099       1026.794       1014.827       1017.021       911.8049
       930.7373       1001.567       1062.882       1011.451       964.4856
       919.3303       837.0889       991.9060       1096.966       957.7109
       865.5759       806.5496       817.0576       816.6714       779.3225
       910.6790       953.1394       815.8608       697.5991       662.9808
       655.6074       620.1453       701.4352       660.9202       551.7732
       632.2958       619.9392       540.3632       540.6731       453.7688
       341.0322       328.6168       400.4189       354.4694       226.7032
       239.7975       300.2524       251.0780       124.2350       181.6282
       148.3956       7.564377       63.95645       92.01413      -29.60040
      -133.8106      -147.5554      -150.5448      -166.7440      -164.7803
      -181.9903      -166.9387      -164.2961      -330.5133      -451.8917
      -385.8284      -425.6254      -515.3062      -562.3489      -531.3167
      -418.7345      -464.3459      -635.7485      -744.9114      -718.5798
      -653.5181      -664.8015      -753.5630      -792.2983      -827.5854
      -875.8542      -826.6443      -795.4370      -865.0635      -915.3579
      -901.0557      -915.4360      -1030.862      -1091.206      -1039.633
      -992.3630      -953.6016      -971.1846      -1088.249      -1108.902
      -1047.335      -1029.319      -1013.691      -1075.514      -1176.366
      -1192.693      -1134.363      -1083.585      -1110.711      -1118.465
      -1088.526      -1060.718      -1113.500      -1187.027      -1173.996
      -1201.257      -1230.819      -1113.217      -1068.656      -1160.750
      -1146.920      -1066.204      -1094.623      -1179.401      -1188.445
      -1209.170      -1210.644      -1145.878      -1055.669      -1041.566
      -1134.585      -1100.199      -1059.265      -1095.592      -1043.829
      -1009.748      -950.6665      -884.9038      -943.3013      -1029.133
      -1037.819      -979.5332      -833.8037      -828.1956      -841.5977
      -790.9575      -801.2812      -786.3269      -727.6084      -607.9905
      -614.7109      -683.9010      -612.8381      -626.3802      -680.9548
      -625.0764      -565.9563      -495.8799      -396.1683      -386.7104
      -413.0978      -480.8665      -476.4851      -344.1531      -322.4861
      -454.1271      -388.9158      -136.5029      -55.34579      -124.4519
      -129.2832      -144.4553      -259.9478      -329.9460      -292.7163
      -176.9055      -37.64981      -56.88934      -41.88927       4.144287
       23.60303       126.5460       182.2710       176.1313       218.2666
       171.1448       31.84534       64.56134       207.1245       251.8724
       298.5630       330.7017       394.3005       406.0498       452.2925
       570.8405       597.6580       600.3340       532.8202       416.6389
       471.8069       602.4097       706.1770       808.5593       901.6177
       825.8330       787.6421       801.8760       824.7537       881.6128
       855.4692       890.8655       951.1384       1015.852       1123.641
       1049.087       997.3323       1049.983       1132.782       1028.812
       981.6631       1141.891       1145.523       1158.879       1194.777
       1159.762       1106.124       1047.114       1142.804       1260.085
       1272.170       1252.617       1258.379       1211.699       1163.514
       1188.738       1112.256       1064.374       1199.450       1191.415
       1117.446       1142.970       1242.933       1265.869       1164.134
       1077.186       1065.876       1019.576       1029.961       1183.103
       1264.878       1085.333       1034.063       1060.830       953.2661
       974.3574       1034.353       966.9211       906.8999       897.0151
       1034.845       1166.500       1177.070       978.1152       740.2070
       744.2451       950.8127       916.9255       733.5454       773.3464
       777.4629       673.5381       743.5632       834.8118       810.5073
       739.5132       768.9900       695.1677       569.6008       662.6108
       721.4889       600.6761       463.7698       405.4304       445.1567
       460.4688       574.5012       583.1678       395.5098       362.3859
       377.6853       257.8683       209.9035       242.2846       297.5618
       218.9259       180.2521       195.9266       112.1635       165.7949
       202.5025       62.92334      -72.76816      -133.7594      -72.03651
      -72.43814      -67.58710      -133.5178      -166.6699      -132.6748
      -151.4922      -193.8502      -347.8314      -367.8361      -206.0204
      -212.4775      -416.1914      -558.1921      -524.6198      -498.2147
      -506.1843      -514.8704      -582.6724      -672.0176      -658.4326
      -672.7751      -702.9995      -843.3123      -908.6450      -802.8228
      -753.2856      -859.0481      -1033.662      -1139.493      -1081.905
      -910.9390      -923.0054      -1130.142      -1222.700      -1279.149
      -1300.140      -1278.253      -1317.688      -1356.064      -1307.520
      -1342.607      -1400.782      -1390.840      -1475.312      -1544.188
      -1512.303      -1527.426      -1615.813      -1643.410      -1533.058
      -1448.069      -1529.276      -1587.609      -1503.377      -1565.776
      -1646.642      -1639.721      -1701.520      -1682.646      -1567.757
      -1565.256      -1569.480      -1612.940      -1644.828      -1523.662
      -1469.741      -1445.276      -1417.884      -1587.606      -1615.119
      -1401.954      -1308.013      -1367.135      -1393.925      -1348.351
      -1302.436      -1246.103      -1236.834      -1225.210      -1123.331
      -1114.988      -1126.438      -1122.904      -1098.738      -1027.750
      -922.3647      -869.8677      -932.9492      -956.9734      -868.8451
      -655.6490      -526.6769      -618.0125      -671.5149      -644.1096
      -509.1030      -365.4868      -389.6448      -457.5715      -427.1454
      -356.0734      -263.5284      -140.6908      -55.37759      -43.44223
      -66.39243      -141.9396      -115.3811      -37.49966      0.2723389
       95.69415       142.5930       190.0221       245.7439       320.0294
       372.1737       363.2171       364.1267       256.0080       229.3589
       347.3452       376.1820       413.3071       510.3671       483.0824
       456.8820       545.9529       607.1975       613.1370       579.5662
       487.9443       424.2456       488.5322       553.7913       596.1581
       658.6648       689.8376       600.6060       525.5529       547.2593
       540.4585       577.9973       618.8855       640.5486       713.4443
       725.1572       732.1084       720.6836       724.1603       684.6526
       603.9363       594.6152       499.6831       462.1638       559.0762
       606.7684       637.5664       709.1179       740.2844       660.0900
       609.6052       656.1952       677.1451       623.5137       607.1548
       604.7346       607.9480       664.5288       712.3042       645.7473
       551.1689       556.8865       620.4180       704.0565       668.6772
       555.2720       577.3961       584.3406       579.3624       547.5156
       634.8481       810.8521       920.7532       954.8357       867.7368
       818.1353       904.9629       1023.763       862.2375       432.4127
       177.7716       112.7971       326.5576       667.6497       876.4290
       1000.470       1074.493       1110.420       979.3456       659.8730
       305.2666       83.41699       285.7593       697.0825       1080.793
       1259.918       994.4229       673.8550       573.8545       523.9150
       591.5820       739.1809       827.2988       859.7083       914.1836
       972.6687       965.2954       774.7820       621.5188       572.1310
       513.0583       585.5403       684.0199       538.0409       217.4846
       355.6521       797.3164       935.7729       1098.060       963.3872
       586.1328       730.8230       799.8757       486.3557       390.3308
       342.7339       36.36374      -146.4485       129.2173       664.1816
       1106.708       1309.751       1270.026       1035.400       652.4615
       289.6172       144.9632       254.1960       413.3894       414.9786
       463.5452       422.9398       96.93518      -154.8450      -205.0390
      -62.42334       340.3945       619.4805       730.5366       899.6587
       792.1390       348.2386      -100.2559      -362.4123      -315.1740
      -49.15616      -17.44128      -228.1107      -217.5126       68.82141
       288.5936       318.2985       275.7513      -27.89429      -396.9836
      -366.9323      -116.9227      -120.5752      -537.8909      -661.9512
      -397.4125      -294.4728      -343.2964      -361.8625      -304.0585
      -460.8208      -477.8546      -171.1342      -232.1052      -541.5161
      -523.5063      -379.7827      -504.8376      -519.8303      -319.8868
      -421.5228      -621.9219      -394.0570      -346.7378      -998.5952
      -1354.161      -826.1067      -316.7576      -397.4849      -453.1108
      -498.5889      -832.6738      -1003.679      -824.4471      -488.3680
      -242.7620      -414.1655      -819.2810      -856.4138      -567.4159
      -528.2979      -786.5615      -1125.881      -1136.537      -716.7396
      -546.1492      -569.4281      -443.6362      -621.6978      -960.1829
      -995.3027      -681.2056      -496.9536      -883.4727      -1229.896
      -1108.198      -1081.832      -1063.545      -840.3728      -786.7744
      -1004.966      -1113.051      -857.1483      -470.4672      -444.8774
      -865.9941      -1259.090      -1318.672      -1273.445      -1143.959
      -774.3845      -520.9567      -614.1877      -776.1887      -828.7598
      -804.7993      -1079.470      -1483.045      -1349.095      -964.7549
      -852.1970      -757.4847      -667.1768      -712.5776      -824.4148
      -974.1138      -963.2268      -890.7437      -850.7275      -918.8398
      -967.4388      -726.7905      -588.2358      -722.9939      -781.9890
      -726.8223      -534.2078      -368.1570      -545.6362      -770.1130
      -862.7329      -899.6658      -643.1921      -407.7172      -459.9839
      -349.3813      -170.3156      -177.2299      -173.3352      -256.7690
      -481.8939      -449.8723      -254.0676      -333.1409      -422.1067
      -303.6023      -73.28210       170.4481       170.6174       84.99609
       177.7853       203.8292       135.4936       128.3707       173.8602
       261.2802       262.8260       210.6833       274.7151       210.7086
       17.20093       37.97144       205.6956       439.7201       646.2874
       684.8630       676.1294       701.8436       652.4475       540.5812
       517.9918       501.8855       482.1304       575.4053       779.0735
