     0.02499999      -1648.710       2228.951      -12345.00      -12345.00
      -30.00010       213.9498      -14.80000      -12345.00      -12345.00
       0.000000       11.29000      -12345.00      -12345.00      -12345.00
      -12345.00      -12345.00      -12345.00      -12345.00      -12345.00
      -12345.00      -12345.00      -12345.00      -12345.00      -12345.00
      -12345.00      -12345.00      -12345.00      -12345.00      -12345.00
      -12345.00      -31.32870      -68.47560       746.0000       0.000000
      -31.06700      -68.46300       0.000000       100400.0       0.000000
      -12345.00      -12345.00      -12345.00      -12345.00      -12345.00
      -12345.00      -12345.00      -12345.00      -12345.00      -12345.00
       29.04035       182.3674       2.373919      0.2611053      -12345.00
      -12345.00     0.03447042       0.000000       0.000000      -12345.00
      -12345.00      -12345.00      -12345.00      -12345.00      -12345.00
      -12345.00      -12345.00      -12345.00      -12345.00      -12345.00
      2008       164        19         3        52
       600         6    -12345    -12345      9759
    -12345    -12345    -12345    -12345    -12345
         1         7        13    -12345    -12345
    -12345    -12345    -12345    -12345    -12345
    -12345    -12345    -12345    -12345    -12345
    -12345    -12345    -12345    -12345    -12345
         1         1         1         1         1
LAJA    -12345          
        -12345  -12345  
-12345  -12345  -12345  
-12345  -12345  -12345  
-12345  -12345  -12345  
-12345  -12345  -12345  
-12345  -12345  BHZ     
ZL      -12345  -12345  
[...]
       12.76558       29.52747       33.77722       46.83556       74.30937
       85.17639       85.00348       110.0231       120.6626       128.8483
       164.2176       193.4025       209.4196       229.3359       245.0897
       242.5245       226.4565       236.3076       248.7576       249.4978
       264.4528       298.4995       340.4058       358.6743       373.7378
       389.5354       375.4265       357.4274       357.1709       359.8894
       379.8567       410.2188       451.6948       479.2645       504.6621
       533.3311       533.9109       520.8528       507.8584       510.0869
       510.2935       503.9976       535.1002       583.5789       608.3918
       623.7554       645.5986       655.2179       647.0349       640.5422
       636.8153       617.6024       614.9089       643.7832       676.9683
       689.1494       715.7380       746.8706       745.9314       729.5886
       726.0996       706.5553       662.3789       652.6340       667.3870
       666.3416       656.6316       677.6777       704.3303       712.3110
       727.9392       741.4604       735.4072       714.7196       680.0383
       664.1996       644.5061       622.4916       604.0068       589.5750
       594.6815       602.2144       602.5415       581.7323       559.7394
       548.0226       521.0516       493.0548       477.0283       472.0837
       446.0424       412.2437       400.1321       382.5835       358.4408
       349.5226       346.3259       319.2567       298.8525       289.5228
       263.0490       219.9525       185.2803       161.7672       135.6890
       118.3694       118.7172       108.0495       83.13303       61.45552
       51.14201       15.85332      -26.34387      -62.93628      -110.7014
      -153.2001      -135.7055      -114.0551      -163.3055      -197.6233
      -152.1895      -154.0739      -195.2897      -248.1803      -307.1131
      -339.1443      -336.5588      -340.1272      -385.8868      -395.0328
      -297.8783      -312.0740      -420.5406      -420.6526      -385.4148
      -416.6848      -431.2773      -440.8298      -454.3359      -452.5789
      -430.1770      -429.0797      -436.1270      -462.6843      -481.8738
      -481.8486      -462.2109      -487.1127      -523.1237      -509.2134
      -483.1726      -473.8392      -440.3855      -452.9347      -492.2256
      -480.1169      -463.3972      -509.8969      -491.3077      -489.3054
      -502.5431      -481.3577      -458.7505      -443.3387      -438.1451
      -477.0879      -468.6770      -463.6567      -478.2805      -475.0129
      -433.3517      -395.7478      -379.7131      -397.7349      -384.9204
      -383.8237      -403.3105      -404.6895      -414.2638      -468.0887
      -438.2622      -350.2825      -346.4685      -376.7286      -339.0425
      -302.3225      -337.4636      -370.6862      -310.1508      -307.1868
      -391.6448      -368.1035      -271.3689      -298.8267      -300.8446
      -257.9707      -275.1969      -285.5010      -266.3019      -268.8158
      -229.2361      -235.0120      -278.1722      -235.1752      -189.9238
      -240.4858      -244.9447      -226.2478      -243.5908      -261.1179
      -245.5555      -244.5485      -250.3910      -241.5627      -235.3908
      -204.9166      -174.3864      -200.3903      -197.4425      -183.0729
      -217.7426      -247.1735      -221.1089      -226.5756      -236.3135
      -224.9679      -220.3611      -179.7285      -147.3046      -187.1483
      -183.0236      -152.8455      -181.0275      -207.2376      -184.4775
      -182.4226      -191.9608      -171.0686      -166.4869      -187.2495
      -168.5836      -171.1217      -182.3588      -194.3984      -214.1390
      -197.8705      -198.8687      -211.4595      -178.0044      -155.3858
      -170.9031      -159.2307      -122.6507      -135.6646      -133.6765
      -130.2637      -147.9783      -144.2095      -128.2311      -118.1408
      -114.3239      -129.7437      -108.5598      -69.45795      -74.29688
      -85.07474      -54.13727      -68.27150      -55.38947      -40.26227
      -76.40100      -72.93933      -36.70648      -25.33162      -41.46469
      -31.33303       13.42249       25.75014       34.68225       44.93666
       59.39946       77.38783       79.81613       95.95862       110.3143
       97.60590       94.91922       126.0483       161.1808       168.4802
       170.8257       194.4556       227.2601       225.0905       217.1838
       226.4383       226.3921       219.2933       252.8854       285.9347
       296.0901       333.1365       368.1599       363.4574       349.8191
       345.2668       342.2357       343.0430       354.5421       359.9713
       383.1517       416.4670       444.2806       480.4241       497.5740
       491.2775       501.5554       493.8297       475.3912       505.6453
       508.3569       513.7422       548.6326       548.8479       549.4814
       585.2059       610.1912       617.1519       602.0220       593.8550
       598.9287       591.1642       590.5674       610.3320       620.8201
       606.4802       597.5781       628.2653       621.0688       586.1995
       604.8767       618.5166       599.0750       612.0035       635.0634
       624.5498       603.4606       609.9695       621.1470       585.0957
       561.6060       572.4358       562.2307       534.7446       508.3612
       454.7786       381.2183       328.6258       171.8143       128.4214
       598.3376       550.2005      -11.21704       775.3599       1353.443
       55.93945      -50.84961       793.4210       383.0935       606.6892
       187.2853      -316.1880       1070.269       29.88257      -879.7839
       1048.512       387.1052      -840.2664       526.5664       601.4923
      -700.6575      -259.4401       733.4860       250.8599      -531.8285
      -315.1567       360.0996       592.0989       262.3462      -497.0103
      -991.6598      -239.0308      -365.7441      -982.9048       279.7894
       219.6658      -1248.146      -439.5718       440.4945      -414.3246
      -336.7394      -31.55859      -844.9668      -1016.275      -399.3215
      -419.9471      -592.6829      -403.1665      -976.3335      -1083.118
      -38.61548      -61.73096      -1106.900      -1004.176      -468.5504
      -725.7031      -353.2720      -629.1831      -1586.687      -368.5806
       26.33350      -1306.330      -900.8966      -20.78369      -809.6328
      -1648.710      -515.1744       228.1001      -1274.844      -1450.832
      -49.99536      -325.6130      -1335.188      -881.7712      -228.9009
      -591.8694      -1036.969      -754.9389      -161.4656      -463.2566
      -861.6959      -368.2303      -453.9514      -989.8226      -750.0062
       35.23279      -224.6982      -1274.607      -479.6238       325.9800
      -759.7692      -754.8282      -36.53931      -338.5796      -280.7489
      -326.2814      -380.4594      -28.91956      -677.1222      -692.6482
       369.8812       285.8334      -605.7798      -393.5778       293.1099
      -235.8795      -278.5856       507.7380      -146.5663      -471.3157
       383.2124       159.6028      -645.8473      -10.39893       958.8214
       23.50781      -476.8000       561.5968       266.6133      -368.1211
       303.0544       602.3771       35.54095      -68.84070       411.1094
       228.9851       138.0734       581.1575       182.7973       103.9216
       477.1621       280.0236       469.5591       590.0634       39.50085
       74.02600       553.6172       503.2161       338.0872       578.2504
       474.5783      -87.45300       245.7769       797.4391       264.5039
       196.0084       733.6279       483.6447       121.1691       611.3303
       812.2270       290.9012       289.8253       464.5683       216.4703
       251.3331       472.0533       226.5837       182.4089       583.4749
       522.7227       277.7567       426.0444       541.9194       336.3087
       42.00146       152.7930       538.2528       283.0870       350.2315
       413.8561      -80.65930       481.8820       828.0317      -63.21027
      -239.7693       333.1813       488.1181       181.4058       87.79382
       507.8592       386.8964      -88.75031       173.5432       552.5023
       341.0714      -20.60739       103.5323       136.7575      -96.85895
       197.7117       475.6379       109.8220       58.81787       369.4368
       79.90268      -79.19788       268.2903       164.6196      -187.4468
       113.1273       727.3907      -51.52698      -664.4622       817.6350
       532.7766      -1088.115       52.85986       753.2280      -642.0483
      -548.8015       572.1345       181.3352      -587.9153      -137.4487
       616.6710       260.0249      -640.1918      -253.5524       412.2473
      -270.9406      -494.9512       49.15341      -65.94226      -261.4206
      -187.8120      -127.1887      -103.3604      -350.3060      -351.4231
      -30.81958      -134.2319      -519.7521      -301.2947       191.6008
      -255.0563      -699.4368       47.79410       288.3955      -318.5194
      -545.0103      -505.8215      -205.5091       149.4828      -118.3624
      -347.7487      -73.71259      -105.1135      -394.0630      -200.3200
      -98.97949      -311.4396      -280.4076      -241.3106      -249.3238
      -181.3740       217.5077       309.2856      -381.6174      -221.6722
       201.9529      -259.1497      -164.1431       69.77631      -373.8674
      -135.8194       322.3589      -216.3474      -143.4276       311.2352
      -387.4796      -322.9465       448.6794      -58.24969      -523.5754
       116.2061       257.3874      -362.6479       30.48279       359.8846
      -380.2651      -156.1438       537.7596       267.0524      -138.4583
      -159.5268      -55.54529       223.4416      -7.567780      -273.3052
       303.6793       205.6380      -191.7303      -218.1129      -79.94583
       287.4348      -195.3331      -477.5966       404.5952       308.6666
      -435.5051       175.4290       216.0658      -501.9154       28.11603
       342.0356      -171.7888      -247.7746       70.97693       24.34686
      -235.0078      -23.80621       365.3652       78.00006      -192.9371
       19.51962       112.8353      -265.9061      -581.0807       85.76709
       430.2527      -276.6188      -160.5028       453.1994       89.65704
      -328.8015       82.31500       400.8748       7.377441      -448.3076
      -222.2447       181.7587      -143.9484      -65.24158       456.0724
       34.29321      -56.68120       69.95569      -259.7906       24.07397
      -32.52002      -279.6447       54.06165      -101.0026      -343.1483
      -284.3498       63.94653       340.2125       127.4986       34.74054
      -185.1659      -242.7053       128.5683       99.94897      -204.4184
      -176.1475      -40.54480      -21.93195       175.3864      -36.19794
      -234.3651      -118.5260      -377.6907      -224.5290      -25.13165
      -270.6917       243.7256       164.5627      -843.5405      -305.8400
       491.7712      -221.3231      -653.8693      -143.0530       26.92322
      -318.7462      -186.5553       15.55371      -338.6669      -41.09460
       152.4093      -324.1073      -191.8334      -239.7192      -299.2401
      -108.3369      -357.8103      -187.7291      -53.12878      -331.7282
      -137.5079       30.19806      -55.03540      -144.0720      -519.9743
      -392.2307       107.7366      -118.1729      -288.0399       146.4821
       207.6305      -419.8737      -286.6696       104.4414      -558.0402
      -368.9785       313.4133      -219.5556      -184.0122       10.65094
      -367.9215       47.31995       306.5365      -200.7964      -216.1983
       72.92548      -126.1153      -185.3112       159.0224       70.46948
      -228.8326       144.3054      -68.85400      -596.6174       374.8132
       666.7939      -272.6764      -216.1565       450.2556       186.9553
      -803.8846      -420.2852       774.1951       467.1630      -323.7073
      -24.44824       611.8170       283.1850      -192.5013       247.5198
       712.3790       426.6465      -172.8489       226.8207       647.0178
       63.42749       95.27026       371.4473       286.9418       82.76642
      -282.4971       377.3928       956.7349       508.6162       619.0505
       1131.474       1156.096       1004.181       1337.781       1052.518
       41.79590       649.2549       1226.551      -519.3553      -935.2751
       448.6845      -16.85095      -164.0515       1081.233       1370.863
       1285.795       1122.242       1069.508       1160.909       458.3948
       216.4261       504.5945      -95.18433      -132.8640       799.2175
       1135.301       170.4644      -433.1064       1528.890       2228.951
       746.0840       1322.645       1652.886      -87.14972      -363.1509
       668.4493       126.1680      -106.8108       825.5299      -11.79321
      -757.4087       647.4421       1165.671       120.3821      -233.5796
       570.7896       1379.933       876.8781      -17.76929       881.0586
       1393.399      -559.1838      -1098.998       70.05957      -388.0865
      -631.5985       214.7841       305.8258       398.1653       846.6892
       315.5988      -659.9118      -219.5226       558.2434       250.0806
       302.5073       452.4937      -5.345078      -98.96933       158.6010
      -262.8157      -569.0469      -294.9963      -937.6729      -781.5094
       322.3228       138.4274       16.24786       37.14191      -307.3621
      -355.8026      -290.7642      -57.04175      -259.3435      -877.9805
      -660.2213      -33.65735      -59.87598      -741.5283      -1292.417
      -1322.419      -320.4497       493.7227      -319.4695      -949.7466
      -984.2892      -453.9384      -71.76416      -394.9946      -9.396973
      -264.6782      -1328.538      -1120.160      -662.2319      -953.8674
      -546.8997      -314.9199      -506.8104      -401.2581      -521.9740
      -200.5127      -112.6162      -660.7412      -1125.608      -1194.751
      -551.2305      -402.4309      -987.8630      -1115.368      -777.3014
      -317.4487      -406.4623      -545.1707       51.67395      -377.4211
      -1293.444      -537.9116       447.4835      -72.39917      -875.6516
      -721.8459      -698.5632      -940.5066      -809.4004      -722.6396
      -562.9088      -391.7886      -74.66751       201.1406      -72.01904
      -365.3369      -906.6816      -1247.485      -1034.679      -1083.105
      -587.5970       236.2670      -209.5777      -259.1217       203.3345
      -825.9167      -1194.795      -526.9134      -196.4600       79.63464
      -538.5796      -949.5034       93.34326       502.2906      -153.0550
      -68.15071       68.15704      -273.4735      -404.7910      -684.8478
      -747.1956      -529.5007      -799.4201      -616.4234       348.3982
       157.8265      -602.4614      -193.0992       312.1138      -443.2932
      -730.0917       19.15515      -236.9322      -382.6821       129.5574
       111.7362       16.42810      -270.0114      -488.8568       115.9666
       47.28796      -521.3704      -287.7191       65.65991       352.6399
       135.3240       39.65344       624.2595       337.1526      -559.2979
      -341.7416       318.7879       276.3457       11.11685      -61.36179
       29.11853       178.1282       294.8136       177.9015       73.34302
       347.0812       396.6289       36.47656       14.42896       430.2207
       827.6028       378.4838      -30.40759       566.6796       352.6693
       20.16553       693.7811       565.1750      -18.50146       87.01086
       433.5991       792.7235       567.2380      -123.0759      -141.1770
       421.8353       528.3510       359.7231       811.7573       850.4402
       532.4060       501.8521       179.0924       101.4353       368.3547
       424.2173       361.7587       247.3198       637.1204       872.5029
       269.4026       434.3674       843.7999       481.3771       328.6587
       231.9713       340.1914       1077.046       1024.991       401.5305
       538.5063       861.7441       857.5562       513.6136       509.1121
       463.7228       197.0271       682.4528       694.9331       486.4373
       623.3021       272.8374       448.7811       736.0503       350.5110
       554.4535       788.6700       245.9374       232.2283       360.5925
       474.4312       871.8188       825.4629       751.9140       366.4426
       161.3848       749.4846       862.2751       504.7775       472.5153
       367.1616       110.2639       395.5513       732.3000       637.5555
       595.5260       574.2161       118.7914       12.23181       482.9780
       240.7717      -170.3517       509.1521       741.2846       100.1231
       69.88818      -81.51508      -445.6135       26.50598       497.7079
       518.4523       489.2175       454.8793       284.0117      -60.43719
      -301.0217       34.49194       237.6161      -168.4565      -243.5349
      -116.6594      -36.45384       64.40588       83.38727       375.7764
       234.4635      -276.5828      -532.1832      -154.1558       264.0554
       66.39075       116.8862       126.3590      -341.4072      -318.1378
      -145.5847      -402.8892      -375.1012      -101.6788      -110.2538
      -425.5710      -522.3425      -23.48045       28.10190      -52.52066
       162.8452      -79.59192      -144.5969      -118.6853      -647.3873
      -616.9017      -97.56653      -217.5101      -619.3838      -664.7488
      -523.8057      -678.9614      -737.9645      -262.2347      -146.5256
      -465.1622      -453.4989      -323.8651      -455.4772      -266.8115
      -250.5571      -828.2190      -668.3158      -204.5770      -585.4243
      -714.5959      -417.1326      -422.9219      -550.8234      -532.3074
      -450.7266      -729.4626      -813.3613      -489.7556      -647.3434
      -726.1968      -412.8829      -262.7312      -331.7672      -445.9276
      -584.8711      -719.7306      -692.1265      -543.0173      -588.4521
      -712.7822      -787.7878      -667.5968      -406.9392      -280.3256
      -345.8855      -176.0752      -168.7625      -848.0317      -951.9814
