     0.02499999      -2625.701       1894.401      -12345.00      -12345.00
      -30.00010       213.9498      -14.80000      -12345.00      -12345.00
       0.000000       11.29000      -12345.00      -12345.00      -12345.00
      -12345.00      -12345.00      -12345.00      -12345.00      -12345.00
      -12345.00      -12345.00      -12345.00      -12345.00      -12345.00
      -12345.00      -12345.00      -12345.00      -12345.00      -12345.00
      -12345.00      -31.32870      -68.47560       746.0000       0.000000
      -31.06700      -68.46300       0.000000       100400.0       0.000000
      -12345.00      -12345.00      -12345.00      -12345.00      -12345.00
      -12345.00      -12345.00      -12345.00      -12345.00      -12345.00
       29.04035       182.3674       2.373919      0.2611053      -12345.00
      -12345.00      0.2304350       90.00000       90.00000      -12345.00
      -12345.00      -12345.00      -12345.00      -12345.00      -12345.00
      -12345.00      -12345.00      -12345.00      -12345.00      -12345.00
      2008       164        19         3        52
       600         6    -12345    -12345      9759
    -12345    -12345    -12345    -12345    -12345
         1         7        13    -12345    -12345
    -12345    -12345    -12345    -12345    -12345
    -12345    -12345    -12345    -12345    -12345
    -12345    -12345    -12345    -12345    -12345
         1         1         1         1         1
LAJA    -12345          
        -12345  -12345  
-12345  -12345  -12345  
-12345  -12345  -12345  
-12345  -12345  -12345  
-12345  -12345  -12345  
-12345  -12345  BHE     
ZL      -12345  -12345  
[...]
      -89.82385      -95.52148      -95.31580      -91.66287      -87.41318
      -63.46026      -41.06334      -23.35781      -18.87874      -10.23481
      -9.497952      -19.01607      -24.71789      -28.01365      -29.11197
      -3.474182       29.49124       65.19998       90.03964       103.9750
       113.5359       100.8683       90.89728       94.99371       91.14365
       92.96411       112.1227       144.7466       171.4303       190.2332
       204.6083       217.5229       222.2682       236.5099       255.1442
       267.2408       284.1244       308.6326       325.7910       327.6050
       326.2809       332.5337       343.2295       348.8630       361.2493
       383.6943       393.3607       403.5507       422.5598       435.3795
       446.4624       468.0933       488.5270       491.8672       480.2310
       483.9733       488.1978       490.9614       502.5039       524.6094
       547.3317       566.4525       595.1799       613.1871       611.8083
       611.6279       604.3132       577.8125       536.0653       498.5424
       472.7290       454.8496       458.8378       492.9387       525.7080
       554.5485       581.0901       595.5015       588.9373       570.5164
       548.0039       526.0570       500.8645       487.8629       479.2498
       462.0052       441.9152       444.7095       456.6228       459.3313
       485.0522       513.5865       516.1040       513.8088       506.0342
       478.5909       438.7854       405.2461       383.8596       357.5079
       335.7043       345.0645       362.1777       372.3303       396.6113
       408.9835       392.9672       362.1442       334.5315       302.4222
       265.3418       255.0800       283.3809       301.4646       316.5729
       337.7293       325.2631       282.2454       253.9739       230.6309
       187.9398       174.4159       200.6525       222.4519       238.6761
       264.2449       271.3882       255.3702       226.0180       200.7343
       178.4417       141.5138       97.83856       78.30457       67.38519
       46.18427       27.45997       35.62962       32.21593       6.778265
     -0.2378502       6.774986       11.66716       36.75381       36.69458
      -1.764221      -36.73874      -67.00848      -108.2018      -145.1354
      -189.1927      -204.0460      -201.0744      -198.0492      -199.2847
      -191.3898      -206.1359      -211.1037      -219.5900      -243.5836
      -275.4048      -298.4867      -332.0763      -359.7899      -392.7107
      -396.1165      -406.2828      -427.6201      -438.5447      -435.7137
      -474.7004      -495.0583      -508.4028      -516.0693      -547.7363
      -562.1763      -569.9478      -578.0637      -607.6677      -616.3690
      -633.9229      -658.6782      -689.1233      -676.0106      -675.3798
      -673.7222      -676.7954      -676.7039      -678.5786      -666.5485
      -674.4966      -680.1475      -697.0569      -716.3562      -740.8135
      -736.9973      -752.4998      -771.1316      -774.0566      -758.4231
      -746.0693      -720.5615      -717.0115      -704.7908      -685.5562
      -680.4341      -684.2129      -659.8738      -655.3027      -668.8342
      -673.5289      -653.8801      -663.7877      -671.9375      -652.2986
      -620.9486      -603.0352      -573.9624      -536.5061      -485.3927
      -468.5505      -461.7229      -439.4915      -427.6284      -442.3384
      -448.0887      -453.6140      -462.2957      -470.5010      -443.2246
      -410.7776      -388.9390      -363.0302      -329.1573      -297.6105
      -254.6342      -220.6721      -196.3018      -185.4530      -172.4869
      -161.9772      -143.8718      -135.6761      -117.7731      -90.60896
      -64.83504      -28.44475       21.27399       42.95419       54.46354
       49.49850       20.65320      -11.68900      -14.53096      -5.945221
       27.73849       61.87271       102.2383       146.5287       178.9690
       212.1995       248.8917       253.4041       263.9064       269.5496
       265.2845       243.0674       238.1292       233.0648       241.9633
       264.7601       303.8028       329.4011       356.1770       382.2584
       413.0315       410.7229       402.0410       392.6550       394.7224
       383.7056       383.7749       385.6117       397.9979       399.0056
       407.6417       410.1619       398.1787       380.3998       394.3105
       403.8555       427.3433       454.4167       468.0975       471.2719
       480.0642       482.9719       480.7617       463.6030       446.7556
       424.2273       387.9901       369.6499       372.5735       382.4817
       401.6821       428.5468       437.0204       419.6014       409.9130
       405.0438       378.3026       336.4849       308.5673       308.7712
       307.1868       304.4698       314.4480       314.1284       297.9052
       286.9608       275.9307       258.5315       222.6104       203.8910
       209.1518       199.8470       190.5427       201.8340       212.6913
       225.1965       231.1911       218.8359       199.7823       177.7432
       168.7180       158.0473       137.7567       125.5402       121.6986
       90.08327       69.85867       70.74110       74.26147       70.62900
       60.15199       60.56962       34.81758      -25.95340       37.00793
       77.79793       4.267212       128.6057       183.7693      -76.46169
      -32.77136      -62.71106      -422.4862      -177.7193       22.28717
      -201.5976       103.2346       38.83359      -207.6178       105.7535
      -136.4291      -214.8568       211.2684      -91.30725      -280.3002
      -89.79227      -159.4437      -164.3143      -87.89191      -182.8807
      -326.8767      -267.6495       22.24988       6.164307      -276.7700
      -260.2542      -309.4659      -459.5185      -63.18890       173.9410
      -10.00137      -106.0732      -284.4501      -468.7495      -147.8488
       75.39142      -154.8535      -195.3082      -177.4269      -348.4720
      -92.46255       136.4546      -135.1146      -163.0703       2.233215
      -97.78819      -149.1777       88.89255       75.00439      -256.9232
      -160.8070      -106.5450      -290.8132       180.7644       463.8829
      -99.98035      -132.6158       162.5198       58.75800       115.3305
       132.3906      -222.5865      -308.2275       210.9806       486.5105
       187.7091       301.8062       513.5544       207.3245       49.28149
       250.8972       315.8244       284.0172       252.6842      -3.545776
      -92.24646       195.8320       319.0659       280.7371       425.8375
       436.1322       344.2899       445.1417       229.7992       123.7330
       289.8877       204.3965       269.8838       322.5244       199.5001
       277.8251       219.5712       218.4313       327.8112       279.3311
       406.2628       420.4727       367.9584       526.3478       382.1129
       266.2256       356.7825       388.2617       310.9182       213.9326
       118.7150       176.5114       248.0525       150.5715       216.9272
       446.7140       452.1746       262.0111       118.1191       152.9355
       118.7748       57.27570       221.1729       222.7545       88.11877
       208.5463       131.9799       62.52716       200.8333       118.4906
      -4.640350       107.9510       216.3334       147.9588       16.02188
      -75.04868      -13.72121       65.32627       2.733002      -80.27496
      -229.7543      -199.1837      -61.17096      -159.5071      -168.8947
      -83.21643      -225.3528      -210.8828      -74.08948      -211.6010
      -335.6713      -244.3586      -323.6774      -485.1860      -458.2131
      -423.7808      -453.7557      -451.3435      -381.1759      -342.4041
      -355.4450      -281.9283      -264.0579      -391.5239      -515.3417
      -500.2745      -413.0669      -453.1948      -474.8845      -460.4128
      -654.0465      -681.9905      -485.7358      -467.6869      -469.2627
      -453.0541      -583.5443      -469.7092      -355.2172      -552.9861
      -578.6870      -402.3052      -310.9420      -265.0881      -361.6503
      -467.9823      -333.0583      -396.0574      -570.1118      -408.7058
      -395.1879      -476.4889      -356.1718      -324.2805      -410.8164
      -417.1726      -364.9191      -382.9462      -476.3956      -477.2404
      -472.6531      -571.4407      -407.8658      -112.8311      -385.5858
      -553.4795      -270.6102      -340.6183      -398.4106      -130.8425
      -182.2717      -392.3650      -382.7041      -309.1542      -375.6755
      -398.4517      -295.2308      -216.8224      -299.6756      -315.7115
      -143.8091      -147.5704      -296.3986      -195.9361      -113.9821
      -277.7791      -239.0980      -140.1096      -252.4016      -216.2968
      -131.7022      -110.0354      -172.2980      -173.7318      -122.4806
      -211.7453      -213.6301      -61.26093      -140.6995      -296.2443
      -253.5869      -194.9968      -176.7011      -23.78839       103.2975
       72.90393       25.90015       80.71834       97.29291       37.53634
      -32.80881       100.9272       160.2590       18.74226       21.56872
       25.30708      -3.694366       116.4046       214.8970       87.34244
       12.70454       86.36786      -44.60800      -177.2485      -29.62824
       54.70654      -181.8527      -212.8574      -72.81244      -184.9765
      -49.52058       121.4645      -237.9177      -255.6431       130.2419
       271.0068       158.4202      -26.44056       7.875793       91.43011
       124.9111       141.1719      -75.84643      -67.90005       30.27161
      -178.4165      -151.5836      -10.89175      -43.22342       9.898087
       59.06869       44.72664      -34.08083      -89.19211      -54.56146
      -51.62587      -87.68077      -29.20726      -7.942200      -27.73056
       102.4285       70.17914      -143.1662       27.45801       73.04175
      -209.9619      -204.1711      -80.25955      -11.05133       151.3394
       149.2839      -80.03009      -128.7591       92.84613       225.2239
       249.8618       95.64886      -116.6891      -50.28256       139.0976
       183.5312       196.2544       208.5995       273.1513       274.9381
       248.6910       329.0357       256.5245       85.91284       236.8713
       247.1826      -2.618378       85.93054       272.0202       270.6602
       423.6249       425.9888       410.3436       495.1855       209.0006
       74.09766       401.2708       571.5464       668.6877       731.3391
       618.6838       442.4856       321.5952       457.4924       734.3728
       734.7266       641.7019       589.3821       510.4634       569.5129
       758.7686       855.7429       882.7178       764.8838       626.4021
       621.0349       573.8564       560.0143       639.8682       594.9185
       634.3906       771.2166       665.6882       658.8628       779.8091
       731.6406       659.3232       712.7612       713.7305       681.4607
       908.1572       811.9244       515.4470       668.6990       732.1804
       716.8945       884.5674       831.3223       810.0757       801.5067
       557.0637       541.9177       685.0120       691.9282       776.3721
       808.2690       615.2477       649.5303       702.1604       528.0779
       565.1799       631.5068       609.3127       618.2614       532.6445
       438.4939       515.5066       577.5353       628.1514       619.6221
       584.7278       726.3042       776.3909       561.6714       442.7354
       486.7734       371.7948       362.8230       549.1895       535.5234
       373.9573       368.3171       498.4465       420.9182       224.5980
       334.6724       478.3770       306.9619       149.5945      -12.35406
      -8.924683       274.7164       279.2788       16.10669       26.86682
       113.1047       184.3413       421.1018       535.8643       546.1841
       567.9297       656.3208       916.6639       872.1743       292.8057
      -91.86625     -0.6855774      -48.80457      -280.5669      -630.1724
      -1438.018      -2161.697      -1768.641      -1092.534      -811.0874
      -426.2800      -359.5310      -777.1193      -530.8853       614.6626
       1179.233       642.3450      -240.6389      -803.4707      -862.4404
      -1378.901      -2168.397      -1517.649      -569.1299      -1429.749
      -2373.336      -1604.995      -516.7034      -74.44714       348.1765
       1.511475      -806.5537      -245.0730       182.1455      -1281.993
      -1962.740      -589.7065      -296.6060      -1480.866      -1358.641
      -279.5480      -198.4019      -869.9248      -1324.315      -1239.516
      -530.4278       215.0531       188.9742      -393.3086      -788.5767
      -936.0181      -1453.786      -2471.124      -2625.701      -1245.338
      -384.0706      -1087.391      -1184.338      -459.8396      -629.6340
      -993.9209      -967.4077      -1169.707      -1312.698      -1244.812
      -843.8345      -341.9761       23.59879       193.5901      -757.5703
      -2159.495      -2183.828      -1103.761      -302.2236      -425.4697
      -582.7600      -449.1646      -284.0501       20.56250      -675.3801
      -1478.222      -926.2710      -134.8435       116.7959      -698.0078
      -1796.567      -1843.767      -1388.057      -247.5460       575.9951
      -54.93555      -725.3167      -1076.675      -984.4983      -495.6239
       323.8208       975.7677      -54.72168      -1251.875      -1426.517
      -1554.278      -1449.350      -1161.211      -1207.538      -1083.618
      -692.5042      -400.5139       52.75684       504.8597       675.6125
       278.7628       125.5430       469.5807       103.2943      -232.6378
      -116.4065      -563.5527      -869.2148      -331.2041      -37.03946
      -197.8593      -32.52002       99.51538       74.95642       99.61731
       39.70544       261.0002       582.6320       175.9529      -622.7236
      -986.6746      -837.8695      -370.5305       258.6755       603.2815
       956.7090       1394.042       1348.186       1219.574       952.1694
       186.6182      -135.7344       264.1602       617.0250       354.4329
       109.3223       498.1182       1030.944       838.6184      -60.98163
      -377.9438       198.9508       522.3025       374.2644       289.7986
       546.3062       1225.706       1695.307       1874.083       1802.245
       1202.689       821.4177       543.6472       145.0914       280.9841
       712.8311       798.1165       801.2053       868.2129       912.9390
       1251.295       1194.338       586.6743       578.6382       1135.440
       1455.234       1342.196       1512.301       1689.812       1356.511
       1284.729       1280.229       545.1003      -123.1193      -191.1293
      -131.2484       208.7205       733.1030       1191.585       1407.478
       1174.351       1160.349       1401.188       1578.656       1894.401
       1733.612       1127.371       832.7788       626.1816       588.8716
       948.8740       1180.055       1083.361       1059.613       1074.593
       996.1809       926.0049       865.3584       967.4121       1157.333
       1053.104       497.2118      -66.74644      -188.7961       158.3633
       848.8191       1140.692       874.1780       1092.278       1429.825
       1101.349       890.2781       1206.545       1464.428       1162.142
       754.8276       570.4940       326.3569       8.992004      -207.8630
      -54.41003       291.9656       103.3918      -194.3878       76.46326
       274.0483       405.1057       700.1497       632.0931       498.8910
       488.7404       188.2646      -287.0558      -374.1103      -192.8923
      -160.5759      -370.0576      -300.8884       78.75201       228.7451
       84.82391      -122.2591      -97.46661       121.9741       260.3227
       282.4318      -44.39355      -368.0518      -336.2180      -324.3584
      -617.0933      -780.3296      -520.4202      -93.78455       249.5501
       402.9602       90.39880      -321.1847      -286.5897      -198.5278
      -398.4380      -1012.956      -1638.138      -1436.486      -981.9631
      -843.2825      -985.2144      -1380.237      -1694.325      -1439.028
      -762.5341      -163.5482      -96.78516      -532.5742      -1075.971
      -1261.962      -857.1058      -327.0601      -226.0039      -564.4399
      -1096.701      -1082.552      -584.2588      -402.3989      -604.0076
      -948.8684      -1092.841      -893.5327      -1036.838      -1464.485
      -1456.959      -1283.306      -1219.414      -1217.055      -1439.612
      -1455.888      -1324.873      -1285.340      -1115.350      -914.6145
      -897.0786      -907.7275      -1055.023      -1415.557      -1557.432
      -1404.412      -1324.452      -1133.235      -776.3386      -753.3618
      -998.3479      -1045.039      -968.2930      -1053.885      -1154.037
      -1177.853      -1205.979      -1043.590      -972.4392      -1061.052
      -988.7205      -781.8828      -679.8372      -690.5046      -703.3657
      -716.4929      -646.2156      -599.7026      -697.0986      -740.2822
      -800.9102      -1061.590      -1192.837      -823.9550      -334.8345
      -333.2520      -774.7900      -892.0195      -772.4771      -669.9614
      -442.6567      -418.0583      -534.2941      -349.5900      -172.0317
      -326.5508      -619.9484      -521.1837      -28.16946       116.9989
      -187.1487      -398.2592      -391.7894      -200.8192       7.107605
       269.2022       259.3261      -27.90918      -154.2000      -250.2861
      -247.3983      -133.7734      -103.7597       184.4563       345.1805
       173.6258       2.438446       5.418579       267.7667       354.4784
       208.2062       383.2234       562.6929       538.1553       465.5024
       349.1961       125.8277       8.319122       78.46545       143.2290
       31.15286       31.23218       193.6052       318.2375       452.7188
       508.1361       445.2126       407.6397       287.6270       338.9634
       534.7310       517.5027       473.2163       718.3811       733.8130
       434.4806       383.8423       631.7107       880.3967       868.6643
       658.9648       522.8820       392.7405       445.6554       450.5881
