     0.02499999      -4566.285       4534.102      -12345.00      -12345.00
      -30.00007       213.9499      -14.80000      -12345.00      -12345.00
       0.000000       11.29000      -12345.00      -12345.00      -12345.00
      -12345.00      -12345.00      -12345.00      -12345.00      -12345.00
      -12345.00      -12345.00      -12345.00      -12345.00      -12345.00
      -12345.00      -12345.00      -12345.00      -12345.00      -12345.00
      -12345.00      -31.32870      -68.47560       746.0000       0.000000
      -31.06700      -68.46300       0.000000       100400.0       0.000000
      -12345.00      -12345.00      -12345.00      -12345.00      -12345.00
      -12345.00      -12345.00      -12345.00      -12345.00      -12345.00
       29.04035       182.3674       2.373919      0.2611053      -12345.00
      -12345.00     -0.2967225       0.000000       90.00000      -12345.00
      -12345.00      -12345.00      -12345.00      -12345.00      -12345.00
      -12345.00      -12345.00      -12345.00      -12345.00      -12345.00
      2008       164        19         3        52
       600         6    -12345    -12345      9759
    -12345    -12345    -12345    -12345    -12345
         1         7        13    -12345    -12345
    -12345    -12345    -12345    -12345    -12345
    -12345    -12345    -12345    -12345    -12345
    -12345    -12345    -12345    -12345    -12345
         1         1         1         1         1
LAJA    -12345          
        -12345  -12345  
-12345  -12345  -12345  
-12345  -12345  -12345  
-12345  -12345  -12345  
-12345  -12345  -12345  
-12345  -12345  BHN     
ZL      -12345  -12345  
[...]
       63.23499       67.51215       65.62689       84.88936       85.90422
       61.32692       42.19339       32.47554      -1.962181      -28.05031
      -33.11069      -28.54975      -26.79410      -7.434013       23.95023
       48.44664       64.69949       74.54065       63.39664       38.73184
       12.92234      -7.143723      -21.52663      -25.32171      -18.04950
      -10.57638      -12.47593      -12.51495      -11.59927      -10.45007
      -11.81516      -16.41554      -19.29326      -17.76755      -5.941605
       21.12053       46.59810       65.06377       60.17082       50.29391
       38.51654       32.51576       33.08557       37.86653       49.85571
       80.71478       115.7846       131.5212       128.1038       124.4295
       113.0208       94.37256       68.60129       59.26450       53.46428
       51.66461       67.76578       88.74802       96.17102       90.04773
       78.77007       55.73393       24.36749       6.912865      -7.405563
      -27.24323      -34.98378      -22.24037      -3.210884       10.54472
       26.71190       40.07870       35.94103       19.83775       1.237595
      -17.44586      -44.28073      -74.65988      -105.8077      -136.8426
      -160.3594      -178.1372      -194.3489      -207.9352      -202.2106
      -188.1783      -180.3356      -168.9115      -164.7995      -181.1981
      -220.0443      -248.0926      -268.1878      -288.8525      -294.5610
      -274.6531      -251.1952      -233.1505      -216.9402      -202.1064
      -198.3777      -203.4873      -218.1362      -243.1564      -283.8294
      -324.3060      -352.8958      -371.4575      -379.5255      -361.5197
      -316.5336      -271.8679      -230.2104      -191.0170      -165.8051
      -171.7600      -196.8240      -224.2322      -264.3230      -304.3375
      -314.6185      -308.6366      -293.8431      -261.6889      -218.6729
      -184.2155      -169.2661      -155.0191      -147.8533      -165.8022
      -180.4523      -172.7569      -164.0281      -163.2279      -151.0825
      -131.7001      -131.8443      -143.0804      -150.2830      -171.4475
      -166.3779      -130.3177      -109.3283      -107.4665      -104.0811
      -112.6754      -139.4579      -176.3411      -189.2895      -202.3853
      -212.2776      -192.5719      -174.3121      -164.2788      -145.2850
      -146.9689      -146.9827      -141.7396      -159.6128      -179.4885
      -192.7207      -202.9001      -210.6134      -224.4832      -236.0201
      -239.6478      -242.8719      -267.0958      -302.2685      -307.4050
      -291.0283      -278.5499      -262.4988      -222.2158      -210.4946
      -226.1415      -241.9874      -263.1251      -292.7223      -321.8251
      -335.0376      -316.3397      -295.4570      -274.0584      -249.3976
      -236.9456      -221.0375      -200.3187      -192.2000      -181.7332
      -180.0275      -178.9542      -161.8593      -161.3467      -155.0858
      -144.3503      -156.7609      -175.4529      -185.3035      -194.7435
      -201.0429      -191.7573      -173.4609      -158.5418      -124.1936
      -83.11172      -74.86536      -86.60440      -103.3577      -122.0312
      -130.7662      -137.0903      -132.5620      -124.7607      -114.7442
      -88.23616      -56.00656      -38.80699      -19.34306      -21.92345
      -33.66658      -55.58818      -78.65186      -95.52344      -115.2603
      -144.3379      -130.9621      -92.53078      -66.88802      -27.07710
       23.24394       38.84938       33.95010       24.21405       1.585327
      -30.38617      -63.96552      -97.91595      -99.85040      -83.22676
      -68.89905      -38.96577       9.209061       38.68849       71.61862
       108.1562       113.7223       94.83032       75.30391       41.30246
       27.41550       26.08226       28.11429       41.38878       68.15436
       100.0090       141.8593       162.4109       187.9406       195.0474
       167.9198       148.7757       145.7639       126.0787       114.0682
       128.1358       157.2947       173.0983       199.7052       236.5221
       255.0455       258.8089       254.2114       253.0169       250.3652
       241.1039       251.8588       271.5972       294.6028       332.5828
       365.2694       372.6143       384.5027       400.3463       395.7279
       366.0020       369.9330       393.0541       395.1376       390.4934
       409.5074       417.2069       427.3055       421.7521       400.6010
       346.9521       303.5367       289.1162       298.4419       301.5782
       311.1945       334.0240       347.6116       324.9831       313.9951
       296.9210       262.4991       231.7293       216.6383       212.3219
       212.0884       225.2581       262.0217       293.4921       313.6237
       328.2128       318.5663       277.6878       241.8855       209.0587
       168.7762       141.7222       141.4205       133.3794       135.7125
       166.5669       216.7655       257.5013       279.1312       274.8559
       254.1240       215.2861       178.4214       165.2066       155.1904
       137.0836       152.7789       178.6685       196.2881       207.8073
       214.0045       205.1300       196.9359       202.5798       219.1483
       218.2400       217.5204       212.5652       203.4033       182.4916
       181.4894       182.3230       160.4977       137.9536       146.7313
       151.6072       176.4059       209.7321       227.3567       218.8076
       213.1501       210.8643       200.2219       172.7875       167.6024
       170.6548       168.8972       166.1027       194.2826       189.0886
       198.7549       294.6176       299.8944       229.1300       332.1962
       317.2166       63.99411      -1.678314       47.84401       43.28391
       139.6714       88.95435       159.2804       313.1949       49.40526
      -96.01545       17.46211      -16.78764      -4.238861       118.8907
       163.0074       11.17010      -93.28882      -58.39966      -143.8460
      -130.2972      -81.53726      -133.0004       66.41895       41.17383
      -303.2842      -270.6979      -82.35779      -149.4266      -295.1289
      -88.15991       218.4807       46.61810      -47.70233      -165.5388
      -586.8882      -435.7251      -97.00397      -227.7576      -314.3324
      -159.8223      -209.4143      -538.5514      -369.9521       94.89954
      -78.72168      -364.2622      -317.9886      -409.6952      -209.3855
      -35.82727      -283.6931      -245.9048      -456.8479      -648.3253
      -3.581543       91.37769      -454.1932      -561.5475      -486.0521
      -432.1051      -347.1298      -247.9376      -155.2250      -289.7887
      -367.3026      -7.170288       257.1413      -154.9609      -537.1267
      -435.1298      -462.3228      -449.5976      -93.87366      -189.9822
      -514.6355      -394.3441      -276.3923      -402.7493      -283.8451
      -10.25140      -167.8682      -309.2725      -195.0994      -293.1278
      -308.5018      -359.0251      -507.1920      -204.6341      -28.75055
      -124.5605      -93.83337      -266.5825      -452.9641      -349.1824
      -324.1288      -284.0041      -14.83567       12.48642      -151.2856
      -168.5885      -186.3441      -271.1287      -495.1017      -572.4273
      -261.8947      -122.4648      -304.3011      -237.6173       19.96948
      -86.50671      -371.2845      -246.9911       77.24478      -9.649902
      -398.4015      -397.3933      -242.8831      -401.4407      -281.7711
       31.29405      -44.16872      -59.67576       74.01675      -59.78506
      -183.2941      -99.14526      -195.3436      -476.3301      -403.0703
      -208.4360      -291.8544      -271.3129      -167.5977      -187.2748
      -78.65331       18.46732       46.23051       124.2104      -7.733337
      -202.6017      -111.7898      -60.39047      -155.6221      -127.9653
      -59.07782      -86.71008      -177.3361      -191.0984      -121.8514
      -63.89771       8.176567       22.36361       24.87189       38.03012
       70.72507       122.0515       103.9741       110.7619       45.47296
      -123.8079      -160.3043      -123.9197      -112.2053      -67.35074
      -52.36823      -84.68332       10.18860       137.5744       88.36485
      -32.00377       1.289886       141.2435       145.5334      -70.18335
      -99.90613       49.02165      -59.70514      -132.2031       4.302635
      -12.50214      -89.87646      -144.5439      -191.5299      -144.9014
       11.09090       83.67213      -38.68344      -143.0902      -100.5735
      -18.41473       29.89517      -58.78351      -131.6343      -149.1177
      -279.9861      -210.9983       54.96924      -150.7941      -415.5488
      -184.0919      -174.3911      -474.5115      -356.1223      -83.97198
      -133.6156      -115.1198       91.72656      -9.974976      -264.6725
      -187.7090      -141.5912      -267.7900      -130.1042      -40.34381
      -198.2673      -237.2990      -49.80754       44.79398      -104.7393
      -108.3985      -86.50171      -215.6305      -76.42442       73.65863
      -107.7336      -216.2011      -90.27673       62.13367       184.1689
       251.3345       199.1367       146.2925       207.3900       204.9986
       74.85049      -39.78126      -27.53009       95.25256       256.1260
       242.7158       262.9207       437.3253       508.3257       377.7399
       174.6367       148.6294       228.5950       176.8097       232.7273
       442.2714       575.9899       488.6985       357.4072       407.9099
       558.2626       554.4093       307.5149       313.6007       556.1597
       462.7423       525.6736       867.0474       748.7122       568.0979
       682.0793       596.5232       515.7156       700.7720       640.9951
       450.3987       596.3953       840.1755       837.8953       692.5966
       551.0266       481.5471       598.4602       803.3359       816.5206
       553.9247       360.7926       559.5332       645.7598       661.5320
       1009.584       932.5142       656.8743       839.3345       876.2471
       728.0435       698.9888       847.5503       882.7046       709.0364
       668.5503       718.2976       768.5342       818.5261       833.4102
       997.0603       985.8809       709.4746       700.8503       760.8181
       536.4639       526.2427       786.1187       894.8760       763.1809
       784.4619       950.7600       873.5007       655.2980       532.2307
       507.6512       607.0984       609.8301       688.5737       811.1536
       671.3372       482.1547       429.9287       484.4368       482.4945
       423.7262       560.5327       807.0105       883.2941       599.7656
       367.5353       534.0208       705.0011       651.2625       564.0303
       508.0757       598.5200       574.3251       359.2018       508.6791
       523.6765       99.99606       121.1289       168.7117      -60.66833
       63.39056       180.2892       81.09406      -51.22641      -149.2068
       3.670898       237.9484       265.0240       70.82172      -5.391632
      -47.15173      -213.5765      -258.3138      -276.0097      -296.0526
      -227.0978      -336.2371      -260.9649       15.21155      -254.4486
      -495.6772      -237.9109      -446.3447      -806.9954      -597.2457
      -528.8184      -814.1687      -806.2864      -828.1396      -950.7029
      -873.0413      -839.9722      -757.1548      -701.0024      -858.1514
      -1023.045      -1100.515      -1075.009      -1068.560      -1005.230
      -821.0864      -885.1909      -1062.450      -1105.697      -1244.334
      -1404.410      -1304.457      -1111.031      -1115.181      -1249.908
      -1279.974      -1131.793      -980.9534      -1020.228      -1300.976
      -1483.120      -1359.853      -1404.924      -1540.870      -1346.669
      -1275.289      -1398.019      -1394.087      -1342.033      -1365.601
      -1391.583      -1306.767      -1283.420      -1388.060      -1397.436
      -1429.337      -1375.746      -1173.365      -1239.993      -1247.883
      -965.0212      -1112.569      -1512.285      -1377.669      -1067.520
      -1005.037      -1051.810      -1052.920      -925.4468      -996.9648
      -1083.874      -818.1841      -907.3530      -1166.605      -965.0957
      -936.6841      -1131.676      -1121.304      -1010.956      -731.8158
      -504.3184      -540.9934      -777.0566      -1206.654      -1440.335
      -1367.742      -1564.812      -1984.586      -2183.778      -2546.326
      -3247.177      -3036.014      -1435.032      -269.9163      -256.0596
       113.3555       1576.412       2829.716       2346.538       1658.977
       3211.822       4534.102       2809.166       620.5956      -150.7275
      -1545.496      -3958.805      -4566.285      -2743.470      -1423.590
      -1281.588      -616.5843      -7.319336       195.5186       1264.868
       2269.558       2412.792       2673.884       2369.693       525.3081
      -931.5718      -395.8826      -66.32446      -882.4537      -747.1119
       43.90271       410.8359       1089.871       2062.251       2101.030
       1332.084       1614.401       2366.142       1043.957      -902.9492
      -1179.936      -1357.782      -1984.341      -1011.468       1092.446
       1811.677       1014.523       1024.245       2683.324       3422.229
       2252.346       1236.927       765.5691       681.2251       1500.660
       1774.525       588.0541      -212.4375      -348.6853      -772.3060
      -309.6343       1279.530       1807.688       926.5928       1352.436
       2682.988       2414.251       1661.504       1401.058       1440.237
       1795.642       1594.388       610.2095      -362.2657      -446.3926
       435.4780       1356.310       2174.571       2590.291       2172.034
       1591.054       1392.287       1451.513       1021.465       347.9478
       148.7068       349.4250       832.8169       977.8901       1090.678
       1325.248       1012.622       1455.685       2101.478       1112.324
       63.94409       569.9229       1514.885       1725.942       1093.848
       447.7947       712.9639       1207.308       1316.314       1819.443
       2031.406       1079.947       281.1138       448.1475       1148.550
       1630.970       1068.527      -62.37854      -196.8186       633.2336
       911.0017       645.1831       46.31812      -780.9099      -548.1426
       314.7827       991.5371       1603.160       1271.285       437.0307
      -76.33081      -544.1604      -285.9204       626.5349       910.4097
       314.6763      -358.6154      -433.8768      -209.8421      -111.8408
       160.0696       797.0552       1081.934       722.4758       457.9373
       731.8032       687.3616       78.11632      -12.15283      -183.3306
      -1128.670      -1552.081      -1249.560      -951.7771      -643.2230
      -391.0114      -42.82550       274.4823      -64.04395      -707.3733
      -1019.985      -786.8354      -471.7607      -613.3762      -858.0513
      -947.0771      -948.5347      -1062.060      -1117.409      -213.5454
       552.8350      -26.78564      -483.5089      -95.47412       34.56152
      -656.0522      -1170.861      -809.9680      -462.9072      -777.9961
      -1475.162      -1822.286      -1882.981      -2078.228      -1640.348
      -483.2565      -110.6042      -696.2690      -1049.546      -1386.415
      -1825.443      -1219.384      -451.6289      -1172.237      -2485.279
      -2421.950      -1306.017      -1004.278      -1305.250      -986.9800
      -830.6704      -1104.526      -840.2428      -482.5216      -426.3948
      -476.5103      -776.2021      -1025.364      -1035.569      -810.6310
      -416.5547      -534.0244      -1407.768      -1904.767      -1573.208
      -1390.530      -1422.488      -1193.983      -1223.332      -1395.781
      -1287.906      -1192.281      -902.6670      -959.0854      -1851.171
      -1906.498      -843.7755      -257.7168      -355.1504      -643.2175
      -956.8560      -936.8953      -568.0470      -260.8372      -81.91364
      -62.39478      -688.3760      -1480.600      -1273.901      -469.4043
      -390.3777      -816.2457      -719.2800      -479.1157      -717.8428
      -688.4574      -195.7451       29.02637      -154.0215      -371.7346
      -369.9652      -208.8264      -146.4829      -243.2913      -363.0133
      -319.2705      -119.9386       163.1633       211.0410      -126.5389
      -354.7181      -143.0941      -56.29724      -272.7656      -250.5723
      -126.6685       45.11792       371.6411       531.1321       489.1634
       224.5569       50.00378       206.6250       247.9240       254.1709
       532.5157       446.2538      -19.27656      -41.07886       203.8201
       339.3108       375.4282       328.4133       677.2866       1352.196
       1529.069       1201.626       824.4119       594.3809       523.7532
       477.4895       375.3510       209.9048       256.2697       472.5367
       521.8730       715.4346       1206.950       1680.951       1610.625
       936.9971       789.2664       1179.959       1078.202       697.7500
       628.6414       751.4075       618.9521       401.7271       618.5254
       968.9824       1142.135       1365.605       1409.465       1173.674
       964.2944       968.8108       1074.412       1110.477       1197.077
       1074.954       918.1404       1099.082       1342.795       1582.046
       1747.695       1516.236       1130.524       850.2506       631.0461
       678.7627       816.1030       910.3149       976.0625       714.4795
       496.5068       655.0322       811.1714       916.3975       1143.549
       1277.726       1322.242       1449.715       1392.141       1174.033
       1189.889       1320.996       1291.749       1135.642       955.3496
       883.0774       689.5612       253.1914       202.3383       562.9412
       583.9143       379.1252       558.8643       927.5469       1059.912
       1138.294       1158.340       1067.833       948.5913       753.4363
       738.0811       885.6815       752.7144       358.8016       190.1498
       307.3965       297.7657       115.7092       21.16626       400.1721
       786.1173       628.6265       539.2360       686.9893       486.2590
