     0.02499999      -2104.911       1400.744      -12345.00      -12345.00
      -29.99505       220.4049      -22.32000      -12345.00      -12345.00
       0.000000       17.13000      -12345.00      -12345.00      -12345.00
      -12345.00      -12345.00      -12345.00      -12345.00      -12345.00
      -12345.00      -12345.00      -12345.00      -12345.00      -12345.00
      -12345.00      -12345.00      -12345.00      -12345.00      -12345.00
      -12345.00      -31.80160      -69.32410       2472.000       0.000000
      -31.06700      -68.46300       0.000000       100400.0       0.000000
      -12345.00      -12345.00      -12345.00      -12345.00      -12345.00
      -12345.00      -12345.00      -12345.00      -12345.00      -12345.00
       115.4801       224.9224       45.36933       1.038310      -12345.00
      -12345.00       1.494035       90.00000       90.00000      -12345.00
      -12345.00      -12345.00      -12345.00      -12345.00      -12345.00
      -12345.00      -12345.00      -12345.00      -12345.00      -12345.00
      2008       164        19         4         0
       120         6    -12345    -12345     10017
    -12345    -12345    -12345    -12345    -12345
         1         7        13    -12345    -12345
    -12345    -12345    -12345    -12345    -12345
    -12345    -12345    -12345    -12345    -12345
    -12345    -12345    -12345    -12345    -12345
         1         1         1         1         1
LEON    -12345          
        -12345  -12345  
-12345  -12345  -12345  
-12345  -12345  -12345  
-12345  -12345  -12345  
-12345  -12345  -12345  
-12345  -12345  BHE     
ZL      -12345  -12345  
[...]
       192.5146       177.8238       162.2186       157.4670       178.3605
       162.2845       129.8163       125.3661       128.7785       118.3563
       117.3293       102.4547       82.12099       84.00003       63.31015
       33.69622       49.81305       25.21956      -11.30160      -10.68404
      -10.43063      -47.12941      -79.15726      -93.60794      -89.41162
      -111.0878      -155.3104      -164.4963      -170.1363      -223.4351
      -246.0741      -227.1801      -233.5897      -260.9107      -291.5976
      -322.9030      -327.4084      -312.6600      -343.6202      -390.0634
      -402.2346      -384.1311      -383.5032      -428.1228      -452.0619
      -442.1047      -447.7432      -476.7466      -483.5333      -491.2289
      -490.0974      -478.1934      -508.8474      -511.2698      -500.1482
      -528.3604      -542.7476      -545.7920      -561.1113      -534.5403
      -526.8376      -580.7683      -578.4880      -545.4707      -572.0560
      -570.0286      -563.1913      -571.1896      -574.3027      -575.5243
      -588.6434      -595.3955      -584.2018      -596.3605      -611.8179
      -603.4358      -602.5369      -618.5859      -625.4277      -604.0020
      -616.2886      -609.3175      -598.8193      -613.8031      -585.4747
      -600.1475      -662.3389      -615.5422      -570.2585      -604.4321
      -616.3129      -566.1992      -580.7012      -615.7466      -626.0941
      -646.6963      -545.1265      -495.5713      -701.0520      -733.7500
      -486.4817      -416.5229      -641.9348      -853.6754      -691.9456
      -348.5063      -494.2927      -781.2108      -642.8381      -474.4436
      -635.0120      -798.1697      -736.2261      -541.4358      -477.6041
      -571.1674      -582.0192      -495.2314      -523.4060      -559.5703
      -511.8422      -474.9944      -514.1709      -523.4978      -376.4321
      -388.0388      -540.0726      -361.0861      -181.8104      -296.6141
      -387.9780      -343.6025      -243.6061      -163.4598      -274.2045
      -331.8812      -128.7757      -53.60034      -188.0956      -184.0653
      -134.7259      -57.48582       58.56383       44.49694      -10.68223
       27.26321       69.08755       31.21201       55.16864       126.2894
       132.8557       262.0937       217.4925       66.78516       193.3752
       415.5858       416.3309       219.4521       205.6973       339.6177
       356.3125       450.9580       385.0166       260.3339       426.6127
       480.8423       357.4978       348.6047       396.6261       540.2273
       677.6625       640.1920       365.6760       285.9202       488.7029
       709.1050       697.6244       460.3137       412.4907       562.9244
       696.3478       649.2850       476.0358       509.2316       624.1829
       602.6877       709.5992       726.1160       479.1337       615.1047
       776.1136       617.1038       540.5680       619.2454       600.3723
       585.1851       764.9772       654.7874       398.8169       560.5967
       700.5366       669.6346       564.2080       518.9397       632.3606
       621.0342       543.9248       569.6072       694.9568       669.2349
       486.2429       481.5134       565.8940       655.3682       646.4619
       611.4532       458.4430       340.4066       549.7776       724.0177
       585.3481       408.2883       495.0398       441.1680       393.4906
       582.7996       420.5334       326.6014       521.7671       462.9883
       266.9929       320.8323       442.5605       322.7705       119.2491
       238.3679       506.4288       386.7107       68.93860       165.2064
       314.9532       253.6908       163.7588       17.26602       80.13220
       247.4919       171.5017       168.5613       114.4212      -6.931519
       170.6666       123.6317      -84.66443       127.0464       159.0773
      -42.44847       29.02667       72.94865      -29.06219       38.22958
       101.2066      -48.55239      -102.7437       88.47476       169.5699
       29.85864      -237.3770      -171.5642       45.02486      -7.019760
      -8.745911      -124.0061      -191.7200      -20.39191      -12.54483
      -113.5677      -87.92377     -0.6778030      -31.77957       12.78336
      -53.62427      -275.9495      -167.0959       93.23927       31.70447
      -197.4509      -225.1631      -95.16769       7.300186       69.13660
      -61.23193      -252.7805      -134.5180       50.31039      -52.25281
      -180.2701      -130.5559      -17.15411      -61.77097      -135.3678
      -49.96658      -32.93558      -109.7890      -97.78178       9.504601
       56.57355      -173.9156      -208.0847       8.709484       17.85405
      -94.86346      -27.20784       92.72488      -60.66046      -195.1223
       22.00806       171.7833      -109.4677      -117.5787       195.6460
       15.46750      -154.2725      -30.23523       68.53162       226.0516
       71.74072      -128.9762       44.33311       114.4070       15.44838
      -39.63165       66.46489       109.9048      -43.54469       14.77686
       83.22632       16.16238       34.05354      -19.30278      -30.96290
      -2.861748      -29.18974      -28.35538      -57.67322      -89.71196
      -56.58505      -54.93750      -72.95972      -76.34369      -172.4905
      -175.0348      -50.24585      -153.8936      -208.0185      -28.89343
      -199.6307      -356.7811      -186.7059      -176.7479      -246.7061
      -199.7678      -196.2585      -293.7378      -241.1436      -223.4575
      -297.8264      -298.9448      -345.2264      -341.1459      -328.0262
      -432.7386      -392.3135      -201.8424      -336.0833      -458.7837
      -399.3187      -406.8977      -401.3767      -355.3191      -402.5856
      -551.1498      -502.8967      -384.1727      -464.5959      -593.7322
      -433.5640      -356.3853      -646.5565      -697.2124      -457.5764
      -510.5056      -650.4160      -470.6978      -501.2634      -716.0941
      -669.6768      -465.8501      -484.2180      -691.3826      -630.1415
      -630.2822      -780.0710      -698.2964      -572.7515      -537.8115
      -704.1445      -744.6111      -580.3730      -669.0361      -720.4304
      -591.5198      -625.6169      -699.0885      -695.8752      -574.2944
      -534.4177      -767.0469      -740.9934      -535.4873      -635.7141
      -651.8228      -538.0840      -559.5955      -643.1744      -617.8970
      -563.9048      -585.6041      -506.0259      -482.5435      -466.1389
      -482.4338      -726.6288      -544.6210      -199.7771      -313.0190
      -536.3199      -612.3328      -395.2496      -173.7366      -276.9711
      -390.8871      -327.7689      -286.2075      -373.8868      -300.2084
      -171.7685      -162.5994      -198.7604      -216.8666      -121.7896
      -140.1734      -174.7536      -88.93199      -81.92485       25.86897
       124.4783      -119.2712      -37.86450       220.5022       46.15318
      -32.46021       152.0827       322.0252       240.4045       45.04865
       92.83948       320.3260       343.7158       204.0814       293.4980
       487.3041       422.1332       218.7025       286.3876       520.0486
       455.8616       325.4517       469.5172       481.8240       468.9558
       587.6179       553.8065       591.9907       597.0867       420.3301
       504.2316       698.0374       653.8884       477.4126       496.9053
       835.7002       858.0955       530.3748       536.0098       681.0574
       635.8396       685.2651       798.8348       716.2800       601.2097
       726.8223       798.4348       733.5483       751.0420       699.0679
       744.7383       752.1460       644.8684       788.3081       814.0996
       656.0283       718.0391       854.6968       833.4095       682.7024
       681.5376       782.9316       704.3728       671.5176       813.8167
       787.5872       582.5918       581.4365       807.9971       760.8198
       551.2511       579.9619       796.9004       795.5790       529.4462
       561.1685       781.6603       656.7515       478.5537       602.2699
       657.3469       524.5836       499.7107       689.0658       693.3040
       454.9402       520.6256       645.5914       610.3402       560.0800
       466.8457       558.5542       649.3187       485.7415       458.5466
       564.3547       584.0435       480.1294       444.3950       602.0413
       583.7744       413.3335       436.8997       512.9189       533.7983
       476.0228       332.1605       313.9990       497.8992       598.6526
       437.8568       282.8925       308.5503       378.8483       398.2611
       335.0966       281.9567       259.8390       171.0527       177.6686
       394.3235       302.8237       32.49814       71.43460       183.3833
       128.4454       4.341583       22.61755       99.42564      -60.39450
      -84.54137      0.9926147      -157.8204      -150.8761      -89.37433
      -153.0627      -150.4665      -270.3301      -255.0222      -250.6431
      -468.4373      -353.3191      -178.3457      -316.7261      -422.6433
      -388.9546      -387.8217      -507.2990      -482.6432      -413.3103
      -540.6396      -625.8796      -490.3308      -449.8577      -648.6084
      -658.2473      -543.1277      -599.4126      -803.5144      -694.9518
      -406.3665      -656.4680      -904.1614      -653.5361      -576.7686
      -773.5422      -814.2935      -758.3188      -732.1575      -827.8203
      -789.1379      -722.5815      -862.3936      -835.4819      -806.4126
      -843.9170      -782.9351      -847.3848      -837.5947      -724.9934
      -869.9534      -920.7280      -763.1265      -854.1238      -939.8789
      -788.9907      -750.8899      -896.9067      -914.1008      -765.9082
      -730.4165      -832.3010      -830.6797      -713.7715      -729.1401
      -870.4646      -820.4365      -713.4268      -753.2314      -855.1738
      -823.6653      -708.0264      -720.2920      -714.1165      -684.9648
      -706.0000      -782.2480      -773.0247      -515.3577      -584.5889
      -817.2334      -617.5554      -512.2454      -629.7700      -661.3540
      -768.7363      -644.7106      -341.3043      -490.2566      -850.7003
      -702.7354      -313.8992      -358.4829      -618.8131      -503.4274
      -413.2214      -438.7336      -448.5332      -540.8154      -419.3004
      -332.9180      -396.4360      -294.7383      -261.3684      -307.3894
      -268.6604      -149.3853      -106.3500      -169.1278      -183.1427
      -112.3854      -102.1580      -32.50967      -29.70236       33.65625
       221.3206       165.9627       17.68533       50.71265       201.2959
       259.6027       228.1675       324.4777       386.2903       378.8485
       224.0076       257.8699       543.2634       523.2004       387.6732
       456.4326       531.4126       543.0930       453.9301       490.1013
       657.3005       685.5479       539.2542       559.9326       665.3916
       708.1821       679.5269       733.2134       755.9045       644.5005
       576.0996       673.1423       808.2324       710.5637       647.6304
       756.9211       716.2004       610.9219       563.3540       870.7871
       975.9280       586.8921       593.9863       914.8354       804.8542
       644.2471       746.4575       781.0203       595.6505       573.8972
       796.9102       857.9783       757.3770       749.2932       794.2979
       773.3547       634.6064       657.9758       777.6304       785.1016
       782.5454       804.3534       714.6489       597.9990       750.6169
       868.7129       644.6899       605.7588       790.6216       806.3037
       623.6316       581.3127       631.3381       636.5596       639.9189
       721.3083       647.7224       560.7992       461.4744       497.9744
       789.2515       779.4086       403.5034       337.3702       585.3971
       620.1917       494.0414       381.2762       372.4673       490.8281
       442.5603       336.6082       322.0087       352.0129       318.7547
       348.0249       197.3047       131.4326       326.4079       207.1352
       78.82312       264.3778       277.9513       122.8354      -79.76251
      -146.1609      -145.5704      -232.8817      -228.8570      -164.4161
      -172.2756      -14.80597       11.38148      -109.2015      -25.00455
      -89.65314      -234.4023      -60.52277       171.3511       164.2981
      -9.807495      -204.6329      -405.2696      -423.3484      -71.54364
       221.0134       42.18677      -320.5532      -710.4688      -918.2251
      -1268.274      -1308.991      -632.5200      -457.3486      -800.0387
      -669.4651      -376.0875      -298.3611      -483.2285      -1198.741
      -2104.911      -1796.343      -411.9794       265.4956       86.99905
      -11.51685      -290.4385      -874.0691      -1031.092      -889.5503
      -1069.400      -1393.713      -1053.065      -359.0310      -888.6016
      -1688.959      -1319.786      -860.6135      -778.3232      -346.6047
      0.6846313      -209.5415      -307.0114      -133.7133      -179.4827
      -507.8086      -979.3042      -1237.427      -1148.729      -816.1074
      -590.0547      -958.7495      -903.0945      -76.60315      -346.0928
      -1353.225      -1179.530      -577.2544      -656.5337      -777.3938
      -667.0540      -736.0640      -929.6865      -689.1414      -739.9216
      -1235.722      -753.4483       108.0068      -118.7798      -613.0889
      -1055.702      -1450.388      -749.4578       158.9607      -464.9441
      -1354.313      -996.5300      -63.53088       196.7356      -179.2603
      -182.6789      -13.20813      -149.3253      -233.9599       124.9793
       232.7888      -711.1934      -833.8872       606.2433       965.1924
      -397.6012      -841.5641      -39.72620       327.0878      -81.86273
      -355.4351       33.72510       290.7264       152.7648       492.9563
       982.5587       307.8338      -438.8711       122.5802       686.3296
       207.7606      -302.6254       435.2097       1045.457       549.6915
       344.3982       859.8755       793.4823       317.0103       801.0481
       1245.062       693.7256       471.1040       740.3142       770.7559
       498.8295       501.8391       950.2190       1046.001       884.6211
       1074.096       860.6484       430.2249       630.7856       821.6331
       639.0483       889.3789       952.3304       558.7683       351.7703
       258.3643       523.1475       552.6045       413.5251       600.6116
       686.6885       835.0286       889.9165       613.6322       281.5555
       371.2871       739.7018       762.4333       416.6797       624.7405
       1037.849       687.4634       137.6776       143.2688       390.9414
       363.5920       306.2222       576.8458       593.3337       353.2404
       443.4453       441.0840       365.5752       533.8204       636.8062
       708.6973       582.7875       407.8278       481.5427       545.0193
       489.3348       330.7544       322.1223       531.5725       564.9814
       429.0079       516.6125       687.4387       299.3727      -93.91010
       102.8951       557.1607       423.5715      -106.6769       335.7175
       849.2092       571.9395       337.0369       349.1058       513.9773
       564.0820       548.4762       434.3046       245.2962       176.8196
       501.3633       653.3419       172.4777       88.77319       445.2079
       534.3043       380.5129       190.7020       239.6438       344.7052
       326.0437       431.6941       155.5609      -171.3534       195.2343
       337.9194       68.35181       180.4344       191.3107       8.633667
       285.0547       360.3750      -5.936333      -74.35229       111.4906
       107.7962       31.50079       105.5018       203.9829       108.5875
      -99.32996      -274.2413      -193.6696       121.8171      -11.71143
      -349.2063      -209.4615       106.0947      -51.00146      -316.2543
      -14.32025       115.7670      -201.8223      -406.3862      -467.9059
      -301.6279      -67.41675      -362.3276      -719.8005      -454.7792
      -163.7872      -498.3359      -691.2958      -244.6705      -139.1172
      -580.9370      -722.6099      -401.3616      -204.3616      -547.7487
      -672.1558      -489.0698      -374.1851      -346.4353      -656.7129
      -844.0422      -657.8560      -617.1707      -775.7605      -683.9270
      -448.5768      -606.1641      -730.1271      -459.8186      -386.3463
      -432.0264      -479.5417      -630.0986      -537.3896      -450.2819
      -468.2273      -597.1984      -664.5227      -416.8059      -434.3645
      -609.4778      -483.0952      -481.4526      -695.4426      -707.9166
      -556.9928      -517.5022      -493.1561      -562.0830      -566.4731
      -605.7869      -833.4292      -712.2113      -514.7233      -450.2576
      -527.3093      -745.9913      -504.1365      -411.0093      -804.4597
      -860.3853      -670.9792      -432.5654      -365.0100      -762.1550
      -818.4578      -600.4651      -657.3912      -627.5105      -658.5934
      -669.2281      -497.5123      -564.6560      -761.2986      -598.9697
      -517.6061      -673.8558      -641.4288      -539.8535      -537.4302
      -560.7017      -546.1072      -697.7501      -699.6919      -507.8140
      -522.0774      -438.6421      -431.0437      -546.7196      -405.6389
      -471.5702      -619.5493      -481.4506      -551.8904      -531.5753
      -284.4473      -374.2727      -589.5918      -471.8765      -307.9563
      -615.8862      -650.7653      -195.8479      -143.9895      -446.7377
      -419.4067      -308.0707      -421.7600      -359.4409      -310.9081
      -389.8261      -252.0438      -120.8831      -258.0155      -344.3642
      -192.4852      -43.71781      -5.033112      -81.24738      -264.4982
      -288.4617     -0.1503601       245.3796      -20.04874      -228.7849
       117.7256       286.8977       96.45047       38.23267       170.9642
       273.7928       268.1783       288.5669       284.8824       314.0186
       416.1709       414.7567       335.4252       296.8871       358.9019
       495.0712       518.7596       316.3281       365.5110       687.0892
