     0.02499999      -1385.645       1361.129      -12345.00      -12345.00
      -29.99505       220.4049      -22.32000      -12345.00      -12345.00
       0.000000       17.13000      -12345.00      -12345.00      -12345.00
      -12345.00      -12345.00      -12345.00      -12345.00      -12345.00
      -12345.00      -12345.00      -12345.00      -12345.00      -12345.00
      -12345.00      -12345.00      -12345.00      -12345.00      -12345.00
      -12345.00      -31.80160      -69.32410       2472.000       0.000000
      -31.06700      -68.46300       0.000000       100400.0       0.000000
      -12345.00      -12345.00      -12345.00      -12345.00      -12345.00
      -12345.00      -12345.00      -12345.00      -12345.00      -12345.00
       115.4801       224.9224       45.36933       1.038310      -12345.00
      -12345.00    -0.06401850       0.000000       0.000000      -12345.00
      -12345.00      -12345.00      -12345.00      -12345.00      -12345.00
      -12345.00      -12345.00      -12345.00      -12345.00      -12345.00
      2008       164        19         4         0
       120         6    -12345    -12345     10017
    -12345    -12345    -12345    -12345    -12345
         1         7        13    -12345    -12345
    -12345    -12345    -12345    -12345    -12345
    -12345    -12345    -12345    -12345    -12345
    -12345    -12345    -12345    -12345    -12345
         1         1         1         1         1
LEON    -12345          
        -12345  -12345  
-12345  -12345  -12345  
-12345  -12345  -12345  
-12345  -12345  -12345  
-12345  -12345  -12345  
-12345  -12345  BHZ     
ZL      -12345  -12345  
[...]
      -25.64062      -38.30404      -24.94257      -27.42168      -59.87740
      -46.10164      -9.580879      -31.26324      -54.37341      -44.42299
      -20.99577      -39.57558      -53.02594      -28.13728      -13.88586
      -47.63071      -66.47662      -37.43819      -12.35004      -38.75995
      -41.69740      -35.52431      -28.52570       19.79838       28.89046
      -36.65446      -40.07361       30.49844       44.96748      -7.806023
      -36.40943       22.25955       46.33143       14.01829       29.89410
      -1.072474      -12.51316       19.39018    -0.03722000       3.833939
       30.28468       31.11072      -29.18208      -87.76537      -40.34240
       40.10564       8.580963      -78.17047      -114.7820      -55.61520
       38.30785       15.11935      -135.7439      -173.2171      -109.7129
      -112.2841      -133.1670      -133.9535      -83.11618      -94.24847
      -199.0010      -232.8027      -145.6613      -82.01947      -159.2064
      -212.1566      -180.0771      -199.3267      -208.0232      -154.0541
      -154.9465      -271.9922      -326.8195      -241.5447      -151.4616
      -178.9807      -212.7326      -197.8113      -258.5230      -273.8117
      -288.0398      -306.5246      -169.3265      -144.6981      -243.2794
      -177.3910      -110.7862      -124.9312      -10.98401      -82.72012
      -217.5246      -43.90327      -11.31737      -92.07035      -8.149117
      -4.809631      -98.55083       4.262680       101.3277      -9.871429
       76.32263       301.6738       257.1185       65.35681       70.77365
       102.4851       171.1826       321.1458       324.7587       273.4391
       250.0573       254.0785       329.0944       369.8165       349.2901
       326.5421       260.9038       413.9767       489.3741       353.5834
       543.3534       495.3516       275.6174       364.1832       482.6675
       441.2594       496.4358       471.1599       478.0287       564.0688
       456.4568       548.9385       652.8110       449.1536       356.5020
       548.1527       549.4729       448.6716       486.4968       534.3419
       550.2769       490.7246       505.1482       434.5437       390.5212
       518.4889       553.9071       409.5793       419.3636       546.0603
       437.5828       404.0635       609.8207       557.5620       446.4377
       427.1931       364.1178       381.1244       513.4055       607.4492
       374.0137       321.8885       461.9885       405.6432       515.8920
       467.1371       325.8586       423.8121       423.6470       294.4124
       353.2212       376.1044       368.1506       374.1125       307.2100
       293.1268       407.8741       358.6999       334.4710       333.4203
       226.7802       264.8320       301.3502       244.2375       342.0803
       336.3763       155.7529       225.8947       288.4651       135.4320
       179.0125       229.2544       200.7807       265.6620       281.2394
       135.9484       109.9169       204.3637       93.75174      -54.33081
       173.1017       196.2924       105.0547       193.6362       35.72105
       13.25906       171.0883       14.24274      -59.67419       76.75267
       71.05069       47.99908      -82.59436      -149.0995       22.88013
       49.60803      -69.64636      -94.98810      -88.39764      -139.2244
      -56.35370      -27.78491      -172.3521      -307.0065      -194.1276
      -113.4783      -208.8623      -216.4486      -216.3865      -288.5123
      -304.9352      -194.4800      -253.1570      -428.2408      -289.7351
      -290.5463      -380.9421      -339.8789      -346.1022      -365.4591
      -427.7666      -468.5409      -354.7584      -274.9387      -428.1062
      -505.8702      -363.5815      -395.1165      -567.1267      -523.9863
      -347.2932      -390.8494      -522.7612      -566.0342      -438.1143
      -292.6079      -488.9404      -704.0522      -562.6086      -472.8911
      -530.9189      -555.6401      -520.2666      -491.4153      -513.2175
      -580.6748      -551.0149      -539.5011      -511.6862      -504.0684
      -634.0836      -555.1321      -462.6899      -549.7975      -540.5752
      -448.3199      -476.7150      -573.5825      -534.0000      -400.1274
      -385.2448      -539.6006      -507.5259      -470.2706      -386.7312
      -186.3591      -393.9482      -499.4468      -317.1598      -407.8834
      -386.8276      -231.9280      -259.0998      -359.6337      -254.1006
      -208.5481      -293.0255      -211.6264      -179.4067      -311.2155
      -278.3920      -169.2227      -187.7997      -185.9808      -119.2197
      -75.79388      -77.23206      -226.8798      -229.4139      -72.59235
      -80.77588      -155.2807      -27.25668      -47.85342      -190.4991
      -123.8159      -83.45461      -86.76662       8.070015      -3.888611
      -106.6386      -132.7452      -81.81169       92.81435       49.45703
      -185.7680      -79.19155       9.862045      -55.18149      -82.38437
      -15.97577      -50.64243      -129.3571      -65.33910       17.26291
       55.94941       59.75589       8.424120       1.594856       15.92525
       3.779785       59.15860       78.40158       35.16064       87.21405
       132.5388       207.2935       101.9293      -9.857666       209.2371
       196.4881       58.96143       263.3243       276.2753       242.8496
       269.2021       155.6857       157.0681       274.3728       234.6237
       288.2107       325.1187       220.6429       267.0471       367.1452
       329.6876       303.7427       196.4791       189.8923       308.3492
       258.0443       285.0221       394.4916       282.2155       260.8255
       287.9322       224.8640       211.3532       227.8040       228.3483
       220.8708       179.4482       147.0549       118.3976       137.3340
       203.0603       206.8015       3.890350       28.45197       182.1935
       95.69673      -20.64449      -55.41641       17.95842       108.6822
      -24.23105      -131.6036      -43.23203      -9.387726      -154.3726
      -157.0007       44.39671      -12.49115      -212.3025      -167.2587
      -124.9309      -234.5901      -169.3849      -42.07971      -195.2238
      -189.4233      -20.74158      -156.7547      -209.9933      -86.47705
      -182.4066      -237.6772      -76.75862       40.27600      -93.51404
      -165.9271      -15.18367       14.09494      -20.91952       13.97685
       6.951342      -19.71045       24.94366       209.7007       234.2618
       132.4536       239.4437       227.5193       113.0221       247.9050
       290.1425       253.8068       433.9280       393.5626       414.9138
       541.6467       368.3405       390.5380       550.0410       502.7550
       577.6229       705.1311       559.8999       533.4141       626.0132
       686.3082       697.5939       641.3351       611.9495       670.7622
       741.9084       677.6895       721.0117       802.0786       718.7539
       712.7100       685.1453       719.9194       785.9695       756.6982
       758.0039       798.2158       793.5916       763.2163       842.1692
       887.7715       800.8401       754.6125       733.7988       766.3989
       796.0054       683.0757       735.9746       860.6096       734.9653
       661.9724       770.3337       779.5469       692.4670       675.8159
       663.8845       681.1248       642.7764       600.8477       608.2578
       620.4036       608.4211       566.7524       526.6438       544.6218
       600.4454       530.4668       382.1823       361.6465       441.4086
       388.6157       279.0074       350.6801       404.5025       252.1572
       159.3846       260.1731       205.4714       127.3887       193.4003
       107.8329       33.30420       87.69862      -21.69739      -72.74176
      -17.82404      -75.78003      -126.8912      -205.8558      -248.5511
      -117.9410      -249.9070      -408.6157      -240.0479      -213.4398
      -383.1151      -459.3438      -386.3771      -426.6743      -493.7799
      -394.6006      -405.6682      -620.5784      -635.3568      -548.3092
      -607.8704      -559.6998      -532.5856      -545.4159      -594.1848
      -690.3071      -713.7460      -636.4609      -655.3171      -815.1697
      -646.7402      -573.2517      -835.2749      -833.3154      -742.9436
      -810.0674      -825.5210      -808.9790      -774.4224      -799.0447
      -863.3530      -881.3545      -882.1995      -861.0901      -831.5730
      -929.7141      -1028.710      -920.3467      -903.4565      -935.5371
      -945.2329      -1044.875      -1038.601      -954.4141      -976.7114
      -1041.331      -906.9211      -867.0876      -986.8501      -988.4246
      -991.6523      -977.0701      -924.3638      -917.7739      -923.4915
      -861.9814      -847.3228      -905.9033      -913.2820      -915.4678
      -886.1584      -791.9558      -731.8477      -713.0005      -711.4429
      -712.0374      -720.7847      -743.0217      -625.2010      -553.5890
      -651.5695      -605.4102      -501.8845      -583.3943      -489.1096
      -361.8118      -612.6829      -620.5518      -340.4741      -399.7601
      -540.6824      -397.2050      -230.4041      -306.7048      -404.6478
      -345.6954      -311.3828      -311.5371      -327.3452      -357.4304
      -304.4678      -196.8735      -214.9681      -226.5491      -143.3348
      -99.40332      -171.9110      -310.8035      -225.3850      -141.0754
      -252.3669      -198.3733      -120.0211      -141.5228      -122.6331
      -192.4999      -99.48746      -45.22229      -240.2590      -246.4330
      -185.4284      -223.3450      -176.5416      -64.21564       14.99796
      -27.22192      -176.6962      -277.5626      -234.3863      -80.49625
       32.50905      -20.97662      -45.62396      -21.63855      -156.5492
      -233.9111      -67.72643       71.65639       39.37634      -33.19182
      -36.98138      -82.97453      -79.66629       1.553101       61.12854
       131.1733       107.6865       7.314705       25.37260       49.60675
       95.98456       262.4244       241.6834       75.18652       135.1551
       282.1039       202.1158       56.62598       202.5047       242.2993
       119.7674       210.1619       366.7813       345.4194       222.4334
       157.9069       265.4651       381.8058       420.5591       400.1714
       406.7277       432.8906       347.5792       297.1962       436.6294
       472.9019       461.5154       517.2812       412.6077       444.8105
       655.4467       628.9865       502.6127       517.7007       535.9443
       524.7645       642.6077       635.2812       536.2552       564.6003
       635.3643       634.4441       676.1797       780.3389       627.4192
       626.7905       840.4368       904.5142       819.9175       786.3176
       720.9285       686.9597       932.1741       812.0129       519.9890
       789.6509       995.0112       871.0105       919.3618       889.8945
       733.7268       902.5288       977.3699       795.2031       800.3716
       878.0208       811.6223       892.4941       1019.161       938.3828
       861.7808       808.7515       858.6892       839.2891       850.4050
       890.6011       790.3250       941.1890       984.7661       900.9868
       917.6992       901.9884       683.2798       677.3438       1016.841
       957.0005       851.9951       1013.337       993.4083       645.8784
       469.7192       571.9856       633.0938       877.7712       1085.119
       890.9875       632.8960       431.2524       278.1882       504.8765
       821.6089       669.0693       495.3057       643.6853       692.5000
       428.2336       144.5616       332.0173       723.3862       608.0643
       221.9478       156.1995       478.1569       708.0913       634.5549
       466.7198       254.3079       310.6389       419.5791       137.8670
      -77.45792       32.68445       185.3306       196.3474      -97.40210
      -430.0806      -218.1061       185.0714       343.1592       369.2467
       157.9548      -43.80161      -102.6905      -118.8192      -37.50745
       35.86829      -171.6461      -316.8599      -198.7312      -191.9358
      -297.1516      -539.0376      -760.7146      -689.1682      -246.1311
      -36.71838      -288.9702      -714.9321      -1012.370      -668.0920
      -342.2983      -629.4653      -803.3407      -534.1470      -416.2588
      -628.6274      -727.4077      -685.1777      -810.6650      -995.1750
      -735.7205      -519.5369      -819.6130      -1067.139      -1056.652
      -1015.059      -870.3010      -809.1167      -1167.859      -1006.279
      -349.6055      -494.4656      -1117.000      -1257.502      -1002.364
      -1100.444      -1385.645      -1295.486      -929.2671      -871.2800
      -1099.672      -1049.740      -965.4937      -936.0376      -726.6425
      -531.2607      -713.2878      -1066.840      -994.3333      -684.5801
      -806.0791      -1077.319      -873.8013      -584.4089      -725.8682
      -934.1101      -879.8452      -709.3167      -774.3882      -930.5374
      -797.1313      -635.3550      -701.2639      -787.3154      -725.0975
      -628.5684      -701.7981      -923.9294      -800.1720      -556.1450
      -592.1243      -632.3376      -606.1697      -626.3667      -559.0078
      -519.9347      -658.7091      -529.9661      -322.5740      -519.9309
      -740.0034      -520.3940      -273.1355      -443.5659      -851.8292
      -818.2720      -355.1167      -320.0977      -406.4084      -355.0951
      -312.1415      -302.4633      -335.8850      -379.1570      -618.3188
      -589.4272      -309.8809      -309.4081      -336.0853      -355.4740
      -400.2524      -316.0011      -161.5565      -84.93301      -92.33777
      -67.58972      -176.6912      -382.6775      -361.5029      -173.5211
      -11.56621       84.08634       43.44315      -149.4948      -135.5733
      -35.69145      -20.42537       34.90051      -142.3041      -218.7143
      -114.9069      -133.6302      -90.83532      -30.96657      -17.72435
       52.35939       16.36902      -8.504272       142.5829       52.37277
      -189.4131      -41.81110       213.4469       182.9107       76.60171
      -39.33401      -1.740356       308.2502       374.0117       174.4150
       101.4390       296.5212       433.7185       360.1570       305.1394
       372.0400       444.8216       362.1770       248.8546       220.0481
       333.7451       439.3210       365.4745       339.8892       286.8737
       333.1970       419.0508       250.9808       251.0844       355.8412
       389.3086       511.3177       526.2881       520.0785       627.4771
       670.5525       632.0164       671.0417       550.5293       440.7554
       669.2690       729.8545       493.9390       464.5790       543.6672
       459.2181       492.3596       751.1554       744.3076       548.0719
       603.5273       707.9036       711.8303       711.5585       668.8477
       638.0839       660.1289       716.9180       714.9009       672.0022
       589.7183       543.0491       575.7764       652.8081       819.0464
       873.3916       693.4050       672.4163       760.0090       647.9177
       668.7244       693.3699       598.1145       691.4689       635.7476
       594.4807       605.3159       583.3567       653.3423       713.6628
       848.3665       826.3630       666.2241       751.2520       980.5017
       915.9170       682.9036       718.7437       800.9739       792.4929
       796.6084       711.2126       592.5194       593.5226       622.8521
       644.5000       618.6986       649.5547       694.2576       652.0696
       604.0513       605.1007       641.7778       656.5859       654.1841
       740.4424       763.6022       632.8569       457.8555       492.7009
       568.0536       533.2416       648.6998       560.3265       340.5493
       432.1910       547.0258       578.9725       637.1736       577.8804
       580.8523       668.7424       657.9874       543.2200       464.5662
       618.9620       608.9385       436.3572       458.0742       504.8105
       457.7528       496.9373       498.4395       424.3761       477.3142
       410.6570       311.0433       344.0078       430.9230       430.3318
       367.7831       372.2250       341.0389       332.5101       417.8593
       481.1208       415.3666       247.4750       209.8145       176.5950
       82.08972       202.6529       166.6131      -51.70963      -64.51532
      -77.75830      -111.1331      -47.06726      -72.14062      -184.3327
      -177.6893      -122.4797      -187.8920      -262.1429      -258.8332
      -213.5844      -311.0039      -376.0490      -435.8389      -580.5806
      -429.0615      -352.3599      -579.7031      -605.0687      -566.7144
      -683.4487      -753.1956      -710.4602      -656.8108      -672.9392
      -720.0854      -791.9316      -842.3306      -778.9224      -781.2834
      -812.1443      -766.1699      -787.5771      -836.7346      -889.4211
      -863.3271      -892.3018      -952.7725      -906.5579      -1056.888
      -1078.061      -981.0920      -1081.151      -1045.603      -962.2087
      -1039.108      -1112.659      -1073.600      -1044.058      -1080.128
      -1175.540      -1167.139      -1048.677      -1050.866      -1110.217
      -1125.811      -1117.986      -1082.891      -1095.694      -1113.541
      -1168.738      -1149.525      -1104.487      -1171.866      -1199.661
      -1120.786      -1084.652      -1134.494      -1188.229      -1132.600
      -1076.999      -1101.439      -1071.422      -1008.187      -1028.228
      -944.8552      -883.8755      -942.7131      -926.1265      -899.9475
      -890.3821      -762.3674      -789.2664      -925.7537      -810.7240
      -640.9504      -736.1074      -889.4321      -816.1589      -730.0591
      -732.5432      -734.3945      -849.2021      -846.8038      -593.2069
      -485.0466      -668.2792      -667.4529      -564.0708      -594.4414
      -517.5608      -419.5693      -518.2393      -483.4435      -405.8203
      -549.5618      -519.6887      -379.4187      -408.3525      -407.4612
      -381.5918      -399.1274      -350.0920      -284.3647      -338.2970
