     0.02499999      -1926.404       1651.858      -12345.00      -12345.00
      -29.99505       220.4049      -22.32000      -12345.00      -12345.00
       0.000000       17.13000      -12345.00      -12345.00      -12345.00
      -12345.00      -12345.00      -12345.00      -12345.00      -12345.00
      -12345.00      -12345.00      -12345.00      -12345.00      -12345.00
      -12345.00      -12345.00      -12345.00      -12345.00      -12345.00
      -12345.00      -31.80160      -69.32410       2472.000       0.000000
      -31.06700      -68.46300       0.000000       100400.0       0.000000
      -12345.00      -12345.00      -12345.00      -12345.00      -12345.00
      -12345.00      -12345.00      -12345.00      -12345.00      -12345.00
       115.4801       224.9224       45.36933       1.038310      -12345.00
      -12345.00      0.1445291       0.000000       90.00000      -12345.00
      -12345.00      -12345.00      -12345.00      -12345.00      -12345.00
      -12345.00      -12345.00      -12345.00      -12345.00      -12345.00
      2008       164        19         4         0
       120         6    -12345    -12345     10017
    -12345    -12345    -12345    -12345    -12345
         1         7        13    -12345    -12345
    -12345    -12345    -12345    -12345    -12345
    -12345    -12345    -12345    -12345    -12345
    -12345    -12345    -12345    -12345    -12345
         1         1         1         1         1
LEON    -12345          
        -12345  -12345  
-12345  -12345  -12345  
-12345  -12345  -12345  
-12345  -12345  -12345  
-12345  -12345  -12345  
-12345  -12345  BHN     
ZL      -12345  -12345  
[...]
      -413.5803      -395.6785      -377.7161      -387.2644      -370.1277
      -302.4193      -298.2603      -311.4615      -259.1163      -242.9811
      -221.5385      -194.6100      -197.3237      -161.7020      -128.1169
      -125.2327      -103.3464      -108.6503      -80.36607      -33.35762
      -37.47961      -27.61415       19.89249       23.27467       36.80663
       56.37059       63.37372       68.24811       94.27328       133.4752
       156.6725       138.4851       148.1143       187.9329       207.2678
       186.8347       183.6412       204.7476       249.1724       257.1458
       239.3824       244.6769       255.5741       263.4969       275.3740
       248.1447       271.5902       306.8018       287.1227       278.5309
       291.2611       292.3389       286.7173       270.8594       271.0987
       291.3401       293.6973       279.1201       281.3874       276.1029
       276.6017       283.0945       282.9781       270.8721       286.0121
       274.2287       264.1742       266.7303       263.9493       272.6833
       255.5874       259.7440       269.9787       233.7186       238.6533
       246.8047       255.3441       248.4233       234.7948       228.0170
       229.1241       232.2840       205.3997       200.5453       237.8516
       236.7022       189.8994       160.5428       199.9375       220.6850
       231.1955       237.9664       222.1427       229.8120       273.4215
       252.1360       188.0500       235.0535       370.2891       388.6007
       298.9218       214.6696       311.6915       367.4113       204.2003
       149.0688       237.8188       325.6514       429.3715       356.5420
       259.3630       392.3260       416.8715       249.1886       266.9204
       394.6982       551.4990       508.8771       254.3032       237.2026
       394.3152       425.1294       435.0471       411.2834       407.0035
       474.4418       443.2223       364.9407       408.8693       516.8601
       514.9736       329.7494       291.4946       484.5530       524.9836
       452.0558       523.3903       505.0881       374.3907       305.1719
       362.1874       459.8611       456.3279       418.7244       463.4403
       498.0862       435.7111       388.8364       455.1577       448.1753
       385.4702       392.3395       372.2148       358.9668       410.1859
       404.9397       390.8287       360.0457       305.0011       330.3926
       345.9095       253.7699       196.0507       256.1942       344.3612
       280.8695       172.8918       82.36475       95.45697       210.2877
       185.0950      -20.15530      -7.352509       119.5449       59.19910
      -14.70462      -88.08008      -134.3115      -24.29625       66.00922
       1.661682      -157.3033      -214.4770      -178.1471      -118.6169
      -63.23245      -77.49036      -266.6324      -233.5198      -54.73853
      -146.0620      -275.1677      -238.9298      -212.0739      -216.3134
      -213.8713      -354.4634      -298.4160      -92.86316      -199.4280
      -278.8438      -272.8127      -304.6627      -400.9141      -348.2427
      -196.7832      -290.4360      -414.8727      -302.1385      -196.5566
      -265.5259      -431.4559      -434.5702      -270.0864      -313.3770
      -515.7909      -487.7646      -224.9015      -247.5742      -429.2665
      -422.4374      -462.3547      -363.7866      -284.4348      -412.9347
      -475.6225      -310.1769      -273.3589      -516.6268      -570.7454
      -366.6915      -363.8196      -420.9866      -368.6021      -420.5994
      -515.8577      -390.7867      -299.9326      -420.0984      -509.4597
      -490.7499      -410.3278      -426.2809      -504.4446      -389.2136
      -351.2571      -410.3290      -520.1406      -530.6313      -330.3679
      -321.6573      -543.2458      -527.1910      -426.0742      -455.1873
      -396.9482      -400.2999      -570.9475      -403.9856      -293.8654
      -500.4575      -503.7700      -404.2994      -355.2805      -329.0002
      -371.6162      -489.0193      -519.2246      -358.5620      -309.8068
      -408.0942      -350.4139      -184.1697      -352.3730      -530.1926
      -352.5033      -242.1095      -364.4960      -362.6600      -271.2473
      -265.4763      -260.6600      -314.0933      -387.8376      -303.2908
      -209.1571      -265.5296      -317.4982      -281.1891      -317.3851
      -388.0515      -331.6423      -230.7875      -125.2178      -226.8723
      -422.0328      -386.0349      -227.5955      -146.4647      -257.4473
      -412.7367      -388.3051      -210.8716      -202.6942      -386.0333
      -341.6231      -147.4439      -114.9926      -210.8558      -382.5911
      -429.7244      -220.6280      -81.06671      -169.4612      -260.9741
      -317.2011      -203.4033      -110.8766      -253.3098      -254.9311
      -129.9328      -2.693665      -125.5360      -179.5370       79.27591
      -30.38461      -225.1304      -4.697296       144.3400       40.95335
      -58.39871      -20.35315       176.1622       323.1096       196.8026
       55.34094       172.2967       306.7988       176.4372       120.2382
       339.3333       453.1202       417.6708       330.8617       283.0702
       410.3175       533.2698       470.7152       395.3079       425.8986
       525.6823       527.0208       443.4858       524.9452       563.7502
       485.2964       522.0906       573.7791       546.8635       599.9117
       571.2471       448.1624       600.2111       716.6195       529.0361
       435.7080       485.7595       607.6023       602.2441       507.5308
       522.6843       458.4502       572.9250       612.6021       463.5275
       614.2756       678.1719       559.0492       469.1536       526.0575
       635.9915       553.2097       519.2310       636.6123       640.9377
       614.8624       621.0099       596.9951       593.7510       593.8239
       612.1550       644.8752       641.7609       540.3267       613.4126
       697.2805       548.1643       603.0883       666.6965       556.7950
       642.2516       718.9683       570.3975       576.5439       647.5769
       619.7750       616.8131       602.8551       662.3474       591.8535
       529.1071       559.7251       598.3799       622.6152       541.3361
       502.7292       544.5829       588.5360       521.7922       410.4742
       474.7487       487.6519       411.6224       501.3175       457.5707
       354.3728       498.4814       465.7579       280.4956       338.3230
       407.7567       356.2350       278.6617       275.3453       330.7180
       255.8733       261.8300       267.2004       204.0698       200.3251
       131.5042       108.1506       201.9415       234.9210       156.0890
       64.95630       104.6583       113.5984      -12.05656      -70.25522
       61.92157       165.8813       50.60406      -105.1537      -115.2994
      -55.31674      -4.894196      -68.45911      -100.4587      -31.13803
      -113.4932      -209.0297      -37.62403       53.11945      -145.1237
      -253.8103      -72.14267      -15.70605      -152.4523      -241.5201
      -155.6869       6.155396      -74.46252      -260.8629      -275.5826
      -116.7899      -94.20740      -308.3650      -277.2690      -80.46680
      -161.1034      -240.9730      -151.9107      -114.5215      -159.0938
      -212.5054      -202.3174      -204.3597      -218.6745      -254.9188
      -245.8780      -113.7630      -130.0806      -230.3477      -235.0151
      -187.2805      -157.6117      -281.1514      -282.5761      -181.6876
      -223.2661      -254.4822      -315.9904      -346.8188      -270.5573
      -198.9951      -271.0071      -386.6598      -290.2069      -209.5832
      -271.0559      -367.4224      -466.2164      -362.2432      -202.4548
      -389.4073      -496.7185      -330.8296      -391.7904      -414.6062
      -376.9474      -453.8206      -463.4509      -489.2596      -500.8037
      -448.5154      -509.2128      -516.3815      -438.3875      -542.4442
      -569.5959      -492.2368      -549.4988      -669.1810      -680.7097
      -536.9050      -546.4556      -608.4800      -655.3840      -686.7346
      -623.5081      -631.7029      -676.1726      -690.9449      -685.0371
      -665.3796      -696.7938      -663.5115      -682.8933      -742.4133
      -739.5048      -677.7231      -620.8374      -720.8950      -779.0178
      -648.7849      -604.2166      -680.1899      -746.1254      -633.2185
      -614.1787      -730.4939      -696.2000      -658.0400      -661.9783
      -594.7366      -562.8809      -654.4934      -725.8801      -592.5510
      -511.0979      -653.7919      -666.1880      -534.2673      -526.0325
      -555.6880      -586.3727      -512.7743      -410.1268      -464.7909
      -506.1975      -476.7981      -475.4487      -413.5000      -398.9624
      -509.3776      -460.0513      -306.4856      -305.1187      -380.0652
      -407.0260      -322.0758      -306.6499      -362.7729      -274.1517
      -265.5436      -323.1206      -233.3409      -230.5587      -289.3778
      -249.2324      -182.0530      -91.80756      -155.8861      -266.0149
      -180.0264      -162.6880      -156.9152      -86.42975      -154.9292
      -190.1541      -100.8763      -114.9105      -138.1069      -115.8545
      -54.50240       41.63832      -27.58496      -141.8033      -100.8756
      -19.30975      -52.32588      -65.41905       59.97618       70.05476
      -10.52231      -11.91115      -33.71349       19.84079       122.3544
       108.3893       27.38598      -26.58464       60.40472       133.7131
       124.7468       77.10532       48.16766       156.1871       199.9911
       53.10785       99.62671       254.8111       160.2872       121.2788
       277.1034       240.2573       54.14246       97.11133       373.8795
       425.7300       204.0302       200.5236       352.1152       307.1504
       215.4005       281.5720       344.5879       373.5029       443.1656
       365.1316       219.2351       314.5870       478.5786       452.2485
       415.5037       464.1274       540.8672       596.7306       510.7434
       458.1985       570.6836       626.9705       555.1167       570.2555
       641.7351       640.8772       748.7559       754.5063       592.4490
       682.8806       851.6191       758.4163       674.3232       792.6411
       869.0676       825.2119       807.0359       814.2117       830.3860
       924.7632       920.6355       777.1245       770.3633       885.7917
       929.7332       931.4446       931.5278       927.3901       942.3489
       959.5034       928.2253       868.3896       889.9312       919.9221
       968.4048       1018.112       943.2681       1007.326       1079.571
       947.4590       913.0442       916.6443       907.8047       824.9226
       770.5166       988.9558       1128.800       929.5903       796.0364
       874.5652       893.6611       873.3862       766.5850       773.5671
       948.2080       896.1946       752.9910       703.3484       724.6689
       853.0186       846.7788       751.1914       689.5289       633.5061
       637.3755       646.8506       663.9204       666.0176       623.2292
       610.4850       513.8667       407.3600       489.7417       531.3291
       445.2295       393.7861       403.5265       474.6218       374.9755
       307.7983       408.3564       328.0153       205.6061       254.0745
       323.8822       259.3528       126.3199       98.87140       137.4665
       176.9592       107.7457      -4.322372       44.60958       43.31918
      -70.20078      -90.56360      -147.1662      -139.7958      -21.41315
      -152.6639      -325.7871      -222.5242      -72.28540      -123.1593
      -289.3344      -288.8489      -218.5803      -260.5206      -373.0989
      -420.5522      -384.0131      -331.8103      -325.2565      -383.5529
      -380.5101      -395.7017      -542.2208      -535.9135      -423.2266
      -416.2245      -582.3691      -587.9943      -468.2059      -436.5305
      -482.6960      -702.9458      -671.3477      -444.4784      -545.4612
      -763.6421      -846.7418      -666.1493      -494.2239      -678.3506
      -953.5305      -1034.816      -927.0310      -832.0793      -972.9126
      -945.0139      -748.5342      -799.2664      -855.4434      -732.1313
      -885.2661      -1139.952      -1090.200      -1173.962      -1141.990
      -979.0979      -1081.825      -1022.321      -969.9517      -999.9932
      -940.9006      -807.2107      -769.5305      -712.1597      -478.4160
      -495.6753      -843.8511      -1176.977      -1421.318      -1452.628
      -1115.776      -593.9250      -256.4667      -264.3750      -616.7610
      -1123.310      -1636.515      -1926.404      -1636.056      -1099.555
      -1203.210      -1496.298      -1420.265      -1248.702      -795.7141
      -463.6638      -574.8531      -407.6361      -382.7021      -636.1057
      -674.2385      -1011.306      -1585.435      -1659.819      -1232.273
      -969.7837      -862.9480      -676.5671      -760.5664      -761.1748
      -676.6606      -978.3115      -1101.456      -968.5195      -974.8060
      -582.4167       2.683838       275.0809       10.45166      -542.4641
      -573.0950      -565.5234      -977.0898      -1016.234      -701.1414
      -509.6354      -318.5057       73.73330       61.48602      -245.8021
      -157.5833      -171.0549      -681.0825      -968.0082      -367.8469
       328.1406       109.0370       87.82507       577.6643       621.1358
       26.27856      -764.4424      -885.6562      -423.3314      -277.5029
      -265.1352       73.77246       625.1559       500.8302      -391.0593
      -257.1621       955.2192       808.1743      -501.1758      -575.3357
       260.0880       408.3953       224.8960       583.5791       933.4313
       448.5988       143.2993       258.5149       128.3087       302.9386
       595.7406       291.8660      -13.33618      -118.0903      -56.08215
       403.6685       779.9199       746.7714       579.5406       346.8032
      -52.51953       75.19995       781.4863       1051.197       826.7148
       772.1433       906.2218       630.6796       335.8673       301.5518
       492.8174       653.0391       437.5649       305.9252       485.4031
       576.9867       503.1001       640.5754       526.8306       210.7312
       552.7883       1036.692       992.6309       759.9731       701.5723
       600.9846       629.6255       932.5608       904.6401       752.9552
       683.3223       482.2734       824.6379       922.1321       412.0994
       532.0051       823.6404       928.9927       969.1160       765.5923
       605.0894       616.8062       892.8240       1027.446       860.9307
       734.7202       702.0522       744.2643       563.5889       252.1356
       371.6560       787.2839       853.1355       480.2031       436.5388
       902.0886       1056.724       508.8353       169.0531       444.0464
       639.4075       766.8477       781.0254       699.4514       712.0278
       481.9758       604.0032       1006.011       769.3054       484.4581
       572.3219       655.4061       473.4547       237.8201       526.5985
       699.0103       509.0139       565.7197       647.8750       833.1265
       1008.250       613.9387       293.0546       549.1917       833.8389
       911.4270       775.1523       620.6960       651.5872       662.2373
       537.4375       596.8965       788.6475       587.6877       302.7241
       425.5701       707.5038       654.6350       504.5691       692.1234
       650.2103       286.1294       306.5625       523.1910       431.1987
       359.5763       294.8007       376.5742       585.0939       410.2698
       172.3458       91.77362       181.8066       433.7028       449.4117
       305.7423       210.5857       117.9534       43.87540      -10.05920
      -73.02133      -134.5313      -36.38849       137.8445       117.2440
      -132.5486      -193.8043      -136.5432      -364.8837      -476.1678
      -271.4415      -82.65619      -184.3173      -274.1718      -183.5574
      -218.2302      -340.3286      -441.2544      -512.4521      -310.5176
      -128.6226      -353.2676      -501.6539      -255.5000      -123.6726
      -440.3333      -558.5737      -406.2046      -400.5288      -377.9490
      -406.3010      -638.2754      -775.1578      -507.6652      -283.2944
      -315.0869      -414.4131      -631.5933      -689.6074      -452.7711
      -319.0618      -548.0576      -714.3711      -579.6881      -567.4705
      -709.8804      -625.1567      -437.1179      -534.4331      -731.7389
      -688.6543      -489.0856      -462.3032      -672.4976      -741.2219
      -577.7634      -563.3794      -700.0034      -676.7847      -523.9218
      -398.4810      -406.1239      -446.1985      -665.6177      -938.3802
      -684.6873      -360.8269      -512.7080      -677.7920      -748.0525
      -786.6539      -645.5546      -546.5237      -506.1785      -431.8025
      -481.9075      -592.3621      -558.8589      -538.9022      -597.0654
      -500.2056      -400.4297      -526.7354      -698.4600      -691.3916
      -641.7207      -726.9594      -667.4474      -580.1514      -634.3926
      -540.4320      -526.1475      -682.6305      -562.2434      -555.9365
      -671.8214      -582.5199      -502.2246      -495.0563      -552.8722
      -482.2329      -353.9272      -382.3606      -544.3420      -679.5322
      -576.1635      -427.9891      -424.4734      -548.4523      -553.5723
      -373.3086      -377.8015      -467.5166      -199.2479      -170.5210
      -467.7328      -417.8555      -347.8984      -451.4551      -331.8503
      -272.0726      -312.6261      -259.5144      -367.1548      -375.0043
      -282.5878      -300.3978      -156.7396      -238.6799      -458.7982
      -282.2522      -94.79120      -141.8909      -243.8465      -200.2510
       30.37515      -21.19916      -216.8154      -143.7119      -100.6532
      -165.0336      -86.46240      -62.88892      -140.3217      -122.8521
      -99.05136      -160.9790      -62.46301       79.35229      -54.53662
      -83.87970       61.21056       54.22309      -8.069664      -75.92496
