     0.02500000      -993.5591       1034.544      -12345.00      -12345.00
      -30.00500       229.7700      -30.38000      -12345.00      -12345.00
       0.000000       22.39000      -12345.00      -12345.00      -12345.00
      -12345.00      -12345.00      -12345.00      -12345.00      -12345.00
      -12345.00      -12345.00      -12345.00      -12345.00      -12345.00
      -12345.00      -12345.00      -12345.00      -12345.00      -12345.00
      -12345.00      -30.39490      -66.52800       752.0000       0.000000
      -31.06700      -68.46300       0.000000       100400.0       0.000000
      -12345.00      -12345.00      -12345.00      -12345.00      -12345.00
      -12345.00      -12345.00      -12345.00      -12345.00      -12345.00
       199.7329       68.59003       247.6060       1.795786      -12345.00
      -12345.00     0.05185477       0.000000       0.000000      -12345.00
      -12345.00      -12345.00      -12345.00      -12345.00      -12345.00
      -12345.00      -12345.00      -12345.00      -12345.00      -12345.00
      2008       164        19         4         8
       180         6    -12345    -12345     10392
    -12345    -12345    -12345    -12345    -12345
         1         7        13    -12345    -12345
    -12345    -12345    -12345    -12345    -12345
    -12345    -12345    -12345    -12345    -12345
    -12345    -12345    -12345    -12345    -12345
         1         1         1         1         1
LLAN    -12345          
        -12345  -12345  
-12345  -12345  -12345  
-12345  -12345  -12345  
-12345  -12345  -12345  
-12345  -12345  -12345  
-12345  -12345  BHZ     
ZL      -12345  -12345  
[...]
       580.7080       558.3198       550.5430       538.0824       521.9202
       487.7820       488.9335       471.3539       449.0507       408.5664
       391.6051       422.2156       432.6804       364.9314       298.6658
       308.3169       289.7625       229.9423       251.0639       246.0822
       212.3705       227.9730       213.2164       163.1619       166.7521
       186.4045       130.6119       35.18449       58.34100       116.9816
       31.69341      -6.913673       44.49674      -15.44081      -47.34398
      -27.32602      -89.47534      -118.4902      -95.03827      -132.8556
      -168.3072      -164.2363      -217.8278      -212.4885      -169.9877
      -201.7896      -241.5348      -306.1505      -309.6409      -253.0899
      -286.1018      -354.1367      -366.6519      -360.4097      -397.5112
      -409.7521      -431.1804      -405.0066      -423.5914      -489.9512
      -472.5544      -425.5673      -466.0952      -503.1538      -500.6362
      -558.1902      -576.8522      -556.8923      -588.9194      -606.6843
      -605.4409      -623.1011      -640.0111      -592.4539      -582.8167
      -601.9727      -634.5024      -649.5693      -611.0979      -617.9739
      -713.1846      -726.3931      -667.7802      -638.4058      -670.8132
      -688.2163      -689.0322      -653.7606      -637.7141      -685.2991
      -661.4585      -646.9375      -699.7014      -696.2273      -685.7686
      -654.8450      -639.6626      -692.9065      -670.6411      -577.4287
      -598.4211      -673.9436      -637.9485      -575.8148      -628.6721
      -683.2919      -639.6842      -569.5913      -566.6357      -570.7893
      -577.0137      -609.1035      -599.5460      -545.5452      -536.9943
      -549.2229      -539.6904      -538.9442      -537.9847      -505.9468
      -501.9911      -514.9646      -505.0289      -488.1244      -475.2614
      -504.8545      -503.0748      -466.5767      -479.7850      -471.1688
      -436.6930      -431.1409      -470.8257      -446.0475      -402.0068
      -470.0803      -410.1384      -340.5928      -412.2100      -395.6968
      -372.9530      -412.8904      -373.6246      -356.6964      -378.6965
      -346.9204      -338.8844      -344.9575      -326.4127      -286.6469
      -316.5853      -336.2470      -317.7660      -313.6766      -269.1604
      -274.0931      -247.6190      -217.4037      -221.4081      -235.8439
      -236.4335      -172.2279      -142.7386      -171.6202      -171.6451
      -157.8300      -144.6931      -97.66223      -104.8899      -104.9867
      -32.85277      -30.29944      -86.14760      -97.30047      -3.226624
       54.94264       15.18142       8.622925       42.51392       60.65222
       103.8342       133.7235       109.3219       96.09546       113.4305
       155.5302       156.1392       191.1083       225.3438       166.3123
       198.1978       247.1810       268.3801       283.9921       272.6361
       293.1376       294.1780       279.3644       314.4083       349.3879
       388.6194       412.9471       390.3425       394.4281       420.5272
       414.7358       451.6025       444.5085       437.1787       475.5575
       497.1239       495.5139       479.2603       499.1929       527.6394
       521.9561       510.6433       535.2661       571.9739       532.1670
       519.4126       578.8049       590.9684       576.5610       551.8235
       556.1663       551.5828       481.8752       540.0376       618.5706
       568.9927       556.6725       549.9075       529.9568       541.4355
       558.0382       554.4409       541.6169       544.0803       563.7853
       531.5780       509.7395       528.2949       519.8965       540.1252
       561.1313       505.5791       487.1554       492.1165       471.8857
       480.5703       505.0796       497.4984       452.2253       437.0754
       476.0415       472.5095       468.0980       425.0646       386.8690
       403.1166       414.8022       415.7875       396.2162       393.5698
       404.2874       371.5383       343.0789       381.7178       382.5823
       320.6428       315.5115       313.8384       295.0947       343.2506
       295.7117       273.4351       357.4601       292.3373       250.7113
       277.8447       212.3153       234.0256       298.4309       236.0371
       202.3420       205.5061       172.8854       167.1974       180.0860
       210.0938       174.8209       122.7443       116.2231       94.86288
       105.2289       149.5586       108.1002       43.26585       59.77618
       74.62610       41.59376       21.60400       36.05287       22.95744
       20.11414       32.99557      -31.90283      -82.75663      -38.16108
       3.819031      -44.51286      -73.76117      -50.28931      -103.0775
      -120.7829      -119.4830      -121.5319      -96.95001      -112.1940
      -150.3920      -150.9855      -178.8157      -227.0617      -195.6928
      -158.9500      -235.2628      -277.6696      -250.3253      -229.8434
      -236.2415      -258.4829      -265.7794      -256.1844      -264.1924
      -276.9978      -316.6306      -364.2872      -348.3787      -298.0758
      -325.7528      -390.4480      -363.7311      -336.5420      -350.5538
      -338.0243      -373.7854      -397.5924      -358.1074      -361.0570
      -353.6465      -332.7582      -355.8266      -341.2659      -334.0350
      -384.6294      -368.7703      -316.2977      -324.5547      -339.0323
      -338.5120      -348.1121      -311.4491      -325.1160      -342.9138
      -304.2001      -322.5518      -349.9330      -288.3151      -275.9050
      -283.7463      -276.4078      -257.5482      -269.3157      -283.0162
      -244.1872      -232.3465      -215.8345      -197.7977      -226.5223
      -233.0312      -249.5235      -199.9464      -175.3922      -198.4267
      -168.7981      -134.0383      -150.2014      -159.7823      -132.2789
      -141.2883      -139.8075      -90.36951      -116.5117      -149.1105
      -150.1692      -127.2079      -78.69461      -80.36987      -124.4166
      -102.7852      -67.13458      -79.66321      -91.64893      -84.68787
      -118.4480      -95.86169      -55.38531      -107.9221      -117.4972
      -80.77060      -86.64615      -76.50485      -68.59784      -99.36548
      -144.8704      -118.0378      -92.20071      -106.8723      -107.1811
      -101.9637      -109.8504      -125.7255      -142.5554      -107.9387
      -103.5964      -139.1571      -147.4466      -119.9838      -139.7979
      -170.7444      -155.1414      -134.2964      -160.3261      -166.7555
      -167.4247      -163.7890      -137.0169      -145.0770      -166.8231
      -168.8358      -176.5240      -151.1227      -159.3514      -146.9728
      -137.5239      -156.8817      -174.9148      -152.6799      -125.0287
      -116.9761      -132.1378      -158.2365      -177.5932      -161.3605
      -134.2303      -123.4965      -130.3722      -132.4939      -146.2274
      -151.6649      -138.8122      -103.8830      -92.95917      -57.42960
      -55.75195      -68.47937      -68.34222      -88.25891      -74.07544
      -43.97742      -41.08743      -49.87901      -54.61961      -31.39288
      -38.42398      -18.32997       8.974733       5.238121       2.091763
       4.403824       51.48914       75.69559       41.62979       65.70755
       67.01373       29.50972       35.92215       51.52644       38.64578
       76.75674       82.12949       77.85632       98.77539       104.1519
       84.59692       94.15097       108.6559       90.52490       67.59259
       100.7486       104.6364       112.6338       112.7455       104.8870
       89.43259       79.09778       92.15936       111.5745       65.98187
       53.31741       82.42328       93.84314       81.77658       93.90012
       104.2653       106.7789       57.20127       42.95074       41.59940
       50.26718       90.07776       94.86542       72.38333       77.28229
       99.99179       93.58049       46.12732       70.30905       63.68015
       68.37952       128.0070       90.71318       55.70010       100.5133
       105.1215       107.5048       101.6766       117.1240       127.0284
       132.1508       134.9934       140.3315       148.7745       138.1672
       136.6036       180.3588       187.6215       183.0098       178.6761
       170.3354       178.9440       206.5896       210.5148       222.4534
       220.7236       216.6565       221.3514       253.4948       276.3436
       262.7228       251.1435       280.8470       272.1780       291.0089
       309.9767       287.6212       268.2587       318.9263       334.4673
       329.2114       337.6400       346.0629       343.2886       361.9302
       350.5215       347.0675       377.6917       363.8066       354.4929
       431.5277       410.7527       404.6038       418.8754       400.9045
       423.1641       448.7620       439.0598       470.6973       451.0833
       418.6382       420.6438       464.2627       495.8839       492.0916
       485.0177       467.2040       464.3356       485.6152       490.3024
       496.8431       493.2333       494.3582       494.0664       508.7346
       515.7587       508.1520       504.2513       519.4303       508.1740
       505.9392       512.7173       507.9642       532.8992       547.1499
       500.7688       484.1641       488.4141       478.9060       481.1980
       509.4371       503.0702       486.6787       476.2390       487.2107
       469.8369       453.8989       454.5575       430.6461       402.1036
       408.3008       423.6089       434.4377       405.5447       384.7445
       366.0570       357.4421       346.5999       325.2200       308.1715
       309.8302       284.9080       265.6610       271.5815       268.5231
       215.0165       199.7050       185.5969       178.2028       167.3784
       143.5827       126.4971       114.0541       77.55968       47.39199
       34.46006       26.91661       3.568562      -2.147263      -33.29080
      -57.87134      -59.32190      -75.73969      -119.3933      -133.3667
      -150.1366      -162.1913      -168.1769      -197.4407      -219.3572
      -238.3163      -285.2819      -294.4685      -270.0114      -285.3650
      -341.9993      -358.1703      -363.6042      -375.8352      -390.5018
      -419.8972      -423.8138      -435.6268      -470.9592      -471.9579
      -460.5864      -479.9633      -506.0214      -521.5669      -539.3424
      -536.6372      -556.4584      -573.1193      -571.8765      -616.9807
      -650.9434      -618.7316      -631.1584      -659.6978      -665.5498
      -690.0859      -712.7241      -729.9646      -750.5725      -752.2080
      -753.7544      -769.7234      -789.0308      -806.7261      -813.3252
      -837.9675      -858.2432      -861.2656      -858.1919      -860.0134
      -875.2632      -884.1023      -892.7378      -900.8828      -921.6172
      -927.2029      -928.9561      -971.6963      -964.5410      -940.0073
      -963.6453      -977.2122      -960.2729      -969.1118      -984.1328
      -991.9814      -993.5591      -971.5801      -963.8684      -983.5398
      -967.2546      -960.5752      -986.4878      -967.9199      -920.5203
      -914.1396      -930.8462      -947.9705      -913.6921      -890.7947
      -909.5081      -885.0208      -850.9561      -854.0806      -840.8711
      -827.3809      -801.0491      -754.1509      -729.0037      -736.2383
      -725.4292      -701.0114      -677.5330      -637.9984      -614.1238
      -592.1809      -551.7762      -541.2871      -529.2767      -516.0259
      -480.9996      -447.5105      -424.9305      -399.3307      -361.5593
      -331.7717      -293.0917      -284.6182      -259.6248      -225.3978
      -201.7320      -174.9020      -125.6323      -95.59203      -79.98958
      -56.00279      -47.39837      -25.43509       31.15224       41.37994
       68.59418       115.7865       139.5182       166.8777       196.5533
       194.8379       228.2396       289.6138       325.9187       314.4757
       321.5833       364.6362       405.9486       420.7225       440.2117
       503.8097       508.6355       480.5293       533.8325       582.2053
       590.6179       594.4711       627.6157       664.1597       667.3079
       677.8784       712.3916       728.1006       735.6116       767.8672
       813.5669       817.0859       804.7717       814.4790       829.9126
       861.1218       890.9429       899.3977       920.7495       916.3159
       913.3135       922.5554       953.5930       973.1138       955.5090
       964.6616       968.0149       958.3936       980.8984       1008.213
       1030.561       1008.026       999.8008       1019.918       1032.090
       1023.479       1012.936       1014.005       1034.544       1022.201
       1003.882       1011.209       1023.372       997.2483       973.2019
       953.9878       960.2854       941.4744       935.9646       958.4695
       961.7983       919.2017       898.8896       898.5542       890.8616
       873.8545       871.8911       824.0596       786.4165       790.1743
       794.9082       762.8496       760.0498       731.1553       693.1440
       672.0615       673.5286       643.8099       615.1343       595.0354
       587.0148       554.1340       527.5132       513.5570       509.9612
       457.1761       424.1675       431.3911       423.6777       394.4104
       364.8668       340.2949       316.7883       280.9592       255.8848
       231.9197       249.6758       242.0919       210.3231       172.7083
       150.7997       152.2896       136.4032       88.07037       93.31783
       91.60353       57.03891       30.89393       20.89369       7.040311
       10.33386      -12.62089      -26.78444      -41.50821      -56.09146
      -72.14938      -89.30438      -107.6958      -135.5875      -148.0767
      -127.6132      -157.1240      -183.7834      -189.8024      -209.1552
      -222.2396      -228.3008      -247.9889      -251.2078      -273.7151
      -288.7035      -312.1198      -330.8037      -322.6948      -343.4331
      -392.9918      -397.6176      -384.5328      -396.7694      -440.1750
      -449.1423      -450.0574      -479.6414      -519.6584      -520.1775
      -519.7043      -539.9115      -551.0378      -567.4900      -595.6667
      -601.6477      -602.9677      -618.5128      -654.2122      -669.6313
      -683.6555      -688.8804      -700.4006      -722.9253      -740.5581
      -752.6448      -753.3838      -771.1265      -790.4570      -781.5952
      -801.2637      -834.5181      -831.9221      -815.9600      -854.8809
      -888.5161      -862.9636      -861.2234      -892.3560      -890.7419
      -905.8213      -920.7925      -911.3601      -925.5271      -925.9595
      -915.8635      -919.8931      -929.9907      -937.2122      -915.6421
      -902.7168      -912.0586      -908.9326      -922.4551      -937.3223
      -919.4436      -907.0625      -903.1326      -886.8892      -876.1594
      -865.4504      -861.6362      -864.7666      -835.3965      -830.6807
      -833.8647      -808.3860      -788.4575      -768.0710      -736.4224
      -736.1033      -723.9165      -686.4573      -679.9976      -672.8643
      -643.3398      -642.4023      -618.9889      -570.8232      -541.5310
      -543.6515      -527.0593      -486.1086      -476.0559      -463.2058
      -438.8625      -410.9861      -383.3197      -358.9092      -321.6005
      -300.7644      -293.9620      -278.6122      -247.1270      -219.2047
      -192.5795      -147.8186      -145.0150      -152.5922      -107.3276
      -60.80258      -61.42158      -41.89601       6.681755       27.73381
       41.81787       54.85602       76.27209       104.9141       137.8848
       163.1029       183.5550       199.5619       209.7266       222.2843
       238.0237       255.8345       286.3715       312.4712       334.0684
       352.8993       358.4141       364.9596       385.3538       403.8240
       415.4125       426.3501       445.7477       468.9196       474.2061
       482.5985       494.7703       502.9292       528.8665       554.0203
       542.0676       533.2001       552.1750       575.9587       556.0997
       580.5747       615.8914       603.5842       596.9481       606.0502
       621.9845       633.8795       638.4138       639.6544       627.9955
       639.8192       657.0830       673.9399       662.8796       656.5400
       663.6666       672.9902       679.6631       661.5388       672.8818
       696.7601       676.0957       667.3672       662.3628       684.1763
       675.0142       656.5483       677.8994       691.1815       677.7295
       662.7605       664.3528       675.2120       655.8654       661.8036
       673.8567       680.2012       664.9888       649.6567       637.1136
       641.1075       652.7120       642.9821       630.6804       643.0593
       627.1011       608.0020       617.3499       639.5850       617.4232
       594.2887       602.8303       617.0619       608.1742       575.9191
       566.1855       581.3021       573.9403       554.7556       541.3669
       539.4172       541.1832       535.0571       505.9119       500.0591
       494.3236       482.8494       470.1155       470.5374       455.7100
       442.6354       419.0095       402.0541       385.1803       366.6008
       356.8483       350.8638       333.5961       307.3883       290.9597
       268.8819       250.8066       246.2975       226.8058       206.9342
       176.5665       170.6385       146.2274       115.8463       113.3618
       97.32603       67.02512       38.51960       16.49756       15.04549
      -10.15636      -46.53380      -48.03459      -59.57617      -79.37604
      -88.14569      -131.2655      -150.3036      -141.9824      -153.5845
      -179.7760      -199.2750      -211.7798      -224.8413      -237.0837
      -242.0090      -267.8763      -290.2861      -291.2922      -283.2052
      -298.2997      -320.0937      -327.1903      -338.5299      -346.0510
      -350.1442      -359.9067      -355.3464      -364.5107      -396.2751
      -397.7880      -391.2490      -411.5453      -412.8003      -403.1063
      -398.7551      -404.5601      -422.2170      -427.9746      -428.9548
