     0.02500000      -693.8169       745.4211      -12345.00      -12345.00
      -30.00500       229.7700      -30.38000      -12345.00      -12345.00
       0.000000       22.39000      -12345.00      -12345.00      -12345.00
      -12345.00      -12345.00      -12345.00      -12345.00      -12345.00
      -12345.00      -12345.00      -12345.00      -12345.00      -12345.00
      -12345.00      -12345.00      -12345.00      -12345.00      -12345.00
      -12345.00      -30.39490      -66.52800       752.0000       0.000000
      -31.06700      -68.46300       0.000000       100400.0       0.000000
      -12345.00      -12345.00      -12345.00      -12345.00      -12345.00
      -12345.00      -12345.00      -12345.00      -12345.00      -12345.00
       199.7329       68.59003       247.6060       1.795786      -12345.00
      -12345.00      -1.447218       0.000000       90.00000      -12345.00
      -12345.00      -12345.00      -12345.00      -12345.00      -12345.00
      -12345.00      -12345.00      -12345.00      -12345.00      -12345.00
      2008       164        19         4         8
       180         6    -12345    -12345     10392
    -12345    -12345    -12345    -12345    -12345
         1         7        13    -12345    -12345
    -12345    -12345    -12345    -12345    -12345
    -12345    -12345    -12345    -12345    -12345
    -12345    -12345    -12345    -12345    -12345
         1         1         1         1         1
LLAN    -12345          
        -12345  -12345  
-12345  -12345  -12345  
-12345  -12345  -12345  
-12345  -12345  -12345  
-12345  -12345  -12345  
-12345  -12345  BHN     
ZL      -12345  -12345  
[...]
       87.02054       109.4326       62.37103       23.65588       207.9014
       167.7650      -18.95972       120.3008       146.1990       1.631775
       73.82690       135.1837       112.5609       76.71082       127.6043
       82.37622       23.17648       133.8005       86.92540       50.98174
       106.3372       18.91980      -8.674622       86.13705       148.8892
       86.22401      -10.16175       18.82550       48.36224       16.37186
      -11.65279      -38.29797       88.42223       115.0899      -81.22820
      -39.95728       64.71074      -23.89214      -63.37791      -44.04362
      -26.52338      -52.36829      -30.84875      -38.27840      -70.48982
      -47.88009      -36.04116      -21.96138      -66.83374      -89.24304
      -53.08614      -69.56732      -54.17729      -42.09073      -91.90442
      -107.8144      -60.43600       25.11401      -67.96057      -164.3339
      -74.11467      -47.29962      -55.95267      -48.49503      -102.1727
      -134.0744      -18.40450       11.18796      -127.5180      -138.4124
      -34.90222       14.33934      -46.23849      -113.8714      -71.22253
      -90.31776      -44.42802       35.39862      -136.1081      -66.09387
       72.78616      -130.7031      -57.48846       44.70389      -113.5455
      -8.887482      -39.57027      -103.7703      -6.422361       11.18103
      -24.09550      -85.07182      -80.71880      -14.79419       55.19130
      -30.37231      -80.43362      -52.49008      -98.15131      -64.06898
      -1.987503       41.15823      -11.55362      -122.0527      -62.86887
       65.21677      -18.15445      -151.1419      -57.06579       45.03195
      -104.7668      -80.26868       25.05707      -111.6241      -68.22926
       52.89838      -138.9774      -158.0066       6.707100      -17.43672
      -29.12390      -115.1320      -119.5791      -40.29733      -95.24448
      -59.05759      -113.9377      -109.5264      -23.54340      -118.6118
      -104.3192      -21.75452      -138.2776      -139.3691      -63.86243
      -74.58228      -140.6624      -124.2212      -10.03058      -99.87891
      -97.74841      -67.75058      -134.5576      -65.40643      -117.5750
      -106.5171      -3.281586      -91.59708      -115.1598      -85.73709
      -77.48671      -36.75552      -48.86667      -95.23746      -62.57007
      -38.81676      -96.92426       3.493896      -18.76501      -138.4449
       28.24328       42.47485      -149.3179      -53.95089       22.18023
      -47.92553       15.67688      -14.45198      -49.95570       33.49622
      -9.411194       17.37756       74.41040      -28.15103      -38.20990
       39.62366       84.43059       16.10555      -42.32407       129.3944
       99.13927      -40.04051       45.02838       154.5241       58.27197
     -0.9417725       97.16875       50.10847       49.01202       141.0022
       154.2869       40.75525       38.36365       130.2444       87.32220
       184.6808       48.79785       17.52319       260.6014       144.6786
       67.04938       160.4886       140.2128       112.6323       67.87170
       148.6005       229.8472       84.80838       137.1501       160.5513
       61.42224       234.6744       194.5682       117.3793       164.6324
       132.1959       181.9427       180.3535       193.8186       178.0349
       35.16931       179.2357       245.0727       162.5623       175.7380
       132.7235       222.6013       188.0871       133.0172       224.6760
       100.8412       144.4126       238.3640       172.7566       173.7300
       188.5756       162.0748       102.1819       160.1099       256.1156
       137.2694       120.0374       227.3837       144.8115       151.5037
       173.0301       147.8699       123.5512       58.95233       168.7867
       225.3271       162.1286       155.2757       66.52551       98.52768
       176.0823       17.84369       88.94507       220.5451       79.12662
       108.8266       123.5217       37.13196       71.80554       61.00726
       115.8508       64.31451      -3.714203       84.02043       18.62628
       56.23109       100.8757      -14.13721      -6.975025       9.292200
       15.46043      -3.587788      -39.79633       35.19827       15.36771
      -66.12076      -36.27269      -68.98859      -45.37370      -19.43141
      -108.9911      -24.45374      -49.97043      -120.6801      -61.95959
      -142.9105      -55.06000      -17.74506      -165.6219      -81.30026
      -75.18433      -140.2544      -109.1138      -99.06293      -138.0150
      -112.3527      -122.8174      -125.9770      -155.0385      -104.1953
      -26.25586      -288.1759      -162.8784      -7.610626      -164.6579
      -82.71173      -147.9623      -220.8776      -124.6578      -153.1629
      -123.2259      -46.74200      -154.4034      -176.5978      -139.9362
      -119.4503      -66.35352      -123.4867      -149.5587      -137.4063
      -144.3251      -62.45929      -114.5111      -171.4366      -97.94281
      -99.92862      -73.74866      -86.34488      -95.50851      -105.0659
      -140.0541      -31.91641      -74.67389      -84.34488      -64.28381
      -153.8191      -56.60503      -31.69185      -55.92664      -71.37961
      -135.5327      -64.86691      -44.98155      -16.42496      -59.17476
      -68.28082       51.72243      -50.70343      -113.0449      -53.97310
      -76.58321       31.22786      -24.45560      -106.6444       11.61301
       18.75102      -54.69524       10.59478      -12.49760      -101.1117
       37.85335       98.92108      -135.7559      -49.13470       138.6510
       2.325027      -22.05159      -11.41948       12.09830       12.76370
       28.88246       90.96303       21.70203       23.40161      -15.89383
       62.53558       164.8893       47.32336      -56.13374      -16.21979
       116.8334       78.74976       56.76071       149.2000       57.45327
       6.879395       88.34920       85.95660       56.37708       183.7286
       97.75713      -56.41296       187.7841       199.9255       6.717773
       41.82172       172.9568       127.1308       40.24036       74.24194
       139.4743       139.6931       98.46686       141.3776       83.55899
       50.81766       156.5809       126.3564       79.98639       171.0325
       132.9726       49.93274       141.8621       116.6335       48.90771
       112.7413       114.3639       75.70416       147.5924       149.3474
      -10.28870       164.9447       212.9798      -36.43361       33.85892
       165.7063       113.7859       60.22104       129.5070       150.5705
      -15.97250       37.61539       119.4225       42.21442       114.3824
       82.99347      -26.91364       39.65924       117.4803       96.43095
       60.28403       24.73970      -89.01115       7.506165       179.0199
       22.30460      -53.81994       26.68326       8.069824       75.42787
       24.05235      -55.17545      -9.019463      -46.65892       5.244511
       2.687035      -55.54127       1.301666      -42.17171      -86.01929
     -0.8365479      -55.18579      -145.2860      -26.92319      -64.39056
      -126.8907      -13.26286      -30.42557      -86.83575      -91.48877
      -92.42792      -119.7706      -152.4441      -100.5963      -111.0211
      -102.4417      -62.62189      -131.4797      -131.9682      -99.49091
      -174.4795      -170.5607      -51.22876      -134.1720      -247.2000
      -125.9305      -53.38220      -174.9221      -210.5664      -123.1326
      -136.9983      -175.7004      -123.9995      -113.4832      -157.6121
      -190.1165      -145.5152      -140.2090      -177.3438      -132.7094
      -145.4124      -175.5979      -141.1512      -95.77820      -211.5677
      -170.5355      -48.83316      -171.0725      -151.1408      -50.79001
      -125.2433      -170.6606      -95.12122      -51.95238      -74.57129
      -94.93109      -126.6861      -97.97269      -45.32068      -66.19165
      -47.84640       24.40820      -89.38089      -146.6931       26.50378
       65.42168      -70.01556      -5.690186       88.06580      -63.38139
      -68.19522       120.5445       79.88419      -13.81897       1.816589
       28.35330       106.5842       55.70563       63.50638       129.6697
      -4.424408       89.69476       121.9463      -17.08978       145.1620
       133.0482       64.07053       120.9489       100.5513       85.52930
       128.6169       113.0127     -0.9248047       145.4910       108.9493
      -13.57440       225.8439       90.26967       5.860413       130.2951
       53.84961       104.9631       117.5040       104.1164       56.25775
      -49.56891       158.7405       186.1872      -66.14555       11.27878
       165.4874       51.89900       33.55797       85.75436       63.35775
       29.03106       20.14624       1.006798      -25.18761       43.65331
       49.20370      -62.57016      -45.61378       37.08835      -8.016724
      -23.99136      -58.24870      -88.25595       10.98917      -43.38435
      -43.05495       36.03384       4.799583      -35.48976       20.29047
       91.01089       10.24121      -104.5221       12.47580      -5.411301
      -35.41165       86.47362      -35.79935      -42.23523       60.50527
       5.967876       36.09189      -16.45844      -55.44196       67.95207
       58.17649      -20.15297       9.804123       26.52435       23.28052
       49.49525       54.91142      -2.788177       42.85857       89.83948
       24.50330       47.84804       96.53654       10.22626       46.35132
       65.15351      -57.37930       45.06671       90.86880       28.96002
       112.1316       99.91528      -17.21222      -170.1177      -266.6459
      -154.9397      -70.77899       123.6931       360.6849       374.4939
       251.7365      0.6797485      -14.84113      -109.8236      -184.6171
       316.8842       280.4241      -339.3525      -53.30341       400.7728
      -47.48688       72.18555       325.5530      -322.0775       57.55981
       655.9260      -172.4309      -379.9677       132.5120      -189.2018
      -26.15448       400.5590       11.58971      -66.64941       370.7846
       317.7855      -326.7368      -438.2786       95.18350       176.4285
       64.24536      -225.8130      -216.4880       483.6394       528.2341
       162.2008      -174.6484      -418.8406      -226.8723       171.4557
       261.7421       65.84119      -49.97498      -539.8345      -481.4655
       526.6838       594.1005      -182.5681      -355.4471      -346.2017
      -16.87573       678.3324       175.9799      -507.1929      -48.18478
       73.19489      -154.7620      -77.70236       15.82068       235.7515
       151.2368      -173.4180      -117.6422      -333.1996      -338.8037
       332.6389       478.2800       230.5262      -207.4442      -394.1190
      -222.0390      -121.0270      -77.54504      -413.3908      -297.4798
      -8.790358       13.73738      -6.297333      -122.9695       110.6502
       70.20142      -397.0732      -217.7096       63.25189      -140.3382
      -309.3884      -297.3284      -159.4741      -165.3321      -170.6104
      -232.3699      -303.4862       14.25641      -87.25903      -511.0496
      -342.8109      -208.2036      -451.5387      -177.2253      -139.1902
      -399.0820      -253.7399      -30.96313      -108.4503      -513.7423
      -236.0300      -43.76196      -427.4062      -382.7235      -285.6216
      -278.3627      -259.6552      -202.2727      -245.2355      -213.1067
      -221.1343      -362.4718      -366.8353      -350.2950      -369.4366
      -275.5984      -124.5385      -188.2764      -267.0706      -292.8658
      -263.0183      -129.5895      -302.4810      -393.3917      -283.8652
      -200.2346      -11.85095      -106.4277      -311.5422      -409.7859
      -236.2670       115.1167      -140.5692      -336.2982      -98.61331
      -144.7628      -186.6990      -109.1207      -74.78217      -9.330353
       1.609924      -81.98178      -212.0102      -64.88466       57.90958
       37.87251       88.94150       49.70117      -164.0364      -288.6360
      -89.83603       150.4894       128.1278       284.2726       174.5499
      -342.6540       64.34723       361.3319      -24.26782       69.58496
       481.9660       209.8740      -30.76465       347.6635       151.4847
       91.62476       272.1091       219.5042       417.8571       298.2524
       19.41095       143.1664       460.0300       475.1429       447.2000
       254.8931       8.819580       279.9941       617.3401       502.9488
       284.0393       339.5411       320.1691       242.9399       406.0638
       520.0322       262.8997       470.2302       659.1345       259.3378
       301.0068       255.7266       206.8367       745.4211       625.9615
       291.3085       577.9901       424.4894       142.8080       323.9971
       311.3181       147.0133       521.6624       598.9600       228.5859
       513.8364       506.6880       217.7339       374.0964       447.3864
       365.3084       146.6978       387.3676       527.4183       238.5402
       228.8319       363.7893       224.5796       134.6625       460.7314
       356.5030       131.1973       229.8972       332.4266       309.8785
       80.16138       278.2537       373.7977      -47.68625      -38.92041
       506.0526       471.2973      -53.37622       136.6083       217.6886
       28.86432       339.0298       104.7320      -47.53680       319.6065
       22.43692       11.11304       294.8056       75.80760      -12.45380
       113.5139       189.8719       15.81936      -73.20810       122.7598
       108.0295      -84.66092      -117.9591       104.5419       103.9094
       16.16536       14.74014      -75.46808       47.79336       92.80650
      -85.54918      -72.80005      -19.62460      -151.1214       40.16461
       37.01004      -198.7451      -65.37758      -22.36160       21.73171
       19.43158      -157.0385      -212.8742      -88.81056       84.20830
      -1.122864      -176.0345      -242.7937      -148.5029      -84.12311
      -84.53674      -70.23456      -249.3110      -180.1445      -9.892578
      -219.5674      -157.6014      -37.87683      -160.8910      -90.70154
      -266.6852      -340.4949      -30.03427      -129.7532      -217.0703
      -138.0402      -194.7936      -264.6252      -230.4949      -207.9011
      -271.8436      -165.9642      -24.79474      -158.3442      -371.7114
      -203.8530      -218.1420      -317.0023      -141.6560      -275.9136
      -367.4237      -212.2792      -183.8167      -229.1861      -221.6959
      -167.0183      -338.2237      -400.2899      -118.1588      -151.0483
      -457.0799      -353.9519      -150.9131      -388.4114      -351.0891
      -34.00220      -246.0189      -460.2801      -259.3348      -208.0409
      -245.3936      -195.7036      -399.6871      -430.7747      -186.6039
      -281.1183      -255.2894      -138.3994      -386.7190      -308.8506
      -273.5936      -531.0525      -391.0461      -211.5095      -270.2842
      -279.4799      -244.3363      -410.2216      -413.5836      -249.2195
      -175.0062      -118.1189      -273.3928      -497.1307      -442.2684
      -194.7684      -212.7786      -262.1176      -214.1602      -344.0847
      -255.3674      -329.0171      -419.4381      -325.8672      -280.8855
      -140.0923      -240.1141      -291.0220      -184.3530      -285.5149
      -177.7064      -169.3638      -290.7573      -149.3136      -158.4021
      -186.5482      -198.8022      -217.2430      -176.8073      -260.9505
      -76.12073       123.3129      -120.4574      -105.6494      -70.22260
      -240.3173      -55.44386       32.06290      -60.72977      -48.53930
       14.73176       31.42245      -58.23045       45.91669       126.9666
      -113.9583      -134.9964       264.3999       202.7266      -11.58002
       194.4888       20.82248      -31.58093       244.4347       148.3368
       156.2886       287.2605       225.0018       180.7659       134.1391
       160.3251       144.4420       166.1485       255.8966       338.6353
       249.8025       215.6796       374.7236       291.4315       372.8645
       406.3308       212.8728       239.6495       414.5820       503.7882
       261.0553       176.7583       371.8279       469.6924       347.6942
       317.9231       316.5089       215.2876       433.6672       452.1785
       349.1869       450.8447       342.3335       301.5621       330.1074
       343.2386       434.7032       320.3220       290.2233       442.7640
       439.3314       294.0636       248.5254       430.1937       360.7102
       195.6978       303.5098       396.1449       287.9478       212.5001
       361.9802       323.8175       176.3389       275.2930       379.1649
       255.7195       282.3466       375.1839       129.5118       147.3246
       325.3146       225.2480       182.1135       314.6622       262.1249
       157.1904       210.3116       210.1142       195.2338       251.9128
       173.2692       59.34448       217.0432       180.1945       135.8317
       276.0655       64.73462       144.3565       336.9514       60.03052
      -116.5198       111.7958       324.6424       160.9466       84.93127
       93.40515       107.8281       68.48691       127.6592       228.9784
       55.62524       51.52313       171.7941       147.2570       62.48959
       145.2586       144.1780       56.47894       159.9661       120.9992
       26.79811      -19.42358       137.2870       281.2914       107.0512
       60.01644      -15.71529      -62.39819       158.2424       151.2384
      -29.65354       9.145920       33.11505       98.01775       83.75927
      -16.94989       30.24149      -40.85086       18.59290       166.9038
      0.7908630      -149.0284      -116.4745      -5.231033      -33.97002
      -62.53249       107.8694      -26.14294      -234.7125      -77.34863
      -7.457253      -3.168060      -98.36023      -239.5891      -165.5757
      -100.9875      -29.34683      -76.06189      -181.2557      -221.9706
      -198.9022      -97.23602      -178.1604      -122.1929      -92.82330
      -281.4152      -328.2290      -212.9087      -144.8503      -151.1884
