     0.02500000      -1008.312       797.0706      -12345.00      -12345.00
      -30.00500       229.7700      -30.38000      -12345.00      -12345.00
       0.000000       22.39000      -12345.00      -12345.00      -12345.00
      -12345.00      -12345.00      -12345.00      -12345.00      -12345.00
      -12345.00      -12345.00      -12345.00      -12345.00      -12345.00
      -12345.00      -12345.00      -12345.00      -12345.00      -12345.00
      -12345.00      -30.39490      -66.52800       752.0000       0.000000
      -31.06700      -68.46300       0.000000       100400.0       0.000000
      -12345.00      -12345.00      -12345.00      -12345.00      -12345.00
      -12345.00      -12345.00      -12345.00      -12345.00      -12345.00
       199.7329       68.59003       247.6060       1.795786      -12345.00
      -12345.00       1.970118       90.00000       90.00000      -12345.00
      -12345.00      -12345.00      -12345.00      -12345.00      -12345.00
      -12345.00      -12345.00      -12345.00      -12345.00      -12345.00
      2008       164        19         4         8
       180         6    -12345    -12345     10392
    -12345    -12345    -12345    -12345    -12345
         1         7        13    -12345    -12345
    -12345    -12345    -12345    -12345    -12345
    -12345    -12345    -12345    -12345    -12345
    -12345    -12345    -12345    -12345    -12345
         1         1         1         1         1
LLAN    -12345          
        -12345  -12345  
-12345  -12345  -12345  
-12345  -12345  -12345  
-12345  -12345  -12345  
-12345  -12345  -12345  
-12345  -12345  BHE     
ZL      -12345  -12345  
[...]
       210.8341       209.0822       198.0588       187.4100       179.2977
       174.9141       163.0923       154.6055       146.8559       136.5572
       126.8128       120.9888       110.1023       99.26709       92.69543
       86.88220       74.69415       64.35724       56.88233       45.74400
       36.42847       27.07930       18.41594       8.138477     -0.1501923
      -6.856445      -16.44273      -28.86599      -35.49429      -41.42310
      -50.80775      -58.25414      -67.86014      -74.30688      -82.19464
      -86.42157      -92.13220      -96.94421      -103.5548      -106.9119
      -114.4821      -121.9637      -128.1769      -130.6064      -135.7927
      -137.9573      -142.2241      -145.9633      -149.2913      -148.8478
      -151.8810      -153.5785      -155.0991      -157.8454      -162.7979
      -163.9848      -165.8019      -165.9004      -168.0510      -167.5330
      -168.8113      -171.6460      -175.3323      -175.7991      -175.5726
      -176.6041      -177.4390      -177.1749      -177.4796      -178.4994
      -180.7017      -177.7479      -179.5200      -180.9133      -180.8193
      -182.4935      -185.1423      -181.6114      -184.3149      -188.0707
      -187.6916      -188.3824      -191.5503      -185.9454      -187.5245
      -188.5922      -189.8248      -188.5397      -187.1920      -188.0021
      -193.2412      -187.5658      -186.9611      -185.8497      -185.5333
      -183.6490      -184.5956      -179.0098      -180.6893      -176.9444
      -178.2123      -175.2053      -178.3478      -173.3835      -172.2574
      -166.8074      -173.0941      -166.4359      -167.6011      -164.7017
      -167.2253      -163.6248      -165.8250      -160.7026      -164.4140
      -159.5926      -161.6353      -159.2061      -160.8884      -155.6850
      -157.0096      -154.9691      -161.7288      -158.4173      -161.0224
      -158.3669      -164.1633      -162.4279      -168.9769      -167.5555
      -169.2826      -165.9344      -170.3975      -169.2747      -176.3132
      -176.9213      -183.3470      -182.5320      -191.7331      -194.5132
      -197.5358      -195.8187      -202.7356      -206.4241      -211.7638
      -215.0396      -218.5425      -224.0643      -229.1790      -232.1050
      -238.5683      -243.3371      -251.2774      -258.9858      -258.6569
      -265.6099      -271.2922      -272.7942      -276.2659      -281.7704
      -284.1211      -287.1828      -290.9600      -296.7809      -297.3805
      -300.3404      -303.8446      -303.5830      -300.2517      -303.2100
      -304.8607      -303.8705      -303.7909      -305.2764      -298.9453
      -296.4303      -297.1553      -294.6174      -285.3969      -285.1923
      -279.1613      -274.6259      -272.6620      -269.3226      -260.4788
      -261.0718      -251.5474      -244.4510      -239.9313      -232.6521
      -219.8498      -217.8705      -207.3353      -198.9708      -192.2949
      -191.5817      -181.4867      -174.7512      -164.6865      -157.3094
      -142.3721      -139.6703      -127.9694      -120.9092      -110.2299
      -101.8396      -88.87033      -83.77963      -72.64502      -68.32339
      -54.08654      -40.08516      -26.42426      -16.34266      -1.116833
       5.679390       19.98870       31.42976       44.28532       57.50562
       76.72931       88.22101       104.5007       118.0361       136.0114
       148.7786       166.0317       180.0951       195.1943       209.1143
       226.5668       240.5751       256.8069       271.9867       289.0161
       305.5114       319.6192       333.0134       350.5956       362.3564
       374.0785       390.2905       409.0229       417.1506       432.0322
       445.2893       455.9629       470.0300       485.3503       492.7710
       505.4097       515.5474       529.5527       537.1545       544.1274
       551.8627       564.6487       569.3796       574.1974       577.6530
       586.6216       588.0862       593.8450       593.7029       600.8635
       600.3528       601.5403       600.8413       606.5081       604.7793
       605.4707       603.9543       603.9541       597.1613       598.5042
       594.2806       588.3848       580.9189       577.8574       575.5764
       568.6176       560.6353       557.4237       547.6038       541.4558
       535.0959       522.2164       514.3416       508.9285       496.7034
       484.8582       476.2241       466.2032       455.9060       447.8059
       433.0261       421.4688       409.1848       392.9618       379.3141
       366.1533       351.8279       342.6104       333.1527       317.8309
       299.5691       285.8805       273.7494       262.5623       247.9617
       233.7939       218.2101       205.4476       189.6847       176.9687
       162.9455       151.8890       134.1996       118.6636       104.8360
       89.99490       73.78186       65.21938       49.31850       35.01312
       20.18248       2.367004      -15.53276      -21.79642      -37.49942
      -53.04927      -67.83060      -82.74167      -103.0685      -111.0664
      -127.6588      -142.7828      -160.8629      -171.9877      -187.5479
      -199.3193      -216.1625      -230.3729      -247.1949      -257.1250
      -273.5349      -287.8821      -306.2632      -319.4406      -334.8306
      -350.0048      -365.9778      -375.7604      -393.7048      -409.6277
      -424.6283      -439.4156      -455.5060      -469.6099      -484.6267
      -500.4320      -517.7286      -531.0183      -545.1536      -561.0535
      -573.4739      -586.3358      -599.2251      -616.4316      -627.9802
      -639.1252      -650.9087      -660.5558      -668.0964      -678.1445
      -684.3154      -696.3630      -704.6094      -710.7368      -717.6184
      -726.9597      -728.9951      -734.4895      -737.9600      -743.7019
      -747.2214      -750.2090      -747.4819      -749.1819      -750.5029
      -749.5225      -749.6609      -750.1858      -745.1328      -740.8909
      -738.6248      -734.3645      -732.4966      -729.0122      -721.8296
      -709.8916      -702.7031      -697.1707      -689.2739      -681.9268
      -675.2192      -664.6970      -659.2485      -647.6731      -638.6306
      -623.8665      -616.0359      -606.3752      -594.7858      -579.8180
      -570.0956      -553.3846      -539.9729      -523.4244      -510.1708
      -498.4120      -484.0293      -466.1514      -451.4102      -433.3120
      -413.4755      -394.6307      -378.7083      -361.0897      -341.1325
      -323.8387      -304.2768      -287.5579      -268.4146      -245.8500
      -227.1786      -210.9575      -190.6332      -170.4910      -149.6527
      -133.1484      -112.0151      -93.70294      -75.59720      -55.93713
      -31.49689      -14.04096       3.513123       25.03496       45.41023
       60.89807       82.00085       97.82858       115.1351       134.6096
       148.2901       166.6765       181.8008       192.1654       209.9795
       223.9657       240.0045       254.7448       267.8649       281.5206
       297.3228       306.4476       318.5276       328.6234       341.8647
       357.2285       371.5096       380.6829       395.7820       409.3843
       417.0486       427.4905       441.5641       452.0972       465.5269
       477.2778       489.7993       503.8794       515.2441       526.6294
       541.7194       553.6427       568.4514       580.0027       596.3716
       604.9126       613.6250       623.4395       639.7441       653.1819
       668.8087       676.8716       689.5110       695.6262       708.7397
       717.5625       728.6621       737.0461       745.7515       751.0012
       757.8235       760.4753       770.0732       773.7515       782.6802
       784.3667       788.6179       789.9014       794.4839       796.1167
       797.0706       794.8003       796.1057       792.4536       793.6489
       790.4453       789.5269       786.4475       778.8262       770.3789
       768.3340       756.7925       750.8406       739.4995       736.8899
       726.0596       716.8069       706.5959       698.2499       679.1866
       673.6053       658.7212       649.5518       631.9961       623.9390
       607.9514       600.6387       581.3191       570.7781       550.5281
       541.7738       520.2454       509.3533       489.2401       479.8628
       459.6566       449.8396       428.2255       416.3768       393.7406
       383.6222       360.1479       344.5782       321.6388       312.1457
       286.0620       267.8794       247.4115       231.6788       206.0352
       187.5482       161.3330       145.2684       122.4454       104.4047
       78.87811       60.43047       33.31402       17.89074      -6.139534
      -25.80191      -52.35429      -68.69589      -99.29953      -116.1304
      -140.8919      -159.1393      -185.0148      -198.8425      -222.7726
      -240.6316      -269.2040      -282.3876      -309.5454      -326.9998
      -348.4680      -364.8040      -393.5405      -405.7722      -428.6702
      -444.6929      -466.4607      -481.0742      -504.2239      -519.6064
      -539.0857      -550.2827      -571.1235      -581.3466      -601.0449
      -612.6331      -627.6244      -635.6204      -651.5972      -658.6793
      -672.2229      -678.6545      -694.3176      -698.6060      -709.7605
      -715.7949      -725.1748      -724.7681      -734.1240      -733.3301
      -740.2417      -738.8125      -746.5322      -744.6934      -747.8330
      -741.5190      -746.1782      -738.6709      -740.0850      -735.2908
      -736.2085      -728.5828      -727.4375      -719.0476      -717.3269
      -709.7588      -706.9160      -696.2561      -695.2646      -689.3357
      -682.3481      -669.9382      -664.7915      -656.1667      -651.2258
      -641.5034      -636.6760      -623.8145      -614.1748      -601.0270
      -588.8047      -574.8623      -567.7109      -553.0295      -543.8064
      -531.6377      -520.1121      -503.6591      -490.7576      -473.8391
      -460.3468      -446.3850      -431.0520      -414.7090      -400.7418
      -381.1954      -365.7280      -349.1319      -331.3522      -314.6813
      -297.9090      -282.5312      -265.0654      -246.0620      -228.8672
      -210.6732      -190.6216      -172.3859      -156.5171      -141.9060
      -121.4383      -101.8060      -83.14998      -66.95032      -48.97299
      -33.02895      -16.89513      0.6823273       20.31006       36.27957
       55.31821       73.31238       91.89536       109.1438       121.5679
       137.5771       159.1498       175.7504       190.9751       211.9480
       229.7806       245.3840       263.9514       281.5837       296.0793
       314.0735       332.0179       351.2465       366.8287       381.8212
       393.8597       409.0997       427.5930       444.2653       456.5741
       468.4441       480.6368       493.4951       503.4526       516.7898
       527.6912       536.9260       548.1200       559.1182       566.3970
       580.7866       586.5547       594.9824       604.2502       611.7456
       618.4167       627.2196       631.2017       639.7737       647.3066
       650.1559       650.7244       656.7406       662.8932       668.1243
       671.4155       674.3368       673.7493       677.0505       677.6526
       681.6138       680.8230       682.6653       681.8271       683.0535
       679.6885       680.5712       675.6224       675.4104       669.7545
       668.7952       662.4707       659.8440       652.8442       648.8135
       637.5648       634.9570       627.1802       618.6892       606.0469
       601.3738       590.7576       578.5753       565.2145       555.9414
       543.4004       531.6245       519.9382       504.5708       491.2173
       475.4690       460.9736       447.7417       436.0583       423.5360
       409.4447       390.2172       377.5029       361.3644       346.1986
       329.8743       318.3383       305.1277       289.6815       269.7994
       255.9902       240.7501       226.0112       212.5889       197.3785
       181.5222       168.2395       151.8956       139.2116       126.6511
       109.5028       94.92030       81.68031       70.08878       55.45142
       38.80511       28.17161       15.57225      0.5862274      -10.10432
      -23.93329      -39.42371      -50.41333      -62.24811      -74.15778
      -90.51138      -101.2191      -115.2170      -130.2734      -144.7953
      -156.9796      -173.3673      -183.6216      -200.6481      -213.4742
      -227.0555      -240.7357      -261.2683      -274.8993      -274.6787
      -334.3801      -242.4798       86.65698      -238.2185      -798.0399
      -685.6986      -384.0865      -253.7550      -532.2756      -557.5956
       21.65454      -571.4238      -1008.312      -42.98560      -177.6963
      -860.9211      -614.6106      -692.5065      -578.6733      -123.4250
      -703.9487      -983.5597      -487.7546      -469.0781      -741.6006
      -437.8474      -487.3987      -928.4144      -760.2249      -479.8995
      -541.1274      -747.6089      -601.9531      -614.8083      -856.8801
      -784.5634      -391.9602      -377.8496      -881.2437      -834.1583
      -500.0708      -691.6370      -750.1906      -560.4340      -664.0742
      -624.4060      -586.5862      -622.6582      -467.3040      -674.4148
      -786.4556      -472.6348      -459.4277      -712.1727      -551.8828
      -354.0193      -829.4427      -790.0795      -143.2437      -350.5991
      -701.6766      -439.6870      -459.4878      -510.1995      -432.5536
      -593.6429      -427.0790      -249.0972      -361.6985      -372.1216
      -410.1760      -324.6667      -310.8956      -397.5078      -210.4708
      -213.1283      -253.7922      -269.4193      -322.2171      -260.7331
      -135.5830       4.517029      -157.5938      -176.5167      -21.01196
      -255.6009      -198.6150       36.65001      -115.7501      -13.32489
       182.3350      -120.9636      -127.3895       126.8187       20.47603
       60.51865       76.67738       29.12088       82.43546       114.3560
       84.28387       62.70160       192.0043       191.7695       40.14478
       118.7139       275.0709       188.7156       36.21655       70.17725
       281.5421       261.6042       155.9640       248.8953       148.3621
       123.3186       356.1934       317.6252       118.3771       233.4530
       254.8082       172.7875       388.5995       231.4597       97.43274
       401.6742       303.8386       158.4794       303.6692       333.0907
       304.3137       244.6547       281.5175       323.6096       204.8973
       292.7200       433.3026       267.4371       240.3560       412.7814
       331.9934       209.1582       352.2717       335.3260       216.9274
       349.8362       347.4785       425.5542       347.2582       155.0540
       387.6915       416.7810       260.7985       292.5231       382.0872
       399.1304       302.7632       228.2240       295.6997       378.9274
       364.1093       314.3260       385.1490       381.1890       300.8234
       328.6419       307.7064       290.1233       374.2573       368.3777
       347.8983       278.9675       305.1300       393.8540       275.1133
       306.9398       330.7636       211.7309       290.2606       380.8144
       273.5840       209.7352       225.5012       201.6697       266.4529
       338.7826       148.3828       146.4579       288.4307       81.90894
       131.5822       192.8279       105.9583       208.0544       28.51056
      -8.837769       150.8656      -3.405182       25.54309       102.3273
      -61.00841      -5.628769       39.15704      -109.3682      -112.0607
      -4.276611      -66.03226      -150.1067      -69.95593      -113.2645
      -291.8250      -95.81116      -64.59595      -370.4865      -215.8353
      -117.4814      -242.2104      -180.8193      -275.0740      -353.8176
      -227.5966      -275.9138      -323.6489      -266.6698      -289.9690
      -339.1453      -357.1444      -306.6232      -323.8756      -393.8185
      -330.5404      -336.5273      -334.2783      -304.5565      -412.7897
      -396.4183      -376.7727      -402.5530      -330.2694      -344.7476
      -383.2415      -353.0918      -432.1860      -383.8101      -369.7114
      -420.4064      -354.3240      -337.6064      -421.5281      -514.9047
      -368.9712      -266.6030      -445.7275      -397.2677      -335.8939
      -442.8955      -368.1117      -321.6592      -373.7393      -393.0472
      -391.8049      -299.4016      -318.6445      -286.5209      -302.1179
      -474.6611      -254.0009      -226.6526      -401.3425      -268.4363
      -304.3692      -322.5078      -113.9529      -260.3960      -279.6410
      -195.3829      -271.7756      -145.6492      -268.8031      -259.4597
      -183.7755      -147.4300      -91.61618      -193.5823      -120.5910
      -158.6585      -186.8927       10.22238      -120.7826      -124.3952
       29.84375      -188.0710      -164.2074       10.88879      -18.02049
      -27.56589       58.11573       48.54993      -82.28392      -28.13821
       57.24424      0.5027771      -1.839600       119.2804       72.30298
       41.59424       133.2850       66.35611       65.61786       251.9967
       79.04785       49.71252       252.2872       171.0676       181.8547
       206.8988       150.4012       173.0294       220.9536       278.9030
       230.0577       168.7021       260.2014       345.0561       235.2969
       251.6525       448.1201       328.7798       224.6868       382.6620
       355.5337       369.0745       373.5563       267.4097       387.0234
       480.0435       377.6381       423.7166       439.2480       400.5894
       428.7432       476.7389       450.6208       446.5873       443.0288
       406.7201       503.7721       457.1354       444.8358       554.3053
       502.8250       466.2356       472.0674       484.7723       425.3457
       446.9369       507.0061       428.3356       472.5281       470.4358
       443.9119       560.1031       455.0408       470.6293       513.6876
       406.2412       464.2480       476.6703       344.1946       434.9591
       538.2349       502.8384       501.4629       355.5214       415.3278
