     0.02500000      -4189.127       3583.762      -12345.00      -12345.00
      -30.00005       220.5749      -21.70000      -12345.00      -12345.00
       0.000000       16.21000      -12345.00      -12345.00      -12345.00
      -12345.00      -12345.00      -12345.00      -12345.00      -12345.00
      -12345.00      -12345.00      -12345.00      -12345.00      -12345.00
      -12345.00      -12345.00      -12345.00      -12345.00      -12345.00
      -12345.00      -30.16080      -67.83630       1442.000       0.000000
      -31.06700      -68.46300       0.000000       100400.0       0.000000
      -12345.00      -12345.00      -12345.00      -12345.00      -12345.00
      -12345.00      -12345.00      -12345.00      -12345.00      -12345.00
       117.0637       31.04487       210.7273       1.052504      -12345.00
      -12345.00     -0.6684657       0.000000       90.00000      -12345.00
      -12345.00      -12345.00      -12345.00      -12345.00      -12345.00
      -12345.00      -12345.00      -12345.00      -12345.00      -12345.00
      2008       164        19         3        59
       500         6    -12345    -12345     10024
    -12345    -12345    -12345    -12345    -12345
         1         7        13    -12345    -12345
    -12345    -12345    -12345    -12345    -12345
    -12345    -12345    -12345    -12345    -12345
    -12345    -12345    -12345    -12345    -12345
         1         1         1         1         1
LUNA    -12345          
        -12345  -12345  
-12345  -12345  -12345  
-12345  -12345  -12345  
-12345  -12345  -12345  
-12345  -12345  -12345  
-12345  -12345  BHN     
ZL      -12345  -12345  
[...]
       327.5343       331.0936       325.6039       318.5824       317.3480
       308.0275       301.4467       298.0394       289.6172       279.5986
       271.8943       259.5956       256.8242       249.9542       238.2966
       230.7268       223.1167       208.0793       205.4238       191.8521
       182.5691       176.2143       169.3679       158.9494       152.8543
       136.9969       126.7036       120.2437       108.7505       87.41595
       77.17612       69.25412       61.47604       42.12162       29.13779
       19.76221       8.231491      -7.200699      -20.42582      -30.28809
      -37.77547      -54.59680      -66.49341      -84.40475      -98.20126
      -110.5481      -123.5181      -140.1100      -148.9028      -167.7625
      -186.6234      -200.7900      -209.4179      -228.7758      -241.8582
      -254.6057      -264.0242      -276.4268      -289.1962      -306.5786
      -316.6865      -334.2290      -347.1049      -360.1093      -373.3820
      -383.6945      -395.2762      -406.1084      -410.6980      -423.8289
      -434.4546      -440.7249      -444.5272      -451.0533      -456.4540
      -454.8872      -461.9202      -468.9803      -465.8256      -466.9498
      -466.2136      -462.5101      -462.3677      -457.5426      -457.5869
      -452.2531      -451.6600      -449.0608      -438.0702      -435.1931
      -430.5283      -411.9705      -413.4465      -405.1051      -394.9595
      -396.9375      -391.4617      -376.1064      -371.1243      -356.3376
      -347.9285      -341.0144      -330.9368      -325.3532      -319.6218
      -307.0056      -300.6351      -290.1191      -282.7941      -275.2961
      -263.6239      -249.0013      -243.9672      -228.0563      -217.1724
      -211.2711      -199.0966      -182.8877      -171.9382      -157.5449
      -157.7615      -152.7820      -137.2403      -121.7777      -119.9286
      -103.7422      -87.20135      -74.83484      -72.87961      -60.85239
      -52.19661      -38.66048      -36.46593      -21.90703      -17.61588
      -10.43476       2.379993       10.64809       9.477890       24.83154
       28.41579       38.64854       50.25587       58.16193       61.62704
       73.27597       76.21548       87.30829       100.2823       100.0637
       99.81259       109.5589       117.3898       125.6024       122.1218
       132.1688       142.1036       150.1042       159.5587       170.2976
       169.0941       182.0952       181.3927       186.0267       200.5636
       209.0829       214.3267       227.8097       230.6922       239.1117
       250.3280       268.3341       272.2316       278.9046       293.8840
       303.3876       280.9564       285.6847       360.5002       404.9731
       276.6750       243.4020       528.6719       496.0698       154.2771
       349.0062       544.0021       313.6853       271.7916       493.0347
       531.2457       321.3824       246.2196       475.4595       533.4408
       286.7721       438.4912       552.0076       359.7566       356.0908
       288.3474       421.6743       574.8168       274.1123       365.7937
       579.9677       302.4574       358.3091       528.2781       383.4436
       316.6680       317.7968       450.3038       404.4398       203.3441
       444.6052       486.0388       238.8356       267.1156       324.2036
       372.9628       342.3475       186.1543       329.0821       320.1169
       118.7304       272.9584       230.8569       195.3803       347.2587
       214.1721       169.0535       318.8369       136.9777       61.39642
       251.9896       165.4914       108.1023       161.6880       164.3365
       93.49243       162.7067       120.1390      -44.07458       82.45721
       159.7413       84.93776      -11.53080      -19.46603       79.30817
       114.7915      -63.62335      -157.8980       98.06781       79.02600
      -141.9348       72.19965       118.5848      -161.8929      -155.4399
      -79.08129       40.23969      -80.65381      -166.2065       70.96210
      -25.81519      -190.4176      -83.35073     -0.7283936      -110.9126
      -184.8666      -107.8634      -51.34503      -87.30566      -160.5142
      -96.28967      -120.5117      -196.7024      -91.60142       36.12894
      -146.9111      -186.4571      -45.28650      -189.6198      -235.2745
      -162.1498      -12.72021      -99.38513      -309.7113      -109.8488
      -16.83765      -265.3859      -338.3327      -111.7680      -75.36938
      -196.7079      -232.9021      -242.3270      -229.8758      -240.4729
      -220.8326      -131.4813      -261.9393      -349.3885      -217.1662
      -180.3549      -241.0854      -366.2490      -266.7573      -104.9924
      -267.3228      -413.9685      -228.2494      -174.8728      -350.3013
      -338.4890      -290.9524      -221.5295      -268.5397      -414.7441
      -227.4406      -158.1757      -391.6304      -391.4033      -263.0428
      -195.2991      -296.9255      -428.2136      -308.6503      -185.0253
      -348.6368      -347.6902      -228.6951      -266.4091      -352.2805
      -411.1849      -245.5692      -310.3026      -352.7466      -208.6793
      -292.7042      -288.9385      -303.4855      -317.1761      -303.8903
      -273.1313      -301.7927      -327.8594      -236.6757      -287.0845
      -249.3782      -176.3588      -265.0652      -213.1918      -214.4828
      -301.2864      -203.7578      -182.5449      -194.6780      -186.8089
      -210.9798      -86.14807      -86.63141      -140.0883      -119.5269
      -44.92676      -58.11768      -162.5089      -86.19339       15.01329
       40.48398      -51.79714      -35.71381       67.02050      -19.73880
      -33.57445       78.95667       98.44902       65.89735      -14.78485
      -37.52032       127.5003       150.8562       52.30429       119.6001
       92.11942       29.20837       176.9071       109.2879       2.682678
       241.1698       141.4870      -107.4951       208.7691       245.1492
      -67.52271       120.7349       203.7635       25.14642       69.93518
       143.4545       182.6542       44.08234       14.95984       251.2365
       163.3566      -18.83398       161.7941       284.1776       91.55283
       83.64673       244.2695       177.8441       159.4609       111.0029
       210.3646       317.6339       146.9984       178.5536       275.9095
       192.3913       187.1400       222.6641       354.8423       394.5145
       204.7507       239.1929       311.7774       302.8646       371.1587
       378.9590       367.6456       281.4019       304.1941       439.9078
       354.4125       264.1301       438.3894       403.8584       322.5245
       374.3071       371.3567       339.2675       342.2426       291.0186
       326.5356       479.0048       318.2485       253.5255       430.8774
       313.6926       131.1096       189.3877       439.8555       353.4814
       101.9247       154.2197       235.3585       203.8959       135.3658
       208.2095       279.9433       91.12668       10.24780       71.75412
       121.9423       67.53186       48.08513       120.8306      -32.62320
      -112.1054       56.20684       41.52008      -67.26097      -16.17377
      -86.89343      -188.4824      -49.40216      -71.18994      -168.3324
      -131.6853      -184.8614      -270.5023      -116.6594      -172.1766
      -235.5231      -203.8149      -301.6851      -201.9231      -223.6688
      -379.6782      -342.2050      -305.1427      -318.8015      -251.6637
      -293.3883      -460.5173      -306.1600      -203.1138      -367.6982
      -397.7844      -366.8328      -447.5279      -385.3693      -202.7590
      -307.2084      -525.7004      -410.3214      -256.5533      -354.4232
      -369.3540      -326.9020      -317.9583      -322.2217      -351.5222
      -331.8498      -342.8760      -246.0946      -246.1430      -311.5697
      -271.5508      -330.9263      -332.3110      -172.4382      -259.7407
      -429.2492      -266.3820      -78.84869      -151.7808      -287.3572
      -188.0458      -178.0300      -288.7361      -149.7423      -214.5652
      -241.6103       2.960663      -58.27014      -276.2026      -164.6609
      -15.56964      -53.90610      -99.89224      -55.53268      -79.42886
      -112.4786       24.59589       120.4172      -19.56932      -36.62413
       48.11546      -37.37143      -30.31500       143.4191       133.6447
       65.54810      -8.976105       51.70569       190.2898       114.1407
     -0.2680969       49.58633       113.2649       209.0774       118.1819
      -79.77295       165.2140       346.1226      -49.14728       33.46228
       389.7122       80.39897       28.31693       134.6663       41.72943
       191.8764       136.3614       78.22931       244.8942       185.1749
       38.70325       91.27887       123.0951       166.1353       153.1990
       103.5922       213.0875       175.2648      -9.711456       59.60596
       196.3373       107.6739       9.030396       156.7983       202.2967
       79.88773       95.46269       53.73535       61.04596       149.9545
       169.5699       204.5048       64.09515       92.09619       130.5226
       98.51312       143.0919       93.28543       91.81000       123.0416
       128.8559       168.8820       151.7862       28.75366       108.7943
       146.0839       64.36035       189.3853       155.0943       87.47446
       77.49533       88.17419       80.10168       166.4659       250.1154
       96.23273       162.7876       218.1448       63.96399       83.25955
       146.6985       134.7139       206.2037       174.0947       74.79248
       219.0767       171.8987       35.99280       206.1096       227.5437
       167.0069       227.5236       212.3584       172.7804       139.3758
       101.9115       92.79315       270.6830       278.3132       75.74881
       167.5225       159.4827       50.25525       151.4706       222.7560
       147.7150       76.10583       133.7542       145.9949      -7.859863
       98.56485       169.4742       33.07332       40.39493       32.34779
       33.52240       15.28610      -47.52297      -9.904796       10.32889
      -15.87939      -157.4887      -119.3504       17.33392      -42.99628
      -189.2158      -146.9162      -106.6423      -202.0115      -142.8543
      -151.0129      -346.3863      -339.6915      -216.6730      -200.5675
      -318.9670      -306.0224      -323.3510      -316.0861      -278.1862
      -530.7246      -441.0759      -163.7593      -379.0518      -484.2279
      -365.5559      -355.7281      -422.0243      -458.4054      -469.0991
      -425.4661      -422.1677      -455.7034      -451.4563      -518.7655
      -561.7007      -490.1345      -464.0583      -503.0603      -483.0089
      -397.8976      -509.5941      -523.8057      -326.8546      -450.4521
      -644.4180      -492.4172      -393.5063      -507.0095      -559.2543
      -346.3546      -203.1890      -403.9263      -550.0061      -488.1699
      -378.4330      -277.1506      -403.8029      -468.4000      -309.0563
      -299.3319      -412.3535      -370.6206      -222.6378      -292.6470
      -340.1691      -189.3045      -291.1111      -428.7640      -299.1204
      -155.4347      -161.1901      -164.3676      -141.0308      -224.0944
      -188.5043      -95.32959      -130.6481      -71.16272      -37.48615
      -97.29877      -81.68933      -64.19489      -113.4634       17.84421
       147.7511       29.88367      -105.5385       41.49963       45.34187
      -68.66101       189.7686       347.5570       127.9302       42.74167
       68.75742       65.01819       207.0302       258.1650       194.0764
       376.9042       295.5224       38.23804       84.87805       255.7161
       418.4298       455.1843       340.0508       234.6993       207.1132
       327.5310       407.9929       528.6682       414.8856       196.6390
       364.0403       367.5544       334.3199       437.6165       397.0220
       517.5269       577.1320       171.2531       152.1141       510.0322
       492.0479       617.8290       644.0376       356.3939       276.3035
       354.0635       485.8999       558.2908       506.6569       493.8107
       454.1350       383.6743       508.3336       705.0938       483.9885
       340.1808       629.7139       550.0114       350.7917       363.1029
       361.0940       506.5732       620.0493       519.9604       526.3762
       550.2690       399.2234       403.5540       505.5928       637.1040
       815.9060       797.4373       815.7974       689.6251       203.0232
       93.46777       25.95508      -630.1371      -623.2877       32.11060
       540.3540       1765.562       3174.485       3583.762       2081.970
      -1492.697      -4189.127      -3125.524       158.4639       1885.802
       2045.361       3014.535       2395.126      -1709.063      -3641.379
      -882.7571       978.8613       770.1558       1950.479       1958.770
      -968.3728      -1528.246       904.9685       371.0493      -1600.415
      -395.9048       641.9858       850.0979       1090.973       11.60889
      -372.9958      -711.1750      -688.6669       360.3933       479.1057
       1197.822       1285.309      -181.9451       538.9830       630.2368
      -1798.306      -841.3989       1330.900       354.3908      -223.2297
       3.897034      -91.34131       640.9919       1084.427       373.8408
      -712.8130      -598.4434       953.3560       884.6047      -701.9321
      -902.6945       86.10022       455.8857      -208.3718      -812.7316
      -706.0933      -312.8536       114.4316       982.3418       1779.554
       381.6133      -1557.132      -887.1064       161.6187      -176.7642
      -243.7903       311.1331       469.9531      -33.06067       118.7643
       651.0491      -107.3394      -937.5088      -666.6157      -652.8832
      -312.8603       489.0395       12.49414      -187.4255       513.3127
      -445.0007      -1167.428       34.13086       298.8071      -784.6919
      -1079.186       428.7000       962.9653      -792.4152      -772.2057
       475.7563      -570.4436      -1011.335       295.6100       169.3246
      -694.3334      -454.8522       110.5073      -274.9807      -654.0815
      -559.7593      -794.8083      -549.3427      -27.55493      -326.2117
      -572.6204      -514.9557      -84.96057       620.8989      -43.36670
      -1083.412      -708.3411      -182.0469      -486.2089      -560.0950
      -162.5948      -305.2173      -580.5557      -426.0066      -395.1583
      -676.4021      -49.65558       521.8363      -476.8345      -824.4769
      -595.3545      -849.1937      -410.4488      -29.50464      -347.9670
      -529.3887      -394.4854      -659.9277      -989.3492      -681.0496
      -551.6365      -651.0167      -179.1626      -13.92627      -501.4883
      -666.1677      -467.4857      -436.4502      -361.5062      -550.2280
      -590.6912      -274.2549      -443.4771      -360.8042      -449.2480
      -895.2742      -550.2280      -543.9919      -723.6791      -416.9347
      -504.2185      -386.6299      -446.3867      -948.4008      -279.6689
      -222.0210      -1078.630      -480.7416      -167.0664      -550.4951
      -33.81433       45.72461      -627.3129      -931.6783      -93.54688
       528.1763      -511.1770      -873.8815      -132.3071      -122.8851
      -95.30560      -232.8850      -525.7373      -297.9043      -116.4568
       121.7784       149.0957      -338.3540      -567.6635      -48.08981
       199.7043      -405.1483      -136.1381       403.9230      -266.6801
      -665.3943      -178.6397       87.87903       239.4440       136.1113
      -54.36677       63.10841      -95.85498       177.6353       887.7357
       388.4034      -455.8660       80.40308       694.8033       328.6935
       216.0929       360.3078       220.2605      -296.6042      -141.6395
       729.8811       113.6448       23.44580       1423.130       862.1535
      -333.7427       524.4502       1107.747       141.2473       137.2457
       722.1807       551.3187       557.0898       544.4893       469.8088
       805.4581       436.7764       29.05151       678.6389       1006.258
       693.8799       422.4722       501.6409       968.1711       1082.460
       718.9839       507.2178       571.0220       524.0171       413.3152
       385.3945       509.1123       699.6257       817.6614       593.6212
       434.1013       778.2722       676.8037       514.5994       597.2263
       420.1367       690.5236       607.8438       140.2192       617.8306
       1029.780       617.9324       321.0239       787.1343       714.7507
      -204.2136       442.2351       1234.809       467.3085       316.0452
       486.3694       295.3956       449.6052       292.2604       366.4170
       811.5576       506.8423       314.5288       482.1113       519.9005
       657.5020       498.8888       496.8562       405.9272       86.45215
       370.4307       510.6125       361.4790       464.9706       500.4851
       291.2462       251.6047       453.4678       475.8226       405.5642
       586.0691       302.9543      -31.52997       275.7510       110.0571
       51.40381       600.7681       709.0343       475.5365       356.2700
       399.1376       332.6200       322.3774       620.1589       639.2775
       433.6519       115.6451      -69.12720       265.1931       414.2463
       229.2940       319.3191       345.9189       166.2623       236.5723
       59.10315       141.4083       527.1202      -116.0220      -522.2548
       238.5320       524.6302       94.44485       26.06403       209.9237
       82.17406       10.68896       156.1387       261.8042       66.88998
      -103.4830      -93.08383      -245.6479      -19.79288       157.5626
      -206.8969      -435.2677      -271.3281      -191.4417      -547.6385
      -418.5403      -80.36475      -428.3300      -684.2133      -433.6654
      -180.5579      -251.8125      -739.3120      -909.3524      -488.4163
      -398.1637      -609.8082      -560.8493      -205.7402      -302.3702
      -676.3807      -380.3278      -497.4858      -891.8621      -660.4014
      -359.6218      -604.1458      -1017.864      -590.7405      -421.7983
