     0.02500000      -1299.901       2098.440      -12345.00      -12345.00
      -30.00005       220.5749      -21.70000      -12345.00      -12345.00
       0.000000       16.21000      -12345.00      -12345.00      -12345.00
      -12345.00      -12345.00      -12345.00      -12345.00      -12345.00
      -12345.00      -12345.00      -12345.00      -12345.00      -12345.00
      -12345.00      -12345.00      -12345.00      -12345.00      -12345.00
      -12345.00      -30.16080      -67.83630       1442.000       0.000000
      -31.06700      -68.46300       0.000000       100400.0       0.000000
      -12345.00      -12345.00      -12345.00      -12345.00      -12345.00
      -12345.00      -12345.00      -12345.00      -12345.00      -12345.00
       117.0637       31.04487       210.7273       1.052504      -12345.00
      -12345.00     0.07461374       0.000000       0.000000      -12345.00
      -12345.00      -12345.00      -12345.00      -12345.00      -12345.00
      -12345.00      -12345.00      -12345.00      -12345.00      -12345.00
      2008       164        19         3        59
       500         6    -12345    -12345     10024
    -12345    -12345    -12345    -12345    -12345
         1         7        13    -12345    -12345
    -12345    -12345    -12345    -12345    -12345
    -12345    -12345    -12345    -12345    -12345
    -12345    -12345    -12345    -12345    -12345
         1         1         1         1         1
LUNA    -12345          
        -12345  -12345  
-12345  -12345  -12345  
-12345  -12345  -12345  
-12345  -12345  -12345  
-12345  -12345  -12345  
-12345  -12345  BHZ     
ZL      -12345  -12345  
[...]
       250.1086       260.3407       263.4438       274.5740       283.3503
       297.9266       302.0011       303.9849       310.5810       323.3949
       322.2321       330.0345       336.7556       339.7148       344.0731
       354.9160       352.5430       359.0088       359.8523       363.0942
       363.3923       370.1880       367.1943       366.2810       368.3879
       373.2286       376.3951       380.4631       372.9475       376.1090
       379.3789       380.3698       380.0048       379.3405       380.4739
       380.0032       376.7614       380.2084       378.0110       383.4839
       376.6486       376.1423       377.5925       378.3331       378.9320
       376.0961       372.9172       380.0294       376.6042       378.4890
       379.9033       383.0209       374.3613       382.3839       380.4998
       373.5034       369.3853       375.2716       373.4313       376.9629
       375.2747       369.3500       366.3499       374.3297       373.6820
       369.7543       370.2083       376.8013       375.3646       377.5896
       373.8718       371.1202       366.9823       366.7874       363.9880
       354.5166       358.4673       361.5844       359.8998       358.0771
       354.3459       347.7456       344.1440       338.7632       339.5526
       332.1735       327.1924       318.4352       304.6210       297.8669
       301.7709       292.6158       284.8812       275.3010       270.2219
       259.9451       238.2371       223.5646       230.6384       219.8087
       194.2007       190.1251       191.6602       169.2085       156.4650
       150.3529       143.1060       130.9133       116.6290       106.5305
       106.3335       96.46877       86.87007       79.18283       66.00174
       62.86711       59.29018       42.05741       32.68286       21.32336
       10.05832      -1.642149      -4.679073      -10.65746      -22.62596
      -22.70647      -28.11238      -47.73793      -47.19096      -61.26889
      -72.13860      -73.82251      -79.50479      -92.42822      -94.47375
      -97.88132      -108.7495      -126.8575      -126.7122      -142.1541
      -147.2369      -153.9644      -158.3965      -160.3683      -167.3956
      -184.8464      -186.1339      -194.2388      -201.4774      -210.8322
      -211.1171      -216.3021      -229.6874      -237.2241      -227.7617
      -257.4956      -359.2269      -338.1415      -102.3872      -139.3633
      -487.5358      -408.6055       111.7975      -151.6399      -629.4307
      -217.0146      -312.3623      -521.0936      -103.0070      -230.4296
      -271.3566      -293.9341      -668.0980      -313.7452      -85.83337
      -351.2311      -248.6708      -255.4507      -399.7114      -549.2346
      -531.7981      -184.6527      -281.2750      -416.2722      -173.2705
      -328.0692      -454.5206      -149.6151      -347.0050      -632.6007
      -371.6105      -206.4507      -258.5813      -287.9534      -481.8171
      -446.3518      -141.5138      -357.1462      -412.2704      -177.6663
      -321.8143      -530.1156      -369.8892      -210.3190      -359.1412
      -147.7164      -294.6174      -520.7167      -140.1955      -305.9785
      -288.0473      -5.494873      -403.5746      -359.3414      -182.7803
      -394.8325      -165.5631      -133.2860      -189.1084      -234.0495
      -333.2462      -11.14758      -269.9355      -507.8195      -108.0322
      -135.7067      -222.2076      -123.9074      -239.7391      -172.3839
      -158.2979      -278.4019      -156.7571       41.39581      -183.9496
      -491.9995      -119.6225       73.88116      -208.1245      -206.0188
      -71.79813      -48.68756      -230.6268      -223.1522       22.00574
      -234.3576      -280.8588       156.1407       31.60046      -222.3203
      0.2806091      -114.2314      -246.4534       119.9153       1.392639
      -115.8429       41.17416      -55.69385       46.07419       11.35072
      -143.8492       137.5594       161.0200      -247.2474      -135.7043
       158.2484       192.1886      -5.098419      -262.9073       78.75952
       361.0325       24.79871      -213.3621       65.20634       134.9889
      -79.15079       197.0292       108.8565      -144.8110       189.6981
       163.9601      -70.32886       2.635963      -39.64801       70.11938
       348.4039       139.9796      -45.55193       4.258331       60.27509
       204.4336      -38.53387       46.52832       323.9419      -28.76068
       36.56882       234.3009       34.86609       167.2991       97.10916
       60.23773       300.0753       39.93213       11.05603       273.9049
       138.1691       22.80292       90.70062       147.4278       3.964111
       115.5167       411.0222       26.99667      -77.26770       318.6210
       207.5920       144.2799       137.6247       55.48596       324.6520
       225.5078       50.37488       278.9736       226.3102       96.34961
       116.7991       201.8826       304.8956       253.6218       55.17059
       210.2489       315.8768       45.59442       239.1304       280.7755
       13.30664       288.2819       297.5786       127.9677       219.4785
       147.6817       196.6113       215.6687       214.8755       327.2149
       185.4293       47.33984       52.61310       164.9197       261.4908
       185.9256       144.2584       199.3085       150.7704       169.1764
       112.8486       103.6813       285.0803       189.2235      -30.48166
       85.96942       328.6735       202.0004     -0.1480103       132.0887
       78.22266       81.76587       277.8062       81.04819       34.78595
       336.5717       141.5037      -141.0310       136.0317       290.1745
       55.59244       136.2790       219.5592       27.08327    -0.09863281
       88.95801       110.3514       59.47083       165.0684       252.5036
       94.15494      -103.1998      -15.99951       319.8002       252.3692
      -57.84410       31.77554       114.2065      -87.26935       43.17194
       122.0187      -86.09119       14.74963       119.8317       100.2095
       27.22437      -155.2500      -57.78170       49.35625      -29.51672
       43.27071       2.528107      -70.67975      -21.19389      -9.035767
       92.37515      -15.16138      -233.4851      -53.05601       75.61261
      -116.0225      -58.51039       38.80927      -147.2280      -93.24799
      -96.52853      -173.9167      -9.600220      -114.1293      -250.9875
      -143.5869       20.05244      -21.99228      -211.3743      -64.96985
      -125.4167      -302.1199      -72.39899      -122.2794      -209.4607
      -132.3760      -191.2761      -154.2639      -229.9940      -186.8469
       55.73645      -171.8362      -429.8431      -162.9773      -33.47644
      -213.1208      -179.4719      -153.3744      -271.2718      -104.6180
      -3.905304      -180.7982      -96.30859      -85.62158      -192.8278
      -61.01807      -173.5292      -138.3083       47.50993      -70.31058
      -30.23462      -127.0971      -179.9283       56.40446      -80.19164
      -62.73430       33.63725      -93.11414       1.856281      -2.391716
      -39.03082      -7.885376      -117.6821      -60.17551       84.79179
       56.14154      -105.8965      -66.18756       1.364265      -6.884605
       47.51367      -152.6912      -175.5092       117.0107       169.6744
      -50.70117      -154.8865      -163.1347      -2.594025       186.3530
      -151.1162      -158.9240       158.6446       81.51547      -64.19003
      -127.0611      -79.88521      -15.41812       18.61201       107.0594
      -10.57346      -178.8116      -14.55522       118.1780      -12.78595
      -198.0405      -120.7878       234.9619       68.35822      -105.7376
       105.3510      -59.11425      -75.65149       126.6807      -180.7540
       60.94397       392.8776      -87.85058      -35.61219       56.90221
      -91.01019       208.1861       92.72410      -89.52863       114.8007
       36.82452       81.71207       166.2242      -56.34027       53.59573
       52.41695      -20.71405       125.0753       87.34326       117.8796
       97.72760       189.3927       140.7409      -153.6299       190.6401
       158.3745      -146.8115       286.9639       240.0279      -77.24844
       154.0917       241.8252       102.7988      -63.72885       88.69754
       148.9829       25.67859       330.3503       126.1261      -81.70947
       260.5807       47.76611       126.1012       281.4001       52.26355
       193.9965       138.2067       34.27283       255.1363       187.5278
       114.8060       156.1830       138.9612       85.02771       120.1864
       171.7869       67.32440       192.2858       313.5156       105.9525
       37.64529       66.23535       194.5503       176.6586       17.52356
       229.6877       164.8116      -41.92001       124.9380       148.7234
       139.6928       70.02077      -39.33856       85.53137       61.80176
       132.3921       147.7519      -82.28586       59.32332       43.63216
       6.415955       134.1270      -46.07542      -59.99072       54.01497
       16.13889       167.8628       42.02667      -187.7623       85.01402
       38.11188      -16.53157       125.9804      -165.6112      -74.54642
       115.0174      -21.31912       24.13574      -115.8167      -85.26816
       114.8575      -64.78091      -15.63148       111.3829      -196.6528
      -186.9095       81.09616       57.62144       60.30470       29.00476
      -260.7232      -119.9762       167.9539      -77.38164      -11.52473
       51.83014      -159.3573       41.55817      -73.17386      -144.3559
       104.0506      -58.11683      -9.615982       13.66324      -214.2333
       55.97881       106.7955      -155.6193      -39.26486      -86.25401
      -72.98581       55.77026      -153.7909      -140.6547       89.57397
      -2.704071      -92.58072      -113.7328      -97.02881      -166.5290
      -192.1941      -77.89642      -225.2543      -147.3514       9.682739
      -161.4383      -176.5701      -228.0784      -244.4275      -124.8085
      -237.5086      -208.0265      -201.7040      -283.1090      -227.3776
      -461.3226      -231.8005       88.88953      -281.3124      -239.9633
      -119.9924      -366.2548      -271.4413      -215.3926      -226.8082
      -118.6577      -283.4263      -247.5459      -231.6007      -332.6149
      -191.3182      -225.0474      -182.5876      -212.9058      -218.4514
      -86.82697      -267.1167      -36.37469       129.4180      -483.2165
      -450.1636       60.71582       30.98718      -140.6692      -168.1714
      -128.4529       84.30524      -57.10883      -322.6564      -120.1549
      -75.90625      -53.19711      -91.69781      -207.5719       16.36884
      -69.76389      -209.5209       24.36909      -6.321136      -190.9452
      -51.56819      -6.502930      -126.9858      -128.2109      -52.41614
       119.7029      -96.20160      -228.5216       120.2134      -132.8469
      -163.7538       233.5711       85.59108      -56.98260      -105.9323
      -202.3535      -113.1245      -4.823669       136.9831       245.5722
       134.5756      -93.07648      -141.8314       24.96066      -69.07224
      -69.86658       202.7089       280.1293       261.3735       39.23499
      -339.1238      -140.3928       261.3055      -48.90268      -203.1058
       309.4103       366.0742      -90.60892      -200.9146      -2.662354
       170.9831       125.9745       6.329788       74.21567       94.97070
       19.03400       79.07486       174.9170      -46.77133      -2.997223
       159.2157      -77.53485       173.6118       280.6186       9.985321
       141.4905      -20.06516      -152.0447       80.67288      -162.0348
      -32.21082       421.7662       305.6474       204.3330       63.03096
      -89.86514       12.81021       109.2955       48.82259      -11.00867
       153.3642       40.45178      -105.3548       141.3457       182.9715
       118.4703       54.26470      -3.148743       95.97031      -99.25427
      -257.0216      -37.82150       50.34686       51.27454       411.0332
       575.6703       92.06812      -365.6443      -368.0518      -106.7132
       184.3940       459.0897       346.2593       141.3137       697.0830
       660.4387      -9.934814       267.7152       505.7577       248.8362
       44.90942      -737.2913      -1299.901      -863.0320      -276.6674
       416.9553       882.8459       799.5513       1283.720       1904.510
       1441.312       132.4423      -498.4365       127.5378       72.57068
      -466.4688      -417.2175      -472.9345       116.4245       338.0948
      -46.53223       735.0103       1118.107       346.4436       333.4363
       559.9042      -560.3127      -97.70703       2098.440       1336.680
      -232.4745      -89.86539      -114.5252      -93.14554      -103.7567
       194.5802       820.4973       294.2328       419.3896       730.8761
      -416.9370      -265.5400       751.7188       826.0337       1205.192
       948.8036      -72.62634      -323.0751      -182.1536       329.7589
       709.6360       566.5903       603.8903       470.4481       266.2841
      -80.74133      -562.9312      -180.3905       444.2402       344.1908
      -49.48730       231.3069       744.2626       471.8258      -192.3724
      -602.4362      -430.4245       24.55487       286.3959       104.2905
      -257.3128       67.23468       136.1304       55.62903       516.1774
       12.09375      -734.2512      -530.2058      -48.32019       368.0248
       403.0261      -488.1372      -967.1689       109.3043       604.4950
      -143.2683      -570.0343      -323.0346       49.60892       38.36487
      -295.8428      -564.8411      -541.0769      -441.7736      -472.5059
      -169.4458      -171.2742      -605.2220      -665.1143      -715.5886
      -581.1902      -279.7821      -376.4082      -499.4865      -300.7103
      -202.0432      -414.1981      -316.6685      -442.9333      -900.9221
      -537.9329      -294.2842      -829.3622      -818.1947      -301.1334
      -229.4048      -630.6743      -1025.809      -781.2609      -151.0626
      -515.0930      -919.6547      -386.2473      -462.5735      -709.5176
      -745.6567      -784.5308      -405.5156      -784.9200      -888.4942
      -217.5901      -501.7415      -704.7410      -603.1646      -636.4360
      -64.06403      -7.169922      -661.8147      -748.6719      -471.4938
      -460.6239      -552.1525      -411.0129      -497.7344      -566.6519
      -485.1686      -645.9512      -308.6392      -43.83984      -538.6726
      -684.3381      -552.2531      -607.5446      -268.3155      -64.10121
      -143.1925       55.90869      -140.0248      -439.0459      -130.7825
      -131.1880      -416.7702      -136.2234       120.6284      -48.59778
      -424.4253      -574.8713      -117.4849       60.07678      -239.3405
      -151.6666       33.46347      -40.70703      -116.8696      -261.9491
      -124.0706       130.1192       61.27002       120.1989      -150.3409
      -212.0916       289.0003       207.6955      -70.43039       54.15308
       164.4926      -54.38501      -264.3027       93.06372       478.3828
       268.2150       289.6959       487.7767      -19.42163      -380.9104
       255.2091       564.2197       263.3181       231.6616       145.7776
       62.16370       199.1370       284.4607       389.2076       308.4756
       245.2399       484.8452       276.3164       8.782715       359.8842
       404.8464       177.2461       409.3721       685.4128       627.8765
       323.5448       127.1517       323.6052       358.7711       248.2009
       498.0476       406.5735       297.0669       629.7791       337.3109
       125.2417       356.4990       470.1614       621.8411       372.1205
       205.7405       557.9988       562.7446       268.8606       322.4746
       488.1599       249.1762      -88.19653       91.08728       512.4113
       456.9719       260.8019       438.3560       570.7822       479.7424
       533.5439       433.1985       287.2131       630.0636       643.9873
       175.2297       188.1194       645.1606       691.0638       212.5962
       343.1780       628.8910       336.0972       268.7224       227.3547
       390.5739       708.9799       356.6193       289.7969       336.5554
       204.8892       582.1475       454.3307       225.3667       589.3069
       346.9567       222.7368       501.4028       92.83966       142.7162
       415.6908       202.0828       688.2818       500.4968      -63.77771
       457.7180       253.6902       26.11951       462.3501       331.2848
       487.0157       492.6929       179.2174       205.1315       5.501831
       318.8363       487.9130       68.10297       198.4488       95.73749
       60.15924       243.6843      -80.74054       29.37616       265.6815
       33.07478      -75.97882       81.72157       140.6591      -89.42792
      -139.8235       22.46869       91.97375       72.80780       32.45425
       95.68452       47.01834      -105.9662       41.99786       52.15561
      -132.7809       231.4654       167.8088      -224.8516      -199.6866
      -328.2240      -139.4700       69.96606      -496.2642      -676.4714
      -177.3362      -92.50024      -381.9216      -358.2229      -163.8010
      -229.0153      -308.5730      -156.1318      -117.2473      -181.0688
      -106.0044      -159.6381      -168.7010      -132.4133      -441.2391
      -507.3339      -251.9183      -151.6974      -171.4169      -382.3970
      -361.6599      -176.0538      -435.3784      -362.6014      -108.6323
      -218.3712      -226.1969      -229.6772      -224.9291      -335.1708
      -281.0056       96.48630      -72.59961      -306.3428      -157.1941
      -276.5051      -393.6413      -142.8847       24.79077      -196.8655
      -557.4863      -367.9877       13.20093      -187.6581      -398.2992
      -275.7120      -18.52881       42.22208      -143.9332      -222.7828
      -135.9380      -83.74780      -343.7511      -265.4332       194.1275
       101.2493      -210.4233      -113.4411      -9.994446       17.68518
      -145.5904      -330.6566      -107.4118      -123.3751      -429.3213
