     0.02500000      -2345.497       1746.303      -12345.00      -12345.00
      -30.00005       220.5749      -21.70000      -12345.00      -12345.00
       0.000000       16.21000      -12345.00      -12345.00      -12345.00
      -12345.00      -12345.00      -12345.00      -12345.00      -12345.00
      -12345.00      -12345.00      -12345.00      -12345.00      -12345.00
      -12345.00      -12345.00      -12345.00      -12345.00      -12345.00
      -12345.00      -30.16080      -67.83630       1442.000       0.000000
      -31.06700      -68.46300       0.000000       100400.0       0.000000
      -12345.00      -12345.00      -12345.00      -12345.00      -12345.00
      -12345.00      -12345.00      -12345.00      -12345.00      -12345.00
       117.0637       31.04487       210.7273       1.052504      -12345.00
      -12345.00      -1.134904       90.00000       90.00000      -12345.00
      -12345.00      -12345.00      -12345.00      -12345.00      -12345.00
      -12345.00      -12345.00      -12345.00      -12345.00      -12345.00
      2008       164        19         3        59
       500         6    -12345    -12345     10024
    -12345    -12345    -12345    -12345    -12345
         1         7        13    -12345    -12345
    -12345    -12345    -12345    -12345    -12345
    -12345    -12345    -12345    -12345    -12345
    -12345    -12345    -12345    -12345    -12345
         1         1         1         1         1
LUNA    -12345          
        -12345  -12345  
-12345  -12345  -12345  
-12345  -12345  -12345  
-12345  -12345  -12345  
-12345  -12345  -12345  
-12345  -12345  BHE     
ZL      -12345  -12345  
[...]
       298.7399       312.8826       322.4879       331.6607       337.8011
       349.4351       358.3716       369.4735       376.1974       384.6683
       395.4451       407.8130       409.6448       413.0989       418.3387
       425.3711       424.5132       429.9923       429.1639       427.8069
       430.1458       431.0231       425.9072       423.3893       417.1814
       410.7852       408.1399       403.7375       395.6833       391.1650
       385.3763       373.5038       366.6400       361.2534       353.8606
       344.0690       331.9375       326.7202       317.8989       305.1512
       297.7209       290.5829       275.2984       275.1902       266.6837
       252.2324       246.2649       239.2043       229.3945       225.2941
       214.1061       202.6477       196.5394       194.6716       183.2015
       167.2758       158.5532       152.4260       139.5079       135.6080
       127.4746       119.8867       115.0935       102.9708       91.98546
       84.26868       74.39241       66.36644       60.91376       47.07823
       40.37677       36.73562       24.97747       11.88904       5.964209
      -2.367561      -15.03344      -23.19595      -35.69858      -46.46939
      -55.54520      -61.16541      -72.78000      -77.00192      -82.10138
      -94.21680      -100.6571      -107.8099      -121.1116      -125.7159
      -131.7620      -144.5459      -149.0955      -154.8693      -165.2936
      -173.9512      -182.0357      -187.8881      -196.6393      -203.4135
      -207.0541      -218.9460      -225.0758      -229.5978      -236.8547
      -243.0602      -248.2408      -253.4229      -257.5350      -263.7436
      -270.4362      -275.5240      -279.8765      -284.5552      -285.0909
      -286.0002      -286.7788      -287.9703      -287.8107      -285.9109
      -286.8949      -287.9929      -285.3489      -274.9287      -275.6163
      -280.4487      -272.5127      -264.0046      -266.8667      -260.6213
      -257.6799      -250.8643      -244.9788      -240.7582      -238.7598
      -230.5713      -221.0233      -215.6566      -209.3148      -197.5918
      -194.8395      -186.6454      -185.0729      -178.3367      -172.5744
      -168.7358      -171.3288      -169.5592      -166.5593      -161.1506
      -160.3204      -157.3648      -159.4513      -161.3299      -158.4447
      -154.7461      -155.2076      -160.3216      -158.1357      -161.5567
      -164.5369      -162.1069      -161.7539      -164.7775      -169.1927
      -171.0855      -167.4755      -169.4514      -172.5570      -174.5438
      -169.1804      -173.9538      -194.4031      -175.6619      -157.1367
      -170.7324      -190.2100      -151.3401      -113.4382      -156.4058
      -165.1583      -147.1746      -145.8510      -122.9458      -120.7473
      -133.6049      -23.83759      -103.2740      -147.4528       45.82013
      -93.93623      -88.20441       50.59715      -13.37405       33.91162
      -2.708267      -24.35284       33.91229       6.477448       119.6390
       85.49176       59.40314       213.0250       37.73123      -13.41888
       170.3711       169.1281       126.8160       156.1984       186.7614
       128.7556       118.6139       215.7989       167.6691       145.3744
       257.4974       153.9089       85.57074       287.1514       211.9706
       143.2267       270.4602       192.5023       179.9553       244.5820
       202.5095       243.7469       198.8315       155.5564       316.1153
       221.5958       171.1671       256.1372       206.6017       247.9013
       217.2097       283.1904       258.9580       131.1813       213.7114
       159.1299       153.5421       330.9501       228.5228       143.7341
       228.2434       181.3298       85.12122       186.1257       265.1251
       137.6747       108.7647       137.1685       180.9738       130.2026
       69.90491       220.5213       106.7085       40.32007       212.4893
       108.4764       18.68057       115.0905       94.27881       75.91187
       110.9334       51.73610       69.03691       66.65440       1.882431
       64.50903       97.66058       63.01520       21.54208      -26.02783
      -3.859253       44.82259       50.24514      -4.454914      -18.07250
       3.184158      -13.26987      -56.30562      -87.25052       36.17057
       80.12549      -91.98209      -141.5994       32.74583       38.44064
      -113.4788      -41.24333       2.607773      -38.55003      -15.01366
      -41.39333      -33.80203      -40.91850      -71.48868      -84.22025
       25.12434       68.73198       20.43207      -56.21248      -91.64437
       11.99031       10.25954      -76.52420       12.52112       79.58199
      -17.84040      -20.76706       49.78671       67.97996       58.82082
      -40.47549      -61.29825       76.90173       100.4020       15.84145
       62.04865       54.62375       21.34854       100.5668       39.11194
      -23.94684       100.4390       23.81659       29.12534       102.0376
       29.02722       165.4610       79.92898      -23.28006       132.0734
       109.5258       25.58084       121.8958       175.8385       25.66748
       68.65717       196.1870       74.01483       49.42163       256.9481
       242.2167       83.59973       75.50818       194.8984       218.1486
       105.7947       199.3079       276.8287       196.6384       190.2489
       156.9674       199.9069       275.6389       211.7063       221.7690
       325.3588       283.9465       238.9815       284.2925       287.9466
       224.7524       281.7537       376.4556       293.9397       197.1949
       365.3680       409.4017       275.8100       305.6606       348.1476
       371.0223       349.4930       223.4913       282.2233       434.4568
       359.6741       275.5627       379.3574       359.9641       259.7539
       345.6626       382.3955       283.3580       246.8009       298.4788
       347.0236       283.4628       213.0259       317.8255       283.6103
       153.1543       288.2634       254.6512       193.2566       201.9426
       138.0944       164.5745       282.9253       259.2292       77.38562
       101.2676       203.0162       145.1865       173.1356       195.4120
       88.97476       18.95551       72.73553       128.6652       131.5323
       181.9447       100.5891      -15.36777       96.67509       31.07173
      -16.56549       144.7159       42.74397      -20.01672      -30.09805
       3.530266       63.62674      -48.35651      -53.65878      -64.27731
      -72.25675       18.52942      -15.68442      -115.8270      -84.56305
      -76.17712      -159.6376      -126.1383      -50.99030      -189.3397
      -239.8367      -112.0193      -179.5366      -275.0734      -192.1443
      -130.5270      -292.5793      -299.5236      -178.9095      -272.4232
      -339.8948      -291.5874      -268.2767      -278.8208      -352.4592
      -332.9868      -314.9188      -368.9438      -367.0447      -348.1385
      -337.6045      -412.0197      -408.5973      -392.9874      -463.9834
      -431.6648      -395.9602      -481.0872      -550.2097      -506.0605
      -479.1084      -513.5760      -494.6615      -498.8376      -558.4657
      -523.1333      -543.5203      -629.1174      -517.1895      -564.9456
      -583.0563      -508.2622      -730.9102      -658.7827      -460.6907
      -650.8590      -697.0376      -590.8020      -648.5742      -673.8392
      -588.9816      -570.9774      -591.4900      -599.2678      -617.7297
      -616.6053      -615.3892      -561.9281      -521.3887      -568.4169
      -593.5605      -454.1157      -544.4769      -648.9049      -446.8640
      -502.1603      -601.4493      -433.1761      -352.9999      -411.2455
      -429.1201      -463.2153      -490.2513      -384.2401      -329.1107
      -374.1913      -437.1663      -391.1499      -285.8469      -321.7974
      -278.9138      -246.4709      -248.1255      -215.3820      -308.7319
      -231.6394      -132.8942      -261.5088      -162.1412      -172.5897
      -263.0638      -63.31934      -107.2452      -178.0723      -28.81982
      -88.36615      -133.0509      -40.50424      -60.78513       7.270798
      -10.95071      -105.6018       106.1948       17.03837      -102.7074
       96.72595       107.7116       107.8392       72.59814       51.49628
       205.0515       116.9870       58.40112       221.2755       131.7828
       96.72400       250.1461       137.2363       125.2715       208.5520
       174.0231       249.4580       250.3267       147.7188       252.0962
       240.4822       102.4929       313.2101       288.1121       124.4127
       250.7559       260.3193       149.7812       239.1504       227.4000
       184.1280       281.8731       172.1203       233.5236       307.5971
       149.8082       178.4102       260.1041       201.7328       146.3480
       167.3207       214.7260       231.7819       207.0277       128.1779
       119.4382       196.1480       142.5470       29.24274       85.66400
       203.6999       112.4704       30.25964       90.87326       63.01830
       27.26607       50.24268       88.71205       81.64758       24.57043
       14.60642       64.36952      -7.577164      -72.80173       78.13142
       45.58716      -113.3282      -46.55278       47.23245      -7.010254
      -156.2654      -52.18673       91.13635      -80.98209      -154.1293
      -70.76318      -88.84821      -71.34680      -72.92542      -195.4164
      -179.5089      -66.93106      -52.37537      -139.6406      -197.2345
      -59.62775      -96.50378      -233.0272      -45.43707      -118.7975
      -232.0870      -80.08055      -60.08423      -71.03357      -144.9005
      -198.8046      -72.87198      -58.01657      -180.4797      -44.65553
      -28.68951      -164.1358       5.455811       11.49011      -160.1501
      -83.78604       63.51482       29.55173       1.422745       10.30474
       2.064194       15.17152       19.59396       123.5869       105.0692
      -38.58896       33.30032       164.9537       133.1980       84.03430
       69.47943       91.23657       178.9245       190.7815      -3.571228
       50.49310       265.2171       130.3273       78.78745       144.4678
       98.49915       167.3380       216.3615       140.2802       113.3235
       108.2369       167.2123       199.1410       117.7901       87.15634
       98.06519       161.7029       180.4921       113.6719       129.1672
       197.4379       169.2793       97.58020       122.8235       125.9268
       142.2666       88.41895       102.7781       210.0746       127.0123
       54.72388       95.30902       54.37836       38.59943       185.1604
       214.5416       40.53833       74.25952       219.4867       86.95372
       17.47615       72.48175       75.42581       165.8947       78.62292
       14.35965       174.2798       106.7375       31.63474       134.6460
       54.10321       32.27704       175.4185       181.8459       72.14989
       91.35583       50.25818       27.60168       180.4218       126.2968
       77.00096       102.3762       23.64880       90.82849       157.0585
       108.2542       33.85272       74.74054       198.5827       42.91859
      -58.41443       159.6327       164.2675      -3.804169       120.2321
       193.6947       51.05139       59.08441       96.57736       72.77740
       68.31265       155.8464       185.2469       104.1656       28.48429
       2.592148       24.39108       116.9877       153.5643       205.6608
       255.2315       61.66277       40.05560       141.4072       33.46164
       58.71637       196.9155       180.9809       164.6261       139.6695
       89.22501       96.04721       96.27084       107.8617       129.0190
       175.4020       68.20856       156.6066       168.8219       19.87762
       203.3180       211.0428       77.66507       130.8205       42.11963
       30.25854       152.1401       125.5253       214.5469       153.4604
       42.26157       190.3260       32.62628       22.04926       262.6552
       142.8001       48.01868       131.0964       102.2460       72.59396
       79.31128       89.39380       148.0393       134.0321      -22.58629
      -54.21796       153.1262       225.8101       109.1592       66.81540
       77.19987       3.001932      -14.66527       2.100739       18.42075
       141.0974       165.3337       118.1316       145.1873       375.2480
       867.9780       1204.825       1188.908       988.1034       513.2649
      -307.2476      -1191.226      -1568.777      -1385.576      -943.4709
      -334.2543      -245.2794      -657.2129      -74.66553       1349.869
       1746.303       382.9944      -972.8608      -277.5416       440.2842
      -1210.474      -2345.497      -1440.488      -490.3391      -12.67725
       1023.169       1624.123       468.7559       37.70966       274.7135
      -569.8851      -883.6436       236.5295       1408.237       369.0225
      -1037.601      -655.5458      -93.42871       130.7975       325.4212
       276.8088       112.0264       78.23993      -234.5329      -177.3403
       622.8855       109.8506      -541.4926       590.5889       431.3308
      -1119.155      -724.8583      -250.3860      -1058.376      -734.2554
       730.6172       1360.988       529.3450       80.97888       647.9467
      -46.70435      -1331.832      -284.2595       1444.977       463.9561
      -1385.033      -660.3120       794.2490       510.1184      -297.4559
      -644.4441       11.52875       513.7418      -163.8998      -69.92554
       412.1329      -275.3836      -404.6349       510.8294       503.7559
      -325.2389      -618.2746      -266.9838       3.367493       373.2061
       252.2495      -535.6731      -223.8026       47.56573      -331.5749
      -155.6426      -315.0152      -262.8394       588.9499       454.8580
      -272.5831      -16.51636       35.62427      -692.5243      -727.5803
      -107.8924       76.85645      -245.4389      -389.3009      0.4897461
       510.7514       383.9618      -143.9923      -106.3867       277.2132
       222.6197       145.1682       135.9499      -99.27753       18.57629
       113.4234       87.29672       232.1660      -42.53894      -389.1886
      -239.7390      -212.9916      -478.8303       28.24554       415.8484
      -42.91748       164.9270       353.5941      -306.2014      -426.7026
       116.9729       259.5961      -165.8856      -624.4262      -389.3710
       170.4535       249.6715      -12.78403      -186.6892      -111.4514
       28.25006       220.9727       163.9886      -302.2429      -72.55420
       336.8202      -481.6552      -577.3854       199.6025      -33.17523
      -366.9719      -122.5952       173.0807      -154.4487      -498.7655
       47.80109      -70.61584      -550.3259      -28.22125      -116.1806
      -181.2253       381.5171       15.21399      -465.1541      -396.7166
       90.46027       388.6804       6.557129      -184.2051      -340.8751
      -513.0458      -344.6884      -210.2518       195.4166       246.2472
      -445.1427      -225.5884       161.0543      -268.1177      -44.67114
       473.4626       288.5576      -312.7537      -354.0402       138.6806
      -18.27290      -74.23602       315.3132      -1.096008      -346.9328
       118.8455       5.383514      -269.7323       492.1764       281.7571
      -437.6285       398.6364       562.2791      -65.53925       252.0573
       129.3508      -5.289062       486.8004       352.1102      -226.2062
      -221.9873       379.1549       364.2838      -84.57645       59.54565
       371.7551       389.0370       60.21371      -282.5966       283.5007
       542.2593      -18.59534       36.49060       557.3225       601.0428
      -12.96057       17.03027       784.9402       296.8804      -167.8545
       628.7029       515.8962      -198.1569       237.2761       474.5301
      -124.6176       99.21802       859.4177       415.6347      -96.94482
       509.5543       578.7667       199.2109       441.7510       706.7473
       536.7956       33.51723      -59.72430       206.4092       200.1406
       347.8831       471.8875       493.4747       476.3860       7.655640
      -128.5615       263.5027       444.2902       230.9751       317.4124
       547.8008       203.6384       332.5181       741.1671       191.3019
      -112.1601       251.9447       45.39882     -0.4008789       246.7538
      -96.07161      -103.1199       363.9089       416.7222       189.2815
       201.8021       317.4187      -91.15860      -209.7455       289.1252
       204.7575       42.95532       381.0239       500.4788       180.8169
       53.71021       366.9412       260.1442      -352.8629      -55.05688
       572.8682       164.8335      -214.3776       2.831360       45.73849
       50.54117       98.34528       220.3173     -0.9644775      -419.8582
       30.66888       396.3952      -47.36847       32.15686       311.9390
       178.0659      -75.89539      -188.8279      -38.38916      -215.1523
      -330.0631      -67.85242       32.34843       104.9051      -17.77289
      -225.5608      -242.8859      -91.72192      -130.9879      -186.1261
       101.2220      -158.1508      -447.7692      -211.1891      -145.0285
       28.97168      -238.3773      -590.9675      -29.55830       38.00891
      -246.2604       136.8484       173.4067      -231.2157      -403.0568
      -359.6758      -163.5273      -57.75342      -217.0380      -214.3787
      -23.14752      -36.46393      -214.5880      -336.0270      -185.5190
      -8.470398      -211.0437      -218.8882      -70.52332      -356.0950
      -388.1442       12.46918      -171.9048      -394.9438      -19.14716
       33.71783      -201.4073      -198.1145      -202.3395      -434.4161
      -354.6107      -104.4225      -392.5967      -326.4588      -38.57202
      -121.6057      -134.9185      -85.49350      -34.07318      -127.8893
      -307.7561      -188.3567      -87.04413      -152.8052      -253.5814
      -256.0911      -242.3470      -366.1943      -298.2136      -306.6433
      -511.6068      -376.5607      -176.5484      -121.1238      -330.1399
      -477.4441      -273.5715      -414.0875      -502.4202      -280.6450
