     0.02500000      -4501.845       4376.565      -12345.00      -12345.00
      -30.00999       218.9400      -19.96000      -12345.00      -12345.00
       0.000000       14.49000      -12345.00      -12345.00      -12345.00
      -12345.00      -12345.00      -12345.00      -12345.00      -12345.00
      -12345.00      -12345.00      -12345.00      -12345.00      -12345.00
      -12345.00      -12345.00      -12345.00      -12345.00      -12345.00
      -12345.00      -30.68660      -67.50870       990.0000       0.000000
      -31.06700      -68.46300       0.000000       100400.0       0.000000
      -12345.00      -12345.00      -12345.00      -12345.00      -12345.00
      -12345.00      -12345.00      -12345.00      -12345.00      -12345.00
       100.5305       65.44048       244.9532      0.9038700      -12345.00
      -12345.00      0.5705646       90.00000       90.00000      -12345.00
      -12345.00      -12345.00      -12345.00      -12345.00      -12345.00
      -12345.00      -12345.00      -12345.00      -12345.00      -12345.00
      2008       164        19         3        57
       760         6    -12345    -12345      9959
    -12345    -12345    -12345    -12345    -12345
         1         7        13    -12345    -12345
    -12345    -12345    -12345    -12345    -12345
    -12345    -12345    -12345    -12345    -12345
    -12345    -12345    -12345    -12345    -12345
         1         1         1         1         1
MAJA    -12345          
        -12345  -12345  
-12345  -12345  -12345  
-12345  -12345  -12345  
-12345  -12345  -12345  
-12345  -12345  -12345  
-12345  -12345  BHE     
ZL      -12345  -12345  
[...]
      -447.8250      -455.4078      -458.3027      -466.4729      -480.4958
      -481.7871      -485.0126      -489.5476      -495.7180      -499.1499
      -503.7751      -510.2981      -517.3571      -518.4438      -519.9314
      -519.7418      -522.0408      -526.0698      -526.5284      -524.4995
      -524.2621      -523.3895      -530.0413      -524.1879      -520.0107
      -514.8651      -512.1564      -506.1473      -511.4307      -504.2230
      -494.8380      -482.8729      -490.0552      -470.3636      -457.5170
      -473.3754      -452.3066      -425.8483      -441.9933      -422.9070
      -412.8912      -412.1007      -395.8435      -382.2239      -378.4609
      -360.4359      -359.1597      -342.6466      -331.3762      -322.1872
      -310.2665      -300.4840      -289.9577      -269.5861      -267.6307
      -250.1929      -237.5343      -223.4304      -211.7180      -199.2900
      -187.5383      -175.6472      -161.3905      -142.4371      -134.0487
      -117.4369      -105.7206      -92.56787      -74.00549      -60.45943
      -51.97977      -33.25394      -16.63748      -9.135666       7.415527
       26.41047       30.19717       48.96764       60.34460       69.75156
       80.57245       99.21460       113.0591       124.1087       134.9080
       148.1028       158.0631       172.1737       177.1373       199.6479
       214.2904       221.5466       231.1711       252.3645       254.5891
       257.1088       276.8860       295.6108       293.5613       312.8567
       334.2811       334.3633       339.1481       360.3489       366.1354
       382.8820       394.4558       397.9314       409.9513       429.7939
       438.4899       450.4225       455.4731       478.1582       487.7627
       488.8235       498.7758       521.5969       523.4214       536.8274
       551.4187       565.6167       574.4285       591.4092       598.3137
       605.8881       617.0895       636.0308       638.1279       646.5081
       658.7819       667.4548       665.2148       676.5273       683.6572
       689.3955       692.8477       697.0789       697.5867       706.9038
       706.7495       705.6353       698.4304       705.3127       704.2170
       695.6270       695.8091       693.3879       684.3154       687.0918
       682.1346       664.5236       661.6748       663.8604       648.0387
       635.8900       633.2043       622.7507       608.6140       601.5864
       589.9919       579.4529       572.2891       561.9878       541.6499
       530.9391       524.5710       504.5470       486.2661       481.2844
       461.4215       446.1483       436.6577       417.6459       397.5663
       389.3937       371.1835       354.8521       331.8807       318.2283
       301.6317       281.4761       263.5313       246.3810       220.9131
       202.5635       188.0610       170.4671       144.6175       129.0092
       109.0543       87.43619       70.48038       54.30861       30.62523
       16.80894      -1.099892      -25.04822      -45.64923      -61.66364
      -77.61478      -95.91064      -119.4578      -136.3019      -150.5317
      -168.5167      -185.7706      -198.8658      -215.9856      -230.4063
      -252.3043      -260.0799      -272.1492      -294.2521      -305.8912
      -313.0490      -332.0922      -346.0570      -354.8923      -366.7583
      -378.6074      -383.1454      -396.6790      -415.6721      -428.7335
      -437.4580      -444.7479      -456.4048      -470.3088      -469.7341
      -477.3594      -486.7603      -503.4989      -513.8867      -509.8206
      -530.3000      -530.4084      -460.8232      -442.3566      -587.6272
      -682.9456      -661.9943      -580.9430      -400.0068      -517.3179
      -751.1615      -648.7712      -543.3049      -775.1069      -769.9860
      -536.3170      -607.5928      -709.4758      -690.7729      -610.7693
      -548.2539      -747.4106      -764.9269      -456.7969      -659.1211
      -888.7407      -726.9659      -639.3634      -541.4626      -611.1277
      -711.5725      -741.3699      -756.5350      -709.5262      -629.6270
      -431.7268      -603.6777      -704.8694      -572.3950      -781.3196
      -793.8959      -624.6764      -555.5598      -600.4734      -605.8657
      -579.8284      -661.6626      -696.3695      -693.7694      -543.6873
      -476.6306      -678.7388      -569.6068      -421.6619      -583.9299
      -552.8403      -347.6879      -588.4783      -834.0928      -440.2147
      -294.2675      -399.3627      -426.6284      -521.7196      -524.7631
      -402.8890      -172.5807      -494.1948      -581.3273      -200.4056
      -484.7889      -254.8604       12.98010      -349.1716      -292.3326
      -295.8449      -305.4238      -227.0623      -134.1159      -101.4630
      -303.0328      -166.3166       106.0104      -9.283020      -296.6513
      -140.5063       34.65746      -51.76050       208.1016       61.93407
      -160.9009       188.2435       149.0049      -7.679443       114.3623
       76.93134       67.88629       180.6493       283.9236       218.7618
      -37.47595       274.7722       419.2403       276.3969       128.0174
       72.74023       419.7067       332.4410       330.5638       332.1573
       186.6766       451.8873       295.4461       142.6313       564.1013
       483.5314       251.5493       245.4006       359.2656       599.6133
       288.1013       318.0389       581.1696       447.9963       318.7288
       346.6862       397.0590       353.4225       473.0858       496.6842
       437.5708       501.2004       403.9828       279.6755       492.1183
       525.1366       372.2494       296.7319       382.1122       615.9917
       524.4688       378.2017       339.3627       560.5137       457.6989
       321.7097       464.2931       269.2059       468.7810       700.8149
       390.2467       266.9124       404.2042       497.4563       445.0140
       521.6814       435.7280       323.2565       407.5906       496.5453
       514.8909       351.2634       331.1964       628.1094       626.8311
       365.2419       411.4727       424.0724       282.9543       449.5840
       626.5530       465.2537       302.4038       463.8926       517.5083
       405.4548       507.4199       405.3174       308.2406       618.0447
       425.9921       218.2582       585.1582       475.3615       343.6625
       430.0488       339.8451       403.7134       314.6683       312.2009
       358.4738       451.7885       473.6656       301.9984       315.1678
       355.9122       374.8568       227.6191       77.43799       434.7256
       428.4766       169.8667       394.6157       265.0980       55.38342
       263.4636       164.6709       295.0800       393.1114       29.98282
       53.71442       228.8585       118.6249       122.4265       289.6717
       155.2467       20.79468       51.82758       50.58145       132.2582
       24.52470       36.30228       71.67984      -73.55002      -102.3318
       34.23878       107.7071      -2.116302      -88.66338      -81.29579
       25.02136      -100.4498      -291.8839      -89.41938      -16.07549
      -66.16411      -25.41653      -138.7599      -29.11496       229.6216
      -126.9414      -431.2571      -203.7450      -214.8474      -325.5429
      -67.33709      -20.60436       30.28867      -51.11920      -337.4420
      -214.1312      -161.2728      -183.7258      -295.3636      -176.4306
      -90.94891      -293.2363      -7.244934      -18.59680      -416.7214
      -413.7135      -202.7208      -89.41650      -322.5994      -354.6137
      -49.82660      -228.7828      -93.03125      -317.0131      -448.7111
      -21.77893      -138.5728      -144.8876      -267.6683      -508.1927
      -277.5996      -169.0535      -173.5641      -208.7646      -230.4063
      -71.00372      -285.8804      -392.5068      -365.5195      -359.8403
       84.69476      -178.2214      -523.7720      -163.9320       17.32788
      -107.1921      -472.3459      -380.1569      -16.77557      -97.59216
      -297.8876      -184.8899      -58.84711      -183.7666      -134.8530
      -496.7329      -470.1230       120.3371      -96.68060      -198.7669
      -41.76886      -64.14111      -154.1975      -299.0551      -268.2101
      -300.9426      -161.8352      -36.98071      -183.4950      -252.0776
      -111.7975      -128.0754      -351.7184      -276.6511       55.16504
      -119.6426      -359.0007      -172.3892      -51.38841       27.62653
      -103.9911      -395.4333      -347.5441      -15.42365      -116.4456
      -307.3290      -100.3022      -71.49011      -300.7784      -196.9719
       16.34039      -198.3608      -396.2814      -277.0893      -51.72308
      -75.00476      -219.7800      -104.2859      -61.01013      -316.6007
      -255.1321      -130.7221      -93.78357      -68.87671      -378.8770
      -221.1648       23.51221      -183.5029      -167.9786      -82.47125
      -191.0858      -289.2409      -169.2276       43.95966      -118.3809
      -444.1027      -213.1085       317.9776       69.90704      -388.8633
      -117.0587      -148.4570      -235.5467       72.11530      -142.1503
      -175.0183       16.09113      -158.9588      -177.6435       56.74951
      -79.05872      -350.7342      -153.3241      -94.47763       61.08081
       293.3883      -322.2019      -172.8848       284.5741      -157.5077
      -208.1637      -1.881592      -57.19162      -109.4291      -50.01212
       201.1118       62.40814      -339.4750      -84.58047       200.9201
       61.67751       22.25537       96.72496       80.30403       43.58870
       63.97884      -89.08185       88.02728       193.1490       66.15329
       107.7360      -78.67371       110.6335       183.6916       23.55115
       129.8000       116.6141       186.7703       154.5361       153.2795
       159.8930       146.0392       102.3757       89.37567       256.8913
       134.2081       63.59998       294.5058       329.5873       109.6009
      -70.47131       140.5515       398.3737       227.1965       45.11768
       106.6330       118.1292       271.1696       435.6626       108.0927
      -140.2432       329.6286       434.4854       43.29907       131.2427
       276.7404       201.5015       134.7246       134.3807       262.0161
       30.58685       110.2788       424.5950       310.6156       70.14069
       65.83466       338.2177       209.2104       157.4100       274.7943
       129.0480       165.7665       74.66510       204.8201       327.5776
       277.4577       148.2534      -72.46008       259.9431       431.5103
       154.4739       178.5671      0.2048950      -37.03918       533.8551
       430.8632      -44.53610       8.296753       176.4370       248.9390
       116.1240       105.8653       153.0337       198.5186       192.1148
       144.4688       63.39105       173.3444       204.9543      -15.69916
       81.51166       228.5120       163.1586       89.18671       183.0825
       222.9240       201.9860      -46.98138      -323.6599       96.13419
       241.8076      -105.1849       29.92789       194.5765      -32.10864
       111.0247       228.9736      -98.47107      -87.62177      -81.99492
      -56.57042       157.7109      -169.4270      -141.9462       197.8336
      -91.19067      -298.1236       77.27571       18.51404      -257.6902
      -1.259644      -88.32745      -164.4157     -0.3168945      -345.1694
      -228.4566       218.3928      -143.4481      -440.2244      -65.85779
      -152.2175      -460.7833      -181.1641       67.66895      -199.1474
      -356.5671      -171.4213      -147.1953      -353.8572      -372.4919
      -24.89648      -142.0618      -348.2800      -120.9147      -360.2242
      -359.0555       3.915771      -329.6233      -363.4488      -83.75281
      -421.9886      -297.6179       32.95300      -224.1879      -329.1554
      -110.4478      -369.7357      -390.4739       44.61249      -88.96442
      -346.9143      -271.2296      -116.7441      -230.6818       5.260071
      -47.40186      -457.3807      -210.4710      -71.31610      -31.77380
      -234.9229      -298.6342      -7.514954      -46.30634      -270.8786
      -25.01926      -19.57843      -242.2957       35.40662      -402.3729
      -249.4914       273.7271      -307.8010      -109.7930       88.13057
      -105.0042       394.2087       685.9424       745.1765       887.3636
       324.8326      -288.4397      -290.9230      -413.8806      -599.6078
      -614.3413       167.4116       1215.834       392.8113      -725.0060
      -155.9635      -20.76611      -1374.734      -2494.515      -1025.426
       1943.436       1630.538      -870.7284      -276.3079       1316.523
      -368.0801       90.87207       2431.699      -1120.829      -4501.845
      -1373.820       3512.798       3026.647      -1543.273      -633.9160
       908.6405      -1745.201       1673.522       4376.565      -1652.587
      -4341.854      -1210.227       2320.496       2384.035      -584.9326
       1056.918       1116.937      -3397.332      -1318.391       2128.171
       808.2480       701.4778      -79.60876      -1125.592       1677.924
       1195.919      -1301.127       88.14844       1325.197       1147.365
      -580.6604      -1511.133       318.7012       1153.784       804.5748
       32.71240      -1229.318      -969.2512       921.0054       1312.908
       532.0563       363.8065       308.9194       725.4834      -298.3334
      -555.8965       943.7842       786.5900       595.1837       165.8603
      -561.9771       111.6617       140.0344      -102.6113       589.1542
       247.3917      -458.2329       122.2439       953.6132       387.8990
      -396.7622       194.2808       331.9194       56.16113       600.6893
       609.0074      -416.8156      -84.57434       776.3575       344.2523
      -137.7735      -156.9806       275.2157      -126.1490      -558.0306
       225.0828       409.9882       45.62732      -97.72086      -181.8730
       748.9478       1576.105      -446.8452      -817.2626       530.5806
      -315.5770      -414.6664      -3.186798       190.7486       47.71118
      -345.1578      -153.2078      -219.3132       139.8417       902.0704
      -33.28687      -1041.714       214.4913       625.7339      -583.3367
      -1083.122       592.1770       702.6326      -1174.667       334.2626
      -24.19824      -1678.355       483.7797       189.2507      -1094.924
       616.9913       442.7395      -1107.460      -515.3696      -294.2753
      -278.7152       332.2655       26.89136      -835.8544      -862.1317
       716.1482      -126.6528      -1622.170       313.6218      -94.04590
      -1307.980       102.2731       314.1520      -68.95361      -956.2969
      -1408.096       421.3274       573.9648      -1118.890      -729.5148
      -3.437988      -714.1805      -449.6971      -12.69556      -566.9431
      -977.8102      -485.2266       462.0779       499.5227      -639.6855
      -527.9482       99.76257      -424.0614      -333.4924      -164.1399
      -129.2180      -525.1782      -988.7623      -169.9425       86.34125
      -320.9156      -61.79175      -194.7229      -223.8803       416.8684
      -568.8683      -1133.876       358.2747       163.1003      -912.4139
       37.61792       551.5203      -577.6488      -195.9131       468.0600
      -99.90454      -124.6206      -602.0659      -383.6622       384.8460
      -138.3242      -658.3484       74.26630       351.3834      -222.4966
      -332.8614      -270.5613      -102.9996       333.9013       325.2878
      -413.9264       28.16869       112.4008      -264.5828       26.05347
      -89.61646       354.7288       311.0971      -5.172485       70.22931
       68.21094      -205.7547      -503.5211       113.0215       535.5396
       229.8982       36.89087       66.49670       225.2524      -76.35260
      -231.1690       120.8508       347.6672       304.3889      -54.72461
       321.3210       824.9167      -197.5806      -778.3970       428.1858
       1052.558       156.3982       113.2500       491.4972       147.3601
       232.3912       132.9303       262.3559       411.8063       67.12347
       327.6975       273.6498       232.8905       670.0154       20.49133
      -168.4326       654.4763       470.4633       436.1631       526.7153
       16.72510       339.8850       686.8595       89.79095       19.73755
       566.1276       651.8920       200.5833       537.7848       297.8912
      -520.9797       491.0281       1112.166       526.5859       149.1116
       94.77026       218.5747       214.2727       688.0820       671.7170
      -197.0726      -43.27222       984.1267       864.2821       1.902344
      -183.8386       201.3516       793.3730       779.5004       146.1876
       103.8699       854.7689       511.8222      -257.4464       437.3560
       1024.749       387.9446      -277.9808       188.6108       876.3340
       729.0924      -247.2143      -57.96875       866.8198       332.3415
      -45.06201       577.0800       359.5865      -464.0276       262.4341
       739.2994       21.43317       146.8865       498.2341       443.5182
       79.32379      -8.897095       498.2811       481.9481      -128.7601
      -335.3787       159.8008       180.1259       237.9231       439.6777
      -127.7545      -92.78674      -160.2983      -26.76270       580.7670
       250.3830      -354.1789      -233.2617       264.1721       253.3339
       208.3680       3.917000      -48.08777       118.4153      -88.82092
       139.0163       102.2183      -437.9450      -258.3002       212.9876
       93.34595      -123.2582      -264.2850      -491.2330       79.69592
       484.4705      -226.3387      -226.3417      -360.9362      -497.4814
       252.2281      -306.1599      -587.1248       243.5197       47.45654
      -498.5701      -429.3701      -223.9454      -306.9696      -348.0652
      -52.96155      -237.0848      -550.5366      -46.40344      -81.25903
      -722.5879      -207.6690       353.0342      -459.1631      -865.7145
      -327.2145      -136.7290      -195.4839      -471.8685      -389.5598
      -32.32922      -399.7057      -623.1650      -237.1630      -286.3891
