     0.02500000      -4222.262       3502.136      -12345.00      -12345.00
      -30.00999       218.9400      -19.96000      -12345.00      -12345.00
       0.000000       14.49000      -12345.00      -12345.00      -12345.00
      -12345.00      -12345.00      -12345.00      -12345.00      -12345.00
      -12345.00      -12345.00      -12345.00      -12345.00      -12345.00
      -12345.00      -12345.00      -12345.00      -12345.00      -12345.00
      -12345.00      -30.68660      -67.50870       990.0000       0.000000
      -31.06700      -68.46300       0.000000       100400.0       0.000000
      -12345.00      -12345.00      -12345.00      -12345.00      -12345.00
      -12345.00      -12345.00      -12345.00      -12345.00      -12345.00
       100.5305       65.44048       244.9532      0.9038700      -12345.00
      -12345.00     0.04222696       0.000000       90.00000      -12345.00
      -12345.00      -12345.00      -12345.00      -12345.00      -12345.00
      -12345.00      -12345.00      -12345.00      -12345.00      -12345.00
      2008       164        19         3        57
       760         6    -12345    -12345      9959
    -12345    -12345    -12345    -12345    -12345
         1         7        13    -12345    -12345
    -12345    -12345    -12345    -12345    -12345
    -12345    -12345    -12345    -12345    -12345
    -12345    -12345    -12345    -12345    -12345
         1         1         1         1         1
MAJA    -12345          
        -12345  -12345  
-12345  -12345  -12345  
-12345  -12345  -12345  
-12345  -12345  -12345  
-12345  -12345  -12345  
-12345  -12345  BHN     
ZL      -12345  -12345  
[...]
      -348.7234      -353.1833      -357.5912      -357.9701      -357.7781
      -359.3356      -362.6172      -359.2920      -358.0605      -363.6746
      -358.6692      -357.2188      -362.3269      -350.1542      -345.4906
      -360.9106      -347.0981      -334.1254      -352.7327      -349.4034
      -327.3776      -338.4724      -344.4220      -324.4823      -329.3145
      -334.2138      -314.6910      -314.6877      -327.4357      -311.4631
      -303.8918      -307.6893      -304.2252      -296.3231      -297.2352
      -290.0459      -279.2356      -277.7461      -278.3590      -260.1342
      -261.2612      -258.3500      -236.8594      -238.4636      -234.9178
      -214.7643      -218.6598      -203.0254      -190.0227      -191.6940
      -172.5319      -166.6669      -158.4420      -144.3640      -142.6895
      -117.5565      -108.3447      -105.9319      -83.18932      -77.74976
      -61.71945      -46.24350      -47.16592      -28.78159      -13.32073
      -4.121681       7.246964       18.99483       33.89520       43.44482
       48.94785       70.16298       72.94772       78.91309       105.6165
       103.7910       111.3548       136.0800       136.4081       140.5024
       153.4119       160.3393       170.2742       176.1694       186.7850
       189.2806       198.2910       215.6714       207.1957       215.4849
       236.9919       229.4205       232.0088       247.7458       243.4393
       252.4656       261.8099       253.5649       260.8484       276.8126
       275.4223       271.9208       284.6241       285.5916       281.5088
       286.0089       292.8783       296.9259       306.8602       304.1886
       305.2178       300.8398       309.7927       306.9409       304.6857
       304.9728       320.4108       314.5906       306.6648       316.9596
       325.3186       306.6734       317.0447       321.1926       316.3213
       314.1336       318.4760       308.2789       307.6550       312.1666
       308.0927       296.7922       306.0994       299.3548       298.6459
       292.3976       290.0844       284.3780       283.4367       279.6110
       276.1650       267.1057       262.5449       258.2372       258.0850
       247.8066       249.5689       238.9680       232.9247       229.8426
       221.1968       216.3958       210.2692       202.7340       204.7949
       192.7997       188.3142       179.4271       177.0360       174.4036
       164.4870       155.5013       154.9702       144.6615       142.2613
       132.6441       127.5368       119.6768       112.9638       102.9963
       98.05029       95.65611       89.79819       76.73816       74.15514
       66.30017       60.18544       50.32317       42.79562       33.95459
       30.37820       19.27086       19.65582       12.13467       4.404051
      -3.962963      -15.33484      -24.90981      -27.14490      -37.45839
      -44.49231      -50.18890      -53.56741      -66.51463      -67.91806
      -74.63870      -85.16821      -87.43542      -92.92914      -102.2428
      -103.3394      -112.5068      -116.4513      -122.6529      -126.0636
      -137.7582      -140.3160      -147.0522      -149.4890      -152.5642
      -153.8138      -165.3261      -166.0101      -174.8292      -172.6974
      -183.2336      -185.7958      -187.0487      -193.7136      -199.8438
      -195.1493      -209.2351      -216.7209      -212.7665      -212.9872
      -229.7007      -225.7248      -227.4673      -232.0184      -239.6146
      -236.0787      -241.3508      -247.5471      -252.1320      -248.2509
      -254.2954      -247.0057      -258.3349      -260.2231      -253.7772
      -256.0962      -257.3529      -260.0839      -260.5280      -245.2123
      -258.4519      -223.7538      -161.0520      -186.8672      -334.6218
      -326.3092      -256.8893      -193.6346      -90.98218      -346.1187
      -513.2013      -144.9743      -101.7147      -353.3870      -76.72290
      -205.7952      -567.9045      -261.5896      -74.10217      -135.7391
      -278.6295      -350.9755      -264.0612      -210.9445      -184.1965
      -113.4200      -322.7061      -351.7608      -140.8433      -185.1775
      -222.7490      -307.2026      -265.1703      -53.68326      -137.2197
      -207.9219      -224.4283      -215.7556      -211.6102      -255.8206
      -147.0201      -187.6523      -233.7407      -141.4346      -84.66284
      -170.4636      -202.5734      -209.7569      -274.4827      -123.3962
      -45.95418      -50.96661      -123.5560      -319.4810      -81.49825
       68.50806      -184.6198      -118.0699      -179.5269      -72.02560
      -70.43056      -164.6658       162.9815       13.55655      -157.2513
      -18.04680       8.110931      -138.5158      -147.0869       228.6170
       114.9135      -95.18731      -11.38702       77.83945       160.1010
      -62.53563       30.22415       81.26596       55.82892       203.1863
       27.18530       63.57529       170.2188       45.53473       32.57498
       201.8483       108.5386       125.0055       241.7636       67.08167
       120.3234       211.8635       198.6398       234.8127       79.01591
      -13.98987       179.8997       232.2212       244.2835       170.8216
       180.9133       463.5225       74.96860       6.881226       228.8662
       122.3128       309.5990       283.7455       153.8986       116.1112
       158.4474       263.3564       224.5513       237.9904       112.3430
       45.45288       343.6562       359.8523       109.1271       32.29187
       181.5770       317.8408       255.0352       245.6077       59.91083
       115.4888       401.9185       238.3114       33.78894       140.5031
       230.2850       297.6982       213.6175      -52.88293       161.7292
       412.7307       240.6898       214.4894       166.4412       49.66626
       192.5446       302.6380       275.9841       169.7851       176.7213
       204.3721       30.60291       296.2201       497.6190       53.39334
       18.02197       344.3563       328.3002       219.8301       223.1423
       324.9241       251.0068       131.6847       165.2782       313.1168
       272.6361       176.5927       325.8469       330.5084       192.9758
       215.2880       317.5407       310.1799       267.0865       317.8965
       181.9123       103.4412       289.0902       317.9547       272.0823
       134.1201       303.0972       308.0560      -9.467041       397.3302
       395.3156       8.819092       312.9141       253.9512       242.2391
       318.2598       74.16241       184.0603       193.1484       207.7249
       214.6086       85.42206       227.6951       250.8289       86.93713
       212.7867       198.6392       139.5070       88.09845       120.3887
       260.7739       86.37881       116.5451       31.51117       9.079590
       247.9534       231.8107       136.4479      -112.7548      -81.89331
       210.6781       97.38741       48.96362       149.0386      -64.71594
      -45.83148       99.00946       86.47336       58.15848      -100.6242
      -30.73047      -18.54996      -100.8418       10.00525      -50.55570
       37.51160      -11.54449      -228.0231      -20.93202      -45.07565
      -155.6959      -92.31030      -186.9951      -195.7799      -143.5363
       17.73163      -40.99829      -278.9416      -116.7581      -82.06787
      -202.8578      -260.8420      -225.6851      -99.39441      -318.9143
      -261.3500      -93.74548      -240.5969      -319.5341      -90.20868
      -276.3454      -464.4531       21.86816      -378.1830      -493.7918
      -52.54150      -158.2548      -318.1934      -503.4513      -407.9918
      -262.0840      -217.1308      -192.2289      -471.1370      -276.8043
      -213.2993      -695.6898      -168.2806      -203.6837      -463.2045
      -267.3660      -325.4644      -83.77783      -405.0388      -523.9181
      -255.2264      -324.0554      -320.5831      -369.2873      -276.6964
      -197.0746      -346.9747      -283.2798      -237.9892      -103.3292
      -244.3710      -547.2649      -214.2726      -161.0884      -229.2388
      -135.7582      -271.5387      -289.3427      -276.0127       28.72406
      -197.7812      -437.3161       2.857422      -73.39319      -207.0039
      -390.9539      -110.8961       167.0981      -270.8259      -95.77307
      -110.1351      -332.8864       14.22092       109.0038      -252.7014
      -239.3978      -38.35138       76.93103       152.3248      -273.5643
      -233.3778       64.91119      -41.91689      -117.0431      -4.328491
       195.2709      -44.69257      -371.6216       29.48938       305.2174
      -34.91260      -206.7930      -139.4556       249.8381       320.4688
      -53.09773      -115.4357       27.66080       72.19654      -12.08459
       28.09419       26.05515       127.7099       221.7264       44.62329
       133.8529       271.8900       46.78350      -29.36926       166.9680
       225.7329       51.67633       69.15045       233.3899       386.8668
       197.5016       78.17401       289.9532       103.0009       123.5686
       351.2598       61.98187       122.5859       310.4418       248.8515
       339.2234       241.4255       41.38635       188.0571       432.1032
       245.9162       58.51880       223.9804       277.7027       238.4919
       228.1530       236.1225       98.78979       143.6002       380.3171
       163.5470      -1.402161       206.8848       170.2800       20.29291
       40.55493       431.8961       374.2151      -126.0559      -10.36218
       207.0269       177.2065       94.24359      -37.96349      -22.04236
       120.3379       153.1536       42.08566      0.3881226       153.0476
       149.7305      -45.04364      -255.6597      -175.6815       271.2410
       148.9646      -178.6539       15.07285      -32.49289      -84.33195
       15.60977      -36.04492      -173.2364      -222.6364       13.24796
       21.30212      -123.9925      -49.71237      -12.60083      -255.0251
      -372.6259       12.13272       77.23370      -259.1721      -256.1031
      -118.3898      -217.4545      -294.0866      -132.5917      -93.27008
      -256.6418      -237.4691      -68.00690      -211.3190      -345.3867
      -258.9728      -252.7104      -172.2182      -124.8704      -362.5327
      -343.0233      -129.7925      -164.0704      -314.7596      -348.2715
      -248.5225      -212.4781      -206.4252      -225.6487      -286.8593
      -259.9485      -183.9326      -291.6068      -197.9910      -232.1229
      -413.7498      -41.86597      -239.6497      -318.8601      -152.8533
      -291.9697      -126.9111      -137.6039      -185.8903      -280.6673
      -195.9999      -48.84961      -182.1717      -90.70172      -130.0208
      -249.0813      -227.8860       10.91252       87.71893      -273.6821
      -149.0522       44.78076      -264.9951      -6.331451       226.2875
      -366.2346      -242.5209       184.9273      -16.79909       46.99468
      -5.468262      -102.4294       80.07657       44.91607       60.92155
      -111.9342      -29.86865       281.8802       129.3533      -21.92175
       19.82388       26.29050       8.888550       169.9585       65.15936
      -85.77826       214.9353       139.1795      -132.7970       137.6342
       256.6530       37.46655       44.15546       178.9297       165.9107
       9.876892      -9.108521       229.0498       78.90099      -170.7319
       240.6871       276.1216      -98.30600       109.9457       266.7036
      -73.44455      -29.73285       266.9090       131.9267      -56.95505
      -23.82803       130.2309       155.0898       44.04875       76.40794
       25.31412       101.3044       94.90758       86.38160       40.87595
      -48.93115       281.8801       135.9930      -66.67365       107.8024
       181.7980       106.7184       17.81577       200.9197      -5.611176
       49.53735       388.4131       136.5845      -63.99832       31.56805
       192.0934       270.4355       219.1302       98.30109       180.0863
       212.4592       193.5283       317.9332       123.2806       159.9432
       350.2894       86.56799       285.8516       548.6224       137.4839
       8.461060       425.3596       330.4448       237.9087       394.0740
       200.6854       259.6039       290.4680       431.6127       411.0517
       175.9854       349.4713       316.8343       207.6180       317.6525
       398.0997       191.5630       333.6562       545.4590       89.17253
      -25.76462       99.99265      -191.5972      -40.06079       599.8213
       803.2180       775.2848       683.6797       666.5986       911.3046
       779.8535       32.55371      -529.2478      -672.8771      -220.0344
       747.3955       1633.306       1844.838      -567.2178      -4222.262
      -3236.970       1100.434       2551.278       1956.845       2055.281
       1024.625      -2569.427      -3261.303       1028.801       1387.870
      -272.2549       2085.162       2690.075       1006.963      -453.2708
      -892.4120      -25.92212      -862.7410      -1714.810      -554.7383
       2074.049       3502.136      -239.4624      -2236.395       143.4709
      -763.0530      -946.5771       1555.131       1173.105      -44.25720
      -19.87573      -783.3679      -828.5303      -31.89709      -500.3489
      -656.9574       401.3103       1073.884       311.5461      -588.6694
      -1006.358      -687.2021       578.1871       513.5380      -2.997070
      -473.3441      -651.4054      -21.06494      -713.2646      -937.2354
       288.9345       302.4814      -341.2980       147.9618       8.884033
      -1066.241      -676.8893       534.1376       73.36414      -585.3240
      -605.0657      -1135.075      -277.4221      -51.01166      -293.8363
       526.2800      -476.9634      -1208.195      -521.6648       344.5323
       646.3691      -371.1687      -500.6989       417.3042      -365.4985
      -1714.529      -1359.442       13.31445       921.0612       435.5323
      -360.0884      -809.2485      -746.5627      -695.7015      -544.8043
       113.5807      -28.37891      -693.5591      -710.6813       177.6547
      -157.2683      -771.0943       22.29526       89.61499      -524.0283
      -651.1400      -338.2923      -254.8090       183.1903      -277.2402
      -1216.595      -306.9978      -171.1284      -1064.702      -439.1062
       36.59674       181.7810      -122.6843      -837.9984       260.0520
       228.8245      -818.8634      -272.3557      -368.7563      -941.3333
      -517.3201      -361.8608      -224.6138      -217.1533      -1142.971
      -122.2733       533.6899      -516.4264       34.04688      -453.4471
      -754.1611       280.8391      -524.2610      -488.7266       226.4980
      -795.2452      -207.6581       585.3154      -735.4807      -264.8856
       547.0808      -379.1532      -563.6990      -236.9697       32.04791
       421.0052      -223.8924      -582.9087       535.9002       393.0614
      -645.8797      -579.5579       231.1153       126.1484      -579.9927
       42.74158       273.5179       214.1736       26.87488      -712.2161
       221.2343       902.3263      -128.4016      -433.0959       36.01578
      -3.362427       282.9960       691.9152      -67.74820       44.29047
       367.7932      -267.5914       366.9641       343.2692      -222.5248
       763.4136       428.1917      -315.5223       233.5187       318.0447
       206.3596       492.3884       678.3707       167.8750      -227.3845
       349.1722       701.7368       625.3030       40.06146      -414.9263
       406.2375       968.1890       451.5736      -97.29858       705.8856
       651.5262      -323.6650       658.3247       832.2028      -254.2751
      -63.39795       797.2463       667.7551       420.1879       294.2627
       53.49194       636.2122       383.9492       49.37659       657.8893
       481.3596       35.16754       129.8813       594.8882       537.5442
       179.3815       306.1233       440.2711       432.2277       391.5239
       185.9871       304.1069       821.4498       258.8565       75.89478
       504.0411       90.49280       97.10510       526.5347       251.9493
       447.0298       784.3380       26.66406       297.6909       670.3373
       128.5361       8.604370       87.68262       146.9949       522.4330
       561.9420       310.9160       85.10974      -28.94714       690.2007
       607.5700       51.16162       453.7458       464.3855       251.5413
       196.1482      -118.3462       137.0316       694.7954       406.1380
      -200.2119      -47.88281       657.3099       678.9103       2.129822
       159.0079       471.3827      -3.116333      -151.0127       121.1505
       274.0408       263.8095       125.1457      -46.15491       228.3188
       516.9098       166.1763      -56.57919      -135.0754      -141.8932
       261.4345       116.6831      -184.4871       262.8752       507.8634
      -105.3307      -37.67517       688.7338       107.8831      -912.3563
      -345.4741       487.4828       114.5259      -106.9244       47.03378
      -25.20090      -125.2751      -261.4734      -421.0124      -249.6573
       351.9217       174.8218      -622.3558      -243.6760       499.1762
      -42.02612      -864.0427      -227.0798       583.3280      -100.5076
      -677.0900      -17.70642      -70.99646      -675.8068      -29.46661
       18.23279      -601.5879      -672.8553      -291.9581      -74.23767
      -370.7097      -214.0698      -232.7605      -144.7713      -5.666382
      -444.5973      -398.9088      -177.5536      -11.74402      -219.7131
      -791.9847      -541.6449       100.5477      -140.0629      -671.4645
      -241.1545      -100.1350      -584.3356      -645.6356      -186.5427
       69.04993      -415.3771      -523.5657      -279.4958      -383.2747
      -377.5669      -301.5713      -464.7988      -438.2499      -128.0319
       159.6584      -196.3206      -977.5560      -700.8397       242.8423
      -168.8334      -924.7100      -179.7347       66.53442      -636.6770
      -662.1989      -290.1543       119.1976      -388.7229      -752.2491
       3.182983      -124.8806      -547.5200      -202.2026      -170.9795
