     0.02500000      -1990.621       1997.628      -12345.00      -12345.00
      -30.00999       218.9400      -19.96000      -12345.00      -12345.00
       0.000000       14.49000      -12345.00      -12345.00      -12345.00
      -12345.00      -12345.00      -12345.00      -12345.00      -12345.00
      -12345.00      -12345.00      -12345.00      -12345.00      -12345.00
      -12345.00      -12345.00      -12345.00      -12345.00      -12345.00
      -12345.00      -30.68660      -67.50870       990.0000       0.000000
      -31.06700      -68.46300       0.000000       100400.0       0.000000
      -12345.00      -12345.00      -12345.00      -12345.00      -12345.00
      -12345.00      -12345.00      -12345.00      -12345.00      -12345.00
       100.5305       65.44048       244.9532      0.9038700      -12345.00
      -12345.00     -0.1781650       0.000000       0.000000      -12345.00
      -12345.00      -12345.00      -12345.00      -12345.00      -12345.00
      -12345.00      -12345.00      -12345.00      -12345.00      -12345.00
      2008       164        19         3        57
       760         6    -12345    -12345      9959
    -12345    -12345    -12345    -12345    -12345
         1         7        13    -12345    -12345
    -12345    -12345    -12345    -12345    -12345
    -12345    -12345    -12345    -12345    -12345
    -12345    -12345    -12345    -12345    -12345
         1         1         1         1         1
MAJA    -12345          
        -12345  -12345  
-12345  -12345  -12345  
-12345  -12345  -12345  
-12345  -12345  -12345  
-12345  -12345  -12345  
-12345  -12345  BHZ     
ZL      -12345  -12345  
[...]
      -306.0148      -312.5438      -323.3467      -327.5052      -338.7031
      -343.2139      -350.7600      -355.3640      -365.1085      -369.9210
      -378.7041      -380.8259      -391.6257      -391.7170      -396.7887
      -404.8578      -412.2944      -413.8665      -420.5402      -420.0566
      -430.6763      -431.5985      -443.4330      -444.9548      -456.4189
      -461.4072      -459.3618      -465.3352      -483.7662      -474.0145
      -488.6401      -493.5527      -497.5183      -502.2740      -511.5878
      -512.1335      -525.7811      -527.2046      -539.2236      -541.8457
      -546.5490      -551.6289      -559.7454      -556.6854      -566.5229
      -566.7201      -571.2560      -572.6722      -581.8835      -583.6154
      -587.4939      -589.4712      -596.9653      -593.3469      -604.3796
      -603.1652      -602.7981      -606.0342      -610.6663      -603.8953
      -612.5830      -608.4860      -607.2949      -613.6993      -614.4363
      -611.3843      -614.0928      -607.7305      -612.1677      -612.3640
      -610.5090      -608.3890      -610.9784      -609.7039      -606.8713
      -602.0338      -603.5444      -597.7281      -596.6162      -600.6412
      -597.4673      -587.2515      -591.3511      -589.5068      -584.9563
      -582.1300      -584.6018      -580.7598      -574.8833      -570.6462
      -571.5183      -563.3474      -561.7695      -560.9310      -560.8865
      -550.2244      -544.4204      -543.3657      -535.2878      -524.9056
      -525.3010      -523.8503      -514.5088      -501.3821      -497.4862
      -487.2896      -475.4132      -467.4377      -455.6414      -439.9385
      -431.5591      -420.6602      -403.2906      -388.7932      -382.1235
      -361.4553      -349.1744      -339.3090      -319.0342      -300.4498
      -291.9712      -272.9879      -251.5189      -237.5719      -222.2877
      -200.2223      -187.4581      -170.0777      -152.9088      -135.4564
      -123.2018      -103.0343      -78.74109      -61.17435      -50.31158
      -26.48767      -13.16790       5.523949       25.42847       43.63965
       56.38690       78.63422       95.07089       112.1685       128.9473
       149.5607       164.5607       184.0787       196.6396       211.0544
       224.4985       246.5093       259.9120       270.8812       290.5038
       304.9664       316.3138       336.5173       350.0051       365.3627
       378.2535       395.1262       407.9159       420.5767       437.6768
       450.8763       459.6791       478.6616       490.5576       500.3577
       513.4436       525.7601       531.9307       547.4453       557.6167
       567.4229       579.0410       592.1484       596.8240       605.6036
       611.5874       620.2733       627.3621       637.3665       640.2888
       649.0125       653.5347       656.7717       663.1215       666.8763
       666.8245       674.3494       679.8560       682.9189       680.2700
       682.9248       686.7878       690.6147       687.7297       689.2136
       689.3308       691.6631       694.3911       693.2659       694.4253
       694.9492       692.4966       694.7166       687.3196       683.7249
       691.3628       684.7045       678.7048       673.8864       664.0596
       661.4546       674.4158       663.6018       658.1531       665.9846
       651.8096       647.0486       640.3413       623.7068       646.7485
       641.7817       689.5066       843.3423       807.4542       411.2890
       245.8438       414.7588       755.1394       1184.227       790.7777
      -34.49097       331.8706       734.4814       185.4749       479.4297
       946.6433       526.4886       311.0304       321.3033       500.8752
       725.6423       470.6837       447.9974       757.0177       291.4528
       153.6134       494.1276       511.4844       591.7661       428.9663
       270.9282       420.4941       351.5328       215.2046       362.5022
       509.0872       343.2204       282.2777       319.8252       261.4720
       231.4919       205.5613       68.64941       230.7891       432.3784
       249.0902       242.6441      -6.415924      -142.7093       312.8271
       86.40018      -72.39923       367.2291       107.7090      -68.36871
       5.423996      -55.78145       137.6573      -90.89728      -115.1162
      0.2261963      -216.5255      -22.56393       115.4146      -329.0559
      -195.3781       128.4536      -356.3455      -495.6271      -178.9385
      -313.8423      -80.22668      -83.56201      -497.5052      -342.5310
      -378.9972      -335.2485      -286.3783      -430.2755      -414.2417
      -474.0468      -436.4608      -368.5687      -391.8367      -506.6948
      -537.1123      -542.2175      -499.3552      -454.1489      -545.8711
      -603.9619      -582.2456      -713.5142      -590.5145      -490.2424
      -764.9988      -651.2998      -692.3752      -744.2043      -579.4248
      -649.8691      -644.1001      -786.9778      -748.0098      -712.5261
      -868.5488      -751.3971      -551.4050      -610.2798      -892.2290
      -870.6973      -660.3369      -828.3057      -877.6938      -673.4758
      -744.6064      -928.8433      -927.9055      -737.9233      -659.6812
      -903.4570      -889.7976      -569.9700      -797.8762      -1281.262
      -913.2079      -510.6541      -824.7751      -1046.954      -825.7104
      -845.4714      -846.1592      -636.3513      -1031.379      -942.6365
      -628.1055      -979.2280      -890.2747      -718.5532      -811.5117
      -880.8354      -879.4578      -770.4780      -678.2942      -705.4336
      -884.5457      -1014.234      -782.4775      -455.6550      -731.0195
      -961.9912      -731.1298      -661.3684      -714.1250      -717.9983
      -589.1172      -652.2646      -791.2808      -653.3818      -577.7043
      -729.2249      -655.7988      -406.4880      -464.8998      -624.6836
      -624.4795      -408.2305      -522.0651      -724.4326      -302.7512
      -179.4709      -421.9016      -646.8082      -488.5080      -129.4052
      -444.9010      -611.3079      -252.2687      -324.2636      -219.8677
      -96.69238      -397.0850      -204.4052      -193.7983      -251.8449
       22.61218      -258.1558      -357.0215      -13.92401      -56.41251
      -153.9388       10.12305       16.83337      -87.08710      -187.5568
       17.51221       188.8962      -85.83366      -165.4730       245.7307
       237.6318       21.80496       235.0573       24.40314       48.31592
       374.6205       222.9257       324.2943       291.4428       10.20276
       285.4303       492.7942       274.6596       324.2322       279.6581
       271.0718       603.6558       442.7522       360.1755       631.2550
       317.4246       258.9263       704.6096       580.9097       373.8823
       632.8887       675.9825       585.7573       678.1787       557.8438
       482.4937       604.9856       513.4614       633.6201       818.0420
       813.3223       822.9204       695.0151       917.6108       1252.307
       754.4014       272.5161       550.8750       779.1794       723.4194
       952.1045       1233.826       1058.533       525.6255       780.3987
       1009.687       668.5786       1205.628       1073.247       567.0605
       912.1802       830.2617       764.6997       1189.053       1187.061
       749.2151       941.4358       993.7810       481.2822       989.1775
       1350.253       702.2588       1120.495       1099.000       553.2837
       1096.097       1023.376       818.0767       1217.502       1115.010
       807.2834       846.8215       823.6548       876.9534       1063.388
       822.5256       975.9504       1149.650       665.3743       915.6558
       1223.504       916.6467       733.1655       723.2290       984.0405
       970.2112       734.9263       974.1409       1104.968       952.3801
       578.9226       672.7822       1164.088       704.3817       478.7158
       560.7822       852.7705       1112.550       536.7710       755.7644
       800.6265       340.1499       685.3354       833.2534       495.1814
       540.2762       711.9745       508.8220       383.5547       352.1860
       599.6136       682.7732       296.2961       285.8457       543.0323
       295.7249       87.10474       227.9868       215.2849       353.6160
       432.2379       147.2840      -96.50214      -31.83154       133.6477
       267.8954      -50.47966      -88.10342       199.7050      -210.7757
      -89.12479       28.33325      -554.3080      -142.8168       109.7910
      -381.6935      -302.4892      -97.04919      -306.2611      -502.7346
      -327.0427      -381.3665      -278.1128      -160.8917      -369.8062
      -328.1758      -591.4377      -644.4143      -467.8020      -513.7100
      -315.1658      -512.8511      -795.4089      -472.5229      -388.9021
      -650.9685      -601.3384      -504.0752      -644.9517      -836.4176
      -612.6528      -396.4172      -651.7583      -751.0549      -605.8235
      -669.0957      -907.7322      -645.1689      -688.4800      -943.9548
      -587.0024      -520.2817      -828.5042      -780.7778      -687.6663
      -853.1221      -817.7148      -712.0671      -908.7246      -904.1025
      -629.8850      -889.8926      -984.0007      -686.9880      -778.7354
      -751.1172      -857.9136      -1039.151      -886.1748      -786.1699
      -776.5962      -812.3655      -972.8228      -1007.948      -735.5586
      -663.4878      -935.6013      -984.9658      -828.9272      -691.0361
      -829.5962      -1030.747      -922.2200      -774.3086      -784.8594
      -840.7749      -807.4053      -715.8806      -761.0933      -851.5522
      -845.2273      -799.4312      -813.6299      -866.7510      -793.1219
      -611.5601      -703.6274      -846.3562      -713.0934      -557.2554
      -706.2854      -721.2344      -545.7688      -762.6226      -774.2288
      -560.4968      -656.1641      -533.3229      -468.8966      -672.5327
      -615.9336      -527.4619      -528.6693      -535.3311      -612.7704
      -485.4019      -552.3171      -499.1882      -301.9379      -474.1937
      -394.3333      -260.3425      -390.6539      -292.9880      -541.9348
      -659.9979      -67.50354      -131.1490      -488.8822      -264.6816
      -173.2430      -286.7281      -171.8451      -94.69824      -254.9790
      -24.59991      -86.85907      -308.6447      -36.71246      -116.6953
      -185.2057       55.22562      -54.92816      -123.3548       88.03125
       155.2593       45.45012      -8.983444      -43.39285      -38.47995
      -17.90057       118.7060       270.6955       182.3102       75.17285
       193.2745       268.2449       250.1801       172.0998       112.9703
       249.4515       326.1900       254.8492       234.7577       259.1376
       342.6218       289.0871       104.5172       259.2845       370.5794
       92.67340       190.4374       459.3862       355.9940       318.0801
       460.6306       207.1340       285.7450       579.3641       345.7405
       297.8176       255.0278       160.0803       468.8572       520.8127
       254.9503       244.4298       309.5657       367.3191       368.5702
       356.7605       393.0278       331.1897       372.7703       340.8466
       347.1993       417.1503       308.9412       276.3713       436.5508
       381.4377       309.5439       439.1506       534.4519       471.7985
       303.2747       382.5035       451.9871       391.2307       380.0610
       453.1838       456.4918       293.1154       338.8616       516.4985
       463.5492       349.1578       337.4891       283.2612       456.9545
       504.2032       422.6357       362.0806       354.3622       585.2617
       353.9706       119.6284       635.5570       618.3391       239.5298
       492.3905       476.5486       312.4822       402.3621       527.2141
       427.1521       334.6332       474.4868       293.5103       391.5798
       626.1813       350.0217       186.3883       516.5172       530.9144
       344.1768       386.8501       520.5768       435.8469       64.83130
       331.9006       514.7828       273.8486       439.7104       475.1807
       370.3062       344.5734       122.9722       268.6996       427.0321
      -204.0424      -198.8801       661.2603       672.6035       200.5775
       234.2462       116.0298       48.46997       364.9001       670.4066
       837.7056      -27.69482       228.0576       1694.013       1113.117
       252.5075       104.8160      -265.5444      -337.7887      -688.2097
      -125.7500       984.2422       870.1948       1285.782       1957.577
       187.5476      -1463.741      -896.1918      -547.7850      -479.4409
       768.3545       1997.628      -144.7914      -830.1172       1916.061
       1244.796      -1224.313      -1990.621      -561.0776       436.6727
      -415.0869       1238.793       1859.865      -265.9435      -583.9341
      -48.65176       201.3989      -573.4307      -510.7158       987.8806
       277.7615      -486.8683       485.1447       190.4795       389.0332
       718.7004       29.56824      -258.8058      -538.6276       552.3728
      -229.9636      -1667.789       540.8938       612.6938      -469.3882
       355.8108      -640.9142      -790.7422       1014.369       1176.285
       335.9191      -406.7063      -1168.647      -843.8152       581.1899
       462.0931      -78.61523      -47.86212      -563.1539       133.2823
       532.1156      -408.8307      -426.3051       218.4899      -153.1293
      -453.1253      -129.1759      -216.5995      -466.7544      -1084.568
      -203.9635       939.7069      -96.94333      -351.9632       337.2755
      -56.73499      -294.4895      -419.5591      -616.0350       160.9102
      -108.2045      -804.0200      -206.1672       482.4202      -227.4702
      -1137.816       195.4657       236.0767      -985.9713      -208.3788
       57.31213      -395.5046      -354.8494      -637.1273      -323.2902
      -77.75415      -529.6278       6.843018      -207.8223      -1221.654
      -573.3439       112.2650      -269.7183      -563.1627      -332.1823
      -66.87024      -444.9131      -776.1763      -661.8155      -525.1900
       26.97217      -89.32361      -546.8440      -383.8230      -764.2775
      -882.9379      -220.0140      -431.8477      -717.0208      -386.1172
      -509.1780      -818.9473      -1035.970      -440.6046      -125.2676
      -871.8159      -314.5878      -44.37329      -1128.596      -810.2032
      -94.15430      -593.0258      -718.2803      -304.5847      -478.0398
      -819.5895      -662.6804       41.85852      -143.6460      -1192.082
      -817.4965      -332.6682      -415.6353      -528.6445      -877.0704
      -459.9900      -177.5854      -810.7427      -911.8096      -512.8314
      -422.7302      -370.4218      -336.5071      -635.1659      -630.1929
      -85.01862       70.64917      -468.8828      -1000.471      -493.0568
       29.94824      -371.5522      -417.8823      -550.5728      -536.2636
      -280.6515      -319.2742      -324.5495      -417.7396      -176.8831
      0.3843994      -371.6256      -427.6613      -70.06950       101.4261
      -76.50317      -225.5844      -124.5189      -140.6583      -83.38055
       63.14178      -162.8363      -143.2550      -39.80164      -130.7611
      -126.3944      -107.9538       47.31354       216.2273       82.54352
       53.78796       277.2384       105.0077      -190.4189       326.2703
       434.1451      -139.8787       68.76123       518.2724       335.9872
       300.4460       536.8917       355.7179       237.8584       508.8548
       282.6254       51.50012       146.1348       234.9170       591.0778
       794.0601       349.6731       296.6080       598.9059       551.8226
       485.4443       296.8929       553.8452       784.2644       240.0142
       431.9423       635.8628       364.5806       616.8503       677.6748
       626.1445       629.6025       694.9238       718.7104       734.4775
       962.6782       701.1228       687.2029       662.3302       425.5586
       901.1992       1039.630       682.8080       410.2198       216.9707
       709.6157       878.5049       613.5918       801.4097       876.2366
       721.4495       527.0820       487.6799       888.5137       1091.458
       805.7710       467.0681       499.8491       914.1694       833.2473
       528.8879       610.9639       699.4080       737.3777       543.5525
       484.7095       710.2935       725.7672       515.2449       330.8662
       662.1630       809.7999       263.1005       407.2256       828.2445
       514.9514       279.4568       323.1281       389.4702       663.8834
       523.0361       435.4011       565.1638       201.5609       192.8735
       656.5564       610.3037       236.2087       309.3995       466.8988
       197.9063       179.4647       459.7515       358.5455       147.8408
       161.7172       186.4724       344.6549       179.5424      -95.97363
       308.4462       513.4796       121.4672      -232.0349      -97.21143
       382.5618       229.4326      -159.0193       55.80650       90.27509
      -160.1527      -148.3719      -165.2117      -235.2679      -132.2948
      -39.05351       13.55435      -88.06796      -154.2419       46.34424
      -304.0722      -431.8645      -48.28259      -154.4235      -275.7855
      -440.0963      -241.5881       74.77295      -294.5672      -221.4941
      -119.3704      -480.4960      -441.7294      -69.42212      -126.6157
      -500.7115      -254.0050      -67.73877      -396.0923      -527.2339
      -397.3707      -367.5275      -441.3843      -338.1594      -446.3132
      -603.5350      -204.7417      -248.7219      -593.7231      -367.9463
      -455.3138      -407.7347      -123.8029      -207.6534      -322.9106
      -450.9248      -553.2583      -635.0405      -409.1901      -257.7532
      -432.3313      -568.7931      -459.7540      -139.4874      -450.6497
      -784.8279      -600.7039      -424.3419      -307.0347      -404.9761
      -450.1014      -369.1171      -450.2145      -519.3400      -547.1016
      -485.5240      -192.0408      -174.6410      -598.2347      -557.4294
