     0.02500000      -1064.531       1108.384      -12345.00      -12345.00
      -29.99505       227.3799      -28.07000      -12345.00      -12345.00
       0.000000       20.96000      -12345.00      -12345.00      -12345.00
      -12345.00      -12345.00      -12345.00      -12345.00      -12345.00
      -12345.00      -12345.00      -12345.00      -12345.00      -12345.00
      -12345.00      -12345.00      -12345.00      -12345.00      -12345.00
      -12345.00      -30.81820      -66.60730       966.0000       0.000000
      -31.06700      -68.46300       0.000000       100400.0       0.000000
      -12345.00      -12345.00      -12345.00      -12345.00      -12345.00
      -12345.00      -12345.00      -12345.00      -12345.00      -12345.00
       179.4640       81.63408       260.6846       1.613568      -12345.00
      -12345.00    -0.06886179       0.000000       0.000000      -12345.00
      -12345.00      -12345.00      -12345.00      -12345.00      -12345.00
      -12345.00      -12345.00      -12345.00      -12345.00      -12345.00
      2008       164        19         4         5
       870         6    -12345    -12345     10296
    -12345    -12345    -12345    -12345    -12345
         1         7        13    -12345    -12345
    -12345    -12345    -12345    -12345    -12345
    -12345    -12345    -12345    -12345    -12345
    -12345    -12345    -12345    -12345    -12345
         1         1         1         1         1
MALA    -12345          
        -12345  -12345  
-12345  -12345  -12345  
-12345  -12345  -12345  
-12345  -12345  -12345  
-12345  -12345  -12345  
-12345  -12345  BHZ     
ZL      -12345  -12345  
[...]
       110.5828       95.99121       92.82562       109.1106       97.98489
       87.27768       108.3067       100.7357       93.90604       87.98169
       87.41904       84.61617       78.33783       83.75343       63.68446
       76.36092       73.35503       30.01498       59.68858       52.70136
       21.93181       33.23758       24.86702       23.11578       22.73558
       17.78156       3.417099       7.773134       10.77793      -15.05523
      -7.419182      -9.207359      -27.09949      -32.94551      -40.37347
      -58.25272      -59.86403      -70.63986      -100.6910      -94.29169
      -90.15021      -89.85275      -123.8401      -134.1805      -121.6834
      -141.3772      -151.3007      -164.0860      -179.5150      -175.9951
      -189.8655      -182.6659      -202.1198      -227.4644      -215.4503
      -217.2809      -216.3177      -266.0884      -262.8542      -228.9298
      -269.3784      -241.5714      -262.0177      -278.5911      -249.8632
      -287.5586      -282.2537      -268.0013      -295.2834      -274.9756
      -277.4129      -287.8052      -285.9908      -301.3599      -298.8552
      -290.8738      -286.4338      -293.1774      -295.5683      -302.1705
      -298.2510      -268.8531      -289.2267      -279.1298      -266.0293
      -264.6299      -243.7878      -258.2778      -253.1945      -233.7561
      -247.7688      -240.7863      -230.0927      -212.2811      -209.5754
      -210.2583      -189.6126      -195.4554      -196.5038      -189.4393
      -190.4536      -165.2123      -136.3304      -167.9958      -165.2793
      -131.2744      -134.9459      -127.8773      -122.2281      -103.0034
      -107.5104      -103.0925      -94.33231      -92.77968      -71.88474
      -54.68512      -52.35625      -65.50275      -42.78043      -24.66326
      -31.84990      -4.917419      -12.56908      -21.91158       10.72305
      -5.029694       9.321426       22.84731       22.50612       54.40056
       57.79156       59.44028       64.20010       71.73340       83.22974
       107.0934       88.04391       89.08832       144.0336       151.4142
       140.6941       155.2982       154.2675       161.9550       181.1849
       201.2002       201.3771       215.1597       213.1569       226.4871
       245.1293       245.6797       264.2224       262.0961       271.3433
       310.1605       298.7657       316.3438       318.5383       307.6250
       327.0875       335.8589       341.6732       352.4326       356.4304
       366.1498       379.0830       379.4171       368.0958       403.7708
       395.3560       403.2388       411.4976       384.0885       419.5188
       432.4961       408.0625       429.1005       424.1520       418.7031
       432.8497       431.3174       428.4674       413.9506       419.4287
       440.0978       419.9124       428.5802       431.6917       409.2919
       415.5239       420.0532       406.1143       411.5466       400.1730
       400.2264       392.1075       390.4216       399.0261       372.7390
       381.9951       366.0063       353.5477       350.4535       360.2627
       364.8937       321.1759       332.8132       337.3013       312.6509
       302.3896       287.4327       285.3925       284.1254       268.8688
       271.0937       248.7797       221.8310       248.1047       239.2401
       222.7511       210.6964       171.4723       184.3048       176.9462
       169.7927       166.6903       126.4582       127.1444       127.7617
       118.0842       119.3561       92.75229       103.3055       88.09015
       54.86237       72.23338       44.85422       33.06934       49.82169
       23.71150       17.26086       13.29290      -6.436119      -10.91237
      -12.55720      -31.31528      -46.57325      -34.39413      -52.63303
      -54.14165      -61.12891      -91.25336      -84.51868      -98.07474
      -110.4953      -102.2861      -116.7591      -134.0363      -137.6789
      -151.9027      -161.6163      -140.4791      -164.6424      -176.2678
      -165.5595      -185.4946      -207.2583      -208.6285      -194.0391
      -215.3339      -226.3024      -203.2856      -236.5208      -250.4717
      -238.9923      -240.8826      -247.7710      -276.9918      -261.0538
      -265.8114      -305.4645      -274.4199      -284.1496      -300.6506
      -298.8208      -309.7421      -307.6534      -318.5051      -314.6197
      -319.5418      -325.5542      -312.7498      -340.6400      -324.5066
      -329.6580      -354.7325      -336.0463      -342.8684      -341.3418
      -327.7429      -355.2987      -345.1000      -335.9501      -347.8217
      -349.9860      -359.0077      -338.0759      -358.4404      -354.4844
      -348.2769      -358.3682      -335.9491      -355.9197      -363.4709
      -339.2412      -341.0266      -362.3123      -343.6514      -336.8196
      -360.0185      -342.0142      -335.4749      -352.4390      -349.6050
      -335.5039      -346.5494      -339.1740      -304.1310      -337.5098
      -323.4390      -292.1166      -314.0383      -312.8670      -297.0492
      -293.6804      -307.9941      -272.1584      -268.4305      -280.9506
      -241.5204      -282.1973      -257.4088      -226.0895      -242.3126
      -218.0669      -216.9784      -212.1309      -191.6446      -188.1648
      -166.1080      -156.0379      -141.4466      -140.1022      -132.1032
      -108.8980      -96.64014      -90.97713      -69.22765      -40.65190
      -35.13561      -28.50950      -14.99892       5.464035       28.47784
       45.18451       57.05118       69.90356       90.59149       95.35114
       111.2703       124.2033       142.6928       153.2811       150.4755
       186.7635       192.7975       189.7587       205.7883       218.1726
       235.7571       228.9597       261.6457       274.7097       259.6948
       281.6357       298.5033       308.3215       306.4656       312.3710
       328.7523       329.1985       324.8501       332.0293       368.5365
       348.3595       344.1875       357.8365       350.2476       384.4980
       381.8085       372.1636       384.7383       377.3884       376.5903
       388.8611       388.9449       377.1826       388.0740       382.8229
       377.7590       383.1299       390.6902       382.1466       358.2811
       362.9232       383.5847       361.5459       358.5966       343.2427
       339.1011       356.1251       317.6271       316.0659       312.6838
       295.7872       278.5402       280.8328       275.7542       240.8035
       245.5806       232.0181       213.8776       197.2432       154.0630
       162.3394       141.3891       124.3778       117.4531       77.88609
       86.07445       62.64046       23.70171       30.54115       3.686386
      -40.09758      -26.04439      -60.79199      -70.98228      -60.00223
      -112.8152      -130.3069      -125.6062      -173.2086      -182.0911
      -185.9011      -204.7102      -212.9718      -248.4519      -269.4525
      -281.8494      -299.1548      -305.6281      -331.7274      -346.4934
      -360.2778      -354.5935      -376.8684      -400.0781      -403.7920
      -417.5626      -434.3787      -423.0563      -448.9164      -466.2993
      -463.8201      -469.8029      -476.8258      -474.4917      -480.4176
      -489.1132      -496.7933      -477.6998      -494.6616      -495.3364
      -495.2102      -500.2073      -493.5061      -503.5876      -490.2761
      -492.6060      -499.7389      -482.9292      -492.0720      -495.6545
      -481.2871      -464.3496      -475.9771      -468.7095      -456.9673
      -454.4758      -437.2218      -447.8641      -455.9817      -438.6008
      -429.7079      -432.9950      -410.8999      -408.1841      -411.1843
      -395.5192      -399.1208      -396.6954      -375.5697      -378.1733
      -377.4880      -342.0193      -348.6443      -349.4804      -327.9553
      -343.5369      -328.9408      -315.8381      -315.7458      -285.7468
      -291.5756      -298.4186      -267.4941      -265.0986      -251.4081
      -240.1473      -255.1006      -220.4369      -215.3519      -213.1293
      -196.6091      -195.2303      -177.5661      -169.6443      -169.3705
      -154.5540      -135.5817      -119.9378      -125.4144      -115.4984
      -93.31546      -101.1377      -76.51807      -73.49556      -62.67871
      -47.76812      -35.43652      -19.13822      -7.798767       10.26241
       19.58707       25.96115       40.67996       60.40956       72.49963
       83.39874       104.5174       133.4480       146.3042       149.6261
       175.7466       186.5055       206.2212       214.1736       236.9390
       257.8834       267.1606       288.3986       302.8622       320.2935
       341.5601       368.7596       364.7902       386.5459       416.1451
       416.0735       453.4482       464.5360       461.6814       494.5031
       522.3962       518.7532       549.4001       565.0613       579.8386
       601.9817       614.8440       630.1283       631.2157       651.6606
       676.6785       675.8560       709.4570       719.6243       718.6206
       733.0583       740.3757       753.4834       751.1621       770.0894
       798.9277       785.3464       801.0391       814.5198       809.9067
       811.4663       825.9053       839.9900       819.4924       813.0796
       849.5676       824.8726       820.3706       838.5654       833.1611
       835.5435       843.0420       838.9321       823.1052       807.8882
       819.6255       813.9028       790.1267       786.2336       779.9148
       769.3242       752.3889       737.9543       744.3213       714.5989
       690.9673       705.8691       671.5117       638.7393       639.1650
       615.5146       584.9434       578.5862       553.8677       524.0271
       500.3733       480.3361       473.0554       446.2230       410.0677
       394.8430       372.3266       330.2289       307.6554       286.1786
       254.4852       236.2939       209.7165       169.8426       136.3340
       121.8045       102.9706       71.89427       44.63352       22.95661
      -25.55421      -48.09299      -63.66202      -104.8137      -121.2059
      -156.3763      -189.0314      -204.7106      -240.9689      -265.7039
      -298.0199      -320.5345      -360.0762      -385.5928      -392.2598
      -448.9130      -472.2263      -495.3387      -523.9192      -540.0686
      -579.9103      -600.2285      -614.4248      -653.1643      -674.9341
      -692.3037      -729.3076      -743.3716      -766.2490      -772.8359
      -823.1411      -823.3677      -835.9866      -877.2605      -874.0244
      -897.6018      -940.6792      -931.4143      -935.7742      -959.2283
      -972.8000      -983.6794      -996.7329      -991.2549      -1007.832
      -998.2979      -1016.272      -1025.712      -1026.790      -1043.460
      -1044.495      -1048.765      -1060.820      -1056.748      -1051.491
      -1052.589      -1064.531      -1049.128      -1044.439      -1055.570
      -1037.459      -1025.358      -1027.383      -1002.624      -1012.000
      -1006.340      -991.6584      -994.5796      -978.4141      -953.7388
      -944.0574      -940.7063      -919.4167      -906.9795      -900.0876
      -876.2625      -851.2373      -832.6345      -821.2549      -792.1714
      -768.6829      -781.6895      -729.6416      -706.1482      -705.8953
      -662.5690      -653.1575      -645.2488      -597.1238      -586.4360
      -578.3273      -519.6797      -501.7052      -500.8330      -451.6097
      -416.4258      -412.2936      -383.3256      -344.4314      -329.8687
      -310.7672      -286.0309      -253.0392      -247.3968      -199.5729
      -171.8783      -174.8478      -132.8497      -93.59392      -68.11113
      -44.18922      -29.19199      -11.59979       19.50822       46.52481
       53.87393       87.16757       120.9805       143.0042       153.2531
       186.9528       202.4941       223.8108       254.2629       270.6389
       291.9895       311.1704       341.3903       383.3618       376.3628
       399.4124       428.6749       446.2673       468.3177       486.6558
       515.1118       540.5963       541.4351       585.6694       607.9062
       618.5828       649.1359       664.4236       674.1450       699.9824
       720.2432       733.3562       766.1313       788.9104       794.4834
       815.6987       826.0796       856.1458       866.7739       884.1655
       895.3760       913.8882       946.2029       930.6060       950.6189
       977.8464       971.9502       985.9861       1001.974       1016.036
       1013.730       1045.639       1050.345       1039.145       1069.879
       1081.196       1062.586       1066.176       1084.547       1081.192
       1069.174       1088.666       1082.210       1090.221       1108.384
       1068.810       1079.086       1100.303       1076.059       1077.289
       1074.380       1056.454       1043.058       1047.996       1056.961
       1037.631       1025.931       1030.077       1002.243       1001.099
       1004.759       981.8745       977.9331       975.8628       954.4473
       940.5352       940.6252       936.2981       915.2969       904.6714
       893.4658       859.3398       864.8821       851.1655       824.4119
       820.3667       790.8242       781.0747       760.9043       734.0459
       726.0508       716.1758       678.6584       649.1472       658.1353
       611.7965       583.9504       591.7434       554.1829       524.4409
       508.7441       481.2856       455.2522       447.0376       412.8931
       382.2949       382.6104       335.8492       313.1201       301.6700
       264.1497       238.0104       212.4562       176.8782       142.9964
       128.3692       111.3511       70.73798       46.30144       17.28890
      -1.889252      -42.47495      -73.44229      -86.45572      -125.1035
      -158.9187      -172.0893      -217.6971      -242.0685      -244.4362
      -299.5743      -330.5315      -332.3711      -379.8151      -409.4438
      -430.4674      -451.1703      -470.7876      -505.4763      -530.5376
      -550.0588      -582.4495      -606.2159      -635.7673      -646.4053
      -668.5637      -702.8350      -724.0293      -737.9792      -747.7114
      -782.9900      -804.9448      -811.1587      -831.3447      -850.4587
      -882.7249      -884.4900      -890.0703      -915.9585      -928.7649
      -930.4346      -967.5342      -966.5632      -959.7344      -1006.389
      -997.5732      -990.6567      -1020.493      -1019.332      -1034.126
      -1043.515      -1025.069      -1037.378      -1062.559      -1044.174
      -1041.730      -1059.281      -1049.779      -1046.946      -1051.429
      -1048.265      -1034.496      -1037.880      -1028.040      -1018.989
      -1023.884      -1012.251      -999.2256      -999.2727      -995.0417
      -973.4773      -972.9963      -954.6575      -946.9639      -944.5503
      -932.6284      -915.1836      -886.3120      -881.5154      -869.8379
      -856.8005      -849.2725      -820.1992      -790.6667      -789.1777
      -789.3896      -749.6978      -735.2263      -724.9827      -699.7605
      -686.5127      -657.6788      -651.0148      -630.6375      -599.9119
      -597.9384      -570.1538      -547.6089      -542.8689      -523.7113
      -496.2720      -479.9666      -460.9025      -434.1641      -439.4749
      -414.0138      -380.8182      -402.4141      -350.0515      -328.1216
      -335.8260      -303.4711      -297.0634      -285.0905      -257.7675
      -243.2769      -217.3311      -203.2534      -189.0224      -165.9656
      -152.2151      -146.8503      -109.7661      -97.85254      -86.08969
      -73.94000      -60.89009      -32.73496      -19.52201      -8.752243
       23.15025       25.80466       34.88910       55.49173       69.90906
       95.98764       104.7133       126.4083       129.7050       130.7221
       166.5488       171.7394       177.7828       196.9967       214.7382
       227.0269       221.5873       252.0941       258.3494       276.2340
       295.5557       286.3696       315.5914       327.2102       324.3975
       344.4697       357.5388       348.8136       371.4227       393.6573
       381.4558       401.8080       414.0559       409.1981       422.8044
       435.5847       448.6882       449.7772       456.5145       465.8530
       478.3262       481.6536       491.9519       494.6750       497.3875
       517.7557       513.0750       505.0236       530.3611       537.0842
       528.9331       539.0510       553.2751       538.7454       542.6731
       553.6190       552.5057       556.7505       569.0845       559.2845
       564.6782       569.4233       551.9929       567.6250       574.8418
       560.0923       566.6661       573.5198       559.6479       556.4161
       575.1814       556.1123       558.6770       557.3645       562.3298
       558.1157       551.8535       557.8701       539.1558       544.6263
       558.6353       544.6986       535.2653       541.3337       528.6909
       517.8370       523.9321       514.8827       518.7582       507.6910
       496.3457       509.7482       490.4648       473.7865       494.1414
       465.1807       467.9574       468.7998       457.1929       442.2295
       435.3796       445.4935       433.7241       415.0314       406.0240
       410.6503       390.6477       389.2202       400.3306       364.3618
       375.8541       371.5172       353.1917       354.3741       338.8107
       340.6273       316.9120       314.6145       311.3109       297.9329
       298.7843       279.9817       269.6941       266.1372       252.0029
       237.0212       228.3002       217.0175       197.4567       189.1199
       179.4818       168.6526       161.2870       154.2314       132.1942
       119.8259       102.8623       99.39543       75.28314       72.72925
       51.74438       32.82807       19.25446       7.639465     -0.5166245
      -34.52420      -38.83130      -55.43030      -90.03461      -88.72592
      -110.7561      -132.9138      -141.9908      -151.9413      -182.2872
      -203.7248      -206.8523      -219.0519      -246.8991      -263.1329
      -281.0264      -295.3883      -304.9811      -325.3212      -349.9795
