     0.02500000      -1071.996       889.3402      -12345.00      -12345.00
      -29.99505       227.3799      -28.07000      -12345.00      -12345.00
       0.000000       20.96000      -12345.00      -12345.00      -12345.00
      -12345.00      -12345.00      -12345.00      -12345.00      -12345.00
      -12345.00      -12345.00      -12345.00      -12345.00      -12345.00
      -12345.00      -12345.00      -12345.00      -12345.00      -12345.00
      -12345.00      -30.81820      -66.60730       966.0000       0.000000
      -31.06700      -68.46300       0.000000       100400.0       0.000000
      -12345.00      -12345.00      -12345.00      -12345.00      -12345.00
      -12345.00      -12345.00      -12345.00      -12345.00      -12345.00
       179.4640       81.63408       260.6846       1.613568      -12345.00
      -12345.00     -0.5376634       90.00000       90.00000      -12345.00
      -12345.00      -12345.00      -12345.00      -12345.00      -12345.00
      -12345.00      -12345.00      -12345.00      -12345.00      -12345.00
      2008       164        19         4         5
       870         6    -12345    -12345     10296
    -12345    -12345    -12345    -12345    -12345
         1         7        13    -12345    -12345
    -12345    -12345    -12345    -12345    -12345
    -12345    -12345    -12345    -12345    -12345
    -12345    -12345    -12345    -12345    -12345
         1         1         1         1         1
MALA    -12345          
        -12345  -12345  
-12345  -12345  -12345  
-12345  -12345  -12345  
-12345  -12345  -12345  
-12345  -12345  -12345  
-12345  -12345  BHE     
ZL      -12345  -12345  
[...]
      -39.50609      -37.55981      -39.24594      -37.57930      -38.62946
      -37.06245      -38.48328      -36.49017      -37.68214      -35.86568
      -37.41572      -34.81509      -36.65501      -34.87383      -35.79006
      -34.09393      -35.70398      -33.06033      -34.52028      -32.73528
      -33.74347      -31.55260      -32.90025      -30.99921      -32.11641
      -29.72074      -31.41775      -28.66489      -30.62119      -28.12297
      -29.21321      -27.83823      -28.71771      -25.80293      -28.75164
      -26.38690      -26.30412      -25.05811      -26.95364      -24.56561
      -26.53647      -22.72111      -25.55830      -24.23785      -22.98306
      -23.56260      -25.28143      -20.85306      -26.32407      -22.78503
      -22.30817      -24.73064      -25.00173      -20.77611      -27.29493
      -23.33923      -24.14822      -24.65919      -24.84224      -23.22958
      -26.29143      -23.95290      -25.96095      -24.11418      -27.02100
      -22.32458      -25.95103      -25.21371      -25.03729      -24.44872
      -24.79892      -24.56560      -25.41601      -21.63582      -28.17555
      -20.72448      -23.93738      -24.75070      -21.88494      -22.47697
      -25.43924      -21.74135      -27.24527      -20.50645      -25.29995
      -21.18140      -22.40064      -23.83291      -21.69730      -21.07269
      -24.21861      -20.38728      -21.99864      -20.72823      -23.05577
      -16.73228      -24.63846      -17.63991      -19.57954      -17.21799
      -21.43861      -16.48940      -16.62283      -18.70063      -17.67295
      -13.01806      -16.65321      -14.48273      -10.23347      -10.26523
      -16.54734      -5.660200      -8.882502      -10.96285      -6.516479
      -1.309975      -10.04958      -2.978512      0.7778659      -2.202135
       2.995398       4.529976     -0.8457451       8.889848     -0.9341812
       10.47272       10.36277       5.962795       13.57505       12.46372
       13.89910       18.49302       16.41935       22.98322       18.87659
       25.20612       25.19215       22.49697       31.12161       30.55562
       27.24876       35.61305       31.79534       36.95523       38.04662
       33.90985       39.32433       49.21608       39.89502       48.90973
       43.81726       48.97412       53.84982       42.27078       54.58089
       59.19891       43.24222       56.87332       64.34753       51.82346
       56.57234       71.53079       56.23393       63.94019       71.85445
       68.02367       64.86079       75.91373       67.46732       67.77431
       75.31161       70.36723       73.02847       73.39842       69.13101
       77.23032       68.27859       68.33232       68.63171       67.77249
       66.57571       64.31163       63.82350       66.29567       53.50586
       60.15602       62.90518       43.72618       52.59169       56.89673
       42.55074       48.02179       39.24030       36.78547       39.19377
       29.18253       32.72030       32.56866       24.38225       26.35940
       19.57858       17.28519       28.35155       9.408840       10.78141
       19.53813       4.757727       9.809456       7.599142       3.239517
       6.957250       8.466394      -13.22951       9.304455     -0.1795864
      -19.03516       11.51860      -10.38349      -9.962975      -7.419197
      -7.222050      -9.250389      -13.72123      -7.957439      -25.13808
      -11.34390      -16.65325      -26.50257      -17.60381      -33.96033
      -26.86188      -28.22126      -36.06366      -29.61436      -43.03500
      -28.16571      -45.40503      -51.23026      -39.96535      -47.12775
      -50.99438      -66.79634      -48.47430      -61.44098      -78.57271
      -67.95477      -78.98782      -80.31329      -83.46603      -88.46075
      -87.74994      -101.4582      -105.1217      -94.81567      -111.3497
      -119.3160      -114.2444      -125.9339      -122.9291      -136.9175
      -141.1702      -141.7843      -144.9374      -157.6821      -161.6215
      -150.3181      -178.0030      -183.1309      -169.8847      -193.5091
      -196.5514      -188.6165      -208.5344      -208.5986      -206.4224
      -227.9222      -223.1666      -223.3858      -247.4220      -239.1517
      -246.0145      -256.4272      -247.5389      -269.9229      -262.8890
      -253.8842      -280.5409      -267.3623      -268.9514      -291.7721
      -266.4612      -280.7400      -288.2499      -271.5859      -281.9873
      -286.2279      -274.2644      -270.2413      -272.2804      -274.2026
      -267.4045      -251.9143      -273.8718      -262.8421      -240.6248
      -254.4044      -255.5295      -230.4047      -241.7020      -242.0375
      -219.8438      -228.1953      -218.1362      -206.5746      -205.8952
      -208.4049      -202.1223      -179.4279      -195.2316      -178.7796
      -154.8350      -181.7139      -153.9568      -148.7602      -155.6184
      -129.9621      -143.6670      -129.3297      -110.7783      -133.5019
      -106.1219      -96.19067      -105.8248      -86.36946      -76.98227
      -77.45175      -57.59966      -48.31822      -44.93278      -43.23598
      -12.80861      -18.80096      -18.27316       13.47395       10.65501
       20.89149       42.61334       32.76254       56.53653       67.76511
       69.91064       91.63010       103.0382       95.65677       120.4056
       122.7273       121.7726       146.8208       139.2357       149.4533
       165.6662       151.6502       173.4468       180.4845       188.5176
       197.6060       191.5515       199.1096       207.2202       205.9294
       214.1529       205.4269       208.1067       232.4832       209.9268
       209.8944       233.2237       205.8750       221.5980       228.1630
       207.9796       230.0818       221.8569       215.3257       222.9667
       216.3371       221.0523       212.7705       216.7216       215.5497
       199.7202       204.1989       209.8121       195.8729       192.8351
       194.4767       194.6202       186.8295       183.2069       186.1442
       173.5125       180.8781       181.4158       158.1941       170.7568
       165.7589       157.9411       156.3970       147.0638       145.9868
       147.2036       140.1989       145.0829       133.5919       123.3965
       128.1556       115.8470       117.5081       107.1508       101.7415
       105.6685       87.19055       94.21866       82.27217       74.67065
       68.12854       68.77716       64.32938       52.22121       49.91284
       36.54027       31.43423       37.02002       10.35382       24.82074
       19.47889      0.2533455       8.105057       8.281818      -4.507095
      -11.27408      -4.896069      -13.50484      -17.82158      -16.91050
      -10.22091      -13.96098      -29.73898      -5.503380      -28.76058
      -21.06871      -6.704777      -18.54563      -15.41794      -13.89760
      -6.314234      -4.893398      -7.239818      -2.195595       4.738960
       12.55885       14.27341       23.33151       19.73338       25.28442
       32.48077       30.53812       36.41180       42.24333       53.35544
       59.70166       58.74661       63.32562       69.50665       75.32718
       69.06573       90.45639       81.69193       85.20432       99.08829
       97.01492       102.4749       110.5536       119.0913       110.6784
       126.0677       133.4917       134.5829       150.8185       140.3176
       155.2589       162.2036       164.2285       165.0481       165.5721
       178.8592       183.5833       183.5416       178.5531       190.1735
       199.7125       192.5171       210.0385       210.3527       205.5634
       224.5457       218.6378       205.6646       240.1805       220.4568
       222.8958       251.1156       226.5641       236.3546       250.7702
       230.8063       235.7690       256.2485       243.4185       236.0669
       259.7460       246.4463       249.0073       250.7227       240.4189
       250.8906       245.2700       240.4037       239.8681       229.2714
       224.7574       224.1014       222.8300       214.2797       211.3273
       198.1006       205.9439       198.6184       182.3832       185.2849
       175.6818       166.6941       168.4195       154.8439       144.1034
       137.2535       132.5118       118.4566       109.7171       99.38741
       85.54047       73.41846       65.35516       52.67643       43.34193
       27.54453       23.70592      -6.980095      -9.514267      -18.07919
      -45.66647      -50.93048      -73.60519      -94.59885      -88.30371
      -123.2803      -144.5549      -151.1608      -171.6985      -195.2545
      -195.0652      -221.6772      -245.2077      -250.4287      -275.5266
      -286.3390      -301.3004      -327.1600      -328.2001      -350.3765
      -371.4410      -363.6937      -401.1709      -412.0886      -395.3313
      -438.2246      -447.4354      -433.0684      -457.6692      -470.5498
      -469.8911      -486.1838      -496.4033      -489.2822      -508.1304
      -519.2858      -513.7197      -513.0178      -528.0408      -539.3770
      -516.3635      -529.0415      -540.3029      -523.2465      -534.1266
      -537.6648      -520.9501      -529.8094      -538.7197      -519.6045
      -524.1198      -524.8347      -513.9500      -522.5956      -516.0007
      -498.8108      -504.6030      -499.8600      -490.1908      -484.8066
      -480.0056      -464.2976      -470.8591      -462.8423      -439.6654
      -439.2979      -446.6617      -416.6597      -403.1719      -405.1042
      -381.2615      -369.8851      -355.4468      -346.6656      -338.2766
      -304.8945      -302.0227      -289.1320      -257.0513      -242.6874
      -242.1400      -201.4792      -191.8743      -183.1644      -145.0965
      -145.3835      -122.3859      -93.75293      -89.55786      -56.66090
      -46.45454      -25.62346     0.01778412       13.94868       22.42078
       41.83749       58.64093       85.79166       102.2703       116.2898
       137.7814       152.4853       154.5055       175.5703       190.7835
       219.8269       217.9926       229.4387       255.4738       265.6289
       265.1554       286.3433       299.5466       306.8396       322.3625
       338.4513       350.8726       347.8083       359.6346       378.4202
       371.5829       394.2815       393.3943       396.8055       410.2021
       425.5420       422.3114       442.5465       433.0098       441.7129
       460.1840       450.7073       468.5576       475.0851       467.8124
       487.8370       482.9558       486.7295       503.8613       503.0813
       508.5476       519.2666       521.0917       527.9214       520.2258
       546.7917       541.6350       531.5564       562.0105       566.8185
       545.9088       579.6003       571.8225       558.5756       584.3933
       583.9852       560.7294       586.2681       585.6282       583.1257
       581.8113       580.9626       591.9756       583.7234       582.4812
       591.5452       579.8059       595.5151       580.9526       576.1677
       589.2734       578.6804       570.7754       580.6392       574.7031
       563.3527       575.2217       572.4895       550.9990       575.2395
       562.1016       559.0039       551.0983       563.6260       548.7468
       537.7305       545.7195       541.6794       539.9490       525.1796
       519.0718       526.7528       508.1663       517.3732       499.3250
       489.7241       497.4961       477.9956       457.8752       501.4930
       446.6228       423.4918       491.2847       413.1165       401.1055
       461.8823       364.8479       385.3474       404.3215       343.8434
       341.9023       341.5488       312.8745       288.8065       294.3521
       267.2509       239.5691       225.2010       197.0504       197.3498
       144.4914       140.9169       109.1265       76.14874       61.42818
       47.90575      -7.481743      -25.05222      -30.95123      -94.16589
      -101.2681      -130.8773      -174.3232      -186.8752      -237.3518
      -248.1729      -301.0748      -316.6094      -329.0868      -383.4552
      -397.2278      -417.7809      -464.4094      -491.7552      -512.4180
      -535.6475      -575.6466      -586.5430      -624.6589      -647.6335
      -665.0293      -688.1775      -725.5044      -738.5125      -757.2263
      -788.3413      -797.0520      -828.6914      -848.4641      -833.2576
      -893.4268      -895.7026      -892.5220      -931.7390      -937.2129
      -943.3711      -973.2947      -975.3804      -986.8735      -1004.542
      -1009.574      -1004.864      -1029.716      -1038.006      -1038.680
      -1043.507      -1053.272      -1053.430      -1062.813      -1060.876
      -1058.183      -1058.906      -1071.996      -1047.812      -1050.648
      -1058.974      -1040.473      -1031.796      -1034.894      -1019.501
      -1007.994      -1011.233      -986.8062      -974.4092      -972.2593
      -943.5620      -941.9619      -925.2515      -909.6436      -890.7766
      -877.1021      -868.1667      -851.5400      -819.1765      -814.0112
      -787.5981      -767.2234      -754.7517      -728.7983      -705.0129
      -693.9438      -657.3582      -658.9697      -623.2648      -588.3818
      -582.7585      -564.5612      -528.8252      -511.1404      -481.1978
      -469.7180      -451.2402      -398.2417      -383.4026      -388.7235
      -331.7007      -320.3677      -305.8800      -258.6658      -232.4080
      -233.3143      -191.5707      -159.9935      -140.0233      -120.6143
      -82.65805      -61.73839      -34.46451       9.368011       24.02844
       41.38196       94.34338       107.6185       127.4136       175.3698
       188.7152       207.3954       257.2477       263.0557       287.6051
       334.1700       338.1687       375.4214       402.7061       413.7217
       451.7589       470.6464       488.0254       509.2966       533.4835
       563.8757       560.9098       591.6157       614.5598       616.9181
       646.1067       664.6267       676.4314       691.8574       712.1011
       719.0518       734.1816       753.0659       746.7744       779.1543
       766.1094       768.4563       795.1807       783.7026       798.7336
       805.4629       802.5117       819.5674       806.1914       805.1467
       814.2820       810.3428       794.2307       798.9197       806.0767
       782.5066       775.1265       778.9075       767.2947       758.3496
       736.1067       735.1265       730.8938       706.0649       696.7134
       688.9534       667.0846       658.8096       634.4678       625.4911
       619.1292       588.4901       577.9242       575.1045       542.6696
       535.2769       532.9111       506.5139       489.0635       481.3159
       459.7594       454.2290       436.4780       422.5582       412.7469
       385.3160       374.6667       370.8583       344.4431       338.9268
       325.6208       302.3127       290.5413       286.0306       259.2288
       241.2249       243.9335       221.7430       202.0223       199.7017
       175.8805       157.6884       145.9318       134.5563       114.5765
       94.15582       91.17079       75.89334       42.72641       41.40760
       37.10993       3.176918      -2.030746      -3.112762      -38.76944
      -43.87317      -51.70084      -79.99573      -98.24451      -96.68604
      -114.7877      -135.5583      -138.1179      -148.7880      -159.9143
      -167.9338      -181.4619      -183.5154      -198.7937      -207.8009
      -219.3021      -221.3943      -231.7604      -244.5364      -251.8779
      -257.0959      -258.2920      -279.1423      -274.9266      -276.3864
      -291.9389      -292.0544      -290.7284      -298.6512      -319.6921
      -302.0176      -303.1625      -311.2694      -312.2622      -305.1177
      -312.0912      -313.6915      -306.4032      -310.7028      -304.5555
      -305.2544      -304.7908      -302.0156      -307.9910      -296.6108
      -291.0306      -292.6569      -291.0603      -268.1525      -279.4308
      -272.9946      -262.1335      -265.7095      -254.6938      -260.5934
      -256.8231      -228.8414      -237.0470      -226.9464      -216.0790
      -227.4368      -211.0915      -186.4275      -215.4385      -189.8588
      -176.2274      -180.2794      -167.0517      -160.8531      -165.2675
      -149.9791      -132.5355      -137.6856      -120.9518      -112.2615
      -109.5944      -90.81995      -96.05624      -73.03650      -59.78624
      -62.28997      -48.39624      -30.32213      -26.78919      -8.208817
      -11.01396       2.634285       24.37398       30.35117       42.22252
       49.51328       61.55692       78.73187       88.39221       94.69827
       107.1663       118.0383       123.8257       139.3014       146.7610
       162.8318       159.5694       166.5200       184.4177       181.7102
       181.2404       199.0467       205.9843       206.2852       205.1953
       217.8518       208.2083       213.9405       220.1943       212.4510
       222.0556       214.5878       217.4244       222.0774       215.1277
       207.7322       208.8063       212.9013       203.3680       193.1547
       187.0311       188.2336       180.7694       171.1627       170.5593
       160.1113       146.5837       153.7760       134.3111       134.9241
       122.9313       110.5133       118.0025       96.56091       106.2548
       94.68503       91.05243       143.1265       156.9035       111.1593
       44.61539       105.6570       136.4378       41.01636       267.5167
       152.8158      -454.2689      -131.6936       304.3134       41.09337
      -32.53964      -131.9216       61.26257       390.6783      -206.6953
      -419.1719       497.2291       538.2253      -462.1053      -479.4866
       474.2202       516.2554      -304.5398      -407.8461       76.77808
       224.7570       137.2404      -119.0087      -155.6796       183.1709
      -94.81281      -397.7546       238.3806       450.4528      -134.5450
      -250.1833       13.71385       94.56268       39.79465      -83.23776
      -53.66442       1.247528       102.5141      -129.9341      -198.8906
       268.0313       82.52747      -371.9631      -222.7342       215.5233
