     0.02500000      -904.5781       1014.307      -12345.00      -12345.00
      -29.99505       227.3799      -28.07000      -12345.00      -12345.00
       0.000000       20.96000      -12345.00      -12345.00      -12345.00
      -12345.00      -12345.00      -12345.00      -12345.00      -12345.00
      -12345.00      -12345.00      -12345.00      -12345.00      -12345.00
      -12345.00      -12345.00      -12345.00      -12345.00      -12345.00
      -12345.00      -30.81820      -66.60730       966.0000       0.000000
      -31.06700      -68.46300       0.000000       100400.0       0.000000
      -12345.00      -12345.00      -12345.00      -12345.00      -12345.00
      -12345.00      -12345.00      -12345.00      -12345.00      -12345.00
       179.4640       81.63408       260.6846       1.613568      -12345.00
      -12345.00      0.1419765       0.000000       90.00000      -12345.00
      -12345.00      -12345.00      -12345.00      -12345.00      -12345.00
      -12345.00      -12345.00      -12345.00      -12345.00      -12345.00
      2008       164        19         4         5
       870         6    -12345    -12345     10296
    -12345    -12345    -12345    -12345    -12345
         1         7        13    -12345    -12345
    -12345    -12345    -12345    -12345    -12345
    -12345    -12345    -12345    -12345    -12345
    -12345    -12345    -12345    -12345    -12345
         1         1         1         1         1
MALA    -12345          
        -12345  -12345  
-12345  -12345  -12345  
-12345  -12345  -12345  
-12345  -12345  -12345  
-12345  -12345  -12345  
-12345  -12345  BHN     
ZL      -12345  -12345  
[...]
      -359.7151      -2.653137       438.6152      -23.56433      -498.2791
      -29.66595       408.6348       52.39691      -338.7802      -84.60773
       325.7040      -64.90094      -208.9060       245.8948       32.13678
      -266.8703      -2.804611       65.21558      -227.4869       19.59988
       214.2414      -86.79822       1.094147      -140.5835      -136.0360
       257.4461       47.45709      -261.3547      -36.24776       41.75378
      -154.3762      -275.6021       36.07147       189.5224      -115.6787
       12.02780       57.43921      -281.0479      -257.6587       141.6147
       131.5903      -138.8963      -173.4487      -59.19659       171.0464
      -77.68414      -252.7151      -11.68292      -170.9054       2.352768
       11.37048      -83.61612       109.2092      -162.2457      -145.0356
       130.8826       150.9164      -112.8703      -77.95341       119.7756
      -65.91396      -21.52306       6.319275       52.33287       89.43781
      -140.6864       142.3966       242.9030      -180.7806       103.8107
       259.6334      -125.7743       91.55145       221.5866      -23.76352
       35.66724       120.2483       223.1307       16.55968      -157.3300
       79.69855       169.3655       258.4924       92.99447      -26.35675
       148.1898       136.1685       86.40491       105.5143       71.40976
       118.5522       156.1243       52.64796       19.29185       24.45673
       201.4839       164.2177      -88.28070       110.4662       176.6389
       126.7568       188.0139       99.59785       41.44727      -3.515869
       171.2026       179.0605       5.641907       104.3411       138.7641
       135.2568       44.45311      -112.1282       138.7620       214.2681
       28.08748       74.24429       69.47256       81.28783       65.16301
       31.52402       51.64684      -57.63876       48.95168       20.48245
      -45.49698       188.3395       80.22691      -137.8092       72.71881
       156.9907      -102.6133      -56.76801       130.5275       14.13863
      -119.8903       19.88725       72.53271      -73.06612      -75.59968
     -0.6388245      -29.26429      -58.80035       146.7365      -47.15573
      -212.6333       49.03357      -201.7070      -173.6704       143.7667
      -35.93964      -100.3456      -69.58911      -62.85730      -103.5237
      -163.2805      -110.6899      -138.0454      -22.77405      -69.98547
      -219.9724      -12.79353      -54.12863      -103.5974      -123.4077
      -243.8269      -61.45599      -48.90936      -161.0334      -74.75183
      -143.6492      -166.3447      -42.12805      -121.4086      -279.0938
      -71.95417       27.74292      -120.1603      -146.7857      -181.8791
      -160.4680      -116.4485      -104.9808       21.67908      -147.8182
      -256.5919       45.02866      -103.7263      -183.4185       43.19147
      -252.8191      -210.3688       80.87802      -110.4033      -60.99823
       78.05405      -130.6420      -166.0249       57.85631       96.71753
      -124.7268      -18.52911       8.848724      -236.5344       19.18414
       173.0094      -87.30961      -30.61411       14.72510       14.81110
       125.7418       121.1596       31.00541      -55.24252       42.12311
       148.9644       136.6514       177.6917       52.47017       5.116516
       158.3983       216.2457       191.1714       154.4584       107.5884
       137.8687       294.4323       239.4069       184.4916       161.7202
       239.3991       335.8274       49.90784       246.2465       356.4254
       118.0125       320.3771       312.4637       177.0452       322.9534
       265.5789       260.8158       372.1036       309.0289       242.2665
       245.8447       247.7100       215.2558       233.4116       334.3090
       361.8140       229.1477       235.1306       268.8279       210.3573
       371.8117       199.4252       134.5517       357.6202       227.6349
       179.4087       195.6089       155.2456       224.2327       220.7288
       198.9968       156.6167       22.18011       79.75415       263.5717
       233.7294       78.08206       37.46118       195.7165       112.0354
      -77.31934       30.44174       80.97571       73.34933       138.2791
       93.76151      -110.6928      -101.6715       169.4449      -51.78899
      -74.94934       295.1755      -64.00420      -135.4348       179.7971
      -150.7347      -30.94836       152.8010      -138.7336      -56.52711
       102.1015       45.50233      -64.10524       12.01010      -44.85193
      -98.84204       28.69571       52.68073       168.8841      -120.5015
      -198.5875       89.24390       6.226326      -57.67967       63.13110
       23.77502      -176.4283      -4.940712       35.39212      -175.5388
       12.96072       36.55876      -106.4232      -8.104095       24.59720
      -111.7129      -141.1273      -11.86507      -20.31989      -102.2813
      -90.81525      -86.53421      -132.1675      -158.4991       5.450104
      -69.59488      -211.5178      -24.31445      -111.1347      -232.8090
      -40.00647      -147.6655      -274.1728      -145.0241      -206.2743
      -67.33423      -118.1341      -390.8322      -160.3745      -128.0511
      -283.8249      -150.9341      -233.9690      -397.9330      -245.4730
      -181.4304      -318.5217      -294.4000      -267.9321      -315.1459
      -262.2906      -383.4971      -444.1013      -97.12976      -258.9233
      -462.8620      -288.6544      -319.2019      -353.7946      -395.4076
      -278.6158      -343.0348      -402.4014      -250.3643      -387.0038
      -344.1842      -376.1219      -408.8983      -199.0239      -336.6536
      -390.9944      -320.8206      -366.7931      -259.9990      -317.7349
      -340.5801      -239.1996      -352.5923      -284.5134      -317.3851
      -312.0868      -134.9822      -384.4658      -309.5386      -145.4761
      -269.6681      -261.9365      -227.8461      -109.8489      -241.0087
      -383.8990      -166.0875      -146.9022      -249.5077      -195.5901
      -69.35602      -207.5045      -263.6340      -51.65375      -204.8412
      -207.4239      -46.47327      -30.56000      -122.2521      -237.9372
      -42.18419      -27.22781      -178.1548      -107.0730       6.232819
       2.366669      -131.8787      -6.144501       80.23206      -96.94991
       25.99112       54.69185      -21.99670       123.2767       109.6324
       1.740601       91.30261       185.2882       62.19238       94.13583
       171.9795       108.3158       161.5269       156.2258       156.8121
       290.1550       154.7465       138.9402       346.5837       244.9851
       224.4560       303.9457       177.4257       316.7355       429.9053
       246.4156       306.7778       314.3829       266.5347       440.3182
       354.4523       248.6631       342.8372       459.3365       362.0830
       299.5040       440.9056       314.4507       339.2655       497.8471
       248.8947       336.8018       521.6646       251.7795       387.2648
       483.2334       296.3075       344.1025       333.5734       310.7739
       294.9343       438.8230       435.2323       191.1616       381.2141
       374.6418       256.2756       331.2369       236.4934       336.0156
       393.9321       181.6790       227.8785       381.8329       289.9729
       146.8643       233.8898       404.3493       189.3563       90.75452
       391.2499       245.3889       69.05615       294.3110       261.5020
       138.7667       195.5825       201.0349       182.6696       159.0037
       256.9678       189.9771       107.0420       233.0118       170.8948
       103.3298       200.9019       152.3655       118.2181       204.9987
       129.5692       69.02081       206.0793       221.7506       146.9575
       34.27026       91.55237       202.7303       62.82581       67.10431
       149.9955       43.41107       91.81470       152.0985       8.771484
       16.69217       128.5308       89.60147       17.72211       52.20786
       86.41847      -24.76233       22.59398       111.4023      -5.977493
       30.25389       69.03104       31.87516      -2.753494      -72.35152
       29.96042      -27.57600      -22.08720       62.74908      -71.35568
       70.60249       115.1581      -167.0395      -108.9518       36.78249
      -34.66162      -54.33646      -96.00180      -133.4973      -29.74272
       28.44574      -171.0308      -166.8837       84.66881      -5.517212
      -222.3555      -170.0250      -13.91724      -179.1828      -205.4459
       45.72235      -113.1512      -232.0146      -94.19946      -141.9529
      -225.5620      -152.3317      -113.4479      -206.2484      -130.0052
      -107.9470      -211.4274      -236.8107      -199.8583      -204.4675
      -248.1022      -215.1737      -163.2466      -138.7471      -315.3201
      -351.8513      -153.8024      -257.2133      -287.9644      -213.1453
      -306.7675      -310.6749      -207.1836      -222.1464      -309.1777
      -206.8434      -284.0344      -337.9594      -176.6332      -291.8089
      -284.0073      -221.0861      -296.5178      -227.0643      -207.3022
      -307.4058      -257.4355      -150.3610      -279.4553      -261.3705
      -218.8337      -322.4412      -110.5554      -192.9773      -320.2026
      -86.83862      -243.7000      -312.2170      -170.2878      -196.0813
      -134.3514      -269.8201      -273.0392      -54.86963      -217.5152
      -249.3929      -161.8550      -203.4465      -146.4537      -201.4943
      -202.5923      -187.1629      -160.2971      -147.5541      -207.7525
      -156.4729      -142.3108      -137.4247      -141.3454      -105.0238
      -146.3721      -248.2924      -94.91757      -91.94373      -235.1022
      -148.0666      -39.43341      -166.2596      -233.2136      -31.03778
      -45.57556      -189.4378      -52.33609      -43.73895      -178.2642
      -82.61136      -48.92975      -151.6860      -149.9177      -56.10069
       15.17017      -129.7475      -130.1887       39.20563      -75.09503
      -139.7783      -66.59152      -119.3905       50.33505       9.917603
      -202.4588      -10.36053       22.14372      -70.06381       6.772919
       10.05310      -124.3080      -31.34576       139.8491      -97.34215
      -149.4449       130.6908       75.13481      -70.76598      -28.74500
      -30.41167       30.57655       98.00442       32.48061       1.915398
      -5.092098      -42.94077       24.25137       141.5163      -63.35973
      -150.3736       144.5995       118.2004      -35.99014       51.17346
       46.13147      0.7866364       41.77606       73.00188      -7.628204
      -6.371033       115.4932      -26.48208      -49.95480       134.9005
       8.779625      -25.48373       101.8692       42.69889      -23.06343
       47.74556       72.17494       30.23088       36.15543      -17.21036
      -35.06500       55.09854       101.1374       1.718124      -52.78119
       56.24380       79.48796      -10.44614      -14.29340       91.58900
       61.48612      -23.09041      -3.594635      -2.471313       75.76828
       19.70781      -93.05957       118.4780       91.58986      -119.3032
       25.87238       70.98480      -2.097183       49.04878       7.653366
      -22.27973      -42.47894       43.45029       136.2684      -7.630463
      -114.7392      -28.14061       91.96120       45.03159      -12.53160
      -35.92725      -100.9923       51.22345       111.5741      -117.2903
      -7.856529       86.98177      -89.67807       44.42657       112.6671
      -55.53047      -45.23436       69.99860       99.07120      -4.726631
      -39.65382       44.89801       85.31056       111.7486       2.467957
      -50.23410       78.68121       124.1062       110.6848       81.66901
       25.58618       94.49213       164.2805       25.70309       66.99518
       242.3137       71.83752       78.51465       172.5702       77.84668
       200.5956       86.34430       21.27118       275.8458       149.5279
       108.4972       237.6200       177.6244       223.8727       99.80786
       111.8192       287.3386       121.8810       55.57523       91.27130
       203.4991       228.4461       11.44829       27.05267       108.8810
       130.2034       28.17363      -63.83655       152.5901       320.3083
       471.3479       478.9214       129.6088       19.44967      -8.859863
       14.79370       671.0100       964.2382       231.4870      -113.6937
       317.4668       493.5344       463.7795       494.8126       423.6964
       318.3638       54.96118      -778.6235      -709.8825       117.5413
       366.0532       775.1780       442.9784      -74.13037       634.5718
       1014.307       346.1463      -245.6447       120.2349       682.2368
       130.4264      -565.6163      -180.0344       99.97302       486.5564
       549.3999       129.5156       644.3838       461.2074      -507.8065
       100.5901       644.7482      -311.9903      -94.60425       439.3826
      -415.9718      -113.0801       546.1890       158.9321       354.9387
       797.0698       214.6493      -572.2913      -107.1824       424.9362
       194.3091      -122.2670      -608.1584       187.4606       911.9835
      -76.19189      -303.6326       56.82495       230.9930       317.6375
      -27.48657      -358.9016      -240.2526       411.1418      -19.99570
      -228.3959       509.8998       198.1873      -54.21190       32.97954
       40.97510      -178.5668      -265.7471      -26.60739      -283.3684
       106.9100       240.7262      -262.1682       14.26588       57.11292
      -185.8726      -342.4876      -225.3028       83.36678      -20.50024
      -63.54944      -185.3256      -283.6534      -155.4223       40.04993
       61.01199      -120.3767      -211.4199      -377.0514      -335.0464
       122.1982       111.4575      -496.0970      -393.5163       50.61798
      -294.8680      -370.6370      -187.1809      -135.8355      -8.159607
      -160.5453      -251.5062      -58.46555       20.86133      -356.5299
      -391.2083      -29.82483      -270.6587      -502.7978      -122.4599
      -24.64227      -238.4730      -308.6390      -175.4783       204.8557
      -185.0364      -372.3051       98.24390      -161.5030      -299.5955
      -182.5957      -362.0923      -201.9268      -96.60205      -307.9331
      -456.7849       73.40253       334.2866      -549.1833      -321.3252
       370.8099      -237.3640      -333.2511      -158.9450      -345.6744
       45.89001      -164.2607      -480.1533      -94.41364      -293.5513
       21.12341       50.46149      -475.0987      -33.60828      -225.8086
      -154.3984       478.7720      -318.7551      -749.1199      -137.5123
       18.40137      -123.3896      -290.4465      -291.1995      -242.7147
      -182.1977      -141.1813      -148.5254       12.99323      -98.81622
      -101.3289      -57.99200      -171.3266       10.57922      -28.11115
      -369.7614      -277.3357       38.00488      -345.4666      -367.9854
      -21.44531      -450.0641      -18.59186       458.7444      -457.5045
      -407.3127       226.8735      -64.22491      -213.2791      -201.7448
      -130.3635      -104.8177      -140.6435      -50.54156      -81.43533
      -64.63934      -177.0639      -112.8382       198.0036      -131.3738
      -46.54950       114.5555      -435.8589      -221.9097       144.3279
      -148.7800      -99.09023       30.48012      -98.65740      -54.00067
       135.8647       70.14621      -151.7587       61.81522       235.0221
      -18.40280      -81.72754       5.255138      -26.81201       13.55304
       248.6790       97.97729      -374.9009      -55.65887       417.6429
       125.9343       147.4218       255.1706       1.465881      -200.6142
      -49.12006       367.2422       236.9544       32.04828       132.7883
       7.508759       96.26361       188.4439       92.77368       207.5074
       156.0208       122.8311       156.0154       202.5961       403.7773
       322.6740       26.40796       226.4894       550.7419       65.62070
      -59.27429       604.1425       303.7178       37.15686       364.3478
       262.5203       261.5190       183.0596       363.9103       701.1362
       456.0012       316.5671       408.9389       179.2847       257.0516
       630.2776       392.0442       330.7480       587.1954       347.4858
       357.6760       385.7007       388.8687       593.7639       282.6274
       416.0331       731.6088       394.4060       343.9932       445.5848
       488.3572       420.8542       329.2642       565.6011       541.4788
       484.7477       622.3615       388.9587       280.9962       290.2622
       509.8777       758.5395       155.5642       220.0620       626.7084
       245.2692       270.6694       375.5021       425.2111       446.8333
       159.5944       303.6886       414.3549       319.3311       375.1629
       215.7797       237.9647       299.6311       194.8204       237.2427
       223.9457       203.2572       264.5450       244.7587       147.7792
       45.07434       27.33685       245.1121       161.7518       152.0248
       395.2778       27.26669      -43.00122       136.5968       51.30576
       130.4084      -28.31854       26.29694       220.5066      -22.23865
      -209.1845      -177.5137       84.18321       94.19977      -61.92255
      -169.0988      -243.2084       132.7337      -42.79089      -287.2102
      -56.92773      -134.9948      -369.7141      -341.1033      -37.82697
      -263.3424      -378.9680      -72.21790      -408.8582      -560.1296
      -96.25159      -116.4802      -479.7510      -562.5464      -374.4147
      -301.1167      -419.8469      -362.7363      -572.2139      -571.6140
      -259.3824      -481.6077      -481.4333      -329.5123      -548.2161
      -447.5020      -517.3750      -717.7164      -314.4673      -312.4131
      -678.5703      -624.0521      -593.1083      -468.7014      -461.9016
      -605.1797      -479.0388      -536.4376      -459.6202      -439.5438
      -735.8719      -539.0985      -459.4397      -650.6531      -470.6766
      -508.9724      -659.0007      -345.0060      -319.8447      -669.3853
