     0.02500000      -2379.292       2209.652      -12345.00      -12345.00
      -29.99999       217.1000      -18.10000      -12345.00      -12345.00
       0.000000       13.56000      -12345.00      -12345.00      -12345.00
      -12345.00      -12345.00      -12345.00      -12345.00      -12345.00
      -12345.00      -12345.00      -12345.00      -12345.00      -12345.00
      -12345.00      -12345.00      -12345.00      -12345.00      -12345.00
      -12345.00      -31.57700      -67.87020       833.0000       0.000000
      -31.06700      -68.46300       0.000000       100400.0       0.000000
      -12345.00      -12345.00      -12345.00      -12345.00      -12345.00
      -12345.00      -12345.00      -12345.00      -12345.00      -12345.00
       79.88167       135.2151       314.9085      0.7182319      -12345.00
      -12345.00      0.2706807       0.000000       0.000000      -12345.00
      -12345.00      -12345.00      -12345.00      -12345.00      -12345.00
      -12345.00      -12345.00      -12345.00      -12345.00      -12345.00
      2008       164        19         3        55
       900         6    -12345    -12345      9885
    -12345    -12345    -12345    -12345    -12345
         1         7        13    -12345    -12345
    -12345    -12345    -12345    -12345    -12345
    -12345    -12345    -12345    -12345    -12345
    -12345    -12345    -12345    -12345    -12345
         1         1         1         1         1
NIKI    -12345          
        -12345  -12345  
-12345  -12345  -12345  
-12345  -12345  -12345  
-12345  -12345  -12345  
-12345  -12345  -12345  
-12345  -12345  BHZ     
ZL      -12345  -12345  
[...]
      -698.2578      -690.5325      -689.2866      -683.1387      -681.1324
      -674.5762      -672.0360      -660.0881      -652.1160      -641.0240
      -637.2642      -625.7391      -620.0400      -606.9235      -596.6345
      -585.4709      -578.7697      -562.2253      -550.7563      -536.3297
      -524.1216      -507.8859      -498.8046      -481.8402      -468.0521
      -450.0396      -436.6112      -420.0518      -406.5098      -386.5482
      -372.7866      -353.4685      -338.6698      -321.9861      -311.0253
      -291.9498      -275.8305      -257.0199      -240.8230      -218.7133
      -205.3745      -187.7556      -173.4270      -157.2004      -144.9387
      -125.7695      -111.0722      -96.03810      -85.29530      -69.91504
      -57.71339      -42.51910      -32.84190      -21.17245      -13.06089
       2.940655       11.06001       21.15381       29.41962       40.04427
       46.67685       60.12257       68.59569       75.39647       81.41364
       90.70102       99.03125       109.0898       117.6769       129.9930
       142.3844       153.0909       161.5570       173.9122       185.7825
       196.9174       203.7042       215.4832       224.0451       234.1848
       245.2527       258.4851       268.0477       277.9301       288.8486
       304.2465       312.4620       321.7071       331.6292       342.9277
       347.1606       359.6047       368.7042       377.9308       382.0065
       393.7017       397.7010       407.0809       411.4280       422.4807
       426.6917       431.5186       433.3529       443.6561       444.9608
       453.6367       454.0271       459.3408       458.8145       464.8704
       465.4554       467.5045       465.2515       467.0994       462.4424
       461.4987       455.5452       449.4390       443.6417       439.5990
       433.1135       424.5248       412.6958       404.8284       398.1256
       388.3225       375.7828       362.4849       348.9070       337.2294
       324.1846       309.8804       297.2572       285.0537       269.7493
       255.9822       242.0261       228.4684       212.2219       198.0300
       186.3715       174.0815       158.5117       144.4904       130.5099
       118.5478       106.5941       95.34164       84.93079       72.49147
       60.65295       53.94209       43.99193       30.14545       17.44597
       8.552641     -0.2047729      -8.927372      -17.71693      -26.94695
      -34.29523      -38.46358      -46.13223      -52.30342      -55.89784
      -58.84488      -62.66016      -67.29849      -70.52426      -74.10745
      -77.13779      -80.61435      -82.21593      -83.97955      -82.17191
      -81.56833      -80.96930      -80.04288      -76.60123      -75.85095
      -75.48816      -75.98492      -73.98067      -73.21486      -70.98228
      -70.38373      -68.23514      -65.05684      -59.55151      -57.58206
      -52.78206      -49.12094      -46.21535      -41.07841      -37.58931
      -34.45380      -29.59798      -23.67168      -18.58351      -12.61602
      -7.902154      -4.852007       2.446842       8.890598       12.94659
       16.04342       25.74983       29.81331       35.40442       37.63550
       43.82539       45.21404       50.97069       54.66353       60.40695
       63.21298       69.56961       69.74016       74.72632       74.49960
       78.19666       76.30795       82.13309       82.51062       87.00998
       84.25110       87.10864       85.06689       90.35696       86.44757
       87.53061       83.68095       86.34554       81.85683       82.05762
       77.19080       75.56909       70.24316       70.39038       64.17188
       62.64035       54.14676       50.77754       44.62553       40.86574
       30.50910       24.89485       16.64879       13.75410       1.268402
      -8.405338      -18.33896      -21.92801      -34.67125      -40.74304
      -51.43999      -57.98718      -69.74109      -77.45444      -88.74396
      -96.09058      -109.4334      -115.7521      -127.4609      -131.9258
      -143.0835      -148.1481      -159.9384      -166.7808      -177.2856
      -180.7681      -194.9002      -201.1539      -208.6450      -213.9697
      -226.9800      -232.4447      -242.0585      -246.5571      -257.5432
      -262.0685      -273.1610      -277.4612      -287.1614      -291.7520
      -302.9274      -307.0254      -317.6971      -326.1002      -337.4994
      -342.3816      -353.1760      -360.1279      -374.3723      -381.5989
      -390.2334      -396.8507      -411.1276      -417.2557      -425.4603
      -430.9285      -441.5383      -443.5393      -450.5454      -455.1244
      -461.8691      -462.0542      -467.2126      -469.4989      -475.3618
      -474.8223      -479.3517      -480.2036      -483.0630      -478.6873
      -477.9728      -476.5857      -476.4646      -471.0916      -469.0701
      -464.0596      -461.6919      -454.9739      -451.4688      -444.2577
      -439.4275      -432.3190      -426.9022      -415.0068      -405.3824
      -393.5171      -383.2769      -368.6639      -358.4643      -343.0115
      -328.7494      -311.6001      -298.8436      -281.6339      -266.6227
      -247.0358      -231.6898      -209.6808      -194.7736      -176.9199
      -158.8836      -136.1841      -121.4562      -101.2093      -89.35745
      -67.60513      -52.83615      -33.70786      -21.20421       2.205711
       15.95088       36.58778       48.63232       66.02292       75.61920
       94.82263       106.5811       123.4084       135.1799       151.2615
       159.3304       173.1471       180.4944       193.5774       199.8272
       213.4624       219.5815       232.3096       242.0181       250.0535
       253.6870       269.6444       277.1523       286.0509       290.1155
       301.5546       306.2915       314.4981       320.7610       333.5957
       336.9800       346.0750       353.4783       366.5266       372.3528
       378.1722       382.4199       392.8585       398.2777       409.5746
       412.9617       422.4828       428.3793       437.4543       439.0540
       449.0359       454.0726       461.2283       465.7480       474.3743
       475.2017       482.7212       485.5577       490.7908       491.8805
       496.7832       496.9614       501.4061       499.8811       503.4626
       503.0021       506.5974       504.7327       509.9363       507.8462
       509.4966       505.4772       511.5038       507.8978       510.7576
       509.5354       513.8574       511.4762       515.3899       511.4491
       512.3446       509.2007       511.9058       508.2119       512.5134
       508.8276       508.7061       505.9500       505.0183       500.9092
       503.4266       499.0795       497.4891       493.1267       490.8425
       482.4788       480.3762       474.5000       471.0878       463.5007
       458.3666       449.6191       444.2385       435.3660       428.4851
       417.8401       409.6556       399.0370       391.9150       382.0526
       373.5962       357.8639       349.3475       339.7435       329.8136
       315.7431       305.7755       293.5371       284.5254       272.9307
       262.5289       247.4352       236.9776       222.1986       208.7653
       195.7601       182.6319       170.2256       155.0865       138.6914
       125.4371       112.5815       99.03302       83.80840       70.53203
       59.87674       43.31055       29.12626       14.68899      0.9081879
      -17.38123      -33.45717      -48.84537      -62.06816      -77.45795
      -93.16684      -110.2042      -125.5574      -146.0191      -162.8154
      -178.6564      -197.0546      -215.1246      -231.3539      -249.1349
      -267.1309      -282.9520      -300.1987      -319.1453      -335.1263
      -347.4990      -363.9773      -378.0374      -391.2251      -404.9340
      -419.1711      -432.4309      -447.3693      -457.2108      -468.6707
      -481.3682      -493.6541      -500.3049      -508.4203      -514.8955
      -521.3633      -526.4879      -532.8824      -534.1199      -535.2222
      -538.5254      -542.9365      -542.1595      -543.4131      -542.5571
      -542.5619      -539.3806      -538.9222      -536.2847      -530.7886
      -523.2672      -520.0278      -514.4948      -510.6970      -503.5869
      -498.7793      -490.7321      -485.4749      -480.0765      -471.9131
      -462.3612      -456.2332      -445.9335      -435.0714      -427.0514
      -417.3829      -409.0173      -399.1279      -388.7476      -379.0394
      -370.8260      -358.4927      -350.4475      -341.0002      -332.5596
      -318.2391      -309.5479      -298.6472      -290.4388      -281.4535
      -276.9705      -266.6945      -259.1797      -247.0376      -240.2036
      -231.0681      -222.9246      -208.7874      -204.3252      -198.3566
      -192.2915      -179.7151      -169.7563      -160.8715      -154.3580
      -144.3743      -135.9796      -126.3449      -117.5728      -106.4264
      -96.19501      -84.79033      -74.95700      -64.80243      -52.72224
      -40.57827      -31.09856      -20.01736      -7.865549       3.395638
       15.69601       28.50256       40.63797       52.04880       66.45367
       79.93698       89.84229       101.1000       115.3646       127.9327
       137.1458       147.7462       161.4282       172.7491       180.6430
       190.9425       201.8510       213.2426       223.3064       233.7725
       239.3210       248.2206       256.4283       263.5591       271.6947
       277.3307       281.3132       287.3222       291.5017       296.5286
       301.2582       305.7775       309.6165       313.0340       317.2198
       319.3577       318.5280       320.3184       321.1682       322.8647
       321.5208       322.9791       321.7060       317.1696       314.1399
       314.8224       311.3835       307.9774       306.3037       303.3328
       296.1570       291.8826       287.2904       281.5542       275.5356
       269.5350       263.6147       257.9448       252.8353       243.9964
       238.5063       231.3379       223.0826       215.2203       208.7209
       196.2952       186.3077       177.4653       169.5283       160.5159
       149.8807       137.8664       129.7052       118.4359       108.4128
       97.53772       86.16443       74.56033       65.07579       52.40897
       43.42710       32.67622       23.01081       11.92297       1.691521
      -11.59643      -20.81528      -32.46164      -39.81374      -50.88573
      -60.90981      -73.28232      -82.04617      -92.58472      -100.1899
      -110.8366      -119.7565      -128.6499      -134.7602      -142.1677
      -150.1522      -158.6986      -166.5742      -176.1848      -182.0558
      -182.8544      -190.7502      -204.1739      -210.7773      -216.5332
      -212.2406      -213.2078      -231.5624      -237.5430      -225.4042
      -228.6025      -260.5314      -264.8276      -237.5576      -246.2233
      -264.3436      -272.0098      -261.4061      -255.7267      -259.4478
      -278.9833      -286.3118      -272.5302      -276.0159      -288.2214
      -276.7229      -277.8268      -276.6316      -280.1284      -289.4324
      -283.0112      -268.8213      -279.4807      -279.0211      -281.2230
      -283.2220      -267.8563      -254.3596      -271.4333      -272.4542
      -256.4623      -253.4138      -263.8992      -250.1354      -242.2135
      -239.2965      -229.9563      -232.2275      -232.4946      -219.1042
      -205.0098      -202.1630      -200.2017      -187.4656      -179.9635
      -175.5698      -162.0203      -151.7016      -140.4510      -130.9117
      -118.3329      -111.2109      -97.76907      -80.69022      -70.58398
      -60.99595      -44.71107      -33.33946      -16.23030      -4.506157
       12.59613       25.88638       34.45251       55.90999       65.56599
       70.46176       96.45139       105.3102       118.3323       141.5656
       154.6412       157.7314       177.6044       189.5773       195.5704
       214.1220       228.5961       234.9222       248.5402       259.1479
       273.6040       281.0303       291.3159       311.1273       315.3855
       323.2040       340.7056       348.0516       356.3641       360.5455
       371.0330       382.0488       394.5035       396.0299       396.2350
       417.8999       428.3534       414.5266       429.6302       436.8191
       431.1426       442.0627       447.0909       443.1963       447.0864
       446.9175       446.0842       445.5646       441.1802       438.4882
       436.8005       438.1055       435.1080       423.7250       418.8976
       417.2036       405.7001       410.7261       414.6606       365.2822
       752.1909       1286.994       710.0781       1074.811       1609.362
      -1087.897      -2379.292      -1229.235       1020.673       2209.652
      -510.3745      -785.7153       661.5137       415.4883       516.4164
       210.6956      -46.43066       533.7164       339.7491      -122.4630
      -30.87329       99.65881       402.6581      -142.1977      -250.1638
       29.66687      -487.8081      -16.81494       630.3820       102.7826
      -664.2655      -571.7198      -261.5705      -72.80426       174.7300
      -157.7507      -343.4568      -290.3020      -450.8474      -585.1412
      -597.8154      -343.3809      -121.0273      -61.34717      -546.7732
      -817.2500      -430.1387      -398.2561      -500.9844      -593.8251
      -583.4857      -213.7683      -152.1235      -531.8352      -961.1482
      -682.7549      -385.3021      -546.0492      -445.2031      -740.9615
      -756.5532      -444.1084      -501.9319      -507.8799      -404.4685
      -575.5771      -848.3408      -628.1479      -530.3901      -379.2168
      -539.1250      -773.9031      -461.3948      -546.9641      -555.4962
      -255.8579      -456.7776      -746.9073      -532.9769      -452.1100
      -273.4968      -336.9512      -829.3801      -625.9807      -459.8730
      -404.0278      -355.3784      -532.5824      -343.5773      -156.9017
      -326.5793      -488.4351      -511.0967      -333.5117      -74.45544
      -132.1411      -325.3286      -272.1331      -174.7635      -279.8726
      -413.3877      -358.2611      -147.6155      -86.25232      -239.6526
      -206.1960       33.91991       32.28253      -161.3041      -98.33728
      -274.2693      -233.4711       107.9762      -30.91794       157.2491
       2.931213      -277.8653       105.5728      -39.64760      -85.38611
       130.2841      -76.84720       43.32469       114.0720      -181.8328
      -71.92352       72.01978       157.5847       33.87390       32.95892
       209.9670       17.90857       162.9235       212.7044       66.46155
       367.4818       294.6548      -12.57477       163.4162       305.3316
      -44.29492      -15.11328       380.6472       173.0220       62.64062
       304.9340       296.1638       213.0469       177.7308       159.2262
       30.11789       32.59485       348.1768       378.1650       197.5139
       125.5310       189.2155       510.3980       269.6448       13.18152
       355.2161       419.2860       333.6860       205.5519       230.0354
       535.0011       407.9503       292.1809       389.8799       279.1748
       264.9358       463.6908       502.8911       315.4955       452.9766
       408.7783       311.7238       409.3607       414.9250       429.5254
       369.3579       620.3221       639.3765       388.2080       525.4705
       558.1166       469.8676       487.2297       467.4550       436.9705
       570.0156       654.5420       354.3002       253.8286       647.3364
       722.3909       417.2156       507.3870       511.3914       634.5220
       852.6812       330.5615       363.6860       754.8380       605.9915
       500.7217       432.1428       595.1162       570.5081       459.1077
       650.7871       467.5038       364.6727       662.2428       707.1300
       437.1489       418.7998       665.1084       654.6514       391.5127
       353.7965       614.4727       549.8467       452.8485       578.8848
       601.6404       502.4810       403.0621       325.2603       563.1489
       772.7012       382.6934       229.7268       493.3396       576.5825
       614.6597       438.7890       41.16589       252.4724       684.3156
       433.5164       269.8433       423.2986       464.1401       463.6578
       319.4240       239.0743       287.1207       350.7443       416.5643
       111.9371       177.7960       519.5038       289.4521       110.4274
      -10.14096       25.84924       284.4355       251.9247       20.43866
      -7.675110       251.1131       240.4600       120.8975      -183.0323
      -218.0071       424.9700       331.3850      -163.4165      -257.4674
      -159.6863       161.6148       148.6727      -220.7429      -192.0125
       225.7009      -5.504639      -351.7347      -118.0679      -223.8706
      -159.9129       107.4933      -62.68582      -128.4296      -64.72998
      -294.2329      -513.2974      -96.38184      -81.35266      -508.0782
      -228.9092      -61.69226      -325.2457      -285.0858      -406.4977
      -663.4266      -327.3109      -86.91064      -329.9707      -406.2275
      -402.4225      -424.6887      -519.2295      -441.2463      -429.1528
      -696.6921      -532.4680      -318.8949      -681.8696      -648.1985
      -366.7269      -526.4878      -669.5186      -684.0830      -688.4233
      -782.5261      -613.9639      -492.2769      -733.3557      -675.1223
      -606.5295      -773.8594      -823.2275      -870.5237      -687.3904
      -430.9185      -774.9421      -978.6403      -608.7666      -671.0681
      -959.4939      -695.3916      -756.2295      -834.8809      -726.5813
      -806.8698      -582.4028      -530.5483      -901.8335      -984.4506
      -637.4253      -645.1670      -939.7354      -823.9819      -601.1196
      -723.1707      -912.9509      -781.0184      -647.8317      -653.4531
      -685.5649      -881.1462      -772.1273      -626.8662      -794.4873
      -790.2437      -733.5957      -764.8701      -681.6077      -691.6223
      -775.9473      -731.1650      -702.5237      -614.2732      -670.9019
      -693.1589      -632.4673      -628.3586      -609.0161      -660.8374
