     0.02500000      -2802.432       1854.581      -12345.00      -12345.00
      -29.99999       217.1000      -18.10000      -12345.00      -12345.00
       0.000000       13.56000      -12345.00      -12345.00      -12345.00
      -12345.00      -12345.00      -12345.00      -12345.00      -12345.00
      -12345.00      -12345.00      -12345.00      -12345.00      -12345.00
      -12345.00      -12345.00      -12345.00      -12345.00      -12345.00
      -12345.00      -31.57700      -67.87020       833.0000       0.000000
      -31.06700      -68.46300       0.000000       100400.0       0.000000
      -12345.00      -12345.00      -12345.00      -12345.00      -12345.00
      -12345.00      -12345.00      -12345.00      -12345.00      -12345.00
       79.88167       135.2151       314.9085      0.7182319      -12345.00
      -12345.00      0.1051980       0.000000       90.00000      -12345.00
      -12345.00      -12345.00      -12345.00      -12345.00      -12345.00
      -12345.00      -12345.00      -12345.00      -12345.00      -12345.00
      2008       164        19         3        55
       900         6    -12345    -12345      9885
    -12345    -12345    -12345    -12345    -12345
         1         7        13    -12345    -12345
    -12345    -12345    -12345    -12345    -12345
    -12345    -12345    -12345    -12345    -12345
    -12345    -12345    -12345    -12345    -12345
         1         1         1         1         1
NIKI    -12345          
        -12345  -12345  
-12345  -12345  -12345  
-12345  -12345  -12345  
-12345  -12345  -12345  
-12345  -12345  -12345  
-12345  -12345  BHN     
ZL      -12345  -12345  
[...]
      -487.9431      -480.4619      -469.9646      -461.9708      -451.3706
      -442.4124      -432.6875      -424.0029      -414.2662      -405.0020
      -394.5127      -384.3302      -370.8169      -360.1787      -348.0900
      -335.2358      -323.5593      -312.2231      -297.0107      -285.5695
      -269.1892      -252.6079      -236.0939      -226.0011      -211.6219
      -198.3500      -183.4217      -173.8110      -157.2520      -145.2691
      -129.1813      -118.3672      -104.7468      -93.05260      -75.91136
      -65.24486      -49.54111      -37.43682      -21.45130      -11.69026
       2.488724       12.99989       25.44324       34.25153       48.11279
       56.82712       73.79132       82.16345       95.58847       107.2241
       122.0969       129.9927       143.7583       153.2111       171.0016
       177.6951       191.2286       201.9955       218.2879       222.4409
       235.2314       244.2990       258.6678       262.7991       278.7846
       285.1691       297.1984       301.8035       315.9269       321.5227
       332.5234       337.2511       349.0813       352.8831       362.6117
       365.0852       375.5977       378.2605       384.6792       386.7622
       392.8475       389.9783       398.6620       399.5881       401.4919
       400.6500       406.5757       400.4680       402.3822       398.1647
       399.6561       396.7362       398.9341       393.7396       395.8024
       392.0070       392.2915       387.4921       387.2007       379.1232
       376.6445       371.1425       366.3767       357.4668       355.2644
       349.4327       345.5785       339.9103       339.5129       336.3535
       332.5248       327.2227       326.1036       322.2920       319.5044
       315.9991       314.6321       309.1807       305.1607       303.5798
       304.7435       303.3658       305.0228       305.9865       304.7308
       303.0243       303.0627       303.3215       302.7731       301.7071
       303.4480       306.2789       306.2378       306.5083       310.0301
       310.5881       308.2773       308.7839       312.5724       310.1489
       312.1095       312.7698       316.1860       317.4882       320.6741
       317.9821       317.1445       312.5074       316.6979       312.9887
       311.1694       307.3290       309.6685       306.3427       310.0348
       304.1241       302.7204       299.1370       304.0023       295.3970
       293.9867       284.1613       283.5201       279.2426       281.0272
       263.8079       263.0621       261.3303       253.6550       230.9385
       236.4167       230.1118       214.3787       199.9491       208.6655
       195.7634       181.8790       170.4728       171.8867       153.7564
       141.0802       127.0324       128.5491       112.0630       102.5251
       87.53552       81.91078       69.50769       59.21657       41.59364
       40.39243       19.89003       5.118776      -2.890648      -15.38263
      -36.40828      -48.97803      -63.18347      -73.03824      -93.26904
      -111.1334      -120.4715      -132.2382      -160.9528      -172.3654
      -178.8698      -204.6632      -232.4539      -235.5750      -250.3361
      -272.5422      -287.3042      -301.8583      -323.6050      -335.4420
      -355.5005      -372.3232      -385.7441      -397.3689      -416.9824
      -431.8107      -446.6442      -461.2421      -476.5024      -490.7526
      -507.3235      -515.7266      -529.7544      -538.9509      -550.3435
      -560.6826      -571.0469      -585.7208      -592.1156      -594.2844
      -608.5909      -615.4623      -619.1732      -628.1375      -635.9852
      -636.7102      -639.8186      -646.6931      -643.8254      -640.0671
      -646.7067      -645.3840      -633.6699      -630.1360      -629.0417
      -618.4019      -615.3564      -614.8130      -603.1277      -590.3262
      -581.8792      -571.3135      -558.8230      -544.1650      -531.5731
      -518.2832      -504.3173      -486.2686      -474.2389      -466.2146
      -442.7112      -419.7345      -410.8861      -391.9517      -364.9675
      -347.2053      -334.4478      -320.4932      -300.4284      -280.9821
      -263.8002      -247.7189      -230.4158      -209.0772      -192.4827
      -176.4802      -156.6986      -136.3178      -126.2180      -91.82373
      -153.0123      -326.6241      -167.5513      -65.76239      -391.1271
       95.34595       865.2269       459.8745      -324.2224      -411.2613
       100.4604       71.62463      -330.5261       569.9370       1323.862
      -55.36719      -877.7188       263.3895       836.3618       76.65009
      -403.7620       166.9797       582.5238       8.348572      -68.93945
       612.1121       374.6115      -22.88721       46.06989       40.87646
       245.2545       264.6376       259.2605       380.8552       356.1559
       314.1121       387.2156       305.7119       11.19769       96.50562
       427.6149       448.2374       291.2733       219.7523       213.5270
       161.2803       333.9730       632.0074       238.2465      -270.7247
       90.00085       528.7527       364.0159       411.9682       493.9945
      -12.02902      -68.44800       289.5157       196.0099       49.71814
       324.3440       524.3726       208.8740      -51.56750       236.8339
       383.6730       179.5469       151.1578       194.6360       343.5708
       481.1802       279.5151       79.12549       168.5270       400.6046
       174.0228      -92.57349       214.1388       260.3321      -56.21857
       106.0256       503.3857       533.5630       288.2472       250.6926
       367.0561       246.8484       122.3591       177.5610       109.9784
       156.3768       316.9800       293.6294       350.9531       385.7151
       246.6267       194.9215       175.3200       207.0259       312.8311
       298.3604       297.6914       394.3049       295.2252       150.8358
       233.3644       328.9023       340.9506       330.6758       283.3452
       272.5452       305.9338       272.7670       168.0438       244.1489
       283.0981       220.1746       286.7635       302.3392       287.8647
       209.1202       142.8156       271.8433       283.8590       282.9590
       354.1677       235.2485       110.0886       224.8479       263.5690
       157.8219       167.8094       202.9055       36.15297      -4.165527
       123.2164       139.3631       76.93460       69.68109       110.1758
       68.69102       56.04601       25.83328       32.12146       173.2828
       144.3080       44.72171       93.18353       208.6906       106.6564
      -114.3515       17.08484       95.11447      -167.6488      -18.00183
       253.7849       61.08347       11.39706       167.1868       53.82327
      -132.9473      -116.5250       119.1609       160.4631      -3.967102
      -20.10448      -2.761353      -36.63347      -63.23581      -38.79230
       108.8123       24.68767      -51.77779       54.06778       4.299782
       2.226578       83.49156       29.30880      -42.89455       16.89509
       15.54413      -139.6809      -20.52966       243.2195       82.52933
      -195.1924      -21.86978       99.87866      -132.5288      -91.08857
       59.62625      -146.7600      -165.2686       56.76752      -64.94040
      -188.0027       8.511139      -14.50763      -201.6066      -91.74701
      -56.35223      -259.4071      -157.5249      -104.4276      -218.7305
      -121.8763      -98.97742      -241.8775      -213.9974      -49.75964
      -113.6366      -258.4677      -182.5897      -249.2025      -335.1349
      -194.2324      -102.6732      -208.8123      -327.9319      -185.5255
      -137.0363      -435.4735      -418.1555      -113.7010      -271.8931
      -594.5723      -372.9012      -135.2893      -259.6758      -402.2399
      -395.7242      -296.5983      -187.4456      -324.9980      -538.4481
      -371.9876      -251.6681      -383.9935      -410.4738      -403.8348
      -342.4626      -278.6427      -479.0714      -580.5258      -313.3445
      -267.0690      -489.7767      -490.3911      -374.1461      -417.1145
      -427.1484      -360.9965      -445.6880      -509.4207      -363.1975
      -435.6804      -560.9960      -441.0570      -480.8165      -480.0027
      -348.0928      -443.9585      -546.3857      -482.3179      -277.3971
      -338.4604      -636.1722      -550.0414      -261.3398      -334.1047
      -536.9602      -421.9406      -336.7627      -545.1453      -437.4969
      -228.7751      -545.8975      -619.0572      -264.3545      -306.5980
      -490.6649      -356.9163      -320.1315      -540.2014      -379.1194
      -53.20227      -161.5027      -424.3499      -355.9584      -187.4301
      -322.1979      -433.8582      -161.3940       8.519043      -311.0952
      -272.4542       94.38135      -222.0454      -351.9192       47.78281
      -49.31873      -339.7926      -113.1830       71.57297      -106.8501
       19.03270       93.50543      -323.1933      -289.4183       116.9004
       154.5842       53.69528       92.26080       239.1226       137.5589
      -122.9320       32.33917       198.3088       158.8717       172.3103
       163.1953       177.9523       246.4469       331.6031       261.4726
      -26.37030       67.19092       416.2803       313.6302       136.7965
       416.0315       527.0425       172.5783       73.45190       341.5802
       338.9525       103.5225       260.0369       611.4318       454.1949
       123.5510       248.3435       423.5926       256.5097       244.9884
       441.9031       454.0392       322.7571       396.6494       390.4330
       253.1729       329.8136       319.5924       291.7407       509.0972
       442.1196       142.6738       212.3412       431.9156       354.5991
       255.5898       342.7183       351.3401       211.0132       251.5369
       372.6776       243.8927       194.7306       343.1330       259.3156
       211.4524       318.9021       256.9374       174.5484       211.6298
       324.0408       280.8694       124.5668       295.4258       345.4683
       161.8156       140.1124       286.1035       322.5383       158.5161
       110.8477       250.0689       267.0825       209.6708       290.6359
       212.3353       67.86462       199.8616       235.4520       62.70593
       139.0934       377.3966       198.8983       16.30042       270.0164
       250.1409       39.03699       231.2751       323.9595       123.1091
       139.0515       257.3314       60.74130       45.48914       325.1765
       252.7603       78.14038       279.7722       362.5087       133.6776
       148.6804       373.0863       302.9262       155.3627       286.8382
       365.6747       283.1936       167.6476       142.6335       326.4471
       311.3292       191.3461       315.8983       381.9205       212.1415
       235.0481       393.7021       364.3704       257.5908       202.7378
       335.7485       443.9120       295.7888       143.8536       186.6321
       335.5679       396.1935       322.2491       204.0079       217.9252
       345.4037       328.8295       273.6841       249.3773       296.7422
       402.6482       261.9214       127.4583       229.8384       286.6377
       332.6013       346.9970       186.0890       96.05322       279.9452
       385.9046       179.8000       94.84253       321.2405       332.8580
       186.2283       246.4357       215.2661       108.8782       209.9878
       190.0600       32.79626       108.3346       187.7012       57.30149
      -26.42944       83.58234       239.8311       87.65042      -102.8633
       21.81765       49.32094       5.625610       140.4488       149.8770
      -19.15181      -84.89450      -17.62994      -51.09952      -124.3671
      -146.8901      -177.9976       7.974243       32.13806      -316.3239
      -279.7812      -7.294067      -91.24048      -240.2523      -244.7588
      -270.0547      -381.0271      -462.9001      -327.3585      -136.1724
      -354.4729      -679.7000      -401.3477      -170.6755      -581.2208
      -669.1189      -324.9961      -326.6963      -489.5479      -338.3545
      -190.6226      -308.0940      -396.1489      -556.9590      -707.2720
      -579.9949      -415.6974      -436.0818      -635.6482      -703.2378
      -654.8507      -635.6605      -407.5570      -290.0087      -494.7288
      -623.7764      -592.7974      -554.5500      -983.6353      -1829.307
      -1848.171      -765.5098       153.0037      -422.9980      -1918.244
      -2271.935      -1575.818      -1197.549      -795.9108      -292.3044
       471.1133       900.0037      -276.1543      -586.7197       1400.507
       1854.581       465.6908       497.8286       89.72705      -2549.609
      -2802.432       37.38831       750.3110      -821.4902      -2073.932
      -1940.000      -1746.885      -1543.899      -978.3594       121.8987
       1649.351       202.5386      -1155.631      -142.4934      -114.7329
      -922.4139      -628.6748       851.5289       758.2961      -869.8684
      -906.5532      -634.7595      -1226.166      -742.0880       263.9625
       276.7737       121.0775       230.8572      -95.43018      -689.4279
      -865.2878      -300.8899       279.0935       694.4153       581.3372
      -438.1302      -325.8699       666.4069      -81.90063      -844.2467
       236.2825       761.3351       325.4213      -181.0083      -618.3936
      -616.7582      -72.45215       280.7229       318.6150       997.5574
       1004.089      -159.6216      -436.1195      -281.8540      -193.8291
       537.8210       1039.670       830.1390       57.98328      -602.6370
       2.714600       1163.247       1030.664      -89.43076      -218.1472
       518.3955       931.6182       906.9875       500.7953       169.8391
       452.0615       368.4423       187.1787       551.3782       722.4746
       369.9456      -83.85419       104.6979       133.7296      -46.50757
       656.8745       985.2180       321.4474       113.0652       429.3538
       741.2339       826.1913       356.9294       650.3257       1003.152
       221.0435       419.3528       1015.932       36.82037      -276.2075
       1154.152       1341.121       21.27856       48.22778       855.9490
       842.1506       650.4043       383.7589       234.4482       555.5078
       518.9858       114.9800       488.9609       981.6425       733.5239
       374.6052       152.5883       344.6909       499.1559       205.0764
       289.4177       754.7594       593.1659       110.7009       317.4585
       651.3613       529.7139       424.6595       388.7805       292.5596
       412.7524       682.7969       897.7102       743.0789       570.7576
       969.8877       673.7344      -313.7236      -565.2786      -12.19495
       453.0847       456.8236       497.7269       409.9206       183.2378
       274.7831       299.7933       136.1638       319.6221       506.9255
       90.85803       41.50781       671.7872       422.3479      -36.77869
       229.8157       338.7604       423.9098       312.8413      -4.667358
       161.1030       405.0125       151.3290      -253.0469      -162.7180
       216.8777       339.4032      -35.83099      -316.1167      -183.2115
      -291.0891      -247.7781       98.35229      -5.473450      -196.7140
      -158.1979      -214.6390      -35.26443       58.07373      -280.3473
      -70.47845       193.6101      -282.2207      -789.6897      -839.4432
      -642.3372      -308.4831      -126.7281      -166.3282      -228.0771
      -527.9766      -770.6151      -420.1248      -294.8685      -676.4302
      -640.5815      -482.1560      -689.2346      -675.0801      -353.1393
      -481.2104      -905.6240      -921.7749      -934.4890      -720.9333
      -213.1216      -168.6560      -383.9711      -526.1741      -617.3220
      -784.8757      -796.8558      -429.0164      -340.1677      -443.4336
      -487.6035      -570.7244      -515.4836      -756.7798      -966.6289
      -604.6855      -404.7593      -639.0745      -615.2306      -216.8185
      -192.5674      -417.5071      -564.3684      -635.0302      -440.5344
      -336.9971      -434.1611      -425.9076      -412.2485      -481.4166
      -358.8407      -154.2609      -284.2877      -386.4538      -93.58536
       163.1619      -104.6348      -445.5416      -404.2888      -368.9546
      -250.3535       89.07446       118.9502       42.37967      -2.245468
     -0.7979431      -64.84692      -268.0923      -119.8570       144.6983
     -0.1555786      -156.0586      -53.60474       121.5762       154.6711
       12.09457      -133.8517      -87.71522      -69.59192       61.98230
       370.4647       339.3279       25.63733      -206.1921      -124.6558
       169.0911       346.7698       300.2531       60.12079      -129.7137
      -124.2969       13.94455       75.49127       110.9552       147.2296
       428.5828       597.2192       215.4798       3.812561       232.3215
       309.2932       92.27601      -53.11237       174.3899       269.4611
       20.42715       8.468628       289.7626       323.4314       286.9293
       348.2682       248.8798       213.4845       273.8589       217.2872
       196.7290       72.09787       80.86737       208.4406       255.8015
       238.6773       60.72888       41.86115       296.9865       308.9740
       254.4148       416.4493       372.8617       182.4614       203.8442
       130.0863       27.91878       26.94643       11.86243       191.4196
       477.9217       350.2234       14.43607      -67.17941      -47.63631
      -105.0091       114.7587       416.1497       355.3694       52.43306
      -77.60388       152.9886       163.6520      -153.6881      -222.2736
      -192.4637      -228.6390      -32.54066       64.47183      -117.2385
      -100.5944      -87.19237      -73.90356       43.81325       17.33365
       71.04440       157.3651      -104.1596      -250.4059       19.07074
       63.32248      -178.9113      -132.6785      -122.8826      -453.4890
      -386.9823      -13.28424      -7.097168      -229.2292      -359.8096
      -335.0319      -226.4985      -110.6783      -162.9894      -163.4356
      -11.20157      -21.33029      -108.5945      -98.37180      -98.70251
